0000239200
449
SMRS40 RUMS 111200
AAXX 11121
22212 42598 73001 11237 21270 30004 40186 50001 86530 333 86623 91002
93510=
22312 41598 50507 11126 21167 30103 40127 54001 73631 85500 333 91014
91116=
22912 41967 83603 11109 21137 39935 49951 52013 77173 8802/ 91110=
22913 41996 83503 11104 21140 39925 49955 52024 77172 8802/=
22925 41466 73504 11104 21132 39794 49937 51023 77173 87700 333
86710=
26072 41572 83002 11053 21071 39954 49974 52022 77072 885// 333 88624
93703=
26157 41597 83203 11017 21031 39953 40003 52017 72682 883//=
26359 41581 73004 10004 21010 39874 40008 52023 72682 87900 333
91112=
26029 27/43 /1401 11001 21010 39971 40000 58001 78588 333 10007 21010
60007=
26045 27383 83104 11018 21038 30001 40003 53013 72185 88/// 333 11003
21021 60007 88/10=
26046 27350 83402 11028 21037 39911 40003 53014 77187 88/// 333 11020
21030 60007 88/07=
26058 27370 83404 11031 21047 39960 49996 52017 70080 88/// 333 11021
21034 60007 88/10 91108=
26124 27226 82202 10001 20001 39973 40004 50000 77187 88/// 333 10003
21004 69937 88/04=
26134 27250 82000 11007 21007 39939 40005 50002 77187 88/// 333 11001
21012 60007 88/06=
26135 27373 70500 11009 21021 39933 40008 50006 72480 87/// 333 11001
21012 60007 87/07=
26141 21358 83202 11027 21034 39855 40005 51010 78583 889// 333 11020
21029 60007 88908=
26145 27481 83101 11017 21032 39967 40008 53017 78588 88/// 333 11008
21020 60007 88/11 91108=
26229 43/// /2304 10016 20004 30009 40018 52002 333 91110=
26233 27270 82602 11001 21006 39904 40011 52007 77187 88/// 333 10004
21009 60007 88/05=
26238 43/// /2703 10011 21004 39934 40020 52007 333 91110=
26314 41498 82405 10052 20041 30007 40011 57015 78082 889// 333 84710
91110=
26318 43/// /2004 10018 20013 39921 40021 57016=
26324 43/// /2103 10022 20010 30008 40015 57017=
26326 43/// /2403 10017 21006 30019 40030 52002=
26335 43/// /2506 10002 21010 39875 40028 52010 333 91111=
26425 43/// /2102 10024 20002 30026 40033 57009=
26531 /1470 82703 10015 21002 39971 40048 51001 70276 885// 333 88616
91006 91110=
26633 /1470 72804 10012 21020 39928 40059 52006 70172 87600 333 87715
91008 91109=
26643 41468 72805 10008 21012 39889 40052 51018 77072 875// 333 87618
91010 91113=
26653 41559 73005 10014 21008 39869 40032 52025 78587 87900 333 87923
91011 91114=
26668 NIL=
0000031100
450
USMV01 VRMM 111200
TTAA 61111 43599
99010 30056 04003 00093 26256 00506 92776 20631 30003 85503
15811 33507 70138 08005 31007 50585 05364 04521 40756 16168
06534 30967 31756 11521 25094 41940 11022 20241 54157 13038
15419 68359 09029 10654 82942 05006
88999 77999 31313 49908 81106=

0000045700
451
SMRS41 RUMS 111200
AAXX 11121
22525 41494 80607 11089 21107 39998 40011 54001 77573 8802/ 333 91013
91114=
22727 41962 83504 11127 21162 39919 49969 52008 77173 8807/ 333 91110
92980=
26069 42497 83203 11055 21069 39870 49983 52023 889// 333 85915=
26099 42/// /0000 11075 21086 39699 49920 52032=
26179 41497 83405 11040 21066 39939 49971 52027 70272 885// 333 88612
91112=
26268 42/// /2805 11014 21033 39909 49990 52032=
0000127400
452
SMRS42 RUMS 111200
AAXX 11121
22003 42/// /2207 11067 21097 30162 40176 50000 333 91009 91110=
22004 41597 70000 11194 21219 30071 40197 57004 78587 87900 333
93508=
22012 42599 63608 11121 21168 30158 40171 57003 83511 333 91009
91111=
22100 42/// /0000 11349 21388 3//// 4//// 5////=
22101 42298 72401 11253 21277 30062 40203 54001 85605 333 85705 91001
93508=
22105 42998 00301 11288 21318 30080 40208 51003 333 91003=
22133 NIL=
22140 42598 60811 11097 21118 30139 40155 55000 86500 333 91014
91115=
22213 42584 21601 11266 21292 39976 40163 57001 81571 333 91002
93503=
22249 42999 80604 11156 21180 39935 40135 54000 8801/ 333 91010
91112=
22305 NIL=
22413 41998 50406 11122 21157 39968 40073 58003 73673 82032 333 91011
91112=
22717 41596 80204 11117 21144 39771 49972 52009 77173 8652/ 333
86620=
22805 41598 83603 11066 21094 39960 49980 53012 70232 885// 333 91110
93702=
22829 42/// /0000 11098 21110 39879 49931 52018=
22891 41468 83402 11074 21095 39892 49981 52017 77087 886// 333
88715=
22897 42/// /0402 11061 21106 39979 49993 53018=
26067 42597 73204 11056 21067 39827 49990 52020 87900 333 86920=
26080 41499 83305 11050 21067 39924 49957 52025 70272 886// 333 88712
91010 91113=
0000634100
453
SOFA02 AMMC 111225
KKYY 11014 0614/ 324356 036741
88872 84664 20004 32614 43547 20006 32594 43546 20008 32590 43547 
20010 32589 43547 20012 32586 43547 20014 32585 43547 
20016 32585 43547 20018 32583 43547 20020 32581 43547 
20022 32571 43547 20024 32553 43548 20026 32527 43548 
20028 32471 43549 20030 32456 43551 20032 32448 43551 
20034 32441 43551 20035 32439 43551 20037 32435 43551 
20039 32431 43551 20041 32426 43550 20043 32419 43550 
20045 32405 43549 20047 32384 43550 20049 32368 43551 
20051 32357 43551 20053 32351 43551 20055 32340 43552 
20057 32315 43551 20059 32288 43549 20061 32256 43548 
20063 32251 43548 20065 32244 43548 20067 32231 43547 
20069 32218 43548 20071 32190 43546 20073 32174 43547 
20075 32154 43548 20077 32145 43549 20079 32136 43549 
20081 32126 43549 20083 32119 43549 20085 32112 43550 
20087 32108 43550 20089 32101 43551 20091 32095 43551 
20093 32077 43552 20095 32069 43552 20097 32062 43551 
20099 32046 43551 20101 32031 43551 20103 32022 43552 
20105 32007 43553 20107 31988 43554 20109 31981 43554 
20111 31967 43555 20113 31950 43555 20115 31940 43555 
20117 31918 43555 20119 31908 43558 20121 31903 43562 
20123 31900 43563 20125 31885 43564 20127 31865 43564 
20129 31833 43564 20131 31816 43563 20133 31809 43563 
20135 31805 43563 20137 31801 43563 20139 31792 43563 
20141 31783 43562 20143 31778 43562 20145 31774 43562 
20147 31767 43561 20149 31755 43561 20151 31748 43560 
20153 31744 43560 20155 31740 43560 20157 31733 43560 
20159 31730 43560 20161 31725 43560 20163 31721 43560 
20165 31720 43560 20167 31719 43560 20169 31718 43560 
20171 31718 43560 20173 31717 43560 20175 31717 43560 
20177 31716 43560 20179 31713 43560 20180 31712 43560 
20182 31711 43560 20184 31710 43560 20186 31708 43560 
20188 31704 43559 20190 31698 43559 20192 31695 43559 
20194 31693 43558 20196 31692 43558 20198 31691 43558 
20200 31689 43558 20202 31685 43558 20204 31681 43557 
20206 31677 43557 20208 31676 43557 20210 31673 43557 
20212 31667 43555 20214 31660 43554 20216 31649 43552 
20218 31637 43550 20220 31622 43548 20222 31612 43548 
20224 31606 43547 20226 31601 43547 20228 31594 43546 
20230 31585 43544 20232 31580 43544 20234 31573 43544 
20236 31563 43542 20238 31553 43541 20240 31543 43539 
20242 31526 43536 20244 31518 43535 20246 31513 43534 
20248 31514 43535 20250 31520 43537 20252 31520 43538 
20254 31523 43541 20256 31524 43542 20258 31528 43543 
20260 31528 43543 20262 31521 43543 20264 31515 43542 
20266 31505 43540 20268 31494 43538 20270 31487 43538 
20272 31481 43537 20274 31480 43538 20276 31482 43540 
20278 31485 43542 20280 31484 43542 20282 31482 43542 
20284 31474 43541 20286 31471 43541 20288 31466 43541 
20290 31456 43540 20292 31452 43540 20294 31445 43539 
20296 31440 43539 20298 31437 43538 20302 31428 43538 
20306 31424 43537 20310 31420 43537 20313 31413 43536 
20317 31409 43536 20321 31405 43535 20325 31400 43535 
20329 31387 43533 20333 31376 43532 20337 31368 43531 
20341 31363 43531 20345 31358 43530 20349 31351 43529 
20353 31347 43529 20357 31340 43528 20361 31330 43527 
20365 31326 43526 20369 31325 43526 20373 31322 43526 
20377 31320 43525 20381 31311 43524 20385 31300 43523 
20389 31295 43522 20393 31294 43522 20397 31293 43522 
20401 31291 43521 20405 31283 43520 20409 31278 43520 
20413 31275 43519 20417 31270 43518 20421 31264 43518 
20425 31255 43516 20429 31247 43515 20432 31237 43513 
20436 31224 43511 20440 31216 43510 20444 31210 43509 
20448 31203 43508 20452 31201 43508 20456 31194 43507 
20460 31187 43506 20464 31181 43505 20468 31176 43504 
20472 31169 43503 20476 31162 43502 20480 31157 43502 
20484 31152 43501 20488 31147 43500 20492 31136 43499 
20496 31133 43498 20500 31129 43498 20504 31124 43497 
20508 31120 43496 20512 31117 43496 20516 31111 43495 
20520 31106 43494 20524 31102 43494 20528 31097 43493 
20532 31090 43492 20536 31087 43492 20540 31083 43491 
20544 31080 43490 20547 31074 43490 20551 31069 43489 
20555 31068 43489 20559 31067 43489 20563 31063 43489 
20567 31060 43489 20571 31055 43488 20575 31054 43488 
20579 31047 43487 20583 31039 43486 20587 31032 43485 
20591 31021 43483 20595 31011 43482 20599 31008 43482 
20603 31005 43481 20607 31002 43481 20611 30999 43481 
20615 30996 43480 20619 30986 43479 20623 30976 43478 
20627 30964 43477 20631 30953 43475 20635 30947 43474 
20639 30940 43474 20643 30934 43473 20647 30924 43472 
20651 30915 43471 20654 30908 43470 20658 30910 43471 
20662 30907 43471 20666 30903 43471 20670 30896 43470 
20674 30888 43469 20678 30881 43468 20682 30871 43467 
20686 30863 43467 20690 30853 43466 20694 30847 43466 
20698 30842 43465 20702 30841 43465 20706 30837 43465 
20710 30833 43464 20714 30826 43462 20718 30821 43462 
20722 30819 43462 20726 30814 43461 20730 30802 43460 
20734 30796 43460 20738 30794 43460 20742 30788 43460 
20746 30788 43460 20750 30786 43460 20753 30782 43459 
20757 30773 43459 20761 30767 43458 20765 30756 43457 
20769 30747 43456 20773 30741 43455 20777 30735 43455 
20781 30731 43454 20785 30722 43455 20789 30717 43454 
20793 30713 43454 20797 30711 43454 20801 30705 43453 
20805 30697 43453 20809 30688 43452 20813 30678 43451 
20817 30666 43450 20821 30659 43449 20825 30649 43449 
20829 30642 43450 20833 30638 43450 20837 30637 43451 
20841 30634 43450 20845 30625 43449 20849 30609 43449 
20852 30605 43449 20856 30607 43450 20860 30612 43451 
20864 30608 43451 20868 30609 43452 20872 30602 43451 
20876 30596 43450 20880 30603 43452 20884 30602 43453 
20888 30601 43453 20892 30600 43454 20896 30598 43454 
20900 30600 43455 20904 30599 43455 20908 30597 43455 
20912 30594 43455 20916 30586 43455 20920 30586 43455 
20924 30583 43455 20928 30568 43454 20932 30568 43455 
20936 30565 43455 20940 30561 43455 20943 30552 43454 
20947 30550 43454 20951 30545 43453 20955 30543 43453 
20959 30539 43453 20963 30535 43452 20967 30538 43454 
20971 30535 43454 20975 30531 43453 20979 30522 43452 
20983 30515 43452 20987 30510 43452 20991 30509 43453 
20995 30514 43455 20999 30526 43457 21003 30534 43460 
21007 30533 43460 21010 30531 43460 
Q1901336=
0000630200
454
SOFA02 AMMC 111223
KKYY 11014 0706/ 324074 036918
88872 84664 20004 32734 43535 20006 32722 43536 20008 32703 43541 
20010 32689 43542 20012 32663 43542 20014 32642 43542 
20016 32623 43542 20018 32545 43550 20020 32507 43551 
20022 32478 43551 20024 32448 43550 20026 32427 43550 
20028 32406 43549 20030 32398 43549 20032 32394 43549 
20034 32381 43549 20036 32369 43550 20038 32353 43552 
20040 32344 43552 20042 32336 43552 20044 32329 43551 
20046 32310 43550 20048 32289 43552 20050 32271 43552 
20052 32261 43552 20054 32253 43552 20056 32235 43552 
20058 32226 43551 20060 32204 43550 20062 32197 43551 
20064 32186 43552 20066 32175 43552 20068 32164 43552 
20070 32158 43553 20072 32153 43553 20074 32148 43553 
20076 32137 43552 20078 32115 43550 20080 32101 43551 
20081 32094 43552 20083 32089 43552 20085 32082 43552 
20087 32072 43552 20089 32057 43552 20091 32035 43551 
20093 32021 43551 20095 32010 43552 20097 32006 43552 
20099 32001 43556 20101 31988 43557 20103 31985 43558 
20105 31973 43558 20107 31958 43559 20109 31946 43559 
20111 31936 43559 20113 31922 43560 20115 31909 43560 
20117 31898 43560 20119 31896 43560 20121 31895 43560 
20123 31886 43560 20125 31873 43561 20127 31866 43561 
20129 31853 43561 20131 31845 43561 20133 31834 43561 
20135 31826 43561 20137 31824 43560 20139 31819 43560 
20141 31802 43557 20143 31773 43554 20145 31766 43553 
20147 31769 43555 20149 31766 43555 20151 31754 43556 
20153 31750 43556 20155 31745 43556 20157 31737 43556 
20159 31728 43555 20161 31720 43555 20163 31716 43555 
20165 31713 43555 20167 31698 43554 20169 31696 43554 
20171 31695 43554 20173 31694 43554 20175 31680 43552 
20177 31673 43552 20179 31668 43552 20181 31663 43551 
20183 31653 43550 20185 31645 43549 20187 31634 43547 
20189 31624 43547 20191 31625 43548 20193 31626 43550 
20195 31627 43551 20197 31621 43551 20199 31619 43551 
20201 31616 43551 20203 31611 43551 20205 31605 43550 
20207 31601 43550 20209 31594 43550 20211 31588 43549 
20213 31584 43549 20215 31579 43548 20217 31577 43548 
20219 31573 43547 20220 31566 43546 20222 31558 43545 
20224 31548 43544 20226 31540 43543 20228 31530 43542 
20230 31525 43542 20232 31522 43543 20234 31519 43544 
20236 31520 43545 20238 31519 43546 20240 31517 43545 
20242 31514 43545 20244 31511 43545 20246 31507 43545 
20248 31503 43545 20250 31501 43544 20252 31500 43544 
20254 31494 43544 20256 31487 43543 20258 31483 43543 
20260 31480 43543 20262 31475 43542 20264 31469 43542 
20266 31465 43542 20268 31464 43541 20270 31463 43541 
20272 31455 43540 20274 31445 43540 20276 31435 43539 
20278 31431 43539 20280 31428 43538 20282 31425 43538 
20284 31422 43538 20286 31419 43537 20288 31414 43537 
20290 31408 43536 20292 31406 43536 20294 31398 43535 
20296 31394 43535 20298 31392 43534 20302 31388 43534 
20306 31385 43534 20310 31373 43532 20314 31369 43532 
20318 31365 43531 20322 31358 43531 20326 31350 43530 
20330 31346 43529 20334 31340 43528 20338 31337 43528 
20342 31335 43528 20346 31329 43527 20349 31322 43526 
20353 31318 43526 20357 31317 43525 20361 31311 43524 
20365 31307 43524 20369 31302 43523 20373 31293 43522 
20377 31288 43521 20381 31281 43520 20385 31277 43519 
20389 31273 43519 20393 31266 43518 20397 31257 43516 
20401 31252 43516 20405 31247 43515 20409 31239 43514 
20413 31232 43512 20417 31228 43512 20421 31217 43510 
20425 31213 43510 20429 31208 43509 20433 31199 43508 
20437 31190 43506 20441 31184 43506 20445 31181 43505 
20449 31177 43504 20453 31173 43504 20457 31168 43503 
20461 31162 43502 20465 31158 43502 20468 31157 43502 
20472 31155 43501 20476 31151 43501 20480 31144 43500 
20484 31139 43499 20488 31128 43497 20492 31116 43496 
20496 31107 43494 20500 31103 43494 20504 31098 43493 
20508 31096 43493 20512 31089 43492 20516 31086 43491 
20520 31079 43491 20524 31076 43490 20528 31067 43489 
20532 31065 43489 20536 31060 43488 20540 31052 43487 
20544 31046 43486 20548 31037 43485 20552 31029 43484 
20556 31022 43483 20560 31018 43483 20564 31016 43483 
20568 31009 43482 20572 31007 43482 20576 31003 43482 
20579 30996 43481 20583 30990 43480 20587 30987 43480 
20591 30985 43480 20595 30979 43479 20599 30975 43478 
20603 30968 43478 20607 30964 43477 20611 30957 43477 
20615 30954 43476 20619 30953 43476 20623 30950 43476 
20627 30948 43476 20631 30946 43475 20635 30944 43475 
20639 30938 43475 20643 30937 43475 20647 30936 43475 
20651 30933 43475 20655 30928 43474 20659 30918 43472 
20663 30914 43472 20667 30912 43471 20671 30909 43471 
20675 30895 43469 20679 30880 43468 20683 30871 43467 
20686 30866 43467 20690 30866 43468 20694 30865 43468 
20698 30860 43467 20702 30853 43467 20706 30839 43465 
20710 30834 43465 20714 30822 43463 20718 30813 43462 
20722 30798 43461 20726 30793 43460 20730 30777 43458 
20734 30772 43458 20738 30770 43458 20742 30768 43458 
20746 30765 43458 20750 30759 43458 20754 30758 43458 
20758 30752 43458 20762 30743 43456 20766 30723 43454 
20770 30718 43454 20774 30714 43454 20778 30712 43454 
20782 30705 43453 20785 30686 43453 20789 30682 43452 
20793 30674 43451 20797 30670 43451 20801 30660 43451 
20805 30656 43451 20809 30650 43450 20813 30643 43450 
20817 30639 43450 20821 30633 43450 20825 30624 43450 
20829 30624 43451 20833 30614 43450 20837 30612 43450 
20841 30600 43449 20845 30594 43449 20849 30592 43450 
20853 30586 43450 20857 30577 43449 20861 30572 43448 
20865 30566 43448 20869 30566 43449 20873 30564 43449 
20877 30562 43450 20880 30562 43450 20884 30563 43450 
20888 30563 43451 20892 30562 43451 20896 30561 43451 
20900 30560 43452 20904 30557 43452 20908 30556 43453 
20912 30555 43453 20916 30552 43453 20920 30544 43453 
20924 30537 43452 20928 30535 43452 20932 30532 43452 
20936 30532 43453 20940 30529 43452 20944 30524 43452 
20948 30523 43453 20952 30521 43453 20956 30507 43452 
20960 30504 43452 20964 30503 43452 20968 30503 43452 
20971 30501 43452 20975 30512 43455 20979 30521 43457 
20983 30526 43459 20987 30530 43460 20991 30535 43461 
20995 30537 43462 20999 30533 43461 21003 30532 43462 
Q1901337=
0000736700
455
SOFE02 AMMC 111221
KKYY 11014 0610/ 305880 097505
88872 84664 20004 32915 43456 20006 32913 43456 20008 32909 43457 
20010 32909 43457 20012 32909 43457 20014 32908 43457 
20016 32908 43458 20018 32906 43459 20020 32905 43461 
20022 32904 43462 20024 32903 43463 20026 32902 43464 
20028 32901 43464 20030 32900 43464 20032 32899 43464 
20034 32898 43464 20036 32898 43464 20038 32898 43464 
20040 32898 43464 20042 32898 43464 20044 32897 43464 
20046 32896 43464 20048 32896 43464 20050 32896 43464 
20052 32896 43464 20054 32895 43463 20056 32894 43463 
20058 32894 43463 20060 32890 43462 20062 32881 43461 
20064 32868 43460 20066 32860 43461 20068 32855 43461 
20070 32852 43462 20072 32845 43462 20074 32834 43462 
20076 32810 43463 20078 32783 43464 20080 32746 43469 
20082 32719 43477 20084 32692 43478 20086 32677 43479 
20088 32655 43479 20090 32640 43479 20092 32627 43481 
20094 32603 43482 20096 32584 43483 20098 32578 43483 
20100 32566 43484 20102 32541 43486 20104 32528 43487 
20106 32521 43488 20108 32511 43490 20110 32497 43492 
20112 32485 43494 20113 32457 43500 20116 32420 43507 
20118 32367 43512 20120 32336 43510 20122 32283 43507 
20123 32233 43508 20125 32183 43508 20127 32146 43506 
20129 32143 43505 20131 32142 43505 20134 32131 43504 
20135 32057 43500 20137 32025 43498 20139 31996 43496 
20141 31941 43499 20143 31894 43503 20145 31874 43505 
20147 31846 43507 20149 31820 43509 20151 31773 43513 
20153 31754 43513 20155 31740 43514 20157 31731 43514 
20159 31724 43514 20161 31711 43514 20163 31692 43514 
20165 31672 43513 20167 31643 43512 20169 31635 43512 
20171 31624 43512 20173 31610 43512 20175 31602 43512 
20177 31597 43512 20179 31589 43512 20181 31572 43511 
20183 31557 43511 20185 31541 43510 20187 31531 43509 
20189 31520 43509 20191 31508 43509 20193 31483 43509 
20195 31460 43509 20197 31446 43508 20199 31438 43508 
20201 31424 43508 20203 31421 43508 20205 31419 43508 
20207 31415 43508 20209 31411 43507 20211 31392 43506 
20213 31379 43505 20215 31377 43506 20217 31375 43507 
20219 31373 43506 20221 31371 43506 20223 31364 43507 
20225 31360 43506 20227 31352 43505 20229 31341 43505 
20231 31331 43504 20233 31324 43503 20235 31320 43503 
20237 31317 43503 20239 31317 43503 20241 31315 43502 
20243 31314 43502 20245 31312 43502 20247 31304 43502 
20249 31301 43502 20251 31301 43502 20253 31297 43501 
20255 31295 43501 20257 31289 43501 20259 31285 43500 
20261 31277 43500 20263 31271 43499 20265 31268 43499 
20267 31264 43499 20269 31262 43498 20271 31260 43498 
20273 31258 43498 20275 31256 43499 20276 31255 43499 
20278 31254 43499 20280 31253 43499 20282 31254 43499 
20284 31254 43500 20286 31254 43500 20288 31254 43500 
20290 31254 43500 20292 31251 43500 20294 31229 43496 
20296 31211 43492 20298 31197 43490 20300 31184 43489 
20304 31166 43489 20308 31149 43488 20312 31138 43488 
20316 31132 43488 20320 31127 43488 20324 31122 43487 
20328 31123 43488 20332 31133 43492 20336 31127 43493 
20340 31108 43490 20344 31099 43489 20348 31098 43489 
20352 31098 43489 20356 31089 43489 20360 31082 43488 
20364 31083 43489 20368 31075 43489 20372 31070 43489 
20376 31068 43489 20380 31064 43488 20384 31058 43488 
20388 31056 43488 20392 31052 43488 20396 31052 43489 
20400 31053 43491 20404 31054 43491 20408 31055 43491 
20412 31053 43491 20415 31057 43493 20419 31059 43494 
20423 31053 43493 20427 31052 43494 20431 31051 43494 
20435 31047 43494 20439 31044 43493 20443 31041 43493 
20447 31038 43493 20451 31034 43493 20455 31029 43492 
20459 31025 43491 20463 31019 43491 20467 31011 43491 
20471 31003 43491 20475 30994 43490 20479 30987 43489 
20483 30979 43488 20487 30969 43487 20491 30964 43486 
20495 30962 43487 20499 30955 43487 20503 30947 43486 
20507 30940 43485 20511 30933 43485 20515 30929 43485 
20519 30928 43485 20523 30927 43486 20527 30919 43485 
20531 30914 43485 20535 30905 43484 20539 30901 43484 
20542 30896 43484 20546 30902 43486 20550 30906 43487 
20554 30905 43487 20558 30903 43486 20562 30894 43485 
20566 30879 43483 20570 30872 43482 20574 30868 43483 
20578 30863 43483 20582 30860 43483 20586 30857 43483 
20590 30855 43483 20594 30851 43483 20598 30847 43483 
20602 30851 43485 20606 30851 43485 20610 30842 43483 
20614 30840 43483 20618 30837 43483 20622 30832 43483 
20626 30840 43485 20630 30837 43485 20634 30830 43485 
20638 30822 43484 20642 30821 43485 20646 30820 43485 
20650 30814 43484 20654 30810 43484 20658 30812 43485 
20661 30810 43485 20665 30801 43484 20669 30800 43484 
20673 30799 43484 20677 30797 43484 20681 30795 43484 
20685 30790 43484 20689 30787 43484 20693 30788 43484 
20697 30787 43485 20701 30785 43485 20705 30781 43484 
20709 30772 43483 20713 30767 43483 20717 30767 43484 
20721 30764 43484 20725 30760 43483 20729 30755 43483 
20733 30750 43482 20737 30754 43484 20741 30758 43485 
20745 30757 43485 20749 30755 43485 20753 30752 43485 
20757 30749 43485 20761 30747 43485 20765 30746 43485 
20768 30744 43485 20772 30739 43485 20776 30738 43485 
20780 30737 43485 20784 30736 43485 20788 30732 43485 
20792 30728 43485 20796 30725 43484 20800 30719 43483 
20804 30706 43482 20808 30702 43481 20812 30699 43481 
20816 30694 43480 20820 30691 43480 20824 30688 43480 
20828 30681 43479 20832 30680 43479 20836 30676 43479 
20840 30671 43479 20844 30666 43478 20848 30664 43479 
20852 30662 43478 20856 30657 43478 20860 30651 43478 
20864 30649 43477 20868 30642 43477 20872 30639 43477 
20875 30636 43476 20879 30634 43476 20883 30631 43476 
20887 30628 43476 20891 30625 43476 20895 30624 43476 
20899 30621 43476 20903 30618 43476 20907 30616 43476 
20911 30614 43476 20915 30611 43476 20919 30609 43476 
20923 30609 43476 20927 30607 43476 20931 30604 43476 
20935 30603 43476 20939 30602 43476 20943 30601 43476 
20947 30599 43476 20951 30599 43476 20955 30597 43476 
20959 30593 43476 20963 30591 43476 20967 30590 43476 
20971 30587 43476 20974 30586 43476 20978 30584 43476 
20982 30586 43477 20986 30583 43477 20990 30581 43477 
20994 30576 43477 20998 30573 43476 21002 30571 43477 
21006 30568 43477 21010 30565 43477 21014 30564 43477 
21018 30563 43477 21022 30562 43477 21026 30558 43476 
21030 30557 43476 21034 30556 43476 21038 30555 43476 
21042 30553 43476 21046 30552 43476 21050 30552 43476 
21054 30550 43476 21058 30548 43476 21062 30548 43476 
21066 30547 43476 21069 30544 43476 21073 30543 43476 
21077 30540 43476 21081 30538 43476 21085 30537 43476 
21089 30536 43476 21093 30534 43477 21097 30533 43477 
21101 30531 43477 21105 30530 43477 21109 30528 43477 
21113 30527 43477 21117 30526 43477 21121 30525 43477 
21125 30522 43477 21129 30519 43477 21133 30520 43477 
21137 30518 43477 21141 30517 43478 21145 30516 43478 
21149 30513 43477 21153 30510 43477 21157 30510 43477 
21160 30509 43477 21164 30507 43477 21168 30505 43477 
21172 30503 43477 21176 30502 43477 21180 30500 43477 
21184 30501 43478 21188 30500 43478 21192 30497 43477 
21196 30496 43477 21200 30491 43477 21204 30487 43477 
21208 30484 43476 21212 30483 43477 21216 30482 43476 
21220 30482 43477 21223 30481 43477 
Q5903908=
0001095800
456
SOFE02 AMMC 111222
KKYY 11014 0850/ 358479 118730
88872 84664 20004 30237 43387 20006 30237 43387 20008 30238 43387 
20010 30238 43387 20012 30238 43387 20014 30232 43387 
20016 30227 43387 20018 30224 43387 20020 30223 43387 
20022 30222 43387 20024 30222 43387 20026 30221 43387 
20028 30221 43387 20030 30221 43387 20032 30221 43387 
20034 30220 43387 20036 30220 43387 20038 30220 43387 
20040 30219 43387 20042 30219 43387 20044 30217 43387 
20046 30212 43387 20048 30208 43386 20050 30201 43386 
20052 30191 43386 20054 30179 43386 20056 30148 43387 
20058 30133 43387 20060 30116 43387 20062 30104 43387 
20064 30074 43389 20065 30066 43389 20068 30063 43389 
20069 30059 43389 20071 30055 43389 20073 30052 43389 
20075 30049 43389 20077 30047 43390 20079 30043 43390 
20081 30041 43390 20083 30040 43390 20085 30039 43390 
20087 30038 43390 20089 30037 43390 20091 30035 43390 
20093 30031 43391 20095 30027 43391 20097 30027 43391 
20099 30025 43391 20101 30023 43391 20103 30023 43391 
20105 30021 43392 20107 30018 43392 20109 30014 43392 
20111 30016 43393 20113 30024 43394 20115 30027 43395 
20117 30031 43397 20119 30032 43397 20121 30033 43397 
20123 30037 43398 20125 30042 43399 20127 30049 43401 
20129 30052 43402 20131 30053 43402 20133 30056 43403 
20135 30059 43403 20137 30066 43405 20139 30076 43406 
20141 30079 43407 20143 30078 43408 20145 30085 43409 
20147 30091 43410 20149 30092 43411 20151 30101 43412 
20153 30114 43414 20155 30127 43417 20157 30136 43418 
20159 30137 43418 20161 30144 43419 20163 30149 43420 
20164 30152 43421 20166 30157 43422 20168 30159 43422 
20170 30161 43422 20172 30160 43422 20174 30153 43422 
20176 30150 43422 20178 30150 43423 20180 30164 43424 
20182 30171 43425 20184 30171 43425 20186 30172 43426 
20188 30172 43426 20190 30173 43426 20192 30178 43427 
20194 30179 43428 20196 30179 43428 20198 30179 43428 
20200 30185 43430 20202 30188 43431 20204 30192 43431 
20206 30191 43431 20208 30189 43432 20210 30190 43432 
20212 30192 43433 20214 30194 43433 20216 30196 43434 
20218 30197 43434 20220 30197 43434 20222 30200 43435 
20224 30202 43436 20226 30202 43436 20228 30203 43436 
20230 30204 43437 20232 30204 43437 20234 30205 43437 
20236 30207 43438 20238 30207 43438 20240 30208 43438 
20242 30208 43439 20244 30208 43439 20246 30209 43439 
20248 30211 43440 20250 30211 43440 20252 30212 43441 
20254 30213 43441 20256 30215 43442 20258 30215 43442 
20260 30215 43442 20262 30216 43443 20263 30217 43443 
20265 30218 43443 20267 30218 43443 20269 30219 43444 
20271 30219 43444 20273 30219 43444 20275 30219 43444 
20277 30220 43444 20279 30220 43444 20281 30220 43445 
20283 30221 43445 20285 30221 43445 20287 30221 43445 
20289 30221 43445 20291 30221 43445 20293 30221 43446 
20295 30222 43446 20297 30222 43446 20299 30222 43446 
20301 30222 43447 20305 30222 43447 20309 30223 43447 
20313 30223 43448 20317 30223 43448 20321 30223 43449 
20325 30223 43449 20329 30223 43449 20333 30224 43450 
20337 30224 43450 20341 30224 43451 20345 30225 43451 
20349 30225 43451 20352 30225 43451 20356 30225 43452 
20360 30225 43452 20364 30225 43452 20368 30225 43452 
20372 30225 43453 20376 30224 43453 20380 30224 43453 
20384 30224 43453 20388 30224 43454 20392 30224 43454 
20396 30223 43454 20400 30223 43454 20404 30223 43455 
20408 30223 43455 20412 30223 43455 20416 30223 43455 
20420 30224 43455 20424 30223 43455 20428 30223 43456 
20432 30223 43456 20436 30223 43456 20440 30223 43457 
20443 30223 43457 20447 30223 43457 20451 30223 43458 
20455 30223 43458 20459 30224 43458 20463 30224 43458 
20467 30224 43459 20471 30223 43459 20475 30223 43459 
20479 30223 43459 20483 30223 43459 20487 30223 43460 
20491 30223 43460 20495 30223 43460 20499 30223 43460 
20503 30223 43461 20507 30223 43461 20511 30223 43461 
20515 30222 43461 20519 30222 43461 20523 30221 43461 
20526 30221 43462 20530 30222 43462 20534 30221 43462 
20538 30221 43462 20542 30220 43462 20546 30220 43463 
20550 30220 43463 20554 30219 43463 20558 30219 43463 
20562 30219 43463 20566 30219 43463 20570 30219 43464 
20574 30219 43464 20578 30219 43464 20582 30218 43464 
20586 30217 43464 20590 30217 43464 20594 30217 43465 
20598 30217 43465 20602 30217 43465 20606 30217 43465 
20609 30217 43465 20613 30216 43465 20617 30216 43465 
20621 30216 43465 20625 30216 43466 20629 30216 43466 
20633 30217 43466 20637 30217 43466 20641 30217 43466 
20645 30218 43467 20649 30218 43467 20653 30218 43467 
20657 30217 43467 20661 30217 43467 20665 30218 43467 
20669 30218 43467 20673 30217 43467 20677 30217 43467 
20681 30217 43467 20685 30216 43467 20688 30216 43468 
20692 30215 43468 20696 30215 43468 20700 30215 43468 
20704 30215 43468 20708 30215 43468 20712 30215 43468 
20716 30215 43468 20720 30214 43468 20724 30214 43469 
20728 30214 43469 20732 30214 43469 20736 30214 43469 
20740 30214 43469 20744 30213 43469 20748 30213 43469 
20752 30213 43469 20756 30212 43469 20760 30212 43469 
20764 30212 43469 20767 30212 43469 20771 30211 43469 
20775 30211 43469 20779 30211 43470 20783 30211 43470 
20787 30211 43470 20791 30211 43470 20795 30210 43470 
20799 30210 43470 20803 30210 43470 20807 30210 43470 
20811 30209 43470 20815 30209 43470 20819 30209 43470 
20823 30209 43470 20827 30208 43471 20831 30208 43471 
20835 30208 43471 20839 30207 43471 20842 30207 43471 
20846 30207 43471 20850 30207 43471 20854 30207 43471 
20858 30207 43471 20862 30206 43471 20866 30206 43471 
20870 30206 43471 20874 30205 43471 20878 30205 43472 
20882 30205 43472 20886 30205 43472 20890 30204 43472 
20894 30204 43472 20898 30204 43472 20902 30204 43472 
20906 30204 43472 20910 30204 43472 20913 30203 43472 
20917 30203 43472 20921 30203 43472 20925 30203 43472 
20929 30203 43472 20933 30203 43472 20937 30202 43472 
20941 30202 43472 20945 30202 43472 20949 30202 43472 
20953 30202 43472 20957 30201 43472 20961 30201 43472 
20965 30201 43473 20969 30201 43473 20973 30201 43473 
20977 30200 43473 20981 30200 43473 20984 30200 43473 
20988 30200 43473 20992 30200 43473 20996 30199 43473 
21000 30199 43473 21004 30199 43473 21008 30198 43473 
21012 30198 43473 21016 30198 43473 21020 30198 43473 
21024 30198 43473 21028 30198 43473 21032 30198 43473 
21036 30198 43473 21040 30198 43473 21044 30197 43473 
21048 30197 43473 21052 30197 43473 21055 30197 43473 
21059 30197 43473 21063 30196 43473 21067 30196 43473 
21071 30196 43473 21075 30195 43473 21079 30195 43473 
21083 30195 43473 21087 30194 43473 21091 30193 43473 
21095 30193 43474 21099 30193 43474 21103 30192 43474 
21107 30192 43474 21111 30192 43474 21115 30192 43474 
21119 30191 43474 21122 30191 43474 21126 30191 43474 
21130 30191 43474 21134 30191 43474 21138 30190 43474 
21142 30190 43474 21146 30189 43474 21150 30189 43474 
21154 30189 43474 21158 30188 43474 21162 30188 43474 
21166 30188 43474 21170 30188 43474 21174 30187 43474 
21178 30187 43474 21182 30187 43474 21186 30186 43474 
21189 30186 43474 21193 30186 43474 21197 30186 43474 
21201 30185 43474 21205 30185 43474 21209 30184 43474 
21213 30184 43474 21217 30184 43474 21221 30183 43474 
21225 30183 43474 21229 30183 43474 21233 30183 43474 
21237 30182 43474 21241 30182 43474 21245 30181 43474 
21249 30181 43474 21252 30181 43474 21256 30180 43474 
21260 30180 43474 21264 30180 43474 21268 30179 43474 
21272 30179 43474 21276 30179 43474 21280 30178 43474 
21284 30178 43474 21288 30178 43474 21292 30177 43474 
21296 30177 43474 21300 30177 43474 21304 30176 43474 
21308 30176 43474 21312 30176 43474 21316 30175 43474 
21319 30175 43474 21323 30175 43474 21327 30174 43474 
21331 30174 43474 21335 30174 43474 21339 30173 43474 
21343 30173 43474 21347 30173 43474 21351 30173 43474 
21355 30172 43474 21359 30172 43474 21363 30172 43474 
21367 30172 43474 21371 30171 43474 21375 30171 43474 
21378 30170 43474 21382 30170 43474 21386 30170 43474 
21390 30170 43474 21394 30170 43474 21398 30169 43474 
21402 30169 43474 21406 30169 43474 21410 30168 43474 
21414 30168 43474 21418 30168 43474 21422 30167 43474 
21426 30167 43474 21430 30166 43474 21434 30166 43474 
21438 30166 43474 21441 30165 43474 21445 30165 43474 
21449 30164 43474 21453 30164 43474 21457 30164 43474 
21461 30163 43474 21465 30163 43474 21469 30163 43474 
21473 30162 43474 21477 30162 43474 21481 30162 43474 
21485 30161 43474 21489 30161 43474 21493 30161 43474 
21497 30160 43474 21500 30160 43474 21504 30160 43474 
21508 30159 43474 21512 30159 43474 21516 30159 43474 
21520 30159 43474 21524 30158 43474 21528 30158 43474 
21532 30158 43474 21536 30157 43474 21540 30157 43474 
21544 30157 43474 21548 30156 43474 21552 30156 43474 
21556 30156 43474 21559 30155 43474 21563 30155 43474 
21567 30155 43474 21571 30154 43474 21575 30154 43474 
21579 30153 43474 21583 30153 43474 21587 30153 43474 
21591 30153 43474 21595 30153 43474 21599 30153 43474 
21603 30152 43474 21607 30152 43474 21611 30152 43474 
21615 30151 43474 21618 30151 43474 21623 30151 43474 
21626 30150 43474 21630 30150 43474 21634 30150 43474 
21638 30149 43474 21642 30149 43474 21646 30148 43474 
21650 30148 43474 21654 30148 43474 21658 30147 43474 
21662 30147 43474 21666 30147 43474 21670 30146 43474 
21674 30146 43474 21677 30146 43474 21681 30146 43474 
21685 30145 43474 21689 30145 43474 21693 30145 43474 
21697 30145 43474 21701 30145 43474 21705 30144 43474 
21709 30144 43474 21713 30144 43474 21717 30143 43474 
21721 30143 43474 21725 30143 43474 21729 30143 43474 
21732 30142 43474 21736 30142 43474 21740 30142 43474 
21744 30141 43474 21748 30141 43474 21752 30141 43473 
21756 30140 43473 21760 30140 43473 21764 30140 43473 
21768 30140 43473 21772 30139 43473 21776 30139 43473 
21780 30139 43473 21784 30138 43473 21787 30138 43473 
21791 30138 43473 21795 30137 43473 21799 30137 43473 
21803 30137 43473 21807 30136 43473 21811 30136 43473 
21815 30136 43473 21819 30135 43473 21823 30135 43473 
21827 30135 43473 21831 30134 43473 21835 30134 43473 
21839 30133 43473 21842 30133 43473 21846 30133 43473 
21850 30133 43473 21854 30132 43473 21858 30132 43473 
21862 30131 43473 21866 30131 43473 21870 30131 43473 
21874 30130 43473 21878 30130 43473 21882 30130 43473 
21886 30129 43473 21890 30129 43473 21894 30128 43473 
21897 30128 43473 21901 30127 43473 21905 30127 43473 
21909 30127 43473 21913 30126 43473 21917 30126 43473 
21921 30126 43473 21925 30126 43473 21929 30125 43473 
21933 30125 43473 21937 30124 43473 21941 30124 43473 
21945 30123 43473 21949 30123 43473 21952 30123 43473 
21956 30123 43473 21960 30122 43473 
Q5903928=
0001091900
457
SOFE02 AMMC 111219
KKYY 11014 0804/ 324849 098974
88872 84664 20004 32465 43496 20006 32464 43496 20008 32459 43495 
20010 32450 43495 20012 32446 43495 20014 32444 43495 
20016 32444 43495 20018 32443 43495 20020 32443 43495 
20022 32442 43495 20024 32442 43495 20026 32442 43495 
20028 32442 43495 20030 32441 43495 20032 32441 43495 
20034 32441 43495 20036 32441 43495 20038 32440 43495 
20040 32440 43495 20042 32440 43495 20044 32438 43495 
20046 32427 43494 20048 32418 43493 20050 32415 43493 
20052 32415 43493 20054 32412 43493 20056 32408 43492 
20058 32404 43492 20060 32394 43492 20062 32368 43492 
20063 32346 43494 20065 32321 43495 20067 32305 43495 
20069 32297 43495 20071 32283 43496 20073 32267 43500 
20075 32260 43504 20077 32257 43505 20079 32256 43507 
20081 32261 43512 20083 32253 43514 20085 32231 43512 
20087 32217 43511 20089 32207 43512 20091 32203 43516 
20093 32202 43517 20095 32209 43524 20097 32204 43525 
20099 32197 43524 20101 32193 43523 20103 32185 43522 
20105 32158 43520 20107 32145 43519 20109 32149 43526 
20111 32151 43529 20113 32151 43529 20115 32154 43533 
20117 32157 43537 20119 32155 43540 20121 32149 43541 
20123 32144 43541 20125 32139 43541 20127 32133 43542 
20129 32131 43542 20131 32132 43545 20133 32136 43550 
20135 32131 43552 20137 32125 43552 20139 32112 43552 
20141 32109 43554 20143 32103 43553 20145 32097 43553 
20147 32093 43554 20149 32091 43557 20151 32084 43558 
20153 32081 43559 20155 32074 43560 20157 32064 43561 
20159 32054 43563 20161 32053 43564 20163 32050 43564 
20165 32045 43564 20167 32040 43564 20169 32034 43564 
20171 32023 43564 20173 32019 43564 20175 32016 43565 
20177 32010 43565 20179 32005 43564 20181 31996 43564 
20183 31991 43564 20185 31990 43565 20187 31985 43565 
20189 31974 43564 20191 31969 43564 20193 31968 43564 
20195 31971 43568 20197 31972 43570 20199 31966 43570 
20201 31962 43570 20203 31957 43571 20204 31955 43572 
20206 31955 43574 20208 31954 43574 20210 31946 43574 
20212 31942 43574 20214 31942 43575 20216 31939 43575 
20218 31932 43575 20220 31921 43575 20222 31913 43574 
20224 31907 43573 20226 31893 43573 20228 31880 43573 
20230 31868 43572 20232 31865 43572 20234 31858 43572 
20236 31854 43573 20238 31851 43574 20240 31849 43575 
20242 31847 43575 20244 31847 43576 20246 31845 43576 
20248 31838 43577 20250 31835 43577 20252 31829 43577 
20254 31826 43577 20256 31818 43577 20258 31813 43577 
20260 31807 43577 20262 31801 43577 20264 31795 43576 
20266 31787 43575 20268 31777 43574 20270 31767 43574 
20272 31759 43574 20274 31755 43574 20276 31751 43573 
20278 31742 43573 20280 31734 43572 20282 31733 43574 
20284 31733 43575 20286 31730 43575 20288 31725 43574 
20290 31714 43573 20292 31704 43571 20294 31693 43570 
20296 31683 43569 20298 31674 43568 20302 31653 43566 
20306 31634 43564 20310 31622 43563 20314 31606 43561 
20318 31572 43557 20322 31561 43557 20326 31553 43558 
20330 31552 43560 20333 31542 43560 20337 31535 43559 
20341 31520 43557 20345 31509 43555 20349 31489 43552 
20353 31474 43550 20357 31460 43547 20361 31437 43544 
20365 31423 43542 20369 31414 43541 20373 31405 43539 
20377 31393 43538 20381 31385 43536 20385 31367 43533 
20389 31349 43530 20393 31334 43528 20397 31323 43526 
20401 31313 43525 20405 31305 43524 20409 31299 43523 
20413 31291 43522 20417 31278 43520 20421 31272 43519 
20425 31261 43517 20429 31253 43516 20433 31246 43515 
20437 31238 43513 20441 31228 43512 20445 31219 43510 
20449 31214 43509 20452 31206 43508 20456 31199 43507 
20460 31192 43506 20464 31180 43504 20468 31176 43503 
20472 31164 43501 20476 31157 43500 20480 31149 43499 
20484 31144 43498 20488 31131 43496 20492 31124 43495 
20496 31113 43493 20500 31105 43492 20504 31099 43491 
20508 31087 43489 20512 31078 43488 20516 31070 43487 
20520 31066 43486 20524 31060 43485 20528 31055 43484 
20532 31050 43484 20536 31042 43482 20540 31036 43482 
20544 31034 43481 20548 31031 43481 20552 31028 43480 
20556 31020 43479 20560 31019 43479 20564 31012 43478 
20567 31003 43477 20571 30997 43476 20575 30993 43475 
20579 30989 43475 20583 30986 43474 20587 30979 43473 
20591 30973 43472 20595 30971 43472 20599 30968 43472 
20603 30965 43471 20607 30958 43470 20611 30955 43470 
20615 30953 43470 20619 30951 43470 20623 30947 43469 
20627 30945 43469 20631 30941 43468 20635 30939 43468 
20639 30936 43468 20643 30934 43467 20647 30929 43467 
20651 30929 43467 20655 30926 43466 20659 30922 43466 
20663 30918 43465 20667 30918 43465 20670 30917 43465 
20674 30915 43465 20678 30912 43465 20682 30910 43465 
20686 30908 43464 20690 30906 43464 20694 30904 43464 
20698 30899 43463 20702 30896 43463 20706 30891 43462 
20710 30886 43462 20714 30883 43462 20718 30878 43461 
20722 30872 43460 20726 30869 43460 20730 30864 43460 
20734 30861 43459 20738 30857 43459 20742 30854 43459 
20746 30850 43458 20750 30845 43458 20754 30841 43457 
20758 30837 43457 20762 30831 43456 20766 30825 43456 
20769 30815 43455 20773 30809 43454 20777 30801 43454 
20781 30796 43453 20785 30790 43453 20789 30778 43452 
20793 30771 43451 20797 30767 43451 20801 30763 43451 
20805 30753 43450 20809 30734 43449 20813 30728 43449 
20817 30723 43448 20821 30716 43448 20825 30703 43447 
20829 30699 43447 20833 30694 43447 20837 30683 43446 
20841 30678 43446 20845 30669 43445 20849 30661 43445 
20853 30653 43445 20857 30648 43444 20861 30639 43444 
20865 30629 43444 20868 30624 43443 20872 30613 43443 
20876 30611 43444 20880 30604 43444 20884 30597 43444 
20888 30594 43444 20892 30589 43443 20896 30583 43444 
20900 30578 43444 20904 30577 43445 20908 30566 43444 
20912 30570 43446 20916 30565 43447 20920 30561 43447 
20924 30554 43447 20928 30553 43447 20932 30552 43447 
20936 30547 43447 20940 30544 43447 20944 30541 43447 
20948 30537 43448 20952 30534 43447 20956 30531 43447 
20959 30529 43448 20963 30527 43448 20967 30525 43448 
20971 30520 43448 20975 30519 43449 20979 30516 43449 
20983 30513 43450 20987 30510 43450 20991 30506 43450 
20995 30505 43450 20999 30504 43451 21003 30501 43451 
21007 30499 43451 21011 30499 43451 21015 30496 43451 
21019 30495 43452 21023 30495 43452 21027 30494 43452 
21031 30491 43453 21035 30490 43453 21039 30488 43453 
21043 30487 43453 21046 30487 43453 21050 30486 43454 
21054 30485 43454 21058 30484 43454 21062 30482 43454 
21066 30481 43454 21070 30479 43454 21074 30479 43455 
21078 30477 43455 21082 30477 43455 21086 30474 43455 
21090 30473 43455 21094 30472 43455 21098 30470 43455 
21102 30468 43455 21106 30465 43456 21110 30464 43456 
21114 30463 43456 21118 30462 43456 21122 30460 43456 
21126 30459 43456 21130 30457 43456 21133 30456 43456 
21137 30454 43457 21141 30452 43457 21145 30449 43457 
21149 30448 43457 21153 30447 43457 21157 30447 43457 
21161 30445 43458 21165 30444 43458 21169 30443 43458 
21173 30438 43458 21177 30436 43458 21181 30436 43458 
21185 30435 43458 21189 30433 43458 21193 30432 43459 
21197 30430 43458 21201 30428 43459 21205 30428 43459 
21209 30428 43459 21212 30426 43459 21216 30426 43460 
21220 30425 43460 21224 30424 43460 21228 30423 43460 
21232 30422 43460 21236 30421 43460 21240 30420 43460 
21244 30418 43460 21248 30418 43460 21252 30418 43460 
21256 30417 43460 21260 30416 43461 21264 30415 43461 
21268 30414 43461 21272 30413 43461 21276 30412 43461 
21280 30411 43461 21284 30410 43461 21288 30410 43461 
21292 30410 43461 21295 30409 43461 21299 30409 43462 
21303 30408 43462 21307 30407 43462 21311 30406 43462 
21315 30405 43462 21319 30403 43462 21323 30401 43461 
21327 30402 43462 21331 30402 43462 21335 30401 43462 
21339 30396 43461 21343 30393 43461 21347 30391 43461 
21351 30389 43461 21355 30387 43461 21359 30385 43461 
21363 30384 43461 21367 30382 43461 21370 30380 43461 
21374 30380 43461 21378 30379 43461 21382 30379 43461 
21386 30378 43461 21390 30379 43462 21394 30378 43462 
21398 30375 43462 21402 30375 43461 21406 30374 43461 
21410 30372 43461 21414 30371 43462 21418 30370 43462 
21422 30369 43462 21426 30368 43462 21430 30367 43462 
21434 30366 43462 21438 30365 43462 21442 30365 43462 
21445 30363 43462 21449 30361 43462 21453 30360 43462 
21457 30359 43462 21461 30358 43462 21465 30357 43462 
21469 30355 43462 21473 30354 43462 21477 30353 43462 
21481 30352 43462 21485 30350 43462 21489 30349 43462 
21493 30348 43462 21497 30343 43462 21501 30342 43462 
21505 30340 43462 21509 30340 43462 21513 30339 43462 
21517 30338 43463 21520 30337 43463 21524 30336 43463 
21528 30336 43463 21532 30337 43463 21536 30336 43464 
21540 30336 43464 21544 30336 43464 21548 30336 43464 
21552 30335 43464 21556 30335 43464 21560 30333 43464 
21564 30333 43464 21568 30331 43464 21572 30330 43464 
21576 30330 43464 21580 30328 43464 21584 30326 43464 
21588 30326 43465 21591 30325 43465 21595 30320 43465 
21599 30319 43464 21603 30318 43464 21607 30318 43464 
21611 30316 43464 21615 30315 43465 21619 30314 43465 
21623 30313 43465 21627 30312 43465 21631 30311 43465 
21635 30310 43465 21639 30309 43465 21643 30309 43465 
21647 30308 43466 21651 30307 43466 21655 30306 43466 
21658 30306 43466 21662 30305 43466 21666 30304 43466 
21670 30303 43466 21674 30302 43466 21678 30302 43466 
21682 30302 43466 21686 30301 43466 21690 30300 43466 
21694 30299 43466 21698 30298 43466 21702 30297 43466 
21706 30296 43466 21710 30296 43467 21714 30294 43467 
21718 30293 43467 21722 30292 43467 21726 30291 43467 
21729 30290 43467 21733 30289 43467 21737 30289 43467 
21741 30288 43468 21745 30288 43468 21749 30287 43468 
21753 30287 43468 21757 30286 43468 21761 30285 43468 
21765 30284 43468 21769 30283 43468 21773 30282 43468 
21777 30282 43468 21781 30282 43468 21785 30281 43468 
21789 30280 43468 21793 30280 43468 21796 30279 43468 
21800 30278 43468 21804 30277 43469 21808 30276 43469 
21812 30275 43469 21816 30275 43469 21820 30275 43469 
21824 30274 43469 21828 30274 43469 21832 30273 43469 
21836 30272 43469 21840 30271 43469 21844 30270 43469 
21848 30270 43469 21852 30270 43469 21856 30270 43469 
21859 30269 43469 21863 30269 43469 21867 30268 43469 
21871 30268 43469 21875 30267 43469 21879 30266 43470 
21883 30266 43470 21887 30265 43470 21891 30264 43470 
21895 30264 43470 21899 30263 43470 21903 30262 43470 
21907 30262 43470 21911 30262 43470 21915 30261 43470 
21919 30261 43470 21922 30260 43470 21926 30260 43470 
21930 30259 43470 21934 30258 43470 21938 30257 43470 
21942 30257 43470 21946 30256 43470 21950 30256 43470 
21954 30256 43470 21958 30255 43470 21961 30255 43470 
Q5903954=
0000255600
458
SMRA15 RUHB 111200
AAXX 11121
21432 12998 02505 11306 21329 30273 40294 52001 60002 333 11288=
21824 11997 80000 11348 21376 30319 40329 53001 69902 77872 85036 333
11343=
21908 12999 20000 11428 21450 30206 40300 53008 60002 80002 333
11421=
21921 12999 00000 11468 21489 30317 40370 58002 60002 333 11444=
21931 41997 80201 11247 21265 30283 40318 58001 77172 80007=
21946 41599 60404 11285 21302 30246 40333 52005 70272 86500 333
86628=
21978 42998 02802 11301 21319 30235 40243 57007 333 91105=
21982 42998 23001 11242 21273 30134 40163 57021 82031 333 91104=
25042 42998 02501 11308 21338 30233 40253 57004 333 91103=
25044 42999 00000 11360 21390 30256 40263 58003 333 91102=
25051 42998 00000 11323 21359 30252 40260 57003 333 91103=
25062 42999 02504 11349 21359 30226 40230 57022 333 91106=
25123 42996 01301 11400 21415 30235 30235 40273 54000=
25129 42999 00000 11432 21461 30264 40277 52003 333 91100=
25138 42999 00901 11407 21432 30132 40274 58001 333 91101=
25147 42999 00302 11340 21368 39872 40273 58005 333 91103=
25151 NIL=
25173 NIL=
25248 NIL=
25282 42984 03104 11283 21306 30174 40181 57023 333 91106=
25325 NIL=
25335 42998 10000 11437 21456 39858 40287 54000 81030 333 91101=
25356 42999 23402 11312 21357 30080 40191 57008 80001 333 91004=
25399 41484 30103 11228 21260 30099 40109 57012 70283 83500 333
91111=
25428 41957 20000 11426 21455 39886 40274 52004 71011 80001 333
91101=
25469 42999 03302 11217 21257 30137 40162 58008 333 91106=
25551 42998 23602 11263 21301 30141 40174 58001 80001 333 91103=
25561 42999 12702 11298 21335 30162 40173 58001 80001 333 91004=
25563 41984 03304 11210 21259 30058 40141 58008 70230 333 91114=
25594 NIL=
25677 NIL=
25767 NIL=
31054 41999 50000 11373 21408 30076 40391 52011 70272 85020=
31087 NIL=
31123 12998 82001 11387 21414 30035 40416 52007 69902 80007 333
11387=
21535 11998 42704 11259 21284 30285 40306 52002 69902 70231 84030 333
11233=
21608 11998 01405 11384 21401 30222 40242 57007 60002 70230 333
11///=
21636 12998 70000 11313 21324 30294 40330 52004 60002 84031 333
11292=
21711 11998 21407 11378 21405 30275 40297 58008 60002 73630 80001 333
11372 91110=
21721 11997 01608 11365 21394 30288 40317 58005 60002 73830 333 11327
91010 91111=
21813 12998 00000 11440 21469 30311 40352 57007 60002 333 11436=
21821 12998 62003 11320 21357 30307 40327 58003 60002 80001 333
11320=
21937 41698 80000 11339 21368 30203 40338 53006 77172 8552/ 333
85636=
0000012400
459
SMRS13 RUMS 111200 RRB
AAXX 11121
22854 41360 80303 11101 21129 39599 49893 52007 77172 8672/ 333
86708=
0000770600
460
SMVF01 EGRR 111200
BBXX
ZCDN2 11124 99479 70065 41598 12118 10106 20049 40193 54000 70222
81165 22254 00110 20101 301// 40201 80080=
62027 11124 99491 70022 46/// /1109 1//// 2//// 40217
51020 22200 0//// 11403 326// 70014=
62159 11124 99609 70022 41497 62913 10060 20015 40010 52020 70222
864// 22200 10708 70041=
A8CP5 11120 99498 70028 41498 53408 10105 20062 40220 51010 70222
85164 22213 04116 20801 3//// 4//// 5//// 80085=
62301 11124 99524 70047 46/// /3108 10070 20015 40205 51015 22200
00096 10503 70013=
62105 11124 99550 70132 46/// /1911 10083 21001 40153 51018 22200
00109 10907 70036=
62163 11124 99475 70084 46/// /1121 10108 20086 40189 58003 22200
00121 10807 70034 333 90710 91129=
62107 11124 99501 70061 46/// /0905 10095 20036 40213 50005 22200
00105 11105 70026=
62001 11124 99452 70050 46/// /0709 10120 20074 40213 50006 22200
00128 10904 70020=
62304 11124 99512 10018 46/98 /3123 10080 40187 51035 22200 10501
70006 333 90710 91127=
64045 11124 99591 70117 46/// /2615 10062 21007 40101 53027 22200
00096 10909 70045=
62305 11124 99504 70000 46/// /3114 10087 20039 40209 51029 22200
00110 10601 70007=
62103 11124 99499 70029 46/99 /0108 10088 20036 40221 51020 22200
00111 10802 70012=
62081 11124 99521 70105 46/// /1411 10069 20036 40183 50009 22200
10805 70026=
62304 11124 99512 10018 46/98 /3123 10080 20045 40187 51035 22200
00103 10501 70006 333 90710 91127=
62128 11124 99587 10014 47998 /2920 10051 20019 40041 51008 700// 22200 10606 70031=
63057 11124 99592 10015 47998 /2919 10048 20008 40021 52014 700// 22200 10706 70031=
MQSY9 11124 99593 10015 47999 /2821 10054 20014 52015 700// 22200=
63110 11124 99595 10015 47598 /2819 10061 20019 40023 52016 700// 22200 10706 70032=
63109 11124 99596 10015 46/// /2924 10056 20017 40011 51016 22200=
63056 11124 99597 10016 47498 /2721 10055 20017 40007 51013 700// 22200 10706 70032=
62129 11124 99584 10003 46/// /2824 10055 20019 40052 51011 22200=
62113 11124 99584 10002 47598 /2825 10056 20018 40058 52012 700// 22200=
64041 11124 99607 70026 47497 /2723 40015 52014 700// 22200 10909 70044=
63055 11124 99606 10016 47498 /0902 10049 20016 49998 51019 700// 22200 10706 70028=
62112 11124 99584 70002 47497 /2921 10065 20017 40058 51015 761// 22200=
PJAI 11124 99581 70014 47598 /2820 10060 20001 40075 52019 700// 22200=
63108 11124 99608 10017 47/99 /0703 10035 20010 49996 52015 700// 22200 10706 70028=
62111 11124 99580 70003 46/// /2930 10055 20006 40086 52016 22200 10605 70027=
63106 11124 99610 10017 46/// /0905 10036 51015 22200=
63105 11124 99610 10017 47497 /0805 10050 21014 49998 51012 700// 22200=
63113 11124 99610 10017 46/// /0705 10055 20006 49997 51014 22200 10705 70027=
63112 11124 99611 10010 47498 /1506 10038 20009 49996 51015 761// 22200 10706 70028=
63107 11124 99611 10017 46/// /0904 10031 49998 51014 22200=
63101 11124 99612 10009 46/// /1208 10035 20004 49997 51010 22200 10806 70028=
63103 11124 99612 10011 46/// ///// 10024 21000 49989 51012 22200 10806 70028=
63104 11124 99612 10016 47598 /0904 10026 21013 49998 51011 700// 22200 10806 70029=
63117 11124 99613 10011 47499 /1106 40000 51009 700// 22200=
63114 11124 99613 10017 47599 /0803 10021 21030 49998 51011 700// 22200=
63115 11124 99616 10013 47599 /0904 10025 21016 49998 51008 700// 22200 10806 70028=
MWYG6 11124 99603 70040 47998 /2723 40038 52018 700// 22200=
62142 11124 99530 10021 47998 /2919 10067 20033 40154 52030 700// 22200 10403 70014=
62145 11124 99531 10028 47998 /2918 10070 20010 40156 51036 700// 22200 10403 70016=
62144 11124 99534 10017 47998 /2820 10062 20014 40163 52033 700// 22200 10503 70015=
62121 11124 99535 10027 46/// ///// 10070 20020 40138 51028 22200=
62150 11124 99536 10007 47998 /2820 10064 20015 40169 51020 700// 22200 10503 70013=
62148 11124 99536 10015 46/// ///// 22200=
62149 11124 99537 10011 47999 /2918 10084 20020 40155 52021 700// 22200 10503 70014=
62131 11124 99539 10012 46/// /2914 10064 20015 40147 52020 22200=
62127 11124 99540 10007 47999 ///// 10061 20002 40150 51019 700// 22200 10503 70016=
62165 11124 99540 10011 47598 /2816 10062 20023 40151 51019 700// 22200 10504 70018=
62123 11124 99563 10022 47598 /2922 10064 20005 40082 51010 700// 22200 1//05 70025=
62132 11124 99564 10020 46/// /3220 10063 21000 40094 51012 22200=
62120 11124 99564 10021 47598 /2921 10058 20011 40080 51010 700// 22200=
62154 11124 99564 10022 46/// /3016 10062 20008 40079 51010 22200=
62152 11124 99570 10018 47598 /2917 10059 21000 40082 51013 700// 22200 10505 70026=
62119 11124 99570 10019 47598 /3023 10063 20002 40080 51012 700// 22200 10605 70023=
ZQSD5 11124 99583 10008 47598 ///// 10061 20024 40046 52013 700// 22200 1//07 70034=
62114 11124 99583 10000 46/// /2829 10055 20020 40051 51010 22200=
62134 11124 99580 10014 47597 /3022 10056 20014 40056 52011 700// 22200 10606 70029=
62102 11124 99579 10018 46/// /2925 10063 20002 40048 51009 22200 10706 70030=
62117 11124 99579 10000 47598 /2827 10057 20008 40058 52017 700// 22200 10605 70026=
62143 11124 99577 10018 47598 /3113 10056 20004 40078 52016 700// 22200 10606 70031=
62118 11124 99577 10009 47998 /2822 10051 20005 40063 51015 700// 22200 10606 70028=
62155 11124 99577 10007 47298 /2826 10048 20014 40074 51014 762// 22200 10606 70028=
62116 11124 99576 10011 47597 /2924 10049 20000 40064 52013 700// 22200 10606 70029=
62104 11124 99574 10013 47498 /2922 10065 20012 40066 51011 762// 22200=
62153 11124 99573 10020 47598 /2713 40064 51008 700// 22200 10605 70026=
62122 11124 99573 10016 47598 /2925 10059 20008 40070 51011 700// 22200 10605 70026=
62140 11124 99573 10013 46/// ///22 10057 20014 40072 51013 22200=
62146 11124 99572 10021 47598 /2103 10056 20013 40075 52013 700// 22200 10605 70024=
62164 11124 99572 10008 47598 /2822 10064 20014 40079 52014 700// 22200 00084 10606 70028=
62133 11124 99571 10009 46/// /2924 40078 51013 22200 10605 70026=
GGXE 11124 99581 10000 41597 52725 10061 20037 40056 53/// 70222
8599/ 22200 20604 329// 40604 80051=
2AUO5 11123 99606 10016 41597 70509 10052 20035 40001 51021 7//82
8444/ 22200 20503 33527 41005 50904 80045=
AMOUK05 1112/ 99519 10041 46/// ///// 10079 20060 40151=
AMOUK24 1112/ 99571 70067 46/// ///// 10074 21008 40110=
AMOUK06 1112/ 99511 10014 46/// ///// 10086 20075 40191=
AMOUK13 1112/ 99512 10016 46/// ///// 10079 20042 40185=
AMOUK23 1112/ 99577 70020 46/// ///// 10044 20006 40087=
AMOUK28 1112/ 99579 70068 46/// ///// 1//// 2//// 40114=
AMOUK03 1112/ 99537 70003 46/// ///// 10073 20035 40160=
AMOUK44 1112/ 99545 70047 46/// ///// 1//// 2//// 40180=
AMOUK11 1112/ 99533 70046 46/// ///// 10071 20023=
AMOUK36 1112/ 99581 70013 46/// ///// 10055 20012 40078=
AMOUK32 1112/ 99559 70047 46/// ///// 10053 20005 40148=
AMOUK45 11124 99509 70014 46/// /3005 10083 20035 40199 22200   401990105=
AMOUK04 1112/ 99535 70050 46/// ///// 10068 20031 40188=
AMOUK14 1112/ 99533 70062 46/// ///// 10067 20006 40195=
AMOUK29 1112/ 99505 70082 46/// ///// 1//// 2//// 40208=
AMOUK43 1112/ 99543 70040 46/// ///// 10062 20024 40179=
AMOUK31 1112/ 99558 70055 46/// ///// 10063 20012 40155=
AMOUK02 1112/ 99536 70041 46/// ///// 10067 20025 40191=
AMOUK34 1112/ 99514 10022 46/// ///// 10082 20039 40161=
AMOUK09 1112/ 99517 10018 46/// ///// 10072 20071 40183=
AMOUK42 1112/ 99506 70025 46/// ///// 10100 20039 40213=
AMOUK26 1112/ 99499 70024 46/// ///// 10101 20043 40212=
AMOUK33 1112/ 99555 10084 46/// ///// 10064 20042 40049=
AMOUK30 1112/ 99565 70068 46/// ///// 10070 20011 40145=
0000059300
461
SMVF01 EGRR 111200 RRA
BBXX
62050 11124 99500 70044 46/// /0803 10099 20040 40213 22200 10602
70010=
62303 11124 99516 70051 46/// /3405 10077 20013 40209 22200 10603
70013=
64046 11124 99605 70042 46/// /3123 10053 20025 40035 333 90710 91131=
62170 11124 99514 10020 46/98 /2821 10075 20029 40185 51036 22200
00106 10501 70006 333 90710 91125=
62095 11124 99529 70156 46/// /1720 10094 20042 40121 57006 22200
00111 10807 70035 333 90710 91131=
A8HR5 11124 99363 70022 41/97 50710 10180 20139 40200 54000 705//
8//3/ 22224 04154 20000 306// 40302 80155=
0000004800
462
SREW41 EGRR 111200 RRA
03257000=
0000271000
463
UKDL01 EDZW 111200
TTBB 11118 10035
00002 05008 11977 03803 22617 15914 33577 17119 44562
18736 55523 22904 66405 37136 77371 40956 88321 48931
99293 51962 11256 56960 22211 51773 33164 51376 44100
54377
21212 00002 23007 11984 21511 22957 24019 33922 24521
44846 27019 55814 26515 66771 26018 77619 27015 88603
26513 99578 24018 11419 24521 22310 25034 33291 25534
44239 25033 55224 24530 66195 27019 77188 27520 88164
26521 99157 28519 11142 27515 22137 29515 33130 27514
44127 27016 55117 27521 66114 28516 77110 27515 88105
29512 99100 29016
31313 48008 81045
41414 772//
51515 11885 26018 22800 26016 33600 26013=
TTBB 11118 10410
00997 06429 11943 02009 22933 03657 33842 01164 44803
04150 55777 05558 66754 06372 77745 07162 88741 07172
99720 08766 11717 08528 22710 08333 33636 13539 44633
12964 55623 12385 66544 19976 77483 27348 88474 28357
99472 28365 11467 29169 22432 32768 33412 35157 44344
44350 55311 47961 66301 49357 77263 54959 88222 58568
99156 51188 11100 54986
21212 00997 22004 11963 24013 22930 26015 33901 26017
44790 26514 55760 26518 66699 27514 77610 29025 88537
27021 99484 26027 11272 25040 22237 24031 33216 25529
44202 24524 55183 26517 66173 25520 77160 27018 88141
27512 99125 27518 11116 27015 22111 29016 33102 28509
44100 27009
31313 48108 81045
41414 /////
51515 11882 26016 22800 26515 33600 28524=
TTBB 11118 10739
00981 03006 11948 03219 22923 06027 33799 00302 44750
02713 55616 13504 66492 24739 77403 36748 88385 38571
99379 38965 11374 38758 22311 47144 33229 62157 44220
58564 55216 58368 66194 55573 77179 56775 88144 53978
99132 55778 11117 52179 22109 55779 33100 55979
21212 00981 32501 11931 25005 22839 25516 33671 27521
44540 26030 55460 25025 66427 24527 77399 25530 88344
29020 99306 28518 11235 29022 22218 26521 33207 25521
44200 26522 55192 27517 66169 26019 77152 26512 88138
28016 99129 27512 11124 25011 22121 25514 33115 29512
44104 27507 55100 26511
31313 48108 81045
41414 /////
51515 11867 25513 22800 25517 33600 26524=
TTBB 11118 10868
00960 03618 11950 02618 22939 04629 33933 07056 44872
06059 55848 03858 66793 01657 77734 03719 88659 09106
99630 11125 11457 29132 22442 30556 33407 35131 44389
35950 55318 47757 66288 53750 77263 58149 88246 59960
99223 57773 11170 57382 22145 52787 33100 57186
21212 00960 06501 11903 27005 22836 27008 33800 25014
44758 26521 55686 25522 66620 26021 77484 27522 88401
26026 99352 26034 11283 25031 22183 27522 33170 25519
44154 26017 55129 29514 66118 26514 77108 31514 88104
31009 99100 28511
31313 48108 81045
41414 /////
51515 11849 27507 22800 25014 33600 26522=
0000317000
464
UKDL02 EDZW 111200
TTBB 11118 10113
00007 05811 11817 02701 22714 08521 33590 19509 44579
21167 55568 20769 66521 23570 77420 35367 88418 35358
99406 37346 11387 39958 22371 42333 33364 43550 44355
44159 55336 46957 66320 47962 77279 54359 88254 54765
99220 53771 11202 48979 22181 51978 33177 49979 44100
54978
21212 00007 21506 11996 22014 22938 24523 33919 25523
44838 26017 55745 25519 66714 26016 77667 25022 88638
24518 99615 24518 11502 25028 22466 23526 33284 24037
44228 24031 55216 25531 66200 26018 77184 26517 88172
27019 99163 25518 11157 27022 22154 28519 33146 26518
44135 29014 55133 28512 66128 26517 77122 28021 88118
29016 99111 27015 11100 28013
31313 48108 81045
41414 /////
51515 11890 26021 22800 25518 33600 24519=
TTBB 11118 10184
00010 05412 11927 00601 22918 01604 33740 08705 44687
11707 55638 13344 66634 13542 77527 24117 88466 29123
99446 30334 11433 31745 22415 34115 33381 38541 44368
40164 55360 40962 66351 41943 77299 49543 88287 51356
99230 59562 11179 53381 22140 52583 33115 52783 44101
56782 55100 56582
21212 00010 22005 11996 22512 22944 24516 33921 26514
44786 25516 55748 27018 66720 26520 77690 25016 88665
22515 99634 22014 11611 23514 22591 22511 33531 25508
44524 27007 55519 28007 66495 28510 77436 26512 88418
24511 99383 26013 11249 27034 22214 26025 33201 27529
44181 29021 55175 28015 66171 27517 77162 27520 88156
29521 99147 28023 11138 30019 22126 29518 33121 30521
44114 31513 55107 32016 66100 29518
31313 48008 81054
41414 773//
51515 11892 26015 22800 25517 33600 22511=
TTBB 11118 10393
00000 05650 11968 02831 22950 03844 33909 01425 44792
05158 55755 07948 66748 07564 77607 18378 88582 19760
99554 21568 11539 20985 22471 26566 33427 30180 44385
36562 55370 38368 66324 46164 77274 52366 88269 51766
99252 55561 11206 60967 22182 54778 33161 53183 44100
56182
21212 00000 22005 11947 27012 22862 25514 33757 26018
44695 26017 55681 24514 66653 23514 77586 24016 88562
25520 99518 26026 11480 23023 22372 24531 33335 24023
44314 24027 55302 24023 66293 26520 77263 28011 88243
27013 99230 28514 11217 28016 22207 26520 33198 27526
44185 28524 55165 27523 66156 30020 77141 28519 88110
31516 99103 28514 11100 29016
31313 48008 81045
41414 10930
51515 11884 26013 22800 26015 33600 24016=
TTBB 11118 10548
00964 00600 11949 00503 22925 01010 33849 02331 44843
02158 55816 03756 66812 03506 77799 02903 88760 05335
99724 07504 11661 11913 22651 12358 33641 11966 44601
15938 55595 15910 66574 17531 77528 23106 88522 23713
99496 25550 11404 33750 22332 44134 33297 49556 44284
52143 55244 58939 66233 60550 77222 58366 88207 55175
99185 56977 11149 53385 22100 53787
21212 00964 18502 11939 21506 22916 22011 33859 25015
44761 27516 55714 26518 66653 27529 77601 26031 88499
25530 99461 27023 11419 28524 22286 28020 33233 28021
44211 26517 55199 29018 66176 26016 77160 25016 88153
27015 99146 27015 11137 29015 22128 28513 33116 28520
44107 30013 55106 28511 66105 27512 77100 28513
31313 48108 81045
41414 /////
51515 11850 25015 22800 25517 33600 26031=
0000029700
465
SMIV01 DIAP 111200
AAXX 11124
65528 NIL=
65536 NIL=
65545 NIL=
65548 NIL=
65555 NIL=
65557 NIL=
65560 NIL=
65562 NIL=
65563 NIL=
65578 32460 62006 10302 20252 30113 40120 86800
  333 58006 82812 86620 94919=
65585 NIL=
65592 NIL=
65594 NIL=
65599 NIL=
0000025000
466
UEGO01 FOOL 111200
TTDD 6111/ 64500 11867 811// 22810 719// 33508 679// 44407 695//
55309 615// 21212 11889 13520 22859 10515 33804 01031 44778 36025
55672 27515 66599 27537 77430 27028 88385 24527 99309 27031 31313
45708 81044=
0000035900
467
SMIS01 LLBD 111200
AAXX 11124
40153 12660 23007 10120 20024 39138 48540 57007 60001 82400 =
40179 12570 33207 10180 20081 30190 40227 57009 60001 83800 =
40180 12660 23110 10182 20077 30182 40231 55021 60001 82100 =
40190 16/// /2903 10149 20085 39899 40231 57008 60001 =
40199 12770 30202 10200 20075 30208 40234 57015 60001 83200 =
0000125900
468
SMNR01 DRRN 111200
AAXX 11124
61017 32960 50402 10242 20018 39789 40205 80002
  333 0//00 58004 85080=
61024 31940 01025 10242 20022 39613 40185 70700
  333 0//00 58002=
61036 31958 71410 10286 20023 39908 40146 70522 80008
  333 0//00 58009 87280=
61043 31914 71014 10260 20008 39710 40153 70722 80008
  333 0//00 59002 87280=
61045 31915 70804 10240 21018 39667 40168 7062/ 80008
  333 0//00 58000 87280=
61049 32960 70808 10255 20022 39844 40166 80008
  333 0//00 58013 87280=
61052 31930 30810 10282 20021 39900 40155 70611 80002
  333 0//00 58010 83080=
61053 31925 71410 10270 21006 39/// 4//// 7062/ 80008
  333 0//00 5//// 87280=
61075 31956 61006 10275 20014 39846 40154 70622 80008
  333 0//00 58004 86280=
61080 31908 71006 10250 21008 39733 40157 70642 80008
  333 0//00 58000 87280=
61085 32960 50808 10260 20038 39817 40246 80002
  333 0//00 58000 85080=
61090 31926 70612 10240 21044 39654 40168 70642 80008
  333 0//00 58003 87280=
61091 31930 70810 10250 20032 39730 40192 7062/ 80008
  333 0//00 58011 87280=
61096 32960 70406 10262 20010 39778 40161 80008
  333 0//00 59001 87280=
61099 31956 70610 10300 20058 39899 40126 70622 80008
  333 0//00 58006 87280=
/=
00000000