0000012200
676
SACN62 CYYY 101600
METAR CYYY 101600Z 22011G16KT 15SM FEW010 FEW100 M08/M16 A3023 RMK
 SC1AC1 SLP242=

0000169800
677
SAUS75 KWBC 101600
METAR
PABA NIL=
PABE 101553Z 04011KT 10SM OVC004 M09/M09 A2946=
PABI 101553Z 33003KT 5SM -SN OVC034 M17/M20 A2949=
PABR 101553Z 33011KT 5SM HZ FEW002 M26/M28 A2994=
PABT 101553Z 00000KT 10SM FEW240 M31/M34 A2966=
PACV 101553Z 00000KT 10SM FEW002 SCT050 BKN060 M03/M04 A2936=
PACZ 101555Z AUTO 04012KT 10SM BKN050 M03/M06 A2941=
PADK 101556Z AUTO 15011KT 10SM FEW018 BKN031 OVC038 03/00
     A2900=
PADL NIL=
PADU 101556Z 11003KT 10SM SCT040 02/M02 A2934=
PAEH 101555Z AUTO 13017G26KT 10SM -SHRA BKN018 BKN060 02/M01
     A2936=
PAEI 101558Z AUTO 00000KT 10SM BKN010 OVC070 M19/M21 A2956=
PAEN 101553Z 05004KT 9SM BKN002 OVC070 M04/M04 A2942=
PAFA 101553Z 00000KT 8SM -SN BKN040 OVC080 M17/M20 A2957=
PAFB 101555Z 00000KT 7SM VCSH BKN065 OVC100 M19/M22 A2958=
PAGA 101558Z AUTO 34003KT 10SM CLR M20/M23 A2968=
PAGK 101553Z AUTO 00000KT 1 3/4SM -SN BR OVC036 M09/M11 A2932=
PAGS 101556Z AUTO 11007KT 10SM BKN017 BKN022 OVC027 02/01
     A2948=
PAGY 101553Z AUTO 20019G25KT 10SM OVC080 03/00 A2941=
PAHO 101553Z 00000KT 10SM BKN033 M02/M04 A2941=
PAIL 101553Z 35004KT 10SM OVC026 M03/M04 A2946=
PAJN 101553Z 08008KT 10SM -RA FEW012 BKN034 OVC044 02/01 A2949=
PAKN 101554Z 00000KT 7SM SCT004 OVC030 M03/M03 A2946=
PAKT 101553Z 17004KT 10SM BKN017 BKN050 02/02 A2968=
PALU 101555Z AUTO 11004KT 10SM BKN014 M19/M20 A3005=
PAMC 101553Z 00000KT 5SM -SN BR BKN024 OVC055 M13/M16 A2955=
PANC 101553Z 34003KT 10SM -SN SCT005 OVC012 M03/M04 A2940=
PANT 101553Z 25003KT 10SM SCT060 OVC080 02/02 A2968=
PAOM 101553Z 02003KT 10SM SCT090 M12/M15 A2962=
PAOR 101553Z 31003KT 3SM -SN SCT023 OVC033 M14/M17 A2938=

0000034700
678
SAAE33 VTBB 101600
METAR VVTS 101600Z 08005KT 9999 FEW017 SCT040 24/20 Q1013 NOSIG =
METAR VVNB 101600Z VRB03KT 3100 BR FEW020 BKN050 16/11 Q1021 NOSIG=
METAR VVDN 101600Z 05003KT 4000 BR SCT013 BKN060 22/19 Q1020 NOSIG=
METAR VVPB 101600Z NIL=
METAR VVCR 101600Z NIL=
METAR VVCT 101600Z NIL=
METAR VVPQ 101600Z NIL=

0000011500
679
SASB31 VCRI 101610
METAR VCRI 101610Z 06009KT 9000 FEW016 FEW018CB  25/21 Q1013 NOSIG 
RMK SW=

0000081300
680
SACI41 ZBBB 101600
METAR ZBHH 101600Z 06002MPS 8000 NSC M18/M26 Q1028 NOSIG=
METAR ZGHA 101600Z 36002MPS 1400 R36/1700N BR SCT003 BKN007
OVC033
05/04 Q1027 NOSIG=
METAR ZHCC 101600Z VRB01MPS 1500 BR NSC 00/M03 Q1031 NOSIG=
METAR ZHHH 101600Z 08002MPS 5000 BR SCT018 04/02 Q1030 NOSIG=
METAR ZJHK 101600Z 07003MPS 7000 SCT015 BKN033 18/16 Q1021 NOSIG=
METAR ZJSY 101600Z 08003MPS 9999 SCT066 20/16 Q1020 NOSIG=
METAR ZLLL 101600Z 36002MPS CAVOK M15/M24 Q1025 NOSIG=
METAR ZSNJ 101600Z 07003MPS 2800 HZ NSC 04/M01 Q1031 NOSIG=
METAR ZSOF 101600Z 09003MPS 4000 HZ NSC 04/M00 Q1030 NOSIG=
METAR ZUCK 101600Z 28001MPS 4500 BR SCT026 OVC050 06/03 Q1026 NOSIG=
METAR ZYCC 101600Z 22005MPS CAVOK M19/M25 Q1026 NOSIG=
METAR ZYHB 101600Z 21003MPS 6000 NSC M21/M24 Q1023
NOSIG=

0000010900
681
SPUS41 KWBC 101607
SPECI
KWRI 101604Z AUTO 00000KT 3SM -RA BR BKN007 OVC039 00/00 A3043=

0000071300
682
SAHK31 VHHH 101600
METAR VHHH 101600Z 11017KT 9000 FEW040 17/11 Q1024 NOSIG=
METAR RCTP 101600Z 06016KT 040V100 9999 FEW020 17/12 Q1023 NOSIG
RMK A3023=
METAR RCKH 101600Z 03005KT 010V080 7000 FEW015 SCT060 17/13 Q1023
NOSIG RMK A3023=
METAR RCSS 101600Z 09012KT 9999 FEW025 BKN035 BKN060 16/11 Q1025
NOSIG RMK A3028=
METAR VMMC 101600Z 09014KT 010V110 9000 FEW025 16/12 Q1024 NOSIG=
METAR RPLL 101600Z 07005KT 9999 SCT023 SCT100 24/21 Q1016 NOSIG RMK 
           A3001=
METAR RPVM 101600Z 360013KT 9999 SCT020 OVC090 24/23 Q1013 A2992=
METAR RPMD 101600Z NIL=
METAR RPLB 101600Z 09010KT 9999 FEW030 23/19 Q1015 NOSIG=
METAR RPLI 101600Z NIL=
METAR RPMZ 101600Z NIL=

0000012300
683
FTBZ21 SBRF 101609
TAF SBAR 101600Z 1018/1106 09010KT 9999 SCT017
TX28/1018Z TN25/1105Z 
RMK
 PDU=

0000012300
684
FTBZ21 SBRF 101609
TAF SBFN 101600Z 1018/1106 10010KT 9999 SCT016
TX28/1018Z TN25/1021Z 
RMK
 PDU=

0000017100
685
FTBZ21 SBRF 101609
TAF SBFZ 101600Z 1018/1118 08011KT 9999 SCT020
TN25/1108Z TX30/1115Z 
BECMG
 1021/1022 08007KT BECMG 1109/1111 08013KT RMK PDU=

0000017100
686
FTBZ21 SBRF 101609
TAF SBJP 101600Z 1018/1118 11007KT 9999 SCT020
TN22/1105Z TX29/1114Z 
BECMG
 1102/1104 21005KT BECMG 1111/1113 12012KT RMK PDU=

0000019900
687
FTBZ21 SBRF 101609
TAF SBMO 101600Z 1018/1118 07009KT 9999 SCT020
TN23/1105Z TX29/1113Z 
BECMG
 1020/1021 07006KT BECMG 1102/1103 03003KT BECMG
1109/1111
08008KT RMK PDU=

0000020500
688
FTBZ21 SBRF 101609
TAF SBNT 101600Z 1018/1118 11010KT 9999 SCT020
TN23/1108Z TX30/1114Z 
BECMG
 1021/1023 10005KT BECMG 1110/1112 12013KT BKN020 BECMG
1115/1116
SCT025 RMK PDU=

0000017100
689
FTBZ21 SBRF 101609
TAF SBPB 101600Z 1018/1118 09015KT 9999 SCT017
TN26/1103Z TX33/1115Z 
BECMG
 1101/1102 10007KT BECMG 1110/1112 08015KT RMK PDU=

0000014700
690
FTBZ21 SBRF 101609
TAF SBPL 101600Z 1018/1118 09007KT 9999 SCT035
TN23/1108Z TX34/1116Z 
TEMPO
 1103/1113 05006KT RMK PDU=

0000023100
691
FTBZ21 SBRF 101609
TAF SBPS 101600Z 1018/1118 11008KT 9999 SCT020
TN22/1108Z TX27/1116Z 
PROB30
 TEMPO 1023/1105 6000 TSRA SCT010 BKN020 FEW030CB
BECMG
1102/1104 25005KT BECMG 1110/1112 11008KT RMK PDU=

0000017100
692
FTBZ21 SBRF 101609
TAF SBRF 101600Z 1018/1118 10006KT 9999 SCT023
TN24/1107Z TX29/1115Z 
BECMG
 1102/1104 28002KT BECMG 1111/1113 11009KT RMK PDU=

0000022400
693
FTBZ21 SBRF 101609
TAF SBSV 101600Z 1018/1118 10009KT 9999 SCT017
TN24/1108Z TX29/1116Z 
PROB30
 TEMPO 1018/1022 6000 TSRA BKN015 FEW030CB BECMG
1103/1105
33003KT BECMG 1111/1113 11010KT RMK PDU=

0000009800
694
SAAG41 SAWE 101600
METAR SAWE 101600Z  16008KT 9999 -SHRA SCT017
09/08 Q1004=

0000014200
695
SAAG05 SABM 101600 RRA
METAR SABE 101600Z  02009KT CAVOK 28/19 Q1007=
METAR SARF 101600Z 34015KT 9999 FEW025 35/23 Q1008=

00000000