0000043300
049
UDEU02 EGRR 111222 RRE
AMDAR 1111
LVR EU0056   3321N 01226W 111142 F390 MS602 291/071 TB/ S031=
LVR EU0056   3239N 01301W 111149 F390 MS580 294/060 TB/ S031=
LVR EU0056   3156N 01336W 111156 F390 MS592 294/068 TB/ S031=
LVR EU0056   3113N 01411W 111203 F390 MS587 297/062 TB/ S031=
LVR EU0056   3024N 01436W 111210 F390 MS585 297/070 TB/ S031=
LVR EU0056   2933N 01455W 111217 F308 MS457 282/037 TB/ S031=
0000068900
050
UDEU02 EGRR 111222 RRF
AMDAR 1111
LVR EU9962   4323N 02844E 111115 F390 MS625 297/047 TB/ S031=
LVR EU9962   4230N 02846E 111122 F390 MS623 291/047 TB/ S031=
LVR EU9962   4136N 02848E 111129 F390 MS606 300/063 TB/ S031=
LVR EU9962   4042N 02902E 111136 F390 MS613 305/069 TB/ S031=
LVR EU9962   3952N 02943E 111143 F390 MS623 303/066 TB/ S031=
LVR EU9962   3906N 03030E 111150 F390 MS618 308/065 TB/ S031=
LVR EU9962   3822N 03121E 111157 F390 MS618 310/066 TB/ S031=
LVR EU9962   3738N 03211E 111204 F390 MS615 312/069 TB/ S031=
LVR EU9962   3653N 03300E 111211 F390 MS610 319/064 TB/ S031=
LVR EU9962   3609N 03348E 111218 F390 MS615 322/060 TB/ S031=
0000007000
051
UPIN90 VECC 111200
PPAA 61111 42706 55292 09005 11008=
0000009400
052
UGIN90 VECC 111200
PPBB 61111 42706 90012 09002 07504 08504 9037/ 10006 12513=
0000016400
053
UXIN90 VECC 111200
TTAA 6112/ 43333 MISDA DUE TO ASCENT SUSPENDED=
PPAA 6112/ 43333 NO ASCENT DUE TO LOW CLOD=
PPAA 6111/ 42299 Low Cloud=


0000017700
054
SMOM10 OOMS 111200 RRC
AAXX 11124
41246 36/// /0809 10210 20134 30188 40192
333 0E018 59022 =
41287 36/// /0818 10227 20097 30139 40178
333 0E015 59002 =
0000034200
055
USUK80 EGRR 111200
TTAA 61111 03005
99992 04841 29015 00016 ///// ///// 92648 00623 29030
85320 04743 29033 70814 16331 29531 50525 36527 25516
40676 44375 23017 30867 44580 22536 25988 49180 24025
20136 45385 23517 15326 48784 25530 10589 55382 25033
88426 45950 25026 88253 49180 23519
77999
31313 48008 81115=
0000147000
056
UKUK80 EGRR 111200
TTBB 61118 03005
00992 04841 11991 04634 22986 04636 33977 04233 44964
03838 55934 01220 66897 01728 77895 01744 88877 02750
99852 04744 11823 06940 22806 08156 33803 08344 44793
08564 55756 11956 66739 13556 77734 13743 88685 17527
99679 18131 11646 21323 22601 25525 33573 28115 44561
29325 55528 32729 66492 37527 77471 40345 88450 42940
99438 44946 11430 45538 22426 45950 33416 45566 44411
44169 55408 43972 66356 47376 77320 44782 88310 45179
99304 43981 11294 45779 22281 46979 33269 46781 44253
49180 55249 49180 66241 46185 77237 46785 88222 45985
99217 46585 11209 44785 22181 48584 33166 47185 44152
48584 55137 52183 66131 50584 77121 51983 88119 51184
99111 53183 11105 55982 22100 55382
21212 00992 29015 11981 27521 22956 28528 33908 29032
44874 29038 55849 29032 66823 29032 77781 29529 88769
30032 99760 31028 11689 29030 22677 28534 33663 29029
44647 28535 55633 28028 66618 29531 77588 27522 88512
26519 99493 25014 11481 27517 22425 25026 33394 24014
44370 29015 55358 28025 66340 23517 77327 24026 88317
22023 99301 22036 11286 24533 22269 29014 33255 24016
44247 25031 55231 26522 66222 25525 77212 26527 88191
22017 99187 21022 11171 24538 22160 25532 33154 25027
44148 26030 55135 25530 66130 25027 77126 25533 88122
24535 99119 24032 11115 24027 22112 24029 33105 25528
44102 24532
31313 48008 81115
41414 794//
51515 11887 29036 22800 29031 33600 28526=
0000009500
057
SAUK63 EGRR 111150 RRC
METAR EGXE 111150Z AUTO 23008KT //// // NCD 05/01 Q////=
0000017700
058
SMOM66 OOMS 111200 RRC
AAXX 11124
41246 36/// /0809 10210 20134 30188 40192
333 0E018 59022 =
41287 36/// /0818 10227 20097 30139 40178
333 0E015 59002 =
0000003800
059
SMZW21 FVHA 111200
NIL
0000012800
060
SMUG01 HUEN 111200
AAXX 11124
63705 32560 21207 10265 20201 38851 48509 82900 333 59002 82823 81925 555 10218=
0000321300
061
SMRS14 RUMS 111200
AAXX 11121
22165 42598 21405 11199 21226 30118 40185 58002 81530=
22676 41495 81003 11131 21146 39900 49981 56012 77373 8872/=
22837 41496 83504 11112 21140 39847 49920 53021 77172 8872/ 333
86710=
22954 41247 80000 11001 21002 39601 49845 53005 77172 8872/ 333
86703=
23112 42998 02402 11369 21406 30208 40218 51001=
23114 42997 01201 11325 21361 30210 40220 58001=
23503 42998 80302 11268 21307 3//// 4//// 56/// 8807/=
23405 42965 79901 11286 21310 30035 40147 57011 80008=
23412 42999 00203 11324 21361 30064 40174 57006=
23708 41465 80603 11114 21134 39882 40038 57016 77187 8772/ 333
87712=
23803 41599 81303 11103 21131 39856 40042 58015 72272 885// 333
88630=
23812 41697 80000 11153 21170 39907 40079 57008 70272 8551/ 333
85637=
27020 41497 83502 11026 21045 39707 49856 53023 77172 8872/ 333
88710=
27066 41396 81503 10000 21001 39698 49872 57004 77172 8872/ 333
88707=
27083 41428 81404 11028 21041 39707 49929 57006 77373 8802/ 333 91005
91111 9298/=
27113 41457 83603 10001 21005 39710 49853 53020 78726 8633/ 333
85912=
27242 41417 81301 10005 20005 39725 49851 52005 78082 889//=
27277 41294 81402 10001 21002 39711 49877 57009 77172 8872/ 333 88704
91004 91107=
27283 41450 81405 11009 21022 39766 49922 57014 77173 8872/ 333 88712
91008 91110=
27296 41457 81405 11028 21044 39731 49951 57024 77173 8872/ 333 91010
91111=
27329 41579 82401 10019 20010 39739 49861 52011 70262 885//=
27355 41497 81802 10003 20002 39705 49866 53003 70272 885//=
27373 41395 81506 11006 21010 39671 49885 57010 77373 8872/ 333 91008
91112 92982=
27453 41497 81202 10009 20006 39748 49874 53002 70272 8802/ 333 88514
91003 91104=
27485 41395 81604 11006 21015 39756 49903 57021 77372 8872/ 333 91006
91110=
27491 41440 81505 11004 21010 39742 49918 57019 78583 889// 333 91008
91111=
27577 41396 82402 10002 20002 39738 49892 56005 77172 8872/ 333 88709
91003 91106=
27593 41594 81406 11007 21010 39747 49935 56026 77573 8802/ 333 91012
91113=
27643 42497 82002 10016 20011 39731 49869 53007 885// 333 88612 91002
91104=
27653 41498 82202 10007 20001 39741 49892 54000 70272 885// 333 88614
91003 91105=
27665 41997 82402 10002 21012 39635 49901 53005 70272 8802/ 333 91004
91106=
27697 41495 81408 10000 20000 39730 49923 56027 77373 8872/ 333 91013
91116 92981=
27752 41496 82203 10013 20005 39733 49902 57001 71022 885// 333 91003
91106=
27756 41/93 92002 10008 20008 39683 49912 57002 74774 333 91003
91105=
27760 41294 82207 10002 21001 39668 49913 57010 77172 8872/ 333 91008
91109=
27835 41450 82603 10019 20005 39759 49914 53008 76162 8272/=
28009 41428 81202 11040 21055 39786 49998 57021 78583 889// 333 91006
91108=
28411 41397 81505 11028 21044 39830 40025 57016 72275 886// 333 91007
91109=
28418 41570 81705 11019 21034 39866 40032 57017 73653 885// 333 88621
91008 91110 93400=
28502 41597 81306 11003 21015 39859 49963 57035 78583 889// 333 91010
91112 92982=
28517 42597 81707 11009 21025 39873 40011 57019 885// 333 88622 91010
91110=
28612 41496 71707 11006 21020 39920 40019 58016 73833 875// 333 87614
91013 91113=
0000043300
062
UDEU02 EGRR 111222 RRG
AMDAR 1111
LVR EU0036   3511N 01047W 111139 F350 MS575 322/060 TB/ S031=
LVR EU0036   3428N 01125W 111146 F350 MS580 321/053 TB/ S031=
LVR EU0036   3346N 01202W 111153 F350 MS582 313/049 TB/ S031=
LVR EU0036   3304N 01238W 111200 F350 MS577 305/042 TB/ S031=
LVR EU0036   3223N 01312W 111207 F350 MS567 291/043 TB/ S031=
LVR EU0036   3141N 01346W 111214 F350 MS557 289/044 TB/ S031=
0000343000
063
SMRS15 RUMS 111200
AAXX 11121
22282 41998 21208 11215 21233 30175 40185 58004 73630 82070 333
91111=
22438 NIL=
22471 41/10 90810 11193 21226 30053 40079 57009 73973 333 89/03 91015
91115 92993=
22563 41836 80404 11164 21186 39981 40018 57006 77373 8802/ 333
91110=
22641 41397 80402 11156 21177 39966 49982 54000 77173 8672/ 333
86708=
22695 41996 80708 11146 21164 39855 40016 56017 77173 8802/ 91012=
22867 41396 83502 11019 21024 39748 49859 53003 77172 8872/ 333
86707=
22939 41496 83305 11058 21064 39720 49883 52033 77172 8872/ 333 84711
91110=
22996 41495 81403 11028 21041 39756 49941 57007 78583 8492/ 333
91111=
23324 42981 10304 11413 21444 30109 40202 57005 80001=
27008 41596 83103 11059 21070 39730 49902 52033 78587 889//=
27051 41395 80000 10001 21002 39685 49849 55001 77372 8652/ 333
85707=
27225 41459 82902 10020 20017 39725 49852 52013 76176 8872/=
27252 41458 81802 11001 21001 39678 49860 52004 71072 886// 333
88712=
27333 41239 82202 10013 20011 39701 49855 53007 76162 887// 333
88704=
27369 41595 81602 10002 21001 39740 49875 57005 77172 8802/ 333 88595
91002 91105=
27393 41494 81305 11011 21015 39776 49942 57024 77573 8872/ 333 91008
91110=
27479 41446 81503 10000 21003 39759 49891 57012 77172 8872/ 333 88712
91004 91108=
27532 41296 82304 10016 20011 39664 49867 53006 71022 8655/ 333
86706=
27648 42597 82502 10018 20014 39725 49890 53001 885//=
27675 41496 84704 10003 21003 39731 49898 57012 77172 8872/ 333 91004
91110=
27679 41494 81804 10001 21002 39684 49904 57013 78583 889// 333 91006
91109=
27776 41496 81802 10006 20004 39786 49908 56011 77172 8462/=
27799 41596 81603 10006 20003 39858 49948 56028 77172 8802/ 333
88523=
27858 41297 82404 10006 20004 39608 49924 53002 77174 8872/ 333
88703=
27872 41595 82002 10005 20002 39705 49919 55006 77372 8872/=
27894 41218 81909 10004 20000 39760 49937 56024 78582 889// 333 88705
91013 91116=
27955 41397 82303 10008 20005 39683 49933 55001 70272 886// 333
88708=
27972 41396 82305 10002 20001 39626 49933 55001 77177 8872/ 333
88508=
27981 41596 82203 10015 20005 39811 49932 56015 77087 8802/ 333
88523=
28214 41499 81307 11042 21058 39794 40007 57017 73673 8872/ 333 91010
91111=
28705 41495 81509 11000 21008 39781 49976 56028 77173 8802/ 333 88512
91014 91115 92982=
28806 41295 81605 11002 21014 39915 40034 56020 77373 8872/ 333 88506
91110 91112=
28908 41395 81611 10003 21004 39903 40015 58026 77373 8802/ 333 88507
91016 91116=
28916 42997 81805 11012 21030 39852 40092 57010 8802/ 333 91110=
34056 41597 82304 10011 20009 39689 49945 52003 70282 889// 333
88921=
34072 41395 82608 11001 21001 39583 49948 53003 77174 8872/ 333 88708
91012 91112=
34083 41395 81905 10008 20006 39837 49918 56019 77172 8872/ 333 88706
91112=
34098 41496 82106 10009 21001 39921 49966 56025 76176 8872/ 333 88710
91114=
34199 41496 81909 10005 20003 39875 40004 56023 77176 88020 333 91014
91116=
34273 41495 82406 10022 20009 39927 49988 53010 71062 8872/ 333 88710
91010 91113=
35001 41495 81707 10007 20000 39915 49995 56029 77372 8802/ 333 88510
91012 91116=
35007 41395 81707 10003 20000 39916 40007 56026 77373 8872/ 333 88707
91013 91114=
35127 42598 81803 11012 21024 39945 40128 57005 885// 333 88624=
35138 42397 82504 11007 21017 39788 40142 52005 886// 333 88707=
0000216700
064
SZNZ01 NZKL 111221
CREX++
T000103 A001 D01021 D06025++
-3683144 17478654 AUCT  2014 01 11 12 13 //// 11 07 00 01
04651 3224 04661 3226 04668 3225 04676 3224 04685 3226 04693 3225+
-4402404 -17636748 CHIT  2014 01 11 12 13 //// 11 07 00 01
05226 2042 05226 2040 05234 2045 05229 2037 05232 2038 05253 2056+
-4089929 17623168 CPIT  2014 01 11 12 13 //// 11 07 00 01
04221 2277 04241 2292 04234 2281 04252 2294 04243 2281 04248 2281+
-3618905 17548887 GBIT  2014 01 11 12 13 //// 11 07 00 01
05547 0000 05558 0005 05559 0001 05557 -0007 05562 -0008 05576 0000+
-3867541 17802288 GIST  2014 01 11 12 13 //// 11 07 00 01
04108 2718 04105 2709 04112 2711 04117 2711 04130 2719 04136 2720+
-4241288 17370277 KAIT  2014 01 11 12 13 //// 11 07 00 01
03822 2246 03825 2246 03841 2258 03833 2246 03844 2254 03841 2247+
-3755040 17815904 LOTT  2014 01 11 12 13 //// 11 07 00 01
03382 0209 03385 0207 03390 0206 03398 0209 03394 0200 03403 0204+
-3704657 17451175 MNKT  2014 01 11 12 13 //// 11 07 00 01
01784 -0161 01788 -0155 01786 -0155 01772 -0167 01778 -0158 01772 -0163+
-3947566 17692007 NAPT  2014 01 11 12 13 //// 11 07 00 01
03263 2021 03279 2032 03268 2016 03298 2042 03293 2032 03303 2037+
-3441483 17304870 NCPT  2014 01 11 12 13 //// 11 07 00 01
-04522 -8370 -04523 -8376 -04510 -8367 -04519 -8380 -04553 -8419 -04575 -8446+
-4581435 17062939 OTAT  2014 01 11 12 13 //// 11 07 00 01
05359 3473 05362 3474 05365 3476 05369 3478 05373 3481 05377 3483+
-2928002 -17789440 RBCT  2014 01 11 12 13 //// 11 07 00 01
05806 1982 05795 1968 05791 1960 05800 1965 05815 1977 05801 1959+
-2925114 -17790384 RFRT  2014 01 11 12 13 //// 11 07 00 01
02731 0161 02734 0160 02763 0185 02760 0179 02756 0170 02757 0168+
-4357010 17277383 SUMT  2014 01 11 12 13 //// 11 07 00 01
02672 1884 02663 1871 02631 1834 02672 1871 02685 1881 02681 1872+
-3764109 17618118 TAUT  2014 01 11 12 13 //// 11 07 00 01
04856 4046 04862 4046 04866 4044 04872 4045 04875 4043 04881 4044+
-4128448 17477985 WLGT  2014 01 11 12 13 //// 11 07 00 01
03532 2025 03543 2033 03542 2030 03552 2036 03546 2027 03546 2025++
7777
0000281400
065
SMRS16 RUMS 111200
AAXX 11121
34240 41498 82509 10042 20013 39860 49995 53008 78082 8697/ 333 91015
91115=
34253 41498 82206 10033 20017 39825 49987 52008 70262 889// 333
91110=
34254 41598 82305 10041 20022 39880 49999 53008 70288 884// 333 91012
91114=
34262 41598 82404 10031 20015 39855 49997 52014 70276 886// 333
91111=
34267 41598 72305 10040 20019 39881 40006 52011 70286 87300 333 91010
91110=
34321 41583 82805 10039 20016 39895 40032 52016 72162 8295/ 333
91112=
34344 42598 72506 10050 20018 39937 40023 53006 86530 333 91011
91113=
34356 41597 72406 10040 20019 39876 40022 52012 70262 87500 333 91011
91111=
34373 41597 82204 10026 20018 39975 40019 53018 70266 883// 333
91113=
34438 41497 82407 10043 20020 39868 40058 53008 70282 883// 333 91010
91118=
34445 41598 82508 10051 20016 39930 40042 51015 70262 885// 333 91013
91114=
34476 41598 32307 10044 20020 30041 40049 53018 70281 82530 333
91115=
34535 42598 82606 10061 20012 30007 40078 53007 333 91012 91117=
34555 41598 82410 10058 20018 39982 40072 52013 70282 885// 333 91014
91117=
34560 41597 72506 10044 20017 39891 40055 52014 78082 87300 333 87923
91010 91116=
34578 41597 82305 10060 20027 30072 40079 53020 70282 8636/ 333
91115=
34644 42597 62505 10055 20015 30024 40100 52007 86800 333 91011
91111=
34646 41598 72508 10055 20006 30012 40093 53012 70282 87500 333 87622
91013 91117=
34655 42597 72508 10067 20015 30032 40091 53010 87500 333 91012
91116=
34662 41498 32512 10073 20008 30066 40077 52016 70382 83500 333
91017=
34720 42597 22504 10046 20016 30082 40122 53005 82500 333 91112=
34727 42997 02306 10047 20019 30134 40138 53005 333 91011 91113=
34730 42497 72509 10040 20021 30024 40116 52007 85530 333 85612 91012
91114=
34740 41598 22506 10069 20022 30028 40124 53008 70281 82400 333 91011
91114=
34743 42497 82506 10066 20017 3//// 4//// 5//// 885// 333 91010
91114=
34759 42497 62506 10063 20020 39989 40118 52014 86900 333 91011
91113=
34785 41496 82005 10049 20026 30136 40114 54000 76162 8672/ 333
91111=
34824 42997 02504 10058 20012 30155 40160 53009 333 91011 91111=
34845 31598 52704 10071 20020 30025 40131 52012 70182 83530=
34858 41597 52705 10072 20019 30027 40133 53017 71082 82332 333 91010
91115=
34861 41597 62606 10049 20018 39879 40119 53014 70282 86500 333 91012
91116=
34866 82998 82505 10077 20036 30129 40120 53014 8007/ 333 91113=
34880 42597 81702 10056 20028 30152 40126 53009 8672/ 333 91110=
34887 42598 81802 10045 20027 30153 40134 53002 8257/=
37018 41698 62404 10099 20015 30125 40201 53017 70182 83909 333
91110=
37054 42598 82606 10056 20022 39780 40163 53021 885// 333 91010
91112=
37472 42598 82905 10083 20029 30152 40130 53032 8557/=
0000027900
066
SXHW11 KWAL 111220
B1404042 011122023"
1,140111,11:15:00,4.5,71,6.3,0.0,1013.8,3.00,11.8,
1,140111,11:30:00,4.1,77,6.8,0.0,1013.6,3.00,11.8,
1,140111,11:45:00,4.6,74,7.2,0.0,1013.5,3.00,11.8,
1,140111,12:00:00,4.7,75,8.2,0.0,1013.2,3.00,11.8, 44-0NN  30W
0000068600
067
USNZ02 NZKL 111200
TTAA 6109/ 93112
99015 16847 24502 00156 15839 92813 11033 85512 08460 70109 03465
50576 12561 40743 25368 30944 43166 25064 52962 20207 55371 15388
59377 10640 633// 88239 54761 ///// 77999 31313 48008 80929=
TTAA 6110/ 93417
99016 16837 02008 00138 16238 92795 10611 85497 10263 70092 03262
50574 11765 40741 24561 30944 41766 25064 52559 20205 62157 15384
59773 10636 62576 88195 63357 ///// 77999 31313 47100 80949=
TTAA 6110/ 93844
99006 15248 01009 00049 16459 92707 12260 85410 07659 70988 00704
50560 15758 40724 28563 30924 43171 25045 49972 20190 51976 15374
58175 10629 53979 88132 60177 ///// 77999 31313 47100 81003=
0000013000
068
SMAG02 SABM 111200 RRA
AAXX 11123
87453 12965 00902 10172 20115 39701 40186 52021 69914 333 10224
20139 30012=
00000000