0000008900
496
SAIN90 VAID 111200
METAR VAID 111200Z 05011KT 2000 HZ FEW020 16/11 Q1017=
0000008900
497
SAIN90 VOBZ 111200
METAR VOBZ 111200Z 14002KT 5000 HZ SCT020 26/19 Q1013=
0000026500
498
SAIN90 VANP 111200
METAR VIGR 111200Z 00000 1500 BR FEW250 17/10 Q1017=
METAR VAJB 111200Z 00000KT 1000 BR OVC010 16/14 Q1017=
METAR VAID 111200Z 05011KT 2000 HZ FEW020 16/11 Q1017=
METAR VAKJ 111200Z 02002KT 1000 BR SCT020 SCT100 17/15 Q1017=
0000048100
499
SAPL32 EPWA 101430
METAR EPBY 101430Z 26020KT 9999 -SHRA BKN018CB OVC023
    06/04 Q1005 =
METAR EPKT 101430Z 24016KT 9999 BKN030 06/00 Q1012 =
METAR EPLB 101430Z 26022KT CAVOK 06/01 Q1005 =
METAR EPMO 101430Z 26022G32KT 9999 SCT025TCU BKN035
    06/03 Q1004 =
METAR EPSC 101430Z 27014KT 9999 SCT021 BKN023 07/03
    Q1007 =
METAR EPWR 101430Z 27015KT 9999 BKN047 08/M00 Q1013 =
METAR EPZG 101430Z 25011KT 9999 BKN027 OVC037 07/03
    Q1011 =

0000044500
500
SAPL31 EPWA 101500
METAR EPGD 101500Z 29019KT 9999 -SHRA FEW011 BKN015CB
    05/03 Q1001 =
METAR EPKK 101500Z 25018KT 9999 FEW040 BKN053 06/01
    Q1013 =
METAR EPLL 101500Z 27020G30KT 9999 SCT024CB BKN030
    06/02 Q1009 =
METAR EPPO 101500Z 26020G30KT 9999 BKN023 06/03 Q1009
    R10/19//95 =
METAR EPRZ 101500Z 27021KT 9999 FEW033 06/01 Q1011 =
METAR EPWA 101500Z 27020G30KT 9999 BKN026 06/02 Q1006 NOSIG=

0000046500
501
SAPL32 EPWA 101500
METAR EPBY 101500Z 26018KT 9999 -SHRA BKN018CB OVC025
    06/04 Q1005 =
METAR EPKT 101500Z 24018KT 9999 BKN030 05/00 Q1013 =
METAR EPLB 101500Z 25018KT 9999 BKN047 06/02 Q1005 =
METAR EPMO 101500Z 25021G32KT 9999 BKN025 06/03 Q1005 =
METAR EPSC 101500Z 26015KT 9999 SCT021 BKN030 07/03
    Q1008 =
METAR EPWR 101500Z 27015KT CAVOK 08/M00 Q1013 =
METAR EPZG 101500Z 25010KT 9999 SCT025 BKN033 07/03
    Q1011 =

0000044700
502
SAPL31 EPWA 101530
METAR EPGD 101530Z 29021KT 9999 FEW011 BKN015CB 05/03
    Q1001 =
METAR EPKK 101530Z 25018KT 9999 FEW040 BKN053 06/01
    Q1013 =
METAR EPLL 101530Z 26016KT 9999 SCT036CB BKN044 06/02
    Q1009 =
METAR EPPO 101530Z 26017KT 9999 BKN025 06/02 Q1010
    R10/19//95 =
METAR EPRZ 101530Z 27018KT 9999 FEW033 06/00 Q1011 =
METAR EPWA 101530Z 26020G30KT 230V290 9999 BKN023 06/02 Q1006
    NOSIG=

0000048000
503
SAPL32 EPWA 101530
METAR EPBY 101530Z 26018KT 9999 SCT017CB BKN023 OVC029
    06/04 Q1006 =
METAR EPKT 101530Z 24018KT 9999 SCT040 05/00 Q1013 =
METAR EPLB 101530Z 26019G31KT 9999 BKN040 06/02 Q1005 =
METAR EPMO 101530Z 25020KT 9999 BKN026 06/03 Q1005 =
METAR EPSC 101530Z 26014KT 9999 SCT023 BKN026 07/02
    Q1008 =
METAR EPWR 101530Z 26016KT 9999 BKN046 08/M01 Q1014 =
METAR EPZG 101530Z 25011KT 220V290 9999 FEW030 SCT038
    07/02 Q1012 =

0000011200
504
SALT32 EYVI 101550
METAR EYKA 101550Z 26022G32KT 9999 BKN018 OVC027 04/01 Q0991
R08/290095=

0000010500
505
SANK31 MNMG 101600
METAR  
MNMG 101600Z 10014KT 9999 FEW023 30/19 Q1013 A2993 NOSIG=

0000015100
506
SAES20 MSLP 101600
METAR MSLP 101550Z 02010KT 350V050 CAVOK 31/17 Q1013 A2992=
METAR MSSS 101550Z 33008KT CAVOK 26/19 Q1017 A3006=

0000028200
507
FTSU31 HSSS 101600
TAF
HSSS  101600Z 1018/1124  34012G22KT CAVOK
      TEMPO 1105/1110 6000 NSC=
HSPN  101600Z 1018/1124  36012G22KT CAVOK
      BECMG 1021/1023 29008KT
      BECMG 1107/1109 02012G22KT 9999 SCT030 SCT130
      BECMG 1121/1123 27008KT=

0000019500
508
FTUS41 KWBC 101551 AAA
TAF AMD
KCAK 101548Z 1016/1112 18008KT 2SM BR BKN005 OVC018
     FM110400 15012KT 4SM -RA BR SCT007 OVC015
     FM110600 18015KT 4SM -RA BR OVC007=

0000011700
509
SALT33 EYVI 101550
METAR EYPA 101550Z 30011G24KT 250V350 9999 -RA BKN014 03/02 Q0994
R01/2///95=

0000011600
510
SALT34 EYVI 101550
METAR EYSA 101550Z 27024KT 9000 OVC008 02/02 Q0987 R14L/2/0295 
R14R/2/0295=

0000019500
511
FTUS71 KWBC 101551 AAA
TAF AMD
KCAK 101548Z 1016/1112 18008KT 2SM BR BKN005 OVC018
     FM110400 15012KT 4SM -RA BR SCT007 OVC015
     FM110600 18015KT 4SM -RA BR OVC007=

0000023500
512
FTCN34 CWAO 101500 AAA
TAF AMD CYQK 101550Z 1015/1102 17012KT 2SM -SN BR OVC003 TEMPO
     1015/1024 6SM -SN OVC008
    FM110000 17012KT 6SM BR OVC005 TEMPO 1100/1102 5SM -SN OVC012
    RMK NXT FCST BY 102000Z=

0000187900
513
SPUS70 KWBC 101550
SPECI
KDXR 101546Z 00000KT 2 1/2SM -SN OVC016 M02/M05 A3046 RMK AO2
     P0000=
KFOE 101546Z 00000KT 1/4SM R31/2200V3500FT FG OVC002 02/01 A2968
     RMK AO2 T00170006=
KGGG 101546Z 17020G23KT 10SM SCT013 BKN075 16/13 A2991 RMK AO2=
KLBT 101546Z AUTO 04006KT 4SM -RA BR BKN060 OVC075 11/10 A3032 RMK
     AO2 P0011 T01110100=
KRDU 101546Z 02006KT 2SM -RA BR FEW030 BKN055 OVC080 05/02 A3036
     RMK AO2 SFC VIS 3 P0000=
KTTN 101546Z 00000KT 2SM UP BR BKN004 OVC047 00/M01 A3046 RMK AO2
     UPB46FZRAE46 P0001 $=
PAGK 101546Z AUTO 00000KT 2SM -SN BR BKN036 OVC055 M09/M11 A2933
     RMK AO2 P0001 T10891106 TSNO=
K7R3 101532Z 11008KT 2SM FG OVC001 14/M A3011=
KAGS 101546Z 02004KT 2SM -RA BR OVC002 09/08 A3027 RMK AO2 RAB28
     P0005=
KBOK 101546Z AUTO 11004KT 1/2SM FG OVC002 09/09 A3025 RMK AO2
     RAE35 P0000 $=
K1M4 101547Z AUTO 14007KT 3SM BR OVC002 07/07 A3018 RMK AO2=
KAGC 101547Z 19008KT 8SM OVC009 04/02 A3027 RMK AO2=
KBAZ 101547Z 21009KT 10SM OVC008 18/18 A2994 RMK AO2 RAB1452E15
     CIG 006V012 P0001=
KDEC 101547Z 15009KT 6SM BR SCT004 OVC019 02/00 A3000 RMK AO2=
KHRL 101547Z 17021G28KT 10SM BKN013 BKN020 OVC037 21/19 A2991 RMK
     AO2 PK WND 17028/1543=
KJST 101547Z AUTO 21005KT 1 3/4SM BR OVC003 01/00 A3026 RMK AO2
     T00060000=
KLAW 101547Z AUTO 24004KT 3SM BR SCT002 09/09 A2976 RMK AO2=
KLWM 101547Z 21005KT 7SM -SN SCT010 OVC050 M03/M06 A3049 RMK AO2
     SNE09B36 P0000 T10281061=
KROG 101547Z 18014KT 7SM VCTS RA SCT005 BKN044 OVC070 10/09 A2982
     RMK AO2 LTG DSNT ALQDS TSB13RAB05 P0017=
KSRC 101547Z AUTO 15007KT 4SM -RA BR FEW001 BKN020 OVC027 06/06
     A3002 RMK AO2 TSNO OVC V BKN P0008=
KSTL 101547Z 15013KT 6SM HZ BKN009 OVC034 03/01 A2994 RMK AO2=
KY50 101547Z AUTO 17006KT 1SM BR OVC002 M03/ A2993 RMK AO2 TSNO
     $=

0000011100
514
SPUS31 KWBC 101550
SPECI
KRDU 101546Z 02006KT 2SM -RA BR FEW030 BKN055 OVC080 05/02 A3036=

0000010000
515
SPUS31 KWBC 101550
SPECI
KSTL 101547Z 15013KT 6SM HZ BKN009 OVC034 03/01 A2994=

00000000