0000011600
516
SPUS31 KWBC 101550
SPECI
KTEB 101546Z 32004KT 3SM -FZRAPL FEW008 BKN018 OVC025 M01/M03
A3048=

0000009000
517
SPUS41 KWBC 101550
SPECI
KAGC 101547Z 19008KT 8SM OVC009 04/02 A3027=

0000009300
518
SPUS41 KWBC 101550
SPECI
KCAE 101546Z 00000KT 5SM BR OVC005 09/08 A3029=

0000010300
519
SPUS41 KWBC 101550
SPECI
KLWM 101547Z 21005KT 7SM -SN SCT010 OVC050 M03/M06 A3049=

0000010200
520
SPUS41 KWBC 101550
SPECI
KPVD 101547Z 00000KT 4SM BR BKN003 OVC028 M03/M04 A3049=

0000011200
521
SPUS41 KWBC 101550
SPECI
KWRI 101547Z AUTO 00000KT 2 1/2SM UP BR FEW003 OVC040 00/00 A3044=

0000010800
522
SPUS42 KWBC 101550
SPECI
KHRL 101547Z 17021G28KT 10SM BKN013 BKN020 OVC037 21/19 A2991=

0000010000
523
SAUS71 KWBC 101500 RRJ
METAR
KSWF 101545Z 00000KT 2SM -SN OVC014 M03/M04 A3046=

0000009300
524
SAUS74 KWBC 101500 RRE
METAR
KIWA 101547Z 12007KT 30SM SKC 05/M03 A3012=

0000007700
525
FCFR23 LFPW 101400 AAA
TAF AMD LFRJ 101547Z 1015/1024 CNL=

0000009900
526
SPCN47 CWAO 101550
SPECI CYWA 101550Z AUTO 14004KT 5SM -SN BKN051 M09/M10 A3025=

0000012500
527
SAMP31 LMMM 101600
METAR HLLT NIL=
METAR HLLB NIL=
METAR LMML 101545Z 26008KT CAVOK 16/11 Q1022 NOSIG=

0000010900
528
SAVN31 SVVA 101600
METAR SVVA 101600Z 11006KT CAVOK 29/19 Q1016=
METAR SVPC 101600Z NIL=

0000182300
529
SPUS70 KWBC 101552
SPECI
KACT 101548Z 20011KT 10SM BKN011 BKN070 BKN090 17/16 A2990 RMK
     AO2=
KAHN 101548Z 05007KT 1 1/2SM -RA BR OVC005 06/05 A3028 RMK AO2
     P0003=
KAZO 101548Z 17004KT 1/2SM FG OVC002 01/M01 A3008 RMK AO2=
KBTL 101548Z 15006KT 1 3/4SM BR OVC002 00/M01 A3008 RMK AO2
     I1000=
KCPS 101548Z 15009G14KT 9SM OVC008 02/01 A2997 RMK AO2 CIG
     007V012=
KDEQ 101548Z AUTO 14004KT 2SM -RA BR OVC004 12/12 A2990 RMK AO2
     P0002=
KMLI 101548Z 13009KT 3SM BR OVC006 01/M01 A2989 RMK AO2 PRESFR=
KOGB 101548Z AUTO 02004KT 9SM -RA SCT021 BKN046 OVC060 12/10 A3028
     RMK AO2 RAB37 P0000 TSNO=
KSHN 101548Z AUTO 22014G21KT 3SM -RA BR BKN012 OVC020 07/06 A3004
     RMK AO2 RAB30 P0000 TSNO=
KSPI 101548Z 15015G21KT 7SM BKN006 OVC016 02/01 A2996 RMK AO2=
KTOI 101548Z AUTO VRB03KT 1 3/4SM BR OVC003 10/09 A3021 RMK
     AO2=
KTRL 101548Z AUTO 17013KT 4SM -RA BR BKN006 BKN013 OVC032 15/15
     A2989 RMK AO2 P0013=
KAJO 101549Z AUTO 00000KT 3/4SM BR VV001 02/02 A3012 RMK AO2 $=
KARB 101549Z 18006KT 1 1/4SM BR OVC002 01/00 A3015 RMK AO2=
KBKV 101549Z 13005KT 10SM BKN015 23/19 A3018 RMK AO2=
KBWI 101549Z 08005KT 1SM R10/P6000FT -RA BR BKN005 BKN047 OVC080
     01/M01 A3043 RMK AO2 RAB46FZRAE46 P0002=
KDPA 101549Z 16010KT 1/4SM R02L/4000FT FG VV002 00/00 A2999 RMK
     AO2 TWR VIS 1/2=
KHWV 101549Z AUTO 00000KT 6SM -FZRA BR OVC026 M01/M03 A3048 RMK
     AO2 UPE43FZRAB43 P0001 I1001 T10061028 TSNO=
KMSY 101549Z 11005KT 4SM BR OVC006 14/12 A3014 RMK AO2=
PAGN 101549Z AUTO 00000KT 10SM -RA FEW006 SCT014 BKN034 A2953 RMK
     AO2 TSNO RAB08 P0000 $=
PAGN 101549Z AUTO 00000KT 10SM -RA FEW006 SCT014 BKN034 A2953 RMK
     AO2 TSNO RAB08 P0000 $=
PAPB 101549Z AUTO 30003KT 7SM BKN020 01/00 A2917 RMK AO2 TSNO=

0000009600
530
SPUS43 KWBC 101552
SPECI
KAZO 101548Z 17004KT 1/2SM FG OVC002 01/M01 A3008=

0000009800
531
SPUS43 KWBC 101552
SPECI
KBTL 101548Z 15006KT 1 3/4SM BR OVC002 00/M01 A3008=

0000009400
532
SPUS43 KWBC 101552
SPECI
KMLI 101548Z 13009KT 3SM BR OVC006 01/M01 A2989=

0000023200
533
SAIS31 LLBG 101550
METAR LLET 101550Z NIL=
METAR LLHA 101550Z 12006KT 9999 SCT035 13/05 Q1019 RMK BKN060=
METAR LLIB 101550Z NIL=
METAR LLOV 101550Z NIL=
METAR LLSD 101550Z VRB03KT 9999 BKN030 15/10 Q1018=

0000012800
534
SAMO31 ZMUB 101600
METAR ZMUB 101600Z VRB02MPS 5000NW FU SCT100 M29/M33 Q1023 NOSIG RMK

 QFE659.5 69 NT=

0000066300
535
FTPK31 OPKC 101545
TAF OPMT 101545Z 1018/1112 00000KTS 2500 FU NSC TN03/1101Z TX18/1110
PROB30 TEMPO 1101/1105
00000KTS 1000 BR NSC TEMPO 1008/1012 36005KTS 4000 FU NSC=
TAF OPBW 101545Z 1018/1112 00000KTS 2500 FU NSC TN03/1101Z TX18/1110
PROB30 TEMPO 1101/1105 00000KTS 1000 BR NSC TEMPO 1008/1012 36005KTS
4000 FU NSC=
TAF OPRK 101545Z 1018/1112 00000KTS 2500 FU NSC TN03/1101Z TX19/1110
PROB30 TEMPO 1101/1105 00000KTS 1000 BR NSC TEMPO 1008/1012 36005KTS
4000 FU NSC=
TAF OPDG 101545Z 1018/1112 00000KTS 2500 FU NSC TN04/1101Z TX20/1110
PROB30 TEMPO 1101/1105 00000KTS 1000 BR NSC TEMPO 1008/1012 36005KTS
4000 FU NSC=

00000000