0000038800
336
SAAE33 VTBB 101630
METAR VVTS 101630Z 06003KT 9999 FEW017 SCT040 23/20 Q1013 NOSIG =
METAR VVNB 101630Z 29003KT 2700 BR FEW020 BKN050 16/11 Q1021 NOSIG=
METAR VVDN 101630Z VRB02KT 4000 BR SCT013 BKN060 22/19 Q1020 NOSIG=
METAR VVPB 101630Z NIL=
METAR VVCR 101630Z 01009KT 9999 FEW017 SCT060 25/19 Q1017 NOSIG=
METAR VVCT 101630Z NIL=
METAR VVPQ 101630Z NIL=

0000032700
337
FTCA35 KWBC 101636
TAF
TAF MGPB 1018/1118 VRB04KT 9999 SCT018 SCT090 TX27/1020Z
      TN16/1112Z
      BECMG 1104/1106 00000KT FEW016
      TEMPO 1108/11016 CAVOK=
TAF MGSJ 1018/1118 02008KT 9000 FEW020 TX32/1020Z TN18/1112Z
      TEMPO 1022/1102 FEW020 TCU
      BECMG 1102/1104 00000KT CAVOK=

0000061100
338
FTMX31 KWBC 101636
TAF
TAF MMGL 101633Z 1018/1124 24012KT P6SM SCT030 TX25/1021Z
      TN03/1113Z
     FM110300 00000KT P6SM SCT080
      BECMG 1107/1108 BKN080
     FM111700 13008KT P6SM SCT030 BKN090=
TAF MMMY 101635Z 1018/1124 30010KT 5SM HZ SCT020 TX24/1021Z
      TN10/1112Z
     FM102100 30012KT P6SM SCT100 BKN250
     FM110300 30010G20KT P6SM BKN250
     FM111200 02015KT P6SM BKN250=
TAF MMPR 101633Z 1018/1124 20010KT P6SM SCT120 TX27/1020Z
      TN17/1113Z
     FM110300 03005KT P6SM SKC
      BECMG 1109/1110 BKN120
     FM111700 20008KT P6SM BKN120=

0000073100
339
FTMX41 KWBC 101636
TAF
TAF MMCS 101635Z 1018/1118 27010G20KT P6SM BKN250
     FM102100 30010G20KT P6SM SCT250
     FM110600 27012KT P6SM SCT250=
TAF MMCU 101635Z 1018/1118 24010KT P6SM SCT100 BKN250
     FM102100 30012KT P6SM SCT100 BKN250
     FM110000 02012KT P6SM BKN250
     FM110600 30012KT P6SM SCT250=
TAF MMGL 101633Z 1018/1124 24012KT P6SM SCT030 TX25/1021Z
      TN03/1113Z
     FM110300 00000KT P6SM SCT080
      BECMG 1107/1108 BKN080
     FM111700 13008KT P6SM SCT030 BKN090=
TAF MMMM 101633Z 1018/1124 22010KT P6SM SCT025 TX24/1021Z
      TN03/1113Z
     FM110300 00000KT P6SM BKN030
     FM111000 00000KT 4SM HZ BR SCT030
     FM111600 12008KT P6SM SCT030 BKN200=

0000046200
340
SMSN02 ESWI 111200
AAXX 11121
02464 45382 /0302 11023 21035 39991 40009 55004 8//// 333 88/08=
02500 05/63 /3202 10024 20020 39937 49980 50000 60001 8/000
  333 60005 90760 91103=
02513 06/// /2404 10066 20046 39995 49999 58011 60001 8/000
  333 60005 90760 91107=
02615 07233 /2210 10059 20059 30046 40050 58018 69921 75186
  333 69925 88/05 90760 91113=
02635 07/26 /2304 10060 20060 69941 76186 8/000
  333 69935 90760 91110=
0000009400
341
SNNO21 ENMI 111100 RRB
AAXX 11111
01300 46/// /0102 10025 21021 39906 40004=
0000009400
342
SNNO22 ENMI 111100 RRC
AAXX 11111
01400 46/// /2711 10065 20012 30008 40069=
0000053800
343
SSVX02 LFVW 111212
ZZYY 23598 11014 1150/ 114622 083036 6111/
11119 40147 57001
22219 00265
444 20110 11014 1015/ 503// 80108 80011=
ZZYY 41653 11014 1207/ 722220 048634 6112/
22219 00246
33311 88872 20000 32458 43736
444 2012/ 11014 1132/ 50101 9/015=
ZZYY 41648 11014 1207/ 725635 043583 6112/
22219 00233
33311 88872 20000 32333 43740
444 2012/ 11014 1130/ 50101 9/015=
ZZYY 41644 11014 1207/ 730939 039767 6112/
22219 00216
33311 88872 20000 32165 43643
444 2012/ 11014 1130/ 50101 9/015=
0000020100
344
SMVD15 KWNB 111200 RRI
BBXX
41051 11121 99183 70650 46/// /1311 10231 91150 333 91213 555
11117 22127=
41051 11121 99183 70650 46/// /1112 10238 91140 333 91214 555
11132 22143=
0000014000
345
SMVD15 KWNB 111200 RRH
BBXX
41051 11121 99183 70650 46/// /1311 10237 91200 22200 10403 70013
333 91213 555 11118 22129=
0000068900
346
SMUY01 SUMU 111200
AAXX 11124
86330 11597 81904 10206 20197 40132 52039 60544 79196 8492/ 333 10224 20195 32020=
86360 11497 81810 10231 20216 40129 51021 60014 70292 8577/ 333 10252 20217 31019=
86460 12397 81812 10212 20190 40130 52019 60154 886// 333 10214 20190 31018=
86490 12997 71513 10211 20147 40151 52026 60034 85076 333 10226 20185 31018=
86530 12497 81619 10207 20175 40139 52028 60114 8357/ 333 10210 20174 31///=
86545 11597 81819 10206 20163 40151 52032 60034 70252 882// 333 10290 20170 31015=
86565 12497 82111 10210 20182 40130 52031 69904 887// 333 10226 20184 31014=
86580 32597 7//// 10210 20160 40146 52016 86470 333 10242 20198 30018=
0000097500
347
UDAS02 BABJ 111202
AMDAR 1112
DES CNFNXN 3905N 11619E 111156 F138 MS238 295/034 TB/ S//1=
DES CNFNXN 3908N 11622E 111157 F138 MS240 292/040 TB/ S//1=
DES CNFNXN 3909N 11622E 111157 F138 MS240 290/040 TB/ S//1=
DES CNFNXN 3913N 11622E 111158 F133 MS230 297/028 TB/ S//1=
LVR CNFLWT 3036N 11525E 111151 F301 MS368 257/108 TB/ S//1=
LVR CNFLWT 3031N 11507E 111154 F301 MS366 255/107 TB/ S//1=
LVR CNFLWT 3035N 11447E 111157 F301 MS375 254/103 TB/ S//1=
LVR CNFLWT 3034N 11427E 111200 F301 MS375 253/101 TB/ S//1=
ASC CNFPQK 3812N 11439E 111159 F044 MS028 346/025 TB/ S//1=
ASC CNFPQK 3813N 11436E 111200 F063 MS071 298/022 TB/ S//1=
ASC CNFPQK 3814N 11434E 111200 F079 MS115 294/021 TB/ S//1=
LVR CNFOZL 2731N 11334E 111159 F246 MS218 253/097 TB/ S//1=
LVR CNFOZL 2737N 11334E 111200 F246 MS218 255/097 TB/ S//1=
LVR CNFOZL 2738N 11334E 111200 F246 MS219 255/096 TB/ S//1=
LVR CNFOZL 2745N 11335E 111201 F246 MS218 254/097 TB/ S//1=
0000018500
348
SMIL41 BIRK 111200
AAXX 11124
04038 42586 32904 11030 21069 40019 52025 82530 555 3/409 611//=
04053 41457 81908 10002 21009 40009 52036 78522 886// 555 3//11 88716=
0000017900
349
SMIL42 BIRK 111200
AAXX 11123
04073 41475 70924 11012 21023 49993 52014 73632 82272 555 3//30=
04085 41550 81224 10014 21021 49987 52031 71832 886// 555 3//35=
0000171900
350
UDAS02 BABJ 111204
AMDAR 1112
DES CNFPYN 3413N 11256E 111159 F140 MS129 297/021 TB/ S//1=
DES CNFPYN 3414N 11258E 111159 F135 MS128 318/019 TB/ S//1=
DES CNFPYN 3417N 11304E 111200 F119 MS135 350/011 TB/ S//1=
DES CNFPYN 3420N 11310E 111201 F103 MS105 011/007 TB/ S//1=
DES CNFOZN 2251N 11453E 111150 F182 MS084 273/049 TB/ S//1=
DES CNFOZN 2251N 11450E 111150 F170 MS070 274/041 TB/ S//1=
DES CNFOZN 2250N 11447E 111151 F155 MS046 267/036 TB/ S//1=
DES CNFOZN 2250N 11442E 111152 F124 PS011 285/027 TB/ S//1=
DES CNFNXN 3917N 11624E 111159 F115 MS190 296/025 TB/ S//1=
DES CNFNXN 3920N 11627E 111200 F104 MS175 306/026 TB/ S//1=
DES CNFNXN 3921N 11627E 111200 F103 MS174 306/026 TB/ S//1=
DES CNFNXN 3925N 11630E 111201 F092 MS161 309/022 TB/ S//1=
DES CNFOZN 2250N 11436E 111153 F106 PS036 281/022 TB/ S//1=
DES CNFOZN 2250N 11433E 111153 F101 PS026 271/016 TB/ S//1=
DES CNFOZN 2250N 11431E 111154 F092 MS008 009/005 TB/ S//1=
DES CNFOZN 2250N 11426E 111155 F078 PS023 253/003 TB/ S//1=
DES CNFOZN 2250N 11421E 111156 F067 PS053 208/006 TB/ S//1=
DES CNFOZN 2250N 11418E 111156 F067 PS058 232/002 TB/ S//1=
DES CNFOZN 2250N 11416E 111157 F067 PS058 236/002 TB/ S//1=
DES CNFOZN 2250N 11411E 111158 F063 PS068 174/001 TB/ S//1=
DES CNFOZN 2250N 11407E 111159 F057 PS081 201/003 TB/ S//1=
DES CNFOZN 2250N 11405E 111159 F052 PS090 185/005 TB/ S//1=
DES CNFOZN 2250N 11403E 111200 F047 PS099 131/006 TB/ S//1=
DES CNFOZN 2251N 11359E 111201 F047 PS108 179/003 TB/ S//1=
ASC CNFPQK 3815N 11432E 111201 F093 MS149 294/019 TB/ S//1=
ASC CNFPQK 3816N 11430E 111201 F108 MS170 313/023 TB/ S//1=
ASC CNFPQK 3817N 11427E 111202 F125 MS201 306/027 TB/ S//1=
0000034000
351
SMYG21 LYBM 111200
AAXX 11121
13067 32697 71802 10082 20058 30082 40212 57017 87500=
13183 32970 31606 10126 20014 30109 40213 57024 81031 333 81360=
13279 32998 31402 10145 20031 30072 40216 57020 80002=
13295 32998 21102 10148 20035 30159 40213 57023 81031=
13367 32898 42503 10100 20020 39033 48532 58009 82032=
0000053400
352
SMYG22 LYBM 111200
AAXX 11121
13168 32998 52502 10151 20075 30103 40208 58021 81036=
13174 32698 71804 10112 20045 30106 40206 56024 84570=
13269 32997 23601 10146 20064 30001 40211 57017 80001=
13274 32998 60000 10133 20045 30054 40213 57014 80008=
13278 32997 22301 10134 20049 30001 40222 57022 80001=
13378 32498 52604 10031 20006 38301 48525 58008 83105 333 4/002=
13397 32698 62503 10071 20016 39696 40239 57015 81570=
13457 32670 32901 10147 20075 30224 40231 57013 81231 333 81833=
13481 NIL=
0000025300
353
SMMG20 FMMD 111200
AAXX 11124
67017 NIL=
67020 NIL=
67022 NIL=
67023 11458 80000 10246 20242 30106 40112 58013 60191 79196 889//
  333 0//11 85817 81917 88640 94971/2 95871/2=
67037 NIL=
67067 NIL=
67107 NIL=
67131 NIL=
0000011200
354
SMVF51 EGRR 111200
BBXX
64046 11124 99605 70042 46/// /3123 10053 20025 40035 333 90710 91131=
0000011600
355
SMVF51 EGRR 111200
BBXX
62050 11124 99500 70044 46/// /0803 10099 20040 40213 22200 10602
70010=
00000000