0000033600
829
USIE01 EIDB 111200
TTAA 11121 03953
99016 07457 15002 00157 06857 15009 92791 01256 16006
85468 00770 18004 70001 08966 24505 50552 24960 25024
40711 37963 26526 30903 52958 28030 25018 62756 27531
20155 57374 25025 15340 52583 24015 10602 54383 23019
88229 66756 26533
77239 27033 40513
31313 48008 81115=
0000075400
830
SMCG20 FCBB 111200
AAXX 11124
64402 31465 70404 10281 20237 39534 40/// 70242 872//
  333 0//00 58004 87816 94919 95839=
AAXX 11123
64403 31460 72602 10288 20241 39/// 40/// 70342 879//
  333 0//00 5//// 86816 81928 94967 95837=
64405 31460 60000 10266 20225 39/// 40/// 70242 86200
  333 0//00 5//// 86812 94919 95839=
64406 32570 60000 10300 20244 39/// 40/// 85204
  333 0//00 5//// 85820 83080 94919 95839=
64452 32460 70404 10270 20206 39/// 40/// 8323/
  333 0//00 5//// 83813 87360 94913 95833=
64454 11960 61402 10290 20209 39708 40/// 60011 70166 83082
  333 0//54 58012 83363 85080=
64462 NIL=
64463 11460 53602 10257 20213 39/// 40/// 60061 70196 82180
  333 0//53 5//// 82816 85362 94904 95834=
0000038800
831
SSVX03 LFVW 111218
ZZYY 31052 11014 11001 508149 034560 6112/
11119 01307 11100 21100 40131
22219 10703 20074 21013
33311 66699 20030 05///
444 20120 11014 1034/ 518// 60371=
ZZYY 31053 11014 11001 531581 049875 6113/
11119 00000 10247 40113
22219 00253 10802 20077 21009
33311 66699 20007 09013 20030 01012 20055 06011
444 20130 11014 1047/ 518// 60371=
0000017500
832
ULVX01 EDZW 111200
UUCC ASES01 11115 99209 70174 07407
70856 72169 28507 50059 62379 32004 30378 /////
88921 75566 25512
77999
31313 48070 81059 90140=
0000032900
833
UEVX01 EDZW 111200
UUDD ASES01 1111/ 99209 70174 07407
11921 75566 22723 74368 33647 68372 44539 67176 55495
61578 66468 63179 77321 56581
21212 11971 25012 22867 25012 33839 26014 44703 28508
55680 26507 66642 19010 77619 16510 88604 17007 99583
11001 11409 06506 22372 07007
31313 48070 81059 90140=
0000021300
834
SMVD15 KWNB 111200 RRK
BBXX
41056 11121 99183 70655 46/// /0606 10252 40184 91150 333 91208
555 11070 22076=
41056 11121 99183 70655 46/// /0606 10250 40182 91140 333 91208
555 11069 22075=
0000095100
835
SMCD01 FTTJ 111200
AAXX 11124
64701 31930 00425 10245 20074 3//// 4//// 73130
  333 0//00 5////=
64702 32960 32214 10305 20096 3//// 4//// 80002
  333 0//00 5//// 83075=
64705 NIL=
64706 32960 61006 10295 20025 39651 40121 82032
  333 0//00 58009 82365 85075=
64708 NIL=
64709 31957 40406 10295 20008 3//// 4//// 70540 80002
  333 0//00 5//// 84075=
64710 32960 60000 10298 20022 3//// 4//// 82032
  333 0//00 5//// 82365 85075=
64713 32960 70408 10320 21006 3//// 4//// 80002
  333 0//00 5//// 87075=
64722 NIL=
64751 NIL=
64753 31957 00416 10235 21010 3//// 4//// 70700
  333 0//00 5////=
64754 NIL=
64756 32960 60208 10290 20050 39512 4//// 80002
  333 0//00 58003 86075=
64757 31957 01016 10257 20099 3//// 4//// 70700
  333 0//00 5////=
64758 32962 50410 10310 21010 3//// 4//// 80002
  333 0//00 5//// 85075=
64761 32960 20810 10276 21007 3//// 4//// 80002
  333 0//00 5////=
0000034700
836
SMTG01 DXXX 111200
AAXX 11124
65352 31908 70408 10320 20032 3//// 4//// 70542 80002
  333 5//// 87076=
65361 32958 71404 10315 20148 3//// 4//// 80002
  333 5//// 87076=
65376 32458 71404 10310 20190 39655 40110 81202
  333 59003 81816 87076=
65387 32460 70180 10312 20238 30084 40102 82202
  333 59001 82816 87073=
0000077000
837
SMMT01 GQNN 111200
AAXX 11124
61401 NIL=
61404 33960 00804 10186 20088 39780 40178
  333 0//00 58030 81708=
61415 32356 10310 10183 20152 30187 40192 81600
  333 0//00 58030 81708=
61421 32960 03606 10227 20118 39912 40172
  333 0//00 58005=
61437 33960 00404 10237 20069 30040 40178
  333 0//00 58008=
61442 32960 00512 10226 20157 30167 40170
  333 0//00 58029=
61450 33960 00808 10240 20049 39683 4////
  333 0//00 58012=
61461 33960 03604 10230 20070 30076 40164
  333 0//00 58003=
61489 33960 30804 10232 20112 30157 40164
  333 0//00 58003 83073=
61492 NIL=
61497 NIL=
61498 33958 00406 10292 20074 39990 40140
  333 0//00 58002=
61499 35960 20406 10265 20022 39797 40124 82030
  333 0//00 58002 82363=
0000025200
838
SMCA01 TNCC 111200
AAXX 11124
78988 02475 31110 10269 20210 30156 40167 52023 60001 83250
  333 10319 20255 58010 60007 82819 83358=
78873 01070 /0618 1//// 2//// 30152 52022 60001 70000
  333 10000 2//// 58007 60007 70013=
/=
0000011100
839
UANT99 KDDL 111217
ARP DAL185 5201N01915W 1217 F350 MS62 213/74 KT
N801NW DDL XXW 111217 J12A
0000011100
840
UANT99 KDDL 111217
ARP DAL229 5201N01557W 1217 F330 MS59 233/67 KT
N1201P QXT AOE 111217 F21A
0000011000
841
UANT99 KDDL 111217
ARP UAL75 5401N03021W 1217 F360 MS59 190/57 KT
N17133 DDL IG1 111217 F47A
0000011000
842
UANT99 KDDL 111217
ARP VJT748 6007N02814W 1217 F410 MS57 037/56 KT
9HVJC QXT EUA 111217 M93A
0000011000
843
UANT99 KDDL 111217
ARP DLH462 4803N01916W 1217 F340 MS60 208/87 KT
DAIMI QXT EUA 111217 J20A
0000011000
844
UANT99 KDDL 111217
ARP CRL926 4803N01240W 1217 F340 MS61 261/56 KT
FHSKY QXT EUA 111217 J79A
0000003900
845
SMVC01 ESWI 111200
NIL=
0000003900
846
SMVJ01 ESWI 111200
NIL=
0000034400
847
SMCI01 BABJ 111200 RRA
AAXX 11121
50468 32970 03203 11270 21326 30062 40302 52006=
51709 32965 21402 11037 21114 38740 40419 57001 82/// 333
00100=
53513 32970 01802 11102 21221 39120 40436 52021 333 00502=
54337 32926 00203 11052 21106 30203 40291 52017=
57083 31923 72501 10055 21046 30159 40301 52010 70500 87///=
0000028900
848
SMCI02 BABJ 111200 RRA
AAXX 11121
57494 31658 82201 10043 20028 30281 40313 52010 71000 88///=
58102 32962 01601 10042 21050 30256 40306 52006=
58221 31931 50202 10030 20007 30276 40312 52008 71000 85///=
59287 31950 13402 10140 20122 30142 40229 52021 71000 81///=
00000000