0000045200
416
SXXX32 EUMS 110339 RRX
224AD678
:PRS 2 /1 1953 1954 1954 1951 1951 1952 1954 1962 1964 1963 1961 1965 1966 1975 1977 1980 1981 1982 1985 1988 1994 1997 1998 2002 2001 2003 2006 2006 2009 2011 :RAD 4 /3 4776 4780 4787 4795 4801 4807 4814 4823 4830 4840 4846 4849 4855 4864 4875 4882 4885 4890 4895 4904 :ENC 4 /5 8301 8308 8317 8330 8342 8352 8366 8372 8383 8400 8406 8416 :SW1 39 /60 60 :SW2 9 /60 60 :BAT 14 /15 13.5 :NAME 224AD678 /
0000069800
417
SXXX32 EUMS 110339 RRX
229C0324
OT12 ID:MZ-NIH2-09 DT:2014 01 11 03 29
:RAD /1 06162 06158 06155 06153 06148 06145 06141 06136 06134 06130 06128 06124 06119 06118 06113 06109 06106 06098 06095 06093 06088 06083 06080 06083 06076 06072 06069 06066 06062 06057
:PR1 /1 ///// ///// ///// ///// ///// ///// ///// ///// ///// ///// ///// ///// ///// ///// ///// ///// ///// ///// ///// ///// ///// ///// ///// ///// ///// ///// ///// ///// ///// /////
:PR2 /1 ///// ///// ///// ///// ///// ///// ///// ///// ///// ///// ///// ///// ///// ///// ///// ///// ///// ///// ///// ///// ///// ///// ///// ///// ///// ///// ///// ///// ///// /////
:TM1 /15 /// /// /// ///
:BAT 13.7V
0000010400
418
SPUS41 KWBC 101543
SPECI
KGSO 101539Z 04007KT 2SM -RA BR BKN004 OVC011 02/01 A3034=

0000009300
419
SPUS42 KWBC 101543
SPECI
KBPT 101539Z 12010KT 3SM BR OVC002 14/13 A3003=

0000009900
420
SPCN48 CWAO 101544
SPECI CYKQ 101544Z 19014G21KT 1 1/2SM -SN BLSN VV014 RMK SN8=

0000193900
421
SPUS70 KWBC 101546
SPECI
KARR 101542Z 15011KT 1SM BR OVC002 00/M01 A2999 RMK AO2 I1000
     T00001006=
KASE 101542Z 35004KT 2SM -SN BR OVC020 M10/M12 A2989 RMK AO2 SNB15
     P0000 T11001117=
KCDW 101542Z 00000KT 1 1/2SM -SN BR OVC011 M03/M05 A3048 RMK AO2
     P0003=
KCLE 101542Z 19008KT 10SM OVC013 03/01 A3024 RMK AO2 T00330006=
KCVG 101542Z 16008KT 3SM BR BKN005 OVC040 06/05 A3019 RMK AO2=
KEWR 101542Z 01003KT 3SM -FZDZ BR FEW010 BKN015 OVC029 M01/M02
     A3048 RMK AO2 SFC VIS 4 FZRAB08E41FZDZB41PLE41SNE17 P0002=
KFWN 101542Z AUTO 00000KT 2 1/2SM -SN BR OVC014 M03/M05 A3045 RMK
     AO2 SNE09B11 P0000 T10331050=
KGFL 101543Z AUTO 21003KT 3/4SM -SN BR BKN023 OVC033 M04/M07 A3042
     RMK AO2 SNB28 P0000=
KIJD 101542Z AUTO 36003KT 4SM BR BKN014 OVC019 M06/M08 A3049 RMK
     AO2 SNE17B24E36 P0000 T10561078=
KISW 101542Z AUTO 15004KT 1 1/4SM BR OVC004 M04/M05 A2991 RMK AO2
     T10391050=
KPYM 101542Z AUTO 20004KT 7SM SCT004 OVC050 M01/M02 A3049 RMK AO2
     T10061022=
KSLK 101542Z AUTO 22008KT 2 1/2SM -SN BR FEW035 BKN049 OVC065
     M05/M07 A3024 RMK AO2 SNB1455 P0000=
KUNO 101542Z AUTO 15007KT 1SM RA BR OVC002 02/01 A2993 RMK AO2
     P0009 I1000 T00170011=
PAPB 101542Z AUTO 29006KT 9SM SCT016 SCT023 01/00 A2917 RMK AO2
     T00110000 TSNO=
KAGC 101543Z 19008KT 7SM OVC031 04/02 A3028 RMK AO2=
KAOO 101543Z AUTO 00000KT 6SM HZ OVC014 M01/M03 A3034 RMK AO2
     T10061033=
KASE 101533Z COR 00000KT 2SM -SN BR OVC022 M10/M12 A2988 RMK AO2
     SNB15 P0000 T11001117=
KDWH 101543Z 15007KT 10SM SCT024 BKN050 18/16 A2999 RMK AO2 $=
KNEW 101543Z 10007KT 1/2SM FG VV002 11/11 A3015 RMK AO2
     T01110111=
KROG 101543Z 17014G17KT 7SM VCTS RA BKN005 BKN011 OVC070 10/09
     A2981 RMK AO2 LTG DSNT ALQDS TSB13RAB05 CIG 003V008 P0015=
KTUL 101543Z 18012KT 10SM BKN005 BKN014 OVC021 07/07 A2975 RMK AO2
     DZE15 P0000 T00720067=

0000009100
422
SPUS31 KWBC 101546
SPECI
KCLE 101542Z 19008KT 10SM OVC013 03/01 A3024=

0000010000
423
SPUS31 KWBC 101546
SPECI
KCVG 101542Z 16008KT 3SM BR BKN005 OVC040 06/05 A3019=

0000010000
424
SAEO32 EETN 101550
METAR EETU 101550Z 27005KT 9999 -RA SCT009 OVC039 04/03 Q0981=

0000019500
425
FTRA33 RUMS 101400 AAA
TAF AMD UIII 101542Z 1015/1115 VRB02MPS 1500 -SHSN BR BKN007CB TEMPO
1015/1102 0300 FG VV001 BECMG 1102/1104 9999 NSW SCT020 TEMPO
1103/1112 2000 FU=

0000035100
426
FTUS52 KWBC 101542 AAA
TAF AMD
KMSL 101541Z 1016/1112 14009KT 5SM BR BKN004 OVC070
      TEMPO 1017/1019 BKN006
     FM101900 17009KT P6SM OVC010
     FM110300 16012KT P6SM VCSH OVC009
     FM110500 18015KT 4SM -SHRA BR OVC007
      TEMPO 1106/1109 2SM -TSRA BR BKN005CB OVC010
     FM111000 23016KT 3SM -RA BR OVC007=

0000040000
427
FTUS51 KWBC 101542 AAA
TAF AMD
KFLO 101539Z 1016/1112 05005KT P6SM VCSH SCT025 OVC050
      TEMPO 1016/1018 BKN025
     FM101800 09006KT 6SM -RA FEW015 BKN025
     FM110200 15007KT 2SM BR VCSH BKN008 OVC015=
KRDG 101538Z 1016/1112 VRB02KT 4SM BR OVC006
     FM101800 VRB02KT 6SM BR BKN020
     FM110000 14002KT 6SM BR BKN012
     FM110600 15005KT 4SM -RA BR OVC006=

0000070200
428
FTUS80 KWBC 101542 AAA
TAF AMD
KFLO 101539Z 1016/1112 05005KT P6SM VCSH SCT025 OVC050
      TEMPO 1016/1018 BKN025
     FM101800 09006KT 6SM -RA FEW015 BKN025
     FM110200 15007KT 2SM BR VCSH BKN008 OVC015=
KMSL 101541Z 1016/1112 14009KT 5SM BR BKN004 OVC070
      TEMPO 1017/1019 BKN006
     FM101900 17009KT P6SM OVC010
     FM110300 16012KT P6SM VCSH OVC009
     FM110500 18015KT 4SM -SHRA BR OVC007
      TEMPO 1106/1109 2SM -TSRA BR BKN005CB OVC010
     FM111000 23016KT 3SM -RA BR OVC007=
KRDG 101538Z 1016/1112 VRB02KT 4SM BR OVC006
     FM101800 VRB02KT 6SM BR BKN020
     FM110000 14002KT 6SM BR BKN012
     FM110600 15005KT 4SM -RA BR OVC006=

0000232300
429
SPUS70 KWBC 101542
SPECI
KBPK 101538Z AUTO 00000KT 1SM BR OVC003 06/06 A2989 RMK AO2=
KBTL 101538Z 16007KT 2SM BR OVC002 00/M01 A3009 RMK AO2 I1000
     T00001011=
KDMO 101538Z AUTO 14010KT 1 1/4SM BR OVC002 04/03 A2975 RMK AO2
     RAB1459E23 P0000 T00390033=
KFCI 101539Z AUTO 03005KT 1 3/4SM SCT017 OVC031 02/M04 A3043 RMK
     AO1=
KFIT 101537Z AUTO 15004KT 10SM BKN017 OVC050 M02/M05 A3047 RMK AO2
     T10171050=
KHGR 101538Z 34004KT 1 1/4SM BR SCT004 OVC085 00/M01 A3040 RMK AO2
     T00001006=
KHIE 101538Z AUTO 00000KT 1/2SM SN FZFG BKN023 BKN028 OVC037
     M10/M12 A3036 RMK AO2 P0000 T11001122=
KHWO 101538Z 12017G21KT 10SM FEW019 SCT034 26/22 A3016 RMK AO2=
KILG 101538Z 04005KT 2SM -RA BR FEW004 OVC055 01/00 A3047 RMK AO2
     P0002=
KLAF 101538Z 16006KT 1 3/4SM BR OVC005 01/01 A3008 RMK AO2
     T00110011=
KLNR 101538Z AUTO 11008KT 1 3/4SM BR OVC007 M02/M03 A2991 RMK AO2
     T10221028=
KPSF 101538Z AUTO 04005KT 2SM -SN BR BKN020 OVC032 M05/M07 A3038
     RMK AO2 SNB22 P0000=
KRWL 101538Z AUTO 25020G31KT 10SM SCT014 OVC095 M07/M11 A2973 RMK
     AO2 PK WND 26031/1537=
KTTS 101533Z AUTO 14002KT 10SM SCT009 BKN027 BKN042 BKN065 23/19
     A3020 RMK AO2 CIG 027V044 $=
KAKO 101539Z AUTO 31024G39KT 2SM -SN BKN028 OVC040 M02/M07 A2966
     RMK AO2 PK WND 31039/1535 UPB28E32SNE20B32 P0000
     T10221067=
KBPT 101539Z 12010KT 3SM BR OVC002 14/13 A3003 RMK AO2=
KCHO 101539Z 00000KT 2 1/2SM -RA BR BKN003 BKN038 OVC049 01/M01
     A3040 RMK AO2 RAE1454B15UPB1454E15 P0009 T00061006=
KEYE 101539Z AUTO 14005KT 3SM BR SCT015 OVC028 02/01 A3011 RMK AO2
     T00170006=
KHAO 101539Z AUTO VRB03KT 4SM BR BKN007 OVC036 04/04 A3021 RMK
     AO2=
KHJO 101539Z AUTO 10003KT 1/2SM FG VV007 01/01 A3027 RMK AO2
     T00060006=
KLAW 101539Z AUTO 22003KT 1SM BR VV002 09/09 A2976 RMK AO2=
KLNS 101539Z 07003KT 1 1/2SM BR FEW004 BKN095 M01/M02 A3043 RMK
     AO2=
KOJC 101539Z 14005KT 1/2SM FG OVC002 01/01 A2968 RMK AO2
     T00110011=
KSBY 101539Z 01004KT 1SM -RA BR BKN003 OVC034 04/02 A3044 RMK AO2
     P0002=
KSHN 101539Z AUTO 22014G24KT 2 1/2SM -RA BR SCT012 OVC020 07/06
     A3003 RMK AO2 RAB30 P0000 T00720056 TSNO=
KTOI 101539Z AUTO 06003KT 2SM BR OVC003 10/09 A3022 RMK AO2
     T01000089=

0000010400
430
SPUS41 KWBC 101542
SPECI
KILG 101538Z 04005KT 2SM -RA BR FEW004 OVC055 01/00 A3047=

0000009400
431
SPUS43 KWBC 101542
SPECI
KBTL 101538Z 16007KT 2SM BR OVC002 00/M01 A3009=

0000010300
432
SPCN47 CWAO 101542
SPECI CYWA 101542Z AUTO 14004KT 2 1/2SM -SN OVC051 M09/M10 A3025=

0000012500
433
FTFI31 EFHK 101400 AAA
TAF AMD EFOU 101543Z 1015/1115 06012KT 9999 -SN BKN035 TEMPO
     1015/1021 3000=

0000019500
434
FTBU31 LBSM 101100 AAA
TAF AMD LBSF 101544Z 1015/1112 VRB02MPS 0800 BCFG SCT003 TEMPO
1015/1017 0400 FG SCT002 TEMPO 1017/1022 1200 BR NSC TEMPO 1022/1108
0300 FZFG BKN003=

0000011700
435
SPUS31 KWBC 101546
SPECI
KEWR 101542Z 01003KT 3SM -FZDZ BR FEW010 BKN015 OVC029 M01/M02
A3048=

00000000