0000010300
816
SAUK33 EGGY 101650 CCA
METAR COR EGPB 101650Z 22009KT 9999 FEW020 07/05 Q0999 NOSIG=

0000009700
817
SAUK36 EGGY 101650 CCA
METAR COR EGSH 101650Z 19007KT CAVOK 07/05 Q1013 NOSIG=

0000010000
818
SAUK38 EGGY 101650 RRA
METAR EGEC 101650Z 26007KT 9999 FEW037 BKN047 06/03 Q1005=

0000011000
819
SAUK38 EGGY 101650 CCA
METAR COR EGPM 101650Z 19010KT 9999 FEW010 SCT035 06/04 Q0998 NOSIG=

0000065100
820
SASN32 ESWI 101650
METAR ESKN 101650Z 33013KT 9999 BKN012 M03/M04 Q1000 R26/710195=
METAR ESOE 101650Z 03006KT 9999 BKN014 M02/M05 Q1000=
METAR ESOK 101650Z 08004KT 9999 SCT018 M03/M04 Q1000=
METAR ESOW 101650Z 35009KT 9999 BKN013 M03/M06 Q1000 R01/750184=
METAR ESSA 101650Z 33014KT 9999 BKN006 M03/M04 Q0998 R01L/19//71
R08/19//58 R01R/19//68 BECMG OVC011=
METAR ESSB 101650Z 31011KT 9999 OVC007 M03/M04 Q0998 R30/29//69=
METAR ESSD 101650Z AUTO 35005KT 9999 OVC016/// M06/M09 Q1000=
METAR ESSP 101650Z 29010KT 9999 BKN015 M02/M03 Q1000 R27/19//95=
METAR ESSV 101650Z 32016KT 9999 BKN010 00/M02 Q0998 R21/29//87=

0000065200
821
SASN33 ESWI 101650
METAR ESNG 101650Z 03008KT CAVOK M16/M19 Q1010=
METAR ESNK 101650Z 34014KT 4000 SN SCT005 BKN019 M10/M13 Q1003=
METAR ESNN 101650Z 34011KT 9999 -SN SCT019 BKN028 M09/M12 Q1002
R16/49/79=
METAR ESNO 101650Z 35011KT 320V020 5000 -SN BKN021 OVC031 M11/M14
Q1001=
METAR ESNQ 101650Z 36005KT 9999 -SN OVC009 M15/M16 Q1011=
METAR ESNS 101650Z 35011KT 2000 SN VV010 M12/M13 Q1004=
METAR ESNU 101650Z 35015KT 7000 -SN OVC032 M11/M14 Q1002 R14/49//50=
METAR ESNZ 101650Z 04004KT 7000 -SN FEW016 BKN031 OVC051 M14/M16
Q1001=
METAR ESUT 101650Z AUTO 08026G43KT 040V130 6000 BR OVC100/// M13/M18
Q1002=

0000043400
822
SASN34 ESWI 101650
METAR ESCF 101650Z AUTO 36006KT 9999NDV OVC011/// M02/M03 Q1000=
METAR ESDF 101650Z 28005KT 250V320 9999 SCT016 03/01 Q1002=
METAR ESIB 101650Z AUTO 20004KT 9999NDV FEW014/// M00/M02 Q1001=
METAR ESMV 101650Z NIL=
METAR ESPA 101650Z NIL=
METAR ESPE 101650Z AUTO 01010KT 6000NDV -SN FEW031/// OVC048/// 
M14/M17 Q1007=
METAR ESSL 101650Z 33008KT 9999 OVC010 M02/M04 Q1000 R29/19//95=

0000041400
823
SASN35 ESWI 101650
METAR ESGR 101650Z NIL=
METAR ESKM 101650Z NIL=
METAR ESNL 101650Z AUTO 34011KT 9999NDV FEW009/// BKN011///
OVC022/// M14/M17 Q1004=
METAR ESNX 101650Z 02011KT 2600 -SN FEW017 BKN022 OVC033 M15/M17
Q1004=
METAR ESNY 101650Z NIL=
METAR ESSF 101650Z NIL=
METAR ESSK 101650Z NIL=
METAR ESUD 101650Z AUTO 01003KT 350V050 9999 SCT017/// OVC026///
M14/M18 Q1005=

0000023200
824
SAIS31 LLBG 101650
METAR LLET 101650Z NIL=
METAR LLHA 101650Z 13008KT 9999 SCT035 13/05 Q1019=
METAR LLIB 101650Z NIL=
METAR LLOV 101650Z NIL=
METAR LLSD 101650Z VRB03KT 9999 SCT030 15/10 Q1018 RMK SCT060=

0000029300
825
SAMX31 KWBC 101645 RRD
METAR
MMCZ 101641Z 11006KT 8SM SCT015TCU 26/21 A3005 RMK 8/200 SC AC=
MMMD 101649Z 11011KT 6SM BKN012 26/22 A3003 RMK 8/200 HZY LWR
     SC=
MMTP 101640Z 00000KT 10SM SKC 30/21 A2994=
MMUN 101642Z 11007KT 7SM SCT015 28/23 A3005 RMK 8/100 AC=

0000010200
826
FTUS42 KWBC 101654 AAA
TAF AMD
KEYW 101652Z 1017/1112 11010KT P6SM SCT020 BKN150=

0000030400
827
FTUS71 KWBC 101654 AAA
TAF AMD
KDUJ 101651Z 1017/1112 15005KT P6SM OVC007
     FM110600 16012G18KT 4SM -RA OVC010=
KJST 101652Z 1017/1112 19005KT 1/4SM FG VV002
     FM102300 17006KT 1 1/2SM -SHRA BR BKN007 OVC015
     FM110500 17010KT 4SM -RA BR BKN007 OVC015 WS019/21040KT=

0000010200
828
FTUS72 KWBC 101654 AAA
TAF AMD
KEYW 101652Z 1017/1112 11010KT P6SM SCT020 BKN150=

0000011900
829
SAIL41 BIHN 101700
METAR
BIHN 101700Z 08025G41KT 8000S 9999 RA FEW008 BKN016 OVC025 04///
Q0993=

0000125600
830
FTMX64 MMMX 101654
TAF MMCE 101654Z 1018/1118 14010KT 4SM HZ OVC002 
         FM102000 16010KT 4SM HZ SCT004 BKN010 
         FM110200 00000KT 4SM HZ SCT010 BKN020 
         FM111000 00000KT 2SM BR OVC005 
         FM111500 15010KT 4SM HZ SCT010 BKN025=
TAF MMCM 101654Z 1018/1118 08015KT 5SM HZ SCT005 BKN020 
         FM102100 10015KT 5SM HZ SCT010 OVC025 
         PROB40 1101/1105 4SM RA 
         FM110600 00000KT 4SM HZ OVC005 
         FM111200 00000KT 1SM BR OVC003 
         FM111600 12010KT 3SM HZ SCT005 BKN015 BKN080=
TAF MMCP 101654Z 1018/1118 12015KT P6SM BKN020 BKN080 
         TEMPO 1020/1024 6SM -RA 
         FM110200 10010KT 5SM HZ SCT020 SCT080 
         FM111400 16015KT P6SM SCT025 BKN090=
TAF MMMT 101654Z 1018/1118 03015KT 4SM HZ SCT015 BKN030 BKN070 
         FM102100 05015KT 4SM HZ SCT010 SCT080 
         FM110600 00000KT 3SM HZ SCT005 
         TEMPO 1112/1114 2SM BR 
         FM111500 14010KT 3SM HZ SCT005 SCT025=
TAF MMVA 101654Z 1018/1118 20010KT 4SM HZ SCT008 BKN015 BKN070 
         FM102100 10010KT 4SM HZ SCT020 SCT070 
         FM111000 00000KT 2SM BR OVC004 
         TEMPO 1112/1115 1/2SM FG 
         FM111600 12010KT 3SM HZ SCT005 BKN010 OVC030=

0000016100
831
SAUS71 KWBC 101600 RRI
METAR
KILG 101648Z 09003KT 1 3/4SM BR BKN004 OVC035 01/01 A3041=
KMTN 101645Z 00000KT 2SM -DZBR OVC004 02/02 A3042=

0000021200
832
FTUY04 SUMU 101655
TAF
SURV 101655Z 1018/1118 32010KT 9999 SCT023 SCT070 TX28/1118Z
TN22/1109Z TEMPO 1018/1100 23020G30KT 5000 TSRA BKN015        
FEW040CB OVC060 BECMG 1100/1102 23008KT=

0000009800
833
SAUS73 KWBC 101600 RRI
METAR
KOMA 101649Z 16005KT 2SM BR OVC005 00/M01 A2968=

0000009300
834
SAUS74 KWBC 101600 RRE
METAR
KIWA 101647Z 11006KT 20SM SKC 08/M02 A3014=

0000010500
835
SAUS75 KWBC 101600 RRG
METAR
PADL 101645Z 02005KT 1/2SM -SN FG OVC003 M03/M03 A2948=

00000000