0000030200
749
UERH01 LDZM 111200
TTDD 1112/ 14240
11759 59580 22684 56981 33593 59181 44478 53183 55350 57181
21212 11961 28019 22946 28521 33918 30520 44746 31517 55717
32517 66647 30520 77587 32520 88550 31024 99507 33021 11461
32020 22420 33519 33392 31520 44350 34018
31313 48008 81116=
0000014300
750
UACN01 CYXU 111229
YZ
UUA /OV CYYZ /TM 1227 /FLDURC /TP A319 /RM AC DEP RWY 24R AND ENCOUNTERED 40KT HEADWIND AT 1000 FT AGL.
0000024000
751
SMTN01 HTDA 111200
AAXX 11124
63729 NIL=
63733 NIL=
63756 NIL=
63791 NIL=
63801 NIL=
63832 NIL=
63862 NIL=
63866 NIL=
63870 NIL=
63881 NIL=
63887 NIL=
63894 NIL=
63932 NIL=
63962 NIL=
63971 NIL=
0000009100
752
UGIN90 VARP 111200
PPBB 61111 42874 
90023 27004 25506 24005 90700 25514=
0000027200
753
UGCN01 CWAO 111200
PPBB  61128 71600 90012 24012 26023 28022 90346 28522 27524
28531 90789 28540 29036 29532 91023 30536 29541 31046 9146/
31045 30547 92058 31560 31581 32602 93056 32606 32110 31613
939// 31104 9403/ 31118 31578 9502/ 29566 28570=

0000050800
754
UKCN01 CWAO 111200
TTBB  61128 71600 00028 02417 11974 00006 22951 00723 33885
04108 44876 02329 55786 06502 66777 05327 77736 08907 88704
09722 99692 08757 11691 08757 22686 08364 33622 11976 44619
11771 55615 12169 66524 20975 77449 30360 88397 35771 99364
40961 11332 45167 22272 56959 33226 64761 44215 64961 55201
62760 66196 62162 77191 59366 88186 59769 99163 63170 11159
61172 22144 63574 33140 61376 44137 62576 55125 61777 66115
63776 77100 63577 31313 48008 81116=

0000031000
755
USCN01 CWAO 111200
TTAA  61121 71600 99028 02417 24012 00227 01812 25522 92851
01718 28523 85521 03519 28028 70038 09338 29534 50558 23566
31054 40717 35370 31578 30911 51163 32605 25027 60562 32610
20164 62560 31108 15342 62774 30578 10592 63577 28570 88226
64761 31611 77182 31118=

0000067300
756
SMKR01 DKPY 111200
AAXX 11121
47008 32970 00000 11061 21115 30178 40234 57002 333 10011=
47014 32950 00000 11183 21202 39835 40272 58013 333 11064=
47016 32970 00000 11145 21196 39367 40285 53008 333 11056=
47020 32965 00000 11140 21167 39913 40321 53004 333 11072=
47025 32960 00000 11075 21146 30223 40254 58003 333 10029=
47035 32962 00000 11054 21143 30275 40284 54000 333 10008=
47041 32970 02902 11004 21128 30225 40253 54000 333 10045=
47055 32970 12702 10007 21106 30222 40269 57006 80001 333 10041=
47058 32560 70000 11018 21071 30244 40293 57002 87500 333 10017=
47069 32665 80000 11007 21060 30198 40301 57001 885// 333 10011=
0000322500
757
SMKR22 DKPY 111200
AAXX 11121
47090 32970 32904 10021 21174 30244 40267 58002 80001 333 10052
30101 92012=
47095 12570 52001 11031 21171 30104 40301 50002 69902 85500 333
10021 34104=
47097 329// /2502 11009 21148 30204 40304 58001 333 10025 3/101=
47098 329// /1103 11025 21145 30158 40298 50001 333 10035 3/102=
47099 329// /1102 11039 21114 30264 40302 58003 333 10022 3/101=
47100 12970 32707 11060 21157 39331 40290 51003 69902 80001 333
11029 3/107 41///=
47102 11656 62711 10019 21050 30112 40295 55004 69922 70522 85500
333 10021 31000=
47104 32970 51805 10001 21158 30174 40275 54000 80001 333 10047
30101=
47106 329// /2505 10014 21135 30227 40278 51001 333 10048 3/101=
47112 32670 52004 11005 21134 30212 40299 56002 85500 333 10014
34101 92012=
47114 32662 60001 11024 21099 30113 40304 50002 85500 333 10022
30103=
47119 32665 61801 11012 21122 30261 40305 56002 86500 333 10022
34101=
47121 329// /2703 11020 21135 39997 40303 50002 333 10028 3/104=
47127 329// /0000 11010 21091 30159 40306 58002 333 10025 3/000=
47129 11658 60000 11021 21035 30271 40308 57004 69902 71011 83501
333 10032 34000=
47130 32965 62306 10018 21120 30216 40279 57004 80001 333 10061
30101 92022=
47131 32660 60001 10003 21074 30234 40307 56002 85500 333 10033
34000=
47135 329// /0001 11026 21084 39997 40309 50001 333 10020 3/103=
47136 32961 33203 11010 21109 30122 40301 50003 80001 333 10045
30103=
47137 329// /2304 11003 21092 30181 40304 54000 333 10037 3/103=
47140 11958 30000 11004 21036 30281 40311 55001 69902 71011 80001
333 10043 34101 92021=
47143 329// /3404 10018 21091 30228 40309 58002 333 10058 3/103=
47145 12665 60000 11010 21091 30271 40298 57004 69902 86500 333
10032 30101=
47146 31958 41602 11011 21070 30243 40312 54000 70500 80001 333
10046 34105=
47150 11958 60000 11020 21055 30286 40306 55002 69902 70511 80001
333 10043 34102=
47152 32962 23203 10014 21084 30250 40294 58003 80001 333 10062
30101=
47154 329// /2501 11016 21071 30243 40306 54000 333 10052 3/102=
47155 32963 00000 10013 21077 30250 40297 58002 333 10061 30102=
47156 32965 40202 10008 21058 30222 40314 52002 80001 333 10056
34000=
47157 32962 02503 11036 21092 30015 40304 51003 333 10048 30103=
47162 32961 03602 10012 21034 30256 40298 57003 333 10063 30102
92021=
47169 32970 23205 10035 21042 30215 40311 55002 80001 333 10058
31001 92033=
47170 32970 23204 10008 21067 30266 40311 51001 80001 333 10060
31000 92022=
47171 129// /1103 11010 21065 30257 40314 54000 69902 333 10049
3/101=
47172 329// /0001 11016 21054 30239 40309 53002 333 10060 3/000=
47173 329// /0503 11025 21066 30143 40307 52003 333 10042 3/102=
47174 32962 02901 11024 21064 30095 40306 52004 333 10049 30101=
47175 32968 33408 11014 21059 39718 40313 51002 83030 333 10033
3/000 44002 92023=
47185 12965 63210 10053 21018 30214 40307 56003 69902 82031 333
10062 30003 92023=
47188 32970 62905 10038 21028 30278 40300 56004 81032 333 10065
31002 92022=
47189 32968 33603 10059 21006 30234 40295 55003 80001 333 10097
30004 92021=
47192 32961 20001 11029 21072 30264 40303 50002 80001 333 10058
34102=
0000084700
758
SMKR02 DKPY 111200
AAXX 11121
47101 12668 42302 11007 21117 30199 40298 50001 69902 84500 333
10032 34104=
47105 369// /2907 10011 21167 30243 40276 56003 333 10048 3/101=
47108 32665 62904 10000 21155 30192 40302 54000 86500 333 10024
34000=
47115 12670 62508 10009 21076 39992 40272 57007 69902 82501 333
10032 3/000 49031 92043=
47133 11657 60000 11015 21058 30221 40310 56001 69902 70522 85500
333 10035 34102=
47138 32964 42504 10018 21088 30289 40292 58002 80001 333 10057
30101 92022=
47159 32963 23604 10019 21090 30208 40296 58003 80001 333 10062
31000 92022=
47165 32965 33402 10005 21043 30265 40314 51001 80001 333 10053
31000 92021=
47168 32968 03408 10024 21080 30214 40296 58003 333 10066 31000
92023=
47184 32668 51803 10047 21024 30282 40308 56003 85500 333 10075
31003 92021=
0000112000
759
SMKR21 DKPY 111200
AAXX 11121
47003 32980 00000 11108 21170 30238 40242 52001 333 10021=
47005 32980 02304 11162 21204 38607 53008 333 11115=
47022 32975 00000 11122 21217 38832 57008 333 11070=
47028 32963 01801 11053 21094 30180 40280 53002 333 10008=
47031 32970 03602 11126 21221 38948 58001 333 11085=
47037 32970 00000 11082 21139 30172 40303 53007 333 11012=
47039 31556 60000 11078 21119 30100 40302 57010 71022 885// 333
11004=
47046 32969 02305 10000 21116 30231 40254 53005 333 10036=
47050 32965 20000 11053 21123 30238 40273 57006 80002 333 10001=
47052 32565 40000 11054 21079 39942 40297 52015 84500 333 10000=
47060 32760 62301 11005 21058 30229 40289 57001 86030 333 10012=
47061 32980 00000 10005 21151 30218 40263 57006 333 10048=
47065 32765 80903 11013 21057 30230 40297 57003 8803/ 333 10027=
47067 32965 82503 11042 21121 30201 40327 57012 80001 333 10015=
47068 32560 80702 11013 21030 30261 40297 58005 85502 333 10030=
47070 32570 80000 11020 21091 30218 40309 57003 88500 333 10017=
47075 32980 02301 11064 21100 39972 40425 52007 333 11007=
0000292600
760
SMRA17 RUHB 111200
AAXX 11121
24790 42999 70401 11335 21336 39361 40269 52002 80001=
24894 42999 81201 11289 21314 39112 40235 52002 80005=
24898 41697 80402 11287 21319 39437 40220 52006 77173 8157/=
24982 42999 13302 11229 21269 39634 40170 52009 81030=
24988 42999 22903 11216 21273 39881 40151 52014 80001=
25034 NIL=
25378 41998 23511 11132 21240 30117 40147 56005 73630 80009 333 91017
91119=
25503 42699 62803 11313 21336 30119 40261 52005 82530=
25627 42699 70304 11200 21226 39245 40166 52003 84500=
25648 41598 80204 11184 21217 30010 40068 57006 73632 885//=
25700 42699 81401 11363 21384 39816 40266 58002 81531=
25705 41997 80000 11279 21291 39880 40243 52007 77172 8802/=
25707 41997 83102 11241 21260 39769 40244 52003 77172 8807/=
25715 41999 60401 11272 21303 39533 40214 52010 70272 83031=
25808 41997 80000 11286 21304 39279 40235 52005 77172 86037=
25820 42/// /0207 11122 21175 30086 40102 52003 333 91014 91114=
25904 41674 60902 11245 21301 39498 40200 52003 77171 82530=
25916 42699 50309 11133 21204 30004 40090 52005 85500 333 91012
91113=
25919 42999 10110 11162 21267 30079 40096 52007 80001 333 91013
91118=
25922 41699 70108 11142 21193 30057 40101 52008 73732 82530 333 91013
91116=
25927 41599 63407 11170 21220 30097 40104 52010 73631 81531 333
91111=
25932 NIL=
25941 11598 60510 11150 21177 30055 40074 58007 60000 73631 86500 333
11155 91014 91114=
31083 42999 30000 11261 21286 39981 40150 52007 80001=
31096 41699 20505 11135 21169 30025 40094 54000 70230 82500 333 91018
91118=
31152 41998 83201 11346 21388 39887 40347 52005 70272 80006=
31174 41594 83309 11205 21224 30137 40149 52004 77373 8802/ 333 91016
91118=
31489 42998 82101 11340 21377 30058 40191 52003 80007=
31866 42999 02502 11219 21283 30188 40192 51002=
31959 82998 02703 11118 21233 30177 40222 58004 333 91111=
31989 42999 00000 11089 21212 30180 40237 58007=
32027 42999 42303 11212 21237 30104 40113 58003 80002 333 91004
91107=
32076 42998 52803 11224 21256 30102 40113 52007 80004 333 91004
91105=
32099 42598 30107 11170 21212 30115 40123 52005 83200 333 91009
91111=
32121 41597 83008 11145 21180 30109 40133 52008 78583 889// 333 91013
91114=
32213 11498 83606 11027 21062 39914 49977 53011 60002 70232 8565/ 333
11024=
32222 42698 20902 11108 21161 30014 40038 52010 82500=
32287 41999 70205 11083 21111 39995 40005 52008 73683 87070=
32333 11598 63406 11075 21113 30009 40021 52006 69902 73632 86500 333
11041=
32408 41597 70108 11081 21105 39968 49998 52006 73632 86530 333 91010
91112=
32411 41497 80502 11134 21142 39988 49995 53029 78582 889//=
32509 42998 63204 11052 21141 39950 49984 51007 85031=
32519 41598 23405 11053 21108 39958 49978 53007 70281 82500=
32562 42598 60504 11107 21122 39942 49981 52006 86300=
32594 42998 80903 11051 21075 39943 49979 52008 80002=
0000006100
761
AAUK99 EGRR 111230
Socket stay alive message.
0000012600
762
SMKZ01 UAAA 111200 CCC
AAXX 11121
28952 41598 81608 11060 21095 39975 40170 52004 73633 885// 555  
1/107=
0000012600
763
SMKZ01 UAAA 111200 CCD
AAXX 11121
28867 41496 81603 11052 21077 39902 40178 57001 71073 885// 555  
1/105=
0000039800
764
SWIO40 RJTD 111230
:PRS 1 #1 1710 1734 1720 1748 1729 1744 1728 1708 1721 1692 1708 1727
1707 1704 1722 1715 1711 1711 1698 1728 1705 1715 1710 1705 1690 1713
1693 1698 1692 1697 :RAD 1 #3 6115 6108 6093 6097 6100 6093 6091 6087
6087 6077 :ENC 5 #5 5098 5087 5089 5085 5077 5068 5063 5060 5056 5063
5059 5056 :SW1 30 #60 60 :SW2 60 #60 60 :BAT 14 #15 12.8 :NAME 
0650018E=
0000004600
765
SIVA21 GMMC 111200
BBXX
NIL=
0000019900
766
FCIN90 VANP 111200 RRA
TAF VARP 111200Z 1115/1124 VRB02KT 3000 HZ FEW025 SCT100 =
TAF VABP 111200Z 1115/1124 02010 1000 MIFG FEW100=
TAF VANP 111200Z 1115/1200 32005KT 2000 HZ FEW025=
0000004600
767
SIVA22 GMMC 111200
BBXX
NIL=
0000004600
768
SIVA23 GMMC 111200
BBXX
NIL=
00000000