0000175900
989
SMUS04 KWBC 111200 RRE
AAXX 11124
72320 17424 82407 10150 20144 39845 40069 55005 60321 710// 91153
333 10100 20094 70345 91023 96010 555 91112=
72326 11559 82612 10111 20106 39702 40054 55024 60141 765// 91153
333 10106 20067 70145 96010 555 91112=
72332 15466 6//03 10133 20122 39956 40079 53018 60211 91153 333
10133 20106 70251 555 91112=
72344 32966 02507 10017 21006 39951 40118 53023 91153 333 10139
20006 70112 555 91112=
72353 32966 02809 10033 21061 39672 40135 53017 91152 333 10150
20017 555 91112=
72356 32966 02705 10011 21017 39869 40117 53020 91153 333 10150
20011 555 91112=
72423 11366 82208 10122 20106 39834 40005 56018 60171 751// 91156
333 10128 20100 70249 555 91112=
72440 31259 82812 10017 20000 39621 40081 51016 710// 91152 333
10100 20000 70132 555 91112=
72519 32866 81514 10106 20072 39903 40053 56046 91154 333 10039
20000 70008 91023 555 91112=
72525 11459 81807 10100 20089 39592 40018 56033 60031 761// 8/5//
91151 333 10067 20039 70036 96010 555 91112=
72536 11108 81808 10056 20056 39726 49977 58033 60021 710// 91152
333 10044 20022 555 91112=
72550 32866 43005 11033 21061 39684 40060 53012 91152 333 10017
21067 555 91112=
72592 35966 00000 10039 20022 30027 40211 50000 91153 333 10172
20028 555 91112=
72641 11362 83004 10006 21006 39660 49971 53003 69901 771// 91153
333 10022 20006 4/013 70043 555 91112=
72662 35966 80000 10006 21050 38985 40111 51017 91152 333 10061
21005 555 91112=
72666 35866 21805 11050 21083 38724 40110 58012 91153 333 10044
21050 555 91112=
72672 35966 02011 11050 21111 38269 40136 58009 91153 333 10028
21061 555 91112=
74740 35962 03104 10039 20006 39561 40156 53029 91151 333 10206
20039 555 91112=
0000266900
990
SMUS02 KWBC 111200 RRA
AAXX 11124
72302 11464 82008 10206 20189 3//// 40151 55011 69931 761// 91153
333 10233 20189 70005 555 91112=
72308 15266 81707 10172 20161 30118 40135 56034 60181 91151 333
10167 20061 70213 555 91112=
72310 31224 81806 10156 20156 30037 40124 58017 710// 91156 333
10106 20094 70404 555 91112=
72311 17108 /1706 10111 20106 39815 40105 58034 60271 761// 91151
333 10083 20072 70488 96030 555 91112=
72312 11261 80000 10078 20072 39770 40106 58025 60241 761// 91153
333 10089 20072 70348 555 91112=
72314 11104 83207 10061 20061 39873 40135 55010 60011 710// 91152
333 10072 20056 70124 91022 96010 555 91112=
72317 11104 /0000 10044 20039 39786 40116 56027 60021 751// 91154
333 10061 20033 70224 96041 555 91112=
72323 11762 81704 10133 20122 39841 40066 53005 60541 761// 91153
333 10128 20100 70566 555 91112=
72324 11340 82103 10144 20133 39816 40061 55017 60221 763// 91153
333 10100 20072 70236 96010 555 91112=
72326 11559 82612 10111 20106 39702 40054 55024 60141 765// 91153
333 10106 20067 70145 96010 555 91112=
72327 12966 82205 10128 20111 39796 40041 55005 60241 91153 333
10144 20117 70244 555 91112=
72334 12966 02505 10089 20072 39975 40076 51015 60031 91154 333
10150 20089 70384 555 91112=
72344 32966 02507 10017 21006 39951 40118 53023 91153 333 10139
20006 70112 555 91112=
72351 35966 02907 10028 21067 39787 40154 51019 91152 333 10206
20028 555 91112=
72353 32966 02809 10033 21061 39672 40135 53017 91152 333 10150
20017 555 91112=
72356 32966 02705 10011 21017 39869 40117 53020 91153 333 10150
20011 555 91112=
72360 35966 02510 11011 21128 38467 40162 52013 91155 333 10111
21039 555 91112=
72363 35966 02903 11011 21111 38919 40169 51010 91153 333 10128
21033 555 91112=
72365 32966 03309 10033 21089 38411 40202 51009 91152 333 10128
20028 555 91112=
72370 35966 00000 11006 21061 39035 40194 50000 91151 333 10172
21011 555 91112=
72371 35966 00000 10022 21050 38747 40222 51005 91153 333 10133
20022 555 91112=
72374 35966 00000 11044 21078 38562 40242 51005 91156 333 10139
21061 555 91112=
72376 35966 00000 11050 21106 38341 40242 51008 91153 333 10083
21061 555 91112=
72384 35962 00805 10072 20033 30048 40229 58004 91154 333 10167
20056 555 91112=
72386 32966 62307 10078 21022 39464 40204 50001 91156 333 10161
20067 555 91112=
72387 35966 00605 10033 21039 39063 40206 50001 91152 333 10172
20028 555 91112=
72389 31956 61303 10056 20028 30115 40238 51002 705// 91153 333
10161 20050 555 91112=
72394 35966 00000 10111 20017 30114 40206 58004 91151 333 10244
20083 555 91112=
0000308100
991
SMUS03 KWBC 111200 RRA
AAXX 11124
72401 11004 90000 10067 20061 30062 40126 56038 60041 741// 91154
333 10050 20044 70094 555 91112=
72403 11212 80000 10017 20011 30004 40117 56040 60051 761// 91152
333 10017 20011 70155 96010 555 91112=
72407 12161 81814 10139 20139 30093 40135 56026 69981 91154 333
10083 20044 70097 91025 555 91112=
72408 11158 82006 10128 20117 30110 40131 56032 69931 710// 91154
333 10028 20022 70117 555 91112=
72411 12164 80000 10039 20033 39685 40115 56041 60031 91154 333
10039 20033 70168 555 91112=
72412 17966 61413 10172 20094 39172 40039 56044 69951 761// 91151
333 10161 20078 70008 91023 555 91112=
72414 32966 62307 10161 20111 39651 40010 56046 91154 333 10133
20089 555 91112=
72417 15966 21709 10144 20100 39351 40052 56045 60011 91151 333
10122 20106 70028 555 91112=
72421 12266 81910 10106 20100 39684 49998 56020 60171 91152 333
10111 20089 70206 555 91112=
72422 11359 81712 10111 20100 39671 40021 56020 60181 761// 91154
333 10128 20100 70180 96010 555 91112=
72428 11262 81706 10106 20100 39719 40012 56033 60161 761// 91151
333 10089 20078 70163 555 91112=
72432 12466 82612 10100 20078 39878 40018 53005 60021 91154 333
10100 20083 70168 555 91112=
72434 12464 82913 10039 20011 39835 40041 53021 69951 91151 333
10078 20039 4/003 70142 555 91112=
72435 12966 02509 10056 20039 39907 40046 51021 60011 91153 333
10106 20056 70249 555 91112=
72438 11258 82312 10050 20050 39699 49985 56020 60011 710// 91154
333 10044 20022 4/005 70086 555 91112=
72440 31259 82812 10017 20000 39621 40081 51016 710// 91152 333
10100 20000 70132 555 91112=
72445 15361 82813 10017 20006 39728 40051 51017 60021 91154 333
10072 20011 70091 555 91112=
72446 11958 02306 11011 21022 39684 40068 51012 69901 710// 91153
333 10056 21017 70003 555 91112=
72450 32966 03012 10011 21033 39625 40114 53016 91153 333 10089
21005 70003 555 91112=
72451 35966 42811 11017 21072 39216 40143 53015 91152 333 10094
21028 555 91112=
72456 35966 02706 10000 21022 39761 40083 51013 91153 333 10050
20000 555 91112=
72458 35966 42711 11011 21033 39561 40096 53015 91155 333 10028
21017 70013 555 91112=
72462 35966 02106 11178 21206 37726 40284 51013 91152 333 11006
21194 555 91112=
72464 35966 00404 11078 21133 38547 40161 50005 91153 333 10100
21083 555 91112=
72465 35966 23113 11006 21061 38863 40149 53017 91153 333 10056
21033 70005 555 91112=
72475 35966 02008 11033 21050 3//// 40230 58006 91152 333 10089
21039 555 91112=
72476 35966 00303 11094 21106 38596 40279 50005 91153 333 10006
21100 555 91112=
72480 35966 03406 11028 21078 38798 40209 58008 91156 333 10239
21028 555 91112=
72486 35966 01809 11028 21050 38129 40230 57004 91153 333 10078
21044 555 91112=
72488 32966 2//03 10000 21022 38686 40197 58017 91155 333 10133
21006 555 91112=
72492 37958 01204 10061 20044 30214 40224 51002 710// 91155 333
10161 20050 555 91112=
72494 32966 00000 10083 20061 30195 40227 53001 91156 333 10156
20083 555 91112=
0000116800
992
SMVA01 KWBC 111200 RRB
BBXX
9V2004 11124 99022 30586 41598 70211 10290 20238 40090 55012 70322
 83279 22244 00275 20502 304// 40502 5//// 80252=
WMPP 11124 99226 10375 41698 53612 10215 20134 40189 54000 70122
 83130 22234 00248 20301 335// 40502 80168=
9V9116 11124 99206 50137 41098 30924 10240 20196 40185 51005 72161
 81201 22232 0//// 20505 333// 42004 5//// 6///0 80210 ICE 0/0//=
A8IX8 11124 99323 30289 41598 31606 10240 20196 40180 54000 70200
 833// 22213 20801 80210=
PFBE 11123 99286 70240 41498 32608 10215 20134 40195 52000 70211
 82466 22253 04210 20103 399// 40104 80165 42908=
LGWS 11121 99229 30145 43/// /2804 10189 20177 40125 5//// 222/0
 04173 1//// 3//// 4//// 5////=
9V2003 11123 99247 10580 41598 71210 10205 20102 40193 56015 70022
 85569 22233 00240 29901 80145=
A8HS3 11123 99149 10532 41597 70818 10270 20257 40170 55020 70322
 8703/ 22214 04254 20904 30000 80260=
PHAC 11123 99055 30036 41397 31608 10262 20209 40128 50009 70200
 8113/ 22233 20301 317// 40501 80225 42907=
A8IQ2 11123 99182 30112 41598 41713 10220 20166 40160 54000 70100
 83141 22243 00220 20804 320// 40804 80185=
0000100400
993
SMVB01 KWBC 111200 RRB
BBXX
WRJP 11123 99183 11798 41598 50718 10256 20224 40120 54000 7//22
 8347/ 22265 00211 20304 302// 40608 5//// 6//// 80233 ICE /////=
SLKR 11124 99430 11461 43/97 33125 11049 40152 53009 22253 00027
 2//// 4////=
2ALD3 11123 99332 11404 41/98 /2715 10105 20096 40253 58001 70222
 8//// 22283 20403 3//// 4//// 5//// 80100=
CQIV 11124 99242 11184 41297 7//// 10170 20119 40250 58010 70211
 8/715 22200 20806 305// 41005 80140=
9V2165 11123 99386 11488 41/98 /2831 10040 21128 40200 54000 7//77
 8//// 22214 00060 2//// 3//// 4//// 5//// 6//// 81010 ICE /////=
AVBE 11123 99246 11234 41897 11419 10150 20115 40232 54000 70100
 81000 22213=
DGWD2 11124 99225 11202 41497 33513 10197 20158 40218 53012 70200
 83100 22200 00240 299// 399// 40803=
A8PG7 11123 99388 11180 41/90 /2706 11005 21005 40290 54000 71244
 8//// 22200 20301 3//// 4//// 5//// 81005=
UEMM 11121 99717 10729 41/98 90206 11255 40139 52005 70222 22212
 ICE55092=
0000051400
994
SMVC01 KWBC 111200 RRA
BBXX
A8MX4 11124 99035 70460 41397 81017 10255 20227 40130 52015 78122
 877// 22233 04290 20803 3//// 4//// 5//// 80235=
PGQI 11123 99002 50833 41498 51813 10248 20214 40102 53010 70211
 85200 22200 20702 317// 41103 80224=
DDSD2 11124 99318 50719 41297 82015 10160 20135 40115 52015 70222
 86770 22244 00153 20404 319// 40606=
3FJY6 11124 99424 50947 41497 82330 10150 2013/ 40120 52/// 76022
 8//4/ 22273 00160 20402 309// 40905 5//// 6//// 80140 ICE 0/0//=
0000307700
995
SMUS04 KWBC 111200 RRA
AAXX 11124
72503 11266 81908 10094 20078 30125 40137 56046 60021 761// 91151
333 10017 20006 70056 555 91112=
72508 11102 90000 10006 20000 30083 40155 58042 60031 741// 91151
333 10011 20006 4/003 70038 555 91112=
72509 11212 81303 10039 20028 30168 40174 56029 69981 761// 91154
333 10028 20011 70013 96010 555 91112=
72514 12361 80809 10028 20017 39899 40098 58030 60021 91154 333
10017 20000 70015 555 91112=
72515 11108 91512 10061 20061 39506 40093 58037 60031 741// 91153
333 10011 20000 70048 555 91112=
72518 11248 81714 10061 20044 30012 40119 55036 69901 751// 91151
333 10011 21005 4/003 70003 91022 96010 555 91112=
72519 32866 81514 10106 20072 39903 40053 56046 91154 333 10039
20000 70008 91023 555 91112=
72520 32666 83107 10106 20083 39599 40026 56037 91151 333 10078
20056 555 91112=
72524 11866 82014 10106 20083 39726 40007 56031 60021 761// 91151
333 10078 20050 70028 91024 555 91112=
72526 11862 81610 10094 20072 39742 40006 58028 60021 761// 91151
333 10072 20056 70041 555 91112=
72528 12566 81911 10089 20056 39745 40014 56033 69981 91154 333
10056 20028 4/008 70013 555 91112=
72530 11159 82708 10022 20006 39724 49962 55005 60021 710// 91151
333 10044 20022 4/005 70218 555 91112=
72532 12364 82909 10011 20000 39762 40006 53017 69931 91154 333
10044 20011 70183 91019 555 91112=
72533 11104 91808 10044 20039 39679 49975 56029 69951 741// 91154
333 10039 20022 4/008 70119 555 91112=
72537 11104 91408 10050 20050 39747 49979 58029 60021 741// 91153
333 10033 20028 70124 555 91112=
72546 31956 02708 11017 21039 39677 40032 53009 710// 91154 333
10017 21022 4/003 70010 555 91112=
72547 35466 83015 11006 21017 39602 49992 53006 91153 333 10006
21006 70018 555 91112=
72552 35966 02710 10000 21039 39421 40089 53016 91153 333 10044
21033 555 91112=
72556 35966 02911 11017 21056 39499 40065 53020 91156 333 10044
21028 555 91112=
72557 32966 02910 11028 21056 39640 40048 51011 91152 333 10011
21078 555 91112=
72562 35966 63012 10000 21039 39124 40119 52021 91153 333 10061
21089 70003 555 91112=
72564 35966 03405 11006 21072 38069 40136 53001 91153 333 10017
21011 555 91112=
72565 32966 22407 10006 21083 38302 40123 51003 91153 333 10050
21072 555 91112=
72567 35966 02913 10000 21039 39173 40100 53022 91152 333 10078
21039 555 91112=
72569 32966 02212 11033 21089 38316 40148 58000 91153 333 10011
21072 555 91112=
72570 35766 62611 10006 21056 38123 40227 51007 91153 333 10000
21022 555 91112=
72572 32766 41210 10033 21028 38748 40209 58004 91153 333 10067
20033 4/013 555 91112=
72578 35666 81913 10056 21006 38644 40183 58013 91153 333 10050
20017 555 91112=
72583 35966 01712 10039 21006 38705 40186 58016 91156 333 20033
555 91112=
72591 35966 03303 10050 20022 30091 40215 55003 91154 333 10172
20039 555 91112=
72594 35362 81908 10111 20094 30174 40201 53002 91153 333 10128
20067 555 91112=
72597 37104 90000 10050 20044 39665 40135 58030 730// 91153 555
91112=
0000010000
996
SMVC01 LFPW 111200
BBXX
BAREU08 11124 99319 50720 46/// ///// 40129 52017
22244=
0000011000
997
UANT99 KDDL 111218
ARP DLH534 4901N01854W 1218 F360 MS63 214/90 KT
DAIHK QXT AOE 111218 J91A
0000369100
998
SMVD01 KWBC 111200 RRH
BBXX
41056 11121 99183 70655 46/// /0606 10252 40184 91150 333 91208
 555 11070 22076=
41056 11121 99183 70655 46/// /0606 10250 40182 91140 333 91208
 555 11069 22075=
42085 11121 99179 70665 46/// /0606 10250 40180 91150 333 91208
 555 11061 22067=
42085 11121 99179 70665 46/// /0505 10249 40179 91140 333 91206
 555 11057 22062=
KIYI 11124 99573 71453 41698 33020 10035 20011 49906 57006 70200
 82105 22274 0//// 20503 32630 41103 50802 6//// 80025 ICE /////=
A8OK 11124 99105 70680 41298 40807 10261 20249 40152 53009 7////
 82135 22200 20501 3//// 4//// 5//// 80252=
DILE 11123 99481 70426 41598 82730 10000 21068 40142 57015 70222
 885// 22224 00120 21206 332// 41308=
46126 11121 99540 71666 46/// /2304 10048 49799 91154 22200 00043
 1//00 70001 333 91206 555 11038 22041=
46126 11121 99540 71666 46/// /2404 10048 49799 91148 22200 00043
 1//00 70001 333 91211 555 11048 22052=
46126 11121 99540 71666 46/// /2404 10048 49799 91150 22200 00043
 1//00 70001 333 91211 555 11048 22052=
42085 11121 99179 70665 46/// /0606 10251 40181 52020 91200 22200
 00266 10603 70014 333 91207 555 11066 22072=
41053 11121 99185 70661 46/// /1203 10246 40183 91140 333 91207
 555 11036 22039=
41056 11121 99183 70655 46/// /0607 10249 40186 53023 91200 22200
 00265 10903 70013 333 91209 555 11080 22087=
41053 11121 99185 70661 46/// /0911 10235 40189 91150 333 91214
 555 11124 22135=
41053 11121 99185 70661 46/// /0810 10234 40190 53024 91200 22200
 00266 10904 70019 333 91212 555 11107 22116=
41052 11121 99183 70648 46/// /0909 10254 40183 91150 333 91211
 555 11099 22108=
41052 11121 99183 70648 46/// /0909 10253 40181 91140 333 91211
 555 11102 22110=
41052 11121 99183 70648 46/// /0908 10257 40185 53024 91200 22200
 00266 10903 70017 333 91210 555 11092 22099=
44150 11121 99425 70640 46/// /1503 1//// 40273 57015 22200 00042
 10602 70010 333 91203=
41300 11124 99159 70575 46/// /0714 10254 20192 40176 52024 22200
 00261 10905 70026=
44139 11121 99442 70571 46/// /2206 10018 40281 57006 22200 00015
 10804 70019 333 91207=
44040 11121 99410 70736 46/// /1805 10098 20098 91145 22200 1//00
 70001 333 91207 555 11062 22077=
WDD3826 11123 99449 70402 41198 72937 10060 20014 40170 56010
 7//21 806// 22214 00140 20806 32932 41405 5//// 6//// 80040 ICE
 /////=
41051 11121 99183 70650 46/// /1311 10231 91150 333 91213 555
 11117 22127=
41051 11121 99183 70650 46/// /1112 10238 91140 333 91214 555
 11132 22143=
41051 11121 99183 70650 46/// /1311 10237 91200 22200 10403 70013
 333 91213 555 11118 22129=
C6KD4 11123 99279 70549 41497 40621 10220 20200 40290 53009 70211
 82444 22214 04243 20805 334// 41103 80207=
ZCEI6 11124 99210 70937 41598 31010 10220 20206 40160 53/// 70111
 8/8// 22254 2//// 80210=
A8JX7 11121 99444 71556 41597 12516 10110 20092 40174 52020 70111
 815// 22224 29906 32500 4//08 5//// 80100=
H3GS 11124 99298 70803 41597 61820 10230 20201 40190 54000 71321
 867// 22243 04237 20302 312// 40502 5//// 6//// 80210 ICE /////=
PBIG 11123 99138 70816 41698 40836 10267 20223 40100 55020 70200
 83488 22284 00300 20304 304// 40506=
S6TE 11123 99292 70937 41/93 /2615 10160 20144 40125 52010 70244
 8//// 22200 00170 20302 318// 40302 5//// 6//// 80150 ICE /////=
V2DN6 11124 99493 70368 41697 53424 10010 20010 40050 57020 7//2 2
 85/// 22224 04100 20210 80010=
WABS 11124 99470 71259 41797 82232 10079 20040 49945 54000 70122
 8607/ 22242 20605 319// 40806 80062=
SHIP 11124 99367 71398 41/98 /2820 10200 20117 40291 56004 70322
 8//// 91155 22234 00190 2//// 3//// 4//// 80150=
0000340100
999
SMVD01 KWBC 111200 RRI
BBXX
C6JT 11123 99254 70610 41498 60825 10230 2020/ 40250 51091 70311
 89/// 22214 20705 80210=
WSRL 11124 99297 71431 41498 30412 10195 20169 40260 55000 7//11
 834// 22255 00211 21005 330// 41506 5//// 6//// 80178 ICE /////=
ZCEG4 11124 99351 70613 41998 20307 10170 20119 40320 53/// 70100
 80002 22214 00190 20702 80140=
44022 11121 99409 70737 46/// /1904 10087 20084 91200 333 91209
 555 11051 22062=
44039 11121 99411 70727 46/// /1607 10069 20068 91145 333 91208
 555 11093 22108=
44060 11121 99413 70721 46/// /1607 10075 20072 40178 91145 22200
 00042 333 91209 555 11082 22093=
PDHW 11123 99464 70542 41298 62723 10000 20000 40233 52030 70322
 8/77/ 22264 20605 327// 40705 80000=
ZDND7 11123 99192 71101 41498 30516 10210 20195 40141 55002 70300
 83140 22273 02200 20301 308// 40501 80200=
PHAA 11123 99363 70467 41298 63617 10130 20047 40279 52005 70322
 86700 22223 20302 80088 42907=
46053 11121 99343 71199 46/// /1303 10135 40197 54000 91150 22200
 00147 11203 328// 41203 70015 333 91204 555 11029 22030 31054
 41005 61149 126029 111031 111030 088026 086031 097035=
46089 11121 99459 71258 46/// /2209 10100 49999 58005 91150 22200
 00091 10910 20606 318// 40908 70050 333 91211 555 11098 22106
 31121 42214 61149 215090 214091 211096 213094 209091 207087=
WECB 11124 99327 71172 43/// /2202 10133 20085 40206 5//// 7////
 8//// 222// 04147 2//// 3//// 4//// 5//// 6//// 8//// ICE /////=
WSQ2674 11124 99327 71172 43/// /2603 10113 2//// 40199 5////
 7//// 8//// 222// 04151 2//// 3//// 4//// 5//// 6//// 8//// ICE
 /////=
3ETA8 11124 99240 70880 41/98 /2013 10240 2021/ 40130 54000 7////
 8//// 22275 04244 20502 305// 4//// 5//// 6//// 80220 ICE /////=
C6QM8 11124 99236 70833 41999 01710 10250 20243 40170 57030 702//
 80000 22255 04244 20402 80245=
46076 11121 99595 71480 46/// /2608 10028 49885 58012 91150 22200
 00062 11103 20502 3//// 41102 70015 333 91209 555 11080 22084
 31143 42509 61149 257075 260074 262068 258066 259062 257059 82608
 91149=
46077 11121 99579 71543 46/// /2306 10013 49906 58019 91150 22200
 00045 11001 20301 3//// 41001 70006 333 91207 555 11057 22060
 31146 42407 61149 234054 220044 216044 235024 274015 303027 82406
 91146=
44058 11121 99376 70763 46/// /1906 10079 40130 57031 91200 22200
 00045 10301 70003 333 91206 555 11064 22069=
44042 11121 99380 70763 46/// /1707 10092 40118 58015 91200 22200
 00039 10301 70006 333 91208 555 11076 22083=
44041 11121 99372 70768 46/// /1405 10134 91200 22200 00044 1//00
 70001 333 91205 555 11052 22057=
44063 11121 99390 70764 46/// /1102 10022 40111 56037 91200 22200
 00015 1//00 70000 333 91203 555 11027 22029=
41046 11121 99238 70683 46/// /1111 10244 20205 40228 53012 91150
 22200 00259 10806 20806 70029 333 91213 555 11117 22124 31149
 41113 61149 104110 096099 088098 094091 094087 093089 81112
 91149=
44062 11121 99386 70764 46/// /1602 10046 40128 58029 91200 22200
 00030 1//00 70001 333 91204 555 11028 22030=
42060 11121 99163 70632 46/// /0910 10263 40174 53017 91150 22200
 00267 11004 20503 308// 41002 70020 333 91212 555 11106 22112
 31146 40812 61149 084098 076092 079092 076089 074095 079095 80911
 91143=
44064 11121 99370 70760 46/// /1405 10106 40135 56032 91200 22200
 00075 10301 70004 333 91207 555 11054 22059=
0000117300
000
SMVE01 KWBC 111200 RRB
BBXX
SJCD 11121 99170 31551 43/98 51012 10270 40095 58001 22284 00277=
C6FS9 11124 99239 31517 46/// /1221 10252 20197 30120 40156 52006
 22223 04272 85214=
VNSZ 11124 99399 31456 46/// /2917 10150 20117 30142 40168 52046
 22276 04162 85131=
SHIP 11124 99331 31142 41898 11621 10234 20197 40113 53007 70200
 81035 22253 00228 10808 20402 31621 40604 50503=
VRRC 11124 99022 11319 41/98 42308 10290 20248 40091 70100 8////
 22272 2//// 80260=
ZM2619 11123 99440 51778 41/98 21913 10149 20082 40139 54000 70211
 22222 29901 322// 40703 80115=
A8HA7 11124 99095 30797 41698 83125 10280 20244 40086 54000 70366
 8732/ 22213 00300 2//// 3//// 4//// 5//// 80255=
ZMKA 11124 99408 31765 41/98 10118 10166 20138 40146 56015 70200
 81/// 22253 20101 80150=
MFLQ4 11123 99283 31540 41598 30913 10245 20173 40179 51010 70000
 83100 22282 00279 20201 399// 40201 5//// 80200=
MCLJ8 11124 99021 11021 41398 50312 10295 20222 40108 52002 7//22
 85700 22200 20301 30000 80245=
KAOU 11124 99053 31063 43/// /3318 10270 20238 40107 5//// 7////
 8//// 222// 04304 2//// 3//// 4//// 5//// 6//// 8//// ICE /////=
0000182600
001
SMVF01 KWBC 111200 RRB
BBXX
A8UL6 11124 99367 10264 41297 30102 10175 20167 40180 50000 70211
 83114 22234 04199 20501 301// 41001 5//// 80170=
SBLI 11121 99352 70319 43/98 53008 10152 40183 53022 22223 00192
 2//// 4//03=
LAIP5 11124 99440 70264 41598 52735 10090 20032 49996 52032 70322
 84160 22262 04110 21014 327// 41511 80065=
62023 11123 99514 70079 46/97 /1207 10089 2//// 4//// 5//// 22200
 10804 70021 555 70031 80007=
DPGZ 11123 99377 70286 41897 63230 10120 20029 40135 52015 70211
 85464 22224 2//// 332// 41307 80080=
SHIP 11124 99380 10168 41597 62903 10150 20116 40237 50000 70222
 86896 22253 04160 20100 30505 40100 50100 80130=
MINFR00 1112/ 99389 70298 46/// ///// 10115 40116 52043=
MINUK05 1112/ 99602 70011 46/// ///// 10068 40016 52011=
LMEL 11121 99603 10053 43/// /3205 10035 20021 49986 5//// 222/0
 04078 1//// 3//// 4//// 5////=
LDGJ 11121 99603 10053 43/// /3204 10036 20014 49989 5//// 222/0
 04078 1//// 3//// 4//// 5////=
LF4H 11124 99596 10022 46/98 12925 10056 20015 40006 52013 8////
 22200 06077 10707 70034 333 91134=
LJIT 11121 99586 10047 43/// /2913 10056 20021 40008 5//// 222/0
 04061 1//// 3//// 4//// 5////=
UBEF5 11121 99578 10016 41398 62812 10050 40075 52020 70222 8621/
 22242 00080 20705=
UCAB 11121 99400 10040 41698 62714 10070 40035 70166 86131 22242
 00081 20705=
OWFD2 11121 99326 70327 41597 63107 10170 20154 40219 52025 70311
 85262 22224 04200 20604 330// 41106 80160=
PHAM 11123 99516 70058 41598 23110 10100 20061 40201 51006 70100
 80006 22283 20101 307// 40501 80080 42907=
PDWZ 11123 99372 10059 41498 69901 10183 20113 40195 55015 70311
 85770 22263 299// 30000 80142 42907=
UITJ 11121 99625 10013 41598 80811 10020 49997 52013 70262 885//
 22272 00080 20302 32403 41006 50804=
0000017800
002
SMVD11 KWBC 111200 RRA
BBXX
KAQP 11124 99098 71043 43/// /0813 10264 20215 40098 5//// 7////
 8//// 222// 04270 2//// 3//// 4//// 5//// 6//// 8//// ICE /////=
0000240700
003
SMUS05 KWBC 111200 RRA
AAXX 11124
72606 11116 80403 10000 21006 30168 40185 58043 60041 767// 91151
333 11011 21022 70041 555 91112=
72617 11259 81808 10022 20011 39979 40107 57054 69981 761// 91154
333 10017 20006 4/010 70010 96010 555 91112=
72635 11120 82106 10050 20039 39669 49955 58022 60011 761// 91153
333 10056 20039 4/020 70196 96010 555 91112=
72636 11158 82210 10033 20017 39725 49953 56016 60051 761// 91155
333 10061 20022 4/025 70259 96010 555 91112=
72637 11112 91905 10056 20044 39686 49966 58027 60011 710// 91153
333 10044 20033 70074 555 91112=
72638 17120 82105 10022 20022 39527 49947 56025 69951 710// 91153
333 10022 21005 70117 555 91112=
72639 15466 81504 10022 20022 39689 49942 56030 60021 91154 333
10011 21005 70102 555 91112=
72640 11258 82809 10022 20017 39711 49960 58001 69931 710// 91152
333 10039 20017 4/015 70124 555 91112=
72641 11362 83004 10006 21006 39660 49971 53003 69901 771// 91153
333 10022 20006 4/013 70043 555 91112=
72644 31256 83110 11017 21033 39510 49995 51005 710// 91154 333
11006 21022 70020 555 91112=
72645 32464 82708 10006 21011 39702 49948 56006 91153 333 10017
20006 70079 555 91112=
72651 32966 23215 11056 21083 39524 40048 53021 91156 333 10006
21094 4/008 555 91112=
72654 35366 83112 11056 21078 39594 40069 53024 91155 333 10028
21094 555 91112=
72658 31358 82909 11028 21039 39672 49994 53002 710// 91153 333
11006 21028 4/015 555 91112=
72659 35466 63007 11044 21056 39572 40059 51017 91153 333 10017
21139 555 91112=
72662 35966 80000 10006 21050 38985 40111 51017 91152 333 10061
21005 555 91112=
72666 35866 21805 11050 21083 38724 40110 58012 91153 333 10044
21050 555 91112=
72677 32966 62415 11006 21067 38830 40085 58019 91153 333 10061
21011 4/003 555 91112=
72681 12866 81217 10061 20017 39133 40146 58027 69901 91153 333
10061 20033 555 91112=
72683 35966 00203 10011 20000 38700 40139 56027 91153 333 10050
20000 555 91112=
72688 35966 62014 10133 20028 39500 40025 58043 91153 333 10111
20072 555 91112=
72693 17661 82808 10106 20072 39938 40074 56028 69931 762// 91154
333 10117 20106 70003 555 91112=
72694 17762 81922 10117 20083 39977 40047 55032 60011 762// 91156
333 10133 20117 70010 91031 555 91112=
72698 11759 82128 10122 20083 30025 40032 56037 69951 763// 91153
333 10139 20111 70008 91037 555 91112=
0000135900
004
SMUS06 KWBC 111200 RRA
AAXX 11124
72712 35966 01503 11106 21133 39954 40199 58030 91154 333 11078
21111 555 91112=
72745 11248 83106 11028 21044 39445 49972 55002 69901 710// 91155
333 11028 21039 70018 96010 555 91112=
72747 17256 83008 11033 21044 39533 49972 51004 69931 710// 91155
333 11033 21044 555 91112=
72753 32466 83107 11044 21072 39694 40036 53022 91153 333 11017
21089 555 91112=
72764 32966 02606 11072 21094 39468 40079 51019 91152 333 10028
21083 555 91112=
72767 35966 02307 11117 21133 39391 40100 53011 91152 333 10006
21122 555 91112=
72768 35966 21005 11100 21117 39251 40089 58016 91153 333 10000
21100 555 91112=
72772 35766 82804 10011 21044 38722 40092 56024 91153 333 10072
20011 555 91112=
72773 17666 81408 10033 21006 38965 40095 58022 69901 761// 91153
333 10039 20006 70005 555 91112=
72776 32966 02121 10050 21033 38755 40037 56037 91153 333 10056
21010 91027 555 91112=
72777 35966 00605 11044 21067 39112 40040 58043 91153 333 10033
21056 555 91112=
72781 35866 81820 10139 20056 39601 49978 58051 91153 333 10128
20028 91029 555 91112=
72793 11661 82119 10122 20089 39806 49971 56022 60021 763// 91153
333 10128 20083 70056 91026 555 91112=
72797 17458 81911 10089 20072 39895 49959 50012 60301 761// 91153
333 10111 20089 70861 91023 96010 555 91112=
0000036900
005
UDEU02 EGRR 111221 RRG
AMDAR 1112
ASC EU3803   5100N 00031W 111208 F138 MS142 309/052 TB/ S031=
ASC EU3803   5059N 00030W 111208 F144 MS157 303/051 TB/ S031=
ASC EU3803   5055N 00028W 111209 F159 MS197 291/050 TB/ S031=
ASC EU3803   5048N 00024W 111210 F182 MS250 288/058 TB/ S031=
LVR EU3803   5008N 00005W 111215 F291 MS510 262/052 TB0 S031=
0000016200
006
SNVD01 KWBC 110400 RRW
BBXX
PENR 11044 99379 70519 41598 42830 10133 20072 49059 51063 70282
 842// 22254 00146 20605 332// 40806 5//// 80105=
0000066100
007
UDAF01 FAPR 111217
AMDAR 1112
LVR AFZA61 2801S 00555E 111127 F370 MS505 292/036 TB0 S031 333 F/// VG000=
LVR AFZA61 2800S 00457E 111135 F370 MS505 290/037 TB0 S031 333 F/// VG000=
LVR AFZA61 2755S 00400E 111142 F380 MS525 298/038 TB0 S031 333 F/// VG000=
LVR AFZA61 2750S 00303E 111149 F380 MS523 297/039 TB0 S031 333 F/// VG000=
LVR AFZA61 2744S 00206E 111156 F380 MS519 292/038 TB0 S031 333 F/// VG000=
LVR AFZA61 2738S 00109E 111203 F380 MS517 291/038 TB0 S031 333 F/// VG000=
LVR AFZA61 2731S 00012E 111210 F380 MS517 292/036 TB0 S031 333 F/// VG000=
LVR AFZA61 2726S 00044W 111217 F380 MS520 298/036 TB0 S031 333 F/// VG000=
0000031100
008
SMIN90 VANP 111200
AAXX 11124
42671 31996 20501 10158 20108 39541 40175 70500 82030
  333 10205 58058=
42674 31996 03601 10178 20136 40148 70500
  333 10208 58048=
42672 32997 01401 10192 20124 40154
  333 10224 58004=
42467 32995 63202 10174 20139 40142 84220
  333 10195 58008=
00000000