0000011700
596
SPUS41 KWBC 101610
SPECI
KRIC 101605Z 03005KT 1 3/4SM -RA BR BKN004 BKN029 OVC043 03/01
A3041=

0000009700
597
SPUS42 KWBC 101610
SPECI
KFTY 101606Z 03006KT 1 3/4SM BR OVC004 07/07 A3025=

0000010100
598
SPUS42 KWBC 101610
SPECI
KOPF 101607Z 13014G21KT 10SM SCT019 BKN026 26/23 A3015=

0000009400
599
SPUS43 KWBC 101610
SPECI
KSGF 101606Z 15018KT 1/4SM FG VV002 04/04 A2978=

0000083300
600
SAAG31 KWBC 101600
METAR
SAAG NIL=
SAAP NIL=
SAAR 101600Z 09007KT 9999 FEW042CB SCT200 30/18 Q1007=
SABE 101600Z NIL=
SABE 101600Z 02009KT CAVOK 28/19 Q1007=
SACO 101600Z 14010KT 9999 TS SCT025 SCT030 FEW040CB 25/18
     Q1012=
SADD NIL=
SAEZ 101600Z 18004KT 100V240 CAVOK 29/20 Q1007=
SAME 101600Z 09010KT CAVOK 27/05 Q1012=
SARC 101600Z 29009KT 9999 FEW020 SCT200 34/24 Q1007=
SARE 101600Z 36009KT 9999 SCT025TCU SCT200 34/25 Q1007=
SARF 101600Z NIL=
SARI 101600Z 36008KT 9999 SCT030 32/22 Q1013=
SARP 101600Z 32015KT 9999 SCT030TCU 34/21 Q1011=
SASA 101600Z 18002KT 9999 FEW020 30/18 Q1012=
SASJ 101600Z 05005KT 9999 FEW025 32/19 Q1009=
SAWE 101600Z NIL=
SAWG 101600Z 23023G33KT 9999 SCT035 SCT040 13/M03 Q1008=
SAZM 101600Z NIL=
SAZS 101600Z 32015KT CAVOK 15/01 Q1018=

0000030600
601
SAAG41 KWBC 101600
METAR
SAAC NIL=
SAAV NIL=
SAGS NIL=
SANE NIL=
SANT 101600Z 14006KT 9999 FEW045TCU 34/22 Q1006=
SANU NIL=
SAOR NIL=
SARL 101600Z NIL=
SATM NIL=
SAVC 101600Z 11008KT 9999 16/03 Q1013=
SAVT NIL=
SAZB NIL=
SAZN 101600Z 27008KT CAVOK 23/M03 Q1013=

0000010200
602
SACA31 KWBC 101600 RRA
METAR
MKJS 101600Z 06009KT 9999 SCT022 SCT032 28/25 Q1017=

0000028700
603
SACA33 KWBC 101600 RRA
METAR
TDPD 101600Z 10008KT 9999 BKN021 28/19 Q1018=
TFFR 101600Z 08012KT 040V120 9999 SCT036 SCT066 28/19 Q1017 NOS
     IG=
TTCP 101600Z 09016KT 9999 SCT015 SCT100 29/21 Q1015 NOSIG=
TTPP 101600Z 12010KT 9999 SCT016 30/21 Q1014 NOSIG=

0000012900
604
SACA35 KWBC 101600 RRA
METAR
MPTO 101600Z 00000KT 9999 SCT018TCU SCT090 30/22 Q1011 TEMPO 70 00
     SHRA=

0000015900
605
SAHA31 KWBC 101600 RRA
METAR
MTPP 101600Z 08014KT 9999 FEW026 30/XX Q1017/9 A3006=
MTPP 101600Z 08014KT 9999 FEW026 30/XX Q1017.9 A3006=

0000030800
606
SAJP31 KWBC 101600 RRA
METAR
RJAA 101600Z 25004KT 9999 FEW025 M04/M09 Q1022 NOSIG RMK 1CU025
     A3020=
RJCC 101600Z 23006KT 9999 -SHSN FEW020 SCT050 M10/M13 Q1016 RMK
     1ST020 3CU050 A3003=
RJTT 101600Z 27004KT 180V300 9999 FEW040 02/M08 Q1022 NOSIG RMK
     1SC040 A3020=

0000111700
607
SAPR41 KWBC 101600
METAR
SPCL 101600Z 01008KT 9999 SCT020 BKN070 28/23 Q1012 RMK BIRD
     HAZARD RWY 02/20 PP000=
SPEC NIL=
SPEI NIL=
SPEO NIL=
SPGM 101600Z /////KT 1000 +RA OVC010 22/21 Q1015 RMK PP020=
SPHI 101600Z 20007KT 160V220 9999 BKN040 26/20 Q1012 RMK PP000=
SPHO 101600Z 07005KT 9999 SCT040 BKN110 19/11 Q1023 RMK PP000=
SPHY 101600Z 36007KT 8000 SCT012TCU BKN040 14/10 Q1032 RMK
     PP000=
SPJA NIL=
SPJI 101600Z 00000KT 9999 BKN030 30/24 Q1020 RMK PP000=
SPJL 101600Z 17005KT 9999 SCT010 SCT100 14/06 Q1036 RMK PP000=
SPJN NIL=
SPJR 101600Z 12006KT 9999 SCT030 19/11 Q1027 RMK PP000=
SPME 101600Z 35005KT 9999 FEW018 28/22 Q10107 RMK BIRD HAZARD RWY
     32/14 PP000=
SPMS 101600Z /////KT 8000 BKN013 26/23 Q1013 RMK BIRD HAZARD 09/27
     PP000=
SPNC NIL=
SPPY NIL=
SPRU 101600Z 16008KT 130V190 9000 BKN010 22/20 Q1012 RMK BR
     PP000=
SPST 101600Z 17004KT 9999 FEW025 BKN080 29/23 Q1011 RMK BIRD
     HAZARD RWY 17/35 PP000=
SPTU 101600Z 33006KT 7000 BKN007 BKN020 28/24 Q1010 RMK BIRD
     HAZARD RWY 01/19 PP000=
SPUR NIL=

0000010100
608
SASA31 KWBC 101600 RRA
METAR
SYCJ 101600Z 02012KT 9999 BKN022 29/21 Q1013 NOSIG=

0000009500
609
SASA41 KWBC 101600 RRA
METAR
SEMT 101600Z 21007KT 9999 OVC020 28/22 Q1011=

0000010200
610
SAAG05 SABM 101600 RRB
METAR SAWE 101600Z  16008KT 9999 -SHRA SCT017
09/08 Q1004=

0000032100
611
SAAF17 LFPW 101600 RRA
METAR HEAX 101600Z 34005KT 9999 FEW020 16/10 Q1021 NOSIG=
METAR HEGN 101600Z 34016KT CAVOK 17/08 Q1019 NOSIG=
METAR HELX 101600Z 29002KT CAVOK 16/07 Q1020 NOSIG=
METAR HEMM 101600Z 33007KT 9999 SCT020 17/10 Q1023 NOSIG=
METAR HESN 101600Z 01004KT CAVOK 17/02 Q1020 NOSIG=

0000043400
612
FTBZ42 KWBC 101612
TAF
TAF SBMO 101600Z 1018/1118 07009KT 9999 SCT020 TN23/1105Z
      TX29/1113Z
      BECMG 1020/1021 07006KT
      BECMG 1102/1103 03003KT
      BECMG 1109/1111 08008KT RMK PDU=
TAF SBVT 101600Z 1018/1118 15006KT 9999 SCT025 TN24/1105Z
      TX31/1115Z
      BECMG 1100/1102 31003KT PROB30
      TEMPO 1108/1113 6000 SHRA BKN016 FEW025CB
      BECMG 1114/1116 15006KT RMK PDU=

0000046500
613
FTBZ43 KWBC 101612
TAF
TAF SBJP 101600Z 1018/1118 11007KT 9999 SCT020 TN22/1105Z
      TX29/1114Z
      BECMG 1102/1104 21005KT
      BECMG 1111/1113 12012KT RMK PDU=
TAF SBPB 101600Z 1018/1118 09015KT 9999 SCT017 TN26/1103Z
      TX33/1115Z
      BECMG 1101/1102 10007KT
      BECMG 1110/1112 08015KT RMK PDU=
TAF SBPL 101600Z 1018/1118 09007KT 9999 SCT035 TN23/1108Z
      TX34/1116Z
      TEMPO 1103/1113 05006KT RMK PDU=

0000056000
614
FTSA41 KWBC 101612
TAF
TAF SKBG 101600Z 1018/1118 VRB02KT 9999 FEW017 SCT200
      TEMPO 1019/1023 32008KT
      TEMPO 1018/1022 SCT017TCU
      TEMPO 1101/1105 00000KT FEW020
      TEMPO 1109/1112 8000 MIFG
      TEMPO 1113/1116 9000 BKN010 TX26/1018Z TN18/1111Z=
TAF SKPE 101600Z 1018/1118 VRB02KT 9000 SCT013 SCT080
      TEMPO 1018/1022 8000 VCSH SCT013TCU BKN080 PROB40
      TEMPO 1022/1102 7000 DZRA BKN012 PROB40
      TEMPO 1109/1111 6000 DZ BKN010
      TEMPO 1111/1114 5000 BCFG SCT008 TX24/1019Z TN17/1111Z=

0000029100
615
FTUS52 KWBC 101612 CCA
TAF COR
KGGG 101610Z 1012/1112 17017G24KT P6SM OVC009
     FM101700 18017G27KT 6SM -RA BR VCTS OVC009CB
     FM101900 19015G25KT 5SM -TSRA BR OVC009CB
     FM110300 25010KT 5SM -RA BR VCTS OVC015CB
     FM110700 28008KT P6SM SCT015 BKN250=

00000000