0000026200
016
FTUS51 KWBC 101624 AAA
TAF AMD
KDAY 101621Z 1016/1112 17007KT 2SM BR OVC004
      TEMPO 1016/1018 3/4SM BR VV002
     FM101800 17009KT 5SM BR OVC008
     FM110100 18012KT 4SM BR VCSH BKN012
     FM110300 17012G22KT 4SM -RA BR BKN010=

0000076300
017
FTUS80 KWBC 101624 AAA
TAF AMD
KDAY 101621Z 1016/1112 17007KT 2SM BR OVC004
      TEMPO 1016/1018 3/4SM BR VV002
     FM101800 17009KT 5SM BR OVC008
     FM110100 18012KT 4SM BR VCSH BKN012
     FM110300 17012G22KT 4SM -RA BR BKN010=
KILG 101623Z 1016/1112 05005KT 2SM -SHRA BR SCT010 OVC035
     FM101700 11004KT 2SM BR VCSH SCT010 OVC035
      TEMPO 1017/1020 4SM BR SCT005 BKN010
     FM102000 15004KT 4SM BR VCSH OVC010
     FM110000 15005KT 4SM BR OVC020
     FM110700 13010KT 2SM -RA BR OVC010 WS020/19050KT=
KLCK 101620Z 1016/1112 16007KT P6SM OVC005
      TEMPO 1016/1018 5SM BR OVC008
     FM101800 17009KT 5SM BR OVC012
     FM110500 17012KT P6SM VCSH BKN020
     FM110800 18012G22KT 5SM -RA BR BKN010=

0000181200
018
SPUS70 KWBC 101624
SPECI
KACV 101620Z AUTO 14005KT 3SM BR BKN003 OVC008 10/09 A3027 RMK AO2
     T01000089=
KBLF 101620Z AUTO 00000KT 1/4SM -RA FEW018 BKN024 OVC031 08/05
     A3028 RMK AO2 P0000=
KGFL 101620Z AUTO 18005KT 1 1/2SM -SN BR BKN015 BKN037 OVC047
     M04/M06 A3040 RMK AO2 P0001=
KHIE 101620Z AUTO 00000KT 1SM -SN BKN035 OVC043 M09/M12 A3034 RMK
     AO2 P0000 T10891117=
KOXB 101620Z AUTO 35006KT 2SM -RA BR OVC041 04/03 A3043 RMK AO2
     P0001 T00440033 TSNO=
KROG 101620Z 16011G19KT 4SM +RA BR SCT007 BKN017 OVC044 10/09
     A2981 RMK AO2 LTG DSNT NE TSE03 CIG 011V026 P0014=
KRUE 101620Z AUTO 00000KT 1 1/4SM +RA BR SCT007 BKN016 OVC022
     07/07 A2992 RMK AO2 P0008=
KRVS 101620Z 00000KT 9SM OVC010 09/08 A2976 RMK AO2 CIG
     005V013=
KTUL 101620Z 17013KT 10SM SCT006 OVC012 09/07 A2974 RMK AO2
     T00890072=
KUGN 101620Z 15010KT 2 1/2SM BR OVC004 M01/M01 A2998 RMK AO2=
PABA 101617Z AUTO 28024KT 3/4SM -SN BR M25/M27 A2986 RMK AO2 PK
     WND 28028/1554 SNB1548 FZRANO $=
KDMO 101621Z AUTO 15011KT 2 1/2SM BR OVC002 06/05 A2973 RMK AO2
     T00560050=
KHAO 101621Z AUTO 15004KT 4SM BR OVC005 05/04 A3019 RMK AO2=
KRKS 101621Z AUTO 27016KT 3SM -SN BR SCT018 BKN024 OVC033 M04/M07
     A2985 RMK AO2 P0000 T10441067=
KSLN 101621Z 14005KT 2 1/2SM BR BKN005 OVC011 02/01 A2963 RMK AO2
     RAB1554E06 P0000 T00170011=
KGOK 101621Z AUTO 21012G19KT 5SM HZ SCT012 SCT120 12/09 A2971 RMK
     AO2=
KMYV 101621Z AUTO 01005KT 4SM BR CLR 06/05 A3029 RMK AO2=
KPNE 101621Z AUTO 00000KT 1 3/4SM -RA BR BKN004 BKN040 OVC050
     01/M01 A3045 RMK AO2 P0001=
KRDG 101621Z 01004KT 2SM BR OVC008 M01/M03 A3042 RMK AO2 SFC VIS
     4=
KRHI 101622Z AUTO 19007KT 2SM BR OVC005 M06/M07 A2982 RMK AO2
     T10561067=

0000009800
019
SPUS42 KWBC 101624
SPECI
KTUL 101620Z 17013KT 10SM SCT006 OVC012 09/07 A2974=

0000009900
020
SAQB31 LQSM 101600 RRA
METAR LQSA 101600Z VRB02KT 9999 BKN060 09/04 Q1020 NOSIG=

0000050800
021
SAFI32 EFHK 101620
METAR EFHA 101620Z AUTO 36010KT 9999 -SN OVC009 
M04/M04 Q0991=
EFHF 101620Z 35010KT 320V050 9999 BKN010 01/00 Q0987=
METAR EFKA 101620Z AUTO 03010KT 9999 -SG OVC012 
M06/M08 Q0996=
EFKK 101620Z 03011KT 350V050 9999 -SHSN FEW014 BKN018 OVC025 M08/M10
Q0999=
EFMA 101620Z 34012KT 320V020 8000 -RA OVC006 00/00 Q0994=
METAR EFPO 101620Z AUTO 36009KT 9999 OVC008/// M02/M03 Q0993 
R12/29//95=
EFSI 101620Z AUTO 36008KT 320V030 9999 OVC008 M06/M07 Q0995=

0000009300
022
SAUK35 EGGY 101620 RRA
METAR EGKA 101620Z 23013KT 9999 FEW011 09/07 Q1014=

0000015800
023
SAUK37 EGGY 101620 RRA
METAR EGNH 101620Z 16011KT 8000 -RA SCT028 BKN034 08/07 Q1008=
METAR EGPI 101620Z 32011KT 9999 FEW020 06/02 Q1005=

0000043100
024
SABX31 EBBR 101620
METAR EBAW 101620Z 22008KT 190V250 9999 BKN009 06/04 Q1017 TEMPO
     BKN008=
METAR EBBR 101620Z 22011KT 9999 BKN013 06/03 Q1017 TEMPO BKN008=
METAR EBCI 101620Z 21009KT 9999 BKN010 05/03 Q1018 NOSIG=
METAR EBLG 101620Z 22013KT 9999 FEW018 06/03 Q1017 NOSIG=
METAR EBOS 101620Z 20010KT 9999 FEW018 SCT048 06/04 Q1016 NOSIG=
METAR ELLX 101620Z VRB03KT 9999 BKN020 04/03 Q1018 NOSIG=

0000006100
025
SAOS32 LOWM 101620
METAR LOXZ 101620Z NIL=

0000050500
026
SAOS31 LOWM 101620
METAR LOWW 101620Z 29015KT 9999 FEW040 07/01 Q1019 NOSIG=
METAR LOWL 101620Z 27008KT 9999 FEW032 BKN050 06/01 Q1020 NOSIG=
METAR LOWS 101620Z 17003KT 150V220 9999 FEW028 BKN036 05/03 Q1020
NOSIG=
METAR LOWI 101620Z VRB01KT 9999 -DZ FEW007 SCT055 BKN080 04/03 Q1020
R08/19//74 NOSIG=
METAR LOWG 101620Z VRB02KT 9999 MIFG FEW060 04/03 Q1019 R17/29//95
BECMG 3000 BR=
METAR LOWK 101620Z VRB02KT 0600 R10/0900U R28/1200N FG VV002 03/03
Q1019 TEMPO 0500=

0000028700
027
SANO37 ENMI 101620
METAR ENOV 101620Z NIL=
METAR ENSD 101620Z 29007KT 250V350 9999 FEW015 SCT020 BKN045 03/M00
           Q0997 RMK WIND 1138FT 30008KT 200V360=
METAR ENSG 101620Z NIL=
METAR ENSN 101620Z NIL=
METAR ENSR 101620Z NIL=
METAR ENSS 101620Z NIL=

0000012300
028
FCZA32 FAPR 101500
TAF FYGF 101400Z 1015/1024 23005KT CAVOK=
TAF FYWE 101400Z 1015/1024 34009KT CAVOK=

0000062600
029
SANO31 ENMI 101620
METAR ENAN 101620Z NIL=
METAR ENBR 101620Z 26004KT 220V310 9999 -SHRA FEW005 FEW012CB BKN018
           05/04 Q0998 TEMPO SHRA BKN006 RMK WIND 1200FT 27015KT=
METAR ENBO 101620Z 06007KT 030V090 CAVOK M08/M16 Q1010 NOSIG=
METAR ENDU 101620Z 00000KT 9999 FEW040 M23/M25 Q1016=
METAR ENGM 101620Z 18009KT 9999 SCT013 BKN160 M01/M03 Q0997 NOSIG=
METAR ENOL 101620Z NIL=
METAR ENVA 101620Z 08009KT 5000 -SN FEW022 BKN028 M07/M10 Q1000 TEMPO
           3000 -SN VV012 RMK WIND 670FT 10011KT=
METAR ENZV 101620Z 25007KT 9999 -RA FEW012TCU BKN030 07/05 Q1000
           NOSIG=

0000075400
030
SANO39 ENMI 101620
METAR ENNE 101620Z 05020KT 020V090 9999 -SHSN BKN012 M04/M05 Q1005
           W02/S/=
METAR ENQR 101620Z AUTO 05013KT 9999NDV OVC062/// 06/M01 Q0999
           W///S/=
METAR ENSE 101620Z AUTO 04016KT 9999NDV BKN056/// 05/00 Q0999
           W///S5=
METAR ENQC 101620Z AUTO 03008KT 9999NDV FEW020/// BKN041/// 06/02
           Q0998 W///S4=
METAR ENQA 101620Z AUTO 05009KT 9999NDV FEW017/// SCT020/// BKN057///
           05/03 Q0999 W05/S4=
METAR ENHM 101620Z 26013KT 9999 FEW015 BKN160 06/05 Q0999 W08/S4=
METAR ENVH 101620Z AUTO 25025KT 9999NDV SCT015/// BKN130/// 07/05
           Q1005 W///S4=
METAR ENLA 101620Z AUTO 25023KT 9999NDV FEW018/// BKN140/// 07/05
           Q1003 W///S4=

0000078200
031
SAIY31 LIIB 101620
METAR LIEA 101620Z 02005KT CAVOK 12/10 Q1019=
METAR LIEE 101620Z 19008KT CAVOK 14/12 Q1019=
METAR LIEO 101620Z VRB02KT CAVOK 12/09 Q1020=
METAR LIMC 101620Z VRB01KT 9999 BKN040 10/06 Q1019 NOSIG=
METAR LIME 101620Z 14004KT 3000 BR BKN040 10/09 Q1019=
METAR LIMF 101620Z VRB02KT 8000 BKN030 09/05 Q1019=
METAR LIMJ 101620Z 15007KT 9999 SCT018 BKN045 14/10 Q1020=
METAR LIML 101620Z VRB01KT 9999 BKN035 09/08 Q1019 NOSIG=
METAR LIRA 101615Z 00000KT 8000 SCT030 BKN080 11/09 Q1021=
METAR LIRF 101620Z 07004KT 9999 BKN030 12/09 Q1021 NOSIG=
METAR LIRN 101620Z 34003KT 310V010 6000 BKN025 14/08 Q1021=
METAR LIRP 101615Z 20003KT 9999 FEW025 BKN040 12/09 Q1020 NOSIG=
METAR LIRQ 101620Z VRB02KT 9999 FEW018 BKN030 12/11 Q1020=

0000062200
032
SAIY32 LIIB 101620
METAR LIBD 101620Z 00000KT CAVOK 11/11 Q1020=
METAR LIBR 101615Z 22002KT 9999 FEW020 14/13 Q1020 NOSIG=
METAR LICC 101620Z NIL=
METAR LICJ 101620Z 07008KT CAVOK 14/10 Q1020=
METAR LIPE 101620Z 09007KT 0150 R12/0550N FG BKN001 07/07 Q1020=
METAR LIPH 101615Z /////KT 2500 MIFG SCT020 SCT070 07/06 Q1020=
METAR LIPQ 101620Z VRB01KT 3000 BR SCT007 BKN015 09/07 Q1019=
METAR LIPR 101615Z /////KT 8000 BKN060 10/08 Q1019=
METAR LIPX 101615Z 11004KT 1000 R04/P1500U BR FEW005 SCT010 BKN045
      09/06 Q1020=
METAR LIPZ 101620Z VRB01KT 2000 BR SCT010 SCT045 08/06 Q1020=

0000004200
033
SAIY33 LIIB 101620
NIL=

0000053700
034
SANO33 ENMI 101620
METAR ENAT 101620Z NIL=
METAR ENBL 101620Z NIL=
METAR ENEV 101620Z NIL=
METAR ENFL 101620Z 35008KT 9999 VCSH FEW015 SCT030 03/M00 Q0998 =
METAR ENKB 101620Z 05008KT 9999 FEW013 SCT030 M03/M05 Q0999=
METAR ENKR 101620Z 16009KT 3000 IC BR VV002 M20/M22 Q1015 SEASMOKE
           NORTH OF THE FIELD RMK WIND 775FT VRB01KT=
METAR ENML 101620Z 05004KT 9999 FEW025 BKN060 M01/M05 Q0999=
METAR ENNA 101620Z 21003KT 9999 VCFG FEW001 BKN009 M14/M16 Q1018 RMK
           WIND 1800FT 36003KT=

0000027800
035
SADL33 EDZO 101620
METAR EDFE 101620Z NIL=
METAR EDFH 101620Z 25006KT 9999 FEW015 SCT250 04/02 Q1017=
METAR EDFM 101620Z VRB01KT 9999 SCT036 06/03 Q1019=
METAR EDLV 101620Z 22007KT CAVOK 07/03 Q1016=
METAR EDVK 101620Z 22005KT 9999 SCT040 05/01 Q1016=

00000000