0000178700
056
SZPS01 AMMC 111209
CREX++
T000103 A001 D01021 D06025++
-0204190 14737360 56130 2014 01 11 12 02 3027 11 07 00 01
00404 0079 00408 0083 00405 0081 00402 0079 00400 0077 00395 0073+
-0669280 15640860 56363 2014 01 11 12 02 //// 11 07 00 01
00477 -0046 00473 -0051 00474 -0051 00482 -0045 00482 -0046 00485 -0045+
-0942890 15995560 56670 2014 01 11 12 02 3040 11 07 00 01
00428 -0048 00424 -0052 00419 -0057 00420 -0055 00420 -0055 00420 -0055+
-1072080 16580190 57131 2014 01 11 12 02 //// 11 07 00 01
01299 0835 01590 1124 01708 1239 01138 0666 00954 0480 00478 0001+
-1551560 16718860 57210 2014 01 11 12 02 //// 11 07 00 01
00527 -0139 00513 -0156 00516 -0156 00523 -0153 00523 -0156 00526 -0155+
-1775690 16830030 57320 2014 01 11 12 02 3017 11 07 00 01
00442 -0120 00444 -0120 00445 -0121 00446 -0123 00447 -0124 00447 -0127+
-4397330 16861610 65180 2014 01 11 12 02 2885 11 07 00 01
01543 0407 01530 0399 01525 0399 01520 0399 01513 0396 01526 0414+
-2120470 -15978530 65980 2014 01 11 12 02 3010 11 07 00 01
00542 0003 00567 0027 00548 0006 00547 0004 00546 0001 00559 0013+
-2113810 -17518140 66600 2014 01 11 12 02 //// 11 07 00 01
00958 0096 00954 0089 00966 0097 00961 0088 00967 0090 00976 0095+
-1382670 -17176110 66840 2014 01 11 12 02 3010 11 07 00 01
00789 0012 00791 0012 00804 0022 00801 0016 00812 0024 00811 0020+
-1813250 17842750 67050 2014 01 11 12 02 3032 11 07 00 01
01031 0105 01033 0103 01041 0106 01045 0107 01046 0103 01058 0112+
-1760530 17743810 67070 2014 01 11 12 02 3032 11 07 00 01
01034 0026 01038 0026 01042 0025 01047 0026 01052 0027 ///// ////+
-0850250 17919500 67440 2014 01 11 12 02 3027 11 07 00 01
02052 0019 02059 0021 02061 0020 02064 0019 02067 0018 02066 0013++
7777

0000034600
057
SZIO01 AMMC 111209
CREX++
T000103 A001 D01021 D06025++
-1211670 09689190 46280 2014 01 11 12 02 3020 11 07 00 01
00820 0029 00812 0023 00811 0024 00810 0025 00812 0029 00815 0034+
-1042940 10566940 46290 2014 01 11 12 02 //// 11 07 00 01
01131 -0001 01100 -0029 01118 -0009 01125 0001 01096 -0025 01116 -0003++
7777

0000046700
058
SZPA01 AMMC 111209
CREX++
T000103 A001 D01021 D06025++
0136250 17293000 67590 2014 01 11 12 02 3015 11 07 00 01
01741 0013 01752 0021 01754 0020 01770 0033 01750 0009 01771 0027+
0710610 17137250 67680 2014 01 11 12 02 3013 11 07 00 01
01221 0068 01222 0067 01222 0065 01228 0068 01228 0066 01232 0068+
0698060 15820000 67950 2014 01 11 12 02 3023 11 07 00 01
00655 0033 00654 0032 00657 0034 00658 0034 00662 0038 00664 0039++
7777

0000192000
059
SZAU01 AMMC 111209
CREX++
T000103 A001 D01021 D06025++
-1927750 14705860 59260 2014 01 11 12 02 3020 11 07 00 01
01650 0200 01642 0199 01633 0198 01627 0199 01615 0193 01608 0195+
-2316110 15079000 59670 2014 01 11 12 02 3000 11 07 00 01
02295 0253 02289 0257 02277 0255 02270 0257 02267 0265 02246 0254+
-3447330 15091170 60420 2014 01 11 12 02 2955 11 07 00 01
00498 -0047 00500 -0044 00504 -0039 00500 -0041 00496 -0044 00490 -0049+
-4105000 14591500 60910 2014 01 11 12 02 2888 11 07 00 01
02384 -0014 02383 -0005 02383 0002 02376 0005 02360 -0004 02346 -0010+
-4254640 14793080 61170 2014 01 11 12 02 2897 11 07 00 01
01058 0091 01056 0090 01061 0095 01068 0102 01070 0105 01075 0110+
-3834390 14161360 61410 2014 01 11 12 02 2908 11 07 00 01
00714 -0004 00728 0010 00753 0035 00704 -0015 00762 0043 00708 -0012+
-3214890 13364170 62000 2014 01 11 12 02 2958 11 07 00 01
01081 -0017 01085 -0015 01086 -0015 01086 -0017 01088 -0016 01090 -0016+
-3387080 12189720 62080 2014 01 11 12 02 2950 11 07 00 01
01075 0055 01064 0044 01078 0057 01084 0062 01089 0066 01084 0061+
-3182560 11573860 62237 2014 01 11 12 02 2972 11 07 00 01
01019 0097 01022 0100 01020 0099 01016 0096 01014 0095 01012 0093+
-2422000 11339750 62385 2014 01 11 12 02 //// 11 07 00 01
01285 -0097 01245 -0135 01210 -0169 01260 -0117 01249 -0126 01305 -0068+
-2181670 11419110 62430 2014 01 11 12 02 //// 11 07 00 01
02098 -0084 02082 -0098 02083 -0095 02073 -0103 02073 -0101 02066 -0106+
-1800080 12221830 62650 2014 01 11 12 02 3043 11 07 00 01
06666 0044 06663 0047 06660 0049 06656 0053 06652 0054 06646 0057+
-1247190 13084580 63230 2014 01 11 12 02 3050 11 07 00 01
04221 0096 04223 0097 04224 0097 04226 0096 04228 0096 04230 0095+
-1386000 13641580 63511 2014 01 11 12 02 3042 11 07 00 01
01892 0101 01891 0099 01888 0096 01888 0095 01886 0093 01885 0091++
7777

0000094900
060
SMBY01 UMMN 111200
AAXX 11121
26554 41459 72905 10010 21010 39873 40036 52021 78582 879// 333
86917 91110 555 12002=
26666 41256 82704 10011 20000 39802 40017 52028 77176 8872/ 333
88706 91115 555 12001=
26850 41465 82803 10018 21016 39785 40070 52014 77172 885// 333 88714
91110 555 11002=
26863 41560 72911 10014 21021 39809 40046 52024 72682 85330 333
85928 91014 91116 555 12001=
26941 41460 72705 10042 20027 39860 40097 52007 70265 87500 333 87615
91110 555 11005=
26951 41575 73007 10037 20014 39887 40087 52009 70282 87900 333 87923
91111 555 11004=
33008 42562 72703 10057 20006 39959 40137 52003 87300 333 91110 555
11005=
33019 41560 72703 10056 20016 39940 40114 52005 70262 875// 333 87622
91110 555 12005=
33036 41565 62504 10034 20011 39859 40090 52012 72582 85950 333
91111 555 11005=
33041 41460 73004 10036 21014 39909 40064 52016 70282 87500 333
87618 91010 91112 555 11003=
0000069300
061
UDEU02 EGRR 111211
AMDAR 1111
ASC EU0118   5208N 00445E 111140 F096 MS115 259/045 TB0 S031
333 F096 VG004=
ASC EU0118   5204N 00445E 111141 F115 MS132 255/059 TB0 S031
333 F115 VG001=
ASC EU0118   5201N 00445E 111142 F135 MS176 255/056 TB0 S031
333 F135 VG001=
ASC EU0118   5158N 00444E 111142 F156 MS230 253/058 TB0 S031
333 F156 VG001=
LVR EU0118   5145N 00439E 111144 F229 MS380 257/070 TB0 S031
333 F229 VG003=
LVR EU0118   5103N 00424E 111151 F290 MS492 254/082 TB0 S031
333 F290 VG000=
LVR EU0118   5021N 00410E 111158 F290 MS492 253/073 TB0 S031
333 F290 VG000=
LVR EU0118   4939N 00404E 111205 F217 MS340 272/045 TB0 S031
333 F217 VG000=
0000068500
062
UDAF02 EGRR 111211
AMDAR 1111
ASC EU0083   2759N 01521W 111159 F016 PS134 131/006 TB/ S031=
ASC EU0083   2801N 01520W 111159 F025 PS123 139/007 TB/ S031=
ASC EU0083   2804N 01520W 111200 F034 PS108 117/007 TB/ S031=
ASC EU0083   2806N 01517W 111201 F048 PS093 065/005 TB/ S031=
ASC EU0083   2808N 01514W 111201 F067 PS065 054/010 TB/ S031=
ASC EU0083   2809N 01512W 111202 F083 PS043 093/003 TB/ S031=
ASC EU0083   2811N 01508W 111202 F096 PS035 257/005 TB/ S031=
ASC EU0083   2813N 01505W 111203 F111 PS025 246/010 TB/ S031=
ASC EU0083   2815N 01502W 111203 F122 MS003 259/010 TB/ S031=
ASC EU0083   2817N 01459W 111204 F136 MS036 265/014 TB/ S031=
0000030500
063
UDEU02 EGRR 111211 RRA
AMDAR 1111
LVR EU1790   3137N 01350W 111137 F350 MS553 289/045 TB/ S031=
LVR EU1790   3055N 01424W 111144 F350 MS540 290/045 TB/ S031=
LVR EU1790   3004N 01443W 111151 F350 MS538 295/054 TB/ S031=
LVR EU1790   2913N 01501W 111158 F350 MS533 302/060 TB/ S031=
0000017400
064
SMID01 WIIX 110000 RRC
AAXX 11004
96221 01456 82904 10248 20242 30091 40106 53013 60084 72162 8557/
  333 20234 50500 55045 56999 58009 60087 85615 87460=
0000068900
065
UDEU02 EGRR 111211 RRB
AMDAR 1112
ASC EU4792   5940N 01758E 111205 F005 MS033 328/002 TB/ S031=
ASC EU4792   5940N 01759E 111205 F006 MS033 286/007 TB/ S031=
ASC EU4792   5940N 01759E 111205 F008 MS036 317/005 TB/ S031=
ASC EU4792   5940N 01800E 111206 F011 MS044 003/008 TB/ S031=
ASC EU4792   5940N 01800E 111206 F015 MS049 020/010 TB/ S031=
ASC EU4792   5940N 01800E 111206 F017 MS055 032/013 TB/ S031=
ASC EU4792   5940N 01801E 111206 F019 MS060 038/014 TB/ S031=
ASC EU4792   5941N 01802E 111206 F021 MS063 041/015 TB/ S031=
ASC EU4792   5941N 01802E 111206 F023 MS066 034/015 TB/ S031=
ASC EU4792   5941N 01803E 111206 F024 MS070 024/018 TB/ S031=
0000014000
066
SMMS01 WMKK 111200 RRA
AAXX 11124
96481 11459 70502 10233 20219 30088 40107 60061 76162 8487/ 333 10308 81710 83625 87468=
0000332100
067
SMUK42 EGRR 111200
AAXX 11124
03002 17573 /2719 10058 20020 39986 40005 51013 60021 723//
  333 81/26 84/59 90710 91128=
03008 16/// /2823 10060 20001 39967 40040 51012 60011
  333 90710 91133 91033=
03010 46/// /2731 10050 20002 40075 52024
  333 90710 91140=
03031 17683 /2809 10007 21003 39787 40121 51023 69941 724//
  333 553// 20247 81/36 85/41=
03034 15981 /2511 10055 20005 30102 40115 51020 60011
  333 8//99=
03037 15673 /1302 10037 20023 30108 40130 51025 69941
  333 81/41 86/47=
03039 46/// /2820 11019 21025
  333 90710 91127=
03044 17562 /2407 10036 20005 39997 40097 52020 60011 741//
  333 553// 20161 81/28 84/33 91017=
03047 17680 /3003 10022 21008 39832 40140 51020 69961 724//
  333 553// 20218 81/46 83/57=
03062 17684 /2715 10028 20001 30104 40109 51027 69961 781//
  333 553// 20440 84/33=
03065 46/// /2729 11058 21067
  333 90710 91142=
03068 12584 22413 10034 20004 30097 40106 51025 60001 82901
  333 81920=
03072 46/// /2931 11031 21068
  333 90710 91151 91051=
03080 15983 /2809 10045 21025 39934 40106 51021 60001
  333 8//99=
03088 15972 /2712 10041 21024 39941 40106 51020 60001
  333 553// 20541 8//99=
03105 17568 /2713 10073 20045 30142 40159 51018 69941 723//
  333 83/24=
03132 15980 /2611 10047 20028 30159 40173 51022 60001
  333 8//99=
03144 15984 /2213 10027 20007 30092 40136 51021 60001
  333 553// 20506 8//99=
03148 46/// /2819 11010 21037
  333 90710 91131=
03153 15384 /2804 10037 20023 30023 40164 51020 69921
  333 553// 20565 87/09=
03155 16985 /2413 10021 20009 39848 40152 51016 69961
  333 8//99=
03158 15984 /2616 10039 21006 39992 40131 51018 69921
  333 553// 20647 8//99 90710 91126=
03210 16472 /2909 10047 20034 30018 40172 51021 60001
  333 83/17=
03212 15/80 /2806 10051 20015 30070 40171 51023 60011=
03214 15981 /2916 10059 20029 30155 40173 51020 69961
  333 8//99=
03220 16988 ///// 10045 20018 30129 40164 51021 69921
  333 8//99=
03224 15183 /2615 10017 20015 39805 40158 52020 69901
  333 85/02=
03225 16582 /1706 10024 20002 39856 40169 51018 60021
  333 553// 20404 84/25=
03226 15483 /2910 10035 20012 39884 40165 53020 69941
  333 84/15 83/25=
03227 46/// /2825 11021 2////
  333 90710 91135=
03230 16983 /2805 10035 20000 39884 40145 51015 69921
  333 8//99=
03238 15982 /2715 10036 20014 39964 40140 51023 60001
  333 8//99 90710 91129=
03261 16980 /2707 10053 20009 30125 40166 51023 60001
  333 8//99=
03265 15574 /3104 10062 20004 30133 40164 51022 60001
  333 84/26=
03266 16981 /2510 10056 20012 30146 40164 51023 60001
  333 8//99=
03275 15978 /2616 10043 20013 39950 40146 51015 60001
  333 8//99=
03281 16/// /2713 10039 20001 60001=
03901 15974 /1405 10021 20008 30089 40179 52016 69921
  333 55310 20727 8//99=
03904 17980 /2406 10035 20016 30118 40179 52015 69901 721//
  333 8//99=
03907 15982 /2212 10038 20021 30164 40172 53018 60031
  333 55309 20541 8//99=
03911 16277 /0000 10033 20006 39901 40180 51019 6///1
  333 81/03=
03915 16104 /1408 10002 20002 30094 40175 52019 60001
  333 87/02=
03916 16981 /2304 10036 20000 39977 40171 51019 69921
  333 553// 20343 8//99=
03923 17064 /2206 10014 20012 39978 40180 51015 60001 720//
  333 83/01=
0000421800
068
SMUK43 EGRR 111200
AAXX 11124
03301 16476 /2906 10062 20031 30122 40196 51021 60001
  333 81/15=
03305 15982 /2706 10040 21004 39931 40198 51019 69941
  333 8//99=
03313 16682 /2709 10057 20027 30095 40191 50020 69981
  333 82/31=
03316 15574 /2913 10067 20038 30174 40185 51025 60031
  333 81/21=
03318 16/// /2909 10062 20033 60011=
03321 15982 /2910 10064 20025 30174 40187 51019 69921
  333 55310 20798 8//99=
03330 17157 /3208 10024 20021 39817 40186 51023 69961 781//
  333 87/02=
03344 15382 /2807 10034 20014 39849 40172 51023 69921
  333 81/08 87/12 91017=
03346 16/// /2814 10028 20014 60001=
03351 15379 /3106 10057 20044 30142 40185 51024 60041
  333 55306 20617 81/09 83/12=
03373 169// /2714 10052 20026 30097 40168 51020 60001
  333 8//99=
03379 12581 22813 10057 20025 30096 40174 51020 60001 82800
  333 81822=
03382 15980 /2610 10058 20024 30151 40160 51025 60001
  333 55310 20751 8//99=
03385 46972 /2611 10070 20033 30152 40162 52022
  333 83/63=
03391 12580 12814 10063 20019 30163 40171 51021 60001 81800
  333 81822=
03392 16977 /2714 10063 20035 30164 40168 51022 60001
  333 8//99=
03405 169// /2609 10066 20027 30087 40204 51017 60001
  333 553// 20837 8//99=
03409 16/// /2605 10054 20008 39992 40194 51022 60001
  333 55307 2////=
03410 16483 /2707 10044 20007 39752 40193 51024 69921
  333 553// 20988 87/18=
03469 15981 /2713 10066 20037 30171 40175 51024 69901
  333 553// 20760 8//99=
03488 15981 /2717 10065 20033 30139 40165 51025 69961
  333 8//99=
03503 15584 /3104 10060 20024 30123 40202 51018 60001
  333 86/21=
03520 16976 /3107 10065 20018 30076 40198 51021 69921
  333 553// 20928 8//99=
03522 15980 /2707 10068 20016 30108 40202 51020 60001
  333 8//99=
03529 15581 /2610 10070 20015 30157 40200 51024 69921
  333 81/26=
03544 15583 /2710 10060 20028 30056 40189 51023 60001
  333 553// 20891 81/22=
03560 15981 /2810 10066 20031 30082 40187 51023 60001
  333 553// 20921 8//99=
03604 16982 /3404 10075 20013 30153 40208 51013 60001
  333 8//99=
03605 16981 /3203 10069 20021 30199 40208 51016 60001
  333 8//99=
03609 16/// /3106 10067 20035 30161 40214 51019 60001=
03628 15977 /2611 10070 20032 30129 40202 51018 60001
  333 55310 20972 8//99=
03647 16480 /2812 10057 20023 39936 40195 51023 60001
  333 553// 20910 81/18=
03658 13481 12409 10071 20032 30128 40198 51021 60001 81100
  333 81812=
03660 15972 /2907 10059 20022 39945 40196 51023 60001
  333 8//99=
03672 11584 12808 10079 20030 30155 40196 51024 69901 70261 81100
  333 81820=
03680 16/// ///// 10066 20031 30036 40194 51024 60001
  333 553// 20886=
03684 15980 /2908 10068 20030 30076 40184 51026 69941
  333 8//99=
03693 15979 /3009 10081 20032 30186 40188 51030 69921
  333 8//99=
03707 15981 /3505 10090 20018 30204 40211 51017 60001
  333 8//99=
03710 16981 /3006 10075 20034 39784 40206 51017 60001
  333 553// 20851 8//99=
03743 16981 /2708 10072 20025 30041 40204 51018 60001
  333 8//99=
03749 16981 /2809 10072 20034 30092 40204 51020 60001
  333 8//99=
03761 12480 12607 10074 20034 30056 40201 51022 60001 81100
  333 55310 20958 81812=
03768 16981 /2808 10076 20031 30120 40200 51022 60001
  333 8//99=
03769 15980 /2904 10082 20027 30113 40196 51025 69961
  333 55310 20577 8//99=
03770 16/// ///// 10088 20028 60001=
03781 15981 /3007 10065 20030 39988 40198 51026 69941
  333 553// 20949 8//99=
03784 46/// /2709 10082 20039 30185 40189 51026=
03797 15981 /3013 10073 20028 30129 40189 51031 60011
  333 55310 20991 8//99=
03823 15481 /0205 10087 20043 39964 40208 51012 60001
  333 553// 20975 82/18=
03839 16/// ///// 10078 20045 69921
  333 553// 20840=
03857 15981 /3313 10086 20042 30146 40210 51020 60001
  333 8//99=
03862 15979 /3110 10079 20043 30196 40208 51021 60001
  333 55310 21001 8//99=
03866 16/// /2808 10081 20039 30181 40206 51022 60001=
03872 15982 ///// 10083 20044 30198 40203 51024 69901
  333 553// 20949 8//99 91010=
03876 16/// /3506 10085 20034 30198 40200 51026 69961=
03895 41584 23609 10092 20049 40215 51017 70365 82501 333 82620=
0000043300
069
UDEU02 EGRR 111211 RRC
AMDAR 1111
LVR EU2230   4322N 00608W 111129 F350 MS607 323/024 TB/ S031=
LVR EU2230   4235N 00641W 111136 F350 MS605 332/026 TB/ S031=
LVR EU2230   4147N 00713W 111143 F350 MS600 340/028 TB/ S031=
LVR EU2230   4056N 00739W 111150 F350 MS597 341/035 TB/ S031=
LVR EU2230   4004N 00805W 111157 F350 MS605 344/043 TB/ S031=
LVR EU2230   3912N 00830W 111204 F350 MS597 351/045 TB/ S031=
0000030500
070
UDAF02 EGRR 111211 RRA
AMDAR 1111
LVR EU0223   2950N 01257W 111151 F250 MS300 302/035 TB/ S031=
LVR EU0223   2911N 01319W 111158 F113 PS000 337/018 TB/ S031=
LVR EU0223   2853N 01339W 111205 F011 PS100 190/004 TB/ S031=
LVR EU0223   2856N 01336W 111207 F000 PS150 176/006 TB/ S031=
0000142900
071
SMTH01 VTBB 111200
AAXX 11124
48300 32560 20000 10240 20193 39828 40141 52007 82500
  333 10278 58009=
48327 32960 00000 10250 20175 39789 40145 52002 
  333 10305 58009=
48331 32960 10000 10238 20168 39914 40146 52009 80001
  333 10313 58008=
48353 31959 00000 10242 20162 39854 40144 52009 70500 
  333 10302 58000=
48356 32662 11004 10248 20157 39963 40161 53017 81100
  333 10292 58002=
48375 32960 01002 10262 20165 39899 40124 52013 
  333 10324 58008=
48378 31950 20000 10260 20195 30091 40144 52011 71000 80005
  333 10309 58006=
48381 32960 20306 10261 20154 39928 40145 57002 80005
  333 10306 58000=
48407 31959 43602 10266 20174 30009 40150 52022 70510 80006
  333 10316 58010=
48431 31957 20000 10270 20157 39931 40144 52013 70500 80005
  333 10300 59001=
48456 32560 33307 10286 20181 30124 40138 52016 81101
  333 10320 58005=
48480 31558 20605 10289 20175 30124 40128 52021 70500 82501
  333 10338 58003=
48500 31940 30308 10267 20200 30124 40131 52011 71011 80005
  333 10319 58003=
48551 01458 63502 10260 20238 30120 40128 52015 60032 72122 83877
  333 10310 58006 60036 70026=
48565 32560 53005 10290 20224 30100 40110 52020 81146
  333 10318 58011=
48569 32560 70709 10269 20212 30085 40125 52014 82276
  333 10306 58002 70006=
48583 01456 80000 10235 20226 30122 40128 52018 60212 72166 82246
  333 10289 58012 69987 70268=
0000124500
072
SMTH02 VTBB 111200
AAXX 11124
48303 32962 00000 10225 20177 39703 40147 52009 
  333 10283 58012=
48328 32960 00000 10247 20180 39868 40146 52012 
  333 10316 59004=
48330 31956 40000 10242 20200 39958 40146 52010 71011 80006
  333 10310 58006=
48351 31556 10000 10270 20165 30062 40136 52006 70500 81100
  333 10320 58001=
48354 32962 20000 10250 20160 39947 40152 52009 81045
  333 10299 59002=
48376 31950 00000 10259 20185 30002 40147 52012 70500 
  333 10314 58008=
48377 NIL=
48379 32962 00000 10271 20174 30001 40134 52020 
  333 10323 58008=
48400 31950 20000 10268 20201 30100 40140 52007 71000 80005
  333 10317 58005=
48432 31957 00000 10266 20166 39978 40147 52016 70500 
  333 10306 58011=
48455 NIL=
48462 31957 00000 10278 20181 30088 40144 52017 70500 
  333 10326 58011=
48475 31958 03503 10273 20205 30124 40131 52008 71000 
  333 10307 58006=
48477 31940 40104 10271 20212 30103 40127 52011 71010 81045
  333 10336 58004=
48517 31556 20702 10268 20231 30122 40128 51014 71010 81105
  333 10306 58006=
48532 32560 20000 10282 20210 30115 40124 52020 82105
  333 10315 58008=
48567 32560 60305 10270 20224 30100 40118 52019 81136
  333 10318 58008=
0000184500
073
SMTH40 VTBB 111200
AAXX 11124
48310 31558 10000 10226 20190 39692 40151 51012 71000 81100
  333 10300 58014=
48325 31558 10000 10240 20201 39892 40137 52010 71000 81500
  333 10312 58005=
48329 31556 30000 10240 20181 39801 40141 57001 71011 82501
  333 10303 58013=
48352 31958 10000 10257 20176 39954 40155 52024 70500 80001
  333 10308 58006=
48357 32963 20605 10244 20158 39997 40167 52022 80001
  333 10305 59003=
48380 31950 00000 10253 20197 30055 40149 52011 71000 
  333 10310 58010=
48383 32960 00203 10249 20161 39996 40157 52009 
  333 10302 58001=
48403 31958 50503 10262 20151 39937 40148 52014 70522 80006
  333 10299 58009=
48405 32560 20000 10260 20166 39982 40145 52015 81205
  333 10305 58003=
48420 32960 33604 10275 20181 30124 40128 52010 80005
  333 10317 58004=
48421 31940 20000 10252 20203 30020 40135 52015 71000 80005
  333 10345 58004=
48425 31940 20000 10273 20198 30129 40139 52008 70500 80005
  333 10314 58006=
48426 32960 40302 10290 20165 30122 40135 52009 80006
  333 10330 58003=
48429 32960 30606 10302 20146 30130 40138 52009 80001
  333 10318 58011=
48430 31956 20503 10288 20159 30129 40136 52017 70500 80005
  333 10340 58003=
48450 31956 00000 10268 20187 30102 40136 52012 70500 
  333 10322 58004=
48459 31959 00000 10300 20184 30126 40128 52016 70500 
  333 10335 58004=
48465 31958 30303 10280 20192 30128 40132 52009 70500 80005
  333 10312 58007=
48550 01558 70000 10260 20246 30121 40128 52012 69922 71062 82146
  333 10299 58009 69917 70002=
48552 11460 60000 10255 20243 30119 40126 52013 60092 70362 82806
  333 10310 58007 70092=
48566 32560 30510 10279 20226 30104 40112 52016 82105
  333 10323 58003=
48568 31459 60608 10266 20213 30124 40132 52018 71022 83866
  333 10320 58015 79999=
0000158000
074
SMTH41 VTBB 111200
AAXX 11124
48315 31956 10000 10235 20172 39881 40153 52010 71000 80001
  333 10296 58007=
48374 32960 00000 10260 20159 39983 40149 52014 
  333 10318 58004=
48382 NIL=
48385 31956 00000 10235 20170 39612 40131 52011 71011 
  333 10306 59004=
48390 31930 10000 10241 20181 39991 40154 52018 71000 80001
  333 10306 58001=
48402 31958 30000 10256 20204 30120 40140 52010 71011 80005
  333 10310 58002=
48413 31958 20000 10272 20183 30058 40138 52009 70500 80005
  333 10317 59004=
48416 31959 20202 10247 20171 30009 40158 52015 70500 81056
  333 10307 58004=
48418 32960 00000 10262 20171 30081 40140 52010 
  333 10314 58003=
48434 31956 20000 10266 20184 39924 40144 52013 70500 80005
  333 10309 58001=
48436 31958 20000 10255 20179 39935 40143 52014 70500 80005
  333 10308 58005=
48439 31958 00000 10280 20181 30121 40135 52015 70500 
  333 10324 58018=
48460 31959 00903 10285 20174 30089 40120 52006 70500 
  333 10315 59002=
48461 32962 20307 10280 20229 30070 40140 52025 80005
  333 10307 58016=
48478 31957 40000 10266 20212 30124 40129 52012 71011 80006
  333 10312 58006=
48501 31957 20000 10278 20200 30117 40122 52014 70510 80001
  333 10326 58001=
48561 32560 40000 10294 20227 30107 40115 52017 82205
  333 10338 58006=
48564 32560 30000 10295 20229 30108 40112 52006 82145
  333 10330 58004=
48570 32560 60000 10279 20185 30103 40110 52024 82246
  333 10312 59002=
48580 31556 70000 10253 20226 30119 40126 52018 71022 83846
  333 10308 58006 70011=
0000181300
075
SMTH42 VTBB 111200
AAXX 11124
48302 31558 21606 10160 20107 38507 40146 52004 71000 81505
  333 10190 58012=
48304 32962 00000 10210 20165 39682 40147 52005 
  333 10288 58013=
48334 31958 00000 10235 20170 39782 40147 57004 71000 
  333 10310 58009=
48360 32960 00000 10276 20151 39886 40145 52009 
  333 10290 58001=
48372 31540 30000 10264 20219 30083 40141 52006 71011 82535
  333 10317 58006=
48373 31930 20000 10251 20203 30078 40140 52006 71000 80001
  333 10307 58008=
48386 31930 00000 10275 20215 30095 40140 52006 71011 
  333 10304 58001=
48387 31957 21102 10180 20153 39188 40158 52009 71000 80005
  333 10246 58012=
48408 32960 20000 10250 20187 39999 40149 52017 80001
  333 10316 58004=
48415 31958 20000 10272 20177 30124 40135 52014 70500 80001
  333 10334 58010=
48433 NIL=
48437 32960 00000 10237 20171 39941 40154 52018 
  333 10310 58034=
48440 31958 00000 10264 20187 30085 40135 52017 70500 
  333 10322 58002=
48451 32960 20000 10262 20201 30124 40135 52008 80005
  333 10314 58002=
48454 31557 60102 10297 20182 30122 40129 52011 70522 82106
  333 10320 58005=
48457 31956 50306 10291 20180 30111 40127 52006 70511 80006
  333 10293 58005=
48463 31950 50110 10282 20206 30043 40137 52015 70511 80006
  333 10332 58007=
48464 31957 03501 10270 20210 30120 40132 52010 71000 
  333 10310 58007=
48479 31940 21203 10270 20193 30075 40127 52013 70511 80005
  333 10330 58002=
48520 31556 60000 10258 20224 30102 40117 52005 71022 83546
  333 10302 58000=
48554 31456 81804 10258 20241 30124 40128 52014 71022 83877
  333 10297 58015=
48563 32560 60804 10270 20211 30084 40119 52018 84546
  333 10317 58010=
48571 32560 40000 10272 20209 30106 40118 52009 82201
  333 10306 59001 70004=
00000000