0000010800
876
SAAJ31 UBBB 110330
METAR UBBG 110330Z 25006KT 9999 FEW100 M01/M05 Q1017
R30/CLRD70 NOSIG =
0000011000
877
SALT33 EYVI 101620
METAR EYPA 101620Z 30011KT 260V030 9999 BKN012 03/02 Q0995
R01/2///95=

0000050700
878
FTCN34 CWAO 101600 AAA
TAF AMD CYWG 101620Z 1016/1112 17012KT P6SM BKN080 TEMPO 1016/1018
     3SM -SN BKN020 OVC060 PROB30 1016/1018 6SM -FZRA BR SCT008
     OVC020
    FM101800 18008KT P6SM BKN025 TEMPO 1018/1020 2SM -SN BR OVC012
    FM102000 21005KT P6SM OVC008 TEMPO 1020/1023 OVC012
     BECMG 1023/1101 OVC012
    FM110100 26008KT P6SM BKN012 TEMPO 1101/1104 SCT012 BKN025
    FM110400 31010KT P6SM OVC015 TEMPO 1104/1112 5SM -SN OVC010
    RMK NXT FCST BY 101800Z=

0000039400
879
FTBZ31 KWBC 101621
TAF
TAF SBGR 101608Z 1018/1124 33008KT 9999 SCT035 FEW045TCU
      TN20/1108Z
      TX33/1117Z PROB40 1018/1023 31010KT 7000 TSRA SCT030
      FEW045CB
      BECMG 1023/1101 09004KT CAVOK
      BECMG 1111/1113 33008KT 9999 SCT040
      BECMG 1115/1117 SCT035 FEW045TCU PROB30 1118/1122
      30008KT
      9000 TS SCT030 FEW045CB RMK PGO=

0000043500
880
FTUS41 KWBC 101621 AAA
TAF AMD
KCMH 101619Z 1016/1112 16007KT 4SM BR OVC009
     FM101800 17009KT 5SM BR OVC015
     FM110500 17012KT P6SM VCSH BKN020
     FM110800 18012G22KT 5SM -RA BR BKN010=
KDAY 101617Z 1016/1112 17006KT 2SM BR OVC004
      TEMPO 1016/1018 3/4SM BR OVC002
     FM101800 17009KT 5SM BR OVC008
     FM110100 18012KT 4SM BR VCSH BKN012
     FM110300 17012G22KT 4SM -RA BR BKN010=

0000043500
881
FTUS71 KWBC 101621 AAA
TAF AMD
KCMH 101619Z 1016/1112 16007KT 4SM BR OVC009
     FM101800 17009KT 5SM BR OVC015
     FM110500 17012KT P6SM VCSH BKN020
     FM110800 18012G22KT 5SM -RA BR BKN010=
KDAY 101617Z 1016/1112 17006KT 2SM BR OVC004
      TEMPO 1016/1018 3/4SM BR OVC002
     FM101800 17009KT 5SM BR OVC008
     FM110100 18012KT 4SM BR VCSH BKN012
     FM110300 17012G22KT 4SM -RA BR BKN010=

0000024600
882
SAUS72 KWBC 101600 RRE
METAR
KBQK 101615Z AUTO 12006KT 10SM SCT005 OVC011 21/20 A3022=
KLRU 101615Z AUTO 28012KT 10SM CLR 08/M10 A3007=
TNCM 101600Z 07015KT 9999 SCT017TCU BKN035 26/19 Q1019 A3009 RE RA
     TEMPO SHRA=

0000010000
883
SAUS73 KWBC 101600 RRE
METAR
KIKK 101615Z AUTO 13009KT 10SM OVC008 01/00 A3002=

0000027500
884
SAUS75 KWBC 101600 RRC
METAR
PADK 101616Z AUTO 15008KT 10SM SCT025 OVC034 03/01 A2898=
PAGS 101616Z AUTO 13008KT 10SM BKN017 OVC027 02/01 A2948=
PAUN 101616Z AUTO 08018KT 10SM CLR M13/M18 A2958=
PAVD 101616Z 10SM FEW005 BKN060 BKN080 M04/M07 A2937=

0000213500
885
SPUS70 KWBC 101620
SPECI
KAHN 101616Z 05006KT 1 1/2SM -RA BR OVC005 06/05 A3027 RMK AO2
     P0001=
KAND 101616Z AUTO 05005KT 2 1/2SM -RA BR OVC004 07/07 A3029 RMK
     AO2 CIG 003V008 P0001=
KBUY 101616Z AUTO 04005KT 2 1/2SM -RA BR BKN004 OVC009 03/02 A3033
     RMK AO2 P0001 T00280017=
KCEU 101616Z AUTO 05004KT 1 1/2SM -RA BR SCT003 OVC014 08/06 A3030
     RMK AO2 P0001=
KCXO 101616Z 15012KT 10SM FEW026 OVC050 18/16 A2999 RMK AO2=
KDDH 101616Z AUTO 00000KT 3/4SM -SN BKN018 OVC029 M02/M04 A3037
     RMK AO2 P0000=
KDEC 101616Z 15010KT 7SM BKN011 OVC016 02/01 A2998 RMK AO2=
KDTW 101616Z 16007KT 3SM BR OVC008 01/00 A3017 RMK AO2 SFC VIS
     5=
KHUT 101615Z 25004KT 3SM R13/6000VP6000FT BR OVC003 04/03 A2962
     RMK AO2 T00390028=
KIJD 101616Z AUTO 02003KT 5SM BR SCT009 OVC013 M04/M07 A3046 RMK
     AO2 T10441067=
KMDW 101616Z 16008KT 2 1/2SM BR OVC005 01/01 A3001 RMK AO2 $=
KUTS 101616Z AUTO 17010G18KT 10SM FEW015 BKN022 OVC060 18/15 A2997
     RMK AO2=
PACV 101616Z 00000KT 1 3/4SM -SN BR FEW010 BKN023 OVC055 M03/M03
     A2936 RMK AO2 SNB10 P0000 $=
PAKW 101616Z AUTO 15006KT 10SM FEW013 BKN028 OVC046 02/01 A2965
     RMK AO2 T00220011 TSNO=
PAPB 101616Z AUTO 24007KT 10SM FEW014 FEW020 01/00 A2917 RMK AO2
     SNE02 P0000 T00060000 TSNO=
K1B7 101613Z 08011KT 1/4SM FG BKN002 13/13 A3012=
K9F2 101605Z 06008KT 0SM FG VV000 A3001=
KAGS 101617Z 35005KT 2 1/2SM -RA BR OVC002 09/09 A3025 RMK AO2
     P0002=
KATW 101612Z 18008KT 1 1/2SM BR VV005 M02/M03 A2994=
KCEW 101617Z AUTO 00000KT 1SM BR OVC002 13/12 A3019 RMK AO2
     T01280122=
KGMU 101617Z 03006KT 3SM -RA BR BKN004 OVC011 07/06 A3030 RMK AO2
     P0005=
KGVL 101617Z AUTO 08008KT 4SM BR OVC003 07/07 A3027 RMK AO2=
KJFK 101617Z 01003KT 6SM -RA FEW019 SCT026 OVC035 01/M02 A3047 RMK
     AO2 P0001 $=
KRAC 101617Z AUTO 16008KT 3SM BR OVC003 00/M01 A3000 RMK AO2
     T00001011=
PABA 101617Z AUTO 28024KT 3/4SM -SN BR M25/M27 A2986 RMK AO2 PK
     WND 28028/1554 SNB1548 FZRANO $=
KHYI 101617Z 19011KT 1 1/2SM BKN008 BKN013 OVC018 18/16 A2997
     DZ=

0000014800
886
SACA33 KWBC 101600 RRC
METAR
TNCM 101600Z 07015KT 9999 SCT017TCU BKN035 26/19 Q1019 A3009 RE RA
     TEMPO SHRA RMK JP TO SE=

0000017900
887
SAMP31 LMMM 101630
METAR HLLT NIL=
METAR HLLB 101618Z
00000KT 9999 SCT020 BKN080 16/08 Q1024 =
METAR LMML 101615Z 26007KT 230V290 CAVOK 15/11 Q1022 NOSIG=

0000012800
888
SALT31 EYVI 101620
METAR EYVI 101620Z 26018KT 7000 -SHRA BKN011CB OVC023 03/01 Q0991
     R20/2/0295 NOSIG=

0000010500
889
SPUS31 KWBC 101619
SPECI
KJAX 101615Z 12005KT 10SM FEW010 BKN019 BKN040 23/21 A3020=

0000011300
890
SPUS41 KWBC 101619
SPECI
KSYR 101615Z 08004KT 4SM -SN BR FEW021 BKN029 OVC033 M01/M02 A3031=

0000062500
891
SAUK20 EGGY 101620
METAR EGRE 101620Z AUTO 03012KT 9999 FEW028/// SCT046/// 08/M00 Q0999
     W///S5=
METAR EGRK 101620Z AUTO 27011KT 9999 FEW009/// SCT013/// 06/04 Q0999
     W///S4=
METAR EGRM 101620Z AUTO 25016KT 9999 FEW013/// 07/05 Q1001 W///S4=
METAR EGRO 101620Z AUTO 25021KT 9999 FEW015/// 07/04 Q1002 W///S4=
METAR EGRP 101620Z AUTO 25019KT 170V290 9999 SCT014/// ///// Q1003
     W///S4=
METAR EGRS 101620Z AUTO 25025KT 9999 FEW025/// 08/04 Q1004 W///S4=
METAR EGRV 101620Z AUTO 22023KT 9999 NCD 07/05 Q1009 W///S4=
METAR EGRW 101620Z AUTO 21023KT 9999 NCD 07/05 Q1011 W///S3=

0000048900
892
SAUK21 EGGY 101620
METAR EGRF 101620Z AUTO 18014KT 9999 SCT017/// 07/04 Q0997 W///S5=
METAR EGRG 101620Z AUTO 07017KT 9999 FEW010/// BKN018/// 06/04 Q0998
     RERA W///S4=
METAR EGRI 101620Z AUTO 20022KT 9999 SCT024/// BKN032/// 07/03 Q0996
     RERA=
METAR EGRL 101620Z AUTO 26012KT 9999 FEW014/// SCT023/// 07/04 Q1000
     RERA W///S4=
METAR EGRN 101620Z AUTO 25025KT 9999 NCD 08/05 Q1005=
METAR EGRT 101620Z AUTO /////KT 9999 NCD 07/04 Q1009 W///S3=

0000014500
893
SAFA31 EKCH 101620
METAR EKVG 101620Z AUTO 11015KT 9999NDV BKN012/// 06/05 Q0994
RMK BKN009/// BKN061/// WIND 850FT 13025KT=

0000013100
894
SALV31 EVRA 101620
METAR EVRA 101620Z 30013G26KT 240V340 9999 -RA BKN004 OVC009 04/03 
Q0985 R36/290158 NOSIG=

0000009500
895
SPCN42 CWAO 101619
SPECI CYUA 101619Z AUTO 30029KT 1/4SM -UP CLR M25/ A2972=

00000000