0000011000
129
UANT01 CWAO 111220
ARP AFR690 4815N01608W 1218 F300 MS49 226/56 KT
FGZNH QXT AOE 111220 F09A
0000021200
130
ULUS50 KWBC 111200 RRA
TTCC 61125 72201 70856 78962 25020 50053 67571 26524 88999 77999
31313 45208 81101=
TTCC 61125 72202 70856 77364 26023 50053 69969 27524 88999 77999
31313 45208 81105=
0000181000
131
SSVX08 KARS 111219
ZZYY 51307 10014 1200/ 707996 124994 6111/
33311 88870 20020 32716 20040 32700 20060 32432 20080 31859
20100 31404 20120 31260 20140 31194 20180 31113 20300 31000
444 20110 10014 1057/ 521//=
ZZYY 32323 11014 10004 700194 110076 6111/
11119 01511 10232 29093 40097
444 20110 11014 1036/ 521// 60401=
ZZYY 43001 10014 1200/ 708036 110173 6112/
33311 88872 20001 32703 43345 20040 32525 20060 31562 20080 31344
20100 31278 20120 31229 20140 31181 20300 31016 20500 30776
444 20120 10014 1054/ 521//=
ZZYY 51015 11014 10004 705085 124957 6111/
11119 01211 10259 29085
444 20110 11014 1037/ 521// 60401=
ZZYY 15007 10014 1200/ 305994 008000 6111/
33311 88872 20020 31811 43576 20040 31711 43580 20060 31655 43575
20080 31622 20100 31591 20120 31562 20140 31535 20180 31472
20300 31130 20500 30742
444 20110 10014 1141/ 521//=
ZZYY 15007 11014 11004 305976 007994 6111/
11119 01808 10266 29075 40128
444 20110 11014 1131/ 521// 60401=
ZZYY 14042 10014 1200/ 312115 054867 6112/
33311 88872 20001 32895 43493 20020 32890 43496 20040 32831 43501
20060 32667 43500 20080 32517 20100 32301 20120 32122 20140 31954
20180 31707 20500 30944
444 20120 10014 1144/ 521//=
ZZYY 14042 11014 11004 312112 054868 6112/
11119 00715 10289 29080 40092
22219 00290
444 20120 11014 1125/ 521// 60401=
ZZYY 32319 10014 1200/ 507990 110070 6113/
33311 88870 20020 32450 20080 32383 20100 32026 20120 31803
20180 31291 20300 31109 20500 30831
444 20130 10014 1310/ 521//=
ZZYY 14041 11014 1100/ 307900 055084 6112/
11119 10279 29081
444 20120 11014 1127/ 521//=
ZZYY 48400 10014 12004 750144 144847 6111/
11119 01126 10064 29092
22219 00091
33311 88872 20000 30912 20001 30906 43226
444 20110 10014 1218/ 521// 60401=
0000034800
132
UEUS50 KWBC 111200 RRA
TTDD 6112/ 72201 11833 80562 22807 77562 33707 79562 44644 74763
55574 74365 66528 69568 77507 69370 88498 67171 99470 67773 11426
65775 31313 45208 81101=
TTDD 6112/ 72202 11861 79163 22834 75964 33768 78164 44665 77964
55631 71965 66611 71366 77553 73767 88535 71368 99488 68770 31313
45208 81105=
0000011100
133
UANT01 CWAO 111220
ARP SVA021 5017N03809W 1220 F340 MS58 319/54 KT
HZAK20 QXT EUA 111220 F72A
0000070000
134
SMVF12 ENMI 111200
BBXX
3ERR2 11124 99653 10073 43/// /1024 11033 21082 40045 52003 22200
      10706 70032 333 91132=
LF3F 11124 99643 10078 41597 70820 11043 21084 40024 54000 72687
      87/// 22200 04102 10704 70019 333 91130=
LF3N 11124 99653 10073 41496 71023 11029 21068 40039 57001 78582
      879// 22200 00083 10708 70038 333 91129=
LF4B 11124 99606 10037 47/98 /0109 10020 40003 52022 700// 22200
      00037 10805 70024 333 91114=
LF4C 11124 99584 10019 41598 73022 10060 20014 40040 52011 71682
      879/3 22200 00050 10706 70029 333 91132=
LF5T 11124 99660 10081 41698 50918 11032 21093 40066 54000 71672
      857// 22200 10605 70027 333 91126=
0000018600
135
SMPO41 LPMG 111200
AAXX 11121
08530 NIL=
08535 NIL=
08562 42/// /36// 1//// 2//// 3//// 4//// 5////=
08568 42/// /36// 1//// 2//// 3//// 4//// 5////=
08571 NIL=
0000036300
136
SMPO44 LPMG 111200
AAXX 11121
08532 NIL=
08534 31901 /3104 10074 20074 30174 40192 52007 74544 89///=
08540 31950 09901 10106 20106 30119 40189 51010 72840 333 96010=
08544 31460 22202 10128 20099 30163 40183 52006 70240 81201 333
      81812=
08552 NIL=
08561 32470 11703 10159 20109 39957 40188 50007 81130 333 81818
      91107=
0000074600
137
SMAG04 SABM 111200
AAXX 11124
87078 32970 60503 10300 20221 39940 40086 52015 80006 333 10315 20255 56001 86270=
87244 01569 71105 10208 20196 39765 40156 52043 60384 70362 87500 333
10275 20205 56400 60382 87623=
87393 01460 82304 10210 20201 30072 40135 51040 60244 79599 8392/
333 10247 20210 56500 57980 60111 83610 88540 81950=
87563 32965 00912 10173 20062 30146 40188 53024 333
10240 20090=
87640 32965 00908 10177 20082 30104 40215 52028 333 10260 20078
30007=
87688 32565 12007 10175 20094 30074 40211 5//// 81100 333 10175 20080
 56400 81828=
87774 32982 02705 10150 20071 39199 48556 52004 333
10200 20070=
87852 32984 22715 10130 20053 39674 40180 52011 82080 333 10134
20081 56060 82360=
0000012200
138
SMIN90 VANP 111200
AAXX 11124
42867 31996 22702 10260 20143 40121 70500 80001
  333 10281 58013 82075=
0000005500
139
SMAG03 SABM 111200 RRA
AAXX 11123
NIL
0000160600
140
SMAG03 SABM 111200
AAXX 11124
87593 32960 41617 10184 20098 30150 40177 52027 80006 333 10256
20132 30012 56007 84273=
87623 31958 00510 10176 20084 39990 40214 52029 70700 333 10266
20100 30008=
87641 32970 11614 10186 20015 30026 40199 52031 80001
333 10198 20084 38007 56006 81070=
87645 32570 11813 10172 20042 39998 40204 52033 81100 333 10185
20086 56400 81825=
87648 32960 01612 10181 20044 30182 40193 52033 333 10216 20105
30009=
87692 32560 52008 10167 20088 30168 40193 52025 85400 333 10192
20134 30010 56400 85625=
87715 32968 00505 10186 20021 39881 40195 52020 333 20253 20150=
87750 32965 01407 10186 20078 30114 40213 52020 333 10186 20095
30005=
87765 32960 00000 10116 20046 39249 48544 52009 333 10158 20068=
87784 32980 03215 10194 20022 30196 40219 52003 333 10199 20098=
87791 32980 02706 10185 20063 30198 40206 51013 333 10288 20066 30002=
87800 32980 00000 10119 20085 39817 40214 53005 333 10195 20050=
87803 32980 02307 10103 20021 39286 40206 50004 333 10148 20056=
87828 32980 02710 10170 20044 30134 40185 52011 333 10180 20092=
87860 32980 31801 10168 20083 30118 40173 50009 81039 333 10171
20108 56055 81360=
87904 32680 32911 10140 20035 39882 40126 50005 81474 333 10140
20110 56660 81640=
87909 02980 22512 10163 20028 30073 40147 50003 69904 82039 333
10165 20076 56000 69902 82359=
87925 01558 83214 10100 20079 30089 40112 56006 60024 76162 333
10100 20075 56660 60021 84620 88540=
87938 31680 70906 10082 20056 39954 40024 57020 70252 85570 333
10089 20052 30000 56560 85640 86360 95010=
0000028800
141
SMAG04 SABM 111200 RRA
AAXX 11123
87016 32965 31806 10270 20220 39657 40049 52027 80006 333 10300 20246 56004=
87416 32965 12008 10234 20083 39440 40165 52029 81070 333 10277
20188 30017 56030 81360=
87896 32980 02708 10148 20046 30068 40165 5//// 333 10148 20098=
0000070900
142
UGNZ21 NZKL 111200
PPBB  61098 93112
90012 24502 23010 23012 90345 23009 22510 23506 9079/ 25011 21004
91345 22510 20509 18511 9168/ 18515 17511 92012 20010 19512 21513
924// 22006 93457 13001 06508 27010 9389/ 25016 26019 94012 27017
26519 29520 94357 29026 27028 28532 9489/ 27026 29024 95123 28028
30027 30024 955// 29526=
PPBB  61103 93417
90012 02008 35512 36013 90357 36013 33015 18004 909// 18509 91034
22012 22016 26014 91589 22514 22520 26020 9235/ 28016 27016 9358/
32514 33013 945// 27021 9505/ 29520 26523=
PPBB  61103 93844
90012 01009 33020 33022 90357 33023 31526 29034 909// 28536 914//
28546 9247/ 27550 26557 9305/ 29058 28058 943// 24553 954// 25035=
0000013300
143
SMCN03 CWAO 111200 RRB
AAXX 11124
71421 15/// /1602 11123 21150 39444 40182 50000 60001
333 11118 21151 70002=

0000013900
144
SMCN21 CWAO 111200 RRB
AAXX 11124
71107 17/// /2921 10038 20018 39696 49806 51008 60031 7//4/
333 10077 20020 70212=

0000020800
145
SMCN08 CWAO 111200 RRA
AAXX 11124
71907 45/// /0604 11286 21316 30062 40093 58009 6///1
333 21297 4/024 7////=
71909 45764 42502 11242 21279 30008 40053 6///1
333 11177 21288 7////=

0000023200
146
SMCN39 CWAO 111200 RRB
AAXX 11124
71976 15/// /2407 11295 21322 39432 40093 51010 60001
333 11218 21295 4/010 70000=
71990 17/// /0602 11288 21318 38291 49923 58004 60011 7//4/
333 11154 21288 4/068 70031=

0000020800
147
SMCN22 CWAO 111200 RRB
AAXX 11124
71228 15/// /1307 11089 21105 60001
333 11012 21115 70011=
71246 17/// /0101 11143 21155 39293 49963 57026 69951 7//4/
333 11109 21184 4/042 70019=

0000028300
148
SMCN24 CWAO 111200 RRB
AAXX 11124
71423 15/// /2609 30197 50004 60001
333 4/015 70000=
71434 17/// /0807 11094 21107 39922 49988 58022 69961 7//4/
333 11095 21111 4/012 70008=
71439 45/// /2410 10031 20022 39730 49948 58026 6///1
333 10031 20006 7////=

00000000