0000011000
089
UANT99 KDDL 111220
ARP DAL19 5301N02945W 1220 F330 MS56 176/49 KT
N834MH QXT AOE 111220 F43A
0000017000
090
SOVI10 KWAL 111221
B110070A 011122101"P9751095 B\P~W@@R0ekL1@m{???C?Cv>@mt3@_C?@x4DB5C}6b]9Ik<BM2?????@"??? nTLRKB|B~B~BcBABn:AMPTEMP 26.57C  45+0NN 219E
0000009700
091
SAYE20 OYSC 111200 RRA
METAR OYTZ 111200Z 24006KT 9999 FEW025 BKN200 26/08 Q1019=
0000003900
092
UPTS01 DTTA 111200
NIL=
0000034200
093
USNO11 ENMI 111200
TTAA 11111 01415 99996 05427 27007 00006 ///// ///// 92638 00417
      27512 85310 04913 28011 70807 15758 27510 50527 31589 25513
      40681 40379 23525 30873 48773 23522 25993 47981 24517 20140
      45385 25517 15330 50784 25017 10592 56382 25517 88278 50771
      25016 77999 31313 48108 81119=
0000026400
094
SMIN90 VABP 111200
AAXX 11123
42571 31594 43202 10160 20131 40158 71044 82530
  333 10165 58031=
42574 21595 80000 10150 20150 4//// 70500 8553/
  333 10170 5//// 6002/=
42577 22596 80000 10162 20152 40153 8553/
  333 10192 58020 6001/=
0000014000
095
SMIN90 VEGG 111200
AAXX 11124
42299 21396 70000 10064 20035 38205 48518 70252 86630
  333 10081 58008 6990/ 82709 85617=
0000007100
096
UXIN90 VEGG 111100
PPAA 6111/ 42299 Low Cloud=



0000047400
097
SMIN90 VEBS 111200 RRA
AAXX 11124
42961 32997 00000 10296 20140 40104
  333 10300 58007=
42966 31595 40000 10264 20241 40116 70500
  333 10296 59011=
43097 32996 01801 10240 20154 39129 48525
  333 10274 58000=
43042 32996 00000 10280 20197 40132
  333 10305 59005=
42969 32998 02304 10280 20187 40128
  333 10301 58002=
42894 32996 00000 10250 20170 40164
  333 10265 58000=
42792 32996 00000 10230 20182 40097
  333 10260 59016=
0000034400
098
SZIO01 AMMC 111221
CREX++
T000103 A001 D01021 D06025++
-1211670 09689190 46280 2014 01 11 12 14 3020 11 07 00 01
00798 0031 00793 0028 00789 0026 00792 0031 00789 0029 00783 0025+
-1042940 10566940 46290 2014 01 11 12 14 //// 11 07 00 01
01124 0025 01022 -0075 01129 0035 01037 -0054 01097 0008 01049 -0037++
7777

0000178900
099
SZPS01 AMMC 111221
CREX++
T000103 A001 D01021 D06025++
-0204190 14737360 56130 2014 01 11 12 14 3027 11 07 00 01
00385 0067 00386 0069 00387 0070 00385 0069 00389 0073 00389 0073+
-0669280 15640860 56363 2014 01 11 12 14 //// 11 07 00 01
00498 -0042 00499 -0042 00501 -0042 00497 -0048 00497 -0049 00504 -0043+
-0942890 15995560 56670 2014 01 11 12 14 3040 11 07 00 01
00407 -0068 00407 -0068 00410 -0065 00410 -0065 00411 -0064 00412 -0063+
-1072080 16580190 57131 2014 01 11 12 14 //// 11 07 00 01
00911 0417 01691 1195 01896 1397 01502 1000 01009 0504 00884 0377+
-1551560 16718860 57210 2014 01 11 12 14 //// 11 07 00 01
00553 -0151 00571 -0136 00582 -0129 00578 -0136 00570 -0147 00580 -0141+
-1775690 16830030 57320 2014 01 11 12 14 3017 11 07 00 01
00454 -0135 00459 -0133 00465 -0129 00471 -0126 00479 -0120 00483 -0119+
-4397330 16861610 65180 2014 01 11 12 14 2885 11 07 00 01
01452 0372 01444 0369 01451 0380 01443 0377 01444 0382 01439 0382+
-2120470 -15978530 65980 2014 01 11 12 14 3010 11 07 00 01
00587 0031 00566 0008 00557 -0002 00587 0026 00588 0025 00574 0010+
-2113810 -17518140 66600 2014 01 11 12 14 //// 11 07 00 01
00987 0079 01000 0088 00996 0080 01004 0084 01007 0083 01009 0082+
-1382670 -17176110 66840 2014 01 11 12 14 3008 11 07 00 01
00832 0022 00825 0012 00828 0012 00838 0019 00834 0012 00845 0021+
-1813250 17842750 67050 2014 01 11 12 14 3032 11 07 00 01
01086 0111 01088 0109 01092 0109 01094 0107 01101 0110 01100 0105+
-1760530 17743810 67070 2014 01 11 12 14 3032 11 07 00 01
01091 0029 01097 0030 01101 0030 01106 0030 01111 0030 ///// ////+
-0850250 17919500 67440 2014 01 11 12 14 3027 11 07 00 01
02092 0013 02093 0010 02097 0011 02095 0005 02093 -0001 02105 0008++
7777

0000191800
100
SZAU01 AMMC 111221
CREX++
T000103 A001 D01021 D06025++
-1927750 14705860 59260 2014 01 11 12 14 3020 11 07 00 01
01560 0197 01544 0188 01541 0192 01533 0190 01525 0190 01526 0198+
-2316110 15079000 59670 2014 01 11 12 14 3000 11 07 00 01
02151 0229 02150 0238 02132 0229 02123 0231 02114 0231 02105 0232+
-3447330 15091170 60420 2014 01 11 12 14 2955 11 07 00 01
00505 -0027 00501 -0030 00503 -0027 00497 -0032 00497 -0031 00489 -0038+
-4105000 14591500 60910 2014 01 11 12 14 2888 11 07 00 01
02294 -0003 02287 -0002 02276 -0003 02262 -0010 02265 0001 02266 0012+
-4254640 14793080 61170 2014 01 11 12 14 2897 11 07 00 01
01056 0093 01063 0100 01064 0101 01069 0107 01075 0113 01075 0113+
-3834390 14161360 61410 2014 01 11 12 14 2908 11 07 00 01
00712 -0011 00738 0015 00731 0008 00726 0003 00733 0009 00729 0005+
-3214890 13364170 62000 2014 01 11 12 14 2958 11 07 00 01
01101 -0017 01102 -0017 01105 -0016 01109 -0014 01111 -0014 01113 -0014+
-3387080 12189720 62080 2014 01 11 12 14 2950 11 07 00 01
01067 0039 01082 0053 01105 0076 01088 0058 01098 0067 01087 0056+
-3182560 11573860 62237 2014 01 11 12 14 2972 11 07 00 01
01001 0088 01003 0091 01010 0099 00999 0089 00998 0088 00992 0083+
-2422000 11339750 62385 2014 01 11 12 14 //// 11 07 00 01
01274 -0086 01206 -0152 01233 -0123 01234 -0120 01282 -0071 01279 -0071+
-2181670 11419110 62430 2014 01 11 12 14 //// 11 07 00 01
02066 -0092 02063 -0093 02068 -0086 02057 -0095 02061 -0089 02060 -0087+
-1800080 12221830 62650 2014 01 11 12 14 3043 11 07 00 01
06598 0052 06594 0056 06589 0057 06586 0059 06583 0066 06580 0068+
-1247190 13084580 63230 2014 01 11 12 14 3050 11 07 00 01
04238 0090 04237 0084 04239 0085 04243 0087 04247 0087 04250 0089+
-1386000 13641580 63511 2014 01 11 12 14 3042 11 07 00 01
01888 0091 01889 0091 01889 0091 01891 0092 01894 0095 01896 0096++
7777

0000046700
101
SZPA01 AMMC 111221
CREX++
T000103 A001 D01021 D06025++
0136250 17293000 67590 2014 01 11 12 14 3015 11 07 00 01
01796 0030 01800 0031 01815 0043 01795 0019 01816 0037 01829 0048+
0710610 17137250 67680 2014 01 11 12 14 3013 11 07 00 01
01251 0072 01251 0070 01256 0073 01257 0072 01264 0077 01256 0067+
0698060 15820000 67950 2014 01 11 12 14 3023 11 07 00 01
00677 0047 00678 0047 00683 0052 00683 0051 00687 0054 00689 0056++
7777

0000101100
102
SMIQ01 ORBI 111220
AAXX 11121
40650 41530 70000 10110 20090 40170 58004 71022 87800=
40604 42560 20000 10136 20013 40200 58010 82100=
40608 42960 33001 10142 20041 40196 57012 83030=
40621 41558 80000 10114 20080 40190 57010 76062 888xx=
40629 42560 33310 10136 20070 40218 54000 82532=
40631 41560 60602 10122 20088 40200 56005 70162 86500 86630=
40634 42560 53102 10117 20082 40211 56005 88700=
40637 41558 82702 10105 20100 40182 54000 76066 888xx=
40642 42560 63102 10070 20022 40210 58004 86800=
40656 41516 80202 10096 20085 40162 53001 75154 885xx=
40658 42560 63603 10105 20096 40184 51006 86800=
40665 42960 62702 10120 20080 40172 57012 86030=
40670 41540 82304 10099 20089 40171 56013 71022 8452/=
40672 42560 82404 10102 20068 40179 57020 888xx=
40674 42560 83506 10118 20058 40173 57013 888XX=
40676 42560 72307 10118 20052 40183 56013 87500=
40680 41550 81403 10112 20102 40163 58010 72162 888xx=
40691 42560 72104 10144 20106 40194 55008 85520=
0000270800
103
SMCO01 SKBO 111200
AAXX 11121 
80001 12470 40906 10270 20226 30129 40130 69944 81236 333 20255 30///
50540 55092 5622/ 58004 70004 81818 83070= 
80002 01470 40603 10266 20234 69904 7025/ 82121 333 20266 30/// 5///0
55082 56290 69902 70000 82817= 
80009 31960 10000 10222 20193 30108 40113 7050/ 80001 333 20222 30///
50660 55085 56//0 58018 81070= 
80022 31965 09901 10228 20216 30106 40108 70500 333 20228 30/// 50420
55100 58011= 
80028 31960 00702 10237 20222 30087 40122 70500 333 20232 30/// 5///0
55/// 58014= 
80035 32/70 01104 10237 20210 30149 40154 333 20229 30/// 50820 55097
58013= 
80036 31968 00505 10226 20197 7050/ 333 20223 30/// 50990 55100= 
80063 31405 20000 10224 20221 7441/ 82670 333 20210 30/// 5600/
82712= 
80084 31350 73602 10244 20241 7122/ 84530 333 20230 30/// 55009 5649/
84608 83359= 
80091 31468 30000 10236 20224 7050/ 81830 333 20232 30/// 50510 55088
569// 81615= 
80094 31462 13401 10186 20173 38820 7050/ 81531 333 20177 30/// 50470
55100 56999 58015 81612= 
80097 32570 59901 10206 20160 3//// 4//// 82131 333 20195 30/// 50780
55103 56999 5//// 82820= 
80099 32968 00000 10202 20183 39934 40079 80001 333 20192 30/// 50640
55104 56//9 58004 81070= 
80110 01556 70000 10185 20167 38500 60094 7502/ 83570 333 20176 31///
55034 5600/ 58007 60092 83625 85358= 
80112 01450 80000 10140 20135 37909 69944 72052 8247/ 333 20137 31///
55024 56009 58011 69927 82610 88357= 
80139 32970 10307 10230 20198 30063 40099 80001 333 20219 30/// 50860
55089 58010 81070= 
80144 31/05 90000 10238 20238 7474/ 89/// 333 20230 30/// 50370 55077
56999= 
80210 31463 50702 10190 20168 38671 70522 82530 333 20178 30/// 50250
55027 5617/ 58001 82616 83357= 
80211 11570 50000 10180 20165 7052/ 84570 333 20176 30/// 50410 55038
5682/ 84620 83360= 
80214 31460 63401 10204 20200 7052/ 81670 333 20203 30/// 50230 55025
5677/ 81615 86457= 
80222 31460 50302 10096 20083 37521 70522 82835 333 20096 30/// 55037
56799 58002 82817= 
80234 32562 70000 10226 20189 39628 40120 81571 333 10324 20216 300//
50520 55094 56239 58011 81627 87359= 
80259 01130 80000 10214 20203 39067 60144 75155 8362/ 333 20200 31///
50180 55020 5664/ 58007 83608 88458= 
80315 01459 70000 10238 20224 39603 40104 69944 7152/ 82670 333 5622/
58006 69941 82710 87361= 
80342 01420 80000 10153 20151 38225 60534 7616/ 884// 333 20153 32///
5RRR0 55008 564// 58012 60522 88610= 
80370 02467 70000 10098 20095 37174 60054 83770 333 20090 31/// 50080
55001 5643/ 69942 83710 84457= 
80398 11258 80501 10245 20238 30039 40135 60074 71522 8677/ 333 20239
30/// 50350 55032 5689/ 58018 82704 84610 86358= 
0000012000
104
ULFG01 SOCA 111200
TTCC 61115 81405 70858 743// 28541 50058 675// 26537 88999 77999
31313 47708 81046=
0000012400
105
SMVS02 VNNN 111200
AAXX 11121
48806 32998 00000 10176 20133 39418 40195 53021 333 00015 10220 58015 70000=
0000022700
106
SMAA01 EGRR 111200
AAXX 11124
89022 41586 70410 11023 21046 39907 49945 52006 72272 875// 333 11023 21043 83627 87647=
89062 41482 70111 10005 21029 39916 49957 57016 77072 875// 333 10008 21000 81618 86622=
0000226100
107
SMRA11 RUNW 111200
AAXX 11121
23909 41296 81203 11052 21055 39783 40034 58011 77173 8772/=
24918 NIL=
28044 41495 83602 11096 21114 39951 40120 52003 77172 887//=
28116 41496 81403 11037 21048 39801 40034 57009 71072 885//=
28240 42598 81303 11034 21043 39775 40101 54001 889//=
28522 41496 81806 11017 21029 39811 40068 57006 77173 8802/ 333
91110=
28621 42498 81404 11019 21038 39833 40065 57005 889// 333 91110=
28719 42499 81906 11028 21034 39627 40068 58013 886// 333 91010
91110=
29023 11296 81603 11072 21081 30138 40238 52001 69982 78582 889// 333
11070 87704=
29122 11599 81804 11055 21069 30160 40233 50004 69922 70282 885// 333
11037 88622=
29328 11598 81805 11068 21084 30138 40282 52005 69922 73632 889// 333
11067=
29348 11997 81903 11064 21092 30153 40302 52007 69942 70283 8807/ 333
11056=
29393 NIL=
29405 11697 71703 11080 21102 30104 40256 52005 69902 70282 82531 333
11058=
29418 12598 81904 11078 21105 30109 40275 52003 60002 885// 333
11063=
29430 12998 81601 11075 21088 30130 40312 51005 69942 8802/ 333
11063=
29524 12498 82103 11079 21106 30119 40288 52002 69902 885// 333
11068=
29578 NIL=
29580 NIL=
29587 115// 70000 11096 21100 30004 40335 52005 69972 70272 86942 333
11077=
29605 12998 81603 11103 21121 30114 40264 52002 60002 85072 333
11066=
29631 11597 82004 11075 21088 30121 40314 52004 69952 70283 889// 333
11069=
29645 11596 81502 11075 21085 30141 40335 52004 60022 78582 889// 333
11069 88920=
29664 NIL=
29706 12998 81705 11111 21133 30129 40282 57003 69902 82042 333
11080=
29736 11496 81603 11075 21090 30077 40338 54001 69962 78582 883// 333
11069=
29768 NIL=
29771 NIL=
29772 NIL=
29874 NIL=
29876 NIL=
29937 12997 30000 11113 21154 30113 40347 57004 69922 80005 333
11055=
29974 NIL=
30127 NIL=
30165 NIL=
30323 NIL=
30526 NIL=
30637 NIL=
30714 NIL=
35037 41596 82103 11016 21024 39709 40132 52006 71042 8657/=
36034 11998 81903 11086 21149 30043 40330 57011 60002 70232 80002 333
11061=
36073 NIL=
36078 NIL=
36083 NIL=
36090 NIL=
36091 NIL=
36092 NIL=
36096 11996 80401 11202 21228 39639 40490 53008 60012 77177 8807/ 333
11196 95090=
36104 NIL=
36278 NIL=
0000214100
108
SMRA12 RUNW 111200
AAXX 11121
28049 41997 81704 11033 21038 39951 40117 52008 77172 8802/=
28144 41498 80601 11032 21038 39949 40108 52004 70272 886// 333
88712=
28319 41498 81703 11025 21034 39879 40043 57009 70272 885//=
28321 42497 81403 11022 21031 39838 40042 57009 886//=
28334 42998 81502 11020 21036 39778 40083 54000 8807/=
28434 42598 81003 11013 21039 39823 40080 58004 885//=
28552 42598 81602 11056 21084 30037 40152 52006 885//=
28666 41699 61704 11064 21086 30005 40184 52004 70272 86500=
28825 41597 81904 11010 21035 39925 40097 57005 70272 8652/=
29111 11597 82002 11046 21059 30130 40219 52003 69932 78582 889// 333
11028=
29209 NIL=
29551 11497 82204 11067 21112 30137 40326 51010 69922 73683 8332/ 333
11061=
29602 12998 81903 11098 21120 30123 40270 52002 60002 86031 333
11068=
29636 11496 82002 11069 21099 30096 40322 50003 60012 77172 8872/ 333
11069=
29654 11497 81803 11089 21104 39701 40341 52010 60012 78583 8795/ 333
11084 83712=
29712 12998 21603 11105 21125 30143 40293 58002 69932 82070 333
11072=
29724 11997 61803 11092 21118 30101 40313 54001 69932 70283 86030 333
11075=
29726 11998 81902 11071 21104 30148 40322 52003 69952 70273 8807/ 333
11063=
29814 12999 81403 11112 21139 30144 40297 57004 69902 82072 333
11072=
29827 12697 61403 11104 21136 30160 40322 57006 69902 83530 333
11069=
29923 12999 71502 11094 21145 30047 40335 57004 69902 8701/ 333
11063=
29939 12997 81302 11077 21096 30063 40358 57005 69922 83039 333
11060=
35026 41494 82103 11030 21032 39487 40128 52001 71042 885//=
36021 12999 51603 11107 21147 30123 40313 58005 69902 80009 333
11067=
36022 12998 81803 11108 21164 30051 40326 57006 69902 80001 333
11067=
36038 12999 51602 11063 21147 39876 40333 57011 69902 85030 333 11013
91110=
36058 12999 00701 11040 21118 39815 40350 57001 60002 333 10015=
36064 12999 80202 11024 21092 39747 40352 57002 60002 8805/ 333
11005=
36229 12999 20000 11145 21180 39164 40410 57009 60002 82030 333
11083=
36259 12599 63201 11277 21308 38315 48607 57001 60002 82902 333
11228=
00000000