0000072700
096
SANL33 EHDB 101625
METAR EHAK 101625Z AUTO 24024KT 9999 FEW009/// 07/05 Q1007=
METAR EHDV 101625Z AUTO 23018KT 9999 NSC 07/05 Q1009=
METAR EHFD 101625Z AUTO 25023KT 9999 SCT007/// BKN009/// BKN010///
07/06 Q1008=
METAR EHFZ 101625Z AUTO 23018KT //// // ///////// 07/06 Q1011 RE//=
METAR EHJA 101625Z AUTO 22023KT 9999 NSC 07/05 Q1010=
METAR EHJR 101625Z NIL=
METAR EHKV 101625Z AUTO 24021KT 9999 NSC 09/05 Q1012=
METAR EHMA 101625Z AUTO 24017KT 9999 NSC 07/05 Q1012=
METAR EHMG 101625Z AUTO 24021KT 9999 NSC 08/04 Q1011=
METAR EHPG 101625Z AUTO ///21KT 9999 FEW020/// 09/05 Q1013=
METAR EHQE 101625Z AUTO 23022KT 9999 NSC 09/05 Q////=
METAR EHSA 101625Z NIL=
METAR EHSC 101625Z NIL=

0000010600
097
SAAE33 VTBB 101600 RRB
METAR VVCR 101600Z 01008KT 9999 FEW017 SCT060 25/19 Q1017 NOSIG=

0000026500
098
SADL36 EDZO 101620
METAR ETMN 101620Z 26011KT 9999 BKN017 OVC041 07/04 Q1011
      WHT FCST CANCEL=
METAR ETNL 101620Z 26012KT 9999 BKN023 BKN050 06/04 Q1010 RERA
      WHT=
METAR ETSI 101620Z 23003KT 9999 FEW045 04/02 Q1019
      BLU+=

0000010300
099
SASG20 GOOY 101630
METAR GOOY 101630Z 01015KT 9999  FEW010 SCT130 21/16 Q1012 NOSIG=

0000008300
100
SPPR00 SPIM 101630
SPECI SPZA 101630Z 29004KT CAVOK 34/20 Q1012=

0000009500
101
SALI20 GLRB 101630
METAR GLRB 101630Z 22007KT 9999 SCT018 30/25 Q1008 NOSIG=

0000009400
102
SPAU32 AMMC 101629
SPECI YSRI 101630Z AUTO 00000KT 6000 // NCD 16/16 Q1017=

0000043700
103
SARH31 LDZM 101630
METAR LDSP 101630Z VRB03KT 9999 BKN045 12/10 Q1021 NOSIG =
METAR LDPL 101630Z 10004KT 9999 BKN055 11/09 Q1020 NOSIG =
METAR LDDU 101630Z 09003KT 040V110 9999 FEW033 OVC055 12/09 Q1021
NOSIG =
METAR LDZA 101630Z 00000KT 9999 FEW041 08/07 Q1019 NOSIG =
METAR LDZD 101630Z 11004KT 9999 FEW030 11/09 Q1021 NOSIG =
METAR LDRI 101630Z NIL=
METAR LDOS 101630Z 16004KT 9999 SCT033 06/05 Q1021=

0000004200
104
FTLY31 HLMC 101600
NIL=

0000012100
105
SAEU31 BKPR 101630 CCA
BKPR 101630Z 00000KT 2500 BR SCT007 03/02 Q1020 BECMG 0600 FG RMK
 17010095 =

0000016100
106
FCUK32 EGGY 101400 AAA
TAF AMD EGNC 101629Z 1016/1018 19012KT 9999 SCT025 PROB40 TEMPO
    1016/1018 8000 RA BKN014 TEMPO 1016/1018 33005KT=

0000011300
107
SPAU32 AMMC 101630
SPECI YBCG 101630Z AUTO 20005KT 6000 // SCT022 BKN038 OVC045 20/19
Q1018=

0000009500
108
SAHW31 KWBC 101600 RRA
METAR
PHJR 101625Z 00000KT 10SM FEW002 17/16 A3000=

0000097700
109
FTMX61 MMMX 101630
TAF MMBT 101630Z 1018/1118 24010KT P6SM SKC 
         BECMG 1101/1102 00000KT 
         FM111500 23010KT P6SM SKC=
TAF MMCB 101630Z 1018/1118 03010KT P6SM SCT030 
         BECMG 1101/1102 00000KT 
         FM111200 00000KT 4SM HZ SCT010 
         FM111600 07010KT P6SM SKC=
TAF MMOX 101630Z 1018/1118 12010KT P6SM SCT050 SCT070 
         TEMPO 1021/1101 6SM -RA BKN030CB 
         FM110500 00000KT 5SM HZ SCT020 
         FM111500 16012KT 5SM HZ SCT040=
TAF MMPB 101630Z 1018/1118 03015KT P6SM SCT020 
         TEMPO 1020/1024 BKN020 
         FM110200 06010KT 5SM HZ SCT010 
         FM111100 00000KT 2SM BR SCT005 BKN010 
         FM111500 12010KT 4SM HZ SCT015=
TAF MMPS 101630Z 1018/1118 25010KT P6SM SCT040 
         BECMG 1102/1103 00000KT 
         FM111500 20010KT P6SM SKC=
TAF MMZH 101630Z 1018/1118 24010KT P6SM SKC 
         BECMG 1102/1103 00000KT 
         FM111500 00000KT P6SM SKC=

0000016400
110
FTUS73 KWBC 101630 AAA
TAF AMD
KGCK 101627Z 1016/1112 32011KT P6SM SKC
     FM101800 31018G26KT P6SM SCT012
     FM110000 31010KT P6SM SKC=

0000013000
111
SAMX31 KWBC 101645 RRA
METAR
MMMX 101621Z SPECI 16003KT 6SM FEW020 17/03 A3032 NOSIG RMK 8/100
     HZY SC=

0000086200
112
SATU31 LTAA 101620
METAR LTAC 101620Z 23004KT 2900 -SG BR OVC009 M03/M03 Q1022 NOSIG=
METAR LTAF 101620Z 27003KT 5000 HZ NSC 10/M00 Q1019 NOSIG=
METAR LTAI 101620Z 34002KT 7000 FEW030 09/08 Q1020 BECMG TL1800 4000
 BR=
METAR LTAJ 101620Z 36003KT CAVOK 04/M04 Q1019 NOSIG=
METAR LTAZ 101620Z 07004KT 030V110 9000 BKN010 M01/M02 Q1022=
METAR LTBA 101620Z 22009KT CAVOK 10/05 Q1017 NOSIG=
METAR LTBJ 101620Z 19001KT 6000 NSC 09/04 Q1020 NOSIG=
METAR LTBS 101620Z 11003KT CAVOK 11/09 Q1021 NOSIG=
METAR LTCG 101620Z 00000KT 5000 BR NSC 07/03 Q1018 BECMG TL1720 9999
 NSW=
METAR LTCS 101620Z VRB02KT CAVOK 08/M08 Q1021=
METAR LTFC 101620Z VRB02KT 0300 R05/0350U R23/0375U FZFG VV001
 M01/M02 Q1021=
METAR LTFE 101620Z 23003KT 9999 FEW035 BKN200 12/09 Q1021 NOSIG=
METAR LTFJ 101620Z 20005KT 7000 NSC 09/02 Q1017 NOSIG=

0000055900
113
SATU32 LTAA 101620
METAR LTAG 101620Z NIL=
METAR LTAN 101620Z NIL=
METAR LTAP 101620Z 26008KT CAVOK M01/M04 Q1020 NOSIG=
METAR LTAT 101620Z 22006KT CAVOK M05/M08 Q1021 NOSIG=
METAR LTAU 101620Z 26006KT 4800 BR SCT010 M03/M04 Q1022 NOSIG=
METAR LTBF 101620Z NIL=
METAR LTBU 101620Z 24007KT 0300 R05/0350U R23/0350U FG BKN001 04/04
 Q1017=
METAR LTCC 101620Z 28004KT 240V300 CAVOK 02/M05 Q1020 NOSIG=
METAR LTCE 101620Z 00000KT 2800 BR NSC M19/M21 Q1021 TEMPO FM1800
 1200=
METAR LTCJ 101620Z VRB01KT CAVOK 04/M01 Q1020=

0000008900
114
SATU35 LTAA 101620
METAR LCEN 101620Z 33004KT CAVOK 11/05 Q1020 NOSIG=

0000010700
115
SACG20 FCBB 101630
METAR FCBB 101630Z 14004KT 9999 SCT020 FEW030CB 26/22 Q1012 TEMPO TS=

00000000