0000011100
809
UANT01 CWAO 111230
ARP UAL162 5248N04058W 1229 F350 MS61 296/53 KT
N34137 DDL IG1 111230 F64A
0000131400
810
SMIN01 DEMS 111200
AAXX 11124
42027 32596 31401 10044 21022 38477 48563 83400
  333 10068 58054=
42101 32996 00000 10156 20090 40189
  333 10191 58033=
42111 21595 80000 10134 20097 39401 40186 76062 8632/
  333 10187 58026 6995/ 84620 84825 81935 86455=
42131 32996 23401 10154 20064 40195 80001
  333 10190 58036=
42165 31995 63201 10184 20002 40184 70522 80001
  333 10205 58039 86070=
42182 31994 22703 10166 20115 40186 70510 80001
  333 10183 58037 82070=
42189 31994 20000 10160 20124 40175 71020 80001
  333 10172 58028 82070=
42260 31995 53205 10158 20088 40184 70510 85001
  333 10196 58033=
42328 32996 30508 10164 21013 40187 80001
  333 10188 58030 83075=
42339 31995 33602 10190 20013 40184 70500 80002
  333 10205 58048 83070=
42348 31996 23404 10176 20022 40176 70511 80001
  333 10207 58029 82070=
42361 31994 20000 10170 20098 40175 71000 80001
  333 10204 58033 82075=
42369 31594 60504 10156 20135 40172 71042 84530
  333 10183 58036 84620 85360=
42379 21595 70501 10168 20132 40164 71096 85520
  333 10182 56190 58021 6003/ 85625 87458=
42452 31994 40000 10176 20046 40180 70520 80002
  333 10190 58043=
42475 21493 89901 10166 20166 4//// 75165 8672/
  333 10185 56290 58/// 6997/ 83710 86625 88458=
42071 NIL=
0000011000
811
SMIN01 DEMS 111200
AAXX 11123
42071 31996 00000 10158 20109 40196 70500
  333 10176 58028=
0000011000
812
UANT01 CWAO 111230
ARP UAL26 5320N03736W 1230 F350 MS56 276/37 KT
N17122 DDL IG1 111230 F59A
0000011000
813
UANT01 CWAO 111230
ARP UAL71 5250N04047W 1230 F360 MS60 290/51 KT
N18119 DDL IG1 111230 F51A
0000442300
814
UKIY01 LIIB 111200
TTBB 61116 16044
00011 09233 11805 02503 22800 00220 33787 02662 44778
03464 55642 08958 66635 08761 77604 11161 88566 14961
99532 18323 11503 21148 22440 30113 33432 28172 44406
31769 55394 33557 66352 40556 77295 51141 88273 54546
99211 62761 11188 61369 22179 56175 33162 60377 44137
54583 55100 57982
21212 00011 00000 11859 24510 22811 24019 33722 23515
44702 25014 55689 26017 66609 27525 77525 27045 88422
28052 99302 26057 11246 26573 22211 27065 33190 25559
44125 27538 55114 29533 66107 30027 77100 27526
31313 48006 81100
41414 3647/
51515 11895 23505 22800 24019 33600 27527=
TTBB 61118 16080
00010 09221 11764 02502 22745 00956 33642 06767 44619
08362 55481 24509 66465 26303 77428 29350 88398 33528
99387 34956 11348 41558 22297 50737 33278 52558 44234
60758 55227 62357 66197 63365 77171 55575 88143 58376
99119 52980 11112 56578 22100 55779
21212 00010 00000 11852 27010 22803 23020 33780 22024
44767 22023 55752 24017 66683 23014 77586 26527 88451
26048 99415 25541 11344 25047 22249 26065 33218 26563
44190 25056 55159 27028 66154 25034 77133 26042 88128
27538 99124 26538 11118 29034 22111 29020 33106 27530
44100 28529
31313 48008 81054
41414 863//
51515 11895 35006 22800 22520 33600 26023=
TTBB 61128 16113
00977 08034 11829 00700 22817 01445 33810 05458 44806
05462 55792 04664 66747 00462 77649 06359 88631 07557
99540 17713 11532 18303 22456 25500 33425 28911 44338
42750 55314 46742 66310 47130 77300 48550 88234 60956
99221 62746 11214 62161 22203 62563 33196 64360 44173
58169 55148 55170 66136 56971 77122 53172 88100 55773
21212 00977 00000 11836 00000 22823 22510 33815 23516
44788 24512 55728 27515 66686 26530 77608 24517 88514
22522 99486 24531 11351 23541 22302 25047 33273 24556
44203 26044 55182 24539 66166 24550 77157 26039 88153
24531 99149 24031 11143 25037 22139 26031 33135 25028
44131 26531 55126 25035 66113 29027 77110 28020 88100
27035
31313 48108 81059
41414 /////
51515 11864 34002 22800 24014 33600 24518=
16144 NIL=
16245 NIL=
TTBB 61118 16320
00023 15649 11021 14243 22882 05014 33856 06861 44806
05673 55792 04865 66769 04068 77698 00981 88647 05569
99600 07970 11554 13162 22472 21767 33455 23765 44436
26328 55388 32517 66384 31558 77346 37347 88238 583//
99213 637// 11202 655// 22151 579// 33132 629// 44126
631// 55117 573// 66108 611// 77100 603//
21212 00023 31004 11020 35001 22938 17010 33906 15511
44652 29510 55535 27523 66364 29029 77304 27043 88210
25551 99190 27048 11182 26046 22163 27064 33138 29044
44132 27543 55127 26051 66121 26565 77116 28557 88108
28541 99100 29045
31313 48008 81050
41414 35500
51515 11907 15511 22800 24006 33600 28520=
TTBB 61118 16429
00021 18241 11974 13438 22892 08658 33879 11076 44843
10482 55805 08485 66745 05278 77685 00765 88608 07567
99573 08972 11538 12570 22505 16757 33489 18959 44482
19565 55479 19759 66473 20562 77470 20756 88454 22934
99448 23558 11396 30356 22393 30529 33387 31143 44316
42958 55254 55756 66238 58956 77226 60757 88184 62765
99145 57379 11107 61778 22100 58980
21212 00021 15018 11914 19031 22877 19522 33864 21524
44847 21018 55811 23017 66783 21009 77729 23512 88694
21511 99676 24511 11662 24007 22634 24010 33604 27510
44570 27522 55492 26516 66470 25015 77432 28016 88380
26029 99336 26522 11239 24040 22228 24536 33204 26071
44192 26549 55186 25039 66183 24041 77176 25060 88164
26050 99162 25048 11156 24054 22149 24570 33143 25567
44136 25072 55122 26040 66118 25044 77109 25560 88100
27544
31313 48008 81100
41414 20931
51515 11906 19029 22800 22013 33600 27513=
TTBB 61118 16546
00017 15433 11955 10629 22906 10258 33870 10667 44814
09282 55780 06465 66745 03663 77706 00880 88696 00162
99679 00775 11668 01765 22622 05572 33610 06566 44587
09359 55569 11565 66548 13963 77541 14757 88513 18158
99505 18127 11484 20719 22425 27133 33343 40130 44312
44950 55274 52333 66253 56946 77214 63749 88192 59168
99147 57382 11100 58981
21212 00017 10002 11957 12010 22941 10511 33702 25511
44688 24515 55669 26013 66656 24018 77608 22518 88575
23515 99530 22018 11515 23523 22463 21525 33432 22024
44415 24026 55355 23032 66317 24034 77235 21540 88203
24549 99187 23534 11183 23037 22167 23537 33134 25558
44130 26048 55126 25536 66123 24040 77119 25045 88114
26034 99100 26526
31313 48008 81110
41414 35510
51515 11903 16006 22800 21005 33600 22515=
0000188800
815
USIY01 LIIB 111200
TTAA 61111 16044
99011 09233 00000 00188 08023 08501 92829 05437 22003
85514 00209 24513 70070 03360 25014 50564 21548 27544
40725 32558 27553 30920 49948 26057 25037 57357 26573
20176 62564 26061 15356 57980 26041 10614 57982 27526
88211 62761 27065
77246 26573 41809
31313 48006 81100=
TTAA 61111 16080
99010 09221 00000 00190 08616 02001 92831 05407 30505
85519 01602 27010 70069 03958 23515 50565 21929 26038
40725 33131 26043 30920 50150 25054 25038 57757 26065
20176 63165 24553 15357 57177 25537 10615 55779 28529
88227 62357 25564
77249 26065 41107
31313 48008 81054=
TTAA 61121 16113
99977 08034 00000 00192 ///// ///// 92834 05633 27501
85520 00402 35502 70082 02761 27525 50566 20704 23527
40727 32329 24039 30923 48550 25048 25041 57550 24554
20179 63163 25542 15359 55771 24031 10617 55773 27035
88196 64360 25048
77999
31313 48108 81059=
16144 NIL=
16245 NIL=
TTAA 61111 16320
99023 15649 31004 00192 12224 01504 92841 07815 16010
85535 06861 23003 70110 00980 28506 50571 18566 28025
40733 31117 28534 30932 449// 27043 25051 555// 26043
20190 643// 25548 15368 581// 28052 10620 603// 29045
88202 655// 25547 88132 629// 27543
77121 26565 42729 77163 27064 41526
31313 48008 81050=
TTAA 61111 16429
99021 18241 15018 00177 15842 16019 92833 10458 18028
85535 10682 21019 70124 00666 22012 50574 17360 26516
40737 29750 26525 30935 45758 25036 25054 56556 24036
20193 61362 26565 15372 58378 24068 10626 58980 27544
88226 60757 24537
77136 25072 42325 77204 26071 43719 77109 25560 413//
31313 48008 81100=
TTAA 61111 16546
99017 15433 10002 00168 13645 14005 92820 10657 12509
85524 10475 26003 70111 00264 25511 50572 18729 23024
40734 30735 23530 30931 47350 23536 25049 57348 22039
20188 61960 25046 15368 57781 24548 10623 58981 26526
88214 63749 23039
77999
31313 48008 81110=
0000010000
816
SITA20 UTDD 110900 RRF
AAXX 11091
38718 42999 20000 11030 21106 48550 57020 80004=
0000310200
817
SMRA15 RUNW 111200
AAXX 11121
23074 NIL=
23078 11896 81606 11258 21305 30098 40188 51005 69902 77073 86078 333
11203 91114=
23274 12997 71602 11335 21359 30185 40226 52011 69902 80005 333
11270=
23383 12998 80000 11426 21456 39897 40313 52004 60002 80007 333
11406=
23472 12998 20601 11374 21415 30190 40246 52010 69902 80001 333
11162=
23578 119// 63302 11271 21301 30195 40238 52016 69962 70272 80008 333
11142=
23589 119// 71101 11287 21312 30126 4//// 52006 69932 77172 80006 333
11264=
23678 129// 31102 11153 21173 30176 40237 52012 69922 83010 333
11133=
23788 11997 81801 11205 21231 30183 40267 52012 60022 77172 80002 333
11177=
23884 119// 80000 11183 21195 30180 40260 52008 69902 70272 80006 333
11146=
23891 11696 70000 11261 21293 39964 54000 69942 70272 82530 333
11260=
24507 119// 81002 11355 21384 30047 40327 58006 69982 77172 8807/ 333
11355=
24817 119// 80000 11394 21423 39967 40385 57013 60002 74022 83041 333
11394=
24908 11998 80000 11301 21339 39972 40343 57005 69962 77172 83037 333
11301=
29068 118// 81402 11087 21098 30178 40266 53007 60022 77187 8807/ 333
11086=
29263 115// 82204 11064 21072 30180 40283 51009 60022 78582 8695/ 333
11064=
29274 11962 82203 11063 21079 30172 40289 52008 60022 77072 80009 333
11061=
29282 11961 80000 11209 21234 30135 40320 52002 60012 77072 80007 333
11209=
29363 13/// /2303 11073 21080 30062 40298 52008 60002 333 11067=
29379 11897 82303 11074 21093 30094 40313 51007 69952 78582 8802/ 333
11066=
29456 63/// /2203 11069 21111 30054 40321 52010 60002 333 11058=
29464 119// 82204 11068 21101 30020 40321 52011 69932 73673 8802/ 333
11061=
29477 12898 82403 11054 21091 30105 40318 52007 69932 8807/ 333
11049=
29563 11899 82503 11077 21099 39711 40324 52010 69952 70272 8801/ 333
11060=
29570 11596 82501 11046 21104 39962 40317 52007 69932 78582 889// 333
11037=
29576 12597 82402 11059 21099 39839 40320 51008 69942 82935 333
11053=
29662 12999 82502 11042 21101 39915 40328 5//// 69902 8802/ 333
11038=
29698 119// 80000 11140 21157 39812 40356 51001 69952 77172 86072 333
11133=
29892 129// 81801 11168 21202 39455 40378 53015 60002 85032 333
11161=
30028 12997 70000 11365 21394 39888 40402 57011 60002 87050 333
11365=
30142 129// 00000 11457 21492 30111 40462 57008 60002 333 11445=
30157 11998 00000 11409 21444 30163 40503 58004 60002 333 1////=
30230 116// 80000 11392 21418 30048 40434 57012 69922 77174 82531 333
11392=
30252 11/// 90000 11415 21438 30153 40529 58003 60002 74942 333
11413=
30309 11997 80000 11169 21182 39787 40343 54000 69932 77172 85037 333
11161=
30328 119// 80000 11276 21307 39947 40426 57002 69962 77172 86027 333
11276=
30439 125// 80000 11224 21264 39792 40428 54000 60002 82507 333
11171=
30521 115// 80000 11263 21281 39839 40422 58001 69952 78582 84931 333
11240=
30710 11996 63201 11163 21174 39760 40384 52005 69902 71022 80002 333
11101=
30815 12999 32701 11178 21197 38602 48533 52004 60002 80001 333
11104=
36103 NIL=
0000317800
818
SMRA16 RUNW 111200
AAXX 11121
23699 NIL=
23973 NIL=
23975 119// 00000 11168 21181 3//// 4//// 5//// 69972 70182 333
11095=
23982 NIL=
23986 11997 82402 11129 21149 39603 40265 52006 60042 77172 85017 333
11129=
23987 11999 81201 11124 21137 30187 40264 52011 60012 70272 85037 333
11107=
23992 118// 81701 11240 21265 30061 40309 57004 69962 77172 8802/ 333
11240=
24606 118// 80000 11364 21394 30045 40354 58001 69982 77172 86037 333
11364=
24802 NIL=
24807 NIL=
29253 118// 82001 11059 21078 30105 40281 5//// 60012 77172 8802/ 333
11059=
29276 NIL=
29367 13/// /2102 11067 21095 30080 40316 52012 60002 333 11061=
29374 119// 82102 11063 21082 30174 40298 52006 69992 77187 86057 333
11055=
29467 11598 72404 11061 21105 39993 40326 52011 69902 70272 875// 333
11055=
29471 11596 72001 11054 21072 30077 40311 52006 69952 78582 86930 333
11048=
29481 11599 72501 11067 21094 30066 40311 51006 69952 70272 87300 333
11058=
29485 12/// /2302 11070 21087 30001 40323 51005 60002 333 11069=
29553 11598 82305 11071 21114 39949 40328 52010 69922 73683 8592/ 333
11064=
29561 118// 82401 11070 21101 39996 40329 52010 69902 77172 8802/ 333
11058=
29562 11584 82402 11071 21101 39899 40328 52010 69922 70282 8492/ 333
11054=
29566 11698 72202 11050 21099 39970 40321 52009 69932 70282 87500 333
11042=
29571 12872 72502 11041 21091 30012 40314 52005 69902 87040 333
11037=
29581 119// 80000 11069 21088 30058 40322 50005 60022 70272 8801/ 333
11069=
29594 11599 82402 11076 21090 39928 40326 52005 60022 70287 83936 333
11070=
29653 12997 82001 11054 21100 39832 40328 52008 60002 8802/ 333
11036=
29674 129// 00000 11073 21107 39755 40340 5//// 60002 333 11049=
29676 12698 52702 11031 21103 39887 40318 52005 69902 85800 333
11031=
29752 114// 72505 11124 21137 38865 48511 52009 60012 78583 83930 333
11120 91113=
29759 115// 72102 11096 21137 39288 40354 52009 69922 78581 86930 333
11071=
29766 12899 61301 11063 21090 39983 40349 52005 60002 86050 333
11042=
29789 12599 80000 11160 21186 39118 40375 52007 60002 82901 333
11060=
29864 13/// /3403 11061 21136 39674 40340 51006 60002 333 11035=
29866 126// 60000 11079 21093 30011 40344 53005 60002 83530 333
11003=
29869 125// 80000 11046 21094 39972 40354 53003 60002 8595/ 333
11008=
29956 11973 80000 11059 21078 39784 40360 52005 69902 77172 8807/ 333
11046=
30337 11597 80000 11321 21350 39927 40439 57005 69932 78582 84907 333
11321=
30405 119// 80000 11150 21163 39795 40357 52006 69932 77172 80005 333
11146=
30504 11597 71701 11149 21169 39679 40367 52006 69932 78582 84330 333
11136=
30603 11996 80000 11162 21168 39761 40370 52004 60002 71022 80005 333
11131=
30612 115// 80000 11191 21210 39809 40385 54000 69902 70272 82537 333
11191=
30622 119// 80000 11260 21284 39712 40429 54000 69902 77172 83037 333
11242=
30627 11998 80201 11187 21206 39394 40395 57003 69902 77172 80006 333
11187=
30703 129// 80000 11205 21238 39662 40393 52008 60002 81077 333
11132=
36307 12897 70801 11270 21309 39100 48587 54000 60002 87030 333 11260
95090=
0000012400
819
SMRA16 RUNW 111200 RRA
AAXX 11121
23699 128// 80000 11308 21339 3//// 4//// 5//// 60002 8807/ 333
11292=
0000012400
820
SMRA11 RUNW 111200 RRN
AAXX 11121
29664 12998 72003 10049 21102 39910 40327 52010 60002 87030 333
11045=
0000013000
821
SMRA16 RUNW 111200 RRB
AAXX 11121
24802 118// 81801 11290 21314 39831 40335 57005 69962 77172 8802/ 333
11288=
0000013000
822
SMRA16 RUNW 111200 RRC
AAXX 11121
23982 119// 80000 11196 21222 30115 40282 53008 60012 77172 80007 333
11184=
0000013000
823
SMRA16 RUNW 111200 RRD
AAXX 11121
24807 119// 81501 11278 21310 39859 40324 57004 69952 77172 8807/ 333
11278=
0000013000
824
SMRA11 RUNW 111200 RRO
AAXX 11121
29772 115// 70000 11077 21087 39740 40356 52002 60022 77172 8652/ 333
11062=
0000013600
825
SMRA11 RUNW 111200 RRP
AAXX 11121
36092 11898 60000 11200 21226 39342 40382 53003 60012 70272 86070 333
11186 95090=
0000013600
826
SMRA11 RUNW 111200 RRQ
AAXX 11121
29876 119// 70000 11078 21105 39793 40369 53004 69962 70282 87002 333
11073 95990=
0000013000
827
SMRA11 RUNW 111200 RRR
AAXX 11121
36078 12697 60000 11198 21231 39186 40472 54000 60002 82581 333 11174
95090=
0000013600
828
SMRA11 RUNW 111200 RRS
AAXX 11121
29578 11684 72303 11046 21112 39806 40313 52007 69932 70283 87500 333
11044 87634=
00000000