0000009300
116
SAEQ01 SEQU 101600 RRA
METAR SEMT 101600Z 21007KT 9999 OVC020 28/22 Q1011=

0000167200
117
SAUS71 KWBC 101600 RRB
METAR
KGON 101556Z 33003KT 4SM BR BKN023 OVC031 01/M01 A3047=
KGSO 101554Z 01004KT 2SM RA BR BKN004 OVC011 02/01 A3034=
KGSP 101553Z 03007KT 1 1/4SM BR BKN004 OVC014 06/05 A3030=
KHFD 101553Z 00000KT 4SM BR BKN016 OVC026 M02/M04 A3048=
KHKY 101553Z 00000KT 1 1/4SM -RA BR BKN001 OVC007 04/03 A3032=
KHPN 101556Z VRB03KT 1SM R16/5000VP6000FT -SN BR FEW006 OVC014
     M02/M03 A3044=
KHTS 101551Z 00000KT 5SM BR BKN023 OVC028 05/04 A3027=
KHVN 101553Z 01003KT 1 3/4SM -SN BR OVC024 M01/M03 A3047=
KHYA 101556Z 18004KT 10SM SCT018 OVC060 02/00 A3048=
KIAD 101552Z VRB04KT 1 3/4SM BR OVC005 01/00 A3042=
KIAG 101553Z 16005KT 3SM BR OVC012 00/M02 A3024=
KILG 101551Z 04004KT 2SM -RA BR FEW004 BKN036 OVC055 01/00
     A3046=
KILM 101553Z AUTO 13008KT 10SM SCT095 OVC110 21/12 A3033=
KINT 101554Z 04007KT 2SM -RA BR BKN003 OVC009 02/01 A3035=
KIPT 101554Z 08008KT 6SM HZ FEW021 BKN050 OVC060 M01/M04 A3040=
KISP 101556Z 00000KT 4SM -RA OVC025 01/M02 A3045=
KJFK 101551Z 00000KT 6SM -RA BR BKN021 OVC035 01/M02 A3048=
KJST 101554Z AUTO 20006KT 1 1/4SM BR OVC003 01/00 A3026=
KLBE NIL=
KLCK 101555Z AUTO 17006KT 7SM OVC005 04/02 A3023=
KLEB 101553Z 00000KT 8SM BKN065 OVC080 M09/M13 A3042=
KLGA 101551Z 03004KT 4SM -FZRA BR FEW019 BKN024 OVC055 M01/M03
     A3048=
KLUK 101553Z AUTO=
KLWM 101554Z 22005KT 9SM BKN010 OVC050 M03/M06 A3049=
KLYH 101554Z 05004KT 1 3/4SM R04/4500VP6000FT -RA BR FEW003 BKN013
     OVC022 01/01 A3039=
KMDT 101556Z 00000KT 2SM BR OVC007 M01/M03 A3043=
KMFD 101552Z 17009KT 1/4SM FG VV002 02/02 A3020=
KMGW 101553Z 00000KT 10SM OVC011 07/05 A3029=

0000170300
118
SAUS71 KWBC 101600 RRC
METAR
KMHT 101553Z 21005KT 6SM BR BKN044 OVC080 M05/M07 A3045=
KMIV 101554Z AUTO 07003KT 2 1/2SM -RA BR OVC060 01/01 A3045=
KMMU NIL=
KMRB 101553Z 00000KT 2 1/2SM BR OVC005 02/M01 A3040=
KMSS 101553Z AUTO 00000KT 2 1/2SM -SN BKN037 OVC045 M07/M09
     A3033=
KMTN NIL=
KMYR NIL=
KNKT 101554Z 13009KT 10SM FEW034 BKN100 19/11 A3037=
KOQU 101552Z 02003KT 6SM BR FEW020 OVC035 M02/M03 A3049=
KORF 101551Z AUTO 15007KT 10SM BKN060 OVC095 16/09 A3037=
KORH 101554Z 22010KT 10SM OVC006 M02/M03 A3041=
KPHF 101554Z 01005KT 10SM BKN038 OVC050 07/03 A3041=
KPHL 101554Z 08003KT 2SM -FZRA BR SCT015 BKN040 OVC070 01/M02
     A3046=
KPIT 101551Z 18004KT 5SM BR BKN006 OVC020 03/02 A3027=
KPKB 101553Z COR 13005KT 10SM BKN010 OVC026 06/04 A3031=
KPKB 101553Z 13005KT 10SM OVC010 06/04 A3031=
KPLB NIL=
KPOU 101553Z 00000KT 2 1/2SM -SN OVC020 M02/M05 A3047=
KPQI 101555Z AUTO 15004KT 10SM CLR M14/M17 A3033=
KPSM 101558Z 25003KT 1 1/2SM -SN BR BKN020 OVC035 M05/M06
     A3046=
KPVD 101551Z 00000KT 4SM BR BKN003 OVC025 M02/M04 A3049=
KPWM 101551Z 24005KT 3SM -SN OVC033 M04/M07 A3045=
KRDG 101554Z 34005KT 3/4SM BR OVC006 M01/M03 A3044=
KRDU 101551Z 02006KT 2SM -RA BR FEW030 BKN055 OVC080 05/02
     A3036=
KRIC 101554Z 04005KT 1 3/4SM -RA BR SCT004 BKN029 OVC050 02/01
     A3042=
KROA 101554Z 00000KT 2 1/2SM -RA BR FEW004 BKN024 OVC029 02/01
     A3039=
KROC 101554Z 21006KT 10SM SCT028 BKN040 OVC080 02/M03 A3027=
KRWI 101553Z AUTO 34005KT 10SM OVC048 07/03 A3037=
KSAV 101553Z 16005KT 6SM BR SCT003 BKN006 BKN020 BKN130 18/17
     A3025=
KSBY 101554Z 02004KT 1 1/4SM -RA BR OVC003 04/02 A3044=

0000060400
119
SAUS71 KWBC 101600 RRD
METAR
KSCH NIL=
KSLK 101551Z AUTO 23008KT 3SM -SN BR SCT042 BKN049 OVC065 M05/M07
     A3024=
KSWF NIL=
KSYR 101554Z 08003KT 4SM -SN BR SCT027 OVC033 M01/M03 A3032=
KTEB 101551Z 35003KT 3SM -FZRAPL FEW008 BKN020 OVC025 M01/M03
     A3047=
KTOL 101552Z 19007KT 9SM OVC007 02/00 A3017=
KTTN 101553Z 05005KT 2 1/2SM BR BKN004 OVC055 00/M01 A3045=
KUCA NIL=
KWRI 101558Z AUTO 00000KT 2 1/2SM -RA BR SCT010 OVC039 00/00
     A3044=
KYNG 101551Z 17008KT 5SM BR BKN006 OVC014 02/01 A3024=
KZZV 101553Z AUTO 14005KT 3SM BR OVC003 03/02 A3025=

0000167200
120
SAUS72 KWBC 101600
METAR
KABI 101552Z 20021G26KT 9SM CLR 14/11 A2984=
KABQ 101552Z 01007KT 10SM FEW060 04/M09 A3002=
KABY 101553Z 05004KT 3/4SM -RA BR OVC004 11/11 A3023=
KACT 101551Z 20012KT 10SM SCT011 BKN070 OVC090 17/16 A2990=
KAEX 101553Z 12008KT 1/2SM FG VV002 12/12 A3005=
KAFW 101553Z 20009KT 7SM FEW045 BKN080 OVC090 16/14 A2985=
KAHN 101551Z 06006KT 1 3/4SM -RA BR OVC005 06/05 A3028=
KALI 101553Z AUTO 17008KT 10SM BKN017 BKN021 OVC041 20/18
     A2993=
KAMA 101553Z 27011KT 10SM CLR 08/M09 A2976=
KANB 101553Z AUTO 05007KT 2SM BR OVC004 07/06 A3024=
KAPF 101553Z 15006KT 10SM CLR 24/22 A3015=
KATL 101552Z 09008KT 1/2SM -DZ BR OVC004 07/06 A3025=
KAUS 101553Z 19011KT 4SM R17L/4500VP6000FT -RA BR BKN008 OVC013
     18/17 A2994=
KBFM 101553Z 01003KT 5SM BR BKN006 OVC019 12/11 A3018=
KBHM 101553Z 08003KT 2 1/2SM BR OVC005 07/06 A3022=
KBNA 101553Z 17011KT 10SM OVC008 10/07 A3017=
KBPT 101553Z 12009KT 4SM BR OVC002 14/14 A3003=
KBQK 101555Z AUTO 12005KT 10SM BKN005 OVC011 20/20 A3023=
KBRO 101553Z 17015G21KT 10SM SCT008 BKN017 OVC024 21/19 A2995=
KBTR 101553Z 10009KT 1 1/4SM BR OVC002 13/12 A3012=
KCEW 101553Z AUTO 05004KT 1SM BR OVC002 12/12 A3020=
KCHA 101553Z 00000KT 3SM BR SCT006 OVC012 07/06 A3027=
KCLL 101553Z 16012KT 10SM OVC006 17/16 A2995=
KCNM 101553Z AUTO 30012KT 10SM CLR 14/M06 A2992=
KCRP 101551Z 15009KT 1 3/4SM -DZ BR FEW004 BKN013 OVC026 19/18
     A2995=
KCSG 101551Z 09007KT 3SM BR OVC005 08/07 A3023=
KCSV 101553Z AUTO 19005KT 10SM OVC006 09/07 A3022=
KDAB 101553Z 11008KT 10SM OVC008 21/18 A3021=
KDAL 101553Z 21006KT 8SM BKN010 OVC016 18/16 A2986=

0000168900
121
SAUS72 KWBC 101600 RRA
METAR
KDFW 101553Z 19011KT 8SM -RA FEW011 BKN070 OVC090 17/16 A2985=
KDHN 101553Z 07005KT 1/2SM FG OVC002 11/11 A3022=
KDLF 101558Z AUTO 31005KT 10SM OVC011 12/11 A2996=
KDMN 101553Z AUTO 25006KT 10SM CLR 06/M09 A3008=
KELP 101551Z 28015KT 10SM CLR 12/M08 A3004=
KESF 101553Z AUTO 14007KT 3SM BR OVC002 13/12 A3006=
KEYW 101553Z 10009KT 10SM FEW021 26/23 A3013=
KFLL 101553Z 13016G22KT 10SM SCT019 BKN029 BKN037 25/22 A3014=
KFSM 101553Z 07007KT 2SM BR OVC002 06/04 A2985=
KFTW 101553Z 22008KT 7SM FEW038 SCT060 OVC085 17/16 A2985=
KFTY 101553Z 06005KT 2SM BR OVC004 07/06 A3026=
KGGG 101553Z 17017G24KT 10SM FEW013 SCT075 BKN110 16/13 A2991=
KGLS 101552Z 12007KT 10SM BKN039 OVC045 17/16 A3001=
KGNV 101553Z 14005KT 10SM BKN004 OVC009 21/20 A3020=
KGPT 101553Z 08005KT 7SM OVC004 14/11 A3015=
KGUP 101553Z AUTO 00000KT 10SM CLR M02/M10 A3007=
KGWO 101553Z AUTO 15009KT 10SM CLR 11/07 A3011=
KHOT 101553Z AUTO 07003KT 1/2SM FG OVC002 10/09 A2996=
KHOU 101553Z 09004KT 10SM BKN040 BKN250 18/15 A3000=
KHRL 101552Z 17021G28KT 10SM BKN013 BKN020 OVC035 22/19 A2991=
KHRO 101553Z AUTO 15013G19KT 7SM -RA OVC003 09/08 A2984=
KHSV 101553Z 13008KT 8SM OVC010 08/06 A3019=
KIAH 101553Z 16010KT 10SM FEW006 SCT030 BKN250 19/16 A3000=
KINK 101553Z AUTO 25015KT 10SM -RA CLR 14/02 A2990=
KJAN 101554Z 13007KT 1/2SM BR OVC003 08/07 A3014=
KJAX 101556Z 13006KT 10SM BKN009 OVC015 22/20 A3021=
KJBR 101553Z AUTO 17007KT 8SM -RA BKN004 OVC065 06/05 A3002=
KLBB 101553Z 26015G20KT 10SM FEW250 10/M06 A2981=
KLCH 101553Z 14010KT 2 1/2SM BR OVC003 14/14 A3005=
KLFT 101553Z 12004KT 8SM OVC002 14/13 A3009=

0000168500
122
SAUS72 KWBC 101600 RRB
METAR
KLIT 101553Z 12007KT 5SM BR SCT007 BKN012 OVC025 08/06 A2999=
KLRD 101556Z 21007KT 10SM OVC006 17/15 A2998=
KLRU 101555Z AUTO 27015G19KT 10SM CLR 07/M10 A3005=
KMAF 101553Z 22008KT 8SM CLR 09/05 A2990=
KMCN 101553Z 34004KT 1 1/2SM -RA BR BKN004 OVC009 08/07 A3026=
KMCO 101553Z 15008KT 10SM FEW008 SCT040 SCT200 25/19 A3018=
KMEI 101558Z 14005KT 7SM OVC004 09/09 A3017=
KMEM 101554Z 14009KT 10SM FEW007 SCT100 OVC180 09/07 A3007=
KMFE 101553Z 17013G20KT 10SM CLR 22/17 A2993=
KMGM 101553Z 08007KT 1SM BR OVC004 09/08 A3022=
KMIA 101553Z 12012G18KT 10SM SCT017 BKN220 26/22 A3015=
KMKL 101553Z 15006KT 10SM OVC008 09/07 A3009=
KMLB 101553Z 13005KT 10SM BKN008 BKN027 OVC035 23/22 A3018=
KMLC 101553Z AUTO 18009G16KT 9SM -RA SCT007 OVC080 12/11 A2980=
KMLU 101553Z 16008KT 4SM BR OVC004 10/09 A3007=
KMOB 101556Z 11004KT 3SM BR OVC005 12/11 A3017=
KMSL 101553Z AUTO 15006KT 5SM HZ OVC004 10/07 A3018=
KMSY 101553Z 10006KT 5SM BR OVC006 14/12 A3013=
KNEW 101553Z 11008KT 1/2SM FG VV002 12/11 A3014=
KNGP 101556Z 18009KT 1SM -RA BR SCT004 BKN006 OVC026 18/18
     A2995=
KOKC 101552Z 20015G22KT 6SM BR OVC006 11/09 A2973=
KPBI 101553Z 14008KT 10SM BKN019TCU BKN031 BKN040 26/21 A3015=
KPDK 101553Z 07005KT 2SM BR OVC004 06/05 A3026=
KPFN NIL=
KPIE 101553Z 15008KT 10SM CLR 24/20 A3016=
KPNS 101553Z 05004KT 6SM FG OVC002 13/12 A3016=
KROW 101551Z 24004KT 10SM CLR 08/M06 A2989=
KRSW 101553Z 11005KT 10SM CLR 23/21 A3015=
KSAT 101551Z 18006KT 7SM -RA BKN007 BKN015 OVC022 19/17 A2996=
KSFB 101553Z 15005KT 10SM BKN008 23/21 A3019=
KSHV 101556Z 17010G18KT 7SM OVC004 15/14 A2997=

0000029500
123
SATH33 VTBB 101600
METAR VTBO 101600Z NIL=
METAR VTUD 101600Z NIL=
METAR VTUI 101600Z NIL=
METAR VTUK 101600Z NIL=
METAR VTUL 101600Z NIL=
METAR VTUO 101600Z NIL=
METAR VTUQ 101600Z NIL=
METAR VTUU 101600Z NIL=
METAR VTUV 101600Z NIL=
METAR VTUW 101600Z NIL=

0000139900
124
SAUS72 KWBC 101600 RRC
METAR
KSJT 101551Z 21011KT 7SM SCT011 BKN110 13/11 A2990=
KSRQ 101553Z 14007KT 10SM CLR 23/19 A3015=
KSSI 101553Z AUTO 12009KT 10SM BKN014 BKN025 OVC037 19/18
     A3022=
KTCC 101553Z AUTO 26018KT 10SM CLR 08/M09 A2977=
KTCL 101553Z 14008KT 10SM OVC006 10/08 A3020=
KTCS 101553Z AUTO 29016KT 10SM CLR 07/M11 A3003=
KTLH 101553Z 09003KT 3/4SM BR OVC002 18/16 A3018=
KTPA 101553Z 16006KT 10SM FEW040 SCT120 23/19 A3017=
KTRI 101553Z 08003KT 2SM BR SCT003 BKN034 OVC049 07/06 A3028=
KTUL 101553Z 17011KT 10SM BKN006 BKN014 OVC021 08/07 A2974=
KTUP 101553Z 20010KT 7SM OVC003 09/ A3016=
KTXK 101553Z 17012G21KT 2 1/2SM BR OVC003 13/12 A2992=
KTYR 101553Z 18013KT 10SM OVC011 16/13 A2992=
KTYS 101553Z 04005KT 9SM FEW005 OVC026 07/05 A3026=
KVCT 101551Z 15010KT 6SM BR FEW015 BKN030 OVC050 20/18 A2996=
KVLD 101553Z 15008KT 3SM BR OVC004 21/18 A3019=
KVRB 101553Z 00000KT 10SM BKN023 BKN030 OVC044 23/21 A3019=
TIST 101553Z 07012G20KT 10SM FEW029 SCT036 BKN065 27/23 A3009=
TISX 101553Z 08016G24KT 10SM SCT032 29/19 A3008=
TJBQ 101550Z 09019G26KT 10SM SCT020 SCT100 30/ A3011=
TJMZ 101550Z 08009KT 10SM SCT040 28/18 A3007=
TJPS 101550Z 09010KT 10SM FEW030 32/19 A3007=
TJSJ 101556Z 07020G24KT 10SM -RA FEW030 SCT038 BKN060 28/22
     A3010=
TKPK 101600Z 06013KT 9999 SCT018 SCT045 27/21 Q1018 RESH=
TNCM NIL=

0000050400
125
SAMS31 WMKK 101600
METAR WBGG 101600Z 23003KT 9999 SCT020 BKN150 23/23 Q1012 NOSIG=
METAR WBKK 101600Z 11004KT 9999 FEW014 SCT140 BKN270 25/23 Q1011
NOSIG=
METAR WBSB 101600Z 23001KT 9999 FEW015 BKN300 25/24 Q1012 NOSIG=
METAR WMKK 101600Z 32003KT 9999 FEW030 SCT140 BKN280 25/24 Q1012
NOSIG=
METAR WMKP 101600Z 01001KT 8000 -RA FEW010 SCT024 OVC260 25/24 Q1013
NOSIG=
METAR WSSL 101600Z NIL=
METAR WSSS 101600Z 01005KT 310V060 9999 FEW018 BKN300 25/23 Q1012
NOSIG=

0000019600
126
FCGL31 BGSF 101600 RRA
TAF BGGH 101600Z 1016/1101 16016KT 8000 -SN SCT020 BKN040 TEMPO 
1016/1019 16018G28KT 0800 SHSN BLSN DRSN VV006 TEMPO 1020/1101 0800 
SHSN DRSN VV006=

0000011900
127
FCGL31 BGSF 101600 RRB
TAF BGJN 101600Z 1016/1021 10020KT 9999 SCT150 TEMPO 1016/1021 
12022G32KT=

0000047000
128
SAMS32 WMKK 101600
METAR WBGG 101600Z 23003KT 9999 SCT020 BKN150 23/23 Q1012 NOSIG=
METAR WBKK 101600Z 11004KT 9999 FEW014 SCT140 BKN270 25/23 Q1011
NOSIG=
METAR WMKJ 101600Z 36003KT 9999 FEW023 SCT140 BKN300 24/23 Q1012=
METAR WMKK 101600Z 32003KT 9999 FEW030 SCT140 BKN280 25/24 Q1012
NOSIG=
METAR WMKP 101600Z 01001KT 8000 -RA FEW010 SCT024 OVC260 25/24 Q1013
NOSIG=
METAR WMSA 101600Z 28004KT 8000 FEW025 SCT140 BKN280 25/23 Q1012=

0000077900
129
SAMS33 WMKK 101600
METAR WMAU 101600Z 31006KT 9999 FEW000 SCT140 BKN270 24/23 Q////
QFF1012=
METAR WMBA 101600Z 04002KT 8000 FEW008 SCT030 BKN260 24/23 Q1012=
METAR WMKA 101600Z 02002KT 9999 FEW030 BKN280 25/22 Q1013=
METAR WMKB 101600Z 15001KT 7000 -RA FEW005 SCT140 BKN260 25/24 Q1012
NOSIG=
METAR WMKC 101600Z 06014KT 9999 FEW008 SCT020 OVC200 26/23 Q1013=
METAR WMKD 101600Z 03003KT 9999 FEW012 SCT160 BKN260 23/22 Q1013
NOSIG=
METAR WMKE 101600Z NIL=
METAR WMKI 101600Z 03007KT 9000 -RA FEW005 SCT020 BKN260 24/23 Q1013=
METAR WMKL 101600Z 04007KT 320V120 9999 FEW026 SCT140 BKN280 27/21
Q1013=
METAR WMKM 101600Z 03003KT 9999 FEW030 SCT140 BKN280 24/23 Q1013=
METAR WMKN 101600Z 06013KT 010V110 9999 SCT022 OVC190 26/24 Q1013=

0000054400
130
SAMS34 WMKK 101600
METAR WBGB 101600Z 13002KT 9999 SCT016 BKN150 25/24 Q1012=
METAR WBGR 101600Z 10002KT 9999 SCT014 SCT150 BKN300 25/24 Q1012=
METAR WBGS 101600Z 07004KT 9999 SCT018 BKN150 23/22 Q1012=
METAR WBGY 101600Z 22001KT 9999 SCT020 BKN150 23/23 Q1012=
METAR WBKL 101600Z 20001KT 9999 FEW010 BKN290 25/24 Q1011=
METAR WBKS 101600Z 08012KT 9999 FEW015 SCT045 BKN260 27/25 Q1011=
METAR WBKT 101600Z 11003KT 9999 SCT013 SCT033 BKN270 27/25 Q1012=
METAR WBKW 101600Z 33007KT 9999 FEW017 BKN140 25/22 Q1011=

0000033000
131
SASP35 LEMM 101600
METAR LEAB 101600Z 16010KT CAVOK 09/06 Q1015 NOSIG=
METAR LEBZ 101600Z 35002KT CAVOK 15/10 Q1013=
METAR LELC 101600Z 04010KT 010V070 9999 SCT014 BKN024 14/12 Q1016
NOSIG=
METAR LELN 101600Z 13003KT 090V160 9999 FEW045 11/03 Q1014=
METAR LETO 101600Z 35002KT CAVOK 14/05 Q1014 NOSIG=

0000019000
132
SACR32 LEMM 101600
METAR GCHI 101600Z 02013KT 350V060 9999 FEW030 21/14 Q1012=
METAR GCGM 101600Z 06014KT 010V090 9999 FEW065 20/10 Q1012 RMK
CAB09 05007G17KT 330V110=

0000013200
133
SACN62 CYCD 101600
METAR CYCD 101600Z 18002KT 20SM MIFG FEW015 SCT040 BKN090 03/03 A2995
 RMK SC2SC2AC3 SLP143=

0000013600
134
SACN62 CYAB 101600
METAR CYAB 101600Z 09008KT 15SM FEW040 SCT100 BKN160 M23/M28 A2899
 RMK SC1AC3AC1 PRESRR SLP819=

0000011500
135
SACN62 CYAM 101600
METAR CYAM 101600Z 11005KT 2 1/2SM BR OVC007 M05/M06 A3003 RMK SF8
 SLP181=

00000000