0000024200
369
SMME20 OEJD 111200
AAXX 11121
40007 NIL=
40022 32565 21601 10186 20086 40211 57015 82100 222// 20000 333
82830=
40080 32960 02802 10136 20020 39497 40221 57022 70040=
40100 NIL=
40270 NIL=
40272 NIL=
40340 NIL=
0000065500
370
SXSD20 OEJD 111200
40356 11079 MT08=
40357 10098 MT 9=
40360 19239 MT 14=
40361 17745 MT 11=
40362 19557 MT 11=
40373 19460 MT 15=
40375 18541 MT 15=
40377 10075 MT 15=
40394 18142 MT 11=
40400 17532 MT 24=
40401 15831 M.T17=
40405 19255 MT17=
40416 18970 MT 18=
40417 18557 MT 18=
40420 19545 MT 18 C=
40430 15518 MT 19=
40435 17340 MT18=
40437 19156 MT 17=
40439 16926 MT 25C=
41024 16923 MT 26=
41030 16837 MT 29=
41036 19549 MT 16=
41055 19986 MT 17=
41061 17244 MT 24=
41084 NIL=
41112 19878 MT 16=
41114 19068 MT 16=
41128 14823 MT 27=
41136 14727 MT 29C=
41140 17962 MT 31C=
0000053100
371
SMVB10 RJTD 111200
BBXX
JGQH    11124 99304 11370
41/98 33011 10127 20010 40276 51007 70222 83200
22242 00190 10603 20301 399// 4//02 70015=
JPBN    11124 99251 11292
41/97 70616 10186 20114 40262 52016 70282 872//
22271 00237 10603 20503 399// 4//02 70014=
JGQH    11124 99304 11370
41/98 33011 10127 20010 40276 51007 70222 83200
22242 00190 10603 20301 399// 4//02 70015=
JPBN    11124 99251 11292
41/97 70616 10186 20114 40262 52016 70282 872//
22271 00237 10603 20503 399// 4//02 70014=
0000122700
372
SMRA11 RUHB 111200
AAXX 11121
29998 12799 61701 11230 21256 38698 48545 53011 60002 86500 333
11201=
30385 12999 20000 11371 21389 39812 40455 58004 60002 80001 333
11324=
30636 129// 80000 11293 21324 39752 40440 52004 60002 82035 333
11257=
30650 12984 20000 11328 21351 39189 40461 54000 60002 80001 333
11251=
30664 12999 00000 11407 21427 39335 40505 52005 60002 333 11266=
30781 12999 00000 11370 21402 39880 40228 52026 60002 333 11326=
30777 12998 22003 11286 21332 39694 40427 51014 60002 80002 333
11257=
30822 11998 61202 11116 21151 39757 40368 53002 69902 70282 82032 333
11073=
30844 12999 00000 11252 21271 39355 40436 52008 60002 333 11145=
30925 129// 30901 11183 21233 39362 40407 54000 60002 80001 333
11127=
31371 11999 02902 11258 21332 30006 40298 52005 60002 70230 333
11239=
31388 12984 00000 11400 21422 39967 40274 58007 69902 333 11312=
31478 41999 80801 11377 21399 39016 40262 58006 77172 80007=
31532 41999 60000 11396 21423 39877 40277 52002 70271 80001=
31594 12997 03601 11345 21374 30079 40277 50000 60002 333 11273=
31624 NIL=
31655 42998 01904 11251 21307 30139 40191 58001=
31754 42999 00000 11282 21313 39673 40228 52003=
0000018300
373
SMOM66 OOMS 111200 RRE
AAXX 11124
41280 26/// /0510 10212 20066 30067 40208
333 0E013 59013 70000 =
41316 36/88 /1312 10248 20151 30135 40160
333 0E020 58000 =
0000138100
374
SMTR10 UTAA 111200
AAXX 11121
38388 42998 01402 10084 21005 30122 40193 56008 555 18004=
38392 42998 00904 10070 20004 30107 40210 57003 555 10009=
38507 42498 71405 10082 20011 30061 40163 57014 82501 555 10009=
38511 42998 21605 10112 21005 30026 40165 57020 80001 555 10012=
38545 42998 30000 10078 21017 30046 40222 58020 80003 555 10009=
38647 42998 70904 10081 21007 30118 40160 57009 80006 555 10011=
38656 42998 70902 10108 21060 30083 40191 57010 80002 555 10009=
38687 42997 72004 10111 21057 39978 40211 57004 80001 555 10009=
38750 42597 82902 10100 20084 30194 40166 57007 885// 555 10012=
38763 42998 70903 10090 20006 30066 40171 57010 85041 555 10008=
38774 42998 61101 10128 21047 39978 40170 57023 80008 555 10015=
38799 42997 60000 10120 21025 39977 40205 57005 80003 555 10011=
38806 42997 61604 10114 21050 39961 40219 57002 80002 555 10009=
38880 42997 61305 10129 21094 39927 40178 56010 82031 555 10012=
38886 42697 61004 10140 21078 39956 40180 57016 86560 555 10014=
38895 42996 61702 10138 21057 39918 40203 57012 84075 555 10015=
38911 41996 71608 10110 21038 39931 40223 57008 70522 85072 555
10009=
38915 42997 41107 10106 21094 39908 40230 56004 80001 555 11010=
38974 42998 81602 10144 21033 39870 40197 58041 86058 555 10013=
38987 42996 62201 10104 21041 39474 40211 57009 83072 555 11010=
0000014800
375
SMAG02 SABM 111200 RRB
AAXX 11124
87497 12965 81410 10218 20128 30136 40163 52029 60114 83076 333
10234 20190 56066 83360 85270=
0000036500
376
UDEU02 EGRR 111226
AMDAR 1112
ASC EU0227   5913N 00534E 111218 F120 MS180 289/021 TB/ S031=
ASC EU0227   5915N 00533E 111218 F120 MS180 286/021 TB/ S031=
ASC EU0227   5916N 00533E 111218 F120 MS180 286/021 TB/ S031=
ASC EU0227   5918N 00532E 111219 F120 MS180 286/022 TB/ S031=
ASC EU0227   5920N 00532E 111219 F120 MS180 286/022 TB/ S031=
0000042900
377
UDNT02 EGRR 111226
AMDAR 1111
LVR EU1321   6159N 03403W 111145 F360 MS575 203/043 TB/ S031=
LVR EU1321   6132N 03532W 111152 F360 MS580 205/036 TB/ S031=
LVR EU1321   6105N 03700W 111159 F360 MS587 200/033 TB/ S031=
LVR EU1321   6036N 03826W 111206 F360 MS587 210/022 TB/ S031=
LVR EU1321   6006N 03950W 111213 F360 MS582 212/026 TB/ S031=
LVR EU1321   5934N 04109W 111220 F360 MS567 219/021 TB/ S031=
0000056100
378
UDEU02 EGRR 111226 RRA
AMDAR 1112
UNS EU0324   5120N 00012W 111212 F060 MS030 298/030 TB/ S031=
DES EU0324   5120N 00010W 111212 F057 MS027 292/028 TB/ S031=
DES EU0324   5121N 00009W 111213 F053 MS025 288/028 TB/ S031=
DES EU0324   5121N 00007W 111213 F050 MS017 286/028 TB/ S031=
UNS EU0324   5123N 00004W 111213 F044 MS012 299/032 TB/ S031=
UNS EU0324   5124N 00004W 111214 F041 MS010 300/023 TB/ S031=
UNS EU0324   5127N 00005W 111215 F038 PS000 299/024 TB/ S031=
DES EU0324   5127N 00007W 111215 F035 PS002 305/024 TB/ S031=
0000068900
379
UDNT02 EGRR 111226 RRA
AMDAR 1110
LVR EU1334   5902N 04833W 111005 F349 MS555 264/035 TB0 S031=
LVR EU1334   5905N 04639W 111012 F349 MS552 253/024 TB0 S031=
LVR EU1334   5905N 04447W 111019 F349 MS582 238/029 TB0 S031=
LVR EU1334   5904N 04255W 111026 F349 MS570 238/035 TB0 S031=
LVR EU1334   5902N 04103W 111033 F350 MS577 233/029 TB0 S031=
LVR EU1334   5901N 03911W 111040 F350 MS577 229/027 TB0 S031=
LVR EU1334   5904N 03720W 111047 F349 MS582 216/028 TB0 S031=
LVR EU1334   5905N 03529W 111054 F350 MS595 222/032 TB0 S031=
LVR EU1334   5905N 03338W 111101 F350 MS595 222/037 TB0 S031=
LVR EU1334   5903N 03145W 111108 F349 MS600 218/043 TB0 S031=
0000036900
380
UDEU02 EGRR 111226 RRB
AMDAR 1112
ASC EU0227   5921N 00531E 111219 F120 MS180 288/020 TB/ S031=
ASC EU0227   5923N 00530E 111220 F120 MS180 283/019 TB/ S031=
ASC EU0227   5925N 00530E 111220 F120 MS180 290/018 TB/ S031=
ASC EU0227   5926N 00529E 111220 F120 MS180 283/017 TB/ S031=
ASC EU0227   5928N 00529E 111221 F120 MS180 285/017 TB/ S031=
0000087600
381
UKIL01 BIRK 111200 RRB
TTBB 61118 04089
00997 01825 11994 02259 22990 02656 33978 01849 44794
10306 55742 12719 66728 13745 77720 13563 88700 14765
99692 15165 11643 19368 22481 36537 33477 36938 44469
37736 55460 37956 66429 41134 77420 41959 88418 42157
99416 42162 11414 42365 22403 43363 33391 44140 44380
44960 55370 46336 66355 46561 77346 47556 88335 48163
99319 49764 11318 49367 22278 54962 33239 57968 44205
52975 55153 58974 66100 60375
21212 00997 10019 11974 09536 22916 11026 33799 15524
44757 13524 55729 12017 66720 16008 77712 18010 88661
20010 99639 19010 11499 13019 22479 13520 33469 12519
44440 10525 55385 12544 66316 12063 77233 12549 88188
18036 99176 17031 11143 19043 22134 18040 33126 19556
44120 18553 55112 19566 66100 20058
31313 48008 81112
41414 /////
51515 11880 13023 22800 15024 33600 17014=
0000046300
382
SMBZ32 SBBR 111200 RRA
AAXX 11124
83096 32695 30905 10286 20235 30128 40135 83100 333 20240 59012=
83186 32596 61409 10248 20180 39605 40133 84506 333 20199 58005=
83236 32598 60505 10265 20207 39636 40123 83422 333 20211 58014=
83242 21496 81803 10225 20214 39666 40159 72162 887// 333 20183 58001 60014=
83288 32598 50502 10273 20213 39646 40134 82135 333 20224 58011=
83344 32498 81403 10198 20185 39199 40168 887// 333 20167 58010=
0000346200
383
KSME32 SBBR 111200 RRA
CREX++
T000113 A000 D07086++
 83 096 ARACAJU              1 2014 01 11 12 00 -1091000 -03705000 ///// ///// 10128 10135 //// // -0012 ///// ///// ///// 2860 2350 /// ///// 0200 ///// ///// ///// 038 07 03 0125 31 20 10 0000 0000 // // ///// //// ////// / /// /// ////// /// /// /////// // /// // /// /// ////////// /// /// 508 -0006 10 10  -0024 //// -0001 //// /////  -0001 00000 //// ///// ///// -0012 0000 //// -0012 0000 2400 ///// 03 02 -0010 090 0026 //  -0010 /// //// //// /// //// ///// -0024 // ////  -0001 //// //// ///// ///// ///// ///// -0024 //// //// ///// ///// ///// /////+
 83 186 JACOBINA             1 2014 01 11 12 00 -1118000 -04046000 ///// ///// 09605 10133 //// // 0005 ///// ///// ///// 2480 1800 /// ///// 0400 ///// ///// ///// 075 07 04 0080 35 20 16 0000 0000 // // ///// //// ////// / /// /// ////// /// /// /////// // /// // /// /// ////////// /// /// 508 -0006 10 10  -0024 //// -0001 //// /////  -0001 00000 //// ///// ///// -0012 0000 //// -0012 0000 1990 ///// 03 02 -0010 140 0046 //  -0010 /// //// //// /// //// ///// -0024 // ////  -0001 //// //// ///// ///// ///// ///// -0024 //// //// ///// ///// ///// /////+
 83 236 BARREIRAS            1 2014 01 11 12 00 -1215000 -04500000 ///// ///// 09636 10123 //// // 0014 ///// ///// ///// 2650 2070 /// ///// 2000 ///// ///// ///// 075 07 03 0080 34 22 12 0000 0000 // // ///// //// ////// / /// /// ////// /// /// /////// // /// // /// /// ////////// /// /// 508 -0006 10 10  -0024 //// -0001 //// /////  -0001 00000 //// ///// ///// -0012 0000 //// -0012 0000 2110 ///// 03 02 -0010 050 0026 //  -0010 /// //// //// /// //// ///// -0024 // ////  -0001 //// //// ///// ///// ///// ///// -0024 //// //// ///// ///// ///// /////+
 83 242 LENCOIS              1 2014 01 11 12 00 -1256000 -04138000 ///// ///// 09666 10159 //// // 0001 ///// ///// ///// 2250 2140 /// ///// 0400 ///// ///// ///// 100 07 08 0045 37 61 60 0000 0000 // // ///// //// ////// / /// /// ////// /// /// /////// // /// // /// /// ////////// /// /// 021 -0006 06 02  -0024 //// -0001 //// /////  //// ///// -0024 00010 ///// -0012 0000 //// -0012 0000 1830 ///// 03 02 -0010 180 0015 //  -0010 /// //// //// /// //// ///// -0024 // ////  -0001 //// //// ///// ///// ///// ///// -0024 //// //// ///// ///// ///// /////+
 83 288 BOM JESUS DA LAPA    1 2014 01 11 12 00 -1326667 -04341667 04410 00015 09646 10134 //// // 0011 ///// ///// 00150 2730 2130 /// ///// 2000 ///// ///// ///// 062 07 02 0080 31 23 15 0000 0000 // // ///// //// ////// / /// /// ////// /// /// /////// // /// // /// /// ////////// /// /// 508 -0006 10 10  -0024 //// -0001 //// /////  -0001 00000 //// ///// 00150 -0012 0000 //// -0012 0000 2240 ///// 03 02 -0010 050 0010 //  -0010 /// //// //// /// //// ///// -0024 // ////  -0001 //// //// ///// ///// ///// ///// -0024 //// //// ///// ///// ///// /////+
 83 344 VITORIA DA CONQUISTA 1 2014 01 11 12 00 -1495000 -04088000 ///// ///// 09199 10168 //// // 0010 ///// ///// ///// 1980 1850 /// ///// 2000 ///// ///// ///// 100 07 08 0045 37 61 60 0000 0000 // // ///// //// ////// / /// /// ////// /// /// /////// // /// // /// /// ////////// /// /// 508 -0006 10 10  -0024 //// -0001 //// /////  -0001 00000 //// ///// ///// -0012 0000 //// -0012 0000 1670 ///// 03 02 -0010 140 0015 //  -0010 /// //// //// /// //// ///// -0024 // ////  -0001 //// //// ///// ///// ///// ///// -0024 //// //// ///// ///// ///// /////++
7777
0000337200
384
KSME32 SBBR 111200 RRA
CREX++
T000113 A000 D07080++
 83 096 ARACAJU              1 2014 01 11 12 00 -1091000 -03705000 00050 ///// 10128 10135 //// // -0012 ///// ///// ///// 2860 2350 /// ///// 0200 ///// ///// ///// 038 07 03 0125 31 20 10 0000 0000  07 /// 08 /// 09 /// // ///// ///// // ///// ///// // ///// //// 508 -0006 10 10  -0024 //// -0001 //// /////  -0001 00000 //// ///// ///// -0012 0000 //// -0012 0000 2400 ///// 03 02 -0010 090 0026 //  -0010 /// //// //// /// //// ///// -0024 // ////  -0001 //// //// ///// ///// ///// ///// -0024 //// //// ///// ///// ///// ///// //// 0000 //+
 83 186 JACOBINA             1 2014 01 11 12 00 -1118000 -04046000 04850 ///// 09605 10133 //// // 0005 ///// ///// ///// 2480 1800 /// ///// 0400 ///// ///// ///// 075 07 04 0080 35 20 16 0000 0000  07 /// 08 /// 09 /// // ///// ///// // ///// ///// // ///// //// 508 -0006 10 10  -0024 //// -0001 //// /////  -0001 00000 //// ///// ///// -0012 0000 //// -0012 0000 1990 ///// 03 02 -0010 140 0046 //  -0010 /// //// //// /// //// ///// -0024 // ////  -0001 //// //// ///// ///// ///// ///// -0024 //// //// ///// ///// ///// ///// //// 0000 //+
 83 236 BARREIRAS            1 2014 01 11 12 00 -1215000 -04500000 04390 ///// 09636 10123 //// // 0014 ///// ///// ///// 2650 2070 /// ///// 2000 ///// ///// ///// 075 07 03 0080 34 22 12 0000 0000  07 /// 08 /// 09 /// // ///// ///// // ///// ///// // ///// //// 508 -0006 10 10  -0024 //// -0001 //// /////  -0001 00000 //// ///// ///// -0012 0000 //// -0012 0000 2110 ///// 03 02 -0010 050 0026 //  -0010 /// //// //// /// //// ///// -0024 // ////  -0001 //// //// ///// ///// ///// ///// -0024 //// //// ///// ///// ///// ///// //// 0000 //+
 83 242 LENCOIS              1 2014 01 11 12 00 -1256000 -04138000 04390 ///// 09666 10159 //// // 0001 ///// ///// ///// 2250 2140 /// ///// 0400 ///// ///// ///// 100 07 08 0045 37 61 60 0000 0000  07 /// 08 /// 09 /// // ///// ///// // ///// ///// // ///// //// 021 -0006 06 02  -0024 //// -0001 //// /////  //// ///// -0024 00010 ///// -0012 0000 //// -0012 0000 1830 ///// 03 02 -0010 180 0015 //  -0010 /// //// //// /// //// ///// -0024 // ////  -0001 //// //// ///// ///// ///// ///// -0024 //// //// ///// ///// ///// ///// //// 0000 //+
 83 288 BOM JESUS DA LAPA    1 2014 01 11 12 00 -1326667 -04341667 04410 00015 09646 10134 //// // 0011 ///// ///// 00150 2730 2130 /// ///// 2000 ///// ///// ///// 062 07 02 0080 31 23 15 0000 0000  07 /// 08 /// 09 /// // ///// ///// // ///// ///// // ///// //// 508 -0006 10 10  -0024 //// -0001 //// /////  -0001 00000 //// ///// 00150 -0012 0000 //// -0012 0000 2240 ///// 03 02 -0010 050 0010 //  -0010 /// //// //// /// //// ///// -0024 // ////  -0001 //// //// ///// ///// ///// ///// -0024 //// //// ///// ///// ///// ///// //// 0000 //+
 83 344 VITORIA DA CONQUISTA 1 2014 01 11 12 00 -1495000 -04088000 08400 ///// 09199 10168 //// // 0010 ///// ///// ///// 1980 1850 /// ///// 2000 ///// ///// ///// 100 07 08 0045 37 61 60 0000 0000  07 /// 08 /// 09 /// // ///// ///// // ///// ///// // ///// //// 508 -0006 10 10  -0024 //// -0001 //// /////  -0001 00000 //// ///// ///// -0012 0000 //// -0012 0000 1670 ///// 03 02 -0010 140 0015 //  -0010 /// //// //// /// //// ///// -0024 // ////  -0001 //// //// ///// ///// ///// ///// -0024 //// //// ///// ///// ///// ///// //// 0000 //++
7777
0000008000
385
UQCN05 CWAO 111200
PPDD  61128 71926 95059 28546 29539 29039=

0000009800
386
UECN05 CWAO 111200
TTDD  6112/ 71926 11728 72168 22601 75166 51515 10190 50910=

0000034600
387
UKCN05 CWAO 111200
TTBB  61128 71926 00996 28733 11971 27732 22935 21518 33907
20525 44795 23320 55774 22924 66710 25316 77543 33534 88477
41339 99462 41920 11449 42757 22414 46561 33346 56350 44323
58727 55296 62329 66255 64359 77250 64759 88205 63167 99150
65571 11143 64371 22107 70169 33100 69769 31313 48008 81115=

0000027800
388
UGCN05 CWAO 111200
PPBB  61128 71926 90012 14011 19018 20525 90346 22527 22525
21030 90789 23030 23027 23027 91246 24542 24540 24541 9179/
25049 25036 92057 25038 24558 24569 9305/ 25548 26536 94023
27549 27037 27032 94467 29036 27540 29043 949// 28044=

00000000