0000014300
189
SMVD10 EHDB 111200 RRE
BBXX
PHEO 11124 99212 71582 41398 21010 10235 20212 40090 50000 70100
822// 22263 00260 20301 80220=
0000108400
190
SMCI31 BABJ 111200
AAXX 11121
50844 32962 23602 11215 21239 30123 40317 52031 82///=
50854 11965 23603 11197 21238 40299 52018 69911 72270 82///=
50968 11662 70202 11171 21193 40269 52010 69921 77070 87///
333 92536=
51379 32980 01801 11187 21225 40427 57008 333 05603=
51467 32980 00902 11125 21233 38298 52003 333 00051=
51495 32980 00202 11083 21214 40453 57004 333 00202=
53480 42963 03205 11119 21256 40425 52032=
53673 32961 03604 11009 21223 40356 52029=
53698 31906 72501 11009 21066 40297 52019 70500 87///=
53898 31919 02203 10039 21067 40293 52010 70500=
54308 32980 03606 11059 21183 40359 52030=
54602 31907 70000 11026 21051 40305 52024 74400 87///=
54725 31915 02001 10006 21046 40299 52010 70500=
54751 31916 02203 10010 21019 40300 52008 71000=
54916 31920 01101 11005 21046 40319 52012 70500=
57014 32975 33203 10008 21190 40388 52027 83///=
57025 31955 82902 10025 21182 40376 52028 70500 88///=
57046 32966 62908 11075 21188 37994 52020 86/// 333 00452=
58208 31937 81601 10046 20007 40312 52009 70500 88///=
0000036600
191
USNO12 ENMI 111200
TTAA 11121 01001 99013 00014 21001 00114 00315 14003 92733 04731
      12510 85394 10306 13011 70870 16959 13008 50534 26768 12022
      40692 37159 11020 30885 50362 11028 25002 59162 11026 20138
      67162 12023 15313 62772 16511 10562 66775 21018 88190 68362
      11022 77999 31313 48008 81112=
TTAA 1112/ 01028 NIL=
0000067000
192
USNO13 ENMI 111200
TTAA 11121 01152 99009 07763 07503 00103 07963 10508 92702 13759
      11015 85342 15572 12020 70783 23375 09016 50520 34369 08017
      40673 44166 07018 30863 49779 06517 25982 50583 05514 20127
      52183 05511 15312 54782 34009 10567 60977 31525 88322 50775
      06016 77999 31313 48108 81110=
TTAA 61111 01241 99000 07756 13014 00011 07757 13014 92613 10157
      13529 85263 11757 12021 70720 20958 09524 50516 28789 28013
      40672 40967 30508 30865 47976 27526 25985 49378 29522 20131
      50784 28534 15319 51383 30536 10579 59381 30541 88279 49175
      29031 88203 50984 27533 77999 31313 48108 81120=
0000022100
193
UPSG01 GOOY 111200
PPAA 61111 61600 NIL=
PPAA 61118 61641 44385 25007 25507 22008 44340 33014 29559 28558
     44320 27052 27058 25545 77236 28063 40915=
PPAA 61111 61687 NIL=
PPAA 61111 61695 NIL=
0000011100
194
UANT99 KDDL 111220
ARP AWE731 5306N02255W 1220 F370 MS61 202/66 KT
N273AY DDL XXN 111220 J29A
0000011000
195
UANT99 KDDL 111220
ARP EIN105 5202N01911W 1220 F360 MS61 215/74 KT
EIDUZ DDL XXN 111220 J81A
0000011100
196
UANT99 KDDL 111220
ARP UAL107 5307N02311W 1220 F310 MS56 200/91 KT
N69059 DDL XXN 111220 F14A
0000011100
197
UANT99 KDDL 111220
ARP DAL409 5306N02239W 1220 F350 MS62 205/69 KT
N1200K QXT AOW 111220 F17A
0000011000
198
UANT99 KDDL 111220
ARP AFR690 4816N01614W 1219 F300 MS49 226/57 KT
FGZNH QXT AOE 111220 F11A
0000016000
199
SSVX02 CWAO 111200
ZZYY 55581 11014 1200/ 338707 153601 6113/ 11119 
40146 52006 22219 00195 444 20130 11014 1200/ 50101 80142 80019 
9/015=
0000016000
200
SSVX02 CWAO 111200
ZZYY 55582 11014 1200/ 334279 154406 6112/ 11119 
40176 52005 22219 00223 444 20130 11014 1200/ 50101 80148 80006 
9/015=
0000016000
201
SSVX02 CWAO 111200
ZZYY 55584 11014 1200/ 341582 154885 6112/ 11119 
40111 52005 22219 00178 444 20130 11014 1200/ 50101 80148 80006 
9/015=
0000015100
202
SSVX02 CWAO 111200
ZZYY 55580 11014 1200/ 339606 160707 6113/ 11119 
40157 57010 22219 00179 444 20130 11014 1200/ 50100 80142 80029=
0000013900
203
SSVX02 CWAO 111200
ZZYY 64739 11014 1200/ 765995 013039 6112/ 22219 
00041 444 20130 11014 1200/ 50101 80148 80018 9/015=
0000015100
204
SSVX02 CWAO 111200
ZZYY 56504 11014 1200/ 317095 093403 6113/ 11119 
40117 52011 22219 00269 444 20130 11014 1200/ 50100 80146 80026=
0000016000
205
SSVX02 CWAO 111200
ZZYY 56542 11014 1200/ 324480 073651 6113/ 11119 
40183 57007 22219 00252 444 20130 11014 1200/ 50101 80134 80023 
9/015=
0000013900
206
SSVX02 CWAO 111200
ZZYY 64726 11014 1200/ 172062 013093 6113/ 22219 
00065 444 20130 11014 1200/ 50101 80138 80002 9////=
0000013900
207
SSVX02 CWAO 111200
ZZYY 64738 11014 1200/ 767306 012498 6112/ 22219 
00011 444 20130 11014 1200/ 50101 80148 80018 9/015=
0000016000
208
SSVX02 CWAO 111200
ZZYY 56541 11014 1200/ 355353 150128 6113/ 11119 
49907 52005 22219 00045 444 20130 11014 1200/ 50101 80134 80008 
9/015=
00000000