0000010400
156
SPUS41 KWBC 101632
SPECI
KGON 101628Z 00000KT 3SM UP BR SCT021 OVC030 00/M01 A3045=

0000009400
157
SPUS43 KWBC 101632
SPECI
KBTL 101628Z 18009KT 2SM BR OVC002 01/M01 A3007=

0000009300
158
SPUS43 KWBC 101632
SPECI
KMKC 101628Z 07004KT 1SM BR OVC005 03/02 A2968=

0000016900
159
SACY31 LCLK 101630
METAR LCLK 101630Z 34008KT 9999 FEW030 13/06 Q1020 NOSIG=
METAR LCPH 101630Z 02005KT CAVOK 14/01 Q1020=
METAR LCNC 101630Z NIL=

0000014500
160
SASA31 KWBC 101600 RRD
METAR
SOCA 101630Z AUTO 14004KT 100V170 9999 SCT023/// BKN030///
     BKN039/// ///TCU 27/23 Q1011=

0000017100
161
SANL32 EHDB 101625 CCA
METAR COR EHEH 101625Z AUTO 21009KT 9999 SCT049/// BKN060/// 06/04
Q1016 
BLU 23010KT 9999 FEW025 SCT060 BECMG FM1730 BKN009=

0000026200
162
SACZ31 LKPW 101630
METAR LKKV 101630Z 25007KT 9999 FEW021 BKN040 03/M01 Q1016=
METAR LKMT 101630Z 22009KT CAVOK 04/M01 Q1016 NOSIG=
METAR LKPR 101630Z 24009KT CAVOK 04/M01 Q1017 NOSIG=
METAR LKTB 101630Z 27007KT CAVOK 04/M03 Q1018 NOSIG=

0000010700
163
SAIL31 BICC 101630
METAR BIKF 101630Z 27014KT 5000 RASN ST006 BKN010 OVC022 02/01 Q0987=

0000048800
164
SAYG31 LYBM 101630
METAR LYBE 101630Z 23003KT 7000 NSC 07/06 Q1021 NOSIG=
METAR LYBT 101630Z 24004KT 5000 BR NSC 06/06 Q1022 NOSIG=
METAR LYKV 101630Z 29004KT 260V320 9999 BKN033 09/M00 Q1021 NOSIG=
METAR LYNI 101630Z NIL=
METAR LYPG 101630Z 12003KT 9999 SCT040 BKN080 09/08 Q1021 NOSIG=
METAR LYPR 101630Z NIL=
METAR LYTV 101630Z NIL=
METAR LYUZ 101630Z 05003KT 020V090 9999 BKN020 06/03 Q1021=
METAR LYVR 101630Z VRB01KT 9999 BKN046 06/01 Q1021 NOSIG=

0000088600
165
FTBZ31 KWBC 101633
TAF
TAF SBCG 101430Z 1018/1118 03008KT 9999 SCT045 FEW050TCU
      TN20/1108Z
      T X32/1117Z PROB30
      TEMPO 1018/1024 35010KT 6000 TSRA SCT045 FEW050CB
      BECMG 1100/ 1102 35006KT FEW045
      BECMG 1113/1115 SCT040 FEW045TCU RMK PEL=
TAF SBFI 101430Z 1018/1118 34008KT 9999 SCT025 FEW035TCU
      TX33/1018Z
      T N23/1108Z PROB40
      TEMPO 1018/1102 5000 TSRA BR BKN025 FEW035CB
      BECMG 1102/1104 31006KT SCT025 PROB30 1102/1106 SCT010
      SCT025
      BECMG 1113/1115 SCT030 FEW035T CU RMK PEL=
TAF SBPA 101430Z 1018/1118 35008KT 9999 SCT045 FEW050TCU
      TX33/1018Z
      T N24/1108Z PROB30
      TEMPO 1018/1024 8000 TSRA SCT045 FEW050CB
      BECMG 1100/1102 FEW 045
      BECMG 1108/1110 30012KT SCT030 FEW040TCU PROB40
      TEMPO 1112/1118 4000 TSRA BR BKN030 FEW045CB RMK PEL=

0000020700
166
FTUS31 KWBC 101633 AAA
TAF AMD
KDFW 101631Z 1017/1118 20013KT P6SM -RA BKN060
     FM102000 21015G25KT P6SM BKN100
     FM102300 23013KT P6SM SCT250
     FM110300 32008KT P6SM SKC=

0000055400
167
FTUS42 KWBC 101633 AAA
TAF AMD
KDAL 101632Z 1017/1112 20013KT P6SM -RA BKN060
      TEMPO 1016/1018 BKN010
     FM102000 21015G25KT P6SM BKN100
     FM102300 23013KT P6SM SCT250
     FM110300 32008KT P6SM SKC=
KDAL 101631Z 1017/1112 20013KT P6SM -RA BKN060
     FM102000 21015G25KT P6SM BKN100
     FM102300 23013KT P6SM SCT250
     FM110300 32008KT P6SM SKC=
KFTW 101631Z 1017/1112 20013KT P6SM -RA BKN060
     FM102000 21015G25KT P6SM BKN100
     FM102300 23013KT P6SM SCT250
     FM110300 32008KT P6SM SKC=

0000025300
168
FTUS71 KWBC 101633
TAF
TAF KLCK 101620Z 1016/1112 16007KT P6SM OVC005
      TEMPO 1016/1018 5SM BR OVC008
     FM101800 17009KT 5SM BR OVC012
     FM110500 17012KT P6SM VCSH BKN020
     FM110800 18012G22KT 5SM -RA BR BKN010=

0000087300
169
FTUS72 KWBC 101633 AAA
TAF AMD
KACT 101631Z 1017/1112 18013KT 5SM -SHRA SCT008 BKN015
      TEMPO 1017/1020 BKN060
     FM102000 22015KT P6SM BKN090
     FM110400 28008KT P6SM BKN120=
KDAL 101632Z 1017/1112 20013KT P6SM -RA BKN060
      TEMPO 1016/1018 BKN010
     FM102000 21015G25KT P6SM BKN100
     FM102300 23013KT P6SM SCT250
     FM110300 32008KT P6SM SKC=
KDAL 101631Z 1017/1112 20013KT P6SM -RA BKN060
     FM102000 21015G25KT P6SM BKN100
     FM102300 23013KT P6SM SCT250
     FM110300 32008KT P6SM SKC=
KDFW 101631Z 1017/1118 20013KT P6SM -RA BKN060
     FM102000 21015G25KT P6SM BKN100
     FM102300 23013KT P6SM SCT250
     FM110300 32008KT P6SM SKC=
KFTW 101631Z 1017/1112 20013KT P6SM -RA BKN060
     FM102000 21015G25KT P6SM BKN100
     FM102300 23013KT P6SM SCT250
     FM110300 32008KT P6SM SKC=

0000031400
170
FTUS73 KWBC 101633 AAA
TAF AMD
KPAH 101631Z 1017/1112 17007KT P6SM VCSH SCT020 BKN035
      TEMPO 1017/1019 4SM -SHRA BR BKN015
     FM101900 17010KT P6SM VCSH SCT030 BKN050
     FM110100 17012KT 2SM RA BR OVC004
     FM110700 21012KT 3SM BR OVC010
     FM111000 24010KT P6SM SCT015=

0000008900
171
SPAU32 YBBN 101632
SPECI YMHB 101630Z 18006KT 9999 BKN009 16/14 Q1012=

0000015400
172
FTEU31 BKPR 101630 AAY
TAF BKPR 101630Z 1016/1112 VRB05KT 0100 FG BKN002 TEMPO 1017/1106
 0400 BKN005 BECMG 1109/1111 2000 BR SCT008=

0000030700
173
SAIE31 EIDB 101630
METAR EIDW 101630Z 30006KT 9999 -DZ SCT006 BKN015 06/06 Q1007 NOSIG=
METAR EINN 101630Z 31002KT 9999 FEW015 SCT070 05/04 Q1009 NOSIG=
METAR EICK 101630Z 26010KT 9999 FEW017 SCT250 06/03 Q1008 NOSIG=
METAR EIKN 101630Z 25004KT 9999 SCT048 SCT085 04/02 Q1007 NOSIG=

0000023700
174
FTAU34 YBBN 101600 AAA
TAF AMD YBHM 101633Z 1016/1106
10021KT 9999 -SHRA SCT014 BKN025
FM102200 11018KT 9999 -SHRA SCT018 BKN025
FM110000 09021KT 9999 -SHRA SCT020 BKN025
INTER 1016/1106 2000 SHRA BKN010
RMK=

0000008900
175
SPAU32 AMMC 101633
SPECI YMHB 101630Z 18006KT 9999 BKN009 16/14 Q1012=

00000000