0000042700
036
SADL35 EDZO 101620
METAR EDHI 101620Z 25011KT 9999 SCT026 BKN045 07/04 Q1012=
METAR EDJA 101620Z 18002KT 9999 SCT060 02/01 Q1019=
METAR EDMO 101620Z 23007KT 9999 SCT22 03/00 Q1019=
METAR EDOP 101620Z 26016KT 9999 SCT020 BKN045 06/04 Q1011=
METAR EDTL 101620Z 11004KT 9999 FEW028 07/03 Q1019=
METAR EDTY 101620Z VRB03KT CAVOK 05/01 Q1019=
METAR EDVE 101620Z 26011KT 9999 FEW030 BKN044 06/02 Q1014=

0000063100
037
SADL34 EDZO 101620
METAR EDAC 101620Z 23008KT CAVOK 04/M00 Q1016=
METAR EDBC 101620Z 24012KT CAVOK 04/01 Q1014=
METAR EDGS 101620Z 22006KT 190V250 9999 SCT010 BKN035 03/02 Q1016=
METAR EDHL 101620Z 26013KT 9999 SCT016CB SCT046 06/04 Q1011=
METAR EDLN 101620Z 21005KT CAVOK 06/04 Q1017=
METAR EDLW 101620Z 23010KT 9999 SCT040 06/02 Q1016=
METAR EDMA 101620Z 21004KT 9999 SCT040 04/01 Q1019=
METAR EDNY 101620Z 00000KT 9999 BKN065 04/02 Q1020=
METAR EDQM 101620Z 23012KT 9999 BKN040 03/M01 Q1017=
METAR EDRZ 101620Z 22006KT CAVOK 04/01 Q1019=
METAR EDSB 101620Z 20001KT 9999 SCT045 08/01 Q1019=

0000008700
038
SAIY32 LIIB 101620 RRA
METAR LICC 101620Z 26005KT CAVOK 14/09 Q1020=

0000051900
039
SANO38 ENMI 101620
METAR ENDR 101620Z AUTO 06029KT M03/M08 Q1001=
METAR ENEK 101620Z NIL=
METAR ENGC 101620Z 04015KT 9999 SCT020 BKN030 06/02 Q0999 W07/S4=
METAR ENHE 101620Z NIL=
METAR ENOA 101620Z 03011KT 9999 -SHRA BKN008 06/04 Q0998 W///S4=
METAR ENSL 101620Z 25019KT 9999 FEW015 BKN150 07/04 Q1001 W06/S4=
METAR ENFB 101620Z AUTO 05016KT 9999NDV FEW023/// OVC037/// 06/03
           Q0999 W///S5=
METAR ENSF 101620Z AUTO 05019KT 9999NDV BKN023/// 06/02 Q0999
           W///S5=

0000010700
040
FTAG59 SAME 101700
TAF SAME 101700Z 1018/1118 14015KT 9999 FEW040 TX32/1020Z TN20/1110Z=

0000050800
041
SANO32 ENMI 101620
METAR ENAL 101620Z 05016KT 9999 FEW033 SCT045 01/M04 Q0999=
METAR ENCN 101620Z VRB02KT 9999 FEW020 02/00 Q1001=
METAR ENHD 101620Z 25012KT 9999 FEW010CB SCT014 BKN030 07/05 Q0999=
METAR ENRO 101620Z 09010KT 8000 -SN BKN009 M11/M14 Q0995=
METAR ENRY 101620Z 19005KT CAVOK M01/M02 Q0999=
METAR ENSB 101620Z NIL=
METAR ENTC 101620Z VRB01KT CAVOK M12/M14 Q1016 NOSIG RMK WIND 2600FT
           10013KT=
METAR ENTO 101620Z 20003KT 160V240 CAVOK M01/M02 Q0998=

0000009500
042
SAQB31 LQSM 101630
METAR LQSA 101630Z VRB02KT 9999 BKN060 08/04 Q1020 NOSIG=

0000025400
043
SANO36 ENMI 101620
METAR ENBS 101620Z NIL=
METAR ENHK 101620Z NIL=
METAR ENHV 101620Z NIL=
METAR ENLK 101620Z NIL=
METAR ENMH 101620Z NIL=
METAR ENNK 101620Z NIL=
METAR ENNM 101620Z 06014KT 9999 FEW040 BKN090 M08/M14 Q1003=

0000038600
044
SANO35 ENMI 101620
METAR ENMS 101620Z NIL=
METAR ENRM 101620Z 08013KT 9999 SCT025 BKN075 M06/M14 Q1004=
METAR ENRS 101620Z NIL=
METAR ENSK 101620Z NIL=
METAR ENSO 101620Z 22005KT 9999 SCT015 SCT022 BKN026 05/05 Q0999=
METAR ENST 101620Z 02008KT 340V060 CAVOK M08/M15 Q1006 RMK 35011KT
           320V040 RMK TURB WRNG - SEE IPPC=
METAR ENVD 101620Z NIL=

0000026300
045
SANO34 ENMI 101620
METAR ENBN 101620Z NIL=
METAR ENBV 101620Z NIL=
METAR ENFG 101620Z 00000KT 9999 FEW026 SCT036 BKN0048 M06/M07 Q0992=
METAR ENHF 101620Z NIL=
METAR ENRA 101620Z 08015G25KT CAVOK M09/M19 Q1009=
METAR ENSH 101620Z NIL=

0000009300
046
SAEA20 HKNC 101500 RRG
METAR HKNK 101500Z   36005KT  9999   FEW027  25/04=

0000009600
047
SPPR00 SPIM 101630
SPECI SPJR 101630Z VRB04KT 9999 FEW023 SCT040 20/12 Q1026=

0000050400
048
SAFI33 EFHK 101620
EFJO 101620Z 02013KT 340V050 5000 -SN FEW013 OVC055 M09/M10 Q0992=
EFLP 101620Z AUTO 01011KT 350V050 3100 -SN FEW007 BKN009 OVC014
M02/M03 Q0986=
EFMI 101620Z AUTO VRB07KT 8000 -SN BKN011 BKN061 BKN087 M05/M05
Q0990=
EFSA 101620Z AUTO 36010KT 310V040 3600 -SN FEW013 SCT039 OVC047
M07/M07 Q0990=
EFUT 101620Z AUTO 36012KT 330V040 6000 -SN FEW007 BKN012 OVC038
M02/M02 Q0987=
EFVR 101620Z AUTO 01008KT 340V070 0300 +SN BKN012 OVC028 M06/M08
Q0991=

0000009500
049
SAIY33 LIIB 101620 RRA
METAR LIMW 101620Z AUTO VRB01KT 7000 NCD 02/00 Q1018=

0000026600
050
SANT31 KWBC 101600 RRB
METAR
BGBW 101625Z NIL=
BGCO 101625Z NIL=
BGGH 101625Z NIL=
BGJN 101625Z NIL=
BGKK 101620Z AUTO 07034G52KT 0550NDV SN VV008/// M01/M02 Q0987
     RESN=
BGSF 101620Z AUTO 05012KT 9999NDV SCT130/// M11/M20 Q0993=

0000009500
051
SPUS41 KWBC 101625
SPECI
KCAK 101621Z 18004KT 1/2SM BR OVC003 02/01 A3022=

0000009300
052
SPUS41 KWBC 101625
SPECI
KHTS 101621Z 00000KT 6SM BR OVC014 06/04 A3025=

0000011300
053
SPCN42 CWAO 101625
SPECI CYIV 101625Z 00000KT 4SM -SN BR OVC003 RMK ST8 BLN VISBL TO 600
FT=

0000018600
054
SAMX41 MMMX 101625
METAR MMIT 101545Z 01008KT 7SM SKC 28/20 A3002 RMK ST LWR OVR 
      MT FU IV QUAD=
METAR MMTB 101600Z 00000KT 7SM FEW018 22/16 A2997 RMK 8/100=

0000012700
055
SAUK33 EGGY 101620 RRA
METAR EGNS 101620Z 30009KT 260V340 8000 -RADZ FEW008 SCT012 08/07
     Q1005 NOSIG=

00000000