0000023300
536
FTMP31 LMMM 101600 RRA
TAF HLLT 101700Z 1018/1118 VRB02KT CAVOK BECMG 1110/1112 20010KT
BECMG 1116/1118 VRB02KT=
TAF HLLB 101700Z 1018/1118 VRB02KT 9999 SCT020 BECMG 1110/1112
25010KT BECMG 1116/1118 VRB02KT=

0000014500
537
FTIE31 EIDB 101100 AAA
TAF AMD EIDW 101638Z 1016/1112 29007KT 9999 SCT006 BKN015
     BECMG 1018/1019 25007KT FEW015 SCT025=

0000023300
538
FTMP31 LMMM 101700 RRA
TAF HLLT 101700Z 1018/1118 VRB02KT CAVOK BECMG 1110/1112 20010KT
BECMG 1116/1118 VRB02KT=
TAF HLLB 101700Z 1018/1118 VRB02KT 9999 SCT020 BECMG 1110/1112
25010KT BECMG 1116/1118 VRB02KT=

0000010200
539
SPUS41 KWBC 101643
SPECI
KHPN 101639Z 00000KT 2SM BR FEW006 OVC014 M01/M02 A3041=

0000009700
540
SPUS41 KWBC 101643
SPECI
KINT 101639Z 01005KT 3SM -RA BR OVC003 02/01 A3035=

0000009800
541
SPUS41 KWBC 101643
SPECI
KWRI 101640Z AUTO 11002KT 3SM BR OVC012 00/00 A3039=

0000010800
542
SPUS43 KWBC 101643
SPECI
KSGF 101639Z 15016KT 1 3/4SM +RA BR SCT003 OVC007 05/04 A2977=

0000011100
543
SPUS43 KWBC 101643
SPECI
KSUS 101639Z 13009KT 6SM -RA BR FEW010 SCT050 OVC080 04/03 A2987=

0000007700
544
FCRS32 RUMS 101400 AAA
TAF AMD URWI 101640Z 1015/1024 CNL=

0000013200
545
SAPA31 KWBC 101600 RRG
METAR
PGSN 101640Z 03010KT 10SM FEW020 SCT025 26/23 A2990 RMK AO2
     RAB23E35 P0000=

0000009700
546
SAAG41 SAWG 101700
METAR SAWG 101700Z  23023G33KT 9999  BKN035
14/M03 Q1008=

0000086100
547
SAMX45 MMMY 101650
METAR MMMY 101645Z 28003KT 4SM  FEW015 18/12 A2993 RMK 8/500 HZ=
METAR MMAN 101643Z 35003KT 6SM  SKC 18/15 A2996 RMK HZY=
METAR MMMA 101641Z 15020KT 7SM  BKN020 22/19 A2995 RMK 8/500 HZY=
METAR MMIO 101700Z NIL=
METAR MMRX 101642Z 17008G18KT 10SM  FEW015 22/16 A2992 
      RMK 8/500 HZY FU BLDU=
METAR MMNL 101643Z 00000KT 5SM  OVC023 18/15 A2995 RMK 8/5// HZY=
METAR MMCV 101642Z 18014G24KT 8SM  SKC 24/13 A2993 
      RMK HZY LWR ST W SC SW ISOL CI=
METAR MMTC 101640Z 04003KT 10SM BKN080 BKN200 16/02 A3011
      RMK 8/032 HZY=
METAR MMMV 101640Z 00000KT 8SM BKN080 18/// A3000 RMK 8/070 HZY=
METAR MMCU 101646Z 22003KT 10SM FEW100 SCT200 16/00 A3012 RMK 8/001=
METAR MMPG 101640Z 00000KT 6SM OVC020 15/12 A2997
RMK 8/5// HZY=
METAR MMCS 101640Z 27011KT 10SM SCT250 15/01 A3002 RMK 8/005 =

0000193100
548
SPUS70 KWBC 101650
SPECI
KCMI 101646Z 13009KT 3SM BR OVC014 02/01 A2999 RMK AO2=
KDEQ 101646Z AUTO 21003KT 2SM -RA BR OVC006 12/12 A2989 RMK AO2
     VIS 1V4 LTG DSNT E P0012 T01220122=
KLUK 101646Z AUTO 22003KT 6SM BR OVC007 06/05 A3018 RMK AO2
     T00560050=
KRAC 101646Z AUTO 16011KT 2 1/2SM BR OVC004 00/M01 A2998 RMK AO2
     T00001011=
KRKP 101646Z AUTO 18007KT 7SM FEW006 BKN019 OVC050 28/19 A2994 RMK
     AO2 RAE46 P0002=
KRKS 101647Z AUTO 29015KT 2SM -SN BR OVC015 M04/M07 A2987 RMK AO2
     P0000 T10441067=
KXNA 101646Z 22007KT 2SM R17/5500VP6000FT RA BR FEW010 BKN026
     OVC035 09/09 A2981 RMK AO2 VIS 1 1/2V3 TSE1554 P0033=
PABA 101643Z AUTO 28021KT 1 1/4SM -SN BR M25/M27 A2986 RMK AO2 PK
     WND 28028/1618 SNB1548 FZRANO $=
PAMB 101646Z AUTO 04006KT 3SM BR OVC003 M03/M03 A2943 RMK AO2 TSNO
     $=
PAPB 101646Z AUTO 24007KT 10SM FEW013 SCT021 01/M01 A2917 RMK AO2
     SNE02 P0000 T00061006 TSNO=
PATO 101646Z AUTO 28006KT 10SM BKN009 OVC070 M02/M02 A2939 RMK AO2
     T10171022 TSNO=
KAUS 101647Z 20012G19KT 1 1/4SM -RA BR BKN008 OVC014 18/17 A2993
     RMK AO2 SFC VIS 2 RAE1558B42 P0000=
KBOK 101647Z AUTO 00000KT 1SM BR OVC002 09/09 A3026 RMK AO2 $=
KCLT 101647Z 02005KT 3SM -RA BR OVC003 05/04 A3030 RMK AO2 VIS 2
     RWY 36 RAB30 P0004=
KILG 101647Z 09003KT 1 3/4SM BR BKN004 OVC035 01/01 A3041 RMK AO2
     RAE41 PRESFR P0000=
KLGA 101647Z 04006KT 4SM BR SCT016 BKN034 OVC050 M01/M03 A3044 RMK
     AO2 FZRAE46 P0000=
KPPF 101647Z AUTO 19015G22KT 2SM BR OVC002 08/07 A2969 RMK AO2=
KRSL 101647Z AUTO 26007KT 3SM BR BKN002 BKN010 OVC016 01/01 A2963
     RMK AO2=
KSET 101647Z AUTO 14011KT 2SM RA BR OVC009 03/02 A2988 RMK AO2
     RAB25 PRESFR P0006 T00280017 TSNO=
KBAF 101647Z 00000KT 5SM HZ OVC021 M03/M06 A3042 RMK AO2=
KHIE 101647Z AUTO 00000KT 4SM -SN FEW033 OVC065 M08/M11 A3032 RMK
     AO2 P0000 $=

0000004800
549
SALT33 EYVI 101650
METAR NIL=

0000017200
550
FTUS71 KWBC 101651 AAA
TAF AMD
KZZV 101648Z 1017/1112 15003KT 4SM BR OVC005
     FM102200 17006KT P6SM OVC009
     FM110500 18010KT 6SM -RA OVC012=

0000019300
551
FTUS74 KWBC 101651 AAA
TAF AMD
KPIH 101650Z 1017/1112 23015G25KT P6SM OVC080
     FM101800 23025G35KT P6SM VCSH BKN035
     FM110300 22015G25KT 4SM -RASN SCT010 OVC020=

0000009300
552
SATU32 LTAA 101620 RRA
METAR LTAG 101620Z 29004KT CAVOK 11/01 Q1019 NOSIG=

0000010900
553
SAVN31 SVVA 101700
METAR SVVA 101700Z 09003KT CAVOK 31/19 Q1015=
METAR SVPC 101700Z NIL=

0000015000
554
SAUS71 KWBC 101600 RRH
METAR
KLBE 101647Z 00000KT 5S, BR OVC009 04/04 A3028=
KSWF 101645Z 00000KT 2SM -SN OVC012 M03/M04 A3043=

0000009800
555
SAUS73 KWBC 101600 RRH
METAR
KGYY 101645Z 15012KT 5SM BR OVC008 02/000 A3000=

00000000