0000005700
216
UKBD01 WBSB 111200
TTBB  61121 96315 NIL=
0000066700
217
SXXX32 EUMS 111207
32CC9580
OT12 ID:ID-ENGG-07 DT:2014 01 11 12 06
:PRS /1 01639 01617 01628 01618 01629 01618 01591 01642 01603 01658 01613 01603 01580 01618 01589 01596 01565 01594 01593 01577 01565 01546 01606 01541 01575 01556 01601 01561 01582 01535
:PR2 /1 05074 05034 05060 05049 05070 05078 05037 05061 05046 05066 05068 05041 05030 05046 05030 05071 05036 05049 05019 05038 05030 05047 05052 04965 05014 05003 05040 04991 05025 04987
:RAD /1 05951 05960 05945 05946 05923 05960 05909 05937 05920 05941 05931 05906 05919 05919 05902 05934 05906 05923 05901 05901 05917 05889 05928 05872 05903 05877 05918 05881 05890 05865
:BAT 12.3V
0000044400
218
SXXX32 EUMS 111209
224AD678
:PRS 2 /1 2556 2555 2554 2554 2555 2554 2551 2538 2553 2555 2559 2568 2568 2550 2549 2551 2551 2546 2544 2542 2541 2543 2542 2541 2542 2543 2541 2537 2528 2528 :RAD 4 /3 5382 5379 5380 5378 5375 5372 5368 5362 5356 5352 5346 5341 5339 5333 5326 5319 5315 5312 5303 5296 :ENC 4 /5 8881 8877 8879 8871 8866 8860 8852 8845 8837 8829 8822 8812 :SW1 9 /60 0 :SW2 39 /60 0 :BAT 14 /15 12.3 :NAME 224AD678
0000038000
219
USPF02 NTAA 111200
TTAA 61111 91938 99011 24633 10001 00098 26233 10002 92782 20826
09009 85509 16420 08015 70138 07050 10010 50584 06383 16012 40754
19974 18513 30962 32774 19531 25088 425// 19534 20235 537// 19036
15416 627// 14527 10655 767// 14031 88999 77999 31313 47708 81115
61616 60393 00666 12006 90123 09504 09007 08510 907// 09013 928//
20028=
0000050800
220
UKPF02 NTAA 111200
TTBB 61118 91938 00011 24633 11000 26233 22914 20024 33831 15418
44658 04057 55641 03036 66590 00073 77561 01757 88533 03586 99511
05184 11396 20574 22384 22363 33362 22176 44272 38173 55205 529//
66149 631// 77121 733// 88101 769// 21212 00011 10001 11863 08015
22536 13003 33479 17517 44408 19510 55378 16521 66364 20028 77203
19537 88174 14531 99123 14021 31313 47708 81115 41414 12500 61616
60393 00666 12006 90123 09504 09007 08510 907// 09013 928// 20028=
0000010700
221
UANT99 KDDL 111211
ARP UAL991 68N030W 1211 F320 MS60 129/72 KT
N670UA DDL XXN 111211 F59A
0000011000
222
UANT99 KDDL 111211
ARP DAL15 5306N02638W 1211 F310 MS56 188/83 KT
N839MH QXT AOE 111211 F36A
0000011100
223
UANT99 KDDL 111211
ARP DAL603 5302N01557W 1211 F360 MS64 240/76 KT
N815NW DDL BLY 111211 J19A
0000011100
224
UANT99 KDDL 111211
ARP AWE735 5303N01559W 1211 F370 MS63 238/76 KT
N286AY DDL ORK 111211 J70A
0000010900
225
UANT99 KDDL 111211
ARP VIR3N 5306N02624W 1211 F360 MS62 188/65 KT
GVUFO DDL XXF 111211 J82A
0000011000
226
UANT01 CWAO 111211
ARP AAL63 4906N02652W 1211 F320 MS52 185/71 KT
N371AA DDL XXN 111211 F42A
0000011100
227
UANT01 CWAO 111211
ARP LOT6505 6100N02958W 1211 F380 MS56 341/52 KT
SPLRE DDL KEF 111211 L41A
0000010100
228
UAUS31 KWBC 111212
ARP UAL433 4309N 07612W 0605 F320 TB OCNL MOD TURB RM B752 OV SYR=
0000014500
229
UAPA01 KWBC 111212
ARP AWE697 2755N 13851W 1204 F380 MS48 270/040KT TB SMTH=
ARP DAL1212 3017N 13138W 1200 F330 MS48 259/031KT=
0000011100
230
UANT01 CWAO 111212
ARP UAL162 5321N03736W 1211 F350 MS56 283/34 KT
N34137 DDL IG1 111212 F60A
0000027000
231
SMGW01 GGOV 111200
AAXX 11124
61766 32960 83608 10252 20087 30091 40135 80001
333 0//00 58011 88075=
61769 32960 70405 10254 20150 3//// 4//// 80001
333 0//00 5//// 87075=
61781 32960 8//// 10265 20116 30039 40064 80001
333 0//00 58012 88075=
0000026600
232
SMMJ40 MJSK 111200
AAXX 11121
13492 NIL=
13584 NIL=
13585 41996 20000 10054 21002 39432 40236 57017 71044 80002 333
90459 90536=
13597 42998 13603 10129 20033 30154 40226 57011 80001=
13598 42998 40000 10112 20006 39243 48520 57013 80001=
0000205300
233
SMPL40 SOWR 111200
AAXX 11121
12100 12462 81904 10055 20033 30087 40094 58014 60001 885//
  333 91110 93000=
12115 11460 82407 10055 20037 30072 40086 58008 69901 76022 885//
  333 91113 93097=
12125 16/// /2305 10054 20029 30038 40089 57009 69981
  333 93001 =
12135 11470 72604 10058 20040 30082 40085 58008 69931 70282 872//
  333 91009 91111 93093=
12185 11580 72506 10048 20028 39964 40099 54000 69901 70282 875//
  333 91112 93097=
12200 12460 72203 10056 20042 30091 40098 58016 60001 8451/
  333 93000=
12215 11/// /2205 10044 20026 39937 40108 57011 69921 7////
  =
12272 12470 72404 10046 20026 39941 40109 58003 60001 875//
  333 87613 91110 93000=
12285 11/// /2504 10050 20021 30008 40124 54000 60001 700//=
12345 12661 62106 10059 20025 39995 40140 58014 60001 81558
  333 93000=
12360 12575 62406 10055 20014 39998 40132 58008 60001 81208
  333 91110 93000=
12385 12569 72406 10049 20019 39949 40140 52001 60001 875//
  333 91112 93000=
12415 12984 22504 10086 20006 39999 40151 58016 60001 81042
  333 93000=
12455 12673 62405 10064 20009 39914 40160 58011 60001 82236
  333 93000=
12497 12570 72606 10049 20007 39928 40149 53003 60001 8357/
  333 91115 93000=
12500 12984 51902 10070 21019 39737 40154 58017 60001 83048
  333 93000=
12510 11799 62814 11050 21058 38311 48437 58010 60001 73843 84051
  333 93000
  444 36025=
12520 12580 72504 10047 20012 39739 40177 57015 60001 83538
  333 93000=
12550 12670 62404 10064 21013 39805 40165 58013 60001 83232
  333 93000=
12575 12670 72704 10079 21025 39921 40176 57013 60001 8114/
  333 93000=
12585 12772 72405 10054 20008 39901 40170 57008 60001 8457/
  333 91112 93000=
12595 36/70 /2607 10054 20008 39889 40165 57005 60001
  333 93000 =
12600 12580 62405 10063 21023 39696 40180 57012 60001 81102
  333 93000=
12650 11484 72704 11080 21084 37953 48470 57003 60001 70331 81536
  333 91114 93000=
12660 12584 42305 10077 21041 39823 40183 57012 60001 81206
  333 93000=
0000106200
234
SMPL50 SOWR 111200
AAXX 11121
12210 12498 82204 10055 20030 30036 40105 57015 60001 885//
  333 93000=
12230 12570 72403 10056 20022 30029 40120 58012 60001 875//
  333 91108 93000=
12310 12980 22204 10074 20019 30065 40131 58014 60001 82030
  333 93000=
12399 12468 72505 10056 20013 39967 40136 53003 60001 8117/
  333 91111 93000=
12418 12580 12406 10074 20017 30031 40145 58017 60001 81231
  333 93000=
12469 12475 72306 10052 20017 39924 40157 58009 60001 8483/
  333 93000=
12488 12576 72604 10055 20010 39997 40153 58004 60001 86508
  333 91111 93000=
12540 12981 62407 10073 20014 39926 40179 58013 60001 81082
  333 93000=
12560 12998 42305 10066 21002 39834 40176 58012 60001 81032
  333 93000=
12625 12681 72702 10029 21058 39171 42788 58014 60001 81506
  333 91108 93000=
12670 12770 52005 10036 21012 39782 40190 58008 60001 81532
  333 93000=
12690 12677 62504 10049 21029 39676 40191 58008 60001 81538
  333 91110 93000=
12695 11/// /2505 10049 21025 39842 40185 57005 60001 700//=
0000372800
235
SMSN01 ESWI 111200
AAXX 11121
02019 05/82 /1105 11134 21151 39522 40170 53004 60001 8/000
  333 60005 90760 91107=
02081 07/82 /2901 11245 21274 39761 40192 53003 69901 70087 8/000
  333 60005 90760 91105=
02095 07/99 /0001 11314 21345 39953 40173 50003 60001 70010 8/000
  333 60005 90760 91103=
02101 45/82 /1904 11126 21226 39534 40106 51007 8//// 333 81/57
87/59=
02119 05/99 /3102 11315 21347 39766 40183 53002 60001 8/000
  333 60005 90760 91103=
02124 05/99 /0303 11173 21207 39594 40144 55001 60001 8/000
  333 60005 90760 91108=
02126 07999 /3503 11162 21198 39767 40120 51005 69921 70070
  333 69915 87/59 90760 91106=
02151 35984 03502 11215 21228 39807 40164 53005 60001 
  333 60005 91004 90710 91104 90710 91203=
02186 37983 00204 11161 21200 30098 40124 54000 60001 70051 
  333 60005 91007 90710 91108 90710 91204=
02197 05/99 /0205 11159 21198 30103 40123 53005 60001 8/000
  333 60005 90760 91110=
02207 05/99 /0903 11159 21184 39320 40042 57003 60001 8/000
  333 60005 90760 91107=
02219 07/// /1204 11148 21175 39392 40083 57002 69931 70070 8/000
  333 60005 90760 91109=
02226 47859 /0402 11144 21162 39600 40071 57001 771// 8//// 333
88/58=
02243 07/61 /0303 11132 21164 69911 77187 8/000
  333 69905 90760 91107=
02269 07/30 /3604 11106 21119 60021 77177 8/000
  333 69935 90760 91110=
02287 07416 /0613 11058 21065 30042 40052 52005 60011 77177
  333 69925 82/11 84/16 86/22 87/28 90760 91118=
02297 07/17 /0514 11080 21090 30032 40079 52007 69961 77177 8/000
  333 69915 90760 91119=
02308 07256 /1101 11168 21189 39156 40046 58002 69981 77177
  333 69905 86/06 87/09 88/11 90760 91103=
02327 07/22 /2602 11152 21168 39611 40062 55000 69921 78587 8/000
  333 69905 90760 91104=
02355 072// /3510 11071 21083 30027 40039 58003 69911 70070
  333 60005 85/03 88/09 90760 91115=
02366 47570 /3104 11098 21125 30050 40057 55001 771// 8//// 333
81/31 83/37=
02407 07446 /0603 11111 21124 39656 40035 50004 60021 77177
  333 69945 82/10 83/26 88/45 90760 91106=
02418 47/57 /0603 11043 21046 39873 40006 50003 754// 8//// 333
81/05 83/08 85/11 88/18=
02435 47/15 /0103 11084 21103 39843 40035 55002 771// 8//// 333
81/01 83/05 85/08 88/13=
02440 07482 /0001 11108 21125 69911 70070
  333 60005 88/13 90760 91103=
02452 07412 /0603 11065 21069 60021 77177
  333 69955 88/15 90760 91108=
02456 07450 /3602 11036 21044 39978 40020 58002 69941 77177
  333 69905 83/11 85/14 88/57 90760 91105=
02469 07/67 /0601 11026 21039 60011 72470 8/000
  333 69905 90760 91104=
02498 07582 /0007 11003 21025 39989 40006 57003 60011 70070
  333 60005 88/22 90760 91109=
02518 466// /2305 10056 20047
  333 81/40 90760 91107=
02520 17480 83103 10049 20035 39923 49990 58004 69901 70086 
  333 60005 85/19 87/59 88/61 91005 90710 91107 90710 91206=
02550 47/69 /2304 10046 20039 39721 49994 58005 761// 8//// 333
85/21 87/58=
02562 07156 80404 11010 21010 39884 40000 50001 60041 77786 
  333 69925 88/03 91005 90710 91106 90710 91204=
02563 07261 /0203 10011 20005 39978 40000 52002 60021 76186
  333 69915 88/04 90760 91106=
02565 05464 /2304 10061 20043 39885 40003 58010 60001
  333 60005 88/14 90760 91109=
02589 07258 /0304 10023 20015 39978 49999 52005 69951 76787
  333 69945 88/06 90760 91107=
02590 47481 /2308 10050 20041 39942 40003 58007 723// 8//// 333
88/19=
02618 07/59 /2305 10051 20045 39844 40007 58018 60071 76265 8/000
  333 60015 90760 91112=
02664 07358 82303 10058 20048 39963 40034 58016 69901 78150 
  333 69905 88/07 91006 90710 91107 90710 91205=
02679 07672 /2509 10051 20042 39973 40017 58011 69901 70086
  333 60005 88/44 90760 91113=
00000000