0000011500
956
FTIN90 VEAT 111200
TAF VEAT 111200Z 1115/1124 00000KT 2000 BR FEW020 BECMG 1118/1120 
1500 BR=

0000009700
957
SAIN90 VAAH 111210
METAR VAAH 111210Z 05005KT 3500 FU NSC 21/10 Q1016 BECMG 3000=
0000012100
958
FCIN90 VEBS 111200
TAF VEBS 111200Z 1115/1124 14005KT 2000 HZ NSC 
         BECMG 1121/1123 1500 BR=

0000009900
959
UPIN90 VICH 111200
PPAA 61111 42071
55392 25506 30510 05506 55150 06009 77999=

0000015500
960
UGIN90 VICH 111200
PPBB 61111 42071
90012 27004 25007 23506 9037/ 27008 00506 91123 12514
00511 06004 915// 04504 9201/ 05010 05510=

0000009500
961
SASN31 ESWI 101620 RRA
METAR ESGT 101620Z 17004KT 9999 SCT012 M01/M03 Q1001=

0000033200
962
FTBR31 TBPB 101600
TAF TBPB 101600Z 1018/1118 06020KT 9999 SCT018 
      TEMPO 1100/1112 5000 SHRA BKN014 BKN035=
TAF TVSV 101600Z 1018/1118 08015KT 9999 SCT018 
      TEMPO 1100/1112 5000 SHRA BKN014 BKN035=
TAF TDPD 101600Z 1018/1118 09020KT 9999 SCT018 
      TEMPO 1106/1112 5000 SHRA BKN014 BKN035=

0000011600
963
SPUS42 KWBC 101623
SPECI
KCRP 101619Z 17016G19KT 2SM -DZ BR SCT007 BKN025 OVC034 19/18
A2994=

0000008900
964
SPCN44 CWAO 101622
SPECI CYZU 101622Z 29005KT 3/4SM -SN VV006 RMK SN8=

0000009000
965
FCFR31 LFPW 101400 AAA
TAF AMD LFCK 101622Z 1016/1024 13020G30KT CAVOK=

0000013400
966
SAAJ31 UBBB 110330
METAR UBBN 110330Z 29004KT 2500 -SN BR OVC004 M09/M11 Q1025
R14R/CLRD60 NOSIG RMK MT OBSC QFE693=
0000024600
967
SAGG31 UGTB 110330
METAR UGTB 110330Z 32006KT 8000 NSC M05/M07 Q1020 R31L/CLRD80 NOSIG=
METAR UGSB 110330Z 14012KT CAVOK 07/M05 Q1018 R13/CLRD70 NOSIG=
METAR UGKO 110330Z 11005KT 090V150 CAVOK 03/M05 Q1016 R07/09//70
 NOSIG=
0000070400
968
SAFI31 EFHK 101620
METAR EFHK 101620Z 35013KT 9999 SCT008 BKN014 BKN050 01/M00 Q0987
TEMPO SCT014 BKN050=
METAR EFJY 101620Z AUTO 01009KT 6000 -SN OVC008 
M05/M06 Q0992=
METAR EFKU 101620Z AUTO 03010KT 9999 OVC014 M07/M09
 Q0994=
METAR EFOU 101620Z AUTO 05009KT 010V090 4800 -SN SCT017/// OVC020/// 
M11/M12 Q1002=
METAR EFRO 101620Z AUTO 04020KT 6000 -SG FEW085 
OVC110 M15/M17 Q1007=
METAR EFTP 101620Z AUTO 03010KT 7000 -SG FEW008 
BKN013 OVC016 M01/M01 Q0991=
METAR EFTU 101620Z AUTO 01008KT 340V040 9999 -SG BKN006/// OVC013/// 
00/M00 Q0991 R08/29//95=
METAR EFVA 101620Z AUTO 03010KT 340V060 9999 -SHSN SCT013/// 
BKN029/// OVC043/// M06/M08 Q0997=

0000054100
969
SAUK31 EGGY 101620
METAR EGBB 101620Z 20008KT CAVOK 07/05 Q1011=
METAR EGCC 101620Z 18011KT 9999 FEW029 SCT039 07/05 Q1009=
METAR EGKK 101620Z 21008KT 9999 -RA BKN011 09/07 Q1014=
METAR COR EGLL 101620Z 21009KT 9999 SCT034 BKN042 09/07 Q1013 TEMPO
     SHRA=
METAR EGPF 101620Z VRB03KT 9999 -RA FEW030TCU 05/04 Q1005=
METAR EGPH 101620Z 24006KT 9999 FEW045 06/05 Q1005=
METAR EGPK 101620Z 24004KT 230V310 9999 VCSH FEW006 BKN020 06/05
    Q1006=
METAR EGSS 101620Z 20009KT 9999 FEW030 BKN042 08/05 Q1013=

0000049200
970
SAUK32 EGGY 101620
METAR EGAA 101620Z VRB03KT 9999 FEW045 06/05 Q1006=
METAR EGAC 101620Z VRB02KT 9999 VCSH FEW010 SCT019 BKN047 06/04
    Q1006=
METAR EGFF 101620Z 23006KT 9999 FEW031 09/06 Q1011=
METAR EGGW 101620Z 20009KT 170V230 9999 FEW020 SCT040 08/05
    Q1012=
METAR EGLC 101620Z 20007KT 9999 SCT035 10/06 Q1014=
METAR EGNM 101620Z VRB03KT 9999 FEW012 SCT020 06/05 Q1008=
METAR EGNX 101620Z 22013KT 9999 FEW035 07/05 Q1010=
METAR EGPD 101620Z NIL=

0000044500
971
SAUK33 EGGY 101620
METAR EGGD 101620Z 20007KT 9999 FEW020 08/06 Q1012=
METAR EGGP 101620Z 18009KT 140V210 9999 -RADZ FEW030 BKN040 08/05
    Q1008=
METAR EGHI 101620Z 20004KT 9999 FEW016 SCT027 07/05 Q1013 =
METAR EGNS 101620Z NIL=
METAR EGNT 101620Z 20009KT 160V230 9999 FEW026 08/05 Q1005=
METAR EGNV 101620Z 19015KT 9999 FEW023 SCT027 08/04 Q1007=
METAR COR EGPB 101620Z 22010KT 9999 FEW020 07/05 Q0999 NOSIG=

0000043900
972
SAUK34 EGGY 101620
METAR EGHE 101620Z 23018KT 9999 VCSH FEW023 10/07 Q1011=
METAR EGHK 101620Z NIL=
METAR EGHQ 101620Z 20011KT 9999 FEW015 09/07 Q1012=
METAR EGJA 101620Z 18012KT 150V210 9999 SCT003 09/08 Q1014=
METAR EGJB 101620Z 20002KT 9999 FEW008 09/07 Q1015=
METAR EGJJ 101620Z 17011KT 4500 BR FEW001 BKN003 07/07 Q1015 TEMPO
    3000 BKN002=
METAR EGTE 101620Z 19006KT 9999 FEW025 SCT040 09/07 Q1012=

0000048400
973
SAUK35 EGGY 101620
METAR EGHH 101620Z 22007KT 9999 FEW025TCU BKN042 09/07 Q1013 RESHRA=
METAR EGKA 101620Z NIL=
METAR EGKB 101620Z 21009KT 180V240 9999 VCSH FEW008 SCT015 08/06
    Q1014 =
METAR EGLF 101620Z 22010KT 9999 SCT049 08/06 Q1013=
METAR EGMC 101620Z 20009KT 9999 FEW023 09/05 Q1014=
METAR EGMD 101620Z 21017KT 9999 SCT016 09/07 Q1015=
METAR EGMH 101620Z 20010KT 9999 FEW024 07/06 Q1015 =
METAR EGTC 101620Z 21008KT 9999 FEW022 08/06 Q1012=

0000038000
974
SAUK36 EGGY 101620
METAR EGBE 101620Z 19006KT CAVOK 07/05 Q1011=
METAR EGBJ 101620Z 19007KT 9999 FEW020 09/05 Q1011=
METAR EGCN 101620Z 18007KT CAVOK 07/05 Q1010=
METAR EGSC 101620Z 19008KT 160V220 9999 FEW025 BKN043 08/05 Q1012=
METAR EGSD 101620Z NIL=
METAR EGSH 101620Z 20008KT CAVOK 07/05 Q1013=
METAR EGVN 101620Z NIL=
METAR EGWU 101620Z NIL=

0000049900
975
SAUK37 EGGY 101620
METAR EGAE 101620Z 22005KT 9999 FEW030 06/04 Q1006=
METAR EGNC 101620Z 21007KT 7000 RA SCT008 BKN012 08/06 Q1005=
METAR EGNH 101620Z NIL=
METAR EGNJ 101620Z 20013KT CAVOK 06/05 Q1010=
METAR EGNO 101620Z 18008KT 9000 -RA SCT025 BKN031 07/06 Q1008=
METAR EGNR 101620Z 15006KT 150V210 9999 -DZ SCT030 07/05 Q1008=
METAR EGPE 101620Z 21007KT 9999 FEW040 04/02 Q1002=
METAR EGPI 101620Z NIL=
METAR EGPN 101620Z 28004KT 9999 FEW018 SCT032 06/06 Q1004=

00000000