0000120000
976
FTAG31 KWBC 101657
TAF
TAF SACO 101700Z 1018/1118 18010G20KT VCTSRA SCT020 TX29/1118Z
      TN21/1110Z BKN035 FEW035
     FM 2100 16010KT 9999 BKN025
      BECMG 1115/1118 18010KT 9999 SCT035=
TAF SAEZ 101700Z 1018/1118 25005KT 9999 SCT040 TX31/1019Z
      TN17/1109Z PROB30
      TEMPO 1019/1101 8000 SHRA SCT020 FEW045CB SCT060
      BECMG 1101/1104 18015KT 9999 SCT040
      BECMG 1116/1118 14010KT=
TAF SARE 101700Z 1018/1118 02010KT 9999 SCT030TCU TX37/1019Z
      TN23/1109Z
      BECMG 1101/1103 18015G35KT 6000 TSRA SCT018 BKN035 FEW040CB=
TAF SARF 101700Z 1018/1118 02015KT 9999 SCT035TCU TX38/1019Z
      TN24/1109Z
      BECMG 1104/1107 18015G35KT 5000 TSRA SCT018 BKN035 FEW040CB=
TAF SARI 101700Z 1018/1118 02010KT 9999 SCT030TCU SCT100
      TX34/1018Z
      TN22/1109Z PROB40
      TEMPO 1019/1100 6000 TSRA SCT030TCU FEW040CB BKN060
      BECMG 1112/1115 18015G35KT 5000 TSRA BKN020 BKN035
      FEW040CB=
TAF SARP 101700Z 1018/1118 36010KT 9999 SCT035TCU TX36/1019Z
      TN24/1109Z PROB40
      TEMPO 1019/1102 6000 TSRA SCT030TCU FEW040CB BKN060
      BECMG 1104/1107 18015G35KT 5000 TSRA BKN018 BKN030 FEW040CB=

0000074700
977
FTMX41 KWBC 101657
TAF
TAF MMCE 101654Z 1018/1118 14010KT 4SM HZ OVC002
     FM102000 16010KT 4SM HZ SCT004 BKN010
     FM110200 00000KT 4SM HZ SCT010 BKN020
     FM111000 00000KT 2SM BR OVC005
     FM111500 15010KT 4SM HZ SCT010 BKN025=
TAF MMCM 101654Z 1018/1118 08015KT 5SM HZ SCT005 BKN020
     FM102100 10015KT 5SM HZ SCT010 OVC025 PROB40 1101/1105 4SM RA
     FM110600 00000KT 4SM HZ OVC005
     FM111200 00000KT 1SM BR OVC003
     FM111600 12010KT 3SM HZ SCT005 BKN015 BKN080=
TAF MMMT 101654Z 1018/1118 03015KT 4SM HZ SCT015 BKN030 BKN070
     FM102100 05015KT 4SM HZ SCT010 SCT080
     FM110600 00000KT 3SM HZ SCT005
      TEMPO 1112/1114 2SM BR
     FM111500 14010KT 3SM HZ SCT005 SCT025=

0000136800
978
FTSA32 KWBC 101657
TAF
TAF SUAA 101655Z 1018/1118 20008KT 9999 FEW023 SCT200 TX23/1118Z
      TN18/1109Z PROB30
      TEMPO 1018/1100 23015G25KT 5000 TSRA BKN017 FEW040CB OVC060
      BECMG 1021/1023 14008KT
      BECMG 1106/1108 17020KT=
TAF SUCA 101655Z 1018/1118 30005KT 9999 FEW026 TX24/1118Z
      TN20/1109Z PROB30
      TEMPO 1018/1100 23015G25KT 5000 TSRA BKN017 FEW040CB OVC060
      BECMG 1100/1102 VRB02KT
      BECMG 1106/1108 18015KT=
TAF SULS 101655Z 1018/1118 20008KT 9999 FEW023 SCT070 TX22/1118Z
      TN18/1109Z PROB30
      TEMPO 1018/1100 23015G25KT 5000 TSRA SCT017 FEW040CB OVC060
      BECMG 1022/1000 12008KT
      BECMG 1106/1108 18020KT=
TAF SURV 101655Z 1018/1118 32010KT 9999 SCT023 SCT070 TX28/1118Z
      TN22/1109Z
      TEMPO 1018/1100 23020G30KT 5000 TSRA BKN015 FEW040CB OVC060
      BECMG 1100/1102 23008KT=
SURV 101655Z 1018/1118 32010KT 9999 SCT023 SCT070 TX28/1118Z
      TN22/1109Z
      TEMPO 1018/1100 23020G30KT 5000 TSRA BKN015 FEW040CB OVC060
      BECMG 1100/1102 23008KT=
SUSO 101655Z 1018/1118 34012KT 9999 SCT023 SCT200 TX30/1118Z
      TN24/1109Z PROB40
      TEMPO 1018/1100 23015G25KT 5000 TSRA BKN017 FEW040CB OVC060
      BECMG 1021/1023 VRB02KT
      BECMG 1100/1102 13008KT
      BECMG 1106/1108 VRB02KT
      BECMG 1112/1114 17010KT=

0000017000
979
FTUS51 KWBC 101657 AAA
TAF AMD
KBFD 101656Z 1017/1112 19006KT P6SM VCSH SCT007 OVC015
     FM110400 16009KT 4SM -RA BR BKN007 OVC012 WS019/21048KT=

0000028100
980
FTUS52 KWBC 101657 AAA
TAF AMD
KTEX 101655Z 1017/1112 29003KT 4SM -SN BKN025 OVC035
      TEMPO 1017/1021 1 1/2SM -SN BR OVC020
     FM102100 32008KT 4SM -SN OVC025
     FM110300 16005KT P6SM VCSH SCT015 BKN025
     FM111000 VRB03KT P6SM SCT025 BKN060=

0000022400
981
FTUS53 KWBC 101657 AAA
TAF AMD
KBRL 101655Z 1017/1112 16010KT 1 1/2SM -RA BR OVC004
     FM110000 17008KT 1/2SM -RA FG VV001
     FM110400 19006KT 1SM BR OVC004
     FM111000 25010KT 3SM BR OVC004=

0000057700
982
FTUS80 KWBC 101657 AAA
TAF AMD
KBFD 101656Z 1017/1112 19006KT P6SM VCSH SCT007 OVC015
     FM110400 16009KT 4SM -RA BR BKN007 OVC012 WS019/21048KT=
KBRL 101655Z 1017/1112 16010KT 1 1/2SM -RA BR OVC004
     FM110000 17008KT 1/2SM -RA FG VV001
     FM110400 19006KT 1SM BR OVC004
     FM111000 25010KT 3SM BR OVC004=
KTEX 101655Z 1017/1112 29003KT 4SM -SN BKN025 OVC035
      TEMPO 1017/1021 1 1/2SM -SN BR OVC020
     FM102100 32008KT 4SM -SN OVC025
     FM110300 16005KT P6SM VCSH SCT015 BKN025
     FM111000 VRB03KT P6SM SCT025 BKN060=

0000009700
983
SPCN51 CWAO 101656
SPECI CZCP 101656Z AUTO 28021KT 2 3/4SM -SN CLR M27/ A2935=

0000075200
984
SAMX42 MMGL 101656
METAR MMAS 101645Z 20006KT 12SM  SCT230 16/M02 A3027 
      RMK 8/009 ISOL SC AC=
METAR MMEP 101643Z 00000KT 12SM  SCT120 18/10 A3013 RMK 8/030=
METAR MMGL 101646Z 06004KT 10SM  SKC 17/07 A3021=
METAR MMIA 101640Z 00000KT 8SM  SCT250 24/17 A3008 RMK 8/001 RTS=
METAR MMLO 101649Z 00000KT 10SM  SCT220 19/02 A3027 RMK 8/002=
METAR MMMM 101646Z 00000KT 8SM  SCT030 16/09 A3025 RMK 8/500 CI=
METAR MMPN 101645Z 00000KT 15SM  BKN040 19/09 A3023 RMK 8/500 AC-CI=
METAR MMPR 101650Z 00000KT 15SM  SKC 23/15 A2998=
METAR MMSP 101646Z 00000KT 15SM  FEW210 17/M01 A3024 RMK 8/001=
METAR MMZC 101651Z 24020KT 10SM  SKC 17/M01 A3023=
METAR MMZO 101643Z 00000KT 12SM  FEW100 SCT270 28/19 A2992 RMK 8/034=

0000040300
985
SIIN90 VABP 110300
AAXX 11034
42770 22997 62701 10150 20113 40182 86220
  333 20120 58000 6007/
  555 00070 10007=
42679 21695 60000 10174 20157 40169 86300
  333 20154 58000 6005/
  555 00054 10005=
42715 31594 83201 10166 20156 39489 40151 74424 86520
  333 10252 20123 59005
  555 10009=
42771 32795 42301 10180 20164 40140 84040
  333 20190 59007
  555 10004=
0000010200
986
SPIN90 VOHY 110340
SPECI VOHY 110340Z 00000KT 3000 HZ SCT010 SCT015 21/16 Q1020 NOSIG=
0000048600
987
SIIN90 VABP 110300 RRA
AAXX 11034
42855 32996 32997 0//// 10160 20112 4////
  333 20114 5////
  555 10000=
42770 22997 62701 10150 20113 40182 86220
  333 20120 58000 6007/
  555 00070 10007=
42679 21695 60000 10174 20157 40169 86300
  333 20154 58000 6005/
  555 00054 10005=
42715 31594 83201 10166 20156 39489 40151 74424 86520
  333 10252 20123 59005
  555 10009=
42771 32795 42301 10180 20164 40140 84040
  333 20190 59007
  555 10004=
0000012700
988
SAUK33 EGGY 101650 RRA
METAR EGNS 101650Z 32008KT 280V360 9999 -RADZ FEW010 SCT015 08/06
     Q1006 NOSIG=

0000012000
989
SAUK36 EGGY 101650 RRA
METAR EGWU 101650Z 22006KT 9999 FEW018 BKN090 OVC150 09/06 Q1013
     NOSIG=

0000015700
990
SAGC31 MWCR 101700
METAR MWCR 101700Z 11010KT 080V150 9999 FEW018 29/25 Q1017 NOSIG=
METAR MWCB 101700Z 11010KT 9999 FEW020 29/24 Q1018=

0000010100
991
SABH31 MZBZ 101700
METAR MZBZ 101700Z 04002KT 9999 FEW021 26/21 A3002 Q1016 NOSIG=

0000011700
992
SPCN51 CWAO 101657
SPECI CWUW 101657Z AUTO 13014KT 3SM FEW005 FEW086 M28/ A2890 RMK ICG
PAST HR=

0000010100
993
SABZ24 SBCR 101700
METAR SBCR 101700Z 05008KT 9999 FEW025 FEW030TCU
34/21 Q1009=

0000023800
994
SANL32 EHDB 101655
METAR EHEH 101655Z AUTO 23010KT 9999 SCT068 BKN081 06/04 Q1016 
BLU 23010KT 9999 FEW025 SCT060 BECMG FM1730 BKN009=
METAR EHKD 101655Z AUTO 23010KT 9999 NCD 07/05 Q1013 
BLU 22008KT 9999 FEW020=

0000008900
995
SABZ21 SBFZ 101700
METAR SBFZ 101700Z 09016KT 9999 SCT025 30/19 Q1010=

00000000