0000295300
469
WTIO30 FMEE 111212
RSMC / TROPICAL CYCLONE CENTER / LA REUNION
TROPICAL CYCLONE FORECAST WARNING (SOUTH-WEST INDIAN OCEAN)
0.A WARNING NUMBER: 9/6/20132014
1.A TROPICAL CYCLONE  6  (COLIN)
2.A POSITION 2014/01/11 AT 1200 UTC:
WITHIN 10 NM RADIUS OF POINT 16.6 S / 79.7 E
(SIXTEEN    DECIMAL SIX   DEGREES SOUTH AND SEVENTY NINE    DECIMAL
SEVEN   DEGREES EAST)
MOVEMENT : SOUTH-WEST 9 KT
3.A DVORAK ANALYSIS: 5.5/5.5/D 1.0/6 H
4.A CENTRAL PRESSURE: 967 HPA
5.A MAX AVERAGE WIND SPEED (10 MN): 85 KT
RADIUS OF MAXIMUM WINDS (RMW) :26 KM
6.A EXTENSION OF WIND BY QUADRANTS (KM):
28 KT NE: 220 SE: 220 SW: 170 NW: 170
34 KT NE: 90 SE: 130 SW: 110 NW: 90
48 KT NE: 60 SE: 70 SW: 70 NW: 60
64 KT NE: 50 SE: 50 SW: 50 NW: 50
7.A FIRST CLOSED ISOBAR (PRESSURE / AVERAGE DIAM): 1008 HPA / 800 KM
8.A VERTICAL EXTENSION OF CYCLONE CIRCULATION : DEEP
1.B FORECASTS:
12H: 2014/01/12 00 UTC: 17.7 S / 78.5 E, MAX WIND=085 KT, TROPICAL
CYCLONE
24H: 2014/01/12 12 UTC: 19.1 S / 76.9 E, MAX WIND=080 KT, TROPICAL
CYCLONE
36H: 2014/01/13 00 UTC: 20.7 S / 75.5 E, MAX WIND=075 KT, TROPICAL
CYCLONE
48H: 2014/01/13 12 UTC: 23.2 S / 73.6 E, MAX WIND=070 KT, TROPICAL
CYCLONE
60H: 2014/01/14 00 UTC: 25.2 S / 72.6 E, MAX WIND=060 KT, SEVERE
TROPICAL STORM
72H: 2014/01/14 12 UTC: 27.4 S / 72.3 E, MAX WIND=050 KT, SEVERE
TROPICAL STORM
2.B LONGER-RANGE OUTLOOK :
96H: 2014/01/15 12 UTC: 33.0 S / 77.1 E, MAX WIND=045 KT,
EXTRATROPICAL SYSTEM
120H: 2014/01/16 12 UTC: 40.3 S / 91.6 E, MAX WIND=035 KT,
EXTRATROPICAL SYSTEM
2.C ADDITIONAL INFORMATIONS:
T=CI=5.5-
THIS SYSTEM OF SMALL SIZE, HAS GONE THROUGH A RAPID INTENSIFICATION
DURING THE LAST 6 HOURS. AN EYE ALSO OF SMALL SIZE VISIBLE SINCE
06UTC HAS QUICKLY  WARMED UP. INTENSITY AT 00UTC, AND 06UTC HAS BEEN
REVIEWED RESPECTIVELY AT 3.5 AND 4.0.  DUE TO THE SIZE OF THE SYSTEM,
THE CONTRAINTS RULES OF 1.0 IN 6 HOURS HAS BEEN BROKEN.
THE SYSTEM IS TRACKING SOUTH-WESTWARD, ON THE NORTH-WESTERN EDGE OF
THE MID-TROPOSHERIC HIGH PRESSURES. DURING THE NEXT DAYS, IT IS
EXPECTED TO CONTINUE ON THIS REGULAR TRACK. FROM TUESDAY 14, THE
TRACK SHOULD RECURVE SOUTHWARD THEN SOUTH-EASTWARD TOWARDS A POLAR
TROUGH IN ITS SOUTH. THE AVAILABLE NWP MODELS ARE IN GOOD AGREEMENT
FOR THIS FORECAST TRACK. ECMWF ENSEMBLE MODEL SHOWS A VERY GOOD
CONFIDENCE FOR THIS TRACK.
ON THIS FORECAST TRACK, THE WIND-SHEAR CONSTRAINT IS EXPECTED TO
REMAIN WEAK  WEST OF THE UPPER LEVEL RIDGE. THE POLAR OUTFLOW CHANNEL
SHOULD ALWAYS BENEFIT TO THE SYSTEM FOR THE NEXT HOURS, AS THE SST
BEGIN TO WEAKEN TO BECOME MARGINAL TOMORROW.
THUS THE SYSTEM IS EXPECTED TO SLIGHTLY INTENSIFY UNTIL SUNDAY.FROM
MONDAY, ENVIRONMENTAL CONDITIONS WILL DEGRADE WITH COLDER SST AND THE
STRENGTHENING NORTH-WESTERLY WIND-SHEAR. THE SYSTEM MAY BEGIN TO
WEAKEN AND THEN UNDERGO A EXTRA-TROPICAL TRANSITION TUESDAY AND
WEDNESDAY.=
0000069800
470
SXXX32 EUMS 111206 RRQ
3601E29A
OT12 ID:DJ-BOUT-08 DT:2014 01 11 11 56
:RAD /1 01515 01523 01526 01533 01531 01532 01536 01536 01540 01547 01549 01553 01557 01564 01567 01567 01570 01574 01580 01586 01585 01596 01595 01603 01603 01610 01618 01620 01626 01633
:PR1 /1 01824 01821 01832 01838 01827 01829 01841 01846 01847 01849 01854 01848 01861 01873 01867 01871 01875 01881 01881 01887 01892 01895 01894 01905 01910 01913 01921 01931 01926 01931
:PR2 /1 00070 00052 00054 00086 00080 00089 00077 00083 00068 00081 00103 00084 00117 00103 00099 00104 00121 00125 00125 00126 00132 00125 00147 00141 00139 00160 00162 00168 00161 00181
:TM1 /15 260 260 260 260
:BAT 13.5V
0000070500
471
SXXX32 EUMS 111206 RRS
26F364EA

ST STHELENA
DT 11/01/14 11/01/14
TM 12:00:00 11:45:00
RD 10000 10000 10000 10000 10000 10000 10000 10000 10000 10000 10000 10000 10000 10000 10000 10000 10000 10000 10000 10000 10000 10000 10000 10000 10000 10000 10000 10000 10000 10000
P1 00649 00851 01196 00912 01032 01356 00840 01011 01431 00693 00752 00871 01100 00885 01184 00709 00898 01398 01008 00838 00932 01146 00881 01333 00811 00860 01311 00658 00663 01279
P2 00011 00015 00013 00013 00010 00085 00022 00017 00267 00015 00014 00013 00013 00014 00017 00017 00017 00096 00018 00020 00011 00017 00013 00098 00022 00010 00116 00015 00019 00013
T1 00.0 00.0
T2 22.8 22.8
VB 13.3
0000017000
472
SOVI10 KWAL 111216
B110070A 011121601 P9751095 B\P~W@@L0ekL1@mt???C}Ct>@lq3@\C~@t4DA5C~6b[9If<BM2?????@"??? nTLMKBnBvBvBbBnBp:AMPTEMP 26.22C  45+0NN 219E
0000070200
473
SXXX32 EUMS 111206 RRR
22E7E6D2
OT12 ID:ID-ROTE-11 DT:2014 01 11 12 04
:PRS /1 -10802 -10301 -10795 -10794 -10763 -//5///-10767 -10767 -10798 -10802 -10798 -10801 -10797 -10797 -10795 -10799 -10304 -10786 -10798 -10764 -10765 -10/6//.00666 -10795 -10796 -10794 -10793 -10795 -10792 -10793
:PR2 /1 04741 04756 04725 04753 04745 04736 04756 04778 04737 04763 04763 04746 04756 04758 04727 04743 04754 04754 04754 04748 04730 04703 04706 04726 04756 04723 04695 04705 04730 04744
:RAD /1 06358 06318 06310 06330 06318 06314 06314 06318 06302 06294 06330 06314 06314 06322 06318 06270 06282 06306 06306 06330 06318 06274 06254 06286 06262 06314 06350 06274 06258 06274
:BAT 12.4V/
0000067200
474
SXXX32 EUMS 111207 RRT
32CC9580
OT12 ID:ID-ENGG-07 DT:2014 01 11 12 06
:PRS /1 01639 01617 01628 01618 01629 01618 01591 01642 01603 01658 01613 01603 01580 01618 01589 01596 01565 01594 01593 01577 01565 01546 01606 01541 01575 01556 01601 01561 01582 01535
:PR2 /1 05074 05034 05060 05049 05070 05078 05037 05061 05046 05066 05068 05041 05030 05046 05030 05071 05036 05049 05019 05038 05030 05047 05052 04965 05014 05003 05040 04991 05025 04987
:RAD /1 05951 05960 05945 05946 05923 05960 05909 05937 05920 05941 05931 05906 05919 05919 05902 05934 05906 05923 05901 05901 05917 05889 05928 05872 05903 05877 05918 05881 05890 05865
:BAT 12.3V/
0000029100
475
SXXX32 EUMS 111209 RRU
166AC436
OT12 ID:IC-COMI-10 DT:2014 01 11 12 08
:RAD /1 05975 05962 05952 05939 05948 05945 05947 05934 05933 05940 05899 05914 05895 05921 05911 05906 05911 05897 05887 05875 05899 05892 05892 05881 05876 05851 05861 05851 05861 05849
:BAT 13.7V
0000039800
476
SXXX32 EUMS 111209 RRV
16590056
:PRS 1 /1 2231 2232 2235 2235 2238 2244 2249 2251 2256 2263 2265 2264 :RAD 1 /1 6513 6513 6517 6518 6520 6525 6529 6534 6539 6546 6546 6544 6547 6543 6546 6548 6541 6539 :ENC 6 /6 4753 4763 4752 4762 4774 4772 4792 4789 4792 4808 :ENB 6 /6 4750 4761 4749 4760 4772 4771 4791 4788 4791 4806 :SW1 9 /60 43 :SW2 36 /60 57 :BAT 5 /6 12.8 :NAME 16590056
0000045000
477
SXXX32 EUMS 111209 RRW
224AD678
:PRS 2 /1 2556 2555 2554 2554 2555 2554 2551 2538 2553 2555 2559 2568 2568 2550 2549 2551 2551 2546 2544 2542 2541 2543 2542 2541 2542 2543 2541 2537 2528 2528 :RAD 4 /3 5382 5379 5380 5378 5375 5372 5368 5362 5356 5352 5346 5341 5339 5333 5326 5319 5315 5312 5303 5296 :ENC 4 /5 8881 8877 8879 8871 8866 8860 8852 8845 8837 8829 8822 8812 :SW1 9 /60 0 :SW2 39 /60 0 :BAT 14 /15 12.3 :NAME 224AD678 /
0000069900
478
SXXX32 EUMS 111209 RRX
229C0324
OT12 ID:MZ-NIH2-09 DT:2014 81 11 11 51
:RID /1 06916 06903 06914 06918 06919 06912 06914 06919 06919 06917 06914 06919 06910 06917 06921 0691/ 06922 06916 06912 06916 06914 06913 06917 06915 86917 06915 06913 06919 06915 86915/
:PR1 /1 '////(///// ///// ///// ///// ///// ///// ///// ///// /'/// ///// ///// ///// ///// ///// '//// ///// ///// ///// ///// ///// ///// ///// ///// ///// '////(///// ///// ///// /////
:PR2 /1 ///// ///// ///// ///// ///// ///// ///// ///// ///// ///// ///// ///// ///// ///// ///// ///// ///// ///// ///'/ ///// ///// ///// ///// ///// ///// ///// ///// ////' ///// /////
:TM1 /15 /// /// /// ///
:BAT 13.7V
0000067100
479
SXXX32 EUMS 111210 RRX
366C76AC
OT12 ID:IR-CHAB-07 DT:2014 01 11 12 09
:RAD /1 01130 01132 01132 01150 01148 01153 01168 01177 01186 01187 01192 01193 01199 01199 01208 01215 01229 01238 01247 01259 01271 01274 01278 01282 01287 01289 01300 01310 01320 01333
:PR1 /1 01574 01573 01581 01585 01589 01606 01615 01629 01624 01641 01631 01652 01646 01654 01668 01673 01682 01697 01700 01711 01708 01709 01712 01713 01721 01727 01741 01745 01759 01769
:PR2 /1 01135 01142 01142 01151 01163 01165 01175 01183 01196 01196 01201 01199 01199 01212 01219 01222 01230 01244 01264 01265 01284 01277 01283 01278 01290 01297 01303 01321 01339 01344
:BAT 13.3V
0000037900
480
SXXX32 EUMS 111212 RRX
12FD90D0
:PRS 1 /1 1377 1373 1375 1367 1349 1340 1341 1348 1334 1337 1344 1355 :RAD 1 /3 5921 5909 5911 5929 5950 5957 5951 5946 5940 5939 :ENC 3 /6 5649 5646 5690 5685 5671 5688 5705 5736 5726 5702 :RA2 3 /6 4804 4808 4852 4843 4829 4851 4867 4897 4884 4862 :SW1 12 /60 54 :SW2 42 /60 60 :BAT 5 /6 13.2 :WTP 5 /6 28.3 28.3 :NAME 12FD90D0
0000036900
481
SXXX32 EUMS 111212 RRX
22E595B6
:PRS 1 /1 M 3686 3678 3701 3723 3681 3723 3742 3729 3759 3769 3739 3752 3734 3787 3811 3787 3785 3796 3798 3814 3807 3784 3809 3792 3796 3797 3801 3762 3793 :RAD 1 /3 6907 6930 6946 6958 6978 6982 6983 6974 6973 6969 :ENC 2 /5 5014 5055 5084 5110 5102 5087 :SW1 12 /60 0 :SW2 42 /60 60 :BAT 14 /15 12.6 :NAME 22E595B6 /
0000065100
482
SXXX32 EUMS 111212 RRX
16AF741C
OT12 ID:SA-MAIS-07 DT:2014 01 11 12 02
:RAD /1 09028 09061 09028 09120 09073 09098 09144 09162 09192 09045 09090 09035 09045 09094 09086 09081 09102 09086 09064 09060 09110 09150 09158 09111 09114 09037 09078 09204 09097 09026 09161 09086 09138 09136 09126 09015 09140 09032 09114 09159 09145 09168 09245 09049 09140 09135 09189 09129 09106 09078 09015 09047 09053 09134 09106 09185 09094 09084 09115 09185 09149 09098 09100 09197 09122 09131 09213 09131 09133 09150 09072 09129 09084 09142 09155 09135 08919 09158 09124 09120 09187 09093 09206 09090 09111 09102 09145 09109 09162 09165
:BAT 14.3V
0000012000
483
SMAA01 EDZW 111200
AAXX 11124
89002 42999 71206 10017 21037 39874 49927 52002 83031
333 10020 21076=
0000016900
484
SMBR01 TBPB 111200
AAXX 11124
78954 11462 60726 10243 20214 30106 40172 60042 76086 86800
  333 10282 20218 50760 58013 70060 82814 86636 90914=
/=
0000015700
485
SMDO01 TDPD 111200
AAXX 11124
78906 11476 31106 10248 20174 30165 40170 60022 7808/ 83400
  333 10289 20221 58009 70017 83818 90999=
/=
0000013000
486
SIRS22 RUMS 110900 CCB
AAXX 11091
27703 41397 82806 10013 21001 39689 49931 52027 76166 8872/ 333 86707
91012=
0000103100
487
SMCI01 BABJ 111200
AAXX 11121
50468 NIL=
50953 11960 80204 11197 21244 30121 40283 52015 69941 77070
88/// 333 92513=
51076 NIL=
51243 NIL=
51288 NIL=
51463 NIL=
51573 NIL=
51709 NIL=
52533 32980 01601 11063 21240 38654 40456 52010 333 00402=
52652 32980 01802 11119 21255 38676 40510 52009 333 00401=
52866 32965 32002 11083 21204 37775 52024 83/// 333 00603=
52983 NIL=
53463 42965 03405 11086 21243 38969 40418 52025 333 00204=
53513 NIL=
53588 32978 03212 11138 21245 37798 52007=
53772 32965 62903 10007 21203 39379 40346 52025 86///=
53915 32980 43402 11021 21226 38783 40405 52023 84/// 333
00601=
54218 32975 03203 11083 21204 39489 40353 52029=
54337 NIL=
54342 32965 72701 11046 21159 30215 40281 52010 87///=
54401 NIL=
54471 NIL=
54497 NIL=
54511 NIL=
54823 31956 01803 10032 21062 30087 40305 52008 70500=
56080 32970 73602 11114 21181 37186 52030 87/// 333 00451=
56096 32770 73602 10040 21111 39065 40350 52028 87/// 333
00600=
57083 NIL=
0000091900
488
SMCI02 BABJ 111200
AAXX 11121
56187 31935 73201 10061 20024 40325 52031 70500 87/// 333
00600=
56778 32980 02203 10131 21016 38134 52024 333 00251=
57265 NIL=
57461 31950 72702 10043 20008 30007 40330 52017 70500 87///=
57494 NIL=
57516 11411 82701 10074 20063 39994 40315 52029 69921 76085
88///=
57687 11358 83402 10047 20022 30235 40323 52016 69921 76066
88///=
57816 11410 80703 10016 20015 38864 40309 52025 69941 76060
88/// 333 00601=
58040 NIL=
58102 NIL=
58150 31926 01401 10001 21013 30310 40314 52005 71000=
58221 NIL=
58238 NIL=
58251 NIL=
58362 NIL=
58457 NIL=
58606 11450 80203 10049 20037 30239 40299 52012 69911 76060
88///=
58752 NIL=
58847 NIL=
59117 NIL=
59134 NIL=
59287 NIL=
59316 NIL=
59431 11417 80201 10117 20111 30095 40244 52023 69911 76060
88///=
59644 319// 00702 10193 20156 30205 40222 52022 70500=
59758 NIL=
00000000