0000011800
136
SACN62 CYBR 101600
METAR CYBR 101600Z 30003KT 1/4SM FZFG OVC230 M15/M16 A2939 RMK FG7CI1
 SLP992=

0000011900
137
SACN62 CYBK 101600
METAR CYBK 101600Z 28014KT 20SM IC FEW030 M31/M35 A2963 RMK SC1
 PRESRR SLP038=

0000011700
138
SACN62 CYBL 101600
METAR CYBL 101600Z 28002KT 20SM FEW030 BKN230 00/00 A2992 RMK SC2CI4
 SLP136=

0000011400
139
SACN62 CYCS 101600
METAR CYCS 101600Z 29017KT 15SM DRSN FEW040 M30/M34 A2954 RMK SC2
 SLP006=

0000012800
140
SACN62 CYCG 101600
METAR CYCG 101600Z 19013KT 15SM FEW005 SCT030 OVC041 01/M00 A2975 RMK
 SF2SC2SC4 SLP091=

0000048700
141
FTAP32 FAPR 101602 CCA
TAF COR FAOR 101600Z 1018/1124 23008KT CAVOK
         PROB30 TEMPO 1018/1022 -TSRA FEW045CB
         BECMG 1022/1024 17005KT
         BECMG 1100/1102 10007KT BKN015
         PROB30 TEMPO 1102/1106 04015KT 5000 BR BKN006
         BECMG 1108/1110 34012KT BKN035
         PROB40 TEMPO 1110/1118 5000 TSRA FEW030CB
         PROB30 TEMPO 1118/1123 -TSRA FEW035CB
         BECMG 1120/1122 04007KT CAVOK
         TX27/1113ZTN15/1103Z=

0000025800
142
FTCN33 CWAO 101600 AAA
TAF AMD CYLT 101604Z 1016/1024 20020G30KT P6SM FEW130 TEMPO 1016/1021
     1SM IC BLSN VV005
     BECMG 1019/1021 18012KT
    FM102100 18012KT P6SM SKC TEMPO 1021/1024 3SM IC BLSN
    RMK NXT FCST BY 101800Z=

0000011600
143
SACN62 CYEV 101600
METAR CYEV 101600Z 28012KT 6SM IC DRSN FEW046 M25/M28 A2968 RMK SC2
 SLP062=

0000041300
144
SANK31 MNMG 101600
METAR 
MNPC 101600Z 08008KT 6000 VCRA BKN016TCU 29/24 Q1013
                                    TCURA NW/W/SW/W 77?=
MNRS 101600Z 07012KT 9999 FEW018 28/22 Q1013=
MNJG  101600Z 00000KT 5000 -DZ BKN018 20/16 Q1015=
MNJU  101600Z 07006KT 9999 FEW020 30/22 Q1014=
MNCH 101600Z 26004KT 8000 SKC 29/16 Q1013 FU=
MNBL  101600Z 02004KT 4000 +DZ BKN017 26/24 Q1015 89?=

0000011600
145
SMNO02 ENMI 111200 RRB
AAXX 11121
01218 16/// /1602 11044 21085 39977 49999 50006 60001 333 91107=
0000181200
146
SMTH43 VTBB 111200
AAXX 11124
48307 31958 00000 10213 20174 39773 40159 52011 71000 
  333 10297 58011=
48324 32960 20403 10247 20199 39921 40142 52010 80005
  333 10325 58007=
48333 31958 00000 10235 20170 39848 40152 52011 71000 
  333 10307 58012=
48350 32960 00000 10210 20160 39852 40157 52013 
  333 10293 58006=
48355 32962 00000 10240 20157 39936 40157 50016 
  333 10300 59002=
48358 31958 10000 10232 20176 39991 40169 52019 71000 80001
  333 10300 59001=
48384 31958 00000 10240 20167 39951 40144 51010 70500 
  333 10308 58006=
48401 31958 30402 10275 20148 30043 40150 52013 70511 80005
  333 10320 58007=
48404 32560 20000 10248 20171 39971 40150 52015 81135
  333 10303 58007=
48409 31959 00000 10255 20201 30003 40151 52018 71000 
  333 10305 58013=
48419 31958 33002 10289 20208 30127 40135 52011 70511 80005
  333 10337 58004=
48427 31957 20000 10247 20192 30127 40135 52009 71022 80005
  333 10309 58002=
48435 31957 10000 10244 20139 39705 40144 52011 70500 80001
  333 10298 58003=
48453 32560 30405 10290 20195 30123 40126 52010 81105
  333 10322 59002=
48458 32960 60000 10278 20195 30066 40147 52013 81036
  333 10328 58001=
48474 31958 20000 10267 20189 30009 40133 52014 70500 80005
  333 10316 58002=
48481 31958 20000 10268 20197 30103 40131 52015 71000 82041
  333 10343 58001=
48555 31457 50000 10252 20228 30111 40154 51019 71011 82146
  333 10312 58010=
48556 32560 50000 10275 20239 30090 40106 52002 82206
  333 10315 59008=
48557 31558 60000 10270 20230 30088 40123 52015 71022 83206
  333 1//// 58007=
48560 31558 80000 10265 20246 30122 40127 52015 71022 82236
  333 10294 58009 70114=
48574 32560 60000 10274 20224 30088 40118 52009 82146
  333 10308 58007=
48581 NIL=
0000029200
147
SMAK01 KWBC 111200
AAXX 11124
70026 NIL=
70133 NIL=
70174 NIL=
70200 NIL=
70219 NIL=
70231 NIL=
70261 NIL=
70267 NIL=
70271 NIL=
70273 NIL=
70308 NIL=
70316 NIL=
70326 NIL=
70340 NIL=
70350 NIL=
70361 NIL=
70381 NIL=
70398 NIL=
70414 NIL=
0000135200
148
UAPS01 NZKL 111200
AIREP
HAL446 3706S 17430E 1116 F065 PS09 168/05=
ANZ289 3630S 17424E 1109 F104 PS02 224/06=
ANZ87 3700S 17400E 1142 F107 PS03 211/06=
ACI801 2124S 16542E 1131 F117 PS08 350/02=
ANZ2 3106S 17642W 1113 F310 MS37 287/48=
ANZ6 0636S 15800W 1120 F310 MS34 202/11=
ANZ2 2900S 17412W 1135 F310 MS31 323/58=
ANZ289 3130S 17148E 1152 F310 MS40 274/34=
ANZ2 2654S 17154W 1156 F310 MS31 336/27=
ANZ289 3054S 17130E 1157 F310 MS40 275/36=
ANZ1 0124S 15248W 1135 F320 MS37 236/22=
ANZ3 0706S 15442W 1100 F340 MS41 176/11=
ANZ7 0824S 15342W 1113 F340 MS42 207/17=
ANZ3 0836S 15554W 1114 F340 MS42 207/09=
ANZ7 0836S 15354W 1116 F340 MS42 201/19=
ANZ3 0900S 15612W 1118 F340 MS42 144/11=
DAL417 0130S 15806W 1126 F340 MS41 197/28=
ANZ7 0954S 15454W 1127 F340 MS42 182/13=
ANZ3 1006S 15700W 1128 F340 MS42 154/13=
ANZ3 1006S 15700W 1129 F340 MS42 158/11=
ANZ7 1048S 15548W 1137 F340 MS42 167/14=
ANZ7 1118S 15606W 1141 F340 MS42 165/12=
ANZ7 1142S 15642W 1146 F339 MS42 223/10=
DAL417 0312S 16018W 1147 F340 MS40 198/26=
QFA8 0024S 14824W 1154 F339 MS40 291/39=
ANZ8 0524S 17212W 1106 F350 MS42 162/22=
HAL466 0924S 16854W 1115 F350 MS43 194/17=
ANZ84 0924S 16736W 1115 F350 MS42 180/24=
LAN801 5530S 15830W 1119 F350 MS48 214/07=
HAL466 0642S 16748W 1137 F350 MS42 161/22=
0000089500
149
UAPS01 NZKL 111200 RRA
AIREP
ANZ84 0642S 16600W 1137 F350 MS42 175/39=
HAL446 3436S 17500E 1137 F350 MS50 268/33=
HAL446 3418S 17506E 1139 F350 MS50 274/35=
HAL466 0512S 16706W 1149 F350 MS43 189/25=
HAL466 0506S 16706W 1150 F350 MS43 187/25=
ANZ84 0400S 16436W 1158 F350 MS42 195/36=
HAL446 3148S 17536E 1158 F350 MS50 285/55=
ANZ3 1118S 15800W 1140 F359 MS47 185/11=
CSN306 3312S 16812E 1109 F360 MS53 281/46=
SQC7295 3812S 17018E 1120 F360 MS54 271/24=
SQC7295 3824S 16648E 1141 F360 MS52 230/26=
ANZ83 0100S 17412W 1151 F360 MS43 174/21=
CSN306 3024S 16254E 1152 F360 MS51 294/45=
ANZ7 1248S 15748W 1158 F360 MS48 206/11=
AVN11 2124S 16300E 1114 F370 MS48 250/65=
HAL452 2648S 16100E 1139 F370 MS52 282/72=
HAL452 2524S 16230E 1153 F370 MS52 274/86=
QFA7627 3548S 15806E 1102 F410 MS54 160/60=
QFA7627 3630S 16300E 1136 F410 MS55 160/27=
0000019000
150
SNAA01 KARS 111100 RRD
AAXX 1111/
89329 46/// ///// 11118 38800 4//// 5//// 91110=
89879 46/// ///// 10006 39895 4//// 5////=
89314 46/// ///// 11111 38287 4//// 5////=
0000008400
151
SMAK20 KWBC 111200
AAXX 11124
70251 NIL=
70264 NIL=
70341 NIL=
0000017500
152
SMAK31 KWBC 111200
AAXX 11124
70179 NIL=
70194 NIL=
70232 NIL=
70264 NIL=
70267 NIL=
70271 NIL=
70321 NIL=
70333 NIL=
70340 NIL=
70343 NIL=
0000007100
153
SMCA01 KWBC 111200
AAXX 11124
78526 NIL=
78543 NIL=
0000008000
154
USAA01 KWBC 111200
TTAA 6112/ 89009 NIL=
TTAA 6112/ 89664 NIL=
0000101600
155
SMVD15 KWNB 111200 RRG
BBXX
41046 11121 99238 70683 46/// /1111 10244 20205 40228 53012 91150
22200 00259 10806 20806 70029 333 91213 555 11117 22124 31149
41113 61149 104110 096099 088098 094091 094087 093089 81112 91149=
42060 11121 99163 70632 46/// /0910 10263 40174 53017 91150 22200
00267 11004 20503 308// 41002 70020 333 91212 555 11106 22112
31146 40812 61149 084098 076092 079092 076089 074095 079095 80911
91143=
44064 11121 99370 70760 46/// /1405 10106 40135 56032 91200 22200
00075 10301 70004 333 91207 555 11054 22059=
44062 11121 99386 70764 46/// /1602 10046 40128 58029 91200 22200
00030 1//00 70001 333 91204 555 11028 22030=
44063 11121 99390 70764 46/// /1102 10022 40111 56037 91200 22200
00015 1//00 70000 333 91203 555 11027 22029=
44041 11121 99372 70768 46/// /1405 10134 91200 22200 00044 1//00
70001 333 91205 555 11052 22057=
44042 11121 99380 70763 46/// /1707 10092 40118 58015 91200 22200
00039 10301 70006 333 91208 555 11076 22083=
00000000