0000095000
429
UKMV01 VRMM 111200
TTBB 61118 43599
00010 30056 11010 28256 22009 27256 33004 26456 44854 16019
55738 10806 66666 05600 77647 03600 88645 02614 99634 04656
11622 04458 22616 04456 33586 01236 44564 01156 55540 01961
66507 05160 77497 05768 88478 07364 99423 13961 11409 15764
22391 15972 33376 17163 44371 17961 55351 21563 66349 21758
77349 21763 88307 30954 99297 32155 11291 32961 22254 41135
33246 42557 44224 47959 55217 49549 66205 52758 77191 56950
88185 58960 99173 62357 11167 64520 22158 67356 33145 68361
44143 68761
21212 11010 04003 22792 29510 33774 28015 44733 31010 55667
29513 66642 31512 77628 36011 88628 36011 99608 02516 11554
02013 22540 04013 33536 04514 44500 04521 55474 06521 66424
05533 77409 06036 88374 07018 99343 07521 11313 09519 22303
11521 33248 11021 44212 13534 55158 10540 66156 10039 77147
08021 88137 01510 99133 33506 11129 29510 22114 31011 33105
30510 31313 49
0000011000
430
UANT99 KDDL 111223
ARP KLM723 5201N01915W 1223 F380 MS61 219/56 KT
PHAOA QXT AOE 111223 J21A
0000068900
431
UDEU02 EGRR 111226 RRE
AMDAR 1112
DES EU0191   5049N 00325W 111208 F163 MS207 278/042 TB/ S031=
DES EU0191   5057N 00323W 111209 F140 MS167 276/031 TB/ S031=
DES EU0191   5105N 00322W 111211 F118 MS130 278/023 TB/ S031=
DES EU0191   5113N 00320W 111212 F099 MS082 295/025 TB/ S031=
DES EU0191   5115N 00309W 111214 F085 MS045 296/031 TB/ S031=
DES EU0191   5117N 00257W 111215 F071 MS027 311/034 TB/ S031=
DES EU0191   5120N 00246W 111217 F061 MS017 297/031 TB/ S031=
DES EU0191   5121N 00236W 111218 F044 MS005 325/022 TB/ S031=
DES EU0191   5122N 00226W 111220 F033 PS012 310/022 TB/ S031=
DES EU0191   5125N 00228W 111221 F028 PS015 307/018 TB/ S031=
0000113000
432
SMVB11 RJTD 111200
BBXX
A8ZE4   11124 99304 11225
41/98 /0615 10100 20061 40310 57010 76666 8////
22200 04105 20001 80080=
ELVL8   11123 99239 11184
41497 50418 10170 20125 40230 55010 70211 83200
22212 00170 20302 30305 40303 50404 80143=
SHIP    11124 99320 11352
41/98 /1413 10100 20037 40288 51011 8////
22214 00200 80070=
SHIP    11124 99059 10964
41697 70610 10270 20228 40123 53011 70222 86246
22224 00290 20403 334// 40403 80240=
SHIP    11124 99492 11565
41/96 /3135 11010 21010 49951 51055 72077 88/// 91200
22264 00070 1//// 2////5 3//// 4//// 5//// 6/// /81010 /////=
H9XE    11124 99311 11412
41698 70116 10030 21055 40260 52030 70211 86145
22243 00120 20202 30606 40202 50202 80000=
SHIP    11124 99492 11565
41/96 /3135 11010 21010 49951 51055 72077 88/// 91200
22264 00070 1//// 2////5 3//// 4//// 5//// 6/// /81010 /////=
SHIP    11124 99163 11138
41597 40105 10240 20211 40191 54/// 84333
22254 00270 301// 40206 80220=
DDZA2   11123 99359 11209
41/97 /2413 10050 20028 40310 54000 71244 8////
22200 04090 20501 323// 40303 80040=/=, Country=
0000160600
433
SMBW40 VGDC 111200 RRA
AAXX 11124
41858 11430 82706 10170 20120 30116 40163 69905 70562
8452/ 333 10185 56699 58011 79999 84615 88458=
41863 11450 60000 10156 20150 30109 40154 69904 70502
85520 333 10172 56990 58009 79990 85618 86458=
41886 31440 83202 10195 20120 30133 40154 70520 8352/
333 10246 56999 58015 70000 83618 88460=
41895 11450 83602 10180 20130 30140 40163 69904 70562
8452/ 333 10230 56899 58015 79999 84616 88458=
41915 31956 00000 10190 20150 30127 40153 333 10271
58000 70000=
41926 31950 43602 10190 20140 30149 40162 70520 84030
333 10256 56090 58016 70000 84362=
41929 31950 00000 10208 20150 30143 40152 70500 333
10260 58008 70000=
41933 31930 00000 10238 20140 30137 40146 70500 333
10270 59001 70000=
41939 31950 00000 10188 20150 40157 70500 333 10266
58003 70000=
41941 31950 03602 10214 20140 30133 40139 70500 333
10265 58000 70000=
41946 31950 00000 10210 20160 30141 40146 70500 333
10260 58015 70000=
41947 31950 00000 10210 20130 30142 40144 70500 333
10268 58000 70000=
41953 31930 00000 10210 20170 30132 40138 70500 333
10265 58000 70000=
41960 31950 00000 10213 20160 30149 40151 70500 333
10290 58003 70000=
41963 31930 10000 10204 20170 30139 40142 70511 81500
333 10292 56900 58006 70000 81618=
41964 31940 00000 10211 20120 30152 40155 70500 333
10289 58004 70000=
41965 31950 00000 10190 20150 30136 40144 70500 333
10295 58004 70000=
41984 32950 00000 10220 20150 30136 40139 333 10286
58009 70000=
41989 31920 00000 10220 20200 30141 40144 70500 333
10270 58014 70000=
0000190500
434
UDEU02 EGRR 111226 RRF
AMDAR 1112
ASC EU0430   5440N 00613W 111203 F010 MS010 245/010 TB/ S031=
ASC EU0430   5439N 00612W 111203 F018 PS012 281/021 TB/ S031=
ASC EU0430   5438N 00610W 111203 F023 PS005 285/021 TB/ S031=
ASC EU0430   5437N 00609W 111203 F027 MS002 286/020 TB/ S031=
ASC EU0430   5436N 00607W 111203 F038 MS020 279/019 TB/ S031=
ASC EU0430   5435N 00606W 111203 F050 MS050 282/019 TB/ S031=
ASC EU0430   5434N 00604W 111203 F058 MS072 284/020 TB/ S031=
ASC EU0430   5433N 00603W 111203 F065 MS077 274/023 TB/ S031=
ASC EU0430   5432N 00601W 111203 F076 MS095 281/025 TB/ S031=
ASC EU0430   5430N 00559W 111203 F096 MS117 295/034 TB/ S031=
ASC EU0430   5428N 00555W 111204 F108 MS132 306/046 TB/ S031=
ASC EU0430   5425N 00549W 111204 F119 MS147 303/052 TB/ S031=
ASC EU0430   5423N 00543W 111204 F139 MS185 299/054 TB/ S031=
ASC EU0430   5420N 00536W 111205 F156 MS230 288/061 TB/ S031=
ASC EU0430   5418N 00530W 111205 F172 MS267 294/061 TB/ S031=
ASC EU0430   5415N 00523W 111205 F189 MS305 295/069 TB/ S031=
ASC EU0430   5413N 00516W 111206 F203 MS330 298/075 TB/ S031=
ASC EU0430   5410N 00509W 111206 F220 MS367 295/075 TB/ S031=
ASC EU0430   5407N 00502W 111206 F234 MS392 295/082 TB/ S031=
ASC EU0430   5404N 00455W 111207 F247 MS430 294/089 TB/ S031=
ASC EU0430   5402N 00447W 111207 F259 MS460 295/091 TB/ S031=
ASC EU0430   5400N 00439W 111207 F270 MS490 295/092 TB/ S031=
ASC EU0430   5358N 00431W 111208 F281 MS517 299/093 TB/ S031=
ASC EU0430   5355N 00423W 111208 F292 MS545 304/094 TB/ S031=
ASC EU0430   5353N 00415W 111208 F296 MS555 304/089 TB/ S031=
ASC EU0430   5350N 00406W 111209 F307 MS547 295/077 TB/ S031=
ASC EU0430   5348N 00358W 111209 F315 MS565 287/084 TB/ S031=
ASC EU0430   5346N 00349W 111209 F323 MS580 284/090 TB/ S031=
ASC EU0430   5343N 00340W 111210 F328 MS582 284/099 TB/ S031=
0000068900
435
UDEU02 EGRR 111226 RRG
AMDAR 1112
ASC EU3908   6012N 01105E 111223 F010 MS068 131/003 TB/ S031=
ASC EU3908   6013N 01106E 111223 F012 MS066 120/004 TB/ S031=
ASC EU3908   6013N 01106E 111223 F015 MS073 094/004 TB/ S031=
ASC EU3908   6013N 01106E 111223 F018 MS079 105/006 TB/ S031=
ASC EU3908   6013N 01106E 111223 F021 MS088 100/006 TB/ S031=
ASC EU3908   6014N 01106E 111223 F023 MS093 099/008 TB/ S031=
ASC EU3908   6014N 01106E 111223 F024 MS096 104/008 TB/ S031=
ASC EU3908   6014N 01106E 111223 F025 MS100 109/010 TB/ S031=
ASC EU3908   6014N 01106E 111224 F026 MS103 118/009 TB/ S031=
ASC EU3908   6015N 01107E 111224 F029 MS104 123/011 TB/ S031=
0000009600
436
SMVD11 RJTD 111200
BBXX
SHIP    11124 99152 71518
41/97 60917 84///
22264=
0000066100
437
UDAF01 FAPR 111223
AMDAR 1112
LVR AFZA49 2336S 02723E 111200 F390 MS522 295/026 TB0 S031 333 F/// VG011=
LVR AFZA49 2429S 02724E 111208 F390 MS525 295/030 TB0 S031 333 F/// VG011=
LVR AFZA49 2522S 02735E 111215 F288 MS269 300/033 TB0 S031 333 F/// VG008=
DES AFZA49 2556S 02757E 111221 F186 MS072 311/013 TB0 S031 333 F/// VG009=
DES AFZA49 2600S 02800E 111221 F162 MS025 234/006 TB0 S031 333 F/// VG009=
DES AFZA49 2603S 02802E 111222 F141 PS007 234/013 TB0 S031 333 F/// VG008=
DES AFZA49 2603S 02802E 111222 F139 PS012 236/012 TB0 S031 333 F/// VG016=
DES AFZA49 2609S 02805E 111223 F118 PS055 261/014 TB0 S031 333 F/// VG009=
0000032200
438
UKCN05 CWAO 111200
TTBB  61128 71925 00990 33533 11989 31750 22976 30335 33953
29726 44845 34148 55775 34750 66762 33757 77733 34158 88703
34356 99580 42141 11571 40960 22538 41966 33455 45771 44357
52170 55270 56970 66240 55576 77178 58379 88124 65774 99118
64774 11100 66973 31313 48008 81117=

0000031600
439
UGCN05 CWAO 111200
PPBB  61128 71925 90012 26010 28517 28020 90346 28017 23519
24524 90789 25028 24031 23530 91024 23531 24036 23541 91689
23541 23042 23547 92045 23546 25532 24536 929// 22531 93013
24529 26533 25528 93457 27023 26025 25522 939// 28029 94036
26027 29527 26530 949// 29535=

0000032200
440
USCN05 CWAO 111200
TTAA  61121 71925 99990 33533 26010 00548 ///// ///// 92507
30544 28019 85103 33749 25014 70462 34556 24031 50476 43369
23543 40625 48970 24045 30811 54770 24532 25927 56574 25031
20068 57379 26025 15248 61777 26529 10496 67173 29535 88270
56970 22532 88124 65774 27523 77999=

0000032200
441
USMI01 GABS 111200
TTAA 61111 61291
99971 31279 12008 00114 ///// ///// 92804 25878 10517
85543 21474 09507 70184 10267 10514 50589 08743 19516
40758 20159 24525 30966 34762 27057 25090 44171 27569
20236 57561 28572 15415 61177 25559 10656 79565 20025
88101 79766 21025
77215 28074 40515=
??=
0000174200
442
SMCI05 BABJ 111200
AAXX 11121
50353 32970 03404 11261 21331 30045 40300 52001=
50557 32970 02701 11296 21347 39985 40336 52016=
50756 32960 03202 11262 21318 39969 40305 52007=
50949 32965 00705 11173 21205 30095 40283 52027=
50963 11962 62702 11195 21211 30108 40262 57002 69911 72270
86/// 333 92539=
50978 32975 72903 11142 21217 39872 40239 57014 87///=
51087 32980 01601 11170 21202 39381 40458 57007 333 05403=
51156 32980 03401 11110 21206 38801 40412 57006 333 05301=
51644 32960 02501 11054 21126 39090 40449 54000 333 00200=
51656 31934 02502 11060 21143 39270 40443 57001 70500 333
00100=
51886 33/// 90902 11085 21259 37156 52009 333 00452=
52602 32980 02708 11122 21306 37315 52006 333 00400=
52713 32980 70701 11131 21241 36948 52012 87/// 333 00452=
52754 32973 50403 11132 21186 36805 52014 85/// 333 00301=
52818 32968 73201 11074 21250 37291 52013 87/// 333 00500=
52836 32964 72502 11121 21211 36934 52011 87/// 333 00302=
52955 32980 02201 11135 21217 36994 52013 333 00352=
53068 32973 03203 11151 21265 39188 40433 52021 333 00601=
53276 32980 02703 11145 21249 38970 40428 52024=
54135 32980 03205 11086 21220 30072 40311 52030=
54236 32962 03403 11069 21212 30179 40293 52017=
54539 31900 02702 11036 21044 30286 40299 52018 74240=
54662 32960 02204 10011 21074 30176 40294 52005=
54753 31908 01601 11011 21046 30295 40303 52007 72840=
54857 31937 02001 10027 21015 30211 40309 52005 70500=
57067 32960 60000 10011 21069 39636 40344 52025 86///=
57178 32961 72504 10048 21037 30097 40325 52021 87///=
57245 11962 71601 10043 20010 39986 40351 52028 69901 70060
87/// 333 00501=
57297 31933 83401 10051 21025 30169 40315 52015 70500 88///=
0000003900
443
SMVE11 RJTD 111200
NIL=
0000003900
444
SMVX11 RJTD 111200
NIL=
0000013600
445
SMVS40 VNNN 111200
AAXX 11121
48838 32698 80901 10177 20153 30212 40219 52017 885// 333 00017 10190 58011 70000 88696=
0000020200
446
SMNZ01 NZKL 111200 RRA
AAXX 11124
93800 16/// /0525 10121 20111 40092 57032 60131=
93805 16/// /3628 10132 20106 40003 57047 60021=
93947 16/// /2809 10070 20050 49920 57017 60021=
0000126600
447
USDL01 EDZW 111200
TTAA 11111 10035
99002 05008 23007 00063 05413 22508 92696 01003 24521
85372 01905 27018 70896 09716 26516 50542 24908 24519
40700 37535 24524 30893 50961 24533 25010 56362 24533
20153 51775 26524 15339 51977 28019 10600 54377 29016
88256 56960 25033
77310 25034 40602
31313 48008 81045=
TTAA 11111 10410
99997 06429 22004 00124 ///// ///// 92758 03457 26016
85438 00960 26016 70962 08738 27514 50550 24961 26525
40708 35958 25528 30902 49557 24536 25019 55962 25036
20160 54974 25023 15345 51787 26518 10606 54986 27009
88222 58568 24529
77272 25040 40510
31313 48108 81045=
TTAA 11111 10739
99981 03006 32501 00163 ///// ///// 92796 06026 25007
85485 02206 25514 70032 06509 27021 50557 24138 25026
40716 37150 25530 30911 49149 28519 25028 57956 29021
20168 57571 26522 15351 54377 26513 10610 55979 26511
88229 62157 28521 88109 55779 29010
77399 25530 40717
31313 48108 81045=
TTAA 11111 10868
99960 03618 06501 00152 ///// ///// 92791 07056 23003
85485 04258 27007 70037 05712 25521 50559 23946 27024
40718 35333 26026 30912 51356 25531 25028 59558 26028
20168 58178 27024 15350 54387 27019 10609 57186 28511
88246 59960 26028
77352 26034 40803
31313 48108 81045=
0000124800
448
USDL02 EDZW 111200
TTAA 11111 10113
99007 05811 21506 00069 05212 22011 92702 02202 25523
85381 01302 26018 70908 09517 25519 50542 25772 25028
40700 38150 23530 30892 51359 24035 25009 54366 24534
20154 49378 26018 15341 51180 27518 10603 54978 28013
88279 54359 24036
77284 24037 40406
31313 48108 81045=
TTAA 11111 10184
99010 05412 22005 00081 04818 22010 92712 01002 26515
85389 02318 26515 70907 10711 25517 50543 25935 28509
40701 36133 25513 30895 49346 26025 25013 56759 27034
20153 55575 27529 15338 52983 28021 10599 56582 29518
88230 59562 26533
77249 27034 40909
31313 48008 81054=
TTAA 11111 10393
99000 05650 22005 00114 05450 22005 92746 02234 26512
85424 01956 25513 70943 10771 25517 50546 24379 24525
40705 34167 24030 30900 48767 24522 25018 55362 28012
20159 60168 27025 15342 54382 30020 10601 56182 29016
88206 60967 26521
77372 24531 40508
31313 48008 81045=
TTAA 11111 10548
99964 00600 18502 00149 ///// ///// 92777 01010 22010
85453 02328 25015 70981 09106 27020 50551 25348 25530
40710 34350 28523 30905 49150 28521 25022 57743 28521
20163 56376 29018 15346 53585 27014 10606 53787 28513
88233 60550 28021
77499 25530 40313
31313 48108 81045=
00000000