0000013900
169
SSVX02 CWAO 111200
ZZYY 64712 11014 1200/ 169586 009951 6113/ 22219 
00061 444 20130 11014 1200/ 50101 80134 80003 9/015=
0000013900
170
SSVX02 CWAO 111200
ZZYY 64736 11014 1200/ 168577 005589 6113/ 22219 
00066 444 20130 11014 1200/ 50101 80140 80002 9////=
0000016000
171
SSVX02 CWAO 111200
ZZYY 56502 11014 1200/ 330969 098386 6113/ 11119 
40181 57007 22219 00230 444 20130 11014 1200/ 50101 80144 80015 
9/015=
0000013900
172
SSVX02 CWAO 111200
ZZYY 64725 11014 1200/ 170997 025396 6113/ 22231 
00052 444 20130 11014 1200/ 50101 80138 80002 9////=
0000012700
173
SSVX02 CWAO 111200
ZZYY 48741 11014 1200/ 174197 157360 6113/ 444 
20130 11014 1200/ 50101 80134 80002 9////=
0000013900
174
SSVX02 CWAO 111200
ZZYY 64728 11014 1200/ 765142 008705 6113/ 22219 
00027 444 20130 11014 1200/ 50101 80140 80005 9/015=
0000016000
175
SSVX02 CWAO 111200
ZZYY 56540 11014 1200/ 554179 177404 6113/ 11119 
40000 57002 22219 00115 444 20130 11014 1200/ 50101 80136 80011 
9/015=
0000016000
176
SSVX02 CWAO 111200
ZZYY 56948 11014 1200/ 316038 090409 611// 11119 
40121 52011 22219 00276 444 20130 11014 1200/ 50101 80144 80011 
9/015=
0000016000
177
SSVX02 CWAO 111200
ZZYY 56947 11014 1200/ 331639 105883 6113/ 11119 
40176 52005 22219 00211 444 20130 11014 1200/ 50101 80142 80016 
9/015=
0000054900
178
SAER32 OMAE 111200
METAR OMAA 111200Z 25003KT 200V310 CAVOK 23/10 Q1018 A3006 NOSIG=
METAR OMAD 111200Z 29005KT 9999 -RA FEW045 22/12 Q1018 A3008 NOSIG=
METAR OMAL 111200Z 20007KT CAVOK 21/09 Q1019 A3011 BECMG 27008KT=
METAR OMDB 111200Z 25007KT CAVOK 23/10 Q1020 NOSIG=
METAR OMDW 111200Z 23008KT CAVOK 22/10 Q1020 NOSIG=
METAR OMFJ 111200Z 13006KT 100V160 9999 FEW020 SCT100 21/10 Q1018
A3008=
METAR OMRK 111200Z 10003KT 9999 FEW040 22/10 Q1019 A3011=
METAR OMSJ 111200Z 25006KT 210V310 9999 -RA SCT040 22/10 Q1020=
0000012400
179
SAUZ31 UTTW 111200 RRB
METAR UTFN 111200Z VRB01MPS 0800 R28/0800N FZFG NSC M04/M05 Q1025
R28/CLRD70 NOSIG=
0000011700
180
SAUZ31 UTTW 111200 RRC
METAR UTFA 111200Z 00000MPS 0900 R04/0900 FZFG NSC M03/M04 Q1025
R88/09//70=
0000012700
181
SAUZ31 UTTW 111200 RRD
METAR UTFF 111200Z 25002MPS 220V0550 0550 R18/0550N FZFG NSC M02/M04
Q1024 R18/CLRD70=
0000016000
182
SSVX05 CWAO 111200
ZZYY 44690 11014 1200/ 754278 051981 6113/ 11119 
40062 52014 22219 00035 444 20130 11014 1200/ 50101 80142 80001 
9////=
0000014800
183
SMAL50 DAMM 111200 RRA
AAXX 11124
60661 36/// /2402 10211 21082=
60677 36/// /0000 10184 21051=
60679 36/// /1808 10143 21172=
0000028400
184
UGCN01 CWAO 111200
PPBB  61128 71802 90012 26010 27025 27541 90346 30034 29528
29034 90789 29036 27527 26524 91124 27026 29525 30539 9156/
28546 29049 92025 29056 29547 29552 93034 30557 30570 31564
9357/ 31061 29557 94149 29558 30074 28554 9502/ 28560 28563=

0000055800
185
UKCN01 CWAO 111200
TTBB  61128 71802 00006 03324 11948 06718 22942 06538 33941
06548 44933 02980 55929 02572 66925 02357 77923 02356 88848
05545 99842 05364 11826 04791 22813 04372 33763 08364 44759
08362 55740 08761 66602 22724 77562 25517 88555 24748 99550
24937 11536 25957 22526 25165 33509 27164 44471 31368 55464
30577 66462 30779 77377 42172 88330 50550 99316 52361 11305
54363 22263 60960 33226 64760 44191 61570 55186 62171 66180
62171 77176 59772 88164 59575 99133 61576 11105 59178 22100
59978 31313 48008 81115=

0000031000
186
USCN01 CWAO 111200
TTAA  61121 71802 99006 03324 26010 00163 03533 26521 92776
02357 30034 85443 05542 29527 70953 12759 27024 50543 28364
29049 40700 38376 29550 30890 55162 30056 25005 62560 30569
20142 62567 30059 15321 60976 29571 10573 59978 28563 88226
64760 31060 77143 30074=

0000007600
187
SMAL51 DAMM 111200 RRA
AAXX 11124
60595 36/// /0000 11451=
0000027500
188
SXHW11 KWAL 111222
15D142A4 011122202":PRS 1 #1 1751 1772 1754 1767 1765 1747 1758 1752 1764 1752 :RAD 1 #1 7342 7347 7347 7348 7347 7344 7345 7344 7350 7347 :ENC 2 #5 5254 5248 5246 5245 :SW1 22 #60 0 :SW2 52 #60 0 :BAT 4 #5 13.0 :NAME 15D142A4  34+0NN 216W
00000000