0000015100
749
SSVX02 CWAO 110900
ZZYY 72514 11014 0900/ 562199 058961 6113/ 11131 
40118 57030 22231 00110 444 20130 11014 0900/ 50100 80104 80001=
0000015100
750
SSVX02 CWAO 111000
ZZYY 72514 11014 1000/ 562199 058961 6113/ 11131 
40117 57015 22231 00109 444 20130 11014 1000/ 50100 80104 80001=
0000061300
751
SMER10 OMAA 111200
AAXX 11124
41184 32660 71003 10215 20104 40197 8152/ 333 59003 81640 87460=
41194 12860 82308 10225 20095 30194 40199 60001 88020 333 58003
      88458 84362=
41196 11660 82506 10222 20102 30160 40200 69902 76062 8352/ 333
      58002 83640 88560=
41198 32560 51306 10209 20098 40188 82530 333 59023 82620 83360=
41200 12960 82308 10217 20094 30151 40203 60001 8803/ 333 58011
      88360=
41216 11660 72905 10223 20121 30182 40186 69902 76062 8253/ 333
      58010 82645 86360=
41217 32960 62503 10227 20096 30152 40181 8303/ 333 58009 86314=
41218 NIL=
0000037000
752
SMVD19 KWNB 111200 RRB
BBXX
46126 11121 99540 71666 46/// /2404 10048 49799 91148 22200 00043
1//00 70001 333 91211 555 11048 22052=
46126 11121 99540 71666 46/// /2404 10048 49799 91150 22200 00043
1//00 70001 333 91211 555 11048 22052=
46126 11121 99540 71666 46/// /2304 10048 49799 91154 22200 00043
1//00 70001 333 91206 555 11038 22041=
0000012400
753
UXIN90 VEMN 111200
TTAA 6112/ 
42314 RS ASCENT SUSPENDED AS PER DDGM(UI) ORDER DTD 07-11-2013 AAA



0000068000
754
SMIN90 VEPT 111200
AAXX 11124
42492 21494 70203 10160 20143 40179 76022 84520
  333 10170 58032 6002/ 84615 86458=
42591 21494 81103 10156 20146 40157 71096 8572/
  333 10173 58009 6007/ 81710 85618 88458=
42498 21494 70000 10160 20146 40144 70562 84530
  333 10164 56690 58007 6004/ 84615 87358=
42500 21595 70000 10154 20147 40160 72165 84530
  333 10166 58010 6005/ 84620 85360=
42587 21994 80000 10170 20167 40151 75062 85520
  333 10184 58013 6007/ 85615 88458=
42798 31493 70906 10194 20110 40144 70422 85430
  333 10250 58011 84615 83825 87360=
42701 31494 70505 10146 20118 39409 40154 74144 84530
  333 10190 58008 84615 87360=
0000031800
755
SMVX02 DEMS 111218
BBXX AUYB 11121 99133 10739 46/// /3209 10275 29069 49084 91158 222//=
BBXX VTJR 11121 99163 10828 46/// /0506 10262 29064 49121 91203 222//=
BBXX VTTK 11121 99177 10833 46/// /0504 10259 29065 49128 91204 222//=
BBXX VWSK 11121 99100 10763 46/// /2810 10292 29078 49085 91139 222//=
0000016100
756
SMVA10 EHDB 111200 RRA
BBXX
PFBE 11123 99286 70240 41498 32608 10215 20134 40195 52000 70211
82466 22253 04210 20103 399// 40104 80165 42908=
0000013800
757
SMVA10 EHDB 111200 RRB
BBXX
A8IX8 11124 99323 30289 41598 31606 10240 20196 40180 54000 70200
833// 22213 20801 80210=
0000302100
758
SMIR03 OIII 111200
AAXX 11121
40701 11930 01502 11090 21126 38609 40327 57015 60001 70500 555
11096 29075=
40704 12870 62905 11009 21084 38592 40207 57014 60001 82071 333
82358 85070 555 11032 29057=
40708 12865 71912 11004 21026 38638 40188 56010 60001 84076 333
84458 87268 555 11012 29085=
40710 12665 70000 11066 21112 38315 40299 57013 60001 85520 333
85635 87458 555 11076 29070=
40713 11611 73102 11038 21059 38674 40274 56015 60001 71022 81570
333 81642 87361 555 11043 29086=
40719 11530 73202 10100 20075 30151 40141 56017 60001 71022 84570
333 84625 86359 555 10088 29084=
40731 11656 81202 10016 21029 38746 40233 56012 60001 70522 8332/
333 81935 83640 88459 555 11001 29072=
40738 11556 73202 10116 20066 30166 40168 56003 60001 70522 83570
      333 83630 86359 555 10092 29072=
40740 12960 21802 10088 21126 38712 40183 56019 60001 82030 333
      82360 555 10020 29020=
40747 11657 61901 10009 21039 38634 40228 55012 69901 70587 83570
333 83635 85358 555 11009 29070=
40757 11560 83002 10040 21017 38909 40225 58010 69901 70272 8357/
333 83630 88359 555 10018 29066=
40763 12665 21404 10088 21076 38922 40212 57027 60001 81501 333
      81640 555 10030 29030=
40782 11458 81102 10042 20033 38862 40183 57018 60031 76182 8632/
333 82710 81930 85635 88558 555 10038 29094=
40783 11550 72402 10002 21013 37959 40180 55012 69981 71087 85370
333 82930 83635 87359 555 11004 29090=
40789 11658 80000 10052 20008 39212 40208 57009 69911 76062 8452/
      333 84640 88560 555 10034 29073=
40798 11508 80000 11028 21043 37935 40259 55015 60011 77272 8232/
      333   81925 83630 88557 555   11032 29089=
40818 11660 71002 10050 20010 37946 40171 56018 69901 72521 85370
333 82935 83640 87360 555 10032 29075=
40827 12665 81304 10037 21027 38841 40221 56009 60001 84416 333
      84635 85460 86268 555 10013 29063=
40836 11502 80000 10006 20001 38189 40220 57008 60091 76164 8432/
333 81930 84640 88558 555 10004 29096=
40851 11658 81508 10066 20012 38270 40190 56008 69921 76022 8342/
333 83640 88459 555 10042 29068=
40853 12665 80000 10026 21018 37755 40222 56007 60001 83410 333
83640 87460 555 10008 29073=
40854 12665 80000 10078 21023 38954 40182 55004 60001 81476 333
      81640 87360 88270 555 10038 29049=
40857 11460 81106 10137 20111 30156 40166 57017 60061 70262 8632/
222// 00158  20503 333 82710 81925 83635 88459 555 10123 29084=
40859 11658 80000 10056 20024 38729 40191 58007 69981 72582 8532/
333 82935 83640 88460 555 10042 29080=
40878 12965 71203 10121 21098 38871 40238 56016 60001 83076 333
      83360 87270 555 10044 29021=
40879 12562 83502 10158 21055 39505 40199 56026 60001 8272/ 333
       82720 88459 555 10075 29023=
40883 11530 80304 10140 20125 30179 40203 55004 60051 71062 8432/
222// 0//// 2//// 333 81920 83625 88458 555 10132 29091=
40898 12965 71405 10200 20012 30187 40197 58013 60001 80006 222//
      00226 10501 333 87269 555 10115 29028=
0000017100
759
SMPM01 MPTO 111200
78792 NIL =
78793 32970 30000 10218 20203 30066 40097 53004 80001
  333 10328 20218 30/// 56/// 58007 83080=
78795 NIL =



0000033500
760
USFI01 EFKL 111200
TTAA 61121 02836
99994 27727 32004 00133 ///// ///// 92720 12961 07024
85358 18158 09033 70785 25765 06524 50516 39172 07519
40667 45974 06031 30855 51973 03524 25972 55171 05515
20115 53578 01525 15298 57976 01041 10549 64573 33544
88247 55371 03515 88130 61974 35540
77999
31313 48108 81130=
0000076900
761
UKFI01 EFKL 111200
TTBB 61128 02836
00994 27727 11992 24527 22985 20914 33973 18318 44964
14950 55961 12559 66943 11762 77888 15957 88821 20157
99756 23560 11732 23970 22683 25768 33600 32568 44550
34972 55483 40373 66345 49970 77314 51765 88247 55371
99202 53378 11130 61974 22100 64573
21212 00994 32004 11984 03010 22967 05524 33876 09036
44800 08021 55749 07031 66696 06524 77607 08520 88596
07517 99585 06519 11512 08522 22487 06027 33364 06541
44337 07030 55327 04026 66313 05020 77298 03523 88265
06520 99254 07017 11250 05515 22246 03016 33230 03032
44218 03530 55203 02024 66195 00527 77180 03031 88165
35034 99148 01042 11121 34038 22104 34548 33100 33544
31313 48108 81130
41414 /////
51515 11870 09536 22800 08021 33600 08018=
0000007800
762
SMAL53 EUMS 111200
AAXX 11124
60619 36/// /1712 10213 21036=
0000007800
763
SMAL54 EUMS 111200
AAXX 11124
60621 36/// /1823 10240 21036=
0000007800
764
SMAL51 EUMS 111200
AAXX 11124
60612 36/// /0000 10194 21023=
0000008200
765
SMAL51 EUMS 111200 RRA
AAXX 11124
60664 36/// /0000 10165 21022=
0000007800
766
SMAL52 EUMS 111200
AAXX 11124
60667 36/// /0000 10192 21011=
0000007800
767
SMAL56 EUMS 111200
AAXX 11124
60692 36/// ///03 10232 21024=
0000008200
768
SMAL57 EUMS 111200 RRX
AAXX 11124
60691 36/// /0000 10229 21048=
00000000