0000026200
836
SSVX13 LFVW 111207
ZZYY 55585 11014 1100/ 345992 166448 6113/
11119 30037 40037 57045
22219 00121
444 20130 11014 1035/ 50101 80110 80000 9/015=
ZZYY 16551 11014 1200/ 321917 060377 6113/
11119 40158 57010
444 50101 80074 80000 9/015=
0000015700
837
SSVX13 LFPW 111200
ZZYY 33957 11014 1200/ 545124 053007 6113/ 11119 40095 52027 22219
 00147 444 20130 11014 1200/ 50101 80140 80015 9/015=
0000244600
838
SMRO48 YRBK 111200
AAXX 11121
15107 02597 73003 10031 21025 39398 42815 57008 60001 87300 333 43004
60007
91005 91107 95070 555 60000=
15123 02998 81502 10039 20011 39747 40240 58007 60001 8807/ 333 55300
0////
20401 3//// 60007 91003 91104 555 60000=
15124 02597 81700 10030 20007 39686 40241 57008 60001 8227/ 333 60007
91001
91101 555 60000=
15127 02598 72304 10026 21031 39325 42817 57008 60001 85302 333 41998
55301
0//// 20454 3//// 60007 91006 91107 95000 555 60000=
15145 01996 70503 10047 20020 39854 40238 58010 60001 71022 87070 333
60007 555
60000=
15148 01497 62302 11033 21036 38739 48503 56001 60001 72842 86300 333
44024
60007 92717 93505=
15162 02597 51001 10067 21003 39488 42820 57016 60001 84201 333 60007
91001
91103 555 60000=
15165 02698 63002 10066 20015 39590 42820 58008 60001 82542 333 60007
91005
91106 555 60000=
15168 06/// /1801 10052 21007 39591 42819 57012 6///1 333 6///7 91002
91103 555
6////=
15184 01499 52105 11005 21005 38832 48503 57010 60001 70242 83502 333
41998
60007 91006 91107 92717 93511 95040 95100 555 60000=
15189 02998 51000 10061 20014 39836 40227 57014 60001 85070 333 60007
91001
91101 555 60000=
15208 02997 51802 10078 20011 39931 40239 58020 60001 83071 333
60007=
15209 06/// /2504 10101 20003 39812 40221 57014 6///1 333 55308 0////
21104
3//// 6///7 555 6////=
15215 02999 73001 10056 21022 39610 42821 57014 60001 84076 333 55309
0////
21114 3//// 60007 91003 91103 555 60000=
15217 02598 72102 10049 21023 39536 42817 57012 60001 83278 333 60007
91004
91105 555 60000=
15231 02998 72802 10077 20028 39896 40224 58016 60001 85072 333 60007
91003
91105 555 60000=
15235 02698 42605 10094 21028 39703 40221 57017 60001 82240 333 55309
60007
91008 91110 555 60000=
15238 02598 82603 10081 21031 39589 42820 57018 60001 82207 333 60007
91007
91107 555 60000=
15254 02497 42702 10031 21044 38552 48504 57008 60001 83201 333 44021
60007
91007 91107 555 60000=
15262 01197 72914 11056 21063 38161 48464 57011 60001 70242 87600 333
60007
91020 92727 93525=
15277 06/// /0402 10098 21033 39595 42822 57016 60001 333 55309 60007
91004
91106 555 60000=
15279 02497 80205 11057 21064 37930 48498 58002 60001 885// 333 44046
60007
91009 91110 555 60000=
15300 02999 63006 10071 21033 39578 42821 57013 60001 86070 333 60007
91010
91110 555 60000=
0000260400
839
SMRO49 YRBK 111200
AAXX 11121
15042 01997 82304 10063 20010 30084 40224 5//// 60001 700// 8807/ 333
60007=
15080 02597 71904 10064 20036 30052 40222 58010 60001 85570 333 60007
91005
91108 555 32000 42000 50000 60000 70000=
15095 02998 82404 10066 21005 39814 40223 58012 60001 8807/ 333 60007
91006
91107=
15117 02998 80901 10062 20044 30026 40226 57011 60001 8807/ 333
60007=
15118 02497 72601 10004 21033 38927 48501 58008 60001 87500 333 43015
60007
91004 91105 555 60000=
15136 02598 71402 10073 20055 30099 40220 57016 60001 87500 333 4////
55300
60007 91003 91104 555 60000=
15138 02998 82302 10053 21020 39521 42823 58009 60001 8807/ 333
60007=
15160 02598 71802 10068 20015 39879 40221 57016 60001 84570 333 60007
91003
91105 555 60000=
15179 06/// /1804 10052 21002 39647 40225 58012 6///1 333 55300 0////
20263
3//// 6///7 555 6////=
15182 02997 80201 10066 20027 30007 40227 58016 60001 8807/ 333 60007
91002
91103 555 60000=
15199 02597 61605 10099 20038 30090 40195 57021 60001 86500 333 55302
60007
91007 91107 555 60000=
15204 06/// /2601 10073 20033 30041 40235 58017 6///1 333 55300 0////
20452
3//// 6///7 555 6////=
15206 06/// /3102 10071 20019 39894 40230 58016 6///1 333 55303 0////
20649
3//// 6///7 555 6////=
15245 06/// /1707 10114 20035 30114 40213 58022 6///1 333 55306 0////
20989
3//// 6///7 555 6////=
15247 02597 51503 10102 20041 30107 40213 58021 60001 83231 333 55306
00479
20976 30657 60007 91005 91105 555 32000 42000 50000 60000 70000=
15270 02598 71301 10096 20032 30070 40223 57019 60001 87500 333 55304
60007
91002 91104 555 60000=
15289 02597 61607 10113 20025 30115 40218 58022 60001 83509 333 55310
0////
21172 3//// 60007 91010 91110 555 60000=
15314 02598 42502 10112 20024 39877 40216 58017 60001 82402 333 60007
91004
91105 555 60000=
15315 02398 52905 10019 20003 38593 48521 57008 60001 85800 333 44012
60007
91010 91110 555 60000=
15316 02499 72002 10024 21029 38583 48528 5//// 60001 87500 333 42010
60007
95100=
15317 02198 63408 11049 21067 37805 48534 51005 60001 86500 333 41998
60007
95100=
15338 02998 31903 10120 20006 39848 40220 58014 60001 80001 333 60007
91005
91107 95000 555 60000=
15364 01997 33202 10043 20028 39924 40244 58019 60001 72841 83030 333
6///7
91003 91103 95000 555 60000=
15366 02997 32501 10109 20008 39979 40212 58023 60001 83030 333 60007
91002
91102 95000 555 60000=
15388 02997 22501 10107 20039 30126 40228 58015 60001 80001 333 60007
91002
91102 555 60000=
0000287100
840
SMRO50 YRBK 111200
AAXX 11121
15261 02997 43105 10057 21037 39392 42833 57016 60001 82041 333 55310
0////
21318 3//// 60007 91007 91109 95000 555 60000=
15284 01398 43113 11043 21045 38336 48479 54001 60001 70241 83240 333
60007
91019 91122 555 60000=
15285 02998 23310 10040 21068 39194 42802 56011 60001 80002 333 55310
0////
21310 3//// 60007 91016 91117 555 60000=
15301 02598 80504 10016 21043 38654 48527 51003 60001 81107 333 41998
60007
95000=
15302 02698 63204 10028 21061 38944 48496 57012 60001 83201 333 41998
55308
0//// 21169 3//// 60007 91009 91109 95000 555 60000=
15307 NIL=
15324 02999 20502 10088 21127 39402 42814 57019 60001 80001 333
60007=
15325 02997 30202 10014 21059 38478 48491 57008 60001 80001 333 41998
60007
91006 91108 95000 555 60000=
15328 02997 33203 10101 21067 39845 40187 57035 60001 83070 333
60007=
15333 01996 31801 10066 20052 30195 40215 58014 60001 71041 82041 333
60007
91003 91103 555 60000=
15345 02999 22702 10085 21057 39566 42850 57014 60001 80001 333
60007=
15347 02999 22704 10113 21074 39671 40203 57006 60001 80001 333
60007=
15349 02998 22202 10095 21072 39650 40204 58013 60001 80001 333 55310
0////
21349 3//// 60007 91005 91107 555 60000=
15373 02999 22803 10120 21051 39818 40199 58015 60001 81041 333 60007
91007
91107 555 60000=
15375 02999 21101 10107 21055 39849 40208 58014 60001 81041 333 60007
91002
91104 555 60000=
15377 02999 12202 10107 21052 39992 40208 58016 60001 81040 333 60007
91003
91105 555 32000 42000 50000 60000 70000=
15402 02997 02304 10107 21053 30136 40211 57017 60001 333 55310 0////
21245
3//// 60007 91006 91107 555 60000=
15405 02997 22702 10080 21005 30152 40215 58017 60001 80002 333
60007=
15416 02997 22602 10111 21018 39963 40217 57017 60001 80001 333 60007
91004
91106 555 60000=
15419 02997 22403 10100 21028 30028 40223 58014 60001 80001 333 60007
91004
91104 555 60000=
15421 02997 22103 10097 21024 30115 40227 58016 60001 80001 333 55300
0////
21420 3//// 60007 555 60000=
15422 02997 02103 10092 21033 30118 40221 57017 60001 333 55310 60007
91006
91106 555 60000=
15425 02997 02404 10059 21017 30149 40215 58017 60001 333 60007 91006
91107 555
32000 42000 50000 60000 70000=
15444 02997 32505 10085 20021 30151 40227 57015 60001 80001 333
60007=
15455 02997 02703 10101 20023 30084 40214 5//// 60001 333 60007=
15475 02997 02703 10080 21025 30200 40220 58005 60001 333 60007=
15489 02997 02303 10104 20036 30129 40223 57017 60001 333 60007 91005
91106 555
60000=
15490 02997 02702 10122 20011 30187 40225 58020 60001 333 60007=
15491 02997 02502 10107 20035 30197 40228 57017 60001 333 60007 91004
91105 555
60000=
15498 02997 02803 10117 20016 30179 40222 58016 60001 333 60007 91005
91108 555
60000=
0000075400
841
SMLT10 EYHM 111200
AAXX 11121
26509 /1569 82505 10055 20041 30048 40057 58002 70282 885// 333
91011 91111 555 1/005 69991=
26518 /1470 82706 10042 20035 39852 40055 58006 72176 885// 333
88616 91010 91111 555 1/004 69951=
26524 /1361 82103 10029 20016 39916 40049 58009 78082 883// 333
88709 91005 91108 555 1/003 69901=
26531 /1470 82703 10015 21002 39971 40048 51001 70276 885// 333
88616 91006 91110 555 1/002 69901=
26629 /1258 82604 10039 20027 39976 40071 58002 76176 8872/ 333
88706 91009 91109 555 1/004 69981=
26633 /1470 72804 10012 21020 39928 40059 52006 70172 87600 333
87715 91008 91109 555 1/002 69901=
26730 /1363 82603 10024 20011 39885 40078 52007 76176 8802/ 333
91006 91109 555 1/003 69901=
0000051300
842
SMNO47 ENMI 111200
AAXX 11121
01045 NIL=
01057 41387 60000 11259 21285 70320 84630=
01075 NIL=
01207 31680 40901 11052 21059 70100 83831=
01298 41380 70905 11138 21152 71582 8596/=
01318 41580 73601 11011 21053 70222 875//=
01319 41375 73201 10013 2//// 70282 879//=
01322 41160 83601 11009 21009 70282 883//=
01369 43X40 80403 11090 21090=
01439 41480 22601 10022 20012 72581 81961=
01459 41785 12701 10040 21006 70100 81110=
01493 41580 70403 10010 20007 70351 333 91104=
0000187200
843
SMNO48 ENMI 111200
AAXX 11121
01002 46/// /2006 11055 21098 30053 40064 53004 333 91109=
01006 46/// /2503 11044 21063 30069 40085 52005 333 91109=
01009 46/// /2203 11026 2//// 30063 40070 54002 333 91105=
01011 46/// /1403 11047 21055 30067 40078 56003 333 91103=
01016 46/// /1807 11044 21056 30067 40083 57005 333 91108=
01017 46/// /2805 11003 2//// 30103 40111 54003 333 91108=
01020 46/// /2707 11008 21027 30103 40114 54001 333 91110=
01024 46/// /0000 11024 21045 30078 40091 54000=
01035 46/// ///// 11117 2//// 333 4/166=
01043 46/// /1401 11064 2//// 333 91103=
01105 46/// /0713 11055 21091 333 91115=
01124 16/// ///// 11108 21171 60001=
01133 16/// /1605 11100 21205 60001 333 4/011 91114=
01146 16/// /0404 11092 21182 60001 333 91115=
01148 16/// /1205 11113 21210 60001 333 4/071 91116=
01158 16/// ///// 11087 21209 30134 40144 50003 60001=
01198 16/// ///// 11193 21212 39935 40210 52007 60001=
01214 46/// /0801 11033 21070 333 91106=
01221 16/// ///// 11125 21180 60001=
01224 NIL=
01239 16/// /1003 11149 21168 69971 333 4/024 91105=
01242 16/// ///// 11087 21144 60001=
01287 16/// ///// 11165 21198 60001 333 4/031=
01315 16/// /3001 10010 20006 60011 333 91102=
01326 16/// ///// 10006 20000 6////=
01346 16/// /2809 11036 21046 60001 333 91114=
01352 NIL=
01356 46/// ///// 11109 2//// 49933 58003=
01365 16/// /1002 11109 21123 60011 333 4/077 91105=
01414 46/// /3011 10059 2//// 333 91118=
01417 16/// ///// 10061 20031 60061=
01418 46/// ///// 10057 2////=
01426 46/// /2712 10058 2//// 333 91118=
01444 16/// /2501 10018 21005 60001 333 91107=
01449 16/// /3601 11006 21009 60001 333 91103=
01453 16/// /1702 10012 20007 60001 333 91105=
01478 46/// ///// 10003 2////=
01486 16/// ///// 11041 21059 60001=
01487 46/// /0505 11049 21067 333 91109=
0000078900
844
UDAS02 BABJ 111158
AMDAR 1111
LVR CNFOZL 2649N 11333E 111153 F246 MS195 249/092 TB/ S//1=
LVR CNFOZL 2655N 11333E 111154 F246 MS200 249/096 TB/ S//1=
LVR CNFOZL 2656N 11333E 111154 F246 MS203 250/097 TB/ S//1=
LVR CNFOZL 2703N 11334E 111155 F246 MS205 250/095 TB/ S//1=
LVR CNFPYN 3402N 11208E 111153 F206 MS258 234/029 TB/ S//1=
DES CNFPYN 3402N 11210E 111153 F201 MS246 235/030 TB/ S//1=
DES CNFPYN 3403N 11219E 111154 F187 MS223 261/025 TB/ S//1=
LVR CNFPYN 3404N 11227E 111155 F187 MS220 262/023 TB/ S//1=
DES CNFNXN 3856N 11601E 111153 F138 MS238 294/033 TB/ S//1=
DES CNFNXN 3859N 11606E 111154 F138 MS238 294/033 TB/ S//1=
DES CNFNXN 3859N 11607E 111154 F138 MS238 295/033 TB/ S//1=
DES CNFNXN 3902N 11613E 111155 F138 MS238 294/032 TB/ S//1=
0001318600
845
SMMX01 MXBA 111200
AAXX 11121
76040 32920 03101 10079 20052 30188 40202 52003 91150 333   
10248 20042 30/// 58022 70000 98620=
76056 06/// /2702 10096 21029 30166 40190 56001 60001 7//// 
8//// 91150 333   0//// 10147 20096 30/// 4//// 50209 54/// 
55000 56/// 57/// 58001 60007 7//// 8//// 8//// 8//// 9/=
76061 32970 00904 10100 20004 30136 40213 5//// 91140 333   
10200 20090 30086 55089 58031 70000=
76109 06/// /2502 10069 21074 38928 40235 53018 60001 7//// 
8//// 91150 333   0//// 10184 20069 30/// 4//// 50309 54/// 
55086 56/// 57/// 58057 60007 70000 8//// 8//// 8//// 9/=
76117 06/// /3407 10077 21055 38920 40123 53004 60001 7//// 
8//// 91150 333   0//// 10228 20064 30/// 4//// 50289 54/// 
55085 56/// 57/// 58038 60007 70000 8//// 8//// 8//// 9/=
76161 06/// /0902 10094 21033 39928 40186 56005 60001 7//// 
8//// 91150 333   0//// 10282 20090 30/// 4//// 50329 54/// 
55087 56/// 57/// 58025 60007 70000 8//// 8//// 8//// 9/=
76219 06/// /0000 11058 21064 38187 40392 53008 60001 7//// 
8//// 91150 333   0//// 10188 21058 30/// 4//// 50209 54/// 
55089 56/// 57/// 58052 60007 70000 8//// 8//// 8//// 9/=
76220 31920 00000 11052 2//// 38184 40279 52010 702// 91150 
333   10184 21052 31080 58/// 70000 96126=
76225 32920 02901 10052 21034 38644 40171 5//// 91145 333   
10215 20052 30000 58055 70000=
76242 06/// /2902 10082 20074 39869 40116 52023 60001 7//// 
8//// 91150 333   0//// 10226 20082 30/// 4//// 50179 54/// 
55028 56/// 57/// 58041 60007 70000 8//// 8//// 8//// 9/=
76254 02/// ///// 1//// 2//// 3//// 4//// 5//// 6//// 7//// 
8//// 9//// 333   0//// 1//// 2//// 30/// 4//// 5//// 54/// 
55/// 56/// 57/// 5//// 6//// 7//// 8//// 8//// 8//// 9/=
76255 06/// /3601 10106 20019 30157 40174 58006 60001 7//// 
8//// 91150 333   0//// 10272 20106 30/// 4//// 50379 54/// 
55091 56/// 57/// 58023 60007 70000 8//// 8//// 8//// 9/=
76256 32960 00000 10108 20086 30165 40179 5//// 91145 333   
10276 20078 30/// 58021 70000=
76258 32/50 /0205 10100 20074 3//// 4//// 5//// 91150 333   
10276 20094 30056 56000 58/// 70000=
76304 06/// /3202 10157 20003 30167 40175 58002 60001 7//// 
8//// 91150 333   0//// 10248 20151 30/// 4//// 50289 54/// 
55065 56/// 57/// 58028 60007 70000 8//// 8//// 8//// 9/=
76305 32970 03402 10163 20011 30165 40173 54000 91150 333   
10230 20145 30130 58027 70000=
76324 06/// /0000 10009 21031 38299 40364 53011 60001 7//// 
8//// 91150 333   0//// 10194 20008 30/// 4//// 50219 54/// 
55048 56/// 57/// 58052 60007 70000 8//// 8//// 8//// 9/=
76342 32940 01802 10130 20038 39468 40183 52023 91150 333   
10275 20125 30120 58042 70000=
76382 32960 01101 10094 20072 38925 40198 52010 91145 333   
10244 20081 30068 58050 70000=
76390 31950 01601 10056 21033 38251 40211 52012 70544 91148 
333   10210 20040 30032 58057 70000=
SMMX01 MXBA 111200 
AAXX 11121
76391 06/// /1800 10058 21039 38250 40257 51014 60001 7//// 
8//// 91150 333   0//// 10219 20058 30/// 4//// 50389 55093 
56/// 57/// 58057 60007 70000 8//// 8//// 8//// 9//// 9/=
76392 06/// /2401 10134 20067 39581 40170 52012 60001 7//// 
8//// 91150 333   0//// 10282 20131 30/// 4//// 50319 54/// 
55077 56/// 57/// 58046 60007 70000 8//// 8//// 8//// 9/=
76393 31920 02601 10132 20065 39583 40160 52012 70400 91150 
333   10278 20130 03126 58045 70000 91102 91401=
76403 06/// /0501 10086 20075 30105 40167 57004 60001 7//// 
8//// 91150 333   0//// 10300 20086 30/// 4//// 50319 54/// 
55080 56/// 57/// 58021 60007 70000 8//// 8//// 8//// 9/=
76404 06/// /0302 10175 20128 30138 40162 57006 60001 7//// 
8//// 91150 333   0//// 10240 20170 30/// 4//// 50249 54/// 
55030 56/// 57/// 58024 60007 70000 8//// 8//// 8//// 9/=
76405 32940 00502 10176 20130 30144 40166 52002 91150 333   
10238 20162 30158 58025 79999=
76413 06/// /3301 10098 20076 30126 40173 5//// 60031 7//// 
8//// 91150 333   0//// 10109 20000 30/// 4//// 50109 54/// 
55000 56/// 57/// 5//// 60037 70026 8//// 8//// 8//// 9/=
76423 32960 30000 10018 21024 38173 40198 52002 80005 91155 
333   10220 20016 30/// 56009 58036 70000 83070=
76424 06/// /0000 10010 21028 38174 40317 53005 60001 7//// 
8//// 91150 333   0//// 10219 20010 30/// 4//// 50369 54/// 
55089 56/// 57/// 58038 60007 70000 8//// 8//// 8//// 9/=
76458 32960 03502 10160 20127 30141 40146 54000 91142 333   
10271 20142 30116 58013 70000=
76459 06/// /3201 10150 20130 30141 40146 55004 60001 7//// 
8//// 91150 333   0//// 10275 20146 30/// 4//// 50299 54/// 
55085 56/// 57/// 58012 60007 70000 8//// 8//// 8//// 9/=
76471 32960 00000 10052 20005 37709 40172 5//// 91155 333   
10180 20038 31012 55096 58038 70000=
76490 06/// /2402 10136 20129 39766 40162 52016 60001 7//// 
8//// 91150 333   0//// 10279 20122 30/// 4//// 50289 54/// 
55088 56/// 57/// 58032 60007 70000 8//// 8//// 8//// 9/=
76491 32556 32301 10130 20128 39782 40172 5//// 83100 91150 
333   10272 20122 30/// 55091 56900 58027 70000 81830=
76499 31/02 93201 10150 20150 30119 40141 5//// 72844 91150 
333   10295 20148 30144 58015 70000=
76518 02/// ///// 1//// 2//// 3//// 4//// 5//// 6//// 7//// 
8//// 9//// 333   0//// 1//// 2//// 30/// 4//// 5//// 54/// 
55/// 56/// 57/// 5//// 6//// 7//// 8//// 8//// 8//// 9/=
76538 06/// /2501 10065 2//// 38176 40219 52006 60001 7//// 
8//// 91150 333   0//// 10232 20063 30/// 4//// 5///9 54/// 
55076 56/// 57/// 58025 60007 70000 8//// 8//// 8//// 9/=
76539 32958 03601 10065 20055 38163 40200 57005 91150 333   
10233 20063 30035 59006 70000=
76543 31670 62301 10176 20173 30131 40164 53/// 7054/ 86500 
91145 333   10289 20174 30/// 56300 59004 70000 86650=
76547 06/// /0000 10183 20181 30133 40147 53010 60001 7//// 
8//// 91150 333   0//// 10280 20181 30/// 4//// 50279 54/// 
55068 56/// 57/// 59005 60007 70000 8//// 8//// 8//// 9/=
SMMX01 MXBA 111200 
AAXX 11121
76548 32860 51301 10182 20179 30145 40155 53009 85030 91145 
333   10282 20180 30178 56050 59005 70000 85358=
76556 32960 61802 10120 20077 39122 40126 52008 86050 91145 
333   10266 20115 30089 56050 58023 70000 86360=
76571 32710 30000 10076 20028 38183 40210 55006 83400 90550 
333   10228 20054 30030 56500 83650=
76577 32560 70000 10110 20100 38058 40163 52006 87500 91140 
333   10220 20111 30102 56500 59022 70000 87620=
76578 06/// /0000 10112 20056 38055 40182 53005 60001 7//// 
8//// 91150 333   0//// 013// 10230 20100 30/// 4//// 50269 
54/// 55041 56/// 57/// 58021 60007 70000 8//// 8//// 8/=
76585 32980 00000 10160 20154 39991 40149 52009 91140 333   
10256 20159 30146 55067 59003 70000=
76592 06/// /1103 10207 20207 30149 40151 51004 60001 7//// 
8//// 91150 333   0//// 10311 20205 30/// 4//// 50339 54/// 
55055 56/// 57/// 59011 60007 70002 8//// 8//// 8//// 9/=
76593 32960 01402 10204 20201 30147 40149 57001 91150 333   
10302 20202 30200 59013 70000=
76612 01860 71001 10107 20095 38487 40193 5//// 69901 72421 
8702/ 91159 333   10248 20095 30076 5606/ 58020 69907 79999 
87458=
76625 32760 31402 10121 20072 38151 40139 5//// 83030 91140 
333   10228 20117 30097 56060 58019 79999 83357=
76634 31970 01501 10086 20064 37861 40182 52008 70500 91150 
333   10239 20084 30066 58017 79999=
76644 32350 21101 10211 20205 30138 40151 5//// 82500 91150 
333   10322 20207 30190 55067 20807 563// 59006 70000 82620 
=
76645 06/// /1002 10208 20205 30141 40156 52006 60001 7//// 
8//// 91150 333   0//// 10318 20206 30/// 4//// 50339 54/// 
55059 56/// 57/// 59006 60007 70000 8//// 8//// 8//// 9/=
76648 32870 20701 10216 20213 30126 40157 52011 60001 7//// 
82030 91150 333   0//// 10315 20216 30/// 4//// 50219 54/// 
55000 560/0 57/// 59003 60007 79999 82358 8//// 8//// 9/=
76654 31956 03601 10224 20189 30131 40135 57005 70544 91150 
333   10306 20222 30208 58015 70000=
76659 06/// /0201 10188 20144 3//// 42/// 5//// 60001 7//// 
8//// 91150 333   0//// 10320 20170 30/// 4//// 50349 54/// 
55083 56/// 57/// 5//// 60007 70004 8//// 8//// 8//// 9/=
76662 32660 51101 10110 20089 38475 40160 52003 85400 91144 
333   10260 20108 30102 56/00 58019 70000 85633=
76675 32960 02001 10011 21001 37383 40209 54000 91145 333   
10193 21002 31031 58011 70000=
76680 31562 03201 10097 20082 37764 40111 52007 70000 91150 
333   10210 20080 30080 58021 70000=
76683 32960 00000 10064 20042 37838 40182 5//// 91150 333   
10216 20062 30035 58011 70000=
SMMX01 MXBA 111200 
AAXX 11121
76684 06/// /0000 10053 20045 37838 40250 53004 60001 7//// 
8//// 91150 333   0//// 10238 20053 30/// 4//// 50319 54/// 
55093 56/// 57/// 58011 60007 70000 8//// 8//// 8//// 9/=
76685 32950 00000 10078 20054 37869 40143 55000 91145 333   
10230 20078 30038 58007 70000=
76687 32960 02001 10124 20087 38674 40169 52009 91145 333   
10242 20102 30095 59004 70000=
76688 06/// /2502 10126 20084 38657 40185 52011 60001 7//// 
8//// 91150 333   0//// 10247 20120 30/// 4//// 50289 55077 
56/// 57/// 59003 60007 70000 8//// 8//// 8//// 9//// 9/=
76692 31/08 90000 10193 20190 30124 40143 53008 74744 91145 
333   10279 20191 30183 59012 70000=
76693 06/// /0000 10191 20186 30125 40146 53011 60001 7//// 
8//// 91150 333   0//// 10279 20191 30/// 4//// 50339 54/// 
55090 56/// 57/// 59009 60007 70000 8//// 8//// 8//// 9/=
76695 32956 00000 10188 20185 30138 40144 52007 91150 333   
10322 20186 30180 59004 70000=
76726 2968 03501 10140 20078 38399 40151 52007 91145 333   1
0272 20130 30124 58009 70000=
76727 06/// /3601 10131 20074 38400 40149 53008 60001 7//// 
8//// 91150 333   0//// 10272 20131 30/// 4//// 50209 54/// 
55000 56/// 57/// 58013 60007 70000 8//// 8//// 8//// 9/=
76737 32980 03401 10124 20094 38766 40154 52009 91145 333   
10242 20124 30083 59007 70000 91102 91534=
76738 06/// /3401 10115 20091 38769 40199 53013 60001 7//// 
8//// 91150 333   0//// 10252 20115 30/// 4//// 50299 54/// 
55089 56/// 57/// 59003 60007 70000 8//// 8//// 8//// 9/=
76741 31930 01001 10198 20197 30104 40123 53005 71004 91145 
333   10277 20189 30187 59013 79999=
76743 31940 03401 10200 20185 30129 40137 52007 70200 91145 
333   10250 20200 30195 59013 70000=
76750 32558 11201 10226 20215 30137 40147 52007 81100 91145 
333   10310 20168 30165 56300 59009 79999 81820=
76751 06/// /0901 10214 20213 30137 40149 53006 60001 7//// 
8//// 91150 333   0//// 10307 20209 30/// 4//// 50339 54/// 
55072 56/// 57/// 59009 60007 70004 8//// 8//// 8//// 9/=
76762 32504 23401 10130 20109 38767 40151 54003 82200 91150 
333   10278 20125 30096 56300 58012 70000 82810=
76772 32940 00000 10093 20083 38432 40240 53005 60001 7//// 
8//// 91150 333   0//// 10298 20091 30/// 4//// 50349 54/// 
55084 56/// 57/// 58009 60007 70000 8//// 8//// 8//// 9/=
76773 32940 00000 10104 20083 38429 40133 52005 91148 333   
10298 20091 30082 50451 55100 59001 70000=
76775 32960 00501 10128 20093 38531 40170 52009 91145 333   
10306 20116 30/// 58008 70000=
76776 06/// /0402 10127 20101 38515 40174 52008 60001 7//// 
8//// 91150 333   0//// 10314 20127 30/// 4//// 50389 54/// 
55093 56/// 57/// 58007 60007 70000 8//// 8//// 8//// 9/=
SMMX01 MXBA 111200 
AAXX 11121
76805 32960 03201 10222 20197 30127 40130 53004 91145 333   
10351 20212 30205 58009 70000=
76806 06/// /3201 10216 20192 30127 40132 53004 60001 7//// 
8//// 91150 333   0//// 10342 20214 30/// 4//// 50399 54/// 
55092 56/// 57/// 58008 60007 70000 8//// 8//// 8//// 9/=
76834 06/// /3201 10204 20191 30126 40130 53008 60001 7//// 
8//// 91150 333   0//// 10341 20202 30/// 4//// 50519 54/// 
55095 56/// 57/// 58017 60007 70000 8//// 8//// 8//// 9/=
76840 32910 00000 10200 20194 30074 40131 52007 91145 333   
10275 20155 30/// 55095 59020 70000=
76845 31/05 90000 10086 20083 37957 40193 51007 74544 89/// 
91150 333   10225 20075 30070 58010 70000 89///=
76848 32950 02901 10120 20094 38385 40120 50003 91150 333   
10243 20113 30076 58007 70000 96722=
76855 32980 03403 10238 20181 30079 40130 5//// 91145 333   
10330 20216 30/// 55010 58013 70000 92000=
76902 06/// /0501 10226 20192 30003 40145 52018 60001 7//// 
8//// 91150 333   0//// 10340 20217 30/// 4//// 50439 54/// 
55094 56/// 57/// 58017 60007 70000 8//// 8//// 8//// 9/=
76412 32960 00000 10110 20082 30121 40108 57013 91150 333   
10270 20100 30/// 58012 70000=
76525 32960 03104 10085 21059 37478 40162 52003 91145 333   
10138 20062 30056 58037 70000=
76632 31930 43401 10070 20052 37716 40171 52009 70500 80007 
91145 333   10210 20068 30/// 56001 58018 70000 84271 96122 
=
76640 31010 60000 10188 20185 30149 40161 52008 71044 8322/ 
91140 333   10254 20174 30172 5655/ 59006 70000 83801 83440 
=
76647 32870 20701 10218 20218 30135 40165 52010 82030 91150 
333   10307 20216 30210 560/0 59004 79999 92358=
76698 32558 20000 10212 20208 30145 40158 5//// 82200 91150 
333   10308 20208 30198 56200 58000 70023 82820=
76843 32965 00000 10181 20159 39493 40136 52014 91145 333   
10309 20175 30163 59001 70000=

0000745100
846
SOFX05 LFPW 111209
KKYY 11014 0620/ 144455 037239 88881 84460 20000 31072 41807 20003
31073 41807 20008 31073 41808 20013 31073 41808 20018 31074 41809
20023 31073 41811 20028 31069 41816 20033 31037 41825 20038 30957
41826 20043 30907 41834 20048 30870 41840 20054 30845 41848 20058
30831 41859 20062 30812 41879 20067 30804 41891 20072 30799 41908
20077 30796 41925 20082 30802 41948 20087 30811 41970 20092 30820
41990 20097 30827 42007 20104 30835 42026 20115 30842 42047 20125
30849 42068 20134 30853 42082 20144 30858 42100 20155 30861 42109
20165 30863 42118 20174 30866 42126 20183 30868 42133 20194 30870
42138 20203 30871 42142 20214 30872 42146 20223 30873 42149 20233
30874 42153 20244 30876 42157 20254 30877 42160 20263 30878 42164
20273 30879 42166 20283 30880 42168 20292 30880 42170 20302 30881
42173 20313 30882 42175 20323 30882 42177 20333 30883 42180 20343
30884 42182 20352 30884 42184 20362 30885 42186 20372 30885 42187
20383 30886 42188 20392 30886 42190 20401 30886 42192 20411 30887
42193 20422 30887 42194 20431 30887 42195 20442 30887 42197 20452
30888 42198 20462 30888 42198 20472 30888 42200 20481 30888 42201
20490 30888 42202 20501 30889 42203 20510 30889 42204 20520 30889
42205 20530 30889 42206 20540 30889 42207 20550 30889 42208 20560
30889 42208 20570 30890 42209 20579 30890 42209 20590 30890 42210
20600 30890 42211 20609 30890 42212 20619 30890 42212 20630 30890
42213 20640 30890 42214 20650 30890 42214 20660 30890 42215 20668
30891 42215 20678 30891 42216 20688 30891 42216 20698 30891 42217
20708 30891 42217 20718 30891 42218 20728 30891 42218 20739 30891
42219 20767 30892 42220 20817 30893 42223 20866 30894 42224 20915
30894 42226 20967 30895 42227 21014 30896 42228 21064 30897 42229
21113 30898 42229 21162 30899 42230 21214 30899 42230 21261 30900
42231 21310 30901 42231 21359 30902 42231 21409 30902 42232 21434
30903 42232 Q6901962=
KKYY 11014 0645/ 142085 035871 88881 84460 20000 30967 41818 20003
30967 41818 20008 30967 41818 20013 30967 41818 20018 30967 41817
20023 30966 41818 20028 30966 41819 20033 30963 41820 20038 30957
41822 20043 30960 41826 20049 30967 41828 20053 30948 41834 20058
30880 41848 20062 30830 41866 20067 30797 41893 20072 30791 41906
20077 30791 41925 20082 30800 41944 20087 30812 41962 20092 30826
41983 20097 30832 42002 20105 30843 42028 20114 30847 42052 20124
30853 42072 20135 30861 42090 20145 30863 42100 20154 30866 42110
20165 30867 42117 20174 30867 42124 20184 30868 42132 20193 30871
42138 20203 30872 42143 20213 30873 42147 20223 30874 42151 20233
30875 42154 20243 30876 42158 20253 30877 42162 20263 30878 42165
20273 30879 42168 20283 30880 42171 20292 30882 42174 20302 30883
42177 20312 30883 42179 20322 30884 42182 20333 30885 42184 20343
30885 42186 20353 30885 42188 20363 30886 42189 20372 30886 42191
20382 30886 42192 20392 30887 42193 20401 30887 42194 20411 30887
42195 20422 30888 42197 20432 30888 42198 20441 30888 42199 20451
30888 42200 20462 30888 42201 20472 30889 42202 20482 30889 42203
20492 30889 42203 20500 30889 42204 20510 30889 42205 20521 30889
42206 20530 30890 42206 20540 30890 42207 20550 30890 42208 20560
30890 42209 20570 30890 42210 20580 30890 42210 20589 30890 42211
20599 30890 42212 20609 30890 42212 20619 30890 42213 20629 30890
42214 20639 30891 42215 20649 30891 42215 20660 30891 42216 20670
30891 42216 20679 30891 42217 20689 30891 42218 20698 30891 42218
20708 30891 42218 20718 30891 42219 20728 30892 42219 20739 30892
42220 20769 30892 42221 20817 30893 42223 20866 30894 42225 20917
30894 42226 20965 30895 42227 21014 30896 42228 21064 30897 42229
21113 30898 42229 21162 30899 42230 21213 30899 42230 21261 30900
42231 21310 30901 42231 21360 30902 42231 21410 30902 42231 21439
30903 42232 Q6901959=
KKYY 11014 1020/ 711207 030689 88881 84660 20006 32487 43567 20010
32486 43567 20019 32487 43566 20030 32486 43566 20040 32487 43566
20051 32427 43567 20060 31828 43578 20070 31609 43559 20079 31506
43550 20089 31440 43545 20099 31393 43541 20109 31366 43538 20116
31333 43534 20130 31275 43528 20140 31248 43524 20150 31222 43521
20159 31197 43518 20169 31184 43517 20179 31156 43514 20189 31134
43511 20199 31113 43507 20209 31103 43506 20219 31091 43505 20228
31084 43504 20239 31077 43504 20249 31066 43502 20259 31059 43501
20269 31054 43501 20279 31043 43500 20288 31040 43500 20298 31034
43499 20308 31034 43500 20318 31035 43501 20328 31020 43499 20338
31014 43498 20348 31003 43498 20358 30996 43498 20378 31007 43504
20397 31015 43509 20447 30902 43491 20496 30899 43496 20546 30872
43496 20596 30805 43489 20645 30747 43482 20695 30724 43481 20745
30697 43480 20794 30646 43475 20844 30591 43471 20893 30576 43472
20943 30560 43472 20993 30548 43475 21040 30537 43480 21091 30521
43484 21140 30513 43487 21190 30505 43489 21239 30501 43491 21289
30489 43492 21338 30478 43492 21387 30470 43494 21436 30462 43495
21486 30455 43496 21535 30443 43497 21584 30438 43497 21634 30431
43498 21684 30420 43498 21732 30412 43497 21782 30403 43497 21831
30392 43497 21881 30384 43497 21929 30375 43497 21979 30367 43497
Q6900768=
KKYY 11014 1005/ 356212 062741 88881 84660 20004 30140 43389 20010
30142 43389 20019 30145 43389 20030 30143 43389 20040 30142 43389
20050 30135 43389 20060 30134 43389 20069 30134 43389 20080 30134
43389 20089 30133 43389 20099 30133 43389 20109 30132 43389 20119
30117 43389 20129 30100 43390 20138 30070 43391 20149 30055 43395
20159 30083 43401 20169 30110 43405 20178 30122 43409 20188 30144
43413 20198 30169 43419 20208 30176 43422 20218 30181 43423 20228
30187 43425 20238 30190 43428 20248 30190 43429 20258 30192 43431
20268 30194 43433 20277 30199 43435 20287 30204 43436 20298 30206
43438 20307 30206 43439 20317 30207 43439 20327 30207 43441 20337
30209 43442 20347 30211 43443 20357 30212 43444 20376 30218 43446
20396 30225 43449 20445 30227 43454 20495 30225 43457 20542 30223
43460 20594 30224 43463 20643 30222 43464 20692 30220 43466 20742
30220 43467 20791 30218 43469 20840 30217 43470 20890 30214 43471
20939 30212 43472 20987 30209 43473 Q6900749=
KKYY 11014 0701/ 731419 024545 88881 84660 20005 32010 43685 20009
32011 43685 20019 32011 43685 20029 32012 43685 20039 32012 43685
20049 32012 43685 20059 32012 43685 20069 32013 43685 20079 32013
43685 20099 31998 43680 20119 31833 43659 20138 31803 43658 20158
31777 43654 20178 31756 43650 20197 31722 43645 20223 31671 43635
20247 31616 43623 20272 31567 43615 20297 31532 43609 20321 31505
43607 20346 31466 43601 20371 31426 43595 20396 31387 43589 20421
31352 43584 20445 31318 43579 20471 31289 43576 20495 31272 43573
20520 31257 43571 20544 31240 43569 20570 31208 43565 20595 31186
43562 20619 31158 43559 20644 31125 43556 20668 31099 43554 20693
31082 43554 20743 31049 43553 20792 31006 43551 20842 30963 43550
20891 30913 43547 20940 30877 43548 20990 30847 43548 21039 30834
43550 21089 30810 43549 21138 30784 43549 21188 30746 43545 21237
30708 43542 21286 30686 43539 21336 30660 43537 21385 30648 43535
21434 30624 43534 21484 30594 43530 21533 30568 43527 21582 30543
43524 21631 30523 43522 21681 30510 43520 21730 30493 43518 21779
30472 43516 21829 30459 43514 21877 30445 43512 21927 30433 43511
21965 30425 43510 Q6900266=
0000014100
847
SMJM01 MKJP 111200
AAXX 11124
78397 11572 20107 10248 20208 30166 40168 60001 70500 82800
333 10322 20235 58011 82824=

0000058500
848
SMGO01 FOOL 111200
AAXX 11124
64500 31460 62008 10290 20248 30102 40116 70196 86900
  333 0//00 58004 83810 81920 86640 94942 95832=
64510 32465 7//// 10278 20216 3//// 4//// 872//
  333 0//00 5//// 87816 94919 95819=
64512 32470 6//// 10272 20211 3//// 4//// 86200
  333 0//00 5//// 86811 94929 95839=
64551 32470 72608 10295 20252 3//// 4//// 879//
  333 0//00 5//// 83815 81920 87640 94943 95833=
64556 32460 8//// 10263 20234 3//// 40/// 885//
  333 0//00 5//// 88610=
64560 32360 6//// 10301 20235 39557 40087 86400
  333 0//00 59009 86606=
0000011100
849
UANT99 KDDL 111207
ARP DAL419 5102N01906W 1207 F320 MS57 210/78 KT
N830MH QXT AOE 111207 F97A
0000011000
850
UANT99 KDDL 111207
ARP DAL99 5301N01921W 1207 F320 MS58 214/74 KT
N833MH QXT AOE 111207 F08A
0000228800
851
SMBM01 VBRR 111200
AAXX 11124
48001 31220 80000 10160 20144 40166 71522 8597/ 333 10200 56779 58019= 
48004 32440 30000 10189 20175 83800 333 10242 56500=
48008 32950 00000 10205 20160 40152 333 10265 58011=
48010 32020 00000 10220 20205 40151 333 10262 58015=
48018 32956 00000 10230 20163 40136 333 10290 58001=
48019 32940 00000 10210 20160 40146 333 10272 58005=
48020 32220 10000 10210 20175 81400 333 10280 56900=
48025 32440 12701 10234 20143 40151 81500 333 10267 56900 58011=
48035 31910 00000 10186 20118 40141 70500 333 10268 58020=
48037 32930 00000 10255 20179 40123 333 10291 58006=
48042 32557 10000 10265 20185 40140 81400 333 10294 56900 58025=
48045 32956 01801 10152 20111 333 10220=
48048 32940 00401 10257 20203 40137 333 10292 58011=
48053 32950 00000 10260 20179 40138 333 10300 58012=
48057 32957 02201 10182 20108 333 10251=
48060 32410 10000 10213 20143 40152 81100 333 10265 56500 58005=
48062 31550 22701 10256 20230 40142 70522 82500 333 10290 56900 58014=
48071 31956 03201 10250 20215 40140 70500 333 10278 58005=
48077 32957 00000 10270 20172 40126 333 10322 58010=
48078 32950 10000 10212 20131 40140 80001 333 10322 56009 58016=
48080 31556 10000 10263 20229 40138 70511 81500 333 10223 56900 58009=
48094 32950 10401 10260 20230 40133 80001 333 10330 56009 58008=
48097 32456 72701 10260 20203 40131 70222 82506 333 10335 56909 58010=
48108 31595 60000 10280 20203 40129 70522 82405 333 10343 56209 58009=
48109 32496 30401 10280 20250 40134 70322 82530 333 10314 56990 58005=
48110 31995 23202 10280 20233 40123 70511 80005 333 10340 56009 58009=
48112 32598 63602 10289 20215 40113 70522 80016 333 10317 56099 58001=
48030 32960 02201 10150 20047 333 10206=
48051 32958 00000 10230 20160 333 10310=
48072 31956 00000 10230 20230 70500 333 10300=
48075 32456 20000 10220 20170 40152 82500 333 10275 56500 58009=
48085 32956 20000 10268 20226 40131 80006 333 10317 56009 58011=
48087 32950 10000 10258 20203 80001 333 10335 56009=
48095 32950 00000 10280 20220 333 10316=
48099 32440 40401 10275 20220 40120 82831 333 10333 56999 58009=
48101 32950 10000 10271 20240 70111 80001 333 10322 56009=
48103 32430 40000 10280 20220 40126 84700 333 10340 56500 58010=

0000011000
852
UANT99 KDDL 111207
ARP BAW242 5600N01939W 1207 F370 MS57 243/51 KT
GCIVK QXT AOE 111207 F32A
0000011100
853
UANT99 KDDL 111207
ARP DAL131 5201N01920W 1207 F320 MS56 214/71 KT
N171DZ QXT AOE 111207 F89A
0000010900
854
UANT99 KDDL 111207
ARP SWR41 5748N01857W 1207 F350 MS62 247/61 KT
HBJMJ QXT AOW 111207 J63A
0000009200
855
SAIQ01 ORBI 111200
METAR ORBM 111200Z VRB03KT 7000 SCT040 13/04 Q1019 NOSIG=
00000000