0000078600
429
WOAU11 AMMC 111216
40:2:1:04:55S125E30045:11:00
IDY21000
SECURITE
HIGH SEAS WEATHER WARNING FOR METAREA 10
Issued by the Bureau of Meteorology National Meteorological and Oceanographic
Centre
AT 1216UTC 11 JANUARY 2014
GALE WARNING FOR SOUTHEASTERN AREA
 
PLEASE BE AWARE 
Wind gusts can be 40 percent stronger than the averages given here, and maximum
waves may be up to twice the height.
 
Situation
Vigorous westerly flow associated with a low pressure system.
 
Area Affected
Bounded by 50S139E 47S139E 45S160E 50S160E 50S139E.
 
Forecast
W/SW winds 30/40 knots west of 151E at first, contracting to be SE of a line
50S150E 45S160E by 120001UTC. Rough to very rough seas. Moderate to heavy swell.
 
WEATHER MELBOURNE
 
0000008900
430
FCIN90 VABP 111200
TAF VABP 111200Z  1115/1124 02010 1000 MIFG FEW100=

0000047400
431
SMCH03 SCSC 111200 RRA
AAXX 11124
89054 32465 62912 10003 21005 40011 57006 84236
  333 21008 56700 84820 86058=
89056 12460 62611 11002 21035 40005 56004 60002 84830
  333 11001 21012 46998 55001 56600 70000 82815 84620 86360=
89058 32480 32709 10012 21031 39987 40008 57005 82840=
89059 12965 40000 11006 21048 49986 56005 60002 80004
  333 11006 21023 41023 55019 70000 84066=
89251 32468 62911 10003 21027 49980 57010 84501
  333 21001=
0000173100
432
SMSB01 VCCC 111200
AAXX 11124
43400 NIL=
43404 22470 60504 10260 20228 30115 40127 81106 333 00019 10279 58009
60007 81818 86280=
43410 NIL=
43413 22470 20508 10274 20227 30108 40112 82200 333 00021 10283 58004
60007 82818= 
43415 22470 30901 10273 20226 30014 40122 83101 333 00019 10302 58007
60007 83818=
43418 22470 73204 10260 20231 3//// 4//// 84132 333 10280 5//// 60007
84818=
43421 22470 40501 10272 20222 30008 40110 82101 333 00021 10305 58002
60007 82818 84080=
43422 22470 50503 10271 20224 39979 40109 81136 333 00020 10300 58006
60007 81818 83360=
43424 22478 63203 10274 20239 30099 40103 86100 333 00021 10301 58011
60007 86816=
43436 22470 43606 10270 20241 30109 40113 83101 333 10279 58006 60007
83818 83080=
43441 22470 63602 10291 20217 39964 40093 85236 333 10322 58008 60007
85818=
43444 22470 60000 10267 20205 39569 40103 84231 333 00017 10304 58003
60007 84818 83360=
43450 22470 63209 10279 20233 30091 40100 81101 333 00022 10323 58010
60007 81816 86080=
43467 22470 33406 10284 20240 30091 40096 81101 333 00021 10309 58007
60007 81816 83080=
43473 22470 50000 10167 20147 38131 48496 85201 333 00006 10210 58005
60007 85812=
43475 22470 13203 10278 20234 30100 40109 81100 333 10301 58005 60007
81818=
43476 21470 60506 10199 20179 38775 48519 72522 86200 333 10245 58003
69907 86811=
43479 22370 50202 10224 20200 39268 83201 333 10253 58006 60007
83808=
43486 22460 70000 10289 20235 30000 40094 85906 333 00022 10332 58002
60007 84816 81920=
43495 22470 53204 10276 20235 30087 40103 81101 333 10292 58006 60007
81818 84080=
43497 22976 40505 10292 20252 30080 40098 80002 333 10336 58008 60007
84278=
0000009600
433
SMMR41 EUMS 111200
AAXX 11124
78922 46/// /0720 10264 20200 30136 40181 53025=
0000101400
434
FPAE41 OMAE 111210
station,wdir,wspeed,temperature,dewpoint,pressure,time,date
"Al-Ain International Airport", 200,    7,  21,   9,1019.0,12:00,11.01.2014
"Bateen Airport", 290,    5,  22,  12,1018.0,12:00,11.01.2014
"Abu Dhabi International Airport", 250,    3,  23,  10,1018.0,12:00,11.01.2014
"Dubai International Airport", 250,    7,  23,  10,1020.0,12:00,11.01.2014
"Sharjah International Airport", 250,    6,  22,  10,1020.0,12:00,11.01.2014
"Ras al-Khaimah International Airport", 100,    3,  22,  10,1019.0,12:00,11.01.2014
"Fujairah Airport", 130,    6,  21,  10,1018.0,12:00,11.01.2014
"MUSCAT INTERNATIONAL AIRPORT",  60,   15,  21,   9,1019.0,12:00,11.01.2014
"DOHA INTERNATIONAL AIRPORT", 230,    5,  17,  14,1019.0,12:00,11.01.2014
"KUWAIT INTERNATIONAL AIRPORT", 320,   13,  15,   9,1017.0,12:00,11.01.2014
"BAHRAIN INTERNATIONAL AIRPORT", 190,    8,  17,  14,1018.0,12:00,11.01.2014
"JEDDAH INTERNATIONAL AIRPORT",   -,    -,   -,   -,     -,12:00,11.01.2014
0000062500
435
FPAE44 OMAE 111210
station,wdir,wspeed,temperature,dewpoint,pressure,time,date
"Al-Ain International Airport", 200,    7,  21,   9,1019.0,12:00,11.01.2014
"Bateen Airport", 290,    5,  22,  12,1018.0,12:00,11.01.2014
"Abu Dhabi International Airport", 250,    3,  23,  10,1018.0,12:00,11.01.2014
"Dubai International Airport", 250,    7,  23,  10,1020.0,12:00,11.01.2014
"Sharjah International Airport", 250,    6,  22,  10,1020.0,12:00,11.01.2014
"Ras al-Khaimah International Airport", 100,    3,  22,  10,1019.0,12:00,11.01.2014
"Fujairah Airport", 130,    6,  21,  10,1018.0,12:00,11.01.2014
0000010800
436
SMRE41 EUMS 111200 RRA
AAXX 11124
61972 36/// /2507 10312 20205 30125 40132
  333 58034=
0000134200
437
FPHK20 VHHH 111145

DATE/MONTH 12/1 (SUNDAY)
WIND: EAST FORCE 4 TO 5, BECOMING NORTH FORCE 4 TO 5 LATER.
WEATHER: FINE AND DRY. VISIBILITY RELATIVELY LOW.
TEMP RANGE: 15 - 20 C
R.H. RANGE: 60 - 85 PER CENT

DATE/MONTH 13/1 (MONDAY)
WIND: NORTH TO NORTHEAST FORCE 4 TO 5.
WEATHER: RATHER COOL IN THE MORNING. SUNNY PERIODS DURING
THE DAY. ONE OR TWO RAIN PATCHES OVERNIGHT.
TEMP RANGE: 14 - 17 C
R.H. RANGE: 65 - 85 PER CENT

DATE/MONTH 14/1 (TUESDAY)
WIND: NORTH FORCE 4 TO 5, FORCE 6 OFFSHORE.
WEATHER: DRY WITH SUNNY PERIODS. COLD IN THE MORNING AND AT
NIGHT.
TEMP RANGE: 12 - 16 C
R.H. RANGE: 50 - 75 PER CENT

DATE/MONTH 15/1 (WEDNESDAY)
WIND: NORTH TO NORTHEAST FORCE 4 TO 5.
WEATHER: FINE AND DRY. COLD IN THE MORNING AND AT NIGHT.
TEMP RANGE: 10 - 15 C
R.H. RANGE: 45 - 65 PER CENT

DATE/MONTH 16/1 (THURSDAY)
WIND: NORTHEAST FORCE 4 TO 5.
WEATHER: FINE AND DRY. COLD IN THE MORNING.
TEMP RANGE: 11 - 16 C
R.H. RANGE: 45 - 65 PER CENT

DATE/MONTH 17/1 (FRIDAY)
WIND: NORTHEAST FORCE 4.
WEATHER: FINE AND DRY. COLD IN THE MORNING.
TEMP RANGE: 12 - 17 C
R.H. RANGE: 45 - 65 PER CENT

DATE/MONTH 18/1 (SATURDAY)
WIND: NORTHEAST FORCE 4 TO 5.
WEATHER: FINE AND DRY. COLD IN THE MORNING.
TEMP RANGE: 12 - 17 C
R.H. RANGE: 45 - 65 PER CENT
0000048200
438
SXXX32 EUMS 111204 RRL
262AD2C2
OT12 ID:PK-ORMA-10 DT:2014 01 11 12 03
:PRS /1 07193 07205 07193 07198 07215 07211 07235 07238 07253 07245 07263 07262 07270 07295 07285 07285 07282 07259 07282 07307 07310 07335 07322 07337 07335 07345 07352 07357 07341 07375
:RAD /1 ///// ///// ///// ///// ///// ///// ///// ///// ///// ///// ///// ///// ///// ///// ///// ///// ///// ///// ///// ///// ///// ///// ///// ///// ///// ///// ///// ///// ///// /////
:BAT 13.2V/
0000011000
439
UANT99 KDDL 111213
ARP BAW207 5001N01911W 1213 F320 MS56 206/85 KT
GBYGG QXT AOE 111214 F19A
0000011000
440
UANT99 KDDL 111214
ARP BAW26E 5928N01057W 1214 F360 MS53 263/47 KT
GBNLK QXS SYY 111214 F12A
0000011100
441
UANT99 KDDL 111214
ARP DAL187 5306N02414W 1214 F360 MS61 205/77 KT
N173DZ QXT AOE 111214 F26A
0000010900
442
UANT99 KDDL 111214
ARP VIR24 5553N04142W 1214 F370 MS59 262/38 KT
GVBUG DDL XXW 111214 J07A
0000011000
443
UANT99 KDDL 111214
ARP KLM735 4900N02954W 1214 F340 MS47 200/47 KT
PHBFN QXT AOE 111214 F32A
0000010900
444
UANT99 KDDL 111214
ARP VIR97 4731N03129W 1214 F360 MS47 228/34 KT
GVGEM DDL XXF 111214 J94A
0000065100
445
SXXX32 EUMS 111204 RRM
18D74682
OT12 ID:ZA-GOUG-13 DT:2014 01 11 12 03
:RAD /3 21130 28873 21142 28873 21157 21142 21118 28872 28868 28851 21151 21155 21177 02267 21125 28873 21142 19701 21166 28866 28872 28871 28866 21029 21111 21100 21102 21102 21091 21102 21106 21110 21097 21097 21107 21097 21110 21111 21127 21107 21116 02151 21113 21123 21128 21147 21141 21162 21153 21143 21158 21129 01783 21128 21138 21166 21159 21201 21147 21149 21164 21149 21175 21144 21164 21127 21168 21177 20741 21157 21179 21165 19724 21179 21177 21164 21174 21183 21179 21183 21143 21159 21165 21157 21165 21176 21171 21182 21176 21168
:BAT 14.3V
0000011000
446
UANT99 KDDL 111214
ARP AFR368 4702N01552W 1214 F320 MS54 230/63 KT
FGLZI QXT AOE 111214 J26A
0000069800
447
SXXX32 EUMS 111204 RRN
26A63714
OT/2 ID:CO-PNTN-06 DT:2014 01 11 11 54
:RAD /1 01359 01367 01/14 0/379 01395 01398 01421 11401 01407 01412 01424 01392 01401 01428 01361 01391 01420 11404 01362 01386 01384 01372 01380 01366 01353 01260 01369 01347 01352 01370
:PR1 /1 ///// ///// ///// ///// ////. ///// ///// ///// ///// ///// ///// ///// ///// .//// ///// ///// ///// ///// ///// ///// ///// ///// ///// ///// ///// ///// ///// ///// .//// /////
:PR2 /1 ///// ///// ///// ///// /////////// /////0///// /./// ///// ///// ///// ///// ///// ///////?/// ///// ///// ///// ///// ///// ///// ///// ///// /////////// ///// ///// ///// .////
:TM1 /15 /// /// /// ///
:BAT 12.6V
0000037800
448
SXXX32 EUMS 111206 RRP
12FD90D0
:PRS 1 /1 1341 1348 1334 1337 1344 1355 1356 1383 1383 1386 1405 1403 :RAD 1 /3 5911 5929 5950 5957 5951 5946 5940 5939 5949 5965 :ENC 3 /6 5646 5690 5685 5671 5688 5705 5736 5726 5702 5709 :RA2 3 /6 4808 4852 4843 4829 4851 4867 4897 4884 4862 4872 :SW1 6 /60 54 :SW2 36 /60 60 :BAT 5 /6 13.2 :WTP 5 /6 28.3 28.3 :NAME 12FD90D0
00000000