0000370000
709
SMCI01 KWBC 111200
AAXX 11121
56146 32780 72204 10041 21152 36692 52015 87/// 333 00203=
56444 32780 50705 10010 21099 36817 52016 85/// 333 00103=
56492 32762 80000 10078 20044 39899 40319 52031 88/// 333 00601=
56571 32680 03606 10105 21047 38389 52033 333 00658=
57799 11444 80202 10061 20052 30206 40298 52018 60021 76066 88///=
57866 11462 80404 10047 20044 30098 40314 52020 60021 76060 88///=
57957 11562 80203 10068 20038 30080 40286 52022 69911 70060 88///=
57993 31858 83402 10088 20052 30107 40278 52023 70500 88///=
58027 31940 01601 10045 21038 30252 40306 52002 70500=
58141 31907 02701 10009 21020 30293 40311 52004 70500=
58265 11955 81601 10047 20012 30306 40312 52003 69901 70560 88///=
58472 11463 80706 10067 20040 30200 40301 52005 69931 76066 88///=
58477 11465 80203 10075 20032 30250 40296 52007 69991 76066 88///=
58527 12256 80000 10058 20051 30217 40296 52012 69931 88///=
58633 11630 80702 10055 20051 30187 40292 52009 60021 76066 88///=
58666 31407 83608 10094 20091 30168 40275 52006 76040 88///=
58725 32770 83202 10109 20063 39999 40267 52017 88///=
59293 32961 01101 10160 20114 30139 40226 52020=
59838 32566 12702 10210 20191 30187 40197 52016 81///=
54401 32963 73609 11047 21227 39383 40367 52031 87///=
58921 32960 71801 10138 20100 39994 40245 52019 87///=
59082 31756 72702 10128 20064 30097 40247 52023 70500 87///=
59211 31860 81402 10113 20090 30040 40254 52025 70060 88///=
59265 31858 73403 10161 20111 30094 40234 52020 70500 87///=
59501 32962 20701 10157 20123 30216 40237 52022 82///=
59644 31758 70702 10193 20156 30205 40222 52022 70500 87///=
59663 31956 41602 10159 20151 30115 40224 52020 71000 84///=
59981 11572 70404 10236 20209 30178 40185 52021 69921 70080 87///=
50353 32970 03404 11261 21331 30045 40300 52001=
50557 32970 02701 11296 21347 39985 40336 52016=
50756 32960 03202 11262 21318 39969 40305 52007=
50949 32965 00705 11173 21205 30095 40283 52027=
50963 11962 62702 11195 21211 30108 40262 57002 69911 72270 86///
333 92539=
50978 32975 72903 11142 21217 39872 40239 57014 87///=
51087 32980 01601 11170 21202 39381 40458 57007 333 05403=
51156 32980 03401 11110 21206 38801 40412 57006 333 05301=
51644 32960 02501 11054 21126 39090 40449 54000 333 00200=
51656 31934 02502 11060 21143 39270 40443 57001 70500 333 00100=
51886 33/// 90902 11085 21259 37156 52009 333 00452=
52602 32980 02708 11122 21306 37315 52006 333 00400=
52713 32980 70701 11131 21241 36948 52012 87/// 333 00452=
52754 32973 50403 11132 21186 36805 52014 85/// 333 00301=
52818 32968 73201 11074 21250 37291 52013 87/// 333 00500=
52836 32964 72502 11121 21211 36934 52011 87/// 333 00302=
52955 32980 02201 11135 21217 36994 52013 333 00352=
53068 32973 03203 11151 21265 39188 40433 52021 333 00601=
53276 32980 02703 11145 21249 38970 40428 52024=
54135 32980 03205 11086 21220 30072 40311 52030=
54236 32962 03403 11069 21212 30179 40293 52017=
54539 31900 02702 11036 21044 30286 40299 52018 74240=
54662 32960 02204 10011 21074 30176 40294 52005=
54753 31908 01601 11011 21046 30295 40303 52007 72840=
54857 31937 02001 10027 21015 30211 40309 52005 70500=
57067 32960 60000 10011 21069 39636 40344 52025 86///=
57178 32961 72504 10048 21037 30097 40325 52021 87///=
57245 11962 71601 10043 20010 39986 40351 52028 69901 70060 87///
333 00501=
57297 31933 83401 10051 21025 30169 40315 52015 70500 88///=
50434 32980 02903 11300 21348 39379 40422 52015=
50632 32980 03205 11290 21348 39363 40374 52022=
50727 31980 03602 11285 21326 39072 40395 52024 70070=
50915 32959 03602 11212 21252 39307 40423 52029=
0000154100
710
SMCI01 KWBC 111200 RRA
AAXX 11121
51716 32963 00901 11041 21120 39044 40435 57002 333 00101=
51777 32970 03601 11075 21188 39328 40466 57005 333 00200=
52267 42980 02501 11075 21217 39250 40443 52010 333 00500=
52323 32980 02205 11097 21219 38331 52007 333 00303=
52495 32980 03204 11101 21233 38814 40455 52018 333 00501=
53149 32980 03204 11139 21249 38893 40442 52017 333 00554=
53192 32973 03204 11177 21246 38984 40438 52022=
53336 32980 02904 11121 21235 38829 40442 52016 333 00501=
53529 42966 93202 11111 21232 38735 40437 52023 333 00453 91117
91529=
53723 32968 32903 11065 21224 38772 40422 52020 83/// 333 00552=
54012 11958 73403 11171 21208 39100 40389 52023 69901 77000 87///=
54026 32976 03205 11114 21242 39977 40333 52033=
54027 32980 03203 11108 21207 39707 40350 52025=
54208 32980 02703 11132 21226 38823 40394 52019=
54497 31943 00201 11066 21110 30267 40287 52002 70500=
54776 31928 02503 10015 21078 30242 40304 52005 70500=
56684 32961 00406 10019 21028 37846 52037 333 00562=
56751 32777 22505 10137 21031 38028 52009 82/// 333 00151=
57554 32858 80401 10047 20019 40330 52021 88///=
57793 11330 82703 10052 20046 30133 40299 52012 69951 76066 88///=
58944 32573 73604 10130 20089 40253 52009 87///=
59096 32968 02201 10147 20107 40235 52025=
59456 31856 73201 10187 20144 40222 52021 70500 87///=
59658 31456 70904 10168 20139 40220 52018 70500 87///=
59673 32567 40401 10171 20149 40225 52017 84///=
59845 32965 01103 10209 20163 40206 52022=
0000015000
711
SMMW01 FWCL 111200 RRA
AAXX 11120
67489 41580 73202 10266 20190 38735 48488 70362 82938 333 59011 81920 83360 87275 555 10268 29062=
0000034500
712
SNVD01 KWBC 111000 RRT
BBXX
42887 11101 99282 70885 46/// /2311 10227 20203 91020 22200 10402
 70008 555 11092 22100=
42369 11101 99272 70903 46/// /1901 1//// 91020=
42392 11101 99272 70900 46/// ///// 1//// 91020 22200 10402 70009=
42375 11101 99285 70883 46/// /1712 1//// 91020 22200 10402 70008
 555 11094 22103=
0000011900
713
SNVD01 KWBC 111100 RRP
BBXX
42022 11111 99275 70837 46/// /1206 10210 40163 91129 555 11065
 22071=
0000066100
714
UDAF01 FAPR 111226
AMDAR 1112
ASC AFZA46 2607S 02827E 111143 F138 MS002 268/020 TB1 S031 333 F/// VG020=
ASC AFZA46 2611S 02827E 111145 F155 MS015 229/004 TB0 S031 333 F/// VG012=
LVR AFZA46 2650S 02815E 111151 F264 MS234 305/041 TB0 S031 333 F/// VG009=
LVR AFZA46 2742S 02758E 111158 F357 MS444 289/065 TB0 S031 333 F/// VG009=
LVR AFZA46 2832S 02741E 111205 F380 MS490 289/074 TB0 S031 333 F/// VG010=
LVR AFZA46 2922S 02723E 111212 F380 MS489 293/081 TB0 S031 333 F/// VG010=
LVR AFZA46 3012S 02704E 111219 F380 MS510 290/055 TB0 S031 333 F/// VG010=
LVR AFZA46 3101S 02646E 111226 F380 MS525 251/046 TB0 S031 333 F/// VG010=
0000066100
715
UDAF01 FAPR 111227
AMDAR 1112
DES AFZA26 4048N 07322W 111216 F020 PS137 193/059 TB0 S031 333 F/// VG019=
DES AFZA26 4044N 07337W 111224 F017 PS142 197/058 TB0 S031 333 F/// VG019=
DES AFZA26 4043N 07337W 111224 F015 PS147 197/059 TB1 S031 333 F/// VG023=
DES AFZA26 4042N 07338W 111225 F012 PS142 196/054 TB1 S031 333 F/// VG023=
DES AFZA26 4041N 07339W 111225 F009 PS126 194/044 TB1 S031 333 F/// VG023=
DES AFZA26 4040N 07339W 111226 F006 PS122 192/037 TB1 S031 333 F/// VG023=
DES AFZA26 4040N 07340W 111226 F003 PS112 190/020 TB1 S031 333 F/// VG023=
DES AFZA26 4039N 07340W 111226 F001 PS110 182/015 TB1 S031 333 F/// VG027=
0000066100
716
UDAF01 FAPR 111225
AMDAR 1112
DES AFZA26 3948N 07317W 111200 F117 MS032 236/035 TB0 S031 333 F/// VG012=
DES AFZA26 3948N 07318W 111201 F115 MS029 241/036 TB0 S031 333 F/// VG013=
DES AFZA26 3955N 07334W 111204 F098 PS007 233/037 TB0 S031 333 F/// VG012=
DES AFZA26 4008N 07344W 111208 F080 PS040 221/040 TB0 S031 333 F/// VG013=
DES AFZA26 4019N 07335W 111210 F063 PS065 202/042 TB0 S031 333 F/// VG015=
DES AFZA26 4030N 07328W 111212 F047 PS100 205/048 TB0 S031 333 F/// VG016=
DES AFZA26 4040N 07322W 111215 F032 PS125 200/055 TB0 S031 333 F/// VG016=
DES AFZA26 4044N 07337W 111224 F017 PS142 197/058 TB0 S031 333 F/// VG019=
0000012200
717
UDAF01 FAPR 111227
AMDAR 1112
DES AFZA26 4040N 07340W 111226 F003 PS112 190/020 TB1 S031 333 F/// VG023=
0000066100
718
UDAF01 FAPR 111229
AMDAR 1112
ASC AFZA50 0658S 03915E 111149 F095 PS114 007/011 TB0 S031 333 F/// VG014=
ASC AFZA50 0704S 03912E 111151 F115 PS063 089/011 TB0 S031 333 F/// VG012=
ASC AFZA50 0708S 03911E 111152 F133 PS029 146/008 TB0 S031 333 F/// VG011=
ASC AFZA50 0714S 03909E 111153 F156 MS030 123/015 TB0 S031 333 F/// VG010=
LVR AFZA50 0733S 03901E 111156 F216 MS122 123/022 TB0 S031 333 F/// VG010=
LVR AFZA50 0823S 03842E 111203 F298 MS309 113/024 TB0 S031 333 F/// VG010=
LVR AFZA50 0914S 03825E 111210 F379 MS523 110/032 TB0 S031 333 F/// VG010=
LVR AFZA50 1004S 03809E 111217 F380 MS524 103/034 TB0 S031 333 F/// VG011=
0000003900
719
USCM01 FKKD 111200
NIL=
0000028600
720
UPCG01 FCBB 111200
PPAA 61118 64400
44385 03504 07025 07511 44340 16019 16018 10006 44320
08022 09038 05017
77999=
PPAA 61111 64450 55285 02010 07013
77999=
PPAA 61118 64458
44385 35511 08525 04519 44340 26012 19009 15011 44320
17516 13034 07027
77999=
0000013400
721
FCIN90 VEPT 111200
TAF VEPT/VEGY 111200Z 1115/1124 14004KT 1600 BR/-RA FEW018 SCT100
BECMG 1120/1122 1200 BR/-RA=

0000008600
722
SAIN90 VOMD 111230
METAR VOMD 111230Z 10003KT 6000 FEW020 30/16 Q1012=
0000008600
723
SAIN90 VOBL 111230
METAR VOBL 111230Z 11005KT CAVOK 30/10 Q1016 NOSIG=
0000008600
724
SAIN90 VOTP 111230
METAR VOTP 111230Z 05004KT 6000 FEW020 27/17 Q1012=
0000048500
725
UPIN90 VIJP 111200
PPAA 61111 42348
55392 00511 01508 33525 77999=
PPAA 61111 42452 55292 03008 34508=
PPAA 61111 42170
55392 34007 35506 03007 55150 02510 77999=
PPAA 61111 42435
55392 02508 03512 07510 77999=
PPAA 61111 42542
55392 03007 06006 36019 77999=
PPAA 61111 42123 55292 35508 00508=
PPAA 61111 42339
55392 03511 03513 00512 55150 31536 77999=
PPAA 61111 42165
55392 34509 00510 34012 77999=
PPAA 61111 42328 55292 02512 03009=

0000003900
726
USCE01 FEFF 111200
NIL=
0000010500
727
UXIN90 VARP 111200
TTAA 6112/ 42874 
99979 25459 27004 NO ASCENT AS PER DDGM(UI) ORDER=
0000018200
728
SMVE01 NZKL 111200
BBXX
ZMFR   11124 99437 51759 43/// /2313 10136 20105 40134 52012 22263 
00154=
ZMENA  11124 99436 31727 46/// ///10 10159 20116 40086 222//=
00000000