0000128700
389
SMIN90 VABP 111200
AAXX 11124
42361 31994 20000 10170 20098 40175 71000 80001
  333 10204 58033 82075=
42562 32996 00202 10162 20122 40145
  333 10180 58042=
42567 31594 40202 10174 20150 40169 71000 83430
  333 10186 58044=
42754 31595 20511 10156 20114 39511 40162 70522 82500
  333 10179 58042 82620=
42559 32996 63601 10174 20076 40165 82030
  333 10192 58048 82360 86075=
42665 32996 00502 10163 20130 40163
  333 10175 58048=
42557 32996 03603 10190 20087 40166
  333 10200 58049=
42662 32995 40503 10166 20119 40156 80002
  333 10180 58036=
42571 31594 43202 10160 20131 40158 71044 82530
  333 10165 58031=
42574 21595 80000 10150 20150 4//// 70500 8553/
  333 10170 5//// 6002/=
42577 22596 80000 10162 20152 40153 8553/
  333 10192 58020 6001/=
42671 31996 20501 10158 20108 39541 40175 70500 82030
  333 10205 58058=
42674 31996 03601 10178 20136 40148 70500
  333 10208 58048=
42672 32997 01401 10192 20124 40154
  333 10224 58004=
42467 32995 63202 10174 20139 40142 84220
  333 10195 58008=
42675 31494 80000 10164 20139 40166 71044 886//
  333 10168 58044 88710=
42667 31994 00505 10170 20118 39568 40168 70500
  333 10196 58049=
42855 32996 0//// 10200 20126 4////
  333 10251 5////=
0000029200
390
SXXX32 EUMS 110348 RRX
269375AE
OT12 ID:FI-SPAN-07 DT:2014 01 11 03 38
:RAD /1 07588 07597 07603 07615 07623 0/626 07626 07632 07637 47639 07646 07642 07647 076/4 07644 0/654 07658 07643 07642 07650 0764= 07655 07651 036/1 47653 07659 07663 07274 07680 47683/
:BAT 13.3V
0000037900
391
SXXX32 EUMS 110348 RRX
12FD90D0
:PRS 1 /1 1260 1251 1235 1230 1226 1229 1207 1199 1203 1199 1194 1208 :RAD 1 /3 5792 5774 5766 5771 5776 5788 5800 5811 5813 5808 :ENC 3 /6 5515 5495 5505 5536 5549 5533 5537 5552 5564 5559 :RA2 3 /6 4672 4657 4669 4702 4703 4679 4693 4706 4710 4699 :SW1 48 /60 60 :SW2 18 /60 60 :BAT 5 /6 12.9 :WTP 5 /6 28.2 28.2 :NAME 12FD90D0
0000011100
392
UANT99 KDDL 110350
ARP UAL101 5233N03234W 0350 F380 MS53 207/44 KT
N14120 DDL IG1 110350 F79A
0000045200
393
SXXX32 EUMS 110348 RRX
22856700
:PRS 1 /1 3191 3188 3190 3190 3192 3189 3184 3180 3179 3181 3179 3175 3174 3174 3170 3172 3176 3175 3175 3172 3168 3171 3168 3173 3181 3182 3167 3163 3164 3160 :RAD 1 /3 6688 6683 6679 6676 6675 6676 6674 6673 6667 6659 6655 6656 6652 6647 6646 6643 6644 6645 6644 6643 :ENC 3 /5 4885 4875 4868 4868 4870 4854 4852 4847 4843 4835 4837 4840 :SW1 48 /60 0 :SW2 18 /60 60 :BAT 14 /15 13.5 :NAME 22856700 /
0000010800
394
SAIN90 VEPT 110353
METAR VEPT 110350Z 10006KT 0500 -RA SCT018  OVC080 14/14 Q1017  NOSIG
=
0000014800
395
SMVA01 DEMS 110000 RRD
BBXX
TBWUK56 11004 99174 10697 41598 60312 10226 20116 40154 52020
70222 868// 22273 0//// 20703 80164=

0000033000
396
SAIN31 VABB 110340
METAR VABB 110340Z 01002KT 2800 FU NSC 20/03 Q1017 NOSIG=
METAR VOMM 110340Z 00000KT 1200 R07/2200 R25/1300 FG SCT018 25/20
     Q1016 BECMG 1800 BR=
METAR VOTR 110340Z 02008KT 2500 HZ FEW018 24/19 Q1016 BECMG 3000 HZ=
METAR VOTV 110340Z 00000KT 4000 HZ FEW018 28/22 Q1013 BECMG 5000 HZ=
0000011000
397
UANT99 KDDL 110350
ARP ACA874 5310N02832W 0350 F340 MS58 227/77 KT
CGHKR DDL XXW 110350 J59A
0000011000
398
UANT99 KDDL 110350
ARP BAW32N 4634N03238W 0350 F370 MS48 220/46 KT
GCIVL QXT AOW 110350 F68A
0000011100
399
UANT99 KDDL 110350
ARP AAL290 5101N03956W 0350 F380 MS54 278/22 KT
N190AA DDL XXW 110350 F92A
0000045300
400
SXXX32 EUMS 110348 RRX
32D8A2BE
:PRS 1 /1 2040 2043 2039 2043 2041 2033 2042 2035 2024 2039 2034 2029 2034 2028 2031 2022 2028 2027 2022 2025 2024 2027 2025 2021 2016 2015 2021 2019 2018 2022 :RAD 1 /3 7610 7601 7603 7602 7601 7604 7602 7604 7597 7595 7576 7573 7571 7568 7571 7572 7563 7552 7551 7550 :ENC 3 /5 5035 5034 5033 5028 5024 5021 5012 5007 5005 4999 4986 4983 :SW1 48 /60 27 :SW2 18 /60 42 :BAT 14 /15 13.0 :NAME 32D8A2BE /
0000011000
401
UANT99 KDDL 110350
ARP ACA870 4823N04339W 0350 F340 MS57 328/65 KT
CFNNQ DDL XXW 110351 F05A
0000011100
402
UANT99 KDDL 110350
ARP BER7211 4649N01216W 0350 F380 MS58 258/48 KT
DALPA QXT AOE 110351 J69A
0000032600
403
SAIN90 VABP 111200
METAR VIGR 111200Z 00000 1500 BR FEW250 17/10 Q1017=
METAR VAKJ 111200Z 02002KT 1000 BR SCT020 SCT100 17/15 Q1017=
METAR VAID 111200Z 05011KT 2000 HZ FEW020 16/11 Q1017=
METAR VAJB 111200Z 00000KT 1000 BR OVC010 16/14 Q1017=
METAR VABP 111200Z 05005KT 2000 HZ NSC 17/12 Q1018 NO SIG=
0000011000
404
UANT99 KDDL 110350
ARP UAL27 4830N04257W 0350 F360 MS56 323/47 KT
N17122 DDL IG1 110351 F63A
0000010800
405
UANT99 KDDL 110351
ARP THT8 5753N02821W 0351 F380 MS54 219/41 KT
FOJGF QXT AOE 110351 J58A
0000027500
406
SXHW11 KWAL 110352
15D142A4 011035202":PRS 1 #1 1350 1370 1375 1369 1367 1368 1367 1379 1375 1363 :RAD 1 #1 6935 6945 6948 6948 6946 6946 6949 6952 6952 6948 :ENC 2 #5 4855 4856 4858 4865 :SW1 52 #60 0 :SW2 22 #60 0 :BAT 4 #5 13.3 :NAME 15D142A4  35+0NN 216W
0000008600
407
UHPH01 RPMM 110000 RRA
PPCC 11007 98618 44370 13002 22501 06001 77999=
0000008000
408
SAYE20 OYSY 110400
METAR OYSY 110400Z VRB02KT CAVOK 15/09 Q1019=
00000000