0000014000
969
SMUS01 KWBC 111200 RRB
AAXX 11124
72295 31000 90000 10100 20100 30147 40199 51003 741// 91153 333
10183 20100 555 91112=
0000373300
970
SMUS01 KWBC 111200 RRA
AAXX 11124
72201 32466 21512 10244 20222 30173 40180 53005 91153 333 10267
20233 555 91112=
72202 32566 21505 10239 20217 30179 40189 53003 91153 333 10272
20233 555 91112=
72203 11566 61510 10245 20212 30179 40185 53004 69901 761// 91153
333 10267 20200 555 91112=
72205 12108 81807 10217 20206 30141 40175 55004 69901 91153 333
10272 20200 555 91112=
72206 31116 81909 10189 20189 30150 40159 56010 710// 91156 333
10261 20150 70003 555 91112=
72207 31124 81807 10178 20167 30132 40149 56010 710// 91153 333
10228 20161 70023 555 91112=
72208 11159 82113 10200 20189 30133 40149 56014 69931 710// 91156
333 10239 20161 70030 555 91112=
72211 32264 81709 10217 20206 30159 40173 55000 91153 333 10261
20200 555 91112=
72212 35/// /1907 10189 20189 30141 40155 58009 91153 333 70005
555 91112=
72214 31102 91708 10183 20172 30123 40141 58011 741// 91153 333
10228 20178 70003 555 91112=
72217 15366 41709 10178 20172 39985 40114 58014 60051 91153 333
10111 20100 70084 555 91112=
72218 32366 81911 10183 20178 30075 40128 56014 91153 333 10100
20094 70229 91018 555 91112=
72219 12208 81817 10167 20161 39716 40088 56046 60191 91152 333
10094 20083 70234 91023 555 91112=
72220 37104 91706 10189 20172 30139 40144 56011 730// 91153 555
91112=
72223 11259 82213 10194 20194 30021 40099 58013 60031 761// 91156
333 10189 20144 70056 91026 96010 555 91112=
72226 17566 81811 10206 20189 30009 40082 58024 60131 761// 91153
333 10161 20117 70165 91016 555 91112=
72231 11361 82709 10206 20194 30105 40115 53004 60131 761// 91153
333 10194 20161 70155 555 91112=
72234 12466 4//03 10172 20161 39988 40092 53020 60321 91158 333
10167 20128 70325 555 91112=
72235 12466 62810 10178 20156 39992 40094 51009 60091 91154 333
10189 20144 70094 555 91112=
72240 17124 82510 10172 20167 30118 40129 53005 69901 710// 91153
333 10194 20172 70130 555 91112=
72243 31232 42904 10150 20150 30088 40132 53015 710// 91153 333
10211 20150 555 91112=
72248 11916 00000 10061 20050 30029 40122 53018 69931 710// 91156
333 10194 20044 70030 555 91112=
72250 31116 92303 10183 20183 30142 40145 51014 710// 91153 333
10272 20167 70005 555 91112=
72251 32966 22005 10100 20094 30126 40145 51019 91151 333 10250
20100 70010 555 91112=
72253 32966 02906 10122 20094 39863 40141 53022 91151 333 10228
20111 70010 555 91112=
72254 35964 03106 10122 20072 39933 40155 53034 91151 333 10222
20122 70023 555 91112=
72255 37956 02805 10122 20111 30108 40145 53021 710// 91151 333
10233 20122 70025 555 91112=
72256 32966 00000 10044 20017 39975 40154 53036 91151 333 10217
20033 70015 555 91112=
72259 32966 03005 10072 20000 39941 40147 51030 91153 333 10211
20056 70023 555 91112=
72261 35962 00000 10044 20033 39794 40161 51022 91153 333 10194
20044 555 91112=
72263 35966 02404 10028 21056 39495 40174 51032 91151 333 10228
20022 555 91112=
72265 32966 03205 10022 21067 39177 40170 51023 91153 333 10206
20017 555 91112=
72266 32966 00000 10006 21039 39529 40168 53028 91152 333 10222
20000 555 91112=
72267 32966 02803 11033 21106 39032 40170 53013 91153 333 10167
21039 555 91112=
72268 35966 02606 10044 21094 38911 40154 91151 333 10206 20017
555 91112=
72270 32966 00503 10017 21089 38847 40188 53017 91151 333 10172
20017 555 91112=
72271 35966 03306 10050 21089 38564 40183 53015 91153 333 10167
20044 555 91112=
72274 32966 01409 10050 21050 39304 40204 58003 91153 333 10189
20044 555 91112=
72278 32966 20907 10072 20000 39810 40203 53003 91151 333 10194
20072 555 91112=
72290 32961 00000 10111 20061 30188 40201 51001 91151 333 10206
20111 555 91112=
0000372400
971
SMUS04 KWBC 111200 RRD
AAXX 11124
72248 11916 00000 10061 20050 30029 40122 53018 69931 710// 91156
333 10194 20044 70030 555 91112=
72253 32966 02906 10122 20094 39863 40141 53022 91151 333 10228
20111 70010 555 91112=
72255 37956 02805 10122 20111 30108 40145 53021 710// 91151 333
10233 20122 70025 555 91112=
72259 32966 03005 10072 20000 39941 40147 51030 91153 333 10211
20056 70023 555 91112=
72263 35966 02404 10028 21056 39495 40174 51032 91151 333 10228
20022 555 91112=
72265 32966 03205 10022 21067 39177 40170 51023 91153 333 10206
20017 555 91112=
72270 32966 00503 10017 21089 38847 40188 53017 91151 333 10172
20017 555 91112=
72306 12266 82009 10167 20161 39970 40123 56030 60011 91151 333
10072 20056 70178 555 91112=
72351 35966 02907 10028 21067 39787 40154 51019 91152 333 10206
20028 555 91112=
72360 35966 02510 11011 21128 38467 40162 52013 91155 333 10111
21039 555 91112=
72401 11004 90000 10067 20061 30062 40126 56038 60041 741// 91154
333 10050 20044 70094 555 91112=
72402 17104 92010 10133 20128 30128 40141 58024 60161 730// 91154
333 10117 20061 70180 555 91112=
72411 12164 80000 10039 20033 39685 40115 56041 60031 91154 333
10039 20033 70168 555 91112=
72434 12464 82913 10039 20011 39835 40041 53021 69951 91151 333
10078 20039 4/003 70142 555 91112=
72435 12966 02509 10056 20039 39907 40046 51021 60011 91153 333
10106 20056 70249 555 91112=
72456 35966 02706 10000 21022 39761 40083 51013 91153 333 10050
20000 555 91112=
72464 35966 00404 11078 21133 38547 40161 50005 91153 333 10100
21083 555 91112=
72529 12666 81808 10083 20050 39813 40029 58039 69931 91154 333
10050 20033 70003 555 91112=
72530 11159 82708 10022 20006 39724 49962 55005 60021 710// 91151
333 10044 20022 4/005 70218 555 91112=
72532 12364 82909 10011 20000 39762 40006 53017 69931 91154 333
10044 20011 70183 91019 555 91112=
72535 11159 82308 10044 20039 39685 49968 56019 60021 761// 91154
333 10061 20039 70226 96010 555 91112=
72543 11348 83009 10006 20000 39716 49981 53002 69901 710// 91154
333 10028 20006 4/023 70221 555 91112=
72544 35461 82814 10006 21017 39783 40002 53016 91152 333 10044
20006 70079 91019 555 91112=
72556 35966 02911 11017 21056 39499 40065 53020 91156 333 10044
21028 555 91112=
72557 32966 02910 11028 21056 39640 40048 51011 91152 333 10011
21078 555 91112=
72567 35966 02913 10000 21039 39173 40100 53022 91152 333 10078
21039 555 91112=
72606 11116 80403 10000 21006 30168 40185 58043 60041 767// 91151
333 11011 21022 70041 555 91112=
72644 31256 83110 11017 21033 39510 49995 51005 710// 91154 333
11006 21022 70020 555 91112=
72658 31358 82909 11028 21039 39672 49994 53002 710// 91153 333
11006 21028 4/015 555 91112=
72202 32566 21505 10239 20217 30179 40189 53003 91153 333 10272
20233 555 91112=
72206 31116 81909 10189 20189 30150 40159 56010 710// 91156 333
10261 20150 70003 555 91112=
72211 32264 81709 10217 20206 30159 40173 55000 91153 333 10261
20200 555 91112=
72214 31102 91708 10183 20172 30123 40141 58011 741// 91153 333
10228 20178 70003 555 91112=
72217 15366 41709 10178 20172 39985 40114 58014 60051 91153 333
10111 20100 70084 555 91112=
72226 17566 81811 10206 20189 30009 40082 58024 60131 761// 91153
333 10161 20117 70165 91016 555 91112=
72240 17124 82510 10172 20167 30118 40129 53005 69901 710// 91153
333 10194 20172 70130 555 91112=
72267 32966 02803 11033 21106 39032 40170 53013 91153 333 10167
21039 555 91112=
72268 35966 02606 10044 21094 38911 40154 91151 333 10206 20017
555 91112=
72271 35966 03306 10050 21089 38564 40183 53015 91153 333 10167
20044 555 91112=
0000147000
972
SMCN04 KWBC 111200 RRA
AAXX 11124
71216 17/// /1405 10009 20006 39364 49973 56046 60061 7//4/ 333
10021 20001 4/040 70154=
71291 17/// /3502 11027 21036 39659 49946 57017 69921 7//4/ 333
11017 21035 4/045 70004=
71296 17/// /1808 10030 20027 39686 49988 56033 60061 7//4/ 333
10017 20007 4/031 70072=
71303 45/// ///// 10049 20044 39773 49987 56020 6///1 333 10055
20019 7////=
71402 15/// /2620 11035 21076 30051 40168 50003 60001 333 11046
21059 4/036 70000=
71404 45/// /0106 11245 21278 39744 40018 58007 6///1 333 11163
21248 7////=
71476 17/// /0628 10022 20012 39770 49781 53004 60051 7//4/ 333
10057 20021 70074=
71478 15/// /1918 10068 20058 39704 49836 58007 60001 333 10086
20029 70142=
71480 15/// /3103 11373 21413 39941 40070 58007 60001 333 11238
21373 4/034 70002=
71588 15/// /2611 11038 60001 333 70000=
71589 15/// /2610 11065 21097 30054 40190 50008 60001 333 11056
21088 4/043 70000=
71671 15/// /0000 10015 20015 30175 40236 58013 60001 333 10007
21004 4/020 70007=
71680 45/// /3303 11310 21341 39530 40018 50000 6///1 333 11227
21310 4/021 7////=
71824 45/// /1102 11045 21051 6///1 333 11056 21066 7////=
71846 17/// /0000 11082 21090 39633 49948 56021 60011 7//4/ 333
11064 21083 4/030 70025=
71934 12874 10000 11296 21311 39771 40040 55007 60001 81070 333
11176 21296 47025 70004=
71954 45/// /3207 11122 21134 39632 40012 50010 6///1 333 11080
21122 4/039 7////=
0000036300
973
SXXX32 EUMS 111212
22E595B6
:PRS 1 /1 M 3686 3678 3701 3723 3681 3723 3742 3729 3759 3769 3739 3752 3734 3787 3811 3787 3785 3796 3798 3814 3807 3784 3809 3792 3796 3797 3801 3762 3793 :RAD 1 /3 6907 6930 6946 6958 6978 6982 6983 6974 6973 6969 :ENC 2 /5 5014 5055 5084 5110 5102 5087 :SW1 12 /60 0 :SW2 42 /60 60 :BAT 14 /15 12.6 :NAME 22E595B6
0000044500
974
SXXX32 EUMS 111213
32BD7124
:PRS 1 /1 1988 1989 1989 1992 1992 2004 2013 2014 2013 2012 2012 2014 2019 2022 2024 2025 2024 2022 2025 2027 2039 2043 2049 2054 2060 2067 2071 2077 2081 2082 :RAD 3 /3 7782 7794 7798 7802 7811 7814 7828 7840 7855 7864 7873 7876 7873 7874 7879 7893 7907 7920 7933 7939 :ENC 3 /5 4782 4794 4804 4815 4837 4861 4873 4869 4876 4897 4919 4935 :SW1 14 /60 0 :SW2 44 /60 0 :BAT 14 /15 12.5 :NAME 32BD7124
0000070100
975
SXXX32 EUMS 111213 RRA
223412A2
OT12 ID:IND-SADENG DT:2014 01 11 12 12
:PRS /1 02035 01962 01942 01929 01920 01973 01954 01898 01902 01935 01959 01973 01927 01881 01851 01892 01914 01897 01898 01974 01816 01799 01848 01939 01798 01902 01927 01776 01836 01872
:ENC /1 -12739 -12786 -12839 -12833 -12836 -12796 -12833 -12849 -12866 -12883 -12816 -12816 -12829 -12886 -12913 -12869 -12863 -12866 -12869 -12813 -12919 -12969 -12916 -12839 -12946 -12856 -12859 -12993 -12953 -12893
:RAD /1 11720 11750 11661 11642 11697 11720 11671 11681 11643 11589 11666 11694 11667 11661 11626 11640 11696 11673 11631 11659 11651 11576 11574 11626 11701 11640 11643 11581 11539 11622
:BAT 12.0V
0000040700
976
SXXX32 EUMS 111215
262D700E
:PRS 1 /1 2686 2629 2663 2673 2626 2638 2648 2643 2615 2626 2604 2622 2595 2634 2599 2618 2611 2548 2591 2531 2548 2613 2581 2537 2587 2541 2486 2503 2491 2524 :RAD 1 /3 5081 5067 5048 5031 5010 4992 4983 4960 4925 4914 4914 4891 4861 4850 4849 :ENC 5 /5 5188 5167 5117 5117 5055 5043 5026 4961 4985 4923 4899 4874 :SW1 15 /60 60 :BAT 14 /15 13.5 :NAME 262D700E
0000044900
977
SXXX32 EUMS 111215 RRA
16289262
:PRS 1 /1 2269 2276 2276 2261 2268 2263 2254 2255 2257 2265 2266 2254 2254 2245 2253 2264 2255 2240 2248 2244 2252 2239 2244 2241 2249 2235 2248 2247 2239 2235 :RAD 1 /3 7721 7717 7713 7709 7707 7704 7701 7696 7695 7689 7686 7688 7682 7676 7671 7666 7662 7663 7659 7657 :ENC 5 /5 5085 5082 5078 5073 5068 5066 5058 5051 5047 5037 5026 5020 :SW1 15 /60 0 :SW2 45 /60 0 :BAT 14 /15 12.8 :NAME 16289262
0000045300
978
SXXX32 EUMS 111215 RRB
324DF524
:PRS 1 /1 2009 2012 2016 2019 2022 2026 2030 2033 2037 2041 2045 2048 2052 2056 2060 2063 2068 2071 2075 2079 2083 2087 2091 2095 2099 2103 2107 2110 2114 2118 :RAD 1 /3 2019 2030 2041 2052 2062 2072 2083 2094 2110 2125 2138 2150 2164 2178 2191 2203 2217 2230 2246 2260 :ENC 5 /5 978 997 1018 1037 1057 1077 1097 1120 1142 1164 1186 1208 :SW1 15 /60 0 0 :SW2 45 /60 60 60 :BAT 14 /15 12.2 :NAME 324DF524
0000041700
979
SXXX32 EUMS 111216
26CB10AC
:PRS 1 /1 -1337 -1337 -1337 -1336 -1337 -1336 -1336 -1337 -1337 -1337 -1337 -1337 -1337 -1338 -1336 -1336 -1336 -1336 -1336 -1336 -1336 -1336 -1337 -1336 -1336 -1336 -1336 -1337 -1338 -1336 :RAD 3 /3 5926 5918 5911 5906 5904 5903 5901 5898 5893 5887 :RA2 3 /3 5913 5906 5895 5890 5883 5881 5880 5879 5873 5870 :SW1 17 /60 60 :SW2 47 /60 60 :BAT 14 /15 12.9 :NAME 26CB10AC
0000044900
980
SXXX32 EUMS 111216 RRA
1227146C
:PRS 1 /1 3853 3849 3843 3843 3841 3834 3830 3824 3823 3821 3819 3822 3821 3820 3821 3817 3813 3813 3811 3808 3808 3807 3802 3797 3795 3795 3789 3785 3787 3784 :RAD 3 /3 3839 3836 3808 3816 3816 3800 3807 3792 3779 3775 3763 3752 3744 3747 3749 3726 3713 3687 3694 3692 :ENC 1 /5 4601 4582 4579 4569 4558 4543 4528 4516 4506 4491 4474 4465 :SW1 17 /60 0 :SW2 47 /60 3 :BAT 14 /15 12.4 :NAME 1227146C
0000013200
981
SIPH01 KWBC 110900
AAXX 11091
98336 21470 70406 10218 20192 30172 40177 56006 71522 8257/ 333
56199 82615 87356=
0000114900
982
SMLA01 KWBC 111200
AAXX 11121
48935 31950 00401 10160 20127 39037 48528 52022 71044 333 10234
58011=
48944 31450 10000 10178 20141 39530 40124 52005 71044 81500 333
10242 58001=
48955 32760 30901 10280 20177 30012 40128 52016 83500 333 10320
58002=
48926 31540 13201 10227 20166 39684 40147 52008 71044 81100 333
10278 58013=
48938 31550 11402 10234 20173 39810 40144 52003 71044 81801 333
10282 58006=
48947 31540 40403 10232 20159 39991 40166 52004 71044 83530 333
10294 59009=
48957 31540 43601 10275 20174 30019 40126 52023 71044 83202 333
10330 58003=
48930 32558 30000 10210 20177 39807 40157 52004 83100 333 10285
58008=
48940 31640 22701 10242 20178 39948 40144 52011 71044 82500 333
10292 58000=
48945 31940 00000 10228 20174 39985 40166 52014 71044 333 10295
58007=
48924 31956 00000 10190 20190 39519 40149 52014 71044 333 10265
58011=
48927 31450 50000 10144 20126 39181 48641 52013 71044 85200 333
10190 58013=
48928 31410 80000 10157 20135 39103 48574 52017 71044 888// 333
10205 58014=
48946 31520 20902 10244 20223 39993 40160 52027 71044 81800 333
10298 58005=
0000034800
983
SMVS01 KWBC 111200
AAXX 11121
48803 32497 81402 10172 20136 30100 40216 52021 888// 333 00017
10182 58013 70000 84894 88696=
48823 01697 81101 10191 20174 30202 40205 52016 69904 70262 885//
333 00019 10210 58014 69902 79999 88696=
48825 32697 83202 10174 20149 30197 40206 53010 888// 333 00018
10180 58011 70000 88696=
0000148800
984
SMCI01 KWBC 111200
AAXX 11121
50953 11960 80204 11197 21244 30121 40283 52015 69941 77070 88///
333 92513=
52533 32980 01601 11063 21240 38654 40456 52010 333 00402=
52652 32980 01802 11119 21255 38676 40510 52009 333 00401=
52866 32965 32002 11083 21204 37775 52024 83/// 333 00603=
53463 42965 03405 11086 21243 38969 40418 52025 333 00204=
53588 32978 03212 11138 21245 37798 52007=
53772 32965 62903 10007 21203 39379 40346 52025 86///=
53915 32980 43402 11021 21226 38783 40405 52023 84/// 333 00601=
54218 32975 03203 11083 21204 39489 40353 52029=
54342 32965 72701 11046 21159 30215 40281 52010 87///=
54823 31956 01803 10032 21062 30087 40305 52008 70500=
56080 32970 73602 11114 21181 37186 52030 87/// 333 00451=
56096 32770 73602 10040 21111 39065 40350 52028 87/// 333 00600=
56187 31935 73201 10061 20024 40325 52031 70500 87/// 333 00600=
56778 32980 02203 10131 21016 38134 52024 333 00251=
57461 31950 72702 10043 20008 30007 40330 52017 70500 87///=
57516 11411 82701 10074 20063 39994 40315 52029 69921 76085 88///=
57687 11358 83402 10047 20022 30235 40323 52016 69921 76066 88///=
57816 11410 80703 10016 20015 38864 40309 52025 69941 76060 88///
333 00601=
58150 31926 01401 10001 21013 30310 40314 52005 71000=
58606 11450 80203 10049 20037 30239 40299 52012 69911 76060 88///=
59431 11417 80201 10117 20111 30095 40244 52023 69911 76060 88///=
59644 319// 00702 10193 20156 30205 40222 52022 70500=
0000236700
985
SMMO02 MNUB 111200
AAXX 11121
44203 329// 62901 11327 21362 38501 40644 52004 84047
333 11309 91201=
44207 329// 81802 11143 21204 38371 40428 52003 8807/
333 11135 91206=
44212 119// 60000 11287 21320 39299 40602 52002 69902
70272 86030 333 11235 91200 555 80045 93100=
44213 32999 60000 11261 21294 38921 40576 52003 85036
333 11247 91201=
44215 32998 60000 11237 21269 38491 40554 52005 83089
333 11187 91202=
44218 329// 00000 11254 21278 38705 40563 53002 333
11202 91202=
44225 32998 80000 11292 21327 38359 40640 57001 80007
333 11258=
44230 329// 30206 11236 21282 38878 40515 54000 80004
333 11193 91207=
44232 329// 00000 11241 21277 39208 40467 54001 333
11161=
44237 32999 30000 11154 21214 38559 40413 52005 82048
333 11081=
44239 329// 03201 11178 21237 38878 40436 50001 333
11158=
44241 329// 02401 11268 21299 39382 40481 52003 333
11171 91203=
44256 32999 00000 11295 21313 39461 40436 51016 333
11207 91200=
44265 329// 20000 11181 21240 38953 40468 57004 80004
333 91201=
44272 329// 71602 11223 21280 38290 40540 57007 87070
333 11181=
44275 32998 03202 11215 21290 37773 40550 54000 333
11110 91203=
44282 31999 03202 11153 21259 38361 40424 52007 70230
333 11103=
44284 32999 00301 11290 21340 37911 40647 54000 333
11188 91203=
44285 32999 01703 11216 21269 38393 40499 53008 333
11086 91204=
44287 32999 00704 11175 21282 38186 40497 54000 333
11113 91206=
44294 329// 03603 11244 21276 38642 40516 52006 333
11151 91205=
44298 329// 03205 11165 21257 38798 40413 52005 333
11123 91206=
44302 329// 03604 11190 21239 39196 40409 53013 333
11118 91206=
44305 32999 00504 11197 21255 39142 40336 52012 333
11122 91204=
44313 12999 00000 11275 21293 39473 40416 52012 69902
333 11183 91202 555 80027 93100=
44314 11998 50501 11256 21288 39240 40461 52021 69902
70272 85080 333 11134 91205 555 80021 93100=
44317 32998 60503 11188 21237 39026 40428 52028 86030
333 11133 91205=
44336 329// 02406 11145 21254 38783 40454 52001 333
11081 91206=
44341 329// 03106 11175 21200 38690 40467 52006 333
11108 91206=
44347 32999 03203 11146 21235 38817 40467 52008 333
11091 91208=
44352 32999 03203 11174 21233 39002 40399 52020 333
11133 91203=
44358 329// 03201 11137 21259 39185 40428 52021 333
11069 91202=
0000154700
986
SMMO40 MNUB 111200
AAXX 11121
44210 32999 40000 11185 21241 38603 53001 85030 333
11138 91201=
44216 32999 33201 11306 21336 39138 40594 57008 80006
333 11242 91203=
44217 NIL=
44219 32998 60902 11206 21256 38704 40503 57001 80007
333 11155=
44221 119// 80000 11270 21297 38703 40563 53007 69912
72272 8802/ 333 11284 555 80120 93100=
44224 329// 70000 11233 21259 38119 40562 57006 87010
333 11230=
44229 32999 22302 11219 21259 37985 40497 51001 80004
333 11164=
44242 329// 03201 11264 21295 39443 40458 52006 333
11184 91201=
44243 329// 40000 11303 21337 39539 40493 53004 80004
333 11209 91201=
44254 329// 00000 11203 21261 39118 40427 53017 333
11120 91201=
44257 319// 02902 11167 21230 39060 40404 51016 70233
333 11116 91205=
44263 32998 00000 11204 21271 38126 40520 56007 333
11151=
44266 329// 23405 11147 21274 37803 40392 57001 82080
333 11101 91205=
44286 329// 02302 11213 21266 38725 40460 52008 333
11134 91204=
44291 319// 02003 11314 21349 38828 40563 51004 70400
333 11201=
44325 329// 13601 11144 21225 38957 40442 53003 80004
333 11039 91201=
44329 32998 02303 11172 21290 37822 40455 58002 333
11110 91204=
44338 32999 02102 11140 21256 38567 40463 52001 333
11082 91205=
44348 329// 00000 11147 21223 38793 40443 52009 333
11106=
44374 32999 02703 11138 21268 38345 40472 52007 333
11080 91205=
44385 32999 03204 11116 21240 39030 40428 52040 333
11063 91204=
44386 329// 03204 11127 21238 39158 40433 52014 333
11083=
0000171900
987
UDAS02 BABJ 111209
AMDAR 1112
DES CNFPYL 3050N 11718E 111203 F220 MS240 254/059 TB/ S//1=
DES CNFPYL 3057N 11718E 111204 F200 MS209 245/034 TB/ S//1=
DES CNFPYL 3103N 11716E 111205 F181 MS160 239/028 TB/ S//1=
DES CNFPYL 3108N 11713E 111206 F160 MS113 249/031 TB/ S//1=
LVR CNFOZL 2813N 11337E 111205 F246 MS225 256/099 TB/ S//1=
LVR CNFOZL 2819N 11337E 111206 F246 MS228 257/099 TB/ S//1=
LVR CNFOZL 2820N 11337E 111206 F246 MS230 257/099 TB/ S//1=
LVR CNFOZL 2827N 11338E 111207 F246 MS230 257/100 TB/ S//1=
DES CNFOZN 2250N 11345E 111205 F028 PS113 092/004 TB/ S//1=
DES CNFOZN 2250N 11343E 111205 F028 PS111 114/007 TB/ S//1=
DES CNFOZN 2248N 11342E 111206 F028 PS115 114/006 TB/ S//1=
DES CNFOZN 2246N 11343E 111207 F021 PS128 006/000 TB/ S//1=
ASC CNFNXM 2802N 12054E 111206 F040 PS055 196/024 TB/ S//1=
ASC CNFNXM 2803N 12052E 111206 F061 PS029 237/017 TB/ S//1=
ASC CNFNXM 2803N 12050E 111207 F069 PS010 274/022 TB/ S//1=
ASC CNFNXM 2803N 12049E 111207 F077 PS014 276/024 TB/ S//1=
DES CNFOZM 2953N 11340E 111205 F240 MS254 257/077 TB/ S//1=
DES CNFOZM 2947N 11340E 111206 F230 MS233 262/076 TB/ S//1=
DES CNFOZM 2946N 11340E 111206 F229 MS233 262/075 TB/ S//1=
DES CNFOZM 2940N 11340E 111207 F220 MS205 261/071 TB/ S//1=
DES CNFPYN 3429N 11326E 111205 F068 MS060 325/011 TB/ S//1=
DES CNFPYN 3430N 11328E 111205 F063 MS050 310/012 TB/ S//1=
DES CNFPYN 3432N 11332E 111206 F049 MS029 328/015 TB/ S//1=
DES CNFPYN 3434N 11335E 111207 F037 MS001 314/020 TB/ S//1=
DES CNFNXN 3937N 11639E 111205 F059 MS105 321/036 TB/ S//1=
DES CNFNXN 3940N 11640E 111206 F055 MS095 326/032 TB/ S//1=
DES CNFNXN 3943N 11639E 111207 F055 MS093 326/024 TB/ S//1=
0000078900
988
UDAS02 BABJ 111211
AMDAR 1112
LVR CNFPQK 3822N 11403E 111207 F157 MS248 286/056 TB/ S//1=
LVR CNFPQK 3821N 11359E 111207 F157 MS250 286/053 TB/ S//1=
ASC CNFPQK 3819N 11356E 111208 F170 MS268 278/055 TB/ S//1=
ASC CNFPQK 3819N 11354E 111208 F178 MS278 271/058 TB/ S//1=
ASC CNFNXM 2803N 12046E 111207 F098 MS013 266/027 TB/ S//1=
ASC CNFNXM 2803N 12043E 111208 F112 MS033 266/028 TB/ S//1=
ASC CNFNXM 2802N 12040E 111209 F124 MS065 256/026 TB/ S//1=
ASC CNFNXM 2802N 12037E 111209 F139 MS094 265/029 TB/ S//1=
LVR CNFOZL 2834N 11338E 111208 F246 MS233 257/098 TB/ S//1=
LVR CNFOZL 2840N 11339E 111209 F246 MS235 257/100 TB/ S//1=
LVR CNFOZL 2841N 11339E 111209 F246 MS235 257/100 TB/ S//1=
LVR CNFOZL 2848N 11340E 111210 F246 MS238 259/098 TB/ S//1=
00000000