0000007600
896
UPIN90 VANP 111200
PPAA 61111 42361 55292 33513 34511 77999=
0000021100
897
FTNO38 ENMI 101400 AAB
TAF AMD ENOA 101559Z 1015/1115 28012KT 9999 FEW007 BKN015 TEMPO
             1015/1112 2000 RADZ BKN007 BECMG 1100/1103 29025KT BECMG
             1106/1109 28035KT=

0000010500
898
SAUK38 EGGY 101550 RRA
METAR EGEC 101550Z 31002KT 9999 VCSH FEW016 SCT029 06/02 Q1005=

0000032300
899
SAVN27 SVBM 101600
METAR SVBM 101600Z 09010KT 9999 FEW016 28/20 Q1017=
METAR SVAC 101600Z 02006KT CAVOK 30/20 Q1016=
METAR SVGU 101600Z 05008KT 9999 FEW020 32/19 Q1014=
METAR SVSP 101600Z 04015KT 9999 SCT070 XX/XX Q1015=
METAR SVVL 101600Z NIL=
METAR SVSO 101600Z NIL=
METAR SVBI 101600Z NIL=

0000011200
900
SACN61 CYKF 101600
METAR CYKF 101600Z AUTO 17007KT 1SM BR OVC003 M02/M03 A3019 RMK
 SLP241=

0000013900
901
SACN61 CYHE 101600
METAR CYHE 101600Z AUTO 29018G30KT 8SM -RA OVC034 09/06 A2983 RMK MAX
 WND 28022KT AT 1532Z SLP103=

0000011300
902
SACN61 CYHU 101600
METAR CYHU 101600Z AUTO 20008KT 9SM -SN OVC020 M06/M09 A3035 RMK
 SLP278=

0000012200
903
SACN61 CYKL 101600
METAR CYKL 101600Z AUTO /////KT 3SM -SN OVC024 M14/M17 A2957 RMK WND
 MISG SLP069=

0000013500
904
SACN62 CYHM 101600
METAR CYHM 101600Z 18007KT 1 3/4SM -SN BR OVC003 M01/M01 A3022 RMK
 FG1SF7 PCPN VRY LGT SLP245=

0000135700
905
SPUS70 KWBC 101602
SPECI
KAHN 101558Z 06008KT 2SM -RA BR OVC005 06/05 A3028 RMK AO2
     P0000=
KAJO 101558Z AUTO 00000KT 1/2SM FG CLR 03/ A3012 RMK AO2 $=
KFCI 101559Z AUTO 03003KT 2SM BKN004 BKN015 OVC031 02/M03 A3042
     RMK AO1=
KJKL 101558Z AUTO 00000KT 1 1/4SM BR OVC017 06/04 A3024 RMK AO2
     VIS 1/2V5 T00560044=
KMEB 101558Z AUTO 08006KT 1 3/4SM RA BR FEW045 BKN080 OVC095 09/08
     A3032 RMK AO2 P0002 T00890083=
KRDU 101558Z 00000KT 6SM -RA BR FEW027 BKN048 OVC075 05/03 A3036
     RMK AO2 P0000=
KUZA 101558Z AUTO 03006KT 1 3/4SM RA BR OVC003 05/04 A3032 RMK AO2
     P0002 T00500039=
KBGM 101559Z 18008KT 1SM -SN BR FEW007 BKN015 OVC049 M03/M03 A3030
     RMK AO2 TWR VIS 2 P0000 RVRNO=
KCHO 101559Z 32003KT 1 3/4SM -RA BR BKN003 BKN031 OVC036 01/00
     A3040 RMK AO2 P0000 T00060000=
KDVN 101559Z AUTO 14015KT 2 1/2SM BR OVC002 00/M01 A2988 RMK AO2
     $=
KMSS 101600Z AUTO 00000KT 4SM -SN BR BKN035 BKN045 OVC090 M07/M09
     A3033 RMK AO2 P0000=
KPIL 101558Z AUTO 18012G20KT 6SM BR FEW007 BKN029 OVC040 22/19
     A2993 RMK AO2=
KSLK 101559Z AUTO 22008KT 2 1/2SM BR BKN040 BKN049 OVC065 M04/M07
     A3023 RMK AO2 SNE59 P0000=
KSPI 101559Z 14012KT 8SM SCT006 OVC016 02/01 A2995 RMK AO2=
PPIZ 101559Z AUTO 00000KT 1SM HZ VV014 M28/M31 A3004 RMK AO2 TSNO
     $=

0000011100
906
SPUS31 KWBC 101602
SPECI
KRDU 101558Z 00000KT 6SM -RA BR FEW027 BKN048 OVC075 05/03 A3036=

0000011200
907
SASR31 WSSS 101600
METAR WSSS 101600Z 01005KT 310V060 9999 FEW018 BKN300 25/23 Q1012
NOSIG=

0000010200
908
SABZ19 SBOI 101600
METAR SBOI 101600Z 15004KT 9999 -RA BKN010 OVC100
26/22 Q1012=

0000013300
909
SAUK36 EGGY 101550 RRB
METAR EGWU 101550Z 22005KT 9999 -SHRA FEW018 BKN040 OVC060 09/06
     Q1013 TEMPO SCT017=

0000009800
910
SABZ19 SBMA 101600
METAR SBMA 101600Z 16003KT 9999 BKN018 BKN080 29/23
Q1012=

0000010100
911
SABH31 MZBZ 101600
METAR MZBZ 101600Z 28003KT 9999 FEW021 25/21 A3005 Q1017 NOSIG=

0000008900
912
SABZ24 SBFI 101600
METAR SBFI 101600Z 36008KT 9999 SCT040 33/21 Q1012=

0000020400
913
SANL32 EHDB 101555
METAR EHEH 101555Z AUTO 22008KT 9999 FEW051 06/03 Q1016 
BLU 23010KT 9999 FEW025=
METAR EHKD 101555Z AUTO 23011KT 9999 NCD 07/05 Q1013 
BLU 26015KT 9999 SCT015=

0000019200
914
FTUS51 KWBC 101557 AAA
TAF AMD
KSBY 101554Z 1016/1112 VRB03KT 4SM -RA BR OVC025
      TEMPO 1016/1018 2SM -RA BR BKN003 BKN020
     FM101800 15004KT 4SM -RA BR OVC015=

0000040600
915
FTUS53 KWBC 101557 AAA
TAF AMD
KDEC 101554Z 1016/1112 15012KT 6SM BR VCSH OVC015
     FM101800 16017KT 2SM RA BR OVC002
     FM110100 18014KT 2SM -RA BR OVC004
     FM110800 23014KT 3SM -DZ BR OVC006=
KSPI 101555Z 1016/1112 16013KT 6SM BR VCSH OVC008
     FM101800 16017KT 2SM -RA BR OVC002
     FM110100 18014KT 2SM -RA BR OVC002
     FM110600 24012KT 3SM -DZ BR OVC006=

00000000