0000004900
229
SMRH21 LDZM 111200 RRA
AAXX 11121
0000057300
230
SMSP61 LEMM 111200
AAXX 11124
08094 11456 70803 10078 20061 39550 40208 50001 60001 74042 84680=
08112 NIL=
08117 NIL=
08157 NIL=
08223 11958 81302 10090 20046 39393 40198 50003 60001 70542 82077=
08233 NIL=
08335 NIL=
08383 NIL=
08391 02962 21702 10170 20102 30157 40194 50006 60001 81032
  333 60007=
08397 12965 42801 10175 20104 30087 40191 52009 60001 82041=
08417 NIL=
08429 11530 70000 10120 20102 30109 40200 50002 60041 71064 8453/=
08433 02565 83408 10149 20103 30189 40193 58003 60001 8657/
  333 60007=
08458 NIL=
0000089800
231
UKNO11 ENMI 111200
TTBB 11118 01415 00996 05427 11850 04913 22840 05722 33765 10359
      44760 10756 55751 11361 66719 13956 77653 19765 88633 21156
      99630 21165 11620 21964 22615 22356 33598 23165 44562 25187
      55512 30388 66485 32780 77477 33758 88454 36758 99442 38165
      11436 38774 22419 39181 33311 48775 44298 48173 55278 50771
      66258 47382 77239 48982 88197 44985 99100 56382 21212 00996
      27007 11648 28514 22625 28515 33526 26509 44465 24016 55432
      24519 66374 22526 77355 24520 88314 23020 99284 25016 11264
      23516 22259 24015 33231 25520 44217 27015 55203 24516 66195
      27016 77188 26016 88179 29015 99170 28010 11168 27010 22165
      25512 33158 26512 44151 25016 55149 26017 66133 30008 77122
      26012 88108 26520 99100 25517 31313 48108 81119 41414 /////
      51515 11880 27512 22800 28512 33600 28512=
0000089800
232
UKNO12 ENMI 111200
TTBB 11128 01001 00013 00014 11966 01740 22844 10706 33806 11930
      44804 11758 55798 12164 66770 13176 77704 16559 88638 22336
      99637 22336 11631 22158 22615 23156 33585 24158 44540 23970
      55526 24577 66482 27561 77447 31758 88407 36558 99363 41168
      11330 46360 22287 51964 33230 63361 44190 68362 55182 66163
      66172 67963 77168 63564 88158 61569 99100 66775 21212 00013
      21001 11976 12005 22876 13013 33725 11511 44694 13508 55675
      12508 66614 12011 77600 10513 88571 11013 99555 13011 11532
      12513 22514 13518 33471 11026 44406 10521 55378 11017 66325
      12024 77305 11528 88210 11029 99190 11022 11180 14018 22171
      13016 33162 16512 44153 16010 55144 19012 66106 21523 77100
      21018 31313 48008 81112 41414 38330 51515 11893 13011 22800
      12009 33600 10513=
TTBB 1112/ 01028 NIL=
0000151600
233
UKNO13 ENMI 111200
TTBB 11128 01152 00009 07763 11912 14558 22862 15175 33808 17171
      44729 23167 55718 22172 66666 25374 77660 24379 88590 27380
      99446 39763 11400 44166 22371 46567 33360 45976 44322 50775
      55285 48383 66100 60977 21212 00009 07503 11006 10505 22977
      11013 33865 12022 44752 13009 55690 07517 66578 08022 77492
      08018 88475 09516 99437 06018 11380 07517 22352 04513 33294
      07018 44288 06018 55276 04517 66262 06015 77231 03514 88220
      05513 99210 03513 11201 05512 22193 04508 33191 03007 44183
      36008 55174 35514 66169 01017 77158 02013 88151 34509 99138
      33019 11124 33521 22103 32027 33100 31525 31313 48108 81110
      41414 ///// 51515 11886 12020 22800 13014 33600 08021=
TTBB 61118 01241 00000 07756 11935 11756 22904 09557 33768 18334
      44682 22359 55648 25357 66644 23170 77639 22975 88509 28191
      99394 41766 11279 49175 22217 47185 33203 50984 44189 51184
      55176 47585 66102 59581 77100 59381 21212 00000 13014 11997
      11516 22949 13531 33850 12021 44792 14014 55735 12030 66653
      07519 77639 09510 88584 25002 99530 26510 11511 28014 22411
      29510 33389 29511 44378 27517 55354 30019 66325 29019 77318
      30017 88303 27524 99283 28532 11257 30514 22236 27535 33207
      27030 44195 30533 55184 31025 66181 30523 77175 28529 88140
      31533 99126 31034 11120 28533 22100 30541 31313 48108 81120
      41414 ///// 51515 11879 12523 22800 13014 33600 21003=
0000072400
234
UKOS01 LOWM 111200
TTBB 11128 11035
00995 06645 11993 07657 22909 01220 33894 02457 44880
02060 55828 00317 66806 01550 77794 00977 88778 01964
99762 01771 11735 01565 22710 03766 33657 08733 44635
10558 55594 14730 66505 21957 77460 27740 88409 32756
99285 53756 11232 62949 22216 59365 33205 60170 44171
56578 55100 57380
21212 00995 10502 11965 18005 22934 17009 33917 18008
44904 19505 55890 24004 66881 26005 77862 28010 88743
30022 99580 29523 11530 28521 22427 26524 33273 27522
44218 26024 55205 26032 66196 27529 77176 26023 88144
28517 99130 29518 11124 28022 22117 30522 33106 29019
44100 30020
31313 48008 81134
41414 15708
51515 11880 26506 22800 28515 33600 29022=
0000010900
235
UANT01 CWAO 111221
ARP SIA26 5220N04236W 1221 F390 MS58 283/43 KT
9VSKS QXT AME 111221 J02A
0000068600
236
SMKZ20 UAAA 111200
AAXX 11121
28978 41498 81802 11073 21094 39712 40218 57001 70272 885// 555  
1/108=
28984 41599 51402 11103 21113 39726 40234 54000 70272 81642 555  
1/112=
34398 41497 81611 10019 20008 30028 40041 57013 76162 887// 555  
1/001=
34798 42997 82205 10055 20015 30154 40124 53011 8805/ 555   11005=
35173 415// 81604 11060 21079 39837 40227 57005 77172 885// 555  
1/107=
35358 42997 81801 11032 21079 30006 40178 53010 8802/ 555   1/105=
35576 42898 71705 11093 21149 39779 40243 57009 87010 555   1/111=
35699 429// 80204 11104 21157 39526 40320 57006 80006 555   1/112=
36686 429// 80903 11098 21134 39854 40306 57010 80004=
0000011100
237
UANT01 CWAO 111221
ARP UAL153 5401N02018W 1221 F330 MS61 214/84 KT
N17128 DDL IG1 111221 F53A
0000011000
238
UANT01 CWAO 111221
ARP DAL109 4531N02205W 1221 F330 MS54 202/95 KT
N1605 QXT AOE 111221 F51A
0000010000
239
SAIN90 VERC 111208
VERC 111200Z 05005KT 1000 MIFG SCT 015 BKN100 15/12  Q1017 NOSIG=
0000011100
240
UANT01 CWAO 111221
ARP AWE731 5307N02312W 1221 F370 MS60 202/67 KT
N273AY DDL XXN 111221 J30A
0000087300
241
SMGL02 EKMI 111200
AAXX 11124
04203 46/// /0908 11085 21111 39912 49930 =
04205 45/84 /0821 11063 21181 39921 49943 57006 =
04208 46/// /2513 11088 21119 39929 49975 =
04213 46/// /2815 11066 21145 39843 49954 52004 =
04214 46/// /3115 11053 21112 39930 49963 =
04224 45983 31908 11087 21130 39924 49958 52003
  333 83/61 =
04228 46/// /1703 11064 21111 39948 49961 =
04242 46/// /0613 11090 21149 39950 49966 =
04253 46/// /0713 11085 21158 39923 49950 =
04266 46/// /0924 11070 21105 39891 49929 =
04285 46/// /0905 11051 21116 39931 49950 =
04301 46/// ///// 11228 21260 39997 40002 =
04313 NIL =
04330 46/// /3606 11104 21174 30079 40097 =
04351 46/// /0310 11015 21026 39987 40003 =
04373 46/// /3217 11071 21077 39871 49965 =
04382 46/// /3204 11094 21165 39898 49947 =
04416 46/// ///// 11386 21402 36602 52004 =
0000012400
242
SMRO46 YRBK 110000 RRE
AAXX 11001
15479 03/// ///// 10042 20022 30032 40238 5//// 6///1 333 55059
6///7=
0000082000
243
SMRA20 RUNW 111200
AAXX 11121
28216 42698 81405 11031 21047 39748 40031 57011 885//=
28428 42597 81905 11015 21028 39877 40063 57005 885// 333 91111=
28451 41998 81402 11060 21082 39977 40139 52007 70272 8807/=
28655 42998 81903 11066 21088 39929 40156 52004 8807/=
28756 41998 81903 11065 21084 30021 40172 52003 70232 8807/=
29557 12598 82404 11058 21109 30056 40330 52010 69902 8535/ 333
11053=
29625 12598 82003 11077 21101 30121 40306 50003 69902 88500 333 11073
88625=
29813 12999 21604 11111 21135 30103 40292 57003 60002 80001 333
11073=
29822 11997 81703 11082 21118 30153 40324 57003 69962 70272 8805/ 333
11069=
29915 11998 61304 11114 21138 30141 40309 57003 69902 70232 83032 333
11070=
36020 12998 61502 11096 21137 30114 40324 57012 60002 86030 333
11072=
0000041700
244
SMRA21 RUNW 111200
AAXX 11121
28383 41996 81702 11057 21083 30119 40206 52005 77173 8802/=
28586 41996 81703 11069 21090 30065 40217 52001 77172 8802/=
28588 41996 81703 11065 21089 30053 40217 53004 77172 8802/=
28688 41997 61502 11071 21096 30052 40217 52007 70272 83021=
28696 42997 81601 11103 21131 30104 40250 54000 80007=
28791 41998 81502 11119 21139 30083 40236 52001 70272 84045=
0000118400
245
SSVX02 LFVW 111222
ZZYY 41653 11014 1212/ 722220 048634 6112/
22219 00246
33311 88872 20000 32458 43736
444 2012/ 11014 1132/ 50101 9/015=
ZZYY 41648 11014 1212/ 725635 043583 6112/
22219 00233
33311 88872 20000 32333 43740
444 2012/ 11014 1130/ 50101 9/015=
ZZYY 41650 11014 1211/ 723344 049586 6112/
22219 00247
33311 88872 20000 32466 43746
444 2012/ 11014 1132/ 50101 9/015=
ZZYY 41652 11014 1212/ 724038 037279 6112/
22219 00235
33311 88872 20000 32351 43600
444 2012/ 11014 1129/ 50101 9/015=
ZZYY 41644 11014 1212/ 730934 039772 6111/
22219 00216
33311 88872 20000 32165 43643
444 2011/ 11014 1206/ 50101 9/015=
ZZYY 41647 11014 1211/ 724133 048675 6112/
22219 00244
33311 88872 20000 32442 43668
444 2012/ 11014 1131/ 50101 9/015=
ZZYY 41651 11014 1210/ 729253 048597 6111/
22219 00265
33311 88872 20000 32645 48264
444 2011/ 11014 1129/ 50101 9/015=
ZZYY 41649 11014 1212/ 733880 031695 6111/
22219 00199
33311 88872 20000 31992 43634
444 2011/ 11014 1207/ 50101 9/015=
ZZYY 41645 11014 1210/ 727981 040108 6111/
22219 00226
33311 88872 20000 32255 43719
444 2011/ 11014 1207/ 50101 9/015=
0000022700
246
SMAZ41 LPMG 111200
AAXX 11121
08506 12/// /3009 10114 20026 30058 40130 52031 69971
333  91015 91118
555 50014 60005=
08511 32/// /2907 10124 20065 39997 40105 52036
333  91014 91115
555 50014 60005=
0000054400
247
UKFR05 LFPW 111200 RRA
TTBB 61118 07510 00015 11808 11003 11037 22965 08608 33888 03610
44874 05270 55860 04437 66812 01243 77794 01847 88670 06557 99647
08168 11610 10961 22597 11943 33578 13558 44553 15756 55523 18741
66363 39748 77226 631// 88186 605// 99173 559// 11104 539// 21212
00015 27001 11867 30010 22730 23022 33597 24009 44332 24018 55217
30520 66197 23021 77191 26524 88153 23515 99133 26024 11121 23525
22114 27025 33106 25031 31313 47708 81115 41414 ///// 51515 11899
29008 22800 26516 33600 24009=
0000050600
248
UKFR06 LFPW 111200 RRA
TTBB 61118 07645 00015 11221 11885 03410 22815 00204 33793 01056
44737 00748 55507 20515 66371 37150 77326 449// 88215 631// 99189
631// 11184 579// 22173 591// 33166 559// 44137 535// 55101 555//
21212 00015 05002 11871 18014 22808 25002 33594 24033 44544 27026
55465 23525 66209 24053 77194 25545 88169 22540 99157 26037 11143
24025 22129 26531 33119 25039 44108 27017 55100 25529 31313 47708
81115 41414 ///// 51515 11899 15012 22800 25003 33600 24032=
00000000