0000009700
729
SAPK31 OPKC 111230 RRA
METAR OPKC 111225Z 07009KT 8000 SCT200 22/M07 Q1020 NOSIG=
0000127400
730
SMNP01 VNKT 111200
AAXX 11124
44404 21904 02815 10022 20022 38124 48477 74544 8////
  333 10046 59001 60078 70101=
44406 22102 80000 10104 20100 39550 40213 76164 8622/
  333 10116 58053 60058 70054=
44409 22656 70000 10146 20134 39950 40157 85620
  333 10161 58033 60098 70117=
44416 21140 82704 10103 20095 39386 40179 70595 85720
  333 10135 58026 60048 70047=
44418 21650 40000 10157 20146 39970 40167 70552 84800
  333 10173 58027 60078 70069=
44424 22565 52402 10029 20029 37670 47049 83292
  333 10049 58021 60008 70000=
44429 22456 80000 10126 20119 39405 40184 8781/
  333 10187 58018 69968 70007=
44434 22557 52604 10152 20091 39234 48530 83510
  333 10185 58011 60008 70000=
44438 21312 73505 10156 20146 30038 40167 71044 86870
  333 10210 58016 60028 70023=
44449 21335 70000 10184 20174 30010 40169 70544 84170
  333 10240 58016 60008 70000=
44454 22550 42404 10124 20068 38676 48576 70500 81830
  333 10171 58006 60008 70000=
44462 NIL=
44474 22456 21802 10089 20032 38262 48495 82200
  333 10129 58006 60008 70000=
44477 21450 30000 10092 20088 38825 48528 70500 81430
  333 10187 58017 60008 70000=
44478 21935 60000 10172 21042 30080 4//// 70544 84450
  333 10195 58020 60008 70000=
0000034400
731
SZIO01 AMMC 111230
CREX++
T000103 A001 D01021 D06025++
-1211670 09689190 46280 2014 01 11 12 23 3018 11 07 00 01
00784 0034 00772 0024 00776 0029 00769 0024 00767 0024 00772 0031+
-1042940 10566940 46290 2014 01 11 12 23 //// 11 07 00 01
01053 -0022 01073 0001 01007 -0062 01097 0030 01019 -0045 01065 0004++
7777

0000191600
732
SZAU01 AMMC 111230
CREX++
T000103 A001 D01021 D06025++
-1927750 14705860 59260 2014 01 11 12 23 3018 11 07 00 01
01496 0197 01486 0193 01479 0193 01481 0202 01462 0190 01459 0194+
-2316110 15079000 59670 2014 01 11 12 23 3000 11 07 00 01
02076 0243 02067 0243 02062 0248 02045 0241 02035 0241 02021 0237+
-3447330 15091170 60420 2014 01 11 12 23 2963 11 07 00 01
00464 -0060 00464 -0059 00468 -0055 00473 -0049 00474 -0047 00476 -0045+
-4105000 14591500 60910 2014 01 11 12 23 2888 11 07 00 01
02217 -0004 02217 0005 02217 0013 02198 0002 02187 0000 02181 0002+
-4254640 14793080 61170 2014 01 11 12 23 2898 11 07 00 01
01078 0116 01075 0113 01068 0106 01057 0095 01053 0092 01050 0089+
-3834390 14161360 61410 2014 01 11 12 23 2908 11 07 00 01
00714 -0012 00743 0017 00771 0044 00710 -0017 00769 0042 00733 0005+
-3214890 13364170 62000 2014 01 11 12 23 2957 11 07 00 01
01123 -0012 01122 -0014 01126 -0013 01127 -0013 01130 -0012 01131 -0014+
-3387080 12189720 62080 2014 01 11 12 23 2950 11 07 00 01
01067 0033 01056 0022 01058 0023 01056 0020 01059 0023 01065 0028+
-3182560 11573860 62237 2014 01 11 12 23 2972 11 07 00 01
00981 0076 00983 0079 00976 0073 00981 0079 00981 0080 00978 0078+
-2422000 11339750 62385 2014 01 11 12 23 //// 11 07 00 01
01219 -0124 01271 -0070 01254 -0085 01285 -0052 01252 -0083 01260 -0073+
-2181670 11419110 62430 2014 01 11 12 23 //// 11 07 00 01
02056 -0083 02066 -0070 02063 -0071 02047 -0085 02060 -0069 02054 -0073+
-1800080 12221830 62650 2014 01 11 12 23 3043 11 07 00 01
06551 0065 06542 0064 06534 0063 06527 0065 06519 0064 06513 0062+
-1247190 13084580 63230 2014 01 11 12 23 3050 11 07 00 01
04258 0088 04261 0086 04264 0088 04266 0085 04268 0086 04273 0089+
-1386000 13641580 63511 2014 01 11 12 23 3042 11 07 00 01
01894 0093 01892 0090 01891 0089 01890 0088 01890 0087 01889 0086++
7777

0000178900
733
SZPS01 AMMC 111230
CREX++
T000103 A001 D01021 D06025++
-0204190 14737360 56130 2014 01 11 12 23 3027 11 07 00 01
00387 0073 00385 0072 00386 0073 00383 0070 00383 0071 00383 0071+
-0669280 15640860 56363 2014 01 11 12 23 //// 11 07 00 01
00505 -0048 00505 -0050 00509 -0047 00509 -0049 00510 -0049 00511 -0050+
-0942890 15995560 56670 2014 01 11 12 23 3040 11 07 00 01
00407 -0068 00405 -0070 00406 -0070 00409 -0067 00406 -0070 00407 -0069+
-1072080 16580190 57131 2014 01 11 12 23 //// 11 07 00 01
01260 0743 00510 -0010 00916 0394 00527 0002 00458 -0070 00826 0296+
-1551560 16718860 57210 2014 01 11 12 23 //// 11 07 00 01
00571 -0163 00588 -0149 00586 -0154 00580 -0164 00592 -0155 00589 -0161+
-1775690 16830030 57320 2014 01 11 12 23 3017 11 07 00 01
00500 -0111 00503 -0111 00504 -0113 00502 -0118 00500 -0122 00499 -0125+
-4397330 16861610 65180 2014 01 11 12 23 2885 11 07 00 01
01419 0379 01404 0368 01401 0369 01397 0370 01415 0392 01416 0397+
-2120470 -15978530 65980 2014 01 11 12 23 3010 11 07 00 01
00572 0002 00582 0011 00579 0006 00588 0013 00617 0041 00605 0028+
-2113810 -17518140 66600 2014 01 11 12 23 //// 11 07 00 01
01022 0079 01029 0082 01040 0089 01041 0086 01045 0086 01058 0095+
-1382670 -17176110 66840 2014 01 11 12 23 3008 11 07 00 01
00851 0015 00857 0019 00863 0022 00863 0019 00859 0013 00878 0028+
-1813250 17842750 67050 2014 01 11 12 23 3032 11 07 00 01
01114 0102 01115 0100 01116 0096 01123 0099 01126 0098 01127 0095+
-1760530 17743810 67070 2014 01 11 12 23 3032 11 07 00 01
01137 0033 01142 0033 01147 0034 01153 0035 01157 0034 ///// ////+
-0850250 17919500 67440 2014 01 11 12 23 3027 11 07 00 01
02113 0001 02121 0005 02122 0002 02123 0000 02134 0007 02134 0004++
7777

0000046700
734
SZPA01 AMMC 111230
CREX++
T000103 A001 D01021 D06025++
0136250 17293000 67590 2014 01 11 12 23 3015 11 07 00 01
01837 0043 01836 0039 01841 0041 01837 0034 01848 0042 01847 0038+
0710610 17137250 67680 2014 01 11 12 23 3013 11 07 00 01
01252 0055 01258 0059 01259 0058 01255 0052 01261 0056 01260 0053+
0698060 15820000 67950 2014 01 11 12 23 3023 11 07 00 01
00701 0065 00704 0067 00703 0065 00706 0068 00710 0071 00716 0076++
7777

0000007900
735
UPIN90 VARP 111200
PPAA 61111 42874 
55292 25005 24022 77999=
0000011100
736
UANT01 CWAO 111228
ARP DAL419 5107N02308W 1228 F320 MS58 190/81 KT
N830MH QXT AOE 111228 F03A
0000038600
737
SMAA10 RUML 111200
AAXX 11124
89050 31398 72610 10001 21027 40008 57005 86801 333 21012=
89512 42898 71208 10038 21042 39757 49903 52002 87050=
89574 12998 50903 10067 21025 39888 49906 52005 60002 85030 333
10090=
89592 12598 61007 10022 21014 49838 52001 60002 85500 333 10028=
89606 11998 61608 11251 21306 36360 47696 54000 69942 70273 80003 333
11223=
0000003800
738
SMAA11 RUML 111200
NIL
0000013400
739
SMVJ01 AMMC 111200 RRA
BBXX
FHZI 11124 99652 31401 46/// /1717 11005 21007 39894 49905 52015
22253 05006 86006=

0000013000
740
SMRO50 YRBK 110000 RRF
AAXX 11001
15345 03/// ///// 10034 21048 39559 42817 5//// 6///1 333 4//// 55042
6///7=
0000012400
741
SMRO50 YRBK 111200 RRA
AAXX 11121
15307 02998 30000 10112 21041 30026 40213 57009 60001 80002 333
60007=
0000114100
742
SMVD01 PANC 111200 RRE
BBXX
C6FY8 11124 99359 70083
41797 83510 10170 2014/ 40190 52010 70200 88622
22200 0//// 20502 305// 4//// 5//// 6//// 80150 ICE /////=
WBDS 11123 99465 70423
41498 82937 10010 21015 40150 52032 70222 885//
22263 00057 20606 330// 41007 5//// 6//// 80000 ICE /////=
KGTX 11124 99539 71612
41497 82212 10050 20041 49819 57010 71552 886//
22224 00049 2//// 3//// 4//// 5//// 6//// 80046 ICE /////=
C6FN4 11124 99261 70860
41898 22023 10220 20174 40200 54/// 7//22 824//
22274 04236 20404 3//// 4//// 5//// 6//// 85190 ICE /////=
YJVM9 11124 99260 70920
41697 42013 10220 20216 40130 54000 7//00 845/8
22200 00220 20401 319// 40502 5//// 6//// 80217 ICE /////=
VRWM2 11124 99150 71427
41898 50717 10230 2020/ 40190 51040 70111 82489
22254 00250 20502 318// 41005 5//// 6//// 80210 ICE /////=
WDB7815 11123 99577 71434
41497 62913 10028 2//// 49912 52010 76062 868//
22233 00061 20602 322// 41205 5//// 6//// 8//// ICE /////=
WDD3825 11124 99292 70945
41195 82214 10130 2013/ 40154 53018 75152 887//
22200 00127 20303 399// 40404 5//// 6//// 80130 ICE 0/0//=
0000011800
743
SMKZ20 UAAA 111200 CCA
AAXX 11121
35358 42997 81801 11032 21079 30006 40178 53010 8802/ 555   1/105=
0000011000
744
UANT01 CWAO 111229
ARP AAL63 4857N03018W 1229 F320 MS47 210/27 KT
N371AA DDL XXN 111229 F49A
0000011100
745
UANT01 CWAO 111229
ARP LOT6505 5958N03357W 1229 F380 MS57 333/42 KT
SPLRE DDL XXN 111229 L50A
0000038000
746
SMVJ01 EGRR 111200
BBXX
ZDLS1 11123 99602 50269 41/99 70822 11009 21013 40023 57040 70222
875// 22263 05011 20303 303// 40704 82010 ICE 0/750=
AMOUK40 1112/ 99642 50652 46/// ///// 11008 21014 49970=
AMOUK01 1112/ 99602 50269 46/// ///// 11010 21032 40009=
ZDLP 11123 99642 50651 41598 80415 11001 21004 49969 57015 77772
889// 22212 04013 20201 82002=
0000137000
747
USZA01 FAPR 111200
TTAA 61101 68263 99851 25862 05010
00/// ///// ///// 92/// ///// ///// 85533 25262 04009 70186 10661
30006 50588 06578 29009 40759 17360 31520 30969 31377 29031 25096
39776 29041 20245 52164 28544 15425 66155 28544 10662 79355 33016
88999
77999=
TTAA 61101 68442 99866 30475 27008
00/// ///// ///// 92/// ///// ///// 85521 25669 32010 70178 09458
32011 50586 09763 28034 40755 20392 26016 30962 33188 28037 25088
41582 28552 20236 51577 29578 15418 64971 29573 10657 73572 30530
88999
77205 29578=
TTAA 61101 68538 99873 28072 04005
00/// ///// ///// 92/// ///// ///// 85527 22669 25005 70166 06457
33009 50584 11182 27023 40752 19971 25531 30959 35372 26038 25084
43771 26532 20230 55957 25040 15410 62967 29072 10653 72560 27036
88999
77155 29072=
TTAA 61101 68592 99007 25056 17008
00147 24057 16008 92821 17638 20006 85538 13039 30502 70156 09059
28520 50585 08361 28027 40754 19171 28046 30962 32975 29566 25088
40177 28075 20236 51570 28079 15418 64763 29067 10658 74958 31537
88119 72758 30547
77237 29075=
TTAA 61101 68842 99010 23064 22014
00158 19260 21016 92823 15059 25510 85533 11656 26013 70137 04474
29517 50579 11561 26536 40746 23163 25046 30952 36566 27054 25076
44764 27057 20221 55362 25065 15401 60971 27058 10648 66375 28043
88177 60759 26073
77169 26581=
0000003800
748
USZA02 FAPR 111200
NIL
00000000