0000017200
949
SSVF50 LFPW 111105 RRA
ZZYY 62066 11014 1105/ 743532 001615 22219 00120 11002 20100
21009=
ZZYY 62064 11014 1105/ 744653 001447 22219 10902 20090 21011=
0000038800
950
SSVF50 LFPW 111110 RRA
ZZYY 62074 11014 1110/ 747285 003285 22219 00100 11003 20100
21015=
ZZYY 62079 11014 1110/ 743403 001674 22219 00128 11002 20100
21010=
ZZYY 62069 11014 1110/ 748290 004968 22219 00108 11104 20110
21020=
ZZYY 61191 11014 1110/ 142917 003125 22219 00126 10401 20040
21004=
ZZYY 62059 11014 1110/ 749695 001620 22219 10502 20050 21009=
0000010800
951
SSVF50 LFPW 111135 RRA
ZZYY 61188 11014 1135/ 142490 003168 22219 00128 10401 20040
21003=
0000010800
952
SSVD50 LFPW 111140 RRA
ZZYY 44050 11014 1140/ 746700 056183 22219 00002 10705 20070
21025=
0000010800
953
SSVF50 LFPW 111205 RRA
ZZYY 61188 11014 1205/ 142490 003168 22219 00128 10401 20040
21003=
0000010000
954
SMPO01 LPMG 111200 RRA
AAXX 11121
08560 32/// /36// 10124 20062 39428 40177 52008=
0000021000
955
SMMD01 LPMG 111200
AAXX 11121
08521 32460 42107 10192 20143 30119 40189 53007 81102
333   81815 84075=
08524 12465 51604 10188 20155 30093 40190 52009 6//// 82202
333  82815 84075 91106=
0000011000
956
UANT01 CWAO 111218
ARP AFR690 4815N01608W 1218 F300 MS49 226/56 KT
FGZNH DDL BYT 111218 F09A
0000552400
957
SSVX11 LFVW 111219
ZZYY 52080 11014 0300/ 102038 138173 6112/
22219 00297
33311 88872 20000 32965 20002 32965 43405 20025 32967 43405
20050 32940 43452 20075 32803 43470 20100 32758 43502
20125 32551 43465 20150 32504 43519 20200 31799 43487
20250 31205 43452 20300 30997 43469 20500 30865 43462
20750 30621 43453
444 20120 11014 0302/ 522//=
ZZYY 52080 11014 0100/ 102046 138171 6113/
22219 00296
33311 88872 20000 32963 20002 32963 43403 20025 32973 43409
20050 32885 43450 20075 32784 43475 20100 32754 43498
20125 32541 43473 20150 32486 43514 20200 31832 43480
20250 31189 43452 20300 30993 43468 20500 30853 43461
20750 30608 43453
444 20130 11014 0109/ 522//=
ZZYY 52080 11014 1000/ 102043 138170 6113/
33311 88872 20125 32520 43523 20150 32254 43508 20200 31632 43471
20250 31029 43451 20500 30847 43460
444 20130 11014 0945/ 522//=
ZZYY 52082 11014 00004 102038 156021 6112/
11119 00207 10294 29073
22219 00296
33311 88872 20000 32961 20002 32961 43432 20025 32966 43444
20050 32984 43483 20075 32980 43528 20100 32935 43531
20125 32823 43535 20150 32444 43516 20200 31265 43460
20250 31146 43480 20300 31089 43476 20500 30879
444 20120 10014 2338/ 522// 60381=
ZZYY 52082 11014 11004 102038 156020 6112/
11119 03404 10283 29076
22219 00296
33311 88872 20000 32958 20125 32833 43533 20150 32411 43515
20200 31378 43460 20250 31149 43480 20500 30870
444 20120 11014 1041/ 522// 60381=
ZZYY 52079 11014 04004 100057 147021 6113/
11119 02906 10281 40066
22219 00300
33311 88872 20000 32996 20002 32996 43387 20025 32976 43398
20050 32975 43417 20075 32957 20100 32740 43547 20125 32349 43538
20150 32162 43526 20200 31832 43542 20250 31474 43510
20300 31145 43483 20500 30836 43460 20750 30598 43452
444 20130 11014 0437/ 522// 60381=
ZZYY 52079 11014 00004 100060 147021 6112/
11119 02714 10278 40089
22219 00298
33311 88872 20000 32975 20002 32975 43390 20025 32977 43400
20050 32973 43419 20075 32958 20100 32744 43551 20125 32481 43519
20150 32268 43539 20200 31915 43541 20250 31493 43510
20300 31243 43494 20500 30870 43462 20750 30626 43452
444 20120 10014 2338/ 522// 60381=
ZZYY 52079 11014 02004 100060 147013 6111/
11119 02908 10279 40078
22219 00298
33311 88872 20000 32981 20002 32981 43390 20025 32976 43398
20050 32970 43426 20075 32963 20100 32709 43547 20125 32373 43523
20150 32240 43537 20200 31858 43533 20250 31484 43510
20300 31145 43482 20500 30829 43460 20750 30610 43453
444 20110 11014 0112/ 522// 60381=
ZZYY 52085 11014 09004 100016 156042 6112/
11119 03106 10282 40066
22219 00300
33311 88872 20000 32999 20002 32999 43393 20025 33033 43438
20050 33027 20075 33021 20100 33011 20125 32654 43542
20150 32324 43545 20200 31759 43523 20250 31343 43494
20300 31191 43485 20500 30808 43460 20750 30579 43451
444 20120 11014 0943/ 522// 60381=
ZZYY 52085 11014 07004 100012 156046 6113/
11119 02906 10278 40055
22219 00300
33311 88872 20000 32995 20002 32995 43388 20025 33032 43434
20050 33027 20075 33021 20100 33009 20125 32656 43540
20150 32337 43544 20200 31844 43529 20250 31355 43492
20300 31171 43483 20500 30811 43461 20750 30600 43453
444 20130 11014 0651/ 522// 60381=
ZZYY 52085 11014 05004 100017 156046 6112/
11119 03006 10275 40054
22219 00301
33311 88872 20000 33005 20002 33005 43389 20025 33032 43436
20050 33027 20075 33021 20100 32999 20125 32638 43540
20150 32303 43539 20200 31865 43533 20250 31382 43495
20300 31166 43484 20500 30804 43460 20750 30591 43453
444 20120 11014 0508/ 522// 60381=
ZZYY 52086 11014 03004 305034 156024 6113/
11119 03216 10264 40065
22219 00304
33311 88872 20000 33036 20002 33036 43476 20025 33040 43478
20050 33036 20075 32975 43515 20100 32958 20125 32806 43571
20150 32656 43602 20200 32323 43602 20250 31687 43537
20300 31232 43493 20500 30734 43452 20750 30574 43451
444 20130 11014 0253/ 522// 60381=
ZZYY 52088 11014 05004 302018 155961 6112/
11119 03113 10293 29072 40049
22219 00302
33311 88872 20000 33017 20002 33017 43508 20025 33014 43518
20050 33001 43543 20075 32953 20100 32938 43561 20125 32861 43563
20150 32684 43578 20200 31738 43539 20250 31129 43482
20300 31073 43478 20500 30868 43465 20750 30581 43452
444 20120 11014 0508/ 522// 60381=
ZZYY 52088 11014 01004 302020 155958 6112/
11119 02910 10287 29075 40083
22219 00302
33311 88872 20000 33015 20002 33015 43508 20025 33015 43518
20050 33005 43543 20075 32968 20100 32939 43562 20125 32852 43565
20150 32668 43583 20200 31754 43546 20250 31137 43484
20300 31080 43478 20500 30844 43462 20750 30556 43452
444 20120 11014 0025/ 522// 60381=
ZZYY 52077 11014 0900/ 102074 146981 6112/
33311 88872 20025 33001 20050 32994 20075 32946 43526
20100 32725 43519 20125 32590 43524 20150 32418 43523 20200 31617
20250 31123 20300 31009 43471 20500 30818 43458 20750 30599 43453
444 20120 11014 0831/ 522//=
ZZYY 52077 11014 0500/ 102082 146983 6113/
33311 88872 20025 32999 20050 32995 20075 32868 43522
20100 32676 43518 20125 32590 43525 20150 32437 43520 20200 31719
20250 31189 20300 31048 43474 20500 30810 43458 20750 30611 43453
444 20130 11014 0449/ 522//=
ZZYY 52077 11014 0700/ 102080 146980 6113/
33311 88872 20025 33000 20050 32995 20075 32942 43527
20100 32709 43516 20125 32592 43524 20150 32443 43521 20200 31666
20250 31114 20300 30995 43470 20500 30799 43458 20750 30602 43452
444 20130 11014 0651/ 522//=
0000036900
958
UDEU02 EGRR 111221 RRF
AMDAR 1112
ASC EU0227   5857N 00538E 111214 F038 PS000 283/021 TB/ S031=
UNS EU0227   5859N 00538E 111215 F051 MS030 284/021 TB/ S031=
ASC EU0227   5900N 00538E 111215 F064 MS050 283/020 TB/ S031=
ASC EU0227   5901N 00537E 111215 F078 MS080 279/019 TB/ S031=
UNS EU0227   5903N 00537E 111216 F092 MS110 275/019 TB/ S031=
0000011400
959
SMPF01 NTAA 111200 RRA
AAXX 11124
91945 36/// ///// 10261 20232 30127 40132 56025
  333 10293=
0000003800
960
SMZW01 FVHA 111200
NIL
0000003800
961
UEIL01 BIRK 111200
NIL
0000099500
962
SSWB19 RKSL 111200
ZZYY 21229 11014 12001 13746/ 13111/ 
11109 02805 10051 40272 5//// 
22209 00130 10502 20046 21011= 
ZZYY 22101 11014 12001 13724/ 12602/ 
11109 02102 10031 40303 5//// 
22209 00053 10201 20020 21003= 
ZZYY 22102 11014 12001 13479/ 12578/ 
11109 03203 10044 40312 5//// 
22209 00068 10201 20021 21004= 
ZZYY 22103 11014 12001 13400/ 12750/ 
11109 03304 10052 40302 5//// 
22209 00143 10302 20026 21010= 
ZZYY 22104 11014 12001 13477/ 12890/ 
11109 02602 10056 40298 5//// 
22209 00150 10701 20071 21005= 
ZZYY 22105 11014 12001 13754/ 13000/ 
11109 02605 10054 40272 5//// 
22209 00121 10602 20058 21009= 
ZZYY 22106 11014 12001 13635/ 12978/ 
11109 02807 10052 40283 5//// 
22209 00115 10602 20064 21009= 
ZZYY 22107 11014 12001 13308/ 12603/ 
11109 00206 10083 40306 5//// 
22209 00162 10301 20032 21006= 
ZZYY 22183 11014 12001 13473/ 12624/ 
11109 03403 10038 40314 5//// 
22209 00072 10600 20058 21001= 
0000368600
963
SMCN04 KWBC 111200
AAXX 11124
71151 17/// /3008 11063 21068 39479 49982 53014 69921 7//4/ 333
11046 21063 4/047 70012=
71155 15/// ///// 11043 21055 60001 333 11008 21159 4/027 70000=
71501 17/// /3019 11233 21256 30027 40029 58026 60011 7//4/ 333
11219 21264 70014=
71622 17/// ///// 10055 20051 39659 49992 56033 60071 7//4/ 333
10035 20017 4/014 70134=
71736 15/// /2519 10017 21026 38610 49966 58050 60001 333 10038
20005 4/001 70000=
71750 17/// /0501 11015 21018 39700 49931 56029 60021 7//4/ 333
10009 21015 4/062 70019=
71771 45/// /1504 10040 20030 39778 49798 51011 6///1 333 10067
20021 7////=
71826 15/// /1003 11212 21241 39962 40006 52015 60001 333 11167
21219 4/997 70002=
71874 15/// /2707 11299 21350 39973 49980 58002 60001 333 11198
21307 4/001 70000=
71980 45/// /0000 11246 21274 6///1 333 11198 21300 7////=
71015 15/// ///// 11026 60001 333 10014 21040 70000=
71019 45/// /1205 11093 21113 39886 40197 58027 6///1 333 11074
21110 7////=
71056 15/// /0000 11269 21295 39740 40050 58009 60001 333 11159
21285 4/025 70004=
71160 15/// /3305 11308 21343 39802 40025 51005 60001 333 11195
21309 4/041 79999=
71161 15/// /1503 10024 20022 39889 40036 56057 60001 333 10013
21009 4/017 70011=
71243 15/// /1811 10002 21038 38913 49980 58056 60001 333 10062
21056 70000=
71298 17/// /2013 10050 20046 39752 49980 58024 60031 7//4/ 333
10042 20020 4/046 7////=
71317 15/// /0000 11018 21022 30198 40246 58009 60001 333 11013
21024 4/028 70002=
71362 15/// /1801 11288 21320 39767 40033 55006 60001 333 11175
21290 70002=
71381 45/// /1009 11045 21062 6///1 333 11037 21082 7////=
71387 15/// /2003 11028 21055 39736 40113 58037 60001 333 11049
21064 70002=
71431 17/// /0908 10038 20027 39913 40008 56045 60051 7//4/ 333
10031 20020 4/006 70053=
71435 15/// /2804 11052 21055 39361 49952 58008 60001 333 11053
21061 4/047 70007=
71472 17/// /1408 10052 20038 39761 49778 51013 69921 7//4/ 333
10065 20039 70024=
71482 45/// /2104 10026 20019 39801 49832 58001 6///1 333 10063
20007 7////=
71484 17/// /2019 10051 39771 49789 51032 60051 7//4/ 333 10064
20018 70126=
71503 45/// /3108 11311 21344 39772 40057 58008 6///1 333 11229
21312 4/001 7////=
71522 45/// /0804 11063 21071 39638 40134 58031 6///1 333 11077
21105 7////=
71571 15/// /1309 11057 21098 38695 49871 58048 60001 333 11029
21069 4/083 70000=
71666 15/// /2205 11085 21096 30179 40225 58011 60001 333 11031
21101 4/036 70000=
71767 17/// /2009 10032 20032 39704 49961 58027 60081 7//4/ 333
10029 21000 4/028 70129=
71837 15/// ///// 10028 60001 333 10027 21009 7////=
71839 15/// ///// 10050 60001 333 10044 21011 70000=
71883 45/// /0000 11022 21024 39118 49925 56053 6///1 333 10021
21036 7////=
71885 15/// ///// 10030 60001 333 10044 21031 70000=
71959 15/// ///// 11019 21027 60001 333 11008 21029 4/047 70000=
71977 45/// /0000 11380 39305 40062 58012 6///1 333 11287 21380
7////=
71978 15/// /1708 11280 21323 39717 40045 58016 60001 333 11224
21314 4/015 70002=
71983 45/// /1614 11318 21352 39853 49874 52009 6///1 333 11308
21330 7////=
71020 45/// /0000 11218 21242 39745 40007 57011 6///1 333 11186
21218 4/046 7////=
71021 45/// /1108 11208 21248 39638 49998 58011 6///1 333 11172
21208 4/034 7////=
71044 45/// /1102 11442 21493 39741 40090 58008 6///1 333 11360
21442 7////=
71087 45/// /0602 11278 21307 39822 40036 58016 6///1 333 11197
21321 7////=
71110 15/// /2612 11022 21050 30162 40223 55001 60001 333 11030
21046 4/028 70000=
71162 15/// /0308 11259 21292 39805 40023 58004 60001 333 11203
21270 70009=
0000368900
964
SMUS04 KWBC 111200
AAXX 11124
72295 31000 90000 10100 20100 30147 40199 51003 741// 91153 333
10183 20100 555 91112=
72310 31224 81806 10156 20156 30037 40124 58017 710// 91156 333
10106 20094 70404 555 91112=
72334 12966 02505 10089 20072 39975 40076 51015 60031 91154 333
10150 20089 70384 555 91112=
72374 35966 00000 11044 21078 38562 40242 51005 91156 333 10139
21061 555 91112=
72425 11648 82203 10117 20106 39738 40035 53003 60081 763// 91151
333 10106 20078 70081 96010 555 91112=
72428 11262 81706 10106 20100 39719 40012 56033 60161 761// 91151
333 10089 20078 70163 555 91112=
72451 35966 42811 11017 21072 39216 40143 53015 91152 333 10094
21028 555 91112=
72458 35966 42711 11011 21033 39561 40096 53015 91155 333 10028
21017 70013 555 91112=
72504 11458 80403 10067 20067 30140 40149 58042 60031 761// 91152
333 10017 20011 70053 96010 555 91112=
72517 11212 80000 10033 20028 39989 40127 58040 60081 710// 91151
333 10011 20000 70145 555 91112=
72533 11104 91808 10044 20039 39679 49975 56029 69951 741// 91154
333 10039 20022 4/008 70119 555 91112=
72565 32966 22407 10006 21083 38302 40123 51003 91153 333 10050
21072 555 91112=
72591 35966 03303 10050 20022 30091 40215 55003 91154 333 10172
20039 555 91112=
72605 17240 80000 11022 21028 30049 40179 58038 60021 710// 91151
333 11039 21089 70033 555 91112=
72636 11158 82210 10033 20017 39725 49953 56016 60051 761// 91155
333 10061 20022 4/025 70259 96010 555 91112=
72638 17120 82105 10022 20022 39527 49947 56025 69951 710// 91153
333 10022 21005 70117 555 91112=
72639 15466 81504 10022 20022 39689 49942 56030 60021 91154 333
10011 21005 70102 555 91112=
72651 32966 23215 11056 21083 39524 40048 53021 91156 333 10006
21094 4/008 555 91112=
72659 35466 63007 11044 21056 39572 40059 51017 91153 333 10017
21139 555 91112=
72681 12866 81217 10061 20017 39133 40146 58027 69901 91153 333
10061 20033 555 91112=
72688 35966 62014 10133 20028 39500 40025 58043 91153 333 10111
20072 555 91112=
72693 17661 82808 10106 20072 39938 40074 56028 69931 762// 91154
333 10117 20106 70003 555 91112=
72772 35766 82804 10011 21044 38722 40092 56024 91153 333 10072
20011 555 91112=
72773 17666 81408 10033 21006 38965 40095 58022 69901 761// 91153
333 10039 20006 70005 555 91112=
72781 35866 81820 10139 20056 39601 49978 58051 91153 333 10128
20028 91029 555 91112=
72785 11866 81616 10044 20022 39163 40015 58047 69981 761// 91153
333 10044 20028 70008 91023 555 91112=
72793 11661 82119 10122 20089 39806 49971 56022 60021 763// 91153
333 10128 20083 70056 91026 555 91112=
72797 17458 81911 10089 20072 39895 49959 50012 60301 761// 91153
333 10111 20089 70861 91023 96010 555 91112=
72212 35/// /1907 10189 20189 30141 40155 58009 91153 333 70005
555 91112=
72254 35964 03106 10122 20072 39933 40155 53034 91151 333 10222
20122 70023 555 91112=
72278 32966 20907 10072 20000 39810 40203 53003 91151 333 10194
20072 555 91112=
72302 11464 82008 10206 20189 3//// 40151 55011 69931 761// 91153
333 10233 20189 70005 555 91112=
72317 11104 /0000 10044 20039 39786 40116 56027 60021 751// 91154
333 10061 20033 70224 96041 555 91112=
72383 35/66 /3511 10117 21044 38675 40205 91148 333 10178 20089
555 91112=
72384 35962 00805 10072 20033 30048 40229 58004 91154 333 10167
20056 555 91112=
72386 32966 62307 10078 21022 39464 40204 50001 91156 333 10161
20067 555 91112=
72387 35966 00605 10033 21039 39063 40206 50001 91152 333 10172
20028 555 91112=
72422 11359 81712 10111 20100 39671 40021 56020 60181 761// 91154
333 10128 20100 70180 96010 555 91112=
0000374100
965
SMUS04 KWBC 111200 RRA
AAXX 11124
72486 35966 01809 11028 21050 38129 40230 57004 91153 333 10078
21044 555 91112=
72488 32966 2//03 10000 21022 38686 40197 58017 91155 333 10133
21006 555 91112=
72494 32966 00000 10083 20061 30195 40227 53001 91156 333 10156
20083 555 91112=
72520 32666 83107 10106 20083 39599 40026 56037 91151 333 10078
20056 555 91112=
72572 32766 41210 10033 21028 38748 40209 58004 91153 333 10067
20033 4/013 555 91112=
72578 35666 81913 10056 21006 38644 40183 58013 91153 333 10050
20017 555 91112=
72583 35966 01712 10039 21006 38705 40186 58016 91156 333 20033
555 91112=
72683 35966 00203 10011 20000 38700 40139 56027 91153 333 10050
20000 555 91112=
72698 11759 82128 10122 20083 30025 40032 56037 69951 763// 91153
333 10139 20111 70008 91037 555 91112=
72767 35966 02307 11117 21133 39391 40100 53011 91152 333 10006
21122 555 91112=
72768 35966 21005 11100 21117 39251 40089 58016 91153 333 10000
21100 555 91112=
72776 32966 02121 10050 21033 38755 40037 56037 91153 333 10056
21010 91027 555 91112=
72783 15966 81807 10083 20017 39548 40064 58034 60011 91156 333
10100 20072 70013 555 91112=
72791 17458 82311 10089 20072 30023 40025 53007 60121 761// 91155
333 10117 20089 70201 91024 96010 555 91112=
72792 17440 82116 10106 20094 39911 49979 56020 60081 762// 91154
333 10100 20072 70203 91026 96010 555 91112=
72290 32961 00000 10111 20061 30188 40201 51001 91151 333 10206
20111 555 91112=
72297 31004 90000 10111 20094 30187 40200 51005 741// 91153 333
10206 20106 555 91112=
72370 35966 00000 11006 21061 39035 40194 50000 91151 333 10172
21011 555 91112=
72371 35966 00000 10022 21050 38747 40222 51005 91153 333 10133
20022 555 91112=
72376 35966 00000 11050 21106 38341 40242 51008 91153 333 10083
21061 555 91112=
72394 35966 00000 10111 20017 30114 40206 58004 91151 333 10244
20083 555 91112=
72405 11228 80000 10044 20028 30100 40120 56041 60041 710// 91152
333 10039 20028 70165 555 91112=
72407 12161 81814 10139 20139 30093 40135 56026 69981 91154 333
10083 20044 70097 91025 555 91112=
72438 11258 82312 10050 20050 39699 49985 56020 60011 710// 91154
333 10044 20022 4/005 70086 555 91112=
72446 11958 02306 11011 21022 39684 40068 51012 69901 710// 91153
333 10056 21017 70003 555 91112=
72462 35966 02106 11178 21206 37726 40284 51013 91152 333 11006
21194 555 91112=
72465 35966 23113 11006 21061 38863 40149 53017 91153 333 10056
21033 70005 555 91112=
72509 11212 81303 10039 20028 30168 40174 56029 69981 761// 91154
333 10028 20011 70013 96010 555 91112=
72524 11866 82014 10106 20083 39726 40007 56031 60021 761// 91151
333 10078 20050 70028 91024 555 91112=
72551 32966 63306 10000 21039 39637 40073 53012 91154 333 10017
21067 555 91112=
72569 32966 02212 11033 21089 38316 40148 58000 91153 333 10011
21072 555 91112=
72570 35766 62611 10006 21056 38123 40227 51007 91153 333 10000
21022 555 91112=
72597 37104 90000 10050 20044 39665 40135 58030 730// 91153 555
91112=
72677 32966 62415 11006 21067 38830 40085 58019 91153 333 10061
21011 4/003 555 91112=
72694 17762 81922 10117 20083 39977 40047 55032 60011 762// 91156
333 10133 20117 70010 91031 555 91112=
72745 11248 83106 11028 21044 39445 49972 55002 69901 710// 91155
333 11028 21039 70018 96010 555 91112=
72201 32466 21512 10244 20222 30173 40180 53005 91153 333 10267
20233 555 91112=
72220 37104 91706 10189 20172 30139 40144 56011 730// 91153 555
91112=
72250 31116 92303 10183 20183 30142 40145 51014 710// 91153 333
10272 20167 70005 555 91112=
72251 32966 22005 10100 20094 30126 40145 51019 91151 333 10250
20100 70010 555 91112=
0000371100
966
SMUS04 KWBC 111200 RRB
AAXX 11124
72274 32966 01409 10050 21050 39304 40204 58003 91153 333 10189
20044 555 91112=
72308 15266 81707 10172 20161 30118 40135 56034 60181 91151 333
10167 20061 70213 555 91112=
72311 17108 /1706 10111 20106 39815 40105 58034 60271 761// 91151
333 10083 20072 70488 96030 555 91112=
72312 11261 80000 10078 20072 39770 40106 58025 60241 761// 91153
333 10089 20072 70348 555 91112=
72314 11104 83207 10061 20061 39873 40135 55010 60011 710// 91152
333 10072 20056 70124 91022 96010 555 91112=
72323 11762 81704 10133 20122 39841 40066 53005 60541 761// 91153
333 10128 20100 70566 555 91112=
72327 12966 82205 10128 20111 39796 40041 55005 60241 91153 333
10144 20117 70244 555 91112=
72363 35966 02903 11011 21111 38919 40169 51010 91153 333 10128
21033 555 91112=
72365 32966 03309 10033 21089 38411 40202 51009 91152 333 10128
20028 555 91112=
72389 31956 61303 10056 20028 30115 40238 51002 705// 91153 333
10161 20050 555 91112=
72408 11158 82006 10128 20117 30110 40131 56032 69931 710// 91154
333 10028 20022 70117 555 91112=
72412 17966 61413 10172 20094 39172 40039 56044 69951 761// 91151
333 10161 20078 70008 91023 555 91112=
72429 11266 82010 10100 20089 39632 49992 58033 60081 761// 91156
333 10100 20061 70089 555 91112=
72432 12466 82612 10100 20078 39878 40018 53005 60021 91154 333
10100 20083 70168 555 91112=
72445 15361 82813 10017 20006 39728 40051 51017 60021 91154 333
10072 20011 70091 555 91112=
72475 35966 02008 11033 21050 3//// 40230 58006 91152 333 10089
21039 555 91112=
72480 35966 03406 11028 21078 38798 40209 58008 91156 333 10239
21028 555 91112=
72492 37958 01204 10061 20044 30214 40224 51002 710// 91155 333
10161 20050 555 91112=
72507 11632 81604 10044 20044 30160 40179 58020 69931 710// 91151
333 10017 20006 70028 555 91112=
72552 35966 02710 10000 21039 39421 40089 53016 91153 333 10044
21033 555 91112=
72594 35362 81908 10111 20094 30174 40201 53002 91153 333 10128
20067 555 91112=
72635 11120 82106 10050 20039 39669 49955 58022 60011 761// 91153
333 10056 20039 4/020 70196 96010 555 91112=
72640 11258 82809 10022 20017 39711 49960 58001 69931 710// 91152
333 10039 20017 4/015 70124 555 91112=
72712 35966 01503 11106 21133 39954 40199 58030 91154 333 11078
21111 555 91112=
72747 17256 83008 11033 21044 39533 49972 51004 69931 710// 91155
333 11033 21044 555 91112=
72753 32466 83107 11044 21072 39694 40036 53022 91153 333 11017
21089 555 91112=
72777 35966 00605 11044 21067 39112 40040 58043 91153 333 10033
21056 555 91112=
72208 11159 82113 10200 20189 30133 40149 56014 69931 710// 91156
333 10239 20161 70030 555 91112=
72241 37112 92606 10167 20161 30122 40126 53017 710// 91153 333
10211 20167 70081 555 91112=
72256 32966 00000 10044 20017 39975 40154 53036 91151 333 10217
20033 70015 555 91112=
72261 35962 00000 10044 20033 39794 40161 51022 91153 333 10194
20044 555 91112=
72266 32966 00000 10006 21039 39529 40168 53028 91152 333 10222
20000 555 91112=
72315 11264 80000 10089 20083 39317 40091 58027 60121 761// 91154
333 10100 20067 70208 555 91112=
72324 11340 82103 10144 20133 39816 40061 55017 60221 763// 91153
333 10100 20072 70236 96010 555 91112=
72403 11212 80000 10017 20011 30004 40117 56040 60051 761// 91152
333 10017 20011 70155 96010 555 91112=
72406 11108 /1003 10028 20028 30047 40118 58040 60021 763// 91154
333 10028 20017 70137 96041 555 91112=
72414 32966 62307 10161 20111 39651 40010 56046 91154 333 10133
20089 555 91112=
72417 15966 21709 10144 20100 39351 40052 56045 60011 91151 333
10122 20106 70028 555 91112=
0000010400
967
SMIN90 VECC 111200
AAXX 11124
42806 32996 00000 10240 20183 40150
  333 10270 58002=
0000371600
968
SMUS04 KWBC 111200 RRC
AAXX 11124
72421 12266 81910 10106 20100 39684 49998 56020 60171 91152 333
10111 20089 70206 555 91112=
72450 32966 03012 10011 21033 39625 40114 53016 91153 333 10089
21005 70003 555 91112=
72476 35966 00303 11094 21106 38596 40279 50005 91153 333 10006
21100 555 91112=
72502 11259 81403 10100 20100 30123 40132 56048 60021 710// 91151
333 10017 20011 70061 555 91112=
72503 11266 81908 10094 20078 30125 40137 56046 60021 761// 91151
333 10017 20006 70056 555 91112=
72508 11102 90000 10006 20000 30083 40155 58042 60031 741// 91151
333 10011 20006 4/003 70038 555 91112=
72513 17359 80000 10072 20061 39757 40105 58025 69951 710// 91154
333 10033 20011 70008 555 91112=
72514 12361 80809 10028 20017 39899 40098 58030 60021 91154 333
10017 20000 70015 555 91112=
72515 11108 91512 10061 20061 39506 40093 58037 60031 741// 91153
333 10011 20000 70048 555 91112=
72518 11248 81714 10061 20044 30012 40119 55036 69901 751// 91151
333 10011 21005 4/003 70003 91022 96010 555 91112=
72521 11456 81908 10100 20083 39576 40018 56029 60091 763// 8/5//
91151 333 10078 20050 70091 96010 555 91112=
72526 11862 81610 10094 20072 39742 40006 58028 60021 761// 91151
333 10072 20056 70041 555 91112=
72528 12566 81911 10089 20056 39745 40014 56033 69981 91154 333
10056 20028 4/008 70013 555 91112=
72537 11104 91408 10050 20050 39747 49979 58029 60021 741// 91153
333 10033 20028 70124 555 91112=
72539 11112 91906 10044 20039 39647 49962 56024 60011 710// 91153
333 10039 20028 70114 555 91112=
72546 31956 02708 11017 21039 39677 40032 53009 710// 91154 333
10017 21022 4/003 70010 555 91112=
72547 35466 83015 11006 21017 39602 49992 53006 91153 333 10006
21006 70018 555 91112=
72548 31256 82909 11011 21022 39690 40008 53008 710// 91154 333
10000 21011 70020 555 91112=
72562 35966 63012 10000 21039 39124 40119 52021 91153 333 10061
21089 70003 555 91112=
72564 35966 03405 11006 21072 38069 40136 53001 91153 333 10017
21011 555 91112=
72566 35966 82805 11022 21072 38762 40144 51012 91153 333 10067
21039 555 91112=
72617 11259 81808 10022 20011 39979 40107 57054 69981 761// 91154
333 10017 20006 4/010 70010 96010 555 91112=
72637 11112 91905 10056 20044 39686 49966 58027 60011 710// 91153
333 10044 20033 70074 555 91112=
72645 32464 82708 10006 21011 39702 49948 56006 91153 333 10017
20006 70079 555 91112=
72654 35366 83112 11056 21078 39594 40069 53024 91155 333 10028
21094 555 91112=
72764 32966 02606 11072 21094 39468 40079 51019 91152 333 10028
21083 555 91112=
74486 11359 81616 10106 20094 30134 40144 56043 60031 710// 91151
333 10128 20028 70076 91022 555 91112=
72203 11566 61510 10245 20212 30179 40185 53004 69901 761// 91153
333 10267 20200 555 91112=
72205 12108 81807 10217 20206 30141 40175 55004 69901 91153 333
10272 20200 555 91112=
72207 31124 81807 10178 20167 30132 40149 56010 710// 91153 333
10228 20161 70023 555 91112=
72218 32366 81911 10183 20178 30075 40128 56014 91153 333 10100
20094 70229 91018 555 91112=
72219 12208 81817 10167 20161 39716 40088 56046 60191 91152 333
10094 20083 70234 91023 555 91112=
72223 11259 82213 10194 20194 30021 40099 58013 60031 761// 91156
333 10189 20144 70056 91026 96010 555 91112=
72231 11361 82709 10206 20194 30105 40115 53004 60131 761// 91153
333 10194 20161 70155 555 91112=
72234 12466 4//03 10172 20161 39988 40092 53020 60321 91158 333
10167 20128 70325 555 91112=
72235 12466 62810 10178 20156 39992 40094 51009 60091 91154 333
10189 20144 70094 555 91112=
72243 31232 42904 10150 20150 30088 40132 53015 710// 91153 333
10211 20150 555 91112=
00000000