0000044800
576
SXXX32 EUMS 111201 RRA
1227146C
:PRS 1 /1 3817 3813 3813 3811 3808 3808 3807 3802 3797 3795 3795 3789 3785 3787 3784 3777 3775 3775 3772 3765 3762 3763 3761 3756 3755 3757 3754 3749 3747 3747 :RAD 3 /3 3800 3807 3792 3779 3775 3763 3752 3744 3747 3749 3726 3713 3687 3694 3692 3685 3683 3648 3617 3626 :ENC 1 /5 4569 4558 4543 4528 4516 4506 4491 4474 4465 4448 4429 4412 :SW1 2 /60 0 :SW2 32 /60 3 :BAT 14 /15 12.4 :NAME 1227146C
0000044400
577
SXXX32 EUMS 111203
22856700
:PRS 1 /1 3921 3928 3934 3938 3940 3939 3942 3943 3946 3945 3944 3943 3945 3952 3956 3966 3962 3960 3968 3969 3968 3974 3972 3974 3980 3981 3975 3983 3981 3977 :RAD 1 /3 7439 7445 7449 7455 7464 7470 7476 7480 7484 7487 7491 7493 7496 7499 7506 7513 7515 7513 7516 7519 :ENC 3 /5 5636 5642 5653 5665 5674 5681 5685 5691 5693 5711 5706 5711 :SW1 3 /60 0 :SW2 33 /60 0 :BAT 14 /15 12.5 :NAME 22856700
0000045000
578
SXXX32 EUMS 111203 RRA
32D8A2BE
:PRS 1 /1 1642 1641 1638 1632 1638 1639 1639 1641 1638 1632 1641 1633 1637 1644 1635 1644 1636 1641 1639 1641 1638 1639 1645 1638 1631 1652 1645 1638 1633 1643 :RAD 1 /3 7220 7218 7219 7220 7222 7220 7217 7211 7220 7222 7222 7222 7224 7223 7223 7224 7227 7227 7232 7233 :ENC 3 /5 4650 4650 4651 4651 4651 4653 4651 4652 4654 4657 4659 4663 :SW1 3 /60 60 :SW2 33 /60 60 :BAT 14 /15 03.1 :NAME 32D8A2BE
0000047700
579
SXXX32 EUMS 111204
262AD2C2
OT12 ID:PK-ORMA-10 DT:2014 01 11 12 03
:PRS /1 07193 07205 07193 07198 07215 07211 07235 07238 07253 07245 07263 07262 07270 07295 07285 07285 07282 07259 07282 07307 07310 07335 07322 07337 07335 07345 07352 07357 07341 07375
:RAD /1 ///// ///// ///// ///// ///// ///// ///// ///// ///// ///// ///// ///// ///// ///// ///// ///// ///// ///// ///// ///// ///// ///// ///// ///// ///// ///// ///// ///// ///// /////
:BAT 13.2V
0000165300
580
SMPR01 SPIM 111200
AAXX 11124
84720 31960 59901 10216 20184 39486 40118 702// 85010
333   20182 56090 59001 85462=
84673 21450 80102 10106 20098 37363 710// 8312/
333   20100 5699/ 58011 60224 83820 86457=
84472 31560 50000 10087 20085 37408 7020/ 85720
333   20088 56990 58003 81733 84457=
84691 31960 3//// 10212 20195 30101 40108 70222 88031
333   20180 56000 58002 84360 85073=
84370 31460 80705 10238 20227 30084 40118 703// 885//
333   20217 56900 58012 88617=
84752 32960 00000 10151 20101 37520 70100
333   20094 59005=
84735 31960 02705 10078 20041 36459 702//
333   2//// 59013=
84515 31460 80205 10240 20220 39940 40119 70222 8352/
333   20224 5699/ 58013 83615 86457=
84501 31259 81205 10203 20186 30093 40120 71022 885//
333   20194 56000 58003 81705 88640=
84688 31358 83604 10068 20060 36696 71145 8424/
333   20013 569// 58025 60094 84812 87640=
84628 34260 71607 10208 20194 30103 40119 70222 876//
333   20204 564// 58005 87706=
84686 21560 89902 10096 20069 36894 70226 8452/
333   20084 56990 58019 60014 81620 83640 85457=
84782 31962 09902 10214 20163 39610 40112 70221
333   20170 59003=
84377 31358 50103 10244 20224 30006 40150 70222 85520
333   20229 56000 58007 85608 88460=
84401 31560 81703 10228 20199 30081 40125 70222 8553/
333   20219 5600/ 58004 85630 83358=
84452 31960 31708 10210 20188 30083 40119 70122 80000
333   20206 56002 59026 83275=
84455 31460 60000 10242 20196 39824 40114 70222 8313/
333   20220 5600/ 58014 83820 83360=
84658 21262 40000 10244 20233 39867 40103 702// 84600
333   20222 56000 58004 60344 81706 83630=
0000127800
581
SMMS01 WMKK 111200
AAXX 11124
48601 11559 70206 10263 20230 30105 40109 69901 76062 82442 333 10293 82625 85364 87077=
48615 11457 80608 10261 20229 30123 40129 69941 76062 83547 333 10269 81710 83620 88270=
48620 11565 70401 10274 20245 30093 40102 60001 70522 82558 333 10308 82632 85364=
48647 11462 73204 10285 20239 30075 40100 60001 71322 82942 333 10327 81917 83364 87078=
48650 11460 73303 10288 20240 30080 40098 60001 71322 82942 333 10316 81917 83364 86078=
48657 11562 73602 10241 20223 30102 40120 60001 70522 82576 333 10266 82624 85366=
48665 12564 70304 10281 20239 30098 40108 60001 82542 333 10317 82628 84364 87077=
96413 12565 70102 10257 20233 30085 40111 60001 82541 333 10278 82620 86080=
96421 12465 70303 10254 20231 30075 40111 60001 83531 333 10297 83618 85365=
96441 11468 70803 10245 20236 30090 40117 69901 70162 82531 333 10295 82616 85365=
96449 12465 70704 10253 20232 30100 40119 60001 8356/ 333 10282 83614 87365=
96465 11470 71002 10265 20236 30087 40120 69901 71362 82978 333 10299 81810 81915 85364 87279=
96471 11465 71203 10258 20242 30114 40117 69901 70522 83848 333 10316 81814 84364 87277=
96481 NIL=
96491 11361 80408 10266 20251 30099 40111 60041 76162 86817 333 10293 82708 83630 88275=
0000029000
582
SAME31 OLBA 111200
METAR OLBA NIL=
METAR OSDI NIL=
METAR OSAP NIL=
METAR OSLK NIL=
METAR OJAI 111200Z 29012KT 9999 SCT030 12/06 Q1023 NOSIG=
METAR OJAM 111200Z 33010KT 5000 HZ BKN025TCU 12/04 Q1022 NOSIG=
METAR OJAQ 111200Z 35008KT 9999 SCT030 18/07 Q1023 NOSIG=
0000015600
583
SMCS01 MROC 111200
AAXX 11124
78762 32670 10607 10180 20128 39132 40122 52018 81500
333   10281 20169 30/// 56100 58010 81635=



0000013600
584
SMNO02 ENMI 111200 RRA
AAXX 11121
01003 11562 82806 11001 21042 30095 40109 57001 69901 76675 875//
      333 91114=
0000033400
585
UGCN04 CWAO 111200
PPBB  61128 71917 90012 15013 14526 13536 90345 13534 14031
14028 90678 14535 16053 16055 909// 16057 91023 16546 13039
12540 9146/ 13545 13554 92025 14560 15070 14568 9269/ 15065
12550 93013 14050 14549 15042 93456 12531 14532 12526 939//
13551 94123 09529 11028 14518 9479/ 12546 16036=

0000049600
586
UKCN04 CWAO 111200
TTBB  61128 71917 00990 12148 11986 09157 22984 09158 33846
18136 44744 25357 55739 24561 66733 24763 77650 30761 88539
39525 99500 42322 11466 46310 22442 49140 33425 50731 44388
53949 55379 52758 66350 54763 77330 56964 88296 54768 99244
61565 11241 60766 22206 65764 33203 62565 44199 61966 55186
65167 66181 63768 77170 65968 88169 63369 99166 63169 11164
60570 22144 65971 33138 65171 44123 66971 55114 70169 66100
68769 31313 48008 81115=

0000031000
587
USCN04 CWAO 111200
TTAA  61121 71917 99990 12148 15013 00569 ///// ///// 92531
12357 13532 85171 17938 14031 70594 27361 16056 50494 42322
13553 40641 53349 14565 30825 55167 14054 25940 61366 14548
20077 62366 14028 15254 64371 09532 10498 68769 15023 88206
65764 13031 77386 15070=

0000016300
588
SMZS01 NSTU 111207
SSMPPG
AAXX 11124
91765 11466 80112 10278 20241 30059 40063 56010 69931 78082 8582/
333 10294 56899 58007 70135 555 91112=
0000013400
589
SMVJ01 SBBR 111200
BBXX
PWAR 11124 99621 50584 34597 82815 10000 21059 40009 57004 70322 85488
22200 02000 20000 =
0000013000
590
SMSV01 FDMS 111200
AAXX 11124
68383 36/// ///// 10286 20173 39878 48562 57022
      333 10297 20224 555 91012=
0000089100
591
SMIE01 EIDB 111200
AAXX 11121
03951 16/// /1305 10081 20037 30170 40197 51008 60001=
03953 15981 /1103 10082 20012 30157 40188 50009 60001
333 99603=
03955 12484 31402 10062 20023 30003 40203 50010 69911 81602
333 81717 83074=
03956 15979 /2404 10054 20015 30132 40210 52015 69911=
03962 12582 31204 10037 20020 30174 40198 52015 69911 81502
333 81632 83070=
03963 15663 /2004 10086 20041 30156 40185 52017 60001 81///
333 81/30=
03966 15981 /1903 10048 20011 30106 40201 52019 60001=
03967 12584 12105 10055 20016 30082 40198 53014 69901 81101
333 81820=
03969 32382 12305 10055 20013 30091 40197 51013 81601
333 81709=
03973 11586 21802 10028 20007 39930 40191 52018 69911 70280 81802
333 81820=
03976 17674 /1603 10055 20031 30166 40178 52019 69971 7238/ 83///
333 83/45=
03980 17973 /2307 10055 20015 30140 40165 52018 69941 7028/=
0000014600
592
SMCS01 MROC 111200
AAXX 11124
78762 32670 10607 10180 20128 39132 40122 52018 81500
333   10281 20169 30/// 56100 58010 81635=
0000015700
593
SSVX13 LFPW 111200
ZZYY 16546 11014 1200/ 338801 066983 6113/ 11119 40232 57018 22219
 00161 444 20130 11014 1200/ 50101 80146 80016 9/015=
0000015700
594
SSVX13 LFPW 111200
ZZYY 63635 11014 1200/ 775424 004796 6113/ 11119 40137 52004 22219
 00000 444 20130 11014 1200/ 50101 80132 80003 9/015=
0000015700
595
SSVX13 LFPW 111200
ZZYY 44741 11014 1200/ 738787 028157 6113/ 11119 40115 52036 22219
 00159 444 20130 11014 1200/ 50101 80126 80016 9/015=
00000000