0000011000
589
UANT01 CWAO 111226
ARP SWR26L 4907N02335W 1226 F380 MS51 209/57 KT
HBJHA QXT AOE 111226 J15A
0000025300
590
UAPA01 KWBC 111227
ARP AWE683 3017N 13138W 1218 F370 MS48 283/042KT TB SMTH=
ARP WJA1883 3003N 14905W 1218 F350 MS52 252/042KT=
ARP ASA871 45N 156W 1215 F370 MS61 290/070KT=
ARP AWE693 3017N 13138W 1222 F360 MS46 270/045KT TB SMTH=
0000011100
591
SMVF01 ESWI 111200 RRA
BBXX
SMLQ 11121 99656 10222 46/// /0105 11160 40126 52001 22201 0////=
0000011000
592
UANT01 CWAO 111227
ARP VJT772 4741N02706W 1227 F380 MS49 028/67 KT
9HVJD QXT EUA 111227 M52A
0000031800
593
USRE01 FMEE 111200
TTAA 61111 61980 99013 30459 08020 00122 29258 08520 92809 22240
11022 85543 19641 12021 70192 10660 12012 50591 04575 06015 40763
16156 12518 30973 32156 18517 25099 419// 15519 20247 525// 12538
15427 661// 12031 10664 781// 09523 88106 787// 09023 77999 31313
47708 81120=
0000008800
594
ULKZ11 UAAA 111200
TTCC  1112 35229 70762 72156 27030 88999 77740 26531=
0000011100
595
UANT99 KDDL 111226
ARP BER7402 5004N02212W 1226 F360 MS57 205/70 KT
DABXA QXT AOE 111226 J12A
0000114500
596
SZIO42 AMMC 111228
DART 53046S 011122836

D$0 01/11/2014 01:13:08 1106.9520 S 06025.5687 E 039* 52
D$MI
WIND 01/11/2014 06:32:00 00:20:00
-00.0 -00.0 000.0 000.0 -00.0 -00.0 -00.0 -00.0 000.0 000.0 
-00.0 -00.0 -00.0 -00.0 000.0 000.0 -00.0 -00.0 -00.0 -00.0 
000.0 000.0 000.0 000.0 -00.0 -00.0 000.0 000.0 -00.0 -00.0 
-00.0 -00.0 000.0 000.0 -00.0 -00.0 
SST 01/11/2014 06:30:00 00:20:00
99.999 99.999 99.999 99.999 99.999 99.999 
99.999 99.999 99.999 99.999 99.999 99.999 
99.999 99.999 99.999 99.999 99.999 99.999 
BARO 01/11/2014 06:32:00 00:20:00
1012.03 1012.07 1012.04 1011.64 1011.27 1011.37 
1011.48 1011.14 1010.95 1010.74 1010.59 1010.34 
1010.10 1009.73 1009.78 1010.24 1010.35 1010.92 
LOAD 01/11/2014 06:32:00 00:20:00
-018 0004 -028 -005 -018 0004 -024 -005 
-018 0004 -024 -005 -018 0004 -028 -005 
-018 0004 -024 -005 -018 0004 -028 -005 
-018 0004 -024 -005 -018 0004 -024 -005 
-018 0004 -024 -005 -018 0004 -024 -002 
-018 0004 -024 -005 -018 0004 -024 -002 
-018 0004 -024 -005 -018 0004 -028 -005 
-018 0004 -024 -005 -018 0004 -024 -005 
-018 0004 -024 -005 -018 0004 -024 -005 
0000182300
597
SMCI07 BABJ 111200
AAXX 11121
50434 32980 02903 11300 21348 39379 40422 52015=
50527 32975 02901 11336 21369 39516 40429 52019=
50603 32980 02903 11260 21347 39666 40424 52017=
50632 32980 03205 11290 21348 39363 40374 52022=
50727 31980 03602 11285 21326 39072 40395 52024 70070=
50915 32959 03602 11212 21252 39307 40423 52029=
51716 32963 00901 11041 21120 39044 40435 57002 333 00101=
51765 32980 02701 11062 21159 39376 40461 57002 333 00202=
51777 32970 03601 11075 21188 39328 40466 57005 333 00200=
51811 32965 20901 11030 21138 38911 40426 57005 82/// 333
00101=
51828 32965 00401 11032 21124 38758 40424 57003 333 00200=
52267 42980 02501 11075 21217 39250 40443 52010 333 00500=
52323 32980 02205 11097 21219 38331 52007 333 00303=
52495 32980 03204 11101 21233 38814 40455 52018 333 00501=
53149 32980 03204 11139 21249 38893 40442 52017 333 00554=
53192 32973 03204 11177 21246 38984 40438 52022=
53231 32980 01604 11173 21264 38594 52014 333 00553=
53336 32980 02904 11121 21235 38829 40442 52016 333 00501=
53391 42969 02903 11150 21240 38577 40412 52021 333 00200=
53529 42966 93202 11111 21232 38735 40437 52023 333 00453
91117 91529=
53543 32980 03202 11097 21220 38628 40407 52019=
53723 32968 32903 11065 21224 38772 40422 52020 83/// 333
00552=
54012 11958 73403 11171 21208 39100 40389 52023 69901 77000
87///=
54026 32976 03205 11114 21242 39977 40333 52033=
54027 32980 03203 11108 21207 39707 40350 52025=
54208 32980 02703 11132 21226 38823 40394 52019=
54776 31928 02503 10015 21078 30242 40304 52005 70500=
56004 31980 72503 11130 21182 35797 52014 72680 87/// 333
00251=
56033 32680 70706 11147 21215 35998 52006 87/// 333 00254=
56046 11674 73602 11091 21132 36247 52021 69921 78580 87///
333 00252 92500=
0000152800
598
SMCI32 BABJ 111200
AAXX 11121
56193 NIL=
56196 32967 02701 10064 20005 40324 52027 333 00502=
56287 11446 80000 10072 20023 39567 40328 52035 69901 76000
88/// 333 00602=
56684 32961 00406 10019 21028 37846 52037 333 00562=
56751 32777 22505 10137 21031 38028 52009 82/// 333 00151=
56786 32960 03403 10062 20007 38124 52033 333 00358=
56977 31958 02501 10146 20128 40189 52019 71000 333 00100=
57259 11462 82001 10036 20015 39820 40352 52028 60031 76070
88///=
57279 31957 82902 10051 20014 40326 52019 70500 88///=
57348 31758 82201 10081 20026 40319 52031 70500 88///=
57399 31958 80000 10043 20033 40311 52010 71000 88///=
57554 32858 80401 10047 20019 40330 52021 88///=
57793 11330 82703 10052 20046 30133 40299 52012 69951 76066
88///=
58345 11415 80903 10046 20039 40306 52006 60021 76064 88///=
58506 11/01 90401 11018 21018 40308 52008 69991 76864 333
93427=
58813 31957 83603 10077 20050 40280 52020 71000 88///=
58834 32756 70401 10134 20093 40252 52011 87///=
58926 32965 70401 10140 20098 40244 52021 87///=
58944 32573 73604 10130 20089 40253 52009 87///=
59096 32968 02201 10147 20107 40235 52025=
59102 32964 02501 10122 20101 40241 52021=
59278 31957 02201 10168 20106 40228 52021 70500=
59456 31856 73201 10187 20144 40222 52021 70500 87///=
59493 32963 00701 10166 20111 40230 52021=
59658 31456 70904 10168 20139 40220 52018 70500 87///=
59673 32567 40401 10171 20149 40225 52017 84///=
59845 32965 01103 10209 20163 40206 52022=
0000010600
599
SMCI01 BABJ 111200 RRF
AAXX 11121
54497 31943 00201 11066 21110 30267 40287 52002 70500=
0000019300
600
UXIN90 VEGT 111200 CCA
PPAA 6112/ 42410 NO BALLOON=
PPAA 6112/ 42623 NO GAS=
PPAA 6112/ 42314 NO ALT PBA ASCENT DUE ACUTE SHORTAGE OF CHEMICALS
AND 30/32 GRAM BALLOONS=

0000010300
601
SAIN90 VEPT 111220
METAR VEPT 111220Z 05009KT 1500 -RA SCT015 SCT080 16/14 Q1016 NOSIG=
0000010300
602
SAIN90 VEPT 111150
METAR VEPT 111150Z 00000KT 1500 -RA SCT015 SCT080 16/14 Q1017 NOSIG=
0000115600
603
SMIN90 VANP 111200 RRB
AAXX 11124
42874 32596 42702 10254 20167 40127 82530
  333 10268 58014 82625 83360=
42948 31596 40000 10123 20204 40142 70500 82530
  333 10240 59002=
42876 32996 21802 10256 20142 4//// 80001
  333 10288 58///=
42779 21596 83605 10196 20174 39438 40141 76262 8552/
  333 10245 58002 6002/ 85620 88458=
42693 31595 50000 10206 20158 39451 40137 70544 82530
  333 10240 58007 82620 85360=
42783 32996 00000 10246 20182 40145
  333 10292 58008=
43041 32596 42302 10260 20152 39510 40121 82530
  333 10299 58001 82625 84360=
42872 31995 53202 10250 20180 40128 70522 81130
  333 10278 58008 81825 84360=
42782 31995 40000 10238 20177 4//// 70500 80001
  333 10288 58/// 84075=
42459 32995 00502 10180 20136 40122
  333 10220 58006=
42456 32896 30901 10174 20065 40207 80003
  333 10194 58053=
42661 32596 60902 10152 20113 39610 40164 81532
  333 10156 58042=
42763 32596 61403 10186 20159 39811 40161 83530
  333 10196 58051=
42767 32896 82301 10134 20127 38961 48470 88060
  333 10228 59009=
42860 32996 83201 10162 20138 39399 40140 86068
  333 10225 58033=
0000010600
604
SMCI01 BABJ 111200 CCB
AAXX 11121
54497 31943 00201 11066 21110 30267 40287 52002 70500=
0000008200
605
SMCI04 BABJ 111200 RRA
AAXX 11121
59948 42/75 90905 10186 39716=
0000024200
606
SAPK31 OPKC 111230
METAR OPGD 111230Z NIL=
METAR OPKC 111230Z NIL=
METAR OPLA 111225Z 01006KT 5000 HZ NSC 18/06 Q1019=
METAR OPNH 111230Z NIL=
METAR OPPS 111230Z NIL=
METAR OPRN 111230Z NIL=
METAR OPSK 111230Z NIL=
0000024100
607
SOAT10 KWAL 111228
FA8005BC 011122837 OT12 ID:KN-BASS-01 DT:2014 01 11 12 26
:RD -3112 -3073 -3092 -3099 -3096 -3095 -3114 -3083 -3036 -3069
:PR 0612 0542 0535 0549 0592 0518 0519 0609 0552 0610
:B 13.7V
 46+1NN 219E
0000008000
608
UECN03 CWAO 111200
TTDD  6112/ 71913 11812 67572 22399 76368=

00000000