0000014200
476
SAFA31 EKCH 101550
METAR EKVG 101550Z AUTO 11017KT 9999NDV -SHRA  OVC011/// 06/04
Q0994 RMK BKN011/// WIND 850FT 12031KT=

0000013200
477
SALV31 EVRA 101550
METAR EVRA 101550Z 27005KT 220V330 8000 -RA BKN005 OVC016 04/04 Q0984
RERA R36/290158 NOSIG=

0000009400
478
SPCN42 CWAO 101548
SPECI CYCP 101548Z 00000KT 7SM FEW002 BKN045 RMK SF2SC5=

0000011200
479
SPUS41 KWBC 101549
SPECI
KDAY 101545Z 17007KT 1/8SM R06L/2000V2800FT FG OVC002 03/03 A3019=

0000010600
480
SPUS41 KWBC 101549
SPECI
KROC 101545Z 20007KT 10SM BKN028 BKN042 OVC080 01/M03 A3027=

0000004600
481
SAMX31 KWBC 101545 RRD
NIL=

0000020500
482
FTFR37 LFPW 101100 AAB
TAF AMD LFOB 101550Z 1015/1112 18008KT 9999 OVC012 BECMG 1100/1103
2500 BR OVC003 PROB30 TEMPO 1100/1107 0300 FG VV/// BECMG 1109/1112
27010KT 9999 NSW BKN012=

0000012400
483
SAEO31 EETN 101550
METAR EETN 101550Z 02012KT 9999 -RA OVC008 02/01 Q0984 R08/290295 
TEMPO 01015G25KT=

0000009700
484
SAEU31 BKPR 101600
BKPR 101600Z VRB03KT CAVOK 04/02 Q1019 NOSIG RMK 17010095 =

0000073600
485
SAEA20 HKNC 101500
METAR HKEL 101500Z 05011KT 9999 FEW023CB 24/07 Q1022=
METAR HKJK 101430Z 05015KT 9999 FEW027CB 26/11 Q1018 NOSIG=
METAR HKML 101500Z 09010KT 9999 SKC 28/22 Q1010=
METAR HKMO 101500Z 05014KT 9999 FEW023 29/21 Q1010 NOSIG=
METAR HKNC 101500Z 08012KT 9999 FEW024CB 24/11 Q1020=
METAR HKEM 101500Z NIL=
METAR HKGA 101500Z NIL=
METAR HKKG 101500Z NIL=
METAR HKKR 101500Z NIL=
METAR HKKS 101500Z NIL=
METAR HKKT 101500Z NIL=
METAR HKLO 101500Z NIL=
METAR HKMA 101500Z NIL=
METAR HKMB 101500Z NIL=
METAR HKME 101500Z NIL=
METAR HKMY 101500Z NIL=
METAR HKNI 101500Z NIL=
METAR HKNK 101500Z NIL=
METAR HKNW 101500Z NIL=
METAR HKVO 101500Z NIL=
METAR HKWJ 101500Z NIL=

0000009000
486
SPUS41 KWBC 101547
SPECI
KAGC 101543Z 19008KT 7SM OVC031 04/02 A3028=

0000010000
487
SPUS41 KWBC 101547
SPECI
KCAK 101543Z 18006KT 2SM BR BKN003 OVC016 02/01 A3023=

0000009400
488
SPUS42 KWBC 101547
SPECI
KNEW 101543Z 10007KT 1/2SM FG VV002 11/11 A3015=

0000010500
489
SPUS42 KWBC 101547
SPECI
KTUL 101543Z 18012KT 10SM BKN005 BKN014 OVC021 07/07 A2975=

0000009600
490
SAEA20 HKNC 101500 RRA
METAR HKKS 101500Z 00000KT 9999 FEW023CB BKN090 25/14=

0000029500
491
FTPK31 OPKC 101545
TAF OPST 101545Z 1018/1112 31006KT 4000 FU NSC TX17/1110Z TN01/1101Z
PROB30 TEMPO 1018/1020
VRB03KT 1000 BR NSC BECMG 1020/1024 00000KT 0500 FG NSC BECMG
1100/1104 00000KT 0200 FG NSC BECMG 1104/1106 32005KT 1000 BR NSC
FM110600 32005KT 2500 FU NSC=

0000177700
492
SPUS70 KWBC 101548
SPECI
KANB 101544Z AUTO 06008KT 2SM BR OVC004 06/05 A3024 RMK AO2
     T00610050=
KAXN 101544Z AUTO 16011KT 1/2SM FZFG OVC002 M04/M04 A2959 RMK
     AO2=
KCEU 101544Z AUTO 06004KT 4SM BR SCT003 OVC016 08/06 A3031 RMK AO2
     RAE44 P0002=
KDMO 101544Z AUTO 13008KT 2SM BR OVC002 04/04 A2974 RMK AO2
     RAB1459E23 P0000 T00390039=
KECP 101544Z 07003KT 1/4SM FG VV002 14/14 A3017 RMK AO2=
KGIF 101544Z AUTO 11003KT 6SM BR BKN007 22/20 A3019 RMK AO2
     T02170200 TSNO=
KLFT 101544Z 12005KT 7SM OVC002 14/13 A3009 RMK AO2 $=
KPOU 101544Z 00000KT 2 1/2SM -SN OVC020 M02/M06 A3047 RMK AO2
     SNB32 P0000=
KSMQ 101544Z AUTO 00000KT 4SM UP BR FEW009 OVC017 M02/M03 A3046
     RMK AO2 UPB43SNE43 P0000 T10171033 TSNO=
KVPZ 101544Z AUTO 15009KT 2 1/2SM BR OVC002 00/00 A3005 RMK AO2
     CIG 002V007 T00000000 TSNO=
KBGM 101545Z 19007KT 3/4SM -SN BR FEW007 BKN019 OVC048 M03/M04
     A3031 RMK AO2 TWR VIS 1 P0001 RVRNO=
KDAY 101545Z 17007KT 1/8SM R06L/2000V2800FT FG OVC002 03/03 A3019
     RMK AO2 SFC VIS 1/4=
KDFI 101545Z AUTO 18007KT 2 1/2SM BR OVC004 02/01 A3016 RMK
     AO2=
KGVL 101545Z AUTO 08008KT 2SM BR OVC003 07/06 A3028 RMK AO2
     RAB26E40 P0000=
KMCB 101545Z AUTO 15004KT 1/4SM FG VV002 10/10 A3013 RMK AO2
     T01000100=
KMIW 101545Z AUTO 13013KT 1 1/2SM BR OVC004 M01/M02 A2977 RMK AO2
     I1003 T10111017 TSNO=
KPTW 101545Z AUTO 00000KT 5SM BR FEW006 BKN026 OVC041 M01/M02
     A3046 RMK AO2 UPE31 P0000 T10111022=
KRUE 101545Z AUTO 00000KT 1 3/4SM RA BR OVC011 07/06 A2994 RMK AO2
     RAB26 P0002=
KUAO 101545Z AUTO 19006KT 6SM -RA BR SCT024 BKN029 OVC047 08/08
     A3019 RMK AO2 P0002 T00830078=
K7R3 101532Z 11008KT 2SM FG OVC001 14/M A3011=

0000074300
493
FCPL32 EPWA 101400
TAF EPBY 101430Z 1015/1024 26018KT 9999 BKN030
    TEMPO 1015/1024 26020G32KT 5000 SHRA BKN015CB=
TAF EPKT 101430Z 1015/1024 26014KT 9999 BKN036
    PROB40 TEMPO 1015/1017 26018G28KT BKN024TCU=
TAF EPLB 101430Z 1015/1024 26018KT 9999 BKN040
    TEMPO 1015/1021 26022G33KT
    PROB30 TEMPO 1015/1019 BKN020CB=
TAF EPMO 101430Z 1015/1024 26015KT 9999 BKN030
    TEMPO 1015/1024 26020G30KT SHRA BKN020CB=
TAF EPSC 101430Z 1015/1024 27015KT 9999 BKN020
    PROB40 TEMPO 1015/1021 27015G27KT SHRA BKN015CB=
TAF EPWR 101430Z 1015/1024 27014KT 9999 SCT033
    TEMPO 1015/1018 27020G30KT SCT025CB=
TAF EPZG 101430Z 1015/1024 26015KT 9999 BKN030
    TEMPO 1015/1018 26020G32KT BKN020CB=

0000010500
494
SABA31 MYNN 101547
METAR MYNN 101600Z 12014KT 9999 SCT016 BKN035 BKN080 27/22
A3020=

0000044100
495
SAPL31 EPWA 101430
METAR EPGD 101430Z 29017KT 6000 -SHRA FEW011 BKN015CB
    05/03 Q1000 RESHRA =
METAR EPKK 101430Z 25016KT 9999 FEW033 BKN053 06/01
    Q1013 =
METAR EPLL 101430Z 26019G32KT 9999 BKN029CB 06/02 Q1008 =
METAR EPPO 101430Z 26021KT 9999 BKN021 07/03 Q1009
    R10/19//95 =
METAR EPRZ 101430Z 28021G34KT 9999 SCT033CB 07/01 Q1011 =
METAR EPWA 101430Z 26025G35KT 9999 BKN026 06/02 Q1005 NOSIG=

00000000