0000034000
809
UGCN06 CWAO 111200
PPBB  61128 71945 90023 03501 02003 09007 90456 13514 15004
14516 90789 13012 15015 16015 91012 18517 18014 19513 91345
20018 22521 25017 9169/ 26035 27035 92012 26047 25054 25048
92357 24054 24078 24088 93013 24138 23649 24143 93567 25590
26579 26063 94014 25564 27566 26561 9501/ 28573 28571=

0000053200
810
UKCN06 CWAO 111200
TTBB  61128 71945 00950 18521 11949 18947 22922 19111 33876
20501 44857 18902 55853 17302 66848 13502 77845 13506 88842
13710 99838 13520 11827 08557 22817 07959 33674 20516 44643
22923 55626 23956 66580 28556 77542 31561 88516 28578 99501
29374 11493 29962 22484 31362 33478 31956 44442 35939 55376
43938 66345 45538 77278 53748 88235 61334 99225 59556 11209
59564 22204 60167 33186 57775 44175 59376 55168 55379 66159
56980 77141 56181 88113 60179 99100 59979 31313 48008 81116=

0000030700
811
SMOM10 OOMS 111200 RRB
AAXX 11124
41241 36/// /3302 10215 20108 30162 40200
333 0E018 59005  =
41254 36/// /1406 10105 20012 38058 40248
333 0E002 58002  =
41258 36/// /1109 10206 20074 30190 40195
333 0E/// 59011 =
41293 36/// /1403 10234 21004 39828 40174
333 0E015 59004 =
0000173900
812
SMJP01 RJTD 111200
AAXX 11124
47401 11/65 72813 11097 21162 30155 40170 51011 60052 78588 872//
  333 11088=
47412 11/60 72504 11071 21127 30171 40205 51005 69902 70281 8623/
  333 11049=
47420 15/70 /2611 11068 21110 30137 40172 53013 60002
  333 11041=
47426 17/70 /3206 11066 21137 30159 40209 51014 60012 70070
  333 11033=
47582 11/60 73311 11009 21060 30230 40258 51004 60022 72682 873//
  333 10000=
47590 12/65 12204 11006 21056 30199 40255 51009 69902 81300
  333 10034=
47600 17/67 /1805 10007 21001 30260 40269 58002 60042 72360
  333 10024=
47648 12/82 42805 10041 21036 30219 40254 51008 60002 81132
  333 10085=
47662 12/65 72203 10051 21032 30208 40254 51008 60002 81132
  333 10090=
47678 15/70 /2809 10075 20003 30070 40262 51004 60002
  333 10094=
47740 17/62 /3103 10010 20004 30243 40279 58002 69902 70060
  333 10064=
47778 15/70 /3006 10056 21027 30196 40282 51007 60002
  333 10095=
47807 12/65 21502 10041 21017 30278 40297 50003 60002 82100
  333 10085=
47827 12/65 63508 10085 21005 30250 40289 52001 60002 81130
  333 10118=
47843 15/64 /2102 10046 20011 30263 40297 50000 60002
  333 10081=
47893 12/70 62804 10045 21021 30282 40288 51009 60002 82131
  333 10105=
47909 12/65 71703 10126 20079 30266 40276 50000 60002 875//
  333 10164=
47918 11/70 41110 10203 20120 30225 40242 51012 69902 72511 84200
  333 10230=
47936 12/75 71008 10175 20089 30205 40265 52011 60002 8113/
  333 10193=
47945 12/70 60507 10158 20078 30245 40270 53009 60002 86800
  333 10183=
47971 11/70 83605 10155 20075 30248 40258 51009 69902 72522 882//
  333 10169=
47991 16/// /0213 10216 20143 30181 40191 50009 60002
  333 10238=
0000239700
813
SMJP02 RJTD 111200
AAXX 11124
47407 11/15 72411 11088 21110 30011 40194 52008 60042 78588 873//
  333 11070=
47409 11/20 82906 11088 21109 30117 40174 53013 69902 78582 882//
  333 11055=
47418 12980 12716 11057 21133 30136 40188 51015 60002 80002
  333 11026=
47421 17/60 /3008 11052 21091 30164 40209 58003 60012 77177
  333 11050=
47430 11/15 83601 11068 21082 30172 40229 52004 60032 78588 883//
  333 11044=
47570 17/70 /2405 11001 21045 30001 40271 52006 69902 77170
  333 10012=
47575 11/15 82108 11041 21059 30238 40243 51006 60052 78522 883//
  333 11020=
47584 12/65 41306 11056 21088 30052 40253 51010 69902 84200
  333 10002=
47604 11/56 81902 10003 21004 30266 40273 51005 69902 78582 882//
  333 10031=
47605 11/60 72009 10022 20006 30232 40275 57002 60082 78382 872//
  333 10035=
47610 11/75 23502 11020 21027 39751 40277 53005 69902 70281 82200
  333 10029=
47624 12/70 63306 10023 21060 30118 40262 51014 60002 81501
  333 10088=
47629 12/80 63303 10007 21062 30222 40261 51011 60002 81138
  333 10087=
47636 12/70 73104 10034 20003 30207 40278 53006 69902 878//
  333 10077=
47651 12/70 62804 10047 21028 30257 40280 53005 60002 8183/
  333 10095=
47655 15/70 /2812 10033 21020 30195 40254 51011 60002
  333 10088=
47675 15/70 /0908 10038 20002 30154 40249 51007 60002
  333 10103=
47741 11/70 70802 10022 20009 30257 40285 58001 69902 70281 878//
  333 10058=
47746 11/65 71105 10019 20000 30268 40288 51003 69902 70282 875//
  333 10047=
47750 17/60 /2002 10017 20011 30260 40289 51002 69902 76760
  333 10063=
47765 12/70 70203 10038 21026 30227 40295 51005 60002 81101
  333 10091=
47772 12/75 60402 10045 21009 30184 40288 51008 60002 81531
  333 10095=
47800 15/63 /3402 10004 21028 30293 40298 58002 60002
  333 10065=
47815 12/60 73305 10063 21007 30280 40297 51005 60002 81130
  333 10099=
47817 12/60 70303 10054 20004 30253 40298 50004 60002 8123/
  333 10079=
47830 12965 82703 10061 20024 30269 40288 51004 60002 8807/
  333 10110=
47887 12965 71105 10025 21022 30252 40296 51006 60002 82032
  333 10088=
47891 12/65 72603 10036 21021 30276 40294 51007 60002 83231
  333 10083=
47895 12970 63304 10050 21033 30283 40291 51006 60002 82032
  333 10084=
47927 11/70 41107 10180 20113 30200 40250 51011 69902 72111 84830
  333 10213=
0000024300
814
SMOM66 OOMS 111200 RRB
AAXX 11124
41241 36/// /3302 10215 20108 30162 40200
333 0E018 59005  =
41254 36/// /1406 10105 20012 38058 40248
333 0E002 58002  =
41258 36/// /1109 10206 20074 30190 40195
333 0E/// 59011 =
0000214800
815
SMIR04 OIII 111200
AAXX 11121
40700 12960 02406 10124 21092 30048 40138 57024 60001 555 10052
29021=
40723 12960 51806 10078 21109 38949 40202 56011 60001 85050 333
85360 555 10018 29025=
40726 11630 60000 11018 21071 38666 40255 57013 69941 72277 83520
333 83635 86458 555 11034 29067=
40727 11558 50000 10010 21062 38480 40238 55011 60001 70521 83600
333 82725 83635 555 11015 29059=
40734 12560 80904 10112 20100 30173 40148 56014 60001 81777 333
81720 85360 88268 555 10106 29092=
40737 12660 80000 10104 20066 30134 40152 57010 60001 8257/ 333
82635 88360 555 10086 29077=
40741 12662 61204 10145 21064 39844 40183 57021 60001 84502 333
      84640 83068 555 10068 29023=
40780 11458 70000 10050 20050 38665 40169 55009 60041 71066 85370
333 81815 82925 84635 87459 555 10050 29100=
40791 12660 73402 10087 21054 39372 40214 56012 60001 84426 333
      84635 85459 87269 555 10036 29036=
40792 12665 61902 10090 21134 38725 40201 55014 60001 81536 333
      81640 83360 86270 555 10020 29019=
40794 11662 80906 10116 20096 30070 40169 56023 60041 70286
8532/ 333 82935 83640 88459 555 10106 29088=
40812 11660 81502 10110 20086 39781 40162 55014 60041 70262 8332/
333 83935 83640 88458 555 10098 29085=
40829 12560 70702 10098 21027 39647 40241 57014 60001 81720 333
      81730 87459 555 10050 29041=
40833 11540 71105 10127 20113 30149 40182 57013 60151 78082 87300
333 83930 84635 555 10120 29091=
40835 11540 80000 10082 20082 39337 40166 57012 60061 76166 8532/
555 10082 29100=
40845 11540 81506 10148 20141 30156 40161 57020 60341 79598 8792/
333 84720 83925 88557 555 10144 29096=
40882 11558 80808 10158 20140 30152 40188 56019 60031 72166 8532/
333 81930 84725 88459=
40889 11557 81405 10186 20137 30193 40198 53001 69951
76086 8232/ 222// 00230 20503 333 82930 88558 555 10158 29073=
40890 11535 80504 10170 20142 30180 40187 55000 69951 76062 8332/
      222// 00168 20301 333 82925 82630 88558 555 10154 29084=
40893 12960 61502 10202 20056 30193 40199 56012 60001 83076 222//
00175 20401 333 83359 83269 555 10130 29039=
40897 NIL=
0000014400
816
SMCS01 MROC 111217
AAXX 11124
78764 32660 21210 39031 40124 52015 81101
333   10261 20181 30/// 56303 58011 81630=



0000009500
817
SAUK39 EGRR 111150 RRC
METAR EGXE 111150Z AUTO 23008KT //// // NCD 05/01 Q////=
0000013200
818
SMTH42 VTBB 111200 CCA
AAXX 11124
48433 31957 20000 10255 20181 39983 40149 52016 70500 80005
  333 10310 58012=
0000024100
819
SOAT10 KWAL 111218
FA8005BC 011121837 OT12 ID:KN-BASS-01 DT:2014 01 11 12 16
:RD -3079 -3098 -3116 -3159 -3111 -3104 -3092 -3106 -3082 -3077
:PR 0592 0569 0614 0566 0599 0618 0600 0556 0543 0520
:B 13.7V
 46+1NN 219E
0000038000
820
SMCM01 FKKD 111200
AAXX 11124
64860 31940 71604 10297 20005 39862 40132 70522 80002
  333 0//00 58007 87080=
64861 NIL=
64870 32960 60606 10275 20048 38919 48516 80002
  333 58008 86080=
64871 NIL=
64892 NIL=
64893 NIL=
64894 NIL=
64910 32460 70000 10322 20243 30102 40111 87200
  333 0//00 58009 87820=
64911 NIL=
64950 NIL=
64851 NIL=
0000013400
821
SMCS01 MROC 111217
AAXX 11124
78764 32660 21210 39031 40124 52015 81101
333   10261 20181 30/// 56303 58011 81630=
0000011100
822
UANT01 CWAO 111217
ARP BER7000 4945N03342W 1216 F360 MS51 264/10 KT
DABXB QXT AOE 111217 J37A
0000013000
823
SMRO50 YRBK 110000 RRD
AAXX 11001
15455 03/// ///// 10029 20016 30058 40192 5//// 6///1 333 4//// 55002
6///7=
0000017000
824
SMLJ21 LJLM 111200 CCA
AAXX 11121
14008 12589 70104 10003 21091 37494 47059 58003 60001 85072
  333 553// 20956 30655 58027 90705 91111
  444 76005=
0000011000
825
SMIY01 LIIB 111200 RRA
AAXX 11124
16206 12980 50804 10128 20073 30214 40223 58006 60001 80009=
0000010300
826
UAJP71 RJFF 111215
PIREP
APJ200 MADOG AT 1213 F230 CLR AND SMTH 270/80KT MS25 BY A320
0000011100
827
UANT01 CWAO 111217
ARP AMX003 4644N03645W 1217 F390 MS51 293/38 KT
N961AM DDL XXW 111217 L25A
0000097600
828
SMPO01 LPMG 111200
AAXX 11121
08501 11570 42909 10093 20018 30092 40129 52027 60011 72581 84360
333  83822 81923 91016 91116=
08505 11570 42912 10118 20026 30069 40119 52034 69911 70182 84800
333 82825=
08509 11460 63009 10116 20083 30037 40102 52040 60021 78086 86800
      333 83823 83635 91119=
08512 12/// /3011 10135 20078 30014 40106 52042 60061=
08515 11575 33111 10145 20111 39998 40112 52043 60021 70181 83801
222// 0////
333  82821=
08533 42/// /36// 1//// 2//// 3//// 4//// 5////=
08541 32/// /9903 10160 20100 30063 40181 52008
333  91105=
08545 NIL=
08548 32/// /9901 10116 20116 39981 40187 52008=
08554 32/// /0905 10176 20132 30177 40187 52003=
08558 32/// /9901 10149 2//// 39890 40181 52003=
08560 NIL=
08567 32/// /9901 10075 20071 39528 40198 52006=
08570 32/// /0602 10113 20067 39731 40189 52002=
08575 32/// /9901 10094 20052 39381 40191 52001=
08579 32/// /0702 10088 20087 30065 40191 52004=
00000000