0000012600
256
SMCN04 KWBC 110600
AAXX 11064
71323 15/// /1703 11105 21129 39929 40221 58018 60001 333 11082
21263 70000=
0000033600
257
SMHK01 KWBC 111200
AAXX 11121
45007 12960 11205 10176 20119 30219 40228 53020 60002 80001 333
10226 59003 81080=
45032 36/// /1403 10152 20118 30211 40228 52002=
45035 36/// /0702 10154 20119 30189 40231 52003=
45039 36/// /3201 10148 20116 30219 40235 52002=
45044 36/// /0903 10160 20133 30134 40228 52002=
0000011000
258
UANT01 CWAO 111208
ARP BAW196 5450N03227W 1208 F350 MS59 184/47 KT
GCIVH QXT AOW 111208 F64A
0000008800
259
UPCY01 LCLK 111200
PPAA 61111 17600 55185 26015=
PPAA 61111 17609 NIL=
0000134100
260
SMCZ40 OKPR 111200
AAXX 11121
11406 01256 89902 10011 20004 39587 40186 58009 60001 71022
      885//
  333 60005 83705 88640
  555 395// 50022 60023 70028 80037 90051=
11457 02884 72307 10031 20002 38864 48465 57013 60001 86051
  333 60005 86358 83070 91013 91114
  555 381// 50004 60011 70012 80024=
11464 12981 72506 10018 21011 39164 42767 58011 60001 86071
  333 86358 91114 9513/
  555 381//=
11520 02982 62003 10067 20001 39804 40172 58016 60001 85041
  333 60005 85361
  555 363// 50023 60028 70031 80044 90052=
11546 07978 /1602 10054 20015 39689 40177 57016 60001 70010
  333 60005 83/60 85/62 87/66
  555 376// 50035 60036 70040 80054 90058=
11636 02980 71602 10038 21008 39497 42788 58017 60001 81032
  333 60005 81363 87071
  555 372// 50007 60020 70028 80042 90048=
11679 02580 62504 10067 21008 39690 40178 58015 60001 83108
  333 60005 81833 86273
  555 359// 50034 60037 70037 80047 90060=
11766 02484 42405 10015 21018 39282 42781 58012 60001 81104
  333 60005 81813 84069
  555 379// 50009 60013 70021 80037=
11774 02583 71704 10059 20011 39917 40191 58018 60001 81141
  333 60005 81822 83170 87075
  555 371//=
11787 02286 52604 11018 21048 38642 48461 58008 60001 81142
  333 60005 81803 85069 91113 93520
  555 380// 50005 60011 70009 80020=
0000013900
261
SSVX13 LFPW 111201
ZZYY 41738 11014 1201/ 726608 077016 6113/ 22219 00229 444 20130
 11014 1201/ 50101 80050 80000 9/015=
0000011000
262
UANT01 CWAO 111208
ARP SWR26L 4902N02017W 1208 F380 MS60 211/74 KT
HBJHA QXT AOE 111208 J13A
0000011000
263
UANT01 CWAO 111208
ARP KLM723 5201N01630W 1208 F380 MS63 236/68 KT
PHAOA QXT AOE 111208 J19A
0000025400
264
SSVX12 KARS 111208
ZZYY 48520 11014 1130/ 775840 019438 6113/
11119 11296 40050 52002
444 20130 11014 1117/ 501// 80140 80000=
ZZYY 48600 11014 1140/ 173730 173988 6112/
11119 40208 57007
444 20120 11014 1054/ 501// 80140 80000=
0000060200
265
SSVX07 KARS 111208
ZZYY 48731 11014 1200/ 774122 154932 6112/
11119 11204 40013
444 20120 11014 1157/ 504//=
ZZYY 48733 11014 1200/ 772962 152374 6111/
11119 11259 40024
444 20110 11014 1158/ 504//=
ZZYY 48508 11014 1200/ 772716 159187 6111/
11119 11239 40048
444 20110 11014 1110/ 504//=
ZZYY 48732 11014 1200/ 774461 130959 6113/
11119 11145 49835
444 20130 11014 1157/ 504//=
ZZYY 48536 11014 1200/ 175242 148561 6111/
11119 11284
444 20110 11014 1151/ 504//=
ZZYY 48507 11014 1200/ 773042 134962 6112/
11119 11260 49906
444 20120 11014 1158/ 504//=
0000036400
266
SSVX08 KARS 111208
ZZYY 48400 10014 12004 750144 144847 6111/
11119 01126 10064 29092
22219 00091
33311 88872 20000 30912 20001 30906 43226
444 20110 10014 1218/ 521// 60401=
ZZYY 48400 10014 12004 750144 144847 6111/
11119 01126 10064 29092
22219 00091
33311 88872 20000 30912 20001 30906 43226
444 20110 10014 1218/ 521// 60401=
0000008900
267
SAIN90 VOMM 111210
METAR VOMM 111210Z 07006KT 6000 NSC 25/19 Q1012 NOSIG=
0000008000
268
SAIN90 VOBG 111200
METAR VOBG 111200Z 14006KT CAVOK 27/11 Q1015=
0000009500
269
SAIN90 VOHS 111210
METAR VOHS 111210Z VRB02KT 5000 HZ SCT020 27/11 Q1015 NOSIG=
0000025400
270
SAIN34 VOMM 111200
METAR VOBL 111200Z 10005KT CAVOK 31/11 Q1016 NOSIG=
METAR VOCB 111200Z 09004KT 6000 NSC 29/14 Q1013 NOSIG=
METAR VOCL 111200Z 27006KT 7000 NSC 29/22 Q1010 NOSIG=
METAR VOMD 111200Z 08005KT 6000 FEW020 30/16 Q1012=
0000011000
271
UANT01 CWAO 111209
ARP VJT772 4820N02358W 1208 F380 MS52 027/63 KT
9HVJD QXT EUA 111209 M47A
0000011000
272
UANT01 CWAO 111209
ARP UAL56 5044N03408W 1209 F320 MS52 277/11 KT
N66051 DDL XXN 111209 F34A
0000208300
273
SMVD01 PANC 111200 RRC
BBXX
TCTX2 11123 99362 70533
41/97 /0205 10170 20094 40300 52010 7//11 8////
22263 04220 20302 30000 80130=
WYQ4356 11124 99461 70840
43/// /1808 10023 49937
2227/ 00002=
3ETA8 11124 99240 70880
41/98 /2013 10240 2021/ 40130 54000 7//// 8////
22275 04244 20502 305// 4//// 5//// 6//// 80220 ICE /////=
WYP8657 11124 99458 70846
43/// /1805 10016 49940
2227/ 00002=
C6QM8 11124 99236 70833
41999 01710 10250 20243 40170 57030 702// 80000
22255 04244 20402 80245=
9HXD9 11124 99253 70761
41/// /1422 10240 2//// 40170 54/// 7//// 8////
222// 0//// 2//// 3//// 4//// 5//// 6//// 8//// ICE /////=
PHSG 11124 99069 71330
41/98 81124 10250 20235 40090 54000 70392 88///
22214 00250 20203 323// 40306 80240=
3FJY6 11124 99424 50947
41497 82330 10150 2013/ 40120 52/// 76022 8//4/
22273 00160 20402 309// 40905 5//// 6//// 80140 ICE 0/0//=
C6UA2 11123 99325 31529
41/// /0122 10220 20174 40170 54000 7//// 8////
22254 04260 2//// 3//// 4//// 5//// 6//// 80190 ICE /////=
WDG4379 11124 99314 11653
41397 33237 10150 20100 40194 50/// 70111 8246/
22263 00178 21209 332// 41412 5//// 6//// 80122 ICE /////=
KRAU 11123 99258 70755
41798 42605 10220 20205 40190 56040 70322 84208
22264 00258 20804 321// 41008 5//// 6//// 80210 ICE 0/0//=
C6FN2 11124 99237 70822
41297 11419 10250 20207 40200 5/010 7//// 81139
22254 00270 20502 31313 40502 50502 6//// 80220 ICE /////=
WECB 11124 99327 71172
43/// /2202 10133 20085 40206 5//// 7//// 8////
222// 04147 2//// 3//// 4//// 5//// 6//// 8//// ICE /////=
WSQ2674 11124 99327 71172
43/// /2603 10113 2//// 40199 5//// 7//// 8////
222// 04151 2//// 3//// 4//// 5//// 6//// 8//// ICE /////=
WUR8857 11124 99432 70877
43/// /2816 10022 49964
2226/ 00010=
KAOU 11124 99053 31063
43/// /3318 10270 20238 40107 5//// 7//// 8////
222// 04304 2//// 3//// 4//// 5//// 6//// 8//// ICE /////=
KAQP 11124 99098 71043
43/// /0813 10264 20215 40098 5//// 7//// 8////
222// 04270 2//// 3//// 4//// 5//// 6//// 8//// ICE /////=
0000012700
274
SMIY02 LIIB 111200 RRB
AAXX 11124
16459 12560 52806 10180 20141 30193 40228 57016 60001 82201 333
      82820=
0000008000
275
UEAI01 KWBC 111200
TTDD 6112/ 61641 NIL=
TTDD 6112/ 61902 NIL=
00000000