0000017900
416
SAID33 WIII 101630
METAR WABP NIL=
METAR WAJJ NIL=
METAR WAKK NIL=
METAR WAPP NIL=
METAR WARS NIL=
METAR WATT NIL=
METAR WALR NIL=
METAR WARQ NIL=

0000024400
417
SAIO31 KWBC 101600 RRG
METAR
WBGG 101630Z 24004KT 9999 SCT020 BKN150 23/23 Q1013 NOSIG=
WBKK 101630Z 10003KT 9999 FEW014 SCT140 BKN270 24/23 Q1011
     NOSIG=
WBSB 101630Z 09002KT 9999 FEW015 BKN300 24/24 Q1012 NOSIG=

0000035300
418
SAPO31 LPMG 101630
METAR LPBJ 101630Z NIL=
METAR LPFR 101630Z 08006KT CAVOK 17/09 Q1012=
METAR LPMA 101630Z 02007KT 340V060 9999 FEW015 21/12 Q1013 RS14002KT
0519002KT 2336007KT=
METAR LPPR 101630Z 33006KT CAVOK 12/09 Q1014=
METAR LPPS 101630Z 02011KT 9999 SCT012 18/16 Q1013=
METAR LPPT 101630Z 04003KT CAVOK 15/10 Q1013=

0000030600
419
SAPO32 LPMG 101630
METAR LPAZ 101630Z 19014KT 9999 SCT009 16/15 Q1013=
METAR LPFL 101630Z 18012KT 150V240 9999 FEW019 13/07 Q1010=
METAR LPHR 101630Z VRB05KT 9999 FEW008 BKN014 BKN030 14/11 Q1010=
METAR LPLA 101630Z NIL=
METAR LPPD 101630Z 18012KT 9999 SCT005 BKN010 15/15 Q1012=

0000038600
420
SAID31 WIII 101630
METAR WIMM 101630Z 27005KT 4000 HZ BKN017 25/24 Q1012= 
METAR WAAA 101630Z 32007KT 6000 -TSRA FEW018CB SCT019 25/25 Q1011= 
METAR WADD 101630Z 35003KT 270V030 9999 FEW015CB FEW017 27/24 Q1009
NOSIG= 
METAR WIII 101630Z VRB05KT 5000 HZ SCT020 BKN100 26/23 Q1010 NOSIG= 
METAR WIHH NIL=
METAR WABB NIL=
METAR WARR NIL=
METAR WIDD NIL=

0000028800
421
SAID32 WIII 101630
METAR WIBB 101630Z 00000KT 7000 FEW016 25/24 Q1010 NOSIG= 
METAR WIPT 101630Z 36003KT 6000 R33/M0050N SCT019 25/24 Q1012= 
METAR WAMM NIL=
METAR WIDN NIL=
METAR WIOO NIL=
METAR WIPP NIL=
METAR WAOO NIL=
METAR WALL NIL=
METAR WADL NIL=

0000029500
422
SAHK31 VHHH 101630
METAR VHHH 101630Z 10016KT 9000 FEW025 16/11 Q1023 NOSIG=
METAR RCTP 101630Z 06018KT 9999 FEW020 17/11 Q1023 WS R05L NOSIG
RMK A3022=
METAR RCKH 101630Z NIL=
METAR RCSS 101630Z NIL=
METAR VMMC 101630Z 09014KT 010V130 9000 FEW025 16/12 Q1024 NOSIG=

0000013800
423
FTCR32 LEMM 101400 AAA
TAF AMD GCGM 101638Z 1016/1115 VRB05KT CAVOK TX20/1114Z
TN15/1107Z TEMPO 1016/1018 06015G25KT=

0000011800
424
SPEU31 BKPR 101640
BKPR 101640Z 00000KT 0100 R17/0125 FG BKN003 02/00 Q1020 NOSIG RMK
 17010095 =

0000115800
425
SAAU31 YBBN 101630
METAR YPAD 101630Z 16010KT CAVOK 20/07 Q1016
NOSIG=
METAR YBAS 101630Z AUTO 29007KT 9999 // NCD 22/M09 Q1014=
METAR YBBN 101630Z 20005KT 9999 FEW035 SCT069 20/18 Q1017=
METAR YBCS 101630Z 17011KT 8000 -SHRA SCT025 BKN045 25/24 Q1009=
METAR YSCB 101630Z AUTO 00000KT 9999 // NCD 15/12 Q1019=
METAR YPXM 101630Z NIL=
METAR YPCC 101630Z AUTO 16014KT 9999 // SCT021 27/23 Q1012=
METAR YCFS 101630Z AUTO 33004KT 9999 // BKN046 19/18 Q1018=
METAR YPDN 101630Z 09006KT 9999 -RA FEW045 BKN150 24/23 Q1007=
METAR YBCG 101630Z NIL=
METAR YHID 101630Z AUTO 09007KT //// // ////// 28/25 Q1006=
METAR YPJT 101630Z AUTO 12007KT 9999 // NCD 24/12 Q1015=
METAR YPKU 101630Z AUTO 06003KT 9999 // NCD 28/22 Q1008=
METAR YPLM 101630Z AUTO 36009KT 9999 // NCD 30/24 Q1008=
METAR YMML 101630Z 15007KT CAVOK 19/15 Q1016
NOSIG=
METAR YPPH 101630Z 08011KT CAVOK 28/09 Q1014=
METAR YSSY 101630Z 04007KT CAVOK 21/18 Q1017
NOSIG=
METAR YSTW 101630Z AUTO 17005KT 9999 // BKN115 19/14 Q1018=
METAR YPTN 101630Z AUTO 01004KT 9999 // NCD 26/23 Q1008=
METAR YBTL 101630Z AUTO 15007KT 9999 // NCD 26/22 Q1011=

0000113300
426
SAAU32 YBBN 101630
METAR YAMB 101630Z NIL=
METAR YMAV 101630Z AUTO 22007KT 9999 // NCD 17/14 Q1016=
METAR YBRM 101630Z AUTO 29010KT 9999 // BKN019 29/25 Q1007=
METAR YCIN 101630Z NIL=
METAR YSDU 101630Z AUTO 13007KT 9999 // NCD 17/17 Q1017=
METAR YFRT 101630Z AUTO 14009KT //// // ////// 18/18 Q1019=
METAR YGEL 101630Z AUTO 16011KT 9999 // NCD 22/20 Q1011=
METAR YPGV 101630Z AUTO 15006KT 9999 // SCT029 SCT038 24/24 Q1006=
METAR YBHM 101630Z AUTO 10022KT 9999 // ////// 26/23 Q1012=
METAR YMHB 101630Z 18006KT 9999 BKN009 16/14 Q1012=
METAR YPKG 101630Z AUTO 11017KT 9999 // NCD 25/11 Q1019=
METAR YMLT 101630Z AUTO 31009KT 9999 // NCD 17/13 Q1012=
METAR YBMA 101630Z AUTO 22002KT 9999 // NCD 27/20 Q1009=
METAR YSNF 101630Z AUTO 11009KT 9999 // OVC057 19/10 Q1018=
METAR YPEA 101630Z NIL=
METAR YPPD 101630Z AUTO 32008KT 9999 // NCD 28/27 Q1007=
METAR YSRI 101630Z AUTO 00000KT 6000 // NCD 16/16 Q1017=
METAR YBRK 101630Z AUTO 13005KT 9999 // NCD 23/21 Q1014=
METAR YWLM 101630Z AUTO 13004KT 9999 // NCD 20/17 Q1017=
METAR YPWR 101630Z AUTO 17013KT 9999 // NCD 26/07 Q1015=

0000018300
427
FTLT32 EYVI 101700
TAF EYKA 101700Z 1018/1106 28025G38KT 9000 BKN008 OVC016
TEMPO 1018/1021 4000 SHRA BKN005 BKN012CB PROB40 TEMPO
1021/1024 5000 SHRA BKN012CB=

0000011600
428
SPCN49 CWAO 101638
SPECI CYTQ 101638Z 26027G35KT 1/4SM -SN +BLSN FEW035 BKN070 RMK
BLSN2SC1AC3=

0000019900
429
FTVN41 SVBM 101800
TAF SVBM 101645Z 1018/1118 11012KT 9999 SCT016 TX30/1900Z TN18/0800Z
BECMG 1022/1102 10005KT 9999 FEW020   SCT080 BECMG 1103/1107 07010KT
9999 FEW010 BKN020=

0000009500
430
SAFR32 LFPW 101630 RRA
METAR LFCK 101630Z AUTO 12024KT 9999 NSC 11/06 Q1015=

0000009900
431
SAFR34 LFPW 101630 RRA
METAR LFMT 101637Z 07005KT 9999 BKN028 12/08 Q1018 NOSIG=

0000088000
432
FTMX63 MMMX 101642
TAF MMCN 101642Z 1018/1118 26015KT P6SM SCT120 SCT250 
         BECMG 1102/1103 00000KT 
         FM111500 28010KT P6SM SCT230=
TAF MMDO 101642Z 1018/1118 20015G25KT P6SM SCT040 BKN230 
         TEMPO 1021/1101 BKN040 
         FM110400 00000KT P6SM SCT080 BKN230 
         FM111500 23010KT P6SM BKN230=
TAF MMGM 101642Z 1018/1118 20012KT P6SM SKC 
         BECMG 1101/1102 00000KT 
         FM111500 25010KT P6SM SKC=
TAF MMLM 101642Z 1018/1118 24010KT P6SM SCT080 BKN250 
         BECMG 1102/1103 00000KT 
         FM111500 32010KT P6SM SKC=
TAF MMLT 101642Z 1018/1118 10015KT P6SM SCT060 BKN140 BKN230 
         BECMG 1101/1102 00000KT 
         FM111500 12010KT P6SM BKN230=
TAF MMSD 101642Z 1018/1118 14015KT P6SM SCT090 BKN250 
         BECMG 1102/1103 00000KT 
         FM111600 16015KT P6SM BKN230=

0000010700
433
SANT31 KWBC 101600 RRD
METAR
GVAC 101630Z NIL=
LPBJ 101630Z NIL=
LPLA 101630Z NIL=

0000013500
434
SAPA31 KWBC 101600 RRF
METAR
PKWA 101640Z AUTO 06018G22KT 10SM SCT028 SCT043 27/21 A2978 RMK
     AO2 T02710207=

0000097500
435
FTMX53 MMMX 101642
TAF MMCL 101642Z 1018/1118 24010KT P6SM BKN250 
         FM110300 03006KT P6SM SCT250 
         FM111700 28008KT P6SM SKC=
TAF MMHO 101642Z 1018/1118 33010KT P6SM SKC 
         FM110300 04006KT P6SM SKC 
         FM111700 30010KT P6SM SKC=
TAF MMLP 101642Z 1018/1118 34012KT P6SM SCT040 BKN220 
         FM110300 30008KT P6SM SCT240 
         FM111700 33010KT P6SM SKC=
TAF MMML 101642Z 1018/1118 34012KT P6SM SCT200 
         FM110300 04008KT P6SM SCT200 
         FM111700 06010KT P6SM SKC=
TAF MMMZ 101642Z 1018/1124 25010KT P6SM SKC TX28/1020Z TN14/1111Z 
         FM110300 04006KT P6SM SKC 
         BECMG 1109/1110 4SM BR HZ 
         FM111500 20006KT 6SM HZ SKC 
         FM111900 28010KT P6SM SKC=
TAF MMTJ 101642Z 1018/1124 33008KT P6SM SCT250 TX18/1020Z TN07/1113Z 
         FM110300 06005KT 6SM HZ SCT250 
         TEMPO 1111/1115 4SM BR HZ SCT005 
         FM111700 30010KT 6SM HZ SKC=

00000000