0000015500
729
SMVD10 EHDB 111200 RRD
BBXX
A8OK 11124 99105 70680 41298 40807 10261 20249 40152 53009 7////
82135 22200 20501 3//// 4//// 5//// 80252=
0000011000
730
SMIN90 VICH 111200
AAXX 11123
42071 31996 00000 10158 20109 40196 70500
  333 10176 58028=
0000012800
731
FCIN90 VOMM 111200 CCA
TAF VOMM 111200Z 1115/1124 09005KT 4000 HZ SCT020 BECMG 1121/1122
  00000KT 2000 BR=

0000013100
732
UXIN90 VEMN 111200
PPAA 6112/
42314 NO ALT PBA ASCENT DUE ACUTE SHORTAGE OF CHEMICALS AND 30/32 GRAM BALLOONS AAA
0000011600
733
SPBY31 UMMN 111200
SPECI UMMG 111210Z 26009G12MPS 9999 BKN011 BKN066 05/02
Q1009 R35/290060 NOSIG=
0000057000
734
SAUZ31 UTTW 111200
METAR UTFN 111200Z NIL=
METAR UTNN 111200Z 09001MPS CAVOK 04/M01 Q1020 R33/CLRD60 NOSIG=
METAR UTNU 111200Z 08002MPS AVOK 06/M02 Q1019 R31/CLRD60 NOSIG=
METAR UTSA 111200Z NIL=
METAR UTSB 111200Z 17005MPS CAVOK 10/M06 Q1020 R01/CLRD70 NOSIG=
METAR UTSK 111200Z NIL=
METAR UTSS 111200Z 09001MPS 9999 NSC 06/M09 Q1021 R88/CLRD70 NOSIG=
METAR UTST 111200Z 14002MPS CAVOK 10/M07 Q1023 R88/CLRD70 NOSIG=
METAR UTFA 111200Z NIL=
METAR UTFF 111200Z NIL=
METAR UTTT 111200Z VRB01MPS 7000 NSC 07/M04 Q1022 R08R/CLRD70 NOSIG=
0000023700
735
SNVD15 KWNB 111000 RRR
BBXX
42044 11101 99262 70971 46/// /2303 1//// 40138 91030 22200 00139
333 91204 555 11032 22035=
42044 11101 99262 70971 46/// /2403 1//// 40138 91000 22200 00139
333 91204 555 11034 22037=
0000011000
736
UANT99 KDDL 111214
ARP JAI228 5203N01600W 1214 F350 MS64 234/66 KT
VTJWS QXT AOE 111214 J63A
0000015800
737
SMVD15 KWNB 111200 RRJ
BBXX
41056 11121 99183 70655 46/// /0607 10249 40186 53023 91200 22200
00265 10903 70013 333 91209 555 11080 22087=
0000009700
738
SAUZ31 UTTW 111200 RRA
METAR UTSK 111200Z 00000MPS CAVOK 09/M05 Q1021 R16/CLRD70=
0000018200
739
FCUZ31 UTTW 111200
TAF UTFA 111200Z NIL=
TAF UTSK 111150Z 1113/1122 VRB02MPS 6000 NSC TEMPO 1113/1122
17007G12MPS 2000 BR SCT033CB BKN100=
TAF UTFF 111200Z NIL=
0000011900
740
SPUR30 UKMS 111208
SPECI UKDD 111208Z 28010G16MPS 9999 BKN030 06/01 Q1011
26210370 TEMPO 29013G18MPS=
0000027500
741
SXHW11 KWAL 111217
15D142A4 011121702 :PRS 1 #1 1747 1758 1752 1764 1752 1760 1757 1749 1748 1765 :RAD 1 #1 7344 7345 7344 7350 7347 7345 7341 7340 7343 7344 :ENC 2 #5 5248 5246 5245 5247 :SW1 17 #60 0 :SW2 47 #60 0 :BAT 4 #5 13.0 :NAME 15D142A4  34+0NN 216W
0000011000
742
UANT99 KDDL 111214
ARP TOM024 4717N02850W 1214 F400 MS45 342/56 KT
GTUIC QXT AOE 111214 L07A
0000011000
743
UANT99 KDDL 111215
ARP VJT772 4806N02508W 1215 F380 MS50 032/56 KT
9HVJD QXT EUA 111215 M49A
0000010900
744
UANT99 KDDL 111215
ARP SWR39 5511N01554W 1215 F350 MS64 240/71 KT
HBJMO QXT AOE 111215 J82A
0000054900
745
SMMA01 FIMP 111200
AAXX 11124
61974 12475 60204 10306 20235 40099 60001 83846
  333 58012 83818 86275 94321=
61986 12475 40705 10311 20258 40120 60001 82802
  333 58008 82819 94321=
61988 11468 61116 10266 20243 40141 69991 71582 86802
  333 0//12 58014 85817 91136=
61989 11462 51018 10276 20242 40148 60041 72582 85802
  333 0//11 58014 85816=
61990 12475 70913 10287 20245 40144 60001 84802
  333 58012 84818 84075 94322=
61995 12475 50909 10270 20213 39661 60001 84842
  333 58008 83818 83075 91121 94322=
0000010900
746
UANT99 KDDL 111215
ARP BAW6B 5637N02509W 1215 F370 MS62 215/50 KT
GCIVS QXT AOW 111216 F69A
0000011000
747
UANT99 KDDL 111216
ARP BAW268 5605N03242W 1216 F390 MS56 215/41 KT
GXLEB QXT AME 111216 J43A
0000016000
748
SSVX02 CWAO 111200
ZZYY 56513 11014 1200/ 344518 114458 6112/ 11119 
40122 52006 22219 00116 444 20130 11014 1200/ 50101 80150 80026 
9/015=
00000000