0000019100
936
SALV32 EVRA 101620
METAR EVLA 101620Z AUTO 30013G23KT 270V330 9999 BKN013 OVC018 04/02 
Q0993=
METAR EVVA 101620Z AUTO 33016KT 8000 BKN014 BKN019 OVC026 04/03 
Q0991=

0000026200
937
FTCN35 CWAO 101600 AAA
TAF AMD CYKF 101622Z 1016/1102 17008KT 1/2SM FZFG VV002 TEMPO
     1016/1019 2SM -FZDZ BR OVC004
    FM101900 18010KT 2SM BR OVC003 TEMPO 1019/1102 5SM BR OVC006
    RMK FCST BASED ON AUTO OBS. NXT FCST BY 102000Z=

0000023900
938
FTCN35 CWAO 101600 AAA
TAF AMD CYKZ 101622Z 1016/1024 VRB03KT 1SM BR OVC002 TEMPO 1016/1019
     3SM -FZDZ BR OVC005
    FM101900 15006KT 2SM BR OVC003 TEMPO 1019/1024 4SM -DZ BR OVC007
    RMK NXT FCST BY 101800Z=

0000016400
939
FTCN35 CWAO 101600 AAA
TAF AMD CYSN 101622Z 1016/1102 18010KT 4SM BR OVC015 TEMPO 1016/1102
     P6SM NSW OVC030
    RMK NXT FCST BY 102000Z=

0000011100
940
SPCN31 CWAO 101619
SPECI CYWG 101619Z 17014KT 6SM BR OVC070 M08/M09 A2945 RMK AC8
 SLP988=

0000012800
941
SAMO31 ZMUB 101630
METAR ZMUB 101630Z VRB01MPS 5000NW FU SCT100 M29/M32 Q1023 NOSIG RMK

 QFE659.5 73 NT=

0000010000
942
SPCN45 CWAO 101620
SPECI CYCO 101620Z 27014KT 10SM DRSN SCT050 BKN100 RMK SC2AC1=

0000166800
943
SPUS70 KWBC 101622
SPECI
PAJZ 101622Z AUTO 30003KT 2 1/2SM BR OVC004 M06/M07 A2952 RMK AO2
     PWINO TSNO $=
KDVN 101618Z AUTO 14013KT 3SM BR OVC004 00/M01 A2987 RMK AO2 $=
KEVW 101618Z AUTO 24021KT 6SM -SN BR SCT020 SCT029 OVC039 M03/M05
     A2992 RMK AO2 PK WND 24026/1617 P0000 T10331050=
KFRG 101618Z 00000KT 4SM -FZRA BR SCT025 BKN031 OVC042 00/M01
     A3046 RMK AO2 P0000=
KHKS 101618Z 12008KT 3SM BR OVC003 09/08 A3012 RMK AO2=
KHQM 101618Z AUTO 21010KT 5SM HZ BKN029 OVC035 A3010 RMK AO2 TSNO
     $=
KMIW 101618Z AUTO 14012KT 2SM BR OVC004 M01/M01 A2976 RMK AO2
     I1001 T10111011 TSNO=
KMRB 101618Z 00000KT 3SM HZ OVC005 02/M01 A3038 RMK AO2
     T00221006=
KNEW 101618Z 10008KT 3/4SM BR VV002 12/11 A3013 RMK AO2
     T01170111=
KRKP 101618Z AUTO 16003KT 3SM -RA FEW006 BKN016 OVC024 26/18 A2995
     RMK AO2 P0000=
KADF 101618Z AUTO 16005KT 1 1/2SM BR OVC003 11/11 A2996 RMK
     AO2=
KBPI 101619Z AUTO 11007KT 10SM OVC012 M08/M11 A2984 RMK AO2 SNE03
     P0000 T10781106=
KBPK 101619Z AUTO 13007KT 1 3/4SM BR OVC003 07/06 A2988 RMK AO2
     LTG DSNT SW=
KHOT 101619Z AUTO VRB03KT 1/4SM FG VV002 11/10 A2995 RMK AO2=
KHRO 101619Z AUTO 18010G18KT 3SM -RA BR SCT005 BKN048 OVC070 09/09
     A2984 RMK AO2 LTG DSNT NW-E P0002=
KHWO 101619Z 12015G21KT 10SM FEW022 BKN028 BKN037 26/22 A3015 RMK
     AO2=
KLNR 101619Z AUTO 13007KT 3SM BR OVC006 M02/M03 A2989 RMK AO2
     T10171028=
KSLK 101619Z AUTO 23007KT 3/4SM -SN BR SCT025 OVC035 M04/M06 A3023
     RMK AO2 P0001=
KSUX 101619Z 15008KT 2SM BR BKN003 OVC008 M01/M01 A2968 RMK AO2
     CIG 003V006 I1000 T10061011=

0000010000
944
SPUS31 KWBC 101622
SPECI
KLIT 101618Z 12007KT 5SM BR BKN008 OVC012 08/06 A2998=

0000009400
945
SPUS42 KWBC 101622
SPECI
KNEW 101618Z 10008KT 3/4SM BR VV002 12/11 A3013=

0000009900
946
SPUS44 KWBC 101622
SPECI
KHQM 101618Z AUTO 21010KT 5SM HZ BKN029 OVC035 A3010=

0000016700
947
FTID31 EGGY 101500 RRA
TAF WIDD 101700Z 1018/1118 00000KT 8000 SCT015
         TEMPO 1018/1022 5000 -RA BKN015
         BECMG 1100/1102 36008KT=

0000026000
948
FTAP32 FAPR 101500 RRB
TAF FQMA 101600Z 1018/1124 22012KT 9999 BKN020
    FEW025CB TEMPO 1018/1022 4000 -TSRA SCT010
    BKN020 FEW025CB BECMG 1110/1112 16010KT
    9999 BKN020 BECMG 1118/1120 22012KT BKN025
    TN23/1102ZTX28/1112Z=

0000071400
949
SASN31 ESWI 101620
METAR ESGG 101620Z 18004KT 9999 BKN016 01/M00 Q1000 R21/29//95=
METAR ESGJ 101620Z 28004KT 9999 FEW004 BKN018 M01/M01 Q1000
R01/19//70=
METAR ESGP 101620Z 16001KT 9999 BKN021 01/00 Q1001 R19/19//95=
METAR ESGT 101620Z NIL=
METAR ESMK 101620Z 28008KT 9999 BKN028 06/04 Q1002=
METAR ESMQ 101620Z 27009KT 9999 FEW028 02/M00 Q1001=
METAR ESMS 101620Z 27012KT 9000 -SHRA BKN011CB 06/05 Q1004
R17/29//95=
METAR ESMT 101620Z 24004KT 9999 BKN029 03/01 Q1002=
METAR ESMX 101620Z 28006KT 260V320 9999 FEW005 BKN012 01/M00 Q1000=
METAR ESTA 101620Z 25010KT 9999 FEW023 OVC030 06/04 Q1002=
METAR ESTL 101620Z AUTO 27011KT 9999NDV FEW011/// OVC030/// 06/06
Q1003=

0000065200
950
SADL31 EDZO 101620
METAR EDDF 101620Z 20006G16KT 9999 FEW039 SCT230 07/02 Q1019
     NOSIG=
METAR EDDH 101620Z 25010KT 9999 FEW017 SCT023 BKN040 07/04 Q1011
TEMPO 26015G25KT=
METAR EDDK 101620Z 22005KT 9999 FEW033 06/02 Q1017 NOSIG=
METAR EDDL 101620Z 21008KT 9999 FEW030 05/01 Q1017 NOSIG=
METAR EDDM 101620Z 28004KT 9999 FEW042 03/M00 Q1020 NOSIG=
METAR EDDN 101620Z 26003KT 9999 BKN044 06/02 Q1018 NOSIG=
METAR EDDS 101620Z 24003KT 9999 SCT043 05/01 Q1019 NOSIG=
METAR EDDT 101620Z 26014KT 9999 FEW038 BKN048 06/01 Q1013 TEMPO
     26015G25KT=
METAR EDDV 101620Z 24008KT 9999 FEW026 SCT035 06/03 Q1014 NOSIG=

0000049500
951
SADL32 EDZO 101620
METAR EDDB 101620Z 25017KT 9999 BKN046 06/01 Q1013 TEMPO
     25015G25KT=
METAR EDDC 101620Z 25007KT 9999 BKN045 05/M01 Q1015 NOSIG=
METAR EDDE 101620Z 23006KT 9999 FEW030 SCT056 02/00 Q1016 NOSIG=
METAR EDDG 101620Z 22006KT 9999 FEW025 SCT250 06/03 Q1015 NOSIG=
METAR EDDP 101620Z 24012KT 9999 FEW040 04/01 Q1016 NOSIG=
METAR EDDR 101620Z 23005KT 9999 FEW025 05/01 Q1019 NOSIG=
METAR EDDW 101620Z 24011KT 9999 FEW018 BKN023 07/04 Q1013 NOSIG=

0000022300
952
FTCN33 CWAO 101600 AAA
TAF AMD CYZF 101622Z 1016/1112 07005KT P6SM -SN OVC030 TEMPO
     1016/1024 2SM -SN OVC008
    FM110000 32007KT P6SM SCT030 TEMPO 1100/1112 BKN030
    RMK NXT FCST BY 101800Z=

0000056600
953
SADN31 EKCH 101620
METAR EKCH 101620Z 26011KT 9999 SCT013 BKN017TCU 06/05 Q1004
NOSIG=
METAR EKBI 101620Z 26013KT 230V290 9999 BKN014 BKN026 06/04
Q1006=
METAR EKYT 101620Z 24011KT 9999 FEW020 SCT052 06/04 Q1002=
METAR EKRK 101620Z AUTO 27016KT 9999NDV -SHRA  FEW012/// SCT016///
BKN020/// OVC026/// 06/05 Q1004=
METAR EKAH 101620Z AUTO 27007KT 9999NDV -SHRA  BKN010/// 06/04
Q1004=
METAR EKEB 101620Z AUTO 24015KT 9999NDV OVC038/// 07/05 Q1007=
METAR EKRN 101620Z AUTO 29017KT 9999NDV -SHRA  FEW007/// BKN009///
06/06 Q1004=

0000016500
954
SADN32 EKCH 101620
METAR EKVJ 101623Z NIL=
METAR EKSB 101623Z NIL=
METAR EKSN 101623Z NIL=
METAR EKVD 101623Z NIL=
METAR EKOD 101623Z NIL=

0000047900
955
SADN34 EKCH 101620
METAR EKHN 101620Z AUTO 26023KT 8000NDV OVC033/// ///// Q1009=
METAR EKHR 101620Z AUTO 28016KT 9999NDV SCT035/// BKN040///
08/05 Q1007=
METAR EKHA 101620Z AUTO 25023KT 9999NDV 07/05 Q1009=
METAR EKHD 101620Z AUTO 25021KT 9999NDV 07/05 Q1005=
METAR EKTE 101620Z AUTO 25016G26KT 9999NDV FEW026 SCT013 07/05 Q1008=
METAR EKGC 101620Z AUTO 25027KT 9999NDV 07/05 Q1008=
METAR EKAV 101620Z AUTO 26015KT 9999NDV BKN024/// 06/04 Q1003=

00000000