0000046300
756
UPTH01 VTBB 111200
PPAA 6112/ 48327 NIL=
PPAA  61121 48354 55385 08507 26509 23026 77999=
PPAA 6112/ 48378 NIL=
PPAA 6112/ 48407 NIL=
PPAA 6112/ 48431 NIL=
PPAA  61121 48453 55385 05011 22001 23007 55340 30006 10006 17505
 77999=
PPAA  61121 48477 55285 00514 05504 77999=
PPAA 6112/ 48480 NIL=
PPAA  61121 48500 55385 04008 05012 06015 77999=
PPAA 6112/ 48551 NIL=
PPAA  61121 48565 55185 08522 77999=
PPAA 6112/ 48568 NIL=
0000107500
757
SMCN29 CWAO 111200
AAXX 11124
71900 45/// /2705 11145 21204 30108 40121 53016 6///1
333 11096 21145 7////=
71903 NIL=
71904 NIL=
71914 17/// /3205 10070 20060 39700 49916 55001 60181 7//44
333 10076 20056 70281=
71916 NIL=
71918 45/// ///// 11326 39571 40011 58001 6///1
333 11317 21355 7////=
71920 17/// /1710 10034 20029 30242 40248 57020 69921 7//4/
333 10031 20019 4/001 70004=
71921 16466 8//// 11093 21114 39454 40103 58003 60001
333 11093 21102 70000=
71923 NIL=
71927 17/// /2105 10081 20068 39865 49921 55004 60041 7//4/
333 10105 20058 4/997 70076=
71932 17/// /1710 10041 20040 39620 40010 58035 60061 7//4/
333 10026 20002 4/020 70057=
71933 17/// /0603 11028 21034 39008 49816 56044 60051 7//4/
333 11026 21050 4/042 70049=
71941 17266 81414 10001 21005 39568 49981 60011 764//
333 11039 21046 70010
555 31620 4010/=
71944 17/// /3602 11047 21052 39022 49841 56065 60041 7//4/
333 11029 21053 4/086 70037=
71947 17436 81310 11032 21039 39646 49991 58068 60011 7714/
333 11034 21043 70010=

0000076800
758
SAVN20 SVMR 101600
METAR SVCR 101600Z /////KT 9999 FEW016 31/23 Q1013=
METAR SVMC 101600Z /////KT 9999 FEW016 SCT070 32/24 Q1014=
METAR SVBM 101600Z 09010KT 9999 FEW016 28/20 Q1017=
METAR SVBS 101600Z 18007KT 9999 FEW013 29/14 Q1018=
METAR SVMI 101600Z 02003KT 9999 FEW016 30/21 Q1016 NOSIG=
METAR SVFM 101600Z NIL=
METAR SVBC 101600Z 36010KT 9999 FEW010 31/19 Q1015=
METAR SVCU 101600Z 07013KT 9999 FEW013 31/16 Q1014=
METAR SVMG 101600Z /////KT 9999 SCT010 30/21 Q1014 NOSIG=
METAR SVAC 101600Z 02006KT CAVOK 30/20 Q1016=
METAR SVMT 101600Z 07007KT 9999 BKN013 30/17 Q1012=
METAR SVBI 101600Z 09009KT 9999 FEW023 33/19 Q1014=
METAR SVCB 101600Z NIL=
METAR SVVA 101600Z 11006KT CAVOK 29/19 Q1016=
METAR SVSO 101600Z NIL=

0000025300
759
FTSA31 TTPP 101600
TAF SYCJ 101600Z NIL=
TAF SMJP 101600Z 1018/1118 08008KT 9999 SCT035 TX31/1018Z
TN23/1110Z TEMPO 1019/1022 4000 SHRA FEW020CB BECMG 1108/1111 3000
BR FEW003 FM11200 08010KT 9999 SCT015=
TAF SOCA 101600Z NIL=

0000009300
760
SAFR33 LFPW 101600 RRA
METAR LFLC 101615Z 02003KT CAVOK 09/05 Q1016 NOSIG=

0000022100
761
SAAF11 LFPW 101600 RRB
METAR FKKD 101600Z VRB03KT 8000 FEW023CB BKN300 31/25 Q1008 NOSIG=
METAR FKKN 101600Z 02008KT 360V090 CAVOK 26/06 Q1015=
METAR FKKR 101600Z 16004KT 8000 NSC 31/00 Q1011 NOSIG=

0000012500
762
SAAF14 LFPW 101600 RRB
METAR FEFF 101600Z 15004KT 7000  NSC 30/17 Q1008 BECMG TL1630 4000
           FU=

0000083900
763
FTCA31 TTPP 101600
TAF
TTPP 101600Z 1018/1118 11012KT 9999 SCT016 
      TEMPO 1018/1101 VRB12G25KT 5000 SHRA BKN015 SCT038
      BECMG 1023/1101 09007KT FEW016 
      PROB40 TEMPO 1105/1112 8000 SHRA SCT016 SCT038
      BECMG 1110/1112 09010KT SCT016=
TAF
TTCP 101600Z 1018/1118 11012KT 9999 SCT016 
      TEMPO 1018/1101 VRB12G25KT 7000 SHRA SCT016 SCT038
      BECMG 1023/1101 09007KT FEW016 
      PROB40 TEMPO 1105/1112 8000 SHRA SCT016 SCT038
      BECMG 1110/1112 09010KT SCT016=
TAF
TGPY 101600Z 1018/1118 NIL=
TAF
TBPB 101600Z 1018/1118 NIL=
TAF
TLPL 101600Z 1018/1118 NIL=
TAF 
TNCC 101600Z 1018/1118 09014KT 9999 SCT020 
      PROB40 TEMPO 1106/1118 7000 SHRA BKN015=
TAF 
TNCA 101600Z 1018/1118 08018KT 9999 SCT020 
      PROB40 TEMPO 1106/1118 7000 SHRA BKN015=

0000010900
764
SAAE33 VTBB 101600 RRA
METAR VVPB 101600Z 27005KT 5000 BR SCT020 BKN050 20/19 Q1021 NOSIG=

0000142900
765
SPUS70 KWBC 101616
SPECI
KADG 101612Z AUTO 20008KT 1 1/2SM BR OVC004 01/01 A3014 RMK AO2
     TSNO=
KBGM 101612Z 19005KT 2SM BR FEW007 SCT015 OVC047 M02/M03 A3029 RMK
     AO2 SFC VIS 3 SNE12 P0000=
KGED 101612Z AUTO 02006KT 1 1/2SM -RA BR OVC003 03/01 A3045 RMK
     AO2 P0001 T00280011=
KHBG 101612Z AUTO 13004KT 1/2SM FG VV002 11/10 A3017 RMK AO2
     T01060100=
KOXB 101612Z AUTO 01007KT 1 3/4SM -RA BR OVC041 04/03 A3042 RMK
     AO2 P0001 T00440033 TSNO=
KSFB 101612Z 17005KT 10SM SCT008 24/21 A3018 RMK AO2=
PAMK 101612Z AUTO 09009KT 10SM OVC029 M10/M13 A2956 RMK AO2 TSNO
     $=
PAOH 101612Z AUTO 00000KT 10SM FEW015 01/01 A2950 RMK AO2 TSNO
     SNE02 P0000 $=
KAGC 101613Z 20010KT 10SM OVC009 04/03 A3026 RMK AO2=
KAXN 101613Z AUTO 16012KT 3/4SM BR OVC002 M04/M04 A2960 RMK
     AO2=
KBED 101613Z 23003KT 7SM SCT010 BKN046 OVC060 M02/M04 A3045 RMK
     AO2=
KDXR 101613Z 00000KT 3/4SM -SN VV012 M02/M04 A3044 RMK AO2
     P0001=
KFAY 101613Z AUTO 07003KT 2 1/2SM RA BR SCT080 OVC095 08/07 A3032
     RMK AO2 P0003=
KHRO 101613Z AUTO 17014G22KT 2 1/2SM +RA BR BKN005 BKN046 OVC065
     09/09 A2984 RMK AO2 VIS 1 3/4V5 LTG DSNT E AND W AND NW
     P0002=
KLAF 101613Z 16007KT 6SM BR FEW005 SCT018 OVC036 02/01 A3006 RMK
     AO2 T00220011=
PAHC 101613Z AUTO 01010KT 2 1/2SM -SN FEW009 BKN017 OVC022 M14/M17
     A2956 RMK AO2 TSNO P0000 $=

0000039500
766
SALY31 HLMC 101600
METAR HLLT 101550Z 00000KT CAVOK 19/05 Q1022=
METAR HLGD 101600Z NIL=
METAR HLGT 101600Z NIL=
METAR HLJA 101600Z NIL=
METAR HLKF 101600Z NIL=
METAR HLKM 101600Z NIL=
METAR HLLB 101600Z NIL=
METAR HLLM 101600Z NIL=
METAR HLLS 101600Z NIL=
METAR HLMI 101600Z NIL=
METAR HLNT 101600Z NIL=
METAR HLON 101600Z NIL=
METAR HLTD 101600Z NIL=

0000014700
767
SACA33 KWBC 101600 RRB
METAR
TNCM 101600Z 07015KT 9999 SCT017TCU BKN035 26/19 Q1019 A3009 RERA
     TEMPO SHRA RMK JP TO SE=

0000016400
768
SASA31 KWBC 101600 RRB
METAR
SKBO 101600Z 04003KT 9999 FEW020 SCT090 18/03 A3029=
SKCL 101600Z 00000KT 8000 SCT005 BKN080 22/20 A3000 RMK HZ=

0000027500
769
FTBZ22 SBBR 101616
TAF SBGO 101600Z 1018/1118 06008KT 9999 SCT035
FEW040TCU TX32/1018Z T
N21/1108Z
PROB30
 1019/1023 35010KT TS SCT035 FEW040CB
BECMG 1102/1104
CAVOK
BECMG 1110/1112 05008KT SCT025
BECMG 1115/1117 SCT030 FEW035TCU
RMK PDC=

0000027500
770
FTBZ22 SBBR 101616
TAF SBBR 101600Z 1018/1118 06008KT 9999 SCT033
FEW040TCU TX31/1018Z T
N19/1108Z
PROB30
 1019/1023 35010KT TS SCT035 FEW040CB
BECMG 1102/1104
CAVOK
BECMG 1110/1112 07010KT SCT025
BECMG 1114/1116 SCT030 FEW040TCU
RMK PDC=

0000052700
771
SAAM31 FCBB 101600
METAR FCBB 101600Z 14004KT 8000 FEW020 FEW030CB 26/22 Q1011 TEMPO
           04015G25KT 4000 TSRA=
METAR FCPP 101600Z 18011KT 9999 SCT020 BKN026 28/24 Q1009 NOSIG=
METAR FKKD 101600Z VRB03KT 8000 FEW023CB BKN300 31/25 Q1008 NOSIG=
METAR FKYS NIL=
METAR FKKR 101600Z 16004KT 8000 NSC 31/00 Q1011 NOSIG=
METAR FKKL NIL=
METAR FKKN 101600Z 02008KT 360V090 CAVOK 26/06 Q1015=
METAR FEFF 101600Z 15004KT 7000  NSC 30/17 Q1008 BECMG TL1630 4000
           FU=
METAR FEFT NIL=

0000088000
772
FTMX31 KWBC 101615
TAF
TAF MMAA 101614Z 1018/1124 24010KT P6SM SKC TX29/1018Z TN24/1113Z
     FM110300 35006KT P6SM SKC
     FM111600 24010KT P6SM SKC=
TAF MMMX 101614Z 1018/1124 13010KT 6SM HZ SCT025 TX22/1021Z
      TN08/1112Z
     FM102200 17008G18KT P6SM BKN025
      TEMPO 1022/1101 6SM VC RA BKN025CB
     FM110300 35005KT P6SM SKC
      BECMG 1111/1112 4SM HZ
     FM111700 07006KT 6SM HZ SKC
     FM112000 13010KT P6SM SCT025=
TAF MMTM 101614Z 1018/1118 15012KT 5SM HZ BKN020
      BECMG 1019/1020 SCT020
     FM110300 18005KT 4SM HZ SCT010
      TEMPO 1110/1114 1SM BR BKN005
     FM111500 36008KT 5SM HZ SCT012 BKN120=
TAF MMVR 101614Z 1018/1118 13010KT P6SM SCT020 SCT070 TX26/1020Z
      TN18/1112Z
     FM110200 10005KT 5SM HZ SCT010
      TEMPO 1110/1114 1SM BR BKN006
     FM111500 35008KT 5SM HZ SCT012=

0000038000
773
FTMX42 KWBC 101615
TAF
TAF MMTO 101614Z 1018/1124 20008KT 6SM HZ SCT015 TX20/1020Z
      TN02/1112Z
     FM102100 22015KT P6SM BKN015
      TEMPO 1021/1101 4SM VC RA BKN015CB
     FM110300 20005KT 6SM HZ SKC
     FM111000 00000KT 3SM BR BKN010
      TEMPO 1110/1114 1SM BR
     FM111500 04005KT 5SM HZ SCT015
     FM112100 13010KT P6SM BKN015=

0000011200
774
SPUS31 KWBC 101615
SPECI
KPHL 101610Z 09005KT 2SM -RA BR SCT015 BKN045 OVC070 01/M02 A3045=

0000009500
775
SAAB31 LATI 101620
METAR LATI 101620Z 36006KT 9999 BKN050 13/08 Q1021 NOSIG=

00000000