0000011400
876
SAIN90 VEGY 111200
METAR VEGY 111200Z 11003KT 1100 BR  FEW010 BKN018 BKN080 16/15 Q1015 NOSIG =

0000026700
877
SAIN90 VANP 111200
METAR VIGR 111200Z 00000KT 1500 BR FEW250 17/10 Q1017=
METAR VAJB 111200Z 00000KT 1000 BR OVC010 16/14 Q1017=
METAR VAID 111200Z 05011KT 2000 HZ FEW020 16/11 Q1017=
METAR VAKJ 111200Z 02002KT 1000 BR SCT020 SCT100 17/15 Q1017=
0000022300
878
SASQ31 LZIB 101600
METAR LZIB 101600Z 26006KT 9999 FEW037 08/02 Q1019 NOSIG=
METAR LZKZ 101600Z 00000KT 9999 FEW005 BKN008 04/04 Q1015 NOSIG=
METAR LZTT 101600Z 24017KT 9999 SCT056 02/M03 Q1014 NOSIG=

0000019900
879
SASQ41 LZIB 101600
METAR LZPP 101600Z 27006KT CAVOK 06/00 Q1018=
METAR LZSL 101600Z 24008KT 9999 BKN050 06/M01 Q1017=
METAR LZZI 101600Z 28003KT 9999 BKN040 BKN060 05/00 Q1017=

0000008900
880
SABZ24 SBPP 101600
METAR SBPP 101600Z 03010KT 9999 BKN025 30/19 Q1015=

0000008900
881
SAHU31 LHBM 101600
METAR LHBP 101600Z 24008KT CAVOK 06/02 Q1019 NOSIG=

0000023500
882
SABU31 LBSM 101600
METAR LBSF 101600Z VRB01MPS 0200 R27/0250N FG VV002 00/00 Q1019 TEMPO
    0500 FG=
METAR LBWN 101600Z 26008MPS CAVOK 12/05 Q1013 NOSIG=
METAR LBBG 101600Z 27008MPS 8000 NSC 06/05 Q1015 NOSIG=

0000022000
883
SABU32 LBSM 101600
METAR LBPD 101600Z VRB01MPS 0050 R30/0250N R12/0275N FG
     VV000 02/02 Q1017 NOSIG=
METAR LBGO 101600Z 08003MPS 0100 R09/0200V0350N R27/0325N FG
     VV000 02/02 Q1016 NOSIG=

0000011600
884
SACN61 CYDN 101600
METAR CYDN 101600Z AUTO 33003KT 9SM BKN007 OVC011 M13/M14 A2942 RMK
 SLP989=

0000010300
885
SACN61 CYDQ 101600
METAR CYDQ 101600Z AUTO 07005KT 9SM CLR M16/M17 A2940 RMK SLP998=

0000013300
886
SACN62 CYEG 101600
METAR CYEG 101600Z 27003KT 250V360 15SM BKN041 BKN078 M07/M08 A2939
 RMK SC5AC2 VIRGA SLP996=

0000012300
887
SACN62 CYDB 101600
METAR CYDB 101600Z 00000KT 10SM -SN SCT001 OVC015 M19/M20 A2929 RMK
 ST4SC4 SLP991=

0000009500
888
SAPF20 NTAA 101600
METAR NTAA 101600Z VRB02KT 9999 FEW020 25/20 Q1012 NOSIG=

0000013800
889
SAGQ21 FGSL 101600
METAR FGBT 101600Z NIL=
METAR FGSL 101600Z 24005KT 210V280 8000 FEW013 SCT130 29/24 Q1009
NOSIG=

0000017300
890
SAVN24 SVMG 101600
METAR SVMG 101600Z /////KT 9999 SCT010 30/21 Q1014 NOSIG=
METAR SVCU 101600Z NIL=
METAR SVCP 101600Z NIL=
METAR SVGI 101600Z NIL=

0000010300
891
SACN61 CYFC 101600
METAR CYFC 101600Z AUTO 01004KT 9SM CLR M14/M18 A3042 RMK SLP303=

0000009900
892
SACN62 CYEK 101600
METAR CYEK 101600Z 33014KT 15SM SKC M32/M36 A2963 RMK SLP034=

0000011900
893
SACN61 CYHD 101600
METAR CYHD 101600Z AUTO 19011KT 2 1/2SM -SN M08/M08 A2957 RMK CLD
 MISG SLP044=

0000050100
894
SAHU41 LHBM 101600
METAR LHDC 101545Z 26014KT 6000 FEW083 05/03 Q1017=
METAR LHKE 101545Z 27002MPS CAVOK 07/02 Q1019 NOSIG RMK BLU=
METAR LHPA 101545Z 23002MPS CAVOK 06/03 Q1020 NOSIG RMK BLU=
METAR LHPP 101545Z 23005KT 9999 SCT043 05/04 Q1020=
METAR LHPR 101545Z 29011KT CAVOK 07/01 Q1020=
METAR LHSM 101545Z 10002KT 9999 BKN025 07/04 Q1020=
METAR LHSN 101545Z 28006MPS 9999 FEW020 07/01 Q1018 BECMG CAVOK RMK
     BLU=
METAR LHUD 101545Z 20005KT CAVOK 04/02 Q1020=

0000095100
895
SACH10 SCSC 101600
METAR SCFA 101600Z 21013KT 9999 FEW020 23/15 Q1012 NOSIG=
METAR SCAR 101600Z 21012KT CAVOK 24/17 Q1011=
METAR SCBA 101600Z 31026G36KT 290V350 9999 FEW040 BKN200 13/02 Q1014=
METAR SCCF 101600Z 26014KT CAVOK 21/06 Q1023=
METAR SCIE 101600Z 24012KT CAVOK 21/09 Q1016=
METAR SCAT 101600Z 27008KT 230V320 9999 BKN017 20/15 Q1015=
METAR SCDA 101600Z 21012KT CAVOK 25/15 Q1011=
METAR SCSE 101600Z 27010KT 9999 SCT013 BKN250 19/14 Q1014=
METAR SCJO 101600Z 18009KT 140V220 9999 BKN035 17/07 Q1021=
METAR SCTE 101600Z 14010KT 9999 BKN040 15/06 Q1022 NOSIG=
METAR SCNT 101600Z 28018KT 250V320 9999 SCT033 BKN090 12/04 Q1011=
METAR SCCI 101600Z 25023KT 9999 FEW030 SCT050 BKN110 10/02 Q1008 
NOSIG=
METAR SCEL 101600Z 16010KT 110V190 CAVOK 28/06 Q1013 NOSIG=
METAR SCIP 101600Z 10010KT 9999 SCT020 SCT030 24/19 Q1021 NOSIG=
METAR SCPQ 101600Z 18007G17KT 140V230 9999 FEW038 BKN048 15/06 Q1021=

00000000