0000036100
756
FTUS80 KWBC 101554 AAA
TAF AMD
KFAR 101550Z 1016/1112 16015KT 5SM BR OVC080
     FM101800 19010KT P6SM BKN050
     FM102100 21010KT P6SM SCT200
     FM110600 31008KT P6SM BKN050=
KMOT 101552Z 1016/1112 24016KT P6SM SCT012
      TEMPO 1017/1020 BKN012
     FM102000 26012KT P6SM BKN020
     FM110300 28013KT P6SM BKN070 BKN100=

0000011600
757
SPUS42 KWBC 101554
SPECI
KSAV 101550Z 15005KT 6SM BR SCT003 BKN006 BKN020 BKN130 18/17
A3025=

0000050800
758
SAFI32 EFHK 101550
METAR EFHA 101550Z AUTO 01012KT 9999 -SN BKN009 
BKN061 M04/M04 Q0991=
EFHF 101550Z 36009KT 320V040 9999 -DZRA BKN009 01/00 Q0986=
METAR EFKA 101550Z AUTO 02010KT 9000 -SG FEW012 
BKN014 OVC038 M06/M08 Q0996=
EFKK 101550Z 03012KT 9999 -SHSN FEW015 SCT019 BKN024 BKN030 M08/M10
Q0998=
METAR EFMA 101554Z NIL=
METAR EFPO 101550Z AUTO 01011KT 340V040 9999 OVC008/// M02/M03 Q0993 
R12/29//95=
EFSI 101550Z AUTO 36008KT 330V060 9999 OVC008 M06/M07 Q0995=

0000010500
759
SAOS32 LOWM 101550
METAR LOXZ 101550Z 02003KT 30KM FEW050SC 02/00 Q1018 NOSIG RMK SCT=

0000048300
760
SAOS31 LOWM 101550
METAR LOWW 101550Z 29015KT 9999 FEW040 08/01 Q1019 NOSIG=
METAR LOWL 101550Z 26009KT 9999 FEW032 BKN050 07/01 Q1020 NOSIG=
METAR LOWS 101550Z 15002KT 9999 FEW028 SCT036 06/03 Q1020 NOSIG=
METAR LOWI 101550Z 28002KT 9999 -DZ FEW007 SCT060 BKN080 04/03 Q1020
R08/19//74 NOSIG=
METAR LOWG 101550Z VRB02KT 9999 FEW060 05/04 Q1018 R17/29//95 NOSIG=
METAR LOWK 101550Z 12003KT 090V160 0700 R10/1100D R28/0800N FG VV002
03/03 Q1019 NOSIG=

0000044200
761
SABX31 EBBR 101550
METAR EBAW 101550Z 22010KT 190V250 9999 BKN009 06/04 Q1017 TEMPO
     BKN008=
METAR EBBR 101550Z 21008KT 9999 SCT013 05/03 Q1017 NOSIG=
METAR EBCI 101550Z 21010KT 9999 BKN010 05/03 Q1017 NOSIG=
METAR COR EBLG 101550Z 22011KT 9999 FEW018 06/03 Q1017 NOSIG=
METAR EBOS 101550Z 19008KT 9999 FEW012 SCT048 06/04 Q1016 TEMPO
     BKN010=
METAR ELLX 101550Z 23005KT 9999 BKN020 04/02 Q1018 NOSIG=

0000049600
762
SANO35 ENMI 101550
METAR ENMS 101550Z VRB09KT 9999 FEW060 M08/M16 Q1007 RMK WIND 412FT
           VRB09KT=
METAR ENRM 101550Z 07012KT 9999 SCT025 BKN075 M06/M14 Q1004=
METAR ENRS 101550Z NIL=
METAR ENSK 101550Z NIL=
METAR ENSO 101550Z 20004KT 9999 SCT013 SCT025 BKN032 05/05 Q0999=
METAR ENST 101550Z 05009KT 010V090 CAVOK M07/M15 Q1006 RMK WIND 300FT
           05012G22KT 360V090 RMK TURB WRNG - SEE IPPC=
METAR ENVD 101550Z 27008KT 9999 SCT015 M10/M12 Q1015=

0000017400
763
FTTU32 LTAA 101100 AAB
TAF AMD LTBU 101550Z 1015/1112 VRB02KT 0100 FG VV001 BECMG 1020/1024
 2500 BR NSC BECMG 1100/1104 0400 FG BECMG 1106/1110 4000 BR=

0000027800
764
SAEO32 EETN 101550
METAR EEKA 101550Z 35024KT 9000 -SHRA BKN009 OVC016CB 03/02 Q0987=
METAR EEKE 101550Z 35016G26KT 320V020 9999 -DZ OVC010 03/03 Q0987 
R17/290195=
METAR EETU 101550Z 27005KT 9999 -RA SCT009 OVC039 04/03 Q0981=
METAR EEPU 101550Z NIL=

0000055700
765
SANO37 ENMI 101550
METAR ENNO 101550Z NIL=
METAR ENOV 101550Z VRB04KT 9999 VCSH FEW010 SCT025 BKN048 01/M01
           Q0998 RMK WIND 2175FT 31010KT=
METAR ENSD 101550Z 31006KT 240V360 9999 FEW015 SCT028 BKN035 03/M00
           Q0997 RMK WIND 1138FT 30007KT 250V010=
METAR ENSG 101550Z 22005KT 6000 -SHSN FEW/// SCT010 BKN020 M00/M01
           Q0994 RMK WIND 4226FT 30029KT=
METAR ENSN 101550Z NIL=
METAR ENSR 101550Z NIL=
METAR ENSS 101550Z 30007KT 3000 -SHSN SCT025 M07/M08 Q1015 RMK WIND
           500FT 35009KT=

0000010700
766
SAIL41 BIBD 101600
METAR
BIBD 101600Z 08007G17KT 9999 -RASN SCT020 BKN035 05/// Q0991=

0000030600
767
SADL33 EDZO 101550
METAR EDFE 101550Z 20004KT 9999 FEW040 07/02 Q1018=
METAR EDFH 101550Z 25008KT 9999 FEW014 SCT250 04/02 Q1017=
METAR EDFM 101550Z 16003KT 9999 SCT037 08/03 Q1019=
METAR EDLV 101550Z 22007KT CAVOK 07/03 Q1016=
METAR EDVK 101550Z 23004KT 9999 BKN043 05/01 Q1016=

0000059600
768
SADL35 EDZO 101550
METAR EDAH 101550Z 26020KT CAVOK 06/03 Q1008=
METAR EDHI 101550Z 25013KT 9999 SCT020 BKN041 07/04 Q1012=
METAR EDJA 101550Z 20003KT 9999 FEW020 03/01 Q1019=
METAR EDMO 101550Z 22006KT 9999 SCT021 04/01 Q1019=
METAR EDOP 101550Z 25017KT 9999 BKN020 06/04 Q1011=
METAR EDTD 101550Z 18005KT 9999 SCT014 02/02 Q1019 LAST=
METAR EDTL 101550Z 12002KT 9999 FEW030 08/01 Q1019=
METAR EDTY 101550Z 26006KT 220V280 9999 FEW026 SCT047 06/00 Q1019=
METAR EDVE 101550Z 26011KT 9999 BKN032 06/02 Q1014=
METAR EDXW 101550Z 26014KT 9999 BKN043 07/04 Q1009=

0000072000
769
SADL34 EDZO 101550
METAR EDAC 101550Z 22008KT CAVOK 04/M00 Q1016=
METAR EDBC 101550Z 25011KT CAVOK 04/00 Q1014=
METAR EDGS 101550Z 23008KT 9999 BKN010 03/02 Q1016=
METAR EDHL 101550Z 26010KT 240V310 9999 SCT012 SCT022 BKN042 06/05
Q1011=
METAR EDLN 101550Z 22005KT 180V250 9999 FEW041 06/04 Q1017=
METAR EDLP 101550Z 24007KT 9999 FEW033 05/M00 Q1016=
METAR EDLW 101550Z 23010KT 9999 SCT034 06/01 Q1016=
METAR EDMA 101550Z 23004KT 9999 SCT040 04/01 Q1019=
METAR EDNY 101550Z 00000KT 9999 SCT058 BKN080 05/03 Q1020=
METAR EDQM 101550Z 24011KT 9999 FEW020 BKN036 03/M01 Q1017=
METAR EDRZ 101550Z 23006KT 9999 FEW029 06/02 Q1018=
METAR EDSB 101550Z VRB02KT 9999 SCT043 07/02 Q1019=

0000019300
770
SMUR10 UKMS 111200 RRA
AAXX 11121
33393 32660 62805 10053 21042 39787 40181 58002 86500 333
86642=
34504 32597 62809 10065 20010 39936 40114 52012 86500 333
86630 91119=
0000061300
771
SMER10 OMAE 111200
AAXX 11124
41184 32660 71003 10215 20104 40197 8152/ 333 59003 81640 87460=
41194 12860 82308 10225 20095 30194 40199 60001 88020 333 58003
      88458 84362=
41196 11660 82506 10222 20102 30160 40200 69902 76062 8352/ 333
      58002 83640 88560=
41198 32560 51306 10209 20098 40188 82530 333 59023 82620 83360=
41200 12960 82308 10217 20094 30151 40203 60001 8803/ 333 58011
      88360=
41216 11660 72905 10223 20121 30182 40186 69902 76062 8253/ 333
      58010 82645 86360=
41217 32960 62503 10227 20096 30152 40181 8303/ 333 58009 86314=
41218 NIL=
0000012000
772
SMAA01 RJTD 111200
AAXX 11124
89532 42/60 70403 11002 21016 39915 49942 54000
8257/ 333 10007 21030=
0000160700
773
SAFC21 OEJD 111200
METAR
OEAB 111200Z 18010KT 9999 FEW012 SCT015 15/14 Q1023 NOSIG=
OEAH 111200Z 21010KT 9999 FEW050 SCT100 18/13 Q1017 NOSIG=
OEAO 111200Z 36006KT CAVOK 17/M01 Q1022=
OEBA 111200Z 00000KT 9999 FEW030 16/14 Q1020 NOSIG=
OEBH NIL=
OEDF 111200Z 19013KT 8000 SCT030 OVC090  17/12 Q1017 NOSIG=
OEDM 111200Z 03012KT CAVOK 17/02 Q1018=
OEDR 111200Z 19013KT 9999 SCT040 17/13 Q1016 NOSIG=
OEGN 111200Z 23012KT 9999  SCT025 SCT100 29/21 Q1015 NOSIG=
OEGS 111200Z 33010KT 9999 SCT040 17/08 Q1018=
OEGT 111200Z 28004KT CAVOK 13/00 Q1021 NOSIG=
OEHL 111200Z 33018KT 9999 BKN040 11/02 Q1020 NOSIG=
OEJN 111200Z 31015KT CAVOK 26/03 Q1015 NOSIG=
OEKJ 111200Z 22006KT 9999 SCT030 FEW050 BKN070 16/10 Q1019=
OEKK 111200Z 32018KT 9999 FEW040 15/11 Q1018 NOSIG=
OEKM 111200Z 24015KT 9999 BKN025 15/12 Q1023 NOSIG=
OEMA 111200Z 03004KT CAVOK 19/M02 Q1021 NOSIG=
OEMK 111200Z 30004KT CAVOK 28/12 Q1015=
OENG 111200Z 06006KT 9999 SCT030 BKN090 25/06 Q1016 NOSIG=
OEPA 111200Z 27012KT 9999 FEW030 14/07 Q1017 NOSIG=
OERF NIL=
OERK 111200Z 32011KT CAVOK 17/10 Q1019 NOSIG=
OERR 111200Z 33015KT 9999 SCT020 SCT030 09/09 Q1019 NOSIG=
OERY NIL=
OESH 111200Z 23005KT 9999 SCT040 28/09 Q1014 NOSIG=
OESK 111200Z 32018KT 9999 OVC030 11/00 Q1021=
OETB 111200Z 34012KT 9999 FEW040 15/02 Q1021 NOSIG=
OETF 111200Z 04004KT 9999 FEW030 16/05 Q1020 NOSIG=
OETR 111200Z 33012KT 9999 SCT030 BKN100 07/04 Q1021=
OEWD 111200Z 18004KT CAVOK 24/12 Q1015 NOSIG=
OEWJ 111200Z 28012KT CAVOK 23/09 Q1020 NOSIG=
OEYN 111200Z 21008KT CAVOK 24/03 Q1016 NOSIG=
0000181500
774
SASD20 OEJD 111200
METAR OEAB 111200Z 18010KT 9999 FEW012 SCT015 15/14 Q1023 NOSIG=
METAR OEAH 111200Z 21010KT 9999 FEW050 SCT100 18/13 Q1017 NOSIG=
METAR OEAO 111200Z 36006KT CAVOK 17/M01 Q1022=
METAR OEBA 111200Z 00000KT 9999 FEW030 16/14 Q1020 NOSIG=
METAR OEBH 111200Z NIL=
METAR OEDF 111200Z 19013KT 8000 SCT030 OVC090  17/12 Q1017 NOSIG=
METAR OEDM 111200Z 03012KT CAVOK 17/02 Q1018=
METAR OEDR 111200Z 19013KT 9999 SCT040 17/13 Q1016 NOSIG=
METAR OEGN 111200Z 23012KT 9999  SCT025 SCT100 29/21 Q1015 NOSIG=
METAR OEGS 111200Z 33010KT 9999 SCT040 17/08 Q1018=
METAR OEGT 111200Z 28004KT CAVOK 13/00 Q1021 NOSIG=
METAR OEHL 111200Z 33018KT 9999 BKN040 11/02 Q1020 NOSIG=
METAR OEJN 111200Z 31015KT CAVOK 26/03 Q1015 NOSIG=
METAR OEKJ 111200Z 22006KT 9999 SCT030 FEW050 BKN070 16/10 Q1019=
METAR OEKK 111200Z 32018KT 9999 FEW040 15/11 Q1018 NOSIG=
METAR OEKM 111200Z 24015KT 9999 BKN025 15/12 Q1023 NOSIG=
METAR OEMA 111200Z 03004KT CAVOK 19/M02 Q1021 NOSIG=
METAR OEMK 111200Z 30004KT CAVOK 28/12 Q1015=
METAR OENG 111200Z 06006KT 9999 SCT030 BKN090 25/06 Q1016 NOSIG=
METAR OEPA 111200Z 27012KT 9999 FEW030 14/07 Q1017 NOSIG=
METAR OERF 111200Z NIL=
METAR OERK 111200Z 32011KT CAVOK 17/10 Q1019 NOSIG=
METAR OERR 111200Z 33015KT 9999 SCT020 SCT030 09/09 Q1019 NOSIG=
METAR OERY 111200Z NIL=
METAR OESH 111200Z 23005KT 9999 SCT040 28/09 Q1014 NOSIG=
METAR OESK 111200Z 32018KT 9999 OVC030 11/00 Q1021=
METAR OETB 111200Z 34012KT 9999 FEW040 15/02 Q1021 NOSIG=
METAR OETF 111200Z 04004KT 9999 FEW030 16/05 Q1020 NOSIG=
METAR OETR 111200Z 33012KT 9999 SCT030 BKN100 07/04 Q1021=
METAR OEWD 111200Z 18004KT CAVOK 24/12 Q1015 NOSIG=
METAR OEWJ 111200Z 28012KT CAVOK 23/09 Q1020 NOSIG=
METAR OEYN 111200Z 21008KT CAVOK 24/03 Q1016 NOSIG=
0000009200
775
SASD32 OEJD 111200
METAR OETF 111200Z 04004KT 9999 FEW030 16/05 Q1020 NOSIG=
00000000