0000010900
376
SAIR33 OIII 110200 RRA
METAR OICS 110147Z 00000KT 3000 BR SCT035 OVC070 M04/M05 Q1020
RESN=
0000116100
377
GHAI85 KWBC 110000
GRID 07001 10101
111 10200 28599 61401 71100 81048 09999
333 11512 23020
0119 000000 154155156156157157158158156154153154155155156156156156156
0219 000010 155156157157158159160159158155153154156156157157157157156
0319 000020 153154155155156157159160160159158158158159159158157158156
0419 000030 148151152151151149150155159160161161161160158157157156156
0519 000040 139144146146142139139145152157159159158156154153152152152
0619 000050 128132137137133129127131140146149149148145142143146147148
0719 000060 119121126128124117114117124129133135134132130131137140141
0819 000070 115118120121119116111113120124126124118114117124129133135
0919 000080 119118119120124125127127127126121112105097106119126130136
1019 000090 121122123125127129130130130132130123120120122129134138141
1119 000100 119121123125127128131133133138140142142142141142144146146
1219 000110 117120123124127130132134137143147147146143140141143145147
1319 000120 121123124127128129130132134135136133132131128128129132135
1419 000130 122122122122123123123124124124124124124124124124125125126
9901 000140 122
555 07001 10101
777
0000011000
378
UANT01 CWAO 110340
ARP BAW5CA 5055N04033W 0340 F340 MS55 312/34 KT
GVIIY QXT AOW 110340 F09A
0000011100
379
UANT01 CWAO 110340
ARP DAL402 4607N04458W 0340 F370 MS54 323/63 KT
N173DZ QXT AOW 110340 F61A
0000011000
380
UANT01 CWAO 110340
ARP DLH439 5504N04721W 0340 F350 MS62 299/64 KT
DAIKK QXT AME 110340 J61A
0000011100
381
UANT01 CWAO 110340
ARP UAL952 5515N05827W 0340 F350 MS65 285/94 KT
N642UA DDL YHO 110340 F16A
0000011100
382
UANT01 CWAO 110340
ARP DAL178 5805N04402W 0340 F390 MS59 255/38 KT
N860NW DDL XXW 110340 J50A
0000011000
383
UANT01 CWAO 110340
ARP DLH471 5447N04303W 0340 F380 MS57 281/24 KT
DAIHB QXT AOW 110340 J50A
0000010900
384
UANT01 CWAO 110341
ARP KLM48 5605N03429W 0341 F360 MS58 220/39 KT
PHBFK QXT AOW 110341 F52A
0000011000
385
UANT01 CWAO 110341
ARP SWR17P 4803N02936W 0341 F380 MS51 200/51 KT
HBJHJ QXT AOW 110341 J61A
0000011100
386
UANT01 CWAO 110341
ARP DAL116 4750N04049W 0341 F350 MS52 304/38 KT
N175DZ QXT AOW 110341 F33A
0000010000
387
UAUS31 KWBC 110342
ARP UAL438 3644N 10805W 0324 F350 TB LGT MTN WAVE RM A319 OV RSK=
0000024900
388
UAPA01 KWBC 110342
ARP UAL1059 3317N 13337W 0334 F300 MS44 243/036KT=
ARP ASA848 2714N 14713W 0334 F350 MS43 251/072KT=
ARP ASA877 44N 135W 0329 F350B370 MS54 230/027KT=
ARP ASA863 4318N 12641W 0337 F340 MS54 254/061KT TB SMTH=
0000008300
389
UANT01 KWBC 110342
ARP BAW34N 3359N 7218W 0335 F330 MS49 284/077KT=
0000010900
390
UANT01 CWAO 110342
ARP KLM24 5604N03435W 0342 F330 MS56 219/41 KT
PHBFI QXT AOW 110342 F33A
0000011000
391
UANT01 CWAO 110342
ARP DLH429 4759N02951W 0342 F370 MS49 208/47 KT
DAIKP QXT EUA 110342 J05A
0000011000
392
UANT01 CWAO 110342
ARP AFR333 4709N04442W 0342 F380 MS56 320/55 KT
FGSPU QXT AOW 110342 F11A
0000234500
393
SPUS70 KWBC 101640
SPECI
KOFP 101636Z AUTO 00000KT 1 1/4SM -RA BR OVC004 02/01 A3042 RMK
     AO2 RAE1556B32 P0000 T00170011=
KABY 101636Z 02003KT 2 1/2SM BR OVC004 11/11 A3021 RMK AO2 RAE25
     P0000=
KCEC 101636Z AUTO 15007KT 1 1/2SM BR OVC003 09/09 A3027 RMK AO2
     T00940089=
KCFV 101636Z AUTO 18016KT 3SM BR OVC002 08/08 A2968 RMK AO2 PK WND
     18026/1558 PRESFR T00780078=
KDCA 101636Z 00000KT 2SM -RA BR BKN005 OVC050 03/01 A3042 RMK AO2
     P0001=
KDDH 101636Z AUTO 00000KT 1 1/2SM -SN BKN018 OVC039 M01/M04 A3036
     RMK AO2 P0000=
KPBF 101636Z AUTO 11007KT 10SM SCT029 BKN100 09/07 A2998 RMK
     AO2=
KPHL 101636Z 08003KT 1 1/2SM BR FEW004 SCT015 OVC045 01/M01 A3043
     RMK AO2 RAB03E36FZRAE03 P0001 $=
KSSI 101636Z AUTO 12010KT 2 1/2SM -RA BR FEW006 BKN013 OVC024
     18/17 A3020 RMK AO2 RAB31 P0000 T01780172=
KWST 101636Z AUTO 35003KT 5SM BR SCT023 OVC032 M01/M02 A3045 RMK
     AO2 UPB21E31 P0000 T10061022=
PABA 101636Z AUTO 28021KT 1SM -SN BR M25/M27 A2986 RMK AO2 PK WND
     28028/1618 SNB1548 FZRANO $=
PAHC 101636Z AUTO 36009KT 1 1/2SM -SN SCT003 BKN011 OVC025 M14/M17
     A2956 RMK AO2 TSNO BKN V SCT P0000 $=
KADF 101636Z AUTO 15005KT 1SM BR OVC003 11/11 A2993 RMK AO2
     PRESFR=
KBIV 101637Z AUTO 14008KT 3SM BR OVC004 00/M01 A3003 RMK AO2
     T00001011=
KBJJ 101637Z AUTO 19008KT 1 1/2SM BR OVC002 02/01 A3021 RMK
     AO2=
KHQM 101637Z AUTO 20010KT 3SM BR SCT029 BKN039 OVC047 A3010 RMK
     AO2 TSNO $=
KHWV 101637Z AUTO 00000KT 4SM UP BR OVC025 01/M01 A3045 RMK AO2
     UPB31FZRAE31 P0002 I1000 T00061011 TSNO=
KIWI 101637Z AUTO 24006KT 4SM -SN FEW013 BKN028 OVC036 M03/M06
     A3042 RMK AO2 SNB1557 P0000 T10281056=
KRBG 101637Z AUTO 00000KT 3SM BR FEW006 BKN095 OVC120 07/06 A3022
     RMK AO2 RAB22E35 P0000 T00720061=
KROG 101637Z 24006KT 3SM +RA BR BKN005 BKN013 OVC044 10/09 A2982
     RMK AO2 TSE03 CIG 004V009 P0028=
KSHN 101637Z AUTO 22013KT 1 1/2SM -RA BR SCT008 BKN013 OVC025
     07/06 A3007 RMK AO2 P0000 T00720061 TSNO=
KTHV 101637Z AUTO 00000KT 1 3/4SM BR OVC006 01/M01 A3039 RMK AO2
     T00111006=
KTOI 101637Z AUTO 07003KT 1 1/4SM BR OVC003 11/09 A3019 RMK AO2
     T01060094=
KXNA 101637Z 19009KT 3SM RA BR SCT012 BKN021 OVC034 09/09 A2981
     RMK AO2 TSE1554 P0028=

0000011200
394
SPUS31 KWBC 101640
SPECI
KPHL 101636Z 08003KT 1 1/2SM BR FEW004 SCT015 OVC045 01/M01 A3043=

0000012200
395
SPUS42 KWBC 101640
SPECI
KSSI 101636Z AUTO 12010KT 2 1/2SM -RA BR FEW006 BKN013 OVC024
18/17 A3020=

00000000