0000012400
396
FCIN90 VIDP 111200
TAF VIDP 111200Z 1115/1124 00000KT 1500 FU/BR NSC
     BECMG 1116/1118 0800 FU/MIFG=

0000021200
397
SAIN31 VOMM 111210
METAR VOHS 111210Z VRB02KT 5000 HZ SCT020 27/11 Q1015 NOSIG=
METAR VOMM 111210Z 07006KT 6000 NSC 25/19 Q1012 NOSIG=
METAR VOTR 111210Z 10007KT 7000 FEW016 29/19 Q1012 NOSIG=
0000009100
398
SPCN44 CWAO 101640
SPECI CYMJ 101640Z 29002KT 2 1/2SM BR OVC004 RMK ST8=

0000018900
399
FTCN33 CWAO 101600 AAA
TAF AMD CYHY 101641Z 1016/1024 VRB03KT P6SM -SN OVC030 TEMPO
     1016/1024 2SM -SN
     BECMG 1019/1021 29010KT
    RMK NXT FCST BY 101800Z=

0000043900
400
FTSA31 TTPP 101600 RRA
TAF SYCJ 101601Z 1018/1118 08012KT 9999 BKN020
     BECMG 1023/1101 06006KT FEW015 SCT100 BKN300
     BECMG 1105/1107 00000KT 5000 BR
     TEMPO 1106/1112 0900 FG SCT001=
TAF SMJP 101600Z 1018/1118 08008KT 9999 SCT035 TX31/1018Z TN23/1110Z
     TEMPO 1019/1022 4000 SHRA FEW020CB
     BECMG 1108/1111 3000 BR FEW003
     FM11200 08010KT 9999 SCT015=
TAF SOCA 101600Z 1018/1118 NIL=

0000014900
401
FCMP31 LMMM 101700
TAF LMML 101700Z 1018/1103 23007KT CAVOK PROB30 TEMPO 1100/1103 9000
FEW012 =
TAF HLLT NIL=
TAF HLLB NIL=

0000008300
402
FTMP31 LMMM 101700
TAF LMML NIL=
TAF HLLT NIL=
TAF HLLB NIL=

0000010800
403
SPUS42 KWBC 101641
SPECI
KCRP 101637Z 18011KT 7SM -DZ SCT007 BKN025 OVC034 20/18 A2994=

0000010600
404
SPUS44 KWBC 101641
SPECI
KHQM 101637Z AUTO 20010KT 3SM BR SCT029 BKN039 OVC047 A3010=

0000021000
405
FTID32 WIBB 101630
TAF WIBB 101631Z 1018/1118 000000KT 7000 SCT016
TEMPO 1018/1100 5000 -TSRA FEW015CB BKN016
BECMG 1102/1104 34007KT 9000 SCT015 PROB30
TEMPO 1108/1112 5000 -RA BKN015=

0000019700
406
FTMX41 KWBC 101639
TAF
TAF MMAS 101637Z 1018/1118 22015G25KT P6SM SCT025
      TEMPO 1021/1101 BKN025
     FM110500 00000KT P6SM SCT010
     FM111500 25015KT P6SM SCT030=

0000038200
407
FTUS51 KWBC 101639 AAA
TAF AMD
KDAN 101638Z 1017/1112 04005KT 3SM -RA BR BKN005 OVC013
     FM101900 04003KT 4SM -RA BR OVC005
     FM110000 08003KT 1 1/2SM -RA BR OVC003 WS017/18042KT
     FM110600 17003KT 2SM -DZ BR OVC003 WS015/21040KT=
KLYH 101636Z 1017/1112 04004KT 1 1/2SM -RA BR OVC005
     FM110100 07005KT 1 1/2SM -DZ BR OVC003 WS017/21046KT=

0000061900
408
FTUS80 KWBC 101639 AAA
TAF AMD
KDAN 101638Z 1017/1112 04005KT 3SM -RA BR BKN005 OVC013
     FM101900 04003KT 4SM -RA BR OVC005
     FM110000 08003KT 1 1/2SM -RA BR OVC003 WS017/18042KT
     FM110600 17003KT 2SM -DZ BR OVC003 WS015/21040KT=
KLYH 101636Z 1017/1112 04004KT 1 1/2SM -RA BR OVC005
     FM110100 07005KT 1 1/2SM -DZ BR OVC003 WS017/21046KT=
KTTN 101638Z 1017/1112 VRB04KT 2SM BR VCSH BKN004 OVC035
      TEMPO 1017/1020 4SM BR SCT004 BKN025
     FM102000 17004KT 6SM BR OVC020
     FM110200 14005KT 4SM BR OVC015
     FM110600 15007KT 2SM -RA BR OVC010 WS020/19050KT=

0000012400
409
SPUS31 KWBC 101639
SPECI
KSTL 101635Z 17013G21KT 2SM R30R/5000VP6000FT -RA BKN009 OVC070
04/01 A2991=

0000009200
410
SPUS41 KWBC 101639
SPECI
KCEF 101634Z 14002KT 7SM OVC011 M02/M03 A3043=

0000010700
411
SPUS41 KWBC 101639
SPECI
KLWM 101635Z 21006KT 10SM SCT010 BKN022 OVC049 M02/M06 A3046=

0000009300
412
SPUS42 KWBC 101639
SPECI
KMOB 101635Z VRB03KT 3SM BR OVC006 12/12 A3014=

0000016600
413
SAAK31 KWBC 101600 RRC
METAR
PAVD 101636Z 10SM FEW005 BKN060 BKN080 M04/M05 A2937=
PAWG 101636Z 25003KT 10SM FEW020 SCT028 OVC035 02/M01 A2963=

0000011300
414
SAAK32 KWBC 101600 RRB
METAR
PADK 101636Z AUTO 21003KT 7SM BKN016 BKN021 OVC034 03/01 A2897=

0000053100
415
SAEE31 LOWM 101630
METAR UACK 101630Z 22007MPS 9999 DRSN OVC014CB M08/M11 Q1021
R20/450342 NOSIG RMK QFE742/0989=
METAR UACP 101630Z NIL=
METAR UAII 101630Z 11001MPS 1800 R28/P2000 BR BKN100 M06/M09
Q1029 R28/0///70 NOSIG RMK QFE734/0979=
METAR UADD 101630Z 20006MPS 9999 NSC M08/M13 Q1028
R13/0///65 NOSIG RMK QFE713/0951=
METAR UASK 101630Z 11003MPS 9999 SCT049 OVC130 M10/M15 Q1036
R12/820350 NOSIG RMK QFE751/1002=
METAR UASP 101630Z NIL=
METAR UAOO 101630Z NIL=
METAR UAKD 101630Z NIL=

00000000