0000032800
869
UGCN04 CWAO 111200
PPBB  61128 71909 90012 00000 32515 29017 90345 28515 28020
30525 90678 30523 31529 31516 909// 29515 91234 30512 33506
32508 91567 33512 31516 30515 92045 30518 31034 30538 929//
29542 93023 30037 28541 30035 93567 29034 28030 27034 94026
29030 27540 29025 94789 27538 28535 28035=

0000014200
870
SMVS02 VNNN 111200
AAXX 11121
48840 32498 80504 10186 20176 30191 40197 52016 888// 333 00020 10221 58003 70000 83894 88696=
0000014200
871
SMVS01 VNNN 111200
AAXX 11121
48845 32498 80201 10195 20185 30193 40200 52015 888// 333 00019 10208 58005 70000 82894 88697=
0000042900
872
UDEU02 EGRR 111221
AMDAR 1111
LVR EU2863   5407N 00938E 111139 F316 MS532 246/060 TB/ S031=
LVR EU2863   5334N 00844E 111146 F320 MS542 241/063 TB/ S031=
LVR EU2863   5300N 00752E 111153 F320 MS537 243/072 TB/ S031=
LVR EU2863   5227N 00703E 111200 F320 MS522 249/074 TB/ S031=
LVR EU2863   5153N 00614E 111207 F320 MS522 250/077 TB/ S031=
LVR EU2863   5118N 00527E 111214 F320 MS532 253/076 TB/ S031=
0000045700
873
SMVS01 VNNN 111200
AAXX 11121
48920 12998 60204 10262 20250 30126 40129 52018 60084 80008 222// 00281 2//02 333 10285 58002 70079 86299=
48877 32598 83605 10251 20188 30153 40158 52016 888// 333 00026 10269 58002 70000 82895 88697=
48870 01598 73201 10230 20199 30166 40173 52016 69934 72586 872// 333 01026 10265 58007 69932 70006 87895=
48887 32598 80702 10256 20213 30127 40133 52022 888// 333 00026 10286 58006 70000 82895 88697=
0000025500
874
SAWD01 OEJD 111200 RRA
METAR UUEE 111200Z 27006MPS 9999 -RASN OVC010 01/00 Q0987 75290151
25290151 NOSIG=
METAR VHHH 111200Z 12010KT CAVOK 18/12 Q1022 NOSIG=
METAR WMKK 111200Z 33003KT 9999 FEW017CB SCT140 BKN280 29/24 Q1009
NOSIG=
0000013600
875
SMVS02 VNNN 111200
AAXX 11121
48892 32598 60705 10273 20227 30133 40138 53020 869// 333 10307 58006 70000 82995 84697=
0000046900
876
SMVS01 VNNN 111200
AAXX 11121
48917 32598 70501 10270 20225 30120 40126 52010 83208 222// 00286 2//00 333 00028 10300 59001 7000
0 83895 87299=
48918 32498 60705 10250 20204 30128 40139 52018 82108 222// 00256 2//03 333 00025 10280 58004 7000
0 82894 86299=
48894 32598 71601 10268 20214 30126 40130 52021 85808 333 00029 10330 58002 70000 81895 85697=
48914 32698 70902 10266 20218 30127 40129 52016 875// 333 00027 10316 58002 70000 87696=
0000024800
877
SMVS02 VNNN 111200
AAXX 11121
48916 32998 70000 10257 20235 30082 40129 53007 80008 333 00/// 10287 58003 70000 87299=
48919 32498 70710 10258 20243 30104 40126 52012 82208 22200 02261 2//04 333 10260 58001 70000 8189
4 87299=
0000009400
878
SMST01 EGRR 111200 RRA
AAXX 11124
88883 46/// /2306 10081 20040 40094 52006=
0000012600
879
SMUK01 EGRR 111200 RRA
AAXX 11124
03257 16/// /2308 10053 20009 3//// 4//// 5//// 60001
  333 55305 20471=
0000070200
880
SMMO01 MNUB 111200
AAXX 11121
44214 32998 23202 11160 21272 38335 40453 53004 82040
333 11106 91205=
44231 319// 70000 11161 21233 38789 40430 54000 70422
80008 333 11122 91201=
44259 319// 03201 11231 21288 39432 40431 51018 70440
333 11139 91202=
44277 329// 00000 11210 21289 37848 40540 57004 333
11114 91203=
44288 32999 03503 11158 21242 38229 40466 52004 333
11091 91204=
44292 319// 00000 11233 21262 38799 40511 51005 70400
333 11187 91203=
44304 329// 62302 11188 21237 39079 40427 52012 83049
333 11099 91204=
44354 329// 03005 11119 21210 39217 40418 52013 333
11059 91207=
44373 32999 02002 11147 21232 38633 40447 52007 333
11075 91204=
0000192900
881
SMRA10 RUHB 111200
AAXX 11121
30372 11993 00000 11421 21444 39475 40515 50001 60002 74440 333
11360=
30433 12699 80501 11255 21302 39766 40430 58002 60002 83532 333
11243=
30554 129// 00000 11378 21399 39222 40498 52004 60002 333 11276=
30635 128// 81301 11224 21264 39786 40417 52003 60002 83032 333
11080=
30673 12999 02602 11298 21351 39540 40408 51006 60002 333 11253=
30692 12999 02904 11274 21328 39784 40336 52004 69922 333 11238=
30758 12984 00901 11298 21322 39527 40461 52007 60002 333 11208=
30802 12799 72401 11129 21201 38767 48541 52007 60002 81530 333
11075=
30823 12999 22502 11196 21215 39714 40407 52004 69902 80001 333
11125=
30879 12999 00901 11313 21343 39552 40418 52020 60002 333 11258=
30935 11697 82901 11168 21187 39394 40399 52003 69992 71582 83541 333
11129=
30949 12999 03201 11213 21246 39225 40420 52019 60002 333 11120=
30965 119// 03402 11299 21330 39509 40447 52011 60002 70230 333
11247=
31168 41996 82303 11235 21275 30131 40142 52007 77173 8802/ 333
91112=
31285 42999 62001 11303 21341 30156 40245 52009 80005=
31300 12984 80103 11230 21307 39951 40268 51003 60002 80002 333
11226=
31329 11999 00000 11361 21384 39508 40273 52007 69922 70271 333
11317=
31369 41494 82808 11222 21240 30013 40104 52002 78687 889// 333 88918
91013 91113=
31416 41998 81101 11311 21340 30078 40182 52004 77172 86027=
31484 41999 02803 11268 21335 39822 40193 52004 70271=
31512 129// 02903 11253 21309 30104 40288 52003 60002 333 11235=
31538 41998 62501 11298 21335 39760 40256 52004 80006=
31561 42/// /2601 11346 21379 30162 40192 54000=
31683 42999 03101 11286 21317 30085 40167 51005=
31707 42998 03202 11262 21301 30158 40261 52005 333 11192=
31733 42999 01803 11260 21315 30121 40202 58002=
31735 41997 02507 11254 21315 30112 40210 55003 70230 333 91110=
31770 42983 62904 11201 21290 30124 40156 52003 80001=
0000014400
882
SMUK42 EGRR 111200 CCA
AAXX 11124
03008 11470 62823 10060 20001 40040 60011 71581 869//
  333 82912 84818 90710 91133 91033=
0000003800
883
SMVE12 RUHB 111200
NIL
0000358600
884
SMRS10 RUMS 111200
AAXX 11121
26894 41456 82805 10027 20006 39777 49993 52028 78082 8695/ 333 86918
91011 91113=
26898 41458 82806 10021 20018 39732 49997 52028 78082 889// 333 88919
91011 91112=
26976 42562 82604 10025 21024 39863 40045 52025 885// 333 88630
91114=
26997 42562 82807 10033 20004 39803 40020 52027 885// 333 88625 91011
91114=
27595 41393 81504 11003 21008 39782 49928 56028 77572 887// 333 88507
91111=
27612 41496 83002 10017 20007 39700 49892 53019 72162 887//=
27707 41450 72705 10011 21001 39669 49959 52027 78382 87900 333 85918
91112=
27719 41496 82605 10011 20002 39674 49924 52020 78082 883// 333
91112=
27785 41395 81803 10007 21000 39763 49921 56021 77372 8802/ 333
88506=
27817 41563 72704 10018 21001 39711 49956 52022 72582 87300=
27848 41458 82203 10019 20006 39743 49916 54000 76162 8872/ 333 88711
333 88711=
27857 41496 82303 10017 20010 39760 49920 55000 76162 8802/ 333
88515=
27906 41497 82607 10026 20002 39736 49975 52024 70282 86330 333 91010
91114=
27928 41496 82704 10025 20009 39742 49946 52010 76165 8677/ 333
91111=
27930 41460 72508 10025 20001 39722 49937 53009 72582 87500 333 91012
91113=
27935 41556 82403 10021 20002 39739 49930 53003 76166 885// 333
88630=
27947 41497 72306 10021 20011 39777 49934 52003 76162 875// 333 87612
91110=
27957 41497 82304 10015 20004 39731 49937 58002 70272 886//=
27962 41296 82404 10007 20006 39723 49934 56012 77176 8872/ 333
88504=
27983 41496 81704 10005 21004 39811 49939 56024 77177 8872/ 333 88710
91110=
27995 41495 81705 10010 21000 39905 49965 57027 77376 8802/ 333 91010
91113=
28506 42997 81304 11005 21025 39879 49992 57025 8804/=
28704 41498 81512 10009 21004 39863 49958 56030 76176 8802/ 333 88516
91017 91117=
28711 41297 81607 11019 21025 39644 40019 56020 77173 8872/ 333 88704
91012 91115=
34003 41498 82705 10021 20008 39675 49979 52019 70252 886// 333 91016
91117=
34009 41597 82606 10027 20000 39702 40004 52022 78082 889// 333 91014
91116=
34013 41598 82906 10024 20003 39748 49966 52017 76162 885// 333 91012
91114=
34047 41997 72506 10023 20010 39779 49959 52002 70272 87050 333
91112=
34109 41597 72603 10039 20005 39784 40018 52017 70162 87500 333 87631
91113=
34110 41598 82707 10032 20006 39733 40008 52016 70262 8635/ 333 91012
91114=
34123 41497 72608 10036 20010 39971 49951 52005 70262 875// 333 91012
91114 12000=
34139 41457 82407 10030 20017 39752 49988 52011 76362 8872/ 333 88712
91010 91114=
34146 41496 82404 10035 20020 39843 49972 52003 76162 8872/ 333
88712=
34152 41497 82305 10025 20015 39773 49963 53003 76162 8872/ 333
86713=
34163 41598 82405 10013 20006 39726 49974 52017 70276 8802/ 333 88520
91110=
34171 41470 82407 10024 20008 39776 49966 53010 72172 8657/ 333 86711
91011 91111=
34186 41296 82110 10007 20002 39842 49977 56017 77172 8802/ 333 88504
91013 91116=
34202 41598 62908 10038 20001 39762 40036 52017 70165 86300 333 91013
91115=
34231 41498 82604 10044 20013 39851 49992 52011 70282 889// 333
88919=
34238 41497 82405 10029 20016 39788 49976 53012 76165 8872/ 333
91112=
34247 41496 82605 10035 20025 39892 40005 52002 78082 883// 333 86912
91112=
34336 41460 82505 10043 20031 39918 40020 52006 78082 8632/ 333 91011
91112=
34391 41497 82109 10018 20009 39989 40016 56009 70226 887// 333 88516
91016 91116=
35011 41997 81705 11003 21014 39909 40064 57019 70272 8802/ 333
91112=
35121 41598 81806 11007 21024 39960 40107 57009 70275 885// 333
88623=
0000003800
885
SMVD12 RUHB 111200
NIL
0000248500
886
SMRS13 RUMS 111200
AAXX 11121
22271 42996 20906 11253 21278 30164 40171 55003 80009=
22292 42997 21403 11315 21345 30185 40190 58003 80001=
22365 NIL=
22446 41257 80707 11166 21192 39914 40016 58011 78583 889// 333 86705
91114=
22520 41993 80309 11078 21088 30010 40019 57003 77373 8802/ 333 91016
91118=
22550 41496 80604 11162 21196 39989 40000 57002 77187 8802/ 333 88517
91111=
22551 41496 80609 11156 21177 30002 40007 58004 77173 8872/ 333 91011
91113=
22559 41395 80705 11148 21175 39973 49991 55005 77373 8872/ 333 88709
91111=
22573 41442 80403 11169 21195 39952 40047 57009 77177 8802/ 333
88510=
22583 41357 80602 11168 21185 39969 40055 57013 77177 8872/ 333
88708=
22648 41495 80103 21144 21159 39907 49956 55000 77373 8872/ 333
88711=
22656 41923 80307 11140 21156 39933 49955 56002 77373 8807/ 333
91110=
22686 41496 80803 11138 21173 39903 40009 57012 77173 8872/ 333
84711=
22762 41394 80402 11119 21129 39888 49928 57003 77577 8872/ 333
86706=
22768 41295 80605 11085 21094 39842 49899 55002 77373 8872/ 333
86705=
22778 41295 80705 11088 21098 39843 49912 56011 77373 8872/ 333
86705=
22798 41317 80705 11093 21101 39849 49964 57023 77573 8872/ 333 86707
91010 91111=
22845 41394 83604 11127 21144 39742 49904 53014 77373 8872/ 333 86707
91110=
22854 NIL=
22887 41456 81304 10002 21012 39833 49902 57014 78587 889// 333
86712=
23205 41994 10502 11373 21412 30189 40205 54001 72840 81030=
23219 NIL=
23226 41904 00202 11400 21427 39970 40224 54000 70540=
23305 42999 50202 11339 21368 30149 40178 58010 82035=
23418 42965 33502 11342 21371 30074 40159 57001 83080 333 93402=
23518 82997 80103 11316 21350 30032 40136 58007 8805/=
23606 41340 80404 11209 21234 39910 40097 57012 78582 889// 333
86708=
23701 41340 80604 11164 21179 39897 40035 57015 77373 8802/ 333
88507=
23711 41997 83501 11203 21223 39909 40092 58010 77187 8672/ 333
86710=
23804 41395 80903 11069 21078 39831 49978 57021 77372 887// 333
86609=
27026 41229 83202 10002 21001 39686 49848 52007 77175 8872/ 333
88705=
27037 41396 81901 10008 20005 39684 49842 52005 76876 8672/ 333
86709=
27199 41450 81305 11029 21042 39740 49937 57017 77173 8672/ 333 91009
91109=
27271 41494 81402 11001 21001 39718 49871 57005 77373 8872/=
27459 41327 82401 10006 20003 39687 49878 53002 70272 886// 333 91005
91106=
27730 41797 82403 10018 20012 39707 49898 53006 70262 8005/=
0000367000
887
SMRS11 RUMS 111200
AAXX 11121
20107 41997 72604 11002 21051 30010 40106 52002 78582 87900 333 85925
91007=
22003 42/// /2207 11067 21097 30162 40176 50000 333 91009 91110=
22004 41597 70000 11194 21219 30071 40197 57004 78587 87900 333
93508=
22100 42/// /0000 11349 21388 3//// 4//// 5////=
22140 42598 60811 11097 21118 30139 40155 55000 86500 333 91014
91115=
22113 41956 21904 11281 21315 30125 40197 58003 71011 81031 333 91006
93544=
22193 42998 00802 11225 21244 30197 40208 54001=
22212 42598 73001 11237 21270 30004 40186 50001 86530 333 86623 91002
93510=
22213 42584 21601 11266 21292 39976 40163 57001 81571 333 91002
93503=
22217 42998 20203 11166 21193 30118 40152 55000 82030 333 91005=
22235 42984 40604 11162 21183 39935 40145 54000 81032 333 91010
91110=
22249 42999 80604 11156 21180 39935 40135 54000 8801/ 333 91010
91112=
22312 41598 50507 11126 21167 30103 40127 54001 73631 85500 333 91014
91116=
22334 43/// /0411 11134 21190 30079 40086 5//// 333 91016=
22349 41992 90516 11130 21140 30058 40069 57002 73933 333 91022 91123
92993=
22361 41992 80617 11171 21188 30089 40113 58004 73932 8805/ 333 91121
92992=
22383 42998 80805 11246 21292 30131 40150 58008 80007=
22408 41599 30105 11150 21177 39926 40085 52004 73631 81531 333
91111=
22429 41210 80508 11084 21100 30002 40012 54000 77387 8872/ 333 87703
91015 91118 92982=
22456 41428 80603 11173 21190 39953 40047 57002 77372 8872/=
22481 41496 80605 11210 21239 30040 40092 56006 77187 8802/ 333 88514
91111=
22546 41496 80504 11160 21182 39996 40006 57002 77173 8672/ 333
91110=
22602 41459 30104 11129 21156 39797 40034 52005 77071 82530 91110=
22619 41458 80304 11104 21140 39827 49993 52007 78583 889// 333 88912
91113=
22638 11497 70407 11165 21207 39736 49974 5//// 60012 77173 86530=
22671 41895 80404 11136 21154 39903 49985 56008 77377 8802/=
22721 41599 73401 11132 21167 39876 49982 53005 70273 87500 333 86630
93623=
22749 41330 80304 11139 21153 39789 49919 52006 77373 8872/ 333 88707
91110=
22802 42999 73603 11071 21114 39960 49984 51018 87030=
22820 41323 83503 11135 21148 39821 49966 52012 77372 8472/ 333
93703=
22869 41912 80602 11008 21008 39721 49867 55002 77577 8802/=
22876 41450 80805 11029 21029 39829 49903 56009 78583 889// 333
88914=
22889 41495 81107 11008 21011 39836 49921 56008 77373 8872/ 333 91110
92982=
22951 41258 80203 11056 21060 39586 49868 52011 77172 8872/ 333
88705=
22983 41456 81304 11009 21019 39828 49912 57008 77172 8872/ 333 91007
91109=
26059 41496 82903 11030 21047 39970 49996 51019 77172 8802/ 333 88512
93700=
26063 41497 83603 11057 21083 39976 49984 52022 77072 885// 333
88614=
26094 41456 83103 11084 21103 39861 49940 52030 77172 8872/ 333 88716
93402=
26157 41597 83203 11017 21031 39953 40003 52017 72682 883//=
26167 42/// /3104 11029 21044 39870 49984 53020 333 91110=
26258 42598 83004 11005 21023 39953 40008 52023 70282 889// 333
91110=
26298 41496 83005 11041 21051 39697 49930 52036 77172 8872/ 333 91011
91112=
26359 41581 73004 10004 21010 39874 40008 52023 72682 87900 333
91112=
26456 41595 82803 10008 21009 39896 40018 52022 77376 8872/ 333
91111=
26702 41496 82503 10052 20030 30057 40083 58003 71082 887// 333 91008
91111=
26711 41598 82603 10055 20028 30038 40076 52002 70282 888// 333 91007
91109=
26781 41496 82904 10013 20003 39702 49994 53024 77176 886// 333 87712
91112=
27208 41496 82905 11014 21023 39716 49892 53033 77176 8872/ 333 91110
93704=
27402 41294 82703 11011 21019 39724 49903 53034 77376 8872/ 333 88703
91110=
0000136800
888
SMTA10 UTDD 111200
AAXX 11121
38598 42997 00908 10016 20011 40271 57018=
38599 41995 10707 10015 21068 39738 40266 51003 71011 80002 333  
91115=
38705 42999 60000 10054 20008 39035 48530 53016 80004=
38713 42999 20701 10012 21113 39041 48500 56003 80001=
38715 42999 02308 11102 21212 36918 47050 52004=
38718 42999 20000 11040 21115 37832 48570 57004 80004=
38719 42999 51802 11096 21223 36773 47120 52004 80001=
38725 42699 70000 11013 21204 37777 48520 57007 82501=
38734 42999 30504 11070 21170 37480 47070 56001 80003=
38744 NIL=
38836 42999 60000 10063 21079 39299 40243 57010 80001=
38838 42998 80000 10066 21008 39575 40251 57024 80002=
38844 42999 50505 11075 21159 48520 56003 80002=
38846 NIL=
38847 NIL=
38851 41999 61405 11027 21112 48590 56016 70242 80001=
38856 42998 50000 11025 21100 38830 48590 56008 80001=
38869 42999 20000 11134 21216 36879 47140 53002 80001=
38875 42699 63202 11174 21208 47/// 5//// 82302=
38878 42999 00000 11124 21181 47110 54000=
38932 NIL=
38933 42997 70000 10061 21032 39737 40256 57025 80004=
38944 42998 20000 10039 21020 39643 40156 57024 80001=
38947 42998 23301 10052 21007 39817 40261 57011 80001=
38951 42997 20905 11028 21189 48620 57008 80001=
38954 42999 00000 11052 21103 37831 48620 55041=
38957 42998 00000 11065 21161 37580 47910 57017=
00000000