0000008900
536
SACS31 MROC 101552
METAR MRLB 101600Z 08017KT 9999 FEW035 30/18 A2987=

0000070100
537
SASN31 ESWI 101550
METAR ESGG 101550Z VRB03KT 9999 BKN015 01/M00 Q1000 R21/29//95=
METAR ESGJ 101550Z 28004KT 6000 -SN SCT011 BKN019 M00/M00 Q0999
R01/19//70=
METAR ESGP 101550Z NIL=
METAR ESGT 101550Z 17003KT 9999 SCT012 00/M02 Q1001=
METAR ESMK 101550Z 28011KT 9999 BKN027 06/04 Q1002=
METAR ESMQ 101550Z 28008KT 9999 FEW023 BKN031 02/M00 Q1000=
METAR ESMS 101550Z 27010KT 9999 SCT008CB BKN014 05/04 Q1003
R17/29//95=
METAR ESMT 101550Z 26003KT 9999 FEW024 BKN028 03/01 Q1002=
METAR ESMX 101550Z 29006KT 9999 BKN015 01/M00 Q1000=
METAR ESTA 101550Z 26012KT 9999 OVC032 06/04 Q1002=
METAR ESTL 101550Z AUTO 27010KT 9999NDV FEW011/// OVC029/// 06/06
Q1003=

0000012600
538
SPUS31 KWBC 101553
SPECI
KBWI 101549Z 08005KT 1SM R10/P6000FT -RA BR BKN005 BKN047 OVC080
01/M01 A3043=

0000009300
539
SPUS31 KWBC 101553
SPECI
KMSY 101549Z 11005KT 4SM BR OVC006 14/12 A3014=

0000010200
540
SPUS41 KWBC 101553
SPECI
KBDL 101549Z 00000KT 5SM BR BKN011 OVC025 M04/M06 A3047=

0000064700
541
SADL31 EDZO 101550
METAR EDDF 101550Z 21006KT 9999 FEW039 07/02 Q1018 NOSIG=
METAR EDDH 101550Z 24009KT 9999 FEW015 SCT020TCU BKN040 07/04 Q1011
TEMPO 26015G25KT=
METAR EDDK 101550Z 24006KT 9999 FEW033 06/02 Q1017 NOSIG=
METAR EDDL 101550Z 23007KT 9999 FEW030 07/03 Q1017 NOSIG=
METAR EDDM 101550Z 24007KT 9999 FEW042 05/00 Q1020 NOSIG=
METAR EDDN 101550Z 27006KT 9999 BKN043 06/02 Q1018 NOSIG=
METAR EDDS 101550Z 22004KT 9999 SCT042 06/00 Q1019 NOSIG=
METAR EDDT 101550Z 26015KT 9999 FEW040 BKN047 07/01 Q1013 TEMPO
     26015G25KT=
METAR EDDV 101550Z 24007KT 220V280 9999 FEW025 SCT039 06/03 Q1014
NOSIG=

0000050200
542
SADL32 EDZO 101550
METAR EDDB 101550Z 26018KT 9999 BKN046 07/01 Q1013 TEMPO
     25015G25KT=
METAR EDDC 101550Z 26007KT 9999 SCT044 06/M01 Q1015 NOSIG=
METAR EDDE 101550Z 23007KT 9999 FEW033 BKN056 04/02 Q1016 NOSIG=
METAR EDDG 101550Z 22007KT 9999 FEW025 SCT250 07/03 Q1015 NOSIG=
METAR EDDP 101550Z 24013KT 9999 FEW040 05/02 Q1015 NOSIG=
METAR EDDR 101550Z 22006KT 9999 FEW025 SCT300 06/02 Q1019 NOSIG=
METAR EDDW 101550Z 24012KT 9999 FEW018 BKN023 07/04 Q1013 NOSIG=

0000089100
543
SAMX44 MMMD 101600
METAR MMCE 101549Z 13009KT 3SM HZ OVC002 21/21 A3001
      RMK 8/6// VRB COND=
METAR MMCM 101541Z 00000KT 5SM SCT005 22/18 A3004
      RMK 8/100 HZY=
METAR MMCP 101549Z 12006KT 6SM  BKN015 BKN100 24/22 A3002 
      RMK 8/560 HZY=
METAR MMCT 101543Z 10008KT 8SM  BKN015 26/22 A3002 
      RMK 8/500 HZY MSGTX MMMD=
METAR MMCZ 101544Z 11007KT 8SM  SCT015TCU 25/22 A3007 RMK 8/200 SC
AC=
METAR MMMD 101545Z 09008KT 5SM  OVC008 24/22 A3004 
      RMK 8/5// HZY BINOVC=
METAR MMMT 101540Z 00000KT 10SM  SCT035 OVC070 22/16 A3001 
      RMK 8/57/ VC HZ=
METAR MMTG 101544Z 00000KT 7SM  SKC 21/15 A3007 RMK HZY=
METAR MMTP 101546Z 00000KT 10SM  SKC 29/23 A2995=
METAR MMUN 101544Z 14009KT 7SM  SCT015 BKN080 28/23 A3007 RMK 8/130=
METAR MMVA 101549Z 24004KT 7SM  SCT003 BKN010 OVC060 21/19 A3000 
      RMK 8/62/ VRBL CONDS=

0000056900
544
SADN31 EKCH 101550
METAR EKCH 101550Z 27009KT 7000 -SHRA SCT009 BKN020TCU 06/05
Q1004 NOSIG=
METAR EKBI 101550Z 26014KT 9999 -SHRA BKN014 BKN026 06/04 Q1006=
METAR EKYT 101550Z 26007KT 9999 FEW022 SCT034 06/04 Q1002=
METAR EKRK 101550Z AUTO 27016KT 9999NDV -SHRA  FEW013/// SCT018///
BKN024/// BKN034/// 06/05 Q1004=
METAR EKAH 101550Z AUTO 26010KT 230V300 9999NDV -SHRA  BKN015///
06/04 Q1004=
METAR EKEB 101550Z AUTO 25015KT 9999NDV OVC030/// 07/05 Q1007=
METAR EKRN 101550Z AUTO 27017KT 9999NDV FEW007/// OVC010///
06/06 Q1004=

0000022100
545
SADN32 EKCH 101550
METAR EKVJ 101553Z NIL=
METAR EKSB 101551Z 26013KT 9999 BKN045 07/03 Q1007=
METAR EKSN 101553Z NIL=
METAR EKVD 101553Z NIL=
METAR EKOD 101550Z 25017KT 9999 SCT024 06/06 Q1006=

0000053700
546
SADN34 EKCH 101550
METAR EKGF 101550Z 27015KT 9999 FEW013 SCT022 07/04 Q1007=
METAR EKHN 101550Z AUTO 26025KT 7000NDV FEW015/// BKN037///
///// Q1009=
METAR EKHR 101550Z AUTO 27018KT 9999NDV BKN038/// 08/05 Q1007=
METAR EKHA 101550Z AUTO 26021KT 9999NDV 07/05 Q1008=
METAR EKHD 101550Z AUTO 25023KT 9999NDV 07/05 Q1005=
METAR EKTE 101550Z AUTO 25017KT 9999NDV FEW014 BKN013 07/04 Q1008=
METAR EKGC 101550Z AUTO 25023KT 9999NDV 07/05 Q1008=
METAR EKAV 101550Z AUTO 26015KT 9999NDV BKN027/// 06/04 Q1003=

0000012800
547
SALT31 EYVI 101550
METAR EYVI 101550Z 26018KT 7000 -SHRA BKN012 OVC025CB 03/01 Q0991
     R20/2/0295 NOSIG=

0000017000
548
FTCN33 CWAO 101500 AAA
TAF AMD CYUB 101551Z 1015/1104 30015G25KT 6SM -SN BLSN BKN030 TEMPO
     1015/1104 2SM -SN BLSN
    RMK NXT FCST BY 101900Z=

0000008900
549
SABZ24 SBFL 101600
METAR SBFL 101600Z 35010KT 9999 FEW030 33/23 Q1010=

0000091500
550
SAMX45 MMMY 101600
METAR MMMY 101546Z 00000KT 3SM  HZ SCT010 17/14 A2993 RMK 8/600=
METAR MMAN 101540Z 31007KT 3SM HZ  SCT010 17/14 A2996 RMK 8/500=
METAR MMMA 101540Z 15014KT 4SM  OVC010 20/19 A2996 
      RMK 8/5// BR VRB COND=
METAR MMIO 101540Z 18008KT 10SM SKC 21/08 A3014=
METAR MMRX 101545Z 13008G18KT 10SM  FEW020 21/16 A2992 
      RMK 8/100 HZY FU=
METAR MMNL 101548Z 27006KT 4SM  OVC015 18/15 A2995 RMK 8/5// HZ=
METAR MMTC 101543Z 10004KT 10SM BKN080 BKN200 15/03 A3009
      RMK 8/032 HZY=
METAR MMMV 101540Z 20004KT 2SM BR SCT050 13/// A2997 RMK 8/400 HZY=
METAR MMCU 101540Z 00000KT 10SM SCT100 SCT200 12/00 A3012 RMK 8/071=
METAR MMPG 101540Z 30005KT 6SM OVC020 14/09 A2998
      RMK 8/5// HZY=
METAR MMCS 101540Z 27010KT 10SM SCT250 14/00 A3000 RMK 8/005 HZY =
METAR MMCV 101546Z 18013G23KT 8SM  SKC 22/13 A2994 
      RMK HZY LWR ST W SC/W AC CI=

0000029700
551
SASW31 LSSW 101550
METAR LSZH 101550Z 08003KT 9999 FEW010 SCT041 BKN090 06/03 Q1020
    NOSIG=
METAR LSGG 101550Z VRB02KT CAVOK 09/05 Q1018 NOSIG=
METAR LSZB 101550Z 29005KT 9999 BKN075 07/05 Q1018 NOSIG=
METAR LSZA 101550Z 22004KT 200V260 9999 FEW043 10/05 Q1018 NOSIG=

0000041000
552
SASW39 LSSW 101550
METAR LSMA 101550Z 03003KT 9999 BKN083 06/04 Q1019 RMK WHT=
METAR LSMD 101550Z 00000KT 9999 SCT043 OVC098 06/03 Q1020 RMK WHT=
METAR LSME 101550Z AUTO 06001KT 9999NDV SCT037 OVC084 06/04 Q1020
           RMK WHT=
METAR LSMM 101550Z 08007KT 040V120 9999 FEW087 06/03 Q1018 RMK BLU=
METAR LSMP 101550Z NIL=
METAR COR LSMS 101550Z 24004KT 9999 SCT100 09/05 Q1017=

0000012100
553
SAPM31 MPTO 101600
METAR 
MPTO 101600Z 00000KT 9999 SCT018TCU SCT090  30/22 Q1011 TEMPO 7000
SHRA=

0000019500
554
FTUS80 KWBC 101551 AAA
TAF AMD
KCAK 101548Z 1016/1112 18008KT 2SM BR BKN005 OVC018
     FM110400 15012KT 4SM -RA BR SCT007 OVC015
     FM110600 18015KT 4SM -RA BR OVC007=

0000095000
555
SAMX41 MMMX 101551
METAR MMMX 101544Z 35004KT 5SM FEW020 15/03 A3032
      NOSIG RMK 8/500 HZY CU=
METAR MMAA 101543Z 00000KT 8SM SKC 27/22 A2994=
METAR MMBT 101540Z 00000KT 7SM SKC 27/20 A2999=
METAR MMCB 101545Z 00000KT 10SM SCT080 22/11 A3014
      RMK 8/070=
METAR MMOX 101541Z 12002KT 10SM SKC 17/07 A3026 RMK=
METAR MMPA 101545Z 00000KT 5SM SCT090 SCT280 23/18 A3003
      RMK 8/038 HZY=
METAR MMPB 101541Z 34005KT 8SM  SKC 15/04 A3035 RMK HZY=
METAR MMPS 101545Z 00000KT 15SM SKC 28/19 A3007=
METAR MMQT 101545Z 00000KT 8SM FEW020 SCT100 13/08 A3028 RMK 8/530
CC=
METAR MMTM 101547Z 00000KT 5SM  OVC020 21/17 A3001 RMK 8/5// BR HZ=
METAR MMTO 101544Z 11003KT 6SM  SCT020 12/04 A3038 RMK 8/100 HZY=
METAR MMVR 101544Z 16003KT 7SM  SCT070 22/17 A3001 RMK 8/050 HZY=
METAR MMZH 101549Z 00000KT 6SM SCT020TCU 27/22 A2994 RMK /200 HZY
ISOL CI=
METAR MMIT 101555Z NIL=
METAR MMTB 101555Z NIL=

00000000