0000215900
776
SZNZ01 NZKL 110345
CREX++
T000103 A001 D01021 D06025++
-3683144 17478654 AUCT  2014 01 11 03 37 //// 11 07 00 01
06065 3196 06067 3198 06067 3200 06070 3203 06070 3203 06071 3204+
-4402404 -17636748 CHIT  2014 01 11 03 37 //// 11 07 00 01
05077 2104 05064 2095 05065 2100 05054 2093 05081 2123 05063 2109+
-4089929 17623168 CPIT  2014 01 11 03 37 //// 11 07 00 01
04173 2275 04171 2278 04155 2267 04160 2276 04148 2268 04166 2291+
-3618905 17548887 GBIT  2014 01 11 03 37 //// 11 07 00 01
06415 0032 06420 0038 06428 0048 06425 0045 06425 0047 06425 0049+
-3867541 17802288 GIST  2014 01 11 03 37 //// 11 07 00 01
04392 2688 04409 2709 04383 2686 04401 2708 04392 2703 04395 2709+
-4241288 17370277 KAIT  2014 01 11 03 37 //// 11 07 00 01
03451 2165 03445 2164 03455 2178 03437 2166 03432 2166 03441 2180+
-3755040 17815904 LOTT  2014 01 11 03 37 //// 11 07 00 01
04020 0211 04021 0213 04022 0217 04012 0209 04017 0217 04017 0219+
-3704657 17451175 MNKT  2014 01 11 03 37 //// 11 07 00 01
02707 -0176 02727 -0163 02728 -0168 02738 -0165 02736 -0174 02754 -0163+
-3947566 17692007 NAPT  2014 01 11 03 37 //// 11 07 00 01
03381 2023 03377 2023 03386 2036 03398 2052 03376 2034 03397 2060+
-3441483 17304870 NCPT  2014 01 11 03 37 //// 11 07 00 01
02442 -2554 02448 -2549 02491 -2507 02436 -2563 02451 -2549 02480 -2521+
-4581435 17062939 OTAT  2014 01 11 03 37 //// 11 07 00 01
04379 3401 04375 3403 04374 3409 04368 3409 04360 3408 04354 3408+
-2928002 -17789440 RBCT  2014 01 11 03 37 //// 11 07 00 01
06470 2028 06464 2024 06472 2032 06465 2026 06459 2021 06459 2023+
-2925114 -17790384 RFRT  2014 01 11 03 37 //// 11 07 00 01
03417 0212 03402 0199 03397 0195 03424 0223 03408 0208 03396 0198+
-4357010 17277383 SUMT  2014 01 11 03 37 //// 11 07 00 01
02142 1865 02140 1869 02137 1874 02148 1891 02132 1882 02116 1873+
-3764109 17618118 TAUT  2014 01 11 03 37 //// 11 07 00 01
05666 3980 05664 3979 05673 3989 05665 3982 05664 3981 05664 3982+
-4128448 17477985 WLGT  2014 01 11 03 38 //// 11 07 00 01
03314 2063 03313 2066 03319 2075 03319 2080 03312 2077 03300 2069++
7777
0000054300
777
SADR31 MDSD 101700
METAR
METAR MDPP 101700Z 09010KT 9999 SCT020 29/24 Q1019=
METAR MDST 101700Z 16008KT 9999 SCT019 SCT070 26/22 Q1019=
METAR MDPC 101700Z 11011KT 9999 FEW020 29/21 Q1018= 
METAR MDBH 101700Z 13010KT 9999 FEW022 30/22 Q1017=
METAR MDJB 101700Z 03006KT 9999 SCT020 29/22 Q1018=
METAR MDSD 101700Z 11007KT 9999 BKN022 29/22 Q1017 NOSIG=
METAR MDLR 101700Z 10015KT 9999 BKN022 29/21 Q1017=
METAR MDCY 101700Z 09010KT 9999 SCT020 29/24 Q1018=
METAR MDAB 101700Z 09005KT 9999 BKN020 28/25 Q1019=

0000011100
778
SACV20 GVAC 101700
METAR GVAC 101700Z 05010KT 9999 SCT013 BKN015 BKN200 23/14 Q1014
NOSIG=

0000096300
779
SAMX43 MMMZ 101700
METAR MMCL 101640Z 03005KT 10SM  OVC230 20/13 A3002 RMK 8/007=
METAR MMCN 101641Z 28003KT 10SM  FEW200 18/07 A2999 RMK 8/005 HZY=
METAR MMDO 101643Z 00000KT 14SM  BKN250 12/M06 A3023 RMK 8/006=
METAR MMGM 101641Z 00000KT 10SM  SKC 20/00 A2999 RMK HZY=
METAR MMHO 101648Z 00000KT 10SM  SKC 16/00 A3008 RMK HZY=
METAR MMLM 101641Z 00000KT 10SM  SCT120 SCT200 19/10 A3003 
      RMK 8/032 HZY=
METAR MMLP 101649Z 30007KT 8SM  SCT040 SCT120 BKN200 19/15 A3006 
      RMK 8/538 HZY=
METAR MMLT 101648Z 28010KT 8SM  BKN100 BKN200 19/10 A3004 RMK 8/038=
METAR MMML 101646Z 00000KT 10SM  SKC 14/M02 A3012 RMK ISOL-CI=
METAR MMMZ 101647Z 04006KT 14SM  SKC 19/14 A2998 RMK ISOL AC-CI=
METAR MMSD 101647Z 32010KT 15SM  SCT140 BKN200 22/14 A3003 RMK 8/072=
METAR MMSL 101643Z 04006KT 12SM  SCT120 BKN230 23/11 A3000 
      RMK 8/038 ISOL SC=
METAR MMTJ 101644Z 09005KT 8SM  SCT210 12/03 A3012 RMK 8/009 HZY=

0000009800
780
SABZ21 SBAR 101700
METAR SBAR 101700Z 11013KT 9999 FEW018 SCT100 29/21
Q1012=

0000010700
781
SAMX31 KWBC 101645 RRE
METAR
MMMY 101645Z 28003KT 4SM FEW015 18/12 A2993 RMK 8/500 HZ=

0000035000
782
FTSY31 OSDI 101700
OSDI 101700Z 1018/1124 12010KT 8000 FEW030 SCT100 BECMG
             1022/1024 VRB03KT 3000 BR PROB30 TEMPO
             1102/1105 0200 FG SCT007 BECMG
             1108/1110 22010KT 8000 FEW030=
OSLK 101700Z 1018/1118 07010KT 9999 SCT030 BKN100 BECMG
             1108/1110 32015KT 9999 FEW030 SCT100=

0000011700
783
SPUS44 KWBC 101655
SPECI
KSMF 101651Z 00000KT 3/4SM R16R/P6000FT BR SCT001 BKN250 03/03
A3030=

0000008900
784
SABZ21 SBNT 101700
METAR SBNT 101700Z 11016KT 9999 BKN028 30/21 Q1012=

0000012800
785
SAMX51 MMMX 101656
METAR COR MMPA 101653Z 00000KT 5SM SCT020 SCT090 SCT280 25/20 A3001
      RMK 8/138 HZY=

0000009800
786
SAMJ41 LWSK 101700
METAR LWSK 101700Z VRB01KT 4200 BR OVC005 03/01 Q1022 NOSIG=

0000010200
787
SACV20 GVSV 101700
METAR GVSV 101700Z 06014KT 9999 SCT023 BKN200 24/14 Q1015 NOSIG=

0000060700
788
SAGR31 LGAT 101650
METAR LGAD 101650Z NIL=
METAR LGAV 101650Z VRB02KT CAVOK 13/07 Q1018 NOSIG=
METAR LGIR 101650Z 19004KT CAVOK 13/10 Q1020 NOSIG=
METAR LGKL 101650Z 00000KT 9999 FEW030 13/09 Q1021=
METAR LGKO 101650Z 00000KT 9999 SCT025 13/08 Q1020=
METAR LGKR 101650Z 00000KT 9999 SCT018 SCT025 BKN180 12/10 Q1020
      NOSIG=
METAR LGLM 101650Z 18007KT 9999 BKN016 13/10 Q1018=
METAR LGRP 101650Z 21003KT 9999 FEW018 15/09 Q1020 NOSIG=
METAR LGSA 101650Z NIL=
METAR LGSM 101650Z NIL=
METAR LGTS 101650Z 00000KT 9000 SCT020 SCT080 BKN180 10/07 Q1018
      NOSIG=

0000012600
789
SANO35 ENMI 101650 RRA
METAR ENSO 101650Z 25009KT 9999 -SHRA SCT010 SCT022 BKN027 05/05
           Q0999=

0000013100
790
SAIL41 BIIS 101700
METAR
BIIS 101700Z VRB06G19KT 9999 SCT050 05/M06 Q0991 RMK ARNARNES 180GR
MAGN
17G27KT=

0000027100
791
SPUS70 KWBC 101656
SPECI
KSDF 101652Z 13008KT 7SM SCT008 OVC055 09/07 A3011 RMK AO2
     PRESFR=
KAND 101653Z AUTO 05008KT 5SM -RA BR OVC006 07/07 A3027 RMK AO2
     RAE22B43 P0001=
KJXN 101653Z 17010KT 1 1/4SM BR OVC002 01/M01 A3008 RMK AO2=

0000009700
792
SPUS43 KWBC 101656
SPECI
KSDF 101652Z 13008KT 7SM SCT008 OVC055 09/07 A3011=

0000057200
793
SAGR32 LGAT 101650
METAR LGAL 101650Z 29006KT 9000 FEW008 BKN018 09/07 Q1018=
METAR LGEL 101650Z NIL=
METAR LGIO 101650Z NIL=
METAR LGKV 101650Z 03005KT 9999 BKN020 BKN180 09/08 Q1018=
METAR LGMT 101650Z VRB02KT 9000 SCT020 10/07 Q1019=
METAR LGPZ 101650Z 00000KT 9999 SCT030 SCT080 11/09 Q1022 NOSIG=
METAR LGRX 101650Z 00000KT 9999 FEW035 SCT200 13/09 Q1021 NOSIG=
METAR LGSK 101650Z 00000KT 9999 FEW018 BKN180 10/09 Q1017=
METAR LGSR 101650Z 24010KT 9999 SCT025 15/10 Q1020 NOSIG=
METAR LGZA 101650Z 00000KT 9999 SCT018 12/09 Q1021=

0000008900
794
SAEG31 HECA 101700
METAR HECA 101700Z 29005KT CAVOK 16/09 Q1022 NOSIG=

0000016800
795
FTID33 WATT 101700
TAF WATT 101700Z 1018/1118 00000KT 8000 BKN015
BECMG 1022/1023 33005KT 9999 FEW020
TEMPO 1104/1107 8000 -TSRA FEW015CB SCT015=

00000000