0000011300
936
SPAU32 AMMC 101601
SPECI YBCG 101601Z AUTO 17008KT 6000 // SCT019 SCT028 OVC045 20/19
Q1018=

0000057000
937
SPUS70 KWBC 101600
SPECI
KSHN 101556Z AUTO 22015G21KT 2 1/2SM -RA BR BKN011 OVC018 07/06
     A3004 RMK AO2 P0000 T00720056 TSNO=
K1B7 101545Z 09008KT 1/4SM FG BKN002 12/12 A3012=
KFYV 101556Z 17006KT 3SM -RA BR SCT006 OVC014 09/09 A2982 RMK AO2
     LTG DSNT W-NE TSE54 P0000=
KAVL 101557Z 00000KT 3SM -RA BR BKN003 BKN020 OVC027 04/04 A3030
     RMK AO2 P0000=
KEQY 101557Z AUTO 35005KT 1 3/4SM RA BR OVC003 06/05 A3031 RMK AO2
     P0003=
KHUT 101557Z 25004KT 1/2SM R13/1400V2400FT FG VV002 03/03 A2963
     RMK AO2 T00330028=

0000018100
938
FTSA41 KWBC 101600
TAF
SEMT 101550Z 1018/1118 25010KT 9999 BKN020
     FM110000 20006KT 9999 OVC020
     FM111500 19010KT 9999 BKN020 TX29/1020Z TN24/1110Z=

0000026500
939
FTSA42 KWBC 101600
TAF
SELT 101550Z 1018/1118 17014KT 9999 SHRA BKN026 BKN100
     FM110000 17008KT 9999 BKN023 SCT100
     FM110600 19003KT 6000 RA BCFG FEW010 BKN020 BKN100
     FM111400 17005KT 9999 BKN023 SCT100 TX20/1119Z TN11/1110Z=

0000026200
940
FTUS51 KWBC 101600 AAA
TAF AMD
KELM 101559Z 1016/1112 VRB03KT 5SM BR BKN025 OVC040
      TEMPO 1016/1018 SCT025 OVC035
     FM101800 22006KT P6SM SCT015 BKN025
     FM110100 17008KT P6SM OVC015
     FM110500 17010KT 4SM -SHRA OVC012=

0000086400
941
FTUS80 KWBC 101600 AAA
TAF AMD
KATL 101556Z 1016/1118 08008KT 2SM -RADZ BR OVC004
     FM110100 12008KT 1SM -RADZ BR OVC002
     FM110900 15008KT 1SM -RADZ BR OVC003
     FM111400 20009KT 2SM -SHRA OVC008=
KELM 101559Z 1016/1112 VRB03KT 5SM BR BKN025 OVC040
      TEMPO 1016/1018 SCT025 OVC035
     FM101800 22006KT P6SM SCT015 BKN025
     FM110100 17008KT P6SM OVC015
     FM110500 17010KT 4SM -SHRA OVC012=
KMLI 101557Z 1016/1112 13006KT 3SM -DZ BR OVC006
     FM101700 14013KT 3SM -RA BR OVC006
     FM110000 17006KT 1/2SM -RA FG VV001
     FM110400 19006KT 2SM -RA BR OVC004
     FM111000 24012KT 3SM BR OVC006=
PANC 101558Z 1016/1118 VRB02KT 6SM -SN BR VCFG FEW001 OVC005
      TEMPO 1016/1020 3SM BR SCT005 OVC015
     FM102300 35003KT 6SM BR SCT005 BKN015
     FM110600 35005KT P6SM VCFG SCT010 BKN040=

0000011200
942
SAGQ20 FGSL 101600
METAR FGSL 101600Z 24005KT 210V280 8000 FEW013 SCT130 29/24 Q1009
NOSIG=

0000052500
943
FTAT31 TAPA 101516
TAF TAPA 101600Z 1018/1118 07015KT 9999 SCT020
PROB40 TEMPO 1018/1106 09015G25KT SHRA BKN015=
TAF TRPG 101600Z 1018/1118 07015KT 9999 SCT020
PROB40 TEMPO 1018/1106 09015G25KT SHRA BKN015=
TAF TKPN 101600Z 1018/1118 07015KT 9999 SCT020
PROB40 TEMPO 1018/1106 09015G25KT SHRA BKN015=
TAF TQPF 101600Z 1018/1118 07015KT 9999 SCT020
PROB40 TEMPO 1018/1024 09015G25KT SHRA BKN015=
TAF TUPJ 101600Z 1018/1118 07015KT 9999 SCT019
PROB40 TEMPO 1018/1024 09015G25KT SHRA BKN015=

0000014100
944
SACN61 CYAY 101600
METAR CYAY 101600Z AUTO 25014G22KT 9SM CLR M13/M18 A2998 RMK MAX WND
 24022KT AT 1507Z PRESFR SLP156=

0000013700
945
SAFG20 SOCA 101600
METAR SOCA 101600Z AUTO 14003KT 090V180 9999 -RA FEW009///
BKN026/// BKN040/// ///CB 26/24 Q1011=

0000013200
946
SACN62 CYBD 101600
METAR CYBD 101600Z 30008KT 15SM FEW036 BKN065 04/01 A2986 RMK SC2SC5
 TR SF   VIS W8 SLP114=

0000009100
947
SAAG41 SAEZ 101600
METAR SAEZ 101600Z 18004KT 100V240 CAVOK 29/20 Q1007=

0000011500
948
SACN62 CYDA 101600
METAR CYDA 101600Z 03002KT 20SM FEW100 M21/M23 A2944 RMK AS2 AUROB
 SLP009=

0000009800
949
SABZ19 SBMQ 101600
METAR SBMQ 101600Z 14002KT 9999 FEW010 BKN080 29/21
Q1012=

0000013100
950
SAIL41 BIIS 101600
METAR
BIIS 101600Z 34015G28KT 9999 SCT050 05/M06 Q0991 RMK ARNARNES 150GR
MAGN
16G27KT=

0000010200
951
SAAT31 TAPA 101600
METAR TAPA 101600Z 09013KT 9999 FEW018 SCT036 27/20 Q1018 NOSIG=

0000031700
952
SAMX34 MMMD 101600
METAR MMCZ 101544Z 11007KT 8SM  SCT015TCU 25/22 A3007 RMK 8/200 SC
AC=
METAR MMMD 101545Z 09008KT 5SM  OVC008 24/22 A3004 
      RMK 8/5// HZY BINOVC=
METAR MMTP 101546Z 00000KT 10SM  SKC 29/23 A2995=
METAR MMUN 101544Z 14009KT 7SM  SCT015 BKN080 28/23 A3007 RMK 8/130=

0000074900
953
SANL33 EHDB 101555
METAR EHAK 101555Z AUTO 24024KT 9999 FEW009/// SCT010/// BKN015///
07/05 Q1007=
METAR EHDV 101555Z AUTO 24016KT 9999 NSC 07/05 Q1009=
METAR EHFD 101555Z AUTO 25024KT 9999 FEW005/// SCT008/// 07/06 Q1008=
METAR EHFZ 101555Z AUTO 24018KT //// // ///////// 07/06 Q1011 RE//=
METAR EHJA 101555Z AUTO 22022KT 9999 NSC 07/05 Q1010=
METAR EHJR 101555Z NIL=
METAR EHKV 101555Z AUTO 25022KT 9999 FEW017/// 08/04 Q1012=
METAR EHMA 101555Z AUTO 24017KT 9999 NSC 07/05 Q1012=
METAR EHMG 101555Z AUTO 24021KT 9999 FEW015/// 08/04 Q1011=
METAR EHPG 101555Z AUTO ///20KT 9999 FEW018/// 09/06 Q1014=
METAR EHQE 101555Z AUTO 23022KT 9999 NSC 08/05 Q////=
METAR EHSA 101555Z NIL=
METAR EHSC 101555Z NIL=

0000011300
954
SAMX55 MMMY 101557
METAR  MMAN 101557Z 32006KT 3SM HZ BKN010 17/14 A2996
RMK 8/500 VRB COND=

0000011900
955
SPUS31 KWBC 101559
SPECI
KEWR 101554Z 02004KT 3SM -FZRASN BR FEW010 BKN015 OVC037 M01/M02
A3048=

00000000