0000046100
156
SMVD17 KWNB 111200 RRF
BBXX
46076 11121 99595 71480 46/// /2608 10028 49885 58012 91150 22200
00062 11103 20502 3//// 41102 70015 333 91209 555 11080 22084
31143 42509 61149 257075 260074 262068 258066 259062 257059 82608
91149=
46077 11121 99579 71543 46/// /2306 10013 49906 58019 91150 22200
00045 11001 20301 3//// 41001 70006 333 91207 555 11057 22060
31146 42407 61149 234054 220044 216044 235024 274015 303027 82406
91146=
0000092400
157
SMBC01 FBSK 111200
AAXX 11124
68026 42660 50610 10333 20166 48516 57014 84982=
68029 41560 50803 10292 20204 39016 48519 57014 70222 82170
      333 31/// 5///1 82830 84357=
68032 41560 30000 10327 20172 39073 48523 57013 70200 83200
      333 30/// 5///1 83830=
68038 41560 51813 10328 20191 39095 48521 57013 71711 8498/
      333 30/// 5///1 83830 81935=
68040 41560 34505 10330 20182 39040 48531 57025 70322 83200
      333 30/// 5///1 83830=
68070 41660 61608 10329 20207 48527 57019 71792 86901=
68148 41560 50506 10330 20199 39005 48524 57018 70322 83901
      333 30/// 5///1 562// 83830 81935=
68151 42660 43608 10339 20134 48517 57007 84900=
68320 42560 13004 10356 20095 38992 48533 56014 81100
      333 37/// 5///1 81830=
68325 42660 52912 10347 20083 48510 57015 85300=
68328 41560 11202 10347 20086 39060 48530 57013 70200 81100
      333 30/// 5///1 81830=
0000025500
158
SMCA02 KWBC 111200
AAXX 11124
78255 12959 00902 10183 20171 30048 40197 52010 60004 333 20175=
78317 NIL=
78318 NIL=
78325 NIL=
78333 NIL=
78338 NIL=
78348 NIL=
78349 NIL=
78353 NIL=
78360 NIL=
78367 NIL=
78369 NIL=
0000063200
159
UKAA01 KWBC 111200
TTBB 6112/ 89009 NIL=
TTBB 61128 89664 00997 00957 11945 06143 22736 19708 33658 24936
44605 30702 55602 27506 66599 26912 77593 26560 88568 27964 99488
34959 11482 35164 22366 47160 33330 50957 44317 52359 55304 51965
66204 42586 77191 44385 88100 41587 21212 00997 01002 11933 19010
22898 18018 33852 20016 44806 18017 55748 21512 66642 22510 77457
24031 88336 24051 99259 23522 11242 25523 22226 23516 33223 24514
44217 26017 55191 22014 66189 22011 77186 26010 88178 24015 99173
26014 11157 22010 22144 26508 33132 22013 44128 21509 55100 21009
31313 48008 81023 41414 /////=
0000013800
160
ULAA01 KWBC 111200
TTCC 6112/ 89009 NIL=
TTCC 61127 89664 70835 39187 20008 50066 ///// 88999 77999 31313
48008 81023=
0000102600
161
SMPA01 KWBC 111200
AAXX 11124
91165 NIL=
91182 NIL=
91190 NIL=
91212 NIL=
91217 NIL=
91285 NIL=
91317 32474 50912 10278 20271 30093 40097 5//// 81203 333 562/9
58003 81818 83080 555 91112=
91334 11474 80106 10275 20254 30088 40091 50008 60031 71682 83371
333 10311 56899 59017 70030 555 91112=
91348 NIL=
91356 32566 40613 10284 20226 30071 40078 5//// 83201 333 10327
562/9 59004 70005 83821 555 91112=
91356 32566 40613 10284 20226 30071 40078 5//// 83201 333 10327
562/9 59004 70005 83821 555 91112;=
91366 NIL=
91369 NIL=
91371 NIL=
91376 32474 50610 10276 20230 30073 40076 50002 83101 333 10309
561/9 59012 70023 555 91112=
91408 11474 80817 10272 20233 30059 40097 51015 69901 70282 81278
333 10289 56299 58013 70196 555 91112=
91413 32469 60607 10272 20237 30090 40115 52015 82272 333 10303
56199 58017 70005 555 91112=
91425 NIL=
91434 NIL=
91765 11466 80112 10278 20241 30059 40063 56010 69931 78082 8582/
333 10294 56899 58007 70135 555 91112=
0000013600
162
SMPA20 KWBC 111200
AAXX 11124
91222 NIL=
91245 NIL=
91323 NIL=
91339 NIL=
91343 NIL=
91353 NIL=
91442 NIL=
0000016200
163
UEAA01 KWBC 111200
TTDD 6112/ 89009 NIL=
TTDD 6112/ 89664 11539 38587 21212 11834 27006 22783 24010 33756
20008 44540 19002 31313 48008 81023=
0000025200
164
SMVC10 EHDB 111200
BBXX
PGQI 11123 99002 50833 41498 51813 10248 20214 40102 53010 70211
85200 22200 20702 317// 41103 80224=
DDSD2 11124 99318 50719 41297 82015 10160 20135 40115 52015 70222
86770 22244 00153 20404 319// 40606=
0000019900
165
FTSN31 ESWI 101100 AAD
TAF AMD ESKN 101601Z 1016/1112 33012KT 9999 BKN010 TEMPO 1018/1104
BKN015 BECMG 1019/1021 VRB02KT BECMG 1104/1107 4000 -SN TEMPO
1107/1112 2000 SN VV006=

0000013000
166
SACN61 CYGV 101600
METAR CYGV 101600Z AUTO 28011G18KT 9SM -SN SCT023 SCT032 OVC065
 M11/M14 A3010 RMK SLP196=

0000011200
167
SACN62 CYGP 101600
METAR CYGP 101600Z 27013G19KT 15SM BKN035 M10/M19 A3019 RMK SC6
 SLP227=

0000010600
168
SACN62 CYCY 101600
METAR CYCY 101600Z 28003KT 15SM BKN160 M27/M31 A2904 RMK AS6 SLP838=

0000008300
169
SAAG41 SAME 101600
METAR SAME 101600Z 09010KT CAVOK 27/05 Q1012=

0000011900
170
SACN62 CYGK 101600
METAR CYGK 101600Z 17012KT 1 1/2SM -SN BR OVC003 M01/M02 A3029 RMK
 SF8 SLP261=

0000011500
171
SACN62 CYDC 101600
METAR CYDC 101600Z 05006KT 15SM -FZRA OVC050 M01/M02 A2974 RMK SC8
 SLP096=

0000009500
172
SAHK31 VHHH 101600
METAR VHHH 101600Z 11017KT 9000 FEW040 17/11 Q1024 NOSIG=

0000012700
173
SACN62 CYGL 101600
METAR CYGL 101600Z 22014G20KT 2SM -SN OVC030 M07/M08 A2967 RMK SC8
 VIS VRB 1-3 SLP063=

0000012500
174
SACN62 CYGR 101600
METAR CYGR 101600Z 25021KT 20SM FEW030 FEW160 M07/M11 A3031 RMK
 SC1AC2 SC TR SLP265=

0000009400
175
SAAG41 SASA 101600
METAR SASA 101600Z  18002KT 9999  FEW020  30/18
Q1012=

00000000