0000071300
476
SAFR37 LFPW 101600
METAR LFAQ 101600Z AUTO 18008KT 8000 OVC008 05/05 Q1017=
METAR LFAT 101600Z AUTO 18005KT 9999 NSC 07/04 Q1017=
METAR LFBU 101600Z AUTO 04006KT 9999 NSC 11/08 Q1015=
METAR LFLN 101600Z AUTO 05004KT 9999 NSC 10/06 Q1017=
METAR LFPM 101600Z AUTO 00000KT 9999 OVC007 06/04 Q1018=
METAR LFPT 101600Z AUTO 17004KT 9999 OVC012 07/04 Q1018=
METAR LFRH 101600Z AUTO 13006KT 4600 -RA BR OVC005/// ///TCU 09/08
Q1015=
METAR LFRQ 101600Z AUTO 15004KT 120V180 9999 BKN004 OVC100 09/08
Q1015=
METAR LFRT 101600Z AUTO 18005KT 140V200 9999 NSC 07/05 Q1015=
METAR LFSD 101600Z AUTO 09001KT 9999 NSC 09/03 Q1018=
METAR LFTW 101600Z AUTO VRB03KT 9999 OVC021 11/04 Q1018=

0000042400
477
SAKO31 RKSI 101600
METAR RKSI 101600Z 24006KT 270V360 9999 -SN BKN040 M02/M05 Q1031
          NOSIG=
METAR RKSS 101600Z 07002KT 6000 FEW040 M05/M09 Q1031 NOSIG =
METAR RKPC 101600Z 33008KT 9999 BKN030 06/M03 Q1031 NOSIG =
METAR RKPK NIL= 
METAR RKTU NIL= 
METAR RKTN NIL= 
METAR RKJB 101600Z AUTO 11003KT 1900 ///048 M02/M03 Q1032 =
METAR RKNY 101600Z AUTO 26011KT 3000 NCD M02/M12 Q1028 =

0000012700
478
SACN61 CYZY 101600
METAR CYZY 101600Z AUTO 14003KT 5SM -SN FEW140 BKN160 M12/M13 A2953
 RMK PRESRR SLP042=

0000014700
479
SAAF17 LFPW 101600
METAR HLLB 101557Z
00000KT 9999 SCT020 BKN080 16/07 Q1024 =
METAR HLLT 101550Z 00000KT CAVOK 19/05 Q1022=

0000023100
480
SAAF18 LFPW 101600
METAR FIMP 101600Z 10004KT 9999 VCSH SCT016 BKN250 27/24 Q1016=
METAR FIMR 101600Z 10010KT 9999 BKN018 27/24 Q1016=
METAR FMMI 101600Z 30004KT 9999 VCTS FEW020CB BKN230 21/20 Q1021
NOSIG=

0000011200
481
SAAF27 LFPW 101600
METAR FGSL 101600Z 24005KT 210V280 8000 FEW013 SCT130 29/24 Q1009
NOSIG=

0000058900
482
SASP31 LEMM 101600
METAR LEMD 101600Z 34004KT CAVOK 14/04 Q1014 NOSIG=
METAR LEBL 101600Z 10002KT 9999 FEW010 SCT023 12/07 Q1018 NOSIG=
METAR LEPA 101600Z 00000KT CAVOK 16/12 Q1017 NOSIG=
METAR LEZL 101600Z 02002KT CAVOK 14/08 Q1012 NOSIG=
METAR LEMG 101600Z 00000KT 9999 BKN025 14/11 Q1015 NOSIG=
METAR LEVC 101600Z VRB02KT 7000 OVC015 12/08 Q1017 NOSIG=
METAR LEAL 101600Z 06010KT 9999 FEW015 15/11 Q1016 NOSIG=
METAR LEIB 101600Z 04004KT 9999 FEW030 13/11 Q1016 NOSIG=
METAR LEVX 101600Z VRB06G18KT 4000 BR FEW010 FEW015TCU OVC035
11/10 Q1015 NOSIG=

0000074800
483
SASP32 LEMM 101600
METAR LEAS 101600Z 30010KT 9000 FEW015 BKN030 11/10 Q1015 NOSIG=
METAR LEBB 101600Z 00000KT CAVOK 13/10 Q1013 NOSIG=
METAR LECO 101600Z 34003KT 290V030 9999 SCT019 BKN026 12/08 Q1016=
METAR LEGE 101600Z 18005KT 7000 SCT019 10/07 Q1018=
METAR LEST 101600Z 01003KT 340V040 9999 SCT010 SCT030 10/09 Q1015
NOSIG=
METAR LEZG 101600Z 11007KT 070V160 5000 BR OVC002 06/05 Q1017=
METAR LESO 101600Z VRB02KT CAVOK 12/10 Q1013=
METAR LEVT 101600Z 22010KT CAVOK 10/06 Q1014=
METAR LERS 101600Z VRB01KT 9000 SCT021 12/07 Q1018=
METAR LEMH 101600Z 13003KT 040V160 9999 FEW013 14/11 Q1018=
METAR LEAM 101600Z 07012KT 9999 FEW020 SCT100 16/10 Q1014=
METAR LEGR 101600Z VRB01KT 9999 FEW100 15/05 Q1013=

0000040300
484
SACR31 LEMM 101600
METAR GCLP 101600Z 01016KT 340V040 9999 FEW032 21/10 Q1012 NOSIG=
METAR GCXO 101600Z 32014KT 290V350 9999 FEW012 15/10 Q1013 NOSIG=
METAR GCTS 101600Z 19003KT 150V240 9999 FEW040 21/10 Q1012 NOSIG=
METAR GCRR 101600Z 08013KT 9999 FEW025 18/14 Q1011=
METAR GCFV 101600Z 04009KT 9999 FEW020 18/12 Q1011=
METAR GCLA 101600Z 02014KT 340V050 CAVOK 22/08 Q1012=

0000008900
485
SASP39 LEMM 101600
METAR LETL 101600Z AUTO 14007KT CAVOK 12/M00 Q1016=

0000017900
486
SASP33 LEMM 101600
METAR LEVD 101600Z VRB02KT CAVOK 11/05 Q1014=
METAR LEVS 101600Z 00000KT CAVOK 15/00 Q1014=
METAR LESA 101600Z VRB01KT CAVOK 14/05 Q1014=

0000030600
487
SASP34 LEMM 101600
METAR COR LEDA 101600Z 05004KT 5000 BR FEW006 08/07 Q1017 NOSIG=
METAR LEJR 101600Z 36004KT CAVOK 15/12 Q1012=
METAR LELL 101600Z VRB01KT 8000 FEW020 11/07 Q1018=
METAR LEPP 101600Z 00000KT CAVOK 10/06 Q1016=
METAR LEXJ 101600Z VRB01KT 9999 FEW018 12/10 Q1014=

0000029000
488
FCNT31 KWBC 101609
TAF
TAF BGGH 101600Z 1016/1101 16016KT 8000 -SN SCT020 BKN040
     TEMPO 1016/1019 16018G28KT 0800 SHSN BLSN DRSN VV006
     TEMPO 1020/1101 0800 SHSN DRSN VV006=
TAF BGJN 101600Z 1016/1021 10020KT 9999 SCT150
     TEMPO 1016/1021 12022G32KT=

0000027600
489
FTUS72 KWBC 101609 AAA
TAF AMD
KCNM 101606Z 1016/1112 28011KT P6SM SKC
     FM102000 27020G26KT P6SM SKC
     FM110100 26011KT P6SM SKC=
KINK 101608Z 1016/1112 26014G22KT P6SM SKC
     FM101800 28020G28KT P6SM SKC
     FM110000 28008KT P6SM SKC=

0000017200
490
FTNT31 KWBC 101609
TAF
TAF GVAC 101600Z 1018/1124 05012KT 9999 SCT015 PROB30
      TEMPO 1018/1024 -DZ BKN015 BKN090
      BECMG 1100/1102 02008KT=

0000049300
491
FTUS31 KWBC 101609 AAA
TAF AMD
KCHS 101608Z 1016/1112 13012KT P6SM VCSH BKN025 BKN040
     FM101900 14010KT 5SM -SHRA BR BKN025 BKN050
     FM110200 17006KT P6SM BKN025
     FM110800 19008KT 6SM BR OVC015=
KORD 101605Z 1016/1118 16008KT 1SM BR OVC003
     FM101800 15010KT 1SM -DZ BR OVC003
      TEMPO 1018/1021 3/4SM -DZ BR OVC002
     FM102100 16012KT 1SM RA BR OVC005
     FM110300 20012KT 2SM -DZ BR VCSH OVC005
     FM111100 24012G18KT P6SM OVC012=

0000031000
492
FTUS43 KWBC 101609 AAA
TAF AMD
KMDW 101605Z 1016/1112 16008KT 1SM BR OVC003
     FM101800 15010KT 1SM -DZ BR OVC003
      TEMPO 1018/1021 3/4SM -DZ BR OVC002
     FM102100 16012KT 1SM RA BR OVC005
     FM110300 20012KT 2SM -DZ BR VCSH OVC005
     FM111100 24012G18KT P6SM OVC012=

0000046800
493
FTUS71 KWBC 101609 AAA
TAF AMD
KCHS 101608Z 1016/1112 13012KT P6SM VCSH BKN025 BKN040
     FM101900 14010KT 5SM -SHRA BR BKN025 BKN050
     FM110200 17006KT P6SM BKN025
     FM110800 19008KT 6SM BR OVC015=
KPOU 101606Z 1016/1112 18007KT 6SM -SN BR BKN025 OVC050
      TEMPO 1016/1018 1SM -SN OVC015
     FM101800 VRB03KT P6SM SCT025 OVC050
     FM110300 00000KT 4SM -RA BR OVC025
     FM110700 00000KT 1 1/2SM -RA BR SCT006 OVC012=

0000112700
494
FTUS73 KWBC 101609 AAA
TAF AMD
KGYY 101605Z 1016/1112 16008KT 1SM BR OVC002
     FM102100 15013KT 1SM RA BR OVC005
     FM110400 19012KT 2SM -DZ BR VCSH OVC005=
KJLN 101605Z 1016/1112 17012G22KT 2SM -TSRA BR OVC005CB
     FM101800 19012G22KT 3SM -SHRA BR VCTS OVC006CB
     FM102200 24011KT P6SM BKN008
     FM110300 24010KT P6SM BKN250=
KMDW 101605Z 1016/1112 16008KT 1SM BR OVC003
     FM101800 15010KT 1SM -DZ BR OVC003
      TEMPO 1018/1021 3/4SM -DZ BR OVC002
     FM102100 16012KT 1SM RA BR OVC005
     FM110300 20012KT 2SM -DZ BR VCSH OVC005
     FM111100 24012G18KT P6SM OVC012=
KORD 101605Z 1016/1118 16008KT 1SM BR OVC003
     FM101800 15010KT 1SM -DZ BR OVC003
      TEMPO 1018/1021 3/4SM -DZ BR OVC002
     FM102100 16012KT 1SM RA BR OVC005
     FM110300 20012KT 2SM -DZ BR VCSH OVC005
     FM111100 24012G18KT P6SM OVC012=
KRFD 101605Z 1016/1112 16010KT 1/2SM -FZDZ FZFG VV001
     FM101900 17010KT 1/2SM -DZRA FZFG VV002
     FM102200 16011KT 1 1/2SM RA BR OVC005
     FM110200 20012KT 2SM -DZ BR VCSH OVC005
     FM110900 24012G18KT P6SM OVC012=

0000010400
495
SPCN51 CWAO 101603
SPECI CWUW 101603Z AUTO 13015KT 2 3/4SM FEW087 M28/ A2889 RMK ICG=

00000000