0000031000
856
USCN05 CWAO 111200
TTAA  61121 71934 99977 28533 00000 00034 ///// ///// 92600
23136 32002 85228 17956 34510 70683 19940 27018 50510 35762
26530 40662 42175 27069 30855 50348 28140 25972 57945 28157
20110 66950 28107 15288 60774 28583 10538 64375 28582 88200
66950 28107 77266 27664=

0000029200
857
UGCN05 CWAO 111200
PPBB  61128 71934 90012 00000 35501 31502 90346 33009 34510
28509 90789 28511 28013 27018 91024 26521 28029 26530 91689
27535 27538 27034 92014 27038 26550 29088 9256/ 28608 28623
93014 27659 27664 28640 9358/ 29126 28582 940// 28578 950//
28582=

0000011400
858
SMJD50 OJAM 111200
AAXX 11124
40250 32660 40111 10088 20041 39413 40227 57007 84800 82830 82635=
0000023700
859
UDEU02 EGRR 111216
AMDAR 1111
LVR EU0037   3041N 01432W 111156 F350 MS542 290/052 TB/ S031=
LVR EU0037   2951N 01450W 111203 F350 MS540 298/058 TB/ S031=
LVR EU0037   2900N 01509W 111210 F291 MS417 275/027 TB/ S031=
0000058700
860
SMNV01 NVVV 111200
AAXX 11123

91551 11598 41406 10285 20264 40067 54000 69921 70282 84200

333  10310 563// 59015 69921 84820=

91553 NIL=

91554 31498 40913 10270 20243 40073 58001 70222 84200

333  10320 563// 59008 84825=

91555 31598 19903 10262 20230 40082 51002 70128 81100

333  10329 569// 58011 81822=

91557 31598 20000 10220 20206 40092 51001 70222 82800

333  10300 569// 59012 82825=

91565 31598 10000 10220 20205 40096 51001 70111 81200

333  10295 563// 59016 81822=

91568 31598 61006 10253 20198 40102 58002 70322 86800

333  10297 563// 59022 86825=


0000038400
861
UKCN03 CWAO 111200
TTBB  61128 71119 00905 08120 11903 04521 22898 03534 33894
02544 44858 03157 55838 04337 66829 04156 77805 05759 88761
09359 99725 12950 11715 12127 22589 16514 33561 18121 44508
18921 55403 30121 66286 50746 77198 68950 88191 64356 99176
61962 11161 63567 22142 60571 33126 63372 44117 61173 55105
62974 66100 59975 31313 48008 81116=

0000027800
862
UGCN03 CWAO 111200
PPBB  61128 71119 90034 08506 16024 17545 90678 17025 16525
17521 909// 19018 91123 25026 26038 26538 91467 24540 27551
28059 92045 27077 26600 26595 93058 27100 27108 27612 94125
29051 26551 27585 9479/ 27569 28084 9502/ 28574 28569=

0000031000
863
USCN03 CWAO 111200
TTAA  61121 71119 99905 08120 08506 00544 ///// ///// 92594
///// ///// 85264 03556 18542 70770 12724 19018 50530 19521
28066 40693 30720 26592 30890 47950 27099 25008 57348 27108
20145 68749 27105 15322 62369 26569 10573 59775 28569 88198
68950 27105 77193 27612=

0000047500
864
SMVS02 VNNN 111200
AAXX 11121
48802 12091 80000 10073 20072 38428 48512 53012 69924 888// 333 00011 10131 58016 70002 86890 88696=
48803 32497 81402 10172 20136 30100 40216 52021 888// 333 00017 10182 58013 70000 84894 88696=
48810 01497 80000 10160 20153 39995 40205 53016 60024 70262 888// 333 01017 10164 58004 69962 70015 84894 88696=
48831 01497 83201 10168 20156 30166 40204 53015 69944 70252 888// 333 01017 10170 58006 69942 70004 82894 88697=
0000022700
865
FTAG41 SAEZ 101700
TAF SAEZ 101700Z 1018/1118 25005KT 9999 SCT040 TX31/1019Z TN17/1109Z
PROB30 TEMPO 1019/1101 8000 SHRA SCT020 FEW045CB SCT060 BECMG
1101/1104 18015KT 9999 SCT040 BECMG 1116/1118 14010KT=

0000012400
866
SABZ24 SBPA 101700
METAR SBPA 101700Z 20013G24KT 9999 FEW027 SCT047
FEW048TCU BKN100 29/
22
 Q1009=

0000046500
867
SAFI32 EFHK 101650
METAR EFHA 101650Z AUTO 36010KT 9999 -SN OVC009 
M04/M05 Q0991=
EFHF 101650Z 35010KT 310V060 9999 BKN010 BKN013 01/M01 Q0987=
METAR EFKA 101650Z AUTO 02011KT 9999 -SG OVC011 
M06/M08 Q0997=
EFKK 101650Z 03011KT 9999 -SHSN BKN018 BKN025 M08/M10 Q0999=
METAR EFMA 101654Z NIL=
METAR EFPO 101650Z AUTO 36008KT 9999 OVC009/// M02/M04 Q0994 
R12/29//95=
EFSI 101650Z AUTO 36008KT 330V040 9999 OVC008 M06/M07 Q0995=

0000010100
868
SAFI32 EFHK 101650 RRA
EFMA 101650Z 34011KT 310V020 4500 -RASN OVC005 00/00 Q0994=

0000009600
869
SAQB31 LQSM 101700
METAR LQTZ 101700Z 08006KT 8000 FEW035 BKN055 07/07 Q1021=

0000043900
870
SABX31 EBBR 101650
METAR EBAW 101650Z 22009KT 200V260 9999 BKN009 06/04 Q1017 TEMPO
     BKN008=
METAR EBBR 101650Z 22010KT 9999 BKN013 06/03 Q1017 TEMPO BKN008=
METAR EBCI 101650Z 21009KT 9999 BKN009 05/03 Q1018 NOSIG=
METAR EBLG 101650Z 21009KT 9999 FEW018 05/02 Q1017 NOSIG=
METAR EBOS 101650Z 20010KT 9999 FEW011 SCT040 06/04 Q1016 NOSIG=
METAR ELLX 101650Z 23004KT 190V260 9999 BKN020 05/03 Q1018 NOSIG=

0000010000
871
SAOS32 LOWM 101650
METAR LOXZ 101650Z VRB01KT 30KM FEW050SC 01/M00 Q1018 RMK SCT=

0000052500
872
SAOS31 LOWM 101650
METAR LOWW 101650Z 27013KT 9999 FEW040 07/01 Q1019 NOSIG=
METAR LOWL 101650Z 26006KT 9999 FEW032 BKN050 05/00 Q1020 NOSIG=
METAR LOWS 101650Z 14004KT 9999 FEW025 BKN035 05/03 Q1020 NOSIG=
METAR LOWI 101650Z VRB01KT 9999 -DZ FEW007 SCT050 BKN080 04/03 Q1020
R08/19//74 NOSIG=
METAR LOWG 101650Z VRB01KT 9999 0800SE R17/P1500N R35/0900D BCFG
FEW060 02/01 Q1019 R17/29//95 BECMG 0500 BCFG=
METAR LOWK 101650Z VRB01KT 0600 R10/0450N R28/0700N FG VV002 03/03
Q1020 TEMPO 0500=

0000038700
873
SANO35 ENMI 101650
METAR ENMS 101650Z VRB09KT 9999 FEW060 M08/M17 Q1006 RMK WIND 412FT
           VRB08KT=
METAR ENRM 101650Z 08011KT 9999 FEW030 BKN100 M06/M14 Q1004=
METAR ENRS 101650Z 06027KT 9999 BKN048 M03/M11 Q1009=
METAR ENSK 101650Z NIL=
METAR ENSO 101650Z NIL=
METAR ENST 101650Z NIL=
METAR ENVD 101650Z 31006KT 9999 FEW010 BKN030 M10/M12 Q1015=

0000026200
874
SAEO32 EETN 101650
METAR EEKA 101650Z 35022KT 9999 OVC013 03/02 Q0988=
METAR EEKE 101650Z 34011KT 300V010 8000 -RADZ BKN009 OVC016 03/03 
Q0989 R17/290195=
METAR EETU 101650Z 27006KT 5000 -RA OVC005 04/03 Q0981=
METAR EEPU 101650Z NIL=

0000067400
875
FTBU31 LBSM 101700
TAF LBSF 101635Z 1018/1118 VRB02MPS 1200 BR NSC TEMPO 1018/1022 3000
BR NSC TEMPO 1022/1108 0600 FZFG SCT003 BKN005 PROB40 1100/1108 0200
FZFG BKN002 BECMG 1109/1111 5000 BR NSC=
TAF LBWN 101633Z 1018/1118 30007G12MPS CAVOK BECMG 1102/1104
27003MPS 5000 BR SCT033 BECMG 1107/1109 CAVOK=
TAF LBBG 101641Z 1018/1118 29006MPS 8000 SCT045 BECMG 1022/1102 3000
BR BECMG 1109/1111 12005MPS=
TAF LBPD 101638Z 1018/1118 VRB02MPS 0100 FZFG VV000 TEMPO 1100/1106
0400 FZFG VV002 BECMG 1106/1109 27004MPS 3000 BR NSC BECMG 1110/1112
6000 NSC=
TAF LBGO 101632Z 1018/1118 VRB02MPS 0100 FG BKN002 TEMPO 1107/1109
1500 BR SCT010=

00000000