0000064900
496
FTAG41 SAVC 101700
TAF SAVC 101700Z 1018/1118 14012KT 9999 SCT030 SCT090
TX19/1019Z TN14/1111Z PROB40 TEMPO 1018/1021 -SHRA FEW035TCU BECMG
1022/1100 VRB03KT BECMG 1112/1114 32012KT CAVOK=
TAF SAWG 101700Z 1018/1118 25020KT 9999 SCT030 SCT090
TX15/1018Z TN10/1111Z PROB40 TEMPO 1018/1112 29020G30KT RA BKN025
BKN045=
TAF SAWE 101700Z 1018/1118 25015KT 9999 SCT015 SCT090
TX13/1018Z TN07/1111Z PROB40 TEMPO 1106/1110 32020KT -RA BKN010
OVC040 BECMG 1112/1114 27025G35KT BKN012=
TAF SAWH 101700Z 1018/1118 23020G30KT 9999 -RA BKN025 BKN045
TX10/1018Z TN06/1111Z BECMG 1021/1023 VRB03KT BECMG 1106/1108
32018KT=

0000009700
497
SPUS31 KWBC 101645
SPECI
KCVG 101641Z 16008KT 1 1/2SM BR OVC003 07/06 A3015=

0000009500
498
SAAB31 LATI 101650
METAR LATI 101650Z 36004KT 9999 BKN050 13/09 Q1021 NOSIG=

0000023200
499
FTID32 WIOO 101650
TAF WIOO 101700Z 1018/1118 00000KT 7000 SCT011 
BECMG 1100/1102 05005KT 9999
TEMPO 1107/1109 30010KT 5000 -RA FEW010CB BKN010
BECMG 1110/1112 30005KT NSW BKN011
BECMG 1013/1015 00000KT =

0000007700
500
FCDL34 EDZO 101400 AAA
TAF AMD EDAH 101632Z 1016/1019 CNL=

0000007700
501
FCDL35 EDZO 101400 AAA
TAF AMD EDAH 101632Z 1016/1019 CNL=

0000044300
502
FCIL41 BIRK 101630
TAF BIIS 101646Z 1017/1102 14012KT 9999 FEW022 BKN035=
TAF BIBD 101646Z NIL=
TAF BIKR 101646Z NIL=
TAF BIHU 101646Z 1017/1102 12015KT 9999 FEW030 BKN050=
TAF BIHN 101646Z 1017/1102 08022G32KT 9999 RA SCT010 BKN020 OVC050
         TEMPO 1017/1102 08032G42KT 3000 RA DZ BKN007 OVC012=
TAF BIVM 101646Z 1017/1102 27023G33KT 5000 RASN FEW010 BKN015
         BECMG 1023/1101 9999 SHSNRA BKN010CB=

0000079100
503
FTIL31 BICC 101700
TAF BIKF 101646Z 1018/1118 27025G35KT 5000 SNRA FEW005 BKN009 OVC017
         BECMG 1100/1103 25015G25KT 9999 SHSN BKN025CB
         BECMG 1108/1110 22012KT
         BECMG 1112/1115 9999 NSW BKN025=
TAF BIRK 101646Z 1018/1118 27018G28KT 5000 RASN FEW010 BKN015 BKN045
         BECMG 1108/1110 25012KT 9999 SHSN SCT025CB
         BECMG 1112/1115 VRB02KT 9999 NSW BKN025=
TAF BIAR 101646Z 1018/1118 21012KT 9999 BKN035
         TEMPO 1018/1109 16020G35KT
         PROB40 1018/1112 5000 SHSN BKN015
         BECMG 1111/1113 220008KT 9999 NSW FEW020 SCT030=
TAF BIEG 101646Z 1018/1118 09030G40KT 9999 RA FEW010 BKN018 OVC024
         TEMPO 1115/1109 3000 SNRA BKN008 OVC012
         BECMG 1111/1113 10012KT 7000 SHSN BKN015 OVC030=

0000024500
504
FTMX31 KWBC 101645
TAF
TAF MMMZ 101642Z 1018/1124 25010KT P6SM SKC TX28/1020Z TN14/1111Z
     FM110300 04006KT P6SM SKC
      BECMG 1109/1110 4SM BR HZ
     FM111500 20006KT 6SM HZ SKC
     FM111900 28010KT P6SM SKC=

0000092500
505
FTMX41 KWBC 101645
TAF
TAF MMCL 101642Z 1018/1118 24010KT P6SM BKN250
     FM110300 03006KT P6SM SCT250
     FM111700 28008KT P6SM SKC=
TAF MMCN 101642Z 1018/1118 26015KT P6SM SCT120 SCT250
      BECMG 1102/1103 00000KT
     FM111500 28010KT P6SM SCT230=
TAF MMDO 101642Z 1018/1118 20015G25KT P6SM SCT040 BKN230
      TEMPO 1021/1101 BKN040
     FM110400 00000KT P6SM SCT080 BKN230
     FM111500 23010KT P6SM BKN230=
TAF MMGM 101642Z 1018/1118 20012KT P6SM SKC
      BECMG 1101/1102 00000KT
     FM111500 25010KT P6SM SKC=
TAF MMHO 101642Z 1018/1118 33010KT P6SM SKC
     FM110300 04006KT P6SM SKC
     FM111700 30010KT P6SM SKC=
TAF MMLP 101642Z 1018/1118 34012KT P6SM SCT040 BKN220
     FM110300 30008KT P6SM SCT240
     FM111700 33010KT P6SM SKC=
TAF MMML 101642Z 1018/1118 34012KT P6SM SCT200
     FM110300 04008KT P6SM SCT200
     FM111700 06010KT P6SM SKC=

0000015700
506
FTMX41 KWBC 101645 AAA
TAF AMD
TAF AMD MMCE 101644Z 1017/1106 00000KT 5SM HZ BKN002 OVC100
     FM102000 13010KT 3SM HZ SCT010 BKN020=

0000036000
507
FTMX42 KWBC 101645
TAF
TAF MMSD 101642Z 1018/1118 14015KT P6SM SCT090 BKN250
      BECMG 1102/1103 00000KT
     FM111600 16015KT P6SM BKN230=
TAF MMTJ 101642Z 1018/1124 33008KT P6SM SCT250 TX18/1020Z
      TN07/1113Z
     FM110300 06005KT 6SM HZ SCT250
      TEMPO 1111/1115 4SM BR HZ SCT005
     FM111700 30010KT 6SM HZ SKC=

0000020300
508
FTPA32 KWBC 101645
TAF
TAF NFTF 101642Z 1018/1118 14008KT 9999 FEW008 SCT016
      TEMPO 1018/1024 14015G25KT
      TEMPO 1100/1106 18025G35KT
      TEMPO 1106/1118 18035G45KT=

0000094300
509
FTSA32 KWBC 101645
TAF
TAF SLCB 101620Z 1018/1118 27010KT 9999 FEW027 TX28/1019Z
      TN11/1110Z
      TEMPO 1019/1021 FEW030 FEW033CB
      BECMG 1102/1104 00000KT=
TAF SLLP 101620Z 1018/1118 12012KT 9999 FEW017 FEW020CB SCT070
      TX17/1020Z TN04/1110Z
      TEMPO 1019/1022 14015KT 8000 VCSH
      BECMG 1102/ 1104 4000 VCFG FEW002 SCT012 BKN070
      BECMG 1110/1112 10006KT 9999 NSW SCT010 SCT070=
TAF SLTJ 101620Z 1018/1118 15010KT 9999 NSC TX31/1019Z TN14/1110Z
      BECMG 1102/1104 00000KT=
TAF SLTR 101630Z 1012/1112 34010KT 8000 SHRA SCT017 FEW020CB
      BKN080
      TX31/1019Z TN23/1110Z
      BECMG 1023/1101 00000KT 9999 NSW SCT015 SCT080=
TAF SLVR 101620Z 1018/1118 34015G25KT 9999 BKN020 TX32/1019Z
      TN21/1110Z
      TEMPO 1019/1022 8000 SHRA FEW023TCU
      BECMG 1023/1101 32010KT SCT015
      TEMPO 1108/1111 BKN005
      BECMG 1013/1015 34015KT BKN017=

0000017200
510
FTUS51 KWBC 101645 AAA
TAF AMD
KBVI 101644Z 1017/1112 16007KT 6SM BR OVC005
     FM102100 12010KT P6SM OVC012
     FM110900 18010KT 6SM -RA OVC015=

0000062200
511
FTUS80 KWBC 101645 AAA
TAF AMD
KAGC 101643Z 1017/1112 13007KT P6SM BKN009 OVC020
     FM102100 18008KT P6SM OVC015
     FM110900 18010KT 6SM -RA OVC015=
KBVI 101644Z 1017/1112 16007KT 6SM BR OVC005
     FM102100 12010KT P6SM OVC012
     FM110900 18010KT 6SM -RA OVC015=
KPIT 101642Z 1017/1118 13007KT 6SM BR BKN006 OVC015
     FM102100 18008KT P6SM OVC015
     FM110900 18010KT 6SM -RA OVC015=
PAEN 101643Z 1017/1112 VRB03KT 2SM BR BKN006 OVC015
      TEMPO 1017/1021 1/2SM FZFG BKN002
     FM102200 02004KT 6SM BR SCT008 BKN025
     FM110900 36003KT 6SM BR VCFG SCT008 OVC035=

0000011300
512
SPUS41 KWBC 101645
SPECI
KDOV 101643Z AUTO 11005KT 2 1/2SM -RA BR BKN022 BKN039 02/02 A3040=

0000012500
513
SPUS42 KWBC 101645
SPECI
KSSI 101641Z AUTO 13009G17KT 1 1/2SM -RA BR BKN008 BKN013 OVC024
17/17 A3020=

0000009800
514
SPUS43 KWBC 101645
SPECI
KLEX 101641Z 14009KT 10SM FEW008 OVC025 09/07 A3018=

0000010300
515
SPUS43 KWBC 101645
SPECI
KSGF 101641Z 15016KT 2SM RA BR SCT003 OVC010 05/04 A2977=

00000000