0000027600
836
FTCA31 KWBC 101654
TAF
TAF MKJP 101645Z 1018/1118 13015KT 9999 FEW024
      BECMG 1102/1104 34005KT
      BECMG 1115/1117 14020KT=
TAF MKJS 101645Z 1018/1118 07015KT 9999 SCT022
      BECMG 1101/1103 13005KT FEW024
      BECMG 1114/1116 07012KT=

0000110200
837
FTMX31 KWBC 101654
TAF
TAF MMCZ 101651Z 1018/1124 13015KT P6SM SCT015 TX26/1018Z
      TN20/1110Z
      TEMPO 1020/1024 BKN015
     FM110300 15010KT P6SM SCT015
     FM111700 12010KT P6SM SCT015
      TEMPO 1120/1124 3SM TSRA BKN015CB=
TAF MMMD 101651Z 1018/1124 11012KT 6SM HZ BKN018 BKN070 TX28/1018Z
      TN22/1110Z
      TEMPO 1020/1024 SCT020 BKN080
     FM110300 13006KT 6SM HZ SCT015
      BECMG 1109/1110 3SM BR BKN006
      TEMPO 1110/1114 1/2SM FG VV004
     FM111500 14008KT 4SM HZ BKN012
     FM111700 15010KT P6SM BKN020
      BECMG 1118/1119 35012KT
      TEMPO 1120/1124 4SM RA BKN020 CB=
TAF MMTP 101651Z 1018/1124 22010KT P6SM SCT025 TX32/1018Z
      TN24/1112Z
     FM110300 01005KT P6SM SKC
     FM111500 25008KT P6SM SKC
      BECMG 1117/1118 SCT025=
TAF MMUN 101651Z 1018/1124 13012KT P6SM SCT015 SCT080 TX28/1018Z
      TN22/1112Z
      TEMPO 1020/1024 BKN015 BKN080
     FM110300 14010KT P6SM SCT015
     FM111600 13010KT P6SM SCT015
      BECMG 1118/1119 BKN015
      TEMPO 1120/1124 2SM TSRA BKN010CB=

0000113400
838
FTSA32 KWBC 101654
TAF
SUAA 101655Z 1018/1118 20008KT 9999 FEW023 SCT200 TX23/1118Z
      TN18/1109Z PROB30
      TEMPO 1018/1100 23015G25KT 5000 TSRA BKN017 FEW040CB OVC060
      BECMG 1021/1023 14008KT
      BECMG 1106/1108 17020KT=
SUCA 101655Z 1018/1118 30005KT 9999 FEW026 TX24/1118Z TN20/1109Z
      PROB30
      TEMPO 1018/1100 23015G25KT 5000 TSRA BKN017 FEW040CB OVC060
      BECMG 1100/1102 VRB02KT
      BECMG 1106/1108 18015KT=
SULS 101655Z 1018/1118 20008KT 9999 FEW023 SCT070 TX22/1118Z
      TN18/1109Z PROB30
      TEMPO 1018/1100 23015G25KT 5000 TSRA SCT017 FEW040CB OVC060
      BECMG 1022/1000 12008KT
      BECMG 1106/1108 18020KT=
TAF SUMU 101655Z 1018/1118 20008KT 9999 FEW023 TX23/1118Z
      TN18/1109Z PROB30
      TEMPO 1018/1100 23015G25KT 5000 TSRA BKN017 FEW040CB OVC060
      BECMG 1021/1023 14008KT
      BECMG 1106/1108 17020KT=
SUMU 101655Z 1018/1118 20008KT 9999 FEW023 TX23/1118Z TN18/1109Z
      PROB30
      TEMPO 1018/1100 23015G25KT 5000 TSRA BKN017 FEW040CB OVC060
      BECMG 1021/1023 14008KT
      BECMG 1106/1108 17020KT=

0000030400
839
FTUS51 KWBC 101654 AAA
TAF AMD
KDUJ 101651Z 1017/1112 15005KT P6SM OVC007
     FM110600 16012G18KT 4SM -RA OVC010=
KJST 101652Z 1017/1112 19005KT 1/4SM FG VV002
     FM102300 17006KT 1 1/2SM -SHRA BR BKN007 OVC015
     FM110500 17010KT 4SM -RA BR BKN007 OVC015 WS019/21040KT=

0000041000
840
FTUS80 KWBC 101654 AAA
TAF AMD
KDUJ 101651Z 1017/1112 15005KT P6SM OVC007
     FM110600 16012G18KT 4SM -RA OVC010=
KEYW 101652Z 1017/1112 11010KT P6SM SCT020 BKN150=
KJST 101652Z 1017/1112 19005KT 1/4SM FG VV002
     FM102300 17006KT 1 1/2SM -SHRA BR BKN007 OVC015
     FM110500 17010KT 4SM -RA BR BKN007 OVC015 WS019/21040KT=
KMTH 101652Z 1017/1112 11008KT P6SM SCT020 BKN150=

0000025300
841
FTHV31 DFFD 101700
TAF DFFD 101700Z 1018/1124 08010KT 8000 NSC TEMPO 1017/1021 4500 HZ
TEMPO 1106/1109 3500 HZ TEMPO 1117/1121 4500 HZ=
TAF DFOO 101700Z 1018/1118 10008KT 8000 NSC TEMPO 1017/1021 4500 HZ
TEMPO 1106/1109 4000 HZ=

0000137900
842
SPUS70 KWBC 101654
SPECI
KCEC 101650Z AUTO 15009KT 3/4SM BR OVC002 09/09 A3027 RMK AO2=
KCPS 101651Z VRB05KT 2SM RA BR OVC006 03/02 A2992 RMK AO2 RAB28
     P0005=
KELM 101650Z 00000KT 7SM OVC070 01/M03 A3028 RMK AO2=
KENW 101650Z 16010KT 2SM BR OVC005 00/M02 A2995 RMK AO2 CIG
     004V009 PRESFR=
KGED 101650Z AUTO 04006KT 1 1/4SM -RA BR SCT003 OVC022 03/02 A3041
     RMK AO2 P0010=
KLWV 101650Z AUTO 16010KT 2 1/2SM BR BKN027 OVC033 04/03 A3005 RMK
     AO2=
KPOU 101650Z 24003KT 3SM HZ BKN018 OVC029 M02/M04 A3043 RMK AO2
     SNE50 P0001=
PACV 101650Z 08005KT 2SM -SN BR FEW005 BKN018 OVC041 M01/M01 A2936
     RMK AO2 SNB10 P0001 $=
KAMG 101651Z AUTO 15006G14KT 10SM OVC005 19/17 A3017 RMK AO2=
KUZA 101651Z AUTO 04006KT 2 1/2SM -RA BR OVC003 05/04 A3028 RMK
     AO2 P0003=
KIGX 101651Z AUTO 04005KT 4SM BR BKN004 OVC032 05/04 A3033 RMK AO2
     RAE11B14E38 P0002=
KMFI 101651Z AUTO 18009KT 1SM BR OVC002 M03/M05 A2984 RMK AO2=
KSMF 101651Z 00000KT 3/4SM R16R/P6000FT BR SCT001 BKN250 03/03
     A3030 RMK AO2=
KCMI 101651Z 13009KT 2 1/2SM -RA BR BKN009 OVC016 02/01 A2998 RMK
     AO2 RAB49 CIG 007V011 P0000=
KHFD 101651Z 00000KT 1 1/2SM -SN BR BKN011 OVC022 M02/M04 A3044
     RMK AO2 SNB28 P0000=
KWST 101651Z AUTO 36004KT 4SM UP BR BKN027 OVC032 M01/M02 A3044
     RMK AO2 UPB21E31B39 P0000=

0000010500
843
SAAK32 KWBC 101600 RRC
METAR
PADL 101645Z 02005KT 1/2SM -SN FG OVC003 M03/M03 A2948=

0000071600
844
FTAG41 SARE 101700
TAF SARE 101700Z 1018/1118 02010KT 9999 SCT030TCU TX37/1019Z
TN23/1109Z BECMG 1101/1103 18015G35KT 6000 TSRA SCT018 BKN035
FEW040CB=
TAF SARF 101700Z 1018/1118 02015KT 9999 SCT035TCU TX38/1019Z
TN24/1109Z BECMG 1104/1107 18015G35KT 5000 TSRA SCT018 BKN035
FEW040CB=
TAF SARP 101700Z 1018/1118 36010KT 9999 SCT035TCU TX36/1019Z
TN24/1109Z PROB40 TEMPO 1019/1102 6000 TSRA SCT030TCU FEW040CB
BKN060 BECMG 1104/1107 18015G35KT 5000 TSRA BKN018 BKN030 FEW040CB=
TAF SARI 101700Z 1018/1118 02010KT 9999 SCT030TCU SCT100 TX34/1018Z
TN22/1109Z PROB40 TEMPO 1019/1100 6000 TSRA SCT030TCU FEW040CB
BKN060 BECMG 1112/1115 18015G35KT 5000 TSRA BKN020 BKN035 FEW040CB=

0000167500
845
KSAA31 KWBC 111214 RRA
CREX++
T000119 A001 D01021 D06021++
2664770 -08187120 FMRF1 2014 01 11 11 30 00 07 215 10176 149 0028+
2763870 -08256210 PMAF1 2014 01 11 11 30 00 07 213 10166 /// ////+
2766175 -08259953 MTBF1 2014 01 11 11 30 00 07 193 10170 175 0042+
2776060 -08262690 SAPF1 2014 01 11 11 30 00 07 193 10178 173 0028+
2785778 -08255269 OPTF1 2014 01 11 11 30 00 07 193 10168 157 0031+
2797830 -08283170 CWBF1 2014 01 11 11 30 00 07 216 10165 208 0050+
2913500 -08303170 CKYF1 2014 01 11 11 30 00 07 167 10159 167 0049+
2972670 -08498170 APCF1 2014 01 11 11 30 00 07 142 10137 112 0013+
3015228 -08566694 PACF1 2014 01 11 11 30 00 07 178 10124 173 0074+
3021330 -08587830 PCBF1 2014 01 11 11 30 00 07 166 10120 162 0089+
3040440 -08721120 PCLF1 2014 01 11 11 30 00 07 145 10113 223 0047+
3022830 -08802500 FMOA1 2014 01 11 11 30 00 07 167 10105 206 0123+
3025000 -08807500 DILA1 2014 01 11 11 30 00 07 153 10116 184 0062+
3064830 -08805830 MCGA1 2014 01 11 11 30 00 07 208 10090 220 0050+
3070830 -08804330 OBLA1 2014 01 11 11 30 00 07 203 10097 /// ////+
3021330 -08850000 PTBM6 2014 01 11 11 30 00 07 165 10103 205 0088+
3034330 -08851170 RARM6 2014 01 11 11 30 00 07 157 10101 201 0079+
3035500 -08856670 DKCM6 2014 01 11 11 30 00 07 164 10105 194 0054+
3032639 -08932578 WYCM6 2014 01 11 11 30 00 07 173 10095 220 0055+
2917830 -08925830 PILL1 2014 01 11 11 30 00 07 181 10116 213 0083+
2893220 -08940750 PSTL1 2014 01 11 11 30 00 07 158 10123 206 0084+
2986811 -08967325 SHBL1 2014 01 11 11 30 00 07 178 10106 213 0062+
2926333 -08995667 GISL1 2014 01 11 11 30 00 07 184 10116 213 0052++
7777

0000015800
846
KSAJ30 KWBC 111214 RRA
CREX++
T000119 A001 D01021 D06021++
-1428000 -17069000 NSTP6 2014 01 11 11 30 00 07 277 10063 225 0032++
7777

0000060200
847
KSAG30 KWBC 111214
CREX++
T000119 A001 D01021 D06025++
1343872 14465394 APRP7 2014 01 11 11 24 3013 05 07 00 06
00196 0116 00190 0120 00177 //// 00165 0113 00156 0044 ///// ////+
1342830 14479700 PGBP7 2014 01 11 11 24 //// 00 07 00 06
00140 0103 00148 0116 00135 0108 00138 0115 00132 0113 00134 0119+
0873161 16773622 KWJP8 2014 01 11 11 24 3020 00 07 00 06
00629 0072 00638 0068 00638 0055 00652 0057 00644 0036 00666 0046+
1929000 16661800 WAKP8 2014 01 11 11 24 2986 00 07 00 06
00311 -0038 00313 -0042 00325 -0036 00330 -0036 00336 -0035 00340 -0036++
7777

0000660800
848
KSAA32 KWBC 111214
CREX++
T000119 A001 D01021 D06025++
4470286 -07549444 OBGN6 2014 01 11 11 24 //// 00 07 00 06
00403 //// 00406 //// 00408 //// 00410 //// 00411 //// 00416 ////+
4433111 -07593453 ALXN6 2014 01 11 11 24 //// 00 07 00 06
00404 //// 00401 //// 00403 //// 00408 //// 00413 //// 00414 ////+
4262100 -08252690 AGCM4 2014 01 11 11 24 //// 00 07 00 06
00348 //// 00348 //// 00348 //// 00348 //// 00348 //// 00348 ////+
4281240 -08248581 SCRM4 2014 01 11 11 24 //// 00 07 00 06
00385 //// 00380 //// 00379 //// 00379 //// 00377 //// 00374 ////+
4294530 -08244350 PHXM4 2014 01 11 11 24 //// 00 07 00 06
00276 //// 00271 //// 00263 //// 00257 //// 00248 //// 00243 ////+
4297380 -08242040 MBRM4 2014 01 11 11 24 //// 00 07 00 06
00187 //// 00178 //// 00170 //// 00161 //// 00157 //// 00156 ////+
4300250 -08242240 DUPM4 2014 01 11 11 24 //// 00 07 00 06
00037 //// 00033 //// 00022 //// 00019 //// 00017 //// 00013 ////+
4300690 -08242250 FTGM4 2014 01 11 11 24 //// 00 07 00 06
-00095 //// -00098 //// -00110 //// -00113 //// -00114 //// -00117 ////+
4247322 -08287925 SCSM4 2014 01 11 11 24 //// 00 07 00 06
00179 //// 00179 //// 00180 //// 00180 //// 00181 //// 00181 ////+
4209090 -08318600 GRTM4 2014 01 11 11 24 //// 00 07 00 06
00518 //// 00514 //// 00510 //// 00508 //// 00506 //// 00503 ////+
4220240 -08314750 WDTM4 2014 01 11 11 24 //// 00 07 00 06
00415 //// 00412 //// 00411 //// 00410 //// 00409 //// 00406 ////+
4229894 -08309258 FWNM4 2014 01 11 11 24 //// 00 07 00 06
00404 //// 00403 //// 00404 //// 00402 //// 00401 //// 00401 ////+
4235778 -08292994 WMPM4 2014 01 11 11 24 //// 00 07 00 06
00212 //// 00212 //// 00213 //// 00212 //// 00213 //// 00213 ////+
4413019 -07633197 CAVN6 2014 01 11 11 24 //// 00 07 00 06
00379 //// 00375 //// 00382 //// 00389 //// 00391 //// 00390 ////+
4346417 -07651183 OSGN6 2014 01 11 11 24 //// 00 07 00 06
00360 //// 00405 //// 00405 //// 00361 //// 00393 //// 00434 ////+
4326903 -07762575 RCRN6 2014 01 11 11 24 //// 00 07 00 06
00414 //// 00446 //// 00414 //// 00408 //// 00445 //// 00408 ////+
4333839 -07872733 OCTN6 2014 01 11 11 24 //// 00 07 00 06
00438 //// 00462 //// 00470 //// 00434 //// 00433 //// 00474 ////+
4309992 -07905992 NGAN6 2014 01 11 11 24 //// 00 07 00 06
96990 //// 96954 //// 96954 //// 97015 //// 97093 //// 97169 ////+
4308106 -07906136 AMFN6 2014 01 11 11 24 //// 00 07 00 06
170316 //// 170321 //// 170321 //// 170321 //// 170321 //// 170321 ////+
4307692 -07901389 NIAN6 2014 01 11 11 24 //// 00 07 00 06
171341 //// 171348 //// 171341 //// 171335 //// 171340 //// 171342 ////+
4287744 -07889047 BUFN6 2014 01 11 11 24 //// 00 07 00 06
00480 //// 00477 //// 00468 //// 00469 //// 00477 //// 00489 ////+
4269131 -07904733 PSTN6 2014 01 11 11 24 //// 00 07 00 06
00459 //// 00456 //// 00459 //// 00454 //// 00448 //// 00451 ////+
4215400 -08009250 EREP1 2014 01 11 11 24 //// 00 07 00 06
00483 //// 00478 //// 00472 //// 00473 //// 00490 //// 00497 ////+
4175975 -08128106 FAIO1 2014 01 11 11 24 //// 00 07 00 06
00506 //// 00510 //// 00524 //// 00528 //// 00532 //// 00518 ////+
4154086 -08163547 CNDO1 2014 01 11 11 24 //// 00 07 00 06
00469 //// 00467 //// 00469 //// 00480 //// 00494 //// 00488 ////+
4154364 -08273139 MRHO1 2014 01 11 11 24 //// 00 07 00 06
00475 //// 00473 //// 00468 //// 00461 //// 00457 //// 00458 ////+
4169356 -08347228 THRO1 2014 01 11 11 24 //// 00 07 00 06
00531 //// 00531 //// 00531 //// 00530 //// 00529 //// 00529 ////+
4196010 -08325690 FPPM4 2014 01 11 11 24 //// 00 07 00 06
00502 //// 00503 //// 00498 //// 00498 //// 00497 //// 00499 ////+
4314039 -08249389 LKPM4 2014 01 11 11 24 //// 00 07 00 06
-00167 //// -00179 //// -00181 //// -00175 //// -00160 //// -00140 ////+
4384619 -08264311 HRBM4 2014 01 11 11 24 //// 00 07 00 06
-00091 //// -00089 //// -00103 //// -00115 //// -00117 //// -00118 ////+
4364040 -08384680 ESVM4 2014 01 11 11 24 //// 00 07 00 06
-00112 //// -00112 //// -00111 //// -00107 //// -00103 //// -00100 ////+
4506300 -08342860 LPNM4 2014 01 11 11 24 //// 00 07 00 06
-00090 //// -00115 //// -00122 //// -00109 //// -00123 //// -00129 ////+
4577789 -08472533 MACM4 2014 01 11 11 24 //// 00 07 00 06
-00054 //// -00065 //// -00071 //// -00067 //// -00061 //// -00063 ////+
4599250 -08389820 DTLM4 2014 01 11 11 24 //// 00 07 00 06
-00048 //// -00043 //// -00048 //// -00068 //// -00071 //// -00065 ////+
4626480 -08419120 RCKM4 2014 01 11 11 24 //// 00 07 00 06
-00037 //// -00038 //// -00038 //// -00038 //// -00037 //// -00035 ////+
4628469 -08420981 WNEM4 2014 01 11 11 24 //// 00 07 00 06
00224 //// 00224 //// 00223 //// 00223 //// 00223 //// 00222 ////+
4648572 -08430183 LTRM4 2014 01 11 11 24 //// 00 07 00 06
00530 //// 00525 //// 00527 //// 00530 //// 00538 //// 00532 ////+
4650100 -08434030 USSM4 2014 01 11 11 24 //// 00 07 00 06
00522 //// 00527 //// 00533 //// 00531 //// 00519 //// 00508 ////+
4650111 -08437261 SWPM4 2014 01 11 11 24 //// 00 07 00 06
00102 //// 00091 //// 00078 //// 00054 //// 00105 //// 00008 ////+
4394736 -08644161 LDTM4 2014 01 11 11 24 //// 00 07 00 06
00020 //// 00007 //// 00034 //// 00062 //// 00073 //// 00072 ////+
4276811 -08620119 HLNM4 2014 01 11 11 24 //// 00 07 00 06
00030 //// 00021 //// 00033 //// 00027 //// 00027 //// 00052 ////+
4172986 -08753839 CMTI2 2014 01 11 11 24 //// 00 07 00 06
-00026 //// -00052 //// -00004 //// -00017 //// 00009 //// 00003 ////+
4300200 -08788760 MLQW3 2014 01 11 11 24 //// 00 07 00 06
00051 //// 00014 //// -00003 //// 00008 //// 00059 //// 00051 ////+
4446397 -08750103 KWNW3 2014 01 11 11 24 //// 00 07 00 06
00010 //// -00011 //// 00042 //// 00000 //// 00050 //// 00007 ////+
4479558 -08731433 SBCW3 2014 01 11 11 24 //// 00 07 00 06
00020 //// 00017 //// -00004 //// 00004 //// 00020 //// 00047 ////+
4454106 -08800719 GBWW3 2014 01 11 11 24 //// 00 07 00 06
00053 //// 00049 //// 00042 //// 00035 //// 00029 //// 00023 ////+
4509589 -08758994 MNMM4 2014 01 11 11 24 //// 00 07 00 06
00009 //// 00029 //// 00010 //// -00014 //// -00020 //// -00013 ////+
4596989 -08587150 PNLM4 2014 01 11 11 24 //// 00 07 00 06
-00011 //// -00043 //// -00042 //// -00023 //// 00001 //// 00000 ////+
4648450 -08463089 PTIM4 2014 01 11 11 24 //// 00 07 00 06
00083 //// 00090 //// 00089 //// 00082 //// 00085 //// 00105 ////+
4654558 -08737908 MCGM4 2014 01 11 11 24 //// 00 07 00 06
00140 //// 00148 //// 00147 //// 00141 //// 00127 //// 00114 ////++
7777

0000021400
849
KSAJ30 KWBC 111214
CREX++
T000119 A001 D01021 D06025++
-1428000 -17069000 NSTP6 2014 01 11 11 24 3018 00 07 00 06
00404 0154 00404 0137 00428 0145 00446 0146 00455 0139 00477 0144++
7777

0000440200
850
KSAB31 KWBC 111214
CREX++
T000119 A001 D01021 D06025++
3002717 -09011342 NWCL1 2014 01 11 11 24 2843 00 07 00 06
00229 0268 00230 0270 00225 0266 00226 0268 00237 0280 00256 0300+
2911425 -09019925 PTFL1 2014 01 11 11 24 //// 00 07 00 06
00080 0196 00080 0195 00086 0200 00086 0199 00094 0206 00104 0214+
2978856 -09042019 BYGL1 2014 01 11 11 24 2843 00 07 00 06
-90314 //// -90328 //// -90328 //// -90304 //// -90304 //// -90300 ////+
2966750 -09123761 TESL1 2014 01 11 11 24 2788 00 07 00 06
00233 0158 00232 0159 00231 0160 00229 0160 00228 0161 00226 0160+
2944958 -09133811 AMRL1 2014 01 11 11 24 2818 00 07 00 06
00161 0149 00157 0150 00151 0149 00145 0148 00142 0150 00134 0146+
2955500 -09230500 FRWL1 2014 01 11 11 24 2820 05 07 00 06
00140 0124 00118 0101 00103 0084 00145 0123 00160 0136 00137 0110+
3022364 -09322167 LCLL1 2014 01 11 11 24 2844 00 07 00 06
00374 0121 00365 0117 00361 0118 00351 0114 00346 0114 00342 0115+
3019031 -09330069 BKTL1 2014 01 11 11 24 2844 00 07 00 06
00357 0084 00350 0082 00344 0082 00337 0080 00330 0079 00323 0078+
2976817 -09334289 CAPL1 2014 01 11 11 24 2831 00 07 00 06
00067 0121 00051 0106 00046 0102 00048 0103 00041 0095 00042 0095+
2986670 -09393000 PORT2 2014 01 11 11 24 2831 00 07 00 06
00111 0217 00110 0222 00105 0222 00100 0222 00096 0223 00090 0222+
2998000 -09388170 RBBT2 2014 01 11 11 24 //// 00 07 00 06
00257 0244 00250 0242 00246 0242 00241 0242 00238 0244 00234 0245+
2972840 -09387010 SBPT2 2014 01 11 11 24 2833 05 07 00 06
00080 0235 00072 0231 00073 0235 00075 0240 00069 0237 00065 0234+
2968170 -09498500 MGPT2 2014 01 11 11 24 2819 00 07 00 06
00243 0208 00237 0207 00230 0205 00224 0204 00218 0204 00214 0206+
2972628 -09526581 NCHT2 2014 01 11 11 24 2878 00 07 00 06
00336 //// 00328 //// 00322 //// 00318 //// 00309 //// 00299 ////+
2968928 -09384181 TXPT2 2014 01 11 11 24 2832 00 07 00 06
00068 0231 00071 0237 00067 0235 00059 0229 00060 0231 00059 0231+
2951500 -09451330 RLOT2 2014 01 11 11 24 2849 00 07 00 06
00253 0211 00247 0211 00241 0211 00236 0212 00231 0214 00224 0213+
2948000 -09491830 EPTT2 2014 01 11 11 24 //// 05 07 00 06
00289 0336 00282 0335 00276 0334 00269 0333 00262 0331 00257 0332+
2935733 -09472483 GNJT2 2014 01 11 11 24 2848 00 07 00 06
00018 0159 00017 0162 00021 0170 00015 0167 00013 0168 00008 0166+
2931000 -09479330 GTOT2 2014 01 11 11 24 2839 00 07 00 06
00059 0178 00051 0175 00040 0169 00040 0174 00041 0179 00043 0186+
2894331 -09530250 FCGT2 2014 01 11 11 24 2852 00 07 00 06
-00012 0084 -00015 0083 -00011 0089 -00010 0091 -00016 0087 -00017 0087+
2840830 -09671170 SDRT2 2014 01 11 11 24 2871 00 07 00 06
00014 0093 00013 0092 00014 0094 00016 0097 00016 0097 00015 0097+
2864000 -09659500 VCAT2 2014 01 11 11 24 2844 00 07 00 06
00102 0128 00099 0129 00095 0129 00094 0131 00094 0135 00091 0136+
2845170 -09638830 PCNT2 2014 01 11 11 24 //// 00 07 00 06
00004 //// 00000 //// -00005 //// -00008 //// -00011 //// -00012 ////+
2811830 -09702170 CPNT2 2014 01 11 11 24 2844 00 07 00 06
00004 0100 00001 0099 00000 0099 -00001 0100 -00002 0101 -00005 0099+
2802170 -09704670 RCPT2 2014 01 11 11 24 2858 00 07 00 06
00024 0102 00020 0100 00020 0101 00019 0102 00015 0099 00016 0102+
2783830 -09707330 RTAT2 2014 01 11 11 24 2858 00 07 00 06
-00088 //// -00089 //// -00080 //// -00084 //// -00095 //// -00105 ////+
2782170 -09720330 NGLT2 2014 01 11 11 24 2848 00 07 00 06
-00062 0004 -00066 0002 -00067 0004 -00071 0003 -00074 0003 -00076 0004+
2763330 -09723670 PACT2 2014 01 11 11 24 2872 00 07 00 06
00024 0080 00022 0080 00020 0079 00019 0080 00017 0080 00015 0079+
2758000 -09721670 MQTT2 2014 01 11 11 24 2865 00 07 00 06
-00096 0056 -00088 0064 -00088 0064 -00107 0045 -00081 0071 -00101 0050+
2729500 -09740500 BABT2 2014 01 11 11 24 2859 00 07 00 06
-95849 //// -95850 //// -95850 //// -95849 //// -95850 //// -95851 ////+
2682500 -09749170 RSJT2 2014 01 11 11 24 //// 00 07 00 06
-98914 //// -98916 //// -98918 //// -98920 //// -98920 //// -98921 ////+
2607670 -09717670 PCGT2 2014 01 11 11 24 2890 00 07 00 06
-00013 0025 -00006 0034 -00027 0014 -00032 0010 -00030 0012 -00026 0016+
2606000 -09721500 PTIT2 2014 01 11 11 24 2882 00 07 00 06
-00015 0087 -00026 0077 -00031 0073 -00018 0087 -00031 0074 -00037 0068++
7777

0000343800
851
KSAA31 KWBC 111214
CREX++
T000119 A001 D01021 D06025++
2664770 -08187120 FMRF1 2014 01 11 11 24 2912 00 07 00 06
00164 0218 00160 0219 00156 0220 00151 0219 00146 0218 00142 0218+
2763870 -08256210 PMAF1 2014 01 11 11 24 2886 08 07 00 06
00211 0259 00212 0254 00216 0252 00215 0245 00221 0244 00225 0242+
2776060 -08262690 SAPF1 2014 01 11 11 24 2900 05 07 00 06
00150 0234 00154 0234 00161 0236 00162 0231 00169 0232 00172 0229+
2785778 -08255269 OPTF1 2014 01 11 11 24 2891 05 07 00 06
00112 0304 00114 0304 00117 0304 00120 0304 00122 0302 00126 0301+
2797830 -08283170 CWBF1 2014 01 11 11 24 2879 05 07 00 06
00453 0228 00457 0223 00474 0231 00506 0254 ///// //// ///// ////+
2913500 -08303170 CKYF1 2014 01 11 11 24 2851 05 07 00 06
00367 0266 00380 0265 00400 0270 00411 0266 00424 0264 00442 0266+
2972670 -08498170 APCF1 2014 01 11 11 24 2832 05 07 00 06
00131 0220 00129 0222 00129 0225 00124 0223 00127 0229 00126 0230+
3015228 -08566694 PACF1 2014 01 11 11 24 2852 05 07 00 06
00162 0278 00155 0271 00153 0268 00162 0277 00167 0281 00170 0283+
3021330 -08587830 PCBF1 2014 01 11 11 24 2861 05 07 00 06
00195 0333 00172 0307 00198 0329 00219 0346 00204 0326 00157 0275+
3040440 -08721120 PCLF1 2014 01 11 11 24 2821 05 07 00 06
00125 0277 00125 0278 00127 0280 00133 0287 00136 0290 00126 0280+
3041670 -08782500 WBYA1 2014 01 11 11 24 2848 05 07 00 06
00194 0287 00199 0294 00198 0295 00196 0295 00194 0295 00197 0300+
3025000 -08807500 DILA1 2014 01 11 11 24 2813 00 07 00 06
00090 0215 00086 0212 00082 0209 00088 0215 00074 0202 00075 0203+
3056517 -08808800 BYSA1 2014 01 11 11 24 //// 00 07 00 06
00114 0161 00122 0172 00122 0174 00112 0167 00118 0175 00114 0173+
3044369 -08811392 EFRA1 2014 01 11 11 24 //// 00 07 00 06
00100 0181 00097 0180 00097 0183 00085 0173 00087 0177 00082 0173+
3064830 -08805830 MCGA1 2014 01 11 11 24 2828 00 07 00 06
00205 0147 00206 0151 00201 0149 00205 0156 00217 0172 00223 0181+
3070830 -08804330 OBLA1 2014 01 11 11 24 2814 00 07 00 06
00218 0245 00212 0243 00212 0247 00212 0251 00212 0255 00213 0260+
3078189 -08807361 CIKA1 2014 01 11 11 24 //// 00 07 00 06
00243 0173 00243 0177 00244 0182 00245 0187 00243 0188 ///// ////+
3037664 -08815856 WFRA1 2014 01 11 11 24 //// 05 07 00 06
00196 0274 00205 0287 00210 0295 00216 0305 00215 0307 ///// ////+
3040567 -08824769 BLBA1 2014 01 11 11 24 //// 05 07 00 06
00241 0365 00242 0368 00237 0366 00226 0357 00214 0347 ///// ////+
3034770 -08850540 ULAM6 2014 01 11 11 24 2828 05 07 00 06
00168 0357 00160 0350 00167 0357 00173 0362 00174 0363 00175 0363+
3036790 -08856300 PNLM6 2014 01 11 11 24 2846 00 07 00 06
00170 0205 00168 0204 00164 0202 00161 0200 00162 0201 00165 0205+
3032639 -08932578 WYCM6 2014 01 11 11 24 2808 05 07 00 06
00193 0313 00190 0313 00188 0313 00184 0312 00181 0311 00176 0308+
2917830 -08925830 PILL1 2014 01 11 11 24 2792 05 07 00 06
00249 0297 00248 0297 00249 0299 00250 0301 00256 0307 00251 0303+
2893220 -08940750 PSTL1 2014 01 11 11 24 2803 05 07 00 06
00249 0371 00244 0365 00260 0379 00266 0382 00256 0370 00256 0368+
2986811 -08967325 SHBL1 2014 01 11 11 24 2803 00 07 00 06
00191 0055 00190 0059 00185 0058 00179 0056 00185 0066 00185 0070+
2926333 -08995667 GISL1 2014 01 11 11 24 2876 00 07 00 06
00034 0179 00047 0192 00051 0196 00049 0194 00055 0199 00054 0197++
7777

0000040800
852
UKCN04 CWAO 111200
TTBB  61128 71924 00987 33931 11985 33145 22955 34736 33938
32935 44933 30933 55872 31926 66858 29730 77818 27937 88663
33322 99643 33536 11583 36956 22533 42115 33495 44356 44468
47534 55451 49156 66422 52331 77408 53734 88362 55959 99327
57961 11287 59363 22278 58365 33231 59570 44219 58172 55160
62373 66126 67571 77122 66571 88100 69170 31313 48008 81115=

0000038400
853
UGCN04 CWAO 111200
PPBB  61128 71924 90012 16008 21011 21016 90345 19521 20025
21011 90678 16510 20016 19015 909// 18517 91234 17521 15515
15023 9169/ 15520 14527 92014 15024 13519 16522 92567 15019
15517 15517 928// 16517 93012 14024 14524 15526 93456 18014
15014 14514 9378/ 10512 11020 94013 14015 13014 13013 94457
11011 14012 13510 9489/ 04510 06012=

0000052000
854
UKCN05 CWAO 111200
TTBB  61128 71934 00977 28533 11975 26333 22973 25925 33961
26121 44934 24733 55907 20745 66906 20745 77842 17756 88840
17956 99813 16158 11796 15756 22770 16537 33686 20734 44674
21339 55644 24121 66578 29557 77560 30362 88522 33763 99485
37361 11459 39361 22429 42165 33395 42574 44374 40769 55359
41365 66292 51741 77273 54941 88200 66950 99195 66150 11192
61157 22182 62766 33177 61169 44167 61972 55150 60774 66120
61376 77104 64575 88100 64175 31313 48008 81115=

0000032200
855
USCN04 CWAO 111200
TTAA  61121 71924 99987 33931 16008 00549 ///// ///// 92499
31135 21012 85099 29934 19524 70484 31135 18516 50481 43956
13519 40627 54337 14018 30810 58562 16018 25924 58968 15021
20064 60172 12010 15242 63773 14014 10487 69170 06012 88327
57961 15520 88126 67571 11513 77999=

00000000