0000036000
836
FTME31 OEJD 101600
TAF OJAI 101600Z NIL=
TAF OJAM 101600Z NIL=
TAF OJAQ 101600Z NIL=
TAF OLBA 101600Z 1018/1124 VRB06KT 8000 BKN080 BECMG 1109/1112
    20008KT SCT080 BECMG 1118/1121 18015KT 160V220 6000 BKN026 TEMPO
    1018/1106 -RA TEMPO 1115/1124 4000 BR=
TAF OSAP 101600Z NIL=
TAF OSDI 101600Z NIL=
TAF OSLK 101600Z NIL=

0000059700
837
FTUS31 KWBC 101615 AAA
TAF AMD
KIAH 101614Z 1016/1118 16010KT P6SM FEW006 SCT030 BKN250
     FM101700 16010KT P6SM BKN040
     FM102100 17011KT P6SM VCSH BKN040
     FM110200 17007KT 5SM BR VCSH SCT007 BKN015
     FM110900 23007KT 3SM BR VCSH BKN007
     FM111300 27008KT 6SM BR BKN015=
KPHL 101612Z 1016/1118 08003KT 1 1/2SM -SHRA BR SCT015 OVC040
     FM101630 11003KT 2SM BR SCT015 OVC040
      TEMPO 1017/1020 6SM BR BKN020
     FM102000 19004KT 6SM BR OVC020
     FM110200 14005KT 4SM BR OVC015
     FM110700 16005KT 3SM -RA BR OVC010 WS020/20050KT=

0000009300
838
SATH33 VTBB 101600 RRA
METAR VTUK 101600Z 07006KT CAVOK 23/18 Q1017 A3004=

0000047800
839
FTUS42 KWBC 101615 AAA
TAF AMD
KHOU 101614Z 1016/1112 10007KT P6SM BKN040 BKN250
     FM101900 16010KT P6SM BKN045
     FM102100 17012KT P6SM VCSH BKN040
     FM110200 17008KT 6SM BR VCSH SCT007 BKN100
     FM110900 24006KT 3SM BR VCSH BKN007=
KNEW 101612Z 1016/1112 09007KT 1/4SM FG OVC002
     FM101800 13012KT 4SM BR OVC010
     FM102100 15010KT 5SM BR OVC010
      TEMPO 1104/1108 2SM TSRA OVC006CB
     FM110800 22015KT 5SM BR OVC010=

0000032900
840
FTUS71 KWBC 101615 AAA
TAF AMD
KPHL 101612Z 1016/1118 08003KT 1 1/2SM -SHRA BR SCT015 OVC040
     FM101630 11003KT 2SM BR SCT015 OVC040
      TEMPO 1017/1020 6SM BR BKN020
     FM102000 19004KT 6SM BR OVC020
     FM110200 14005KT 4SM BR OVC015
     FM110700 16005KT 3SM -RA BR OVC010 WS020/20050KT=

0000087200
841
FTUS72 KWBC 101615 AAA
TAF AMD
KABY 101612Z 1016/1112 03004KT 1SM BR OVC004
     FM102200 08005KT 3SM BR OVC003
     FM110100 13003KT 1/2SM FG OVC002=
KHOU 101614Z 1016/1112 10007KT P6SM BKN040 BKN250
     FM101900 16010KT P6SM BKN045
     FM102100 17012KT P6SM VCSH BKN040
     FM110200 17008KT 6SM BR VCSH SCT007 BKN100
     FM110900 24006KT 3SM BR VCSH BKN007=
KIAH 101614Z 1016/1118 16010KT P6SM FEW006 SCT030 BKN250
     FM101700 16010KT P6SM BKN040
     FM102100 17011KT P6SM VCSH BKN040
     FM110200 17007KT 5SM BR VCSH SCT007 BKN015
     FM110900 23007KT 3SM BR VCSH BKN007
     FM111300 27008KT 6SM BR BKN015=
KNEW 101612Z 1016/1112 09007KT 1/4SM FG OVC002
     FM101800 13012KT 4SM BR OVC010
     FM102100 15010KT 5SM BR OVC010
      TEMPO 1104/1108 2SM TSRA OVC006CB
     FM110800 22015KT 5SM BR OVC010=

0000027000
842
SAIN31 VOMM 110340
METAR VOMM 110340Z 00000KT 1200 R07/2200 R25/1300 FG SCT018 25/20
     Q1016 BECMG 1800 BR=
METAR VOTR 110340Z 02008KT 2500 HZ FEW018 24/19 Q1016 BECMG 3000 HZ=
METAR VOTV 110340Z 00000KT 4000 HZ FEW018 28/22 Q1013 BECMG 5000 HZ=
0000030100
843
FTUS73 KWBC 101615 AAA
TAF AMD
KASE 101611Z 1016/1112 VRB03KT 2SM -SN BR SCT010 OVC025
      TEMPO 1016/1019 1SM -SN BR OVC015
     FM101900 34010G18KT 2SM -SN BLSN SCT015 BKN030
     FM110300 22006KT 5SM -SN BR SCT025 OVC035
     FM110700 21005KT P6SM VCSH SCT025 BKN040=

0000010100
844
SAZA31 FAPR 101600 RRA
METAR FALW 101600Z AUTO 21019KT //// // ////// 22/10 Q1015=

0000046100
845
SAPS31 NFFN 101600
METAR NCRG 101600Z NIL=
METAR NFFN 101600Z 16007KT 9999 -RA SCT028 BKN048 24/23 Q1004 NOSIG=
METAR NFNA 101600Z 16004KT 9999 FEW020 26/24 Q1004=
METAR NGFU 101600Z NIL=
METAR NGTA 101600Z NIL=
METAR NIUE 101600Z NIL=
METAR NSFA 101600Z NIL=
METAR NSTU 101600Z NIL=
METAR NTAA 101600Z VRB02KT 9999 FEW020 25/20 Q1012 NOSIG=
METAR NWWW 101600Z AUTO 10003KT 9999 FEW066 20/15 Q1012=
METAR PLCH 101600Z NIL=

0000028000
846
FTUS73 KWBC 101615
TAF
TAF KRFD 101605Z 1016/1112 16010KT 1/2SM -FZDZ FZFG VV001
     FM101900 17010KT 1/2SM -DZRA FZFG VV002
     FM102200 16011KT 1 1/2SM RA BR OVC005
     FM110200 20012KT 2SM -DZ BR VCSH OVC005
     FM110900 24012G18KT P6SM OVC012=

0000026600
847
SAAP32 FAPR 101600 RRA
METAR FBSK 101600Z 24009KT 200V260 CAVOK 36/01 Q1010 NOSIG=
METAR FVHA 101600Z 27006KT 240V300 9999 -RA FEW025CB BKN090 20/18
    Q1017
             NOSIG RMK QFE 850.4=
METAR FYWH 101600Z 32004KT CAVOK 30/M01 Q1017=

0000032200
848
SAPS32 NFFN 101600
METAR NFTF 101600Z 12007KT 9999 FEW008 SCT016 BKN110 26/26 Q1001=
METAR NFTL 101600Z NIL=
METAR NFTV 101600Z 03024KT 9999 -RA SCT008 BKN016 OVC100 25/25 Q0994=
METAR NLWW 101600Z NIL=
METAR NVSS 101600Z NIL=
METAR NVVV 101600Z 09009KT 9999 SCT020 BKN040 26/23 Q1007 RMK NIL=

0000040300
849
SAXX69 EGRR 101600 RRA
METAR KQIR 101558Z 09006KT 9999 FEW140 19/12 A3014 RMK AO2A SLP209
      WND DATA ESTMD T01850123 VISNO RWY16 CHINO RWY16 $=
METAR KQSA 101558Z 29003KT 8000 HZ CLR 00/M07 A3026 RMK AO2A SLP338
      WND DATA ESTMD ALSTG/SLP ESTMD=
METAR KQTZ 101555Z 10008KT 4000 -RA BR FEW025 BKN030 OVC080 09/07 A3007
      RMK SLP184 WND DATA ESTMD ALSTG/SLP ESTMD=

0000010500
850
SANM40 FYWW 101600 CCA
METAR COR FYGB 101600Z AUTO 13002KT //// // ////// 32/04 Q1017=

0000012800
851
SAUK39 EGGY 101600 RRA
METAR EGUN 101558Z AUTO 20007KT 9999 CLR 07/06 A2990 RMK AO2 SLP129
      T00740057=

0000007700
852
FTFR21 LFPW 101100 AAB
TAF AMD LFOA 101615Z 1017/1112 CNL=

0000010700
853
SPCN44 CWAO 101613
SPECI CYZU 101613Z 28006KT 15SM -SN BKN040 OVC070 RMK SC6AC2 VIS W 3=

0000083400
854
SAUR30 UKMS 110330
METAR UKBB 110330Z 28007G13MPS 250V310 9999 BKN024
         05/01 Q1004    88290060 TEMPO 27011G16MPS=
METAR UKHH 110330Z 27006MPS 9999 OVC014 04/01 Q1001
         25290050  TEMPO 28011G17MPS=
METAR UKOO 110330Z 25004MPS CAVOK 01/M02 Q1016
         34290054 NOSIG=
METAR UKDE 110330Z 27006MPS 240V310 CAVOK 02/00 Q1008
          20290356 NOSIG=
METAR UKDD 110330Z 27007MPS CAVOK 01/01 Q1007
         26220356 NOSIG=
METAR UKFF 110330Z 26005MPS CAVOK 03/02 Q1016
         19010070 NOSIG=
METAR UKLL 110330Z 26006MPS 9999 BKN040 04/M03 Q1014
         31220365 NOSIG=
METAR UKCC 110330Z 29008MPS 9999 OVC010 03/03 Q1005
         26290055 TEMPO 30010G15MPS 1000 -SHRA BR
         BKN003 BKN010CB=
METAR UKDR 110330Z 27008MPS CAVOK 02/00 Q1009
         3619//60 NOSIG=
0000010300
855
SAAJ31 UBBB 110330
METAR UBBB 110330Z 19016KT 9999 BKN006 04/03 Q1016 88CLRD70
NOSIG=
00000000