0000075600
776
SMNL10 EHDB 111200
AAXX 11121
06206 46/// /2912 10079 20036 30065 40118 51025
333 91015 91115 91213=
06207 47463 73013 10077 20046 30053 40107 51028 72365 8////
333 82/12 85/14 86/18 91016 91117 91214=
06239 47575 62912 10071 20029 30029 40091 51020 70165 8////
333 81/24 84/50 86/64 91014 91114 91212=
06252 46/// /2811 10077 20031 30093 40139 51029 222// 00096 10604
333 91013 91116 91213=
06260 17356 82405 10067 20058 30134 40136 57001 69911 72385 8////
333 82/07 84/10 86/12 91009 91111 91206=
06270 17357 83208 10057 20038 30113 40113 53014 60031 78286 8////
333 81/07 83/09 85/11 91014 91114 91210=
06290 17226 82106 10047 20041 30084 40125 58013 69981 78181 8////
333 82/06 84/07 86/09 91009 91112 91207=
0000009900
777
SAIQ01 ORBI 111200
METAR ORMM 111200Z 29014KT 9999 SCT040 BKN100 14/10 Q1017 NOSIG=
0000093300
778
SAUK39 EGRR 111150 RRB
METAR EGDY 111150Z AUTO 28005KT 9999 SCT018/// 08/05 Q1021=
METAR EGOM 111150Z AUTO 26015KT 9999 BKN002/// 02/02 Q1014=
METAR EGOP 111150Z AUTO 32003KT 9999 // NCD 07/02 Q1020=
METAR EGOS 111150Z AUTO 28009KT 9999 FEW029/// 06/01 Q1018=
METAR EGOV 111150Z AUTO 29005KT 9999 NCD 07/03 Q1019=
METAR EGQK 111150Z AUTO 24015KT 9999 NCD 04/M00 Q1010=
METAR EGUO 111150Z 27010KT 9999 FEW008 06/04 Q1020 BLU=
METAR EGUW 111150Z AUTO 29012KT 9999 NCD 07/03 Q1017=
METAR EGVP 111150Z AUTO 28009KT 9999 // NCD 07/03 Q1020=
METAR EGXD 111150Z AUTO 27007KT 9999 // NCD 05/01 Q1016=
METAR EGXP 111150Z AUTO 27014KT //// // NCD 05/03 Q1016=
METAR EGXS 111150Z AUTO 26011KT 9999 // SCT130/// 07/03 Q1016=
METAR EGXU 111150Z AUTO 25010KT 9999 // NCD 06/01 Q1016=
METAR EGXZ 111150Z AUTO 31004KT 9999 SCT026/// 06/00 Q1016=
METAR EGYM 111150Z AUTO 28012KT 9999 FEW047/// 07/04 Q1017=
0000216600
779
SZNZ01 NZKL 111209
CREX++
T000103 A001 D01021 D06025++
-3683144 17478654 AUCT  2014 01 11 12 01 //// 11 07 00 01
04555 3221 04562 3221 04571 3222 04579 3222 04586 3221 04594 3222+
-4402404 -17636748 CHIT  2014 01 11 12 01 //// 11 07 00 01
05244 2092 05241 2086 05263 2105 05243 2082 05246 2082 05244 2078+
-4089929 17623168 CPIT  2014 01 11 12 01 //// 11 07 00 01
04190 2300 04190 2295 04197 2297 04184 2280 04181 2272 04195 2281+
-3618905 17548887 GBIT  2014 01 11 12 01 //// 11 07 00 01
05488 0006 05480 -0007 05494 0001 05512 0014 05521 0017 05524 0015+
-3867541 17802288 GIST  2014 01 11 12 01 //// 11 07 00 01
04033 2702 04052 2716 04039 2698 04053 2707 04050 2699 04055 2699+
-4241288 17370277 KAIT  2014 01 11 12 01 //// 11 07 00 01
03786 2257 03790 2257 03797 2260 03793 2252 03809 2264 03807 2259+
-3755040 17815904 LOTT  2014 01 11 12 01 //// 11 07 00 01
03316 0206 03340 0225 03315 0195 03336 0211 03336 0206 03331 0196+
-3704657 17451175 MNKT  2014 01 11 12 01 //// 11 07 00 01
01805 -0170 01815 -0157 01800 -0170 01787 -0180 01806 -0158 01805 -0156+
-3947566 17692007 NAPT  2014 01 11 12 01 //// 11 07 00 01
03234 2052 03249 2062 03255 2062 03246 2049 03242 2040 03236 2028+
-3441483 17304870 NCPT  2014 01 11 12 01 //// 11 07 00 01
-04506 -8302 -04496 -8295 -04526 -8329 -04536 -8344 -04500 -8312 -04493 -8309+
-4581435 17062939 OTAT  2014 01 11 12 01 //// 11 07 00 01
05329 3465 05330 3463 05332 3463 05335 3464 05336 3463 05337 3462+
-2928002 -17789440 RBCT  2014 01 11 12 01 //// 11 07 00 01
05755 1975 05749 1965 05750 1962 05747 1956 05772 1978 05770 1972+
-2925114 -17790384 RFRT  2014 01 11 12 01 //// 11 07 00 01
02704 0180 02684 0157 02714 0183 02701 0166 02715 0176 02706 0163+
-4357010 17277383 SUMT  2014 01 11 12 01 //// 11 07 00 01
02588 1854 02588 1849 02614 1870 02590 1842 02595 1842 02637 1879+
-3764109 17618118 TAUT  2014 01 11 12 01 //// 11 07 00 01
04795 4047 04802 4049 04805 4047 04807 4043 04818 4049 04820 4046+
-4128448 17477985 WLGT  2014 01 11 12 01 //// 11 07 00 01
03495 2026 03504 2031 03504 2028 03497 2018 03505 2023 03505 2019++
7777
0000094500
780
SMAJ40 UBBB 111200
AAXX 11121
37661 42998 03006 10126 21014 39367 40106 57033
555   10012=
37675 42999 00202 10081 20023 39430 40078 57003
555   10010=
37729 42998 01804 10056 20029 38500 57010=
37735 42999 32908 10127 21122 39768 57023 83001
555   10017=
37740 42999 02701 10085 21035 39331 40127 57025
555   10012=
37749 42998 00901 10093 21019 30029 40145 57026
555   11010=
37832 42998 03002 10136 21007 30048 40132 57037
555   10011=
37851 42998 02207 10098 20025 30036 40104 57015
333   91118=
37864 32997 21811 10083 20020 40092 57026 80001=
37905 42997 20000 10121 21041 30070 40156 57026 82040
555   10014=
37923 42997 02308 10102 21017 30138 40118 57020
555   10013=
37925 42598 62303 10080 21033 30177 40147 57024 86200
555   11010=
37985 42597 61801 10074 20029 30151 40137 57026 86540
555   11011=
37989 42698 60201 10073 20055 30185 40158 57029 86500
555   10015=
0000012800
781
SAMV31 VRMG 111200
METAR VRMG 111200Z 00000KT 9999 FEW017 FEW018CB BKN260 29/25 Q1011   
        RESHRA CB SE=
0000024100
782
SOAT10 KWAL 111208
FA8005BC 011120837 OT12 ID:KN-BASS-01 DT:2014 01 11 12 06
:RD -3069 -3074 -3080 -3103 -3130 -3075 -3102 -3097 -3115 -3085
:PR 0580 0517 0532 0446 0618 0573 0564 0566 0582 0578
:B 13.7V
 46+1NN 219E
0000013500
783
SMBN31 OBBI 111200
AAXX 11123
41150 11460 61908 10173 20139 40184 60062 70561 8117/ 333 59026
         81820 86459=
0000011000
784
UANT01 CWAO 111207
ARP UAL28 5403N01627W 1207 F380 MS54 249/59 KT
N78004 DDL XXN 111207 F28A
0000011000
785
UANT01 CWAO 111207
ARP TOM144 4906N02554W 1206 F370 MS50 321/58 KT
GTUIA QXT AOE 111207 L81A
0000010900
786
UANT01 CWAO 111207
ARP DAL67 5206N02308W 1207 F320 MS58 196/90 KT
N1602 QXT AOE 111207 F11A
0000013300
787
SMIY02 LIIB 111200 RRA
AAXX 11124
16546 12560 71302 10164 20126 30166 40194 58012 60001 83510 333 83625
      85460=
0000011100
788
UANT01 CWAO 111207
ARP DAL177 5244N04106W 1207 F340 MS60 305/56 KT
N1604R QXT AOW 111207 F05A
0000011000
789
UANT01 CWAO 111208
ARP DAL99 5301N01928W 1207 F320 MS58 215/75 KT
N833MH QXT AOE 111208 F09A
0000040000
790
SANO36 ENMI 101550
METAR ENBS 101550Z VRB03KT 9999 VCSH FEW012 SCT035 M09/M14 Q1014 =
METAR ENHK 101550Z NIL=
METAR ENHV 101550Z 15003KT 9999 FEW017 SCT043 M06/M08 Q1016=
METAR ENLK 101550Z 05011KT 9999 SCT040 M06/M14 Q1013=
METAR ENMH 101550Z 18006KT 0500 +SHSN VV003 M09/M10 Q1016=
METAR ENNK 101550Z 03012KT 360V080 9999 FEW030 M08/M14 Q1014=
METAR ENNM 101550Z NIL=

0000012000
791
FTCN33 CWAO 101500
TAF CYGH 101555Z 1015/1024 FCST NOT AVBL DUE NO OBS
    RMK NXT FCST BY 101800Z=

0000014900
792
FTCN33 CWAO 101500
TAF CYWJ 101555Z 1015/1024 31006KT 6SM -SN OVC080 TEMPO 1015/1024 3SM
     -SN
    RMK NXT FCST BY 101800Z=

0000037100
793
SANO34 ENMI 101550
METAR ENBN 101550Z NIL=
METAR ENBV 101550Z NIL=
METAR ENFG 101550Z 35002KT 9999 VCSH FEW020 SCT024 BKN042 M05/M06
           Q0992=
METAR ENHF 101550Z VRB01KT CAVOK M09/M12 Q1016 RMK WIND 1254FT
           09004KT=
METAR ENRA 101550Z 11010G20KT CAVOK M09/M19 Q1009=
METAR ENSH 101550Z 06022KT 9999 FEW040 M06/M14 Q1013=

0000009300
794
SPCN51 CWAO 101554
SPECI CZCP 101554Z AUTO 28021KT 3SM -SN CLR M27/ A2934=

0000076000
795
SANO33 ENMI 101550
METAR ENAT 101550Z 19006KT 9999 OVC007 M12/M14 Q1018 RMK WIND 700FT
           18004KT=
METAR ENBL 101550Z VRB02KT 9999 5000E VCFG FEW/// SCT008 BKN040
           M00/M00 Q996=
METAR ENEV 101550Z 07017KT CAVOK M07/M15 Q1014 RMK WIND 1400FT
           08020G30KT=
METAR ENFL 101550Z 33009KT 9999 VCSH FEW010 SCT013 SCT035 03/01 Q0998
           =
METAR ENKB 101550Z 02007KT 9999 -SN SCT013 OVC024 M02/M05 Q0999=
METAR ENKR 101550Z 16008KT 2600 IC BR VV002 M20/M22 Q1015 SEASMOKE
           NORTH OF THE FIELD RMK WIND 775FT 31003KT=
METAR ENML 101550Z 02004KT 9999 VCSH FEW025 BKN060 M00/M05 Q0999=
METAR ENNA 101550Z 19004KT 3000 BR BKN001 BKN003 M14/M15 Q1017 RMK
           WIND 1800FT 36006KT=

00000000