0000029300
942
WWCN02 CYTR 112249
WEATHER BULLETIN FOR CFB MOOSE JAW PREPARED BY THE JOINT
METEOROLOGICAL CENTRE AT 4:49 PM CST SATURDAY 11 JANUARY 2014.
LOCATION: CFB MOOSE JAW (CYMJ)
TYPE: FREEZING PRECIPITATION WARNING ENDED
COMMENTS: FREEZING RAIN IS NO LONGER EXPECTED.
END/JMC
0000092200
943
SMXX95 HECA 110600 CCT
AAXX 11064
40356 41456 83214 10030 20030 39223 48509 71000 8372/ 333 20020 58052
83720 85630 88460=
40357 42660 63111 10063 20060 39556 40211 86500 333 20055 58058
86640=
40360 42560 32704 10070 20040 39635 40243 83500 333 20040 58065
83630=
40373 42660 33305 10098 20080 39773 40201 83500 333 20073 58004
83635=
40375 41656 40000 10060 20020 39342 40244 70500 84200 333 20036 58068
84840=
40394 42660 63316 10074 20040 39072 48538 86500 333 20040 58060
86645=
40400 42560 10106 10158 20090 30186 40214 81200 333 20125 58051
81830=
40416 42660 72505 10155 20120 30173 40193 84550 333 20135 59014 84640
87358=
40417 42660 61813 10158 20110 30195 40210 83570 333 20145 59011 83640
85359=
40420 42760 81707 10140 20120 39992 40203 83520 333 20122 59012 83650
86460=
40437 41958 31707 10123 20100 39490 40207 71022 83040 333 20103 58004
83359=
0000076000
944
SMAF95 HECA 110600 CCP
AAXX 11064
40356 41456 83214 10030 20030 39223 48509 71000 8372/ 333 20020 58052
83720 85630 88460=
40357 42660 63111 10063 20060 39556 40211 86500 333 20055 58058
86640=
40360 42560 32704 10070 20040 39635 40243 83500 333 20040 58065
83630=
40373 42660 33305 10098 20080 39773 40201 83500 333 20073 58004
83635=
40375 41656 40000 10060 20020 39342 40244 70500 84200 333 20036 58068
84840=
40394 42660 63316 10074 20040 39072 48538 86500 333 20040 58060
86645=
40400 42560 10106 10158 20090 30186 40214 81200 333 20125 58051
81830=
40417 42660 61813 10158 20110 30195 40210 83570 333 20145 59011 83640
85359=
40420 42760 81707 10140 20120 39992 40203 83520 333 20122 59012 83650
86460=
0000076000
945
SMXX95 HECA 110600 CCU
AAXX 11064
41024 42660 20310 10210 20110 30172 40192 82500 333 20150 58042
82640=
41036 42460 79902 10094 20070 38595 48543 87700 333 20073 58034 81715
86630=
41055 41550 33306 10105 20100 38388 48537 71000 83400 333 20100 58024
83630=
41084 42560 32806 10134 20100 38891 48540 82430 333 20109 58020 82630
83360=
41112 42460 62408 10121 20120 37966 48539 86700 333 20107 58002 83712
83615=
41114 42560 52412 10134 20080 37996 48533 85400 333 20106 58003
85620=
41128 42560 62404 10166 20020 38825 48529 83450 333 20110 59012 83630
85359=
41136 42660 32408 10171 20040 39347 40165 82430 333 20120 59016
82640=
41140 42560 51910 10275 20230 30152 40163 82430 333 20239 58008 82630
84360=
0000060400
946
SMAF95 HECA 110600 CCQ
AAXX 11064
41024 42660 20310 10210 20110 30172 40192 82500 333 20150 58042
82640=
41036 42460 79902 10094 20070 38595 48543 87700 333 20073 58034 81715
86630=
41084 42560 32806 10134 20100 38891 48540 82430 333 20109 58020 82630
83360=
41112 42460 62408 10121 20120 37966 48539 86700 333 20107 58002 83712
83615=
41114 42560 52412 10134 20080 37996 48533 85400 333 20106 58003
85620=
41128 42560 62404 10166 20020 38825 48529 83450 333 20110 59012 83630
85359=
41140 42560 51910 10275 20230 30152 40163 82430 333 20239 58008 82630
84360=
0000009700
947
SAIN90 VILK 112230
METAR VILK 112230Z 32003KT 0300 R27/0900 FG VV/// 12/11 Q1019=
0000009900
948
SAQT31 OTBD 111900
METAR OTBD 111900Z VRB02KT 9999 FEW025 BKN140 16/13 Q1022 NOSIG=
0000011100
949
UANT01 CWAO 111859
ARP AAL107 5301N01956W 1859 F320 MS55 185/76 KT
N719AN DDL XXN 111859 F47A
0000011000
950
UANT01 CWAO 111859
ARP UAE205 4945N03353W 1859 F360 MS53 298/40 KT
A6ENL DDL XXF 111859 F36A
0000013600
951
UEIY02 LIIB 111800
16044 NIL=
16080 NIL=
16113 NIL=
16144 NIL=
16245 NIL=
16320 NIL=
16429 NIL=
16546 NIL=
0000013600
952
ULIY02 LIIB 111800
16044 NIL=
16080 NIL=
16113 NIL=
16144 NIL=
16245 NIL=
16320 NIL=
16429 NIL=
16546 NIL=
0000017900
953
SMVD01 PANC 111800 RRG
BBXX
WGAE 11183 99258 70621
41498 50920 10290 2024/ 40220 56020 7//22 851//
22263 0//// 20306 302// 40608 5//// 6//// 80250 ICE /////=
0000011800
954
SNVF25 LFPW 111900
BBXX
BATFR33 11194 99428 10095 46/// /3002 10134 20102 40215 53004
22283 00150=
0000011000
955
UANT01 CWAO 111859
ARP UAE232 5654N04413W 1859 F310 MS55 276/41 KT
A6ECE DDL XXW 111859 F09A
0000011100
956
UANT01 CWAO 111859
ARP SOO097 5831N05139W 1859 F330 MS55 289/56 KT
N774SA DDL XXW 111859 F46A
0000011100
957
UANT01 CWAO 111900
ARP RCH269 4840N04459W 1859 F340 MS60 307/68 KT
33125A DDL XXW 111900 F68A
0000015700
958
SSVX13 LFPW 111900
ZZYY 41970 11014 1900/ 730899 058785 6113/ 11119 40291 57013 22219
 00216 444 20130 11014 1900/ 50101 80118 80066 9/015=
0000015700
959
SSVX13 LFPW 111900
ZZYY 44773 11014 1900/ 742062 028814 6113/ 11119 40088 52027 22219
 00143 444 20130 11014 1900/ 50101 80118 80006 9/015=
0000011800
960
SNVF25 LFPW 111900
BBXX
BATFR23 11194 99404 10073 46/// /0708 10147 20122 40210 53007
22234 00144=
0000016300
961
SSVX13 LFPW 111900
ZZYY 13591 11014 1900/ 722981 066422 6113/ 22219 00262 33300 88872
 20000 43609 444 20130 11014 1900/ 50101 80106 80008 9/015=
00000000