0000023100
042
UDAS02 BABJ 112315
AMDAR 1123
ASC CNFLWL 4009N 11551E 112311 F216 MS429 296/035 TB/ S//1=
ASC CNFLWL 4008N 11546E 112312 F230 MS456 288/035 TB/ S//1=
ASC CNFLWL 4008N 11541E 112312 F244 MS480 289/045 TB/ S//1=
0000749300
043
SNVF21 EGRR 112300
BBXX
TBWUK65 11234 99372 10072 41498 61808 10160 20139 40204 57010 703//
86/7/ 22224 2//// 80148=
64045 11234 99591 70117 46/// /1710 10077 20012 40123 58006 22200
00096 10908 70041=
62105 11234 99550 70132 46/// /1430 10094 20052 40043 57046 22200
00108 10709 70046 333 90710 91143=
62107 11234 99501 70061 46/// /1422 10102 20075 40193 58017 22200
00105 10904 70019 333 90710 91128=
62001 11234 99452 70050 46/// /1114 10119 20085 40189 58007 22200
00128 10805 70024=
62304 11234 99512 10018 46/98 /2706 10071 20019 40253 52012 22200
00099 10501 70004=
62103 11234 99499 70029 46/99 /1115 10093 20044 40233 58006 22200
00111 11102 70010=
62163 11234 99475 70084 46/// /1523 10108 20072 40153 57014 22200
00121 10706 70030 333 90710 91132=
62301 11234 99524 70047 46/// /1212 10067 20023 40213 58010 22200
00097 10502 70009=
62081 11234 99521 70105 46/// /1425 20088 40085 57033 22200 10904
70019 333 90710 91140=
62305 11234 99504 70000 46/// /1505 10083 20021 40253 52010 22200
00107 10801 70005=
PJAI 11234 99581 70014 47998 /2818 10067 21002 40151 52021 700// 22200=
62111 11234 99580 70003 46/// /3026 10065 20017 40162 52021 22200 10606 70032=
63056 11234 99597 10016 47497 /2931 10051 20014 40061 53022 762// 22200 10811 70053=
63109 11234 99596 10015 46/// /3132 10047 20001 40063 53021 22200=
63110 11234 99595 10015 47496 /3130 10055 20008 40076 53017 763// 22200 10709 70045=
MQSY9 11234 99593 10015 47697 /2936 10070 21003 52014 700// 22200=
63057 11234 99592 10015 47698 /2938 10069 21013 40075 52012 700// 22200 10709 70047=
62128 11234 99587 10014 47998 /2933 10065 20003 40115 53018 700// 22200 10709 70044=
62129 11234 99584 10003 46/// /3028 10066 21005 40127 52019 22200=
62113 11234 99584 10002 47998 /3027 10066 20000 40128 52016 700// 22200=
ZQSD5 11234 99583 10008 47698 ///// 10070 20018 40119 52023 700// 22200 1//09 70046=
62114 11234 99583 10000 46/// /2927 10068 20008 40125 51018 22200=
62112 11234 99584 70002 47598 /2917 10070 20009 40131 52020 700// 22200=
63055 11234 99606 10016 47498 /3217 10035 20003 40059 53043 762// 22200 10708 70040=
63108 11234 99608 10017 47/99 /3418 10037 20009 40054 53047 700// 22200 10708 70039=
63106 11234 99610 10017 46/// /3218 10027 52065 22200=
63105 11234 99610 10017 47498 /3319 10036 21012 40057 51065 762// 22200=
63113 11234 99610 10017 46/// /3321 10030 21002 40056 52061 22200 10808 70040=
63112 11234 99611 10010 47498 /3519 10032 21000 40064 52066 700// 22200 10808 70042=
63107 11234 99611 10017 46/// /3418 10025 40056 52065 22200=
63101 11234 99612 10009 46/// /3220 10035 21000 40069 52061 22200 10809 70044=
63103 11234 99612 10011 46/// ///// 10032 21006 40059 52064 22200 10809 70044=
63104 11234 99612 10016 47498 /3616 10030 20007 40061 52059 762// 22200 10808 70039=
63117 11234 99613 10011 47498 /3616 40068 52056 771// 22200=
63114 11234 99613 10017 47397 /0116 10013 20013 40060 52052 762// 22200=
63115 11234 99616 10013 47496 /3516 10007 21014 40071 52055 771// 22200 10808 70041=
MWYG6 11234 99603 70040 47998 /3216 40132 52030 700// 22200=
64041 11234 99607 70026 47498 /3218 40115 52049 700// 22200 10909 70045=
62132 11234 99564 10020 46/// /3124 10066 21009 40179 52018 22200=
62120 11234 99564 10021 47598 /3026 10062 20000 40159 52018 700// 22200=
62154 11234 99564 10022 46/// /3024 10063 21007 40156 52020 22200=
62123 11234 99563 10022 47698 /2927 10068 20001 40159 52020 700// 22200 1//07 70036=
62152 11234 99570 10018 47598 /2820 10062 20009 40161 52021 700// 22200 10607 70037=
62119 11234 99570 10019 47597 /3026 10065 20016 40158 52020 700// 22200 10606 70032=
62165 11234 99540 10011 46/// ///// 22200=
62127 11234 99540 10007 46/// ///// 22200=
62131 11234 99539 10012 46/// /3012 10060 20019 40223 52016 22200=
62149 11234 99537 10011 46/// ///// 22200=
62148 11234 99536 10015 46/// ///// 22200=
62150 11234 99536 10007 46/// ///// 22200=
62133 11234 99571 10009 46/// /2923 40156 52019 22200 10606 70031=
62121 11234 99535 10027 46/// ///// 10064 20008 40221 52020 22200=
62144 11234 99534 10017 47998 /2815 10057 20015 40234 52017 700// 22200 10503 70016=
62145 11234 99531 10028 47598 /2815 10062 20005 40234 52015 700// 22200 10504 70018=
62134 11234 99580 10014 47996 /3027 10055 20008 40130 52020 700// 22200 10706 70032=
62102 11234 99579 10018 46/// /2927 10065 20001 40121 52018 22200 10708 70038=
62117 11234 99579 10000 47597 /2924 10062 20012 40146 53025 700// 22200 10606 70029=
62143 11234 99577 10018 47998 /3013 10059 20013 40147 52019 700// 22200 10707 70037=
62118 11234 99577 10009 47998 /2923 10063 20015 40139 52020 700// 22200 10707 70036=
62155 11234 99577 10007 47598 /2827 10065 20018 40149 52022 700// 22200 10707 70034=
62116 11234 99576 10011 47998 /3024 10060 20011 40139 52020 700// 22200 10707 70036=
62104 11234 99574 10013 47598 /3023 10065 20010 40142 52017 700// 22200=
62153 11234 99573 10020 47598 /3018 40140 52021 700// 22200 10707 70035=
62122 11234 99573 10016 47599 /2923 10054 20001 40147 53027 700// 22200 10707 70034=
62140 11234 99573 10013 46/// ///26 10060 20008 40146 52017 22200=
62146 11234 99572 10021 47598 /2706 10049 20005 40150 52020 700// 22200 10707 70035=
62164 11234 99572 10008 47597 /2827 10068 20023 40153 52016 700// 22200 00083 10607 70035=
62142 11234 99530 10021 47998 /2816 10063 20025 40231 52016 700// 22200 10503 70015=
AMOUK05 1123/ 99524 10028 46/// ///// 10062 20024 40226=
AMOUK32 1123/ 99559 70047 46/// ///// 10047 20027 40195=
AMOUK44 1123/ 99540 70029 46/// ///// 1//// 2//// 40225=
AMOUK03 1123/ 99533 10010 46/// ///// 10054 20031 40234=
AMOUK24 1123/ 99572 70073 46/// ///// 10047 20009 40165=
AMOUK30 1123/ 99564 70055 46/// ///// 10027 20009 40186=
AMOUK06 1123/ 99511 10014 46/// ///// 10067 20038 40133=
AMOUK11 1123/ 99534 70054 46/// ///// 10072 20019=
AMOUK23 1123/ 99581 70036 46/// ///// 10049 20015 40168=
AMOUK28 1123/ 99579 70068 46/// ///// 1//// 2//// 40169=
AMOUK14 1123/ 99533 70062 46/// ///// 10051 20002 40193=
AMOUK31 1123/ 99556 70062 46/// ///// 10067 20030 40182=
AMOUK04 1123/ 99535 70032 46/// ///// 10049 20012 40218=
AMOUK45 1123/ 99509 70014 46/// ///// 10020 20007 40236 22200   402360103=
AMOUK16 1123/ 99521 70055 46/// ///// 10072 20055 40180=
AMOUK13 1123/ 99519 10013 46/// ///// 10033 20015 40252=
AMOUK43 1123/ 99546 70059 46/// ///// 10021 20006 40200=
AMOUK29 1123/ 99520 70063 46/// ///// 1//// 2//// 40183=
AMOUK26 1123/ 99511 10017 46/// ///// 10071 20024 40249=
AMOUK09 1123/ 99517 10017 46/// ///// 10061 20060 40254=
AMOUK42 1123/ 99506 70025 46/// ///// 10073 20028 40235=
AMOUK33 1123/ 99545 10057 46/// ///// 10066 20024 40157=
AMOUK34 1123/ 99519 10042 46/// ///// 10057 20020 40237=
62303 11234 99516 70051 46/// /1418 10085 20054 40207 22200 10502
70012=
64046 11234 99605 70042 46/// /3120 10061 20011 40121 333 90710 91128=
62050 11234 99500 70044 46/// /1415 10100 20062 40215 22200 10502
70012=
62095 11234 99529 70156 46/// /1530 10111 20102 49941 57050 22200
00099 10811 70056 333 90710 91141=
62170 11234 99514 10020 46/98 /2805 10071 20021 40253 53013 22200
00103 10501 70005=
62023 11233 99514 70079 46/96 /1634 10096 2//// 4//// 5////
22200 10606 70028 333 91138 555 70043 81001=
VQIV8 11234 99572 10196 41/98 80422 10028 20010 49969 58020 76186
88/// 22243 2//// 80021=
0000066100
044
UDAF01 FAPR 112320
AMDAR 1123
LVR AFZA26 1933N 02701W 112224 F350 MS480 262/065 TB0 S031 333 F/// VG015=
LVR AFZA26 1858N 02611W 112231 F350 MS482 259/054 TB0 S031 333 F/// VG014=
LVR AFZA26 1823N 02520W 112238 F350 MS480 258/055 TB0 S031 333 F/// VG014=
LVR AFZA26 1748N 02430W 112245 F350 MS478 264/062 TB0 S031 333 F/// VG015=
LVR AFZA26 1712N 02339W 112252 F350 MS477 266/063 TB0 S031 333 F/// VG014=
LVR AFZA26 1635N 02248W 112259 F350 MS473 273/065 TB0 S031 333 F/// VG014=
LVR AFZA26 1558N 02158W 112306 F350 MS474 272/066 TB0 S031 333 F/// VG014=
LVR AFZA26 1521N 02108W 112313 F350 MS471 276/060 TB0 S031 333 F/// VG014=
0000066100
045
UDAF01 FAPR 112319
AMDAR 1123
LVR AFZA65 0351S 02310E 112227 F380 MS527 114/037 TB0 S031 333 F/// VG000=
LVR AFZA65 0254S 02259E 112235 F380 MS527 113/039 TB0 S031 333 F/// VG000=
LVR AFZA65 0158S 02248E 112242 F380 MS528 116/039 TB0 S031 333 F/// VG000=
LVR AFZA65 0102S 02237E 112249 F380 MS524 117/031 TB0 S031 333 F/// VG000=
LVR AFZA65 0006S 02227E 112256 F380 MS531 116/019 TB0 S031 333 F/// VG000=
LVR AFZA65 0047N 02216E 112303 F380 MS535 115/019 TB0 S031 333 F/// VG000=
LVR AFZA65 0143N 02206E 112310 F380 MS532 132/021 TB0 S031 333 F/// VG000=
LVR AFZA65 0238N 02156E 112317 F380 MS532 138/025 TB0 S031 333 F/// VG000=
0000023300
046
SNVD20 KWNB 112300 RRM
BBXX
44096 11231 99370 70758 46/// ///// 1//// 92317 22200 00078 11003
20502 312// 41003 70015=
44099 11231 99369 70757 46/// ///// 1//// 92318 22200 00077 10903
20903 312// 41101 70016=
0000011800
047
SNVD15 KWNB 112200 RRS
BBXX
42022 11221 99275 70837 46/// /1107 10220 40139 92229 555 11080
22087=
0000032800
048
SNVD22 KWNB 112300 RRN
BBXX
46215 11231 99352 71209 46/// ///// 1//// 92305 22200 00142 11504
21003 325// 41503 70022=
46219 11231 99332 71199 46/// ///// 1//// 92310 22200 00144 11306
21003 331// 41305 70028=
46211 11231 99469 71242 46/// ///// 1//// 92313 22200 00087 11315
21009 326// 41312 70075=
0000042300
049
SNVD17 KWNB 112300 RRI
BBXX
52211 11231 99153 11457 46/// ///// 1//// 92318 22200 00281 10905
20905 334// 41102 70027=
52202 11231 99137 11448 46/// ///// 1//// 92300 22200 00282 11006
21005 335// 41102 70030=
51206 11231 99198 71550 46/// ///// 1//// 92303 22200 00249 11105
20904 335// 41103 70024=
46114 11231 99367 71223 46/// ///// 1//// 92308 22200 00127 11306
21002 330// 41305 70028=
0000009700
050
SPIN90 VILK 112321
SPECI VILK 112321Z 36005KT 0800 R27/2000 FG VV/// 12/12 Q1019=
0000013800
051
SNVE15 KWNB 112300 RRH
BBXX
51202 11231 99214 71577 46/// ///// 1//// 92307 22200 00247 11106
21004 302// 41104 70030=
0000044600
052
SXXX32 EUMS 112318
22856700
:PRS 1 /1 3348 3346 3348 3346 3344 3344 3343 3336 3335 3334 3333 3328 3325 3327 3321 3323 3321 3317 3319 3318 3316 3313 3312 3307 3308 3311 3304 3299 3295 3293 :RAD 1 /3 6842 6838 6832 6827 6822 6817 6813 6805 6799 6792 6788 6785 6779 6771 6762 6753 6748 6745 6737 6734 :ENC 3 /5 5042 5031 5021 5011 5004 4991 4985 4981 4967 4945 4939 4934 :SW1 18 /60 0 :SW2 48 /60 32 :BAT 14 /15 12.4 :NAME 22856700
0000045100
053
SXXX32 EUMS 112318 RRA
32D8A2BE
:PRS 1 /1 1877 1878 1875 1874 1883 1876 1878 1879 1874 1878 1886 1887 1873 1884 1885 1887 1892 1888 1886 1899 1904 1902 1896 1894 1895 1917 1908 1905 1906 1917 :RAD 1 /3 7450 7454 7452 7457 7459 7462 7467 7477 7480 7492 7502 7506 7506 7519 7525 7532 7534 7533 7537 7529 :ENC 3 /5 4889 4891 4898 4906 4915 4928 4938 4949 4957 4962 4968 4972 :SW1 18 /60 51 :SW2 48 /60 56 :BAT 14 /15 12.4 :NAME 32D8A2BE
0000047700
054
SXXX32 EUMS 112319
262AD2C2
OT12 ID:PK-ORMA-10 DT:2014 01 11 23 18
:PRS /1 07767 07761 07767 07770 07765 07780 07755 07760 07760 07769 07769 07747 07750 07747 07746 07769 07761 07777 07786 07786 07781 07806 07794 07802 07804 07803 07796 07813 07800 07817
:RAD /1 ///// ///// ///// ///// ///// ///// ///// ///// ///// ///// ///// ///// ///// ///// ///// ///// ///// ///// ///// ///// ///// ///// ///// ///// ///// ///// ///// ///// ///// /////
:BAT 12.3V
0000036300
055
SXXX32 EUMS 112321
12FFB3C8
:PRS 1 /1 M 3007 3012 3006 3005 2998 3000 3003 3003 2994 3005 3006 3022 3019 3020 3020 3013 3014 3024 3018 3021 3013 3025 3027 3040 3040 3036 3037 3037 3037 :RAD 1 /3 5944 5944 5948 5956 5959 5960 5965 5976 5977 5976 :ENC 1 /5 -144 -144 -144 -144 -144 -144 :SW1 21 /60 0 :SW2 51 /60 49 :BAT 14 /15 13.8 :NAME 12FFB3C8
0000070100
056
SXXX32 EUMS 112321 RRA
22E7E6D2
OT12 ID:ID-ROTE-11 DT:2014 01 11 23 19
:PRS /1 -10711 -10154 -10660 -10713 -10688 -10689 -10688 -10689 -10711 -10714 -10716 -10718 -10713 -10713 -10714 -10712 -10163 -10656 -10710 -10687 -10689 -10689 -10691 -10712 -10711 -10715 -10713 -10711 -10711 -10709
:PR2 /1 03937 03928 03931 03930 03945 03955 03918 03963 03965 03951 03986 03968 03963 03954 03970 03991 03984 04019 04000 03974 04015 03970 04010 03985 04013 03998 03990 04010 03989 04011
:RAD /1 05490 05493 05514 05514 05518 05514 05534 05534 05538 05513 05530 05542 05545 05552 05575 05553 05566 05553 05554 05557 05568 05566 05597 05573 05563 05570 05575 05571 05583 05595
:BAT 12.4V
0000066700
057
SXXX32 EUMS 112322
32CC9580
OT12 ID:ID-ENGG-07 DT:2014 01 11 23 21
:PRS /1 01428 01416 01411 01394 01411 01419 01418 01384 01401 01442 01414 01415 01384 01414 01400 01392 01406 01377 01400 01393 01418 01389 01377 01407 01406 01415 01369 01398 01407 01425
:PR2 /1 04892 04883 04876 04897 04886 04886 04890 04863 04873 04895 04892 04893 04852 04897 04887 04876 04889 04868 04880 04890 04871 04861 04862 04867 04868 04876 04848 04874 04869 04891
:RAD /1 05753 05766 05726 05735 05731 05722 05759 05711 05719 05733 05725 05735 05737 05712 05742 05720 05733 05721 05717 05727 05727 05717 05719 05739 05712 05736 05691 05708 05716 05728
:BAT 12.2V
0000073500
058
SNAL50 DAMM 112300
AAXX 11234
60612 46/// /0000 10138 21039=
60617 NIL=
60619 46/// /1709 10160 21029=
60621 46/// /2812 10166 21029=
60633 46/// /0610 10136 21041=
60650 NIL=
60660 46/// /0000 10193 21064=
60661 NIL=
60662 46/// /0000 10135 21130=
60663 NIL=
60664 46/// /0000 10096 21072=
60667 46/// /0000 10168 21033=
60672 46/// /0000 10140 21102=
60673 NIL=
60674 NIL=
60675 NIL=
60676 NIL=
60677 46/// /0000 10089 21081=
60679 46/// /1409 10107 21207=
60681 NIL=
60682 46/// /0000 10106 21077=
60683 NIL=
60685 NIL=
60688 NIL=
60689 46/// /3202 10196 21038=
60691 NIL=
60692 46/// ///03 10156 21050=
60693 NIL=
60694 NIL=
60695 46/// /0803 10155 21052=
0000010900
059
UANT99 KDDL 112323
ARP THY4 5039N04437W 2323 F350 MS59 314/114 KT
TCJNM QXT AOW 112323 J38A
0000022400
060
SSVX07 KARS 112321
ZZYY 48732 11014 2250/ 774413 130882 6112/
11119 11141 49795
444 20120 11014 2307/ 504//=
ZZYY 48732 11014 2300/ 774413 130882 6112/
11119 11141 49795
444 20120 11014 2307/ 504//=
0000109400
061
SSVX08 KARS 112321
ZZYY 15002 10014 1200/ 700000 009870 6112/
33311 88872 20001 32733 20020 32727 43504 20040 32398 43592
20060 32021 20080 31765 20100 31648 20120 31578 43568 20140 31503
20180 31397 20300 31050 20500 30705
444 20120 10014 1325/ 521//=
ZZYY 15002 11014 22004 700010 009860 6111/
11119 01513 10264 29086
22219 00277
444 20110 11014 2222/ 521// 60001=
ZZYY 31005 10014 1200/ 518881 034679 6112/
33311 88872 20001 32727 43728 20040 32696 43740 20060 32552 43737
20100 32440 20120 32404 20140 32347 20180 32122 20300 31489
20500 30960
444 20120 10014 1149/ 521//=
ZZYY 31005 11014 22004 518893 034683 6112/
11119 00814 10268 29074 40178
22219 00272
444 20120 11014 2011/ 521// 60401=
ZZYY 15006 10014 1200/ 506029 009995 6111/
33311 88872 20001 32576 20040 32525 43611 20060 32303 20080 32018
20100 31635 20120 31471 43551 20140 31354 20180 31179 20300 30988
20500 30742
444 20110 10014 1323/ 521//=
ZZYY 15006 11014 22004 506025 009992 6111/
11119 01213 10254 29078
22219 00258
444 20110 11014 2222/ 521// 60401=
00000000