0000010200
226
SABZ20 SBEG 110255
METAR SBEG 110300Z 08010KT 8000 -RA SCT007 BKN020
23/21 Q1013=

0000011000
227
SPUS41 KWBC 110255
SPECI
KGON 110251Z 00000KT 1SM R05/6000VP6000FT BR OVC004 03/02 A3030=

0000053400
228
SAGR32 LGAT 110250
METAR LGAL 110250Z NIL=
METAR LGEL 110250Z 00000KT CAVOK 07/06 Q1019 RMK SCT180=
METAR LGIO 110250Z AUTO 00000KT //// // ////// 06/05 Q1022
     RE//=
METAR LGKV 110250Z NIL=
METAR LGMT 110250Z 00000KT 9999 FEW015 BKN020 11/09 Q1021=
METAR LGPZ 110250Z 08004KT 9999 SCT025 BKN080 12/10 Q1023 NOSIG=
METAR LGRX 110250Z 00000KT 9999 BKN060 11/08 Q1022 NOSIG=
METAR LGSK 110250Z NIL=
METAR LGSR 110250Z AUTO 23011KT //// // ////// 15/11 Q1019
     RE//=
METAR LGZA 110250Z NIL=

0000105400
229
SAMX43 MMMZ 110300
METAR MMCL 110241Z 00000KT 10SM  SCT100 SCT230 19/16 A2995 
      RMK SLP129 51010 903 8/034=
METAR MMCN 110248Z 30004KT 10SM  SKC 15/08 A2997 
      RMK SLP149 HZY DSNT CI SE-SW=
METAR MMDO 110251Z 21004KT 8SM  BKN120 10/M05 A3021 
      RMK SLP198 52022 908 8/050 ISOL CI=
METAR MMGM 110256Z  NIL=
METAR MMHO 110249Z 00000KT 10SM  SKC 17/M02 A3004 
      RMK SLP167 52016 926 HZY=
METAR MMLM 110241Z 31008KT 10SM  FEW100 BKN220 16/12 A2999 
      RMK SLP156 8/038=
METAR MMLP 110240Z 02003KT 10SM  FEW200 18/12 A3003 
      RMK SLP217 52017 917 8/008 ISOL SC/AC=
METAR MMLT 110256Z  NIL=
METAR MMML 110241Z 12004KT 10SM  FEW200 17/M02 A3006 
      RMK SLP180 52010 927 8/002=
METAR MMMZ 110251Z 01007KT 10SM  FEW100 SCT220 17/12 A2993 
      RMK SLP135 52017 903 8/032 HZY=
METAR MMSD 110242Z 31006KT 10SM  FEW120 18/13 A3000 
      RMK SLP151 52017 910 8/030=
METAR MMSL 110244Z 20004KT 12SM  FEW030 FEW120 19/14 A2997 
      RMK 8/530 ISOL CI=
METAR MMTJ 110256Z  NIL=

0000048000
230
SAGR33 LGAT 110250
METAR LGBL 110250Z VRB03KT 9999 FEW020 BKN180 06/04 Q1021 NOSIG=
METAR LGHI 110250Z NIL=
METAR LGKC 110250Z NIL=
METAR LGKF 110250Z AUTO VRB02KT //// // ////// 14/09 Q1022
     RE//=
METAR LGKP 110250Z NIL=
METAR LGKZ 110250Z AUTO 33011KT //// // ////// 06/00 Q1020
     RE//=
METAR LGMK 110250Z NIL=
METAR LGNX 110250Z NIL=
METAR LGPA 110250Z AUTO VRB01KT //// // ////// 12/10 Q1019
     RE//=
METAR LGSO 110250Z NIL=

0000010400
231
SAUK31 EGGY 110250 RRA
METAR EGKK 110250Z 21007KT 9999 -RA SCT008 BKN011 08/07 Q1013=

0000008300
232
SABZ24 SBPA 110300
METAR SBPA 110300Z 15004KT CAVOK 22/21 Q1010=

0000014500
233
SADL31 EDZO 110250 CCA
METAR COR EDDM 110250Z 00000KT 9999 1400N R26R/0650N R26L/P2000N BCFG
NSC
     M03/M03 Q1019 NOSIG=

0000036300
234
SAFI34 EFHK 110250
EFET 110250Z AUTO 13002KT CAVOK M31/M34 Q1014=
EFIV 110250Z AUTO 26002KT 9999 OVC004 M29/M33 Q1016=
EFKE 110250Z AUTO 02012KT CAVOK M15/M19 Q1009=
EFKI 110250Z AUTO 04010KT 9999 BKN018 BKN027 BKN110 M13/M15 Q1002=
EFKS 110250Z AUTO 02009KT 340V080 CAVOK M17/M21 Q1006=
EFKT 110250Z AUTO VRB01KT CAVOK M23/M26 Q1014=

0000009800
235
SPUS42 KWBC 110255
SPECI
KMOB 110251Z 15007KT 1/2SM -RA FG VV003 15/15 A2997=

0000089300
236
SAMX42 MMGL 110255
METAR MMAS 110241Z 09003KT 10SM  SKC 12/01 A3023 RMK ISOL SC AC=
METAR MMEP 110246Z 22002KT 6SM  SKC 13/10 A3012 
      RMK SLP207 52020 901 BR ARND=
METAR MMGL 110245Z 20004KT 10SM  BKN030 16/04 A3016 
      RMK SLP166 52024 904 8/500=
METAR MMIA 110244Z 00000KT 6SM  SCT025 BKN120 BKN210 21/18 A3003 
      RMK 8/631 HZY RTS=
METAR MMLO 110244Z 30003KT 8SM  BKN030 BKN220 16/06 A3021 
      RMK SLP141 52020 952 8/502=
METAR MMMM 110241Z 27004KT 7SM  SCT030 BKN070 BKN230 15/07 A3021 
      RMK SLP132 52016 959 8/538=
METAR MMPR 110246Z 00000KT 15SM  SKC 22/18 A2993 
      RMK SLP132 52020 901 AC SE=
METAR MMSP 110243Z 26007KT 10SM  FEW030 15/02 A3018 
      RMK SLP139 52014 960 8/400=
METAR MMZC 110240Z 23005KT 10SM  SKC 08/M01 A3025=
METAR MMZO 110245Z 36005KT 10SM SCT040 BKN250 22/16 A2989
      RMK 8/106 HZY=

0000008900
237
SABZ21 SBNT 110300
METAR SBNT 110300Z 12006KT 9999 SCT022 26/21 Q1012=

0000008300
238
SABZ19 SBBE 110300
METAR SBBE 110300Z 08004KT CAVOK 24/23 Q1011=

0000022800
239
FTFI31 EFHK 110200 AAA
TAF AMD EFTU 110256Z 1103/1203 36005KT 9999 -SG BKN007 TEMPO
     1103/1106 7000 -SN BKN010 BECMG 1106/1108 BKN012
     TEMPO 1109/1113 7000 -SN BKN009 BECMG 1113/1116
     BKN020=

0000022300
240
SPUS70 KWBC 110256
SPECI
KAUW 110252Z AUTO 09003KT 1 1/4SM -SN BR BKN017 OVC041 M02/M03
     A2947 RMK AO2 P0004=
KSET 110252Z AUTO 16005KT 9SM OVC010 04/04 A2960 RMK AO2 RAB35E45
     P0000 TSNO=

0000010500
241
SPUS41 KWBC 110256
SPECI
KCEF 110253Z AUTO 29003KT 5SM BR SCT005 OVC010 00/00 A3030=

0000011300
242
SPUS41 KWBC 110256
SPECI
KDOV 110253Z AUTO 04004KT 1SM R01/2200FT -RA BR FEW055 04/04 A3021=

0000012200
243
SPUS43 KWBC 110256
SPECI
KDLH 110252Z 18007KT 3/4SM R09/5500VP6000FT -FZDZ BR OVC002
M03/M05 A2947=

0000013800
244
SAUK36 EGGY 110250 RRA
METAR EGVN 110250Z 23007KT 9999 FEW008 BKN012 BKN020 08/07 Q1011
     TEMPO 3000 -RADZ SCT006=

0000050400
245
SASW39 LSSW 110250 RRA
METAR LSMA 110250Z AUTO 21003KT 2700NDV BR BKN120 01/00 Q1019 RMK
           YLO=
METAR LSMD 110250Z AUTO 00000KT 0250NDV R11/0350N R29/0550V0750N FG
           VV001 01/01 Q1019 RMK RED=
METAR LSME 110250Z AUTO 22001KT 0900NDV R04/P2000N R22/1100N FG
           OVC002 03/03 Q1019 RMK RED=
METAR LSMM 110250Z AUTO VRB01KT 5000NDV SCT120 01/00 Q1018 RMK GRN=
METAR LSMP 110250Z AUTO 00000KT 6000NDV FEW140 OVC190 M00/M01 Q1018
           RMK GRN=

00000000