0000005600
294
UENL20 EHDB 110700
TTDD 1107/ 06235 NIL=
0000067400
295
UKNL20 EHDB 110700
TTBB 11078 06235
00011 06806 11719 08303 22618 15116 33597 15130 44576
16711 55547 18922 66480 26540 77411 35733 88399 36922
99380 39145 11351 43520 22324 47542 33311 47750 44293
50338 55287 50959 66241 57361 77215 56171 88163 51380
99109 53578
21212 00011 22009 11002 21015 22986 22018 33961 24018
44918 24520 55815 27018 66722 26515 77611 27517 88532
25017 99381 25524 11345 24022 22315 23527 33305 23535
44255 24539 55219 25525 66179 26519 77167 25521 88154
27024 99143 26518 11135 28016 22126 26512 33121 25513
44117 25514 55109 29016
31313 48008 80650
41414 872//
51515 11894 25519 22800 27017 33600 27017=
0000008900
296
SAIN90 VOMM 111040
METAR VOMM 111040Z 06005KT 8000 NSC 28/18 Q1012 NOSIG=
0000032800
297
SAIN34 VOMM 111030
METAR VOBL 111030Z 07006KT 020V150 CAVOK 31/11 Q1015 NOSIG=
METAR VOCB 111030Z 11004KT 6000 NSC 29/14 Q1013 NOSIG=
METAR VOCI 111030Z 26006KT 4500 HZ FEW020 31/20 Q1009 NOSIG=
METAR VOCL 111030Z 29009KT 8000 FEW015 30/22 Q1010 NOSIG=
METAR VOMD 111030Z 09007KT 7000 FEW020 31/16 Q1011=
0000009500
298
SAIN90 VOHS 111040
METAR VOHS 111040Z VRB02KT 5000 HZ SCT020 30/10 Q1014 NOSIG=
0000022500
299
FTIN90 VEPT 110900
TAF VEPT 110900Z 1112/1121 14005KT 1800 BR/-RA SCT010 BKN100 BECMG
     1116/1118 1500 BR=
TAF VEGY 110900Z 1112/1121 14005KT 1800 BR/-RA SCT010 BKN100 BECMG
     1116/1118 1500 BR=

0000013000
300
FCIN90 VEPT 110900
TAF VERC/VEJS 110900Z 1112/1121 32005KT 1800 BR/-RA SCT015 BKN090
BECMG 1116/1118 1500 BR=

0000005600
301
ULNL20 EHDB 110700
TTCC 1107/ 06235 NIL=
0000033600
302
USNL20 EHDB 110700
TTAA 11071 06235
99011 06806 22009 00088 06207 21515 92724 02601 24519
85404 00902 26519 70931 09111 27016 50547 23930 25519
40705 36722 25524 30899 49136 24034 25016 56361 24037
20158 54176 25025 15343 53378 27022 10604 ///// /////
88241 57361 24534
77255 24539 40516
31313 48008 80650=
0000022400
303
SSVX07 KARS 110847
ZZYY 48733 11014 0840/ 772964 152373 6113/
11119 11258 40054
444 20130 11014 0748/ 504//=
ZZYY 48507 11014 0840/ 773058 135058 6113/
11119 11269 49944
444 20130 11014 0836/ 504//=
0000011100
304
UANT01 CWAO 110847
ARP UPS218 5106N02318W 0847 F300 MS52 205/79 KT
N360UP QXT IGW 110847 F22A
0000018500
305
UAPA01 KWBC 110848
ARP UAL1452 2347N 15322W 0835 F340 MS47 230/065KT=
ARP ANZ90D 14N 156E 0840 F330 MS36 360/000KT=
ARP UAL328 2600N 14610W 0842 F360 MS44 250/085KT=
0000010200
306
SPIN90 VOCB 110700
SPECI VOCB 110700Z 07006KT 5000 HZ FEW015 SCT080 26/18 Q1016 NOSIG=
0000008300
307
UANT01 KWBC 110848
ARP UAL1162 3022N 7015W 0838 F340 TB LIGHT CHOP=
0000010900
308
UANT01 CWAO 110848
ARP THY10 5426N05657W 0848 F330 MS62 276/79 KT
TCJJL QXS YHO 110848 F11A
0000068500
309
UDNA02 EGRR 110850
AMDAR 1106
LVR EU1334   5522N 10504W 110635 F330 MS545 312/093 TB0 S031=
LVR EU1334   5545N 10328W 110642 F330 MS545 305/064 TB0 S031=
LVR EU1334   5606N 10152W 110649 F329 MS555 304/040 TB0 S031=
LVR EU1334   5627N 10014W 110656 F330 MS560 284/034 TB0 S031=
LVR EU1334   5649N 09838W 110703 F335 MS562 272/029 TB0 S031=
LVR EU1334   5712N 09700W 110710 F350 MS585 268/025 TB0 S031=
LVR EU1334   5733N 09520W 110717 F350 MS605 248/029 TB0 S031=
LVR EU1334   5753N 09338W 110724 F350 MS625 234/033 TB0 S031=
LVR EU1334   5811N 09154W 110731 F350 MS640 242/036 TB0 S031=
LVR EU1334   5828N 09007W 110738 F349 MS637 247/042 TB0 S031=
0000190500
310
UDEU02 EGRR 110850 RRD
AMDAR 1108
ASC EU7010   5559N 00324W 110829 F012 PS017 265/029 TB/ S031=
ASC EU7010   5558N 00326W 110829 F021 PS002 277/029 TB/ S031=
ASC EU7010   5558N 00328W 110829 F026 MS015 283/030 TB/ S031=
ASC EU7010   5557N 00330W 110829 F033 MS025 281/035 TB/ S031=
ASC EU7010   5556N 00332W 110829 F043 MS045 288/035 TB/ S031=
ASC EU7010   5555N 00334W 110829 F054 MS065 284/030 TB/ S031=
ASC EU7010   5555N 00336W 110829 F069 MS100 283/034 TB/ S031=
ASC EU7010   5554N 00338W 110829 F085 MS127 289/034 TB/ S031=
ASC EU7010   5553N 00340W 110829 F099 MS157 293/033 TB/ S031=
ASC EU7010   5552N 00343W 110829 F121 MS210 292/030 TB/ S031=
ASC EU7010   5551N 00347W 110830 F158 MS300 289/032 TB/ S031=
ASC EU7010   5550N 00351W 110830 F193 MS372 283/042 TB/ S031=
ASC EU7010   5548N 00354W 110830 F211 MS402 294/050 TB/ S031=
ASC EU7010   5544N 00353W 110831 F222 MS425 306/051 TB/ S031=
ASC EU7010   5540N 00353W 110831 F232 MS425 298/055 TB/ S031=
ASC EU7010   5536N 00352W 110831 F240 MS427 299/056 TB/ S031=
ASC EU7010   5531N 00351W 110832 F256 MS455 291/049 TB/ S031=
ASC EU7010   5527N 00349W 110832 F284 MS457 275/054 TB/ S031=
ASC EU7010   5523N 00347W 110832 F300 MS477 275/064 TB/ S031=
ASC EU7010   5518N 00345W 110833 F310 MS472 275/070 TB/ S031=
ASC EU7010   5514N 00343W 110833 F310 MS462 279/067 TB/ S031=
ASC EU7010   5509N 00341W 110833 F316 MS465 275/054 TB/ S031=
ASC EU7010   5505N 00338W 110834 F330 MS467 279/047 TB/ S031=
ASC EU7010   5501N 00337W 110834 F330 MS467 282/052 TB/ S031=
ASC EU7010   5456N 00335W 110834 F330 MS462 280/053 TB/ S031=
ASC EU7010   5452N 00334W 110835 F330 MS467 281/055 TB/ S031=
ASC EU7010   5447N 00332W 110835 F330 MS475 280/057 TB/ S031=
ASC EU7010   5443N 00331W 110835 F330 MS477 282/058 TB/ S031=
ASC EU7010   5438N 00329W 110836 F331 MS475 277/061 TB/ S031=
0000068500
311
UDNT02 EGRR 110850
AMDAR 1106
LVR EU0285   5014N 04420W 110623 F349 MS632 322/066 TB0 S031=
LVR EU0285   5029N 04257W 110630 F350 MS610 322/046 TB0 S031=
LVR EU0285   5043N 04134W 110637 F349 MS592 322/039 TB0 S031=
LVR EU0285   5057N 04010W 110644 F350 MS562 319/028 TB0 S031=
LVR EU0285   5116N 03849W 110651 F349 MS562 287/017 TB0 S031=
LVR EU0285   5135N 03726W 110658 F350 MS557 271/016 TB0 S031=
LVR EU0285   5153N 03601W 110705 F350 MS552 215/023 TB0 S031=
LVR EU0285   5211N 03435W 110712 F349 MS570 213/030 TB0 S031=
LVR EU0285   5227N 03307W 110719 F349 MS555 207/046 TB0 S031=
LVR EU0285   5243N 03137W 110726 F349 MS585 204/052 TB0 S031=
0000068900
312
UDEU02 EGRR 110850 RRE
AMDAR 1107
ASC EU0020   6149N 00853E 110741 F328 MS481 273/025 TB/ S031=
LVR EU0020   6105N 00758E 110748 F340 MS505 265/029 TB/ S031=
LVR EU0020   6022N 00706E 110755 F340 MS503 257/024 TB/ S031=
LVR EU0020   5938N 00616E 110802 F340 MS505 264/029 TB/ S031=
LVR EU0020   5854N 00529E 110809 F340 MS505 254/036 TB/ S031=
LVR EU0020   5811N 00444E 110816 F340 MS505 238/041 TB/ S031=
LVR EU0020   5728N 00402E 110823 F340 MS505 239/046 TB/ S031=
ASC EU0020   5647N 00317E 110830 F346 MS493 248/041 TB/ S031=
LVR EU0020   5601N 00243E 110837 F360 MS485 231/033 TB/ S031=
LVR EU0020   5513N 00216E 110844 F360 MS480 246/035 TB/ S031=
0000068500
313
UDNT02 EGRR 110851
AMDAR 1105
LVR EU0285   4700N 05732W 110513 F349 MS620 311/050 TB0 S031=
LVR EU0285   4722N 05619W 110520 F349 MS620 310/049 TB0 S031=
LVR EU0285   4744N 05503W 110527 F350 MS625 303/044 TB0 S031=
LVR EU0285   4804N 05346W 110534 F349 MS637 293/042 TB0 S031=
LVR EU0285   4824N 05227W 110541 F349 MS655 298/050 TB0 S031=
LVR EU0285   4843N 05108W 110548 F349 MS652 293/055 TB0 S031=
LVR EU0285   4902N 04946W 110555 F350 MS642 286/055 TB0 S031=
LVR EU0285   4922N 04824W 110602 F350 MS642 299/058 TB0 S031=
LVR EU0285   4940N 04703W 110609 F349 MS637 309/061 TB0 S031=
LVR EU0285   4958N 04542W 110616 F349 MS640 316/069 TB0 S031=
00000000