0000021900
546
SABU31 LBSM 102230
METAR LBSF 102230Z 20003MPS 4200 BR NSC M00/M00 Q1022 NOSIG=
METAR LBWN 102230Z 29005MPS CAVOK 07/03 Q1018 NOSIG=
METAR LBBG 102230Z 26003MPS 230V320 9000 NSC 04/03 Q1019 NOSIG=

0000021400
547
SASQ31 LZIB 102230
METAR LZIB 102230Z VRB01KT CAVOK 02/M00 Q1021=
METAR LZKZ 102230Z VRB01KT 0400 R01/0450N FG BKN001 00/00 Q1018=
METAR LZTT 102230Z 29013KT 260V320 9999 FEW043 01/M05 Q1015=

0000019200
548
SASQ41 LZIB 102230
METAR LZPP 102230Z AUTO 33004KT 300V360 9999 // SCT100/// 01/M02
Q1020=
METAR LZSL 102230Z VRB04KT 9999 SCT055 01/M03 Q1019=
METAR LZZI 102230Z NIL=

0000025300
549
SAHU41 LHBM 102230
METAR LHKE 102215Z 23002MPS CAVOK 01/M01 Q1022 NOSIG RMK BLU=
METAR LHPA 102215Z 15001MPS 4000 BR SCT040 M00/M01 Q1021 BECMG 6000
     NSW RMK GRN=
METAR LHSN 102215Z 25004MPS CAVOK 04/M01 Q1021 NOSIG RMK BLU=

0000020200
550
FTLT31 EYVI 102300
TAF EYVI 102300Z 1100/1124 27018G28KT 6000 BKN005 OVC012 TEMPO
1100/1103 4000 RA BECMG 1106/1107 24008G18KT BECMG 1112/1114 5000
RA TEMPO 1118/1124 3000 OVC003=

0000038800
551
SAHK31 VHHH 102230
METAR VHHH 102230Z 05010KT 8000 FEW025 15/11 Q1024 NOSIG=
METAR RCTP 102230Z VRB02KT 9999 FEW020 15/12 Q1024 NOSIG RMK A3025
=
METAR RCKH 102230Z 03006KT 360V060 6000 FEW015 SCT035 16/13 Q1023
NOSIG RMK A3023=
METAR RCSS 102230Z 11006KT 9999 FEW025 14/11 Q1025 NOSIG RMK A3027
=
METAR VMMC 102230Z 03010KT 7000 SCT025 15/11 Q1023 NOSIG=

0000020100
552
FTUY01 SUMU 102230
TAF
SUMU 102230Z 1100/1124 16005KT 9999 FEW023 TX22/1118Z TN18/1109Z
TEMPO 1100/1108 5000 TSRA SCT030 FEW040CB SCT100 BECMG 1106/1108
17015G25KT 9999 BKN015=

0000013100
553
FTAI41 FHAW 102300
TAF FHAW 102230Z 1100/1118 14014KT 9999 FEW020 PROB30 TEMPO 1100/1108
 7000
-SHRA SCT018=

0000020100
554
FTUY01 SUMU 102230
TAF
SULS 102230Z 1100/1124 16005KT 9999 FEW023 TX22/1118Z TN18/1109Z
TEMPO 1100/1108 5000 TSRA SCT030 FEW040CB SCT100 BECMG 1106/1108
17015G25KT 9999 BKN015=

0000020100
555
FTUY01 SUMU 102230
TAF
SUAA 102230Z 1100/1124 16005KT 9999 FEW023 TX22/1118Z TN18/1109Z
TEMPO 1100/1108 5000 TSRA SCT030 FEW040CB SCT100 BECMG 1106/1108
17015G25KT 9999 BKN015=

0000207300
556
SPUS70 KWBC 102232
SPECI
KCUB 102228Z AUTO 00000KT 1 1/4SM +RA BR SCT003 OVC014 10/10 A3016
     RMK AO2 P0083 T01000100 TSNO=
KFAY 102228Z AUTO 36006KT 2 1/2SM -RA BR FEW041 OVC060 13/12 A3017
     RMK AO2 RAB21 P0001=
KHJO 102228Z AUTO 00000KT 2 1/2SM HZ CLR 16/06 A3021 RMK AO2
     T01560061=
KHUF 102228Z 16008KT 2SM -RA BR BKN006 OVC016 04/04 A2983 RMK AO2
     CIG 004V010 P0004=
KJFK 102228Z 00000KT 1SM R04R/6000VP6000FT -RA BR OVC008 03/02
     A3036 RMK AO2 SFC VIS 1 1/2 DZE06RAB06 P0000 $=
KMKC 102228Z 25006KT 10SM SCT005 OVC018 06/04 A2954 RMK AO2
     T00560039=
KOMA 102228Z 00000KT 3SM BR SCT008 OVC010 02/M01 A2957 RMK AO2
     T00171006=
KOVS 102228Z AUTO 00000KT 1 3/4SM -RA BR OVC008 02/00 A2960 RMK
     AO2 RAB21 P0000 T00170000=
KPOU 102228Z 00000KT 6SM HZ BKN025 BKN049 OVC080 00/M03 A3034 RMK
     AO2=
KSMQ 102228Z AUTO 00000KT 1SM BR OVC007 01/00 A3032 RMK AO2
     T00060000 TSNO=
KTOI 102228Z AUTO 09004KT 2 1/2SM BR OVC003 13/12 A3004 RMK AO2
     RAB03E14 P0000 T01330122=
PABA 102228Z AUTO 27021KT 1 1/4SM -SN OVC022 M26/M29 A2986 RMK AO2
     P0000 FZRANO=
PAOO 102228Z AUTO 05017KT 10SM FEW028 BKN050 M06/M08 A2940 RMK AO2
     TSNO BKN V OVC $=
KCGI 102229Z 14016KT 2 1/2SM RA BR FEW044 BKN060 OVC075 07/06
     A2976 RMK AO2 P0007 T00720061=
KCRE 102229Z VRB05KT 10SM FEW022 BKN028 OVC045 18/16 A3016 RMK
     AO2=
KEAU 102229Z 13006KT 2 1/2SM BR OVC005 M02/M03 A2960 RMK AO2 I1000
     T10221028=
KESF 102229Z AUTO 24007KT 2SM -RA BR BKN008 BKN015 OVC021 18/17
     A2987 RMK AO2 RAB16 P0001=
KFRG 102229Z 00000KT 1 1/2SM BR OVC014 02/02 A3035 RMK AO2
     RAB2154E03UPB03E06 P0000=
KIAD 102229Z 00000KT 1SM R01R/4000VP6000FT -RA BR OVC005 01/01
     A3029 RMK AO2 P0001=
KPAH 102229Z 14012KT 9SM SCT018 OVC100 09/07 A2981 RMK AO2 PRESFR
     T00890067=
KY50 102229Z AUTO 00000KT 1SM -FZRA OVC004 M01/ A2967 RMK AO2 TSNO
     FZRAB23 P0000 $=
PAJZ 102233Z AUTO 00000KT 1/2SM FZFG OVC002 M07/M08 A2954 RMK AO2
     PWINO TSNO $=

0000011700
557
SPUS31 KWBC 102232
SPECI
KJFK 102228Z 00000KT 1SM R04R/6000VP6000FT -RA BR OVC008 03/02
A3036=

0000009800
558
SPUS43 KWBC 102232
SPECI
KMKC 102228Z 25006KT 10SM SCT005 OVC018 06/04 A2954=

0000010100
559
SPUS43 KWBC 102232
SPECI
KOMA 102228Z 00000KT 3SM BR SCT008 OVC010 02/M01 A2957=

0000013300
560
SASA31 KWBC 102200 RRE
METAR
SOCA 102230Z AUTO 12004KT 080V170 9000 -RA SCT005 BKN009 BKN023
     23/22 Q1011=

0000020100
561
FTUY01 SUMU 102230
TAF
SUCA 102230Z 1100/1124 16005KT 9999 FEW023 TX22/1118Z TN18/1109Z
TEMPO 1100/1108 5000 TSRA SCT030 FEW040CB SCT100 BECMG 1106/1108
17015G25KT 9999 BKN015=

0000011300
562
SPPR00 SPIM 102233
SPECI SPZO 102233Z 35008KT 310V040 9999 FEW036 SCT050 BKN100 15/05
Q1026=

0000024000
563
SACZ31 LKPW 102230
METAR LKKV 102230Z NIL=
METAR LKMT 102230Z 22011KT CAVOK 02/M03 Q1018 NOSIG=
METAR LKPR 102230Z 23011KT CAVOK 03/M00 Q1018 NOSIG=
METAR LKTB 102230Z 16003KT 100V190 9999 FEW039 01/M01 Q1019 NOSIG=

0000010400
564
SAIL31 BICC 102230
METAR BIKF 102230Z 27016KT 9999 FEW039 BKN050 BKN065 02/M03 Q0991=

0000022900
565
FTUS31 KWBC 102233 AAA
TAF AMD
KBOS 102231Z 1023/1124 19004KT 5SM BR BKN012 OVC020
     FM110400 20005KT P6SM OVC012
     FM111300 17010G18KT 2SM -RA OVC008
     FM111500 18012G25KT 1/2SM -RA FG OVC003=

00000000