0000024100
634
SOAT10 KWAL 110858
FA8005BC 011085837 OT12 ID:KN-BASS-01 DT:2014 01 11 08 56
:RD -3106 -3115 -3110 -3106 -3127 -3124 -3117 -3107 -3094 -3119
:PR 0589 0556 0581 0536 0553 0607 0590 0565 0558 0516
:B 13.7V
 46+1NN 219E
0000102200
635
SAYE20 OYSC 110900
METAR OYAA 110900Z 13015KT 9999 SCT020 28/18 Q1016=
METAR OYAM 110900Z NIL=
METAR OYAR 110900Z 30004KT 9999 FEW030 21/06 Q////=
METAR OYAS 110900Z NIL=
METAR OYAT 110900Z 13013KT CAVOK 23/06 Q1020=
METAR OYDM 110900Z 09006KT CAVOK 20/M04 Q////=
METAR OYGD 110900Z 09018KT 9999 SCT025 BKN060 25/18 Q1016=
METAR OYHD 110900Z 19020KT 8000 FEW030 28/21 Q1015=
METAR OYHJ 110900Z 26007KT 9999 SCT015 SCT200 17/14 Q////=
METAR OYIB 110900Z 35004KT CAVOK 23/28 Q1021=
METAR OYKD 110900Z NIL=
METAR OYMB 110900Z 03010KT CAVOK 26/09 Q1016=
METAR OYMK 110900Z 17014KT CAVOK 28/21 Q////=
METAR OYMT 110900Z 13004KT 9999 FEW020 20/11 Q////=
METAR OYRN 110900Z NIL=
METAR OYSD 110900Z 16004KT CAVOK 20/M09 Q////=
METAR OYSH 110900Z 18012KT 8000 SCT030 21/08 Q////=
METAR OYSN 110900Z NIL=
METAR OYSQ 110900Z 09017KT 9999 FEW018 BKN030 26/21 Q1014=
METAR OYSY 110900Z 03009KT 350V060 CAVOK 25/10 Q1018=
METAR OYTZ 110900Z 17006KT 9999 FEW025 SCT200 22/10 Q1021=
0000056100
636
UDEU02 EGRR 110900 RRA
AMDAR 1108
DES EU0735   5336N 00853E 110845 F156 MS192 250/021 TB/ S031=
DES EU0735   5342N 00906E 110846 F114 MS135 261/029 TB/ S031=
DES EU0735   5347N 00918E 110848 F094 MS100 264/036 TB/ S031=
DES EU0735   5349N 00932E 110849 F061 MS042 253/038 TB/ S031=
DES EU0735   5350N 00945E 110851 F035 PS002 250/032 TB/ S031=
DES EU0735   5347N 00952E 110852 F029 PS015 255/030 TB/ S031=
DES EU0735   5343N 00955E 110854 F015 PS022 227/022 TB/ S031=
DES EU0735   5340N 00957E 110855 F004 PS045 201/014 TB/ S031=
0000068500
637
UDSA02 EGRR 110900
AMDAR 1108
LVR EU1301   2052S 04504W 110825 F400 MS572 136/025 TB0 S031=
LVR EU1301   2126S 04548W 110832 F360 MS502 149/024 TB0 S031=
LVR EU1301   2156S 04623W 110839 F333 MS432 145/018 TB0 S031=
LVR EU1301   2245S 04617W 110846 F226 MS172 023/023 TB0 S031=
DES EU1301   2258S 04616W 110848 F182 MS082 014/019 TB/ S031=
DES EU1301   2307S 04616W 110849 F159 MS032 014/012 TB/ S031=
DES EU1301   2313S 04616W 110850 F137 PS010 021/007 TB/ S031=
DES EU1301   2317S 04620W 110852 F117 PS040 011/004 TB/ S031=
DES EU1301   2318S 04624W 110853 F108 PS067 005/006 TB/ S031=
DES EU1301   2321S 04635W 110855 F098 PS090 005/005 TB/ S031=
0000043300
638
UDEU02 EGRR 110900 RRB
AMDAR 1108
LVR EU0126   4747N 00009W 110823 F330 MS557 240/054 TB/ S031=
LVR EU0126   4714N 00056W 110830 F330 MS557 243/050 TB/ S031=
LVR EU0126   4639N 00142W 110837 F330 MS557 245/045 TB/ S031=
LVR EU0126   4604N 00227W 110844 F330 MS557 248/040 TB/ S031=
LVR EU0126   4528N 00313W 110851 F330 MS557 252/036 TB/ S031=
LVR EU0126   4452N 00358W 110858 F330 MS557 251/029 TB/ S031=
0000068900
639
UDEU02 EGRR 110900 RRC
AMDAR 1108
UNS EU6386   5114N 00019W 110852 F029 PS010 348/027 TB/ S031=
UNS EU6386   5114N 00020W 110853 F032 PS010 330/021 TB/ S031=
ASC EU6386   5117N 00019W 110853 F048 MS025 305/026 TB/ S031=
ASC EU6386   5119N 00018W 110854 F064 MS042 285/023 TB/ S031=
ASC EU6386   5121N 00016W 110855 F081 MS082 282/027 TB/ S031=
ASC EU6386   5123N 00014W 110855 F099 MS070 280/052 TB/ S031=
ASC EU6386   5126N 00012W 110856 F118 MS115 278/058 TB/ S031=
UNS EU6386   5129N 00009W 110856 F138 MS165 269/064 TB/ S031=
ASC EU6386   5133N 00008W 110857 F159 MS222 273/062 TB/ S031=
ASC EU6386   5136N 00007W 110857 F182 MS267 279/076 TB/ S031=
0000043300
640
UDEU02 EGRR 110900 RRD
AMDAR 1108
LVR EU0064   5034N 00147W 110821 F390 MS510 257/045 TB/ S031=
LVR EU0064   4948N 00223W 110828 F390 MS522 264/042 TB/ S031=
LVR EU0064   4901N 00257W 110835 F390 MS572 259/049 TB/ S031=
LVR EU0064   4816N 00330W 110842 F390 MS582 254/042 TB/ S031=
LVR EU0064   4729N 00402W 110849 F390 MS592 261/034 TB/ S031=
LVR EU0064   4642N 00433W 110856 F390 MS605 255/033 TB/ S031=
0000011200
641
SICV20 GVAC 110900
AAXX 11094
08594 42475 50404 10190 20134 40164 84202 333 58011 84614 83070=
0000016100
642
SNVX19 LFVW 110800 RRB
BBXX
MINUK03 1108/ 99525 10046 46/// ///// 10058 40118 57004=
MINUK01 1108/ 99571 70021 46/// ///// 10023 40085 52041=
0000014200
643
UANT99 KDDL 110857
ARP AFR009 4825N02635W 0857 F390 4858N02000W 0927 4858N01500W MS50
 218/59 KT
FGSPY QXT AOE 110857 F60A
0000011100
644
UANT99 KDDL 110857
ARP UAL938 5308N02852W 0857 F350 MS60 186/75 KT
N651UA DDL XXW 110857 F27A
0000011000
645
UANT99 KDDL 110858
ARP SVA061 5154N01914W 0857 F360 MS61 226/65 KT
HZAKI QXT AOE 110858 F41A
0000011000
646
UANT99 KDDL 110858
ARP AFR009 4826N02623W 0858 F390 MS51 219/60 KT
FGSPY QXT AOE 110858 F61A
0000122300
647
UDAS02 BABJ 110849
AMDAR 1108
LVR CNFPQL 3646N 11809E 110845 F187 MS265 281/054 TB/ S//1=
LVR CNFPQL 3646N 11810E 110845 F187 MS263 281/054 TB/ S//1=
LVR CNFPQL 3646N 11814E 110846 F187 MS260 279/052 TB/ S//1=
LVR CNFPQL 3646N 11819E 110846 F187 MS263 280/052 TB/ S//1=
LVR CNFPYL 3002N 11523E 110845 F246 MS278 259/074 TB/ S//1=
LVR CNFPYL 2958N 11525E 110846 F246 MS273 258/073 TB/ S//1=
LVR CNFPYL 2955N 11526E 110846 F246 MS271 258/073 TB/ S//1=
ASC CNFLWR 3109N 12107E 110846 F097 MS045 267/040 TB/ S//1=
ASC CNFLWR 3106N 12107E 110846 F111 MS058 269/041 TB/ S//1=
ASC CNFLWR 3104N 12106E 110847 F125 MS075 265/051 TB/ S//1=
ASC CNFLWR 3103N 12104E 110848 F138 MS109 256/048 TB/ S//1=
ASC CNFNXP 2250N 11359E 110846 F106 PS045 268/024 TB/ S//1=
ASC CNFNXP 2251N 11402E 110847 F117 PS028 257/023 TB/ S//1=
ASC CNFNXP 2253N 11406E 110847 F118 PS030 260/023 TB/ S//1=
ASC CNFNXP 2254N 11410E 110848 F118 PS030 260/023 TB/ S//1=
DES CNFPQK 3733N 12127E 110846 F041 MS070 282/005 TB/ S//1=
DES CNFPQK 3734N 12130E 110847 F030 MS053 246/019 TB/ S//1=
DES CNFPQK 3733N 12130E 110847 F026 MS043 263/014 TB/ S//1=
DES CNFPQK 3732N 12130E 110848 F020 MS025 244/007 TB/ S//1=
0000153300
648
UDAS02 BABJ 110851
AMDAR 1108
LVR CNFNXQ 4149N 10154E 110839 F321 MS578 284/051 TB/ S//1=
LVR CNFNXQ 4155N 10130E 110842 F321 MS573 284/046 TB/ S//1=
LVR CNFNXQ 4202N 10105E 110845 F321 MS588 281/051 TB/ S//1=
LVR CNFNXQ 4202N 10039E 110848 F321 MS590 283/051 TB/ S//1=
LVR CNFPYL 2951N 11528E 110847 F246 MS268 257/072 TB/ S//1=
LVR CNFPYL 2947N 11529E 110848 F246 MS266 257/073 TB/ S//1=
LVR CNFPYL 2944N 11531E 110848 F246 MS260 259/076 TB/ S//1=
LVR CNFPYL 2943N 11531E 110848 F246 MS260 259/077 TB/ S//1=
ASC CNFPQL 3646N 11824E 110847 F189 MS264 278/053 TB/ S//1=
ASC CNFPQL 3646N 11829E 110848 F195 MS278 273/058 TB/ S//1=
ASC CNFPQL 3646N 11834E 110848 F201 MS290 273/059 TB/ S//1=
ASC CNFPQL 3646N 11837E 110848 F203 MS296 274/060 TB/ S//1=
ASC CNFNXM 2510N 10314E 110847 F217 MS160 257/076 TB/ S//1=
ASC CNFNXM 2513N 10317E 110847 F227 MS178 247/083 TB/ S//1=
ASC CNFNXM 2516N 10320E 110848 F237 MS198 245/080 TB/ S//1=
ASC CNFNXM 2519N 10324E 110849 F250 MS236 246/071 TB/ S//1=
LVR CNFPTK 3218N 11921E 110846 F226 MS283 277/051 TB/ S//1=
LVR CNFPTK 3215N 11923E 110847 F226 MS283 277/052 TB/ S//1=
DES CNFPTK 3209N 11928E 110848 F223 MS275 282/049 TB/ S//1=
DES CNFPTK 3204N 11935E 110849 F213 MS245 283/049 TB/ S//1=
ASC CNFLWR 3103N 12103E 110848 F140 MS113 255/051 TB/ S//1=
ASC CNFLWR 3102N 12101E 110848 F145 MS120 256/049 TB/ S//1=
ASC CNFLWR 3102N 12058E 110849 F157 MS103 279/046 TB/ S//1=
ASC CNFLWR 3101N 12054E 110849 F171 MS133 275/050 TB/ S//1=
0000018000
649
UAAU01 AMMC 110900
AIREP
JST166 4225S 16300E 0850 F360 MS53 198/075=
ANZ708 3547S 15805E 0851 F370 MS55 160/078=
FJI915 2900S16300E 0805 F360 MS52 286/055=

0000042300
650
FTIN90 VOBL 110900
TAF VOBL 110900Z 1112/1218 09005KT 6000 FEW015 BECMG 1121/1122 3000
HZ SCT010 BECMG 1122/1123 1500 BR SCT005 TEMPO 1200/1203 0800 FG
BKN005 BECMG 1203/1204 3000 HZ SCT010 BECMG 1204/1205 6000 FEW015=
   
TAF VOML 110900Z 1112/1218 29005KT 6000 FEW015 BECMG 1121/1122
09005KT 3000 HZ SCT010 TEMPO 1200/1203 1500 BR SCT005 BECMG
1203/1204 6000 FEW015 BECMG 1209/1210 29010KT=

0000011000
651
SIIN90 VOHY 110900
AAXX 11094
43081 32597 30902 10302 20173 39686 40105 82801
  333 58006=
0000042400
652
SASD31 OEJD 110900
METAR OEDF 110900Z 18013KT 9999 SCT030 BKN100 17/12 Q1019 NOSIG=
METAR OEDR 110900Z 18014KT 9999 SCT040 OVC080  18/14 Q1017 NOSIG=
METAR OEJN 110900Z 30014KT 9999 FEW040 25/10 Q1018 NOSIG=
METAR OEMA 110900Z 10004KT 8000 SKC 16/00 Q1023 NOSIG=
METAR OERK 110900Z 24009KT 9999 BKN040 17/11 Q1020 NOSIG=
METAR OYAA 110900Z 13015KT 9999 SCT020 28/18 Q1016=
METAR OYSN 110900Z NIL=
0000018100
653
SAOM32 OOMS 110900
METAR OOMS 110850Z 06011KT 9999 FEW020 SCT200 21/08 Q1021 NOSIG=
METAR OOSA 110850Z 12014KT 080V150 9999 SCT025 26/15
Q1016 NOSIG  RH52 RMK01=
00000000