0000015900
546
SACN62 CYPW 110200
METAR CYPW 110200Z 09009G18KT 5SM -RA BR FEW003 FEW007 BKN022 OVC040
 04/03 A2971 RMK SF1SF1SC5SC2 SF TR PRESFR SLP066=

0000008500
547
SAEA20 HKNC 110100 RRE
METAR HKNC 110100Z 00000KT SKC 15/12 Q1022=

0000011200
548
SACN62 CYQI 110200
METAR CYQI 110200Z 23009G15KT 6SM BR OVC010 03/02 A3037 RMK SF8
 SLP285=

0000014400
549
SACN62 CYQK 110200
METAR CYQK 110200Z 18006KT 1SM -SN BR OVC002 M05/M06 A2939 RMK SF8
 VIS VRB 3/4-11/4 CIG VRB 1-3 SLP978=

0000013000
550
SACN62 CYND 110200
METAR CYND 110200Z 08009KT 10SM OVC012 M06/M08 A3018 RMK SC8 LAST
 OBS/NEXT 111200 SLP224=

0000010600
551
SACN62 CYOW 110200
METAR CYOW 110200Z 07007KT 10SM OVC012 M05/M07 A3015 RMK SC8 SLP218=

0000010600
552
SACN62 CYQB 110200
METAR CYQB 110200Z 00000KT 10SM OVC016 M09/M10 A3025 RMK SC8 SLP250=

0000011900
553
SACN62 CYPA 110200
METAR CYPA 110200Z 27004KT 15SM FEW072 SCT240 M11/M12 A2945 RMK
 AC1CS2 SLP004=

0000039900
554
SAHW31 KWBC 110200
METAR
PBKH NIL=
PHJR 110153Z 03008KT 350V080 10SM FEW029 25/19 A2989=
PHKO 110153Z 27005KT 10SM CLR 27/19 A2985=
PHLI 110153Z 03015KT 10SM SCT023 BKN041 25/19 A2993=
PHNL 110153Z 06008KT 10SM -RA FEW022 SCT045 BKN070 24/19 A2988=
PHOG 110154Z 02010KT 10SM FEW035 26/20 A2988=
PHTO 110153Z 05007KT 10SM FEW025 SCT050 BKN120 24/19 A2991=
PNGF NIL=

0000038800
555
SAAL31 DAAA 110200
METAR DAAG 110200Z VRB02KT 9999 FEW030 SCT080 11/07 Q1016=
METAR DAAT 110200Z NIL=
METAR DABB 110200Z 22003KT CAVOK 08/07 Q1017=
METAR DABC 110200Z 00000KT CAVOK 07/02 Q1019=
METAR DAON 110200Z 22010KT 9999 FEW030 BKN100 18/03 Q1015=
METAR DAOO 110200Z 00000KT 9999 FEW026 BKN233 12/07 Q1015=
METAR DAUH 110200Z 36004KT CAVOK 10/07 Q1021=

0000049500
556
SAIO31 KWBC 110200
METAR
FIMP 110200Z 10003KT 9999 FEW017 26/23 Q1016=
FIMR 110200Z 09012KT 9999 BKN018 27/24 Q1017=
FJDG 110155Z 28018G24KT 9000 -SHRA SCT020 BKN050 OVC080 26/25
     A2985 RMK SLP105 P0003 T02620254=
FMCH NIL=
FMCV NIL=
FMCZ NIL=
FMEE NIL=
FMMI 110200Z 31005KT 9999 FEW007 SCT020 BKN230 17/17 Q1021 TEMPO
     4000 BR=
FMMT NIL=
FMNN NIL=
FSIA NIL=
FSSS NIL=
VRMM NIL=
VYMD NIL=
VYYY NIL=
WBGG NIL=
WBKK NIL=
WBSB NIL=

0000096100
557
SANT31 KWBC 110200
METAR
BGBW 110155Z NIL=
BGCO 110150Z AUTO 01003KT //// OVC065/// M09/M10 Q1010=
BGGH 110150Z AUTO 14008KT 9999NDV FEW055/// BKN200/// M08/M15
     Q0993=
BGJN 110150Z AUTO 08005KT 9999NDV BKN170/// M08/M21 Q0995=
BGKK 110150Z AUTO /////KT 3000NDV -FZRA BR BKN012/// M03/M08
     Q0989=
BGSF 110150Z AUTO 06008KT 9999NDV BKN230/// M15/M22 Q0996=
BGTL 110158Z AUTO 08016KT 9999 FEW200 M12/M16 A2926 RMK AO2 SLP897
     T11171155=
BIAR 110200Z VRB09G22KT 9999 -SN BKN033 02/M03 Q0996=
BIEG 110200Z 04015G26KT 2500 -SN VV008 01/M00 Q0997 RMK R04/790194
     RWY SANDED=
BIKF 110200Z 26013KT 9999 FEW037 BKN095 02/M03 Q0993=
BIRK 110200Z 29009KT 9999 FEW015 SCT050 BKN070 02/M03 Q0993=
GVAC 110200Z 04005KT 9999 BKN014 BKN200 20/15 Q1016 NOSIG=
GVPR NIL=
LPBJ NIL=
LPLA 110200Z 25007G17KT 210V310 9999 SCT016 SCT038 14/11 Q1004=
TXKF 110155Z 07011KT 9999 SCT028 BKN036 BKN300 18/12 Q1032=

0000162900
558
SAPA31 KWBC 110200
METAR
AGGG NIL=
AGGH NIL=
ANAU NIL=
AYPY NIL=
PGNT NIL=
PGRO 110151Z COR 06014G24KT 7SM SCT025 SCT120 27/23 A2993=
PGSN 110154Z 05016KT 10SM SCT027 BKN048 29/22 A2992 RMK AO2 SLP152
     T02890222=
PGUA 110158Z AUTO 05015G20KT 10SM CLR 29/23 A2992 RMK AO2 SLP122
     T02860230 ?=
PGUM 110154Z 07016KT 10SM SCT034 BKN046 29/22 A2991 RMK AO2 SLP122
     T02890217=
PGWT 110155Z 08019G25KT 7SM FEW016 SCT030 SCT080 BKN150 28/22
     A2992 RMK WIND DATA ESTIMATED=
PHJH 110150Z 02015KT 15SM FEW020 FEW035 25/18 A2988=
PHJR 110153Z 03008KT 350V080 10SM FEW029 25/19 A2989 RMK AO2
     SLP127 T02500189=
PHMK 110154Z 02009G15KT 10SM CLR 25/21 A2989 RMK AO2 SLP125
     T02500206=
PJON NIL=
PKMJ NIL=
PKMR 110152Z 03005KT 15SM FEW015 SCT050 OVC300 31/24 A2972 RMK
     SLP064 T03090238=
PKWA 110200Z AUTO 07016KT 10SM SCT032 31/20 A2976 RMK AO2
     T03090201=
PLCH 110200Z 14012KT 9999 SCT018 28/24 Q1006=
PMDY 110156Z AUTO 10015KT 5SM HZ CLR 22/17 A3013 RMK AO2 TSNO
     T02220172 SLP512 ?=
PTKK 110151Z 01011KT 15SM FEW014 SCT120 OVC280 31/25 A2979 RMK
     SLP089 T03070249=
PTKR 110153Z 09007KT 14SM -SHRA SCT016CB OVC280 28/26 A2984 RMK
     SHRAB40 CB ALQDS MOV W SLP106 T02780255=
PTPN NIL=
PTRO 110159Z 08008G12KT 14SM BKN015CB BKN110 OVC290 27/26 A2982
     RMK CB VC ALQDS=
PTSA NIL=
PTTP 110153Z 06006KT 15SM FEW018 BKN300 31/24 A2981 RMK SLP093
     T03070237=
PTYA 110153Z 07011KT 12SM SCT016 BKN130 OVC300 30/25 A2985 RMK
     SLP110 T02990248=
PWAK 110155Z 07010KT 10SM FEW024 29/29 A2997 RMK AO2A=

0000045000
559
FTCN35 CWAO 110200 AAA
TAF AMD CYTZ 110205Z 1102/1202 07009KT 6SM BR SCT020 OVC025 TEMPO
     1102/1106 5SM -DZ BR OVC008
    FM110600 06008KT 6SM -RA BR OVC010 TEMPO 1106/1107 2SM -RA BR
     OVC005
    FM110700 12008KT 1SM -RA BR OVC003
    FM110900 16008KT 1/2SM -RA FG VV002
    FM111400 20010KT 11/2SM -RA BR OVC003
    FM112200 23015G25KT P6SM -SHRA OVC012
    RMK FCST BASED ON AUTO OBS. NXT FCST BY 110800Z=

0000009500
560
SPCN51 CWAO 110205
SPECI CWCL 110205Z AUTO 17002KT 4SM OVC001 M03/M07 A2966=

0000022600
561
SAIE32 EIDB 110200
METAR EICM 110200Z NIL=
METAR EIDL 110200Z NIL=
METAR EIKY 110200Z NIL=
METAR EIME 110200Z 20009KT 9999 FEW020 SCT110 01/01 Q1012=
METAR EISG 110200Z NIL=
METAR EIWF 110200Z NIL=

0000010300
562
SAMX41 MMMX 110205
METAR MMPB 110201Z RTD 00000KT 10SM  SKC 13/05 A3027 RMK ISOL SC=

0000010600
563
SACN62 CYQL 110200
METAR CYQL 110200Z 05004KT 15SM BKN080 M01/M05 A2967 RMK AC7 SLP080=

0000011900
564
SACN62 CYQU 110200
METAR CYQU 110200Z 28007KT 25SM FEW100 SCT220 M05/M11 A2954 RMK
 AC2CI2 SLP044=

0000010200
565
SACN62 CYRT 110200
METAR CYRT 110200Z 35010KT 15SM IC SKC M33/M37 A2972 RMK SLP070=

00000000