0000043600
706
FTCN35 CWAO 102300
TAF CYQG 102338Z 1100/1124 17010KT 5SM BR OVC025 TEMPO 1100/1102 3SM
     BR OVC005
    FM110200 18012KT 11/2SM -RA BR OVC004 TEMPO 1102/1104 3SM BR
     OVC010
    FM110400 18012KT 1SM -RA BR OVC004 TEMPO 1104/1109 2SM -RA BR
     OVC006
    FM110900 20012KT 1SM -RA BR OVC003
     BECMG 1115/1117 24012G22KT
    FM111900 25015G30KT P6SM -SHRA OVC012
    RMK NXT FCST BY 110600Z=

0000026800
707
FTCN36 CWAO 102300
TAF CYOW 102338Z 1100/1124 08005KT P6SM OVC012 TEMPO 1100/1109 OVC009
    FM110900 08008KT 3SM -FZRA BR OVC003
    FM111300 10008KT 3/4SM -RA BR OVC002
    FM111800 20012G22KT 2SM -RA BR OVC007
    RMK NXT FCST BY 110300Z=

0000016900
708
FTCN36 CWAO 102300
TAF CYND 102338Z 1100/1102 08005KT P6SM OVC012 TEMPO 1100/1102 P6SM
     -SN OVC009
    RMK NXT FCST WILL BE ISSUED AT 111345Z=

0000033800
709
FTCN36 CWAO 102300
TAF CYUL 102338Z 1100/1124 VRB03KT P6SM OVC025 TEMPO 1100/1111 6SM BR
     OVC020
    FM111100 10008KT 5SM -FZDZ BR SCT003 OVC020 PROB40 1111/1113 2SM
     -FZRA BR OVC003
    FM111300 12015KT 11/2SM -RA BR OVC005
    FM111500 16018KT 3SM -RA BR SCT009 OVC012
    RMK NXT FCST BY 110300Z=

0000039300
710
FTCN36 CWAO 102300
TAF CYQB 102338Z 1100/1124 VRB03KT P6SM -SN SCT015 OVC040 TEMPO
     1100/1103 3SM -SN OVC015
    FM110300 VRB03KT P6SM OVC025 TEMPO 1103/1109 P6SM -SG OVC015
    FM110900 05005KT P6SM BKN020
    FM111300 06010KT 3SM -FZRA BR OVC008
    FM111600 08012KT 11/2SM -RA BR OVC003
    FM112100 17008KT 2SM RA BR OVC007
    RMK NXT FCST BY 110600Z=

0000044500
711
FTCN35 CWAO 102300
TAF CYYZ 102338Z 1100/1206 15006KT 1SM BR OVC003 TEMPO 1100/1106 3SM
     BR OVC010
    FM110600 12008KT 1SM -RA BR OVC003 TEMPO 1106/1109 3SM -RA BR
     OVC005
    FM110900 16008KT 1/2SM -RA FG VV001 TEMPO 1109/1114 2SM -RA BR
     OVC004
    FM111400 20010KT 11/2SM -RA BR OVC003
    FM112200 23015G25KT P6SM -SHRA OVC012
    FM120400 26015G25KT P6SM OVC020
    RMK NXT FCST BY 110300Z=

0000039300
712
FTCN36 CWAO 102300
TAF CYHU 102338Z 1100/1124 VRB03KT P6SM OVC025 TEMPO 1100/1111 6SM BR
     OVC020
    FM111100 10008KT 5SM -FZDZ BR SCT003 OVC020 PROB40 1111/1113 2SM
     -FZRA BR OVC003
    FM111300 14015KT 11/2SM -RA BR OVC005
    FM111500 18020KT 3SM -RA BR BKN009 OVC012
     BECMG 1122/1124 18012KT
    RMK FCST BASED ON AUTO OBS. NXT FCST BY 110600Z=

0000030200
713
FTCN38 CWAO 102300
TAF CYQX 102338Z 1100/1124 24015KT P6SM FEW020 BKN100 TEMPO 1100/1108
     5SM -SN OVC020
    FM110800 24012KT P6SM BKN025 TEMPO 1108/1121 5SM -SN BKN020
     BECMG 1112/1114 25010G20KT
    FM112100 22006KT P6SM BKN020 OVC220
    RMK NXT FCST BY 110600Z=

0000026700
714
FTCN38 CWAO 102300
TAF CYYT 102338Z 1100/1124 27015KT P6SM FEW020 SCT080 TEMPO 1100/1112
     5SM -SN BKN020
     BECMG 1110/1112 28015G25KT
    FM111900 27015KT P6SM BKN015 OVC240
     BECMG 1122/1124 23007KT
    RMK NXT FCST BY 110600Z=

0000037300
715
FTCN38 CWAO 102300
TAF CYJT 102338Z 1100/1124 25012G22KT P6SM BKN025 TEMPO 1100/1110 4SM
     -SHSN BKN020
    FM111000 26012G22KT P6SM SCT015 TEMPO 1110/1121 5SM -SN BKN015
     BECMG 1117/1119 26012KT
    FM112100 18007KT 6SM -SN OVC012 TEMPO 1121/1123 2SM -SN OVC009
    FM112300 16005KT 21/2SM -SNRA BR OVC010
    RMK NXT FCST BY 110600Z=

0000013800
716
FTCN33 CWAO 102300
TAF CYBK 102338Z 1100/1112 15005KT P6SM FEW020 TEMPO 1100/1112 5SM IC
    RMK NXT FCST BY 110600Z=

0000020300
717
FTCN33 CWAO 102300
TAF CYFS 102338Z 1100/1112 31005KT P6SM FEW100 BKN210
    FM110600 VRB03KT P6SM FEW040 BKN100 TEMPO 1106/1112 P6SM -SN
     BKN040
    RMK NXT FCST BY 110600Z=

0000015400
718
FTCN32 CWAO 102300
TAF CYDL 102338Z 1100/1103 VRB03KT P6SM BKN050
    RMK FCST BASED ON AUTO OBS. NXT FCST WILL BE ISSUED AT 111645Z=

0000024000
719
FTCN33 CWAO 102300
TAF CYDB 102338Z 1100/1112 29005KT P6SM FEW015 BKN140 TEMPO 1100/1109
     5SM -SN BKN030
    FM110900 VRB03KT P6SM SCT020 BKN040 TEMPO 1109/1112 5SM -SN
     BKN020
    RMK NXT FCST BY 110600Z=

0000019300
720
FTCN33 CWAO 102300
TAF CYEK 102338Z 1100/1112 35010KT P6SM FEW100 TEMPO 1100/1112 5SM IC
     BECMG 1102/1104 VRB03KT
    RMK FCST BASED ON AUTO OBS. NXT FCST BY 110600Z=

0000018400
721
FTCN32 CWAO 102300
TAF CYSF 102338Z 1100/1112 08006KT P6SM FEW020 BKN080 TEMPO 1100/1112
     2SM -SN OVC020
    RMK FCST BASED ON AUTO OBS. NXT FCST BY 110600Z=

0000014700
722
FTCN33 CWAO 102300
TAF CYEU 102338Z 1100/1102 ADVISORY OFFSITE VRB03KT P6SM FEW080
    RMK NXT FCST WILL BE ISSUED AT 111045Z=

0000015200
723
FTCN33 CWAO 102300
TAF CYHK 102338Z 1100/1112 24012KT P6SM BKN030 TEMPO 1100/1112 5SM IC
     BKN020
    RMK NXT FCST BY 110600Z=

0000019100
724
FTCN33 CWAO 102300
TAF CYMA 102338Z 1100/1112 VRB03KT P6SM FEW020 BKN080 TEMPO 1100/1108
     5SM -SN BKN020
     BECMG 1102/1104 01005KT
    RMK NXT FCST BY 110600Z=

0000012200
725
FTCN33 CWAO 102300
TAF CYHY 102338Z 1100/1112 30005KT P6SM FEW120 BKN230
    RMK NXT FCST BY 110600Z=

00000000