0000024100
034
SOAT10 KWAL 111033
FA8005BC 011103337 OT12 ID:KN-BASS-01 DT:2014 01 11 10 31
:RD -3107 -3102 -3100 -3093 -3088 -3070 -3097 -3105 -3089 -3084
:PR 0539 0551 0585 0531 0538 0541 0644 0599 0548 0542
:B 13.7V
 46+1NN 219E
0000057700
035
SAIR31 OIII 111030
METAR OIAW 111030Z 13010KT 9999 FEW025CB SCT020 OVC080
14/10 Q1016=
METAR OIFM 111030Z VRB02KT 2000 HZ SCT040 OVC100 02/M03 Q1017
      A3006=
METAR OIII 111030Z NIL=
METAR OIKB 111030Z 35006KT 7000 -RA FEW025CB SCT030 OVC090 16/07
Q1020 A3014=
METAR OIKK 111030Z NIL=
METAR OIMM 111030Z NIL=
METAR OISS 111030Z 00000KT 1500-RA BR FEW030CB SCT035 OVC080 03/02
Q1019 A3012=
METAR OITT 111030Z VRB02KT 6000 FEW035 BKN180 M03/M10 Q1020
A3014=
METAR OIZH 111030Z 11010KT 9999 SCT035 FEW040CB BKN090 07/M07
Q1020 A3012=
0000009500
036
SAGU31 MGGT 110800
METAR
MGGT  110800Z 36010KT 9999 BKN012 15/13 Q1025 A3027=
0000011000
037
UANT01 CWAO 110756
ARP VIR20V 5758N02921W 0756 F370 MS56 207/52 KT
GVFAB DDL XXW 110756 F71A
0000011100
038
UANT01 CWAO 110756
ARP AFR6735 5305N02908W 0756 F370 MS55 214/60 KT
FGUOC QXT AOE 110756 F30A
0000011100
039
UANT01 CWAO 110756
ARP BER7249 5601N02941W 0756 F390 MS56 224/51 KT
DALPD QXT AOE 110756 J94A
0000013000
040
SIAL21 DAMM 110300 RRB
AAXX 11034
60536 42660 61814 10115 20045 39309 48510 51006 84502 333 84633 83073
95990=
0000013000
041
SIAL21 DAMM 110300 RRC
AAXX 11034
60511 42565 60805 10061 20037 39062 48505 56005 81232 333 81826 84359
95990=
0000013000
042
SIAL21 DAMM 110300 RRD
AAXX 11034
60550 42560 62004 10054 20028 38688 48529 58002 82502 333 82530 85073
95990=
0000009300
043
SACY42 EGRR 110750
METAR LCRA 110750Z 31002KT 9999 FEW035 SCT250 15/06 Q1024=
0000012800
044
SNGI21 EGRR 110800
AAXX 11084
08495 42460 71103 10141 20123 30173 40179 53010 84532
  333 82713 84626 85360=
0000083700
045
SAUK39 EGRR 110750
METAR EGDM 110750Z 30006KT 9999 FEW040 04/03 Q1016 BLU NOSIG=
METAR EGQL 110750Z 25014KT 9999 FEW045 01/M01 Q1009 BLU NOSIG=
METAR EGQM 110750Z AUTO 28005KT 9999 FEW120/// SCT180/// 04/M00 Q1010=
METAR EGQS 110750Z 24010KT 9999 FEW013 FEW020CB 01/00 Q1007 BLU=
METAR EGUB 110750Z 27003KT 9999 FEW012 05/03 Q1016 BLU NOSIG=
METAR EGVN 110750Z 28002KT 9999 FEW030 04/02 Q1016 BLU NOSIG=
METAR EGVO 110750Z 27007KT 9999 FEW005 05/04 Q1016 BLU=
METAR EGWU 110750Z 30010KT 9999 FEW020 06/03 Q1015 BLU NOSIG=
METAR EGXC 110750Z 28008KT CAVOK 04/03 Q1013 BLU=
METAR EGXT 110750Z AUTO 27009KT 9999 NCD 03/01 Q1014=
METAR EGXV 110750Z AUTO 27007KT 9999 NCD 04/01 Q1012=
METAR EGXW 110750Z 27006KT 9999 FEW040 04/02 Q1013 BLU=
METAR EGYD 110750Z 27009KT 9999 FEW040 03/02 Q1014 BLU NOSIG=
0000043300
046
UDEU02 EGRR 110759 RRE
AMDAR 1107
LVR EU0057   5556N 00954E 110721 F332 MS562 263/072 TB/ S031=
LVR EU0057   5517N 00901E 110728 F380 MS562 257/046 TB/ S031=
LVR EU0057   5436N 00811E 110735 F380 MS535 250/046 TB/ S031=
LVR EU0057   5354N 00724E 110742 F380 MS552 249/051 TB/ S031=
LVR EU0057   5312N 00639E 110749 F380 MS547 244/048 TB/ S031=
LVR EU0057   5230N 00555E 110756 F380 MS570 234/045 TB/ S031=
0000011000
047
UANT99 KDDL 110756
ARP AFR083 5500N01558W 0756 F360 MS59 247/89 KT
FGSPO DDL BLY 110756 F34A
0000011000
048
UANT99 KDDL 110756
ARP VIR44B 5502N03742W 0756 F370 MS56 238/21 KT
GVGAL DDL XXH 110756 F58A
0000286700
049
UDFR01 LFPW 110757
AMDAR 1107
DES EU0943 4355N 00544E 110742 F206 MS257 /// 237/033 TB0 S031
333 F206 VG002=
DES EU0943 4353N 00546E 110742 F199 MS242 /// 242/032 TB0 S031
333 F199 VG007=
DES EU0943 4352N 00548E 110742 F193 MS234 /// 237/032 TB2 S031
333 F193 VG039=
DES EU0943 4350N 00550E 110743 F187 MS222 /// 236/032 TB1 S031
333 F187 VG011=
DES EU0943 4349N 00552E 110743 F180 MS207 /// 236/028 TB0 S031
333 F180 VG003=
DES EU0943 4347N 00553E 110743 F175 MS192 /// 230/024 TB0 S031
333 F175 VG006=
DES EU0943 4346N 00555E 110744 F169 MS187 /// 240/018 TB1 S031
333 F169 VG025=
DES EU0943 4344N 00556E 110744 F163 MS179 /// 241/017 TB0 S031
333 F163 VG001=
DES EU0943 4343N 00558E 110744 F159 MS164 /// 242/018 TB0 S031
333 F159 VG007=
UNS EU0943 4341N 00559E 110745 F153 MS154 /// 250/013 TB1 S031
333 F153 VG017=
DES EU0943 4340N 00602E 110745 F149 MS142 /// 246/017 TB0 S031
333 F149 VG002=
DES EU0943 4339N 00604E 110745 F144 MS127 /// 252/016 TB1 S031
333 F144 VG014=
DES EU0943 4338N 00606E 110746 F139 MS114 /// 248/017 TB0 S031
333 F139 VG005=
UNS EU0943 4337N 00608E 110746 F132 MS099 /// 262/016 TB1 S031
333 F132 VG014=
DES EU0943 4336N 00611E 110746 F124 MS087 /// 273/018 TB1 S031
333 F124 VG014=
DES EU0943 4335N 00613E 110747 F118 MS074 /// 264/022 TB0 S031
333 F118 VG003=
DES EU0943 4335N 00616E 110747 F112 MS057 /// 267/022 TB1 S031
333 F112 VG012=
DES EU0943 4334N 00618E 110747 F109 MS049 /// 266/020 TB0 S031
333 F109 VG003=
DES EU0943 4334N 00620E 110748 F107 MS042 /// 268/021 TB0 S031
333 F107 VG008=
DES EU0943 4333N 00623E 110748 F103 MS037 /// 270/022 TB1 S031
333 F103 VG010=
DES EU0943 4332N 00625E 110748 F098 MS027 /// 270/022 TB0 S031
333 F098 VG002=
UNS EU0943 4332N 00628E 110749 F092 MS014 /// 265/023 TB0 S031
333 F092 VG009=
DES EU0943 4332N 00629E 110749 F088 MS007 /// 259/020 TB1 S031
333 F088 VG011=
DES EU0943 4332N 00632E 110749 F083 PS002 /// 258/019 TB0 S031
333 F083 VG000=
DES EU0943 4331N 00637E 110750 F079 PS015 /// 260/017 TB1 S031
333 F079 VG021=
DES EU0943 4331N 00638E 110750 F074 PS025 /// 251/017 TB0 S031
333 F074 VG003=
DES EU0943 4331N 00641E 110751 F070 PS035 /// 242/019 TB1 S031
333 F070 VG016=
DES EU0943 4331N 00643E 110751 F069 PS035 /// 241/019 TB1 S031
333 F069 VG010=
DES EU0943 4331N 00646E 110751 F067 PS040 /// 238/018 TB1 S031
333 F067 VG012=
DES EU0943 4330N 00656E 110753 F047 PS077 /// 233/008 TB0 S031
333 F047 VG003=
DES EU0943 4330N 00658E 110753 F046 PS075 /// 229/007 TB3 S031
333 F046 VG078=
DES EU0943 4330N 00701E 110754 F036 PS045 /// 094/009 TB0 S031
333 F036 VG001=
DES EU0943 4329N 00703E 110754 F034 PS047 /// 082/011 TB0 S031
333 F034 VG002=
DES EU0943 4329N 00704E 110755 F031 PS052 /// 071/013 TB1 S031
333 F031 VG020=
0000011000
050
UANT99 KDDL 110756
ARP EIN124 5359N01551W 0756 F380 MS54 256/57 KT
EIEDY DDL BLY 110756 J42A
0000011100
051
UANT99 KDDL 110756
ARP FIN1990 6105N01514W 0756 F380 MS51 215/37 KT
OHLQE QXS REK 110756 J10A
0000011000
052
UANT99 KDDL 110756
ARP DAL89 5605N02423W 0756 F330 MS60 236/74 KT
N172DZ QXT AOE 110756 F66A
0000011000
053
UANT99 KDDL 110756
ARP ACA854 6305N04634W 0756 F350 MS61 187/17 KT
CGHKW DDL XXW 110757 J77A
00000000