0000009300
246
SPCN51 CWAO 102209
SPECI CZCP 102209Z AUTO 29021KT 1SM -SN CLR M32/ A2942=

0000010600
247
SABA31 MYNN 102202
METAR MYNN 102200Z 13006KT 9999 FEW018TCU SCT040 BKN080 25/22 A3009=

0000042800
248
SAID31 WIII 102200
METAR WIMM 102200Z 25003KT 4000 HZ FEW016CB BKN017 24/24 Q1011= 
METAR WIII 102200Z 21003KT 4000 BR FEW020 26/23 Q1009 NOSIG= 
METAR WADD 102200Z VRB01KT 9999 FEW015CB FEW015 SCT033 26/24 Q1010
NOSIG= 
METAR WAAA 102200Z 11004KT 7000 -RA FEW017CB SCT019 24/24 Q1011= 
METAR WARR 102200Z 21004KT 5000 HZ FEW020TCU 25/23 Q1010= 
METAR WIHH NIL=
METAR WABB NIL=
METAR WIDD NIL=

0000027300
249
FTBZ18 SBGR 110000
TAF SBRP 102200Z 1100/1124 11003KT CAVOK TN20/1108Z
TX35/1117Z
BECMG 1112/1114 33008KT 9999 SCT035
BECMG 1115/1117 SCT035
FEW045TCU
PROB40 1118/1121 30010KT 8000 TSRA SCT030 FEW040CB
BECMG
1121/1123 08005KT CAVOK RMK PGL=

0000010700
250
SAMX31 KWBC 102205 RRA
METAR MMTP 102202Z RTD 27006KT 10SM FEW250 29/22 A2985 RMK 8/002=

0000014900
251
SACA32 KWBC 102200 RRA
METAR
TAPA 102200Z 08011KT 9999 SCT019 25/19 Q1016 NOSIG=
TKPN 102200Z 11017KT 9999 FEW019 26/21 Q1016=

0000037200
252
SAPO31 LPMG 102200
METAR LPBJ 102200Z VRB01KT CAVOK 10/08 Q1014=
METAR LPFR 102200Z 02004KT CAVOK 12/07 Q1014=
METAR LPMA 102200Z VRB02KT CAVOK 16/09 Q1016 RS27004KT 0528001KT
2301009KT=
METAR LPPR 102200Z VRB02KT 9000 NSC 07/07 Q1016=
METAR LPPS 102200Z 01003KT 340V040 9999 FEW014 15/13 Q1016=
METAR LPPT 102200Z 32006KT CAVOK 12/10 Q1014=

0000032700
253
SAPO32 LPMG 102200
METAR LPAZ 102200Z 19020KT 8000 -RA BKN005 BKN022 16/15 Q1011=
METAR LPFL 102200Z NIL=
METAR LPHR 102200Z 21010KT 9999 FEW008 BKN014 BKN030 14/12 Q1007=
METAR LPLA 102200Z 25015KT 9999 FEW014 SCT020 BKN032 15/12 Q1005=
METAR LPPD 102200Z 22014KT 9000 -RA FEW005 SCT011 16/15 Q1009=

0000009500
254
SACA32 KWBC 102100 RRB
METAR
TKPN 102100Z 11015KT 9999 FEW019 26/21 Q1016=

0000025800
255
SAIO31 KWBC 102200 RRB
METAR
WBGG 102200Z 14002KT 6000 FEW000 SCT020 BKN150 22/22 Q1011
     NOSIG=
WBKK 102200Z 11003KT 9999 FEW014 BKN140 BKN270 24/22 Q1011
     NOSIG=
WBSB 102200Z 17005KT 9999 FEW005 BKN280 24/24 Q1011 NOSIG=

0000091000
256
FTAP32 FAPR 102100 RRA
TAF FACT 102200Z 1100/1206 17012KT 9999 FEW035
         BECMG 1105/1107 24009KT
         TX26/1112ZTN13/1104Z=
TAF FAGG 102200Z 1100/1124 34004KT 9999 SCT015 SCT030
         FM110900 14010KT 9999 SCT030
         TX24/1112ZTN14/1104Z=
TAF FALE 102200Z 1100/1206 23008KT 9999 SCT025 BKN035
         FM110700 19010KT 9999 BKN025
         BECMG 1109/1111 14015KT
         PROB30 TEMPO 1112/1121 5000 RA BKN015
         BECMG 1116/1118 08008KT
         TX25/1112ZTN21/1104Z=
TAF FAOR 102200Z 1100/1206 15010KT CAVOK
         FM110200 08012KT 9999 SCT010
         PROB30 TEMPO 1103/1106 5000 BR BKN006
         BECMG 1108/1110 33011KT SCT035
         PROB30 TEMPO 1112/1118 5000 TSRA FEW030CB
         BECMG 1117/1119 03013KT CAVOK
         BECMG 1122/1124 BKN008
         TEMPO 1201/1206 4000 BR BKN005
         TX29/1112ZTN17/1103Z=

0000135300
257
SAAG05 SABM 102200
METAR SAAR 102200Z  18009KT 9999  FEW036TCU SCT100
 30/20 Q1007=
METAR SABE 102200Z  02008KT 9999  BKN030 FEW045TCU
 29/21 Q1007=
METAR SACO 102200Z  14008KT 9999  FEW025 SCT100
28/18 Q1011=
METAR SADF 102200Z  36007KT 9999  SCT030 BKN100
29/20 Q1007=
METAR SAEZ 102200Z 17007KT 9999 FEW050TCU SCT100 30/16 Q1007=
METAR SAME 102200Z 09007KT CAVOK 30/06 Q1010=
METAR SANT 102200Z  20006KT 9999  FEW040 FEW045CB
BKN200  32/22 Q1003=
METAR SAOC 102200Z NIL=
METAR SARC 102200Z  05005KT 9999  FEW050CB  34/23
Q1005=
METAR SARE 102200Z 02004KT 9999 FEW035TCU SCT200 34/24 Q1005=
METAR SARF 102200Z NIL=
METAR SARI 102200Z  00000KT 9999  SCT030  31/24
Q1010=
METAR SARL 102200Z  09010KT 9999  FEW018 FEW045CB
SCT100 BKN200  25/21 Q1007 RETS=
METAR SARP 102200Z  00000KT 9999  FEW030CB  34/21
Q1009=
METAR SASA 102200Z  36004KT 9999  FEW020 SCT100
BKN200  28/14 Q1009=
METAR SASJ 102200Z NIL=
METAR SAVC 102200Z  05009KT 9999  FEW030 SCT200
19/01 Q1012=
METAR SAWE 102200Z  25019KT 9999  FEW020  13/05
Q1005=
METAR SAWG 102200Z  25018KT 9999  SCT035 BKN070
12/02 Q1010=
METAR SAWH 102200Z 23018KT 9999 VCSH BKN030 SCT100 08/03 Q1006=
METAR SAZM 102200Z NIL=
METAR SAZN 102200Z  27004KT CAVOK 27/M03 Q1011=
METAR SAZS 102200Z  32016KT CAVOK 19/03 Q1018=

0000022600
258
FTBZ18 SBGR 110000
TAF SBCF 102200Z 1100/1124 12005KT 9999 SCT020
TN19/1109Z TX30/1117Z
BECMG 1108/1111 05008KT
BECMG 1114/1116 11005KT
9999 SCT030 FEW045TCU
BECMG 1122/1124 14005KT SCT025 RMK PGL=

0000043600
259
SAID32 WIII 102200
METAR WIPT 102200Z VRB02KT 4000 R33/M0050N RA SCT019 24/23 Q1010= 
METAR WAOO 102200Z 04003KT 9000 FEW018 24/24 Q1010 NOSIG= 
METAR WADL 102200Z 00000KT 200 FG FEW016 24/24 Q1010= 
METAR WIBB 102200Z 00000KT 6000 SCT015 24/23 Q1010 NOSIG= 
METAR WALL 102200Z 32005KT 8000 -RA FEW017CB BKN018 24/23 Q1010RMK CB
TO S= 
METAR WAMM NIL=
METAR WIDN NIL=
METAR WIOO NIL=
METAR WIPP NIL=

0000009300
260
SAAI41 FHAW 102150
METAR FHAW 102150Z 14011KT 9999 FEW018 24/19 Q1014 BLU=

0000012100
261
SAUK36 EGGY 102150 RRB
METAR EGWU 102150Z AUTO 21007KT 9999 // BKN050/// SCT100/// 08/06
     Q1013=

0000077900
262
SANM40 FYWW 102200
METAR FYGB 102200Z AUTO 10003KT //// // ////// 23/04 Q1019=
METAR FYGF 102200Z AUTO 30003KT //// // ////// 18/04 Q1020=
METAR FYGO 102200Z AUTO 33002KT //// // ////// 22/15 Q1014=
METAR FYKT 102200Z AUTO 18005KT //// // ////// 24/07 Q1017=
METAR FYLZ 102200Z AUTO 17017KT //// // ////// 17/06 Q1013=
METAR FYML 102200Z AUTO 12005KT //// // ////// 28/04 Q1017=
METAR FYOA 102200Z AUTO 00000KT //// // ////// 23/05 Q1013=
METAR FYOO 102200Z AUTO 20003KT //// // ////// ///// Q1016=
METAR FYOW 102200Z AUTO 24003KT //// // ////// 22/02 Q1018=
METAR FYWB 102200Z AUTO 21002KT //// // ////// 16/14 Q1014=
METAR FYWH 102200Z AUTO 25008KT //// // ////// 16/00 Q1021=
METAR FYWW 102200Z AUTO 21003KT //// // ////// 21/04 Q1021=

0000128900
263
SAAU31 YBBN 102200
METAR YPAD 102200Z 17008KT CAVOK 21/11 Q1019
FM0030 22014KT CAVOK=
METAR YBAS 102200Z 25004KT CAVOK 28/M03 Q1016=
METAR YBBN 102200Z 16005KT 9999 FEW025 SCT056 BKN065 25/17 Q1019=
METAR YBCS 102200Z 18013KT 9000 VCSH FEW006 SCT023 BKN055 25/23
Q1011=
METAR YSCB 102200Z 32003KT CAVOK 21/14 Q1021
RMK 4CI240=
METAR YPXM 102200Z AUTO 23003KT //// // ////// 23/22 Q1010=
METAR YPCC 102200Z AUTO 15009KT 9999 // SCT034 26/21 Q1010=
METAR YCFS 102200Z AUTO 04007KT 9999 // NCD 24/17 Q1019=
METAR YPDN 102200Z 00000KT 9999 FEW020 BKN350 26/23 Q1008=
METAR YBCG 102200Z AUTO 20005KT 9999 // NCD 23/19 Q1019=
METAR YHID 102200Z AUTO 05008KT //// // ////// 30/25 Q1008=
METAR YPJT 102200Z AUTO 10013KT 9999 // NCD 23/11 Q1016=
METAR YPKU 102200Z AUTO 20003KT 9999 // NCD 28/26 Q1009=
METAR YPLM 102200Z AUTO 19009KT 9000 // NCD 25/20 Q1007=
METAR YMML 102200Z 18007KT 7000 OVC008 17/14 Q1019
FM2330 18012KT 9999 SCT015 BKN020=
METAR YPPH 102200Z 09015KT CAVOK 23/10 Q1015=
METAR YSSY 102200Z 30005KT CAVOK 25/17 Q1018
NOSIG=
METAR YSTW 102200Z AUTO 03004KT 9999 // NCD 24/13 Q1021=
METAR YPTN 102200Z AUTO 14003KT 9999 // NCD 26/23 Q1009=
METAR YBTL 102200Z 13007KT 5000 -SHRA FEW010 SCT023 BKN067 25/23
Q1013=

0000126700
264
SAAU32 YBBN 102200
METAR YAMB 102200Z AUTO 22002KT 9999 // NCD 24/18 Q1019=
METAR YMAV 102200Z AUTO 25007KT 9999 // OVC013 17/13 Q1020=
METAR YBRM 102200Z 24009KT 9999 FEW020 29/24 Q1009=
METAR YCIN 102200Z AUTO 31004KT //// // BKN021 27/25 Q1009=
METAR YSDU 102200Z AUTO 08007KT 9999 // NCD 24/17 Q1020=
METAR YFRT 102200Z AUTO 13014KT //// // ////// 18/18 Q1021=
METAR YGEL 102200Z 14006KT CAVOK 18/16 Q1010
RMK HZ, WBD 1.1=
METAR YPGV 102200Z 13009KT 9999 VCSH SCT013 SCT120 OVC160 26/25 Q1008
RMK SHRA TO NW=
METAR YBHM 102200Z AUTO 11020KT 9999 // ////// 27/22 Q1013=
METAR YMHB 102200Z 35004KT 300V050 9999 FEW013 BKN220 18/13 Q1014=
METAR YPKG 102200Z AUTO 10011KT 9999 // NCD 20/11 Q1021=
METAR YMLT 102200Z AUTO 14003KT 9999 // NCD 20/15 Q1014=
METAR YBMA 102200Z AUTO 15014KT 9999 // NCD 31/16 Q1012=
METAR YSNF 102200Z 13011KT 9999 FEW032 22/10 Q1019=
METAR YPEA 102200Z AUTO 09014KT 9999 // NCD 25/10 Q1015=
METAR YPPD 102200Z AUTO 31006KT 9999 // NCD 28/27 Q1008=
METAR YSRI 102200Z AUTO 00000KT 9999 // NCD 21/16 Q1019=
METAR YBRK 102200Z 12013KT 9999 FEW020 SCT300 26/20 Q1015=
METAR YWLM 102200Z AUTO 02005KT 9999 // NCD 24/17 Q1018=
METAR YPWR 102200Z AUTO 15011KT 9999 // NCD 26/11 Q1017=

0000009600
265
SATH33 VTBB 102200 RRA
METAR VTUK 102200Z 02002KT 9000 NSC 17/17 Q1016 A3001=

00000000