0000077000
114
SABN32 OBBI 110800
METAR OMAA 110800Z 17005KT 120V210 9999 SCT045 21/11 Q1020 A3013
                   NOSIG=
METAR OMAD 110800Z 14007KT 110V190 9999 FEW045 20/11 Q1020 A3014
                   NOSI G=
METAR OMAL 110800Z 18011KT CAVOK 20/09 Q1022 A3018 BECMG 27008KT=
METAR OMDB 110800Z 15007KT CAVOK 21/10 Q1021 NOSIG=
METAR OMDW 110800Z 15007KT 100V170 CAVOK 20/11 Q1021 NOSIG=
METAR OMFJ 110800Z 15006KT 110V200 9999 SCT020 BKN100 21/09 Q1021
                   A3017=
METAR OMRK 110800Z 15015KT CAVOK 21/11 Q1021 A3016=
METAR OMSJ 110800Z 15009KT 9999 FEW040 20/11 Q1021=
METAR OOMS 110750Z 08008KT 030V140 9999 FEW020 BKN200 21/07 Q1022
NOSIG=
METAR OOSA 110751Z 11015KT 080V150 9999 SCT025 26/14
Q1017 NOSIG  RH49 RMK01=
0000216700
115
SZNZ01 NZKL 110800
CREX++
T000103 A001 D01021 D06025++
-3683144 17478654 AUCT  2014 01 11 07 52 //// 11 07 00 01
04432 3187 04425 3188 04420 3190 04413 3190 04404 3188 04396 3188+
-4402404 -17636748 CHIT  2014 01 11 07 52 //// 11 07 00 01
04316 1946 04323 1952 04322 1950 04312 1938 04318 1944 04330 1954+
-4089929 17623168 CPIT  2014 01 11 07 52 //// 11 07 00 01
03168 2242 03189 2263 03186 2260 03198 2271 03196 2269 03198 2271+
-3618905 17548887 GBIT  2014 01 11 07 52 //// 11 07 00 01
05244 0006 05236 0002 05225 -0005 05224 -0002 05229 0008 05223 0005+
-3867541 17802288 GIST  2014 01 11 07 52 //// 11 07 00 01
03301 2697 03301 2698 03309 2708 03310 2710 03305 2707 03291 2694+
-4241288 17370277 KAIT  2014 01 11 07 52 //// 11 07 00 01
02656 2219 02652 2214 02655 2216 02646 2206 02650 2208 02638 2195+
-3755040 17815904 LOTT  2014 01 11 07 52 //// 11 07 00 01
02841 0180 02843 0184 02839 0184 02837 0185 02824 0175 02826 0180+
-3704657 17451175 MNKT  2014 01 11 07 52 //// 11 07 00 01
03255 -0169 03279 -0141 03259 -0156 03286 -0125 03244 -0162 03275 -0127+
-3947566 17692007 NAPT  2014 01 11 07 52 //// 11 07 00 01
02331 2057 02311 2038 02329 2056 02307 2034 02329 2057 02313 2042+
-3441483 17304870 NCPT  2014 01 11 07 52 //// 11 07 00 01
-01452 -5518 -01579 -5639 -01573 -5627 -01706 -5755 -01585 -5629 -01650 -5688+
-4581435 17062939 OTAT  2014 01 11 07 52 //// 11 07 00 01
03969 3432 03974 3433 03982 3437 03984 3434 03980 3426 03986 3428+
-2928002 -17789440 RBCT  2014 01 11 07 52 //// 11 07 00 01
05657 2041 05660 2047 05647 2037 05637 2030 05642 2038 05634 2033+
-2925114 -17790384 RFRT  2014 01 11 07 52 //// 11 07 00 01
02575 0238 02575 0242 02552 0222 02555 0227 02538 0213 02536 0214+
-4357010 17277383 SUMT  2014 01 11 07 52 //// 11 07 00 01
01172 1864 01182 1872 01181 1869 01176 1861 01194 1877 01198 1879+
-3764109 17618118 TAUT  2014 01 11 07 52 //// 11 07 00 01
04567 3990 04561 3988 04557 3989 04552 3989 04550 3991 04548 3993+
-4128448 17477985 WLGT  2014 01 11 07 52 //// 11 07 00 01
02605 2038 02602 2034 02598 2029 02605 2035 02604 2033 02611 2038++
7777
0000015700
116
SMVE01 KWBC 110000 RRI
BBXX
D5FL7 11004 99016 11044 41598 60317 10300 20246 40100 58010 7//22
 86400 22200 04287 20501 303// 40802 80260=
0000026500
117
SMVB01 KWBC 110600 RRG
BBXX
DJCE2 11064 99059 10838 41597 70516 10303 20240 40124 58008 70022
 872// 22264 00286 20302 304// 40504=
A8NF2 11064 99200 10720 413// 20506 10210 20147 40160 50000 702//
 8/62/ 22264 00230 21002 301// 41004 80170=
0000015700
118
SMVE01 KWBC 110600 RRH
BBXX
VQNW6 11064 99033 11085 41/98 50415 10275 20231 40098 54000 70211
 85/6/ 22213 00274 2//// 303// 40704 80245=
0000011000
119
UANT99 KDDL 110758
ARP TAY010 5507N02656W 0758 F340 MS57 222/74 KT
OOTSC QXT EUA 110758 F13A
0000011000
120
UANT99 KDDL 110758
ARP DAL32 5201N01600W 0758 F390 MS55 245/48 KT
N858NW DDL BLY 110758 J54A
0000011100
121
UANT99 KDDL 110758
ARP AFR6735 5309N02839W 0758 F370 MS55 217/63 KT
FGUOC QXT AOE 110758 F31A
0000049300
122
UGIN61 VOMM 110600
PPBB 61063 43105 NIL=
PPBB 61051 43128
90023 18004 16511 16508 907// 17512=
PPBB 61061 43150 NIL=
PPBB 61061 43185 90012 13506 12509 11513
9037/ 11515 11009 912// 09003=
PPBB 61063 43220 NIL=
PPBB 61063 43221 NIL=
PPBB 61071 43279 90012 09003 09006 11007 9036/ 09508 11505=
PPBB 61051 43346
90012 04508 03008 03509 9037/ 04510 14511 9125/ 10513
06011=
PPBB 61061 43369 NIL=
PPBB 61051 43371
90012 00000 26004 25004 903// 29505=

0000040700
123
UPIN61 VOMM 110600
PPAA 61063 43105 NIL=
PPAA 61051 43128
55185 17009=
PPAA 61061 43150 55392 16004 22503 24527 55150
   30033    77999=
PPAA 61061 43185 55392 11515 12513 10511 77999=
PPAA 61063 43220 NIL=
PPAA 61063 43221 NIL=
PPAA 61071 43279 55292 10009 11006=
PPAA 61051 43346
55392 04010 09010 13506 77999=
PPAA 11061 43369 NIL=
PPAA 61051 43371 55192 27503=

0000027500
124
USIN61 VOMM 110600
TTAA 61063 43105 NIL=
TTAA 61063 43128 NIL=
TTAA 61063 43150 NIL=
TTAA 61063 43185 NIL=
TTAA 61063 43220 NIL=
TTAA 61063 43221 NIL=
TTAA 61063 43279 NIL=
TTAA 61063 43346 NIL=
TTAA 61063 43369 NIL=
TTAA 61063 43371 NIL=

0000027500
125
UEIN61 VOMM 110600
TTDD 61063 43105 NIL=
TTDD 61063 43128 NIL=
TTDD 61063 43150 NIL=
TTDD 61063 43185 NIL=
TTDD 61063 43220 NIL=
TTDD 61063 43221 NIL=
TTDD 61063 43279 NIL=
TTDD 61063 43346 NIL=
TTDD 61063 43369 NIL=
TTDD 61063 43371 NIL=

0000010400
126
SAIN90 VEPT 110802
METAR VEPT 110750Z 11007KT 1800 -RA SCT015 BKN090 17/14 Q1015  NOSIG=
0000069100
127
AXIN90 VIJP 110300
JAIPUR MORNING`S INFERENCE FOR RAJASTHAN DATED 11/01/2014
-------------------------------------------------------
YESTERDAY'S W.D. AS AN UPPER CYCIR OVER JAMMU AND KASHMIR AND NEIGHBOURHOOD IS MOVING AWAY NORTHEAST WARDS.
THE U/A CYCIR OVER HARAYANA AND ADJOINING NORTH-WEST RAJASTHAN MOVED AWAY IN SOUTH-EAST WARDS.
OWEST MINIMUM TEMPERATURE OF 02.2 DEG. CEL. RECORDED AT CHURU IN THE SATE.


FORECAST :- WEATHER WOULD BE MAINLY DRY  STATE.

L.T.W:- NIGHT TEMPERATURE OF 4 DEG OR LESS ACOMPAINED WITH GROUND FROST WOULD OCCUR AT ISOLATED PLACES IN NORTH-RAJASTHAN DURING NEXT 24 HOURS.


END=                                    

0000004100
128
UHIN61 VOMM 110600
NIL

0000027500
129
UKIN61 VOMM 110600
TTBB 61063 43105 NIL=
TTBB 61063 43128 NIL=
TTBB 61063 43150 NIL=
TTBB 61063 43185 NIL=
TTBB 61063 43220 NIL=
TTBB 61063 43221 NIL=
TTBB 61063 43279 NIL=
TTBB 61063 43346 NIL=
TTBB 61063 43369 NIL=
TTBB 61063 43371 NIL=

0000027500
130
ULIN61 VOMM 110600
TTCC 61063 43105 NIL=
TTCC 61063 43128 NIL=
TTCC 61063 43150 NIL=
TTCC 61063 43185 NIL=
TTCC 61063 43220 NIL=
TTCC 61063 43221 NIL=
TTCC 61063 43279 NIL=
TTCC 61063 43346 NIL=
TTCC 61063 43369 NIL=
TTCC 61063 43371 NIL=

0000027500
131
UQIN61 VOMM 110600
PPDD 61063 43105 NIL=
PPDD 61063 43128 NIL=
PPDD 61063 43150 NIL=
PPDD 61063 43185 NIL=
PPDD 61063 43220 NIL=
PPDD 61063 43221 NIL=
PPDD 61063 43279 NIL=
PPDD 61063 43346 NIL=
PPDD 61063 43369 NIL=
PPDD 61063 43371 NIL=

0000011000
132
UANT99 KDDL 110758
ARP QTR702 5636N02457W 0758 F310 MS59 231/98 KT
A7BAG QXT AOE 110758 F37A
0000009400
133
SNVD25 LFPW 110800
BBXX
BAREU13 11084 99520 70375 46/// ///// 4////
22264=
00000000