0000144400
906
SITU62 LTAA 110900
AAXX 11094
17175 42665 23501 10141 20090 30233 40237 52011 82100
 333 82840 91103 92417=
17180 41930 61206 10112 20052 30236 40240 52011 70522 86050 333 86360 91114 92426=
17186 42670 63401 10047 20022 30168 40257 52007 84250
 333 84835 86360 91104=
17191 41657 73002 11022 21028 39128 40295 50008 71022 84520
 333 84635 87459 91105=
17192 41901 51501 11042 21048 39134 40301 50004 74844 85040
 333 85360=
17193 42965 30202 11020 21025 38803 48535 50004 80001
 333 83070=
17200 42960 41202 10042 21058 39233 40258 58010 80001
 333 84070=
17204 41920 00000 11153 21158 38741 48533 57011 71000=
17205 42680 40402 11002 21051 38347 48520 52004 84500
 333 84640 92428=
17218 41650 61009 10121 20051 30232 40238 50010 70511 84404 333 84640 86070 91113=
17220 41650 51205 10125 20039 30207 40242 50009 70522 82130 333 82840 85360 91111 92426=
17221 42670 51601 10145 20125 30228 40234 50012 85200
 333 85840 91103 92418=
17232 42670 71204 10130 20062 30206 40236 52015 84250
 333 84840 87360 91117 92428=
17238 41/01 92102 10007 20006 39126 40270 50001 74544
 333 89/03 91104=
17239 41/01 93602 11025 21028 39086 48530 52008 74544
 333 89/02=
17241 41/04 90000 11021 21024 39234 40292 50003 74944
 333 89/02=
17242 41420 81004 11024 21029 38929 48534 50001 72844 8572/
 333 82715 85635 88460 96010=
17246 41907 00402 11039 21050 39063 48529 51002 74800=
0000007800
907
SIAL53 EUMS 110900
AAXX 11094
60619 36/// /1307 10174 21049=
0000008200
908
SIAL54 EUMS 110900 RRA
AAXX 11094
60621 36/// /1312 10193 21048=
0000007800
909
SIAL51 EUMS 110900
AAXX 11094
60612 36/// /0000 10146 21005=
0000008200
910
SIAL51 EUMS 110900 RRA
AAXX 11094
60664 36/// /0000 10140 21028=
0000007800
911
SIAL56 EUMS 110900
AAXX 11094
60692 36/// ///06 10178 21017=
0000007800
912
SIAL52 EUMS 110900
AAXX 11094
60667 36/// /0000 10143 20003=
0000003800
913
UANT01 EGRR 110900
NIL
0000013200
914
SIUK42 EGRR 110900 CCA
AAXX 11094
03008 41365 73016 10033 20021 40029 72781 879//
  333 82708 87910 90710 91135=
0000109900
915
UDAS02 BABJ 110905
AMDAR 1109
DES CNFLWQ 2327N 11204E 110900 F199 MS119 263/061 TB/ S//1=
DES CNFLWQ 2324N 11207E 110900 F188 MS105 262/052 TB/ S//1=
DES CNFLWQ 2319N 11213E 110901 F168 MS078 264/039 TB/ S//1=
DES CNFLWQ 2314N 11218E 110902 F153 MS038 256/036 TB/ S//1=
LVR CNFPYN 3354N 10953E 110854 F276 MS410 251/062 TB/ S//1=
LVR CNFPYN 3401N 10931E 110857 F276 MS410 248/061 TB/ S//1=
LVR CNFPYN 3408N 10909E 110900 F276 MS410 246/059 TB/ S//1=
LVR CNFPYN 3417N 10849E 110903 F276 MS410 242/060 TB/ S//1=
DES CNFPTK 3125N 12055E 110901 F100 MS049 262/033 TB/ S//1=
DES CNFPTK 3124N 12058E 110902 F092 MS048 263/036 TB/ S//1=
DES CNFPTK 3122N 12104E 110903 F080 MS040 258/029 TB/ S//1=
DES CNFPTK 3120N 12109E 110904 F069 MS038 250/020 TB/ S//1=
DES CNFOZM 3511N 11706E 110901 F235 MS333 278/078 TB/ S//1=
DES CNFOZM 3513N 11706E 110902 F230 MS318 279/080 TB/ S//1=
DES CNFOZM 3518N 11705E 110903 F210 MS270 274/072 TB/ S//1=
DES CNFOZM 3524N 11705E 110904 F198 MS260 272/064 TB/ S//1=
ASC CNFLWM 2632N 10648E 110904 F035 PS025 020/004 TB/ S//1=
0000018400
916
SIOM20 OOMS 110900 RRC
AAXX 11094
41254 36/// /1506 10117 20030 38062 40253
333 0E002 58001  =
41280 26/// /0607 10217 20048 30082 40223
333 0E013 59011 70000 =
0000024500
917
SAKU31 NCRG 110900
METAR NCRG 110900Z
13005KT 9999 -SHRA BKN016 25/24 Q1012=
METAR NCAI 110900Z AUTO
///// //// //// 26/23 Q1012=
METAR NCMH 110900Z AUTO
03005KT //// ////// 28/25 Q1008=
METAR NCPY 110900Z AUTO
NIL=
0000183800
918
SIIR20 OIII 110900
AAXX 11091
40706 41650 62202 11050 21108 38680 40308 58010 70511 82506 333
82635 86268 555 11064 29064 66666 01044 11058 21040 31026 50006
90054=
40718 42965 73304 10102 20077 30184 40155 58029 84076 333 84459
87266 555 10090 29084 66666 00074 10076 20082 30090 50106 90130=
40732 42660 81303 10112 20060 30176 40152 57031 82507 333 82640
88267 555 10088 29071 66666 00080 10072 20074 30082 50096 90112=
40745 42662 71104 10068 21096 39045 40217 56031 81536 333 81640
      83361 85267 555 10015 29030 66666 00052 10035 20022 30032
      50056 90095=
40754 41650 80000 10035 21057 38846 40229 58020 70522 8352/
333 83640 88460 555 10003 29051=
40766 41610 81302 11006 21015 38708 40237 58001 77372 8432/
333 82935 84640 88556 555 11009 29094 66666 00008 10008
20028 0038 50066 90092=
40800 41630 70000 10020 21064 38464 40230 58015 70521 82510 333
      82640 87460 555 11010 29054 66666 00000 11004 20020 30030
      50066 90120=
40811 41557 81004 10132 20101 30148 40175 58022 71082 8637/ 333
82925 84630 88458 555 10116 29082 66666 00122 10122 20128 30134
50150 90190=
40841 42660 73302 10034 21040 38253 40262 57025 83420 333 83635
      87460 555 10006 29058 66666 01008 11002 20020 30050 50090
      90156=
40848 41515 80000 10016 20016 38544 40234 58026 72622 8432/ 333
81930 83635 88458 555 10016 29100 66666 00042 10040 20044 30050
50070 90114 77777 00/// 10036 20024 30030 50031 70/// 99///=
40856 42662 71206 10066 21083 38660 40230 57035 81576 333 81635
84359 87269 555 10018 29038 66666 00036 10034 20090 30068 50044
90134 77777 00006 10006 20/// 30003 50005 70/// 99///=
40875 41557 83503 10149 20094 30201 40212 58018 76062 8432/ 333
      81925 83630 88559 555 10121 29070 66666 00152 10152 20160
      30174 50186 90234=
0000104600
919
SIIR24 OIII 110900
AAXX 11091
40716 42960 80000 11012 21063 38938 40259 58014 8801/ 333 88460
555 11028 29068 66666 01008 11006 20008 30012 50050 90096=
40719 41530 73102 10084 20057 30168 40158 58027 71022 84570 333
84625 86360 555 10072 29083 66666 00076 10064 20072 30078 50100
90126=
40721 42960 53103 10126 21016 39620 40163 57032 84032 333 84360
      555 10068 29037 66666 00084 10080 20064 30070 50085 90118=
40858 41558 81306 10130 20090 30172 40183 58014 76062 8592/ 333
81930 84635 88558 555 10110 29077 66666 00142 10148 20154 30160
50168 90192=
40872 41558 80303 10170 20106 30190 40194 58017 70522 8432/ 333
81925 83630 88459 555 10136 29066 66666 00156 10162 20168 30174
50186 90196=
40877 42660 80904 10120 20030 39636 40194 57021 8442/ 333 84640
      88459 555 10080 29054 66666 00134 10120 20118 30130 50170
      90208=
40898 42965 60703 10207 21098 30200 40210 58031 80006 222// 00225
      10700 333 86269 555 10096 29012 66666 00260 10162 20188
      30190 50228 90256=
0000039800
920
SWIO40 RJTD 110915
:PRS 1 #1 1674 1652 1677 1672 1669 1681 1656 1679 1672 1669 1677 1673
1651 1679 1660 1636 1661 1663 1633 1663 1634 1668 1633 1657 1675 1632
1689 1672 1657 1675 :RAD 1 #3 6058 6056 6056 6054 6042 6037 6036 6045
6054 6058 :ENC 5 #5 5045 5040 5025 5027 5040 5049 5041 5046 5054 5060
5058 5053 :SW1 15 #60 60 :SW2 45 #60 60 :BAT 14 #15 13.1 :NAME 
0650018E=
0000013600
921
SIVD17 CWHX 110900
BBXX
44139 11091 99442 70571 46/// /2408 10015 40287 54000
22200 00016 10804 70020 333 91210 =

0000017000
922
SOVI10 KWAL 110916
B110070A 011091601 P9751095 B\P~W@@L0ekI1@mb???C`Cd>@mm3@HC?@S4Cg5C|6bF9L@<BM2?????@"??? nTIMKBdBcBaBkBgBm:AMPTEMP 26.22C  44-0NN 219E
0000009000
923
SIQT20 OTBD 110900
AAXX 11094
41164 46/// /1808 10165 20155 30177 40198=
0000069500
924
SIIN90 VECC 110900
AAXX 11094
42807 31995 03402 10254 20131 40141 70500
  333 59011=
42706 31995 20703 10244 20125 40144 70500 80001
  333 58004 82075=
42708 31996 02706 10228 20127 40156 70500
  333 58005=
42811 32696 20201 10268 20157 40148 82200
  333 58002=
42812 32996 03601 10252 20157 40149
  333 58002=
43333 31495 60708 10290 20232 40114 70511 84401
  333 56309 58010 82618 83820 85070=
42901 32996 01104 10250 20173 40141
  333 59001=
42299 21396 80000 10074 20032 38205 48517 70252 8763/
  333 58012 6990/ 82709 85617=
42503 31593 83201 10172 20133 40173 74444 8552/
  333 58019=
42806 32996 00000 10264 20160 40145
  333 58001=
0000009200
925
SAIN90 VIGG 110900
METAR VIGG 110900Z 18004KT 5000 HZ FEW035 17/03 Q1019=

00000000