0000029400
286
SAAF08 LFPW 110000 RRA
METAR DFFD 110000Z 08009KT 8000 NSC 25/02 Q1014 NOSIG=
METAR GABS 110000Z 03002KT CAVOK 22/06 Q1014 NOSIG=
METAR GAKY 110000Z 32006KT CAVOK 25/09 Q1013=
METAR GAMB 110000Z 04004KT CAVOK 20/07 Q1013=
METAR GANR 110000Z 36002KT CAVOK 25/06 Q////=

0000010000
287
SAAF14 LFPW 110000 RRA
METAR DRRN 110000Z 07006KT 4000 DU NSC 22/M01 Q1014 NOSIG=

0000011500
288
SAAF27 LFPW 110000 RRA
METAR DGAA 110000Z 22008KT 9999 SCT012 BKN014 BKN046 27/25 Q1012
NOSIG=

0000017900
289
FTLY31 HLMC 110000
TAF HLGD 110000Z NIL=
TAF HLKF 110000Z NIL=
TAF HLLB 110000Z NIL=
TAF HLLM 110000Z NIL=
TAF HLLS 110000Z NIL=
TAF HLLT 110000Z NIL=

0000009300
290
SATH31 VTBB 110000 RRA
METAR VTPO 110000Z 35006KT 3000 BR NSC 19/18 Q1016=

0000011400
291
SPCN31 CWAO 110010
SPECI CYZX 110010Z 21007KT 15SM BKN013 OVC025 RMK SC6SC2 WNDY HILL
UNAVBL=

0000041200
292
SAAM31 FCBB 110000
METAR FCBB 110000Z 26003KT 8000 FEW016 23/22 Q1011 NOSIG=
METAR FCPP NIL=
METAR FKKD 110000Z 00000KT 6000 BKN013 FEW016CB 27/26 Q1011 NOSIG=
METAR FKYS 110000Z 26005KT 4000 BR BKN003 21/20 Q1015 BECMG 2000 BR=
METAR FKKR 110000Z 00000KT CAVOK 21/04 Q1013=
METAR FKKL NIL=
METAR FKKN NIL=
METAR FEFF 110000Z 00000KT 8000 NSC 21/18 Q1011 NOSIG=
METAR FEFT NIL=

0000008700
293
FTMP31 LMMM 110000 RRA
TAF HLLT 110000Z NIL=
TAF HLLB 110000Z NIL=

0000009500
294
SPCN42 CWAO 110010
SPECI CYUA 110010Z AUTO 29023KT 5/8SM -SN CLR M25/ A2977=

0000009800
295
SAEA20 HKNC 102300 RRB
METAR HKVO 102300Z 09005KT 9999 -DZ SCT006 BKN018 21/21=

0000009500
296
SAID33 WALR 110000
METAR WALR 110000Z 32004KT 9000 SCT016 26/24 Q1013 NOSIG=

0000037500
297
SAPO31 LPMG 110000
METAR LPBJ 110000Z 29003KT CAVOK 09/06 Q1015=
METAR LPFR 110000Z 04004KT CAVOK 12/08 Q1014=
METAR LPMA 110000Z VRB02KT CAVOK 15/07 Q1017 RS35001KT 0531003KT
2301007KT=
METAR LPPR 110000Z VRB02KT 3000 BR NSC 07/07 Q1016=
METAR LPPS 110000Z 36003KT 310V040 9999 FEW014 14/13 Q1017=
METAR LPPT 110000Z 33007KT CAVOK 11/10 Q1015=

0000029700
298
SAPO32 LPMG 110000
METAR LPAZ 110000Z 21025KT 5000 RA BKN005 BKN012 16/15 Q1010=
METAR LPFL 110000Z NIL=
METAR LPHR 110000Z NIL=
METAR LPLA 110000Z 25016KT 200V280 9999 FEW016 SCT020 BKN038 14/11
   Q1005=
METAR LPPD 110000Z 22012KT 8000 -RA SCT004 BKN010 14/14 Q1008=

0000014400
299
FCNO33 ENMI 102300 RRA
TAF ENKR 102300Z 1023/1105 17008KT 8000 -SN SCT001 BKN003 TEMPO
         1023/1105 0800 BCFG BKN001=

0000013600
300
SAMX55 MMMY 110015
METAR COR MMTC 102346Z 36005KT 10SM SCT120 BKN250 20/M03 A3001
      RMK SLP133 50007 910 8/072=

0000008900
301
SAID32 WIII 110000
METAR WIPP 110000Z 29004KT 6000 BKN015 25/24 Q1010=

0000161100
302
SPUS70 KWBC 110008
SPECI
KBHM 110004Z 00000KT 9SM SCT009 BKN032 OVC050 11/10 A3002 RMK
     AO2=
KGMU 110004Z 03006KT 4SM BR OVC004 08/07 A3015 RMK AO2 RAE02
     P0000=
KHUF 110004Z 15010KT 2 1/2SM -RA OVC004 05/ A2978 RMK AO2 P0001
     $=
KLBT 110004Z AUTO 22006KT 2SM -RA BR FEW007 BKN011 OVC017 18/17
     A3014 RMK AO2 P0003 T01780172=
KLSE 110004Z 31004KT 1 3/4SM BR OVC007 00/M02 A2956 RMK AO2
     T00001017 $=
KMCW 110004Z AUTO 00000KT 3/4SM BR VV003 M01/M01 A2955 RMK AO2
     T10061006 TSNO=
KTXK 110004Z 18007KT 7SM SCT005 OVC028 15/14 A2971 RMK AO2=
PADU 110004Z 13012KT 9SM -RA SCT008 BKN016 OVC022 04/01 A2913 RMK
     AO2 P0000=
PASC 110004Z 25013KT 3SM -SN BR BKN020 OVC110 M31/M34 A2985 RMK
     AO2 P0000=
KBEH 110005Z AUTO 15010KT 3SM RA BR BKN007 BKN019 OVC026 03/03
     A2974 RMK AO2 P0002=
KBIV 110005Z AUTO 15011KT 4SM RA BR SCT009 BKN019 OVC030 03/02
     A2974 RMK AO2 P0003 T00330022=
KCUB 110005Z AUTO 31004KT 4SM BR FEW004 BKN010 OVC032 11/10 A3015
     RMK AO2 T01060100 TSNO=
KDUJ 110005Z AUTO 13008KT 4SM BR BKN002 OVC008 03/01 A3010 RMK
     AO2=
KIJD 110004Z AUTO 00000KT 2 1/2SM BR OVC004 00/M01 A3036 RMK AO2
     T00001011 $=
KNEW 110005Z AUTO 14004KT 1/4SM FG VV002 13/13 A2996 RMK AO2
     T01330128 TSNO=
KSGH 110005Z AUTO 14014KT 3/4SM BR OVC001 05/05 A2991 RMK AO2=
KSLN 110005Z 29008KT 9SM BKN028 OVC044 03/01 A2962 RMK AO2
     T00330006=
KTDR 110005Z AUTO 12006KT 8SM OVC003 17/ A3007 RMK AO2 $=
PASC 110004Z 25013KT 3SM -SN BR BKN020 OVC110 M31/M34 A2985 RMK
     AO2 P0000=

0000023100
303
SAAF13 LFPW 110000 RRB
METAR GOGG 110000Z VRB02KT CAVOK 21/17 Q1014=
METAR GOGS 110000Z 34004KT CAVOK 20/17 Q1012=
METAR GOSS 110000Z 02004KT CAVOK 16/15 Q1015=
METAR GOTT 110000Z 06008KT CAVOK 25/11 Q1013=

0000009300
304
SAAF27 LFPW 110000 RRC
METAR GUCY 110000Z 32004KT CAVOK 25/22 Q1012 NOSIG=

0000030200
305
FTUS73 KWBC 110012
TAF
TAF AMD KOFF 1100/1124 16006KT 9999 OVC020 620209 QNH2953INS
      TEMPO 1100/1103 3200 -SN
      BECMG 1102/1103 30009KT 9999 OVC015 620154 QNH2958INS
      BECMG 1105/1106 30012KT 9999 SCT015 SCT100 QNH2961INS
      T06/1121Z TM05/1112Z AMD 110005=

00000000