0000022700
386
FTUS41 KWBC 110154 AAA
TAF AMD
KCAE 110152Z 1102/1124 VRB05KT 3SM -RA BR OVC005
     FM111200 19007KT 5SM BR VCSH OVC005
     FM111600 21012G22KT 3SM -SHRA OVC005
     FM112300 25011G19KT P6SM OVC035=

0000044000
387
FTUS41 KWBC 110154
TAF
TAF AMD KCEF 1101/1201 VRB06KT 9999 OVC015 620159 QNH3030INS
      TEMPO 1101/1104 OVC008 620089
      BECMG 1104/1105 10006KT 4800 -FZDZ OVC008 WS020/20040KT
      660001 620307 QNH3010INS
      BECMG 1107/1108 15006KT 4800 -RA BR OVC008 WS020/20040KT
      QNH3002INS
      BECMG 1110/1111 17010KT 2400 -RA BR OVC008 WS020/20050KT
      QNH2941INS T12/1121Z TM01/1102Z AMD 110149=

0000031300
388
FTUS42 KWBC 110154 AAA
TAF AMD
KPDK 110153Z 1102/1124 10005KT 1SM -DZ BR OVC003
     FM110300 13004KT 1/2SM -RADZ FG OVC002
     FM111000 16006KT 1SM -SHRA BR OVC004
     FM111400 21009KT 2SM -SHRA BR OVC007
     FM111900 27010G18KT P6SM BKN025
     FM112100 29012G20KT P6SM SCT040=

0000044000
389
FTUS71 KWBC 110154
TAF
TAF AMD KCEF 1101/1201 VRB06KT 9999 OVC015 620159 QNH3030INS
      TEMPO 1101/1104 OVC008 620089
      BECMG 1104/1105 10006KT 4800 -FZDZ OVC008 WS020/20040KT
      660001 620307 QNH3010INS
      BECMG 1107/1108 15006KT 4800 -RA BR OVC008 WS020/20040KT
      QNH3002INS
      BECMG 1110/1111 17010KT 2400 -RA BR OVC008 WS020/20050KT
      QNH2941INS T12/1121Z TM01/1102Z AMD 110149=

0000044500
390
FTUS71 KWBC 110154 AAA
TAF AMD
KAGS 110152Z 1102/1124 VRB04KT 1SM -RA BR OVC005
      TEMPO 1103/1107 1/4SM FG OVC003
     FM111200 20008KT 5SM BR VCSH OVC003
     FM111600 22014G22KT 3SM -SHRA OVC005
     FM112200 25011G19KT P6SM BKN035=
KCAE 110152Z 1102/1124 VRB05KT 3SM -RA BR OVC005
     FM111200 19007KT 5SM BR VCSH OVC005
     FM111600 21012G22KT 3SM -SHRA OVC005
     FM112300 25011G19KT P6SM OVC035=

0000083700
391
FTUS72 KWBC 110154 AAA
TAF AMD
KBNA 110151Z 1102/1124 19010G20KT P6SM SCT015 OVC025
     FM110400 19015G25KT 3SM -SHRA BR OVC008
      TEMPO 1109/1113 2SM TSRA OVC005CB
     FM111300 26012G25KT P6SM OVC025
     FM111600 27010G20KT P6SM BKN050=
KCSV 110152Z 1102/1124 17008G15KT 6SM BR OVC003
     FM110600 17010G20KT 4SM -SHRA BR OVC002
     FM110800 18012G22KT 2SM SHRA BR OVC002
     FM111500 26010G20KT P6SM OVC015
     FM111800 27010G20KT P6SM BKN050=
KPDK 110153Z 1102/1124 10005KT 1SM -DZ BR OVC003
     FM110300 13004KT 1/2SM -RADZ FG OVC002
     FM111000 16006KT 1SM -SHRA BR OVC004
     FM111400 21009KT 2SM -SHRA BR OVC007
     FM111900 27010G18KT P6SM BKN025
     FM112100 29012G20KT P6SM SCT040=
KROW 110150Z 1102/1124 26009KT P6SM FEW250
     FM111500 16005KT P6SM SKC=

0000039500
392
SASN35 ESWI 110150
METAR ESGR 110150Z NIL=
METAR ESKM 110150Z NIL=
METAR ESNL 110150Z AUTO 34008KT 3300NDV -SN FEW023/// OVC037///
M13/M16 Q1006=
METAR ESNX 110150Z AUTO 02011KT 4800NDV IC ///031 M16/M18 Q1007=
METAR ESNY 110150Z NIL=
METAR ESSF 110150Z NIL=
METAR ESSK 110150Z NIL=
METAR ESUD 110150Z AUTO 36003KT 5000 -SN BKN030/// OVC094/// M14/M17
Q1007=

0000004200
393
SAJP41 KWBC 110130
NIL=

0000004200
394
SAJP42 KWBC 110130
NIL=

0000004200
395
SAJP43 KWBC 110130
NIL=

0000004200
396
SAJP44 KWBC 110130
NIL=

0000004200
397
SAJP45 KWBC 110130
NIL=

0000010800
398
SIGB20 GBYD 110900 RRB
AAXX 11093
61711 42960 02704 10230 20142 4//// 80000
  333 5////=
0000008900
399
SASG20 GOOY 110200
METAR GOOY 110200Z 01009KT CAVOK 19/14 Q1014 NOSIG=

0000011500
400
SAVN27 SVBM 110200
METAR SVBM 110200Z 09006KT 9999 FEW016 22/19 Q1017=
METAR SVBI 110200Z NIL=

0000012500
401
FCLJ31 LJLJ 110200
TAF LJPZ 110200Z 1103/1112 12005KT 3500 BR OVC005 TEMPO
1103/1112 5000 SCT007 OVC015=

0000017200
402
FCLJ32 LJLJ 110200
TAF LJCE 110200Z 1103/1112 25003KT 0300 FG VV001 PROB40 TEMPO
1103/1109 3500 BR SCT015 BKN045 BECMG 1110/1112 26006KT 9999
FEW030=

0000046000
403
FCTU31 LTAA 110200
TAF LTAR 110140Z 1103/1112 VRB02KT CAVOK TEMPO 1103/1107 3500 BR
 SCT010=
TAF LTBY 110140Z 1103/1112 VRB02KT 9999 OVC006=
TAF LTCA 110140Z 1103/1112 VRB02KT CAVOK=
TAF LTCD 110140Z 1103/1112 VRB02KT CAVOK=
TAF LTCF 110140Z 1103/1112 VRB02KT CAVOK=
TAF LTCI 110140Z 1103/1112 VRB02KT 8000 SCT040 TEMPO 1106/1110 4000
 BR=
TAF LTDA 110140Z 1103/1112 VRB02KT CAVOK=
TAF LTFH 110140Z 1103/1112 VRB02KT CAVOK=

0000041300
404
FCTU32 LTAA 110200
TAF LTAN 110140Z 1103/1112 VRB02KT 2500 BR OVC004 BECMG 1107/1110
 4500 BKN012=
TAF LTAY 110140Z 1103/1112 VRB02KT CAVOK BECMG 1103/1106 3200 BR
 PROB30 1106/1108 1200 BCFG BECMG 1109/1112 CAVOK=
TAF LTBF 110140Z 1103/1112 VRB02KT 0300 FZFG VV003 BECMG 1106/1108
 2000 BR NSC BECMG 1108/1110 CAVOK=
TAF LTBR 110140Z 1103/1112 VRB02KT CAVOK BECMG 1106/1109 FEW035=

0000011700
405
SAEG31 HECA 110200
METAR HECA 110200Z 00000KT 1500 R05C/1500 R23C/1500 BR NSC 11/08
Q1023 NOSIG=

00000000