0000012600
506
SNVJ01 KWBC 110700 RRA
BBXX
DBLK 11071 99770 50342 41697 /0802 11037 21062 49925 52005 7////
 22261 05018=
0000008600
507
SAGD31 TGPY 110900
METAR TGPY 110900Z 07007KT 9999 SCT018 24/23 Q1014=
0000085800
508
SINL50 EHDB 110900
AAXX 11091
06206 46/// /2907 10073 20061 30040 40093 53015
333 91009 91112 91210
555 51110 51208=
06207 47250 62511 10080 20074 30025 40079 57007 75865 8////
333 82/05 84/07 85/08 91014 91115 91213
555 51114 51212=
06239 47675 80206 10073 20055 30009 40070 52016 72365 8////
333 81/35 88/56 91007 91113 91210
555 51109 51207=
06252 46/// /2906 10074 20055 30064 40110 53021 222// 00095 10604
333 91007 91116 91213
555 51111 51209=
06260 47350 82105 10042 20030 30135 40137 51001 72281 8////
333 87/07 88/08 91009 91109 91206
555 51109 51206 53003=
06270 47244 82209 10057 20049 30099 40099 58008 78165 8////
333 84/05 88/06 91013 91113 91209
555 51113 51209 53004=
06290 47256 82104 10030 20019 30097 40138 51001 71011 8////
333 85/05 88/07 91007 91110 91206
555 51109 51206 53008=
0000204600
509
SINL51 EHDB 110900
AAXX 11091
06201 47469 73111 10073 20035 30048 40101 53027 70265 8////
333 83/17 84/23 87/57 91013 91113 91211
555 51113 51211=
06203 47267 7//12 10087 20064 30062 40113 53005 76185 8////
333 81/05 83/08 86/10 91015 91117 91213
555 51117 51213=
06204 47478 73107 10076 20055 30054 40105 53014 76165 8////
333 81/11 83/31 85/36 91008 91118 91214
555 51116 51214=
06205 45974 83309 10069 20021 30013 40072 53017 8////
333 86/59 88/63 91011 91111 91210
555 51111 51210=
06208 47142 82010 10063 20054 30041 40090 58009 76166 8////
333 83/03 87/05 88/06 91012 91114 91210
555 51113 51210=
06211 47466 73012 10073 20039 30045 40101 53023 72380 8////
333 81/12 83/18 85/39 91014 91118 91212
555 51114 51212=
06212 47257 82712 10086 20068 3//// 4//// 5//// 75265 8////
333 81/05 85/10 86/13 91015 91118 91214
555 51118 51214=
06235 47240 82211 10068 20064 30103 40103 58007 75386 8////
333 88/04 91015 91116 91211
555 51116 51211 53002=
06240 47229 82008 10050 20045 30130 40125 58006 78165 8////
333 85/05 87/06 88/08 91011 91111 91208
555 51111 51208 53004=
06251 43/32 /2212 10068 20063 30085 40086 58010
333 91015 91116 91212
555 51116 51212 53002=
06258 46/// /2114
333 91016 91116 91214
555 51116 51214=
06269 47234 82007 10043 20036 30131 40125 58002 75286 8////
333 83/06 86/07 87/08 91009 91112 91208
555 51112 51208 53003=
06280 47230 82006 10050 20043 30107 40111 57006 75255 8////
333 83/06 88/07 91008 91111 91207
555 51111 51207 53003=
06310 47236 82109 10053 20045 30138 40148 53005 71011 8////
333 81/05 86/32 88/37 91010 91111 91209
555 51110 51209 53008=
06344 47336 82007 10052 20041 30142 40135 58001 75186 8////
333 81/08 84/09 86/10 91011 91111 91207
555 51111 51207 53008=
06370 47250 82306 10040 20029 30126 40152 51002 71011 8////
333 86/05 88/06 91008 91108 91206
555 51108 51206 53006=
06380 45870 62105 10051 20036 30022 40164 53006 8////
333 86/57 91006 91107 91206
555 51107 51206 53008=
0000097800
510
SINL52 EHDB 110900
AAXX 11091
06210 47335 82006 10052 20042 30128 40128 58004 76155 8////
333 84/07 85/09 87/11 91009 91110 91207
555 51109 51207 53006=
06225 46/// /2115
333 91016 91117 91215
555 51117 51215=
06242 47230 82114 10071 20066 30091 40093 58007 76265 8////
333 84/04 87/05 88/07 91017 91118 91214
555 51118 51214=
06257 46/// ///// 10060 20049
555 53003=
06275 47257 82105 10033 20024 30084 40140 56002 71000 8////
333 85/06 88/08 91007 91108 91206
555 51108 51205 53008=
06330 46/// /2010 10051 20041 30120 40134 56002
333 91012 91112 91210
555 51112 51210 53005=
06340 47250 82205 10046 20035 30131 40150 50002 71010 8////
333 88/06 91007 91108 91205
555 51108 51205=
06350 47257 82204 10040 20026 30134 40149 53003 71000 8////
333 86/06 88/07 91007 91107 91205
555 51107 51205 53012=
06375 47257 72206 10036 20026 30124 40149 55001 71010 8////
333 87/06 91008 91108 91206
555 51108 51206 53010=
0000136500
511
SINL53 EHDB 110900
AAXX 11091
06248 46/// /2111
333 91013 91113 91211
555 51113 51211=
06249 47/36 /2108 10054 20046 72185
333 91010 91111 91208
555 51110 51208 53004=
06267 47340 82109 10056 20046 72385 8////
333 84/07 87/08 88/09 91012 91113 91209
555 51113 51209 53004=
06273 47/42 /2108 10048 20040 72281
333 91011 91111 91208
555 51111 51208 53003=
06277 46/// /2109 10060 20054
333 91013 91114 91210
555 51114 51210 53002=
06278 46/// /2005 10040 20028
333 91008 91110 91206
555 51108 51205 53005=
06279 47236 82006 10042 20035 30101 40121 58003 78181 8////
333 85/06 87/07 87/09 91009 91109 91207
555 51109 51207 53005=
06283 46/// /2004 10025 20018
333 91006 91108 91205
555 51108 51205 53008=
06286 46/// /2108 10048 20038
333 91011 91112 91209
555 51111 51209 53004=
06319 43/47 /2206 10049 20038 30153 40155 52005
333 91009 91109 91206
555 51109 51206 53011=
06348 47/40 /2106 10042 20034 30138 40137 50000 72185
333 91007 91109 91207
555 51109 51207 53007=
06356 462// 82105 10038 20029 30140 40141 50001 8////
333 84/06 86/07 86/09 91007 91108 91206
555 51107 51205 53011=
06377 47339 62502 10007 20005 71031 8////
333 84/09 86/10 86/62 91003 91103 91202
555 51103 51202 53009=
06391 46/// /2102 10026 20024
333 91003 91105 91203
555 51105 51203 53007=
0000046000
512
SINL54 EHDB 110900
AAXX 11091
06209 NIL=
06285 NIL=
06308 NIL=
06311 NIL=
06312 NIL=
06313 NIL=
06315 NIL=
06316 NIL=
06320 46/50 /2212 10066 20066 30102 40129 50000 222// 00081 10504
333 91014 91114 91212
555 51114 51212=
06321 46/50 /2312 10085 20078 30109 40133 53005 222// 00086 10504
333 91016 91116 91213
555 51116 51212=
06324 NIL=
06331 NIL=
06343 46/// /2107
333 91012 91112 91208
555 51112 51208=
0000009200
513
FCIN90 VECC 110900
TAF VECC 110900Z 1112/1121 00000KT 1800 FU/BR NSC=
 

0000075700
514
FTIN90 VOMM 110909
TAF VOMM 110900Z 1112/1218 09005KT 4000 HZ SCT020
     BECMG 1121/1122 00000KT 2000 BR
     TEMPO 1123/1203 0800 MIFG
     BECMG 1203/1204 3000 HZ
     BECMG 1204/1205 07010KT 6000
     BECMG 1212/1213 4000 HZ=
TAF VOTR 110900Z 1112/1218 04010KT 4000 HZ SCT020
     BECMG 1120/1121 05005KT 3000 HZ
     TEMPO 1200/1203 1500 BR
     BECMG 1203/1204 4000 HZ
     BECMG 1205/1206 04010KT 6000=
TAF VOCB 110900Z 1112/1218 04010KT 4000 HZ SCT015
     BECMG 1121/1122 09005KT 3000 HZ
     TEMPO 1200/1203 1500 BR
     BECMG 1204/1205 09010KT 4000 HZ
     BECMG 1207/1208 6000=
TAF VOMD 110900Z 1112/1218 07010KT 4000 HZ SCT020
     BECMG 1200/1203 00000KT 3000 HZ
     BECMG 07010KT 1205/1206 6000
     BECMG 1212/1213 4000 HZ=

0000026300
515
SAIN34 VOMM 110900
METAR VOBL 110900Z VRB05KT CAVOK 31/13 Q1016 NOSIG=
METAR VOCB 110900Z 07005KT 5000 HZ FEW015 29/17 Q1013 NOSIG=
METAR VOCL 110900Z 28006KT 8000 FEW015 32/22 Q1010 NOSIG=
METAR VOMD 110900Z 10007KT 6000 FEW020 31/16 Q1012=
0000012100
516
FTIN90 VEMN 110900
TAF VEMN 110900Z 1112/1121 05005KT 4000 HZ FEW020 SCT100 BECMG 1115/1120
3000 HZ=

0000011100
517
UANT01 CWAO 110908
ARP AAL136 5427N05722W 0908 F330 MS62 285/74 KT
N719AN DDL YAY 110908 F37A
0000011000
518
UANT01 CWAO 110908
ARP AAL98 5012N04437W 0908 F370 MS63 320/56 KT
N366AA DDL XXW 110908 F38A
0000011100
519
UANT01 CWAO 110908
ARP UAL970 5555N03106W 0908 F370 MS60 220/52 KT
N643UA DDL XXW 110908 F17A
0000012800
520
SIBR20 TBPB 110900
AAXX 11094
78954 41466 70515 10218 20213 30080 40146 71586 878//
333   58008 83816 85635=
0000019000
521
UAPA01 KWBC 110909
ARP DAL1298 2221N 15153W 0834 F370 MS46 248/073KT=
ARP UAL1706 2221N 15153W 0902 F340 MS44 232/062KT=
ARP AWE682 2221N 15153W 0900 F360 MS46 238/083KT=
0000014500
522
SSVX13 LFPW 110800
ZZYY 64519 11014 0800/ 163048 007398 6113/ 11119 49984 52001 444
 20130 11014 0600/ 50101 80138 80000 9/015=
0000014500
523
SSVX13 LFPW 110900
ZZYY 64519 11014 0900/ 163048 007398 6113/ 11119 49985 54000 444
 20130 11014 0600/ 50101 80138 80000 9/015=
0000011000
524
UANT01 CWAO 110909
ARP UAE203 6413N05228W 0909 F380 MS61 175/17 KT
A6EDY DDL XXH 110909 J49A
0000042600
525
SIKY20 UAFF 110900
AAXX 11091
38353 42997 32801 10034 21087 39340 40249 57006 70411 80001=
38613 42999 02501 10026 21064 40284 58017=
38616 42997 60701 10018 21040 39247 40283 58010 82501=
38345 42999 02402 10040 21072 38829 48525 57006=
36911 42999 02002 10038 21101 39260 40229 57020=
36974 42998 62702 11123 21195 38033 48603 57013 80008=
36982 42999 83002 11133 21240 36540 47166 58009 86056=
00000000