0000041700
406
UDAS02 BABJ 110939
AMDAR 1109
LVR CNFNXM 2720N 10930E 110928 F351 MS436 251/120 TB/ S//1=
LVR CNFNXM 2728N 11000E 110931 F351 MS438 251/118 TB/ S//1=
DES CNFNXM 2736N 11030E 110934 F339 MS410 252/120 TB/ S//1=
DES CNFNXM 2744N 11100E 110937 F292 MS300 259/113 TB/ S//1=
LVR CNFLWM 2517N 10941E 110928 F291 MS278 262/096 TB/ S//1=
LVR CNFLWM 2501N 11004E 110931 F291 MS270 263/095 TB/ S//1=
0000011000
407
UANT99 KDDL 110945
ARP ACA854 5858N01945W 0945 F350 MS56 236/67 KT
CGHKW DDL VEY 110945 J05A
0000010800
408
SPAG41 SABE 102220
SPECI SABE 102220Z  34006KT 9999 -SHRA BKN030
FEW045CB  29/21 Q1007=

0000009700
409
SAUK36 EGGY 102220 RRA
METAR EGBE 102220Z 20010KT 9999 -RA SCT040 08/06 Q1010=

0000037400
410
SAFI34 EFHK 102220
EFET 102220Z AUTO 00000KT CAVOK M27/M29 Q1013=
EFIV 102220Z AUTO 25002KT 9000 OVC004 M31/M34 Q1016=
EFKE 102220Z AUTO 02012KT 9000 OVC049 M13/M16 Q1008=
EFKI 102220Z AUTO 05013KT 9999 -SN FEW019 BKN052 M11/M13 Q1000=
EFKS 102220Z AUTO 05007KT 010V090 CAVOK M17/M20 Q1006=
EFKT 102220Z AUTO 04004KT 340V110 CAVOK M19/M21 Q1013=

0000069900
411
FTDR31 MDSD 102200
TAF
TAF MDSD 102200Z 1100/1124 02006KT 9999 SCT020 PROB30 1100/1106 7000 
-SHRA BKN018 BECMG 1114/1116 15012KT =
TAF MDST 102200Z 1100/1124 00000KT 9999 SCT020 PROB30 1106/1112 7000 
-SHRA BKN018 BECMG 1113/1115 13010KT =
TAF MDPP 102200Z 1100/1124 00000KT 9999 SCT020 PROB30 1106/1112 7000 
-SHRA BKN018 BECMG 1113/1115 12010KT =
TAF MDPC 102200Z 1100/1124 10008KT 9999 SCT020 PROB30 1106/1112 8000 
-SH BKN016 SCT070=
TAF MDLR 102200Z 1100/1124 00000KT 9999 SCT020 PROB30 1106/1112 7000 
-SHRA BKN018 BECMG 1114/1115 10010KT =
TAF MDCY 102200Z 1100/1124 00000KT 9999 SCT020 PROB40 1100/1106 6000 
-SHRA BKN017 BECMG 1113/1115 09010KT =

0000033300
412
SANT31 KWBC 102200 RRB
METAR
BGBW 102225Z NIL=
BGCO 102225Z NIL=
BGGH 102225Z NIL=
BGJN 102220Z AUTO 10019KT 9999NDV ///230/// M09/M19 Q0994 RMK
     ///=
BGKK 102220Z AUTO 06060GP99KT 030V110 1300NDV -SN OVC012///
     M01/M03 Q0984 RESN=
BGSF 102220Z AUTO 06010KT 9999NDV FEW230/// M14/M21 Q0996=

0000017800
413
FTFI31 EFHK 102000 AAA
TAF AMD EFVA 102226Z 1022/1121 03009KT 8000 -SN SCT012 BKN020
     TEMPO 1022/1024 4000 BKN012 PROB30 TEMPO 1102/1115
     3000 -SN=

0000011100
414
SPCN47 CWAO 102225
SPECI CYWA 102225Z AUTO 11004KT 9SM BKN008 OVC011 OVC015 M05/M06
A3013=

0000135800
415
FTBO41 SLLP 102200
TAF SLLP 102200Z 1100/1124 08005KT 9999 FEW015 FEW017CB TX16/1120Z 
TN05/1110Z BECMG 1103/1106 4000E VCFG FEW002 SCT012 BKN070 BECMG 1111
/1114 14006KT 9999 NSW FEW015 SCT070 TEMPO 1116/1119 7000 VCTSSH 
SCT017 FEW020CB=
TAF SLVR 102200Z 1100/1124 33008KT 9999 NSC TX33/1119Z TN23/1110Z 
TEMPO 1109/1112 BKN005 BECMG 1115/1118 34020G30KT BKN020 BKN070 TEMPO
1119/1123 8000 SHRA FEW030CB=
TAF SLCB 102200Z 1100/1124 00000KT 9999 FEW027 TX29/1119Z TN11/1110Z 
BECMG 1115/1117 27010KT=
TAF SLTJ 102200Z 1100/1124 00000KT 9999 FEW030 TX29/1119Z TN14/1110Z 
BECMG 1117/1119 15010KT SCT030 SCT070=
TAF SLTR 102200Z 1100/1124 00000KT 9999 FEW015 TX31/1119Z TN23/1110Z 
BECMG 1113/1116 33008KT FEW017 PROB40 TEMPO 1118/1121 7000 SHRA 
SCT017 FEW020CB=
TAF SLCO 102200Z 1100/1124 00000KT 9999 FEW015 SCT070 TX30/1119Z TN22
/1110Z BECMG 1113/1116 33008KT FEW017 TEMPO 1118/1121 7000 SHRA 
SCT017 FEW023CB=
TAF SLSU 102200Z 1100/1124 00000KT 9999 FEW020 TX22/1119Z TN10/1110Z 
BECMG 1113/1115 05010KT= 
TAF SLET 102200Z 1100/1124 33008KT 9999 NSC TX33/1119Z TN23/1110Z 
TEMPO 1109/1112 BKN005 BECMG 1115/1118 33020G30KT BKN020 BKN070 TEMPO
1119/1123 8000 SHRA FEW030CB=
TAF SLPS 102200Z 1100/1124 00000KT 9999 NSC TX35/1119Z TN24/1110Z 
BECMG 1115/1118 SCT020 TEMPO 1119/1123 FEW030CB=

0000011600
416
SPUS31 KWBC 102223
SPECI
KSTL 102219Z 17011G21KT 3SM -RA BR SCT005 BKN024 OVC043 08/06
A2969=

0000010100
417
SPUS41 KWBC 102223
SPECI
KABE 102219Z 05003KT 5SM BR BKN009 OVC012 01/M02 A3033=

0000011300
418
SPUS41 KWBC 102223
SPECI
KWRI 102219Z AUTO 04004KT 1 1/4SM R06/2200FT BR OVC003 02/02 A3031=

0000010900
419
SPUS44 KWBC 102223
SPECI
KTIW 102219Z 20008KT 10SM -RA SCT015 SCT026 OVC060 08/06 A3002=

0000010800
420
SAAG41 SABE 102220
METAR SABE 102220Z  34006KT 9999 -SHRA BKN030
FEW045CB  29/21 Q1007=

0000011100
421
SPCN51 CWAO 102223
SPECI CWOB 102223Z AUTO 19002KT BKN001 BKN014 OVC018 OVC024 M19/
A2914=

0000043400
422
SAUK31 EGGY 102220
METAR EGBB 102220Z 20010KT 9999 SCT029 BKN041 08/06 Q1010=
METAR EGCC 102220Z NIL=
METAR EGKK 102220Z 22009KT 9999 BKN010 08/06 Q1014=
METAR EGLL 102220Z 20010KT 9999 -RA BKN043 08/07 Q1013=
METAR EGPF 102220Z VRB03KT 9999 FEW023 SCT042 01/M00 Q1008=
METAR EGPH 102220Z NIL=
METAR EGPK 102220Z VRB02KT 9999 SCT036 02/01 Q1008=
METAR EGSS 102220Z 20010KT 9999 -RA BKN007 07/06 Q1013=

0000043600
423
SAUK32 EGGY 102220
METAR EGAA 102220Z 22004KT CAVOK 03/02 Q1009=
METAR EGAC 102220Z NIL=
METAR EGFF 102220Z 25007KT 9999 RA BKN017 BKN022 08/07 Q1012
    REDZ=
METAR EGGW 102220Z 21007KT 9999 -DZ BKN005 07/06 Q1012=
METAR EGLC 102220Z AUTO 21009KT 9999 RA BKN028/// BKN040/// 09/07
    Q1013=
METAR EGNM 102220Z NIL=
METAR EGNX 102220Z 22015KT 9999 FEW032 BKN045 08/06 Q1009=
METAR EGPD 102220Z NIL=

0000042600
424
SAUK33 EGGY 102220
METAR EGGD 102220Z 21008KT 9999 -RA SCT011 BKN039 08/06 Q1011=
METAR EGGP 102220Z 26007KT 9999 VCSH SCT006 BKN010 07/07 Q1008=
METAR EGHI 102220Z 19004KT 160V220 9000 -RA FEW018 BKN029 07/06 Q1014
    =
METAR EGNS 102220Z NIL=
METAR EGNT 102220Z 26005KT 9999 FEW007 SCT012 05/04 Q1007=
METAR EGNV 102220Z NIL=
METAR EGPB 102220Z 26024KT 8000 -SHRA FEW012 SCT016 05/04 Q0999=

0000021700
425
SAUK34 EGGY 102220
METAR EGHE 102220Z NIL=
METAR EGHK 102220Z NIL=
METAR EGHQ 102220Z NIL=
METAR EGJA 102220Z NIL=
METAR EGJB 102220Z NIL=
METAR EGJJ 102220Z NIL=
METAR EGTE 102220Z NIL=

00000000