0000078200
706
SATU32 LTAA 110050
METAR LTAG 110050Z 01003KT CAVOK 03/M03 Q1021 NOSIG=
METAR LTAN 110050Z 00000KT 2300 BR OVC003 M02/M03 Q1021 NOSIG=
METAR LTAP 110050Z 00000KT CAVOK M05/M06 Q1022 NOSIG=
METAR LTAT 110050Z 21005KT CAVOK M09/M10 Q1021 NOSIG=
METAR LTAU 110050Z 00000KT 2900 BR OVC002 M04/M04 Q1022 TEMPO 0800
 FZFG=
METAR LTBF 110050Z 00000KT 0300 R36/0800U R18/0700U FZFG VV003
 M01/M01 Q1023 NOSIG=
METAR LTBU 110050Z 32003KT 0400 R05/0300U R23/0500U FG NSC 05/05
 Q1021=
METAR LTCC 110050Z 33004KT CAVOK M04/M07 Q1020 NOSIG=
METAR LTCE 110050Z 02002KT 0400 R26L/0500D R08R/P1500U R26R/0600D
 R08L/P1500U BCFG VV002 M27/M29 Q1021 BECMG TL0200 FZFG=
METAR LTCJ 110050Z 02004KT 4000 1500SW R02/P1500U R20/P1500U BR NSC
 M05/M05 Q1020=

0000055500
707
SATU33 LTAA 110050
METAR LTAR 110050Z NIL=
METAR LTAY 110050Z 00000KT CAVOK M03/M04 Q1022=
METAR LTBR 110050Z 24003KT 7000 NSC M04/M06 Q1024 NOSIG=
METAR LTBY 110050Z 07004KT 7000 OVC009 M01/M03 Q1023=
METAR LTCA 110050Z 23005KT CAVOK M07/M09 Q1022 NOSIG=
METAR LTCD 110050Z 00000KT CAVOK M13/M14 Q1023 NOSIG=
METAR LTCF 110050Z 00000KT CAVOK M25/M28 Q1020=
METAR LTCI 110050Z 08003KT 8000 SCT040 M10/M11 Q1019 NOSIG=
METAR LTDA 110050Z 14003KT CAVOK M00/M01 Q1022=
METAR LTFH 110050Z 07006KT CAVOK 07/M05 Q1017 NOSIG=

0000052700
708
SATU34 LTAA 110050
METAR LTAL 110050Z NIL=
METAR LTAS 110050Z NIL=
METAR LTAW 110050Z NIL=
METAR LTBD 110050Z NIL=
METAR LTBH 110050Z NIL=
METAR LTBO 110050Z NIL=
METAR LTCK 110050Z NIL=
METAR LTCL 110050Z NIL=
METAR LTCM 110050Z NIL=
METAR LTCN 110050Z NIL=
METAR LTCO 110050Z NIL=
METAR LTCP 110050Z NIL=
METAR LTCR 110050Z NIL=
METAR LTCT 110050Z NIL=
METAR LTCU 110050Z 29002KT CAVOK M09/M11 Q1024=
METAR LTCV 110050Z NIL=
METAR LTFD 110050Z NIL=
METAR LTFG 110050Z NIL=

0000008900
709
SATU35 LTAA 110050
METAR LCEN 110050Z 28010KT CAVOK 09/05 Q1021 NOSIG=

0000045300
710
SACU31 MUHA 110100
METAR
MUHA 110055Z VRB02KT 9000 FEW040 21/19 Q1018=
MUVR 110050Z 08006KT 9000 FEW020 24/22 Q1018=
MUSC 110050Z 08005KT 9000 NSC 23/21 Q1018=
MUCC 110050Z 10008KT 070V130 9000 FEW020 25/22 Q1018=
MUCM 110051Z 07009KT 9000 FEW020 21/18 Q1018=
MUHG 110050Z 09013KT 9000 FEW020 25/20 Q1017=
MUCU 110051Z 02003KT 360V080 9000 FEW020 25/20 Q1017=
MUCL 110051Z 11006KT 9000 FEW020 25/22 Q1016=
MUCF  NIL=

0000012600
711
SACN61 CYPQ 110100
METAR CYPQ 110100Z AUTO 14006KT 9SM OVC015 02/00 A3007 RMK PCPN 0.5MM
 PAST HR SLP193=

0000011900
712
SAEQ01 SEQU 110100 RRA
METAR SEGU 110100Z VRB02KT 9999 BKN020 BKN090 28/22 Q1009 RMK 
A2980 NOSIG=

0000015800
713
SAUS71 KWBC 110000 RRI
METAR
KMMU 110045Z 00000KT 1/2SM FG OVC003 00/M01 A3032=
KMYR 110045Z 18007KT 4SM -RA BKN003 OVC014 16/14 A3015=

0000005900
714
FTTM31 YBBN 110100
TAF WPDL 110100Z NIL=

0000011000
715
SAMJ41 LWSK 110100
METAR LWSK 110100Z 00000KT 0250 R34/0400N FG OVC002 01/01 Q1024
NOSIG=

0000010300
716
SAUS73 KWBC 110000 RRI
METAR
KBJC 110045Z 31009KT 15SM FEW060 SCT120 02/M12 A2976=

0000011500
717
SACN61 CYZE 110100
METAR CYZE 110100Z AUTO 16009KT 8SM OVC009 01/M01 A2986 RMK PRESFR
 SLP122=

0000009700
718
SAUS74 KWBC 110000 RRF
METAR
KSBD 110049Z 26003KT 6SM HZ FEW250 19/00 A3005=

0000031100
719
FTAU35 YBBN 110100
TAF AMD YCIN 110002Z 1100/1120
27008KT CAVOK
FM110700 33008KT CAVOK
FM111200 25008KT CAVOK
PROB30 INTER 1106/1116 VRB25G40KT 3000 TSRA SCT030 FEW080CB
RMK=
TAF YFRT 110023Z 1102/1120
13014KT CAVOK
FM110700 13018KT CAVOK
FM111500 16010KT 9999 BKN010
RMK=

0000010300
720
SARM31 LUKK 110100
METAR LUKK 110100Z 25010KT CAVOK 03/M02 Q1015 R26/CLRD65
NOSIG=

0000045500
721
SARH31 LDZM 110100
METAR LDSP 110100Z 33004KT 9999 BKN036 12/10 Q1022 =
METAR LDPL 110100Z 08004KT 9999 FEW041 BKN058 10/09 Q1021 =
METAR LDDU 110100Z 03009KT 340V070 CAVOK 11/06 Q1022 =
METAR LDZA 110100Z 00000KT 0600 R05/0450V1100N R23/0350V0650D FG
FEW001 FEW042 04/04 Q1021 TEMPO 0400 =
METAR LDZD 110100Z 11004KT 9999 OVC060 09/09 Q1022 =
METAR LDRI 110100Z NIL=
METAR LDOS 110100Z 15005KT 5000 BR SCT040 04/04 Q1022=

0000009200
722
SARM31 LUKK 110100
METAR LUBL 110100Z AUTO 25014KT 9999 NCD 02/M03 Q1014=

0000010100
723
SAMR20 TFFF 110100
METAR TFFF 110100Z AUTO 06012KT 9999 BKN056 BKN066 25/19 Q1016=

0000012400
724
SALI20 GLRB 110100
METAR GLRB 110100Z 00000KT 9000 SCT014  FEW024 CB BKN100 26/25
Q1011 RMK CB-S, BRVC=

0000012100
725
SAGQ21 FGSL 110100
METAR FGBT 110100Z NIL=
METAR FGSL 110100Z 23005KT 6000 FEW010 24/22 Q1011 NOSIG=

00000000