0000011300
886
SACN61 CYMM 102200
METAR CYMM 102200Z AUTO 32005KT 9SM -SN OVC018 M12/M14 A2947 RMK
 SLP011=

0000011800
887
SACN61 CYLW 102200
METAR CYLW 102200Z AUTO 00000KT 9SM -RA BKN050 OVC055 04/00 A2984 RMK
 SLP118=

0000027000
888
SAMX34 MMMD 102200
METAR MMMD 102148Z 14011KT 7SM  SCT025TCU 29/19 A2990 RMK 8/200=
METAR MMUN 102146Z 12013KT 7SM  BKN015TCU 28/23 A2996 RMK 8/200=
METAR MMCZ 102147Z 11008KT 8SM  SCT015TCU 24/22 A2995 RMK 8/200 VC
CB=
METAR MMTP 102157Z NIL=

0000012200
889
SAMX31 KWBC 102145 RRE
METAR
MMMY 102143Z 03006KT 8SM SCT160 SCT250 25/13 A2982 RMK 8/072
     HZY=

0000010400
890
SPUS31 KWBC 102201
SPECI
KSTL 102157Z 21010G14KT 2 1/2SM -RA BR OVC005 07/06 A2971=

0000012600
891
SAPA31 KWBC 102100 RRE
METAR
PTSA 102050Z COR 05012KT 10SM SCT021 SCT130 BKN300 29/24 A2978
     FIRST=

0000039600
892
SAHU41 LHBM 102200
METAR LHKE 102145Z 00000MPS CAVOK 02/M00 Q1022 NOSIG RMK BLU=
METAR LHPA 102145Z 15002MPS 4000 BR FEW200 M01/M01 Q1021 NOSIG RMK
     GRN=
METAR LHPP 102145Z 09006KT CAVOK 05/04 Q1022=
METAR LHPR 102145Z 24007KT CAVOK 03/M01 Q1021=
METAR LHSN 102145Z 26004MPS CAVOK 04/M01 Q1021 NOSIG RMK BLU=
METAR LHUD 102145Z 21003KT 6000 FEW200 01/M00 Q1023=

0000086200
893
SACH10 SCSC 102200
METAR SCFA 102200Z 19013KT 9999 SCT025 22/17 Q1010 NOSIG=
METAR SCAR 102200Z 21007KT CAVOK 24/17 Q1010=
METAR SCBA 102200Z AUTO 32025G37KT CAVOK 13/03 Q1016=
METAR SCCF 102200Z 27021KT CAVOK 24/04 Q1021=
METAR SCIE 102200Z 25013KT CAVOK 22/11 Q1014=
METAR SCAT 102200Z 23010KT 200V260 9999 FEW020 21/14 Q1012=
METAR SCDA 102200Z 20015KT CAVOK 24/17 Q1010=
METAR SCSE 102200Z 30009KT CAVOK 19/14 Q1012=
METAR SCJO 102200Z 15011KT 9999 FEW030 SCT200 19/07 Q1020=
METAR SCTE 102200Z 14012KT 9999 FEW045 SCT200 16/07 Q1022 NOSIG=
METAR SCNT 102200Z NIL=
METAR SCCI 102200Z 24018KT 9999 SCT040 OVC066 10/03 Q1009 NOSIG=
METAR SCEL 102200Z 21015KT CAVOK 29/02 Q1012 NOSIG=
METAR SCIP 102200Z 10008KT 9999 SCT020 SCT040 26/18 Q1020 NOSIG=
METAR SCPQ 102200Z AUTO 13007KT 080V160 9999 SCT034 15/08 Q1022=

0000011300
894
SACN61 CYNA 102200
METAR CYNA 102200Z AUTO 29010KT 9SM -SN OVC012 M08/M10 A3006 RMK
 SLP181=

0000010600
895
SACN61 CYNE 102200
METAR CYNE 102200Z AUTO 12003KT 9SM OVC006 M09/M10 A2943 RMK SLP987=

0000010600
896
SACN61 CYNM 102200
METAR CYNM 102200Z AUTO 19008KT 9SM OVC013 M05/M06 A2989 RMK SLP143=

0000011400
897
SACN61 CYPR 102200
METAR CYPR 102200Z AUTO 10007KT 9SM BKN055 04/02 A2965 RMK PRESFR
 SLP041=

0000012100
898
SAIY32 LIIB 102150 RRB
METAR LIPH 102145Z /////KT 1000 R07/P2000 BR SCT020 SCT035 06/05
      Q1022=

0000011200
899
SACN61 CYQA 102200
METAR CYQA 102200Z AUTO 15009KT 6SM BR OVC007 M01/M02 A3005 RMK
 SLP193=

0000011000
900
SACI44 ZSJN 102200
METAR ZSJN 102200Z VRB01MPS 1400 R19/1300N BR NSC M07/M08 Q1032
NOSIG=

0000009200
901
SAEG31 HECA 102200
METAR HECA 102200Z 32003KT 6000 NSC 14/09 Q1023 NOSIG=

0000009200
902
SAMT20 GQPP 102200
METAR GQPP 102200Z 23003KT 8000 NSC 17/15 Q1016 NOSIG=

0000022500
903
FTSA31 TTPP 101600 RRB
TAF 
SYCJ 102109Z 1100/1124 02006KT 9999 SCT015 SCT300 
      BECMG 1105/1107 00000KT 5000 BR 
      TEMPO 1106/1112 0900 FG SCT001 
      BECMG 1112/1114 09012KT 9999 BKN018=

0000019000
904
FTCA31 TTPP 101600 RRA
TAF
TLPL 102100Z 1100/1200 08018G28KT 9999 SCT023 
      TEMPO 1100/1112 SHRA BKN020 SCT040 
      PROB30 TEMPO 1104/1109 5000 SHRA FEW018TCU=

0000100400
905
SAMX41 MMMX 102158
METAR MMMX 102143Z 18007KT 12SM BKN025TCU 20/04 A3019 NOSIG RMK
8/200=
METAR MMAA 102142Z 22006KT 10SM SKC 31/20 A2982=
METAR MMBT 102140Z 18008KT 7SM FEW070 30/22 A2986 RMK 8/030=
METAR MMCB 102200Z 00000KT 10SM FEW030 SCT070 27/10 A3000 RMK 8/170=
METAR MMOX 102142Z 19015KT 15SM SCT030 27/04 A3005 RMK 8/100=
METAR MMPA 102140Z 09006KT 5SM SCT120 26/16 A2987 RMK 8/030 HZY=
METAR MMPB 102153Z 20011KT 8SM SCT020 20/06 A3020 RMK 8/100 HZY=
METAR MMPS 102141Z 26009KT 15SM FEW100 30/22 A2995 RMK 8/030 CU N=
METAR MMQT 102145Z 26007KT 8SM SCT020 BKN060 BKN280 21/09 A3016 RMK
                   8/804=
METAR MMTM 102142Z 11004KT 5SM SCT070 BKN200 24/17 A2983 RMK 8/038
HZY=
METAR MMTO 102146Z 16009KT 7SM BKN020TCU 15/05 A3027 RMK 8/200=
METAR MMVR 102141Z 10010KT 7SM SKC 26/17 A2984 RMK HZY DSNT CU 4
QUAD=
METAR MMZH 102149Z 19006KT 7SM SCT020TCU SCT250 30/23 A2982 RMK
8/202=
METAR MMIT 102157Z NIL=
METAR MMTB 102157Z NIL=

00000000