0000011900
966
SACN62 CYLJ 102200
METAR CYLJ 102200Z 26014KT 15SM FEW070 SCT230 M05/M09 A2939 RMK
 AC2CI2 SLP983=

0000014200
967
SACN62 CYMA 102200
METAR CYMA 102200Z 36007KT 20SM -SN SCT035 BKN070 BKN200 M17/M21
 A2941 RMK SC4AC2CI1 VIS E 10 SLP009=

0000185200
968
SPUS70 KWBC 102204
SPECI
KADF 102159Z AUTO 17006KT 2 1/2SM -RA BR BKN004 OVC010 13/13 A2974
     RMK AO2 CIG 002V008 P0001=
KAGC 102200Z 14005KT 10SM OVC010 08/06 A3011 RMK AO2=
KARR 102200Z 15014KT 2SM -RA BKN005 OVC009 06/02 A2969 RMK AO2 CIG
     003V007 P0002 T00560022=
KDAN 102200Z AUTO 04003KT 7SM -RA SCT005 OVC014 04/02 A3023 RMK
     AO2 P0000=
KDXR 102200Z 00000KT 4SM BR OVC007 01/M02 A3034 RMK AO2=
KFDY 102200Z AUTO 14012KT 1/2SM FG OVC003 03/02 A2994 RMK AO2=
KFIT 102200Z AUTO VRB03KT 10SM BKN016 BKN050 02/M01 A3033 RMK AO2
     T00221011=
KFRG 102200Z 00000KT 1 1/2SM -RA BR OVC016 02/02 A3035 RMK AO2
     RAB2154 P0000=
KHFD 102200Z 00000KT 4SM BR OVC025 01/M01 A3036 RMK AO2
     T00111006=
KHVN 102200Z 00000KT 3SM BR OVC004 02/00 A3036 RMK AO2=
KLUK 102200Z VRB03KT 10SM SCT075 OVC120 09/07 A2996 RMK AO2
     T00940067=
KLWV 102200Z AUTO 16011KT 1SM BR FEW008 SCT026 OVC046 05/04 A2987
     RMK AO2 RAE2156 P0000 T00500044=
KNEW 102200Z 11009KT 2SM BR OVC002 14/13 A2996 RMK AO2
     T01440133=
KOSU 102200Z 14006KT 6SM BR OVC006 06/06 A3000 RMK AO2
     T00610056=
KPYM 102200Z AUTO 22004KT 3/4SM BR OVC002 03/01 A3037 RMK AO2
     T00280011=
KALO 102201Z AUTO 09004KT 1 1/4SM R12/4500V5500FT BR OVC004 00/00
     A2955 RMK AO2 T00000000 TSNO=
KBDE 102201Z AUTO 18008KT 4SM BR BKN012 OVC019 M04/M06 A2944 RMK
     AO2 T10391056 TSNO=
KBFM 102201Z 00000KT 10SM OVC009 17/13 A3002 RMK AO2 T01670133=
KCMH 102201Z 13010KT 9SM BKN007 OVC120 07/05 A3001 RMK AO2=
KGLR 102202Z AUTO 16009KT 1/2SM FZFG OVC003 M03/M04 A2984 RMK AO2
     T10331039=
KPNS 102201Z 00000KT 1/4SM R17/2400V2600FT FG VV003 16/15 A3001
     RMK AO2 T01610150=
KSHN 102201Z AUTO 20006KT 5SM -RA BR FEW012 BKN036 OVC055 08/07
     A2999 RMK AO2 P0000 T00830067 TSNO=

0000011200
969
SACN62 CYMX 102200
METAR CYMX 102200Z 04005KT 8SM -SN OVC010 M09/M13 A3027 RMK ST8
 SLP259=

0000010600
970
SACN62 CYND 102200
METAR CYND 102200Z 08006KT 10SM OVC009 M07/M09 A3023 RMK SF8 SLP240=

0000012000
971
SACN61 CYPY 102200
METAR CYPY 102200Z AUTO 23002KT 9SM -SN BKN013 OVC065 M17/M20 A2950
 RMK SLP015=

0000010600
972
SACN62 CYOW 102200
METAR CYOW 102200Z 06005KT 10SM OVC008 M06/M08 A3020 RMK SC8 SLP237=

0000012400
973
SACN62 CYPL 102200
METAR CYPL 102200Z 18009KT 1 1/2SM -SN DRSN OVC003 M08/M09 A2950 RMK
 FG2SF6 SLP019=

0000013300
974
SACN62 CYPW 102200
METAR CYPW 102200Z 10006KT 25SM FEW020 FEW035 OVC080 06/04 A2991 RMK
 SC1NS2AS6 SC TR SLP133=

0000011900
975
SACN62 CYOJ 102200
METAR CYOJ 102200Z 18002KT 15SM BKN046 BKN250 M17/M20 A2949 RMK
 SC6CI1 SLP021=

0000009400
976
SAAG41 SAWE 102200
METAR SAWE 102200Z  25019KT 9999  FEW020  13/05
Q1005=

0000008400
977
SAAG41 SAZS 102200
METAR SAZS 102200Z  32016KT CAVOK 19/03 Q1018=

0000026400
978
SACZ43 LKPW 102200
METAR LKCV 102200Z 24009KT CAVOK 04/01 Q1018 NOSIG=
METAR COR LKKB 102200Z 24009KT CAVOK 04/01 Q1018=
METAR LKLN 102200Z NIL=
METAR LKNA 102200Z 26008KT CAVOK 01/M01 Q1018=
METAR LKPD 102200Z 26008KT CAVOK 05/00 Q1018=

0000011500
979
SACN62 CYQK 102200
METAR CYQK 102200Z 17011KT 1SM -SN BR OVC006 M05/M06 A2942 RMK SC8
 SLP987=

0000012400
980
SACN62 CYQB 102200
METAR CYQB 102200Z 19004KT 8SM -SHSN BKN017 OVC040 M09/M11 A3029 RMK
 SC6SC2 SLP263=

0000011200
981
SACN62 CYQM 102200
METAR CYQM 102200Z 22011G17KT 15SM SCT025 M03/M08 A3027 RMK SC3
 SLP255=

0000011100
982
SACN62 CYQT 102200
METAR CYQT 102200Z 00000KT 8SM OVC014 M03/M06 A2965 RMK SC8 BR
 SLP052=

0000013700
983
SACN62 CYQR 102200
METAR CYQR 102200Z 31006KT 3/8SM R13/3000VP6000FT/U FZFG OVC001
 M08/M09 A2946 RMK FG4SF4 SLP016=

0000065100
984
SAZA31 FAPR 102200
METAR FABL 102200Z NIL=
METAR FACT 102200Z 18010KT 9999 FEW035 17/13 Q1018 NOSIG=
METAR FAGG 102200Z AUTO 20003KT 170V240 9999 -RA FEW019 BKN024 16/13
     Q1020=
METAR FALA 102200Z AUTO 17007KT //// // 23/07 Q1018=
METAR FALE 102200Z 21003KT 190V250 CAVOK 22/20 Q1015 NOSIG=
METAR FAMM 102200Z AUTO 24004KT //// // ////// 23/06 Q1017=
METAR FAOR 102200Z NIL=
METAR FAPE 102200Z 25013KT CAVOK 18/14 Q1017 NOSIG=
METAR FAPN 102200Z AUTO 19003KT //// // ////// 25/05 Q1014=
METAR FAPP 102200Z AUTO 03002KT //// // ////// 20/16 Q1017=
METAR FAUP 102200Z AUTO 21006KT //// // ////// 22/03 Q1016=

0000169900
985
SAUS72 KWBC 102200 RRB
METAR
KLCH 102153Z 17007KT 10SM BKN006 OVC033 18/16 A2988=
KLFT 102153Z AUTO 17010G18KT 5SM -RA BR BKN014 OVC019 19/18
     A2991=
KLIT 102153Z 15008KT 1 1/2SM -RA BR BKN003 OVC036 11/10 A2975=
KLRD 102156Z 30006KT 10SM CLR 25/13 A2986=
KLRU 102155Z AUTO 25018G24KT 10SM CLR 16/M09 A2996=
KMAF 102153Z 29020G28KT 10SM CLR 21/M08 A2979=
KMCN 102153Z 09004KT 1SM BR OVC004 11/11 A3011=
KMCO 102153Z 16007KT 10SM BKN050 BKN250 25/19 A3009=
KMEI 102158Z 14006KT 10SM OVC010 14/11 A2998=
KMEM 102154Z 16015G20KT 10SM FEW030 BKN120 OVC150 14/09 A2982=
KMFE 102153Z VRB03KT 10SM CLR 27/16 A2982=
KMGM 102153Z 06005KT 10SM OVC004 12/11 A3005=
KMIA 102153Z 12008KT 10SM SCT022 SCT210 BKN300 26/21 A3008=
KMKL 102153Z 16006KT 10SM OVC018 11/08 A2990=
KMLB 102153Z 12005KT 10SM SCT034CB 24/21 A3008=
KMLC 102153Z AUTO 22014G18KT 10SM BKN017 BKN027 OVC037 16/13
     A2961=
KMLU 102153Z 20006KT 2 1/2SM -RA BR OVC014 16/14 A2985=
KMOB 102156Z 14006KT 10SM OVC008 16/14 A3001=
KMSL 102153Z AUTO 13005KT 10SM OVC012 12/08 A2999=
KMSY 102153Z 12006KT 8SM OVC007 18/16 A2995=
KNEW 102153Z 11010KT 3SM BR OVC004 14/13 A2996=
KNGP 102156Z 18012KT 10SM SCT045 SCT250 22/19 A2981=
KOKC 102152Z 32015KT 10SM FEW030 SCT250 13/M01 A2968=
KPBI 102153Z 14010KT 10SM FEW028 SCT060 BKN200 25/21 A3008=
KPDK 102153Z 07005KT 1SM BR OVC003 08/08 A3010=
KPFN NIL=
KPIE 102153Z 13006KT 10SM CLR 24/20 A3007=
KPNS 102153Z 00000KT 1/2SM R17/2400V2600FT FG OVC002 16/15
     A3001=
KROW 102151Z 28015KT 10SM CLR 20/M13 A2979=
KRSW 102153Z 10005KT 10SM FEW049 26/20 A3006=
KSAT 102151Z 23009KT 10SM FEW035 BKN250 22/14 A2981=

00000000