0000009600
886
SAIN90 VABP 111100
METAR VABP 111100Z 05005KT 2500 HZ FEW020 18/11 Q1017 NO SIG=
0000060600
887
USAA01 NZCM 110000
TTAA 61001 89664
99997 00056 18501 00512 ///// ///// 92601 07158 18518
85255 11341 17017 70716 21114 15006 50514 33959 24513
40666 44759 24520 30855 51765 24023 25975 45585 24514
20124 43786 24513 15318 43586 26009 10592 41586 23504
88320 52361 23026
77999
31313 48008 82219=

0000069700
87361=
0000011200
87368
0000009600
87371
0000035800
87378
0000037300
87381
0000039400
87385=
0000043700
87428=
0000047900
87503
0000056200
87524=
0000048100
87722
0000052300
87825=
0000058600
88875
0000064800
89318=
0000009600
888
SMAJ01 UBBB 110000
AAXX 11001
37864 32497 31805 10040 20025 40183 57029 83700=
0000019900
889
SMCN01 CWAO 110000 RRA
AAXX 11004
71069 15/// ///// 11083 60001
333 11082 21183 70000=
71108 11566 8//// 10067 30063 40136 5/020 69941 76162 885//
333 10088 20067 70084 90927=
0000021100
890
SMCN03 CWAO 110000 RRA
AAXX 11004
71435 15/// /1704 11061 21071 39420 40017 56015 60001
333 11059 21097 70002=
71472 15/// /1008 10055 20023 39934 49951 56072 60001
333 10064 20048 70006=
0000013600
891
SMCN08 CWAO 110000 RRA
AAXX 11004
71915 12974 23110 11260 21299 39921 40005 51033 60001 80001
333 11244 21287 70000=
0000031000
892
SMCN05 CWAO 110000 RRA
AAXX 11004
71800 15/// /2723 11042 30208 40242 57001 60001
333 11026 21110 70000=
71807 15/// /2519 11029 21068 30215 40234 51008 60001
333 11027 21084 70000=
71808 11874 32809 11116 21169 30093 40141 58004 69901 70171
83070 333 11111 21210 40025 79999 90921=
0000017300
893
SMST01 EGRR 110000 CCA
AAXX 11004
88889 11477 72126 10044 21034 39917 40002 53029 69921 72582 878//
 333 10077 81818 87629 91038 90710 91326 90710 91138=
0000070800
894
SMMG01 FMMI 110000
AAXX 11004
67002 32580 20805 10249 20210 30085 40120 81800
  333 0//00 58016 81820 92408=

67004 NIL=
67009 NIL=

67012 NIL=

67025 NIL=

67027 32980 32602 10245 20233 30090 40111 57003 81202
  333 0//00 81820 83073=

67045 NIL=

67072 NIL=

67073 NIL=

67083 32470 50000 10184 20170 38748 48522 58009 81802
  333 0//00 81817 85073=
67095 12475 20000 10256 20252 30108 40114 57013 69921 82800
  333 0//13 82817 555 81633=
67113 NIL=

67117 NIL=

67137 NIL=

67143 NIL=

67152 NIL=

67157 NIL=

67161 NIL=

67197 12470 30000 10246 20237 30113 40123 54000 69951 83800
  333 0//115 82816 555 82633=
0000045600
895
SMVB01 LFPW 110000
BBXX
A8VL6 11004 99248 11195 41296 70325 10140 20105 40245 52005 70222
8275/
22213 04150 21205 399// 41603 5//// 80120=
CQIV 11004 99242 11184 41396 80520 10140 20123 40265 53005 70222
887//
22200 21004 30000 80130=
DFWV2 11004 99272 11222 41598 70815 10155 20082 40260 52020 70122
8586/
22214 06160 20903 305// 41605 80115=
BATFR10 11004 99218 11221 46/// /1025 10217 20117 40247 53024
22213 04239=
0000166900
896
SMVF01 LFPW 110000
BBXX
61002 11004 99421 10047 46/// /1608 10130 20050 40190 57002
22200 00129 10501 70004=
BAREU65 11004 99335 70139 46/// ///// 40158 52013
22243=
BATFR16 11004 99431 70181 44/97 81121 10109 20039 40148 56018 70211
8////
22214 00140 328// 410// 5////=
BATFR24 11004 99430 10077 44/98 03101 10132 20079 40209 58017 70000
22264 00130=
BAREU66 11004 99370 70013 46/// ///// 40164 57010
22255=
12050 11004 99336 10319 46/// ///// 40225 52002
22200=
BATFR54 11004 99475 70039 46/// /2403 10095 20079 40174 51012
22232 04109=
BATFR22 11004 99423 10070 46/// /1307 10127 20077 40206 51006
22234 04142=
BATFR27 11004 99500 70017 46/// /2225 10099 20074 40136 55///
22253 04114=
BATFR20 11004 99402 10074 46/// /1207 10139 20110 40188 58003
22233=
BATFR09 11004 99415 70101 46/// /0010 10110 20052 40174 51002
22242 04152=
BATEU08 11004 99631 70205 46/// /2723 29046 49923 51025
222//=
BATFR21 11004 99429 10070 46/// /1205 10132 20084 40208 53006
222//=
BATFR61 11004 99468 70047 46/// /3107 10109 20079 40165 51009
22271 04127=
PBEO 11003 99364 70043 41/97 60910 10162 20116 40172 53010 70222
857//
22263 02153 20302 30000 80135=
BAREU13 11004 99528 70342 46/// ///// 4////
22264=
BATFR14 11004 99330 70334 44698 705// 10184 20155 40134 52020 70122
8642/
22254 04197 20606 333// 40606 5////=
FVNM 11004 99477 70034 46/// /3003 10084 20074 40151 53005
22200 04097=
A8MA9 11004 99406 10287 41998 01807 10090 20018 40200 54000 70000
80000
22200 20501 80060=
A8VD8 11004 99326 10254 41598 62910 10180 20125 40250 54000 70322
84545
22224 00198 29901 80147=
0000030700
897
SMRH50 LDZM 110000
AAXX 11001
14235 12760 2//// 10039 20035 39052 48501 54000 60001 82030=
14246 NIL=
14314 NIL=
14323 NIL=
14324 NIL=
14328 NIL=
14330 NIL=
14370 11530 80000 10041 20041 30107 40218 54000 60001 71022 886//=
14438 NIL=
14443 NIL=
14447 NIL=
14472 NIL=
0000068900
898
USAA01 NZCM 110000
TTAA 61001 89664
99997 00056 18501 00512 ///// ///// 92601 07158 18518
85255 11341 17017 70716 21114 15006 50514 33959 24513
40666 44759 24520 30855 51765 24023 25975 45585 24514
20124 43786 24513 15318 43586 26009 10592 41586 23504
88320 52361 23026
77999
31313 48008 82219=

0000069700
87361=
0000011200
87368=
0000015000
87382
0000012800
87386
0000045600
87406=
0000047800
87429
0000015700
87445
0000049900
87465
0000054100
87473=
0000050100
87586
0000062500
87637
0000052200
87823
0000056400
88019
0000052300
88214=
0000058700
90055
0000056600
91066
0000069100
92354
0000060600
899
USAA01 NZCM 110000
TTAA 61001 89664
99997 00056 18501 00512 ///// ///// 92601 07158 18518
85255 11341 17017 70716 21114 15006 50514 33959 24513
40666 44759 24520 30855 51765 24023 25975 45585 24514
20124 43786 24513 15318 43586 26009 10592 41586 23504
88320 52361 23026
77999
31313 48008 82219=

0000069700
87361=
0000011200
87368=
0000015000
87382
0000012800
87386
0000045600
87406
0000047700
87410=
0000049900
87467
0000047900
87475=
0000048000
87589
0000058400
87664
0000058400
87798=
0000060600
88832
0000058600
89317=
0000015600
900
SMVA10 EHDB 110000 RRA
BBXX
A8GU4 11004 99243 30508 41497 60524 10260 20232 40150 56010 7//00
8677/ 22214 04260 20407 305// 40305 80240=
0000019400
901
UAAK04 KAWN 110000
GST UA /OV SSR332061/TM 0004/FL380/TP B737/WV 24060KT/TB NEG/RM
 CONT LGT FL260 AND FL280. CLMBD TO FL380. MODT TURBC DURGC
 FL330-370. ASA123 AWC-WEB/ASA=
0000068900
902
USAA01 NZCM 110000
TTAA 61001 89664
99997 00056 18501 00512 ///// ///// 92601 07158 18518
85255 11341 17017 70716 21114 15006 50514 33959 24513
40666 44759 24520 30855 51765 24023 25975 45585 24514
20124 43786 24513 15318 43586 26009 10592 41586 23504
88320 52361 23026
77999
31313 48008 82219=

0000069700
87361=
0000011200
87368=
0000015000
87382
0000012800
87386
0000045600
87406=
0000047800
87429
0000015700
87445
0000049900
87465
0000054100
87473=
0000050100
87586
0000062500
87637
0000052200
87823
0000056400
88019=
0000064800
89432
0000062800
90123
0000056600
91112
0000064900
92390
0000060600
903
USAA01 NZCM 110000
TTAA 61001 89664
99997 00056 18501 00512 ///// ///// 92601 07158 18518
85255 11341 17017 70716 21114 15006 50514 33959 24513
40666 44759 24520 30855 51765 24023 25975 45585 24514
20124 43786 24513 15318 43586 26009 10592 41586 23504
88320 52361 23026
77999
31313 48008 82219=

0000069700
87361=
0000011200
87368=
0000015000
87382
0000012800
87386=
0000045700
87427=
0000045900
87505
0000050000
87526
0000050100
87565
0000062500
87605
0000054300
87651
0000058400
87783=
0000060600
88837
0000054500
89292=
0000058500
904
USAA01 NZCM 110000
TTAA 61001 89664
99997 00056 18501 00512 ///// ///// 92601 07158 18518
85255 11341 17017 70716 21114 15006 50514 33959 24513
40666 44759 24520 30855 51765 24023 25975 45585 24514
20124 43786 24513 15318 43586 26009 10592 41586 23504
88320 52361 23026
77999
31313 48008 82219=

0000069700
87361=
0000011200
87368
0000009600
87371
0000035800
87378
0000037300
87381=
0000039500
87413=
0000052000
87479=
0000056300
87590
0000058400
87644
0000054300
87807=
0000058600
88870
0000058600
89306=
0000070900
905
USAA01 NZCM 110000
TTAA 61001 89664
99997 00056 18501 00512 ///// ///// 92601 07158 18518
85255 11341 17017 70716 21114 15006 50514 33959 24513
40666 44759 24520 30855 51765 24023 25975 45585 24514
20124 43786 24513 15318 43586 26009 10592 41586 23504
88320 52361 23026
77999
31313 48008 82219=

0000069700
87361=
0000011200
87368
0000009600
87371
0000035800
87378
0000037300
87381
0000039400
87385
0000039400
87407
0000041500
87411
0000014600
87417
0000045700
87421
0000049900
87440
0000052000
87462
0000050000
87472
0000005900
87495=
0000058400
87712
0000050200
87812=
0000062700
88858
0000062700
89310=
00000000