0000021700
846
SANO37 ENMI 110220
METAR ENNO 110220Z NIL=
METAR ENOV 110220Z NIL=
METAR ENSD 110220Z NIL=
METAR ENSG 110220Z NIL=
METAR ENSN 110220Z NIL=
METAR ENSR 110220Z NIL=
METAR ENSS 110220Z NIL=

0000061400
847
SANO33 ENMI 110220
METAR ENAT 110220Z AUTO 20005KT 9999NDV OVC001/// M15/M17 Q1019 RMK
           WIND 700FT 18006KT=
METAR ENBL 110220Z NIL=
METAR ENEV 110220Z AUTO 08010KT 030V120 9999NDV NCD M07/M16 Q1015 RMK
           WIND 1400FT 06015KT=
METAR ENFL 110220Z NIL=
METAR ENKB 110220Z AUTO 10004KT 060V130 9999NDV SCT017/// BKN023///
           OVC030/// M05/M07 Q0999=
METAR ENKR 110220Z AUTO 16009KT 2300NDV -SN BKN002/// OVC020///
           M20/M22 Q1016 SEASMOKE NORTH OF THE FIELD RMK WIND 775FT
           23013KT=
METAR ENML 110220Z NIL=
METAR ENNA 110220Z NIL=

0000022400
848
SADL33 EDZO 110220
METAR EDFE 110220Z NIL=
METAR EDFH 110220Z 16005KT 9999 0800NE R21/0450V1900D PRFG FEW010
M01/M01 Q1016=
METAR EDFM 110220Z NIL=
METAR EDLV 110220Z NIL=
METAR EDVK 110220Z NIL=

0000015300
849
SADL34 EDZO 110220
METAR EDLP 110220Z 19007KT CAVOK 03/M01 Q1016=
METAR EDQM 110220Z AUTO 22009KT 8000NDV BR BKN003/// 01/M00 Q1017=

0000048000
850
SAFI33 EFHK 110220
EFJO 110220Z AUTO 01013KT 340V050 9999 -SN FEW015 SCT019 BKN030
M08/M10 Q0995=
EFLP 110220Z AUTO 35011KT 320V030 2900 -SN FEW007 SCT009 BKN013
OVC034 M06/M08 Q0993=
EFMI 110220Z AUTO 36004KT 280V090 9000 -SN BKN014 BKN051 M07/M08
Q0996=
EFSA 110220Z AUTO 34008KT 290V040 9999 -SN OVC016 M07/M09 Q0995=
EFUT 110220Z AUTO 35012KT 320V020 9999 OVC012 M06/M07 Q0994=
EFVR 110220Z AUTO 02010KT 350V050 1300 SN OVC021 M07/M10 Q0996=

0000053400
851
SANO38 ENMI 110220
METAR ENDR 110220Z AUTO 07024KT M04/M08 Q1001=
METAR ENEK 110220Z 31017KT 9999 SCT008 BKN035 07/07 Q1003 W08/S4=
METAR ENGC 110220Z NIL=
METAR ENHE 110220Z 11029KT 9999 BKN030 M03/M04 Q1003 W///S5=
METAR ENOA 110220Z NIL=
METAR ENSL 110220Z AUTO 29029KT 9999NDV FEW028/// 07/01 Q1001
           W05/S4=
METAR ENFB 110220Z AUTO 09021KT 9999NDV -SHRA OVC010/// 03/01 Q0997
           W///S5=
METAR ENSF 110220Z AUTO 09021KT 9999NDV -SHRA BKN013/// 03/01 Q0997
           W///S5=

0000012500
852
FTCN33 CWAO 110200 AAA
TAF AMD CYUX 110225Z 1101/1113 FCST CNCLD DUE NO OBS
    RMK NXT FCST BY 110700Z=

0000044300
853
FCIE32 EIDB 110200
TAF EICM 110200Z NIL=
TAF EIDL 110200Z NIL=
TAF EIKY 110200Z NIL=
TAF EIME 110200Z 1103/1112 23008KT 9999 SCT025 TEMPO 1103/1109 3000
     BR SHRASN SCT018CB=
TAF EISG 110200Z 1103/1112 24008KT 9999 SCT020 TEMPO 1103/1104 SHRASN
     SCT018CB TEMPO 1104/1109 0200 FG BKN001=
TAF EIWF 110200Z 1103/1112 27004KT 4000 BR SCT008 TEMPO 1103/1109
     0200 FG OVC001 BECMG 1109/1111 9999 SCT025=

0000082900
854
SAIY31 LIIB 110220
METAR LIEA 110220Z 04003KT 8000 0500W BCFG NSC 06/06 Q1020=
METAR LIEE 110220Z 33005KT 8000 MIFG NSC 06/06 Q1019=
METAR LIEO 110220Z VRB02KT 1200 R05/0900VP1500U BR NSC 04/03 Q1021=
METAR LIMC 110220Z 04001KT 6000 BKN035 07/06 Q1022 NOSIG=
METAR LIME 110220Z VRB01KT 3000 BR BKN012 08/07 Q1021=
METAR LIMF 110220Z 00000KT 7000 BKN030 07/05 Q1022=
METAR LIMJ 110220Z VRB02KT 9999 SCT018 BKN035 12/10 Q1021=
METAR LIML 110220Z 00000KT 5000 BR FEW005 BKN030 08/07 Q1022 NOSIG=
METAR LIRA 110215Z 00000KT 8000 SCT030 SCT070 07/07 Q1021=
METAR LIRF 110220Z 04003KT 6000 NSC 06/06 Q1022 NOSIG=
METAR LIRN 110220Z 31004KT 5000 BR NSC 08/06 Q1022=
METAR LIRP 110215Z 11004KT 8000 BKN045 08/07 Q1021 TEMPO 5000 BR=
METAR LIRQ 110220Z 00000KT 5000 BR FEW020 BKN040 11/10 Q1022=

0000052300
855
SAIY32 LIIB 110220
METAR LIBD 110220Z NIL=
METAR LIBR 110215Z 25002KT 8000 NSC 06/05 Q1022 NOSIG=
METAR LICC 110220Z NIL=
METAR LICJ 110220Z 13003KT CAVOK 11/08 Q1021=
METAR LIPE 110220Z 24002KT 2000 BR SCT001 BKN050 07/07 Q1022=
METAR LIPH 110215Z /////KT 1800 BR SCT020 BKN035 06/05 Q1021=
METAR LIPQ 110220Z 00000KT 0200 R09/0450 FG OVC003 07/05 Q1021=
METAR LIPR 110215Z /////KT 6000 BKN050 08/08 Q1022=
METAR LIPX 110220Z NIL=
METAR LIPZ 110220Z VRB01KT 3500 BR BKN050 08/06 Q1022=

0000004200
856
SAIY33 LIIB 110220
NIL=

0000011900
857
SNHE40 EGRR 111000
AAXX 11104
61901 469// /0909 10195 20172 39682 40186 51014 333 8//99 555
 7/090=
0000009200
858
SARM31 LUKK 110230
METAR LUBL 110230Z AUTO 25013KT 9999 NCD 02/M03 Q1015=

0000013000
859
SAMR20 TFFF 110230
METAR TFFF 110230Z AUTO 08013KT 9999 -RA FEW025/// SCT032///
BKN052/// ///TCU 23/20 Q1016=

0000021200
860
SASQ31 LZIB 110230
METAR LZIB 110230Z 17004KT CAVOK M00/M01 Q1020=
METAR LZKZ 110230Z 00000KT 0150 R01/0400N FZFG BKN001 M02/M02 Q1019=
METAR LZTT 110230Z 29010KT 9999 FEW046 M00/M06 Q1016=

0000017100
861
SASQ41 LZIB 110230
METAR LZPP 110230Z NIL=
METAR LZSL 110230Z 09001KT 9999 SCT050 00/M02 Q1019=
METAR LZZI 110230Z 23002KT 9999 BKN059 01/M01 Q1019=

0000020800
862
SABU31 LBSM 110230
METAR LBSF 110230Z VRB02MPS 2500 BR NSC M02/M02 Q1022 NOSIG=
METAR LBWN 110230Z 30006MPS CAVOK 05/01 Q1020 NOSIG=
METAR LBBG 110230Z VRB01MPS CAVOK 03/02 Q1020 NOSIG=

0000015500
863
FCOS43 LOWM 110200
TAF LOXA 110200Z NIL=
TAF LOXE 110200Z NIL=
TAF LOXN 110200Z NIL=
TAF LOXT 110200Z NIL=
TAF LOXZ 110200Z NIL=

0000201600
864
SPUS70 KWBC 110230
SPECI
KBVY 110226Z AUTO 17003KT 5SM BR FEW010 OVC015 02/01 A3032 RMK AO2
     T00220006=
KESF 110226Z AUTO 18006KT 7SM -RA BKN008 BKN011 OVC022 19/17 A2982
     RMK AO2 LTG DSNT E RAB0157 P0001=
KIGX 110226Z AUTO 04003KT 2SM -RA BR OVC002 06/06 A3015 RMK AO2
     RAB12 P0001 T00610056=
KMEM 110226Z 17009KT 2SM -RA BR FEW013 OVC021 13/11 A2973 RMK AO2
     RAB17 P0000=
KMSS 110226Z AUTO 07003KT 9SM OVC030 M03/M06 A3018 RMK AO2=
KOVS 110226Z AUTO 00000KT 1SM -RA BR VV006 01/00 A2951 RMK AO2
     RAB19 P0000 T00110000=
KPAH 110226Z 23012KT 190V260 2 1/2SM RA BR SCT005 BKN016 OVC030
     09/08 A2977 RMK AO2 WSHFT 0205 P0012 T00890083=
KPLN 110225Z AUTO 13008KT 4SM -FZRA BR OVC004 M01/M02 A2968 RMK
     AO2 UPE05FZRAB05 P0000 I1002 T10111022=
KRWF 110226Z AUTO 22006KT 2SM BR CLR M03/M04 A2950 RMK AO2=
KSLN 110226Z 25006KT 5SM -RA BR SCT008 BKN020 OVC026 01/M01 A2967
     RMK AO2 RAB25SNE25 P0003 T00111006=
KUZA 110226Z AUTO 07004KT 3/4SM BR VV002 06/06 A3012 RMK AO2
     RAE0158 P0000 T00610061=
KNSE 110222Z 14006KT 1/2SM DZ FG VV002 17/17 A3000 RMK AO2
     RAE20DZB20 P0000 T01720167 $=
KAUW 110227Z AUTO 08004KT 1 1/4SM -SN BR OVC021 M02/M03 A2948 RMK
     AO2 P0002 T10221028=
KCXO 110227Z 20010KT 10SM SCT014 19/18 A2984 RMK AO2=
KFIT 110227Z AUTO 14003KT 9SM OVC009 03/01 A3031 RMK AO2
     T00280006=
KGKJ 110227Z AUTO VRB04KT 1 1/4SM BR OVC002 04/03 A2994 RMK AO2
     TSNO=
KILG 110227Z AUTO 03004KT 1 1/2SM -RA BR BKN004 OVC009 03/02 A3026
     RMK AO2 P0002=
KLNR 110227Z AUTO 00000KT 1 3/4SM -RA BR OVC007 01/01 A2950 RMK
     AO2 UPB07E08 P0001 T00060006=
KOJC 110227Z 28004KT 2 1/2SM BR OVC002 02/02 A2959 RMK AO2 CIG
     002V005 T00220017=
KSEG 110227Z AUTO 00000KT 1 1/2SM BR OVC008 00/M01 A3022 RMK AO2
     T00001011=
KSGH 110227Z AUTO 16009KT 2 1/2SM BR OVC001 06/06 A2984 RMK
     AO2=
PANW 110224Z AUTO 00000KT 1 1/4SM BR OVC001 M07/M07 A2945 RMK AO2
     TSNO $=

0000009100
865
SANC01 NWWW 110230
METAR NWWW 110230Z AUTO 14021KT 9999 NSC 31/16 Q1010=

00000000