0000117900
046
FTUS80 KWBC 110239 AAB
TAF AMD
KHPN 110237Z 1103/1124 VRB03KT 1/2SM -SHRA FG VV002
      TEMPO 1103/1105 1/4SM -SHRA FG
     FM110500 VRB03KT 1/4SM -RA FG VV001
     FM110800 15005KT 1/2SM -RA FG VV002 WS020/19050KT
     FM111400 17010KT 1/2SM -RA FG VV003 WS015/19050KT
     FM111800 18015G21KT 1/2SM RA FG VV004 WS015/19050KT AMD NOT
      SKED=
KILM 110238Z 1103/1124 16008KT P6SM VCSH BKN006
     FM110400 15008KT 3SM BR BKN004
     FM111000 18009KT 5SM BR VCSH BKN008
     FM111600 19012G20KT P6SM VCSH BKN018
      TEMPO 1120/1124 20020G30KT 2SM +SHRA BKN012CB=
KISP 110237Z 1103/1124 VRB04KT 1/2SM FG BKN004
      TEMPO 1103/1107 1/4SM -RA FG VV002
     FM110700 15013KT 1/2SM -RA FG OVC004 WS020/19055KT
     FM111400 17017KT 1/2SM -RA FG OVC004 WS015/19060KT
     FM111800 18023G30KT 1/2SM RA FG OVC004 WS015/19060KT=
KITH 110237Z 1103/1124 16006KT P6SM OVC012
      TEMPO 1103/1107 OVC009
     FM110700 17009KT 4SM BR OVC007 WS020/21050KT
      TEMPO 1108/1112 2SM -SHRA BR
     FM111200 17012KT P6SM -SHRA OVC007
     FM111800 17011KT 3SM SHRA BR OVC012
     FM112200 21010KT P6SM OVC009 AMD NOT SKED=

0000088900
047
FTFI31 EFHK 110200
TAF EFHK 110229Z 1103/1203 35009KT 9999 BKN011 TEMPO 1103/1124
     BKN009 PROB40 TEMPO 1103/1124 BKN015 PROB40 TEMPO
     1112/1119 4000 -SN=
TAF EFJY 110229Z 1103/1203 03008KT 9999 OVC015 TEMPO 1103/1203
     BKN012=
TAF EFKU 110230Z 1103/1203 02010KT 9999 BKN020=
TAF EFOU 110230Z 1103/1203 05008KT 9999 BKN030 TEMPO 1103/1105
     6000 -SN=
TAF EFRO 110230Z 1103/1203 04012KT CAVOK=
TAF EFTP 110229Z 1103/1203 01006KT 9999 BKN007 BECMG 1103/1105
     BKN012 PROB30 TEMPO 1111/1116 3000 -SN SCT012
     BKN020 BECMG 1118/1120 SCT012 BKN020=
TAF EFTU 110229Z 1103/1203 36005KT 9999 -SG BKN007 TEMPO
     1104/1106 BKN010 BECMG 1106/1108 BKN012 TEMPO
     1109/1113 7000 -SN BKN009 BECMG 1113/1116 BKN020=
TAF EFVA 110229Z 1103/1203 03008KT 8000 -SN SCT012 BKN020
     TEMPO 1103/1108 5000 BKN012 TEMPO 1108/1118 3000=

0000009800
048
SPUS31 KWBC 110239
SPECI
KJAX 110235Z 15003KT 10SM SCT003 SCT100 17/17 A3011=

0000012400
049
SPCN31 CWAO 110236
SPECI CYYZ 110236Z 11006KT 12SM SCT014 OVC140 02/01 A2997 RMK ST4AS4
 PRESFR SLP155=

0000010700
050
SPUS43 KWBC 110239
SPECI
KAPN 110236Z AUTO 13008KT 2 1/2SM FZRA BR OVC003 00/00 A2973=

0000011700
051
SPUS43 KWBC 110239
SPECI
KTOL 110235Z 15003KT 2 1/2SM -RA BR BKN004 BKN022 OVC043 03/03
A2980=

0000012500
052
SAAK32 KWBC 110200 RRB
METAR
PADK 110236Z AUTO 21020G34KT 10SM SCT035 BKN044 OVC070 04/M02
     A2881=

0000025500
053
SAIO31 KWBC 110200 RRF
METAR
FMCZ 110230Z 30006KT 9999 FEW021 SCT300 26/23 Q1012 NOSIG=
FMEE 110230Z 12010KT 9999 FEW030 26/20 Q1015 NOSIG=
VYMD 110230Z 00000KT 7000 HZ NSC 18/15 Q1018=
VYYY 110230Z 06007KT 7000 NSC 20/19 Q1017=

0000174800
054
SPUS70 KWBC 110238
SPECI
KCHO 110234Z 00000KT 2SM -RA BR BKN003 OVC008 02/01 A3021 RMK AO2
     P0002 T00170006=
KHDO 110234Z AUTO 00000KT 1 1/4SM BR CLR 13/12 A2989 RMK AO2 VIS
     3/4V4 T01330117=
KHIO 110234Z AUTO 17009KT 10SM SCT024 BKN037 OVC075 11/07 A2994
     RMK AO2 T01060067=
KHOT 110234Z AUTO VRB05G15KT 2 1/2SM +TSRA BR BKN007 BKN012 OVC075
     14/14 A2970 RMK AO2 LTG DSNT SW TSB33RAB15 P0007=
KUNO 110234Z AUTO 18011KT 1 1/4SM -RA BR OVC002 08/07 A2962 RMK
     AO2 RAB27 P0000 T00780072=
KY50 110234Z AUTO 00000KT 1SM -FZRA OVC002 00/ A2951 RMK AO2 TSNO
     P0000 $=
KSRC 110234Z AUTO 16005KT 1 3/4SM BR OVC001 08/08 A2970 RMK AO2
     TSNO RAE28 P0001=
KMCW 110234Z AUTO 27003KT 2SM -SN BR BKN037 OVC055 M02/M02 A2952
     RMK AO2 P0000 T10171022 TSNO=
KOJC 110234Z 29006KT 1 1/4SM BR OVC002 02/02 A2959 RMK AO2
     T00220017=
KCRE 110234Z 18004KT 4SM BR SCT003 BKN009 OVC017 17/16 A3014 RMK
     AO2 RAB0159E31 P0000=
KDAN 110234Z AUTO 30004KT 2 1/2SM RA BR OVC003 04/02 A3018 RMK AO2
     P0019=
KDNL 110234Z AUTO 00000KT 4SM BR OVC003 10/09 A3010 RMK AO2 RAE33
     P0002 T01000089 TSNO=
KFAY 110234Z AUTO 00000KT 1 1/4SM -RA BR SCT009 OVC015 16/16 A3011
     RMK AO2 P0016=
KOMA 110234Z 30006KT 8SM OVC014 01/M01 A2960 RMK AO2 T00061011=
KRHI 110235Z AUTO 15003KT 2 1/2SM -SN BR BKN009 OVC013 M04/M04
     A2950 RMK AO2 P0002 T10391044=
KCRG 110235Z 15004KT 10SM SCT070 18/16 A3012 RMK AO2 LTG DSNT SW
     T01780161=
KELZ 110235Z AUTO 16006KT 10SM SCT007 04/02 A3005 RMK AO2=
PANW 110232Z AUTO 00000KT 1 1/4SM BR OVC001 M07/M07 A2945 RMK AO2
     TSNO $=
PASC 110235Z 25018KT 1 1/2SM -SN BR OVC018 M28/M31 A2983 RMK AO2
     P0000=

0000012300
055
SARA31 RUMS 110230
METAR UEEE 110230Z 00000MPS 2100 BR OVC200 M44/M49 Q1035 NOSIG RMK
QFE767 23490145=

0000065600
056
SARA32 RUMS 110230
METAR UHBB 110230Z 32003MPS 280V360 CAVOK M27/M32 Q1023 NOSIG RMK
QFE749/0999 36410160=
METAR UHHH 110230Z 25009G12MPS 9999 DRSN SKC M24/M31 Q1019 NOSIG RMK
QFE758/1010 23090060=
METAR UHMA 110230Z NIL=
METAR UHMD 110230Z NIL=
METAR UHMM 110230Z 02004MPS 9999 FEW066 M17/M28 Q1007 NOSIG RMK
QFE741 88820555=
METAR UHPP 110230Z 26003MPS 190V320 9999 BKN026 BKN100 M04/M13 Q0994
NOSIG RMK MT OBSC QFE742/0989 SC05 055 055=
METAR UHSS 110230Z 02001MPS 5000 FU BKN041 M15/M18 Q1012 NOSIG RMK
QFE758/1010 01810366=
METAR UHWW 110230Z VRB02MPS 9999 SKC M11/M21 Q1026 NOSIG RMK
QFE768/1024 25CLRD70=

0000041000
057
SARA33 RUMS 110230
METAR UIAA 110230Z 06002MPS 9999 FEW100 M27/M32 Q1029 NOSIG RMK
QFE713 29CLRD70=
METAR UIBB 110230Z 08001MPS 6000 -SHSN SCT026CB BKN100 M22/M24 Q1028
NOSIG RMK QFE727/0970 30490240=
METAR UIII 110230Z 09003MPS CAVOK M21/M23 Q1032 NOSIG RMK QFE731/0975
12490340=
METAR UIUU 110230Z 28002MPS 5000 -SN SCT033 OVC100 M15/M18 Q1031
NOSIG RMK QFE729/0972 26450545=

0000097900
058
SARA34 RUMS 110230
METAR UNAA 110230Z VRB01MPS 9000 SCT040 OVC083 M04/M09 Q1031 NOSIG
RMK QFE750 20090040=
METAR UNBB 110230Z 21005MPS 9999 -SN FEW010 BKN033 M08/M11 Q1031
NOSIG RMK QFE750/1001 24452045=
METAR UNEE 110230Z 20006MPS 2500 -SN OVC010 M08/M08 Q1028 NOSIG RMK
QFE748 23452045=
METAR UNKL 110230Z 22003MPS 180V250 8000 -SHSN SCT033CB OVC083
M07/M11 Q1027 NOSIG RMK QFE744 29////37=
METAR UNNT 110230Z 21005MPS 9000 -SN DRSN BKN015 OVC050 M07/M09 Q1028
25390137 16390142 NOSIG RMK QFE761/1015=
METAR UNOO 110230Z 19005MPS 4500 -SHSN BKN012 BKN033CB M07/M09 Q1022
25390137 NOSIG RMK QFE758=
METAR UNTT 110230Z 22005MPS 5000 -SHSN FEW006 SCT018CB OVC066 M07/M10
Q1026 NOSIG RMK QFE754 21390032=
METAR USTR 110230Z 18004MPS 9999 BKN012CB M06/M06 Q1012 TEMPO 1500
SHSN BKN005 RMK QFE750/1000 21390050 12750029=
METAR USHH 110230Z 04003MPS 9999 BKN003 OVC080 M21/M24 Q1016 TEMPO
1000 SN BKN003 RMK QBB110 QFE758 06////50=

0000013600
059
SARA35 RUMS 110230
METAR USCM 110230Z VRB02MPS 6000 OVC015 M07/M08 Q1008 TEMPO 0300 FZFG
VV002 19420150 RMK QFE719=

0000011000
060
SAIN90 VILK 111100
METAR VILK 111100Z 09004KT 1400 R27/1600 BKN020 BKN100 17/14 Q1016
NOSIG=
0000053300
061
SARA36 RUMS 110230
METAR UWUU 110230Z 19004MPS 150V230 4500 BR OVC008 M02/M02 Q1007
14620342 TEMPO 1000 SN FZRA BKN003 RMK QFE744/0993=
METAR USCC 110230Z 16004MPS 5000 BR FU BKN006 OVC070 M06/M07 Q1010
09490350 TEMPO 1100 SHSN BKN005 RMK QFE737=
METAR USNN 110230Z 03003MPS 9999 OVC009 M16/M18 Q1019 NOSIG RMK
QFE760 03420332=
METAR USRR 110230Z 09003MPS 7000 SCT011 OVC070 M24/M27 Q1018 NOSIG
RMK QFE759 07////35=
METAR USSS 110230Z 15002MPS 9999 OVC008 M05/M07 Q1008 08450135 NOSIG
RMK QFE736=

0000088800
062
SARS32 RUMS 110230
METAR URKA 110230Z NIL=
METAR URKK 110230Z 24009G13MPS CAVOK 09/03 Q1011 TEMPO 24012G17MPS
RMK QFE755 SC065=
METAR URML 110230Z 16006MPS 6000 BKN008 03/02 Q1013 NOSIG RMK MT OBSC
QFE759/1013 SC070=
METAR URMM 110230Z VRB01MPS 7000 SKC M05/M06 Q1009 30CLRD70 TEMPO
0300 FZFG OVC002 RMK QFE729/0972=
METAR URMN 110230Z NIL=
METAR URMO 110230Z NIL=
METAR URMT 110230Z 20002MPS CAVOK 01/M01 Q1007 NOSIG RMK QFE717
SC0.60=
METAR URRR 110230Z 25012G17MPS 3000 -SHRA BKN007 SCT026CB OVC100
06/05 Q1005 22290047 TEMPO 25015G20MPS=
METAR URSS 110230Z 05006MPS 9999 BKN210 04/M02 Q1016 NOSIG RMK
R06/07005MPS QFE761 02000070 06//////=
METAR URWA 110230Z 20004MPS 9999 OVC034 02/M01 Q1013 NOSIG RMK
QFE762/1016 SC055=
METAR URWI 110230Z NIL=
METAR URWW 110230Z 21007G10MPS 9999 BKN020 OVC100 03/03 Q1004 NOSIG
RMK 29290060=

0000080300
063
SARS35 RUMS 110230
METAR USPP 110230Z 11003MPS 8000 BKN019 M05/M06 Q1006 21350139 NOSIG
RMK QFE744/0992=
METAR UWKD 110230Z 16009G12MPS 9999 -SNRA OVC004 M00/M01 Q1000
R11/2/0050 TEMPO 2000 OVC003 RMK QFE740/0986=
METAR UWKE 110230Z 17003MPS 7000 OVC005 M05/M05 Q1004 NOSIG RMK 
QBB160 QFE736/0981 21420542=
METAR UWKS 110230Z 16010MPS 6000 -SHSN OVC009CB M00/M01 Q0994 NOSIG
RMK QFE731 06590534=
METAR UWLW 110230Z NIL=
METAR UWOR 110230Z NIL=
METAR UWOO 110230Z 25003MPS 1800 BR OVC002 M01/M01 Q1010 26590332
TEMPO 0400 FG RMK QBB070 QFE747/0996=
METAR UWSS 110230Z 19006MPS 2000 BR OVC003 00/00 Q1002 1219//55 NOSIG
RMK QFE739=
METAR UWWW 110230Z 18009G13MPS 4400 BR OVC004 M01/M02 Q1003 23520540
33//99// TEMPO 18015MPS OVC004 RMK QBB120 QFE741/0989=

0000051100
064
SARS33 RUMS 110230
METAR ULLI 110230Z 33005MPS 290V010 3600 -SN DRSN BKN015 OVC066
M03/M05 Q0989 28////// 78520540 NOSIG=
METAR UUBW 110230Z 21005MPS 9999 OVC013 04/01 Q0986 NOSIG=
METAR UUDD 110230Z 21005MPS 9999 BKN014 OVC100 03/02 Q0986 64290095
14290095 NOSIG=
METAR UUDL 110230Z NIL=
METAR UUEE 110230Z 20005MPS 9999 -RA OVC006 02/02 Q0984 75290151
25290151 NOSIG=
METAR UUWW 110230Z 21004MPS 9999 -RA BKN010 OVC021 02/01 Q0985
24290045 NOSIG=
METAR UUMO 110230Z NIL=

0000037400
065
SARS31 RUMS 110230
METAR ULWC 110230Z 00000MPS 2600 -DZ BR OVC002 00/00 Q0981 TEMPO 1000
SNRA BR RMK QBB060 QFE726/0969 SC042=
METAR UUBP 110230Z NIL=
METAR UUOB 110230Z 26007MPS 7000 OVC016 03/02 Q0998 29290050 NOSIG=
METAR UUOK 110230Z NIL=
METAR UWGG 110230Z 18005MPS 2800 -SN OVC006 01/00 Q0988 TEMPO 1000
SHSNRA VV004 18690540 RMK QFE734=

00000000