0000039600
806
SXXX32 EUMS 110909 RRV
16590056
:PRS 1 /1 2496 2502 2510 2513 2518 2525 2536 2537 2547 2555 2563 2566 :RAD 1 /1 6804 6809 6818 6820 6827 6833 6843 6845 6856 6863 6873 6875 6879 6873 6876 6865 6862 6851 :ENC 6 /6 5068 5090 5070 5095 5111 5112 5119 5133 5137 5148 :ENB 6 /6 5066 5088 5067 5094 5110 5110 5118 5131 5135 5148 :SW1 9 /60 0 :SW2 36 /60 0 :BAT 5 /6 12.9 :NAME 16590056
0000045200
807
SXXX32 EUMS 110909 RRW
224AD678
:PRS 2 /1 2184 2184 2181 2178 2167 2165 2163 2163 2163 2163 2162 2157 2153 2142 2142 2141 2143 2142 2139 2132 2130 2129 2129 2128 2126 2123 2119 2115 2111 2110 :RAD 4 /3 4988 4980 4974 4961 4952 4949 4945 4943 4936 4930 4924 4916 4908 4901 4894 4889 4881 4877 4871 4865 :ENC 4 /5 8515 8503 8488 8479 8467 8454 8451 8437 8427 8418 8402 8397 :SW1 9 /60 60 :SW2 39 /60 60 :BAT 14 /15 13.4 :NAME 224AD678 /
0000079700
808
FCIN90 VAAH 110900
TAF VAAH 110900Z 1112/1221 05008KT 4000 FU/HZ FEW100 BECMG 1112/1114
02006KT 3000=
TAF VABO 110900Z 1112/1221 05008KT 4000 FU/HZ FEW100 BECMG 1112/1114
02006KT 3000=
TAF VASU 110900Z 1112/1221 02006KT 5000 FU/HZ NSC BECMG 1112/1114
34004KT 4000=
TAF VARK 110900Z 1112/1221 05008KT 5000 FU/HZ NSC BECMG 1112/1114
01006KT 4000=
TAF VAJM 110900Z 1112/1221 02006KT 5000 FU/HZ NSC BECMG 1112/1114
34004KT 4000=
TAF VABV 110900Z 1112/1221 02008KT 5000 FU/HZ FEW100 BECMG 1112/1114
35006KT 4000=
TAF VABJ 110900Z 1112/1221 03005KT 5000 FU/HZ NSC BECMG 1112/1114
01003KT 4000=
TAF VADU 110900Z 1112/1221 02008KT 5000 HZ FEW100 BECMG 1112/1114
34006KT 4000=
TAF VAPR 110900Z 1112/1221 07010KT 5000 HZ NSC BECMG 1112/1114
05008KT 4000=

0000034600
809
FCIN90 VEGT 110900
TAF VEGT 110900Z 1112/1121 00000KT 2500 HZ SCT018 BKN100 BEC
1116/1118 2000 BR  BEC 1119//1121 1500 BR=

 
TAF VEIM 110900Z 1112/1121 00000KT 2000 BR SCT018 BKN100 BEC
1116/1118 1500 BR BEC 1119/1121 1200 BR=

TAF VEAT 110900Z 1112/1121 00000KT 2500 BR NSC BECMG 1115/1118 1500
BR FEW020 SCT100=
0000116100
810
SIIN90 VANP 110900 RRA
AAXX 11094
42675 31493 83604 10166 20145 40155 74644 886//
  333 58030 88710=
42361 31994 23204 10200 20076 40169 71000 80001
  333 58029 82075=
42567 31593 73206 10180 20134 40159 71040 85430
  333 58023=
42763 32596 70000 10190 20156 39796 40146 83530
  333 58020=
42671 32996 00501 10194 20118 39522 40146
  333 58031=
42571 31594 83203 10152 20141 40148 71044 8653/
  333 58014=
42667 31595 10508 10188 20119 39554 40150 70500 81500
  333 58027 81620=
42754 31594 50508 10168 20115 39501 40149 70522 83530
  333 83620 83360=
42559 32996 03602 10184 20106 40153
  333 58030=
42874 32596 42704 10264 20164 40122 82530
  333 58007 82625 83360=
43041 32596 22302 10292 20112 39508 40109 82200
  333 59002 82830=
42782 31596 62702 10266 20177 4//// 70522 82530
  333 58/// 83620 85360=
42693 32596 53202 10234 20158 39446 40124 82530
  333 59001 82620 85360=
42779 32596 52305 10234 20158 39424 40116 83530
  333 59001 83620 85360=
42867 31596 22306 10274 20153 40115 70500 82500
  333 58005 82620=
42933 32997 32902 10274 20076 40118 80001
  333 58019 83075=
0000039900
811
FCIN90 VEPT 110900
TAF VEPT 110900Z 1112/1121 14005KT 1800 BR/-RA SCT015 BKN100 BECMG
     1116/1118 1500 BR=
TAF VEGY 110900Z 1112/1121 14005KT 1800 BR/-RA SCT015 BKN100 BECMG
     1116/1118 1500 BR=
TAF VERC 110900Z 1112/1121 32005KT 1800 BR/-RA SCT015 BKN090 BECMG
     1116/1118 1500 BR=
TAF VEJS 110900Z 1112/1121 32005KT 1800 BR/-RA SCT015 BKN090 BECMG
     1116/1118 1500 BR=

0000022400
812
FCIN90 VEPT 110900
TAF VEPT/VEGY 110900Z 1112/1121 14005KT 1800 BR/-RA SCT015 BKN100 BECMG 1116/1118 1500 BR=

TAF VERC/VEJS 110900Z 1112/1121 32005KT 1800 BR/-RA SCT015 BKN090 BECMG 1116/1118 1500 BR=

0000069800
813
SXXX32 EUMS 110909 RRX
229C0324
OT92 ID:MZ-NIH2-09 DT::014 81 11 08 59
:RID /1(06434 06441 06447 06449 86458(06468 06462 06467 06471 06474 06485 06487 06486 06493 06493 06499 06503 06509 06514 06518 06519 06521 06530 06531 06537 06530 06543 06542 06553 06557
:PR1 /1 ///// ///// ///// ///// ///// /////(///// ///// ///// /'/// '//// ///// ///// ///// ///// '//// ///// ///'/ ///// ///// ///// ///// ///'/ ///// ///// '////(///// ///// ///// /////
:PR2 /1 ///// ///// ////' ///// ///// ///// ///// ///// ///// ///// ///// ///// ////' ///// ///// ///// '////(///// ///// //'// ///// '//// ///// ///// ///// /'/// /////(///// ///'/ /////
:TM1 '15 /// //' ///(///
:BAT(13.7/
0000037200
814
SXXX32 EUMS 110910 RRX
366C76AC
OT12 ID:IR-CHAB-07 DT:2014 01 11 09 09
:RAD /1 00506 00508 00498 00493 00497 00501 00504 00503 00502 00504 00501 00500 00499 00503 00510 00506 00498 00503 00502 00502 00503 00495 00498 00505 00501 00508 00510 00502 00501 00505
:PR1 /1 00947 00946 00939 00947 00949 00946 00944 00951 00947 00945 00954 00945 00957 00956
0000036900
815
SXXX32 EUMS 110912 RRX
22E595B6
:PRS 1 /1 M 4064 4035 4051 4014 4055 3988 3992 3983 3995 4035 3973 4006 3978 3993 4010 3978 3994 4025 4018 4036 3981 4024 4008 4072 4037 4062 4047 4053 4062 :RAD 1 /3 7208 7190 7186 7185 7190 7202 7212 7227 7225 7215 :ENC 2 /5 5335 5305 5299 5317 5346 5353 :SW1 12 /60 0 :SW2 42 /60 60 :BAT 14 /15 12.7 :NAME 22E595B6 /
0000037900
816
SXXX32 EUMS 110912 RRX
12FD90D0
:PRS 1 /1 1453 1443 1432 1443 1435 1451 1456 1464 1472 1466 1484 1471 :RAD 1 /3 5998 6010 6025 6036 6040 6040 6039 6035 6023 6004 :ENC 3 /6 5742 5771 5776 5775 5756 5723 5730 5729 5754 5733 :RA2 3 /6 4881 4922 4935 4935 4911 4882 4888 4889 4913 4889 :SW1 12 /60 39 :SW2 42 /60 60 :BAT 5 /6 13.1 :WTP 5 /6 28.5 28.5 :NAME 12FD90D0
0000011000
817
UANT99 KDDL 110912
ARP SAS944 5834N04232W 0912 F350 MS57 253/33 KT
OYKBA DDL UAK 110912 J85A
0000065100
818
SXXX32 EUMS 110912 RRX
16AF741C
OT12 ID:SA-MAIS-07 DT:2014 01 11 09 02
:RAD /1 08773 08821 08812 08893 88869 08851 08970 08124 08862 08782 08853 08830 08962 08847 08843(08835 08886 08863 08978 08808 08817 08896 08904 08845 08918 08887 08905 08945 08850 08866 08886 08768 08005 08845 08874 08947 08828 08922 00838 08894 08920 08905 08996 08891 08771 08864 08969 08904 08931 88941 08901 08910 08918 08926 08943(08873 08961 08899 08896 08925 08833 09019 09024 08967 08936 0888= 08850 08950 08904 08938 08905 08919 09001 08910 08942(09012 08937 08840 08799 08951 09055 089:1 08840 09009 09055 08903 08912 09003 08879 08967
:BAT 14.4V
0000011000
819
UANT99 KDDL 110912
ARP BAW282 5601N01859W 0912 F330 MS60 244/74 KT
GCIVY QXT AOE 110912 F75A
0000011000
820
UANT99 KDDL 110912
ARP SAS936 5905N03306W 0912 F330 MS60 229/48 KT
LNRKF DDL XXW 110913 J49A
0000011000
821
UANT99 KDDL 110913
ARP ETD150 5945N02331W 0912 F310 MS57 234/66 KT
A6ETQ QXT AOE 110913 F47A
0000068500
822
UDEU02 EGRR 110916
AMDAR 1109
ASC EU4950   5940N 01758E 110909 F005 MS045 359/004 TB/ S031=
ASC EU4950   5940N 01759E 110909 F006 MS043 334/007 TB/ S031=
ASC EU4950   5940N 01759E 110909 F009 MS045 347/012 TB/ S031=
ASC EU4950   5940N 01800E 110909 F013 MS050 001/017 TB/ S031=
ASC EU4950   5940N 01800E 110910 F016 MS049 014/021 TB/ S031=
ASC EU4950   5940N 01800E 110910 F018 MS048 022/018 TB/ S031=
ASC EU4950   5940N 01801E 110910 F019 MS049 029/017 TB/ S031=
ASC EU4950   5941N 01801E 110910 F021 MS053 030/016 TB/ S031=
ASC EU4950   5941N 01802E 110910 F022 MS055 030/013 TB/ S031=
ASC EU4950   5941N 01802E 110910 F024 MS060 026/015 TB/ S031=
0000136200
823
UDIO01 AMMC 110900
AMDAR 1109
LVR AU0078 3624S 07314E 110811 F360 MS486 199/070 TB0 S031
  333 F360 VG010=
LVR AU0078 3603S 07209E 110818 F360 MS480 203/064 TB0 S031
  333 F360 VG002=
LVR AU0078 3542S 07104E 110825 F360 MS482 199/070 TB0 S031
  333 F360 VG003=
LVR AU0078 3520S 06959E 110832 F360 MS487 194/076 TB0 S031
  333 F360 VG006=
LVR AU0078 3458S 06854E 110839 F360 MS485 191/066 TB0 S031
  333 F360 VG007=
LVR AU0078 3754S 07839E 110736 F340 MS468 218/086 TB0 S031
  333 F340 VG004=
LVR AU0078 3738S 07735E 110743 F340 MS465 213/084 TB0 S031
  333 F340 VG004=
LVR AU0078 3721S 07630E 110750 F340 MS458 207/080 TB0 S031
  333 F340 VG005=
LVR AU0078 3703S 07524E 110757 F340 MS454 202/078 TB0 S031
  333 F340 VG002=
LVR AU0078 3644S 07419E 110804 F340 MS445 203/077 TB0 S031
  333 F340 VG001=
LVR SG0016 0006S 10514E 110805 F300 MS308 038/018 TB0 S031
  333 F300 VG000=
LVR AU1014 0305S 10922E 110801 F320 MS352 098/004 TB0 S031
  333 F320 VG000=
LVR AU1014 0229S 10840E 110808 F320 MS360 091/013 TB0 S031
  333 F320 VG000=
LVR AU1014 0153S 10758E 110815 F320 MS356 068/005 TB0 S031
  333 F320 VG000=
LVR AU0058 0036S 10831E 110712 F340 MS403 052/005 TB0 S031
  333 F340 VG004=
LVR AU0058 0004S 10743E 110719 F340 MS402 044/007 TB0 S031
  333 F340 VG004=
0000045500
0453=
0000014300
824
SIVD10 EHDB 110900 RRA
BBXX
DGTX 11094 99328 71178 41/97 12002 10155 20130 40190 54000 70200
8//// 22283 00200 2//// 80140=
0000024100
825
UDEU02 EGRR 110916 RRA
AMDAR 1109
DES EU0478   4331N 00709E 110906 F020 PS090 075/014 TB/ S031=
DES EU0478   4334N 00709E 110907 F012 PS110 050/006 TB/ S031=
DES EU0478   4337N 00711E 110909 F001 PS132 358/017 TB/ S031=
00000000