0000103700
466
UDAS02 BABJ 110919
AMDAR 1109
LVR CNFLWR 2950N 11938E 110908 F341 MS403 263/147 TB/ S//1=
LVR CNFLWR 2943N 11922E 110911 F341 MS405 264/148 TB/ S//1=
LVR CNFLWR 2937N 11906E 110914 F341 MS408 263/146 TB/ S//1=
LVR CNFLWR 2931N 11849E 110917 F341 MS405 262/144 TB/ S//1=
DES CNFLWQ 2306N 11313E 110915 F041 PS130 199/005 TB/ S//1=
DES CNFLWQ 2308N 11313E 110915 F038 PS140 197/007 TB/ S//1=
DES CNFLWQ 2311N 11314E 110916 F032 PS150 180/011 TB/ S//1=
DES CNFLWQ 2314N 11315E 110917 F025 PS133 132/007 TB/ S//1=
DES CNFLWT 3153N 11840E 110916 F078 MS056 286/010 TB/ S//1=
DES CNFLWT 3151N 11840E 110916 F071 MS043 281/011 TB/ S//1=
DES CNFLWT 3150N 11840E 110917 F069 MS038 274/015 TB/ S//1=
DES CNFLWT 3147N 11839E 110918 F059 MS030 114/000 TB/ S//1=
ASC CNFOZN 3523N 12053E 110916 F215 MS301 277/091 TB/ S//1=
LVR CNFOZN 3520N 12055E 110916 F217 MS300 276/086 TB/ S//1=
LVR CNFOZN 3516N 12057E 110917 F217 MS303 276/085 TB/ S//1=
LVR CNFOZN 3513N 12059E 110918 F217 MS303 275/085 TB/ S//1=
0000042900
467
UDEU02 EGRR 110931
AMDAR 1108
LVR EU0036   5341N 00134E 110851 F320 MS490 261/052 TB/ S031=
LVR EU0036   5259N 00056E 110858 F320 MS502 257/067 TB/ S031=
LVR EU0036   5218N 00018E 110905 F320 MS505 261/074 TB/ S031=
LVR EU0036   5143N 00026W 110912 F320 MS535 254/076 TB/ S031=
LVR EU0036   5106N 00110W 110919 F330 MS567 253/068 TB/ S031=
LVR EU0036   5027N 00149W 110926 F330 MS580 269/057 TB/ S031=
0000043300
468
SIJD20 OJAM 110900
AAXX 11094
40255 42960 00000 10120 20067 39514 40240 52011=
40260 42960 00206 10106 21041 39437 40234 52009=
40270 41525 40000 10089 20071 39327 40242 52007 71022 84200 333
84825=
40272 41550 42905 10100 20084 39395 40250 52007 71022 84200 333
84825=
40310 42560 62809 10084 20039 39006 48537 54002 87800 333 83825
83630=
40340 42560 20000 10154 20100 40247 52006 82100 333 82830=
0000190500
469
UDEU02 EGRR 110931 RRA
AMDAR 1109
ASC EU0756   4615N 00607E 110911 F023 PS047 205/018 TB/ S031=
ASC EU0756   4614N 00605E 110911 F033 PS032 227/022 TB/ S031=
ASC EU0756   4614N 00604E 110911 F040 PS037 210/020 TB/ S031=
ASC EU0756   4613N 00602E 110911 F045 PS060 193/018 TB/ S031=
ASC EU0756   4613N 00601E 110911 F048 PS052 216/021 TB/ S031=
ASC EU0756   4612N 00559E 110911 F053 PS065 219/024 TB/ S031=
ASC EU0756   4611N 00558E 110911 F062 PS042 221/029 TB/ S031=
ASC EU0756   4611N 00556E 110911 F074 PS015 215/021 TB/ S031=
ASC EU0756   4610N 00555E 110911 F082 MS010 224/018 TB/ S031=
ASC EU0756   4609N 00553E 110911 F096 MS045 237/008 TB/ S031=
ASC EU0756   4613N 00551E 110912 F108 MS070 245/014 TB/ S031=
ASC EU0756   4616N 00550E 110912 F123 MS097 244/017 TB/ S031=
ASC EU0756   4620N 00548E 110912 F141 MS137 243/022 TB/ S031=
ASC EU0756   4623N 00546E 110913 F158 MS172 253/033 TB/ S031=
ASC EU0756   4627N 00545E 110913 F174 MS212 252/036 TB/ S031=
ASC EU0756   4631N 00543E 110913 F187 MS247 244/038 TB/ S031=
ASC EU0756   4635N 00541E 110914 F201 MS275 253/042 TB/ S031=
ASC EU0756   4639N 00540E 110914 F213 MS297 244/049 TB/ S031=
ASC EU0756   4643N 00537E 110914 F226 MS317 246/058 TB/ S031=
ASC EU0756   4645N 00532E 110915 F237 MS350 246/058 TB/ S031=
ASC EU0756   4648N 00528E 110915 F250 MS380 247/062 TB/ S031=
ASC EU0756   4651N 00523E 110915 F260 MS407 249/058 TB/ S031=
ASC EU0756   4654N 00519E 110916 F268 MS425 249/047 TB/ S031=
ASC EU0756   4657N 00515E 110916 F277 MS442 252/042 TB/ S031=
ASC EU0756   4700N 00510E 110916 F285 MS462 257/032 TB/ S031=
ASC EU0756   4704N 00506E 110917 F291 MS477 265/026 TB/ S031=
ASC EU0756   4707N 00501E 110917 F298 MS490 258/023 TB/ S031=
ASC EU0756   4711N 00456E 110917 F306 MS510 259/024 TB/ S031=
ASC EU0756   4714N 00452E 110918 F313 MS527 255/025 TB/ S031=
0000068900
470
UDEU02 EGRR 110931 RRB
AMDAR 1109
ASC EU2399   4518N 00740E 110922 F009 PS075 256/003 TB/ S031=
ASC EU2399   4518N 00740E 110923 F010 PS077 244/003 TB/ S031=
ASC EU2399   4518N 00740E 110923 F012 PS082 220/004 TB/ S031=
ASC EU2399   4518N 00740E 110923 F014 PS080 189/003 TB/ S031=
ASC EU2399   4518N 00740E 110923 F017 PS072 183/002 TB/ S031=
ASC EU2399   4519N 00740E 110923 F020 PS070 202/001 TB/ S031=
ASC EU2399   4520N 00740E 110923 F023 PS065 274/001 TB/ S031=
UNS EU2399   4520N 00740E 110923 F026 PS055 213/002 TB/ S031=
UNS EU2399   4521N 00740E 110923 F029 PS050 131/005 TB/ S031=
UNS EU2399   4521N 00740E 110924 F032 PS037 149/006 TB/ S031=
0000013500
471
SIVD17 CWVR 110900
BBXX
46185 11091 99524 71298 46/// /2308 10079 49801 52015
22200 00074 1//// 70/// 333 912//=

0000056100
472
UDEU02 EGRR 110931 RRC
AMDAR 1109
ASC EU0016   5836N 00511E 110920 F155 MS243 262/021 TB/ S031=
ASC EU0016   5833N 00508E 110921 F169 MS270 245/028 TB/ S031=
ASC EU0016   5830N 00505E 110921 F184 MS291 240/037 TB/ S031=
ASC EU0016   5827N 00502E 110922 F198 MS331 239/041 TB/ S031=
ASC EU0016   5824N 00459E 110922 F212 MS353 231/054 TB/ S031=
ASC EU0016   5821N 00456E 110923 F224 MS378 221/050 TB/ S031=
ASC EU0016   5818N 00452E 110924 F234 MS391 226/058 TB/ S031=
ASC EU0016   5815N 00449E 110924 F243 MS410 225/054 TB/ S031=
0000030400
473
SIVD20 KWNB 110900 RRM
BBXX
41033 11091 99323 70804 46/// /2103 10129 40166 57015 90900 333
91204 555 11041 22047=
44059 11091 99368 70763 46/// /1703 10167 40154 90920 333 91204
555 11038 22041=
44058 11091 99376 70763 46/// /1807 10112 40159 90920 333 91208
555 11077 22084=
0000042600
474
FCIN90 VABB 110900
TAF VAAU 110900Z 1112/1121 29006KT 5000 FU NSC BECMG 1116/1118 
32003KT 3000FU=
TAF VAND 110900Z 1112/1121 29006KT 5000 FU NSC BECMG 1116/1118 
32003KT 3000FU=
TAF VASL 110900Z 1112/1121 17005KT 6000 NSC BECMG 1116/1118 
00000KT 4000FU=
TAF VALT 110900Z 1112/1121 17005KT 6000 NSC BECMG 1116/1118 
00000KT 4000FU=
TAF VAKP 110900Z 1112/1121 23006KT 6000 NSC BECMG 1116/1118 
00000KT 4000FU=

0000046200
475
SIVD15 KWNB 110900 RRL
BBXX
44064 11091 99370 70760 46/// /1406 10122 40164 90920 333 91207
555 11072 22078=
44062 11091 99386 70764 46/// /3303 10029 40157 90920 333 91204
555 11035 22038=
44063 11091 99390 70764 46/// /3203 10024 40143 90920 333 91204
555 11034 22036=
44041 11091 99372 70768 46/// /1303 10144 90920 333 91204 555
11036 22039=
44042 11091 99380 70763 46/// /1709 10105 40140 90920 333 91210
555 11101 22109=
0000015700
476
SNVD01 PANC 102300 RRK
BBXX
PHET 10231 99137 70610
41398 10616 10252 20219 40140 54000 70200 811//
22232 04272 20302 327// 40603 5////=
0000045200
477
SIVD01 PANC 110900 RRD
BBXX
VRED4 11093 99342 30080
415// 82205 10180 2009/ 40230 56200 7//22 8813/
22223 0//// 2//// 3//// 40402 5//// 6//// 80130 ICE /////=
WNGW 11094 99585 71388
41698 63506 10050 2//// 49877 57029 70222 8683/
22233 02056 2//// 323// 40402 5//// 6//// 8//// ICE /////=
KGTX 11094 99539 71628
41497 82118 10055 20044 49823 57010 71552 886//
22224 00051 2//// 3//// 4//// 5//// 6//// 80050 ICE /////=
0000066100
478
UDAF01 FAPR 110927
AMDAR 1109
ASC AFZA48 2620S 02825E 110840 F153 MS020 248/008 TB0 S031 333 F/// VG010=
LVR AFZA48 2650S 02824E 110845 F254 MS201 304/033 TB0 S031 333 F/// VG010=
LVR AFZA48 2737S 02802E 110852 F349 MS430 293/055 TB0 S031 333 F/// VG009=
LVR AFZA48 2825S 02742E 110859 F380 MS492 284/072 TB0 S031 333 F/// VG010=
LVR AFZA48 2915S 02724E 110906 F380 MS495 284/078 TB0 S031 333 F/// VG010=
LVR AFZA48 3003S 02706E 110913 F381 MS490 289/084 TB0 S031 333 F/// VG010=
LVR AFZA48 3053S 02647E 110920 F381 MS507 291/057 TB0 S031 333 F/// VG010=
LVR AFZA48 3141S 02629E 110927 F380 MS532 262/064 TB0 S031 333 F/// VG010=
0000066100
479
UDAF01 FAPR 110928
AMDAR 1109
LVR AFZA26 3231N 04956W 110837 F360 MS600 284/107 TB0 S031 333 F/// VG012=
LVR AFZA26 3249N 05040W 110845 F362 MS576 288/107 TB0 S031 333 F/// VG012=
LVR AFZA26 3306N 05126W 110852 F380 MS564 287/099 TB0 S031 333 F/// VG012=
LVR AFZA26 3324N 05213W 110859 F380 MS562 292/088 TB0 S031 333 F/// VG012=
LVR AFZA26 3342N 05300W 110906 F380 MS566 294/085 TB0 S031 333 F/// VG012=
LVR AFZA26 3400N 05349W 110913 F380 MS557 295/082 TB0 S031 333 F/// VG012=
LVR AFZA26 3418N 05438W 110920 F380 MS542 300/085 TB0 S031 333 F/// VG012=
LVR AFZA26 3435N 05527W 110927 F380 MS568 312/093 TB0 S031 333 F/// VG012=
0000188700
480
SIUS20 KWBC 110900
AAXX 11094
72327 11528 81805 10122 20111 39802 40047 56012 60157 765// 90853
333 96010 555 91109=
72208 11156 82111 10194 20183 30146 40163 56016 69937 710// 90856
555 91109=
72259 32966 42406 10067 20022 39911 40115 53019 90853 555 91109=
72270 32966 01405 10056 21083 38828 40163 53012 90851 555 91109=
72201 35466 41309 10244 20228 30170 40175 58008 90853 555 91109=
72376 35966 00906 11039 21106 38333 40230 53012 90853 555 91109=
72344 32966 02610 10022 20006 39928 40095 53019 90853 555 91109=
72317 11116 80603 10039 20028 39816 40144 58033 60027 751// 90854
333 96010 555 91109=
72312 17132 80406 10072 20067 39793 40132 58029 60067 761// 90853
333 96010 555 91109=
0 17456 82013 10183 20178 30179 40182 56022 60097 710// 90851 555
91109=
72235 17461 82510 10183 20172 39981 40085 53007 60087 762// 90854
555 91109=
72206 31108 92204 10189 20189 30160 40169 58011 741// 90856 555
91109=
74486 12262 81412 10089 20078 30178 40187 58036 60027 90851 555
91109=
72240 17156 82406 10178 20172 30104 40117 56000 69907 710// 90853
555 91109=
72217 37148 81806 10156 20156 30005 40134 56015 710// 90853 555
91109=
72334 12966 82709 10128 20094 39958 40060 53007 60037 90854 555
91109=
72226 15366 81808 10194 20183 30033 40106 56023 60137 90853 333
91016 555 91109=
72202 32566 21306 10239 20217 30176 40186 58004 90853 555 91109=
72308 17566 81709 10172 20161 30152 40169 58022 60167 761// 90851
555 91109=
72222 17104 91815 10194 20189 30079 40126 58020 69937 730// 90853
555 91109=
72253 31962 20000 10122 20106 39843 40117 51011 90851 555 91109=
72248 12966 02805 10106 20089 30009 40104 51025 69937 90856 555
91109=
72211 32664 6//04 10206 20200 30159 40173 56011 90853 555 91109=
72326 11108 80000 10072 20072 39725 40080 56041 60057 761// 90853
333 96010 555 91109=
0000024100
481
UDEU02 EGRR 110931 RRD
AMDAR 1109
LVR EU0162   5307N 00202E 110912 F360 MS510 249/061 TB/ S031=
LVR EU0162   5317N 00047E 110919 F347 MS502 243/038 TB/ S031=
LVR EU0162   5330N 00020W 110926 F251 MS410 268/055 TB/ S031=
0000314700
482
SICI01 KWBC 110900 RRC
AAXX 11091
56146 32780 62003 10072 21236 36677 57013 86/// 333 00200=
56444 32780 80402 10030 21133 36801 57005 88/// 333 00100=
56492 32762 80401 10084 20037 40287 57002 88/// 333 00502=
56571 32680 02001 10176 21038 38356 57020 333 00453=
57799 41448 80202 10065 20053 40280 57002 76066 88///=
57866 41461 80404 10051 20048 40293 57001 76066 88///=
57957 41563 80202 10071 20042 40263 57006 70060 88///=
57993 31957 73403 10106 20056 40254 52004 70500 87///=
58141 31943 02001 10058 21030 40306 57003 70500=
58265 31455 80902 10047 20012 40309 52004 76066 88///=
58477 41460 80203 10070 20041 40289 54000 76066 88///=
58527 41220 80201 10059 20053 40284 52003 76066 88///=
58633 41626 80902 10056 20050 40282 57002 76066 88///=
58666 31655 83609 10087 20081 40270 57002 71000 88///=
58725 32770 83601 10126 20062 40249 57006 88///=
58921 32968 30203 10180 20091 40224 57011 83///=
59265 31858 73401 10185 20118 40213 57010 70500 87///=
59293 32968 02902 10212 20107 40205 57010=
59663 32965 01604 10187 20140 40204 57007=
59838 32566 72902 10219 20195 40181 57004 87///=
59981 41578 50405 10247 20208 40164 57006 70080 85///=
54401 31959 23405 11012 21225 40324 52005 70500 82///=
58027 31956 00000 10068 21065 40304 57004 70500=
58472 31467 80705 10068 20017 40296 52003 76066 88///=
59082 31958 23203 10170 20071 40222 57011 70500 82///=
59211 41462 81101 10118 20102 40228 57006 72166 88///=
59501 32760 51104 10168 20121 40215 57008 85///=
50353 32970 03404 11261 21329 40298 52015=
50978 32970 32505 11141 21223 40253 52004 83///=
51087 32980 02502 11100 21169 40453 57012 333 05204=
51156 32980 10701 11070 21192 40405 57009 81/// 333 05100=
51644 32960 02202 11025 21128 40439 57018 333 00301=
52713 42980 70202 11078 21216 36936 57003 87/// 333 00401=
52754 42980 71403 11083 21174 36791 52001 87/// 333 00351=
52836 32680 72503 11073 21212 36923 52003 87/// 333 00301=
52955 32980 83202 11056 21197 36981 54000 88/// 333 00401=
53068 42971 03403 11086 21251 40392 52021 333 00400=
54135 32980 12902 11055 21224 40279 52008 81///=
54236 41958 32701 11038 21192 40275 52005 70500 83///=
54662 32960 32203 10020 21066 40289 57005 83///=
54857 41937 82002 10035 21020 40304 57008 70500 88///=
57178 32961 22203 10078 21028 40303 57009 82///=
57245 31960 83601 10057 20007 40322 57001 70060 88/// 333 00502=
57297 31955 70902 10069 21045 40299 57006 70500 87///=
50557 32965 03601 11279 21335 40317 52017=
50756 32960 33202 11238 21285 40297 52016 83///=
50949 32965 03201 11113 21197 40253 52006=
50963 31758 82503 11177 21199 40263 52002 77000 88///=
51656 31955 02503 11035 21140 40444 57011 70500 333 00300=
51886 42980 63402 11052 21241 37147 57007 86/// 333 00500=
52602 42980 72703 11060 21292 37309 57003 87/// 333 00500=
52818 32680 63202 11037 21252 37278 57004 86/// 333 00400=
53276 32980 22904 11100 21239 40388 52022 82///=
54539 31904 02203 11010 21035 40281 57008 74600=
54753 31910 02201 10015 21017 40296 57013 70500=
57067 41956 80201 10059 21054 40309 57005 70500 88///=
0000015600
483
SNVD01 KWBC 102300 RRX
BBXX
PHET 10231 99137 70610 41398 10616 10252 20219 40140 54000 70200
 811// 22232 04272 20302 327// 40603 5////=
0000011000
484
UANT01 CWAO 110927
ARP AFL152 5252N05015W 0927 F380 MS65 285/70 KT
VQBBG DDL YAY 110927 J89A
0000011100
485
UANT01 CWAO 110927
ARP RCH944 4702N03527W 0927 F330 MS48 254/19 KT
00221A DDL XXN 110927 F57A
00000000