0000168800
326
SPUS70 KWBC 110124
SPECI
KBUY 110120Z AUTO 02004KT 3SM -RA BR BKN003 OVC018 04/02 A3016 RMK
     AO2 P0012 T00390022=
KGKJ 110120Z AUTO VRB04KT 1 1/2SM BR OVC003 04/03 A2998 RMK AO2
     TSNO=
KGZH 110120Z AUTO 14004KT 1SM BR VV003 14/13 A3002 RMK AO2 RAE15
     P0000 T01440133=
KISW 110120Z AUTO 00000KT 3SM -SN BR OVC006 00/M01 A2956 RMK AO2
     FZRAE0057SNB0057 CIG 004V010 P0003 I1000 T00001006=
KMBS 110120Z 16007KT 2 1/2SM RA BR BKN010 BKN013 OVC024 02/01
     A2980 RMK AO2 P0003=
KMNN 110120Z AUTO 16014G20KT 7SM BKN015 OVC110 06/06 A2987 RMK AO2
     TSNO=
KSGH 110120Z AUTO 14013KT 1 1/2SM BR OVC001 05/05 A2987 RMK
     AO2=
KCEW 110121Z AUTO 00000KT 3/4SM BR VV003 16/15 A3004 RMK AO2
     RAB00E20 P0001 T01560150=
KDAY 110121Z 14010KT 4SM -RA BR BKN002 OVC020 07/06 A2984 RMK AO2
     RAB07 P0000=
KGMU 110121Z 06005KT 1 3/4SM BR OVC004 08/07 A3013 RMK AO2=
KLNR 110121Z AUTO 10005KT 4SM BR OVC009 01/01 A2953 RMK AO2 RAE20
     P0001 T00110006=
KMDH 110121Z AUTO 19006KT 4SM RA BR SCT014 BKN042 OVC055 07/06
     A2974 RMK AO2 P0005 T00670056=
KMFI 110121Z AUTO 08005KT 3/4SM -SN BR FEW005 OVC012 M02/M03 A2953
     RMK AO2 P0003 T10171028=
KMIE 110121Z 17006KT 1 3/4SM -RA BR OVC003 04/04 A2979 RMK AO2
     PRESFR P0002 T00440044=
KMKC 110121Z 28006KT 7SM -RA OVC009 04/03 A2958 RMK AO2 RAB21 CIG
     008V013 P0000 T00440028=
KOSH 110121Z 14006KT 6SM UP BR SCT007 OVC013 01/00 A2955 RMK AO2
     RAE07UPB07 P0000 T00110000=
PAGN 110121Z AUTO 00000KT 10SM SCT004 SCT055 11/11 A2944 RMK AO2
     TSNO $=
PAGN 110121Z AUTO 00000KT 10SM SCT004 SCT055 11/11 A2944 RMK AO2
     TSNO $=

0000010700
327
SPUS41 KWBC 110124
SPECI
KRIC 110120Z 03003KT 3/4SM R34/P6000FT BR OVC002 04/04 A3022=

0000011600
328
SPUS43 KWBC 110124
SPECI
KMBS 110120Z 16007KT 2 1/2SM RA BR BKN010 BKN013 OVC024 02/01
A2980=

0000010200
329
SABZ20 SBEG 110200
METAR SBEG 110200Z 09010KT 8000 -RA BKN005 BKN070
23/21 Q1013=

0000017300
330
SAVN24 SVMG 110200
METAR SVMG 110200Z /////KT 9999 SCT010 25/22 Q1014 NOSIG=
METAR SVCU 110200Z NIL=
METAR SVCP 110200Z NIL=
METAR SVGI 110200Z NIL=

0000080700
331
SASN31 ESWI 110150
METAR ESGG 110150Z 24014KT 9999 OVC005 04/04 Q1001 R21/29//95=
METAR ESGJ 110150Z AUTO 23010KT 9999 UP FEW005/// SCT015///
BKN029/// 03/03 Q1000 REUP=
METAR ESGP 110150Z 23010KT 9999 OVC011 06/05 Q1002 R19/19//95=
METAR ESGT 110150Z NIL=
METAR ESMK 110150Z AUTO 25008KT 9999NDV SCT032/// 05/04 Q1006=
METAR ESMQ 110150Z AUTO 19004KT 9999 FEW023/// SCT027/// BKN038///
01/01 Q1004=
METAR ESMS 110150Z 24014KT 9999 OVC038 05/03 Q1007 R17/29//95=
METAR ESMT 110150Z AUTO 24012KT 9999 FEW010/// BKN015/// OVC036///
06/04 Q1005=
METAR ESMX 110150Z AUTO 23008KT 4100 BR FEW006/// SCT008///
BKN009/// 04/03 Q1003=
METAR ESTA 110150Z AUTO 25015KT 9999 FEW011/// OVC036/// 06/04
Q1005=
METAR ESTL 110150Z AUTO 23011KT 9999NDV OVC037/// 06/05 Q1006=

0000008900
332
SABZ21 SBAR 110200
METAR SBAR 110200Z 11011KT 9999 SCT015 26/22 Q1013=

0000015300
333
SAUS75 KWBC 110100 RRE
METAR
PADL 110145Z 03008KT 10SM OVC010 M04/M04 A2945=
PAPG 110148Z 15003KT 10SM FEW033 BKN047 01/M01 A2944=

0000009900
334
SAQB31 LQMO 110200
METAR LQMO 110200Z VRB02KT 2500 BR FEW035 OVC060 07/07 Q1022=

0000012100
335
FCLT33 EYVI 110200
TAF EYPA 110200Z 1103/1112 27010KT 8000 OVC010 BECMG 1105/1106 4000
RA BR OVC005=

0000008500
336
SPCN51 CWAO 110154
SPECI CWOB 110154Z AUTO 06005KT CLR M21/ A2922=

0000041600
337
SABX31 EBBR 110150
METAR EBAW 110150Z AUTO 22006KT 190V250 9999 OVC008/// 04/02 Q1016=
METAR EBBR 110150Z 21009KT 9999 BKN011 03/02 Q1016 NOSIG=
METAR EBCI 110150Z 20006KT 9999 BKN005 04/02 Q1016 NOSIG=
METAR EBLG 110150Z 19009KT CAVOK 03/01 Q1016 NOSIG=
METAR EBOS 110150Z 21011KT 7000 SCT004 BKN006 04/02 Q1015 TEMPO
     BKN004=
METAR ELLX 110150Z AUTO VRB02KT 2900 NDV 02/01 Q1017=

0000006100
338
SAOS32 LOWM 110150
METAR LOXZ 110150Z NIL=

0000045200
339
SAOS31 LOWM 110150
METAR LOWW 110150Z VRB02KT CAVOK M01/M03 Q1021 NOSIG=
METAR LOWL 110150Z AUTO VRB01KT 9000 FEW080 SCT240 M02/M02 Q1020=
METAR LOWS 110150Z AUTO 18003KT 9999 OVC060 02/02 Q1019=
METAR LOWI 110150Z AUTO 22003KT 6000 OVC003 03/02 Q1020 R88///////=
METAR LOWG 110150Z AUTO VRB01KT 9999 2400S FG OVC008 03/03 Q1020
    R88///////=
METAR LOWK 110150Z AUTO 33003KT 3700 BR OVC002 01/01 Q1021
    R88///////=

0000021700
340
SANO35 ENMI 110150
METAR ENMS 110150Z NIL=
METAR ENRM 110150Z NIL=
METAR ENRS 110150Z NIL=
METAR ENSK 110150Z NIL=
METAR ENSO 110150Z NIL=
METAR ENST 110150Z NIL=
METAR ENVD 110150Z NIL=

0000019300
341
FTRS35 RUMS 102300 CCA
TAF COR UWLW 102245Z 1100/1124 19008MPS 2100 -SNRA BR OVC007 650070
TEMPO 1100/1103 0400 FZDZ FZFG VV002 TEMPO 1103/1115 16012MPS 0700
+SNRA VV003=

0000026900
342
SAEO32 EETN 110150
METAR EEKA 110150Z NIL=
METAR EEKE 110150Z AUTO 32010KT 280V350 8000NDV -RA SCT012 OVC016 
02/01 Q0999=
METAR EETU 110150Z AUTO 31015KT 9000NDV -SN FEW005/// SCT007///
BKN010/// M00/M02 Q0993 RESG=
METAR EEPU 110150Z NIL=

0000021700
343
SANO36 ENMI 110150
METAR ENBS 110150Z NIL=
METAR ENHK 110150Z NIL=
METAR ENHV 110150Z NIL=
METAR ENLK 110150Z NIL=
METAR ENMH 110150Z NIL=
METAR ENNK 110150Z NIL=
METAR ENNM 110150Z NIL=

0000021700
344
SANO37 ENMI 110150
METAR ENNO 110150Z NIL=
METAR ENOV 110150Z NIL=
METAR ENSD 110150Z NIL=
METAR ENSG 110150Z NIL=
METAR ENSN 110150Z NIL=
METAR ENSR 110150Z NIL=
METAR ENSS 110150Z NIL=

0000048400
345
SAFI33 EFHK 110150
EFJO 110150Z AUTO 02012G24KT 320V060 9999 -SG BKN015 BKN038 M08/M10
Q0995=
EFLP 110150Z AUTO 35012KT 320V040 5000 -SN OVC013 M06/M09 Q0993=
EFMI 110150Z AUTO VRB06KT 9000 -SN BKN015 BKN037 OVC057 M07/M08
Q0996=
EFSA 110150Z AUTO 35010KT 300V040 9999 -SN OVC014 M07/M09 Q0994=
EFUT 110150Z AUTO 35010KT 320V020 9999 -SHSN SCT013 OVC023 M06/M07
Q0994=
EFVR 110150Z AUTO 01011KT 350V050 2000 -SN FEW017 BKN020 OVC065
M07/M10 Q0996=

00000000