0000009900
506
SACN62 CYZF 110300
METAR CYZF 110300Z 32007KT 15SM SKC M27/M30 A2954 RMK SLP032=

0000009900
507
SACN62 CYYC 110300
METAR CYYC 110300Z VRB02KT 15SM SKC M08/M10 A2965 RMK SLP091=

0000011200
508
SACN62 CYYQ 110300
METAR CYYQ 110300Z 30004KT 15SM IC SCT270 M28/M31 A2973 RMK CI3
 SLP071=

0000011800
509
SACN62 CYYF 110300
METAR CYYF 110300Z 22004KT 15SM SCT075 OVC120 02/M00 A2982 RMK AC3AC5
 SLP112=

0000014000
510
SACN62 CYCD 110300
METAR CYCD 110300Z 16005KT 6SM -RA BR FEW008 SCT013 OVC020 05/05
 A2971 RMK SF1SC3SC4 PRESFR SLP061=

0000011900
511
SACN62 CYQM 110300
METAR CYQM 110300Z 22008KT 15SM FEW050 SCT130 M06/M08 A3025 RMK
 SC2AC2 SLP250=

0000015100
512
SACN62 CYQK 110300 CCA
METAR CYQK 110300Z CCA 18005KT 3/4SM -SN BR OVC002 M05/M06 A2938 RMK
 ST8 VIS VRB 1/2-1 CIG VRB 1-3 SLP975=

0000011200
513
SACN62 CYYY 110300
METAR CYYY 110300Z 22011G18KT 30SM BKN100 M06/M11 A3014 RMK AC5
 SLP209=

0000015000
514
FTHW31 KWBC 110306 AAA
TAF AMD
PHNL 110303Z 1103/1206 03006KT P6SM FEW030 SCT050
     FM112100 13008KT P6SM VCSH SCT025 SCT040=

0000203800
515
SPUS70 KWBC 110306
SPECI
KBRL 110302Z AUTO 22005KT 1/4SM -RA VV004 07/03 A2953 RMK AO2
     P0000 T00720033=
KCMX 110303Z AUTO 11003KT 1 1/4SM -SN BR BKN024 OVC032 M03/M05
     A2954 RMK AO2 P0000=
KEST 110302Z AUTO 27005KT 4SM BR OVC006 M01/M02 A2950 RMK AO2 CIG
     003V008 T10111017=
KFAY 110302Z AUTO 00000KT 3SM -RA BR SCT009 OVC013 17/16 A3012 RMK
     AO2 P0001=
KFCI 110303Z AUTO 00000KT 3/4SM OVC003 04/M01 A3019 RMK AO1=
KGMU 110302Z AUTO 05010KT 3SM BR OVC004 08/07 A3011 RMK AO2
     RAE0258 P0001=
KHKA 110302Z AUTO 13005KT 2SM RA BR FEW025 BKN070 OVC085 08/08
     A2973 RMK AO2 VIS 1 1/2V4 LTG DSNT NE PRESFR P0002=
KLWC 110302Z AUTO 29008KT 9SM FEW008 BKN032 OVC040 03/01 A2963 RMK
     AO2 T00280011=
KOSH 110302Z 17004KT 5SM -RA BR OVC009 01/00 A2948 RMK AO2 P0000
     T00110000=
KOWD 110302Z AUTO 00000KT 1/2SM FG OVC003 02/02 A3031 RMK AO2
     T00170017=
KUIN 110302Z AUTO 22008KT 10SM OVC008 06/05 A2953 RMK AO2 CIG
     006V012 T00560050=
KCLM 110303Z AUTO 27006KT 3SM -RA BR OVC003 06/06 A2969 RMK AO2
     P0001 T00610056=
KCQX 110302Z AUTO 20003KT 10SM FEW014 BKN027 OVC060 04/03 A3034
     RMK AO2 T00390028=
KDCA 110303Z 03003KT 5SM BR OVC006 03/02 A3021 RMK AO2=
KESF 110303Z AUTO 18010G16KT 3SM VCTS +RA BR OVC008 19/17 A2980
     RMK AO2 LTG DSNT SW-N TSB0257 CIG 005V009 P0006=
KGEZ 110303Z AUTO 16012KT 1SM -RA BR FEW003 BKN013 OVC080 06/05
     A2973 RMK AO2 P0000 T00610050=
KHYA 110303Z 00000KT 9SM FEW010 SCT026 BKN041 04/03 A3032 RMK AO2
     T00390028=
KIPT 110303Z 08009KT 2 1/2SM BR OVC008 01/M01 A3018 RMK AO2 CIG
     007V010=
KMKC 110303Z 30007KT 10SM OVC009 03/01 A2960 RMK AO2 CIG 008V012
     T00330011=
KMPV 110303Z AUTO 00000KT 9SM BKN028 OVC055 M03/M06 A3024 RMK
     AO2=
KOJC 110303Z AUTO 27008KT 3SM BR OVC002 02/02 A2960 RMK AO2
     T00170017=
KY50 110303Z AUTO 00000KT 2SM UP OVC002 00/ A2949 RMK AO2 TSNO
     P0000 $=
PALH 110303Z 35003KT 10SM OVC015 M04/M06 A2938 RMK AO2=

0000009700
516
SPUS31 KWBC 110306
SPECI
KTEB 110302Z 01004KT 1 3/4SM BR OVC005 02/00 A3028=

0000011900
517
SPUS41 KWBC 110306
SPECI
KDOV 110303Z AUTO 07003KT 1 1/2SM R01/2800FT -RA BR SCT055 04/04
A3021=

0000011700
518
SPUS41 KWBC 110306
SPECI
KPVD 110302Z 00000KT 1/4SM R05/1800V3500FT -DZ BR OVC003 01/01
A3031=

0000011300
519
SPUS41 KWBC 110306
SPECI
KWRI 110304Z AUTO 09002KT 1 1/4SM R06/2400FT BR OVC003 03/03 A3023=

0000129000
520
SAAK31 KWBC 110300
METAR
PABR 110253Z 31013KT 1/2SM R07/2400V3000FT FZFG VV003 M22/M25
     A2984=
PACD 110253Z AUTO 14014KT 10SM SCT041 OVC090 03/00 A2924=
PAED 110258Z 25005KT 10SM FEW009 OVC015 M04/M05 A2936=
PAEI 110258Z AUTO 00000KT 10SM CLR M29/M33 A2956=
PAEN 110253Z 03003KT 10SM OVC006 M03/M04 A2938=
PAFA 110253Z 00000KT 10SM SCT090 M28/M32 A2957=
PAFR NIL=
PAFS 110256Z AUTO 00000KT 10SM CLR M18/M21 A2953=
PAFY NIL=
PAJN 110253Z 06005KT 10SM FEW020 BKN040 OVC065 02/00 A2939=
PAKN 110254Z 34004KT 10SM FEW004 SCT025 BKN130 M05/M06 A2939=
PAKT 110253Z 25003KT 10SM FEW030 02/01 A2934=
PANC 110253Z 34004KT 5SM -SN BR SCT006 OVC014 M04/M06 A2937=
PAOM 110253Z 04014KT 10SM BLSN FEW032 SCT100 M13/M20 A2963=
PAOM 110253Z COR 04014KT 10SM DRSN FEW032 SCT100 M13/M20 A2963=
PAOR 110253Z 00000KT 6SM -SN OVC040 M17/M19 A2935=
PAOT 110253Z 03008KT 10SM CLR M18/M25 A2976=
PARY 110256Z AUTO 00000KT 10SM CLR M24/M27 A2958=
PASC 110253Z 25017KT 1 1/4SM -SN BR BKN010 OVC018 M28/M31
     A2983=
PASG NIL=
PASI 110253Z 04004KT 10SM SCT026 BKN050 OVC120 01/00 A2935=
PATQ 110256Z AUTO 31005KT 10SM CLR M27/M31 A2988=
PAVD 110256Z 10SM FEW025 BKN150 M07/M08 A2932=
PAWG 110256Z 12009KT 10SM CLR 02/M01 A2940=
PFYU NIL=

0000103400
521
SAAK32 KWBC 110300
METAR
PABA 110301Z AUTO 27024G28KT 1/2SM -SN FZFG OVC010 M24/M27
     A2982=
PABI 110253Z 00000KT 3SM -SN BKN031 OVC080 M17/M20 A2947=
PACZ 110255Z AUTO 09020G31KT 10SM BKN025 M07/M10 A2938=
PADK 110256Z AUTO 21026G35KT 10SM FEW031 SCT036 BKN042 03/M02
     A2879=
PADL 110255Z 02010KT 4SM -SN BR OVC015 M05/M05 A2944=
PADQ 110253Z COR 23003KT 10SM FEW040 SCT250 M01/M06 A2940=
PADQ 110253Z AUTO 23003KT 10SM FEW040 SCT250 M01/M06 A2940=
PAEH 110255Z AUTO 13016KT 1 1/2SM -SN BR BKN014 00/M01 A2930=
PAFB 110255Z 00000KT 7SM SCT100 M30/M33 A2957=
PAGA 110258Z AUTO 00000KT 10SM CLR M30/M33 A2968=
PAIM 110255Z AUTO VRB02KT 10SM CLR M21/M26 A2956=
PALU 110255Z AUTO 08006KT 10SM OVC010 M19/M20 A2999=
PASV 110255Z AUTO 16002KT 10SM -SHSN OVC007 M12/M13 A2935=
PASY 110256Z AUTO 34023G29KT 10SM SCT007 BKN013 OVC020 M01/M01
     A2883=
PATC 110255Z AUTO 02027KT 3/4SM BR BKN002 M17/M19 A2971=
PATL 110255Z AUTO VRB03KT 9SM -SN OVC017 M17/M18 A2952=
PBTI NIL=

0000004200
522
SABO41 KWBC 110300
NIL=

0000054000
523
SABZ41 KWBC 110300
METAR
SBAA NIL=
SBAF NIL=
SBAR 110300Z 11011KT 9999 SCT015 26/21 Q1013=
SBBG NIL=
SBBH NIL=
SBBI NIL=
SBBU NIL=
SBCJ NIL=
SBCO NIL=
SBCR NIL=
SBCT 110300Z 04002KT 9999 FEW010 20/17 Q1018=
SBCV NIL=
SBCY 110300Z 00000KT 9999 FEW020 SCT100 23/20 Q1012=
SBCZ NIL=
SBDN NIL=
SBFL 110300Z 13005KT 9000 TS VCSH BKN014 BKN030 FEW035CB 24/22
     Q1013=
SBFN NIL=
SBGO 110300Z 00000KT 9999 -TSRA SCT040CB OVC090 20/18 Q1017=
SBGW NIL=
SBHT NIL=
SBIH NIL=
SBIL NIL=

0000010600
524
SABZ42 KWBC 110300 CCA
METAR
SBMN 110300Z 10006KT 9999 -RA SCT008 BKN100 22/22 Q1013=

0000083500
525
SABZ42 KWBC 110300
METAR
SBJR NIL=
SBLO 110300Z 21002KT CAVOK 26/19 Q1015=
SBMA 110300Z 15005KT 5000 TSRA FEW020CB BKN070 23/22 Q1012=
SBME NIL=
SBMN 110300Z 10006KT 9999 -RA SCT003 BKN100 22/22 Q1013=
SBMO 110300Z 08004KT 9999 SCT020 23/22 Q1013=
SBMQ 110300Z 01005KT CAVOK 25/23 Q1011=
SBMT NIL=
SBPC NIL=
SBPK 110300Z 02004KT CAVOK 21/19 Q1010=
SBPP NIL=
SBPV 110300Z 35005KT 9999 VCTS SCT015 FEW025CB BKN070 24/23 Q10
     11=
SBRB 110300Z 14001KT 9999 FEW020 FEW025TCU BKN100 ///// Q1011 R
     ETS=
SBRJ NIL=
SBSC NIL=
SBSJ 110300Z 00000KT CAVOK 22/17 Q1016=
SBSM NIL=
SBSP 110300Z 04003KT CAVOK 24/18 Q1017=
SBST NIL=
SBTE 110300Z 34002KT CAVOK 25/22 Q1010=
SBTU NIL=
SBUG NIL=
SBUR NIL=
SBVH NIL=
SBVT 110300Z 30003KT 9999 FEW015 25/23 Q1015=
SBYS NIL=

00000000