0000049100
426
SAFR22 LFPW 110300
METAR LFBC 110300Z AUTO 27003KT 9999 FEW014 09/08 Q1016=
METAR LFBG 110300Z AUTO 16004KT 8000 NSC 07/07 Q1016=
METAR LFBM 110300Z AUTO VRB01KT 7000 FEW015 OVC022 09/09 Q1017=
METAR LFBY 110300Z AUTO 20003KT 8000 // ////// 10/09 Q1017=
METAR LFKS 110300Z AUTO VRB03KT 9999 FEW023 OVC034 12/08 Q1021=
METAR LFMO 110300Z AUTO 00000KT 4700 BR OVC031 08/07 Q1020=
METAR LFMY 110300Z AUTO 10003KT 9999 OVC028 10/07 Q1020=
METAR LFMC 110300Z NIL=

0000036500
427
SAFR23 LFPW 110300
METAR LFOC 110300Z AUTO 04005KT 3600 BR OVC002/// ///TCU 06/05
Q1016=
METAR LFOE 110300Z AUTO 15003KT 3300 BR VV/// 05/05 Q1016=
METAR LFOJ 110300Z AUTO 02005KT 1100 R25///// BR VV/// 05/05 Q1015=
METAR LFRJ 110300Z AUTO 21007KT 9999 NSC 07/06 Q1015=
METAR LFRL 110300Z AUTO 18005KT 7000 // BKN031 OVC037 08/07 Q1016=

0000033800
428
SARO31 LROM 110300
METAR LRBS 110300Z 29002KT CAVOK 01/M00 Q1020 NOSIG=
METAR LRCK 110300Z 26009KT 1500 BR NSC 02/02 Q1019 NOSIG=
METAR LROP 110300Z 22005KT CAVOK M00/M01 Q1020 8819//95 NOSIG=
METAR LRSB 110300Z 26006KT CAVOK M01/M04 Q1021 NOSIG=
METAR LRTR 110300Z 09004KT 3500 BR SCT048 00/M00 Q1022 11190095=

0000026200
429
SAFR24 LFPW 110300
METAR LFSI 110300Z AUTO 11003KT 9999 NSC 04/03 Q1016=
METAR LFSO 110300Z AUTO 00000KT 9999 ///TCU 03/02 Q1016=
METAR LFSX 110300Z AUTO 06005KT 9999 NSC 03/01 Q1016=
METAR LFYR 110300Z AUTO VRB02KT 9999 NSC 04/04 Q1015=

0000043400
430
SARO32 LROM 110300
METAR LRAR 110300Z AUTO 16004KT 140V200 5000 R09////// R27/P2000
BKN050 ///// Q1022=
METAR LRBM 110300Z AUTO 06004KT 5000 BR BKN017 BKN030 00/00 Q1021=
METAR LRCL 110300Z 27004KT 230V290 CAVOK M01/M02 Q1020=
METAR LROD 110300Z AUTO 14006KT 9999 FEW055 00/M01 Q1022=
METAR LRSM 110300Z AUTO 22006KT 9999 NCD M02/M02 Q1020=
METAR LRTM 110300Z 00000KT 3800 BR NSC M02/M02 Q1021 0729//95=

0000033500
431
SARO33 LROM 110300
METAR LRBC 110300Z 26008KT 230V290 CAVOK 05/M00 Q1018 16320194=
METAR LRCV 110300Z AUTO 26008KT 9999 NCD 01/M01 Q1021=
METAR LRIA 110300Z VRB02KT CAVOK 04/M01 Q1017 1529//95=
METAR LRSV 110300Z AUTO 28008KT 9999 FEW055 02/M03 Q1016=
METAR LRTC 110300Z AUTO 25006KT 6000 BKN065 03/01 Q1020=

0000059700
432
SAFR31 LFPW 110300
METAR LFLL 110300Z 11005KT 080V140 9999 SCT019 BKN150 10/06 Q1017
NOSIG=
METAR LFMN 110300Z 33009KT 9999 OVC033 10/05 Q1021 NOSIG=
METAR LFPG 110300Z 09004KT 6000 -RA FEW001 BKN001 BKN015 05/04
Q1016 TEMPO 4000 BR=
METAR LFPO 110300Z VRB02KT 2000 -RA BR OVC003 06/05 Q1016 TEMPO
BKN002=
METAR LFQQ 110300Z 19008KT 6000 OVC005 04/03 Q1016 NOSIG=
METAR LFRB 110300Z 18006KT 0400 R25/1400U R07///// FG FEW006
SCT025 BKN040 07/07 Q1015 NOSIG=
METAR LFRS 110300Z AUTO VRB02KT 0150 0100 R03/0600U R21/1200U FG
SCT012 BKN060 BKN170 07/06 Q1015=

0000072700
433
SAFR32 LFPW 110300
METAR LFBD 110300Z AUTO 20004KT 180V240 6000 OVC013 09/09 Q1016=
METAR LFBH 110300Z AUTO 20002KT 4400 BR NSC 08/07 Q1015=
METAR LFBI 110300Z AUTO 00000KT 2500 BR NSC 06/05 Q1015=
METAR LFBL 110300Z AUTO 00000KT 9999 NSC 07/05 Q1016=
METAR LFBO 110300Z AUTO 20005KT 9999 FEW018 OVC180 08/06 Q1017=
METAR LFBP 110300Z AUTO 22003KT 6000 FEW018 OVC026 09/09 Q1017=
METAR LFBT 110300Z AUTO 24004KT 6000 OVC018 09/07 Q1017=
METAR LFBZ 110300Z AUTO 28005KT 9999 OVC017 12/09 Q1018=
METAR LFLB 110300Z AUTO 00000KT 4500 BR NSC 03/03 Q1018=
METAR LFLX 110300Z AUTO VRB01KT 7000 NSC 05/05 Q1015=
METAR LFML 110300Z 09006KT 9999 BKN027 12/07 Q1020 NOSIG=
METAR LFCK 110300Z NIL=

0000047400
434
SAFR33 LFPW 110300
METAR LFKB 110300Z 18003KT 9999 OVC030 12/08 Q1021 NOSIG=
METAR LFKF 110300Z AUTO 08008KT 040V110 9999 SCT029/// 12/08 Q1020=
METAR LFKJ 110300Z AUTO 04008KT 9999 NCD 07/05 Q1020=
METAR LFLC 110300Z AUTO VRB02KT 7000 NSC 04/03 Q1015=
METAR LFMP 110300Z AUTO 31005KT 8000 NSC 09/07 Q1018=
METAR LFMV 110300Z AUTO VRB02KT 9999 OVC032 10/07 Q1020=
METAR LFSL 110300Z AUTO 18003KT 9999 NSC 06/05 Q1016=
METAR LFKC 110300Z NIL=

0000101300
435
SAFR34 LFPW 110300
METAR LFCR 110300Z AUTO 12008KT 9999 NSC 07/04 Q1017=
METAR LFJL 110300Z AUTO VRB03KT 5000 BR NSC 01/01 Q1017=
METAR LFLP 110300Z AUTO 03002KT 5000 BR NSC 02/02 Q1018=
METAR LFLS 110300Z AUTO VRB04KT 9999 OVC014 08/06 Q1017=
METAR LFLY 110300Z AUTO 17010KT 9999 NSC 07/06 Q1017=
METAR LFMT 110300Z 04006KT 8000 SCT000 SCT032 OVC036 11/08 Q1019=
METAR LFMU 110300Z AUTO 04008KT 9999 FEW031 OVC041 11/08 Q1019=
METAR LFOB 110300Z AUTO 14003KT 110V180 2800 BR OVC002 05/04 Q1016=
METAR LFOH 110300Z AUTO 18007KT 9999 FEW005 OVC011 06/05 Q1015=
METAR LFOK 110300Z AUTO 09003KT 060V120 4600 BR NSC 01/01 Q1016=
METAR LFOP 110300Z AUTO 18003KT 0600 R22/1900N FG VV/// 05/05 Q1016=
METAR LFPB 110300Z AUTO 06003KT 5000 -RA BR SCT005 SCT019 BKN029
05/05 Q1016=
METAR LFQA 110300Z AUTO VRB02KT 7000 -DZ ///TCU 02/02 Q1016=
METAR LFQB 110300Z AUTO 36001KT 5000 BR NSC 03/03 Q1016=
METAR LFSN 110300Z AUTO VRB01KT 0300 R03/0900U FZFG VV/// M00/M00
Q1017=

0000091400
436
SAFR35 LFPW 110300
METAR LFMI 110300Z AUTO 10005KT 9999 BKN027 OVC033 11/08 Q1019=
METAR LFMK 110300Z AUTO 12005KT 090V160 9999 FEW015 BKN021 OVC180
10/08 Q1018=
METAR LFOV 110300Z AUTO 36004KT 1100 BCFG SCT004 SCT011 BKN044
06/06 Q1015=
METAR LFRD 110300Z AUTO 21003KT 0150 R35/0650N FG VV/// 07/06 Q1016=
METAR LFRI 110300Z AUTO 00000KT 5000 BR BKN009 OVC080 08/07 Q1015=
METAR LFRM 110300Z AUTO 02004KT 340V050 5000 BR NSC 07/06 Q1016=
METAR LFRN 110300Z AUTO 10003KT 3700 BR FEW004 OVC028 07/07 Q1015=
METAR LFRO 110300Z AUTO 18004KT 9999 FEW042 SCT049 OVC056 07/06
Q1015=
METAR LFRV 110300Z AUTO 34006KT 0200 FG VV/// 07/07 Q1016=
METAR LFRZ 110300Z AUTO VRB03KT 3200 BR OVC011 08/08 Q1015=
METAR LFSB 110300Z AUTO 15004KT 9999 NSC 04/02 Q1017=
METAR LFST 110300Z AUTO VRB01KT 5000 BR NSC M00/M01 Q1017=
METAR LFTH 110300Z AUTO 04004KT 9999 OVC027 11/08 Q1020=

0000051300
437
SAKO31 RKSI 110300
METAR RKSI 110300Z 15004KT 9999 SCT040 01/M14 Q1033 NOSIG=
METAR RKSS 110300Z 03002KT CAVOK 00/M19 Q1033 NOSIG =
METAR RKPC 110300Z 02004KT 9999 FEW030 06/M07 Q1033 NOSIG =
METAR RKPK 110300Z 33008KT CAVOK 04/M08 Q1031 NOSIG =
METAR RKTU 110300Z 25004KT 6000 FEW040 00/M04 Q1033 NOSIG =
METAR RKTN 110300Z 29008KT CAVOK 03/M09 Q1031 NOSIG =
METAR RKJB 110300Z 21005KT 9999 FEW035 SCT180 04/M03 Q1033 NOSIG =
METAR RKNY 110300Z 25013KT CAVOK 02/M15 Q1028 NOSIG =

0000075600
438
SAFR36 LFPW 110300
METAR LFBA 110300Z AUTO 00000KT 1100 R29/1700D BR NSC 05/05 Q1017=
METAR LFBE 110300Z AUTO 08005KT 3400 BR FEW027 OVC180 04/03 Q1017=
METAR LFGJ 110300Z AUTO 10003KT 8000 FEW020 SCT140 02/02 Q1017=
METAR LFJR 110300Z AUTO 02003KT 2800 BR BKN001 OVC088 06/06 Q1015=
METAR LFMD 110300Z AUTO VRB03KT 9999 OVC037 11/07 Q1021=
METAR LFMH 110300Z AUTO 15008KT 8000 NSC 05/04 Q1016=
METAR LFOT 110300Z 06006KT 4000 BR FEW043 BKN100 06/05 Q1015 NOSIG=
METAR LFPN 110300Z AUTO VRB02KT 1900 -RA BR OVC002 05/05 Q1016=
METAR LFRC 110300Z AUTO 19009KT 2300 BR OVC002 07/06 Q1015=
METAR LFRG 110300Z AUTO 19009KT 5000 -DZ BR SCT033 OVC044 06/05
Q1016=
METAR LFRK 110300Z AUTO 17006KT 6000 -RA NSC 06/05 Q1015=

0000074900
439
SAFR37 LFPW 110300
METAR LFAQ 110300Z AUTO 19007KT 0150 R27/0800U FG VV/// 04/04 Q1016=
METAR LFAT 110300Z AUTO 14004KT 3300 BR SCT006 BKN170 OVC190 03/03
Q1015=
METAR LFLN 110300Z AUTO 08003KT 9999 NSC 04/03 Q1015=
METAR LFPM 110300Z AUTO 10004KT 4500 -RA BR OVC003/// ///TCU 05/05
Q1016=
METAR LFPT 110300Z AUTO 04001KT 2000 BR OVC002 05/04 Q1016=
METAR LFRH 110300Z AUTO VRB03KT 0200 R25/0800N R07/0800U FG VV///
07/07 Q1016=
METAR LFRQ 110300Z AUTO 00000KT 0600 R28/2000D FG FEW001 OVC045
06/05 Q1016=
METAR LFRT 110300Z AUTO 23003KT 190V260 9999 NSC 05/05 Q1015=
METAR LFSD 110300Z AUTO 00000KT 8000 NSC 01/01 Q1016=
METAR LFTW 110300Z AUTO 10003KT 7000 OVC025 10/06 Q1019=
METAR LFBU 110300Z NIL=

0000128500
440
FTUS51 KWBC 110303 AAA
TAF AMD
KBKW 110302Z 1103/1124 15009KT P6SM OVC006
     FM111100 17015G22KT 4SM SHRA OVC006
     FM111600 22012G18KT 3SM SHRA OVC010
     FM111900 25011G16KT 3SM SHRA OVC010
     FM112100 26012G19KT 3SM SHRA OVC020
     FM112300 27013G20KT P6SM OVC015=
KCKB 110301Z 1103/1124 11004KT P6SM OVC040
     FM110600 18008KT P6SM BKN035
     FM111100 17010G15KT 6SM SHRA OVC035
     FM111500 18012G19KT 3SM SHRA OVC015
     FM111700 20011G17KT 3SM SHRA OVC008
     FM112000 23012G18KT 3SM SHRA OVC015
     FM112300 25014G20KT P6SM OVC015=
KEKN 110301Z 1103/1124 15005KT P6SM OVC035
     FM110500 18011G17KT P6SM OVC035
     FM111000 18011G17KT P6SM OVC030
     FM111200 18013G19KT 4SM SHRA OVC030
     FM111700 21013G19KT 3SM SHRA OVC010
     FM111800 23011G16KT 3SM SHRA OVC003
     FM112000 24012G19KT 3SM SHRA OVC015=
KHLG 110301Z 1103/1124 12005KT P6SM BKN040
     FM110500 13006KT P6SM OVC050 WS020/22045KT
     FM110900 18010KT 4SM -RA OVC009 WS020/22050KT
     FM111900 23012G24KT P6SM BKN015 OVC025=
KMGW 110302Z 1103/1124 12005KT P6SM BKN080
     FM110600 13007KT P6SM OVC050 WS020/22045KT
     FM111300 18010KT 4SM -RA OVC009 WS020/22050KT
     FM112300 23012G24KT P6SM BKN015 OVC025=

0000038100
441
FTUS53 KWBC 110303 AAA
TAF AMD
KAXN 110301Z 1103/1124 23007KT 3SM BR SCT002
      TEMPO 1103/1106 1/4SM FZFG VV002
     FM110600 27006KT P6SM SCT200
     FM110800 31010KT P6SM SCT025 BKN040
     FM111800 29009KT P6SM SCT040 SCT250=
KBPI 110301Z 1103/1124 32015G25KT P6SM SCT040
     FM110600 34008KT P6SM SCT040
     FM111500 VRB05KT P6SM BKN050=

0000018600
442
FTUS52 KWBC 110303 CCA
TAF COR
KTCL 110301Z 1103/1124 13007KT 2SM -RA BR OVC005
      TEMPO 1110/1114 2SM -TSRA BR OVC005CB
     FM111500 26013G19KT P6SM BKN100=

0000030200
443
FTUS51 KWBC 110303 AAB
TAF AMD
KPKB 110301Z 1103/1124 12005KT P6SM OVC035
     FM110800 17010G15KT P6SM OVC025
     FM111100 18012G18KT 3SM SHRA OVC008
     FM111500 21012G18KT 3SM SHRA OVC010
     FM112000 24013G19KT 6SM SHRA OVC015
     FM112100 24013G20KT P6SM OVC015=

0000004200
444
SASP34 LEMM 110300
NIL=

0000014800
445
FCSP32 LEMM 110200 AAA
TAF AMD LESA 110301Z 1103/1112 VRB02KT CAVOK TEMPO 1103/1110
4000 BR NSC TEMPO 1103/1109 0700 FG SCT001=

00000000