0000006100
486
SAOS32 LOWM 102320
METAR LOXZ 102320Z NIL=

0000099800
487
FTNL31 EHDB 102300
TAF EHAM 102249Z 1100/1206 21012KT 9000 BKN010 PROB30 TEMPO 1100/1106
7000 BKN008 BECMG 1105/1107 7000 -RA BKN008 PROB30 TEMPO 1106/1111
4000 RADZ BKN004 BECMG 1110/1112 32017G27KT 9999 NSW SCT020 SCT040
BECMG 1112/1115 30014KT BECMG 1119/1122 26005KT PROB30 1203/1206
VRB03KT 4000 MIFG=
TAF EHBK 102318Z 1100/1206 21012KT CAVOK BECMG 1111/1114 27012KT
BKN015 TEMPO 1111/1115 29015G25KT 4500 RADZ SCT007 BKN010 BECMG
1115/1118 27005KT FEW025 PROB30 1200/1206 6000=
TAF EHGG 102318Z 1100/1206 22013KT 6000 BKN008 PROB30 1100/1106 8000
BKN010 TEMPO 1107/1114 30015G25KT 3500 DZRA BKN005 BECMG 1111/1114
29014KT 9999 NSW SCT020 BECMG 1121/1124 26009KT=
TAF EHRD 102249Z 1100/1206 21012KT 9000 BKN010 TEMPO 1100/1106 7000
BKN008 BECMG 1105/1107 7000 -RA BKN008 PROB30 TEMPO 1106/1111 4000
RADZ BKN004 BECMG 1110/1112 32017G27KT 9999 NSW SCT020 SCT040 BECMG
1112/1115 30014KT BECMG 1119/1122 26005KT PROB30 1203/1206 VRB03KT
4000 MIFG=

0000043200
488
FTRH31 LDZM 102300
TAF LDDU 102325Z 1100/1124 06006KT 9999 SCT050 TX14/1113Z
TN08/1106Z=
TAF LDPL 102325Z 1100/1124 VRB02KT 9999 SCT015 BKN045 TX12/1112Z
TN05/1104Z
TEMPO 1100/1109 2000 BR=
TAF LDSP 102325Z 1100/1124 VRB02KT 9999 SCT045 TX14/1112Z
TN07/1104Z=
TAF LDZA 102325Z 1100/1124 VRB02KT 0300 FG SCT003 TX11/1113Z
TN02/1104Z
BECMG 1108/1110 23007KT 3000 BR SCT015
BECMG 1110/1112 CAVOK=

0000021700
489
SANO35 ENMI 102320
METAR ENMS 102320Z NIL=
METAR ENRM 102320Z NIL=
METAR ENRS 102320Z NIL=
METAR ENSK 102320Z NIL=
METAR ENSO 102320Z NIL=
METAR ENST 102320Z NIL=
METAR ENVD 102320Z NIL=

0000044800
490
SAFI33 EFHK 102320
EFJO 102320Z AUTO 02014KT 340V050 9000 -SN BKN014 M08/M10 Q0994=
EFLP 102320Z AUTO 35012KT 320V030 9999 -IC OVC013 M06/M09 Q0991=
EFMI 102320Z AUTO VRB07KT 9999 -SG OVC013 M07/M08 Q0994=
EFSA 102320Z AUTO 34009KT 310V040 9999 -SN FEW015 BKN019 M08/M09
Q0993=
EFUT 102320Z AUTO 35010KT 320V020 9999 OVC010 M05/M07 Q0992=
EFVR 102320Z AUTO 01010KT 340V060 1200 +SN FZBR BKN016 OVC025 M07/M10
Q0995=

0000082100
491
FTSP31 LEMM 102300
TAF LEBL 102300Z 1100/1124 33004KT 6000 SCT011 TX15/1112Z
TN08/1106Z TEMPO 1106/1112 34012G22KT PROB40 TEMPO 1100/1107
4000 BR BKN008 BECMG 1112/1114 07011KT=
TAF LEMD 102300Z 1100/1206 VRB03KT CAVOK TX14/1114Z TN02/1205Z
PROB40 TEMPO 1104/1109 3000 BR SCT008 PROB30 TEMPO 1104/1109
1000 BCFG BKN010=
TAF LEMG 102300Z 1100/1124 30008KT 9999 BKN030 TX15/1115Z
TN11/1106Z TEMPO 1100/1110 5000 RA BR BKN015 BECMG 1110/1112
12008KT=
TAF LEPA 102300Z 1100/1124 06005KT 9999 FEW015 TX17/1112Z
TN07/1106Z PROB40 TEMPO 1100/1108 4000 BR BKN009 PROB30
TEMPO 1100/1108 1000 BCFG SCT003=
TAF LEVC 102300Z 1100/1124 VRB03KT 6000 BKN020 TX15/1112Z
TN08/1106Z TEMPO 1100/1110 2500 BR BKN014 PROB30 TEMPO 1104/1108
0800 BCFG BKN003 PROB30 TEMPO 1118/1124 2500 BR BKN014=

0000083200
492
FTSP33 LEMM 102300
TAF LEAL 102300Z 1100/1124 06010KT 9999 SCT014 TX16/1113Z
TN08/1106Z TEMPO 1100/1110 VRB04KT 5000 BR BKN010=
TAF LEGE 102300Z 1100/1124 VRB03KT 4000 BR BKN018 TX15/1112Z
TN05/1107Z PROB40 TEMPO 1100/1107 0500 FG VV002 BECMG 1107/1110
8000 NSW TEMPO 1106/1118 36008KT=
TAF LEST 102300Z 1100/1124 VRB03KT 7000 NSC TX13/1115Z TN05/1106Z
PROB40 TEMPO 1100/1109 3000 BR PROB40 TEMPO 1100/1109 0700
BCFG BECMG 1118/1122 19010KT=
TAF LEVX 102300Z 1100/1124 VRB03KT 7000 NSC TX12/1115Z TN06/1106Z
PROB40 TEMPO 1100/1110 2000 BR BCFG BKN008 PROB40 TEMPO
1100/1109 0700 BCFG PROB40 TEMPO 1100/1109 0350 FG VV001
BECMG 1118/1122 19010KT=
TAF LEZG 102300Z 1100/1124 VRB04KT 2000 BR BKN002 TX08/1115Z
TN03/1106Z TEMPO 1100/1112 0300 FG VV001 PROB40 TEMPO 1118/1124
0500 FG VV002=

0000024100
493
FTRH32 LDZM 102300
TAF LDOS 102325Z 1100/1124 10005KT 3000 BR NSC TX10/1113Z TN01/1104Z
TEMPO 1100/1103 0700 FG
BECMG 1104/1106 9999 NSW SCT035=
TAF LDZD 102325Z 1100/1124 11006KT 9999 BKN055 TX13/1112Z
TN06/1105Z=

0000004600
494
FTRH33 LDZM 102300
TAF NIL=

0000051500
495
SANO33 ENMI 102320
METAR ENAT 102320Z NIL=
METAR ENBL 102320Z NIL=
METAR ENEV 102320Z NIL=
METAR ENFL 102320Z NIL=
METAR ENKB 102320Z AUTO 04004KT 9999NDV FEW008/// SCT021/// M04/M08
           Q1000=
METAR ENKR 102320Z 17010KT 1500 -SN SCT002 BKN008 BKN012 M21/M23
           Q1016 SEASMOKE NORTH OF THE FIELD RMK WIND 775FT 24012KT=
METAR ENML 102320Z 01007KT CAVOK M04/M08 Q1000=
METAR ENNA 102320Z 22005KT 1100 BCFG BKN005 M15/M16 Q1018 RMK WIND
           1800FT 01007KT=

0000021700
496
SANO36 ENMI 102320
METAR ENBS 102320Z NIL=
METAR ENHK 102320Z NIL=
METAR ENHV 102320Z NIL=
METAR ENLK 102320Z NIL=
METAR ENMH 102320Z NIL=
METAR ENNK 102320Z NIL=
METAR ENNM 102320Z NIL=

0000055300
497
SANO38 ENMI 102320
METAR ENDR 102320Z AUTO 06024KT M04/M08 Q1002=
METAR ENEK 102320Z 25022KT 9999 BKN012 08/07 Q1004 W08/S4=
METAR ENGC 102320Z NIL=
METAR ENHE 102320Z 09024KT 2500 SHSNRA BKN010 M04/M04 Q1003 W///S5=
METAR ENOA 102320Z NIL=
METAR ENSL 102320Z AUTO 28024KT 9999NDV FEW017/// BKN040/// BKN110///
           08/04 Q1001 W06/S4=
METAR ENFB 102320Z AUTO 09018KT 9999NDV -RA OVC025/// 04/00 Q0998
           W///S5=
METAR ENSF 102320Z AUTO 10018KT 9999NDV -SHRA BKN029/// 04/M01 Q0998
           W///S5=

0000017900
498
FCIE32 EIDB 102300
TAF EICM 102300Z NIL=
TAF EIDL 102300Z NIL=
TAF EIKY 102300Z NIL=
TAF EIME 102300Z NIL=
TAF EISG 102300Z NIL=
TAF EIWF 102300Z NIL=

0000021700
499
SANO37 ENMI 102320
METAR ENNO 102320Z NIL=
METAR ENOV 102320Z NIL=
METAR ENSD 102320Z NIL=
METAR ENSG 102320Z NIL=
METAR ENSN 102320Z NIL=
METAR ENSR 102320Z NIL=
METAR ENSS 102320Z NIL=

0000064300
500
FTSP34 LEMM 102300
TAF LEBB 102300Z 1100/1124 12005KT 9999 SCT015 BKN025 TX14/1115Z
TN06/1106Z PROB40 TEMPO 1100/1106 3000 -RADZ BR BKN012=
TAF LEJR 102300Z 1100/1124 03005KT CAVOK TX18/1114Z TN11/1108Z
PROB40 TEMPO 1100/1106 4000 SHRA FEW030TCU=
TAF LELC 102300Z 1100/1124 06010KT 9999 BKN014 TX15/1112Z
TN08/1106Z PROB30 1118/1124 5000 RA=
TAF LESO 102300Z 1100/1124 23005KT 9999 SCT015 BKN025 TX14/1115Z
TN08/1106Z PROB40 TEMPO 1100/1106 3000 -RADZ BR BKN012=
TAF LEVT 102300Z 1100/1124 VRB03KT 7000 NSC TX12/1115Z TN00/1107Z
PROB40 TEMPO 1100/1112 3000 BR BKN012 PROB40 TEMPO 1100/1112
0350 FG VV001=

0000020100
501
SADL33 EDZO 102320
METAR EDFE 102320Z NIL=
METAR EDFH 102320Z 22004KT 9999 SCT010 SCT270 01/M00 Q1017=
METAR EDFM 102320Z NIL=
METAR EDLV 102320Z NIL=
METAR EDVK 102320Z NIL=

0000009500
502
SADL34 EDZO 102320
METAR EDQM 102320Z AUTO 24009KT 9999NDV NCD 01/M01 Q1017=

0000071900
503
SANO39 ENMI 102320
METAR ENNE 102320Z NIL=
METAR ENQR 102320Z AUTO 09006G18KT 9999NDV OVC044/// 04/M02 Q0998
           W///S/=
METAR ENSE 102320Z AUTO 09014KT 9999NDV SCT040/// BKN061/// OVC100///
           03/M03 Q0998 W///S5=
METAR ENQC 102320Z AUTO 07010KT 9999NDV BKN034/// 05/M01 Q0997
           W///S4=
METAR ENQA 102320Z AUTO 08011KT 050V110 9999NDV -SHRA FEW021///
           SCT027/// BKN039/// 04/00 Q0998 W04/S4=
METAR ENHM 102320Z AUTO 26024KT 9999NDV NCD 07/02 Q0998 W08/S4=
METAR ENVH 102320Z AUTO 24022KT 9000NDV -SHRA OVC009/// 07/06 Q1004
           W///S4=
METAR ENLA 102320Z AUTO 26020KT 9999NDV -SHRA BKN018/// BKN072///
           08/07 Q1003 W///S4=

0000019100
504
SANO34 ENMI 102320
METAR ENBN 102320Z NIL=
METAR ENBV 102320Z NIL=
METAR ENFG 102320Z NIL=
METAR ENHF 102320Z NIL=
METAR ENRA 102320Z NIL=
METAR ENSH 102320Z NIL=

0000098200
505
FTJP31 RJTD 102300
TAF RJAA 102306Z 1100/1206 31008KT 9999 FEW030 BECMG 1107/1109
         19004KT BECMG 1112/1115 35005KT=
TAF RJBB 102305Z 1100/1206 30013KT 9999 FEW025 BECMG 1107/1109
         36008KT BECMG 1118/1121 26008KT=
TAF RJTT 102309Z 1100/1206 03009KT 9999 FEW030 BECMG 1103/1105
         12005KT BECMG 1109/1111 36008KT BECMG 1200/1203 18006KT=
TAF RJOO 102307Z 1100/1206 30008KT 9999 FEW025=
TAF ROAH 102305Z 1100/1206 06008KT 9999 FEW040 BECMG 1118/1121
         12004KT=
TAF RJCH 102316Z 1100/1206 29015KT 8000 -SHSN FEW005 BKN015 TEMPO
         1100/1109 29018G28KT 0800 SHSN BLSN VV005 TEMPO 1109/1118
         1500 -SHSN FEW005 BKN008 BECMG 1118/1121 3000 -SHSN TEMPO
         1200/1203 1500 -SHSN FEW005 BKN008 TEMPO 1203/1206
         28018G30KT 0600 SHSN VV005=
TAF RJSS 102307Z 1100/1206 23010KT 9999 FEW030 SCT050 BECMG
         1100/1102 29015KT TEMPO 1102/1107 29015G25KT BECMG
         1110/1112 23007KT=

00000000