0000013000
206
SMYG10 LYBM 110000 RRA
AAXX 11001
13462 41956 23101 10071 20064 30191 40231 54001 710// 82030 90018 333
82360=
0000015400
207
SMMG20 FMMI 110000
AAXX 11004
67017 NIL=

67020 NIL=

67023 NIL=

67037 NIL=

67067 NIL=

67107 NIL=

67131 NIL=
0000147300
208
SMAL01 DAMM 110000
AAXX 11004
60360 12962 61803 10085 20077 40170 58008 60001 80006
  333 0//00 86273 95990=
60390 12580 52503 10135 20072 40170 56012 60001 81232
  333 81830 84358 95990=
60402 12960 52608 10148 20070 40185 53004 60001 83032
  333 83359 83073 95990=
60419 12960 42302 10069 20020 40199 58005 60001 80001
  333 84073 95990=
60475 12960 50000 10055 20022 39270 48525 54000 60001 80002
  333 0//00 85073 95990=
60490 12565 40202 10123 20067 40147 50001 60001 81532
  333 81626 83360 95990=
60525 12960 6//// 10091 20051 40207 58002 60001 83032
  333 0//00 83360 86073 95900=
60531 12565 72406 10178 20032 40146 51003 60001 8253/
  333 0//00 82630 86360 95990=
60566 12960 33404 10085 20048 40231 56012 60001 82032
  333 0//00 82360 83073=
60571 12558 81214 10136 20065 39253 48518 58002 60001 8328/
  333 0//00 83833 87360 95990=
60580 12960 00000 10094 20073 40213 58010 60001 82030
      333 82360=
60590 NIL=
60611 12960 30910 10111 20022 40215 56013 80001
333 0//00 83070=
60620 12758 31211 10146 21053 40163 55001 60001 82230
  333 0//00 82850=
60630 12770 50000 10111 21007 40190 57009 60001 82032 333 82362
 84075=
60656 12660 63604 10140 20010 40144 51014 60001 84282
   333 0//00 84846 83360=
60670 12965 51208 10060 21044 39119 48555 58009 60001 83082
333 0//00 83360 83073 95990=
60680 12970 60509 10140 21016 38661 48536 57019 60001 84032
333 84362 83073 95990=
0000086900
209
SMAL02 DAMM 110000
AAXX 11004
60351 12965 50000 10105 20091 40168 51001 60001 84032
  333 0//00 84359 95990=
60355 12960 32204 10144 20041 40166 58008 60001 80002
  333 0//00 83073 95990=
60445 12965 63603 10026 20004 39043 48520 58002 60001 82032
  333 82360 85073 95990=
60468 12960 3//// 10043 20017 39260 48527 53007 60001 80002
  333 0//00 83070 95990=
60507 12960 50000 10148 20041 40162 50003 60001 80002
  333 85073 95990=
60511 NIL=
60536 NIL=
60550 NIL=
60555 12965 00000 10084 20067 40223 58003 60001=
60559 12960 4//// 10084 20065 40221 58006 60001 83032
  333 0//00 83360=
60581 12960 30406 10125 20074 40207 58007 60001 83030
   333 0//00 83360=
60607 12960 61108 10126 20031 40177 58003 60001 85082
333 0//00 85362=
60640 12960 51006 10110 21013 40193 58009 60001 82032
  333 0//00 82360 83073=
0000081300
210
USAA01 NZCM 110000
TTAA 61001 89664
99997 00056 18501 00512 ///// ///// 92601 07158 18518
85255 11341 17017 70716 21114 15006 50514 33959 24513
40666 44759 24520 30855 51765 24023 25975 45585 24514
20124 43786 24513 15318 43586 26009 10592 41586 23504
88320 52361 23026
77999
31313 48008 82219=

0000069700
87361=
0000011200
87368=
0000015000
87382
0000012800
87386
0000045600
87406
0000047700
87410
0000049800
87416
0000051900
87420
0000047800
87441=
0000045900
87536
0000052100
87559
0000054200
87603
0000052200
87665
0000060500
87771
0000062600
87959
0000062600
88131
0000054400
88410
0000056500
88641
0000058600
89021
0000073100
89549
0000071000
90235
0000058700
91226
0000056700
92561
0000066800
211
USAA01 NZCM 110000
TTAA 61001 89664
99997 00056 18501 00512 ///// ///// 92601 07158 18518
85255 11341 17017 70716 21114 15006 50514 33959 24513
40666 44759 24520 30855 51765 24023 25975 45585 24514
20124 43786 24513 15318 43586 26009 10592 41586 23504
88320 52361 23026
77999
31313 48008 82219=

0000069700
87361=
0000011200
87368=
0000015000
87382
0000012800
87386
0000045600
87406
0000047700
87410=
0000049900
87467
0000047900
87475
0000047900
87491
0000056200
87512
0000054200
87550
0000058400
87597
0000062500
87670
0000054300
87796=
0000062700
88851=
0000069000
92539
0000297100
212
SMRS14 RUMS 110000
AAXX 11001
22165 42998 01405 11187 21212 30112 40178 53002=
22676 41447 81105 11176 21196 39945 40028 57012 77173 8872/=
22954 41297 81303 11001 21004 39613 49857 57019 77174 8872/ 333
86704=
23112 42998 02303 11358 21393 30190 40200 52008=
23114 NIL=
23503 42998 20000 11324 21361 3//// 4//// 58/// 80001=
23405 42967 80000 11306 21336 30065 40178 57005 80007=
23412 42999 10202 11356 21390 30083 40196 53002 80001=
23708 41477 80502 11188 21210 39930 40090 56011 77172 885// 333
88615=
23803 42699 82993 80701 11189 21210 39913 40107 58014 889// 333
88933=
23812 42697 80201 11281 21310 39945 40126 57003 885// 333 88644=
27066 41396 81303 10006 20000 39752 49927 57035 77176 8872/ 333
88709=
27083 42484 81503 10002 21003 39765 49986 57024 885// 333 91005
91107=
27113 41143 81703 10001 21005 39691 49834 57014 77172 8672/ 333
86702=
27242 41497 81302 10002 20001 39739 49865 57023 78582 889//=
27277 41396 81404 10002 21001 39771 49937 58042 77172 8872/ 333 88706
91009 91111=
27283 41497 81604 10003 21011 39840 49997 57026 70282 885// 333 88617
91007 91110=
27296 41496 81704 11002 21011 39809 40028 57018 71042 886// 333 91007
91109=
27329 41584 82002 10006 20002 39739 49861 57014 70272 885//=
27355 41495 81504 10001 21001 39730 49892 57029 77372 8872/ 333
91110=
27373 41296 81409 10000 20000 39738 49954 58038 78522 887// 333 91013
91113 92982=
27453 41495 81404 10002 21001 39779 49907 57030 77373 8802/ 333 88515
91007 91112 9298/=
27485 41295 81606 10001 21005 39851 40000 57022 77375 8872/ 333 91011
91111=
27491 42498 81608 10000 21008 39831 40009 57022 885// 333 91011
91111=
27577 42398 81606 10005 21001 39806 49960 57043 886// 333 88709 91010
91110=
27593 41596 81404 11010 21015 39842 40033 58017 71022 885// 333
88626=
27643 41497 81803 10006 20001 39780 49919 57022 77176 885// 333 88610
91003 91108=
27653 41496 81803 10006 21002 39781 49933 57031 76162 8802/ 333 88512
91004 91106=
27665 41495 81706 10002 21007 39685 49952 57031 77174 8872/ 333 86710
91012 91112=
27697 42998 81506 11007 21007 39838 40033 57021 8802/ 333 91110=
27752 41496 81704 10006 21002 39773 49942 57034 77376 8872/ 333 91007
91110=
27756 41496 82005 10005 20003 39725 49956 57034 77172 8872/ 333 88710
91007 91109=
27760 41296 81808 10005 21001 39735 49981 57047 77172 8872/ 333 91009
91110=
27835 41296 82102 10002 21001 39770 49926 57022 77172 8872/ 333
88705=
28009 41496 81801 10000 21005 39831 40041 57008 71085 886// 333 91004
91105=
28411 41397 80000 11047 21064 39878 40076 57008 70272 886// 333 91000
91104=
28418 42597 81801 11045 21054 39908 40077 58003 885// 333 88622 91002
91104=
28502 42497 81205 11028 21038 39950 40056 57011 8802/ 333 91006
91106=
28517 42397 82002 11052 21055 39931 40073 56005 886// 333 88708=
28612 41493 71801 11056 21056 39977 40078 54001 74444 875// 333
87610=
0000062700
213
USAA01 NZCM 110000
TTAA 61001 89664
99997 00056 18501 00512 ///// ///// 92601 07158 18518
85255 11341 17017 70716 21114 15006 50514 33959 24513
40666 44759 24520 30855 51765 24023 25975 45585 24514
20124 43786 24513 15318 43586 26009 10592 41586 23504
88320 52361 23026
77999
31313 48008 82219=

0000069700
87361=
0000011200
87368=
0000015000
87382
0000012800
87386
0000045600
87406=
0000047800
87429
0000015700
87445
0000049900
87465
0000054100
87473
0000050000
87488=
0000052200
87714
0000058400
87814=
0000058600
88882=
0000071100
92556
0000066800
214
USAA01 NZCM 110000
TTAA 61001 89664
99997 00056 18501 00512 ///// ///// 92601 07158 18518
85255 11341 17017 70716 21114 15006 50514 33959 24513
40666 44759 24520 30855 51765 24023 25975 45585 24514
20124 43786 24513 15318 43586 26009 10592 41586 23504
88320 52361 23026
77999
31313 48008 82219=

0000069700
87361=
0000011200
87368
0000009600
87371
0000035800
87378
0000037300
87381
0000039400
87385
0000039400
87407
0000041500
87411
0000014600
87417
0000045700
87421=
0000050000
87501
0000056200
87513
0000060400
87556=
0000054300
87879=
0000056500
88884=
0000073200
92564
0000079200
215
USAA01 NZCM 110000
TTAA 61001 89664
99997 00056 18501 00512 ///// ///// 92601 07158 18518
85255 11341 17017 70716 21114 15006 50514 33959 24513
40666 44759 24520 30855 51765 24023 25975 45585 24514
20124 43786 24513 15318 43586 26009 10592 41586 23504
88320 52361 23026
77999
31313 48008 82219=

0000069700
87361=
0000011200
87368
0000009600
87371
0000035800
87378
0000037300
87381
0000039400
87385
0000039400
87407
0000041500
87411
0000014600
87417
0000045700
87421
0000049900
87440
0000052000
87462=
0000050100
87574
0000050100
87625
0000054300
87671
0000060500
87795
0000056400
87969=
0000066800
88996
0000062800
89576
0000066900
90268
0000075200
91242
0000077300
92585
0000068900
216
USAA01 NZCM 110000
TTAA 61001 89664
99997 00056 18501 00512 ///// ///// 92601 07158 18518
85255 11341 17017 70716 21114 15006 50514 33959 24513
40666 44759 24520 30855 51765 24023 25975 45585 24514
20124 43786 24513 15318 43586 26009 10592 41586 23504
88320 52361 23026
77999
31313 48008 82219=

0000069700
87361=
0000011200
87368=
0000015000
87382
0000012800
87386=
0000045700
87427=
0000045900
87505
0000050000
87526
0000050100
87565=
0000062600
87871
0000062600
88032
0000060600
88309
0000066800
88572
0000060700
88988
0000066900
89566
0000073100
90259
0000067000
91233
0000064900
92563
0000064700
217
USAA01 NZCM 110000
TTAA 61001 89664
99997 00056 18501 00512 ///// ///// 92601 07158 18518
85255 11341 17017 70716 21114 15006 50514 33959 24513
40666 44759 24520 30855 51765 24023 25975 45585 24514
20124 43786 24513 15318 43586 26009 10592 41586 23504
88320 52361 23026
77999
31313 48008 82219=

0000069700
87361=
0000011200
87368
0000009600
87371
0000035800
87378
0000037300
87381=
0000039500
87413
0000041600
87422
0000043700
87443
0000045800
87466
0000054100
87469=
0000050100
87581
0000046000
87641
0000058400
87805=
0000060600
88840=
0000060800
92579
0000073000
218
USAA01 NZCM 110000
TTAA 61001 89664
99997 00056 18501 00512 ///// ///// 92601 07158 18518
85255 11341 17017 70716 21114 15006 50514 33959 24513
40666 44759 24520 30855 51765 24023 25975 45585 24514
20124 43786 24513 15318 43586 26009 10592 41586 23504
88320 52361 23026
77999
31313 48008 82219=

0000069700
87361=
0000011200
87368
0000009600
87371
0000035800
87378
0000037300
87381
0000039400
87385
0000039400
87407=
0000012000
87430=
0000054100
87500=
0000056300
87703
0000056400
87841
0000052300
88031
0000054400
88315
0000056500
88585
0000058600
89005
0000062800
89553
0000075200
90249
0000071100
91237
0000062900
92572
0000068900
219
USAA01 NZCM 110000
TTAA 61001 89664
99997 00056 18501 00512 ///// ///// 92601 07158 18518
85255 11341 17017 70716 21114 15006 50514 33959 24513
40666 44759 24520 30855 51765 24023 25975 45585 24514
20124 43786 24513 15318 43586 26009 10592 41586 23504
88320 52361 23026
77999
31313 48008 82219=

0000069700
87361=
0000011200
87368=
0000015000
87382=
0000030600
87414
0000014800
87423
0000049900
87438
0000052000
87459
0000058200
87471
0000050000
87489=
0000052200
87715
0000066700
87819
0000056400
88002=
0000068900
89006
0000066900
89563
0000062800
90261
0000064900
91235
0000064900
92576
0000073000
220
USAA01 NZCM 110000
TTAA 61001 89664
99997 00056 18501 00512 ///// ///// 92601 07158 18518
85255 11341 17017 70716 21114 15006 50514 33959 24513
40666 44759 24520 30855 51765 24023 25975 45585 24514
20124 43786 24513 15318 43586 26009 10592 41586 23504
88320 52361 23026
77999
31313 48008 82219=

0000069700
87361=
0000011200
87368
0000009600
87371
0000035800
87378
0000037300
87381=
0000039500
87413
0000041600
87422=
0000043800
87504
0000052100
87527
0000058300
87571
0000052200
87616
0000058400
87667
0000056400
87778
0000062600
87965=
0000060700
88985
0000071000
89529
0000069000
90244
0000058700
91244
0000064900
92581
0000064800
221
USAA01 NZCM 110000
TTAA 61001 89664
99997 00056 18501 00512 ///// ///// 92601 07158 18518
85255 11341 17017 70716 21114 15006 50514 33959 24513
40666 44759 24520 30855 51765 24023 25975 45585 24514
20124 43786 24513 15318 43586 26009 10592 41586 23504
88320 52361 23026
77999
31313 48008 82219=

0000069700
87361=
0000011200
87368=
0000015000
87382
0000012800
87386
0000045600
87406=
0000047800
87429
0000015700
87445
0000049900
87465
0000054100
87473
0000050000
87488
0000052100
87521
0000054200
87549=
0000056400
87860=
0000054500
88895=
0000052500
92583
0000062700
222
USAA01 NZCM 110000
TTAA 61001 89664
99997 00056 18501 00512 ///// ///// 92601 07158 18518
85255 11341 17017 70716 21114 15006 50514 33959 24513
40666 44759 24520 30855 51765 24023 25975 45585 24514
20124 43786 24513 15318 43586 26009 10592 41586 23504
88320 52361 23026
77999
31313 48008 82219=

0000069700
87361=
0000011200
87368=
0000015000
87382
0000012800
87386
0000045600
87406
0000047700
87410
0000049800
87416
0000051900
87420=
0000047900
87502
0000013400
87528
0000052100
87563=
0000054300
87881=
0000050300
88907=
0000060800
92587
0000070900
223
USAA01 NZCM 110000
TTAA 61001 89664
99997 00056 18501 00512 ///// ///// 92601 07158 18518
85255 11341 17017 70716 21114 15006 50514 33959 24513
40666 44759 24520 30855 51765 24023 25975 45585 24514
20124 43786 24513 15318 43586 26009 10592 41586 23504
88320 52361 23026
77999
31313 48008 82219=

0000069700
87361=
0000011200
87368
0000009600
87371
0000035800
87378
0000037300
87381
0000039400
87385
0000039400
87407
0000041500
87411
0000014600
87417
0000045700
87421
0000049900
87440
0000052000
87462
0000050000
87472=
0000058400
87593
0000060500
87638
0000060500
87800=
0000056500
88836=
0000058700
92540
0000062700
224
USAA01 NZCM 110000
TTAA 61001 89664
99997 00056 18501 00512 ///// ///// 92601 07158 18518
85255 11341 17017 70716 21114 15006 50514 33959 24513
40666 44759 24520 30855 51765 24023 25975 45585 24514
20124 43786 24513 15318 43586 26009 10592 41586 23504
88320 52361 23026
77999
31313 48008 82219=

0000069700
87361=
0000011200
87368
0000009600
87371
0000035800
87378
0000037300
87381
0000039400
87385
0000039400
87407=
0000012000
87430
0000054000
87439=
0000056200
87534
0000060400
87553=
0000056400
87868=
0000062700
88883=
0000058700
92530
0000062700
225
USAA01 NZCM 110000
TTAA 61001 89664
99997 00056 18501 00512 ///// ///// 92601 07158 18518
85255 11341 17017 70716 21114 15006 50514 33959 24513
40666 44759 24520 30855 51765 24023 25975 45585 24514
20124 43786 24513 15318 43586 26009 10592 41586 23504
88320 52361 23026
77999
31313 48008 82219=

0000069700
87361=
0000011200
87368
0000009600
87371
0000035800
87378
0000037300
87381
0000039400
87385
0000039400
87407=
0000012000
87430=
0000054100
87500
0000056200
87510
0000050100
87551=
0000056400
87867=
0000058600
88902=
0000071100
92580
00000000