0000012700
486
SACN62 CYVR 101800
METAR CYVR 101800Z 19008KT 20SM SCT030 BKN039 OVC046 07/05 A3000 RMK
 SC4SC3SC1 SLP159=

0000131200
487
FASP40 LEMM 101700 CCA
LECM GAMET VALID 102100/110300 LEMM-
LECM MADRID FIR/1 BLW FL150
SECN I
SFC VIS: 1000-3000 M BR/BCFG VAL EBRO
         3000-5000 M BR SE CASTILLA LA MANCHA AND LAN GALICIA
SIG CLD: OVC ST 005-010/015-020 HFT AGL VAL EBRO
TURB:  MOD 070/ABV 150 HFT AMSL N OF N42 AND BTN W009 AND W005
SECN II
PSYS: 00 L 1014 HPA GOLFO DE CADIZ EXTD 1014 PENINSULA IBERICA
STNR WKN
CLD:  BKN SC CU 020-030/070-080 HFT AMSL LOC GALICIA, ASTURIAS,
CANTABRIA,
N PAIS VASCO AND MAR CANTABRICO
      BKN AC AS 080-090/120-130 HFT AMSL W OF LINE N45 W005 - N42
W009
      BKN AC AS 130-140/ABV 150 HFT AMSL SE OF LINE LEGT-LEZG
WND/T:    LA CORUNNA     MADRID         SANTANDER      ZARAGOZA
       -------------- -------------- -------------- --------------
020HFT 068/005KT PS06 079/001KT PS06 272/013KT PS08 121/008KT PS06
050HFT 344/003KT PS02 058/003KT PS05 221/006KT PS03 187/005KT PS07
100HFT 305/008KT MS04 037/006KT MS02 225/024KT MS04 192/012KT MS02
150HFT 269/018KT MS14 208/004KT MS14 232/027KT MS15 202/019KT MS13
200HFT 269/018KT MS25 181/014KT MS24 232/031KT MS25 206/021KT MS24
300HFT 246/027KT MS49 181/017KT MS51 261/015KT MS49 211/042KT MS49
FZLVL:   70 HFT AMSL    85 HFT AMSL    80 HFT AMSL    90 HFT AMSL
MNM QNH:1015 HPA=

0000034400
488
SAJP31 RJTD 101800
METAR RJAA 101800Z 32001KT 9999 FEW025 M05/M08 Q1022 NOSIG=
METAR RJBB 101800Z 29013KT 9999 FEW025 BKN/// 04/M06 Q1028 NOSIG=
METAR RJTT 101800Z 29005KT 240V310 CAVOK 00/M06 Q1023 NOSIG=
METAR ROAH 101800Z 03005KT CAVOK 13/06 Q1026=
METAR RJGG 101800Z 27021KT 9999 FEW020 SCT070 04/M01 Q1026 NOSIG=

0000019400
489
SAJP32 RJTD 101800
METAR RJFF 101800Z 15009KT 9999 FEW040 BKN060 02/M03 Q1030=
METAR RJCC 101800Z 23009KT 200V260 9999 -SHSN FEW010 BKN040 BKN070
           M09/M12 Q1017=

0000011600
490
SACN61 CYXS 101800
METAR CYXS 101800Z AUTO 16006KT 9SM FEW036 M04/M05 A2970 RMK PRESRR
 SLP092=

0000014500
491
SACN62 CYXC 101800
METAR CYXC 101800Z 00000KT 20SM FEW010 FEW050 SCT120 BKN250 M05/M06
 A2965 RMK SF1SC2AC1CI4 SF TR SLP076=

0000011200
492
SACN62 CYXU 101800
METAR CYXU 101800Z 18010KT 2SM BR OVC004 01/00 A3012 RMK FG3SF5
 SLP213=

0000011900
493
SACN62 CYXE 101800
METAR CYXE 101800Z 22008KT 15SM FEW130 BKN280 M11/M12 A2944 RMK
 AC1CI5 SLP007=

0000012700
494
SACN62 CYWK 101800
METAR CYWK 101800Z 22009KT 3SM -SN DRSN BKN015 OVC029 M14/M17 A2972
 RMK SF6SC2 SLP121=

0000008900
495
SANO34 ENMI 101750 RRA
METAR ENBN 101750Z 07015KT CAVOK M06/M13 Q1006=

0000019400
496
FTAG31 KWBC 101806
TAF
TAF SAZM 101700Z 1018/1118 14010KT 9999 FEW030 TX22/1118Z
      TN13/1110Z
      BECMG 1022/1101 18020G30KT CAVOK
      BECMG 1115/1118 15015KT=

0000134500
497
SPUS70 KWBC 101806
SPECI
KCRS 101802Z AUTO 20012KT 10SM BKN011 OVC015 17/16 A2984 RMK AO2
     RAE1754 CIG 007V013 P0000 T01720161=
KDMO 101802Z AUTO 16026G35KT 6SM -RA BR SCT003 BKN055 OVC070 08/07
     A2961 RMK AO2 PK WND 16035/1758 LTG DSNT N-E PRESFR P0001
     T00780072=
KERI 101802Z 19009KT 10SM OVC014 04/01 A3015 RMK AO2=
KFFC 101802Z AUTO 09004KT 1 1/2SM BR OVC004 08/08 A3016 RMK AO2
     T00830078=
KAHN 101803Z 04006KT 1 3/4SM -RA BR OVC005 07/06 A3019 RMK AO2
     P0000=
KARA 101803Z 13011KT 3SM SCT008 BKN013 OVC020 19/16 A3000 RMK AO2
     SFC VIS 10=
KCRG 101803Z 17010G17KT 10SM SCT019 SCT035 OVC046 24/19 A3013 RMK
     AO2 T02440189=
KDPA 101803Z 15009KT 1 1/4SM BR OVC004 01/00 A2987 RMK AO2=
KISW 101803Z AUTO 16005KT 2 1/2SM BR OVC005 M03/M04 A2981 RMK AO2
     T10281039=
KIXD 101803Z 14005KT 3/4SM BR SCT003 OVC007 03/03 A2962 RMK AO2
     T00330028=
KPAE 101803Z 19014KT 10SM BKN010 OVC018 08/05 A3007 RMK AO2=
KSMF 101803Z 34004KT 3SM BR FEW001 BKN250 07/06 A3033 RMK AO2=
KSPI 101803Z 16013G23KT 3SM -RA BR OVC004 03/02 A2980 RMK AO2
     P0000=
KVIH 101803Z AUTO 19016G24KT 2SM VCTS RA BR OVC004 05/05 A2976 RMK
     AO2 VIS 1V4 LTG DSNT ALQDS P0005 T00500050=
PAJZ 101807Z AUTO 00000KT 2SM BR OVC002 M06/M07 A2952 RMK AO2
     PWINO TSNO $=

0000166800
498
SAUS71 KWBC 101800
METAR
KABE 101751Z 00000KT 7SM OVC008 M01/M03 A3038=
KACK 101753Z 17008KT 10SM OVC050 03/00 A3044=
KACY 101754Z 13004KT 2 1/2SM -RA BR BKN060 OVC070 04/04 A3037=
KAGC 101753Z 18008KT 10SM SCT007 OVC029 07/04 A3020=
KAGS 101753Z 34006KT 3SM -RA BR BKN004 OVC010 08/08 A3019=
KAKR 101754Z AUTO 19008KT 4SM BR OVC004 03/02 A3016=
KALB 101751Z 17010KT 10SM SCT044 BKN055 BKN085 01/M04 A3035=
KAND 101756Z AUTO 05006KT 2 1/2SM -RA BR OVC004 08/07 A3021=
KAOO 101753Z AUTO 00000KT 8SM OVC011 01/M03 A3027=
KAPG NIL=
KART 101756Z AUTO 18008KT 7SM OVC021 01/M02 A3024=
KAVL 101754Z 16004KT 2SM BR OVC003 07/07 A3021=
KAVP 101754Z 28011KT 8SM FEW018 BKN075 01/M02 A3031=
KBAF 101753Z 23003KT 3/4SM R20/4000VP6000FT -SN BKN022 OVC034
     M03/M05 A3039=
KBDL 101751Z 00000KT 1SM R06/4000VP6000FT -SN BR SCT009 BKN013
     OVC023 M03/M04 A3039=
KBDR 101752Z 00000KT 1 1/4SM -FZRA BR OVC016 01/M01 A3041=
KBED 101756Z 26003KT 7SM OVC016 M01/M03 A3040=
KBFD 101753Z AUTO 16005KT 10SM OVC007 01/M02 A3017=
KBGM 101753Z 20006KT 10SM OVC065 M01/M03 A3024=
KBGR 101753Z 20008KT 10SM BKN200 M03/M10 A3036=
KBKL 101753Z 16010KT 5SM BR OVC020 03/02 A3014=
KBKW 101751Z AUTO 14007KT 10SM FEW026 OVC032 08/06 A3020=
KBOS 101754Z 22005KT 5SM BR BKN008 OVC026 M01/M03 A3042=
KBTV 101754Z 19010KT 5SM HZ FEW027 BKN049 OVC080 M02/M06 A3030=
KBUF 101754Z COR 20007KT 10SM OVC017 02/00 A3018=
KBUF 101754Z 20007KT 10SM OVC017 02/00 A3018=
KBVY 101753Z 23005KT 1 1/2SM -SN BR OVC009 M01/M03 A3040=
KBWI 101754Z 00000KT 1 1/4SM BR OVC005 02/00 A3036=
KCAE 101756Z 34004KT 4SM BR OVC005 10/09 A3020=

0000062000
499
FTUS53 KWBC 101806 AAA
TAF AMD
KBRL 101805Z 1018/1118 15010KT 2SM -RA BR OVC002
     FM102000 16009KT 1SM -RA BR OVC002
     FM110100 18003KT 1/2SM -RA FG OVC002
     FM110700 26005KT 1SM -FZRASN BR OVC003
     FM110900 27010KT 2SM -SN BR OVC004
     FM111300 28011KT 4SM BR VCSH OVC006=
KCID 101804Z 1018/1118 14010KT 1SM -DZ BR OVC002
     FM102100 14008KT 1SM -RA BR OVC002
     FM110000 18003KT 1/2SM -RA FG OVC002
     FM110400 26005KT 1SM -FZRASN BR OVC003
     FM110600 29011KT 1SM -SN BR OVC003
     FM111200 29012KT 4SM BR OVC004
     FM111500 29012KT 6SM BR OVC020=

0000062000
500
FTUS80 KWBC 101806 AAA
TAF AMD
KBRL 101805Z 1018/1118 15010KT 2SM -RA BR OVC002
     FM102000 16009KT 1SM -RA BR OVC002
     FM110100 18003KT 1/2SM -RA FG OVC002
     FM110700 26005KT 1SM -FZRASN BR OVC003
     FM110900 27010KT 2SM -SN BR OVC004
     FM111300 28011KT 4SM BR VCSH OVC006=
KCID 101804Z 1018/1118 14010KT 1SM -DZ BR OVC002
     FM102100 14008KT 1SM -RA BR OVC002
     FM110000 18003KT 1/2SM -RA FG OVC002
     FM110400 26005KT 1SM -FZRASN BR OVC003
     FM110600 29011KT 1SM -SN BR OVC003
     FM111200 29012KT 4SM BR OVC004
     FM111500 29012KT 6SM BR OVC020=

0000009100
501
SPUS41 KWBC 101806
SPECI
KERI 101802Z 19009KT 10SM OVC014 04/01 A3015=

0000123700
502
SAAK31 KWBC 101800
METAR
PABR 101753Z 31009KT 10SM CLR M26/M29 A2994=
PACD 101753Z 00000KT 10SM FEW050 M01/M04 A2935=
PAED 101758Z 26005KT 5SM -SN BR BKN003 OVC008 M04/M04 A2941=
PAEI 101758Z AUTO 00000KT 10SM BKN011 OVC060 M18/M20 A2957=
PAEN 101753Z 00000KT 1/4SM FZFG VV002 M04/M04 A2942=
PAFA 101753Z 00000KT 10SM FEW050 OVC085 M17/M21 A2958=
PAFR NIL=
PAFS 101756Z AUTO 03004KT 10SM -SN FEW002 OVC021 M14/M17 A2955=
PAFY NIL=
PAJN 101753Z 06006KT 10SM FEW012 BKN034 BKN049 BKN150 02/01
     A2952=
PAKN 101754Z 00000KT 10SM SCT004 OVC025 M02/M02 A2945=
PAKT 101753Z 18005KT 10SM FEW006 SCT036 BKN055 02/01 A2971=
PANC 101753Z 36003KT 7SM -SN BKN005 OVC013 M03/M04 A2941=
PAOM 101753Z 04008KT 10SM BKN090 M11/M15 A2963=
PAOR 101753Z 32003KT 8SM -SN BKN044 BKN055 M15/M17 A2939=
PAOT 101753Z 02005KT 10SM CLR M18/M23 A2978=
PARY 101756Z AUTO 00000KT 10SM CLR M19/M23 A2960=
PASC 101753Z 25012KT 10SM OVC030 M31/M34 A2989=
PASG NIL=
PASI 101753Z VRB03KT 10SM FEW016 BKN022 OVC038 03/02 A2958=
PATQ 101756Z AUTO 31007KT 10SM CLR M29/M33 A2996=
PAVD 101756Z 10SM FEW010 BKN070 BKN090 M04/M06 A2938=
PAWG 101756Z 00000KT 8SM FEW006 BKN020 BKN045 03/M01 A2965=
PFYU NIL=

0000102100
503
SABO41 KWBC 101800
METAR
SLCA 101800Z 12004KT 9999 FEW036 33/21 Q1010=
SLCN NIL=
SLCO 101800Z 32005KT 9999 SCT017 BKN080 BKN200 29/23 Q1010=
SLCP 101800Z 34010KT 9999 BKN015 28/23 Q1012=
SLJE 101800Z 00000KT 9999 SCT017 FEW027CB BKN200 31/23 Q1012=
SLJO 101800Z 32008KT 9999 SCT017 31/24 Q1009=
SLMG 101800Z 32010KT 9999 SCT017 FEW023CB 30/24 Q1010=
SLOR 101800Z 10017KT 9999 FEW015 19/02 Q1032=
SLPO 101800Z 09008KT 9999 NSC 16/M02 Q1035=
SLPS 101800Z 36015KT 8000 TS VCSH BKN020 FEW025CB 32/25 Q1008=
SLRB 101800Z 33010KT 9999 SCT020 32/24 Q1011=
SLRI 101800Z 33008KT 9999 BKN017 FEW020CB BKN200 31/23 Q1010=
SLRQ 101800Z 33004KT 9999 FEW013 BKN016 29/26 Q1008=
SLRY 101800Z 34008KT 9999 SCT015 BKN030 28/23 Q1010=
SLSA 101800Z 32010KT 9999 BKN020 30/24 Q1009=
SLSI 101800Z 33015KT 9999 SCT017 31/24 Q1010=
SLSU 101800Z 08006KT 9999 FEW023 22/10 Q1026=
SLVG NIL=
SLVM 101800Z 36010KT 9999 NSC 36/24 Q1005=
SLYA 101800Z 36008KT 9999 NSC 34/24 Q1006=
SLZO NIL=

0000068500
504
SABZ41 KWBC 101800
METAR
SBAA NIL=
SBAF NIL=
SBAR 101800Z 11013KT 9999 FEW018 29/21 Q1011=
SBBG NIL=
SBBH NIL=
SBBI NIL=
SBBU NIL=
SBCJ 101800Z 06005KT 9999 SCT020 25/21 Q1013=
SBCO NIL=
SBCR 101800Z 36012KT 9999 SCT025 FEW030TCU 33/22 Q1008=
SBCT 101800Z 33006KT 9999 SCT035 FEW040TCU 31/11 Q1016=
SBCV NIL=
SBCY 101800Z 01005KT 9999 SCT020 SCT100 31/21 Q1010=
SBCZ 101800Z 31005KT 9999 SCT030 BKN100 29/24 Q1010=
SBDN NIL=
SBFL 101800Z 36010KT 9999 FEW030 FEW035TCU 31/22 Q1009=
SBFN 101800Z 13016KT 9999 SCT021 28/20 Q1011=
SBGO 101800Z 29010KT 9999 SCT040 FEW045TCU 28/16 Q1013=
SBGW NIL=
SBHT NIL=
SBIH NIL=
SBIL NIL=

0000089800
505
SAAK32 KWBC 101800
METAR
PABA 101801Z AUTO 27020KT 3SM -SN M26/M29 A2985=
PABI 101753Z 00000KT 4SM -SN BR BKN049 OVC070 M18/M20 A2949=
PACZ 101755Z 11010G14KT 10SM SCT048 M03/M06 A2941=
PADK 101756Z AUTO 24022G27KT 10SM FEW028 BKN035 OVC046 04/01
     A2895=
PADL NIL=
PADQ 101753Z 28004KT 10SM FEW035 M03/M05 A2945=
PAEH 101755Z 13012G19KT 10SM -RA FEW014 BKN044 01/M01 A2936=
PAFB 101755Z 09003KT 7SM SCT070 OVC090 M19/M22 A2958=
PAGA 101758Z AUTO 00000KT 10SM CLR M23/M25 A2968=
PAIM 101755Z AUTO 17005KT 10SM CLR M19/M26 A2957=
PALU 101755Z AUTO 08007KT 10SM OVC012 M18/M20 A3004=
PASV 101755Z AUTO 05001KT 10SM -SHSN OVC005 M13/M14 A2939=
PASY 101756Z AUTO 03031G37KT 8SM -SN FEW010 BKN013 OVC027 00/00
     A2878=
PATC 101755Z AUTO 03021KT 10SM CLR M19/M21 A2973=
PATL 101755Z AUTO 09004KT 10SM -SN FEW011 OVC040 M14/M15 A2953=
PBTI NIL=

00000000