0000015400
286
SAAF13 LFPW 102300 RRB
METAR GBYD 102300Z 01005KT CAVOK 20/16 Q1013=
METAR GVAC 102300Z 03006KT 9999 SCT014 BKN200 20/15 Q1016 NOSIG=

0000009900
287
SAAF27 LFPW 102300 RRB
METAR FGBT 102300Z 14002KT 9999 FEW010 26/25 Q1011 NOSIG=

0000016700
288
FTCN33 CWAO 102300 AAA
TAF AMD CYIO 102312Z 1023/1107 17008KT P6SM -SN OVC030 TEMPO
     1023/1107 1SM -SHSN OVC020
    RMK NXT FCST BY 110100Z=

0000080100
289
SAHK31 VHHH 102300
METAR VHHH 102300Z 06009KT 7000 FEW028 14/11 Q1024 NOSIG=
METAR RCTP 102300Z 06004KT 030V090 9999 FEW020 15/12 Q1024 NOSIG
RMK A3025=
METAR RCKH 102300Z 07005KT 9999 FEW016 16/13 Q1024 NOSIG RMK A3024
=
METAR RCSS 102300Z 10006KT 9999 FEW025 14/12 Q1025 NOSIG RMK A3027
=
METAR VMMC 102300Z 04009KT 360V070 6000 SCT025 15/11 Q1024 NOSIG=
METAR RPLL 102300Z 02004KT 300V080 9000 FEW023 SCT300 23/19 Q1016
NOSIG RMK A3001=
METAR RPVM 102300Z 36016KT 9999 FEW018CB OVC090 25/23 Q1013 RERA
A2992 CB E AND SE=
METAR RPMD 102300Z
36006KT 8KM -RA SCT016 BKN090 OVC290 24/23 Q1011=
METAR RPLB 102300Z 07007KT 9999 FEW040 OVC300 23/17 Q1005 NOSIG=
METAR RPLI 102300Z NIL=
METAR RPMZ 102300Z 00000KT 9999 -RA FEW018 OVC120 25/24 Q1012 A2990=

0000125300
290
SPUS70 KWBC 102312
SPECI
PADU 102308Z 14013G23KT 7SM -RA SCT006 OVC014 03/01 A2917 RMK AO2
     VIS NE 5 CIG LWR NE P0000=
PAIL 102308Z 00000KT 10SM OVC014 M02/M04 A2947 RMK AO2=
KEST 102308Z AUTO 24005KT 3/4SM BR VV003 M01/M02 A2953 RMK AO2
     T10111017=
KMGY 102308Z AUTO 15014KT 7SM OVC004 07/07 A2991 RMK AO2
     T00720067=
KPIT 102308Z 14006KT 10SM OVC009 08/06 A3008 RMK AO2=
KPWK 102308Z 16012KT 5SM -RA BR OVC006 03/02 A2967 RMK AO2
     P0004=
KRKS 102309Z AUTO 28024G39KT 10SM SCT026 BKN032 M01/M06 A2987 RMK
     AO2 PK WND 28039/2306 T10111061=
KSRC 102308Z AUTO 31009KT 1 1/2SM RA BR OVC001 08/08 A2977 RMK AO2
     TSNO P0004 PRESRR=
KTOI 102308Z AUTO 11004KT 1 1/2SM BR OVC002 13/12 A3004 RMK AO2
     T01330122=
KY50 102308Z AUTO 09006KT 1 3/4SM -FZRA OVC002 M01/ A2963 RMK AO2
     TSNO P0000 $=
KAND 102309Z AUTO 07006KT 3SM BR OVC004 08/08 A3013 RMK AO2=
KJEF 102309Z 14007KT 10SM SCT013 08/06 A2958 RMK AO2=
KPTW 102309Z AUTO 00000KT 1 3/4SM BR OVC004 01/01 A3032 RMK AO2
     T00110006=
KWST 102309Z AUTO 00000KT 1SM BR OVC004 02/01 A3037 RMK AO2 RAE05
     P0000 T00170011=
PABA 102309Z AUTO 27021KT 3/4SM -SN OVC022 M26/M29 A2986 RMK AO2
     P0000 FZRANO=

0000009100
291
SPUS31 KWBC 102312
SPECI
KPIT 102308Z 14006KT 10SM OVC009 08/06 A3008=

0000036200
292
SAAG31 KWBC 102300 RRA
METAR
SAAR 102300Z 14007KT 9999 FEW038CB BKN100 29/20 Q1007=
SARC 102300Z 05002KT 9999 FEW040 FEW050CB SCT200 33/24 Q1005=
SARE 102300Z 05002KT 8000 FEW045CB BKN200 32/25 Q1005=
SARF 102300Z NIL=
SASJ 102300Z 32006KT CAVOK 30/16 Q1007=
SAWE 102300Z NIL=
SAZM 102300Z 00000KT 9999 FEW002 SCT100 20/11 Q1010=

0000026200
293
SAAG41 KWBC 102300 RRA
METAR
SANT 102300Z 27002KT 5000 HZ FEW040 FEW045CB BKN100 32/22
     Q1003=
SARL 102300Z 05010KT 9999 FEW025 FEW045CB SCT100 BKN200 24/21
     Q1007=
SARL 102300Z NIL=
SAZN 102300Z 18004KT CAVOK 27/M00 Q1012=

0000058200
294
SABZ41 KWBC 102300 RRA
METAR
SBAF 102300Z 08007KT 9999 FEW025 30/21 Q1011=
SBBH 102300Z 09007KT CAVOK 24/18 Q1017=
SBBI 102300Z 02004KT 9999 TS BKN025 FEW030CB SCT100 26/18
     Q1016=
SBBU 102300Z 09002KT 9999 FEW045 29/21 Q1013 RETS=
SBCO 102300Z 36006KT 8000 -RA BKN047 OVC100 24/// Q1013 RETS=
SBDN 102300Z 10008KT CAVOK 28/18 Q1011=
SBGW 102300Z 23005KT 9999 FEW025 SCT100 23/17 Q1015=
SBHT 102300Z 00000KT CAVOK 22/22 Q1010=
SBIH 102300Z 00000KT 9999 FEW018 SCT100 26/22 Q1009=
SBIL 102300Z 24003KT 9999 VCSH SCT020 BKN090 24/23 Q1014=

0000055400
295
SABZ42 KWBC 102300 RRA
METAR
SBJR 102300Z 25002KT CAVOK 26/23 Q1011=
SBME 102300Z 09008KT CAVOK 25/23 Q1014=
SBMT 102300Z 14003KT CAVOK 24/19 Q1016=
SBSC 102300Z 25003KT CAVOK 28/22 Q1011=
SBSM 102300Z 06004KT 7000 -RA SCT030 BKN100 22/21 Q1009 RETSRA=
SBUR 102300Z 01005KT 9999 VCTS FEW035 FEW050CB OVC100 21/16 Q10
     16=
SBUR 102300Z 01005KT 9999 VCTS FEW035 FEW050CB OVC100 21/16
     Q1016=
SBVH 102300Z 33005KT 9999 SCT015 BKN090 21/21 Q1011=
SBYS 102300Z 33008KT 9999 SCT040 FEW045TCU SCT080 24/18 Q1014=

0000055200
296
SABZ43 KWBC 102300 RRA
METAR
SBAN 102300Z 11005KT 9999 TS SCT030 FEW040CB SCT090 21/16
     Q1017=
SBIZ 102300Z 23003KT 9999 -RA FEW015 FEW025TCU SCT030 26/24 Q10
     10=
SBIZ 102300Z 23003KT 9999 -RA FEW015 FEW025TCU SCT030 26/24
     Q1010=
SBMK 102300Z 10005KT 9999 VCTS FEW045 FEW050CB 24/16 Q1015=
SBPJ 102300Z 05002KT 9999 FEW020 SCT090 23/21 Q1012=
SBQV 102300Z 10009KT 9999 SCT008 21/19 Q1018=
SBTK 102300Z 29002KT 9999 FEW030TCU 27/24 Q1008=
SBUL 102300Z 05010KT 9999 VCTS FEW045CB SCT100 22/18 Q1018=

0000018900
297
SACA33 KWBC 102300 RRC
METAR
TFFF 102300Z AUTO 05009KT 010V080 9999 FEW030 BKN037 BKN044 25/ 20
     Q1015=
TLPC 102300Z 08006KT 9999 BKN020 24/23 Q1015 TEMPO SHRA=

0000013600
298
SASA41 KWBC 102300 RRB
METAR
SKMD 102300Z 06005KT 9999 8000N TSRA BKN030 SCT035CB 19/16 A3000
     RMK CB/W/NW/N=

0000043400
299
FCUK31 EGGY 102300
TAF EGHH 102300Z 1100/1109 21010KT 9999 SCT025 TEMPO 1100/1105 8000
    -RA BKN014 PROB30 TEMPO 1100/1105 RADZ BKN009 BECMG 1103/1106
    30006KT=
TAF EGHI 102300Z NIL=
TAF EGKA 102300Z NIL=
TAF EGKB 102300Z NIL=
TAF EGLC 102300Z NIL=
TAF EGLF 102300Z NIL=
TAF EGMC 102300Z 1100/1109 21012KT 9999 FEW015 SCT030 PROB40 TEMPO
    1100/1107 8000 -RA BKN009 BECMG 1105/1108 29010KT=

0000022700
300
FCUK32 EGGY 102300
TAF EGNC 102300Z NIL=
TAF EGNH 102300Z NIL=
TAF EGNJ 102300Z NIL=
TAF EGNO 102300Z NIL=
TAF EGNR 102300Z NIL=
TAF EGNS 102300Z NIL=
TAF EGNV 102300Z NIL=
TAF EGSD 102300Z NIL=

0000050300
301
FCUK33 EGGY 102300
TAF EGHE 102300Z NIL=
TAF EGHQ 102300Z NIL=
TAF EGJA 102300Z NIL=
TAF EGJB 102257Z 1100/1109 20011KT 9000 BKN006 TEMPO
    1103/1105 4000 -RA BKN003 BECMG 1105/1107 34011KT 9999
    NSW SCT020=
TAF EGJJ 102257Z 1100/1109 20011KT 4000 -RA BKN003 TEMPO
    1100/1104 6000 BKN005 BECMG 1107/1109 34011KT 9999 NSW
    SCT020=
TAF EGTE 102300Z 1100/1102 21009KT 9999 SCT030 TEMPO 1100/1102 8000
    -RA BKN012 PROB30 TEMPO 1100/1102 4000 RADZ BKN009=

0000045800
302
FCUK34 EGGY 102300
TAF EGBE 102300Z 1100/1102 21008KT 9999 SCT040 TEMPO 1100/1102 8000
    -RA BKN012 PROB30 TEMPO 1100/1102 RA BKN008=
TAF EGBJ 102300Z NIL=
TAF EGCN 102300Z 1100/1109 21012KT 9999 SCT040 TEMPO 1100/1103 8000
    -RA BKN014 BECMG 1102/1105 30007KT PROB30 TEMPO 1103/1106 4000
    SHRA BKN014=
TAF EGMD 102300Z NIL=
TAF EGMH 102300Z NIL=
TAF EGSC 102300Z NIL=
TAF EGSH 102300Z NIL=
TAF EGTC 102300Z NIL=

0000028800
303
FCUK35 EGGY 102300
TAF EGAC 102300Z NIL=
TAF EGAE 102300Z NIL=
TAF EGEC 102300Z NIL=
TAF EGEO 102300Z NIL=
TAF EGPE 102304Z 1100/1109 21008KT 9999 FEW040 PROB30 TEMPO
    1103/1109 22015G25KT 4000 SHRASN BKN006=
TAF EGPI 102300Z NIL=
TAF EGPN 102300Z NIL=

0000056700
304
FCUK36 EGGY 102300
TAF EGPA 102304Z 1100/1109 26014KT 9999 SCT020 PROB40 TEMPO
    1100/1109 5000 SHRAGS BKN008=
TAF EGPB 102304Z 1100/1109 26020KT 9999 FEW030 BECMG 1100/1103
    29020KT PROB30 TEMPO 1100/1109 6000 SHRA BKN010=
TAF EGPC 102304Z 1100/1109 25010KT 9999 FEW030 PROB30 TEMPO
    1100/1105 7000 SHRA BKN010 PROB30 TEMPO 1105/1109 4000 SHRASN
    BKN006=
TAF EGPL 102300Z NIL=
TAF EGPM 102300Z NIL=
TAF EGPO 102302Z 1100/1109 24008KT 9999 FEW030 PROB40 TEMPO
    1100/1109 3000 SHRASN BKN004=
TAF EGPU 102300Z NIL=

0000055000
305
FTJD31 OJAI 102300
TAF OJAM 102250Z 1100/1206 25004KT 4000 BR NSC
       TEMPO 1102/1107 0800 FG SCT010
       BECMG 1106/1108 26010KT 5000 HZ SCT030 SCT035
       TEMPO 1203/1206 VRB03KT 3000 BR SCT025=
TAF OJAI 102250Z 1100/1206 VRB03KT 2000 BR NSC
       TEMPO 1100/1108 0800 FG SCT010
       PROB40 TEMPO 1102/1107 0200 FG
       BECMG 1107/1109 26008KT 6000 SCT030 SCT035
       TEMPO 1202/1206 VRB03KT 3000 BR SCT025=
TAF OJAQ 102250Z 1100/1206 36005KT 6000 FEW030
       BECMG 1107/1109 35012KT 8000 NSC=

00000000