0000191300
886
SZAU01 AMMC 110915
CREX++
T000103 A001 D01021 D06025++
-1927750 14705860 59260 2014 01 11 09 08 3030 11 07 00 01
02513 0176 02511 0175 02508 0174 02511 0178 02507 0175 02506 0176+
-2316110 15079000 59670 2014 01 11 09 08 3003 11 07 00 01
03503 0189 03505 0195 03498 0192 03503 0199 03503 0204 03513 0217+
-3447330 15091170 60420 2014 01 11 09 08 2950 11 07 00 01
00946 -0008 00941 -0011 00945 -0005 00945 -0002 00944 -0001 00937 -0005+
-4105000 14591500 60910 2014 01 11 09 08 2888 11 07 00 01
02917 -0016 02914 -0023 02921 -0019 02929 -0015 02929 -0018 02933 -0018+
-4254640 14793080 61170 2014 01 11 09 08 2893 11 07 00 01
01304 0140 01309 0147 01305 0144 01303 0143 01298 0139 01290 0132+
-3834390 14161360 61410 2014 01 11 09 08 2905 11 07 00 01
00604 0012 00619 0026 00647 0052 00629 0034 00610 0014 00639 0042+
-3214890 13364170 62000 2014 01 11 09 08 2963 11 07 00 01
01314 0173 01314 0174 01317 0178 01313 0175 01313 0176 01313 0176+
-3387080 12189720 62080 2014 01 11 09 08 2948 11 07 00 01
00942 0106 00927 0090 00934 0096 00930 0090 00926 0085 00931 0089+
-3182560 11573860 62237 2014 01 11 09 08 2973 11 07 00 01
01017 0086 01014 0083 01019 0087 01015 0083 01016 0083 01005 0071+
-2422000 11339750 62385 2014 01 11 09 08 //// 11 07 00 01
01444 -0049 01398 -0096 01401 -0094 01448 -0047 01417 -0079 01371 -0126+
-2181670 11419110 62430 2014 01 11 09 08 //// 11 07 00 01
02115 -0066 02111 -0072 02110 -0074 02129 -0057 02121 -0066 02126 -0063+
-1800080 12221830 62650 2014 01 11 09 08 3043 11 07 00 01
06725 0088 06732 0089 06739 0089 06747 0093 06754 0093 06762 0095+
-1247190 13084580 63230 2014 01 11 09 08 3050 11 07 00 01
04675 0186 04669 0184 04663 0184 04657 0183 04650 0181 04644 0182+
-1386000 13641580 63511 2014 01 11 09 08 3043 11 07 00 01
01857 0176 01858 0176 01860 0177 01861 0178 01861 0177 01864 0179++
7777

0000047300
887
SZPA01 AMMC 110915
CREX++
T000103 A001 D01021 D06025++
0136250 17293000 67590 2014 01 11 09 08 3017 11 07 00 01
01217 -0037 01224 -0032 01226 -0031 01219 -0039 01228 -0031 01229 -0031+
0710610 17137250 67680 2014 01 11 09 08 3013 11 07 00 01
00830 0074 00835 0077 00841 0082 00843 0084 00845 0084 00848 0086+
0698060 15820000 67950 2014 01 11 09 08 3023 11 07 00 01
00588 0051 00589 0052 00586 0049 00587 0050 00583 0046 00587 0051++
7777

0000010200
888
SIAA21 EDZW 110900
AAXX 11094
89002 42999 60906 11025 21059 39871 49925 52012 85031=
0000011000
889
UANT99 KDDL 110913
ARP DLH435 5406N02420W 0913 F370 MS57 223/66 KT
DAIKR QXT EUA 110913 J90A
0000011000
890
UANT99 KDDL 110913
ARP AAL98 5023N04339W 0913 F370 MS63 317/48 KT
N366AA DDL XXW 110913 F39A
0000077300
891
SIAJ40 UBBB 110900
AAXX 11091
37661 42998 02901 10081 21071 39400 40154 57014=
37675 42999 00501 10126 21044 39433 40071 57027=
37729 42998 02005 10027 20039 38510 57008=
37735 42999 02704 10079 21094 39783 40159 57010=
37740 42999 02701 10053 21032 39356 40164 57014=
37749 42998 00901 10057 21013 30055 40173 57027=
37832 42998 03002 10102 21038 40170 57019=
37851 42998 01607 10071 20023 30051 40120 57041
333   91118=
37864 32997 21908 10068 20014 40118 57032 80001=
37905 42997 22701 10077 21019 40184 58027 82040=
37923 42597 32908 10030 21008 40138 58034 83200=
37925 42998 52702 10062 21010 30201 40171 57020 80002=
37985 42597 71401 10063 20016 30177 40163 58027 87500=
37989 42598 80901 10057 20038 40187 57021 885//=
0000108600
892
SIUZ20 UTTW 110900
AAXX 11091
38141 42998 30000 10070 21030 30046 40203 58016 83030=
38149 42698 20000 10069 21013 30130 40206 52009 82100=
38178 429// 02102 10017 21082 39921 40212 58013=
38262 42998 21801 10075 21036 30141 40232 58022 80002=
38264 42798 21102 10043 21018 30113 40208 57017 82500=
38396 42997 09901 10064 21035 30084 40209 58021=
38403 42997 02402 10049 21066 30079 40201 58009=
38413 42998 02904 10094 21038 39940 40229 57006=
38457 42999 00901 10092 21103 39646 40229 57013=
38462 42999 00000 10046 21063 38788 48533 57011=
38565 32998 00302 10100 21002 39632 40209 57020=
38579 32999 20801 10099 21064 39804 40219 58013 82041=
38583 32997 00502 10051 21005 39919 40243 57016=
38611 41993 01602 11032 21042 39714 40311 57024 74844=
38618 41995 53301 10005 21033 39566 40274 57025 71022 80008=
38683 42997 41606 10092 21054 39945 40220 58026 80001=
38696 32999 60501 10090 21071 39369 40219 58019 84054=
38812 42997 62203 10086 21041 39755 40207 57019 80001=
38927 32960 71002 10102 21060 39877 40252 57031 80001=
0000042800
893
SIGG20 UGGG 110900
AAXX 11091
37395 42999 62702 10103 21019 30073 40212 52012 83035=
37409 42598 52708 10046 21081 38768 48495 52008 83430
  333 95032=
37432 42697 60000 10050 21056 38931 48473 57046 86500=
37514 42699 60000 11053 21108 39060 40268 58026 86500
  333 95041=
37545 42599 63610 10064 21020 39657 40172 57020 82144=
37621 42699 41401 10091 21012 39524 40158 57020 80031=
37484 NIL=
0000011000
894
UANT01 CWAO 110913
ARP ETH502 5759N05010W 0913 F340 MS55 276/56 KT
ETAOP QXS UAK 110913 L31A
0000015800
895
SIVC10 EHDB 110900 RRA
BBXX
TBWUK67 11094 99012 70803 41598 52513 10274 20233 40096 55000 76022
85800 22253 00260 20301 327// 40802 80246=
0000015200
896
SIGR20 LGAT 110900 RRA
AAXX 11094
16622 41230 20000 10082 20073 30244 40245 52013 71021 82600 333
      91104 555 70000 77Y// 7FY//=
0000131900
897
SITU61 LTAA 110900
AAXX 11094
17085 42670 71703 10035 21041 39772 40280 50007 84550
 333 84640 87360=
17089 42970 30301 11040 21142 38435 48524 58008 83030
 333 83360=
17099 41920 00000 11188 21188 38379 48526 58011 71041=
17100 41515 80201 11097 21116 39270 40348 58009 77722 887//
 333 88720 96010=
17110 4//// /0305 10125 20124 30154 40250 50012=
17111 42970 30302 10131 20087 30208 40245 52013 83030
 333 83360 91107 92418=
17118 42660 59902 10031 21020 39987 40281 50009 81101 333 81835 85070=
17119 42970 31604 10114 20011 30242 40247 50012 80001
 333 83070 91111 92417=
17120 42965 50703 10018 21020 39604 40266 50010 85050
 333 85359 91104=
17127 41356 81302 11020 21036 39276 40300 50012 71022 886//  333 88709=
17129 41356 83503 11010 21025 39311 40293 50008 71022 886// 333 88709=
17130 41450 81301 11013 21033 39216 40293 50009 71022 886//
 333 88710 91105=
17131 41456 60601 11011 21038 39298 40294 50010 71022 86600
 333 86712=
17135 42465 82102 11005 21034 39379 40295 50007 8652/
 333 83712 83633 88460 91108=
17143 41657 31203 10132 20069 30222 40239 52008 70511 83200
 333 83835 91105=
17162 41975 21101 11032 21043 38887 48520 56006 70142 82030  333 82360=
17165 42670 32002 10021 21093 39081 40253 57010 81501
 333 81640 83070=
0000009400
898
SASB31 VCBI 110910
METAR VCBI 110910Z 32008KT 9999 SCT016 31/22  Q1009 NOSIG=

0000013400
899
SIIN90 VILK 110900
AAXX 11094
42372 21393 83603 10164 20150 40159 75044 8672/
  333 58012 6990/ 84708 86615 88458=
0000009200
900
SAIN90 VABB 110910
METAR VABB 110910Z 30012KT 3500 FU NSC 24/06 Q1013 NOSIG=
0000025700
901
SAIN35 VIDP 110900
METAR VAUD 110900Z 02008KT 3000 HZ NSC 18/04 Q1018=
METAR VIBR 110900Z 00000KT 7000 FEW035 12/05 Q1018=
METAR VIDN 110900Z 20005KT 6000 SCT030 BKN040 18/07 Q1017=
METAR VILD 110900Z 32002KT 5000 HZ NSC 19/3 Q1019=

0000055500
902
SIIN90 VEBS 110900
AAXX 11094
42971 31995 01808 10306 20162 40134 70500
  333 59002=
42891 32596 21801 10268 20126 40133 82500
  333 58000=
42973 31995 01402 10270 20156 40145 70500
  333 58000=
42976 31995 11603 10260 20185 40146 70500 80001
  333 58004=
42886 31996 31802 10280 20157 40122 70500 82031
  333 59002 82360 81075=
42883 31595 40000 10284 20184 40115 70520 84600
  333 59002=
43053 32996 01404 10272 20192 40143
222// 20701
  333 58005=
42895 31995 01402 10254 20148 40138 70500
  333 58002=
0000011000
903
SIIN90 VAGO 110900
AAXX 11094
43192 31996 42708 10298 20187 40120 70511 80001
  333 58011=
0000009800
904
SIIN90 VEBS 110900
AAXX 11093
43049 32996 01106 10288 20210 40140
  333 58001=
0000129000
905
SITU60 LTAA 110900
AAXX 11094
17020 42665 70000 10083 20050 30198 40239 50011 84570
 333 84634 87360 91103=
17030 42670 53401 10127 21012 30223 40228 51009 83250
 333 83836 85360 92438=
17033 42670 60601 10116 20050 30219 40224 53004 83250
 333 83834 86360 92428=
17040 42670 52602 10137 20024 30211 40222 50013 83250
 333 83840 85360 92428=
17045 42970 50202 10028 21074 39484 40243 50000 85050
 333 85360=
17046 42662 63202 11153 21188 38188 48550 57012 84520
 333 84635 86457=
17052 42970 23301 10125 20048 39967 40248 52011 82030
 333 82360 91103=
17059 42970 22903 10106 20072 30201 40248 52014 82040
 333 82360 91108 92428=
17061 41950 00502 10118 20066 30179 40251 52011 71000
 333 91106 92416=
17063 41957 02204 10111 20022 30129 40250 51015 70500=
17068 41558 40803 10109 20026 30163 40250 50013 70511 81101
 333 81830 84070 91105=
17069 42965 32208 10090 21008 30210 40248 50008 83030
 333 83360 91117=
17072 41970 02401 10029 21066 30074 40257 50008 70141
 333 91103=
17078 42665 61201 10037 21014 39920 40243 50007 84550
 333 84634 86360 91103=
17080 41658 80401 11014 21041 39374 40294 51010 71022 8552/
 333 85635 88460 91104=
17082 42560 70000 10016 21037 39627 40276 50005 87700
 333 87723 91106=
00000000