0000009700
826
SACS31 MROC 102253
METAR
MROC 102300Z 10012KT 9999 FEW030 25/12 A2993 NOSIG=

0000016100
827
SAVN34 SVSR 102300
METAR SVSR 102300Z /////KT CAVOK 28/XX Q1011=
METAR SVVP 102300Z NIL=
METAR SVCL 102300Z NIL=
METAR SVPA 102300Z NIL=

0000021700
828
FTMV31 VRMM 102300
TAF VRMM 102300Z 1100/1206 06015KT 9999 FEW018 SCT280 TEMPO 1100/1106
FEW019CB SCT120=
TAF VRMG 102300Z 1100/1206 07006KT 9999 FEW018 BKN260 TEMPO 1100/1106
SCT017 FEW018CB=

0000053200
829
SADN31 EKCH 102250
METAR EKCH 102250Z 26012KT 9999 FEW016 BKN040 06/04 Q1007 NOSIG=
METAR EKBI 102250Z 24009KT 9999 SCT011 BKN032 BKN150 05/04 Q1007=
METAR EKYT 102250Z 25013KT 9999 FEW015 BKN035 BKN160 07/05 Q1004=
METAR EKRK 102250Z AUTO 26015KT 9999NDV BKN037/// BKN042///
05/03 Q1007=
METAR EKAH 102250Z AUTO 24009KT 210V270 9999NDV BKN036/// 06/03
Q1006=
METAR EKEB 102250Z AUTO 23010KT 9999NDV FEW015/// BKN140///
06/04 Q1008=
METAR EKRN 102250Z AUTO 26019KT 9999NDV OVC019/// 06/06 Q1008=

0000016500
830
SADN32 EKCH 102250
METAR EKVJ 102253Z NIL=
METAR EKSB 102253Z NIL=
METAR EKSN 102253Z NIL=
METAR EKVD 102253Z NIL=
METAR EKOD 102253Z NIL=

0000049600
831
SADN34 EKCH 102250
METAR EKHN 102250Z AUTO 24007G18KT 190V290 7000NDV BKN012///
BKN140/// ///// Q1010=
METAR EKHR 102250Z AUTO 24017KT 9999NDV FEW017/// 08/06 Q1008=
METAR EKHA 102250Z AUTO 23022KT 9999NDV 07/06 Q1008=
METAR EKHD 102250Z AUTO 24021KT 9999NDV 07/06 Q1005=
METAR EKTE 102250Z AUTO 22020KT 9999NDV SCT009 BKN048 07/06 Q1007=
METAR EKGC 102250Z AUTO 23021KT 9999NDV 07/06 Q1007=
METAR EKAV 102250Z AUTO 25017KT 9999NDV -SHRA  BKN014/// 06/04
Q1005=

0000009700
832
SACS31 MROC 102300
METAR
MRPV 102300Z 08016KT 9999 FEW035 23/14 A2996 NOSIG=

0000032800
833
SAGL31 BGSF 102250
METAR BGSF 102250Z AUTO 06010KT 9999NDV  FEW230/// M14/M21 Q0996=
METAR BGBW 102253Z NIL=
METAR BGGH 102250Z 11009KT 9999 FEW030 M07/M16 Q0993=
METAR BGJN 102250Z AUTO 10022KT 9999NDV  BKN230/// M09/M19 Q0995=
METAR BGKK 102250Z AUTO /////KT 1000NDV  -SN BKN014/// M01/M02 
Q0984=

0000037300
834
FTCN31 CWAO 102200 AAA
TAF AMD CYQQ 102253Z 1022/1118 14010KT P6SM SCT012 OVC025 TEMPO
     1022/1102 P6SM -SHRA SCT006 OVC012
    FM110200 15018G28KT P6SM -RA SCT006 OVC020 TEMPO 1102/1110 2SM RA
     BR OVC006
     BECMG 1102/1104 14025G40KT
     BECMG 1107/1109 15018G28KT
    FM111000 18012G22KT P6SM SCT030
    RMK NXT FCST BY 110000Z=

0000050400
835
SAUK31 EGGY 102250
METAR EGBB 102250Z 21012KT 9999 SCT029 BKN035 08/07 Q1010=
METAR EGCC 102250Z 23012KT 4000 DZ BKN008 BKN013 08/06 Q1008=
METAR EGKK 102250Z 21008KT 9999 SCT012 BKN026 08/06 Q1014=
METAR EGLL 102250Z 21009KT 9999 -RA BKN043 08/07 Q1013=
METAR EGPF 102250Z 22007KT 9999 FEW019 01/00 Q1008=
METAR EGPH 102250Z 24008KT CAVOK 02/01 Q1007=
METAR EGPK 102250Z 23004KT 200V280 9999 SCT036 04/02 Q1008=
METAR EGSS 102250Z 20009KT 9999 FEW007 SCT040 07/06 Q1013=

0000010700
836
SAUK31 EGGY 102250 CCA
METAR COR EGLL 102250Z 21009KT 9999 -RA BKN043 08/07 Q1013 NOSIG=

0000011300
837
SPUS41 KWBC 102253
SPECI
KDOV 102248Z AUTO 07003KT 4SM R01/4500FT -RA BR OVC003 03/03 A3030=

0000046700
838
SAUK32 EGGY 102250
METAR EGAA 102250Z 24005KT CAVOK 02/01 Q1010=
METAR EGAC 102250Z NIL=
METAR EGFF 102250Z 24010KT 9999 RA FEW023 BKN028 08/07 Q1011=
METAR EGGW 102250Z 21008KT 8000 -DZ SCT004 SCT008 07/06 Q1012=
METAR EGLC 102250Z AUTO 21010KT 9999 -RA SCT030/// BKN045///
    09/07 Q1013 RERA=
METAR EGNM 102250Z NIL=
METAR EGNX 102250Z 22016KT 9999 FEW026 BKN045 08/06 Q1009=
METAR EGPD 102250Z 30008KT CAVOK 03/M03 Q1005 NOSIG=

0000038200
839
SAUK33 EGGY 102250
METAR EGGD 102250Z 20009KT 9999 -RA FEW015 BKN027 08/07 Q1011=
METAR EGGP 102250Z 30007KT 9999 VCSH SCT006 SCT015 BKN029 08/07
    Q1009=
METAR EGHI 102250Z NIL=
METAR EGNS 102250Z NIL=
METAR EGNT 102250Z 26006KT 9999 FEW016 SCT032 05/04 Q1007=
METAR EGNV 102250Z NIL=
METAR COR EGPB 102250Z 27017KT 9999 FEW010 06/03 Q0999 NOSIG=

0000024900
840
SAUK34 EGGY 102250
METAR EGHE 102250Z NIL=
METAR EGHK 102250Z NIL=
METAR EGHQ 102250Z NIL=
METAR EGJA 102250Z NIL=
METAR EGJB 102250Z NIL=
METAR EGJJ 102250Z NIL=
METAR EGTE 102250Z 22012KT 9999 -RA SCT020 09/07 Q1012=

0000031700
841
SAUK35 EGGY 102250
METAR EGHH 102250Z 23006KT 9999 FEW012 SCT046 09/08 Q1013=
METAR EGKA 102250Z NIL=
METAR EGKB 102250Z NIL=
METAR EGLF 102250Z NIL=
METAR EGMC 102250Z 22011KT 9999 -RA FEW015 BKN031 09/07 Q1013=
METAR EGMD 102250Z NIL=
METAR EGMH 102250Z NIL=
METAR EGTC 102250Z NIL=

0000034300
842
SAUK36 EGGY 102250
METAR EGBE 102250Z 20009KT 9999 -RA FEW015 BKN035 08/06 Q1010=
METAR EGBJ 102250Z NIL=
METAR EGCN 102250Z 20014KT 9999 NSC 08/06 Q1009=
METAR EGSC 102250Z NIL=
METAR EGSD 102250Z NIL=
METAR EGSH 102250Z AUTO 21011KT 9999 FEW046/// 08/06 Q1012=
METAR EGVN 102250Z NIL=
METAR EGWU 102250Z NIL=

0000011100
843
SPUS43 KWBC 101751
SPECI
KPTK 101747Z 17007KT 1/2SM R09R/2200V3000FT FG VV002 00/00 A3005=

0000010600
844
SAAK32 KWBC 101700 RRC
METAR
PADL 101745Z 01004KT 5SM BR BKN004 OVC010 M03/M04 A2948=

0000014100
845
SALT31 EYVI 101750
METAR EYVI 101750Z 27019KT 4000 SHRA BR BKN007 OVC015CB 02/01 Q0991
     R20/2/0295 TEMPO 27026G36KT=

00000000