0000011900
146
SACN62 CYLL 102200
METAR CYLL 102200Z 28011KT 15SM BKN055 BKN120 M04/M05 A2942 RMK
 SC6AC1 SLP002=

0000012200
147
SACN62 CYVC 102200
METAR CYVC 102200Z 25004KT 3SM -SN BKN008 OVC012 M05/M06 A2935 RMK
 SC7SC1 SLP963=

0000166500
148
SAUS72 KWBC 102200
METAR
KABI 102152Z 28017G26KT 10SM CLR 22/M08 A2971=
KABQ 102152Z 29023G28KT 10SM FEW070 FEW100 13/M11 A2988=
KABY 102153Z 06003KT 3SM BR OVC004 15/14 A3011=
KACT 102151Z 19010KT 10SM CLR 21/16 A2971=
KAEX 102153Z 18007KT 9SM -RA BKN013 BKN023 OVC030 18/17 A2985=
KAFW 102153Z 22014G19KT 10SM FEW035 SCT190 SCT220 19/13 A2966=
KAHN 102151Z 06006KT 1SM BR OVC003 08/07 A3013=
KALI 102153Z AUTO 27010KT 10SM CLR 27/14 A2980=
KAMA 102153Z 28008KT 10SM CLR 12/M11 A2973=
KANB 102153Z AUTO 06007KT 10SM OVC014 11/09 A3005=
KAPF 102153Z 17008KT 10SM CLR 26/21 A3006=
KATL 102152Z 09007KT 1/4SM -DZ BR OVC003 09/08 A3010=
KAUS 102153Z 22013G18KT 10SM SCT020 BKN150 BKN200 22/16 A2977=
KBFM 102153Z 00000KT 10SM OVC010 17/13 A3002=
KBHM 102153Z VRB04KT 7SM OVC007 11/09 A3004=
KBNA 102153Z 17011G18KT 10SM OVC017 12/09 A2996=
KBPT 102153Z 17010KT 2SM BR FEW019 SCT026 OVC037 19/17 A2986=
KBQK 102155Z AUTO 11005KT 10SM OVC003 19/18 A3011=
KBRO 102153Z 18020G27KT 10SM CLR 26/18 A2983=
KBTR 102153Z 14006KT 10SM OVC018 19/14 A2993=
KCEW 102153Z AUTO 09003KT 1/4SM FG VV002 16/15 A3004=
KCHA 102153Z 32003KT 3/4SM BR OVC002 08/07 A3007=
KCLL 102153Z 18006KT 10SM FEW007 BKN035 OVC070 19/18 A2978=
KCNM 102153Z AUTO 26027G34KT 10SM CLR 20/M12 A2979=
KCRP 102151Z 18011KT 10SM SCT036 BKN050 25/20 A2980=
KCSG 102151Z COR 14005KT 2SM BR OVC003 11/11 A3009=
KCSG 102151Z 14005KT 4SM BR OVC003 11/11 A3009=
KCSV 102153Z AUTO 17009G14KT 6SM BR OVC004 09/08 A3002=
KDAB 102153Z 11003KT 10SM FEW020 SCT075 SCT150 23/19 A3008=
KDAL 102153Z 21007KT 10SM FEW045 SCT090 BKN180 20/16 A2967=

0000167400
149
SAUS72 KWBC 102200 RRA
METAR
KDFW 102153Z 22009KT 10SM FEW035 BKN180 BKN300 21/16 A2967=
KDHN 102153Z 11003KT 1/4SM FG VV002 14/14 A3009=
KDLF 102158Z AUTO 29001KT 10SM CLR 19/10 A2982=
KDMN 102153Z AUTO 25024G30KT 10SM CLR 15/M09 A2997=
KELP 102151Z 28015G24KT 10SM CLR 17/M10 A2993=
KESF 102153Z AUTO 17007KT 10SM BKN017 BKN024 OVC030 19/16
     A2986=
KEYW 102153Z 12007KT 10SM FEW020 25/22 A3005=
KFLL 102153Z 14010KT 10SM SCT024 BKN200 24/22 A3008=
KFSM 102153Z AUTO 02004KT 10SM BKN075 BKN090 OVC110 12/11
     A2960=
KFTW 102153Z 25011G17KT 10SM CLR 21/13 A2967=
KFTY 102153Z 09003KT 2SM BR OVC003 09/09 A3009=
KGGG 102153Z 20011KT 2SM -RA BR BKN023 OVC030 17/16 A2975=
KGLS 102152Z 17012KT 8SM SCT028 BKN036 OVC055 17/17 A2985=
KGNV 102153Z 17004KT 10SM FEW070 25/19 A3007=
KGPT 102153Z 11011KT 3/4SM -RA BR OVC002 16/14 A2997=
KGUP 102153Z AUTO 26016KT 10SM CLR 10/M09 A3001=
KGWO 102153Z AUTO 15013KT 10SM OVC055 16/11 A2987=
KHOT 102153Z AUTO 24003KT 2 1/2SM RA BR OVC004 13/12 A2973=
KHOU 102153Z 19009KT 2SM -RA BR OVC015 20/18 A2982=
KHRL 102152Z 18017KT 10SM CLR 26/18 A2981=
KHRO 102153Z AUTO 17014G21KT 8SM FEW007 OVC075 10/09 A2965=
KHSV 102153Z COR 14012KT 10SM SCT015 OVC022 12/08 A3000=
KHSV 102153Z 14012KT 10SM SCT015 OVC022 12/08 A3000=
KIAH 102153Z 17008KT 10SM BKN028 OVC060 21/18 A2981=
KINK 102153Z AUTO 27019G28KT 10SM -RA CLR 21/M11 A2980=
KJAN 102154Z 14008KT 10SM FEW015 BKN047 17/12 A2991=
KJAX 102156Z 14005KT 10SM FEW030 SCT050 SCT250 24/19 A3008=
KJBR 102153Z AUTO 22005KT 4SM -RA BR BKN030 OVC038 09/08 A2978=
KLBB 102153Z 29022G27KT 10SM CLR 17/M10 A2973=

0000025700
150
SAFR21 LFPW 102200
METAR LFOA 102200Z AUTO 09007KT 9999 NSC 06/05 Q1016=
METAR LFPC 102200Z AUTO 16004KT 140V200 4600 BR OVC004 04/03 Q1017=
METAR LFPV 102200Z AUTO 10003KT 070V140 1300 1000 R27/2000D
R09///// BR OVC002 05/05 Q1016=

0000050100
151
SAFR22 LFPW 102200
METAR LFBC 102200Z AUTO 00000KT 0200 R24/0500D FG NSC 05/04 Q1015=
METAR LFBG 102200Z AUTO 14003KT 3700 BR NSC 08/06 Q1015=
METAR LFBM 102200Z AUTO 00000KT 1400 R27///// BR NSC 06/06 Q1015=
METAR LFBY 102200Z AUTO 00000KT 8000 // NCD 07/06 Q1015=
METAR LFKS 102200Z AUTO 28003KT 240V310 9999 OVC025 12/08 Q1021=
METAR LFMO 102200Z AUTO 07002KT 6000 OVC023 08/07 Q1020=
METAR LFMY 102200Z AUTO 00000KT 8000 OVC024 10/08 Q1020=
METAR LFMC 102200Z NIL=

0000037500
152
SARO31 LROM 102200
METAR LRBS 102200Z 35003KT 270V060 8000 MIFG NSC 05/03 Q1017 NOSIG=
METAR COR LRCK 102200Z 28007KT 2000 BR NSC 02/02 Q1017 NOSIG=
METAR LROP 102200Z VRB05KT CAVOK 02/02 Q1017 8819//95 NOSIG=
METAR LRSB 102200Z 30010KT 9999 SCT036 03/M01 Q1020 NOSIG=
METAR LRTR 102200Z 09004KT 0250 R11/0300N FZFG BKN000 M01/M01 Q1023
11190095=

0000038900
153
SAFR23 LFPW 102200
METAR LFOC 102200Z AUTO 07005KT 010V100 0200 R28/1400U FG VV///
06/05 Q1016=
METAR LFOE 102200Z AUTO 16005KT 3300 BR OVC003 05/05 Q1016=
METAR LFOJ 102200Z AUTO 05005KT 3200 BR BKN002 OVC100 06/06 Q1016=
METAR LFRJ 102200Z AUTO 17006KT 5000 BR NSC 07/06 Q1015=
METAR LFRL 102200Z AUTO 18004KT 0200 R23/0900U R05/0650U // VV///
07/07 Q1015=

0000043500
154
SARO32 LROM 102200
METAR LRAR 102200Z AUTO 21006KT 6000 R09////// R27/P2000 NCD /////
Q1022=
METAR LRBM 102200Z AUTO 00000KT 5000 BR SCT022 BKN029 03/03 Q1020=
METAR LRCL 102200Z 28004KT 230V320 9999 SCT058 01/M00 Q1019=
METAR LROD 102200Z AUTO 20010KT 9999 NCD 02/00 Q1021=
METAR LRSM 102200Z AUTO 25004KT 9999 FEW065 01/00 Q1020=
METAR LRTM 102200Z VRB02KT 3800 BR FEW010 BKN045 01/01 Q1020
0729//95=

0000025900
155
SAFR24 LFPW 102200
METAR LFSI 102200Z AUTO 09004KT 7000 NSC 02/01 Q1018=
METAR LFSO 102200Z AUTO 13005KT 9999 NSC 03/02 Q1018=
METAR LFSX 102200Z AUTO 07004KT 9000 NSC 03/02 Q1018=
METAR LFYR 102200Z AUTO 06003KT 9999 NSC 04/04 Q1015=

0000032500
156
SARO33 LROM 102200
METAR LRBC 102200Z AUTO 07004KT 360V110 7000 NCD 03/02 Q1016=
METAR LRCV 102200Z AUTO 27012KT 9999 NCD 04/00 Q1019=
METAR LRIA 102200Z 26006KT CAVOK 04/01 Q1015 1529//95=
METAR LRSV 102200Z AUTO 28014KT 9999 NCD 04/M03 Q1014=
METAR LRTC 102200Z AUTO 35012KT 9999 NCD 04/02 Q1017=

0000061000
157
SAFR31 LFPW 102200
METAR LFLL 102200Z 15007KT 2000 0600N R36L///// R18R/1500D
R36R///// R18L///// BCFG BR NSC 06/06 Q1018 NOSIG=
METAR LFMN 102200Z 33007KT 9999 OVC030 10/06 Q1021 NOSIG=
METAR LFPG 102200Z 12005KT 0900 R27L///// R09R///// R26R/////
R08L///// R26L///// R08R///// R27R/2000U R09L///// BCFG FEW001
BKN002 05/04 Q1017 NOSIG=
METAR LFPO 102200Z 10004KT 7000 OVC003 06/05 Q1017 NOSIG=
METAR LFQQ 102200Z 20009KT 9999 OVC010 05/03 Q1017 NOSIG=
METAR LFRB 102200Z 18005KT 2500 BR FEW006 BKN110 07/06 Q1015 NOSIG=
METAR LFRS 102200Z 07002KT CAVOK 09/07 Q1015 NOSIG=

0000074500
158
SAFR32 LFPW 102200
METAR LFBD 102200Z AUTO 20002KT 2400 0300 R23///// R05/0900D
R29///// BCFG NSC 07/07 Q1015=
METAR LFBH 102200Z AUTO 13004KT 9999 NSC 10/08 Q1015=
METAR LFBI 102200Z AUTO VRB03KT 9999 NSC 08/06 Q1015=
METAR LFBL 102200Z AUTO 09002KT 9999 NSC 09/06 Q1014=
METAR LFBO 102200Z AUTO 13012KT 9999 FEW010 OVC200 10/07 Q1015=
METAR LFBP 102200Z AUTO 27003KT 7000 NSC 05/04 Q1015=
METAR LFBT 102200Z AUTO 17004KT 9999 NSC 07/04 Q1014=
METAR LFBZ 102200Z AUTO 27010KT 240V300 9999 OVC013 12/10 Q1016=
METAR LFLB 102200Z AUTO 00000KT 2700 BR NSC 03/03 Q1019=
METAR LFLX 102200Z AUTO 09003KT 9999 NSC 07/06 Q1015=
METAR LFML 102200Z 12005KT 9999 BKN025 13/08 Q1020 NOSIG=
METAR LFCK 102200Z NIL=

0000050100
159
SAFR33 LFPW 102200
METAR LFKB 102200Z 29002KT 9999 FEW020 OVC028 12/09 Q1021 NOSIG=
METAR LFKF 102200Z AUTO 07007KT 040V100 9999 SCT024/// BKN250///
12/09 Q1020=
METAR LFKJ 102200Z 06007KT 9999 FEW010 07/06 Q1020 NOSIG=
METAR LFLC 102200Z VRB01KT 9000 NSC 06/04 Q1016 NOSIG=
METAR LFMP 102200Z AUTO VRB03KT 7000 OVC025 09/07 Q1018=
METAR LFMV 102200Z AUTO 00000KT 6000 OVC025 09/08 Q1019=
METAR LFSL 102200Z AUTO 00000KT 9999 NSC 05/04 Q1015=
METAR LFKC 102200Z NIL=

0000040000
160
SAVN26 SVMC 102200
METAR SVMC 102200Z /////KT 9999 FEW016 SCT080 29/22 Q1011=
METAR SVJC 102200Z NIL=
METAR SVVG 102200Z 00000KT 9999 SCT013 SCT100 30/20 Q1008=
METAR SVPM 102200Z NIL=
METAR SVCR 102200Z NIL=
METAR SVSZ 102200Z NIL=
METAR SVSA 102200Z /////KT 9999 FEW020 29/18 Q1012=
METAR SVLF 102200Z NIL=
METAR SVMD 102200Z 16008KT 9999 VCBR SCT023 21/18 Q1018=

0000096400
161
SAFR34 LFPW 102200
METAR LFCR 102200Z AUTO 13010KT 9999 NSC 08/03 Q1015=
METAR LFJL 102200Z AUTO 11005KT 9000 NSC 02/01 Q1018=
METAR LFLP 102200Z AUTO VRB03KT 7000 NSC 03/03 Q1019=
METAR LFLS 102200Z AUTO 11006KT 2100 BR NSC 02/02 Q1018=
METAR LFLY 102200Z AUTO 00000KT 2200 BR NSC 04/03 Q1018=
METAR LFMT 102200Z 07005KT 9999 OVC031 11/08 Q1019 NOSIG=
METAR LFMU 102200Z AUTO 05004KT 9999 OVC023 12/09 Q1019=
METAR LFOB 102200Z AUTO 17005KT 9999 OVC007 05/04 Q1017=
METAR LFOH 102200Z AUTO 13006KT 6000 BKN003 BKN086 OVC100 05/04
Q1016=
METAR LFOK 102200Z AUTO 04005KT 0150 R10/0650N R28/0900U FG VV///
01/01 Q1017=
METAR LFOP 102200Z AUTO 16006KT 5000 BR OVC004 05/04 Q1017=
METAR LFPB 102200Z AUTO 12005KT 6000 OVC005 06/05 Q1017=
METAR LFQA 102200Z AUTO 06002KT 3100 BR OVC003 04/03 Q1018=
METAR LFQB 102200Z AUTO 00000KT 0100 FZFG VV/// M00/M00 Q1018=
METAR LFSN 102200Z AUTO 19002KT 1800 BR NSC 01/01 Q1018=

0000090600
162
SAFR35 LFPW 102200
METAR LFMI 102200Z AUTO 15005KT 9999 OVC025 12/07 Q1019=
METAR LFMK 102200Z AUTO 10012KT 9999 FEW011 OVC027 10/08 Q1017=
METAR LFOV 102200Z AUTO 08004KT 1900 BR VV/// 06/06 Q1015=
METAR LFRD 102200Z AUTO 00000KT 0250 R35/1200N FG VV/// 07/06 Q1015=
METAR LFRI 102200Z AUTO VRB02KT 9999 NSC 09/07 Q1015=
METAR LFRM 102200Z AUTO 04004KT 6000 OVC006 07/06 Q1016=
METAR LFRN 102200Z AUTO VRB03KT 2800 -RA BR OVC003/// ///TCU 07/07
Q1015=
METAR LFRO 102200Z AUTO 15003KT 5000 BR NSC 06/05 Q1015=
METAR LFRV 102200Z AUTO 01004KT 2000 RA BR BKN002/// OVC016///
///TCU 07/07 Q1015=
METAR LFRZ 102200Z AUTO 04003KT 3100 BR FEW033 OVC042 08/08 Q1015=
METAR LFSB 102200Z 21002KT 9999 FEW033 02/01 Q1019 NOSIG=
METAR LFST 102200Z AUTO 00000KT 3800 0450 R23///// R05/1400D BCFG
NSC 01/01 Q1019=
METAR LFTH 102200Z AUTO VRB02KT 9999 OVC026 11/09 Q1020=

0000070400
163
SAFR36 LFPW 102200
METAR LFBA 102200Z AUTO 10003KT 9999 NSC 07/07 Q1015=
METAR LFBE 102200Z AUTO 08003KT 060V120 3800 BR NSC 05/05 Q1015=
METAR LFGJ 102200Z AUTO 08002KT 9000 NSC 04/03 Q1018=
METAR LFJR 102200Z AUTO VRB03KT 3900 BR NSC 07/07 Q1015=
METAR LFMD 102200Z AUTO VRB01KT 9999 OVC025 11/08 Q1021=
METAR LFMH 102200Z AUTO 16010KT 5000 BR NSC 07/05 Q1016=
METAR LFOT 102200Z 05007KT 6000 NSC 07/06 Q1015 NOSIG=
METAR LFPN 102200Z AUTO 11005KT 0900 R25///// FG VV/// 05/05 Q1017=
METAR LFRC 102200Z AUTO 18007KT 5000 BR OVC004 06/06 Q1015=
METAR LFRG 102200Z AUTO 19008KT 5000 BR OVC003 05/05 Q1016=
METAR LFRK 102200Z AUTO 15007KT 5000 BR OVC009 06/05 Q1016=

0000011100
164
SACN62 CYAM 102200
METAR CYAM 102200Z 13004KT 3SM BR OVC010 M02/M04 A2987 RMK SF8
 SLP125=

0000070500
165
SAFR37 LFPW 102200
METAR LFAQ 102200Z AUTO 18007KT 7000 OVC008 05/04 Q1017=
METAR LFAT 102200Z AUTO 12005KT 4700 BR NSC 03/02 Q1016=
METAR LFLN 102200Z AUTO VRB01KT 9999 NSC 05/03 Q1016=
METAR LFPM 102200Z AUTO 10005KT 0650 FG VV/// 06/05 Q1017=
METAR LFPT 102200Z AUTO VRB02KT 4700 BR OVC006 05/04 Q1017=
METAR LFRH 102200Z AUTO 05003KT 2000 -RA BR FEW006 SCT031 BKN044
08/08 Q1015=
METAR LFRQ 102200Z AUTO 00000KT 0100 R28/0600N FG VV/// 08/08 Q1015=
METAR LFRT 102200Z AUTO 17003KT 140V210 4200 BR FEW026 BKN039
07/07 Q1015=
METAR LFSD 102200Z AUTO 32003KT 9999 NSC 03/02 Q1018=
METAR LFTW 102200Z AUTO 00000KT 9000 OVC026 10/05 Q1019=
METAR LFBU 102200Z NIL=

00000000