0000024600
126
SAPO32 LPMG 110130
METAR LPAZ 110130Z 21024KT 8000 -RA SCT008 BKN012 16/14 Q1009=
METAR LPFL 110130Z NIL=
METAR LPHR 110130Z NIL=
METAR LPLA 110130Z NIL=
METAR LPPD 110130Z 23013G25KT 2000 +RA SCT002 BKN008 15/15 Q1006=

0000014900
127
FCMP31 LMMM 110200
TAF LMML 110200Z 1103/1112 19009KT CAVOK PROB30 TEMPO 1103/1105 8000
SCT015 =
TAF HLLT NIL=
TAF HLLB NIL=

0000021500
128
SAAO31 GOOY 110130
METAR FHAW 110130Z NIL=
METAR GGOV 110130Z NIL=
METAR DIAP 110130Z 23005KT 8000 SCT012 BKN100 27/25 Q1010 TEMPO
BKN009=
METAR DIBK 110130Z NIL=
METAR DIYO 110130Z NIL=

0000024500
129
SAAO30 GOOY 110130
METAR GOOY 110130Z 36009KT CAVOK 19/15 Q1014 NOSIG=
METAR GOGS 110130Z NIL=
METAR GOOK 110130Z NIL=
METAR GOSS 110130Z NIL=
METAR GOTK 110130Z NIL=
METAR GOTT 110130Z NIL=
METAR GOGG 110130Z NIL=

0000030000
130
SAAO33 GOOY 110130
METAR GQPP 110130Z NIL=
METAR GQNN 110130Z 01004KT 8000 NSC 15/14 Q1015 NOSIG=
METAR GQPA 110130Z NIL=
METAR GQNI 110130Z NIL=
METAR GQPZ 110130Z NIL=
METAR GUCY 110130Z NIL=
METAR GUXN 110130Z NIL=
METAR GULB 110130Z NIL=
METAR GUNZ 110130Z NIL=

0000015200
131
SAAK31 KWBC 110100 RRB
METAR
PAVD 110136Z 10SM FEW015 FEW090 BKN120 M06/M06 A2933=
PAWG 110136Z 09010KT 10SM OVC050 03/M01 A2947=

0000047900
132
SAEE31 LOWM 110130
METAR UACK 110130Z NIL=
METAR UACP 110130Z NIL=
METAR UAII 110130Z 14003MPS CAVOK M05/M11 Q1024 R10/0///70
NOSIG RMK QFE732/0976=
METAR UADD 110130Z 19005MPS 9999 NSC M06/M12 Q1023 NOSIG RMK
QFE710/0946=
METAR UASK 110130Z 12003MPS 9999 BKN090 M09/M16 Q1035
R12/820350 NOSIG RMK QFE750/1001=
METAR UASP 110130Z NIL=
METAR UAOO 110130Z 17006MPS 3300 BR BKN130 M04/M06 Q1022
NOSIG RMK QFE754/1006=
METAR UAKD 110130Z NIL=

0000043800
133
SAID31 WIII 110130
METAR WIII 110130Z 20004KT 9999 FEW022 30/24 Q1010 NOSIG= 
METAR WIMM 110130Z 26004KT 5000 HZ SCT017 26/24 Q1013= 
METAR WARR 110130Z 11005KT 060V170 CAVOK 29/24 Q1011= 
METAR WADD 110130Z 08004KT 050V180 9999 FEW015TCU FEW018 29/24 Q1011
NOSIG= 
METAR WAAA 110130Z 13001KT 9999 FEW020 27/24 Q1012= 
METAR WIDD 110130Z 36007KT 9999 SCT014 27/23 Q1012= 
METAR WIHH NIL=
METAR WABB NIL=

0000027400
134
SAIO31 KWBC 110100 RRF
METAR
WBGG 110130Z 08001KT 9999 FEW003 SCT018 BKN150 25/24 Q1013
     NOSIG=
WBKK 110130Z 18001KT 9999 FEW015 SCT140 BKN270 29/24 Q1012
     NOSIG=
WBSB 110130Z 18004KT 9999 FEW015 FEW016CB BKN280 28/25 Q1013
     NOSIG=

0000049000
135
SAID32 WIII 110130
METAR WIBB 110130Z 34006KT 5000 HZ BKN010 24/23 Q1011= 
METAR WIPT 110130Z 02004KT 9999 SCT020 26/24 Q1012= 
METAR WIOO 110130Z 06004KT 9999 FEW01366/23 Q1012 NOSIG= 
METAR WIPP 110130Z 29003KT 6000 HZ BKN015 FEW020CB 25/24 Q1011= 
METAR WAOO 110130Z 06004KT 9999 FEW020 27/24 Q1012 NOSIG= 
METAR WADL 110130Z 8000 HZ FEW016 28/25 Q1012= 
METAR WALL 110130Z 34006KT 9000 FEW020 BKN090 27/24 Q1011 NOSIG= 
METAR WAMM NIL=
METAR WIDN NIL=

0000124600
136
SAAU31 YBBN 110130
METAR YPAD 110130Z 22015KT CAVOK 24/15 Q1019
NOSIG=
METAR YBAS 110130Z 15016KT CAVOK 35/06 Q1015=
METAR YBBN 110130Z 10009KT 9999 BKN033 27/17 Q1017=
METAR YBCS 110130Z 11014KT 9999 -SHRA SCT025 SCT035 BKN120 32/22
Q1011=
METAR YSCB 110130Z 33006KT 9999 SCT050 BKN240 30/11 Q1018=
METAR YPXM 110130Z NIL=
METAR YPCC 110130Z 12012KT 9999 FEW025 BKN037 27/22 Q1012=
METAR YCFS 110130Z AUTO 06014KT 9999 // BKN093 25/18 Q1018=
METAR YPDN 110130Z 13005KT 9999 FEW024 BKN350 29/23 Q1009=
METAR YBCG 110130Z AUTO 12010KT 9999 // NCD 28/19 Q1018=
METAR YHID 110130Z AUTO 31006KT //// // ////// 29/25 Q1008=
METAR YPJT 110130Z AUTO 10012KT 9999 // NCD 33/11 Q1015=
METAR YPKU 110130Z AUTO 34004KT 9999 // NCD 32/25 Q1009=
METAR YPLM 110130Z AUTO 03006KT 9999 // NCD 31/21 Q1009=
METAR YMML 110130Z 16009KT 9999 OVC013 17/13 Q1020
FM0300 18012KT 9999 SCT015 BKN020=
METAR YPPH 110130Z 09015KT CAVOK 32/11 Q1015=
METAR YSSY 110130Z 08011KT CAVOK 31/16 Q1016
FM0330 05015KT CAVOK=
METAR YSTW 110130Z AUTO 19006KT 9999 // BKN063 30/10 Q1018=
METAR YPTN 110130Z AUTO 07010KT 9999 // SCT036 32/23 Q1009=
METAR YBTL 110130Z 11012KT 9999 VCSH FEW020 SCT031 BKN065 30/23
Q1012=

0000121100
137
SAAU32 YBBN 110130
METAR YAMB 110130Z AUTO 22004KT 9999 // SCT047 SCT060 28/16 Q1017=
METAR YMAV 110130Z AUTO 17007KT 9999 // SCT025 21/13 Q1020=
METAR YBRM 110130Z 28009KT 9999 SCT024 31/24 Q1010=
METAR YCIN 110130Z NIL=
METAR YSDU 110130Z AUTO 29007KT 9999 // BKN057 28/15 Q1018=
METAR YFRT 110130Z AUTO 12012KT //// // ////// 27/11 Q1021=
METAR YGEL 110130Z 07023KT CAVOK 42/M00 Q1009=
METAR YPGV 110130Z 11013KT 9999 VCSH BKN018 SCT030 BKN150 29/24 Q1008
RMK SHRA TO NORTH=
METAR YBHM 110130Z AUTO 11020KT 9999 // ////// 29/23 Q1013=
METAR YMHB 110130Z 14008KT 9999 FEW045 BKN220 22/11 Q1013=
METAR YPKG 110130Z AUTO 09011KT 9999 // NCD 27/07 Q1021=
METAR YMLT 110130Z AUTO 15006KT 9999 // NCD 26/09 Q1013=
METAR YBMA 110130Z AUTO 12010KT 9999 // NCD 36/18 Q1011=
METAR YSNF 110130Z 13011KT 9999 FEW038 SCT045 BKN055 22/10 Q1018=
METAR YPEA 110130Z NIL=
METAR YPPD 110130Z AUTO 33007KT 9999 // NCD 33/27 Q1009=
METAR YSRI 110130Z AUTO 01002KT 9999 // NCD 28/13 Q1016=
METAR YBRK 110130Z 12011KT CAVOK 28/18 Q1015
RMK 1TCU060 5CU060=
METAR YWLM 110130Z AUTO 14011KT 9999 // NCD 28/17 Q1017=
METAR YPWR 110130Z AUTO 12007KT 9999 // NCD 34/10 Q1017=

0000037100
138
FTFR31 LFPW 102300 AAC
TAF AMD LFPG 110140Z 1101/1206 VRB03KT 0500 FG BKN003 TEMPO 1101/1111
 0200 FG VV/// PROB40 TEMPO 1101/1109 1500 -RA BR BKN002 BECMG
1107/1109 22005KTBECMG 1111/1112 1200 BCFG BKN005 BECMG 1113/1115
8000 NSW BKN008 BECMG 1116/1118 CAVOK BECMG 1122/1124 3000 BR BKN005
BECMG 1200/1202 0900 FG BKN002 TX08/1113Z TN01/1124Z=

0000005200
139
RRIN23 VIDP 110954
RQRPT 172-213=

0000549900
140
SIIN51 VIDP 110900
AAXX 11094
00010 32996 02706 10187 20068 40178
  333 58022=
42027 31596 41401 10062 21027 38474 48560 70521 83430
  333 58054=
42056 32996 03202 10186 20032 39728
  333 58008=
42071 31996 02907 10168 20109 40190 70500
  333 58017=
42083 32697 20000 10062 20009 4//// 82800
  333 58012 81835=
42101 32996 03203 10182 20071 40182
  333 58025=
42103 31995 33202 10178 20076 40185 70511 80001
  333 58024 83070=
42111 32596 63202 10160 20072 39384 40161 86800
  333 58016 83625 83830=
42123 32996 03202 10186 20026 40195
  333 58023=
42131 32996 03203 10184 20041 40188
  333 58026=
42165 31995 60000 10200 20017 40184 70522 80001
  333 58034 86070=
42170 32996 33603 10190 20013 40187 80001
  333 58034 83070=
42182 31995 02908 10180 20097 40179 70500
  333 58027=
42189 31595 60000 10162 20126 40159 71022 84520
  333 58001 84625 86460=
42273 21595 83602 10146 20143 40167 76166 8652/
  333 58014 6002/ 86620 88458=
42309 31596 40502 10240 20125 40138 70520 81430
  333 58003=
42314 31596 60000 10244 20122 40147 70522 81131
  333 58007 81825 84360=
42328 32696 20503 10182 21025 40197 83030
  333 58041 83360=
42339 31995 40502 10200 21005 40180 70500 80002
  333 58047 84070=
42348 31996 03406 10190 20013 40172 70500
  333 58030=
42361 31994 23204 10200 20076 40169 71000 80001
  333 58029 82075=
42369 31594 70203 10160 20131 40163 71142 85530
  333 58012 85620 87360=
42379 21595 70903 10176 20130 40153 72096 85510
  333 56590 58004 6003/ 85625 87458=
42410 31595 70000 10216 20151 40162 70522 83530
  333 59041 83620 87360=
42435 32996 40501 10198 21001 40204 80001
  333 58042 84070=
42452 31994 00903 10180 20083 40172 70544
  333 58034=
42463 31995 03203 10184 20111 40172 70500
  333 58026=
42475 31494 89902 10180 20170 4//// 71022 8762/
  333 56290 58/// 82710 86620 88458=
42492 21494 70905 10160 20143 40150 76066 84530
  333 59008 6002/ 84615 87360=
42559 32996 03602 10184 20106 40153
  333 58030=
42571 31594 83203 10152 20141 40148 71044 8653/
  333 58014=
42591 21494 80703 10164 20154 40153 72996 8672/
  333 58003 6006/ 85618 88458=
42623 31596 12302 10244 20097 39261 40116 70500 81500
  333 58007 81620=
42634 32996 30211 10204 20043 40168 80001
  333 58021 83075=
42647 31995 00708 10220 20112 40156 70400
  333 58023=
42667 31595 10508 10188 20119 39554 40150 70500 81500
  333 58027 81620=
42675 31493 83604 10166 20145 40155 74644 886//
  333 58030 88710=
42701 31494 80508 10166 20125 39408 40147 70444 8452/
  333 58010 84615 88459=
42724 31995 03603 10250 20107 40147 70500
  333 59003=
42737 32996 00708 10212 20088 40158
  333 58015=
42754 31594 50508 10168 20115 39501 40149 70522 83530
  333 83620 83360=
42779 32596 52305 10234 20158 39424 40116 83530
  333 59001 83620 85360=
42798 31994 40506 10246 20125 40131 70422 84030
  333 58003 84360=
42809 31995 03602 10260 20143 40146 70500
  333 58002=
42840 32996 00502 10234 20084 40148
  333 58005=
42867 31596 22306 10274 20153 40115 70500 82500
  333 58005 82620=
42874 32596 42704 10264 20164 40122 82530
  333 58007 82625 83360=
42886 31996 31802 10280 20157 40122 70500 82031
  333 59002 82360 81075=
42895 31995 01402 10254 20148 40138 70500
  333 58002=
42909 32997 03612 10234 20045 40150
222// 20000
  333 58003=
42971 31995 01808 10306 20162 40134 70500
  333 59002=
43003 31995 03206 10250 20048 40126 70400
  333 58000=
43014 32996 02303 10266 20071 39468 40104
  333 58010=
43041 32596 22302 10292 20112 39508 40109 82200
  333 59002 82830=
43063 32997 22502 10298 20070 39482 40091 80001
  333 59003 82072=
43086 32597 32303 10284 20162 39950 40126 83500
  333 58011=
43110 31996 03204 10266 20097 40129 70544
  333 58008=
43117 32997 00000 10318 20114 40093
  333 58001=
43128 31496 59903 10284 20163 39517 40113 70511 84401
  333 56309 58007 83615=
43150 31596 10000 10274 20201 30065 40140 70500 81500
  333 58005 81620=
43185 32597 51606 10278 20192 30128 40131 83531
  333 58005 83620 84360=
43189 32597 29901 10298 20198 30130 40139 81502
  333 58006=
43192 31996 42708 10298 20187 40120 70511 80001
  333 58011=
43201 32497 42303 10306 20136 39378 40077 84800
  333 58001 82615 83820=
43213 32597 40902 10314 20135 39797 40107 81438
  333 59001=
43233 32497 31104 10302 20126 39298 40083 83400
  333 58003=
43237 32997 31103 10316 20147 39718 40102 82032
  333 58004 82360 83075=
43245 32597 30502 10296 20299 30103 40130 82401
  333 58008=
43279 32497 20704 10288 20193 30116 40134 82400
  333 58010 82618=
43284 32496 22710 10312 20211 39986 40099 82500
  333 58002 82620=
43295 32997 40903 10282 20128 39102 48524 80001
  333 59009 84075=
43311 32597 50505 10320 20255 40109 85401
  333 58005 84620 83075=
43314 32997 02702 10332 20234 40107
  333 58006=
43321 31496 00705 10292 20168 39672 40112 70521 81530
  333 58010 81615=
43329 32597 30702 10294 20236 30110 40124 82501
  333 58010=
43333 31495 60708 10290 20232 40114 70511 84401
  333 56309 58010 82618 83820 85070=
43344 31496 40706 10300 20186 30022 40121 70511 84800
  333 58010 83616=
43353 31996 32910 10308 20223 40106 70500 82011
  333 56099 58007 82359=
43369 32497 40903 10308 20248 40108 83401
  333 58010 83618=
43371 32997 09903 10320 20217 30028 40099
  333 58004=
0000005200
141
RRIN23 VIDP 110955
RQRPT 292-353=

0000009500
142
SAFR32 LFPW 110130 RRA
METAR LFCK 110130Z AUTO 13020KT 9999 NSC 11/07 Q1016=

0000175400
143
SPUS70 KWBC 110042
SPECI
KCUB 110038Z AUTO 00000KT 4SM -RA BR FEW004 SCT008 OVC037 11/10
     A3014 RMK AO2 RAB06 P0002 T01060100 TSNO=
KDMO 110038Z AUTO 22006KT 10SM FEW008 BKN012 OVC017 09/08 A2954
     RMK AO2 T00890078=
KDTW 110038Z 14007KT 1/4SM BR OVC004 03/02 A2989 RMK AO2 SFC VIS 2
     1/2=
KFOE 110038Z 29007KT 9SM BKN008 OVC015 03/01 A2959 RMK AO2 CIG
     006V010 T00280011=
KGNV 110038Z 00000KT 10SM -RA FEW019 BKN027 OVC065 21/20 A3010 RMK
     AO2 RAB35 P0000 T02060200=
KGZH 110038Z AUTO 13006KT 3/4SM BR VV002 14/13 A3002 RMK AO2
     RAB16E25 P0000 T01440133=
KHFF 110024Z 33004KT 5SM RA BKN004 OVC030 10/09 A3018 RMK AO2
     SLP222=
KLBT 110038Z AUTO 14003KT 4SM BR OVC009 17/17 A3014 RMK AO2 RAE35
     P0011 T01720167=
KSLN 110038Z 31008KT 10SM -RA BKN012 BKN033 OVC042 03/00 A2963 RMK
     AO2 RAB21UPB22E25 P0000 T00280000=
KNSE 110036Z 13006KT 3/4SM -RA BR OVC002 16/15 A3000 RMK AO2 RAB29
     P0001 T01560150 $=
PABA 110037Z AUTO 27019KT 1 3/4SM -SN BR OVC047 M26/M28 A2984 RMK
     AO2 SNB26 P0000 FZRANO=
KART 110038Z AUTO 13003KT 10SM OVC034 03/M01 A3015 RMK AO2=
KLNK 110039Z 28003KT 5SM BR SCT016 BKN100 00/M01 A2958 RMK AO2
     T00001011=
KLSE 110039Z 00000KT 2SM BR OVC018 00/M01 A2955 RMK AO2 P0004
     I1000 T00001011 $=
KLXT 110039Z AUTO 27007KT 9SM SCT010 BKN014 OVC027 04/03 A2956 RMK
     AO2 T00440033=
KRAC 110039Z AUTO 17015G21KT 2SM -RA BR OVC002 02/01 A2962 RMK AO2
     P0006 T00170011=
KRST 110039Z 05003KT 3SM -SN SCT013 BKN019 OVC065 M02/M03 A2952
     RMK AO2 P0000 T10171028=
PAWI 110039Z AUTO 31006KT 10SM SCT008 A2993 RMK AO2 TSNO $=
KJST 110039Z AUTO 14008KT 10SM SCT008 02/00 A3010 RMK AO2
     T00170000=

0000009500
144
SPUS31 KWBC 110042
SPECI
KDTW 110038Z 14007KT 1/4SM BR OVC004 03/02 A2989=

0000011900
145
SPCN31 CWAO 110040
SPECI CYYZ 110040Z 13006KT 4SM BR SCT005 OVC012 02/01 A3004 RMK
 SF4ST4 SLP181=

00000000