0000118100
606
SIRO45 YRBK 110900
AAXX 11091
15004 23/// /3200 10030 20020 39891 40235 52014 333 6///7 91001 91102
555 6////=
15010 22698 70901 10004 20000 30077 40235 52011 87500 333 60007 91001
91102
92612 555 60000=
15014 22697 70602 10033 20019 30001 40232 51011 86570 333 60007 91003
91104 555
60000=
15033 22497 50000 11078 21095 38179 48489 52012 85500 333 60007
95050=
15044 26/// /1001 10018 21012 30029 40232 52009 333 55300 0//// 20195
3////
60007 91102 555 60000=
15047 22697 70000 10013 20013 39789 40238 51006 82570 333 60007=
15063 22597 72103 10048 20002 39866 40231 52009 87500 333 60007 91006
91107 555
60000=
15083 21596 61600 11005 21011 39945 40240 51010 71011 84530 333 55301
0////
20332 3//// 60007 91001 91102 92611 555 60000=
15085 21596 71601 10018 20007 39784 40240 52012 71022 87800 333 60007
91002
91102 555 60000=
15099 NIL=
15119 21/90 92712 11060 21062 38130 48487 52022 74944 333 60007 91018
92722 555
60000=
15140 NIL=
15143 26/// /1700 10018 20003 39719 40250 51009 333 55305 0//// 20571
3////
60007 91101 555 60000=
15163 22498 62706 11006 21059 38658 48502 52015 82551 333 60007=
0000108800
607
SIRO46 YRBK 110900
AAXX 11091
15336 22997 22302 10089 21009 30198 40204 52008 80002 333 60007=
15337 22997 02704 10086 21026 30014 40221 51012 333 60007 91006 91109
555 60000=
15387 22997 33202 10050 20036 30223 40227 53013 83030 333 60007=
15406 21996 02001 10018 20018 30184 40233 51012 71011 333 60007 91001
92600 555
60000=
15408 21996 03001 10030 20017 39953 40228 50009 71000 333 55310 60007
91002
91103 555 60000=
15409 26/// /2701 10068 20016 30174 40224 51010 333 55300 0//// 20414
3////
60007 91102 555 60000=
15428 22597 72901 10041 20023 30223 40227 51010 87500 333 55301 00169
20397
3//// 60007 91002 91103 92427 555 60000=
15445 21996 02303 10046 20024 30119 40229 52016 71000 333 60007=
15462 22997 02803 10038 2//// 30153 40244 52023 333 60007 91005 555
60000=
15477 NIL=
15479 22997 02303 10034 20030 30083 40285 52012 333 60007 91003 555
60000=
15499 22997 02704 10066 20039 30221 40231 50010 333 55310 60007 91006
91107
92427 555 60000=
15444 22997 22503 10033 21002 30166 40243 51013 80001 333 60007=
0000012600
608
SMGO01 FOOL 110900
AAXX 11094
64501 42360 81804 10265 20244 30130 40140 885//
  333 58011 84608 88640=
?
0000064300
609
SIGR20 LGAT 110900
AAXX 11094
16622 NIL=
16641 42560 60000 10134 20119 30230 40235 52010 84550 333 84630
      86357 91103 555 40000 47705 44220 50000 50126=
16682 42560 61204 10162 20091 30231 40242 52009 81150 333 81825
      85358 91106=
16716 NIL=
16734 46/// /3006 10164 20088 30179 40240 52008 333 91110=
16743 46/// /2908 10160 20094 30034 40231 52017 333 91125=
16749 42460 70000 10154 20117 30219 40234 52014 87800 333 81818
      86640 91104 555 40000 47699 44235 50000 50134=
16754 42565 51704 10174 20112 30185 40231 51006 81101 333 81825
      84068 91114 555 40000 47668 44180 50000 50140=
0000054600
610
SIGR21 LGAT 110900
AAXX 11094
16643 42560 60706 10134 20090 30250 40250 52009 82250 333 82820
      86360 91111=
16648 41305 50000 10054 20054 30157 40247 51012 74444 85600 333
      91103 555 70000 77F// 7F///=
16650 41456 60604 10130 20104 30236 40237 52015 71011 86600 333
      83710 86620 91106 555 70000 77Y// 7/Y//=
16684 42460 73006 10138 20079 30210 40220 52013 87600 333 81712
      86625 91111=
16732 42462 50210 10152 20114 30213 40225 52013 83206 333 83815
      84068 91115 555 70000 77/I/ 7/I//=
0000013900
611
SIVB10 EHDB 110900
BBXX
DGSE 11093 99513 11711 41498 63119 10006 21009 49840 54000 70211
85/// 22214 04050 2//// 80000=
0000003800
612
SIVE10 EHDB 110900
NIL
0000003800
613
SIVJ10 EHDB 110900
NIL
0000011100
614
UANT01 CWAO 110909
ARP RCH944 4621N03834W 0909 F330 MS53 322/42 KT
00221A DDL XXN 110909 F56A
0000011000
615
UANT01 CWAO 110909
ARP AFL152 5426N04759W 0909 F380 MS62 284/65 KT
VQBBG QXT AME 110909 J83A
0000121900
616
SITU10 LTAA 110900
AAXX 11094
17022 42665 72804 10092 20056 30081 40248 52014 85570
 333 85634 87360 91107 92427=
17031 42670 52608 10124 21010 30223 40229 50010 81131
 333 81836 83360 85070 91116=
17038 42670 52610 10131 20040 30173 40225 50018 81101
 333 81835 85068 91115 92428=
17050 41/01 90901 10031 20030 30193 40257 52013 74544
 333 89/01 91104=
17060 42960 02407 10106 20067 30210 40250 52013
 333 91110=
17096 41916 00000 11167 21167 38254 48540 58009 71040=
17124 41256 80000 11014 21027 39337 40294 51012 71022 886//
 333 88706 91105=
17128 41358 82403 11028 21036 39147 40300 50010 71022 886//
 333 88708=
17170 41656 22702 10001 21059 38333 48509 58010 70511 82500
 333 82640=
17195 41217 70000 11039 21042 39028 48529 50001 74144 87600
 333 87704 91106=
17197 42960 0//// 10035 21015 39136 40243 53006=
17219 41556 79901 10101 20032 30094 40243 51012 70511 83250 333 83830 87360=
17240 42970 30701 10029 21018 39086 40272 50003 80001
 333 83070 91103=
17244 41/07 90000 11022 21022 39052 48531 50002 74944
 333 89/03=
17280 42970 01005 10062 21030 39412 40225 58009=
17350 42960 30702 10152 20019 30148 40228 50000 83030
 333 83360=
0000108900
617
SITU12 LTAA 110900
AAXX 11094
17024 42465 82511 10093 20075 30158 40237 51017 8562/
 333 83710 85632 88460 91122 92437=
17056 41/04 90802 10077 20075 30248 40252 52016 74744
 333 89/17 91105 92412=
17067 41960 00401 10115 20026 30223 40246 51013 70500
 333 91104 92407=
17092 41657 51202 11031 21114 38908 48519 58015 70522 81530
 333 81645 85362 91106=
17112 41920 03503 10092 20078 30241 40243 52012 72800
 333 91106 92415 96010=
17115 42960 01503 10087 20021 30198 40250 51015
 333 91104=
17116 42965 30908 10075 21011 30137 40261 50011 83030
 333 83360 91114=
17188 42960 01002 10084 21015 39170 40250 50007
 333 91104=
17202 42970 00403 10014 21037 39198 40265 58011=
17248 41902 02403 11044 21056 39036 48522 50007 74400=
17292 42670 71901 10053 20034 39483 40260 52011 83260
 333 83835 87360 91103=
17300 42560 53604 10141 20053 30157 40229 50001 81101
 333 81830 85070=
17310 42670 12303 10173 20075 30216 40223 57005 81100
 333 81840 91104 92428=
17330 42970 22702 10157 21022 30213 40231 58003 80001
 333 82070=
0000119600
618
SITU11 LTAA 110900
AAXX 11094
17026 41457 63206 10102 20101 30196 40235 51015 71022 84650
 333 84710 86360 91113 92426=
17034 42670 60000 10126 20003 30189 40236 52017 83250 333 83835 86360 92428=
17070 42562 71101 10037 21019 39370 40263 50011 87500
 333 87630 91103=
17084 41657 82605 11006 21048 39347 40294 50009 71022 8352/  333 83640 88460 91113=
17090 42965 51202 10011 21082 38757 48522 52005 80001
 333 85070=
17098 42660 13004 11164 21169 38203 48533 58010 81500
 333 81640 91105=
17150 41620 40000 10055 20033 30131 40259 52011 71042 84200
 333 84835 91103=
17160 41430 82001 11018 21020 39082 48531 50006 71022 886//
 333 88715 91106=
17184 41656 72601 10067 20022 30141 40256 52010 71022 83270
 333 83840 87360 91102=
17190 41/03 90802 11037 21040 39049 48527 50006 74944
 333 89/04=
17210 42970 01803 10064 21070 39164 40218 58009=
17234 42670 71004 10069 20026 30179 40249 52011 83270
 333 83840 87360 91111=
17260 42960 02311 10116 21057 39393 40227 58001=
17290 42670 61704 10157 20116 30209 40241 52013 82250
 333 82835 86360 91109 92428=
17370 42965 33301 10167 20015 30227 40231 50002 83030
 333 83360 92417=
0000095100
619
SITU13 LTAA 110900
AAXX 11094
17042 42970 42901 10131 20013 30190 40230 50021 84030
 333 84360 92428=
17074 41515 82901 11012 21033 39298 40277 50008 71022 8672/
 333 86726 88458 91108=
17086 42970 22905 10008 21037 39534 40278 51004 82030
 333 82360=
17088 42970 30000 10000 21121 38816 48509 57005 80001
 333 83070=
17140 41901 01701 11036 21044 38744 48521 50008 74444=
17155 41215 70501 11034 21037 39123 40295 50010 72844 87600
 333 87705 91104 96010=
17203 42970 01003 11017 21101 38908 48548 57013=
17237 42970 53302 10091 21010 39738 40251 50007 80005
 333 85070 91103=
17250 42970 02507 10042 21055 38848 48531 50000=
17270 42970 02805 10125 21066 39561 40214 58007=
17295 42960 50205 10117 20062 30236 40243 50006 80001
 333 85068=
17320 42970 31103 10161 20069 30225 40230 53003 83030
 333 83360 92428=
17375 42970 30401 10162 20049 30233 40235 50004 80001
 333 83070 91106 92418=
0000097800
620
SITU14 LTAA 110900
AAXX 11094
17500 42560 22707 10170 20073 30178 40237 50008 82100
333 82825=
17501 42560 12514 10165 20055 30216 40235 50007 81100
333 81825 92437=
17505 42560 12506 10166 20084 30134 40247 50010 81100
333 81825=
17507 42560 22407 10175 20062 30141 40255 50013 82100
333 82825=
17510 42560 12708 10173 20076 30200 40210 51013 81100
333 81830 92427=
17515 42560 12507 10154 20057 30083 40159 50010 81100
333 81825=
17521 42560 22809 10161 20079 30095 40237 50003 82100
333 82825=
17530 42560 12508 10164 20084 30191 40248 50007 81100
333 81825=
17535 42560 12608 10164 20070 30196 40232 50017 81100
333 81825=
17540 42560 12906 10158 20076 30236 40260 50010 81100
333 81825 92427=
17547 42560 11109 10149 20089 39990 40233 50010 81100
333 81825 92427=
17550 42560 12509 10165 20082 30090 40235 50010 81100
333 81825 92437=
17572 42560 12407 10167 20069 30223 40248 50010 81100
333 81830 92427=
0000048200
621
SIBU20 LZSO 110900
AAXX 11091
15502 42970 10501 10088 20032 30192 40231 55001 81050 333 10088 20010
555 568//=
15552 42970 03206 10086 21001 30189 40238 52014 333 10088 20048 555
555// 92014 92418=
15614 42663 10000 10024 21020 39536 40259 52008 81100 333 10025 21008
555 573//=
15615 41988 12708 11044 21078 37138 47081 52006 70200 80001 333 11036
21054 555 577//=
15730 41/00 90000 10016 21012 39847 40257 52011 74544 333 10019 20011
555 582//=
0000057300
622
SIBU40 LZSO 110900
AAXX 11091
15525 42981 22505 10122 21012 39975 40239 51002 80001 333 10122 20053
555 539//=
15549 42970 22904 10064 20000 39814 40235 52010 80002 333 10068 20027
555 564//=
15600 41989 20000 10020 20001 38333 48534 52013 70200 80001 333 10022
21016 555 587//=
15640 42974 00000 10076 20018 39930 40246 52022 333 10078 20010 555
567//=
15655 41956 22302 10079 20012 30206 40239 52010 71000 80001 333 10079
20035 555 563// 92012 92416=
15712 41/02 90000 10016 20011 30008 40268 51011 74544 333 10022 20015
555 596//=
0000011000
623
UANT01 CWAO 110910
ARP AFR439 5359N05136W 0910 F370 MS64 278/70 KT
FGITJ DDL YAY 110910 F99A
0000018700
624
SIMC23 GMMC 110900
AAXX 11094
60285 32460 21402 10125 20101 40189 52016 81202
  333 81816=
60340 32456 80000 10097 20089 40198 51019 82131
  333 82816 83360 85070=
0000010000
625
SMRA11 RUNW 110600 CCB
AAXX 11061
36278 43/// /2602 11125 21198 38214 48587 5////=
00000000