0000011000
314
UANT01 CWAO 110815
ARP AFL152 5900N04000W 0815 F380 MS59 254/28 KT
VQBBG DDL H03 110815 J80A
0000013900
315
SSVX02 CWAO 110800
ZZYY 64712 11014 0800/ 169573 010026 6113/ 22219 
00063 444 20130 11014 0800/ 50101 80134 80005 9/015=
0000013900
316
SSVX02 CWAO 110800
ZZYY 64732 11014 0800/ 765027 003673 6113/ 22219 
00052 444 20130 11014 0800/ 50101 80140 80003 9/015=
0000016000
317
SSVX02 CWAO 110800
ZZYY 56540 11014 0800/ 554140 177452 6113/ 11119 
40001 52008 22219 00116 444 20130 11014 0800/ 50101 80136 80013 
9/015=
0000016000
318
SSVX02 CWAO 110800
ZZYY 56516 11014 0800/ 355786 116868 6112/ 11119 
40009 52007 22219 00045 444 20130 11014 0800/ 50101 80148 80027 
9/015=
0000016000
319
SSVX02 CWAO 110800
ZZYY 56948 11014 0800/ 315992 090400 611// 11119 
40117 57016 22219 00276 444 20130 11014 0800/ 50101 80144 80011 
9/015=
0000016000
320
SSVX02 CWAO 110800
ZZYY 56542 11014 0800/ 324511 073732 6113/ 11119 
40195 57009 22219 00253 444 20130 11014 0800/ 50101 80134 80021 
9/015=
0000013900
321
SSVX02 CWAO 110800
ZZYY 64726 11014 0800/ 172085 013016 6113/ 22219 
00064 444 20130 11014 0800/ 50101 80138 80002 9////=
0000013900
322
SSVX02 CWAO 110800
ZZYY 64735 11014 0800/ 765575 000663 6113/ 22219 
00058 444 20130 11014 0800/ 50101 80140 80010 9/015=
0000013900
323
SSVX02 CWAO 110800
ZZYY 64740 11014 0800/ 766330 011638 6112/ 22219 
00040 444 20130 11014 0800/ 50101 80148 80032 9/015=
0000013900
324
SSVX02 CWAO 110800
ZZYY 64739 11014 0800/ 766031 013007 6112/ 22219 
00041 444 20130 11014 0800/ 50101 80148 80015 9/015=
0000015100
325
SSVX02 CWAO 110800
ZZYY 56504 11014 0800/ 317093 093417 6113/ 11119 
40116 57021 22219 00270 444 20130 11014 0800/ 50100 80146 80023=
0000013900
326
SSVX02 CWAO 110800
ZZYY 64731 11014 0800/ 764250 013097 6113/ 22219 
00075 444 20130 11014 0800/ 50101 80138 80003 9/015=
0000013900
327
SSVX02 CWAO 110800
ZZYY 64736 11014 0800/ 168575 005687 6113/ 22219 
00066 444 20130 11014 0800/ 50101 80140 80003 9/015=
0000015100
328
SSVX02 CWAO 110800
ZZYY 26535 11014 0800/ 187289 040485 6113/ 11131 
11135 40001 57005 444 20130 11014 0800/ 50101 80134 80001 9////=
0000016000
329
SSVX02 CWAO 110800
ZZYY 56538 11014 0800/ 337606 135117 6113/ 11119 
40232 57003 22219 00178 444 20130 11014 0800/ 50101 80136 80011 
9/015=
0000085200
330
SAUZ31 UTTW 110800
METAR UTFN 110800Z VRB1MPS 0900 R28/0900N FZFG SCT005 M04/M05 Q1028
R28/CLRD70 NOSIG RMK QBB160=
METAR UTNN 110800Z VRB01MPS CAVOK 04/M02 Q1021 R33/CLRD60 NOSIG=
METAR UTNU 110800Z VRB01MPS 8000 NSC 05/M03 Q1020 R31/CLRD60 NOSIG=
METAR UTSA 110800Z 17004MPS 9999 NSC 07/M06 Q1022 R25/CLRD70 NOSIG=
METAR UTSB 110800Z 16008MPS 6000 NSC 07/M05 Q1022 R01/CLRD70 NOSIG=
METAR UTSK 110800Z 19003MPS 160V230 CAVOK 07/M02 Q1022 R16/CLRD70=
METAR UTSS 110800Z 14002MPS 100V220 9999 NSC 08/M10 Q1020 R88/CLRD70
NOSIG=
METAR UTST 110800Z 09002MPS 030V120 CAVOK 09/M06 Q1025 R88/CLRD70
NOSIG=
METAR UTFA 110800Z VRB01MPS 1000 R04/1000N BR NSC M03/M04 Q1027
R88/09//70=
METAR UTFF 110800Z 00000MPS 3000 BR NSC M01/M03 Q1026 R18/CLRD70=
METAR UTTT 110800Z 07002MPS CAVOK 08/M12 Q1023 R08R/CLRD70 NOSIG=
0000175000
331
SAIR31 OIII 110800
METAR OIAA 110800Z 24010KT 2500 BR FEW035CB SCT090 13/11 Q1018=
METAR OIAG 110800Z 12012KT 9999 SCT030CB BKN035 14/10 Q1020=
 METAR OIAH 110800Z 15008KT 4000 RA FEW035CB SCT040 OVC070 09/07
 Q1019=
 METAR OIAI 110800Z 14004KT 9999 SCT030CB SCT035 OVC070 10/08
 Q1018=
 METAR OIAM 110800Z 12016KT 8000 -RA SCT010 SCT030CB OVC090 13/11
 Q1019=
 METAR OIAW 110800Z 10006KT 7000 -SHRA FEW025CB SCT030 OVC080 13/10
 Q1018=
 METAR OIBA 110800Z 12014KT 5000 SA FEW025CB FEW030 OVC100 21/12
 Q1019=
 METAR OIBB 110800Z 13006KT 9999 -RA FEW030CB SCT035 OVC090 14/10
 Q1019 A3009=
 METAR OIBK 110800Z 07010KT 8000 -RA FEW030CB FEW025 OVC080 14/12
 Q1021=
METAR OIBL 110800Z 05008KT 4000 HZ SCT025 OVC080 14/11 Q1022=
METAR OIBS 110800Z 08024KT 9999 SCT035 OVC100 20/15 Q1020=
 METAR OICC 110800Z 12008KT 4000 -SN FEW035CB SCT040 OVC070 M00/M02
 Q1020 A3013 TEMPO SN=
 METAR OICI 110800Z 14004KT 4000 -RA FEW015 FEW025CB SCT035 OVC080
 02/02 Q1018 A3006=
 METAR OICJ 110750Z 12004KT 5000 BR FEW035CB SCT040 BKN080 00/M02
 Q1020=
 METAR OICK 110750Z 29008KT 8000 -SHRA FEW035CB SCT040 OVC080 04/02
 Q1019=
 METAR OICS 110800Z 00000KT 3500 BR FEW025 FEW035CB SCT035 BKN080
 M01/M03 Q1020=
METAR OIFK 110800Z 30010KT 4000 -SN SCT030 OVC090 02/00 Q1025=
 METAR OIFM 110800Z 00000KT 1800 BR SCT040 BKN100 01/M01 Q1020
 A3012=
 METAR OIFS 110800Z 00000KT 1000 -SN BR FEW030CB SCT035 OVC080
 M04/M05 Q1020=
METAR OIGG 110800Z 00000KT 3000 BR SCT025 BKN090 09/07
Q1016=
METAR OIGK 110750Z 00000KT 9999 FEW035 BKN150 M04/M10 Q1019=
METAR OIHH 110800Z 00000KT 2500 BR BKN040 SCT090 M06/M09
Q1019=
METAR OIHM 110800Z 00000KT 2000 BR SCT035 BKN090 M01/M02 Q1019=
0000174900
332
SAIR31 OIII 110800 RRA
 METAR OIIE 110800Z 19004KT 6000 FEW040 FEW045CB OVC100 03/M05
 Q1022 A3020 NOSIG=
 METAR OIII 110800Z 19004KT 5000 HZ FEW040 OVC100 03/M06 Q1022
 A3018 TEMPO FEW035CB SCT030 BKN100 TEMPO FEW035CB SCT030 BKN100=
 METAR OIIK 110800Z 14010KT 5000 HZ FEW035CB SCT040 OVC090 01/M04
 Q1022=
 METAR OIIP 110800Z 26006KT 1200 -SN BR SCT030CB SCT035 OVC080
 M03/M04 Q1021=
METAR OIIS 110800Z 00000KT 9999 FEW035 BKN200 06/M06 Q1021=
 METAR OIKB 110750Z 35004KT 8000 -RA FEW025CB SCT030 OVC090 15/08
 Q1022 A3019 NOSIG=
METAR OIKK 110750Z 00000KT 9999 FEW035 OVC100 03/M03 Q1021 A3016=
METAR OIKO 110750Z 27004KT 8000 FEW030 OVC090 18/01 Q1022=
 METAR OIKQ 110800Z 02014KT 8000 -RA FEW025CB SCT030 SCT090 15/07
 Q1021=
METAR OIMB 110800Z 08010KT 9999 FEW040 SCT090 OVC190 06/M14 Q1021=
METAR OIMC 110800Z 18008KT CAVOK 15/M06 Q1021=
METAR OIMD 110800Z 00000KT CAVOK 06/M04 Q1018=
METAR OIMM 110800Z 08006KT CAVOK 07/M09 Q1020 A3013=
METAR OINB 110800Z VRB02KT CAVOK 11/07 Q1016=
 METAR OING 110800Z 36004KT 5000 HZ FEW025 SCT090 BKN190 11/07
 Q1017=
METAR OINK 110800Z 00000KT 1500 BR SCT015 BKN030 08/07 Q1016=
METAR OINN 110800Z VRB02KT CAVOK 12/08 Q1017=
METAR OINR 110800Z 00000KT 9999 SCT040 BKN170 11/07 Q1016=
METAR OISA 110750Z 00000KT 9999 FEW040TCU 05/M04 Q1019=
 METAR OISF 110750Z 16006KT 7000 -SHRA FEW030CB SCT035 OVC090 07/01
 Q1021=
 METAR OISL 110800Z 00000KT 5000 -RA FEW030CB SCT035 OVC080 08/04
 Q1022=
 METAR OISS 110800Z 00000KT 2500 BR FEW030CB SCT035 OVC080 03/00
 Q1022 A3020=
 METAR OISY 110800Z 12004KT 1000 BR FEW030CB SCT035 OVC080 02/01
 Q1021 REDZ=
 METAR OITL 110750Z 23021KT 9999 FEW030 SCT080 BKN180 M03/M09
 Q1016=
0000058600
333
SAIR31 OIII 110800 RRB
 METAR OITR 110800Z 03004KT 2000 HZ SCT035 BKN170 M06/M10 Q1021
 NOSIG=
METAR OITT 110800Z 00000KT 7000 FEW035 BKN180 M05/M11 Q1022 A3020=
METAR OITU 110750Z 00000KT 3000 BR SKC M14/M14 Q1021=
METAR OIYY 110800Z 00000KT 6000 FEW035 SCT100 06/M01 Q1021=
METAR OIZB 110800Z 08004KT CAVOK 10/00 Q1025=
METAR OIZC 110750Z 05006KT CAVOK 20/M06
Q1022 A3020=
 METAR OIZH 110800Z 13010KT 9999 FEW035 SCT090 BKN190 06/M06 Q1022
 A3019 NOSIG=
METAR OIZI 110800Z 03004KT CAVOK 15/M04 Q1024=
METAR OIZJ 110800Z 00000KT CAVOK 19/08 Q1022=
00000000