0000082200
146
SABZ42 KWBC 110000
METAR
SBJR NIL=
SBLO 110000Z 09004KT CAVOK 28/18 Q1014=
SBMA 110000Z 03004KT CAVOK 25/24 Q1011=
SBME NIL=
SBMN 110000Z 10003KT 5000 RA BKN009 BKN100 23/22 Q1012 RERA=
SBMO 110000Z 10004KT 9999 SCT020 24/22 Q1014=
SBMQ 110000Z 02003KT 9999 BKN025 26/23 Q1011=
SBMT NIL=
SBPC NIL=
SBPK 110000Z 35003KT CAVOK 21/20 Q1010=
SBPP NIL=
SBPV 110000Z 06004KT 9999 SCT023 27/23 Q1008=
SBRB 110000Z 00000KT 9999 FEW020 ///// Q1008=
SBRJ 110000Z 19003KT CAVOK 27/23 Q1012=
SBSC NIL=
SBSJ 110000Z 13003KT 9999 FEW025 24/16 Q1016=
SBSM NIL=
SBSP 110000Z 11003KT 6000 NSC 24/21 Q1017=
SBST NIL=
SBTE 110000Z 36008KT 9999 -RA SCT010 OVC070 26/23 Q1010=
SBTU NIL=
SBUG NIL=
SBUR NIL=
SBVH NIL=
SBVT 110000Z 32002KT 9999 FEW020 26/23 Q1015=
SBYS NIL=

0000091200
147
SAAK32 KWBC 110000
METAR
PABA 110001Z AUTO 27019KT 2 1/2SM BR OVC045 M27/M29 A2985=
PABI 102353Z 00000KT 10SM -SN BKN033 BKN048 BKN080 M17/M19
     A2949=
PACZ 102355Z AUTO 02015G28KT 360V060 4SM -SN BKN015 M07/M09
     A2942=
PADK 102356Z AUTO 23016G30KT 9SM FEW026 BKN040 OVC075 04/M01
     A2890=
PADL NIL=
PADQ 102353Z 00000KT 10SM SCT040 02/M04 A2942=
PAEH 102355Z AUTO 17012G21KT 10SM OVC004 01/00 A2933=
PAFB 102355Z 00000KT 7SM SCT100 M25/M29 A2958=
PAGA 102358Z AUTO 00000KT 5SM BR CLR M24/M27 A2969=
PAIM 102355Z AUTO 19002KT 10SM CLR M21/M26 A2957=
PALU 102355Z AUTO 06009KT 10SM OVC009 M18/M20 A3001=
PASV 102355Z AUTO VRB01KT 7SM -SN OVC011 M11/M12 A2938=
PASY 102356Z 36028G34KT 9SM FEW008 BKN019 OVC028 00/00 A2880=
PATC 102355Z AUTO 03022KT 3/4SM BR VV002 M18/M20 A2975=
PATL 102355Z AUTO 08004KT 10SM -SHSN OVC010 M16/M18 A2953=
PBTI NIL=

0000052900
148
SABZ43 KWBC 110000
METAR
SBAN NIL=
SBAT NIL=
SBBA NIL=
SBBQ NIL=
SBBW NIL=
SBCC NIL=
SBER NIL=
SBES NIL=
SBGA NIL=
SBIZ NIL=
SBJF NIL=
SBJP 110000Z 13006KT 9999 FEW020 25/21 Q1014=
SBKG NIL=
SBLB NIL=
SBLP NIL=
SBMK NIL=
SBMS NIL=
SBMZ NIL=
SBPB 110000Z 08012KT 9999 FEW020 28/24 Q1011=
SBPJ NIL=
SBPL 110000Z 06001KT 9999 FEW023 25/22 Q1012=
SBPN NIL=
SBQV NIL=
SBRP 110000Z 10003KT CAVOK 22/20 Q1014=
SBTF NIL=
SBTK NIL=
SBUF NIL=
SBUI NIL=
SBUL NIL=

0000051100
149
SACA31 KWBC 110000
METAR
MBJT NIL=
MBPV 110000Z 06010KT 9999 SCT010 25/21 Q1018=
MBSC NIL=
MKJP 110000Z 13014KT 9999 FEW022 28/21 Q1015=
MKJS NIL=
MUCM 102352Z 08009KT 9000 FEW020 22/18 Q1018=
MUCU 102351Z 12012KT 9000 FEW020 26/21 Q1016=
MUHA 102355Z 21005KT 9000 FEW040 22/19 Q1017=
MUVR 102352Z 05007KT 9000 FEW030 25/22 Q1017=
MWCB NIL=
MWCR NIL=
MYAM NIL=
MYAT NIL=
MYBS NIL=
MYEC NIL=
MYEG NIL=
MYEH NIL=
MYEM NIL=
MYGF NIL=
MYGW NIL=
MYNN NIL=

0000083600
150
SACA35 KWBC 110000
METAR
MGGI NIL=
MGPB 110000Z 06004KT 9999 SCT017 24/22 Q1013 A2991=
MGSJ 110000Z 00000KT 9000 SKC 28/23 Q1010 A2983 FU=
MHLC 110000Z 15002KT 9999 SCT024 BKN070 24/22 Q1013 A2991
     NOSIG=
MHLM 110000Z 01006KT 9999 FEW030 BKN080 25/23 Q1013 A2991
     NOSIG=
MHTG 110000Z 03007KT 9999 BKN028 22/14 Q1017 A3003 NOSIG=
MNPC NIL=
MPBO NIL=
MPCH NIL=
MPDA NIL=
MPMG NIL=
MPSA NIL=
MPTO 110000Z 06004KT 9999 FEW020 27/20 Q1008 NOSIG=
MRLB 110000Z 08011KT CAVOK 28/18 A2978=
MRLM NIL=
MROC 110000Z 11013KT 9999 FEW030 22/13 A2996 NOSIG=
MRPV 110000Z 09012KT 9999 FEW040 22/14 A2998 NOSIG=
MSLP 102350Z 28006KT CAVOK 27/19 Q1009 A2981=
MSSS 102350Z 22005KT CAVOK 25/21 Q1013 A2993=
MZBZ 110000Z 03005KT 9999 FEW021 BKN045 24/22 A2993 Q1013 RESHRA
     NOSIG=

0000059900
151
SACA41 KWBC 110000
METAR
MKBK NIL=
MUBA NIL=
MUBY NIL=
MUCA NIL=
MUCL 102352Z 11005KT 9000 FEW020 26/23 Q1016=
MUCM 102352Z 08009KT 9000 FEW020 22/18 Q1018=
MUCU 102351Z 12012KT 9000 FEW020 26/21 Q1016=
MUGM 102356Z 09009KT 9999 FEW030 27/20 A3003 RMK SLP168 T02670200
     10300 20267 53009=
MUGT NIL=
MUHA 102355Z 21005KT 9000 FEW040 22/19 Q1017=
MUMO NIL=
MUMZ NIL=
MUNG NIL=
MUVR 102352Z 05007KT 9000 FEW030 25/22 Q1017=
MUVT NIL=
MYEF NIL=
MYSM NIL=
TABS NIL=
TAOA NIL=
TBBI NIL=
TDCF 110000Z 10004KT 9999 -SHRA BKN015 25/19 Q1015=

0000004200
152
SAHA31 KWBC 110000
NIL=

0000074500
153
SAJP31 KWBC 110000
METAR
RJAA 110000Z 31004KT 9999 FEW025 01/M07 Q1024 NOSIG=
RJAH 110000Z 35003KT 310V010 9999 FEW020 00/M07 Q1024=
RJCC 110000Z 20005KT 9999 -SHSN FEW015 SCT040 BKN070 M07/M11
     Q1018=
RJCH 110000Z 31004KT 8000 -SHSN FEW005 SCT015 BKN025 M06/M09
     Q1020=
RJFK 110000Z 36002KT 9999 FEW035 SCT060 01/M05 Q1030=
RJFT 110000Z 06003KT 9999 SCT060 03/M02 Q1030=
RJFU 110000Z 13004KT 9999 FEW040 BKN070 05/01 Q1031=
RJNN NIL=
RJOO 110000Z 33004KT 9999 FEW025 03/M05 Q1029=
RJSS 110000Z 23008KT 9999 FEW020 01/M07 Q1023=
RJTT 110000Z 03005KT 360V070 9999 FEW060 03/M06 Q1025 NOSIG=
RODN 102358Z AUTO 05008KT 10SM BKN075 13/09 A3036 RMK AO2 SLP289
     T01320091 10132 20068 52014=

0000020900
154
SAAY31 RUMS 110000
METAR UDYZ 110000Z 00000MPS 2300 BR BKN010 M09/M11 Q1027 R09/000070
NOSIG=
METAR UDSG 110000Z 00000MPS 0100 R02/0325V0650U FZFG VV001 M21/M23
Q1021 R02/CLRD70 NOSIG=

0000009900
155
SPCN47 CWAO 110004
SPECI CYWA 110004Z AUTO 14005KT 1 1/4SM OVC002 M04/M05 A3011=

0000096400
156
SAKZ31 RUMS 110000
METAR UAAA 110000Z 16002MPS 120V200 1500 R23R/P2000D R23L/P2000D BR
FU SCT200 M16/M18 Q1026 8891//60 NOSIG=
METAR UACC 110000Z 18008MPS 9999 -SN DRSN OVC025 M09/M11 Q1024
R22/8/0050 NOSIG RMK QFE736/0982=
METAR UAKK 110000Z 17007MPS 9999 BKN024 OVC210 M13/M16 Q1026
R23/850555 NOSIG RMK QFE722/0963=
METAR UAOO 110000Z 17007MPS 3300 BR BKN160 M04/M06 Q1023 NOSIG RMK
QFE755/1007=
METAR UARR 110000Z 23003MPS 9999 BKN009 OVC026 00/M01 Q1010
R22/650340 NOSIG RMK QFE754/1006=
METAR UATE 110000Z 11004MPS 0100 R12/0400 FZFG VV001 M02/M02 Q1018
R12/0///70 NOSIG RMK QBB030 QFE762/1016=
METAR UATG 110000Z 19003MPS 5000 BR OVC024 01/01 Q1016 R14/19//65
NOSIG RMK QFE764/1019=
METAR UATT 110000Z 25004MPS 1100 R13/1900 BR OVC002 M00/M00 Q1010
R13/490245 NOSIG RMK QBB080 QFE738/0984=
METAR UAUU 110000Z 17007MPS 4500 -SHSN BLSN OVC033CB M07/M09 Q1013
TEMPO 2000 -SHSN BLSN BKN005CB RMK QFE744/0992=

0000075700
157
SAZA31 FAPR 110000
METAR FABL 110000Z AUTO 17003KT //// // ////// 17/10 Q1018=
METAR FACT 110000Z 19010KT 9999 FEW030 17/12 Q1017 NOSIG=
METAR FAGG 110000Z AUTO 33004KT 9999 -RA OVC025 16/14 Q1019=
METAR FALA 110000Z AUTO 00000KT //// // 20/08 Q1018=
METAR FALE 110000Z 22004KT 180V250 9999 -RA BKN022 21/19 Q1015 NOSIG=
METAR FALW 110000Z AUTO 23006KT //// // ////// 14/11 Q1016=
METAR FAMM 110000Z AUTO 22007KT //// // ////// 20/06 Q1017=
METAR FAOR 110000Z 21006KT CAVOK 19/08 Q1021 NOSIG=
METAR FAPE 110000Z 25013KT CAVOK 19/13 Q1017 NOSIG=
METAR FAPN 110000Z AUTO 26002KT //// // ////// 22/06 Q1015=
METAR FAPP 110000Z AUTO 03005KT //// // ////// 20/16 Q1017=
METAR FAUP 110000Z 19003KT CAVOK 19/02 Q1016 NOSIG=

0000012700
158
SANO38 ENMI 102350 RRA
METAR ENOA 102350Z 12010KT 080V140 9999 -SHRA BKN020 05/03 Q0997
           W///S4=

0000010000
159
SAAG41 SAZM 110000
METAR SAZM 110000Z  25004KT 8000  FEW025 SCT100
19/11 Q1012=

0000008400
160
SAAG41 SAVC 110000
METAR SAVC 110000Z  05008KT CAVOK 17/04 Q1013=

0000086100
161
SAHK31 VHHH 110000
METAR VHHH 110000Z 09008KT 8000 NSC 15/11 Q1025 NOSIG=
METAR RCTP 110000Z 16004KT 080V230 9999 FEW020 SCT060 18/13 Q1024
NOSIG RMK A3026=
METAR RCKH 110000Z 06004KT 030V100 7000 FEW016 18/14 Q1024 TEMPO
5000 HZ RMK A3026=
METAR RCSS 110000Z 11008KT 9999 FEW030 16/13 Q1025 NOSIG RMK A3028
=
METAR VMMC 110000Z 05010KT 6000 FEW020 15/11 Q1024 NOSIG=
METAR RPLL 110000Z 05003KT 360V120 9000 FEW023 SCT300 25/19 Q1017
NOSIG RMK A3004=
METAR RPVM 110000Z 02010KT 9999 SCT020 OVC090 26/23 Q1014 A2994 LOW
CLDS OVHD=
METAR RPMD 110000Z
36004KT 8000 -RA FEW016 BKN090 OVC290 23/22 Q1012 A2990 LGT RA CONS=
METAR RPLB 110000Z 06007KT 9999 FEW030 OVC300 24/18 Q1016 NOSIG=
METAR RPLI 110000Z 09002KT 8000 HZ FEW019 21/17 Q1017 RMK A3003=
METAR RPMZ 110000Z 00000KT 8000 -RA FEW018 OVC120 25/24 Q1013=

0000011500
162
SACN62 CYPL 110000
METAR CYPL 110000Z 17007KT 4SM -SN BR OVC005 M08/M09 A2948 RMK SF8
 SLP012=

0000011700
163
SACN61 CYPY 110000
METAR CYPY 110000Z AUTO 26005KT 2 1/4SM -SN OVC027 M17/M19 A2953 RMK
 SLP025=

0000004200
164
SASP36 LEMM 110000
NIL=

0000004200
165
SASP37 LEMM 110000
NIL=

00000000