0000046600
606
SAMS32 WMKK 110300
METAR WBGG 110300Z 04005KT 9999 BKN020 BKN150 28/24 Q1012 NOSIG=
METAR WBKK 110300Z 27002KT 9999 FEW015 SCT140 BKN270 30/25 Q1012
NOSIG=
METAR WMKJ 110300Z 35008KT 9999 SCT018 SCT130 BKN280 29/24 Q1012=
METAR WMKK 110300Z 05001KT 9999 FEW018 SCT140 BKN280 28/24 Q1013
NOSIG=
METAR WMKP 110300Z 02009KT 9000 FEW020 BKN140 BKN270 27/23 Q1013
NOSIG=
METAR WMSA 110300Z 30001KT 9999 FEW020 SCT140 BKN280 30/23 Q1012=

0000090100
607
SAMS33 WMKK 110300
METAR WMAU 110300Z 33006KT 8000 -RA FEW010 SCT140 BKN260 25/24 Q////
QFF1013=
METAR WMBA 110300Z 36002KT 9999 FEW017CB SCT140 BKN260 26/24 Q1012=
METAR WMKA 110300Z 06009KT 340V140 9999 FEW010 SCT140 BKN260 26/22
Q1013=
METAR WMKB 110300Z 05008KT 030V100 9999 FEW020 BKN140 BKN270 26/23
Q1013 NOSIG=
METAR WMKC 110300Z 05011KT 360V080 4000 -RA FEW008 SCT020 OVC200
25/24 Q1014=
METAR WMKD 110300Z 01005KT 9999 FEW018 SCT160 BKN270 26/23 Q1014
NOSIG=
METAR WMKE 110300Z 30005KT 4000 -RA FEW000 FEW016CB BKN020 OVC190
23/23 Q1014=
METAR WMKI 110300Z 04007KT 350V080 9999 FEW032 BKN140 BKN260 25/23
Q1013 RERA=
METAR WMKL 110300Z 03009KT 330V110 9999 FEW022 BKN140 BKN270 28/21
Q1013=
METAR WMKM 110300Z 03008KT 350V080 9999 FEW020 SCT140 BKN270 28/24
Q1013=
METAR WMKN 110300Z 15001KT 7000 -RA FEW006 SCT022 OVC190 23/23 Q1014=

0000009700
608
SASB31 VCRI 110310
METAR VCRI 110310Z 02006KT 8000 FEW016   26/21 Q1014 NOSIG=

0000073000
609
SAJP42 KWBC 110300
METAR
RJDK NIL=
RJDM NIL=
RJDO NIL=
RJDT 110300Z 01005KT 300V100 9999 SCT035 04/M05 Q1031=
RJEB 110300Z 33007KT 1400 R32/1200VP1800D -SHSN VV004 M08/M11
     Q1013=
RJEC 110300Z 26010KT 220V280 9999 -SHSN FEW007 SCT030 BKN040
     M07/M14 Q1013=
RJEO NIL=
RJER NIL=
RJFA NIL=
RJFC NIL=
RJFE NIL=
RJFG 110300Z 31007KT 260V360 9999 FEW025 SCT/// 10/02 Q1028=
RJFM 110300Z 08004KT 030V130 CAVOK 09/M04 Q1028=
RJFN NIL=
RJFO 110300Z 30007KT 230V010 9999 FEW030 SCT040 08/M01 Q1029=
RJFR 110300Z 06005KT 040V100 7000 -SHRA FEW010 SCT015 BKN030 04/01
     Q1030=
RJFY NIL=
RJFZ NIL=
RJKA 110300Z 05010KT 9999 FEW030 SCT035 BKN045 14/05 Q1028=
RJKB NIL=

0000067300
610
SAJP43 KWBC 110300
METAR
RJKI NIL=
RJKN NIL=
RJNF NIL=
RJNG NIL=
RJNH NIL=
RJNO NIL=
RJNT 110300Z 20006KT 4000 -SHSN FEW005 BKN015 02/00 Q1026=
RJNY NIL=
RJOA 110300Z 26012KT 9999 FEW025 SCT035 05/M06 Q1027=
RJOB 110300Z 27010KT 230V310 9999 FEW025 SCT035 06/M02 Q1027=
RJOC 110300Z 30013KT 9999 FEW030 SCT035 BKN050 05/00 Q1028=
RJOE NIL=
RJOF NIL=
RJOI 110255Z 30010KT 9999 FEW025 07/M04 A3038 RMK SLP287 T00671039
     58017=
RJOK 110300Z 19005KT 140V270 9999 FEW040 08/M03 Q1027=
RJOM 110300Z 31007KT 280V350 9999 FEW025 SCT040 07/M02 Q1029=
RJOP NIL=
RJOR 110300Z 23012KT 9999 FEW008 SCT020 BKN035 04/M01 Q1028=

0000060400
611
SAJP44 KWBC 110300
METAR
RJOS NIL=
RJOT 110300Z 29012KT 9999 FEW025 SCT035 06/M03 Q1028=
RJOY 110300Z 28013KT 9999 FEW025 07/M02 Q1027=
RJOZ NIL=
RJSA 110300Z 24015KT 1300 R24/1200VP1800U -SHSN FEW002 SCT003
     BKN005 M05/M07 Q1019=
RJSC 110300Z 23007KT 6000 -SHSN FEW003 SCT015 BKN025 00/M04
     Q1022=
RJSD NIL=
RJSH NIL=
RJSI 110300Z 17007KT 9999 FEW020 SCT040 M01/M05 Q1021=
RJSO NIL=
RJST NIL=
RJSU NIL=
RJTA NIL=
RJTC NIL=
RJTE NIL=
RJTF 110300Z VRB02KT 9999 FEW040 08/M09 Q1023=
RJTH NIL=
RJTI 110300Z VRB03KT 9999 FEW030 07/M08 Q1023=

0000027900
612
SAJP45 KWBC 110300
METAR
RJTJ NIL=
RJTK NIL=
RJTL NIL=
RJTO 110300Z 34005KT 280V020 9999 FEW030 SCT040 08/00 Q1022=
RJTQ NIL=
RJTR NIL=
RJTU NIL=
RJTX NIL=
RJTY 110258Z AUTO 00000KT 10SM CLR 07/M09 A3024 RMK AO2 SLP251
     T00671085 58022=

0000057100
613
SAMS34 WMKK 110300
METAR WBGB 110300Z 30003KT 9999 FEW008 SCT014 BKN150 27/25 Q1013=
METAR WBGR 110300Z 35004KT 9999 RA SCT014 BKN150 24/23 Q1013=
METAR WBGS 110300Z 03005KT 9999 BKN016 BKN150 28/23 Q1012=
METAR WBGY 110300Z 10001KT 9999 SCT016 BKN150 27/24 Q1013=
METAR WBKL 110300Z 04003KT 9999 FEW013 SCT140 BKN290 29/25 Q1012=
METAR WBKS 110300Z 07012KT 030V090 9999 SCT015 SCT140 OVC260 29/26
Q1012=
METAR WBKT 110300Z 17003KT 9999 SCT013 SCT032 BKN260 26/24 Q1013=
METAR WBKW 110300Z 03010KT 9999 FEW017 SCT140 BKN300 29/23 Q1011=

0000009900
614
SAAF18 LFPW 110300 RRA
METAR FMEE 110300Z 11012KT 9999 FEW026 27/21 Q1015 NOSIG=

0000019500
615
SAAF20 LFPW 110300 RRA
METAR FABL 110300Z 23001KT CAVOK 14/10 Q1018 NOSIG=
METAR FAEL 110300Z 25011KT CAVOK 17/12 Q1018=
METAR FAGG 110300Z 04003KT 9999 FEW045 13/12 Q1018=

0000026400
616
SAAF21 LFPW 110300 RRA
METAR FALA 110300Z AUTO 00000KT //// // 17/11 Q1020=
METAR FAMM 110300Z AUTO 15005KT //// // ////// 20/07 Q1017=
METAR FAPE 110300Z 25011KT CAVOK 18/13 Q1017 NOSIG=
METAR FAUP 110300Z 15005KT CAVOK 17/05 Q1015 NOSIG=

0000084900
617
SACI41 ZBBB 110300
METAR ZBHH 110300Z 19003MPS 160V220 8000 NSC M10/M22 Q1028 NOSIG=
METAR ZGHA 110300Z 33004MPS 2500 -DZ BR SCT004 BKN006 OVC040
05/03
Q1031 NOSIG=
METAR ZHCC 110300Z VRB01MPS 1000 R12/1300U HZ NSC 06/M02
Q1033
BECMG 1500=
METAR ZHHH 110300Z VRB01MPS 3500 BR NSC 04/02 Q1031 NOSIG=
METAR ZJHK 110300Z 07006MPS 9999 SCT020 BKN046 22/17 Q1022 NOSIG=
METAR ZJSY 110300Z 09008MPS 9999 FEW020 SCT066 26/16 Q1021 NOSIG=
METAR ZLLL 110300Z VRB01MPS 6000 NSC M07/M21 Q1030 NOSIG=
METAR ZSNJ 110300Z 07005MPS 2000 -RA BR SCT017 OVC040 05/02
Q1032
BECMG TL0430 BKN011=
METAR ZSOF 110300Z 12002MPS 080V160 3700 HZ BKN040 06/01 Q1031
NOSIG=
METAR ZUCK 110300Z VRB01MPS 1600 -RA BR FEW005 SCT015 OVC050
06/04
Q1030 NOSIG=
METAR ZYCC 110300Z 22006MPS CAVOK M10/M18 Q1025 NOSIG=
ZYHB NIL=

0000027600
618
SATH41 VTBB 110300
METAR VTPB 110300Z NIL=
METAR VTPM 110300Z VRB03KT 5000 BR SKC 23/17 Q1018 A3006
RMK/RWY27 INFO D=
METAR VTSE 110300Z 03008KT 5000 BR FEW022 BKN300 29/24
Q1015 A3000 RMK /RWY 06=
METAR VTSK 110300Z NIL=
METAR VTUJ 110300Z NIL=

0000020300
619
FTCN34 CWAO 110300 AAA
TAF AMD CYQV 110308Z 1103/1106 25006KT P6SM SCT006 TEMPO 1103/1106
     1/2SM FZFG BKN004
    RMK FCST BASED ON AUTO OBS. NXT FCST WILL BE ISSUED AT 111145Z=

0000066000
620
SARA32 RUMS 110300
METAR UHBB 110300Z 33004MPS 290V360 CAVOK M26/M33 Q1022 NOSIG RMK
QFE749/0999 36410160=
METAR UHHH 110300Z 25008G12MPS 9999 DRSN SKC M24/M30 Q1019 NOSIG RMK
QFE758/1010 23090060=
METAR UHMA 110300Z 02010G15MPS 2000 BLSN SCT200 M15/M21 Q1012 NOSIG
RMK QFE755/1007=
METAR UHMD 110300Z NIL=
METAR UHMM 110300Z 02006G11MPS 9999 DRSN FEW066 M17/M29 Q1007 NOSIG
RMK QFE741 88820555=
METAR UHPP 110300Z 28002MPS 240V320 9999 BKN023 BKN100 M04/M12 Q0994
NOSIG RMK MT OBSC QFE742/0990 SC05 055 055=
METAR UHSS 110300Z NIL=
METAR UHWW 110300Z VRB01MPS 9999 SKC M10/M20 Q1025 NOSIG RMK
QFE768/1024 25CLRD70=

0000107400
621
SARS32 RUMS 110300
METAR URKA 110300Z 30007G10MPS 9999 BKN033 OVC120 08/06 Q1012 RMK
QFE755/1007=
METAR URKK 110300Z 25008G11MPS 9999 SCT040 BKN100 09/04 Q1011 TEMPO
24012G17MPS RMK QFE755 SC065=
METAR URML 110300Z 16005MPS 6000 BKN008 03/02 Q1013 NOSIG RMK MT OBSC
QFE759/1013 SC070=
METAR URMM 110300Z 27002MPS 7000 FEW010 M05/M06 Q1009 30CLRD70 TEMPO
0300 FZFG OVC002 RMK MT OBSC QFE729/0972=
METAR URMN 110300Z 19004MPS 9999 SKC 05/M09 Q1009 NOSIG RMK QFE720
SC06=
METAR URMO 110300Z NIL=
METAR URMT 110300Z 20002MPS CAVOK 02/M01 Q1007 NOSIG RMK QFE717
SC0.60=
METAR URRR 110300Z 26010G15MPS 4000 -SHRA BKN006 SCT026CB OVC100
05/05 Q1005 22290047 TEMPO 25015G20MPS RMK QBB180 MAST OBSC=
METAR URSS 110300Z 05005G08MPS 9999 BKN210 04/M02 Q1016 NOSIG RMK
R06/07006MPS QFE761 02000070 06//////=
METAR URWA 110300Z 21003MPS 9999 OVC034 02/M01 Q1013 NOSIG RMK
QFE762/1016 SC055=
METAR URWI 110300Z 19009MPS CAVOK 02/00 Q1009 NOSIG=
METAR URWW 110300Z 20008MPS 9999 -RA BKN023 OVC100 03/02 Q1004 NOSIG
RMK 29290060=

0000041000
622
SARA33 RUMS 110300
METAR UIAA 110300Z VRB02MPS 9999 FEW100 M26/M32 Q1029 NOSIG RMK
QFE713 29CLRD70=
METAR UIBB 110300Z 08001MPS 6000 -SHSN SCT026CB BKN100 M22/M24 Q1028
NOSIG RMK QFE727/0970 30490240=
METAR UIII 110300Z 09002MPS CAVOK M21/M24 Q1032 NOSIG RMK QFE731/0975
12490340=
METAR UIUU 110300Z 13002MPS 7000 -SN FEW033 OVC100 M18/M20 Q1032
NOSIG RMK QFE729/0972 26450545=

0000010400
623
SAIN90 VEPT 110950
METAR VEPT 110950Z 13006KT 1500 FU  FEW020  SCT100 17/15 Q1015 NOSIG=
0000097300
624
SARS35 RUMS 110300
METAR USPP 110300Z 12004MPS 7000 OVC007 M05/M06 Q1006 21350139 NOSIG
RMK QFE744/0992=
METAR UWKD 110300Z 16010G13MPS 9999 -SNRA OVC005 M00/M01 Q0999
R11/2/0050 TEMPO 2000 OVC003 RMK QFE739/0986=
METAR UWKE 110300Z 17003MPS 7000 OVC005 M04/M05 Q1003 NOSIG RMK 
QBB160 QFE736/0981 21420542=
METAR UWKS 110300Z 16010MPS 2200 -SHSN OVC007CB M00/M01 Q0994 TEMPO
1000 SHSN OVC004CB RMK QFE730 06590534=
METAR UWLW 110300Z 18008MPS P5000 BKN004 OVC011 M00/M01 Q1000
20820550 TEMPO 18012MPS RMK QFE744=
METAR UWOR 110300Z 26004MPS 9999 OVC020 M01/M03 Q1009 25450245 NOSIG
RMK QFE733/0978=
METAR UWOO 110300Z 27005MPS 3200 BR OVC007 M01/M02 Q1010 26830334
TEMPO 0400 FG RMK QFE747/0996=
METAR UWSS 110300Z 19006MPS 0900 R12/1900 SN FG VV003 00/00 Q1000
1219//55 NOSIG RMK QFE738=
METAR COR UWWW 110300Z 18009MPS 3000 BR OVC003 M01/M02 Q1003 23520540
33//99// TEMPO 18015MPS -FZDZ OVC003 RMK QBB110 QFE741/0989=

0000012300
625
SARA31 RUMS 110300
METAR UEEE 110300Z 00000MPS 2100 BR OVC200 M43/M48 Q1035 NOSIG RMK
QFE767 23490145=

00000000