0000032500
186
USCN01 CWAO 110000
TTAA  61001 71603 99028 01809 22010 00230 00604 23024 92851
03502 25529 85516 05702 27031 70026 10316 28538 50554 26150
28544 40712 39756 29557 30903 52169 30068 25019 59563 30570
20158 59368 28576 15338 59973 28581 10589 64371 28083 88230
61760 29569 88116 64172 28581 77105 28089=
0000044300
187
UKCN01 CWAO 110000
TTBB  61008 71603 00028 01809 11873 06301 22866 04703 33793
08701 44789 07302 55680 10931 66612 16308 77577 19142 88559
21133 99534 23347 11525 23758 22506 25747 33495 26557 44492
26565 55475 28568 66387 41950 77382 41367 88355 44573 99279
55967 11230 61760 22218 61760 33204 58965 44176 57773 55159
60373 66157 59173 77142 61373 88136 60373 99116 64172 11110
64771 22100 64371 31313 48008 82315=
0000027500
188
UGCN01 CWAO 110000
PPBB  61008 71603 90012 22010 24024 25028 90346 26030 26029
28534 90789 28032 28030 27536 91246 28537 29041 28540 919//
28542 92057 29045 29562 30571 93013 30069 30061 30570 935//
29569 94367 28081 28588 29582 95012 28079 28089 28083=
0000032500
189
USCN05 CWAO 110000
TTAA  61001 71957 99994 25128 29007 00058 ///// ///// 92620
28123 30526 85221 31521 32034 70597 32734 31025 50492 42561
29536 40640 50962 28541 30826 55569 30049 25942 54575 30047
20085 53580 30533 15267 58578 30039 10521 57180 30060 88281
56565 29549 88170 57978 30542 77104 30062=
0000031900
190
USCN04 CWAO 110000
TTAA  61001 71924 99979 28327 25010 00609 ///// ///// 92448
30727 28510 85053 26722 08506 70451 28515 29510 50479 44143
35507 40626 51364 07009 30811 57165 11510 25926 58769 09015
20066 59573 13510 15244 62973 11513 10490 69170 06512 88307
57564 12013 88139 65772 12023 77999=
0000035700
191
UKCN05 CWAO 110000
TTBB  61008 71957 00994 25128 11856 32119 22835 30123 33824
30717 44802 30317 55693 32937 66658 34132 77567 40339 88515
42557 99505 42159 11500 42561 22442 45965 33402 50962 44366
52766 55337 52169 66281 56565 77256 54372 88210 53180 99170
57978 11130 58579 22115 60778 33107 60378 44100 57180 31313
48008 82315=
0000045500
192
UKCN04 CWAO 110000
TTBB  61008 71924 00979 28327 11922 30926 22902 29925 33880
29314 44855 26521 55812 25707 66740 28703 77719 27916 88686
28322 99663 30314 11649 31541 22600 34744 33563 36926 44542
39356 55479 46729 66459 48339 77451 49120 88436 50357 99427
50956 11423 51157 22408 51163 33364 51967 44307 57564 55304
56965 66251 58768 77235 57771 88151 63373 99147 62973 11139
65772 22117 66371 33100 69170 31313 48008 82325=
0000312900
193
SMRS15 RUMS 110000
AAXX 11001
22282 NIL=
22438 NIL=
22471 41396 80808 11203 21236 30075 40101 57008 77173 8672/ 333 86707
91010 91111=
22563 41396 80604 11177 21199 30005 40043 57010 77373 8672/ 333 86709
91111=
22641 41397 80704 11157 21183 39971 49987 56008 77173 885// 333
86707=
22695 41497 80807 11207 21229 39912 40078 57009 73673 8657/ 333 86615
91011 91112=
22867 41497 81003 10004 21003 39778 49888 57026 77175 8872/ 333
88710=
22939 41496 81201 10001 20000 39675 49833 57011 77172 8872/ 333
84711=
22996 41596 81202 11014 21020 39813 49998 57019 71084 889//=
23324 42979 00302 11436 21461 30116 40209 52002=
27051 41496 81304 10002 21002 39718 49882 57028 77172 8652/ 333
84710=
27225 41462 81601 10011 20011 39720 49848 57008 70272 885//=
27252 41496 81405 11001 21001 39708 49891 57030 77177 8672/ 333 86513
91110=
27333 41245 81806 10001 21002 39707 49861 57019 77172 887// 333 88605
91110=
27369 41697 81604 10001 21002 39795 49931 57041 77172 8802/ 333 91008
91110=
27393 41498 81706 11008 21015 39863 40030 57016 70275 886// 333 91009
91109=
27479 41496 81306 10001 21002 39842 49975 57034 77172 8872/ 333 88710
91012 91112=
27532 41295 82004 10003 20002 39671 49875 57018 77187 8872/ 333
86703=
27648 41394 82003 10003 20003 39747 49913 57025 77372 8872/=
27675 42597 81608 10002 21012 39819 49987 57030 885// 333 91008
91111=
27679 42598 81606 11002 21014 39783 40006 57028 885// 333 91010
91111=
27776 42570 81503 10005 21015 39885 40008 56029 8357/=
27799 42560 81703 10001 21004 39963 40054 57016 8802/ 333 88523=
27858 41297 81906 11001 21003 39648 49966 58031 77177 8872/ 333 91112
91112=
27872 42580 81505 11005 21015 39801 40017 57029 886//=
27894 42484 81908 11006 21015 39873 40052 57017 889// 333 88919 91014
91114=
27955 41365 81903 11001 21004 39725 49978 58033 77174 8872/ 333
88709=
27972 41356 81706 11006 21008 39718 40029 57033 71022 886// 333
88709=
27981 42597 81803 11005 21016 39927 40050 57021 889// 333 88923=
28214 41496 81404 11035 21046 39850 40064 57004 70275 8872/ 333 91005
91106=
28705 41458 81602 11025 21029 39870 40069 58007 71042 886// 333
88710=
28806 41296 81601 11037 21044 39969 40090 58003 71022 886// 333
88706=
28908 42484 82004 11004 21022 39982 40095 54001 886// 333 88714=
28916 41564 82601 11013 21016 39855 40096 52006 70272 885// 333
88621=
34056 41596 81905 10001 21002 39736 49994 57033 78684 889// 333 88920
91111=
34072 41/92 91705 11010 21011 39671 40041 57031 74544=
34083 41356 81804 11005 21010 39954 40036 56017 71022 886// 333
88706=
34098 41456 82205 11008 21013 30036 40081 57013 71022 886// 333
88710=
34199 42497 82005 11011 21013 39970 40101 52018 88500=
34273 41296 81804 11002 21004 30009 40071 57023 71022 8872/ 333
88705=
35001 42997 81903 10004 21010 30007 40087 58003 8802/=
35007 42398 82104 10002 21007 30004 40095 58006 886// 333 88708=
35127 41496 82902 11008 21009 39933 40115 52014 71072 886// 333
88714=
35138 41497 82003 11023 21029 39756 40112 50001 70272 8802/ 333
88513=
0000247000
194
SMRS16 RUMS 110000
AAXX 11001
34240 41396 81905 10032 20024 39873 40008 57038 78082 889//=
34253 41497 81706 10015 20012 39863 40027 57037 76162 8872/ 333
91111=
34254 41596 81804 10028 20024 39899 40018 57038 78088 889//=
34262 41596 81904 10019 20015 39897 40041 58038 71022 886//=
34267 41495 81905 10021 20015 39917 40043 57035 71022 885// 333 91010
91110=
34321 41497 82903 10040 20028 39863 40000 57014 76162 8872/ 333 87714
91110=
34344 42598 82104 10054 20042 39927 40013 57037 885// 333 91110=
34356 41496 81804 10025 20023 39903 40051 58032 75155 886//=
34373 42597 81603 10002 20001 30041 40085 56025 885//=
34438 41497 82005 10051 20047 39836 40024 57039 78082 883// 333
91111=
34445 41496 82005 10056 20045 39926 40038 56034 75152 886// 333
91110=
34476 42598 81505 10013 21003 30092 40100 58025 885//=
34535 42498 82306 10066 20042 39975 40045 57031 885// 333 91011
91115=
34555 42498 81909 10040 20026 39990 40081 57027 886// 333 91013
91114=
34560 41596 82008 10026 20022 39914 40080 57027 76162 8652/ 333 86620
91010 91110=
34578 42997 81703 10030 20014 30107 40114 57022 8805/=
34644 41596 82303 10051 20034 30005 40081 57024 71022 888//=
34646 42998 82104 10055 20016 39999 40080 57023 8805/ 333 91110=
34655 42597 81905 10048 20025 30035 40094 58023 885//=
34662 42498 72302 10045 20017 30093 40105 57024 87500 333 87618=
34720 42497 82309 10034 20026 30027 40066 56026 886// 333 91010
91111=
34727 42497 82007 10073 20051 30072 40075 57014 885// 333 91014
91114=
34730 41497 82310 10066 20050 39979 40070 57023 70262 885// 333 88612
91013 91113=
34740 42598 71803 10024 20007 39998 40095 57025 87500=
34743 42497 71703 10037 20017 3//// 4//// 5//// 87500=
34759 41996 71603 10025 20008 39987 40118 57021 71022 83044=
34785 42597 81702 10022 21000 30167 40144 57016 885//=
34824 42597 82403 10070 20050 30085 40090 55012 883// 333 91110=
34845 32998 81603 10030 20009 39998 40105 58026 82031=
34858 41996 31804 10030 20003 30009 40117 58024 71000 83030=
34861 42997 61906 10016 21002 39880 40123 57023 86030=
34866 82998 81704 10026 20008 30141 40132 57022 8007/=
34880 42697 51401 10020 21005 30177 40151 58015 85500=
34887 42998 01602 10009 21011 30175 40156 57016=
37018 42698 21506 10100 20030 30072 40147 56010 82500 333 91012
91112=
37054 42997 02601 11047 21053 39748 40146 57023=
37472 42998 01205 10037 20006 30160 40137 56031=
0000026300
195
UGCN05 CWAO 110000
PPBB  61008 71957 90012 29007 30019 30526 90345 31029 32036
32533 90678 32030 32030 32027 909// 31025 91246 30032 30539
29536 917// 29037 9205/ 29038 29047 93023 29550 30540 29035
9359/ 30032 30541 949// 30062 950// 30060=
0000036900
196
UGCN04 CWAO 110000
PPBB  61008 71924 90012 25010 29010 29005 90345 13005 11006
21001 90678 11506 23502 28010 909// 31010 91024 34511 30509
33506 91678 34010 31011 31511 92014 06507 10011 06511 92567
10514 12513 09511 93012 09013 11019 12520 93456 11011 13511
06010 938// 10017 94234 12023 12514 11513 94567 12510 06010
07513 9489/ 04512 06512=
0000026900
197
UGCN02 CWAO 110000
PPBB  61008 71811 90012 26501 23517 24018 90346 27039 27527
27031 90789 27031 24528 26541 91023 26553 26550 27055 91467
27551 28546 28042 92058 28051 28548 29052 93056 28551 28558
28553 94134 27571 28581 29078 9501/ 27575 28078=
0000030700
198
USCN02 CWAO 110000
TTAA  61001 71811 99012 10519 26501 00146 08550 25510 92747
11356 26526 85409 05743 26530 70899 13365 27044 50538 27960
27546 40695 38769 28044 30886 55156 29050 25000 63156 28554
20135 67350 29063 15311 63369 28580 10558 66372 28078 88220
66956 29057 77152 28581=
0000056700
199
UKCN02 CWAO 110000
TTBB  61008 71811 00012 10519 11002 08350 22949 11338 33924
11356 44914 09959 55908 06367 66905 05970 77897 05368 88896
05568 99892 04965 11889 04357 22885 04350 33880 04349 44727
15505 55724 15125 66720 14962 77710 13970 88706 13166 99692
13964 11687 13959 22665 14571 33662 14968 44656 15357 55636
17318 66620 18913 77574 23702 88537 26321 99530 25756 11495
28561 22473 30960 33441 33178 44356 45371 55312 53358 66305
54357 77270 60350 88220 66956 99208 67556 11151 63168 22105
67371 33100 66372 31313 48008 82316=
0000032500
200
USCN06 CWAO 110000
TTAA  61001 71109 99003 04808 11020 00039 05215 09525 92670
00207 12533 85344 03711 14536 70864 06104 21558 50546 16912
25070 40710 29132 25078 30908 46338 26092 25027 55756 26096
20165 67150 26104 15343 58570 28571 10597 57772 27072 88201
67150 26103 88143 60770 28563 77175 26604=
0000030700
201
USCN02 CWAO 110000
TTAA  61001 71823 99971 07517 20012 00073 ///// ///// 92680
10507 24026 85326 13903 26527 70800 15133 27544 50528 29921
27562 40683 40163 27569 30873 55532 27565 25987 64147 27060
20122 66750 27072 15296 66566 27073 10540 68967 27575 88231
67344 27063 77103 27580=
0000040500
202
UKCN06 CWAO 110000
TTBB  61008 71109 00003 04808 11940 00801 22915 00012 33777
07310 44714 06905 55674 04702 66533 13709 77457 21510 88413
27329 99359 35526 11292 47939 22244 57156 33201 67150 44193
66147 55183 67942 66171 63558 77165 57963 88160 56167 99145
60171 11143 60770 22138 60970 33136 59370 44129 59771 55123
56972 66116 58772 77114 57172 88100 57772 31313 48008 82318=
0000050500
203
UKCN02 CWAO 110000
TTBB  61008 71823 00971 07517 11838 14502 22816 12506 33756
16302 44747 13905 55744 13945 66735 13341 77723 13528 88694
15736 99672 17964 11661 18360 22649 17956 33645 18144 44619
19958 55541 25321 66486 31529 77454 34513 88443 35515 99428
37362 11418 38366 22411 38960 33387 41367 44335 49563 55310
53937 66305 54531 77293 56337 88285 57757 99231 67344 11214
68143 22184 67158 33173 63961 44149 66766 55140 66366 66130
68566 77100 68967 31313 48008 82320=
0000027500
204
UGCN06 CWAO 110000
PPBB  61008 71109 90012 11020 11530 11033 90346 13035 14035
16050 90789 16552 19052 20557 91124 24565 24571 24577 91568
25078 25076 25070 9205/ 25073 25583 9305/ 26093 26095 94013
25603 26604 28586 9468/ 28060 26585 9502/ 27076 27072=
0000021300
205
UGCN02 CWAO 110000
PPBB  61008 71823 90023 20012 23525 25529 90467 27026 27526
27525 9089/ 27543 27544 91124 28045 28047 27054 916// 27059
92025 27568 27569 27568 9305/ 27058 27071 950// 27580=
00000000