0000082100
526
SAIY31 LIIB 102320
METAR LIEA 102320Z 30002KT 9000 0200NW R20/0800VP1500U BCFG NSC
07/07 Q1020=
METAR LIEE 102320Z 33003KT 7000 MIFG NSC 08/08 Q1020=
METAR LIEO 102320Z 00000KT 4000 BR NSC 04/03 Q1021=
METAR LIMC 102320Z VRB01KT 9999 BKN040 08/06 Q1022 NOSIG=
METAR LIME 102320Z 00000KT 3000 BR BKN010 08/07 Q1022=
METAR LIMF 102320Z 29005KT 9999 BKN025 08/05 Q1022=
METAR LIMJ 102320Z 03003KT 9999 SCT018 BKN035 13/11 Q1021=
METAR LIML 102320Z 05002KT 5000 BR SCT004 BKN035 08/07 Q1022 NOSIG=
METAR LIRA 102315Z 01001KT 8000 SCT025 SCT070 09/08 Q1022=
METAR LIRF 102320Z 06003KT 6000 BKN030 09/09 Q1022 NOSIG=
METAR LIRN 102320Z 01003KT 7000 NSC 09/07 Q1022=
METAR LIRP 102315Z 06003KT 9999 SCT050 09/07 Q1021 NOSIG=
METAR LIRQ 102320Z VRB01KT 9999 FEW020 BKN040 12/11 Q1022=

0000062000
527
SAIY32 LIIB 102320
METAR LIBD 102320Z 26004KT 7000 NSC 07/07 Q1022=
METAR LIBR 102315Z 24003KT 7000 FEW020 08/06 Q1021 NOSIG=
METAR LICC 102320Z NIL=
METAR LICJ 102320Z 04005KT CAVOK 12/10 Q1021=
METAR LIPE 102320Z 09003KT 050V120 1400 R12/P2000N BR OVC001 07/07
Q1022=
METAR LIPH 102315Z /////KT 1500 BR SCT020 BKN035 06/05 Q1022=
METAR LIPQ 102320Z 00000KT 2000 BR SCT010 BKN020 09/06 Q1021=
METAR LIPR 102315Z /////KT 6000 BKN040 09/09 Q1021=
METAR LIPX 102315Z 28001KT 1000 R04/P1500U BR SCT010 BKN045 08/06
      Q1022=
METAR LIPZ 102320Z VRB01KT 2500 BR BKN040 08/07 Q1022=

0000004200
528
SAIY33 LIIB 102320
NIL=

0000008700
529
SAIY32 LIIB 102320 RRA
METAR LICC 102320Z 27011KT CAVOK 11/07 Q1021=

0000004200
530
FCSP31 LEMM 102300
NIL=

0000026100
531
FCSP32 LEMM 102300
TAF LEAB 102300Z 1100/1109 13004KT 9999 SCT010 TEMPO 1100/1109
2500 BR BKN014 TEMPO 1105/1109 0800 FG OVC005 PROB40 TEMPO
1106/1109 0100 FG OVC001=
TAF LELN 102300Z NIL=
TAF LESA 102300Z NIL=
TAF LEVS 102300Z NIL=

0000027300
532
FTSP35 LEMM 102300
TAF LEBZ 102300Z 1100/1124 VRB02KT CAVOK TX18/1116Z TN06/1108Z=
TAF LETO 102300Z 1100/1124 VRB03KT CAVOK TX14/1114Z TN05/1108Z
PROB40 TEMPO 1104/1109 3000 BR SCT008 PROB30 TEMPO 1104/1109
1000 BCFG BKN010=
TAF LEVD 102300Z NIL=

0000037600
533
SAFI34 EFHK 102320
EFET 102320Z AUTO 01001KT 9999 FEW011 M25/M28 Q1014=
EFIV 102320Z AUTO 24003KT 6000 OVC003 M30/M33 Q1016=
EFKE 102320Z AUTO 02015KT CAVOK M14/M17 Q1008=
EFKI 102320Z AUTO 05011KT 010V090 9999 -SG FEW018 BKN051 M11/M13
Q1001=
EFKS 102320Z AUTO 04007KT 350V090 CAVOK M17/M20 Q1006=
EFKT 102320Z AUTO VRB01KT CAVOK M20/M23 Q1013=

0000030400
534
SANT31 KWBC 102300 RRA
METAR
BGBW 102325Z NIL=
BGCO 102325Z NIL=
BGGH 102325Z NIL=
BGJN 102320Z AUTO 10016KT 9999NDV BKN230/// M09/M19 Q0995=
BGKK 102320Z AUTO VRB38GP99KT 0400NDV SN BKN012/// M01/M03
     Q0983=
BGSF 102320Z AUTO 06010KT 9999NDV FEW230/// M14/M21 Q0996=

0000011200
535
SPUS41 KWBC 102325
SPECI
KDOV 102323Z AUTO 10003KT 1SM R01/5000FT -RA BR VV001 03/03 A3029=

0000011300
536
SAVN23 SVBC 102300
METAR SVBC 102300Z NIL=
METAR SVMT 102300Z NIL=
METAR SVHG 102300Z NIL=

0000011000
537
SAMJ41 LWSK 102330
METAR LWSK 102330Z 00000KT 0250 R34/0400N FG OVC002 01/01 Q1024
NOSIG=

0000011000
538
UANT99 KDDL 110952
ARP SVA061 5303N03021W 0952 F360 MS54 195/57 KT
HZAKI QXT AOE 110952 F56A
0000011100
539
UANT99 KDDL 110953
ARP UAL930 5903N04757W 0953 F370 MS56 260/42 KT
N228UA DDL UAK 110953 F43A
0000015500
540
FCOS43 LOWM 102300
TAF LOXA 102300Z NIL=
TAF LOXE 102300Z NIL=
TAF LOXN 102300Z NIL=
TAF LOXT 102300Z NIL=
TAF LOXZ 102300Z NIL=

0000009500
541
SAPF20 NTAA 102330
METAR NTAA 102330Z 20009KT 9999 SCT020 31/21 Q1011 NOSIG=

0000009500
542
SAQB31 LQBK 102330
METAR LQBK 102330Z 03002KT 0300 FG NSC 05/05 Q1021 NOSIG=

0000011500
543
SASQ41 LZIB 102330 RRA
METAR LZPP 102330Z AUTO 33004KT 300V090 9999 // FEW099/// 02/M01
Q1020=

0000092800
544
SSVX08 KARS 111050
ZZYY 51307 10014 1200/ 707996 124994 6111/
33311 88870 20020 32716 20040 32700 20060 32432 20080 31859
20100 31404 20120 31260 20140 31194 20180 31113 20300 31000
444 20110 10014 1057/ 521//=
ZZYY 51307 11014 1000/ 707993 124974 6111/
11119 10270 29085
444 20110 11014 0853/ 521//=
ZZYY 51015 11014 10004 705097 124970 6111/
11119 01211 10259 29085
444 20110 11014 1032/ 521// 60401=
ZZYY 32319 10014 1200/ 507990 110070 6113/
33311 88870 20020 32450 20080 32383 20100 32026 20120 31803
20180 31291 20300 31109 20500 30831
444 20130 10014 1310/ 521//=
ZZYY 43001 10014 1200/ 708036 110173 6112/
33311 88872 20001 32703 43345 20040 32525 20060 31562 20080 31344
20100 31278 20120 31229 20140 31181 20300 31016 20500 30776
444 20120 10014 1054/ 521//=
ZZYY 43001 11014 1000/ 708039 110173 6113/
11119 10265 29081
22219 00270
444 20130 11014 1042/ 521//=
0000010900
545
UANT01 CWAO 111050
ARP SIA26 5406N02343W 1050 F390 MS54 230/62 KT
9VSKS QXT EUA 111050 J83A
00000000