0000027800
666
FTUS42 KWBC 110103 AAA
TAF AMD
KSAV 110102Z 1101/1124 14005KT 6SM BR SCT004 SCT015
     FM110300 18005KT 3/4SM BR OVC004
     FM111200 19009KT 4SM BR OVC004
     FM111700 21014G22KT 6SM SHRA SCT015 BKN040
     FM112300 26012G17KT P6SM SCT040 SCT120=

0000022700
667
FTUS71 KWBC 110103
TAF
TAF KLCK 110051Z 1101/1124 14009KT P6SM SCT025 BKN100
     FM110500 16010KT 5SM BR VCSH OVC015
     FM110800 17012KT 4SM -RA BR OVC008
     FM111400 23014G23KT P6SM VCSH OVC012=

0000027800
668
FTUS71 KWBC 110103 AAA
TAF AMD
KSAV 110102Z 1101/1124 14005KT 6SM BR SCT004 SCT015
     FM110300 18005KT 3/4SM BR OVC004
     FM111200 19009KT 4SM BR OVC004
     FM111700 21014G22KT 6SM SHRA SCT015 BKN040
     FM112300 26012G17KT P6SM SCT040 SCT120=

0000034900
669
SAIL31 BICC 110100
METAR BIAR 110100Z 18005KT 110V240 9999 -SN FEW034 OVC061 01/M03
    Q0996=
METAR BIEG 110100Z 05015G25KT 2500 -SN VV008 01/M01 Q0997 RMK
R04/790138   RWY
SANDED=
METAR BIKF 110100Z 26013KT 9999 FEW034 BKN070 02/M04 Q0993=
METAR BIRK 110100Z 29010KT 9999 -SN SCT012 BKN020 OVC030 01/M01
    Q0993=

0000023700
670
SAPM31 MPTO 110100
METAR
MPBO 110100Z 00000KT 9999 SCT020 SCT090 Q1014=
MPDA 110100Z 00000KT 9999 SCT030 28/23 Q1009=
MPMG 110100Z 32004KT 9999 FEW020 26/23 Q1010 NOSIG=
MPPA  110100Z 35007KT 9999 FEW030 Q1010=

0000026300
671
SACZ31 LKPW 110100
METAR LKKV 110100Z 25003KT 9999 BKN015 01/M00 Q1017=
METAR LKMT 110100Z 23005KT CAVOK 01/M01 Q1018 NOSIG=
METAR LKPR 110100Z 23011KT CAVOK 02/M00 Q1018 NOSIG=
METAR LKTB 110100Z 12003KT 050V160 CAVOK 00/M01 Q1019 NOSIG=

0000048600
672
SAYG31 LYBM 110100
METAR LYBE 110100Z NIL=
METAR LYBT 110100Z 16001KT 0500 FG NSC 01/01 Q1023 NOSIG=
METAR LYKV 110100Z VRB02KT 9999 SCT040 05/02 Q1023 NOSIG=
METAR LYNI 110100Z VRB01KT CAVOK 01/00 Q1023=
METAR LYPG 110100Z 02004KT 6000 FEW100 08/07 Q1023 TEMPO 3000=
METAR LYPR 110100Z NIL=
METAR LYTV 110100Z VRB02KT 9999 FEW050 08/07 Q1022=
METAR LYUZ 110100Z 09003KT 9999 BKN020 04/03 Q1021=
METAR LYVR 110100Z VRB02KT 7000 NSC 01/M01 Q1023 NOSIG=

0000009000
673
SASU01 HSSS 110100
METAR HSSS 110100Z 36015KT CAVOK 16/M01 Q1017 NOSIG=

0000013200
674
SACN62 CYOJ 110100
METAR CYOJ 110100Z 35003KT 5SM -SN BKN040 BKN055 OVC072 M16/M19 A2953
 RMK SC5SC2AC1 SLP037=

0000011400
675
SACN61 CYPR 110100
METAR CYPR 110100Z AUTO 05008KT 9SM OVC120 03/01 A2946 RMK PRESFR
 SLP978=

0000009300
676
SAYG31 LYBM 110100 RRA
METAR LYBE 110100Z 18005KT CAVOK 06/03 Q1023 NOSIG=

0000011200
677
SACN62 CYPL 110100
METAR CYPL 110100Z 18007KT 5SM -SN OVC005 M08/M09 A2947 RMK SF8
 SLP008=

0000012700
678
SACN61 CYPY 110100
METAR CYPY 110100Z AUTO 27007KT 9SM -SN FEW027 BKN046 OVC085 M17/M19
 A2955 RMK SLP031=

0000026900
679
SAIE31 EIDB 110100
METAR EIDW 110100Z 24012KT 9999 FEW025 02/02 Q1011 NOSIG=
METAR EINN 110100Z 20007KT 9999 FEW018CB 04/03 Q1013 TEMPO 1200
     BKN004=
METAR EICK 110100Z 25006KT 9999 FEW016 SCT060 02/00 Q1013 NOSIG=
METAR EIKN 110100Z NIL=

0000067700
680
SAVN20 SVMR 110000
METAR SVCR 110000Z NIL=
METAR SVMC 110000Z /////KT 9999 FEW013 26/21 Q1012=
METAR SVBM 110000Z 07006KT 9999 FEW016 23/17 Q1016=
METAR SVBS 110000Z 00000KT CAVOK 26/18 Q1014=
METAR SVMI 110000Z 05001KT 9999 SCT016 25/21 Q1013 NOSIG=
METAR SVFM 110000Z NIL=
METAR SVBC 110000Z 00000KT 9999 FEW010 27/21 Q1011=
METAR SVCU 110000Z NIL=
METAR SVMG 110000Z /////KT 9999 SCT010 SCT080 25/22 Q1013 REDZ NOSIG=
METAR SVAC 110000Z NIL=
METAR SVMT 110000Z 02008KT CAVOK 26/22 Q1010=
METAR SVBI 110000Z 09003KT CAVOK 28/12 Q1009=
METAR SVCB 110000Z 09004KT CAVOK 26/// Q1010=
METAR SVVA 110000Z NIL=
METAR SVSO 110000Z NIL=

0000009000
681
SAMX55 MMIO 110000
METAR MMIO 102340Z RTD 29006KT 10SM SKC 20/08 A3005=

0000011900
682
SACN61 CYQW 110100
METAR CYQW 110100Z AUTO 27002KT 4SM BR FEW060 SCT180 M13/M15 A2951
 RMK SLP035=

0000011600
683
SACN61 CYQA 110100
METAR CYQA 110100Z AUTO 14008KT 1 1/4SM BR OVC003 M00/M01 A3000 RMK
 SLP174=

0000012200
684
SACN62 CYQX 110100
METAR CYQX 110100Z 24018G26KT 20SM SCT110 BKN140 M08/M12 A3006 RMK
 AC3AC4 SLP191=

0000010600
685
SACN62 CYQB 110100
METAR CYQB 110100Z 24002KT 10SM OVC016 M09/M11 A3027 RMK SC8 SLP257=

00000000