0000103500
506
FTJP32 RJTD 102300
TAF RJFF 102312Z 1100/1206 15007KT 9999 FEW030 SCT045 BECMG
         1101/1103 33010KT BECMG 1110/1112 15006KT BECMG 1200/1203
         30009KT=
TAF RJGG 102319Z 1100/1206 31018KT 9999 FEW025 SCT050 BECMG
         1115/1118 32008KT=
TAF RJCC 102306Z 1100/1206 23005KT 9999 FEW010 BKN030 BECMG
         1101/1103 32010KT TEMPO 1101/1106 3000 -SHSN BECMG
         1112/1115 13005KT TEMPO 1200/1203 1500 -SHSN FEW005 BKN007
         TEMPO 1203/1206 0500 SHSN VV005=
TAF RJFK 102306Z 1100/1206 32008KT 9999 FEW030 BKN050=
TAF RJSN 102311Z 1100/1206 30020KT 9999 FEW020 BKN040 BECMG
         1115/1118 18008KT TEMPO 1121/1124 0800 SHSNGS FEW003 BKN004
         BKN015 FEW015CB BECMG 1200/1203 24012KT TEMPO 1200/1203
         4000 -SHRAGS FEW008 BKN015 FEW015CB TEMPO 1203/1206 4000
         -TSRAGS FEW008 BKN015 FEW015CB=
TAF RJFU 102319Z 1100/1206 13007KT 9999 FEW030 SCT045 BECMG
         1100/1102 34011KT BECMG 1112/1115 14005KT BECMG 1200/1203
         32012KT=

0000099600
507
FTJP32 RJTD 102300 RRA
TAF RJFT 102309Z 1100/1206 06005KT 9999 FEW030 BECMG 1100/1102
         31005KT BECMG 1109/1111 08003KT BECMG 1203/1206 29005KT=
TAF RJOA 102307Z 1100/1206 30010KT 9999 FEW025 SCT040=
TAF RJOB 102307Z 1100/1206 30008KT 9999 FEW025 SCT045=
TAF RJOT 102307Z 1100/1206 27008KT 9999 FEW025 SCT045 BECMG
         1112/1115 15006KT BECMG 1200/1203 27008KT=
TAF RJFO 102315Z 1100/1206 26005KT 9999 FEW025 BKN050 BECMG
         1100/1102 32010KT BECMG 1112/1115 26005KT BECMG 1200/1203
         29005KT=
TAF RJNT 102305Z 1100/1206 20006KT 6000 -SHSN FEW010 BKN020 TEMPO
         1100/1106 1500 -SHSN FEW004 BKN005 TEMPO 1106/1110 2000
         -SHSN FEW004 BKN008 TEMPO 1200/1203 3000 -SHSN=
TAF RJNK 102305Z 1100/1206 28008KT 8000 -SHSNRA FEW010 BKN020 TEMPO
         1100/1103 1500 -SHSN FEW005 BKN008 TEMPO 1103/1106 2000
         -SHSNRA FEW005 BKN008 BECMG 1121/1124 20010KT TEMPO
         1121/1203 2000 -SHSNRA FEW005 BKN008=

0000012200
508
SAEU31 BKPR 102330
BKPR 102330Z 00000KT 0150 R17/0150 FZFG BKN002 M01/M02 Q1022 NOSIG
 RMK 17010095 =

0000010500
509
SATH33 VTBB 102300 RRC
METAR  VTUU 102330Z 12002KT 7000 NSC 18/17 Q1016 A3003
NOSIG=

0000017700
510
SANL32 EHDB 102325
METAR EHEH 102325Z AUTO 21009KT 9999 SCT010 04/03 Q1016 
GRN=
METAR EHKD 102325Z AUTO 22018KT 6000 BR BKN006 OVC007 07/06 Q1013 
YLO=

0000010800
511
SAIO31 KWBC 102300 RRD
METAR
FMMI 102330Z 29004KT 9999 FEW017 SCT230 17/17 Q1020 NOSIG=

0000035400
512
FTUS53 KWBC 102327
TAF
KLBF 102323Z 1100/1124 31007KT P6SM SCT100 SCT250
     FM111200 29011KT P6SM SCT250=
KLNK 102326Z 1100/1124 29005KT 4SM BR OVC015
      TEMPO 1100/1103 P6SM NSW SCT015 OVC040
     FM110300 31005KT P6SM SCT015 SCT040 OVC080
     FM110700 30007KT P6SM SCT100 BKN250
     FM111600 31012KT P6SM SCT250=

0000134900
513
FTUS52 KWBC 102327
TAF
KCXP 102326Z 1100/1124 VRB04KT P6SM FEW080 BKN200
     FM111300 19009KT P6SM SCT080 SCT140 BKN200
     FM111600 20012G22KT P6SM SCT060 BKN140
     FM112000 24024G40KT P6SM SCT050 BKN120=
KFMY 102324Z 1100/1124 12004KT P6SM SCT040 BKN060
      TEMPO 1100/1101 18012KT 6SM -RA BKN030
     FM110800 14003KT 4SM BR OVC010
     FM111500 18010G17KT P6SM BKN025
     FM111700 22018G22KT P6SM SCT030=
KJBR 102323Z 1100/1124 24003KT 2SM -RA BR VCTS SCT005 BKN025CB
      TEMPO 1103/1106 BKN005 BKN200CB
     FM110700 24012KT P6SM BKN012 OVC070
     FM111000 25010KT P6SM SCT020
     FM111500 27012G20KT P6SM SCT025=
KMKL 102323Z 1100/1124 16012G20KT P6SM VCSH BKN012 BKN025
     FM110330 18014G22KT 3SM -RA BR VCTS OVC005CB
     FM111000 22014KT P6SM BKN012 OVC080
     FM111200 26012KT P6SM SCT020
     FM111500 27012G18KT P6SM SCT025=
KSRQ 102324Z 1100/1124 18005KT P6SM SCT050 BKN150
     FM110700 14005KT 4SM BR BKN010
     FM111000 15005KT 3SM BR OVC010
     FM111400 18015G20KT P6SM BKN025
     FM111600 20018G25KT P6SM SCT030=
KTUP 102323Z 1100/1124 18007KT P6SM BKN005 OVC200
     FM110200 19012G20KT P6SM VCSH BKN005 BKN025
     FM110600 21014KT 3SM -RA BR VCTS OVC005CB
     FM111100 25010KT P6SM BKN012 OVC100
     FM111300 30012G18KT P6SM SCT020=

0000089300
514
FTUS54 KWBC 102327
TAF
KPSP 102326Z 1100/1124 VRB06KT P6SM FEW250=
KSDY 102324Z 1100/1124 20010KT P6SM SCT200 WS010/29030KT
     FM110300 28011KT P6SM SCT100 BKN200 WS015/29040KT
     FM111700 19008KT P6SM VCSH BKN040
     FM112200 23015KT P6SM BKN040 AMD LTD TO CLD VIS AND WIND=
KSNA 102326Z 1100/1124 22006KT 5SM HZ FEW250
     FM110700 VRB03KT 3SM BR VCFG SCT005
     FM111600 22006KT 5SM HZ FEW010=
KTRK 102326Z 1100/1124 VRB04KT P6SM BKN180
     FM111000 20010G15KT P6SM SCT050 BKN090
     FM111700 21015G24KT P6SM SCT030 BKN060
     FM112000 24019G34KT P6SM VCSH SCT020 OVC040 AMD NOT SKED
      1101/1112=
KTRM 102326Z 1100/1124 VRB06KT P6SM FEW250=
KTVL 102326Z 1100/1124 VRB04KT P6SM BKN180
     FM111100 19010G20KT P6SM SCT050 BKN120
     FM111700 19016G25KT P6SM SCT040 BKN080
     FM112000 20020G35KT P6SM VCSH SCT025 OVC050=

0000133200
515
FTUS80 KWBC 102327 RRA
TAF
KLNK 102326Z 1100/1124 29005KT 4SM BR OVC015
      TEMPO 1100/1103 P6SM NSW SCT015 OVC040
     FM110300 31005KT P6SM SCT015 SCT040 OVC080
     FM110700 30007KT P6SM SCT100 BKN250
     FM111600 31012KT P6SM SCT250=
KMEM 102323Z 1100/1124 15012G20KT P6SM VCSH SCT030 BKN050
     FM110230 18015G22KT 3SM -RA BR VCTS OVC005CB
     FM110800 24014KT P6SM BKN012 OVC100
     FM111100 26010KT P6SM SCT020
     FM111500 28012G20KT P6SM SCT025=
KMKL 102323Z 1100/1124 16012G20KT P6SM VCSH BKN012 BKN025
     FM110330 18014G22KT 3SM -RA BR VCTS OVC005CB
     FM111000 22014KT P6SM BKN012 OVC080
     FM111200 26012KT P6SM SCT020
     FM111500 27012G18KT P6SM SCT025=
KOLF 102324Z 1100/1124 26007KT P6SM SCT200 WS015/30025KT
     FM110300 29010KT P6SM SCT100 BKN200 WS015/29035KT
     FM111600 21004KT P6SM VCSH BKN040
     FM112100 24015KT P6SM BKN040=
KONT 102326Z 1100/1206 25005KT P6SM FEW250
     FM110500 VRB03KT 5SM BR HZ FEW250
      TEMPO 1110/1114 3SM BR
     FM112200 26006KT P6SM FEW250=
KPIE 102324Z 1100/1124 13006KT P6SM SCT030 BKN150
     FM110800 15004KT 4SM BR BKN010
     FM111000 16005KT 2SM BR OVC005
     FM111500 19014G22KT P6SM BKN025
     FM111800 21016G25KT P6SM SCT025=
KPSP 102326Z 1100/1124 VRB06KT P6SM FEW250=

0000085300
516
FTUS80 KWBC 102327 RRC
TAF
KTRK 102326Z 1100/1124 VRB04KT P6SM BKN180
     FM111000 20010G15KT P6SM SCT050 BKN090
     FM111700 21015G24KT P6SM SCT030 BKN060
     FM112000 24019G34KT P6SM VCSH SCT020 OVC040 AMD NOT SKED
      1101/1112=
KTRM 102326Z 1100/1124 VRB06KT P6SM FEW250=
KTUP 102323Z 1100/1124 18007KT P6SM BKN005 OVC200
     FM110200 19012G20KT P6SM VCSH BKN005 BKN025
     FM110600 21014KT 3SM -RA BR VCTS OVC005CB
     FM111100 25010KT P6SM BKN012 OVC100
     FM111300 30012G18KT P6SM SCT020=
KTVL 102326Z 1100/1124 VRB04KT P6SM BKN180
     FM111100 19010G20KT P6SM SCT050 BKN120
     FM111700 19016G25KT P6SM SCT040 BKN080
     FM112000 20020G35KT P6SM VCSH SCT025 OVC050=
KVTN 102323Z 1100/1124 32009KT P6SM SCT090
     FM110600 28012KT P6SM BKN040
     FM111300 29015KT P6SM SCT100=

0000149100
517
FTUS80 KWBC 102327 RRB
TAF
KRNO 102326Z 1100/1124 VRB04KT P6SM FEW080 BKN200
     FM111300 20008KT P6SM SCT080 SCT140 BKN200
     FM111600 18014G20KT P6SM SCT060 BKN140
     FM111900 19024G40KT P6SM SCT050 BKN120
     FM112200 26022G35KT P6SM FEW060 SCT100=
KRSW 102324Z 1100/1124 12006KT P6SM SCT040 OVC060
      TEMPO 1100/1101 18012KT 4SM SHRA BKN030
     FM110800 14003KT 3SM BR OVC010
     FM111000 15003KT 2SM BR OVC007
     FM111500 18010G17KT P6SM BKN025
     FM111700 23018G22KT P6SM SCT030=
KSAN 102326Z 1100/1206 VRB04KT P6SM FEW250
     FM110400 VRB03KT P6SM SCT005
      TEMPO 1110/1114 6SM BR
     FM111800 27007KT P6SM FEW250
     FM120200 VRB04KT P6SM BKN010=
KSDY 102324Z 1100/1124 20010KT P6SM SCT200 WS010/29030KT
     FM110300 28011KT P6SM SCT100 BKN200 WS015/29040KT
     FM111700 19008KT P6SM VCSH BKN040
     FM112200 23015KT P6SM BKN040 AMD LTD TO CLD VIS AND WIND=
KSNA 102326Z 1100/1124 22006KT 5SM HZ FEW250
     FM110700 VRB03KT 3SM BR VCFG SCT005
     FM111600 22006KT 5SM HZ FEW010=
KSRQ 102324Z 1100/1124 18005KT P6SM SCT050 BKN150
     FM110700 14005KT 4SM BR BKN010
     FM111000 15005KT 3SM BR OVC010
     FM111400 18015G20KT P6SM BKN025
     FM111600 20018G25KT P6SM SCT030=
KTPA 102324Z 1100/1124 15005KT P6SM SCT030 BKN150
     FM110800 15005KT 4SM BR BKN010
     FM111000 15004KT 2SM BR OVC005
     FM111500 18013G20KT P6SM BKN025
     FM111800 20014G22KT P6SM SCT025=

0000146000
518
FTUS80 KWBC 102327
TAF
KCRQ 102326Z 1100/1124 VRB05KT P6SM FEW250
     FM110500 VRB03KT 5SM BR VCFG SCT002
     FM111600 24005KT P6SM FEW250=
KCXP 102326Z 1100/1124 VRB04KT P6SM FEW080 BKN200
     FM111300 19009KT P6SM SCT080 SCT140 BKN200
     FM111600 20012G22KT P6SM SCT060 BKN140
     FM112000 24024G40KT P6SM SCT050 BKN120=
TAF KEVW 102322Z 1100/1124 27025G33KT P6SM VCSH SCT020 BKN060
     FM110200 24016KT P6SM SCT030 BKN080
     FM111700 22018G27KT P6SM SCT050 BKN120=
KFMY 102324Z 1100/1124 12004KT P6SM SCT040 BKN060
      TEMPO 1100/1101 18012KT 6SM -RA BKN030
     FM110800 14003KT 4SM BR OVC010
     FM111500 18010G17KT P6SM BKN025
     FM111700 22018G22KT P6SM SCT030=
KGDV 102324Z 1100/1124 27015KT P6SM SCT200 WS015/29030KT
     FM110200 29012KT P6SM SCT100 BKN200 WS015/29040KT
     FM111700 21007KT P6SM VCSH BKN040
     FM112100 24015KT P6SM BKN040 AMD LTD TO CLD VIS AND WIND=
KGGW 102324Z 1100/1124 VRB05KT P6SM SCT200 WS015/30025KT
     FM110300 29010KT P6SM SCT060 BKN200 WS015/29030KT
     FM111500 13012KT P6SM VCSH BKN035
     FM112100 19015KT P6SM BKN040=
KJBR 102323Z 1100/1124 24003KT 2SM -RA BR VCTS SCT005 BKN025CB
      TEMPO 1103/1106 BKN005 BKN200CB
     FM110700 24012KT P6SM BKN012 OVC070
     FM111000 25010KT P6SM SCT020
     FM111500 27012G20KT P6SM SCT025=
KLBF 102323Z 1100/1124 31007KT P6SM SCT100 SCT250
     FM111200 29011KT P6SM SCT250=

0000009500
519
SPUS31 KWBC 102327
SPECI
KMSP 102323Z 00000KT 5SM BR OVC008 M01/M02 A2956=

0000009700
520
SPUS31 KWBC 102327
SPECI
KRDU 102323Z 05005KT 1SM -RA BR OVC003 06/06 A3021=

0000009700
521
SPUS41 KWBC 102327
SPECI
KBDR 102323Z 02003KT 1 1/2SM BR OVC005 01/01 A3036=

0000012600
522
SADL34 EDZO 102320 RRA
METAR EDNY 102320Z AUTO 00000KT 1500 0300/ R24/0800VP2000N BR OVC004
00/M01 Q1019=

0000077300
523
FTCZ31 LKPW 102300
TAF LKPR 102300Z 1100/1206 24012KT CAVOK BECMG 1114/1116 9999 BKN030
         PROB40 TEMPO 1116/1122 7000 -RA BKN014 TEMPO 1119/1206
         27015G28KT=
TAF LKMT 102300Z 1100/1206 23010KT CAVOK TEMPO 1118/1206 24014G24KT
         9000 -RA BKN025=
TAF LKTB 102300Z 1100/1206 13003KT CAVOK TEMPO 1102/1108 3500 BR NSC
         PROB30 TEMPO 1102/1107 1500 BR MIFG SCT002 BECMG 1113/1115
         9999 SCT030 BECMG 1201/1203 BKN020 TEMPO 1203/1206 5000 RA
         BKN012=
TAF LKKV 102300Z 1100/1206 25004KT 6000 NSC TEMPO 1102/1108 VRB02KT
         1400 MIFG SCT003 BECMG 1110/1112 5000 BR BKN012 TEMPO
         1112/1206 4000 RA BR BKN006 PROB30 TEMPO 1121/1206 1500
         RASN BKN003 TEMPO 1121/1206 27018KT=

0000039300
524
SANO31 ENMI 102320
METAR ENAN 102320Z NIL=
METAR ENBR 102320Z 15002KT 9999 FEW003 BKN023 02/02 Q0998 RMK WIND
           1200FT 12005KT=
METAR ENBO 102320Z NIL=
METAR ENDU 102320Z NIL=
METAR ENGM 102320Z VRB02KT 9999 FEW004 SCT060 BKN072 M02/M03 Q0996=
METAR ENOL 102320Z NIL=
METAR ENVA 102320Z NIL=
METAR ENZV 102320Z 23008KT 9999 -SHRA BKN011 07/06 Q1000=

0000064900
525
SANO32 ENMI 102320
METAR ENAL 102320Z 05006KT 020V080 9999 FEW022 BKN038 M02/M07 Q1000=
METAR ENCN 102320Z AUTO VRB01KT 9999NDV SCT022/// BKN033/// OVC100///
           03/03 Q1001=
METAR ENHD 102320Z AUTO 25011KT 9999NDV FEW013/// OVC072/// 07/05
           Q0999=
METAR ENRO 102320Z AUTO 09007KT 060V120 8000NDV -SN BKN006///
           BKN008/// OVC009/// M14/M17 Q0997=
METAR ENRY 102320Z AUTO 18006KT 9999NDV OVC150/// 02/M00 Q0997=
METAR ENSB 102320Z NIL=
METAR ENTC 102320Z 14003KT CAVOK M12/M14 Q1017 RMK WIND 2600FT
           11008KT=
METAR ENTO 102320Z AUTO 24005KT 9999NDV OVC140/// 01/M01 Q0997=

00000000