0000059000
826
SATU34 LTAA 102150
METAR LTAL 102150Z NIL=
METAR LTAS 102150Z NIL=
METAR LTAW 102150Z NIL=
METAR LTBD 102150Z NIL=
METAR LTBH 102150Z NIL=
METAR LTBO 102150Z NIL=
METAR LTCK 102150Z NIL=
METAR LTCL 102150Z NIL=
METAR LTCM 102150Z NIL=
METAR LTCN 102150Z NIL=
METAR LTCO 102150Z 02003KT 0600 0200S R16/0650N R34/0225N FZFG OVC004
 M25/M26 Q1022=
METAR LTCP 102150Z NIL=
METAR LTCR 102150Z 03007KT CAVOK 06/M08 Q1021=
METAR LTCT 102150Z NIL=
METAR LTCU 102150Z NIL=
METAR LTCV 102150Z NIL=
METAR LTFD 102150Z NIL=
METAR LTFG 102150Z NIL=

0000008900
827
SATU35 LTAA 102150
METAR LCEN 102150Z 29012KT CAVOK 07/02 Q1021 NOSIG=

0000008700
828
SARH32 LDZM 102200
METAR LDLO 102200Z NIL=
METAR LDSB 102200Z NIL=

0000045400
829
SARH31 LDZM 102200
METAR LDSP 102200Z VRB01KT 9999 FEW021 BKN040 12/09 Q1023 =
METAR LDPL 102200Z VRB01KT 9999 SCT018 BKN056 11/10 Q1021 NOSIG =
METAR LDDU 102200Z 03005KT 350V060 9999 BKN045 12/07 Q1022 =
METAR LDZA 102200Z 35003KT 0300 R05/0450N R23/0300V0600U FG FEW002
03/03 Q1021 NOSIG =
METAR LDZD 102200Z 11002KT 9999 BKN060 09/08 Q1022 =
METAR LDRI 102200Z NIL=
METAR LDOS 102200Z 11009KT 0700 FG NSC 03/03 Q1022=

0000010000
830
SAUS71 KWBC 102100 RRJ
METAR
KMMU 102145Z 00000KT 3/4SM HZ OVC005 00/M01 A3036=

0000023600
831
FTJM31 MKJP 102200
TAF 
MKJP 102200Z 1100/1124 12010KT 9999 FEW024
BECMG 1102/1104 34005KT
BECMG 1115/1117 14020KT=
MKJS 102200Z 1100/1124 08010KT 9999 FEW024
BECMG 1101/1103 14005KT
BECMG 1114/1116 07012=

0000011400
832
SAMJ41 LWSK 102200
METAR LWSK 102200Z 00000KT 1400 R34/2000 BR OVC002 02/01 Q1024 TEMPO
1200=

0000009600
833
SAUS74 KWBC 102100 RRE
METAR
KSBD 102149Z 28003KT 10SM FEW250 23/M03 A3004=

0000009200
834
SARM31 LUKK 102200
METAR LUBL 102200Z AUTO 24010KT 9999 NCD 03/M01 Q1013=

0000010100
835
SABZ18 SBKP 102200
METAR SBKP 102200Z 13012KT 9999 FEW040 FEW045TCU
27/17 Q1013=

0000009500
836
SAQB31 LQBK 102200
METAR LQBK 102200Z 18004KT 0800 FG NSC 05/05 Q1021 NOSIG=

0000012300
837
SACN62 CYBD 102200
METAR CYBD 102200Z 31003KT 12SM FEW046 OVC100 05/02 A2977 RMK SC1AS7
 TR SF SLP083=

0000013800
838
SAMR20 TFFF 102200
METAR TFFF 102200Z AUTO 08013KT 050V110 7000 -RA FEW023///
BKN028/// BKN038/// ///TCU 24/21 Q1014=

0000011600
839
SACN61 CYBC 102200
METAR CYBC 102200Z AUTO 27007KT 9SM BKN019 BKN140 M07/M11 A3015 RMK
 SLP211=

0000011500
840
SASR31 WSSL 102200
METAR WSSL 102200Z 36004KT 9999 FEW020 BKN350 25/24 Q1010 RMK 2130Z
Q1010 =

0000020500
841
SASQ31 LZIB 102200
METAR LZIB 102200Z VRB01KT CAVOK 04/01 Q1021=
METAR LZKZ 102200Z 00000KT 0300 R01/0400N FG BKN001 01/01 Q1018=
METAR LZTT 102200Z 27015KT 9999 FEW043 02/M05 Q1015=

0000020500
842
SASQ41 LZIB 102200
METAR LZPP 102200Z AUTO 29004KT 9999 // SCT100/// 00/M03 Q1020=
METAR LZSL 102200Z 28006KT CAVOK 01/M03 Q1018=
METAR LZZI 102200Z VRB01KT 9999 BKN055 03/M00 Q1019=

0000010200
843
SANC01 NWWW 102200
METAR NWWW 102200Z AUTO 12008KT 080V150 9999 FEW043 28/15 Q1013=

0000012100
844
SPUS42 KWBC 102200
SPECI
KBPT 102121Z COR 18010G17KT 10SM -RA BR FEW023 BKN033 OVC044 19/17
A2986=

0000010000
845
SPUS44 KWBC 102200
SPECI
KHQM 102156Z AUTO 18008KT 2SM -RA BKN011 OVC018 A3000=

00000000