0000011300
654
SAAJ31 UBBB 110800
METAR UBBQ 110800Z 33006KT 9000 NSC 04/M02 Q1014
R16/CLRD70 NOSIG RMK MT OP=
0000012100
655
FCAJ31 UBBB 110800
TAF UBBQ 110758Z 1109/1118 02006KT 8000 SCT020 BKN080 TEMPO
1115/1118 SCT012 BKN080=
0000089800
656
SAUR30 UKMS 110800
METAR UKBB 110800Z 27006MPS 9999 BKN018 04/02 Q1008
         88290060 TEMPO    27011G16MPS -SHRA SCT015CB=
METAR UKHH 110800Z 28010G15MPS 9999 -SHRA SCT019CB
         BKN026  05/01 Q1003 25190057 TEMPO
         28012G21MPS=
METAR UKOO 110800Z 25007MPS CAVOK 05/M01 Q1019
         34190058 NOSIG=
METAR UKDE 110800Z 28010MPS 240V310 CAVOK 05/00 Q1011
          02290356 NOSIG=
METAR UKDD 110800Z 28011MPS 240V320 CAVOK 04/02 Q1009
          26210370 TEMPO 29010G17MPS=
METAR UKFF 110800Z 27008MPS CAVOK 07/01 Q1020
         19010070 NOSIG=
METAR UKLL 110800Z 26006MPS 9999 BKN048 05/M03 Q1017
         31CLRD80 NOSIG=
METAR UKCC 110800Z 26009MPS 9999 BKN009 03/02 Q1008
         26190060 TEMPO 28012G17MPS=
METAR UKDR 110800Z 26009MPS CAVOK 04/M00 Q1012
         1819//60 TEMPO 27010G15MPS 3100 -SHRA BKN010
         BKN015CB=
0000024400
657
SAGG31 UGTB 110800
METAR UGTB 110800Z 32024KT CAVOK 07/M06 Q1017 R31L/CLRD80 NOSIG=
METAR UGSB 110800Z 20008KT 170V240 CAVOK 12/04 Q1024 R13/CLRD70
    NOSIG=
METAR UGKO 110800Z VRB01KT CAVOK 11/M04 Q1020 R07/09//70 NOSIG=
0000010700
658
SAAJ31 UBBB 110800
METAR UBBG 110800Z 28007KT 9999 FEW100 07/M06 Q1015
R30/CLRD70 NOSIG =
0000011300
659
SATR31 UTAA 110800
METAR UTAA 110800Z 09003MPS 060V120 9999 BKN210 10/M08 Q1018
12CLRD70 NOSIG=
0000012900
660
FCAJ31 UBBB 110800
TAF UBBN 110800Z 1109/1118 26008KT 3500 BR OVC013
620130 TEMPO 1109/1115 2000 -SN BR OVC007=
0000011500
661
FCAJ31 UBBB 110700
TAF UBBY 110800Z 1109/1118 VRB04KT 9999 FEW040 SCT080
TEMPO 1109/1114 28008KT=
0000048600
662
FCTR31 UTAA 110800
TAF UTAA 110730Z 1109/1121 10008MPS 5000 SCT030 530005 BECMG
1117/1119 3008MPS BKN020=
TAF UTAK 110730Z 1109/1121 18008G13MPS CAVOK 530007 TEMPO
1109/1113 13006G11MPS SCT030=
TAF UTAV 110730Z 1109/1121 20009MPS 4000 BLDU SCT040 530004
TEMPO 1109/1114 11010G15MPS 1500 DS BKN050 570005=
TAF UTAM 110730Z 1109/1121 17008MPS CAVOK 530005
TEMPO 1109/1115 14008MPS=
TAF UTAT 110730Z 1109/1121 VRB02MPS 9999 SCT033 SCT050CB BKN100
 530003=
0000022300
663
FCGG31 UGTB 110800
TAF UGSB 110800Z 1109/1118 VRB03KT CAVOK TEMPO 1114/1118 16015KT 9999
 SCT035=
TAF UGKO 110800Z 1109/1118 VRB03KT 5000 RA SCT020CB OVC066 TEMPO
 1113/1118 24018KT 2000 SHRA BKN010CB=
0000013400
664
SAAJ31 UBBB 110800
METAR UBBN 110800Z 24003KT 2800 -SN BR OVC009 M09/M10 Q1025
R14R/490050 NOSIG RMK MT OBSC QFE693=
0000009300
665
SAPK31 OPMT 110800
METAR OPMT 110755Z 31004KTS 6000 HZ NSC 18/01 Q1021 NOSIG=
0000009700
666
SAAJ31 UBBB 110800
METAR UBBB 110800Z 19020KT CAVOK 07/02 Q1013 88CLRD70
NOSIG=
0000011300
667
SAAJ31 UBBB 110800
METAR UBBY 110800Z VRB02KT 9999 NSC 06/M02 Q1018
R33/CLRD70 NOSIG RMK MT OP=
0000014500
668
SSVX05 CWAO 110800
ZZYY 48529 11014 0800/ 775089 151455 6113/ 11119 
11305 40020 444 20130 11014 0800/ 50101 80114 80001 9////=
0000014500
669
SSVX05 CWAO 110800
ZZYY 48730 11014 0800/ 780671 140516 6113/ 11133 
11256 49907 57001 444 20130 11014 0800/ 50000 80140 80001=
0000014500
670
SSVX05 CWAO 110800
ZZYY 48726 11014 0800/ 775904 126056 6113/ 11133 
11237 49808 57022 444 20130 11014 0800/ 50000 80140 80001=
0000014500
671
SSVX05 CWAO 110800
ZZYY 48505 11014 0800/ 783961 123494 6113/ 11119 
11306 49950 52011 444 20130 11014 0800/ 50000 80136 80001=
0000052100
672
SAAE33 VTBB 110800
METAR VVTS 110800Z 15004KT 100V280 5000 HZ FEW017 BKN040 32/18
      Q1010            NOSIG =
METAR VVNB 110800Z 31006KT 3000 BR FEW015 BKN060 17/13 Q1019 NOSIG=
METAR VVDN 110800Z 09007KT 7000 FEW015 BKN060 24/19 Q1017 NOSIG=
METAR VVPB 110800Z 02005KT 4000 BR SCT016 BKN060 23/20 Q1018 NOSIG=
METAR VVCR 110800Z 03013KT 8000 FEW020 SCT050 BKN100 26/20 Q1014 
NOSIG=
METAR VVCT 110800Z 05004KT 340V110 9999 FEW015 31/20 Q1011 NOSIG=
METAR VVPQ 110800Z 11009KT CAVOK 29/20 Q1010 NOSIG=

0000014500
673
SSVX05 CWAO 110800
ZZYY 48506 11014 0800/ 785695 128093 6113/ 11131 
11167 49962 57001 444 20130 11014 0800/ 50000 80140 80001=
00000000