0000011000
774
UANT01 CWAO 110805
ARP AFR009 4639N03707W 0805 F370 MS49 278/34 KT
FGSPY QXT AOW 110805 F44A
0000068700
775
SNIY21 LIIB 110800
AAXX 11084
16022 42782 62108 10016 21067 37867 48503 53005 86030 333 55300 86356
      92865 444 76191=
16052 42770 42209 11070 21129 36636 47070 53001 84030 333 55300
      84350=
16061 42562 80902 10064 20064 39377 42821 53005 885// 333 55300
      88622=
16098 41725 80000 10070 20050 30177 40229 51007 71022 885// 333
      88656=
16179 42580 30000 10090 20048 39535 42824 53004 81109 333 81823=
16224 41/00 90505 10052 20034 39900 40227 53009 74544 333 55300
      89/00=
16258 41/01 91704 10062 20052 39222 42823 52010 74344 333 89/00=
16344 42980 72608 10070 21094 38344 48524 51004 80009 333 55310 95000
      95100=
0000011000
776
UANT01 CWAO 110806
ARP SAS944 5603N05923W 0806 F350 MS63 288/88 KT
OYKBA DDL YHO 110806 J69A
0000017600
777
SNCZ64 OKPR 110700 CCA
AAXX 11071
11457 22984 72205 11026 21036 38879 48471 55000 80006
  333 60005 87275 93703 9513/
  555 393// 50006 60013 70013 80025=
0000012800
778
SSVX13 LFVW 110806
ZZYY 16551 11014 0800/ 321939 060409 6113/
11119 40171 57011
444 50101 80074 80000 9/015=
0000015700
779
SSVX13 LFPW 110800
ZZYY 62520 11014 0800/ 719739 065654 6113/ 11119 40182 57013 22219
 00268 444 20130 11014 0600/ 50101 80104 80003 9/015=
0000015700
780
SSVX13 LFPW 110800
ZZYY 16536 11014 0800/ 338537 059177 6113/ 11119 40211 57017 22219
 00170 444 20130 11014 0600/ 50101 80142 80008 9/015=
0000015700
781
SSVX13 LFPW 110800
ZZYY 64669 11014 0800/ 763302 016465 6113/ 11119 49983 52030 22219
 00087 444 20130 11014 0600/ 50101 80154 80010 9/015=
0000015700
782
SSVX13 LFPW 110800
ZZYY 16542 11014 0800/ 346103 069579 6113/ 11119 40144 54000 22219
 00065 444 20130 11014 0600/ 50101 80144 80023 9/015=
0000015700
783
SSVX13 LFPW 110800
ZZYY 44775 11014 0800/ 752877 012079 6113/ 11119 40154 52008 22219
 00109 444 20130 11014 0600/ 50101 80106 80003 9/015=
0000015700
784
SSVX13 LFPW 110800
ZZYY 64666 11014 0800/ 765090 011145 6113/ 11119 40003 52013 22219
 00041 444 20130 11014 0600/ 50101 80148 80011 9/015=
0000014500
785
SSVX13 LFPW 110800
ZZYY 26556 11014 0800/ 778926 014038 6113/ 11119 49998 52003 444
 20130 11014 0600/ 50101 80130 80002 9/015=
0000015700
786
SSVX13 LFPW 110800
ZZYY 64615 11014 0800/ 762125 010962 6113/ 11119 40008 52028 22219
 00091 444 20130 11014 0600/ 50101 80148 80011 9/015=
0000015700
787
SSVX13 LFPW 110800
ZZYY 64520 11014 0800/ 766796 002778 6113/ 11119 40070 52007 22219
 00041 444 20130 11014 0600/ 50101 80140 80021 9/015=
0000015700
788
SSVX13 LFPW 110800
ZZYY 44868 11014 0800/ 734824 040155 6113/ 11119 40230 52008 22219
 00187 444 20130 11014 0600/ 50101 80142 80019 9/015=
0000013900
789
SSVX13 LFPW 110800
ZZYY 63639 11014 0800/ 172024 034961 6113/ 22219 00040 444 20130
 11014 0600/ 50101 80134 80002 9/015=
0000015700
790
SSVX13 LFPW 110800
ZZYY 16537 11014 0800/ 334987 054643 6113/ 11119 40170 57011 22219
 00193 444 20130 11014 0600/ 50101 80144 80011 9/015=
0000015700
791
SSVX13 LFPW 110800
ZZYY 62514 11014 0800/ 762815 012729 6113/ 11119 49991 52028 22219
 00083 444 20130 11014 0600/ 50101 80138 80015 9/015=
0000015700
792
SSVX13 LFPW 110800
ZZYY 16613 11014 0800/ 342436 080194 6113/ 11119 40130 57006 22219
 00125 444 20130 11014 0600/ 50101 80148 80019 9/015=
0000015700
793
SSVX13 LFPW 110800
ZZYY 31866 11014 0800/ 528228 030908 6113/ 11119 40218 52013 22219
 00254 444 20130 11014 0600/ 50101 80144 80023 9/015=
00000000