0000033700
986
SANL31 EHDB 110125
METAR EHAM 110125Z 20012KT 8000 SCT009 OVC012 06/04 Q1014 BECMG 7000=
METAR EHBK 110125Z AUTO 20010KT 9999 NCD 02/01 Q1016=
METAR EHGG 110125Z AUTO 22014KT 5000 BR SCT008 BKN009 FEW015CB 06/05
Q1013 REDZ=
METAR EHRD 110125Z AUTO 20013KT 170V230 6000 FEW008 SCT009 BKN011
05/04 Q1014 NOSIG=

0000047200
987
FTUS31 KWBC 110127 AAA
TAF AMD
KABQ 110126Z 1101/1124 30018G28KT P6SM FEW100
      TEMPO 1101/1103 VRB20G30KT
     FM110300 32011KT P6SM FEW120
     FM110600 34004KT P6SM SCT250
     FM112000 28006KT P6SM FEW250=
KMEM 110124Z 1101/1124 15012G20KT P6SM VCSH BKN030 BKN050
     FM110230 18015G22KT 3SM -RA BR VCTS OVC005CB
     FM110800 24014KT P6SM BKN012 OVC100
     FM111100 26010KT P6SM SCT020
     FM111500 28012G20KT P6SM SCT025=

0000030900
988
FTUS71 KWBC 110127 AAA
TAF AMD
KSLK 110123Z 1101/1124 23006KT P6SM BKN014 OVC023
      TEMPO 1101/1105 SCT015 OVC025
     FM110800 18009KT 5SM -FZRA BR BKN015 OVC020
     FM111000 20012G18KT 4SM -RA BR OVC008 WS020/22045KT
     FM111300 20012G20KT 3SM -RA BR OVC006 WS020/22050KT=

0000075100
989
FTUS72 KWBC 110127 AAA
TAF AMD
KABQ 110126Z 1101/1124 30018G28KT P6SM FEW100
      TEMPO 1101/1103 VRB20G30KT
     FM110300 32011KT P6SM FEW120
     FM110600 34004KT P6SM SCT250
     FM112000 28006KT P6SM FEW250=
KMCN 110124Z 1101/1124 11004KT 1/4SM -RADZ FG OVC002
     FM110900 15006KT 1SM -SHRA BR OVC004
     FM111400 20010G17KT 2SM -SHRA BR OVC007
     FM111800 24011G18KT 4SM -SHRA BR BKN025 PROB30 1118/1121 2SM
      TSRA BR BKN010CB
     FM112100 28012G20KT P6SM BKN050=
KMEM 110124Z 1101/1124 15012G20KT P6SM VCSH BKN030 BKN050
     FM110230 18015G22KT 3SM -RA BR VCTS OVC005CB
     FM110800 24014KT P6SM BKN012 OVC100
     FM111100 26010KT P6SM SCT020
     FM111500 28012G20KT P6SM SCT025=

0000055300
990
FTUS73 KWBC 110127 AAA
TAF AMD
KBJC 110125Z 1101/1124 29012KT P6SM FEW090 BKN200
     FM110500 27020G40KT P6SM FEW090 SCT120 BKN200
      TEMPO 1116/1120 27040G55KT=
KEAU 110124Z 1101/1124 12004KT 3SM -FZDZ BR OVC005
      TEMPO 1101/1104 2SM -SN BR SCT005 BKN015
     FM110400 25004KT 3SM -FZDZSN BR OVC003
     FM110800 29007KT 3SM -SN BR BKN007 OVC012
     FM111000 30008KT P6SM SCT012 BKN020
     FM111200 30010KT P6SM SCT020 BKN040
     FM111600 29009KT P6SM BKN020
     FM112200 27006KT P6SM SCT030 SCT250=

0000009800
991
SPCN31 CWAO 110125
SPECI CYQG 110125Z 16006KT 1 1/4SM -RA BR OVC002 RMK FG2SF6=

0000035600
992
FTUS54 KWBC 110033 AAA
TAF AMD
KMRY 110031Z 1101/1124 31004KT P6SM SCT005
      TEMPO 1101/1103 BKN005
     FM110300 24004KT P6SM BKN008
     FM111800 25007KT P6SM SCT015 BKN060=
KSNS 110032Z 1101/1124 27008KT P6SM SKC
     FM110300 VRB03KT P6SM BKN005
     FM110900 12003KT P6SM BKN010
     FM111700 13006KT P6SM SCT060=

0000035600
993
FTUS80 KWBC 110033 AAA
TAF AMD
KMRY 110031Z 1101/1124 31004KT P6SM SCT005
      TEMPO 1101/1103 BKN005
     FM110300 24004KT P6SM BKN008
     FM111800 25007KT P6SM SCT015 BKN060=
KSNS 110032Z 1101/1124 27008KT P6SM SKC
     FM110300 VRB03KT P6SM BKN005
     FM110900 12003KT P6SM BKN010
     FM111700 13006KT P6SM SCT060=

0000009800
994
SPUS31 KWBC 110033
SPECI
KBHM 110029Z 00000KT 10SM BKN007 OVC013 12/10 A3003=

0000010700
995
SPUS41 KWBC 110033
SPECI
KCEF 110031Z AUTO 00000KT 6SM BR SCT005 OVC016 M01/M01 A3032=

0000011100
996
SPUS43 KWBC 110033
SPECI
KPTK 110029Z 15010KT 1/4SM R09R/2000V2800FT FG VV002 02/01 A2986=

0000009600
997
SABA31 MYNN 110102
METAR MYNN 110100Z 13005KT 9999 FEW018 SCT040 24/22 A3012=

0000014500
998
FTTU33 LTAA 102300 AAA
TAF AMD LTCJ 110126Z 1101/1124 VRB02KT CAVOK TEMPO 1101/1103 4000 BR
 PROB30 TEMPO 1104/1107 2500 BR=

0000009500
999
SAEG31 HECA 110130
METAR HECA 110130Z 00000KT 2000 BR NSC 11/08 Q1023 NOSIG=

0000010300
000
SARM31 LUKK 110130
METAR LUKK 110130Z 26010KT CAVOK 02/M02 Q1015 R26/CLRD65
NOSIG=

0000009200
001
SARM31 LUKK 110130
METAR LUBL 110130Z AUTO 26012KT 9999 NCD 02/M03 Q1015=

0000011000
002
SAMR20 TFFF 110130
METAR TFFF 110130Z AUTO 05012KT 9999 FEW034 SCT040 BKN048 25/20
Q1016=

0000020200
003
FTFK41 EGYP 110200
TAF EGYP 110124Z 1103/1121 21022G32KT 9999 BKN030 TEMPO
1103/1115 SCT020 BECMG 1109/1112 24018KT BECMG 1115/1118
28014KT BKN020 TEMPO 1118/1121 7000 -RA SCT010=

0000020900
004
SASQ31 LZIB 110130
METAR LZIB 110130Z 00000KT CAVOK M01/M02 Q1020=
METAR LZKZ 110130Z 00000KT 0150 R01/0400N FG OVC001 M01/M01 Q1019=
METAR LZTT 110130Z 29010KT 9999 FEW046 00/M06 Q1016=

0000017100
005
SASQ41 LZIB 110130
METAR LZPP 110130Z NIL=
METAR LZSL 110130Z 00000KT 9999 SCT050 02/M03 Q1019=
METAR LZZI 110130Z 00000KT 9999 BKN056 02/M01 Q1019=

00000000