0000009700
666
SASA31 KWBC 102300 RRC
METAR
SOCA 102330Z AUTO VRB02KT 9999 NSC 23/21 Q1011=

0000010400
667
SAIL31 BICC 102330
METAR BIKF 102330Z 26015KT 9999 FEW037 SCT055 BKN065 02/M04 Q0992=

0000036800
668
FCSN31 ESWI 102300
TAF ESGJ 102330Z 1100/1102 22008KT 9999 BKN004 PROB40 1100/1102
BKN020=
TAF ESGP 102330Z 1100/1109 23010G20KT 9999 SCT010 BKN020 PROB40
1100/1106 RA BKN008=
TAF ESGT 102300Z NIL=
TAF ESMK 102300Z NIL=
TAF ESMQ 102300Z NIL=
TAF ESMT 102300Z NIL=
TAF ESMX 102300Z NIL=
TAF ESTA 102300Z NIL=
TAF ESTL 102300Z NIL=

0000020300
669
FCSN32 ESWI 102300
TAF ESOE 102300Z NIL=
TAF ESOK 102300Z NIL=
TAF ESOW 102300Z NIL=
TAF ESSB 102300Z NIL=
TAF ESSD 102300Z NIL=
TAF ESSP 102300Z NIL=
TAF ESSV 102300Z NIL=

0000032100
670
FCSN33 ESWI 102300
TAF ESNG 102300Z NIL=
TAF ESNK 102300Z NIL=
TAF ESNN 102300Z NIL=
TAF ESNO 102300Z NIL=
TAF ESNQ 102300Z NIL=
TAF ESNS 102300Z NIL=
TAF ESNU 102330Z 1100/1109 35015KT 9999 -SN SCT015 BKN035 PROB40
1100/1109 2000 SN VV008=
TAF ESNZ 102300Z NIL=
TAF ESUT 102300Z NIL=

0000048900
671
SAYG31 LYBM 102330
METAR LYBE 102330Z 16006KT 8000 NSC 07/04 Q1023 NOSIG=
METAR LYBT 102330Z 00000KT 0500 FG NSC 02/02 Q1023 NOSIG=
METAR LYKV 102330Z VRB01KT 9999 SCT040 04/01 Q1023 NOSIG=
METAR LYNI 102330Z 05002KT CAVOK 03/01 Q1023=
METAR LYPG 102330Z VRB01KT 6000 FEW100 08/06 Q1022 TEMPO 3000=
METAR LYPR 102330Z NIL=
METAR LYTV 102330Z NIL=
METAR LYUZ 102330Z 00000KT 8000 BKN020 04/04 Q1021=
METAR LYVR 102330Z VRB02KT 8000 NSC 02/M00 Q1023 NOSIG=

0000012200
672
SAHW31 KWBC 102300 RRA
METAR
PHJR 102329Z VRB04G14KT 2 1/2SM -RA BR BKN037 OVC045 22/20
     A2993=

0000004600
673
FCSN34 ESWI 102300
TAF NIL=

0000065500
674
FTSN31 ESWI 102300
TAF ESGG 102330Z 1100/1124 24012KT 9999 BKN003 PROB40 1100/1102 4000
BR BKN010 TEMPO 1102/1110 4000 RA BKN005 BECMG 1110/1112 BKN020=
TAF ESKN 102330Z 1100/1124 32005KT 9999 BKN012 PROB40 1100/1104
BKN015 BECMG 1104/1106 RASN TEMPO 1105/1124 2000 SN VV006 BECMG
1110/1112 07012KT=
TAF ESMS 102330Z 1100/1124 27014KT 9999 BKN020 TEMPO 1100/1109 
BKN008 TEMPO 1109/1118 4000 RA BR BKN004 BECMG 1117/1119 30012KT 
TEMPO 1118/1120 BKN012=
TAF ESSA 102330Z 1100/1124 32010KT 9999 BKN008 TEMPO 1100/1103 SCT008
BKN018 BECMG 1103/1105 4000 -SN VV015 TEMPO 1103/1124 1400 SN VV007
BECMG 1106/1108 02010KT=

0000008700
675
FTUS41 KWBC 102333
TAF
KWWR 102331Z 1100/1124 28010KT P6SM FEW120=

0000055500
676
FTUS31 KWBC 102333
TAF
KFLL 102332Z 1100/1124 12009KT P6SM SCT020 BKN200
     FM111500 16013G19KT P6SM SCT025 BKN250
     FM111900 19013G19KT P6SM SCT035 BKN050=
KMIA 102332Z 1100/1124 12008KT P6SM SCT020 BKN200
     FM111500 16013G19KT P6SM SCT025 BKN250
     FM111900 19013G19KT P6SM SCT035 BKN050=
KOKC 102331Z 1100/1124 28009KT P6SM FEW120
     FM111800 30013KT P6SM SKC=
KPBI 102332Z 1100/1124 13010KT P6SM SCT020 BKN200
     FM111500 16014G21KT P6SM SCT025 BKN250
     FM111900 19013G19KT P6SM SCT035 BKN050=

0000101900
677
FTUS42 KWBC 102333
TAF
KAUS 102331Z 1100/1206 22012KT P6SM BKN200
     FM110400 24008KT P6SM BKN250
     FM110900 32005KT P6SM SKC
     FM111600 01007KT P6SM SKC
     FM120000 08005KT P6SM SKC
     FM120300 12004KT P6SM SKC=
KDRT 102331Z 1100/1124 VRB03KT P6SM BKN250
     FM110300 32004KT P6SM SCT250
     FM111800 34006KT P6SM SKC=
KFXE 102332Z 1100/1124 12009KT P6SM SCT020 BKN200
     FM111500 16014G20KT P6SM SCT025 BKN250
     FM111900 19013G19KT P6SM SCT035 BKN050=
KOPF 102332Z 1100/1124 12008KT P6SM SCT020 BKN200
     FM111500 16013G19KT P6SM SCT025 BKN250
     FM111900 19013G19KT P6SM SCT035 BKN050=
KSAT 102331Z 1100/1206 24007KT P6SM BKN200
     FM110300 24006KT P6SM SCT250
     FM110800 32005KT P6SM SKC
     FM111500 35007KT P6SM SKC
     FM120000 07005KT P6SM SKC
     FM120300 13003KT P6SM SKC=
KTMB 102332Z 1100/1124 12006KT P6SM SCT020 BKN200
     FM111500 16013G19KT P6SM SCT025 BKN250
     FM111900 19013G19KT P6SM SCT035 BKN050=

0000072300
678
FTUS43 KWBC 102333
TAF
KDLH 102331Z 1100/1124 17006KT 3/4SM -FZDZSN BR OVC002
     FM110200 20005KT 1SM -SN BR OVC003
     FM110700 26004KT 3SM BR OVC002
     FM111500 29009KT P6SM BKN014=
KFOD 102332Z 1100/1124 VRB03KT 3SM -SN BR OVC003
     FM110500 28005KT 5SM BR SCT005 OVC012
     FM110900 27007KT P6SM SCT020 BKN090
     FM111800 30012KT P6SM SCT030 OVC100=
KICT 102330Z 1100/1124 30010KT P6SM FEW150
     FM110200 30008KT P6SM SCT025 OVC040
     FM110700 30007KT P6SM SCT250
     FM111700 31012G20KT P6SM SKC=
KINL 102331Z 1100/1124 19006KT 2SM BR OVC004
     FM110300 18006KT 1SM -SN BR OVC004
     FM111000 27004KT 3SM BR OVC003
     FM111300 29008KT P6SM OVC006=

0000139800
679
FTUS72 KWBC 102333
TAF
KAPF 102332Z 1100/1124 10004KT P6SM SCT050 BKN200
     FM110900 13004KT 5SM BR FEW007 SCT015
     FM111500 16014G20KT P6SM SCT025
     FM111900 21013KT P6SM SCT025 BKN250=
KAUS 102331Z 1100/1206 22012KT P6SM BKN200
     FM110400 24008KT P6SM BKN250
     FM110900 32005KT P6SM SKC
     FM111600 01007KT P6SM SKC
     FM120000 08005KT P6SM SKC
     FM120300 12004KT P6SM SKC=
KFLL 102332Z 1100/1124 12009KT P6SM SCT020 BKN200
     FM111500 16013G19KT P6SM SCT025 BKN250
     FM111900 19013G19KT P6SM SCT035 BKN050=
KGWO 102331Z 1100/1124 16011KT P6SM BKN045 OVC060
     FM110300 17014KT 4SM -SHRA BR BKN025 OVC040
     FM110500 18015KT 3SM TSRA BR OVC007CB
     FM110900 25010KT 4SM -DZ BR OVC008
     FM111300 28011KT P6SM SCT035
     FM111600 28012G20KT P6SM SKC=
KJAN 102331Z 1100/1124 16010KT P6SM SCT015 BKN045
     FM110300 15012KT 4SM -SHRA BR BKN015 OVC040
     FM110600 18015KT 1SM TSRA BR OVC004CB
     FM111000 26009KT 4SM -DZ BR OVC007
     FM111400 29010KT P6SM SCT020
     FM111600 27013G20KT P6SM SKC=
KMEI 102331Z 1100/1124 14005KT P6SM OVC006
     FM110200 17009KT P6SM BKN015 OVC045
     FM110500 17011KT 4SM -SHRA BR OVC009
     FM110800 18014KT 1SM TSRA BR OVC003CB
     FM111100 25009KT 4SM -DZ BR OVC007
     FM111500 29011KT P6SM SCT250
     FM111700 29014G21KT P6SM SKC=

0000062800
680
FTUS72 KWBC 102333 RRA
TAF
KMIA 102332Z 1100/1124 12008KT P6SM SCT020 BKN200
     FM111500 16013G19KT P6SM SCT025 BKN250
     FM111900 19013G19KT P6SM SCT035 BKN050=
KOKC 102331Z 1100/1124 28009KT P6SM FEW120
     FM111800 30013KT P6SM SKC=
KPBI 102332Z 1100/1124 13010KT P6SM SCT020 BKN200
     FM111500 16014G21KT P6SM SCT025 BKN250
     FM111900 19013G19KT P6SM SCT035 BKN050=
KSAT 102331Z 1100/1206 24007KT P6SM BKN200
     FM110300 24006KT P6SM SCT250
     FM110800 32005KT P6SM SKC
     FM111500 35007KT P6SM SKC
     FM120000 07005KT P6SM SKC
     FM120300 13003KT P6SM SKC=

0000132600
681
FTUS73 KWBC 102333
TAF
KALO 102332Z 1100/1124 VRB04KT 1SM BR OVC004
     FM110200 27008KT 2SM -SN BR BKN008 OVC015
     FM110600 28009KT 4SM BR SCT010 OVC018
     FM111000 30011KT P6SM SCT015 BKN035
     FM111700 30014G20KT P6SM BKN080=
KDLH 102331Z 1100/1124 17006KT 3/4SM -FZDZSN BR OVC002
     FM110200 20005KT 1SM -SN BR OVC003
     FM110700 26004KT 3SM BR OVC002
     FM111500 29009KT P6SM BKN014=
KHIB 102331Z 1100/1124 17005KT 5SM BR OVC005
      TEMPO 1100/1103 1SM -SN BR OVC002
     FM110600 30003KT 3SM -SN BR OVC004
     FM111300 30008KT P6SM OVC011=
KHUT 102330Z 1100/1124 32010KT P6SM FEW035
      TEMPO 1101/1105 BKN025
     FM110500 30008KT P6SM SCT025
     FM110600 30007KT P6SM SCT250
     FM111600 31012G20KT P6SM SKC=
KICT 102330Z 1100/1124 30010KT P6SM FEW150
     FM110200 30008KT P6SM SCT025 OVC040
     FM110700 30007KT P6SM SCT250
     FM111700 31012G20KT P6SM SKC=
KINL 102331Z 1100/1124 19006KT 2SM BR OVC004
     FM110300 18006KT 1SM -SN BR OVC004
     FM111000 27004KT 3SM BR OVC003
     FM111300 29008KT P6SM OVC006=
KSLN 102330Z 1100/1124 29011KT P6SM SCT025 OVC035
      TEMPO 1100/1104 5SM -RASN BKN025
     FM110400 30008KT P6SM SCT025 BKN100
     FM110500 30007KT P6SM SCT250
     FM111600 31015G22KT P6SM SKC=

0000139500
682
FTUS75 KWBC 102333
TAF
PACV 102331Z 1100/1124 05005KT P6SM -SHSN SCT020 BKN035
      TEMPO 1100/1104 2SM -SHSN BR BKN015
     FM111200 VRB03KT P6SM VCSH BKN035=
PADQ 102331Z 1100/1124 27006KT P6SM SCT040 BKN100
     FM110900 18005KT 6SM -SN BKN025
     FM111700 11011KT 5SM -SN OVC012
     FM112100 09015KT 2SM -RASN BKN005 OVC012=
PAEN 102331Z 1100/1124 VRB03KT P6SM OVC006
      TEMPO 1100/1104 2SM BR SCT006 OVC015
     FM110400 00000KT 1/2SM FZFG BKN003
      TEMPO 1104/1108 4SM BR OVC015
     FM111800 04008KT P6SM BKN015
     FM112100 03008KT P6SM BKN035=
PAGK 102331Z 1100/1124 00000KT 3SM -SHSN BR OVC050
     FM110600 00000KT 2SM BR BKN012 OVC035
     FM112000 00000KT 6SM BR BKN025=
PAHO 102331Z 1100/1124 VRB03KT P6SM SCT040 BKN080
     FM110600 VRB03KT P6SM BKN010
     FM112000 05005KT P6SM SCT010 BKN200=
TAF PAKN 102327Z 1100/1124 02006KT P6SM SCT035 BKN100
      TEMPO 1100/1102 BKN025
     FM111400 04008KT P6SM OVC060
     FM112300 06012KT 6SM -SN OVC035=
PANC 102331Z 1100/1206 VRB02KT 6SM -SN BR BKN005 OVC015
      TEMPO 1100/1104 SCT005 OVC015
     FM111200 VRB03KT 1SM BR BKN005 OVC012
     FM112200 VRB03KT P6SM BKN040=
PATK 102331Z 1100/1124 VRB03KT P6SM BKN015
     FM111900 35002KT P6SM SCT025 BKN060=
PAVD 102331Z 1100/1124 00000KT P6SM SCT050 BKN080 AMD LTD TO CLD
      VIS AND WIND=

0000038100
683
SAPL31 EPWA 102330
METAR EPGD 102330Z 29015KT 9999 -SHRA BKN011 FEW018CB
    05/04 Q1006 RESHRA =
METAR EPKK 102330Z 24012KT 9999 BKN053 05/M01 Q1016 =
METAR EPLL 102330Z 26014KT CAVOK 05/00 Q1013 =
METAR EPPO 102330Z 25009KT 9999 BKN027 06/01 Q1013
    R10/19//95 =
METAR EPRZ 102330Z NIL=
METAR EPWA 102330Z 27020KT 9999 FEW026 05/01 Q1010 NOSIG=

0000038500
684
SAPL32 EPWA 102330
METAR EPBY 102330Z 26015KT 9999 BKN030 06/03 Q1010 =
METAR EPKT 102330Z 24013KT 9999 BKN045 05/M02 Q1016 =
METAR EPLB 102330Z NIL=
METAR EPMO 102330Z 26017KT 9999 -SHRA SCT022CB BKN027 05/03 Q1010=
METAR EPSC 102330Z 25009KT 9999 SCT023 BKN040 05/02
    Q1012 =
METAR EPWR 102330Z 26007KT CAVOK 04/M00 Q1017 =
METAR EPZG 102330Z NIL=

0000025900
685
SAIE31 EIDB 102330
METAR EIDW 102330Z 24008KT 9999 FEW025 02/01 Q1011 NOSIG=
METAR EINN 102330Z 22007KT 9999 -RA SCT025 BKN032 03/03 Q1013 NOSIG=
METAR EICK 102330Z 25005KT 9999 FEW016 SCT080 03/02 Q1013 NOSIG=
METAR EIKN 102330Z NIL=

00000000