0000011200
666
SPUS41 KWBC 102150
SPECI
KDOV 102148Z AUTO 08004KT 1SM R01/5500FT -RA BR VV004 03/03 A3030=

0000009900
667
SAMX55 MMIO 102200
METAR MMIO 102140Z 29008KT 10SM SCT200 25/11 A3001 RMK 8/001=

0000010200
668
SACV20 GVSV 102200
METAR GVSV 102200Z 07010KT 9999 FEW022 BKN200 20/15 Q1017 NOSIG=

0000011400
669
SALT33 EYVI 102150
METAR EYPA 102150Z 30008G18KT 250V010 9999 OVC017 02/M00 Q1002
R01/2///95=

0000045800
670
FTUS42 KWBC 102151 AAA
TAF AMD
KCHA 102148Z 1022/1118 00000KT 2SM BR OVC010
      TEMPO 1022/1102 3/4SM BR OVC004
     FM110200 17006KT 3SM BR OVC010
     FM110500 18008KT 3SM BR VCSH SCT008 OVC010
     FM111000 20010KT 3SM RA BR SCT005 OVC010
     FM111500 23010KT 3SM RA BR SCT005 OVC010=
KTYS 102148Z 1022/1118 05004KT P6SM FEW020 BKN040
     FM110800 21012KT 5SM BR VCSH OVC025
     FM111300 23015KT 3SM RA BR OVC015=

0000031300
671
FTUS31 KWBC 102151 AAA
TAF AMD
KATL 102149Z 1022/1124 09008KT 1SM -DZ BR OVC002
     FM110100 11008KT 1/2SM -RADZ FG OVC002
     FM110900 16009KT 1SM -RADZ BR OVC003
     FM111400 20009G18KT 2SM -SHRA OVC006
     FM111900 27013G22KT P6SM BKN025
     FM112100 27014G23KT P6SM SCT035=

0000092600
672
FTUS72 KWBC 102151 AAA
TAF AMD
KATL 102149Z 1022/1124 09008KT 1SM -DZ BR OVC002
     FM110100 11008KT 1/2SM -RADZ FG OVC002
     FM110900 16009KT 1SM -RADZ BR OVC003
     FM111400 20009G18KT 2SM -SHRA OVC006
     FM111900 27013G22KT P6SM BKN025
     FM112100 27014G23KT P6SM SCT035=
KCHA 102148Z 1022/1118 00000KT 2SM BR OVC010
      TEMPO 1022/1102 3/4SM BR OVC004
     FM110200 17006KT 3SM BR OVC010
     FM110500 18008KT 3SM BR VCSH SCT008 OVC010
     FM111000 20010KT 3SM RA BR SCT005 OVC010
     FM111500 23010KT 3SM RA BR SCT005 OVC010=
KTRI 102149Z 1022/1118 07003KT P6SM SCT050 BKN250
      TEMPO 1022/1102 BKN050
     FM110200 00000KT P6SM OVC030
     FM110900 14003KT 5SM BR VCSH OVC030
     FM111500 21010KT 3SM RA BR OVC015=
KTYS 102148Z 1022/1118 05004KT P6SM FEW020 BKN040
     FM110800 21012KT 5SM BR VCSH OVC025
     FM111300 23015KT 3SM RA BR OVC015=

0000022300
673
FTUS73 KWBC 102151 AAA
TAF AMD
KEVV 102148Z 1022/1118 15007KT P6SM VCSH OVC009
      TEMPO 1022/1024 5SM -SHRA BR
     FM110000 16011KT 5SM SHRA BR SCT008 OVC012
     FM110900 24010KT P6SM BKN015=

0000030800
674
FTUS74 KWBC 102151 AAA
TAF AMD
KSBA 102149Z 1022/1118 13009KT 5SM HZ SKC
     FM110100 17005KT P6SM SKC
     FM110400 VRB03KT P6SM SKC=
KSBP 102148Z 1022/1118 34012G18KT P6SM SKC
     FM110200 33010KT P6SM SKC
     FM110400 VRB03KT P6SM SKC
     FM111200 09003KT P6SM FEW250=

0000009800
675
SAUS71 KWBC 102100 RRH
METAR
KAPG 102145Z 00000 1/2 -RA BR VV002 03/02 A3031=

0000009700
676
SAUS73 KWBC 102100 RRH
METAR
KGYY 102145Z 15011KT 2SM RA OVC006 04/03 A2977=

0000011900
677
FTSU31 HSSS 102200
TAF
HSSS  102200Z 1100/1206  34012G22KT CAVOK
      TEMPO 1105/1110 6000 NSC=

0000009300
678
SPCN51 CWAO 102150
SPECI CZCP 102150Z AUTO 29022KT 1SM -SN CLR M32/ A2941=

0000009800
679
SABZ21 SBSV 102200
METAR SBSV 102200Z 09010KT 9999 SCT017 SCT070 27/23
Q1012=

0000021000
680
SAMP31 LMMM 102200
METAR HLLT 102150Z
17004KT CAVOK 11/07 Q1024=
METAR HLLB 102148Z
00000KT 9999 SCT020 BKN080 15/12 Q1025 =
METAR LMML 102145Z AUTO 23006KT 210V270 CAVOK 15/12 Q1022=

0000011600
681
SALT31 EYVI 102150
METAR EYVI 102150Z 28016G27KT 7000 OVC012 02/00 Q0996 R20/2/0295
     NOSIG=

0000017500
682
FTAG31 KWBC 102151
TAF
TAF SAZM 102300Z 1100/1124 16015KT 9999 SCT025 TX21/1118Z
      TN14/1110Z
      BECMG 1115/1118 18015G25KT 9999 SCT025 FEW045=

0000025300
683
FTUS52 KWBC 102151 AAA
TAF AMD
KTRI 102149Z 1022/1118 07003KT P6SM SCT050 BKN250
      TEMPO 1022/1102 BKN050
     FM110200 00000KT P6SM OVC030
     FM110900 14003KT 5SM BR VCSH OVC030
     FM111500 21010KT 3SM RA BR OVC015=

0000022300
684
FTUS53 KWBC 102151 AAA
TAF AMD
KEVV 102148Z 1022/1118 15007KT P6SM VCSH OVC009
      TEMPO 1022/1024 5SM -SHRA BR
     FM110000 16011KT 5SM SHRA BR SCT008 OVC012
     FM110900 24010KT P6SM BKN015=

0000030800
685
FTUS54 KWBC 102151 AAA
TAF AMD
KSBA 102149Z 1022/1118 13009KT 5SM HZ SKC
     FM110100 17005KT P6SM SKC
     FM110400 VRB03KT P6SM SKC=
KSBP 102148Z 1022/1118 34012G18KT P6SM SKC
     FM110200 33010KT P6SM SKC
     FM110400 VRB03KT P6SM SKC
     FM111200 09003KT P6SM FEW250=

00000000