0000009800
366
SPUS31 KWBC 102222
SPECI
KCVG 102218Z 14010KT 10SM BKN010 OVC100 09/08 A2993=

0000041500
367
FTCN31 CWAO 102200 AAA
TAF AMD CYYJ 102222Z 1022/1118 VRB03KT P6SM SCT020 BKN050 TEMPO
     1022/1024 P6SM -RA BKN020
     BECMG 1022/1024 15008KT
    FM110000 15008KT 6SM -RA SCT007 OVC025 TEMPO 1100/1110 2SM -RA BR
     BKN007 OVC020
     BECMG 1105/1107 15010G20KT
    FM111000 23015G25KT P6SM SCT012 BKN030 TEMPO 1110/1118 5SM -SHRA
     BR OVC012
    RMK NXT FCST BY 110000Z=

0000011100
368
SPCN51 CWAO 102222
SPECI CWOB 102222Z AUTO 19002KT SCT001 SCT014 BKN018 OVC023 M19/
A2914=

0000064100
369
SAFI31 EFHK 102220
METAR EFHK 102220Z 33016KT 9999 BKN011 M02/M04 Q0993 NOSIG=
METAR EFJY 102220Z AUTO 36010KT 9999 OVC012 M06/M08
 Q0996=
METAR EFKU 102220Z AUTO 02010KT 9999 -SN OVC016 
M07/M09 Q0996=
METAR EFOU 102220Z AUTO 06009KT 010V110 9999 -SN OVC034/// M12/M14 
Q1004 12420581=
METAR EFRO 102220Z AUTO 04012KT CAVOK M17/M19 
Q1009=
METAR EFTP 102220Z AUTO 02007KT 9999 BKN008 OVC010 
M03/M04 Q0996=
METAR EFTU 102220Z AUTO 36005KT 320V040 9999 -SG OVC005/// M02/M02 
Q0996 REUP R08/19//80=
METAR EFVA 102220Z AUTO 03008KT 9999 SG SCT014/// BKN029/// OVC047///
M07/M09 Q1000 R16/49//95=

0000081800
370
SASN31 ESWI 102220
METAR ESGG 102220Z 24010KT 9999 OVC004 04/03 Q1001 R21/29//95=
METAR ESGJ 102220Z 21005KT 9999 FEW009 BKN020 01/00 Q1001
R01/720068=
METAR ESGP 102220Z 24011KT 9999 FEW015 OVC024 06/04 Q1001
R19/19//95=
METAR ESGT 102220Z NIL=
METAR ESMK 102220Z AUTO 26010KT 8000NDV FEW013/// SCT022///
BKN027/// 06/05 Q1005 RERA REDZ=
METAR ESMQ 102220Z AUTO 26004KT 9999 BKN024/// 01/M00 Q1004=
METAR ESMS 102220Z 26014KT 9999 BKN010 OVC017 05/05 Q1006
R17/29//95=
METAR ESMT 102220Z AUTO 25012KT 9999 BKN006/// OVC014/// 06/04
Q1004=
METAR ESMX 102220Z AUTO 18004KT 9999 OVC022/// 01/00 Q1003=
METAR ESTA 102220Z AUTO 25013KT 9999 SCT011/// BKN020/// OVC025///
06/04 Q1005=
METAR ESTL 102220Z AUTO 26013KT 7000NDV BR FEW010/// BKN014///
OVC020/// 06/06 Q1005=

0000060100
371
SADL31 EDZO 102220
METAR EDDF 102220Z 22001KT 9999 FEW040 BKN250 02/01 Q1019 NOSIG=
METAR EDDH 102220Z 24010KT 9999 BKN016 06/04 Q1012 NOSIG=
METAR EDDK 102220Z 14005KT CAVOK 03/01 Q1017 NOSIG=
METAR EDDL 102220Z 18006KT 9999 FEW040 BKN240 04/02 Q1017 NOSIG=
METAR EDDM 102220Z VRB01KT 9999 R26R/P2000N R26L/0900VP2000U MIFG NSC
     M01/M01 Q1019 NOSIG=
METAR EDDN 102220Z 15003KT 9999 BKN040 02/01 Q1019=
METAR EDDS 102220Z VRB01KT CAVOK 01/M00 Q1019=
METAR EDDT 102220Z 25011KT 9999 SCT044 BKN060 05/02 Q1014=
METAR EDDV 102220Z 24009KT 9999 FEW040 05/03 Q1015=

0000041500
372
SADL32 EDZO 102220
METAR EDDB 102220Z 24011KT 9999 FEW030 BKN054 04/01 Q1015 NOSIG=
METAR EDDC 102220Z 25007KT CAVOK 05/01 Q1016=
METAR EDDE 102220Z 21007KT CAVOK 02/00 Q1017=
METAR EDDG 102220Z 23008KT 9999 BKN011 05/04 Q1015 NOSIG=
METAR EDDP 102220Z 22011KT CAVOK 04/02 Q1017 NOSIG=
METAR EDDR 102220Z 07002KT CAVOK 01/M01 Q1018=
METAR EDDW 102220Z 23008KT 9999 SCT023 04/03 Q1013=

0000010400
373
SAIS32 LLBG 102220
METAR LLBG 102220Z VRB03KT 9999 BKN030 12/10 Q1021 NOSIG RMK RERA=

0000009100
374
SPCN51 CWAO 102222
SPECI CZCP 102222Z AUTO 29019KT 3/4SM CLR M32/ A2943=

0000012200
375
SAEU31 BKPR 102230
BKPR 102230Z 00000KT 0150 R17/0125 FZFG BKN002 M01/M02 Q1022 NOSIG
 RMK 17010095 =

0000053300
376
SADN31 EKCH 102220
METAR EKCH 102220Z 26011KT 9999 FEW016 BKN040 06/04 Q1007 NOSIG=
METAR EKBI 102220Z 24010KT 210V280 9999 SCT010 BKN032 05/04
Q1007=
METAR EKYT 102220Z 25014KT 9999 FEW015 SCT020 BKN038 06/05 Q1003=
METAR EKRK 102220Z AUTO 26014KT 9999NDV BKN033/// OVC038///
05/03 Q1007=
METAR EKAH 102220Z AUTO 25009KT 210V280 9999NDV FEW016/// SCT029///
06/03 Q1006=
METAR EKEB 102220Z AUTO 23009KT 9999NDV FEW017/// 06/04 Q1008=
METAR EKRN 102220Z AUTO 27020KT 9999NDV BKN025/// 06/06 Q1008=

0000016500
377
SADN32 EKCH 102220
METAR EKVJ 102223Z NIL=
METAR EKSB 102223Z NIL=
METAR EKSN 102223Z NIL=
METAR EKVD 102223Z NIL=
METAR EKOD 102223Z NIL=

0000050400
378
SADN34 EKCH 102220
METAR EKHN 102220Z AUTO 25009G19KT 130V280 7000NDV BKN013///
BKN140/// ///// Q1010=
METAR EKHR 102220Z AUTO 25017KT 9999NDV FEW015/// SCT019///
08/06 Q1008=
METAR EKHA 102220Z AUTO 23023KT 9999NDV 07/06 Q1008=
METAR EKHD 102220Z AUTO 24021KT 9999NDV 07/06 Q1005=
METAR EKTE 102220Z AUTO 22022KT 9999NDV FEW008 07/06 Q1008=
METAR EKGC 102220Z AUTO 23019KT 9999NDV 07/06 Q1007=
METAR EKAV 102220Z AUTO 24016KT 9999NDV FEW018/// BKN038///
06/04 Q1005=

0000030600
379
SAUS75 KWBC 102200 RRB
METAR
PADK 102216Z AUTO 23024G34KT 9SM FEW028 BKN039 OVC075 04/M01
     A2894=
PAGS 102216Z AUTO 13008KT 10SM SCT017 BKN022 OVC029 03/01
     A2948=
PAUN 102216Z AUTO 09018KT 10SM CLR M14/M22 A2960=
PAVD 102216Z 10SM FEW005 FEW020 BKN100 M03/M06 A2938=

0000032500
380
FTCN31 CWAO 102200 AAA
TAF AMD CYWH 102221Z 1022/1105 22005KT P6SM -RA SCT015 BKN040 OVC120
     TEMPO 1022/1024 5SM -SHRA BR BKN015 OVC025
    FM110000 VRB03KT P6SM -RA SCT006 OVC025 TEMPO 1100/1105 2SM -SHRA
     BR SCT003 BKN006 OVC015
     BECMG 1100/1102 12010KT
    RMK NXT FCST BY 110000Z=

0000010300
381
FTPA31 KWBC 102221
TAF
TAF PTSA 102215Z 1022/1118 05015KT P6SM VCSH SCT020 SCT130=

0000010300
382
FTPQ31 KWBC 102221
TAF
TAF PTSA 102215Z 1022/1118 05015KT P6SM VCSH SCT020 SCT130=

0000023200
383
FTBZ42 KWBC 102221
TAF
TAF SBPV 102200Z 1100/1124 00000KT 9999 SCT015 TN24/1107Z
      TX32/1117Z PROB40 1100/1103 4000 TSRA BKN010 FEW025CB PROB40
      1116/1120 36005KT 5000 TS RA SCT015 FEW025CB RMK PDZ=

0000032300
384
FTPA32 KWBC 102221
TAF
TAF NFTV 102219Z 1100/1124 30025KT 9999 -SHRA SCT007 BKN016
      TEMPO 1100/1106 30030G45KT 1000 +TSRA BKN006 BKN015 FEW018CB
      TEMPO 1106/1124 27015KT=
TAF NGFU 102219Z 1100/1124 35010KT 9999 -SHRA SCT018 BKN040 PROB30
      TEMPO 1100/1106 7000 SHRA BKN018 BKN040=

0000031200
385
FTUS52 KWBC 102221 AAA
TAF AMD
KABI 102220Z 1022/1118 28018G28KT P6SM SKC
     FM110000 28007KT P6SM SKC=
KJBR 102220Z 1022/1118 24003KT 2SM -RA BR VCTS SCT005 BKN025CB
     FM110700 24012KT P6SM BKN012 OVC070
     FM111000 25010KT P6SM SCT020
     FM111500 27012G20KT P6SM SCT025=

00000000