0000034700
326
SZIO01 AMMC 111054
CREX++
T000103 A001 D01021 D06025++
-1211670 09689190 46280 2014 01 11 10 47 3020 11 07 00 01
00995 0036 00996 0040 00993 0039 01000 0048 00987 0038 00984 0037+
-1042940 10566940 46290 2014 01 11 10 47 //// 11 07 00 01
01291 -0019 01257 -0052 01293 -0014 01274 -0030 01261 -0042 01278 -0023++
7777

0000046700
327
SZPA01 AMMC 111054
CREX++
T000103 A001 D01021 D06025++
0136250 17293000 67590 2014 01 11 10 47 3015 11 07 00 01
01493 0014 01509 0027 01517 0032 01515 0027 01513 0022 01524 0030+
0710610 17137250 67680 2014 01 11 10 47 3013 11 07 00 01
01034 0071 01028 0063 01029 0062 01040 0070 01041 0068 01046 0071+
0698060 15820000 67950 2014 01 11 10 47 3023 11 07 00 01
00603 0034 00605 0035 00603 0032 00602 0031 00602 0030 00604 0032++
7777

0000015500
328
SAAP32 FAPR 110000 RRA
METAR FBSK 110000Z 26003KT CAVOK 20/10 Q1014 NOSIG=
METAR FYWH 110000Z AUTO 01001KT //// // ////// 10/00 Q1020=

0000010200
329
SACA31 KWBC 110000 RRA
METAR
MYNN 110000Z 12006KT 9999 FEW018 BKN040 25/23 A3011=

0000021400
330
SACA33 KWBC 110000 RRA
METAR
TNCA 110000Z 07009KT 9999 FEW018 25/22 Q1013 A2993=
TTCP 110000Z 00000KT 9999 FEW016 24/20 Q1014 RESH NOSIG=
TTPP 110000Z 00000KT 9999 FEW018 25/20 Q1013 NOSIG=

0000006700
331
SAJP41 KWBC 110000 RRA
METAR
RJCM 110000Z NIL=

0000048000
332
SAJP31 KWBC 110000 RRA
METAR
RJAA 110000Z 31004KT 9999 FEW025 01/M07 Q1024 NOSIG RMK 1CU025
     A3026=
RJCC 110000Z 20005KT 9999 -SHSN FEW015 SCT040 BKN070 M07/M11 Q1018
     RMK 1ST015 4CU040 7AC070 A3008 5000W=
RJFK 110000Z 36002KT 9999 FEW035 SCT060 01/M05 Q1030 RMK 1CU035
     3SC060 A3043=
RJOO 110000Z 33004KT 9999 FEW025 03/M05 Q1029 RMK 1CU025 A3041=
RJTT 110000Z 03005KT 360V070 9999 FEW060 03/M06 Q1025 NOSIG RMK
     1SC060 A3027=

0000009500
333
SAIO31 KWBC 110000 RRC
METAR
FMMT 110000Z 00000KT 9999 FEW017 26/25 Q1011=

0000009500
334
SATH31 VTBB 110000 RRB
METAR VTCN 110000Z VRB02KT 0100 FG VV/// 15/15 Q1018=

0000037300
335
SALY31 HLMC 110000
METAR HLGD 110000Z NIL=
METAR HLGT 110000Z NIL=
METAR HLJA 110000Z NIL=
METAR HLKF 110000Z NIL=
METAR HLKM 110000Z NIL=
METAR HLLB 110000Z NIL=
METAR HLLM 110000Z NIL=
METAR HLLS 110000Z NIL=
METAR HLLT 110000Z NIL=
METAR HLMI 110000Z NIL=
METAR HLNT 110000Z NIL=
METAR HLON 110000Z NIL=
METAR HLTD 110000Z NIL=

0000013300
336
SATH32 VTBB 110000 RRB
METAR VTST 110000Z 06008KT 9000 FEW020 SCT120 BKN300 26/25 Q1012
           RWY08 INFO A=

0000012100
337
SAAG05 SABM 110000 RRA
METAR SARL 110000Z 09017KT 9999 TS FEW025 FEW045CB BKN100 BKN200
24/21 Q1008=

0000010200
338
SAAB31 LATI 110020
METAR LATI 110020Z 17003KT 7000 FEW035 SCT055 10/08 Q1022 NOSIG=

0000014000
339
FCTA31 RUMS 102300
TAF UTDL 102335Z 1101/1110 07005G10MPS 2000 BR NSC 530009 TEMPO
1101/1104 07007MPS 0800 FZFG SCT005=

0000009700
340
SPCN47 CWAO 110012
SPECI CYWA 110012Z AUTO 14005KT 3/4SM OVC001 M04/M05 A3010=

0000009300
341
SPUS31 KWBC 110007
SPECI
KDTW 110003Z 13004KT 1SM BR OVC004 03/02 A2991=

0000009100
342
SPUS41 KWBC 110007
SPECI
KAVP 110003Z VRB04KT 10SM BKN012 02/00 A3024=

0000009700
343
SPUS42 KWBC 110007
SPECI
KLCH 110003Z 17007KT 4SM -RA BR OVC004 18/17 A2986=

0000011900
344
SPUS42 KWBC 110007
SPECI
KPNS 110003Z AUTO 10005KT 1SM R17/3500V5000FT -RA BR VV003 17/16
A3001=

0000010700
345
SPUS44 KWBC 110007
SPECI
KHQM 110003Z AUTO 16010KT 3SM -RA BKN015 BKN023 OVC037 A2992=

00000000