0000149800
446
FTUS74 KWBC 102321
TAF
KALW 102320Z 1100/1124 21010KT P6SM VCSH OVC080
     FM110400 18010KT P6SM VCSH SCT025 OVC040
     FM111000 18015G22KT P6SM SCT050 OVC100
     FM111800 21024G35KT P6SM -SHRA BKN050=
KFLG 102320Z 1100/1124 25008KT P6SM SCT250
     FM110100 VRB02KT P6SM SCT250
     FM111800 22009G14KT P6SM SCT250=
KGCN 102320Z 1100/1124 30009KT P6SM SCT250
     FM110100 VRB02KT P6SM SCT250
     FM111800 23009G14KT P6SM SCT250=
KGEG 102320Z 1100/1124 21016KT P6SM SCT020 BKN050 OVC100
     FM110200 19016KT 6SM -RA SCT004 BKN008 OVC030
     FM110700 19015KT 6SM RA BKN010 OVC020 WS015/21040KT
     FM111100 20025G35KT P6SM -RA BKN010 OVC030
     FM112100 21032G42KT P6SM -RA BKN019 BKN040=
KIWA 102320Z 1100/1124 29004KT P6SM FEW250
     FM110300 11005KT P6SM FEW250
     FM112000 28004KT P6SM FEW250 AMD LTD TO CLD VIS AND WIND
      1103/1113=
KLAS 102320Z 1100/1124 VRB06KT P6SM BKN250=
KMRY 102320Z 1100/1124 31004KT P6SM SKC
     FM110300 24004KT P6SM SKC
     FM110900 13004KT P6SM BKN015
     FM111800 25007KT P6SM BKN060=
KOAK 102320Z 1100/1206 27012KT P6SM SCT200
     FM110500 29007KT P6SM BKN250
     FM110900 24005KT P6SM OVC030
     FM112100 VRB03KT P6SM VCSH OVC030
     FM112300 29008KT P6SM BKN050=
KPHX 102320Z 1100/1124 27004KT P6SM FEW250
     FM110500 10004KT P6SM FEW250
     FM112200 26004KT P6SM FEW250=
KPRC 102320Z 1100/1124 32008KT P6SM SCT250
     FM110100 VRB05KT P6SM SCT250=

0000121400
447
FTUS74 KWBC 102321 RRA
TAF
KRDM 102320Z 1100/1124 27010KT P6SM VCSH BKN050 OVC070
     FM110600 19015G24KT P6SM SCT050 OVC100
     FM111500 22018G30KT P6SM VCSH BKN050
     FM111800 23022G34KT P6SM VCSH BKN050=
KSFF 102320Z 1100/1124 22010KT P6SM SCT030 BKN060 OVC120
     FM110200 22010KT 6SM -RA SCT007 OVC012
     FM110700 20010KT 5SM RA OVC015 WS020/21040KT
     FM111100 20025G35KT P6SM -RA BKN010 OVC030
     FM112100 21030G42KT P6SM -RA BKN019 BKN040=
KSFO 102320Z 1100/1206 33005KT P6SM FEW006 SCT200
     FM110300 29006KT P6SM FEW012 BKN250
     FM110500 27004KT P6SM OVC010
     FM111700 23012KT P6SM BKN100
     FM112100 26008KT P6SM VCSH OVC030
     FM112300 29003KT P6SM BKN060=
KSJC 102320Z 1100/1124 31008KT P6SM FEW025
     FM110300 30006KT P6SM FEW025
     FM110800 VRB03KT P6SM BKN015
     FM111600 15005KT P6SM BKN040=
KSNS 102320Z 1100/1124 25005KT P6SM SKC
     FM110300 VRB03KT P6SM SKC
     FM110900 12003KT P6SM BKN015
     FM111700 13006KT P6SM SCT060=
KYKM 102320Z 1100/1124 28010G20KT P6SM VCSH OVC050
     FM110300 23011G20KT 6SM -SHRA OVC035
     FM111500 25018G25KT P6SM SCT100
      TEMPO 1120/1124 23028G40KT=

0000021100
448
FTFR37 LFPW 102300 AAA
TAF AMD LFPB 102320Z 1100/1124 15005KT 4500 BR OVC005 BECMG 1102/1104
 22005KT BECMG 1109/1111 9999 NSW SCT012 PROB40 TEMPO 1111/1116
BKN012 BECMG 1122/1124 4000 BR=

0000022800
449
SAUS72 KWBC 102300 RRE
METAR
KBQK 102315Z AUTO 13003KT 5SM OVC003 19/18 A3011=
KLRU 102315Z AUTO 26020G25KT 10SM CLR 15/M09 A2998=
TNCM 102300Z 07011KT 040V100 9999 FEW019 26/18 Q1018 A3006
     NOSIG=

0000055900
450
FTIE31 EIDB 102300
TAF EINN 102300Z 1100/1124 18004KT 9999 MIFG SCT010 TEMPO 1100/1102
     4000 SHRASN SHRAGS BKN008 BKN018CB TEMPO 1101/1109 0600 FG
     BKN001 BECMG 1122/1124 14015KT=
TAF EIDW 102300Z 1100/1124 26007KT 9999 SCT025 TEMPO 1103/1109 3000
     BR=
TAF EICK 102300Z 1100/1124 28006KT 9999 SCT015 TEMPO 1100/1102 SHRASN
     SCT018CB TEMPO 1102/1110 3000 BR BKN004 BECMG 1121/1124
     14015G25KT=
TAF EIKN 102300Z 1100/1124 22004KT 9999 SCT008 TEMPO 1100/1109 0200
     FZFG OVC001 BECMG 1122/1124 14015KT=

0000010600
451
SAUS73 KWBC 102300 RRG
METAR
KIKK 102315Z AUTO 16014G21KT 4SM -RA OVC004 04/04 A2971=

0000029300
452
SAUS75 KWBC 102300 RRB
METAR
PADK 102316Z AUTO 22022G26KT 10SM FEW033 BKN041 OVC050 04/M01
     A2891=
PAGS 102316Z AUTO 11008KT 10SM BKN023 OVC032 03/01 A2946=
PAUN 102316Z AUTO 07017KT 10SM CLR M14/M21 A2959=
PAVD 102316Z 10SM FEW015 FEW090 BKN100 M03/M04 A2937=

0000009900
453
SAIS32 LLBG 102320
METAR LLBG 102320Z VRB02KT 9999 -RA BKN030 12/10 Q1021 NOSIG=

0000035900
454
FTAF34 OEJD 102200
TAF HUEN 102100Z 1100/1206 36005KT 9000 FEW020 FEW022CB
TEMPO 1101/1107 VRB11KT 8000 -TSRA SCT018 FEW020CB BKN110
BECMG 1108/1113 19012KT 9000 FEW025 FEW027CB SCT190
FM111600 23006KT FEW022 FEW025CB BKN160
BECMG 1121/1124 35005KT FEW020 FEW022CB BKN130
TEMPO 1201/1206 VRB10KT 8000 -TSRA SCT018 FEW020CB BKN110=

0000122900
455
FTCA35 KWBC 102321
TAF
TAF MRLB 102310Z 1100/1124 07015KT CAVOK TX34/1121Z TN24/1112Z
      BECMG 1103/1105 14003KT FEW040
      TEMPO 1114/1120 09014G24KT FEW040=
MRLB 102310Z 1100/1124 07015KT CAVOK TX34/1121Z TN24/1112Z
      BECMG 1103/1105 14003KT FEW040
      TEMPO 1114/1120 09014G24KT FEW040=
TAF MRLM 102310Z 1100/1124 24005KT 9999 FEW030 SCT120 TX31/1120Z
      TN23/1110Z
      BECMG 1101/1103 26006KT SCT030 PROB30
      TEMPO 1107/1114 DZ SCT020 BKN110
      BECMG 1115/1117 07007KT FEW035 PROB30
      TEMPO 1121/1124 RA FEW020TCU=
MRLM 102310Z 1100/1124 24005KT 9999 FEW030 SCT120 TX31/1120Z
      TN23/1110Z
      BECMG 1101/1103 26006KT SCT030 PROB30
      TEMPO 1107/1114 DZ SCT020 BKN110
      BECMG 1115/1117 07007KT FEW035 PROB30
      TEMPO 1121/1124 RA FEW020TCU=
TAF MROC 102310Z 1100/1124 11010KT 9999 FEW030 TX29/1119Z
      TN20/1111Z
      TEMPO 1100/1103 16003KT FEW015 SCT060
      TEMPO 1110/1119 11012G22KT PROB40
      TEMPO 1120/1124 24007KT=
MROC 102310Z 1100/1124 11010KT 9999 FEW030 TX29/1119Z TN20/1111Z
      TEMPO 1100/1103 16003KT FEW015 SCT060
      TEMPO 1110/1119 11012G22KT PROB40
      TEMPO 1120/1124 24007KT=

0000005200
456
RRIN23 VIDP 110952
RQRPT 612-693=

0000005200
457
RRIN23 VIDP 110953
RQRPT 832-853=

0000010600
458
SPUS41 KWBC 102321
SPECI
KDOV 102318Z AUTO 10004KT 1 1/4SM -RA BR OVC001 03/03 A3029=

0000015400
459
SAAK31 KWBC 102300 RRA
METAR
PAVD 102316Z 10SM FEW015 FEW090 BKN100 M03/M04 A2937=
PAWG 102316Z 09010G14KT 10SM BKN040 03/00 A2958=

0000012500
460
SAAK32 KWBC 102300 RRA
METAR
PADK 102316Z AUTO 22022G26KT 10SM FEW033 BKN041 OVC050 04/M01
     A2891=

0000012100
461
SALT31 EYVI 102320
METAR EYVI 102320Z 28017KT 250V310 7000 OVC012 02/00 Q0998
     R20/2/0295 NOSIG=

0000017800
462
SAMP31 LMMM 102330
METAR HLLT NIL=
METAR HLLB 102315Z
00000KT 9999 SCT020 BKN080 14/12 Q1025 =
METAR LMML 102315Z AUTO 23006KT 200V260 CAVOK 15/13 Q1022=

0000008900
463
SAMP31 LMMM 102330 RRA
METAR HLLT 102320Z
15005KT CAVOK 10/06 Q1023=

0000029000
464
FTAU32 YBBN 102300 AAA
TAF AMD YMAV 102321Z 1100/1124
18012KT 9999 SCT015 BKN020
BECMG 1101/1103 15012KT CAVOK
BECMG 1105/1107 18014KT CAVOK
BECMG 1109/1111 21008KT 9999 -DZ FEW010 BKN015 
TEMPO 1100/1102 9999 NSW BKN015
TEMPO 1112/1124 5000 -DZ BKN010
RMK=

0000032800
465
FTCN34 CWAO 102300 AAA
TAF AMD CYBR 102321Z 1023/1106 29011KT 6SM BR SCT005 OVC010 TEMPO
     1023/1102 11/2SM -SN BR OVC005
    FM110200 30010KT 6SM BR SCT008 OVC015 TEMPO 1102/1104 11/2SM BR
     OVC008
    FM110400 29012KT P6SM SCT020 PROB30 1104/1106 3/4SM BR BKN005
    RMK NXT FCST BY 110000Z=

00000000