0000169600
866
SAUS72 KWBC 110100 RRB
METAR
KLFT 110053Z AUTO 17011G20KT 10SM OVC004 19/18 A2989=
KLIT 110053Z 12005KT 7SM -RA BKN011 OVC080 11/11 A2971=
KLRD 110056Z 00000KT 10SM CLR 21/13 A2987=
KLRU 110055Z AUTO 26018G23KT 10SM CLR 12/M09 A2999=
KMAF 110053Z 25009KT 10SM CLR 15/M08 A2979=
KMCN 110053Z 09003KT 1SM BR VV002 11/11 A3009=
KMCO 110053Z 13004KT 10SM BKN200 21/18 A3012=
KMEI 110058Z 00000KT 6SM -RA BR OVC006 13/12 A2995=
KMEM 110054Z 16011KT 10SM FEW018 OVC030 12/09 A2976=
KMFE 110053Z 15003KT 10SM CLR 22/19 A2986=
KMGM 110053Z 08003KT 1SM BR OVC002 12/11 A3004=
KMIA 110053Z 10007KT 10SM FEW020 BKN190 BKN300 24/22 A3010=
KMKL 110053Z AUTO 15007G17KT 10SM BKN010 OVC016 11/09 A2979=
KMLB 110053Z 00000KT 8SM FEW043 OVC065 22/22 A3012=
KMLC 110053Z AUTO 31005KT 10SM FEW070 10/05 A2972=
KMLU 110053Z 17012KT 6SM BR OVC007 17/16 A2980=
KMOB 110056Z 13007KT 1 3/4SM BR OVC002 14/14 A2999=
KMSL 110053Z AUTO 14008KT 10SM OVC040 12/08 A2994=
KMSY 110053Z 14004KT 1/8SM FG VV001 16/16 A2995=
KNEW 110053Z AUTO 13003KT 1/4SM FG VV003 13/13 A2996=
KNGP 110056Z 00000KT 10SM FEW030 SCT250 18/17 A2984=
KOKC 110052Z 29008KT 10SM CLR 07/M03 A2974=
KPBI 110053Z 13007KT 10SM FEW022 BKN200 25/21 A3010=
KPDK 110053Z 00000KT 1 1/4SM BR OVC003 08/07 A3008=
KPFN NIL=
KPIE 110053Z 00000KT 10SM CLR 21/19 A3009=
KPNS 110053Z AUTO 10008KT 1/2SM R17/2400V3500FT FG VV002 17/16
     A3000=
KROW 110051Z 26008KT 10SM CLR 13/M11 A2982=
KRSW 110053Z 08003KT 10SM FEW032 21/21 A3008=
KSAT 110051Z 23004KT 10SM BKN170 OVC250 19/14 A2985=
KSFB 110053Z 10004KT 10SM CLR 21/19 A3011=
KSHV 110056Z 26005KT 2SM RA BR OVC004 16/16 A2975=

0000118200
867
SAUS72 KWBC 110100 RRC
METAR
KSJT 110051Z 24009KT 10SM CLR 14/M06 A2979=
KSRQ 110053Z 00000KT 10SM CLR 22/19 A3007=
KSSI 110053Z AUTO 11007KT 10SM BKN012 17/17 A3012=
KTCC 110053Z AUTO 30011KT 10SM CLR 10/M12 A2978=
KTCL 110053Z 07003KT 10SM OVC013 13/11 A2998=
KTCS 110053Z AUTO 32004KT 10SM CLR 13/M11 A2996=
KTLH 110053Z 15006KT 3/4SM BR OVC002 19/18 A3008=
KTPA 110053Z 00000KT 10SM FEW055 21/19 A3010=
KTRI 110053Z 00000KT 10SM SCT250 07/06 A3004=
KTUL 110053Z 27005KT 10SM FEW180 07/00 A2967=
KTUP 110053Z 19011KT 10SM OVC007 11/ A2988=
KTXK 110053Z 20004KT 5SM BR OVC007 15/15 A2971=
KTYR 110053Z 20011KT 10SM FEW008 OVC012 17/16 A2974=
KTYS 110053Z 00000KT 10SM BKN040 BKN055 OVC250 09/07 A3000=
KVCT 110051Z 18007KT 10SM BKN016 21/19 A2983=
KVLD 110053Z 00000KT 7SM BKN055 20/18 A3009=
KVRB 110053Z 16005KT 10SM CLR 23/21 A3011=
TIST 110053Z AUTO 09011KT 10SM FEW038 25/19 A3009=
TISX 110053Z 07008KT 10SM FEW033 SCT043 BKN050 24/18 A3009=
TJBQ 110050Z 09014KT 10SM SCT030 26/ A3011=
TJMZ NIL=
TJPS 110050Z 00000KT 8SM FEW030 24/19 A3007=
TJSJ 110056Z 08009KT 10SM SCT035 26/21 A3011=
TKPK NIL=
TNCM NIL=

0000166700
868
SAUS73 KWBC 110100
METAR
KABR 110053Z AUTO 23007KT 10SM CLR M08/M10 A2952=
KALN 110050Z 18015G21KT 10SM -RA BKN017 06/06 A2964=
KALO 110054Z 00000KT 1 1/4SM BR OVC003 00/00 A2952=
KAPN 110054Z AUTO 13009KT 4SM BR OVC005 M01/M01 A2982=
KASE 110053Z 35005KT 4SM -SN BR FEW014 OVC037 M06/M07 A2992=
KATY 110053Z AUTO 25007KT 9SM CLR M08/M08 A2951=
KAXN 110053Z AUTO 20006KT 1 1/2SM BR OVC002 M02/M02 A2949=
KAZO 110053Z 16008KT 1 1/2SM RA BR OVC006 04/03 A2976=
KBDE 110053Z AUTO 17005KT 3SM BR OVC005 M04/M04 A2941=
KBFF 110053Z AUTO 29005KT 10SM OVC090 02/M07 A2970=
KBIS 110052Z 13003KT 10SM CLR M08/M11 A2949=
KBJC NIL=
KBKF 110055Z 28008KT 25SM FEW050 00/M11 A2977=
KBRL 110053Z AUTO 19009KT 5SM BR OVC002 04/04 A2952=
KBTL 110053Z 17010KT 4SM -RA BR OVC006 04/03 A2978=
KCGI 110053Z AUTO 23004KT 2SM RA BR SCT006 BKN019 OVC047 06/05
     A2976=
KCID 110052Z 00000KT 1/2SM FG VV002 01/00 A2950=
KCIU 110055Z AUTO 12011KT 5SM BKN008 OVC012 M02/M02 A2978=
KCMI 110053Z 15014G22KT 3SM -RA BR OVC003 04/04 A2964=
KCMX 110053Z AUTO 16008KT 5SM HZ BKN010 OVC013 M03/M06 A2962=
KCOS 110054Z COR 34005KT 10SM FEW080 00/M13 A2979=
KCOS 110054Z 34005KT 10SM CLR 00/M13 A2979=
KCOU 110054Z 17009KT 10SM BKN006 OVC011 07/06 A2954=
KCPR 110053Z 30011KT 10SM CLR M03/M09 A2972=
KCYS 110053Z 30017G26KT 10SM CLR M01/M09 A2971=
KDDC 110052Z AUTO 31012KT 10SM CLR 02/M03 A2971=
KDEC 110054Z 18010KT 8SM -RA BKN005 OVC009 04/04 A2967=
KDEN 110053Z 33016KT 10SM FEW100 SCT150 SCT200 01/M09 A2975=
KDET 110053Z 16006KT 7SM OVC007 04/02 A2989=
KDLH 110055Z 19006KT 1 1/2SM -FZDZSN BR OVC004 M03/M05 A2950=

0000169100
869
SAUS73 KWBC 110100 RRA
METAR
KDSM 110054Z 30005KT 1/2SM R31/2600V3000FT -DZ FG FEW002 OVC006
     01/00 A2954=
KDTW 110053Z 13007KT 1/4SM BR OVC004 03/03 A2988=
KEAU NIL=
KEGE 110050Z 27010KT 10SM VCSH FEW050 OVC070 M02/M06 A2995=
KELO 110053Z AUTO 18006KT 10SM OVC013 M04/M06 A2948=
KEVV 110054Z 14006KT 7SM -RA FEW070 OVC090 09/07 A2978=
KFAR 110053Z 18008KT 7SM CLR M05/M07 A2947=
KFNT 110053Z 17013KT 6SM -RA BR SCT008 BKN026 OVC032 04/02
     A2982=
KFSD 110056Z 26004KT 6SM BR FEW085 M02/M03 A2954=
KFWA 110054Z 16006KT 1/2SM RA FG OVC003 02/02 A2982=
KGCK 110054Z 32008KT 10SM CLR 00/M05 A2972=
KGFK NIL=
KGJT 110053Z 08007KT 10SM CLR M06/M08 A3001=
KGRB 110053Z 12009KT 4SM RA BR BKN009 BKN014 OVC036 01/01
     A2959=
KGRI 110053Z 29006KT 10SM FEW075 FEW110 00/M03 A2959=
KGRR 110053Z 16014KT 3SM RA BR SCT010 BKN015 OVC032 04/03
     A2974=
KGYY NIL=
KHIB NIL=
KHON 110055Z AUTO 25003KT 10SM CLR M04/M06 A2955=
KHUF 110053Z 15009KT 2 1/2SM -RA OVC004 05/ A2976=
KHUT 110052Z 31012KT 10SM FEW026 SCT050 OVC085 04/M01 A2964=
KICT 110053Z 26005KT 10SM SCT070 02/M02 A2964=
KIKK 110055Z AUTO 15010G19KT 5SM RA OVC004 04/04 A2965=
KIND 110054Z 15006KT 1/4SM R05L/1600V2200FT -RA FG VV002 03/03
     A2979=
KINL 110055Z AUTO 17003KT 4SM BR FEW006 BKN011 OVC017 M04/M06
     A2945=
KIRK 110055Z AUTO 21004KT 1 1/2SM BR OVC002 04/04 A2953=
KJAC 110051Z 17018KT 10SM VCSH BKN035 M02/M04 A2988=
KJLN 110053Z 26016G23KT 10SM CLR 08/04 A2961=
KJMS 110056Z AUTO 25007KT 10SM CLR M02/M07 A2944=
KJXN 110056Z 17010KT 4SM -RA BR OVC006 04/03 A2981=
KLAN 110053Z 15006KT 2 1/2SM -RA BR OVC006 03/02 A2980=

0000169300
870
SAUS73 KWBC 110100 RRB
METAR
KLAR 110053Z AUTO 29019KT 10SM CLR M05/M11 A2974=
KLBF 110053Z AUTO 30004KT 10SM CLR M02/M03 A2963=
KLBL 110055Z AUTO 27008KT 10SM CLR 01/M12 A2976=
KLEX 110054Z 16010KT 10SM OVC021 10/08 A2990=
KLNK 110054Z 28003KT 5SM BR SCT100 00/M01 A2958=
KLOU 110053Z 15005KT 10SM BKN027 OVC033 11/08 A2987=
KLOZ 110053Z AUTO 00000KT 10SM OVC034 11/08 A2994=
KLSE 110053Z 31003KT 1 3/4SM BR OVC020 00/M01 A2954=
KMBS 110053Z 17005KT 1 1/2SM RA BR OVC005 02/01 A2982=
KMCI 110053Z 29007KT 7SM -DZ OVC006 03/02 A2957=
KMDW 110051Z 16011KT 3SM -RA BR BKN006 OVC011 05/05 A2960=
KMHK 110052Z 27003KT 8SM BKN023 OVC095 02/01 A2961=
KMKC 110054Z 28005KT 9SM BKN014 OVC022 05/03 A2957=
KMKE 110052Z 16009KT 5SM -FZRA BR OVC004 02/02 A2960=
KMKG 110055Z 14013KT 1SM R32/P6000FT RA BR OVC006 03/02 A2968=
KMLI 110052Z 18011KT 4SM -RA BR OVC006 04/03 A2952=
KMOT NIL=
KMSN 110053Z 16008KT 6SM -RA BR OVC005 02/01 A2955=
KMSP 110053Z 00000KT 4SM BR OVC006 M01/M02 A2954=
KOFF 110058Z 28004KT 10SM OVC020 01/01 A2956=
KOMA 110052Z 29003KT 6SM BR OVC019 01/M01 A2957=
KORD 110051Z 19007KT 5SM RA BR SCT008 BKN014 OVC044 04/02
     A2959=
KOSH 110053Z 13005KT 4SM -RA BR OVC007 01/M01 A2957=
KOTM 110053Z AUTO 28003KT 1/4SM FG VV004 01/01 A2952=
KOWB 110056Z 16012KT 7SM FEW016 BKN100 08/08 A2979=
KPAH 110053Z 16010KT 4SM -RA BR FEW015 BKN040 OVC075 09/08
     A2973=
KPIA 110054Z 19010KT 7SM OVC003 04/03 A2960=
KPIR 110053Z AUTO 26006KT 10SM FEW110 M01/M06 A2956=
KPLN 110054Z AUTO 13009KT 6SM BR OVC009 M01/M03 A2977=
KPTK 110053Z 14009KT 1/4SM R09R/2000V2600FT FG VV002 02/02
     A2985=
KPUB NIL=

0000021800
871
SATH41 VTBB 110100
METAR VTPB 110100Z NIL=
METAR VTPM 110100Z 00000KT 3500 BR NSC 17/16 Q1017 A3003
RMK/RWY27 INFO B=
METAR VTSE 110100Z NIL=
METAR VTSK 110100Z NIL=
METAR VTUJ 110100Z NIL=

0000124200
872
SAUS73 KWBC 110100 RRC
METAR
KRAP 110052Z 31005KT 10SM BKN080 OVC090 02/M06 A2960=
KRFD 110054Z 18010KT 10SM -RA OVC006 03/02 A2958=
KRKS 110054Z AUTO 26018G29KT 10SM FEW024 BKN038 M02/M07 A2993=
KRST 110054Z 00000KT 2 1/2SM BR BKN013 OVC033 M02/M03 A2952=
KSAW 110050Z 17008KT 1 1/4SM BR OVC003 M02/M03 A2965=
KSBN 110054Z 15010KT 4SM RA BR OVC006 04/03 A2973=
KSDF 110056Z 14008KT 10SM BKN027 OVC033 10/08 A2986=
KSDM 110053Z 28003KT 8SM CLR 17/07 A3005=
KSGF 110052Z 26007KT 10SM -TSRA FEW004 BKN025 OVC031 09/08
     A2958=
KSLN 110053Z 31010KT 9SM -RA BKN012 OVC019 03/01 A2964=
KSPI 110052Z 18014G22KT 10SM OVC008 05/05 A2962=
KSTC 110053Z 18003KT 1/2SM FZFG VV002 M03/M03 A2951=
KSTJ 110053Z AUTO 30010KT 6SM BR BKN008 OVC033 02/01 A2958=
KSTL 110051Z 16019G26KT 8SM FEW006 BKN100 OVC200 07/05 A2959=
KSTP 110053Z 15005KT 2SM -SN BR OVC006 M01/M02 A2955=
KSUS 110054Z VRB06G16KT 10SM FEW009 OVC100 08/06 A2960=
KSUX 110052Z 29003KT 3SM BR OVC005 01/M01 A2956=
KTVC 110053Z 10004KT 3SM -SN BKN009 OVC018 01/M01 A2971=
KUIN 110054Z AUTO 18011KT 10SM OVC006 06/05 A2954=
KWRL 110053Z AUTO VRB03KT 10SM CLR M05/M09 A2974=
KYIP 110053Z AUTO 14009KT 3/4SM BR OVC002 04/02 A2987=

0000009700
873
SASB31 VCRI 110110
METAR VCRI 110110Z 36003KT 8000 FEW016   21/20 Q1012 NOSIG=

0000010200
874
FCRS31 RUMS 102300 RRA
TAF UUOK 110105Z 1102/1109 23008MPS 4000 BR BKN006 BKN020CB=

0000009500
875
SACA31 TNCC 110100
METAR TNCC 110100Z 10011KT 9999 SCT014 26/23 Q1015 NOSIG=

0000008300
876
SABZ24 SBFI 110100
METAR SBFI 110100Z 15003KT CAVOK 26/23 Q1011=

0000008400
877
SAAG41 SARI 110100
METAR SARI 110100Z  09003KT CAVOK 27/24 Q1012=

0000008400
878
SAAG41 SADF 110100
METAR SADF 110100Z  32004KT CAVOK 24/16 Q1009=

0000008900
879
SABZ18 SBKP 110100
METAR SBKP 110100Z 12012KT 9999 FEW040 25/17 Q1016=

0000008300
880
SABZ18 SBGR 110100
METAR SBGR 110100Z 00000KT CAVOK 22/18 Q1018=

0000008900
881
SABZ19 SBMQ 110100
METAR SBMQ 110100Z 02006KT 9999 BKN040 26/23 Q1012=

0000009100
882
SAAG41 SAEZ 110100
METAR SAEZ 110100Z 24004KT 190V270 CAVOK 24/16 Q1010=

0000013800
883
FTCN37 CWAO 110100 AAA
TAF AMD CYGR 110114Z 1101/1103 23015KT P6SM FEW240
    RMK NXT FCST WILL BE ISSUED AT 111145Z=

0000008400
884
SAAG41 SAZM 110100
METAR SAZM 110100Z  23010KT CAVOK 19/14 Q1013=

0000010200
885
SAAG41 SACO 110100
METAR SACO 110100Z  16010KT 9999  FEW040CB SCT100
26/20 Q1014=

00000000