0000045100
726
FTUS80 KWBC 110218 AAA
TAF AMD
KALO 110215Z 1102/1124 VRB04KT 1SM BR OVC006
     FM110500 27008KT 2SM -SN BR BKN008 OVC015
     FM110700 28009KT 4SM BR SCT010 OVC018
     FM111000 30011KT P6SM SCT015 BKN035
     FM111700 30014G20KT P6SM BKN080=
KEVW 110214Z 1102/1124 25011KT P6SM VCSH SCT025 BKN060
      TEMPO 1102/1103 BKN025
     FM110300 25011KT P6SM SCT030 BKN080
     FM111700 22018G27KT P6SM SCT050 BKN120=

0000178200
727
SPUS70 KWBC 110218
SPECI
KSEG 110214Z AUTO 00000KT 2 1/2SM BR OVC008 01/M01 A3023 RMK AO2
     T00061011=
KFDY 110214Z AUTO 18009KT 3/4SM -RA BR OVC002 03/03 A2981 RMK AO2
     P0001=
PAGK 110214Z AUTO 33006KT 3SM -SN BR OVC050 M11/M12 A2930 RMK AO2
     P0000 T11061122 TSNO=
PAIG 110214Z AUTO 03003KT 3SM UP BR FEW003 OVC012 M04/M05 A2945
     RMK AO2 TSNO P0000 $=
KARR 110215Z 16010KT 2 1/2SM -RA BR OVC003 04/03 A2957 RMK AO2
     P0002 T00390028=
KAUW 110215Z AUTO 06004KT 3/4SM -SN BR FEW009 OVC015 M02/M03 A2949
     RMK AO2 PRESFR P0002 T10221028=
KDCU 110215Z AUTO 14006KT 5SM -RA BR OVC009 10/09 A2996 RMK AO2
     RAB14 P0000=
KDHN 110215Z AUTO 13005KT 1/4SM FG VV002 14/14 A3007 RMK AO2=
KGFK 110215Z 22007KT 9SM BKN026 OVC034 M08/M10 A2939 RMK AO2
     T10831100=
KISW 110215Z AUTO 09003KT 1 3/4SM -SN BR BKN005 OVC020 00/M01
     A2951 RMK AO2 P0002 T00001006=
KIXD 110215Z 28009KT 7SM SCT004 BKN010 OVC031 02/01 A2960 RMK AO2
     T00220011=
KMBS 110215Z 20006KT 3SM -RA BR BKN005 BKN013 OVC060 03/02 A2976
     RMK AO2 P0003=
KOVS 110215Z AUTO 00000KT 1 1/4SM BR OVC005 01/00 A2951 RMK AO2
     T00110000=
KPYM 110215Z AUTO 00000KT 1SM BR VV003 04/03 A3034 RMK AO2
     T00390028=
KRST 110215Z 00000KT 1 3/4SM -SN SCT011 OVC032 M02/M03 A2950 RMK
     AO2 TWR VIS 2 P0000 T10171033=
KRUE 110215Z AUTO 00000KT 1SM -RA BR BKN014 BKN024 OVC070 09/09
     A2966 RMK AO2 LTG DSNT S P0006=
KSHN 110215Z AUTO 00000KT 4SM RA BR FEW006 BKN025 OVC031 07/06
     A2982 RMK AO2 P0005 T00720061 TSNO=
KSUX 110215Z 27003KT 1/4SM R31/2200V4000FT FZFG VV010 M03/M04
     A2958 RMK AO2 I1000 T10331044=
KTDZ 110215Z AUTO 21004KT 1SM +RA BR OVC004 03/03 A2985 RMK AO2
     PRESRR P0005 TSNO=

0000021700
728
SAVN42 KWBC 110200 RRB
METAR
SVSA 110200Z /////KT 9999 FEW020 24/20 Q1014=
SVSE 110200Z NIL=
SVSR 110200Z /////KT CAVOK 25/// Q1013=
SVTM 110200Z NIL=
SVVL 110200Z NIL=
SVVP 110200Z NIL=

0000010000
729
SAUS72 KWBC 110200 RRF
METAR
KBQK 110215Z AUTO 13003KT 10SM OVC010 18/18 A3011=

0000012800
730
SAUS73 KWBC 110200 RRE
METAR
KIKK 110215Z AUTO 17016G20KT 10SM -RA SCT011 BKN055 OVC070 05/04
     A2961=

0000029300
731
SAUS75 KWBC 110200 RRC
METAR
PADK 110216Z AUTO 21023G30KT 10SM SCT043 BKN050 OVC080 04/M02
     A2881=
PAGS 110216Z AUTO 14003KT 10SM BKN035 OVC070 02/01 A2939=
PAUN 110216Z AUTO 10013KT 10SM CLR M15/M21 A2958=
PAVD 110216Z 10SM FEW020 SCT100 BKN150 M07/M09 A2932=

0000009500
732
SPCN51 CWAO 110220
SPECI CWCL 110220Z AUTO 17003KT 4SM FEW001 M03/M07 A2963=

0000010700
733
SALT31 EYVI 110220
METAR EYVI 110220Z 29017KT 9999 OVC020 02/M01 Q1001 R20/2/0295 NOSIG=

0000017000
734
SAMP31 LMMM 110230
METAR HLLT NIL=
METAR HLLB 110215Z
00000KT 9999 SCT020 BKN080 12/10 Q1025 =
METAR LMML 110215Z AUTO 23005KT CAVOK 15/13 Q1022=

0000011600
735
SPAU32 YBBN 110221
SPECI YPGV 110220Z 11007KT 7000 3000W SHRA FEW014 BKN017 26/25 Q1007
RESHRA=

0000011600
736
SPAU32 AMMC 110221
SPECI YPGV 110220Z 11007KT 7000 3000W SHRA FEW014 BKN017 26/25 Q1007
RESHRA=

0000033800
737
SASW31 LSSW 110220
METAR LSZH 110220Z VRB02KT 0400 R14/0750D R16/0750N R28/0550N
    R34/0600N FG VV001 02/02 Q1019 NOSIG=
METAR LSGG 110220Z 00000KT CAVOK 02/01 Q1018 NOSIG=
METAR LSZB 110220Z AUTO 00000KT 2300 R14/0900U FZFG FEW001 M01/M01
    Q1018=
METAR LSZA 110220Z AUTO VRB01KT 9999 OVC044 07/06 Q1022=

0000008900
738
SAMP31 LMMM 110230 RRA
METAR HLLT 110220Z
18004KT CAVOK 10/05 Q1022=

0000012200
739
SAPA31 KWBC 110200 RRB
METAR
PKWA 110220Z AUTO 07014KT 10SM CLR 31/20 A2975 RMK AO2
     T03090202=

0000089000
740
FTUS53 KWBC 110221 AAA
TAF AMD
KAXN 110217Z 1102/1124 23007KT 3SM BR OVC004
     FM110400 27006KT P6SM SCT200
     FM110800 31010KT P6SM SCT025 BKN040
     FM111800 29009KT P6SM SCT040 SCT250=
KLAF 110218Z 1102/1124 15015G23KT 3SM -RA BR OVC006
      TEMPO 1103/1105 BKN003
     FM110800 23010KT 3SM -RA BR OVC006
     FM111500 27012KT 4SM BR OVC010
     FM111800 27013G23KT P6SM OVC015 AMD LTD TO CLD VIS AND WIND
      TIL 111400=
KLAN 110220Z 1102/1124 16009KT 2SM RA BR OVC006
     FM110500 18013G21KT 3SM -RA BR OVC003
     FM111400 22008KT 2SM -RA BR OVC003
     FM111800 25012G20KT 2SM -SN BR OVC004=
KMKG 110218Z 1102/1124 14016G24KT 3SM -RA BR BKN007 OVC012
     FM110300 15016G26KT 4SM RA BR OVC005
     FM110500 18012G18KT 1/2SM -RA FG OVC003
     FM111000 21007KT 1SM BR OVC003
     FM111600 27012G20KT 2SM -SN BR OVC005=

0000134400
741
FTUS80 KWBC 110221 AAA
TAF AMD
KAXN 110217Z 1102/1124 23007KT 3SM BR OVC004
     FM110400 27006KT P6SM SCT200
     FM110800 31010KT P6SM SCT025 BKN040
     FM111800 29009KT P6SM SCT040 SCT250=
KBTL 110219Z 1102/1124 17013G22KT P6SM -RA OVC007
     FM110300 18014G24KT 3SM -RA BR OVC005
     FM110500 19014G21KT 2SM -RA BR OVC003
     FM111100 22012KT 1SM BR OVC003
     FM111700 26012G20KT 2SM -SN BR OVC005=
KGRR 110218Z 1102/1124 16015KT 5SM -RA BR BKN008 OVC045
     FM110300 16016KT 3SM RA BR OVC005
     FM110500 18010G16KT 1SM -RA BR OVC003
     FM111000 20009KT 1SM BR OVC003
     FM111600 26012G20KT 2SM -SN BR OVC005=
KLAF 110218Z 1102/1124 15015G23KT 3SM -RA BR OVC006
      TEMPO 1103/1105 BKN003
     FM110800 23010KT 3SM -RA BR OVC006
     FM111500 27012KT 4SM BR OVC010
     FM111800 27013G23KT P6SM OVC015 AMD LTD TO CLD VIS AND WIND
      TIL 111400=
KLAN 110220Z 1102/1124 16009KT 2SM RA BR OVC006
     FM110500 18013G21KT 3SM -RA BR OVC003
     FM111400 22008KT 2SM -RA BR OVC003
     FM111800 25012G20KT 2SM -SN BR OVC004=
KMKG 110218Z 1102/1124 14016G24KT 3SM -RA BR BKN007 OVC012
     FM110300 15016G26KT 4SM RA BR OVC005
     FM110500 18012G18KT 1/2SM -RA FG OVC003
     FM111000 21007KT 1SM BR OVC003
     FM111600 27012G20KT 2SM -SN BR OVC005=

0000010200
742
SPUS31 KWBC 110221
SPECI
KLIT 110217Z 18006KT 10SM -RA BKN008 OVC017 13/12 A2969=

0000011600
743
SPUS41 KWBC 110221
SPECI
KEWB 110217Z 00000KT 1 1/2SM R05/3500VP6000FT BR OVC003 05/04
A3032=

0000009700
744
SPUS41 KWBC 110221
SPECI
KMSS 110217Z AUTO 06003KT 9SM OVC028 M03/M06 A3018=

0000011900
745
SPUS42 KWBC 110221
SPECI
KPNS 110217Z AUTO 13005KT 1SM R17/2800V4500FT -RA BR VV002 17/17
A3000=

00000000