0000012800
894
SNFP20 LFVP 110800
AAXX 11084
71805 24586 72720 11013 21052 30229 40238 53003 700//
  333 60005 90710 91135=
0000102500
895
SAAU31 AMMC 110800
METAR YBAS 110800Z 11014G24KT CAVOK 38/03 Q1010=
METAR YBBN 110800Z 07012KT 9999 FEW040 25/18 Q1015
     NOSIG=
METAR YBCS 110800Z 18006KT 9999 VCSH SCT020 BKN120 27/23 Q1009
     INTER 0830/1100 VRB15G25KT 4000 SHRA FEW008 BKN020=
METAR YBTL 110800Z 09016KT 9999 FEW025 SCT230 29/21 Q1010=
METAR YMML 110800Z 18014KT 9999 FEW024 19/12 Q1020
     NOSIG=
METAR YPAD 110800Z 16018KT CAVOK 25/09 Q1017
     FM0900 14012KT CAVOK
     FM1000 MOD TURB BLW 3000FT=
METAR YPCC 110800Z 14012KT 9999 FEW026 29/22 Q1008=
METAR YPDN 110800Z 31009KT 9999 FEW032 SCT045 BKN350 29/25 Q1004
     NOSIG=
METAR YPKU 110803Z AUTO 34004KT 9999 // NCD 30/24 Q1005=
METAR YPLM 110800Z AUTO 03011KT 9999 // NCD 37/20 Q1006=
METAR YPPH 110800Z 12013KT CAVOK 43/05 Q1009
     NOSIG=
METAR YPTN 110800Z AUTO 04011KT 9999 // SCT065 SCT077 31/22 Q1004=
METAR YPXM 110800Z AUTO 17004KT 9999 // BKN022 BKN029 28/21 Q////=
METAR YSSY 110800Z 04015KT CAVOK 26/17 Q1014
     NOSIG=
0000122300
896
UDAS02 BABJ 110758
AMDAR 1107
LVR CNFLWT 3942N 12247E 110750 F236 MS413 271/077 TB/ S//1=
LVR CNFLWT 3925N 12234E 110753 F236 MS408 268/073 TB/ S//1=
ASC CNFLWT 3917N 12219E 110755 F250 MS440 269/076 TB/ S//1=
LVR CNFOZM 2640N 11516E 110746 F311 MS341 257/106 TB/ S//1=
LVR CNFOZM 2703N 11526E 110749 F311 MS328 257/114 TB/ S//1=
LVR CNFOZM 2726N 11535E 110752 F311 MS328 258/121 TB/ S//1=
LVR CNFOZM 2750N 11544E 110755 F331 MS385 256/123 TB/ S//1=
ASC CNFNXL 3647N 11702E 110754 F086 MS101 274/027 TB/ S//1=
ASC CNFNXL 3647N 11700E 110755 F106 MS135 289/034 TB/ S//1=
ASC CNFNXL 3647N 11657E 110755 F122 MS159 286/029 TB/ S//1=
ASC CNFNXL 3646N 11654E 110756 F140 MS181 292/034 TB/ S//1=
DES CNFOZN 3622N 12028E 110754 F049 MS073 311/012 TB/ S//1=
DES CNFOZN 3623N 12026E 110754 F041 MS073 297/007 TB/ S//1=
DES CNFOZN 3625N 12024E 110755 F030 MS056 245/011 TB/ S//1=
DES CNFOZN 3624N 12021E 110756 F019 MS035 244/004 TB/ S//1=
DES CNFPXL 3140N 11810E 110755 F104 MS055 261/026 TB/ S//1=
DES CNFPXL 3140N 11814E 110755 F101 MS058 258/026 TB/ S//1=
DES CNFPXL 3140N 11815E 110756 F099 MS058 263/025 TB/ S//1=
DES CNFPXL 3140N 11820E 110757 F092 MS043 266/020 TB/ S//1=
0000084000
897
SNNL50 EHDB 110800
AAXX 11081
06206 47/// /3109 10067 20065 30031 40084 53003 7//00
333 91011 91112 91209
555 20066=
06207 47144 72411 10083 20078 30028 40082 56008 75865 8////
333 82/03 84/05 86/06 91013 91115 91213
555 20075=
06239 47462 83607 10071 20062 30005 40066 53013 76165 8////
333 81/14 84/18 87/21 91009 91109 91208
555 20066=
06252 46/// /2711 10079 20068 30049 40095 53004 222// 00095 10604
333 91014 91115 91213
555 2////=
06260 47348 82105 10039 20028 30135 40137 56002 75181 8////
333 88/07 91008 91108 91205
555 20039 40038 53000=
06270 47239 82208 10056 20048 30103 40103 57007 75265 8////
333 85/05 88/07 91012 91112 91208
555 20043 40036 53000=
06290 47257 82005 10029 20019 30096 40137 56005 71011 8////
333 86/05 88/07 91007 91110 91206
555 20028 40028 53002=
0000196200
898
SNNL51 EHDB 110800
AAXX 11081
06201 47467 73109 10075 20052 30036 40089 53019 72365 8////
333 81/13 84/15 85/17 91012 91112 91209
555 20070=
06203 47127 8//12 10085 20079 30060 40111 55005 76285 8////
333 82/03 85/05 88/06 91015 91115 91213
555 20082=
06204 47257 82713 10080 20074 30043 40094 56002 75865 8////
333 82/04 83/08 86/10 91017 91117 91214
555 20079=
06205 45871 53408 10071 20032 30005 40064 52013 8////
333 84/58 85/62 91010 91110 91208
555 20066=
06208 47234 82010 10063 20054 30045 40094 58007 76166 8////
333 83/04 88/05 91012 91114 91210
555 20061=
06211 47469 83007 10070 20051 30037 40093 53014 72366 8////
333 81/11 88/50 91009 91113 91211
555 20066=
06212 47144 82313 10083 20077 3//// 4//// 5//// 75865 8////
333 83/03 85/04 88/05 91016 91116 91213
555 20080=
06235 47246 82111 10066 20061 30106 40106 57007 76165 8////
333 88/05 91016 91116 91211
555 20065 40063 53000=
06240 47340 82107 10048 20041 30134 40129 57003 72255 8////
333 87/07 88/09 91009 91110 91208
555 20048 40046 53000=
06251 41/47 /2211 10069 20064 30089 40090 57011 7//00
333 91014 91114 91211
555 20063 40058 53000=
06258 46/// /2113
333 91015 91115 91213=
06269 47347 82006 10045 20036 30132 40126 57003 75280 8////
333 83/07 83/09 87/30 91009 91111 91208
555 20045 40044 53000=
06280 47232 82107 10050 20042 30109 40113 57006 75155 8////
333 88/06 91011 91111 91207
555 20039 40031 53000=
06310 47231 82009 10046 20037 30135 40145 56001 71011 8////
333 82/05 83/07 88/50 91010 91111 91209
555 20044 40040 53000=
06344 47345 82006 10046 20036 30144 40137 55000 72350 8////
333 85/07 87/09 87/11 91009 91110 91207
555 20044 40042 53000=
06370 47257 82304 10039 20026 30125 40151 54000 71011 8////
333 88/06 91007 91107 91204
555 20030 40019 53000=
06380 45968 82006 10045 20032 30018 40160 53001 8////
333 88/59 91007 91107 91206
555 20013 40006 53001=
0000096000
899
SNNL52 EHDB 110800
AAXX 11081
06210 47340 82006 10051 20039 30132 40132 55000 75165 8////
333 82/07 84/09 85/10 91010 91110 91207
555 20049 40047 53000=
06225 46/// /2114
333 91016 91116 91214=
06242 47257 82114 10071 20066 30093 40095 57009 75865 8////
333 86/04 87/06 88/16 91017 91117 91214
555 20068 40063=
06257 46/// ///// 10059 20047
555 20057 40055 53000=
06275 47256 82105 10031 20022 30085 40141 55001 71010 8////
333 88/06 91008 91108 91206
555 20031 40031 53000=
06330 46/// /2009 10048 20039 30121 40135 54000
333 91011 91112 91209
555 20047 40045 53000=
06340 47250 82204 10037 20027 30133 40152 55000 71011 8////
333 88/06 91006 91108 91205
555 20034 40033=
06350 47257 82204 10035 20022 30134 40149 55001 71000 8////
333 88/06 91006 91106 91204
555 20032 40031 53000=
06375 47258 82104 10032 20022 30123 40148 58001 71010 8////
333 88/06 91006 91107 91205
555 20030 40024 53001=
0000132900
900
SNNL53 EHDB 110800
AAXX 11081
06248 46/// /2111
333 91012 91112 91211=
06249 47/48 /2107 10053 20045 72385
333 91011 91111 91208
555 20052 40051 53000=
06267 47341 82109 10056 20046 76185 8////
333 85/07 88/08 91012 91112 91209
555 20055 40053 53000=
06273 47/36 /2108 10049 20042 75281
333 91010 91111 91208
555 20048 40047 53000=
06277 46/// /2210 10060 20054
333 91014 91114 91210
555 20055 40049 53000=
06278 46/// /2104 10040 20027
333 91007 91108 91205
555 20039 40038 53001=
06279 47249 82106 10042 20032 30103 40123 56005 71080 8////
333 88/06 91008 91109 91207
555 20042 40041 53000=
06283 46/// /1904 10024 20018
333 91007 91107 91204
555 20024 40025 53001=
06286 46/// /2107 10048 20040
333 91009 91110 91208
555 20040 40034 53000=
06319 41/45 /2206 10042 20031 30152 40154 53003 7//00
333 91008 91108 91206
555 20037 40031 53000=
06348 47/39 /2106 10039 20030 30139 40138 55002 72200
333 91008 91108 91206
555 20039 40036 53000=
06356 462// 62105 10033 20024 30141 40142 55004 8////
333 84/06 85/08 86/50 91008 91108 91205
555 20033 40030 53000=
06377 47928 81901 10001 20000 72011 8////
333 85/61 88/64 91001 91101 91201
555 21002 41022 53001=
06391 46/// /2003 10024 20023
333 91004 91104 91203
555 20010 41006 53001=
0000043000
901
SNNL54 EHDB 110800
AAXX 11081
06209 NIL=
06285 NIL=
06308 NIL=
06311 NIL=
06312 NIL=
06313 NIL=
06315 NIL=
06316 NIL=
06320 46/57 /2212 10063 20061 30103 40130 56002 222// 00081 10503
333 91014 91114 91212
555 2////=
06321 46/48 /2212 10079 20065 30105 40129 56001 222// 00086 10504
333 91014 91115 91213
555 2////=
06324 NIL=
06331 NIL=
06343 46/// /2107
333 91009 91110 91207=
0000029300
902
UDAS02 BABJ 110800
AMDAR 1108
ASC CNFNXL 3646N 11651E 110756 F159 MS231 282/031 TB/ S//1=
ASC CNFNXL 3645N 11648E 110757 F176 MS245 285/042 TB/ S//1=
ASC CNFNXL 3645N 11644E 110758 F196 MS279 274/050 TB/ S//1=
ASC CNFNXL 3645N 11641E 110758 F204 MS300 274/056 TB/ S//1=
0000015000
903
SMUK42 EGRR 110600 CCA
AAXX 11064
03008 11480 32923 10046 20028 40009 60022 70181 83200
  333 20043 32/// 70024 83818 90710 91137=
0000137300
904
UAPS01 NZKL 110800
AIREP
ANZ84 3624S 17500E 0724 F142 MS03 191/11=
ANZ8 3624S 17442E 0702 F144 MS04 194/07=
CAL052 3700S 17348E 0701 F213 MS19 219/09=
ANZ6 3448S 17800E 0704 F290 MS37 286/25=
ANZ6 3254S 17906W 0726 F290 MS34 286/64=
ANZ6 3048S 17624W 0747 F290 MS31 302/44=
QFA7 2112S 16718E 0705 F310 MS34 258/30=
ANZ8 3330S 17524E 0724 F310 MS41 271/42=
ANZ8 3036S 17548E 0745 F310 MS39 287/50=
ANZ8 2942S 17554E 0751 F310 MS38 289/43=
ANZ994 3336S 17536E 0758 F320 MS42 264/44=
QFA27 4530S 15624W 0712 F330 MS44 302/137=
ANZ84 3354S 17648E 0745 F330 MS44 278/38=
HAL465 0500S 16706W 0710 F340 MS40 180/31=
DAL16 0436S 17406W 0700 F350 MS42 146/19=
FJI915 2600S 16800E 0717 F350 MS44 275/69=
QFA27 4606S 15112W 0734 F350 MS48 295/146=
ANZ716 3630S 16300E 0739 F350 MS51 204/20=
QFA27 4642S 14554W 0755 F350 MS48 285/149=
LAN800 4606S 13936W 0727 F360 MS51 270/147=
LAN800 4642S 13430W 0748 F360 MS50 267/138=
HAL465 0954S 16906W 0753 F360 MS44 186/32=
FJI933 2842S 16300E 0758 F370 MS55 284/57=
CAL052 3624S 17042E 0722 F380 MS57 266/18=
THT482 2900S 16530W 0730 F380 MS49 303/19=
CAL052 3612S 16736E 0744 F380 MS58 266/20=
UAE407 3824S 16736E 0701 F400 MS58 252/23=
UAE413 3548S 16424E 0706 F400 MS58 225/16=
HAL445 2424S 17636E 0710 F390 MS52 306/38=
HAL445 2518S 17630E 0716 F390 MS52 304/50=
0000022400
905
UAPS01 NZKL 110800 RRA
AIREP
UAE407 3836S 16406E 0722 F400 MS58 252/25=
HAL445 2812S 17606E 0738 F390 MS52 296/75=
THT482 2730S 16236W 0751 F390 MS52 227/30=
HAL445 3106S 17542E 0759 F390 MS55 297/69=
0000009500
906
SAIN90 VOHS 110810
METAR VOHS 110810Z VRB06KT 5000 HZ SCT020 29/12 Q1016 NOSIG=
0000017900
907
SNVD01 PANC 110200 RRH
BBXX
ONFW 11024 99319 30470
41593 70524 10220 20205 40080 5/020 78066 87999
22222 00220 20404 3//// 40404 50404 6//// 80210 ICE /////=
0000148300
908
SNVD01 PANC 110800 RRC
BBXX
WECB 11084 99327 71172
43/// /0301 10129 20094 40203 5//// 7//// 8////
222// 04149 2//// 3//// 4//// 5//// 6//// 8//// ICE /////=
WDJK 11084 99352 71586
41598 19902 10142 20105 40324 51003 70200 811//
22283 00160 2//// 330// 40907 5//// 6//// 80121 ICE /////=
WUR8857 11084 99440 70875
43/// /2212 10010 49967
2221/ 00003=
WYP8657 11084 99458 70846
43/// /1509 10014 49978
2227/ 00001=
WYQ4356 11084 99461 70840
43/// /1508 10016 49981
2227/ 00001=
C6FT7 11083 99232 70856
41796 41010 10250 2//// 40170 54/// 7//11 8448/
22283 00270 20101 3//// 4//// 5//// 6//// 8//// ICE /////=
C6VG7 11084 99221 70854
41697 71628 10260 2//// 40156 54003 7//22 862//
22214 00280 20502 309// 410// 5//// 6//// 8//// ICE /////=
WDD3825 11084 99292 70945
41/// /2609 10100 2010/ 40130 54/// 7//// 8////
222// 0//// 2//// 3//// 4//// 5//// 6//// 80100 ICE /////=
WSQ2674 11084 99327 71172
43/// /3101 10122 2//// 40196 5//// 7//// 8////
222// 04152 2//// 3//// 4//// 5//// 6//// 8//// ICE /////=
KAOU 11084 99058 31059
43/// /0301 10280 20243 40079 5//// 7//// 8////
222// 04303 2//// 3//// 4//// 5//// 6//// 8//// ICE /////=
KAQP 11084 99098 71043
43/// /0611 10267 20212 40109 5//// 7//// 8////
222// 04270 2//// 3//// 4//// 5//// 6//// 8//// ICE /////=
9HJB9 11080 99210 70696
41697 60725 10230 20216 40200 54/// 7//22 84/3/
22275 00262 20406 3//// 40907 50605 6//// 80220 ICE /////=
0000018200
909
SNVD01 PANC 110700 RRG
BBXX
WDC6644 11074 99486 71226
41/// 81437 10111 20079 40000 57070 7//66 8////
22200 04094 2//// 3//// 4//// 5//// 6//// 80094 ICE /////=
0000014600
910
SNVD20 EHDB 110800
BBXX
A8IN7 11084 99179 70759 41498 10717 10271 20226 40160 54000 70200
81100 22214 20402 311// 40802 80240=
0000076900
911
SMPA01 KWBC 110600 RRC
AAXX 11064
91165 32466 80520 10230 20210 30108 90603=
91212 32566 60514 10294 20222 31364 40100 56015 90554=
91285 32966 02103 10206 20194 30131 40144 53017 90553=
91317 32474 60912 10294 20272 30070 40074 5//// 81202=
91334 32474 80312 10290 20256 30063 40066 56015 82171=
91348 32474 80509 10289 20233 30024 40076 55008 81101=
91356 32566 80415 10294 20226 30050 50057 5//// 84276=
91376 11474 80413 10280 20230 30056 40059 55002 60021 70282 85808=
91408 11473 80705 10272 20241 30037 40075 57022 60041 70282 84308=
91413 32469 80714 10296 20247 30059 40084 57019 83871=
91425 11474 60401 10300 20283 30074 40075 5//// 60071 70282 86200=
91434 11474 83603 10294 20249 30055 40056 5//// 60031 70282 882//=
0000010600
912
SMPA20 KWBC 110600 RRB
AAXX 11064
91353 32474 80507 10300 20255 30074 40081 5//// 85208=
0000003800
913
SNVC20 EHDB 110800
NIL
00000000