0000016900
766
SAAP32 FAPR 110300 RRA
METAR FVHA 110300Z 10001KT CAVOK 18/17 Q1020 NOSIG RMK QFE 852.8=
METAR FYWH 110300Z AUTO 20005KT //// // ////// 13/01 Q1021=

0000026200
767
FTUS44 KWBC 110315 AAA
TAF AMD
KSLC 110313Z 1103/1206 15007KT P6SM OVC060
     FM111400 18010KT P6SM SCT070 BKN120
     FM111800 18016KT P6SM SCT090
     FM120200 18011KT P6SM VCSH BKN050
     FM120400 29012KT P6SM -RA SCT020 OVC035=

0000054900
768
FTUS71 KWBC 110315 AAA
TAF AMD
KSYR 110313Z 1103/1124 11006KT P6SM FEW025 OVC040
      TEMPO 1103/1107 OVC025
     FM110700 13010KT P6SM FEW012 OVC020 WS020/21050KT
      TEMPO 1107/1111 3SM -SHRA OVC012
     FM111100 14014KT P6SM -SHRA SCT009 OVC012
     FM111600 18010KT 3SM SHRA OVC012
     FM112100 21009KT P6SM -SHRA OVC009=
KYNG 110313Z 1103/1124 13010KT 6SM -RA BR SCT004 OVC060
     FM111000 17011KT 3SM -RA BR OVC060
     FM112000 22010G20KT 4SM -DZ BR OVC003
     FM112200 23015G25KT 6SM BR OVC007=

0000030600
769
FTUS73 KWBC 110315 AAA
TAF AMD
KMKE 110313Z 1103/1206 19008KT 5SM -RA BR OVC006
     FM110400 20006KT 5SM -DZ BR OVC005
     FM110700 22006KT 1 1/2SM -DZ BR OVC004
     FM111400 27010G19KT 4SM -SN OVC008
     FM111800 27013G22KT P6SM BKN012
     FM120000 27010KT P6SM BKN025=

0000074800
770
FTUS72 KWBC 110315 AAA
TAF AMD
KATL 110312Z 1103/1206 13005KT 1SM -RADZ BR OVC002
     FM111000 16009KT 2SM -SHRA BR OVC004
     FM111400 21010G18KT 4SM -SHRA BR OVC007
     FM111900 27013G22KT P6SM BKN025
     FM112100 29014G23KT P6SM SCT040
     FM120000 28011KT P6SM SCT250=
KFTY 110313Z 1103/1124 13005KT 1SM -RADZ BR OVC003
     FM111000 16006KT 2SM -SHRA BR OVC004
     FM111400 21009KT 4SM -SHRA BR OVC007
     FM111900 27010G18KT P6SM BKN025
     FM112100 29012G20KT P6SM SCT040=
KPDK 110314Z 1103/1124 13004KT 1SM -RADZ BR OVC002
     FM111000 16006KT 1SM -SHRA BR OVC004
     FM111400 21009KT 2SM -SHRA BR OVC007
     FM111900 27010G18KT P6SM BKN025
     FM112100 29012G20KT P6SM SCT040=

0000048900
771
FTUS42 KWBC 110315 AAA
TAF AMD
KFTY 110313Z 1103/1124 13005KT 1SM -RADZ BR OVC003
     FM111000 16006KT 2SM -SHRA BR OVC004
     FM111400 21009KT 4SM -SHRA BR OVC007
     FM111900 27010G18KT P6SM BKN025
     FM112100 29012G20KT P6SM SCT040=
KPDK 110314Z 1103/1124 13004KT 1SM -RADZ BR OVC002
     FM111000 16006KT 1SM -SHRA BR OVC004
     FM111400 21009KT 2SM -SHRA BR OVC007
     FM111900 27010G18KT P6SM BKN025
     FM112100 29012G20KT P6SM SCT040=

0000030800
772
FTUS31 KWBC 110315 AAA
TAF AMD
KATL 110312Z 1103/1206 13005KT 1SM -RADZ BR OVC002
     FM111000 16009KT 2SM -SHRA BR OVC004
     FM111400 21010G18KT 4SM -SHRA BR OVC007
     FM111900 27013G22KT P6SM BKN025
     FM112100 29014G23KT P6SM SCT040
     FM120000 28011KT P6SM SCT250=

0000030600
773
FTUS43 KWBC 110315 AAA
TAF AMD
KMKE 110313Z 1103/1206 19008KT 5SM -RA BR OVC006
     FM110400 20006KT 5SM -DZ BR OVC005
     FM110700 22006KT 1 1/2SM -DZ BR OVC004
     FM111400 27010G19KT 4SM -SN OVC008
     FM111800 27013G22KT P6SM BKN012
     FM120000 27010KT P6SM BKN025=

0000018500
774
FTUS75 KWBC 110315 AAA
TAF AMD
PHNY 110313Z 1103/1124 15008KT P6SM BKN025
     FM110600 15005KT P6SM SCT025
     FM112100 23006KT P6SM VCSH BKN025 AMD NOT SKED=

0000026200
775
FTUS74 KWBC 110315 AAA
TAF AMD
KSLC 110313Z 1103/1206 15007KT P6SM OVC060
     FM111400 18010KT P6SM SCT070 BKN120
     FM111800 18016KT P6SM SCT090
     FM120200 18011KT P6SM VCSH BKN050
     FM120400 29012KT P6SM -RA SCT020 OVC035=

0000036200
776
FTUS41 KWBC 110315 AAA
TAF AMD
KSYR 110313Z 1103/1124 11006KT P6SM FEW025 OVC040
      TEMPO 1103/1107 OVC025
     FM110700 13010KT P6SM FEW012 OVC020 WS020/21050KT
      TEMPO 1107/1111 3SM -SHRA OVC012
     FM111100 14014KT P6SM -SHRA SCT009 OVC012
     FM111600 18010KT 3SM SHRA OVC012
     FM112100 21009KT P6SM -SHRA OVC009=

0000052800
777
SAPS31 NFFN 110300
METAR NCRG 110300Z NIL=
METAR NFFN 110300Z 15014KT 9999 FEW030 32/22 Q1004 NOSIG=
METAR NFNA 110300Z 20010KT 9999 BKN022 31/25 Q1004=
METAR NGFU 110300Z 34007KT 9999 VSCH SCT019CB BKN100 OVC310 29/26 
Q1004=
METAR NGTA 110300Z NIL=
METAR NIUE 110300Z NIL=
METAR NSFA 110300Z NIL=
METAR NSTU 110300Z NIL=
METAR NTAA 110300Z VRB02KT 9999 VCSH SCT020 SCT050 BKN100 30/21 Q1011
 WS R22 NOSIG=
METAR NWWW 110300Z AUTO 14021KT 9999 NSC 30/15 Q1009=
METAR PLCH 110300Z NIL=

0000031800
778
SAXX69 EGRR 110300 RRA
METAR KQIR 110258Z 11014KT 9000 -RA BR OVC060 17/16 A3007 RMK AO2A
      WND DATA ESTMD SLP185 P0009 60015 T01730156 58002 VISNO
      RWY16 CHINO RWY16 $=
METAR KQSA 110255Z VRB02KT 9000 HZ CLR M05/M11 A3033 RMK AO2A SLP347
      WND DATA ESTMD ALSTG/SLP ESTMD 51009=

0000019100
779
SAPS32 NFFN 110300
METAR NFTF 110300Z NIL=
METAR NFTL 110300Z NIL=
METAR NFTV 110300Z NIL=
METAR NLWW 110300Z NIL=
METAR NVSS 110300Z NIL=
METAR NVVV 110300Z NIL=

0000016600
780
SAUK39 EGGY 110300 RRA
METAR EGUN 110258Z AUTO 21011KT 9999 -RA OVC043 07/07 A2984 RMK AO2
      DZB0223E0226 SLP108 P0001 60005 T00740074 57014=

0000020800
781
SIKN20 HKNC 110900 RRB
AAXX 11093
63671 42680 10806 10317 20170 81100 333 81832=
63720 42582 10706 10233 20143 81100 333 81822=
63723 42582 41408 10309 20194 40123 84200 333 58002 84829=
0000011000
782
UANT01 CWAO 110955
ARP SAS944 5955N03107W 0955 F350 MS58 227/41 KT
OYKBA DDL XXW 110955 J93A
0000019900
783
SIUG20 HUEN 110900
AAXX 11093
63674 32675 70605 10285 20188 39070 48531 83207 333 58000 83825 86277 555 10220=
63682 31570 61808 10280 20178 71729 85936 333 85820 81923 555 10212=
0000011100
784
UANT01 CWAO 110955
ARP UAL126 5258N03009W 0955 F370 MS58 191/60 KT
N17139 DDL IG1 110955 F93A
0000024500
785
FTSU31 HSSS 110400
TAF
HSSS  110400Z 1106/1212 36010G20KT CAVOK=
HSPN  110400Z 1106/1212  33006KT CAVOK
     TEMPO  1106/1109  6000
      BECMG 1110/1112 04008G18KT 9999 SCT030 SCT130
      BECMG 1121/1123 27006KT  =

00000000