0000015600
526
SACN62 CYYD 101800
METAR CYYD 101800Z 16005KT 25SM FEW002 FEW040 SCT080 BKN210 M07/M07
 A2968 RMK SF1SC1AC3CI3 SF TR VIS LWR SE SLP077=

0000169100
527
SAUS71 KWBC 101800 RRC
METAR
KMHT 101753Z 24003KT 1/2SM R35/3000V5000FT SN FZFG BKN019 OVC050
     M03/M05 A3037=
KMIV 101754Z AUTO 05003KT 3SM -RA BR OVC002 03/03 A3037=
KMMU NIL=
KMRB 101753Z 35003KT 4SM HZ OVC008 03/00 A3032=
KMSS 101753Z AUTO 00000KT 8SM BKN016 OVC046 M01/M04 A3027=
KMTN NIL=
KMYR NIL=
KNKT 101754Z 16012G26KT 10SM BKN040 BKN120 21/11 A3030=
KOQU 101750Z 00000KT 2 1/2SM BR BKN020 OVC028 M01/M02 A3042=
KORF 101751Z AUTO 35010KT 6SM HZ SCT036 SCT075 06/03 A3034=
KORH 101754Z 22009KT 1 1/2SM -SN BR OVC005 M01/M02 A3034=
KPHF 101754Z 04006KT 9SM OVC060 08/03 A3034=
KPHL 101754Z VRB04KT 1 1/2SM BR BKN004 OVC035 02/00 A3039=
KPIT 101751Z 19007KT 10SM FEW007 OVC026 06/04 A3019=
KPKB 101753Z 00000KT 10SM OVC020 08/06 A3022=
KPLB NIL=
KPOU 101753Z 00000KT 5SM HZ OVC016 M01/M04 A3039=
KPQI 101755Z AUTO 15007KT 10SM CLR M09/M22 A3027=
KPSM 101758Z 22006KT 10SM FEW018 BKN043 OVC110 M02/M04 A3039=
KPVD 101751Z COR 00000KT 2SM -RASN BR FEW018 SCT023 OVC029 M01/M03
     A3042=
KPVD 101751Z 00000KT 2SM -RASN BR FEW018 SCT023 OVC029 M01/M03
     A3042=
KPWM 101751Z 24009KT 7SM -SN BR FEW037 OVC075 M03/M06 A3039=
KRDG 101754Z 00000KT 2SM HZ SCT008 OVC023 01/M03 A3037=
KRDU 101751Z 04004KT 2SM BR BKN004 BKN031 OVC070 06/05 A3028=
KRIC 101754Z 03003KT 3SM -RA BR BKN004 OVC034 03/02 A3035=
KROA 101754Z 00000KT 1SM -RA BR OVC004 02/02 A3032=
KROC 101754Z 21006KT 10SM OVC020 03/M02 A3020=
KRWI 101753Z AUTO 03004KT 4SM BR SCT003 OVC060 08/07 A3031=
KSAV 101753Z 16009KT 10SM SCT005 BKN010 BKN020 BKN130 21/17
     A3017=
KSBY 101754Z 35003KT 2 1/2SM BR OVC003 05/03 A3037=
KSCH NIL=

0000016200
528
FTCN33 CWAO 110000
TAF CYTE 110038Z 1101/1113 27008KT P6SM SCT012 TEMPO 1101/1113 BKN012
    RMK FCST BASED ON AUTO OBS. NXT FCST BY 110700Z=

0000026500
529
FTCN32 CWAO 110000
TAF CYXJ 110038Z 1101/1113 24010KT P6SM SCT200
    FM110600 20007KT P6SM BKN200
     BECMG 1108/1110 10007KT
    FM111000 10007KT P6SM -SN SCT020 BKN080 TEMPO 1110/1113 2SM -SN
     BKN020
    RMK NXT FCST BY 110700Z=

0000019100
530
FTCN34 CWAO 110000
TAF CYQD 110038Z 1101/1113 VRB03KT P6SM OVC012 TEMPO 1101/1113 3SM
     -SN BKN006 OVC010
     BECMG 1101/1103 28007KT
    RMK NXT FCST BY 110700Z=

0000025400
531
FTCN34 CWAO 110000
TAF CYIV 110038Z 1101/1113 VRB03KT 11/2SM -SN OVC003 TEMPO 1101/1107
     21/2SM -SN BR SCT003 OVC008
    FM110700 VRB03KT 3SM -SN OVC010 TEMPO 1107/1113 11/2SM -SN BR
     OVC006
    RMK NXT FCST BY 110700Z=

0000003900
532
SIVX22 RJTD 110900
NIL=
0000190100
533
UDEU02 EGRR 110957
AMDAR 1109
ASC EU0239   5322N 00217W 110936 F012 PS007 279/013 TB/ S031=
ASC EU0239   5321N 00219W 110936 F019 MS002 286/020 TB/ S031=
ASC EU0239   5321N 00221W 110936 F023 MS010 283/022 TB/ S031=
ASC EU0239   5320N 00223W 110936 F028 MS017 281/028 TB/ S031=
ASC EU0239   5320N 00225W 110936 F036 MS030 284/029 TB/ S031=
ASC EU0239   5319N 00227W 110936 F045 MS042 297/026 TB/ S031=
ASC EU0239   5319N 00229W 110936 F055 MS062 299/028 TB/ S031=
ASC EU0239   5318N 00231W 110936 F065 MS080 305/027 TB/ S031=
ASC EU0239   5318N 00233W 110936 F074 MS097 298/027 TB/ S031=
ASC EU0239   5316N 00236W 110936 F093 MS137 303/031 TB/ S031=
ASC EU0239   5314N 00239W 110937 F107 MS170 306/038 TB/ S031=
ASC EU0239   5312N 00243W 110937 F118 MS187 302/041 TB/ S031=
ASC EU0239   5309N 00247W 110937 F133 MS202 309/058 TB/ S031=
ASC EU0239   5304N 00248W 110938 F142 MS187 313/089 TB/ S031=
ASC EU0239   5300N 00248W 110938 F150 MS207 311/091 TB/ S031=
ASC EU0239   5256N 00249W 110938 F159 MS227 305/090 TB/ S031=
ASC EU0239   5251N 00250W 110939 F175 MS270 304/091 TB/ S031=
ASC EU0239   5247N 00250W 110939 F187 MS297 307/092 TB/ S031=
ASC EU0239   5242N 00251W 110939 F193 MS307 305/090 TB/ S031=
ASC EU0239   5238N 00251W 110940 F209 MS340 296/089 TB/ S031=
ASC EU0239   5233N 00251W 110940 F221 MS377 293/086 TB/ S031=
ASC EU0239   5228N 00251W 110940 F233 MS405 292/091 TB/ S031=
ASC EU0239   5224N 00251W 110941 F242 MS427 294/087 TB/ S031=
ASC EU0239   5219N 00251W 110941 F252 MS452 294/086 TB/ S031=
ASC EU0239   5214N 00250W 110941 F261 MS475 295/084 TB/ S031=
ASC EU0239   5209N 00250W 110942 F270 MS497 296/079 TB/ S031=
ASC EU0239   5204N 00250W 110942 F276 MS510 300/079 TB/ S031=
ASC EU0239   5159N 00249W 110942 F285 MS522 294/076 TB/ S031=
ASC EU0239   5154N 00249W 110943 F304 MS540 266/071 TB/ S031=
0000044500
534
SXXX32 EUMS 110948
22856700
:PRS 1 /1 4007 4000 4007 4013 4002 3994 3990 3979 3985 3990 3986 3990 3995 3990 3977 3980 3986 3988 3987 3990 3986 3986 3981 3971 3972 3977 3980 3974 3976 3976 :RAD 1 /3 7500 7493 7488 7489 7485 7486 7483 7478 7477 7474 7469 7471 7470 7466 7459 7456 7452 7445 7439 7434 :ENC 3 /5 5700 5683 5683 5685 5674 5671 5665 5668 5658 5653 5644 5636 :SW1 48 /60 0 :SW2 18 /60 0 :BAT 14 /15 12.8 :NAME 22856700
0000045100
535
SXXX32 EUMS 110948 RRA
32D8A2BE
:PRS 1 /1 1761 1761 1766 1767 1769 1770 1777 1769 1773 1783 1769 1769 1783 1781 1779 1781 1775 1776 1784 1783 1782 1774 1786 1784 1784 1786 1787 1787 1788 1788 :RAD 1 /3 7349 7355 7356 7353 7355 7361 7367 7369 7366 7373 7386 7386 7388 7397 7404 7406 7413 7420 7424 7424 :ENC 3 /5 4780 4782 4785 4789 4793 4799 4808 4821 4831 4838 4848 4851 :SW1 48 /60 59 :SW2 18 /60 60 :BAT 14 /15 13.1 :NAME 32D8A2BE
0000010100
536
SAMR20 TFFF 110030
METAR TFFF 110030Z AUTO 06012KT 9999 FEW026 BKN056 25/20 Q1016=

0000008700
537
SAIY32 LIIB 110050 RRA
METAR LICC 110050Z 28011KT CAVOK 11/06 Q1021=

0000036900
538
SAFI34 EFHK 110050
EFET 110050Z AUTO 00000KT CAVOK M28/M31 Q1014=
EFIV 110050Z AUTO 25005KT 7000 OVC003 M29/M32 Q1016=
EFKE 110050Z AUTO 03012KT 350V060 CAVOK M14/M18 Q1008=
EFKI 110050Z AUTO 05012KT 9999 -SG BKN017 M12/M14 Q1001=
EFKS 110050Z AUTO 03006KT 310V080 CAVOK M17/M21 Q1006=
EFKT 110050Z AUTO 02005KT 340V060 CAVOK M20/M22 Q1013=

0000101600
539
SAMX43 MMMZ 110100
METAR MMCL 110040Z 00000KT 10SM  SCT100 BKN230 23/15 A2992 RMK 8/034=
METAR MMCN 110045Z 25004KT 10SM  SKC 20/06 A2994 RMK HZY DSNT CI
SE-SW=
METAR MMDO 110042Z 21014KT 14SM  BKN200 16/M07 A3014 
      RMK 8/004 ISOL SC 1-2QUAD=
METAR MMGM 110040Z 00000KT 10SM  SKC 21/11 A2992 RMK HZY=
METAR MMHO 110047Z 24005KT 10SM  SKC 23/M05 A3000=
METAR MMLM 110042Z 31010KT 10SM  FEW100 BKN220 19/10 A2995 RMK 8/038=
METAR MMLP 110040Z 03009KT 10SM  FEW200 20/12 A3000 
      RMK 8/008 ISOL SC/AC=
METAR MMLT 110047Z 00000KT 8SM  FEW200 19/13 A2997 RMK 8/006=
METAR MMML 110040Z 00000KT 10SM  SCT200 23/M03 A3003 RMK 8/002 HZY=
METAR MMMZ 110047Z 27009KT 14SM  FEW160 SCT220 19/11 A2989 RMK 8/039=
METAR MMSD 110049Z 33010KT 12SM  SCT100 SCT120 22/12 A2996 
      RMK 8/070 MSGTX MMLP=
METAR MMSL 110054Z 00000KT 12SM  BKN025 BKN100 OVC120 20/17 A2993 
      RMK 8/57/ BINOVC MSGTX MMLP=
METAR MMTJ 110045Z 29004KT 6SM  FEW210 17/07 A3007 RMK 8/009 HZY=

0000030800
540
SAHO31 MHTG 110100
METAR MHRO 110100Z 09009KT 9999 SCT020 25/22 Q1013 A2992 NOSIG=
METAR MHLC 110100Z 08002KT 9999 SCT024 BKN070 24/22 Q1013 A2992
NOSIG=
METAR MHLM 110100Z 01006KT 9999 FEW026 24/23 Q1013 A2991 NOSIG=
METAR MHTG 110100Z 06003KT 9999 BKN028 21/16 Q1018 A3006 NOSIG=

0000009700
541
SACS31 MROC 110049
METAR
MROC 110100Z 10014KT 9999 FEW030 21/14 A2998 NOSIG=

0000008300
542
SACS31 MROC 110053
METAR MRLB 110100Z 09008KT CAVOK 27/17 A2980=

0000023300
543
SAPM31 MPTO 110000
METAR
MPBO 110000Z VRB02KT 9000 SCT020TCU Q1013=
MPDA 110000Z 00000KT 9999 SCT030 28/23 Q1008=
MPMG 110000Z 32003KT 9999 FEW020 27/23 Q1009 NOSIG=
MPPA  110000Z 35008KT 9999 SCT030 Q1009=

0000010500
544
SANK31 MNMG 110100
METAR  
MNMG 110100Z 06004KT 9999 FEW023 27/20 Q1010 A2984 NOSIG=

0000020500
545
SADR31 MDSD 110100
METAR
METAR MDST 110100Z 14006KT 9999 FEW016 22/21 Q1019=
METAR MDPC 110100Z 10015KT 9999 FEW020 26/21 Q1019=
METAR MDSD 110100Z 04005KT 9999 FEW018 23/21 Q1018=

00000000