0000066100
866
UDAF01 FAPR 110913
AMDAR 1109
ASC AFZA44 1757S 03106E 110855 F046 PS239 061/009 TB1 S031 333 F/// VG024=
ASC AFZA44 1757S 03106E 110856 F048 PS230 059/014 TB1 S031 333 F/// VG028=
ASC AFZA44 1757S 03106E 110856 F048 PS229 058/015 TB1 S031 333 F/// VG028=
ASC AFZA44 1757S 03105E 110856 F051 PS220 057/014 TB1 S031 333 F/// VG028=
ASC AFZA44 1757S 03105E 110856 F054 PS212 061/015 TB1 S031 333 F/// VG028=
UNS AFZA44 1758S 03105E 110856 F057 PS202 067/017 TB1 S031 333 F/// VG028=
ASC AFZA44 1758S 03105E 110857 F061 PS193 054/014 TB1 S031 333 F/// VG027=
ASC AFZA44 1759S 03104E 110857 F066 PS180 058/013 TB0 S031 333 F/// VG018=
0000066100
867
UDAF01 FAPR 110911
AMDAR 1109
ASC AFZA08 2614S 02753E 110824 F160 MS019 211/006 TB0 S031 333 F/// VG000=
LVR AFZA08 2634S 02727E 110830 F248 MS189 311/034 TB0 S031 333 F/// VG000=
LVR AFZA08 2712S 02646E 110837 F391 MS520 289/063 TB0 S031 333 F/// VG000=
LVR AFZA08 2748S 02605E 110844 F400 MS540 293/069 TB0 S031 333 F/// VG000=
LVR AFZA08 2825S 02523E 110851 F400 MS530 294/072 TB0 S031 333 F/// VG000=
LVR AFZA08 2901S 02442E 110858 F400 MS522 289/086 TB0 S031 333 F/// VG000=
LVR AFZA08 2937S 02400E 110905 F400 MS532 293/090 TB0 S031 333 F/// VG000=
LVR AFZA08 3012S 02318E 110911 F400 MS547 282/049 TB0 S031 333 F/// VG000=
0000035300
868
UDAF01 FAPR 110911
AMDAR 1109
DES AFZA44 1821S 03054E 110751 F099 PS108 098/018 TB0 S031 333 F/// VG011=
DES AFZA44 1813S 03056E 110753 F082 PS134 089/012 TB0 S031 333 F/// VG010=
DES AFZA44 1801S 03101E 110756 F065 PS173 114/004 TB0 S031 333 F/// VG012=
DES AFZA44 1758S 03105E 110759 F048 PS222 043/007 TB0 S031 333 F/// VG019=
0000066100
869
UDAF01 FAPR 110911
AMDAR 1109
DES AFZA41 3203S 02754E 110903 F184 MS107 283/035 TB0 S031 333 F/// VG009=
DES AFZA41 3203S 02754E 110904 F184 MS106 283/035 TB0 S031 333 F/// VG017=
DES AFZA41 3210S 02753E 110905 F161 MS050 292/034 TB0 S031 333 F/// VG010=
DES AFZA41 3216S 02753E 110906 F139 MS010 291/025 TB0 S031 333 F/// VG010=
DES AFZA41 3222S 02753E 110907 F120 PS030 296/029 TB0 S031 333 F/// VG010=
DES AFZA41 3229S 02752E 110909 F099 PS040 288/029 TB0 S031 333 F/// VG010=
DES AFZA41 3236S 02752E 110910 F082 PS082 276/020 TB0 S031 333 F/// VG011=
DES AFZA41 3241S 02752E 110911 F066 PS102 318/015 TB0 S031 333 F/// VG012=
0000039300
870
SIVS01 KWBC 110900
AAXX 11091
48808 41420 80000 10141 20135 39916 40207 57011 76062 888// 333
58010 84894 88696 96010 96160=
48826 31530 80701 10197 20177 30056 40193 56010 71022 888// 333
58001 86895 88697=
48830 31420 83602 10143 20234 39890 40205 56011 71022 888// 333
58003 83894 88697=
48839 32997 70505 10199 20184 30123 40189 56010 80008 333 58002
87299=
0000046900
871
SIMK01 KWBC 110900
AAXX 11091
13462 42760 70000 10093 20074 30207 40247 52010 85570 333 85650
87459=
13457 32770 60000 10119 20095 30236 40243 52009 86500 333 86656=
13363 41620 51101 10004 20004 39326 48527 50005 72842 82530=
13461 42670 70202 10145 20105 30240 40247 52011 87800 333 82840
85650 92312 92428=
13463 42665 61802 10111 20062 30186 40246 52008 83870=
13459 42670 71401 10054 20053 39484 40245 50003 83830 333 83696
85399=
0000091000
872
SIIN90 VEGT 110900
AAXX 11094
42410 31595 70000 10216 20151 40162 70522 83530
  333 59041 83620 87360=
42404 31496 70000 10200 20156 40167 70522 84530
  333 58024 84618 85360=
42619 31996 00000 10262 20129 40132 70500
  333 59003=
42309 31596 40502 10240 20125 40138 70520 81430
  333 58003=
42423 32596 50502 10226 20129 40142 81430
  333 58007 81620 85360=
42516 31295 50000 10142 20064 38420 48516 70520 83430
  333 58010=
42308 NIL=
42512 31596 53203 10190 20064 48528 70522 82530
  333 58011 82620 83360=
42724 31995 03603 10250 20107 40147 70500
  333 59003=
42623 31596 12302 10244 20097 39261 40116 70500 81500
  333 58007 81620=
42314 31596 60000 10244 20122 40147 70522 81131
  333 58007 81825 84360=
42415 32596 63602 10228 20118 40167 82530
  333 58007 82620 85360=
42220 32596 70000 10238 20105 40148 82831
  333 58009 82620 86360=
0000012900
873
FCIN90 VEBS 110900
TAF VEBS 110900Z 1112/1121 18002KT 2000 HZ NSC 
         BECMG 1115/1117 08004KT 1500 BR=

0000027900
874
FTIN90 VANP 110900
TAF VARP 110900Z 1112/1218 27006KT 5000 HZ SCT025 BECMG 1114/1116
VRB02KT 3000 HZ FEW025 SCT100 BECMG 1200/1202 VRB02KT 1200 BR FEW025
BECMG 1206/1208 34004KT 5000 HZ NSC BECMG 1213/1215 VRB02KT 3000 HZ
TEMPO 1112/1202 –RA/TSRA FEW030CB =
0000011100
875
SAIN90 VIBN 110830
METAR VIBN 110830Z 13008KT 2000 BR -RA SCT020 FEW030CB BKN100 19/17
Q1015=
0000011900
876
SAIR33 OIII 110900 RRA
METAR OICK 110850Z 22006KT 8000 -RA FEW015 FEW035CB SCT040 BKN080 
03/02 Q1018=

0000016800
877
FCIN90 VANP 110900
TAF VARP 110900Z 1112/1121 27006KT 5000 HZ SCT025 BECMG 1114/1116
VRB02KT 3000 HZ FEW025 SCT100 TEMPO 1112/1121 –RA/TSRA FEW030CB =
0000128600
878
SIMX01 KWBC 110900 RRB
AAXX 11091
76040 32920 03301 10097 20064 30185 40199 54000 90850 333 30///
58028 98620=
76423 32960 20000 10058 21018 38171 40165 52004 80009 90855 333
30/// 56009 58032 82170=
76692 31520 12101 10205 20196 30116 40135 57011 71041 811// 90845
333 30/// 563// 59032 81828=
76833 32958 01801 10216 2//// 30119 40121 57006 90845 333 30///
58/// 92021=
76405 32840 20302 10180 20131 30142 40164 57003 83040 90845 333
30/// 56010 58023 82357=
76458 32960 03301 10171 20133 30144 40149 58001 90846 333 30///
58013=
76662 32660 51001 10134 20093 38472 40140 57001 85400 90846 333
30/// 56/00 58004 85633=
76737 32980 03401 10133 20104 38757 40133 57009 90845 333 30///
59018 91103 91534=
76741 31150 10502 10208 20203 30099 40117 57009 70120 81100 90845
333 30/// 56000 59021 81803=
76751 26/// /0801 10210 20208 30130 40143 56008 7//// 8//// 90850
333 0//// 30/// 4//// 54/// 56/// 57/// 59009 60007 8//// 8////
8//// 9//// 9//// 9//// 444 ///// 555 30251=
76640 31010 70000 10190 20187 30141 40153 52002 71044 8322/ 90840
333 30/// 5655/ 59024 83801 84440=
76665 32958 01601 10132 20116 38124 40132 57010 90855 333 30///
58013=
76687 32960 00701 10122 20114 38665 40145 57010 90845 333 30///
59010=
0000055500
879
SICO01 KWBC 110900
AAXX 11091
80001 32470 20807 10268 20236 30115 40116 82200 333 56399 58000
82817=
80022 31962 00000 10240 20225 30094 40096 70500 333 58014=
80028 31960 007030 10243 20222 30068 40103 70500 333 58014=
80112 31440 80000 10142 20132 37895 74122 85481 333 56000 58008
85608=
80222 31462 70501 10102 20090 37510 70522 85505 333 561/9 59004
85815=
80259 31560 60000 10204 20189 39043 70522 82530 333 5664/ 58001
82620 86359=
80398 32370 80000 10241 20238 30010 40105 8557/ 333 5699/ 58007
85609 86358=
0000058300
880
SIER20 OMAA 110900
AAXX 11094
41184 42960 71410 10213 20107 40199 83034 333 59011 83358 87070=
41194 42960 81709 10220 20097 30196 40201 88020 333 59004 85365
      88466=
41196 42660 61509 10211 20110 30162 40202 81530 333 59007 81640
      86362=
41198 42560 71507 10205 20089 40202 83530 333 59018 83620 85360=
41200 42960 61709 10210 20100 30157 40208 8603/ 333 58002 86366=
41216 42660 71906 10208 20116 30191 40195 8253/ 333 58004 82645
      86366=
41217 42660 61706 10214 20109 30165 40194 8253/ 333 58006 82645
      85366=
41218 NIL=
0000106100
881
SIVZ11 SBBR 110900 RRC
BBXX
SHIP 11091 99/// 1//// 36/// /0602 10199 20162 39116 40152 52///
  333 10199 20197 553// 00025 91103=
SHIP 11091 99/// 1//// 16/// /0500 10162 20156 39050 40184 6992/
  333 10168 20162 553// 00015 91102=
SHIP 11091 99/// 1//// 36/// /0300 10200 20177 39622 40119
  333 10200 20191 553// 00007 91100=
SHIP 11091 99/// 1//// 36/// /1100 10229 20219 30005 40122
  333 10230 20229 553// 00000 91103=
SHIP 11091 99/// 1//// 36/// /0403 10205 20185 39610 40135
  333 10208 20204 553// 00003 91104=
SHIP 11091 99/// 1//// 36/// /1700 10234 20185 39980 40154
  333 10238 20234 553// 00095 91103=
SHIP 11091 99/// 1//// 36/// /3400 10236 20218 30010 40085 52///
  333 10236 20234 553// 00008 91102=
SHIP 11091 99/// 1//// 36/// /1100 10205 20177 39561 40122
  333 10205 20201 553// 00023 91100=
SHIP 11091 99/// 1//// 36/// /1300 10233 20196 39643 40143
  333 10236 20233 553// 00007 91105=
SHIP 11091 99/// 1//// 36/// /1301 10161 20144 39008 40380
  333 10169 20160 553// 00016 91102=
0000031400
882
SISM20 SMJP 100900
AAXX 11094
81225 41370 60904 10228 20219 40122 72522 83832
  333 56199 58006 81808 83645 85358=
81200 42470 70000 10234 20228 40120 84852
  333 56299 58003 82812 83625 85358=
81202 42470 30710 10256 20227 40127 83802
  333 56209 58008 83815=
81209 NIL=
81251 NIL=
0000008900
883
SAIN33 VOMM 111040
METAR VOMM 111040Z 06005KT 8000 NSC 28/18 Q1012 NOSIG=
0000179100
884
SZPS01 AMMC 110915
CREX++
T000103 A001 D01021 D06025++
-0204190 14737360 56130 2014 01 11 09 08 3027 11 07 00 01
00797 0159 00793 0158 00792 0160 00785 0155 00781 0153 00777 0152+
-0669280 15640860 56363 2014 01 11 09 08 //// 11 07 00 01
00384 -0075 00381 -0078 00384 -0073 00384 -0073 00383 -0073 00388 -0067+
-0942890 15995560 56670 2014 01 11 09 08 3043 11 07 00 01
00606 -0030 00607 -0027 00606 -0027 00601 -0030 00598 -0032 00603 -0025+
-1072080 16580190 57131 2014 01 11 09 08 //// 11 07 00 01
02552 2281 02379 2109 02305 2036 02412 2143 02214 1946 02175 1907+
-1551560 16718860 57210 2014 01 11 09 08 //// 11 07 00 01
00357 -0075 00346 -0085 00361 -0068 00355 -0073 00340 -0087 00343 -0083+
-1775690 16830030 57320 2014 01 11 09 08 3017 11 07 00 01
00429 -0094 00427 -0094 00425 -0094 00425 -0092 00422 -0093 00421 -0093+
-4397330 16861610 65180 2014 01 11 09 08 2887 11 07 00 01
02279 0330 02297 0351 02324 0381 02332 0392 02311 0373 02280 0346+
-2120470 -15978530 65980 2014 01 11 09 08 3012 11 07 00 01
00431 0008 00407 -0016 00405 -0017 00419 -0003 00431 0009 00413 -0008+
-2113810 -17518140 66600 2014 01 11 09 08 //// 11 07 00 01
00621 0078 00631 0089 00633 0092 00622 0082 00629 0089 00629 0090+
-1382670 -17176110 66840 2014 01 11 09 08 3013 11 07 00 01
00485 0065 00481 0061 00480 0059 00483 0062 00482 0060 00480 0057+
-1813250 17842750 67050 2014 01 11 09 08 3030 11 07 00 01
00726 0101 00722 0098 00725 0102 00721 0099 00719 0098 00719 0100+
-1760530 17743810 67070 2014 01 11 09 08 3033 11 07 00 01
00679 0019 00677 0018 00675 0017 00673 0017 00672 0017 ///// ////+
-0850250 17919500 67440 2014 01 11 09 08 3028 11 07 00 01
01563 0017 01570 0023 01568 0021 01567 0019 01576 0027 01577 0027++
7777

0000034700
885
SZIO01 AMMC 110915
CREX++
T000103 A001 D01021 D06025++
-1211670 09689190 46280 2014 01 11 09 08 3022 11 07 00 01
01180 0012 01178 0011 01178 0013 01176 0013 01174 0012 01175 0015+
-1042940 10566940 46290 2014 01 11 09 08 //// 11 07 00 01
01383 -0034 01392 -0025 01396 -0020 01389 -0027 01395 -0021 01380 -0036++
7777

00000000