0000172700
586
WWUS45 KPUB 111054
WSWPUB
URGENT - WINTER WEATHER MESSAGE
NATIONAL WEATHER SERVICE PUEBLO CO
354 AM MST SAT JAN 11 2014
COZ058-060-111700-
/O.CAN.KPUB.WW.Y.0002.000000T0000Z-140111T1300Z/
/O.NEW.KPUB.WW.Y.0003.140112T0900Z-140113T0600Z/
WESTERN MOSQUITO RANGE/EAST LAKE COUNTY ABOVE 11000 FT-
EASTERN SAWATCH MOUNTAINS ABOVE 11000 FT-
INCLUDING...CLIMAX...INDEPENDENCE PASS...MT ELBERT...MT MASSIVE
354 AM MST SAT JAN 11 2014
...WINTER WEATHER ADVISORY IN EFFECT FROM 2 AM TO 11 PM MST
SUNDAY...
...WINTER WEATHER ADVISORY IS CANCELLED...
THE NATIONAL WEATHER SERVICE IN PUEBLO HAS ISSUED A WINTER
WEATHER ADVISORY FOR SNOW AND BLOWING SNOW...WHICH IS IN EFFECT
FROM 2 AM TO 11 PM MST SUNDAY.
THE WINTER WEATHER ADVISORY THAT WAS IN EFFECT FOR EARLY THIS
MORNING HAS BEEN CANCELLED.
* LOCATION...THE EASTERN SAWATCH AND WESTERN MOSQUITO MOUNTAINS
  ABOVE 11000 FEET.
* CAUSE AND TIMING...A QUICK MOVING STORM SYSTEM WILL SPREAD SNOW
  ACROSS THE SAWATCH AND MOSQUITO RANGES TONIGHT THROUGH SUNDAY WITH
  STRONG WINDS CAUSING BLOWING AND DRIFTING SNOW.
* SNOW ACCUMULATION...3 TO 6 INCHES WITH LOCALLY HIGHER AMOUNTS.
* WIND...WEST TO NORTHWEST 25 TO 35 MPH WITH GUSTS TO AROUND 60
  MPH.
* IMPACT...HAZARDOUS TRAVEL CONDITIONS DUE TO A COMBINATION OF
  SNOW...BLOWING SNOW...POOR VISIBILITIES AND ICY...SNOW COVERED
  ROADS.
PRECAUTIONARY/PREPAREDNESS ACTIONS...
WINTER WEATHER CONDITIONS ARE EXPECTED DUE TO A COMBINATION OF
SNOW AND BLOWING SNOW.
IF YOU ARE PLANNING TO TRAVEL IN THE ADVISORY AREA DURING THE
TIME OF THE ADVISORY...LISTEN TO THE LATEST WEATHER FORECAST AND
CONSIDER TRAVELING AT ANOTHER TIME OR BY ANOTHER ROUTE.
&&
$$
0000012800
587
SPSP31 LEMM 110206
SPECI LEVX 110206Z 00000KT 2000 0300N R20/0375D BCFG SCT001 07/07
Q1016 TEMPO 0800 BCFG=

0000170100
588
SAUS71 KWBC 110200
METAR
KABE 110151Z 05003KT 1/2SM -RA BR OVC002 01/M01 A3027=
KACK 110153Z 15009KT 10SM FEW044 BKN065 04/03 A3035=
KACY 110154Z 00000KT 3/4SM BR OVC045 05/05 A3028=
KAGC 110153Z 12005KT 10SM CLR 07/05 A2998=
KAGS 110153Z 00000KT 3SM VCTS RA BR BKN004 BKN008 OVC018 09/09
     A3011=
KAKR 110154Z AUTO 14004KT 5SM BR FEW005 BKN018 OVC120 06/04
     A2992=
KALB 110151Z 18006KT 10SM FEW037 SCT270 00/M03 A3028=
KAND 110156Z AUTO 06005KT 1 3/4SM BR OVC004 08/08 A3011=
KAOO 110153Z AUTO 10003KT 3SM BR OVC009 01/M01 A3014=
KAPG NIL=
KART 110156Z AUTO 17004KT 10SM FEW028 OVC050 03/00 A3013=
KAVL 110154Z 17004KT 3SM -RA BR OVC003 07/07 A3011=
KAVP 110154Z AUTO VRB04KT 6SM BR OVC008 01/M01 A3021=
KBAF 110153Z 00000KT 5SM BR OVC016 M01/M02 A3030=
KBDL 110151Z 00000KT 3SM BR OVC011 01/00 A3031=
KBDR 110152Z 00000KT 1 1/4SM BR OVC005 02/01 A3031=
KBED 110156Z 00000KT 4SM BR OVC008 02/01 A3032=
KBFD 110153Z AUTO 13006KT 1SM BR VV002 02/01 A3004=
KBGM 110153Z 14004KT 7SM OVC006 01/M01 A3015=
KBGR 110153Z 00000KT 10SM FEW065 M07/M09 A3032=
KBKL 110153Z 16013KT 10SM FEW075 BKN120 06/04 A2987=
KBKW 110151Z AUTO 17011KT 10SM OVC006 16/07 A3005=
KBOS 110154Z 20003KT 4SM BR FEW010 OVC017 02/01 A3035=
KBTV 110154Z 18009KT 10SM SCT038 OVC065 01/M03 A3022=
KBUF 110154Z 12008KT 9SM FEW050 SCT170 OVC210 04/02 A3000=
KBVY 110153Z AUTO 00000KT 6SM BR BKN010 OVC014 02/01 A3033=
KBWI 110154Z 07004KT 1SM R10/P6000FT -RA BR OVC003 02/02 A3024=
KCAE 110156Z 00000KT 3SM -RA BR OVC004 10/09 A3012=
KCAK 110151Z 17006KT 1SM BR SCT006 OVC018 06/06 A2993=
KCAR 110154Z AUTO 13004KT 10SM BKN023 BKN110 M09/M16 A3020=

0000171200
589
SAUS71 KWBC 110200 RRA
METAR
KCEF 110158Z AUTO 16003KT 5SM BR OVC017 01/01 A3030=
KCHO 110153Z 00000KT 1 3/4SM -RA BR BKN004 02/01 A3021=
KCHS 110156Z 17004KT 10SM FEW035 SCT065 SCT100 16/15 A3014=
KCKB 110153Z 12005KT 10SM CLR 08/06 A2998=
KCLE 110151Z 15011KT 9SM FEW006 SCT017 BKN090 06/04 A2991=
KCLT 110152Z 01005KT 2SM BR OVC003 06/06 A3015=
KCMH 110151Z 14009KT 10SM FEW008 OVC037 08/06 A2987=
KCRW 110154Z 15008KT 10SM FEW060 BKN190 11/08 A2995=
KCVG 110152Z 16012KT 10SM OVC025 09/08 A2984=
KDAN 110153Z AUTO 04003KT 5SM -RA BR OVC003 04/03 A3019=
KDAY 110156Z 16010KT 7SM FEW012 OVC022 07/06 A2984=
KDCA 110152Z 03004KT 2 1/2SM -RA BR OVC008 03/02 A3025=
KDUJ 110156Z AUTO 12009KT 7SM CLR 03/01 A3004=
KECG 110154Z 13009KT 10SM BKN100 16/13 A3023=
KEKN 110151Z AUTO 15010G21KT 10SM CLR 11/07 A3005=
KELM 110153Z 13003KT 7SM OVC013 03/M01 A3016=
KERI 110151Z 16016G23KT 10SM CLR 06/03 A2994=
KEWB 110153Z 00000KT 3/4SM R05/P6000FT BR OVC003 04/04 A3033=
KEWN 110154Z 13005KT 10SM SCT023 SCT028 BKN035 18/15 A3020=
KEWR 110151Z 03003KT 3/4SM R04R/6000VP6000FT -DZ BR OVC003 02/01
     A3030=
KFAY 110153Z AUTO 00000KT 2SM -RA BR FEW007 BKN013 OVC034 17/16
     A3013=
KFLO 110153Z 00000KT 10SM OVC004 15/14 A3014=
KFRG 110153Z 00000KT 3/4SM UP BR VV004 03/03 A3031=
KFVE 110153Z AUTO 16004KT 10SM BKN017 M09/M14 A3015=
KGFL 110153Z AUTO 00000KT 6SM BR SCT018 OVC029 M02/M04 A3027=
KGON 110156Z 00000KT 3/4SM R05/3000V4000FT BR BKN004 OVC008 02/02
     A3032=
KGSO 110154Z 03006KT 2 1/2SM -RA BR BKN002 OVC013 03/03 A3016=
KGSP 110153Z 04006KT 1 1/4SM BR OVC002 08/07 A3012=
KHFD 110153Z 00000KT 1SM BR OVC008 01/01 A3032=

0000032200
590
FTCN38 CWAO 110200 AAA
TAF AMD CYAY 110206Z 1102/1114 24015G25KT P6SM FEW020 BKN050 TEMPO
     1102/1104 11/2SM -SN BKN020
    FM110400 26015G25KT 6SM -SN SCT020 OVC040 TEMPO 1104/1111 2SM -SN
     OVC020
    FM111100 26012G22KT P6SM SCT030
    RMK FCST BASED ON AUTO OBS. NXT FCST BY 110800Z=

0000048000
591
SATH33 VTBB 110200
METAR VTBO 110200Z 05013KT 6000 FEW030 27/21 Q1016=
METAR VTUD 110200Z NIL=
METAR VTUI 110200Z NIL=
METAR VTUK 110200Z 02005KT 330V060 9000 NSC 22/17 Q1019 A3011=
METAR VTUL 110200Z 30002KT 2000 BR NSC 19/16 Q1019 A3010=
METAR VTUO 110200Z NIL=
METAR VTUQ 110200Z NIL=
METAR  VTUU 110200Z 35003KT 9000 NSC 22/17 Q1017 A3005 NOSIG=
METAR VTUV 110200Z NIL=
METAR VTUW 110200Z 08003KT 8000 NSC 23/15 Q1019 A3009
RWY15 INFO B=

0000168700
592
SAUS71 KWBC 110200 RRB
METAR
KHKY 110153Z 00000KT 1/2SM FG VV002 06/05 A3015=
KHPN 110156Z 00000KT 1/2SM R16/3000V5000FT -DZ FG VV002 01/00
     A3027=
KHTS 110151Z 10003KT 10SM CLR 09/08 A2991=
KHVN 110153Z 00000KT 1 1/4SM BR OVC004 02/01 A3031=
KHYA 110156Z 00000KT 5SM -RA BR FEW008 OVC015 04/03 A3034=
KIAD 110152Z 00000KT 3/4SM -DZ BR OVC003 01/01 A3023=
KIAG 110153Z 15005KT 10SM OVC140 03/01 A2999=
KILG 110151Z AUTO 05004KT 3/4SM R01/P6000FT -RA BR OVC003 03/02
     A3028=
KILM 110153Z AUTO 14008KT 10SM SCT008 BKN015 OVC022 21/18
     A3016=
KINT 110154Z 02004KT 3SM -RA BR OVC003 04/03 A3018=
KIPT 110154Z 00000KT 6SM HZ OVC012 01/M02 A3022=
KISP 110156Z 00000KT 1/4SM R06/4500V5500FT -RA FG OVC004 03/02
     A3029=
KJFK 110151Z 36003KT 1/2SM R04R/1800V6000FT -RA BR OVC004 03/02
     A3031=
KJST 110154Z AUTO 15008KT 4SM BR OVC004 02/01 A3006=
KLBE 110150Z 18006KT 10SM??? BKN130 08/06 A3002=
KLCK 110155Z AUTO 17004KT 10SM BKN037 OVC110 08/06 A2987=
KLEB 110153Z 00000KT 10SM OVC060 M03/M06 A3027=
KLGA 110151Z 06007KT 1SM -DZ BR OVC003 01/00 A3030=
KLUK 110153Z 18006KT 10SM OVC029 09/07 A2987=
KLWM 110154Z 20004KT 7SM OVC013 02/M01 A3034=
KLYH 110154Z 02004KT 2SM UP BR OVC005 02/02 A3021=
KMDT 110156Z 00000KT 3/4SM -DZ BR OVC003 01/M01 A3025=
KMFD 110152Z 15014KT 2SM BR OVC002 06/06 A2986=
KMGW 110153Z 15008KT 10SM SCT060 11/07 A2999=
KMHT 110153Z 00000KT 5SM BR SCT014 BKN075 M03/M04 A3030=
KMIV 110154Z AUTO 00000KT 1/2SM FG BKN002 OVC039 05/05 A3027=
KMMU NIL=
KMRB 110153Z 00000KT 1SM -RA BR OVC003 02/01 A3021=
KMSS 110153Z AUTO 06003KT 9SM OVC024 M03/M06 A3018=
KMTN NIL=

0000015400
593
SAUS71 KWBC 110200 RRD
METAR
KYNG 110151Z 13010KT 1 1/2SM BR OVC003 05/04 A2995=
KZZV 110153Z AUTO 13006KT 10SM BKN110 07/06 A2992=

0000170900
594
SAUS71 KWBC 110200 RRC
METAR
KMYR 110150Z 17008KT 3/4SM BR OVC002 16/14 A3015=
KNKT 110154Z 13008KT 10SM FEW018 BKN036 OVC044 18/16 A3021=
KOQU 110150Z 35003KT 1/4SM FG VV002 01/01 A3034=
KORF 110151Z AUTO 17005KT 10SM BKN100 11/09 A3023=
KORH 110154Z AUTO 23007KT 1/4SM FG VV002 01/01 A3028=
KPHF 110154Z AUTO 10003KT 5SM -RA BKN100 OVC120 09/07 A3022=
KPHL 110154Z 05004KT 1SM R09R/P6000FT -RA BR OVC004 02/01
     A3029=
KPIT 110151Z 10005KT 8SM SCT060 BKN140 OVC220 06/05 A2998=
KPKB 110153Z 00000KT 8SM FEW050 07/06 A2997=
KPLB NIL=
KPOU 110153Z 00000KT 5SM BR OVC013 01/M02 A3029=
KPQI 110155Z AUTO 16003KT 10SM FEW024 BKN090 M09/M16 A3023=
KPSM 110158Z 29002KT 4SM BR FEW015 OVC075 M02/M02 A3032=
KPVD 110151Z 00000KT 1/2SM R05/1800V3500FT -RA FG VV003 01/00
     A3034=
KPWM 110151Z 22003KT 10SM OVC080 M02/M03 A3033=
KRDG 110154Z AUTO 00000KT 1SM -RA BR OVC003 01/M01 A3026=
KRDU 110151Z 00000KT 1/4SM -RA BR OVC003 06/05 A3016=
KRIC 110154Z 00000KT 3/4SM R34/P6000FT BR OVC003 05/04 A3021=
KROA 110154Z 00000KT 1SM BR OVC003 03/03 A3021=
KROC 110154Z 16008KT 10SM SCT250 04/01 A3005=
KRWI 110153Z AUTO 00000KT 10SM -RA OVC100 14/13 A3018=
KSAV 110153Z 00000KT 2SM BR SCT005 BKN011 18/16 A3012=
KSBY 110154Z 13005KT 7SM FEW055 OVC070 09/08 A3025=
KSCH NIL=
KSLK 110151Z AUTO 23003KT 9SM OVC016 M01/M03 A3012=
KSWF NIL=
KSYR 110154Z 08006KT 10SM SCT050 BKN210 OVC250 01/M01 A3015=
KTEB 110151Z 00000KT 1 1/2SM BR OVC003 02/00 A3029=
KTOL 110152Z 17003KT 1/4SM RA BR VV002 03/03 A2983=
KTTN 110153Z 00000KT 1 1/4SM -RA BR OVC004 01/01 A3028=
KUCA NIL=
KWRI 110158Z AUTO 03003KT 2SM R06/3000FT BR OVC003 02/02 A3026=

0000045200
595
SATH31 VTBB 110200
METAR VTCH 110200Z 00000KT 1000 BR SCT012 15/14 Q1019 A3011
INFO:C=
METAR VTCL 110200Z NIL=
METAR VTCN 110200Z VRB01KT 0300 FG VV/// 17/17 Q1019 A3012=
METAR VTCP 110200Z 00000KT 0700 FG BKN015 18/17 Q1019 A3009
INFO B=
METAR VTCT 110200Z 02003KT 0100 FG VV002 17/16 Q1020 A3013=
METAR VTPH 110200Z NIL=
METAR VTPO 110200Z NIL=
METAR VTPP 110200Z 00000KT 4000 BR FEW030 SCT300 24/17
Q1017 3005=

0000040900
596
SASW39 LSSW 110150 RRB
METAR LSMA 110202Z AUTO 19003KT 5000NDV BR OVC120 00/M00 Q1019 RMK
           GRN=
METAR LSMD 110150Z AUTO 14002KT 0250NDV R11/0350N R29/0400V0550N FG
           VV001 01/01 Q1019 RMK RED=
METAR LSME 110150Z AUTO VRB01KT 1500NDV FG OVC002 03/03 Q1019 RMK
           AMB=
METAR LSMM 110150Z AUTO VRB01KT 5000NDV BR BKN100 00/M00 Q1018 RMK
           GRN=

0000009400
597
SASQ41 LZIB 110200 RRB
METAR LZZI 110200Z VRB01KT 9999 BKN058 02/M01 Q1019=

0000171000
598
SAUS72 KWBC 110200
METAR
KABI 110152Z 24005KT 10SM CLR 14/M08 A2979=
KABQ 110152Z 14009KT 10SM CLR 08/M11 A3000=
KABY 110153Z 00000KT 1 1/2SM BR OVC004 15/14 A3009=
KACT 110151Z 19004KT 10SM CLR 14/13 A2976=
KAEX 110153Z 16006KT 6SM -RA BR BKN010 OVC014 18/18 A2981=
KAFW 110153Z 33008KT 10SM CLR 12/03 A2977=
KAHN 110151Z AUTO 07004KT 1 1/4SM BR OVC003 08/07 A3009=
KALI 110153Z AUTO 30003KT 10SM CLR 16/12 A2986=
KAMA 110153Z 32006KT 10SM FEW080 OVC110 09/M12 A2982=
KANB 110153Z AUTO 05008KT 10SM OVC011 11/09 A3003=
KAPF 110153Z 13003KT 10SM CLR 22/21 A3008=
KATL 110152Z 11005KT 1/4SM R09R/3000V4000FT -DZ FG VV002 08/08
     A3006=
KAUS 110153Z 22007KT 10SM FEW090 BKN150 BKN200 18/14 A2982=
KBFM 110153Z 00000KT 2SM RA BR OVC003 16/15 A2999=
KBHM 110153Z 13007KT 4SM BR OVC005 12/11 A3000=
KBNA 110153Z 17015KT 10SM FEW020 SCT045 OVC120 12/09 A2989=
KBPT 110153Z 19014G20KT 4SM RA BR OVC004 19/18 A2984=
KBQK 110155Z AUTO 13004KT 10SM SCT003 BKN010 18/17 A3012=
KBRO 110153Z 17007KT 10SM CLR 19/18 A2989=
KBTR 110153Z 13008KT 5SM BR OVC005 16/16 A2990=
KCEW 110153Z AUTO 15003KT 4SM BR OVC002 17/16 A3003=
KCHA 110153Z 20003KT 3/4SM -DZ BKN004 OVC007 08/07 A3003=
KCLL 110153Z 20007KT 9SM CLR 18/17 A2980=
KCNM 110153Z AUTO 26018KT 10SM CLR 14/M11 A2987=
KCRP 110151Z 17004KT 10SM BKN250 17/16 A2986=
KCSG 110151Z AUTO 00000KT 1 3/4SM BR OVC002 11/11 A3006=
KCSV 110153Z AUTO 21008G19KT 8SM OVC004 10/09 A2998=
KDAB 110153Z 00000KT 9SM SCT085 SCT250 19/18 A3014=
KDAL 110153Z 32011G19KT 10SM FEW035 SCT220 17/09 A2975=
KDFW 110153Z 33013KT 10SM FEW030 FEW250 14/06 A2975=
KDHN 110153Z 12005KT 3/4SM BR VV002 14/14 A3008=

0000025100
599
FTUS52 KWBC 110145 AAA
TAF AMD
KMLU 110142Z 1102/1124 17012KT P6SM OVC007
      TEMPO 1102/1106 2SM -SHRA BR SCT010 OVC025
     FM110600 23008KT P6SM BKN015
     FM111200 26010KT P6SM SKC
     FM111800 28015G25KT P6SM SKC=

0000049100
600
FTUS80 KWBC 110145 AAA
TAF AMD
KMLU 110142Z 1102/1124 17012KT P6SM OVC007
      TEMPO 1102/1106 2SM -SHRA BR SCT010 OVC025
     FM110600 23008KT P6SM BKN015
     FM111200 26010KT P6SM SKC
     FM111800 28015G25KT P6SM SKC=
KPIA 110142Z 1102/1124 19010KT P6SM OVC003
     FM110300 24012KT 1/2SM FG OVC002
     FM110900 25011KT 2SM BR OVC003
     FM111400 26012G18KT 4SM BR OVC015
     FM111700 28013G22KT P6SM BKN025
     FM112100 27012KT P6SM SCT250=

0000024100
601
FTUS75 KWBC 110203
TAF
TAF PGUA 1102/1208 06015G25KT 9999 SCT020 SCT030 QNH2981INS
      TEMPO 1102/1109 9000 -SHRA SCT015 BKN025
      BECMG 1108/1109 06015G25KT 9999 FEW020 QNH2985INS TX29/1105Z
      TN25/1117Z=

0000027500
602
FTUS75 KWBC 110203 AAA
TAF AMD
PADU 110200Z 1102/1124 19008KT P6SM -SHRA SCT015 BKN025
      TEMPO 1102/1104 BKN015
     FM110600 21013G21KT P6SM BKN035
     FM111300 21018G27KT P6SM -SHRA BKN035
     FM112100 22021G33KT P6SM -SHRA SCT035 BKN045=

0000012600
603
SPUS31 KWBC 110145
SPECI
KJFK 110142Z 02004KT 1/2SM R04R/3000VP6000FT -RA BR SCT005 OVC010
03/02 A3032=

0000009400
604
SPUS31 KWBC 110145
SPECI
KMCI 110141Z 30007KT 7SM -DZ OVC005 03/02 A2958=

0000009500
605
SPUS31 KWBC 110145
SPECI
KMSY 110141Z 14005KT 1/16SM FG VV001 16/16 A2995=

00000000