0000030600
426
SAUK35 EGGY 102220
METAR EGHH 102220Z 21003KT 9999 FEW010 BKN012 08/08 Q1013=
METAR EGKA 102220Z NIL=
METAR EGKB 102220Z NIL=
METAR EGLF 102220Z NIL=
METAR EGMC 102220Z 21012KT 9999 SCT032 08/06 Q1013=
METAR EGMD 102220Z NIL=
METAR EGMH 102220Z NIL=
METAR EGTC 102220Z NIL=

0000030800
427
SAUK36 EGGY 102220
METAR EGBE 102220Z NIL=
METAR EGBJ 102220Z NIL=
METAR EGCN 102220Z 20014KT 9999 -RA NSC 08/06 Q1009=
METAR EGSC 102220Z NIL=
METAR EGSD 102220Z NIL=
METAR EGSH 102220Z AUTO 21009KT 9999 FEW011/// 08/06 Q1012=
METAR EGVN 102220Z NIL=
METAR EGWU 102220Z NIL=

0000034100
428
SAUK37 EGGY 102220
METAR EGAE 102220Z NIL=
METAR EGNC 102220Z NIL=
METAR EGNH 102220Z NIL=
METAR EGNJ 102220Z AUTO 19014KT 9999 BKN039/// 08/07 Q1009 RERA=
METAR EGNO 102220Z NIL=
METAR EGNR 102220Z NIL=
METAR EGPE 102220Z AUTO 20009KT 9999 NCD 03/M01 Q1005=
METAR EGPI 102220Z NIL=
METAR EGPN 102220Z NIL=

0000046700
429
SAUK38 EGGY 102220
METAR EGEC 102220Z NIL=
METAR EGEO 102220Z NIL=
METAR EGPA 102220Z AUTO 25012KT 9999 FEW029/// 06/03 Q1001=
METAR EGPC 102220Z AUTO 25008KT 9999 NCD 03/M00 Q1002=
METAR EGPL 102220Z AUTO 28010KT 9999 // FEW017/// BKN030/// 04/02
    Q1005=
METAR EGPM 102220Z AUTO 26011KT 9999 RA FEW012/// SCT019/// BKN026///
    06/04 Q0997=
METAR EGPO 102220Z AUTO 23008KT 9999 FEW017/// 02/M00 Q1003=
METAR EGPU 102220Z NIL=

0000034700
430
SASW32 LSSW 102220
METAR LSGC 102220Z AUTO 00000KT 6000 NCD M01/M01 Q1017=
METAR LSGS 102220Z NIL=
METAR LSZG 102220Z AUTO VRB01KT 6000 NCD M00/M01 Q1019=
METAR LSZR 102220Z AUTO 23002KT 5000 OVC004 04/02 Q1019=
METAR LSZS 102220Z NIL=
METAR LSZC 102220Z AUTO 26002KT 2600 BR NCD 02/02 Q1019=
METAR LSZL 102220Z NIL=

0000015100
431
SAMX41 MMMX 102223
METAR MMIT 102200Z 06007KT 7SM SKC 31/18 A2983 RMK FU NW =
METAR MMTB 102145Z 00000KT 7SM SKC 31/18 A2981 RMK =

0000050100
432
SAFI32 EFHK 102220
METAR EFHA 102220Z AUTO 35010KT 9999 OVC007 M06/M06
 Q0995=
EFHF 102220Z AUTO 34014KT 310V020 9999 OVC012 M02/M04 Q0993=
METAR EFKA 102220Z AUTO 03010KT 9999 -SG OVC013 
M07/M09 Q1000=
EFKK 102220Z AUTO 03009KT 9999 -SG FEW022 BKN026 BKN070 M09/M10
Q1001=
EFMA 102220Z AUTO 34007KT 9999 OVC017 M00/M01 Q0998=
METAR EFPO 102220Z AUTO 02008KT 9999 OVC009/// M04/M05 Q0997 
R12/29//95=
EFSI 102220Z AUTO 01008KT 340V040 9999 OVC009 M06/M07 Q0998=

0000011100
433
SAIO31 KWBC 102200 RRC
METAR
VRMM 102200Z 06015KT 9999 FEW018TCU BKN280 28/23 Q1011 NOSIG=

0000073500
434
SASN32 ESWI 102220
METAR ESKN 102220Z 31006KT 260V340 9999 BKN013 M03/M05 Q1002
R26/710195=
METAR ESOE 102220Z AUTO 11005KT 9999NDV OVC013/// M02/M04 Q1001=
METAR ESOK 102220Z AUTO 14009KT 9999 -RASN OVC004/// M01/M01 Q0998
RESHUP RESN=
METAR ESOW 102220Z AUTO 35004KT 9999NDV OVC013/// M04/M07 Q1002=
METAR ESSA 102220Z 31010KT 9999 BKN008 BKN017 M04/M05 Q1001
R01L/19//71 R08/19//58 R01R/19//68 BECMG BKN010=
METAR ESSB 102220Z AUTO 29007KT 9999NDV -SN FEW009/// SCT010///
OVC015/// M04/M05 Q1001=
METAR ESSD 102220Z AUTO VRB01KT 0800 R32/P1500N SN VV001 M07/M09
Q1001=
METAR ESSP 102220Z VRB01KT 9999 OVC021 M02/M04 Q1002=
METAR ESSV 102220Z AUTO 29010KT 9999NDV OVC009/// M01/M02 Q1002=

0000027600
435
FTUS42 KWBC 102224 AAA
TAF AMD
KSSI 102221Z 1022/1118 13010KT 5SM BR BKN004
      TEMPO 1100/1102 2SM BR OVC003
     FM110200 14005KT 3SM BR BKN005 OVC010
     FM110600 15005KT 1SM BR BKN003 OVC006
     FM111400 19010G15KT P6SM VCSH BKN010 OVC020=

0000035800
436
FTUS72 KWBC 102224 AAA
TAF AMD
KSJT 102223Z 1022/1118 28016G26KT P6SM FEW250
     FM110100 28008KT P6SM SKC=
KSSI 102221Z 1022/1118 13010KT 5SM BR BKN004
      TEMPO 1100/1102 2SM BR OVC003
     FM110200 14005KT 3SM BR BKN005 OVC010
     FM110600 15005KT 1SM BR BKN003 OVC006
     FM111400 19010G15KT P6SM VCSH BKN010 OVC020=

0000068300
437
SASN33 ESWI 102220
METAR ESNG 102220Z AUTO 03012KT 9999 NCD M17/M19 Q1011=
METAR ESNK 102220Z AUTO 34012KT 9999 -SN SCT021/// BKN033/// M10/M14
Q1004=
METAR ESNN 102220Z AUTO 33010KT 3200NDV -SN NCD M10/M12 Q1004
R16/49/79=
METAR ESNO 102220Z AUTO 36012KT 9999 SCT021/// OVC027/// M12/M16
Q1003=
METAR ESNQ 102220Z AUTO 35004KT 9999NDV -SN OVC011/// M18/M19
Q1011=
METAR ESNS 102220Z AUTO 36012KT //// VV006 M12/M13 Q1005=
METAR ESNU 102220Z 34015KT 5000 -SN SCT018 OVC035 M11/M14 Q1004
R14/49//50=
METAR ESNZ 102220Z 03002KT 9999 -SN SCT011 OVC044 M15/M16 Q1002=
METAR ESUT 102220Z AUTO VRB09G22KT 360V360 9999 OVC074/// M13/M19
Q1004=

0000054100
438
SASN34 ESWI 102220
METAR ESCF 102220Z AUTO 13002KT 9999NDV BKN007/// OVC012/// M02/M03 
Q1002=
METAR ESDF 102220Z AUTO 22003KT 190V250 9999NDV BKN038/// 02/01 
Q1004=
METAR ESIB 102220Z AUTO 20009KT 9999NDV OVC017/// 01/00 Q1000=
METAR ESMV 102220Z NIL=
METAR ESPA 102220Z 03010KT 360V060 4100 -SN VV013 M13/M15 Q1008=
METAR ESPE 102220Z AUTO 01006KT 320V050 9999NDV -SN BKN030/// 
OVC100/// M14/M17 Q1009=
METAR ESSL 102220Z AUTO 12003KT 9999NDV FEW010/// OVC015///
M03/M04 Q1002 RESG RESN R29/19//95=

0000040500
439
SASN35 ESWI 102220
METAR ESGR 102220Z NIL=
METAR ESKM 102220Z NIL=
METAR ESNL 102220Z AUTO 35007KT 9999NDV OVC023/// M13/M17 Q1006=
METAR ESNX 102220Z AUTO 03009KT 5000NDV -SN FEW012/// BKN023///
OVC070/// M15/M18 Q1006=
METAR ESNY 102220Z NIL=
METAR ESSF 102220Z NIL=
METAR ESSK 102220Z NIL=
METAR ESUD 102220Z AUTO 35003KT 6000 -SN SCT021/// OVC026/// M14/M17
Q1006=

0000016100
440
SAUK31 EGGY 102220 RRA
METAR EGCC 102220Z AUTO 21011KT 7000 BKN014 OVC019 08/06 Q1008=
METAR EGPH 102220Z AUTO 25005KT 9999 NCD 01/00 Q1007=

0000027600
441
FTCN31 CWAO 102200 AAA
TAF AMD CYCD 102223Z 1022/1105 VRB03KT P6SM SCT020 OVC080 TEMPO
     1022/1024 5SM -SHRA BR BKN020 OVC030
    FM110000 12007KT P6SM -RA SCT006 OVC020 TEMPO 1100/1105 2SM -SHRA
     BR SCT004 OVC006
    RMK NXT FCST BY 110000Z=

0000009400
442
SAUK32 EGGY 102220 RRA
METAR EGPD 102220Z 29009KT CAVOK 04/M02 Q1005 NOSIG=

0000045100
443
SXXX32 EUMS 111045 RRX
16289262
:PRS 1 /1 2175 2181 2186 2187 2157 2184 2166 2170 2178 2181 2176 2187 2183 2185 2180 2176 2185 2178 2190 2175 2184 2168 2177 2175 2164 2165 2192 2162 2189 2176 :RAD 1 /3 7636 7638 7638 7633 7631 7632 7633 7632 7635 7639 7636 7633 7635 7632 7633 7634 7636 7636 7637 7638 :ENC 5 /5 5004 5001 5008 5003 4997 5001 4993 4998 5001 4997 5002 5005 :SW1 45 /60 0 :SW2 15 /60 0 :BAT 14 /15 13.0 :NAME 16289262 /
0000045700
444
SXXX32 EUMS 111045 RRX
324DF524
:PRS 1 /1 2394 2399 2404 2410 2414 2419 2424 2429 2435 2440 2445 2450 2455 2461 2465 2471 2476 2481 2486 2492 2497 2502 2508 2513 2518 2523 2529 2534 2539 2544 :RAD 1 /3 2416 2432 2452 2466 2482 2497 2513 2529 2545 2564 2580 2596 2613 2630 2647 2662 2678 2695 2712 2733 :ENC 5 /5 1379 1405 1431 1457 1483 1508 1535 1562 1588 1615 1644 1671 :SW1 45 /60 0 0 :SW2 15 /60 60 60 :BAT 14 /15 12.4 :NAME 324DF524 /
0000050200
445
SXXX32 EUMS 111045 RRX
22BF90A6
:PRS 1 /1 1029 1024 1029 102/ 1034 103/ 104/ 1039 1450 1449 1036 1045 1060 1056 1048 :RA/ 1 /3 4225 4230 4234 4234 4237 4240 4242 4243 423/ 464/ :SW1 45 /60 60 :SW/ 15 /60 60 :WTP 15 /15 2/.7/:BAT 13 /15 13.9 :WAV 5 /10 6.6 6.0 6.5 :DAV 5 /10 102 107 51/ :WMX 5 /10 8.4 7.8 8.2 :TPA 15 '15 27.8 :TMN 645 /760 27.1/:TIX 645 /724 28.1 :HUM /5 /15 77.7 :PRA 15 /15 1/14.1 :RAC 44 /60 0.0 :RD/ 44 /60 0 :RIN 44 /60 0.0 :/AC 644 /1440 0.4 :DDR 644 /1440 330
00000000