0000099000
106
SAAK32 KWBC 102300
METAR
PABA 102301Z AUTO 27019KT 1SM -SN OVC022 M26/M29 A2986=
PABI 102253Z COR 00000KT 9SM -SN BKN060 BKN085 M17/M20 A2950=
PABI 102253Z 00000KT 9SM -SN OVC060 M17/M20 A2950=
PACZ 102255Z AUTO 06015G25KT 5SM BR FEW004 BKN031 BKN100 M06/M07
     A2943=
PADK 102256Z AUTO 23021G25KT 10SM FEW033 SCT039 BKN060 04/M01
     A2892=
PADL NIL=
PADQ 102253Z 21004KT 10SM SCT040 02/M04 A2944=
PAEH 102255Z AUTO 14021G25KT 1/2SM SN BR VV005 01/M01 A2934=
PAFB 102255Z 00000KT 7SM FEW001 FEW080 M24/M27 A2959=
PAGA 102258Z AUTO 00000KT 3SM HZ CLR M23/M27 A2969=
PAIM 102255Z AUTO 36001KT 10SM CLR M20/M25 A2958=
PALU 102255Z AUTO 05011KT 10SM OVC009 M18/M20 A3002=
PASV 102255Z AUTO 05002KT 10SM -SHSN FEW011 OVC032 M12/M13
     A2938=
PASY 102256Z 01027G33KT 2SM -SN BR SCT009 OVC012 00/00 A2880=
PATC 102255Z AUTO 03019KT 1/2SM FZFG VV002 M18/M20 A2975=
PATL 102255Z AUTO 10002KT 10SM -SHSN OVC014 M16/M17 A2954=
PBTI NIL=

0000017800
107
FTPA32 KWBC 102306
TAF
TAF NTAA 102300Z 1100/1206 05012KT 9999 FEW020 SCT110 PROB30
      TEMPO 1100/1103 5000 SHRA BKN015
      BECMG 1104/1106 VRB02KT=

0000022800
108
FTUS53 KWBC 102306 AAA
TAF AMD
KBJI 102305Z 1023/1118 17008KT 1SM BR OVC002
     FM110600 27009KT P6SM OVC007=
KRWL 102305Z 1023/1118 27025G46KT P6SM SCT025 BKN100
     FM110200 24027G36KT P6SM SCT070=

0000022800
109
FTUS80 KWBC 102306 AAA
TAF AMD
KBJI 102305Z 1023/1118 17008KT 1SM BR OVC002
     FM110600 27009KT P6SM OVC007=
KRWL 102305Z 1023/1118 27025G46KT P6SM SCT025 BKN100
     FM110200 24027G36KT P6SM SCT070=

0000152400
110
FTSR31 WSSS 102300
TAF WSSS 102300Z 1100/1206 01007KT 9999 FEW018CB SCT020
TEMPO 1106/1110 3000 TSRA SCT015CB BKN018=
TAF WSAP 102300Z 1100/1206 01007KT 9999 FEW018CB SCT020
TEMPO 1106/1110 3000 TSRA SCT015CB BKN018=
TAF WSSL 102300Z 1100/1206 01007KT 9999 FEW018CB SCT020
TEMPO 1106/1110 3000 TSRA SCT015CB BKN018=
TAF WAAA 102300Z 1100/1206 09004KT 7000 RA SCT019 BKN100
BECMG 1102/1104 32010KT 9000 NSW SCT020
TEMPO 1107/1110 6000 RA FEW017CB
TEMPO 1111/1113 12004KT 8000
BECMG 1202/1204 27010KT 9999=
TAF WABB 102300Z 1100/1206 23010KT 8000 SCT018
TEMPO 1104/1108 7000 -SHRA FEW017CB
BECMG 1111/1113 33006KT
TEMPO 1115/1119 FEW017CB=
TAF WADD 102300Z 1100/1124 27010KT 9999 SCT016
TEMPO 1105/1110 FEW015CB SCT015
TEMPO 1118/1123 VRB05KT 8000 -TSRA FEW015CB SCT015=
TAF WARR 102300Z 1100/1124 12008KT 9000 FEW020
TEMPO 1108/1111 29008KT 5000 -TSRA FEW020CB SCT020
BECMG 1112/1114 26005KT 7000
TEMPO 1120/1124 4000 HZ=
TAF WIHH 102300Z 1100/1124 33006KT 6000 SCT017
BECMG 1100/1101 22004KT FEW018
BECMG 1103/1104 30005KT SCT017
TEMPO 1108/1112 3000 TSRA FEW016CB SCT017
BECMG 1114/1116 00000KT 5000 HZ FEW018=
TAF WIII 102300Z 1100/1206 22005KT 5000 HZ FEW020
BECMG 1102/1104 26010KT 9000 SCT020
TEMPO 1106/1110 4000 TSRA FEW020CB SCT021 
BECMG 1112/1114 22005KT 7000 SCT020=
TAF WIMM 102300Z 1100/1124 25004KT 4000 HZ FEW016CB SCT017
BECMG 1102/1104 33008KT 7000 SCT017
TEMPO 1112/1116 5000 -RA BKN016
BECMG 1114/1116 26004KT 5000 HZ=

0000011700
111
SPAU32 YBBN 102305
SPECI YPGV 102300Z 12010KT 9999 4000SE SHRA BKN013 SCT060 OVC180
27/25 Q1008=

0000009300
112
SPUS42 KWBC 102306
SPECI
KMGM 102302Z 08003KT 1SM BR OVC002 12/11 A3004=

0000009800
113
SPUS42 KWBC 102306
SPECI
KSSI 102302Z AUTO 12009KT 2SM BR OVC002 17/17 A3010=

0000009600
114
SPUS43 KWBC 102306
SPECI
KPIA 102302Z 18014KT 5SM RA BR OVC006 04/03 A2963=

0000063400
115
SABZ41 KWBC 102300
METAR
SBAA NIL=
SBAF NIL=
SBAR 102300Z 11012KT 9999 SCT015 27/22 Q1013=
SBBG NIL=
SBBH NIL=
SBBI NIL=
SBBU NIL=
SBCJ NIL=
SBCO NIL=
SBCR 102300Z 26005KT 9999 SCT030 25/22 Q1008=
SBCT 102300Z 08005G16KT 8000 -TSRA SCT010 FEW025CB BKN050 22/19
     Q1017=
SBCV NIL=
SBCY 102300Z 18018KT 3000 TSRA BKN015 FEW020CB 26/19 Q1011=
SBCZ 102300Z 04005KT 9999 SCT020 BKN030 25/25 Q1007=
SBDN NIL=
SBFL 102300Z 36009KT 9999 FEW030 FEW035TCU 27/23 Q1011=
SBFN NIL=
SBGO 102300Z 10011KT 9999 TS SCT030 SCT035CB 26/15 Q1014=
SBGW NIL=
SBHT NIL=
SBIH NIL=
SBIL NIL=

0000086800
116
SABZ42 KWBC 102300
METAR
SBJR NIL=
SBLO 102300Z 05003KT 9999 FEW040 30/18 Q1012=
SBMA 102300Z 30001KT 9999 FEW020TCU 25/24 Q1010=
SBME NIL=
SBMN 102300Z 07008KT 4000 RA BKN017 BKN100 23/22 Q1011 RERA=
SBMO 102300Z 11007KT 9999 SCT020 25/22 Q1013=
SBMQ 102300Z 04004KT 9999 FEW017 26/23 Q1009=
SBMT NIL=
SBPC NIL=
SBPK 102300Z 35002KT CAVOK 21/20 Q1009=
SBPP NIL=
SBPV 102300Z 08004KT 9999 SCT023 28/24 Q1008=
SBRB 102300Z 18001KT 9999 FEW017 SCT100 ///// Q1007=
SBRJ 102300Z 18003KT 9999 FEW025 28/23 Q1011=
SBSC NIL=
SBSJ 102300Z 15003KT 9999 FEW025 FEW030TCU 24/15 Q1015=
SBSM NIL=
SBSP 102300Z 00000KT 5000 BR NSC 24/21 Q1017=
SBST NIL=
SBTE 102300Z 00000KT 9999 -RA SCT030 OVC070 26/23 Q1009 RETS=
SBTU NIL=
SBUG NIL=
SBUR NIL=
SBVH NIL=
SBVT 102300Z 06006KT 9999 FEW020 26/23 Q1015=
SBYS NIL=

0000058300
117
SABZ43 KWBC 102300
METAR
SBAN NIL=
SBAT NIL=
SBBA NIL=
SBBQ NIL=
SBBW NIL=
SBCC NIL=
SBER NIL=
SBES NIL=
SBGA NIL=
SBIZ NIL=
SBJF NIL=
SBJP 102300Z 13006KT 9999 FEW020 25/21 Q1013=
SBKG NIL=
SBLB NIL=
SBLP NIL=
SBMK NIL=
SBMS NIL=
SBMZ NIL=
SBPB 102300Z 08010KT 9999 FEW020 28/24 Q1010=
SBPJ NIL=
SBPL 102300Z 11001KT 9999 FEW023 25/22 Q1012=
SBPN NIL=
SBQV NIL=
SBRP 102300Z 07003KT 9999 FEW045 OVC100 23/21 Q1013 RETS=
SBTF 102300Z 00000KT 9999 FEW018 26/25 Q1009=
SBTK NIL=
SBUF NIL=
SBUI NIL=
SBUL NIL=

0000066800
118
SACA31 KWBC 102300
METAR
MBJT NIL=
MBPV 102300Z 08009KT 9999 SCT018 26/21 Q1018=
MBSC NIL=
MKJP 102300Z 13018KT 9999 FEW022 28/20 Q1014=
MKJS 102300Z 10008KT 9999 FEW022 27/25 Q1014=
MUCM 102250Z 08012KT 9000 FEW020 24/15 Q1017=
MUCU 102250Z 12014KT 9999 FEW020 27/20 Q1016=
MUHA 102255Z 18004KT 9000 FEW040 26/19 Q1016=
MUVR 102253Z 04008KT 9000 SCT030 25/22 Q1017=
MWCB 102300Z 10007KT 9999 FEW018 27/23 Q1015=
MWCR 102300Z 10006KT 9999 FEW018 27/24 Q1015 NOSIG=
MYAM NIL=
MYAT NIL=
MYBS NIL=
MYEC NIL=
MYEG NIL=
MYEH NIL=
MYEM NIL=
MYGF NIL=
MYGW NIL=
MYNN 102300Z 12007KT 9999 FEW018 BKN040 25/22 A3010=

0000113400
119
SACA32 KWBC 102300
METAR
MDLR 102300Z 07010KT 9999 FEW018 SCT070 25/22 Q1016=
MDPC 102300Z 10010KT 9999 FEW022 26/21 Q1017=
MDPP 102300Z 12007KT 9999 SCT020 26/22 Q1017=
MDSD 102300Z 07008KT 9999 FEW020 26/21 Q1016=
MDST 102300Z 11009KT 9999 SCT017 23/21 Q1017=
MTCH NIL=
MTPP 2300Z 08005KT 9000 FEW02429 1015/0 A2997=
MTPP 2300Z 08005KT 9000 FEW02429 1015.0 A2997=
TAPA 102300Z 08011KT 9999 SCT018 25/19 Q1016 NOSIG=
TIST 102253Z AUTO 09015G21KT 10SM FEW035 26/19 A3005 RMK AO2
     SLP177 T02560189 TSNO=
TISX 102253Z 07005KT 10SM OVC060 24/20 A3005 RMK AO2 SLP176
     T02440200=
TJBQ 102250Z 10015KT 10SM SCT030 26/ A3006 RMK RWY08 ATIS K=
TJMZ NIL=
TJNR 102253Z AUTO 06009G18KT 10SM OVC060 26/20 A3008 RMK AO2
     SLP187 T02610200 TSNO=
TJPS 102250Z 09005KT 10SM FEW030 SCT050 26/19 A3002=
TJSJ 102256Z 08010KT 10SM FEW023 SCT055 26/22 A3006 RMK AO2
     RAB01E22 SLP178 P0001 T02610217 $=
TKPK 102300Z 07017KT 9999 SCT021 25/19 Q1017=
TKPN 102300Z 10017KT 9999 FEW019 26/21 Q1016=
TQPF NIL=
TRPM NIL=
TUPJ 102300Z 09010KT 9999 FEW020 25/18 Q1018=
TUPW NIL=

0000062000
120
SACA33 KWBC 102300
METAR
TBPB 102300Z 05019KT 9999 SCT018 SCT036 25/20 Q1014 NOSIG=
TDPD 102300Z 10010KT 9999 SCT016 25/21 Q1016=
TDPR NIL=
TFFF 102300Z AUTO 05009KT 010V080 9999 FEW030 BKN037 BKN044 25/20
     Q1015=
TFFG NIL=
TFFJ NIL=
TFFR 102300Z 09006KT 060V120 9999 SCT023 24/19 Q1016 NOSIG=
TGPY 102300Z 09010KT 9999 SCT018 25/22 Q1013 NOSIG=
TGPZ NIL=
TLPC NIL=
TLPL NIL=
TNCA 102300Z 06013KT 9999 FEW018 26/22 Q1012 A2991=
TNCB NIL=
TNCC NIL=
TNCE NIL=
TNCM NIL=
TTCP NIL=
TTPP NIL=
TVSM NIL=
TVSU NIL=
TVSV 102300Z 08013KT 9999 SCT018 25/22 Q1015=

0000092500
121
SACA35 KWBC 102300
METAR
MGGI NIL=
MGPB 102300Z 03006KT 9999 FEW018 25/21 Q1012 A2988=
MGSJ 102300Z 22004KT 9000 SKC 29/22 Q1010 A2983 FU=
MHLC 102300Z 01002KT 9999 SCT024 BKN070 25/22 Q1012 A2991
     NOSIG=
MHLM 102300Z 01010KT 9999 SCT030 27/23 Q1012 A2989 NOSIG=
MHTG 102300Z 10004KT 9999 SCT030 25/15 Q1016 A3000 NOSIG=
MNPC 102300Z 08008KT 7000 BKN016 28/23 Q1010 HZ 76/=
MNPC 102300Z 08008KT 7000 BKN016 28/23 Q1010 HZ 76%=
MPBO NIL=
MPCH NIL=
MPDA NIL=
MPMG NIL=
MPSA NIL=
MPTO 102300Z 05006KT 9999 FEW020 29/20 Q1007 NOSIG=
MRLB 102300Z 08013KT CAVOK 30/17 A2976=
MRLM NIL=
MROC 102300Z 10012KT 9999 FEW030 25/12 A2993 NOSIG=
MRPV 102300Z 08016KT 9999 FEW035 23/14 A2996 NOSIG=
MSLP 102250Z 22004KT 160V270 CAVOK 30/18 Q1009 A2981=
MSSS 102250Z 22007KT CAVOK 28/20 Q1012 A2990=
MZBZ 102300Z 05007KT 9999 -RA FEW021 BKN045 25/22 A2993 Q1013
     NOSIG=

0000053600
122
SACA41 KWBC 102300
METAR
MKBK NIL=
MUBA NIL=
MUBY NIL=
MUCA NIL=
MUCL 102252Z 12007KT CAVOK 26/23 Q1016=
MUCM 102250Z 08012KT 9000 FEW020 24/15 Q1017=
MUCU 102250Z 12014KT 9999 FEW020 27/20 Q1016=
MUGM 102256Z 08011G16KT 9999 FEW030 27/21 A3001 RMK SLP162
     T02720206=
MUGT NIL=
MUHA 102255Z 18004KT 9000 FEW040 26/19 Q1016=
MUMO NIL=
MUMZ NIL=
MUNG NIL=
MUVR 102253Z 04008KT 9000 SCT030 25/22 Q1017=
MUVT NIL=
MYEF NIL=
MYSM NIL=
TABS NIL=
TAOA NIL=
TBBI NIL=
TDCF NIL=

0000023700
123
SAHA31 KWBC 102300
METAR
KQHA NIL=
MTCA NIL=
MTCH NIL=
MTEG NIL=
MTJA NIL=
MTJE NIL=
MTPP 2300Z 08005KT 9000 FEW02429 1015/0 A2997=
MTPP 2300Z 08005KT 9000 FEW02429 1015.0 A2997=
MTPX NIL=
MTTP NIL=

0000073600
124
SAJP31 KWBC 102300
METAR
RJAA 102300Z 32004KT 9999 FEW025 M03/M06 Q1024 NOSIG=
RJAH 102300Z VRB01KT 9999 FEW020 M04/M07 Q1024=
RJCC 102300Z 22006KT 9999 VCSH FEW015 SCT050 M10/M13 Q1018=
RJCH 102300Z 30007KT 3200 -SHSN FEW004 SCT015 BKN020 M06/M08
     Q1020=
RJFK 102300Z 29004KT 9999 FEW035 BKN050 02/M06 Q1030=
RJFT 102300Z 08003KT 050V120 9999 FEW050 BKN060 01/M04 Q1030=
RJFU 102300Z 11005KT 080V150 9999 FEW040 SCT050 BKN070 04/01
     Q1031=
RJNN NIL=
RJOO 102300Z 33008KT 9999 FEW025 01/M06 Q1029=
RJSS 102300Z 23008KT 9999 FEW020 M01/M07 Q1023=
RJTT 102300Z 03008KT 9999 FEW030 02/M06 Q1024 NOSIG=
RODN 102258Z AUTO 06008KT 10SM SCT080 11/08 A3035 RMK AO2 SLP286
     T01060075=

0000054500
125
SAJP41 KWBC 102300
METAR
RJAF NIL=
RJAI NIL=
RJAK NIL=
RJAM NIL=
RJAO NIL=
RJAT NIL=
RJAW NIL=
RJBD 102300Z 35009KT 9999 FEW030 03/M02 Q1028=
RJCA NIL=
RJCB 102300Z 16003KT 9999 FEW040 BKN050 M13/M19 Q1015=
RJCJ NIL=
RJCK 102300Z 23005KT 9999 PRFG FEW001 M09/M17 Q1015=
RJCM 102300Z 23004KT 200V270 4500 -SHSN FEW005 SCT020 BKN040
     M12/M14 Q1015=
RJCN NIL=
RJCO NIL=
RJCR NIL=
RJCT NIL=
RJCW NIL=
RJDB NIL=
RJDC 102300Z 00000KT 9999 -SHRA FEW020 SCT030 BKN040 04/M01
     Q1030=

00000000