0000053900
466
FTUS80 KWBC 110015 AAA
TAF AMD
KFYV 110014Z 1100/1124 19009KT P6SM BKN025 OVC080
      TEMPO 1100/1102 VRB20G30KT 1SM TSRA BKN030CB
     FM110200 26008KT P6SM OVC250
     FM111800 28013G21KT P6SM SKC=
KHYR 110011Z 1100/1124 19005KT 3SM -FZDZ BR OVC004
      TEMPO 1100/1104 1SM -FZDZSN BR OVC003
     FM110400 20005KT 2SM -SN BR OVC003
     FM111600 26004KT 3SM BR OVC009=
KXNA 110013Z 1100/1124 24007KT P6SM VCTS SCT020CB OVC024
     FM110200 26008KT P6SM OVC250
     FM111800 28013G21KT P6SM SKC=

0000009100
467
SPUS42 KWBC 110015
SPECI
KHOU 110011Z 19008KT 10SM OVC014 21/18 A2982=

0000009700
468
SPUS42 KWBC 110015
SPECI
KHSV 110011Z 14004KT 9SM SCT012 OVC027 11/08 A2998=

0000009800
469
SPUS43 KWBC 110015
SPECI
KMKC 110011Z 26005KT 10SM FEW009 OVC016 05/03 A2956=

0000075600
470
SACI31 ZBBB 110030
METAR ZBAA 110030Z 35002MPS CAVOK M10/M19 Q1032 NOSIG=
ZBSJ NIL=
METAR ZBTJ 110030Z 11001MPS 0400 R16R/0800N FZFG NSC M09/M10
Q1032
BECMG TL0130
0600=
METAR ZBYN 110030Z 00000MPS 6000 NSC M09/M19 Q1029 NOSIG=
METAR ZGGG 110030Z 08003MPS 050V110 4000 HZ NSC 13/08 Q1025 NOSIG=
METAR ZSHC 110030Z 08001MPS 4000 -RA BR FEW010 BKN030 05/03
Q1031 NOSIG=
METAR ZSPD 110030Z 06004MPS 9999 -RA SCT030 07/02 Q1032 NOSIG=
METAR ZSSS 110030Z 07004MPS 040V100 9999 OVC033 07/01 Q1032 NOSIG=
ZWSH NIL=
METAR ZWWW 110030Z 00000MPS 0600 R25/0800N FZFG BKN005 M22/M25 Q1036
NOSIG=
METAR ZYTL 110030Z 00000MPS 3000 BR NSC M02/M06 Q1032 NOSIG=
METAR ZYTX 110030Z 14002MPS 5000 FU NSC M12/M17 Q1031 NOSIG=

0000011000
471
SPCN31 CWAO 110035
SPECI CYZX 110035Z 22007KT 12SM -SHSN OVC013 RMK SC8 WNDY HILL
UNAVBL=

0000009500
472
SPCN46 CWAO 110036
SPECI CYBN 110036Z AUTO 16009KT 5/8SM OVC001 01/01 A3001=

0000025300
473
SANZ31 NZKL 110030
METAR NZAA 110030Z AUTO 22010KT 9999 OVC047/// 21/12 Q1019 NOSIG=
METAR NZWN 110030Z AUTO 34011KT 9999 NCD 21/11 Q1016 NOSIG=
METAR NZCH 110030Z AUTO 07010KT 020V100 9999 OVC022/// 17/12 Q1016
          NOSIG=

0000024300
474
FTCN34 CWAO 110000 AAA
TAF AMD CYQW 110035Z 1100/1112 VRB03KT P6SM FEW050 SCT090 TEMPO
     1100/1103 3SM BR PROB30 1100/1102 1SM BR
    FM110300 29007KT P6SM FEW080
    RMK FCST BASED ON AUTO OBS. NXT FCST BY 110600Z=

0000010600
475
SAUK37 EGGY 110020 RRA
METAR EGPI 110020Z AUTO 28015KT 9999 BKN042/// 05/03 Q1008 RERA=

0000010000
476
SAUK38 EGGY 110020 RRA
METAR EGPU 110020Z AUTO 27014KT 9999 NCD 04/01 Q1006 RERA=

0000004200
477
SASP36 LEMM 110030
NIL=

0000053000
478
FTAE33 VTBB 102300 RRA
TAF VLLB 102300Z 1100/1118 00000KT 1000 BCFG OVC006 TEMPO
         1105/1110 7000 SCT017 BKN050=
TAF VLLN 102300Z 1100/1118 00000KT 0200 FG VV/// TEMPO 
         1105/1110 7000 SCT010 SCT040 BKN100=
TAF VLPS 102300Z 1100/1118 36002KT 3000 BR SCT050 BKN200 TEMPO
         1105/1110 9999 NSC=
TAF VLSK 102300Z 1100/1118 09002KT 3000 BR SCT040 SCT100 TEMPO
         1105/1110 9999 SCT100=
TAF VLVT 102300Z 1100/1118 14002KT 2000 BR NSC TEMPO
         1105/1110 8000 FEW050=

0000009800
479
SANL33 EHDB 110025 RRA
METAR EHJR 110025Z AUTO 22027G30KT  09/07 Q1010 W10/H18=

0000010200
480
SANL33 EHDB 110025 RRB
METAR EHSC 110025Z AUTO 22025G28KT 9999 06/06 Q1014 W08/H16=

0000010200
481
SANL33 EHDB 110025 RRC
METAR EHSA 110025Z AUTO 21025G28KT 9999 08/06 Q1014 W09/H18=

0000011000
482
SPUS31 KWBC 110015
SPECI
KLGA 110011Z 05005KT 1SM R04/P6000FT -DZ BR OVC005 01/M01 A3034=

0000009900
483
SACR31 LEMM 110030 RRA
METAR GCTS 110030Z 35007KT 9999 FEW035 16/10 Q1017 NOSIG=

0000033200
484
SAAL31 DAAA 110030
METAR DAAG 110030Z 04001KT 9999 FEW030 SCT080 12/07 Q1016=
METAR DAAT 110030Z 31002KT CAVOK 15/M02 Q1022=
METAR DABB 110030Z NIL=
METAR DABC 110030Z NIL=
METAR DAON 110030Z NIL=
METAR DAOO 110030Z 00000KT 9999 FEW026 SCT100 11/06 Q1015=
METAR DAUH 110030Z 05008KT CAVOK 12/07 Q1020=

0000011100
485
SACN62 CYVO 101800
METAR CYVO 101800Z 19010KT 6SM BR OVC008 M07/M09 A3003 RMK ST8
 SLP198=

00000000