0000028600
646
FTSA42 KWBC 102333
TAF
TAF SCSE 102200Z 1100/1124 28010KT CAVOK TX22/1118Z TN14/1110Z
      BECMG 1101/1103 29004KT
      BECMG 1103/1105 BKN010
      TEMPO 1108/1112 03004KT 3000 BR OVC008
      BECMG 1114/1116 SCT013
      BECMG 1116/1118 28010KT CAVOK=

0000148400
647
FTUS52 KWBC 102333
TAF
KCSM 102331Z 1100/1124 28008KT P6SM SCT120
     FM111800 31012KT P6SM SKC=
KDRT 102331Z 1100/1124 VRB03KT P6SM BKN250
     FM110300 32004KT P6SM SCT250
     FM111800 34006KT P6SM SKC=
KGAG 102331Z 1100/1124 28010KT P6SM FEW120=
KGLH 102331Z 1100/1124 15012KT P6SM BKN025 OVC045
     FM110200 18015KT 4SM -SHRA BR BKN015 OVC030
     FM110400 18017KT 3SM TSRA BR OVC007CB
     FM110800 26012KT 4SM -DZ BR OVC009
     FM111200 28011KT P6SM SCT035
     FM111400 28016G23KT P6SM SKC=
KGWO 102331Z 1100/1124 16011KT P6SM BKN045 OVC060
     FM110300 17014KT 4SM -SHRA BR BKN025 OVC040
     FM110500 18015KT 3SM TSRA BR OVC007CB
     FM110900 25010KT 4SM -DZ BR OVC008
     FM111300 28011KT P6SM SCT035
     FM111600 28012G20KT P6SM SKC=
KHBR 102331Z 1100/1124 28008KT P6SM SCT120
     FM111800 31012KT P6SM SKC=
KHKS 102331Z 1100/1124 16010KT P6SM BKN017 OVC045
     FM110300 15012KT 4SM -SHRA BR OVC009
     FM110600 18015KT 1SM TSRA BR OVC004CB
     FM111000 26009KT 4SM -DZ BR OVC007
     FM111400 29010KT P6SM SCT020
     FM111600 27013G20KT P6SM SKC=
KJAN 102331Z 1100/1124 16010KT P6SM SCT015 BKN045
     FM110300 15012KT 4SM -SHRA BR BKN015 OVC040
     FM110600 18015KT 1SM TSRA BR OVC004CB
     FM111000 26009KT 4SM -DZ BR OVC007
     FM111400 29010KT P6SM SCT020
     FM111600 27013G20KT P6SM SKC=
KLAW 102331Z 1100/1124 29006KT P6SM SCT120
     FM111800 30011KT P6SM SKC=

0000046500
648
FTUS52 KWBC 102333 RRA
TAF
KMEI 102331Z 1100/1124 14005KT P6SM OVC006
     FM110200 17009KT P6SM BKN015 OVC045
     FM110500 17011KT 4SM -SHRA BR OVC009
     FM110800 18014KT 1SM TSRA BR OVC003CB
     FM111100 25009KT 4SM -DZ BR OVC007
     FM111500 29011KT P6SM SCT250
     FM111700 29014G21KT P6SM SKC=
KPNC 102331Z 1100/1124 27008KT P6SM SCT120=
KSPS 102331Z 1100/1124 33015KT P6SM FEW150
     FM110100 29008KT P6SM SCT120=

0000025400
649
FTUS53 KWBC 102333 RRA
TAF
KSLN 102330Z 1100/1124 29011KT P6SM SCT025 OVC035
      TEMPO 1100/1104 5SM -RASN BKN025
     FM110400 30008KT P6SM SCT025 BKN100
     FM110500 30007KT P6SM SCT250
     FM111600 31015G22KT P6SM SKC=

0000146500
650
FTUS53 KWBC 102333
TAF
KALO 102332Z 1100/1124 VRB04KT 1SM BR OVC004
     FM110200 27008KT 2SM -SN BR BKN008 OVC015
     FM110600 28009KT 4SM BR SCT010 OVC018
     FM111000 30011KT P6SM SCT015 BKN035
     FM111700 30014G20KT P6SM BKN080=
KBRD 102331Z 1100/1124 19009KT 2SM BR OVC004
      TEMPO 1100/1104 1SM BR OVC003
     FM110400 24004KT 1 1/2SM BR OVC002
     FM111500 29008KT P6SM OVC011=
KCNU 102330Z 1100/1124 30012KT P6SM SCT035
     FM110400 31010KT P6SM SCT025 BKN035
     FM110500 31010KT P6SM SCT015 OVC025
     FM111000 28011KT P6SM SCT025
     FM111400 29012KT P6SM SKC=
KHIB 102331Z 1100/1124 17005KT 5SM BR OVC005
      TEMPO 1100/1103 1SM -SN BR OVC002
     FM110600 30003KT 3SM -SN BR OVC004
     FM111300 30008KT P6SM OVC011=
KHUT 102330Z 1100/1124 32010KT P6SM FEW035
      TEMPO 1101/1105 BKN025
     FM110500 30008KT P6SM SCT025
     FM110600 30007KT P6SM SCT250
     FM111600 31012G20KT P6SM SKC=
KMCW 102332Z 1100/1124 14003KT 1SM BR VV003
     FM110200 22005KT 2SM -SN BR BKN005 OVC008
     FM110500 25006KT 6SM BR SCT004 OVC009
     FM110800 28011KT P6SM SCT011 OVC024
     FM111100 30013KT P6SM BKN035 OVC080
     FM111600 30016G24KT P6SM OVC100=
KRSL 102330Z 1100/1124 31012KT P6SM SCT025 OVC040
      TEMPO 1100/1102 5SM -RASN SCT015 BKN025
     FM110200 29008KT P6SM SCT025 BKN100
     FM110400 29007KT P6SM SCT250
     FM111500 31015G22KT P6SM SKC=

0000070800
651
SAFR36 LFPW 102330
METAR LFBA 102330Z AUTO 07002KT 9000 NSC 05/05 Q1015=
METAR LFBE 102330Z AUTO 08004KT 4200 BR NSC 04/04 Q1015=
METAR LFGJ 102330Z AUTO 07004KT 6000 NSC 03/02 Q1017=
METAR LFJR 102330Z AUTO 05003KT 3800 -RA BR NSC 07/06 Q1015=
METAR LFMD 102330Z AUTO 00000KT 9999 SCT020 OVC026 10/08 Q1020=
METAR LFMH 102330Z AUTO 15014KT 4000 BR NSC 06/05 Q1016=
METAR LFOT 102330Z 07005KT 9000 NSC 06/06 Q1015 NOSIG=
METAR LFPN 102330Z AUTO VRB03KT 0400 R25///// FG VV/// 05/05 Q1016=
METAR LFRC 102330Z AUTO 18009KT 4800 BR OVC003 07/06 Q1015=
METAR LFRG 102330Z AUTO 18009KT 9000 OVC048 05/05 Q1016=
METAR LFRK 102330Z AUTO 16008KT 6000 BKN045 OVC052 06/05 Q1016=

0000071700
652
SAFR37 LFPW 102330
METAR LFAQ 102330Z AUTO 18009KT 5000 BR OVC006 04/03 Q1017=
METAR LFAT 102330Z AUTO 16006KT 5000 BR FEW005 03/02 Q1016=
METAR LFLN 102330Z AUTO 00000KT 9000 NSC 04/03 Q1016=
METAR LFPM 102330Z AUTO 08005KT 0250 FG VV/// 06/05 Q1017=
METAR LFPT 102330Z AUTO VRB02KT 3800 BR OVC006 06/04 Q1017=
METAR LFRH 102330Z AUTO VRB02KT 0900 0500 R25/1700N R07/1100D FG
BKN046 BKN078 OVC088 08/07 Q1016=
METAR LFRQ 102330Z AUTO 00000KT 0150 R28/0450D FG VV/// 08/07 Q1016=
METAR LFRT 102330Z AUTO 22003KT 190V250 6000 NSC 07/07 Q1015=
METAR LFSD 102330Z AUTO 33004KT 9999 NSC 03/01 Q1017=
METAR LFTW 102330Z AUTO 09002KT 7000 OVC028 10/05 Q1020=
METAR LFBU 102330Z NIL=

0000053100
653
SASP31 LEMM 102330
METAR LEMD 102330Z 02002KT CAVOK 08/04 Q1016 NOSIG=
METAR LEBL 102330Z 33007KT 5000 BR SCT025 10/06 Q1019 NOSIG=
METAR LEPA 102330Z 03001KT CAVOK 10/09 Q1017 NOSIG=
METAR LEZL 102330Z 00000KT CAVOK 10/09 Q1015 NOSIG=
METAR LEMG 102330Z 29003KT 7000 SCT020 12/10 Q1016 NOSIG=
METAR LEVC 102330Z VRB01KT 6000 BKN030 11/09 Q1018 NOSIG=
METAR LEAL 102330Z VRB02KT 8000 FEW015 10/09 Q1017 NOSIG=
METAR LEIB 102330Z NIL=
METAR LEVX 102330Z VRB01KT 6000 NSC 08/08 Q1016 TEMPO 3000 BR=

0000052900
654
SASP32 LEMM 102330
METAR LEAS 102330Z NIL=
METAR LEBB 102330Z NIL=
METAR LECO 102330Z VRB02KT 0500 R21/0450D R03/0800D FG VV001
07/06 Q1018=
METAR LEGE 102330Z 00000KT 6000 OVC018 08/07 Q1018=
METAR LEST 102330Z VRB02KT 8000 NSC 07/07 Q1017 TEMPO 3000 BR=
METAR LEZG 102330Z VRB02KT 1500 BR BKN002 BKN006 06/06 Q1017=
METAR LESO 102330Z NIL=
METAR LEVT 102330Z 24001KT 6000 NSC 03/03 Q1017=
METAR LERS 102330Z NIL=
METAR LEMH 102330Z NIL=
METAR LEAM 102330Z NIL=
METAR LEGR 102330Z NIL=

0000013500
655
SASP33 LEMM 102330
METAR LEVD 102330Z NIL=
METAR LEVS 102330Z NIL=
METAR LESA 102330Z 00000KT CAVOK 01/00 Q1016=

0000028700
656
SACR31 LEMM 102330
METAR GCLP 102330Z 02008KT 9999 FEW020 17/12 Q1017 NOSIG=
METAR GCXO 102330Z NIL=
METAR GCTS 102330Z 35008KT 9999 FEW030 16/11 Q1017 NOSIG=
METAR GCRR 102330Z 36006KT 9999 FEW020 14/10 Q1017=
METAR GCFV 102330Z NIL=
METAR GCLA 102330Z NIL=

0000008800
657
SASP39 LEMM 102330
METAR LETL 102330Z AUTO 23001KT CAVOK 04/01 Q1017=

0000019300
658
SASP34 LEMM 102330
METAR LEDA 102330Z NIL=
METAR LEJR 102330Z NIL=
METAR LELL 102330Z NIL=
METAR LEPP 102330Z NIL=
METAR LEXJ 102330Z VRB01KT 9999 BKN039 10/08 Q1017=

0000093300
659
FTAM31 FCBB 102300
TAF FCBB 102300Z 1100/1206 22004KT 7000 FEW010 BECMG 1112/1114 SCT023
         FEW030CB PROB30 TEMPO 1117/1119 TS BECMG 1120/1121 FEW013=
TAF FEFF 102300Z 1100/1206 VRB02KT CAVOK TEMPO 1104/1107 3000 BR=
TAF FKKD 102300Z 1100/1206 00000KT 8000 SCT016 FEW020CB TEMPO
         1104/1108 2000 BR BKN013 FEW020CB PROB30 0900 FG PROB30
         TEMPO 1109/1116 5000 HZ TEMPO 1204/1206 2000 BR=
TAF FOOL NIL=
TAF FZAA 102200Z 1100/1106 00000KT 8000 SCT016 BECMG 1108/1110
         23004KT -RA BKN018 FEW028CB BECMG 1112/1114 30008KT 9999
         SCT023 FEW030CB TEMPO 1115/1121 TS BECMG 1102/1204 00000KT
         9999 BKN016=
TAF FGSL 102300Z 1100/1206 24006KT 6000 SCT013 TEMPO 1110/1116
         BKN013 FEW020CB PROB30 TS BECMG 1122/1204 BKN010 FEW020CB=
TAF FPST 102200Z 1100/1206 23003KT 9999 FEW020CB SCT040 PROB30 TEMPO
         1108/1112 TS BKN033=
TAF FNLU NIL=

0000166700
660
SPUS70 KWBC 102334
SPECI
KDYL 102330Z AUTO 04004KT 1 3/4SM UP BR OVC002 M01/M01 A3031 RMK
     AO2 UPB18 P0001 I1000 T10061006=
KHVN 102330Z 00000KT 1 1/2SM R02/5500VP6000FT BR OVC004 02/01
     A3035 RMK AO2=
KJXN 102330Z 15012KT 3SM BR OVC003 03/02 A2983 RMK AO2
     T00280022=
KLFK 102330Z AUTO 19009G17KT 3SM -RA BR BKN013 BKN020 OVC025 19/17
     A2978 RMK AO2 RAB03 P0004=
KLUK 102330Z VRB04KT 10SM BKN019 OVC024 09/07 A2993 RMK AO2
     T00890067=
KRST 102330Z 11005KT 1 1/4SM -SN SCT016 OVC035 M01/M02 A2955 RMK
     AO2 P0001 T10111022=
KRSW 102330Z 10005KT 5SM -RA BR FEW021 SCT039 OVC100 22/21 A3008
     RMK AO2 RAB10 P0012 T02220211=
K1M4 102331Z AUTO 15007KT 10SM FEW007 BKN015 OVC032 10/09 A2999
     RMK AO2 BKN V SCT=
KCXO 102331Z 17006KT 10SM SCT009 BKN020 OVC028 18/18 A2980 RMK AO2
     RAE22 P0004=
KDCA 102331Z 06005KT 1 1/2SM -RA BR BCFG OVC010 03/02 A3030 RMK
     AO2 BCFG NE P0002=
KEYE 102331Z AUTO 17004KT 1 1/2SM -RA BR OVC003 05/04 A2984 RMK
     AO2 P0004 T00500044=
KHQM 102331Z AUTO 16008KT 2 1/2SM -RA BKN015 BKN021 OVC041 A2995
     RMK AO2 P0003 TSNO $=
KIAH 102331Z 19008KT 10SM BKN012 OVC020 21/18 A2981 RMK AO2=
KLLQ 102331Z AUTO 15008G14KT 9SM -RA OVC003 13/12 A2976 RMK AO2
     P0000=
KOMA 102331Z 32004KT 3SM BR BKN015 OVC023 01/M01 A2957 RMK AO2
     SNE25 P0000 T00061006=
KOTM 102331Z AUTO 18005KT 3/4SM BR FEW003 OVC007 01/01 A2952 RMK
     AO2 T00110006 TSNO=
KRSL 102332Z AUTO 30012KT 9SM -RA BKN011 BKN015 OVC020 02/01 A2960
     RMK AO2 P0002 T00220006=
KTYR 102331Z 18013KT 10SM SCT007 BKN013 OVC020 17/16 A2973 RMK
     AO2=

0000011500
661
SAHK31 VHHH 102300 RRA
METAR RPLI 102300Z
09002KT 8000 HZ FEW019 SCT300 18/16 Q1016 RMK A3000=

0000009500
662
SAHK31 VHHH 102330
METAR VHHH 102330Z 07009KT 7000 FEW028 14/11 Q1025 NOSIG=

0000010000
663
SPUS43 KWBC 102332
SPECI
KBDE 102328Z AUTO 17007KT 6SM BR OVC009 M04/M05 A2943=

0000022500
664
SACZ31 LKPW 102330
METAR LKKV 102330Z NIL=
METAR LKMT 102330Z 22009KT CAVOK 01/M02 Q1018 NOSIG=
METAR LKPR 102330Z 23012KT CAVOK 03/00 Q1018 NOSIG=
METAR LKTB 102330Z VRB03KT CAVOK 02/M01 Q1019 NOSIG=

0000039400
665
SAHK31 VHHH 102330
METAR VHHH 102330Z 07009KT 7000 FEW028 14/11 Q1025 NOSIG=
METAR RCTP 102330Z 07006KT 010V110 9999 FEW020 17/13 Q1024 NOSIG
RMK A3026=
METAR RCKH 102330Z 10004KT 9000 4000E FEW016 16/13 Q1024 NOSIG RMK
A3025=
METAR RCSS 102330Z 11005KT 9999 FEW030 15/12 Q1025 NOSIG RMK A3028
=
METAR VMMC 102330Z 03009KT 360V060 6000 FEW025 15/11 Q1024 NOSIG=

00000000