0000010900
374
UANT01 CWAO 110802
ARP THY12 5346N04124W 0802 F330 MS57 304/43 KT
TCJJO QXT AOW 110802 F14A
0000011000
375
UANT01 CWAO 110802
ARP ETH500 5545N03336W 0802 F320 MS59 214/57 KT
ETAPX QXT AOE 110802 F29A
0000011000
376
UANT01 CWAO 110802
ARP KLM256 5009N04453W 0802 F370 MS62 317/54 KT
PHAOD QXT AOW 110802 J91A
0000011000
377
UANT01 CWAO 110802
ARP DLH405 5206N02909W 0802 F370 MS54 203/59 KT
DABVN QXT EUA 110802 F08A
0000011100
378
UANT01 CWAO 110802
ARP UAL982 4641N04147W 0802 F350 MS58 321/66 KT
N229UA DDL XXW 110802 F33A
0000015700
379
SSVX13 LFPW 110800
ZZYY 44612 11014 0800/ 745770 045351 6113/ 11119 40216 57003 22219
 00040 444 20130 11014 0800/ 50101 80154 80000 9/015=
0000015700
380
SSVX13 LFPW 110800
ZZYY 16593 11014 0800/ 338657 079052 6113/ 11119 40207 52001 22219
 00148 444 20130 11014 0758/ 50101 80120 80016 9/015=
0000014000
381
SNRE20 FMEE 110800
AAXX 11084
61980 22565 30923 10308 20210 40145 81102
  333 58002 60005 81828 83076 90710 91131 92437=
0000013600
382
SNVF25 LFPW 110800
BBXX
A8MA9 11084 99422 10290 41997 03510 10110 20068 40235 52/// 702//
80000
22285 20601 80090=
0000042600
383
SSVX08 KARS 110801
ZZYY 56055 10014 1200/ 324741 099973 6111/
11119 10225 29079
22219 00233
33311 88872 20000 32330 20001 32315 43521 20020 32309 43531
20040 32301 43533 20060 32197 43556 20080 32090 20120 31951
20140 31909 20180 31811 20300 31469 20500 31030
444 20110 10014 1208/ 521//=
ZZYY 56055 11014 0700/ 324740 099986 6112/
11119 10226 29081
22219 00233
444 20120 11014 0617/ 521//=
0000011000
384
UANT01 CWAO 110802
ARP AAL80 5304N02932W 0802 F380 MS56 214/52 KT
N761AJ DDL XXW 110802 F35A
0000013600
385
UAPA01 KWBC 110803
ARP N400ES 3106N 13208W 0750 F360 MS48 271/040KT=
ARP UAL177 1712N 14249E 0755 F400 MS54 237/011KT=
0000009900
386
SNVX22 EDZW 110800
SATLINK DATA BUFFER EMPTY NSB III 62087 TIME 2014/01/11 08:01:17
0000014600
387
SAUK39 EGRR 110750 RRA
METAR EGDR 110750Z 01005KT 9999 FEW045 04/02 Q1018 BLU=
METAR EGUO 110750Z 27005KT CAVOK 03/03 Q1018 BLU=
0000060500
388
FTSA85 EGRR 110758
TAF SBGL 110730Z 1112/1218 02005KT CAVOK TX35/1117Z TN24/1208Z
     BECMG 1114/1116 06007KT FEW020
     BECMG 1117/1119 12010KT
     BECMG 1122/1124 10005KT
     BECMG 1206/1208 06005KT
     BECMG 1210/1212 02005KT
     BECMG 1213/1215 06008KT BE CMG 1216/1218 13010KT
     RMK PGV=
TAF SBSJ 110730Z 1112/1212 35005KT 9999 FEW020 TX34/1117Z TN19/1208Z
     BECMG 1113/1115 10005KT SCT025
     BECMG 1117/1119 08005KT
     PROB30 1118/1122 TS SCT020 FEW025CB
     BECMG 1122/1124 14005KT FEW020
     BECMG 1203/1205 00000 KT 7000
     RMK PGV=
0000165700
389
SASA85 EGRR 110800 RRA
METAR SBAR 110800Z 10007KT 9999 SCT015 25/20 Q1013=
METAR SBBE 110800Z 07002KT 9999 SCT020 BKN100 24/22 Q1009=
METAR SBBR 110800Z 00000KT 9999 FEW030 SCT070 20/14 Q1018=
METAR SBCF 110800Z 10004KT 9999 FEW030 20/17 Q1018=
METAR SBCY 110800Z 33004KT 9999 FEW020 SCT100 24/21 Q1011=
METAR SBEG 110800Z 09007KT 9999 SCT010 BKN025 22/20 Q1010=
METAR SBFL 110800Z 20006KT 9999 BKN040 22/21 Q1012=
METAR SBFN 110800Z 10009KT 9999 SCT021 24/20 Q1012=
METAR SBMN 110800Z 03004KT 9999 FEWBKN100 22/21 Q1010=
METAR SBNT 110800Z 13006KT 9999 SCT022 25/21 Q1012=
METAR SBPA 110800Z 07002KT CAVOK 20/20 Q1010=
METAR SBPV 110800Z 07005KT 5000 2000S -RA SCT006 BKN012 BKN070 23/22
      Q1010=
METAR SBRB 110800Z 09001KT 9999 FEW020 SCT100 ///// Q1010=
METAR SBRF 110800Z 23003KT 9999 SCT025 SCT060 24/21 Q1012=
METAR SBSJ 110800Z 00000KT CAVOK 20/18 Q1015=
METAR SBSP 110800Z 02003KT CAVOK 24/17 Q1017=
METAR SGAS 110800Z 00000KT CAVOK 25/23 Q1008=
METAR SGES 110800Z 00000KT CAVOK 24/21 Q1009=
METAR SKBO 110800Z 05004KT 9999 BKN015 10/09 A3025=
METAR SKBQ 110800Z 04014KT CAVOK 26/23 A2982=
METAR SKCG 110800Z 00000KT CAVOK 24/2 A2980=
METAR SKCL 110800Z 00000KT 9999 FEW020 BKN090 21/19 A2992=
METAR SKRG 110800Z 00000KT 6000 VCFG BKN010 SCT070 14/14 A3024 RMK
      VCFG/N/S=
METAR SKSP 110800Z 08015KT 9999 SCT017 27/24 A2987=
METAR SMJP 110800Z 06007KT 99999 -SHRA FEW008 SCT030 23/22 Q1012 NOSIG=
METAR SUMU 110800Z 18019G29KT 9999 BKN020 21/18 Q1011 NOSIG=
METAR SVBC 110800Z 00000KT 9999 FEW010 22/20 Q1013=
METAR SVMG 110800Z /////KT 9999 SCT010 24/22 Q1013 NOSIG=
0000008900
390
SAIN90 VOBZ 110800
METAR VOBZ 110800Z 15002KT 4000 HZ SCT020 30/18 Q1013=
0000009200
391
SAIN90 VOCI 110800
METAR VOCI 110800Z 33003KT 5000 HZ NSC 32/19 Q1010 NOSIG=
0000053100
392
SAKO31 RKSI 110800
METAR RKSI 110800Z 21004KT 9999 SCT030 BKN180 01/M13 Q1031 NOSIG=
METAR RKSS 110800Z 28005KT 9999 SCT030 BKN150 01/M18 Q1030 NOSIG =
METAR RKPC 110800Z 35003KT 9999 FEW030 SCT160 06/M06 Q1030 NOSIG =
METAR RKPK 110800Z 28004KT CAVOK 05/M08 Q1029 NOSIG =
METAR RKTU 110800Z 26005KT 9999 SCT040 BKN230 01/M12 Q1031 NOSIG =
METAR RKTN 110800Z 31012KT CAVOK 04/M09 Q1029 NOSIG =
METAR RKJB 110800Z 35008KT 9999 FEW035 BKN180 04/M05 Q1031 NOSIG =
METAR RKNY 110800Z 25011KT CAVOK 02/M18 Q1026 NOSIG =

0000011500
393
SAIN90 VEGY 110730 CCA
METAR VEGY 110730Z 09007KT 1300 BR FEW010 BKN018 OVC080 17/16 Q1016 NOSIG =

00000000