0000011900
166
SACN62 CYBW 102200
METAR CYBW 102200Z 29007KT 30SM FEW060 OVC120 M02/M09 A2950 RMK
 SC1AC7 SLP039=

0000010500
167
SACN62 CYBR 102200
METAR CYBR 102200Z 28013KT 8SM OVC008 M09/M10 A2939 RMK ST8 SLP987=

0000056500
168
SAKO31 RKSI 102200
METAR RKSI 102200Z 06004KT 6000 FEW030 M05/M06 Q1032 NOSIG=
METAR RKSS 102200Z 32002KT 2500 1100W BR FEW030 M07/M09 Q1032 
           NOSIG =
METAR RKPC 102200Z 02007KT 9999 BKN030 04/M05 Q1033 NOSIG =
METAR RKPK 102200Z 26001KT 9000 NSC M02/M07 Q1032 NOSIG =
METAR RKTU 102200Z 02001KT 4000 BR SCT040 M08/M08 Q1033 NOSIG =
METAR RKTN 102200Z 00000KT 9999 FEW050 M05/M09 Q1032 NOSIG =
METAR RKJB 102200Z 23003KT 6000 SCT030 M02/M04 Q1033 NOSIG =
METAR RKNY 102200Z 26019KT CAVOK M02/M11 Q1028 WS ALL RWY NOSIG =

0000012500
169
SACN62 CYBK 102200
METAR CYBK 102200Z 00000KT 15SM FEW020 FEW210 M30/M35 A2970 RMK
 SC1CI1 CI TR SLP060=

0000012700
170
SACN62 CYCG 102200
METAR CYCG 102200Z 18009KT 15SM FEW018 BKN055 OVC180 03/01 A2983 RMK
 SC1SC6AC1 SLP116=

0000010400
171
SACN62 CYCS 102200
METAR CYCS 102200Z 29015KT 15SM DRSN SKC M32/M36 A2968 RMK SLP051=

0000010400
172
SAMX34 MMMD 102200
METAR MMTP 102202Z RTD 27006KT 10SM  FEW250 29/22 A2985 RMK 8/002=

0000011700
173
SAAF13 LFPW 102200
METAR GLRB 102200Z 00000KT 9000 FEW014  FEW024 CB 26/25 Q1012
RMK CB-S, BRVC=

0000014700
174
SAAF17 LFPW 102200
METAR HLLB 102148Z
00000KT 9999 SCT020 BKN080 15/12 Q1025 =
METAR HLLT 102150Z 17004KT CAVOK 11/07 Q1024=

0000016300
175
SAAF18 LFPW 102200
METAR FIMP 102200Z 10004KT 9999 SCT017 BKN050 26/24 Q1016=
METAR FMMI 102200Z VRB01KT 9999 FEW017 SCT230 18/18 Q1020 NOSIG=

0000010200
176
SAAF27 LFPW 102200
METAR FGSL 102200Z 25004KT 6000 FEW012 SCT130 25/22 Q1012 NOSIG=

0000013500
177
SACN62 CYDA 102200
METAR CYDA 102200Z 00000KT 20SM FEW050 SCT080 BKN100 M21/M24 A2950
 RMK SC1AC3AS4 SC TR SLP032=

0000017100
178
FTPA31 PHFO 102200 AAA
TAF PHJH 102206Z 1022/1118 03013KT P6SM FEW025 SCT045
     FM110600 05008KT P6SM FEW025 SCT045
      AMD NOT SKED AFT 110400=

0000099800
179
SARA34 RUMS 102200
METAR UNAA 102200Z 22005MPS CAVOK M04/M09 Q1029 NOSIG RMK QFE749
20090040=
METAR UNBB 102200Z 21006MPS 9999 -SN DRSN BKN015 M09/M11 Q1030 NOSIG
RMK QFE750/1000 24400545=
METAR UNEE 102200Z 19005MPS 3200 -SN OVC010 M08/M09 Q1026 NOSIG RMK
QFE747 23451050=
METAR UNKL 102200Z 20003MPS 9999 -SHSN SCT033CB BKN083 M07/M12 Q1026
NOSIG RMK QFE743 29////55=
METAR UNNT 102200Z 21006MPS 9000 -SHSN DRSN FEW021 OVC047CB M07/M10
Q1027 25390139 16390136 NOSIG RMK QFE760/1014=
METAR UNOO 102200Z 21006MPS 6000 -SHSN BLSN SCT018 BKN033CB M06/M08
Q1022 25390137 NOSIG RMK QFE758=
METAR UNTT 102200Z 21008MPS 1500 SHSN SCT004 BKN021CB OVC066 M06/M08
Q1024 NOSIG RMK QBB130 QFE752 21390032=
METAR USTR 102200Z 18004MPS 150V210 9999 -SHSN BKN012CB OVC050
M04/M04 Q1012 TEMPO 1500 SHSN BKN005 RMK QFE750/1000 21390050
12750029=
METAR USHH 102200Z 03003MPS 9999 -SN BKN006 OVC080 M21/M24 Q1016
TEMPO 2000 SN BKN005 RMK QBB190 QFE758 06////37=

0000051200
180
SARS33 RUMS 102200
METAR ULLI 102200Z 35006MPS 310V020 9999 -SNRA SCT010 OVC016 M00/M01
Q0985 28620245 78////// NOSIG RMK 28L/35006G10MPS=
METAR UUBW 102200Z 19005MPS 9999 OVC007 04/02 Q0988 NOSIG=
METAR UUDD 102200Z 22003MPS 180V250 9999 OVC007 04/03 Q0988 64290195
NOSIG=
METAR UUDL 102200Z NIL=
METAR UUEE 102200Z 20003MPS 8000 OVC012 03/03 Q0986 75290151 25290151
NOSIG=
METAR UUWW 102200Z 21004MPS 9999 BKN016 OVC100 03/02 Q0987 24290045
NOSIG=
METAR UUMO 102200Z NIL=

0000021300
181
SACG21 FCBB 102200
METAR FCBB 102200Z 24003KT 7000 NSC 24/23 Q1012 NOSIG=
METAR FCPP 102200Z 15003KT 9999 FEW010 BKN023 27/24 Q1011 NOSIG=
METAR FCPD NIL=
METAR FCOU NIL=
METAR FCOI NIL=

0000041200
182
SARA33 RUMS 102200
METAR UIAA 102200Z VRB02MPS 9999 FEW100 M24/M28 Q1024 NOSIG RMK
QFE709 29CLRD70=
METAR UIBB 102200Z 08002MPS 5000 BR FEW003 M23/M25 Q1028 TEMPO 0300
FG VV002 RMK QFE727/0970 30490240=
METAR UIII 102200Z 00000MPS CAVOK M19/M21 Q1031 NOSIG RMK QFE728/0971
30490340=
METAR UIUU 102200Z 21001MPS 5000 -SN SCT033 OVC100 M14/M16 Q1028
NOSIG RMK QFE726/0968 26450545=

0000072100
183
SARS36 RUMS 102200
METAR ULAA 102200Z 08008G11MPS 2200 -BLSN OVC006 M18/M20 Q1002 TEMPO
0600 SN BLSN OVC005 RMK QBB200 QFE751/1001 SC050=
METAR ULMM 102200Z 00000MPS 9999 BKN003 M34/M38 Q1017 NOSIG RMK
QBB110 OBST OBSC QFE755 31450239=
METAR ULOO 102200Z 30007MPS 4400 BR OVC004 01/01 Q0983 19290055 NOSIG
RMK QBB130 OBST OBSC QFE734=
METAR ULPB 102200Z AUTO 01006MPS 1300 NCD M09/M10 Q0989=
METAR UMKK 102200Z 31005MPS 270V360 9999 BKN024CB OVC100 04/00 Q1004
R24/29//60 NOSIG RMK QFE752/1003=
METAR UUOO 102200Z 20006MPS 8000 -RA OVC004 02/01 Q0997 NOSIG RMK
12290250=
METAR UUYY 102200Z 04003MPS 2900 -SN BKN010 OVC066 M15/M17 Q1004
TEMPO 1000 SN BR 0145//33 RMK QFE744/0992=

0000016500
184
SATH41 VTBB 102200
METAR VTPB 102200Z NIL=
METAR VTPM 102200Z NIL=
METAR VTSE 102200Z NIL=
METAR VTSK 102200Z NIL=
METAR VTUJ 102200Z NIL=

0000046400
185
SAAE33 VTBB 102200
METAR VVTS 102200Z 05001KT 9999 FEW017 SCT040 22/21 Q1012 NOSIG =
METAR VVNB 102200Z 31004KT 2600 BR FEW020 BKN050 15/11 Q1020 NOSIG=
METAR VVDN 102200Z NIL=
METAR VVPB 102200Z 28006KT 3000 -RA BR SCT015 BKN050 19/18 Q1019
NOSIG=
METAR VVCR 102200Z 35006KT 9999 FEW017 24/18 Q1016 NOSIG=
METAR VVCT 102200Z 09001KT 8000 FEW015 BKN040 22/20 Q1012 NOSIG=
METAR VVPQ 102200Z 05004KT 010V080 CAVOK 25/19 Q1012 NOSIG=

00000000