0000025900
446
SACR31 LEMM 110300
METAR GCLP 110300Z 35007KT 9999 FEW020 14/10 Q1016 NOSIG=
METAR GCXO 110300Z NIL=
METAR GCTS 110300Z 36006KT 9999 FEW035 15/10 Q1016 NOSIG=
METAR GCRR 110300Z NIL=
METAR GCFV 110300Z NIL=
METAR GCLA 110300Z NIL=

0000011400
447
SACN61 CYQA 110300
METAR CYQA 110300Z AUTO 14009G15KT 3/4SM BR VV003 00/00 A2993 RMK
 SLP151=

0000012000
448
SACN61 CYPY 110300
METAR CYPY 110300Z AUTO 27005KT 9SM -SN BKN023 OVC041 M18/M20 A2955
 RMK SLP033=

0000022700
449
SASP35 LEMM 110300
METAR LEAB 110300Z 13005KT 7000 OVC008 07/06 Q1017 NOSIG=
METAR LEBZ 110300Z NIL=
METAR LELC 110300Z NIL=
METAR LELN 110300Z NIL=
METAR LETO 110300Z VRB01KT CAVOK 06/05 Q1016 NOSIG=

0000004200
450
SACR32 LEMM 110300
NIL=

0000011000
451
SASP39 LEMM 110300
METAR LETL 110300Z AUTO 16003KT 130V200 3500 HZ FEW070/// 04/03
Q1017=

0000019600
452
SAPM31 MPTO 110300
METAR
MPBO 110300Z NIL=
MPDA 110300Z 00000KT CAVOK Q1010=
MPMG 110300Z VRB02KT 9999 FEW020 25/23 Q1011 NOSIG=
MPPA  110300Z 36006KT 9999 FEW030 Q1011=

0000008300
453
SABZ18 SBGR 110300
METAR SBGR 110300Z 09002KT CAVOK 21/18 Q1017=

0000010600
454
SACN62 CYQI 110300
METAR CYQI 110300Z 23009KT 6SM BR OVC010 03/02 A3035 RMK SF8 SLP280=

0000014300
455
SACN62 CYQK 110300
METAR CYQK 110300Z 18005KT 3/4SM -SN BR OVC000 M05/M06 A2938 RMK ST8
 VIS VRB 1/2-1 CIG VRB 1-3 SLP975=

0000010600
456
SACN62 CYQL 110300
METAR CYQL 110300Z 17008KT 15SM BKN080 M02/M05 A2969 RMK AC7 SLP088=

0000012500
457
SACN62 CYQR 110300
METAR CYQR 110300Z 00000KT 1/4SM R13/1400FT/N FZFG SKC M09/M10 A2954
 RMK FG7 SLP043=

0000158200
458
SPUS70 KWBC 110304
SPECI
KAFN 110301Z AUTO 00000KT 6SM BR OVC004 00/M01 A3027 RMK AO2
     T00001011=
KFOK 110300Z 00000KT 1 1/4SM -RA BR SCT002 BKN009 OVC014 04/03
     A3030 RMK AO2 P0001=
KHDO 110300Z AUTO 29003KT 3/4SM BR CLR 12/11 A2989 RMK AO2
     T01220106=
KLLQ 110300Z AUTO 26005KT 3SM RA BR FEW007 OVC015 16/14 A2974 RMK
     AO2 P0002=
KMFI 110300Z AUTO 05003KT 3SM BR FEW005 BKN009 OVC037 M02/M02
     A2947 RMK AO2 T10171022=
KMIC 110300Z 00000KT 1/2SM FZFG OVC003 M01/M02 A2950 RMK AO2=
KMMK 110300Z AUTO 00000KT 3/4SM BR VV008 01/00 A3030 RMK AO2
     T00060000 TSNO=
KSMQ 110300Z AUTO 35003KT 1SM -RA BR OVC007 01/00 A3026 RMK AO2
     P0001 T00110000 TSNO=
K2DP 110301Z AUTO 14008KT 12SM BKN025 BKN140 BKN180 18/16 A3022
     RMK AO2 CIG 025V140=
KTDR 110259Z AUTO 15010G16KT 2 1/2SM BR OVC003 17/ A3007 RMK AO2
     VIS 2 1/2V12 $=
KAUW 110301Z AUTO 00000KT 2SM -SN BR SCT015 OVC041 M02/M03 A2947
     RMK AO2 P0000 T10221028=
KBOS 110301Z 13003KT 1 3/4SM BR OVC006 01/00 A3032 RMK AO2=
KDEQ 110301Z AUTO 30009G23KT 3SM RA BR FEW010 SCT049 BKN070 15/14
     A2972 RMK AO2 LTG DSNT NE AND SW P0001 T01500139=
KMGJ 110301Z AUTO 00000KT 1 1/2SM BR OVC005 00/M01 A3027 RMK AO2
     T00001011 TSNO=
KOTM 110301Z AUTO 25008KT 2SM BR OVC002 01/01 A2953 RMK AO2 VIS
     3/4V5 T00110006 TSNO=
KRHI 110301Z AUTO 09003KT 2 1/2SM -SN BR BKN007 BKN010 OVC024
     M04/M04 A2949 RMK AO2 P0000 T10391044=
KUZA 110301Z AUTO VRB03KT 1 1/4SM -RA BR OVC002 06/06 A3012 RMK
     AO2 P0000 T00610056=

0000010500
459
SPUS41 KWBC 110304
SPECI
KCEF 110259Z AUTO 29003KT 6SM BR BKN004 OVC009 00/00 A3030=

0000010300
460
SACN61 CYQW 110300
METAR CYQW 110300Z AUTO 30006KT 9SM CLR M12/M13 A2956 RMK SLP054=

0000013800
461
SACN61 CYTE 110300
METAR CYTE 110300Z AUTO 27012KT 9SM CLR M23/M26 A2949 RMK MAX WND
 26017KT AT 0212Z PRESRR SLP992=

0000012100
462
SACN61 CYTL 110300
METAR CYTL 110300Z AUTO 11004KT 080V140 5SM -SN OVC014 M08/M09 A2950
 RMK SLP007=

0000010200
463
SACN62 CYRT 110300
METAR CYRT 110300Z 32005KT 15SM IC SKC M33/M37 A2974 RMK SLP077=

0000011900
464
SACN62 CYSJ 110300
METAR CYSJ 110300Z 26003KT 15SM BKN009 OVC040 M03/M05 A3029 RMK
 SC6SC2 SLP263=

0000011800
465
SACN62 CYUL 110300
METAR CYUL 110300Z 01005KT 8SM BKN025 OVC038 M07/M09 A3020 RMK SC5SC3
 SLP230=

00000000