0000076200
506
SANO39 ENMI 102220
METAR ENNE 102220Z NIL=
METAR ENQR 102220Z AUTO 07011KT 050V110 9999NDV -SHRA BKN031///
           04/M03 Q0998 W///S/=
METAR ENSE 102220Z AUTO 07018KT 9999NDV FEW026/// SCT030/// BKN042///
           03/M02 Q0998 W///S5=
METAR ENQC 102220Z AUTO 05010KT 9999NDV FEW039/// BKN048/// 05/M01
           Q0998 W///S5=
METAR ENQA 102220Z AUTO 07012KT 9999NDV FEW019/// SCT027/// BKN040///
           04/01 Q0998 W04/S5=
METAR ENHM 102220Z AUTO 26023KT 9999NDV FEW022/// 07/04 Q0998
           W08/S4=
METAR ENVH 102220Z AUTO 25020KT 4800NDV -SHRA BR BKN010/// BKN035///
           07/06 Q1005 W///S4=
METAR ENLA 102220Z AUTO 26023KT 9999NDV FEW009/// BKN030/// BKN063///
           08/07 Q1003 W///S4=

0000059600
507
SAIY32 LIIB 102220
METAR LIBD 102220Z 24003KT 7000 NSC 07/07 Q1022=
METAR LIBR 102220Z NIL=
METAR LICC 102220Z NIL=
METAR LICJ 102220Z 17003KT 110V210 CAVOK 12/09 Q1021=
METAR LIPE 102220Z 08002KT 0500 R12/1200V1800U FG VV/// 07/07
Q1022=
METAR LIPH 102215Z /////KT 1500 BR SCT020 BKN035 06/05 Q1022=
METAR LIPQ 102220Z 00000KT 2000 BR SCT009 BKN015 09/06 Q1021=
METAR LIPR 102215Z /////KT 6000 BKN040 09/09 Q1021=
METAR LIPX 102215Z 00000KT 1000 R04/P1500D BR SCT010 BKN045 08/06
      Q1022=
METAR LIPZ 102220Z VRB01KT 2500 BR SCT020 BKN050 08/07 Q1022=

0000004200
508
SAIY33 LIIB 102220
NIL=

0000008700
509
SAIY32 LIIB 102220 RRA
METAR LICC 102220Z 27011KT CAVOK 10/07 Q1021=

0000054300
510
SANO32 ENMI 102220
METAR ENAL 102220Z 05009KT 9999 FEW024 BKN036 M01/M06 Q1000=
METAR ENCN 102220Z AUTO VRB02KT 7000NDV OVC013/// 02/01 Q1001 RESG=
METAR ENHD 102220Z AUTO 25010KT 4400NDV -SHRA FEW004/// SCT009///
           BKN014/// 06/05 Q0999=
METAR ENRO 102220Z AUTO 08007KT 7000NDV -SN SCT003/// BKN006///
           BKN010/// M14/M17 Q0997=
METAR ENRY 102220Z AUTO VRB03KT 9999NDV SCT150/// 02/M00 Q0998=
METAR ENSB 102220Z NIL=
METAR ENTC 102220Z NIL=
METAR ENTO 102220Z 24005KT CAVOK 01/M00 Q0997=

0000019100
511
SANO34 ENMI 102220
METAR ENBN 102220Z NIL=
METAR ENBV 102220Z NIL=
METAR ENFG 102220Z NIL=
METAR ENHF 102220Z NIL=
METAR ENRA 102220Z NIL=
METAR ENSH 102220Z NIL=

0000019200
512
FTCN33 CWAO 102200 AAA
TAF AMD CYBB 102225Z 1022/1024 24025G35KT 2SM IC BLSN BKN020 TEMPO
     1022/1024 6SM IC SCT020 BKN090
    RMK NXT FCST WILL BE ISSUED AT 111745Z=

0000031500
513
FTCN31 CWAO 102200 AAA
TAF AMD CYBL 102225Z 1022/1105 12008KT P6SM FEW008 BKN030 OVC180
     TEMPO 1022/1024 P6SM -SHRA SCT008 BKN020
    FM110000 13010KT P6SM -RA SCT006 OVC015 TEMPO 1100/1105 2SM -SHRA
     BR SCT003 OVC006
     BECMG 1100/1102 13015G30KT
    RMK NXT FCST BY 110100Z=

0000100100
514
FTBZ42 KWBC 102227
TAF
TAF SBLO 102210Z 1106/1118 33005KT CAVOK TN22/1108Z TX28/1112Z
      BECMG 1108/1110 9999 FEW030
      BECMG 1113/1115 SCT030 FEW040TCU RMK PEL=
TAF SBPK 102210Z 1106/1206 21012KT 9999 SCT005 BKN015 TN20/1108Z
      TX27 /1117Z PROB30
      TEMPO 1106/1115 30008KT 4000 TSRA BR SCT012 BKN012 FEW030CB
      P
      ROB40 1115/1120 3000 RA BR SCT006 BKN010
      BECMG 1202/1204 8000 SCT015 RMK P EL=
TAF SBPP 102210Z 1106/1206 30008KT 9999 FEW025 TN21/1108Z
      TX30/1117Z
      BECMG 1114/1116 SCT025 FEW030TCU PROB40
      TEMPO 1118/1124 8000 TSRA BKN025 F EW030CB
      BECMG 1200/1202 FEW025 PROB30 1202/1206 3000 BR SCT008
      BKN012
      RMK PE L=
TAF SBUG 102210Z 1106/1206 21008KT 9999 SCT006 BKN020 TN23/1108Z
      TX27 /1117Z PROB30
      TEMPO 1106/1115 30008KT 3000 TSRA BR SCT008 BKN012 FEW030CB
      P
      ROB40 1115/1120 3000 RA BR SCT006 BKN010
      BECMG 1202/1204 SCT015 BKN020 RMK PEL=

0000013200
515
FTPA32 KWBC 102227
TAF
TAF NVVV 102220Z 1100/1124 11009KT 9999 BKN020
      INTER 1100/1106 9000 SHRA BKN018=

0000090000
516
FTSA32 KWBC 102227
TAF
TAF SLCB 102200Z 1100/1124 00000KT 9999 FEW027 TX29/1119Z
      TN11/1110Z
      BECMG 1115/1117 27010KT=
TAF SLLP 102200Z 1100/1124 08005KT 9999 FEW015 FEW017CB TX16/1120Z
      TN05/1110Z
      BECMG 1103/1106 4000E VCFG FEW002 SCT012 BKN070
      BECMG 1111 /1114 14006KT 9999 NSW FEW015 SCT070
      TEMPO 1116/1119 7000 VCTSSH SCT017 FEW020CB=
TAF SLTJ 102200Z 1100/1124 00000KT 9999 FEW030 TX29/1119Z
      TN14/1110Z
      BECMG 1117/1119 15010KT SCT030 SCT070=
TAF SLTR 102200Z 1100/1124 00000KT 9999 FEW015 TX31/1119Z
      TN23/1110Z
      BECMG 1113/1116 33008KT FEW017 PROB40
      TEMPO 1118/1121 7000 SHRA SCT017 FEW020CB=
TAF SLVR 102200Z 1100/1124 33008KT 9999 NSC TX33/1119Z TN23/1110Z
      TEMPO 1109/1112 BKN005
      BECMG 1115/1118 34020G30KT BKN020 BKN070
      TEMPO 1119/1123 8000 SHRA FEW030CB=

0000078800
517
FTSA41 KWBC 102227
TAF
TAF SKBG 102200Z 1100/1124 VRB02KT 9999 FEW017 SCT200
      TEMPO 1100/1104 32008KT FEW015
      TEMPO 1109/1112 7000 MIFG SCT010
      TEMPO 1117/1123 32006KT FEW018 PROB40 1120/1123 SCT015
      TX25/1118Z TN18/1111Z=
TAF SKPE 102200Z 110024 VRB02KT 9999 SCT015 SCT090 PROB40
      1100/1104
      8000 DZRA SCT015TCU
      TEMPO 1108/1112 4000 BR DZ SCT010
      TEMPO 1117/1123 25006KT SCT018TCU PROB40 1119/1122
      8000 DZRA
      SCT017CB TX25/1119Z TN17/1111Z=
TAF SKPE 102200Z 1100/1124 VRB02KT 9999 SCT015 SCT090 PROB40
      1100/1104 8000 DZRA SCT015TCU
      TEMPO 1108/1112 4000 BR DZ SCT010
      TEMPO 1117/1123 25006KT SCT018TCU PROB40 1119/1122 8000 DZRA
      SCT017CB TX25/1119Z TN17/1111Z=

0000021300
518
FTUS54 KWBC 102227 AAA
TAF AMD
KACV 102225Z 1022/1118 26005KT 3/4SM BR OVC002
      TEMPO 1022/1101 2SM BR
     FM110100 VRB04KT 2SM BR OVC002
     FM110700 16012G22KT 4SM -RA BR OVC015=

0000030200
519
FTUS80 KWBC 102227 AAA
TAF AMD
KACV 102225Z 1022/1118 26005KT 3/4SM BR OVC002
      TEMPO 1022/1101 2SM BR
     FM110100 VRB04KT 2SM BR OVC002
     FM110700 16012G22KT 4SM -RA BR OVC015=
KJCT 102225Z 1022/1118 23012G18KT P6SM SCT120 BKN250
     FM110000 VRB03KT P6SM SKC=

0000027100
520
SADL36 EDZO 102220
METAR ETMN 102220Z 24011KT 9999 FEW009 SCT018 BKN230 05/04 Q1012
      BLU+=
METAR ETNL 102220Z 25007KT 7000 -SHRA FEW004 BKN010 05/04 Q1012
      GRN=
METAR ETSI 102220Z AUTO 18002KT 0350 // ////// M02/M02 Q1020
      ///=

0000086100
521
SANL33 EHDB 102225
METAR EHAK 102225Z AUTO 22024KT 9999 FEW007/// SCT031/// BKN036///
07/06 Q1006=
METAR EHDV 102225Z AUTO 23020KT 9999 NSC 08/06 Q1008=
METAR EHFD 102225Z AUTO 24025KT 9999 FEW007/// 08/07 Q1008=
METAR EHFZ 102225Z AUTO 22022KT //// // ///////// 08/07 Q1010 RE//=
METAR EHJA 102225Z AUTO 22022KT 9999 NSC 08/06 Q1010=
METAR EHJR 102225Z NIL=
METAR EHKV 102225Z AUTO 24028KT 9999 FEW010/// SCT013/// BKN016///
10/07 Q1011=
METAR EHMA 102225Z AUTO 22016KT 9999 BKN004/// BKN006/// OVC007///
07/07 Q1012=
METAR EHMG 102225Z AUTO 23027KT 9999 FEW021/// SCT030/// BKN038///
09/07 Q1011=
METAR EHPG 102225Z AUTO ///30KT 9999 FEW006/// BKN009/// BKN010///
08/07 Q1012=
METAR EHQE 102225Z AUTO 22027KT 9999 FEW008/// SCT010/// BKN014///
09/07 Q////=
METAR EHSA 102225Z NIL=
METAR EHSC 102225Z NIL=

0000009700
522
SPCN31 CWAO 102227
SPECI CYQG 102227Z 17009KT 4SM BR SCT008 OVC037 RMK SF3SC5=

0000008900
523
SASG20 GOOY 102230
METAR GOOY 102230Z 36010KT CAVOK 20/14 Q1014 NOSIG=

0000009900
524
SAMF20 TFFR 102230
METAR COR TFFR 102230Z 08007KT 9999 SCT023 25/19 Q1016 NOSIG=

0000046600
525
SARH31 LDZM 102230
METAR LDSP 102230Z 00000KT 9999 FEW025 SCT040 12/10 Q1023 =
METAR LDPL 102230Z VRB02KT 9999 FEW017 BKN058 11/09 Q1021 NOSIG =
METAR LDDU 102230Z 01005KT 330V050 9999 BKN045 12/07 Q1022 =
METAR LDZA 102230Z 00000KT 0500 R05/0800U R23/0350V0700D FG FEW003
FEW048 03/03 Q1021 TEMPO 0200 =
METAR LDZD 102230Z 11003KT 9999 OVC060 09/08 Q1022 =
METAR LDRI 102230Z NIL=
METAR LDOS 102230Z 08006KT 0700 FG NSC 03/03 Q1022=

00000000