0000009700
886
SAAK32 KWBC 102200 RRC
METAR
PADL 102245Z 36007KT 10SM BKN015 M03/M03 A2947=

0000009200
887
SARM31 LUKK 102300
METAR LUBL 102300Z AUTO 24009KT 9999 NCD 02/M02 Q1013=

0000011800
888
SAMR20 TFFF 102300
METAR TFFF 102300Z AUTO 05009KT 010V080 9999 FEW030 BKN037 BKN044
25/20 Q1015=

0000010000
889
SASR31 WSSL 102300
METAR WSSL 102300Z 33005KT CAVOK 25/24 Q1010 RMK 2230Z Q1010 =

0000065600
890
FTSQ31 LZIB 102300
TAF LZIB 102300Z 1100/1124 29005KT CAVOK
    PROB30 TEMPO 1100/1107 VRB02KT 4000 MIFG NSC
    BECMG 1108/1110 13005KT 9999 SCT030 BKN060
    TEMPO 1112/1120 7000 -RA SCT022 OVC035
    BECMG 1118/1120 30010KT=
TAF LZKZ 102300Z 1100/1124 VRB02KT 2300 BR BKN003
    TEMPO 1100/1106 0200 FG OVC001
    BECMG 1108/1110 5000 BR SCT015
    BECMG 1110/1112 23007KT 9999 FEW018 BKN030
    PROB40 TEMPO 1116/1124 6000 -RA SCT010 OVC022=
TAF LZTT 102300Z 1100/1124 27012KT 9999 SCT040
    BECMG 1100/1102 26007KT
    BECMG 1108/1110 27010KT BKN035
    PROB30 TEMPO 1114/1120 27013KT -RASN SCT010 OVC030=

0000021100
891
SABU31 LBSM 102300
METAR LBSF 102300Z 26003MPS 4600 BR NSC M00/M00 Q1022 NOSIG=
METAR LBWN 102300Z 28004MPS CAVOK 07/03 Q1018 NOSIG=
METAR LBBG 102300Z 26004MPS 8000 NSC 03/03 Q1019 NOSIG=

0000020800
892
SASQ31 LZIB 102300
METAR LZIB 102300Z 16001KT CAVOK 02/M00 Q1021=
METAR LZKZ 102300Z 00000KT 0200 R01/0400N FG OVC001 M00/M00 Q1018=
METAR LZTT 102300Z 28010KT 9999 FEW043 01/M05 Q1016=

0000022100
893
SASQ41 LZIB 102300
METAR LZPP 102300Z AUTO 02003KT 310V070 9999 // FEW095/// 01/M02
Q1020=
METAR LZSL 102300Z VRB01KT 9999 SCT055 01/M03 Q1019=
METAR LZZI 102300Z VRB01KT 9999 BKN053 02/M01 Q1019=

0000015300
894
SABU32 LBSM 102300
METAR LBPD 102300Z 34005MPS 290V020 CAVOK 09/03 Q1020 NOSIG=
METAR LBGO 102300Z 36003MPS CAVOK 06/01 Q1021 NOSIG=

0000008900
895
SAHU31 LHBM 102300
METAR LHBP 102300Z 18004KT CAVOK 02/01 Q1021 NOSIG=

0000009900
896
SASR31 WSAP 102300
METAR WSAP 102300Z 01006KT 9999 
FEW018 BKN300 25/23 Q1010=

0000009400
897
SABZ19 SBMA 102300
METAR SBMA 102300Z 30001KT 9999 FEW020TCU 25/24
Q1010=

0000008900
898
SABZ21 SBFZ 102300
METAR SBFZ 102300Z 07009KT 9999 SCT020 27/21 Q1011=

0000009500
899
SAAG31 KWBC 102200 RRC
METAR
SAZM 102200Z 09005KT 9999 FEW025 21/11 Q1008=

0000009200
900
SAEG31 HECA 102300
METAR HECA 102300Z 25003KT 6000 NSC 13/10 Q1023 NOSIG=

0000014900
901
SAGC31 MWCR 102300
METAR MWCR 102300Z 10006KT 9999 FEW018 27/24 Q1015 NOSIG=
METAR MWCB 102300Z 10007KT 9999 FEW018 27/23 Q1015=

0000015600
902
SPUS70 KWBC 102258
SPECI
KBED 102254Z 22005KT 7SM OVC012 01/00 A3034 RMK AO2=
KAGS 102255Z 00000KT 9SM BR OVC006 09/09 A3013 RMK AO2=

0000009000
903
SPUS41 KWBC 102258
SPECI
KBED 102254Z 22005KT 7SM OVC012 01/00 A3034=

0000086100
904
SANL33 EHDB 102255
METAR EHAK 102255Z AUTO 23025KT 9999 SCT029/// BKN033/// BKN041///
07/06 Q1006=
METAR EHDV 102255Z AUTO 23019KT 9999 NSC 08/06 Q1008=
METAR EHFD 102255Z AUTO 24024KT 9999 FEW008/// 08/07 Q1008=
METAR EHFZ 102255Z AUTO 22023KT //// // ///////// 08/07 Q1010 RE//=
METAR EHJA 102255Z AUTO 22022KT 9999 NSC 08/06 Q1009=
METAR EHJR 102255Z NIL=
METAR EHKV 102255Z AUTO 24028KT 9999 SCT010/// SCT012/// BKN015///
09/07 Q1011=
METAR EHMA 102255Z AUTO 21020KT 9000 FEW005/// BKN006/// BKN008///
07/06 Q1012=
METAR EHMG 102255Z AUTO 23028KT 9999 FEW010/// SCT032/// BKN039///
09/07 Q1011=
METAR EHPG 102255Z AUTO ///30KT 9999 FEW006/// SCT008/// BKN009///
09/07 Q1012=
METAR EHQE 102255Z AUTO 21029KT 9999 FEW006/// SCT008/// BKN012///
09/07 Q////=
METAR EHSA 102255Z NIL=
METAR EHSC 102255Z NIL=

0000011500
905
SABZ22 SBBR 102300
METAR SBBR 102300Z 10006KT 9999 VCTS SCT030
FEW040CB SCT100 21/15 Q10
16=

00000000