0000147600
846
SIAU23 AMMC 110900
AAXX 11094
94500 NIL=
94510 46/// /1009 10279 20175 39781 40120=
94515 46/// /1606 10288 20142 39785 40126=
94552 46/// /0912 10261 20132 39685 40143=
94578 46/// /0707 10245 20169 30155 40166=
94584 46/// /1115 10230 20179 30046 40155=
94601 46/// /1418 10237 20191 30131 40148=
94610 46/// /1711 10429 20051 30066 40089=
94637 46/// /1109 10371 20024 39717 40133=
94638 46/// /1217 10230 20157 30150 40182=
94642 NIL=
94643 NIL=
94647 46/// /1412 10203 20151 30093 40202=
94651 46/// /1520 10206 20154 30121 40197=
94653 46/// /1719 10204 20142 30167 40185=
94659 46/// /1411 10382 21006 39937 40127=
94672 46/// /1415 10227 20105 30177 40187=
94691 46/// /1511 10361 20063 39814 40133=
94693 46/// /2009 10358 20022 30078 40139=
94700 NIL=
94703 46/// /1606 10345 20083 30002 40124=
94710 46/// /1708 10335 20075 39884 40130=
94729 46/// /2110 10271 20085 39312 40143=
94750 46/// /1306 10245 20165 30029 40151=
94767 46/// /0417 10253 20183 30144 40150=
94776 46/// /0608 10251 20176 30140 40150=
94791 NIL=
94802 46/// /1017 10236 20156 30095 40176=
94804 46/// /1623 10179 20144 30168 40206=
94821 46/// /1913 10174 20127 30135 40217=
94842 46/// /2313 10160 20141 30114 40213=
94847 NIL=
94850 46/// /2313 10156 20125 30153 40198=
94865 46/// /1813 10171 20122 30182 40206=
94866 46/// /1711 10179 20115 30062 40201=
94875 46/// /1913 10291 20103 30007 40138=

0000163100
847
SIAU24 AMMC 110900
AAXX 11094
94893 46/// /2722 10160 20127 30062 40177=
94907 46/// /2613 10225 20070 30170 40180=
94910 46/// /2705 10326 20106 39884 40127=
94926 46/// /0814 10267 20108 39488 40143=
94935 46/// /2107 10191 20135 30146 40172=
94951 46/// /0511 10173 20142 30100 40115=
94954 46/// /2421 10145 20121 30075 40185=
94956 46/// /3109 10155 20123 30153 40179=
94975 46/// /2919 10226 20016 30080 40112=
94983 46/// /3212 10176 20145 30098 40123=
94995 46/// /1106 10201 20146 30185 40193=
94996 46/// /1109 10194 20123 30047 40175=
94997 NIL=
94998 46/// /2728 10039 20018 39865 49875=
95111 46/// /2706 10320 20227 30012 40048=
95205 46/// /3313 10343 20250 30038 40045=
95322 NIL=
95448 46/// /1510 10413 21034 39541 40087=
95458 46/// /1312 10398 20010 39859 40113=
95480 46/// /1712 10401 20085 30053 40110=
95481 46/// /1315 10381 20070 30061 40104=
95482 46/// /1415 10389 20066 30031 40085=
95485 46/// /1115 10353 20082 39923 40121=
95492 46/// /1111 10351 20102 39967 40116=
95527 46/// /1706 10297 20113 39883 40130=
95634 46/// /1108 10407 20017 39721 40111=
95637 46/// /1109 10372 21009 39812 40138=
95646 46/// /1317 10286 20093 39993 40178=
95666 NIL=
95719 46/// /2104 10294 20123 39814 40136=
95762 46/// /1307 10275 20079 39685 40130=
95826 46/// /1912 10170 30214 40216=
95839 46/// /1919 10257 20082 30021 40177=
95864 46/// /1918=
95909 NIL=
95954 NIL=
95966 46/// /2712 10249 20052 39921 40118=
96995 46/// /0905 10271 20219 39782 40076=
96996 31562 51412 10294 20225 30080 40084 56025 70311 85800=

0000065000
848
SIAA80 AMMC 110900
AAXX 11094
61997 26/// /3419 10085 20084 39812 49986 56047
  333 4//// 60167 90710 91127=
61998 22580 62319 10076 20023 30026 40063 53001 85845
  333 58027 60007 83826 83640 90710 91125=
68994 42597 32808 10095 20045 39999 40028 53008 83500
  333 10106 20065 91023=
89532 42/70 70504 11004 21018 39915 49942 50001 8787/=
89564 41981 20308 10060 21021 39890 49910 51021 6///0 70200 82030=
89571 41980 63206 10077 21075 39863 49892 51009 6///1 70311 86080=
89611 41475 80606 10010 21014 39815 49867 52042 71422 8482/=
89642 42875 50905 10027 21050 39862 49915 51009 82539
  333 82656 83363=

0000042000
849
SIAU40 AMMC 110900
AAXX 11094
94210 46/// /2513 10299 30056 40062=
94307 46/// /2811 1//// 2//// 30036 40069=
94934 46/// /1820 10200 20160 30139 40162=
94974 46/// /3107 10157 20123 30154 40177=
95283 46/// /1011 10257 20234 30082 40089=
95288 46/// /1118 10281 30067 40082 53008=
95675 46/// /1922=
95756 46/// /0416=
95872 46/// /1718=
95961 46/// /3122 10152 20123 30120 40161=

0000004100
850
SIVA21 AMMC 110900
NIL

0000004100
851
SIVB21 AMMC 110900
NIL

0000004100
852
SIVC21 AMMC 110900
NIL

0000004100
853
SIVD21 AMMC 110900
NIL

0000004100
854
SIVF21 AMMC 110900
NIL

0000021800
855
SIVJ21 AMMC 110900
BBXX
FHZI 11074 99643 31409 46/// /1723 11002 21002 39869 49880 52021
22243 04008 86002=
FHZI 11084 99645 31407 46/// /1723 11003 21003 39870 49881 52019
22243 04004 86003=

0000046300
856
SIAU11 AMMC 110900
AAXX 11094
94100 NIL=
94201 NIL=
94202 NIL=
94204 NIL=
94208 NIL=
94213 NIL=
94214 NIL=
94215 NIL=
94217 NIL=
94303 NIL=
94305 NIL=
94306 46/// /3212 10334 20254 30048 40061=
94308 NIL=
94309 NIL=
94311 NIL=
94316 NIL=
94318 NIL=
94320 NIL=
94401 NIL=
94402 NIL=
94404 NIL=
94410 NIL=
94411 NIL=
94414 NIL=
94415 NIL=
94417 46/// /0308 10446 21011 39749 40051=
94422 NIL=

0000062800
857
SIAU12 AMMC 110900
AAXX 11094
94439 NIL=
94440 NIL=
94444 NIL=
94448 NIL=
94450 NIL=
94457 NIL=
94600 NIL=
94602 NIL=
94603 46/// /0708 10439 20040=
94604 46/// /1704 10401 20064 30109 40116=
94605 46/// /2008 10389 20094 30094 40098=
94607 46/// /1718=
94608 NIL=
94609 NIL=
94612 NIL=
94614 46/// /2010 10368 20141=
94615 46/// /1006 10409 20059=
94616 NIL=
94617 NIL=
94620 NIL=
94621 NIL=
94622 NIL=
94623 NIL=
94625 NIL=
94627 NIL=
94628 46/// /1109 10368 20002 39778 40144=
94629 NIL=
94630 NIL=
94631 NIL=
94632 NIL=
94633 NIL=
94635 NIL=

0000070500
858
SIAU13 AMMC 110900
AAXX 11094
94636 NIL=
94639 NIL=
94640 NIL=
94641 46/// /1112 10363 21002 39776 40143=
94644 NIL=
94645 NIL=
94801 NIL=
95204 NIL=
95214 NIL=
95215 NIL=
95303 NIL=
95304 NIL=
95305 NIL=
95307 NIL=
95316 NIL=
95317 46/// /1206 10427 21049 39842 40043=
95402 NIL=
95600 NIL=
95601 NIL=
95602 46/// /3108=
95603 NIL=
95604 NIL=
95606 NIL=
95607 NIL=
95608 NIL=
95610 NIL=
95611 NIL=
95612 NIL=
95613 NIL=
95614 NIL=
95615 NIL=
95616 NIL=
95617 NIL=
95618 NIL=
95621 NIL=
95622 NIL=
95623 NIL=
95624 NIL=
95625 NIL=
95626 NIL=
95627 NIL=
95628 NIL=
95629 NIL=
95630 NIL=
95645 NIL=

0000035200
859
SIAU14 AMMC 110900
AAXX 11094
95101 NIL=
95631 NIL=
95632 46/// /1109 10370 21011 39927 40134=
95635 46/// /1113 10194 20151 30152 40184=
95636 46/// /1215 10251 20143 39821 40174=
95638 NIL=
95639 46/// /1104 10355 20029=
95640 NIL=
95642 NIL=
95643 NIL=
95644 46/// /1315 10264 20161 39920 40175=
95647 NIL=

0000214200
860
SIKW20 OKBK 110900
AAXX 11094
40550 35/64 /3305 10136 20101 40176 58020
  333 55306 01161 10000 21693 30289 41177 51420 61982 55407 41404
90069 90400 91009 91117 91209 91305=
40551 45/68 /2613 10134 20089 40182 58018
  333 90069 90400 91015 91121 91217 91313=
40552 47/69 /3114 10126 20091 40179 58014 70060
  333 55302 90069 90400 91017 91119 91217 91313=
40553 37/65 /3215 10132 2//// 4//// 5//// 70086
  333 55305 90069 90400 91017 91117 91215 91311=
40568 46/// /2713 10130 20107 40180 56025
  333 90401 91017 91119 91215 91309=
40569 NIL=
40570 45/68 /3012 10118 20081 40186 58018
  333 55309 90069 90401 91017 91117 91213 91309=
40571 NIL=
40572 NIL=
40573 47/69 /3116 10118 20064 40188 58020 70061
  333 90069 90401 91019 91121 91217 91315=
40580 46/// /3005 10140 20097 40183 58015
  333 553// 01074 10000 21466 30212 41254 51425 61677 55407 41254
90400 91011 91111 91205 91303=
40581 46/// /3003 10146 20107 40187 58015
  333 90400 91011 91111 91203 91303=
40582 41658 63110 10133 20100 40178 58020 72122 82530
  333 55300 00563 10000 20871 30189 41265 51375 61060 55407 40682
82640 86360 90401 91013 91115 91211 91309=
40583 NIL=
40585 46/// /2913 10133 20096 222// 1//// 3//// 4//// 70///
  333 90401 91019 91121 91217 91311=
40586 46/// /3005 10145 20086 40183 58015
  333 90400 91009 91119 91207 91307=
40587 46/// /3010 10138 20092 40181 58018
  333 553// 00842 10000 21224 30270 41282 51392 61493 55407 40954
90401 91015 91117 91213 91309=
40588 47/50 /2915 10128 20110 40177 58022 78186
  333 55300 90000 90400 91017 91117 91215 91307=
40589 NIL=
40590 47/64 /3216 10131 20084 40186 58015 70061
  333 90069 90401 91019 91121 91217 91313=
40591 NIL=
40592 47/59 /3008 10142 20111 40174 58023 71086
  333 55304 00938 10000 21364 30234 41259 51455 61598 55407 41130
90069 90400 91015 91115 91207 91305=
40593 46/// /3011 10155 20113
  333 90401 91015 91115 91209 91307=
40594 46/// /2611 10152 20118 40176 58025
  333 90400 91015 91121 91215 91311=
40596 46/// /2011 10158 20138
  333 90401 91013 91129 91221 91313=
0000217100
861
SZNZ01 NZKL 110915
CREX++
T000103 A001 D01021 D06025++
-3683144 17478654 AUCT  2014 01 11 09 07 //// 11 07 00 01
04026 3185 04022 3184 04020 3184 04018 3185 04017 3188 04015 3188+
-4402404 -17636748 CHIT  2014 01 11 09 07 //// 11 07 00 01
04472 1944 04469 1939 04480 1946 04481 1944 04491 1951 04492 1949+
-4089929 17623168 CPIT  2014 01 11 09 07 //// 11 07 00 01
03334 2283 03342 2287 03346 2288 03355 2294 03339 2275 03364 2296+
-3618905 17548887 GBIT  2014 01 11 09 07 //// 11 07 00 01
05020 -0010 05011 -0018 05002 -0026 05007 -0020 05015 -0011 05018 -0007+
-3867541 17802288 GIST  2014 01 11 09 07 //// 11 07 00 01
03333 2724 03328 2718 03340 2728 03339 2724 03328 2712 03324 2706+
-4241288 17370277 KAIT  2014 01 11 09 07 //// 11 07 00 01
02861 2217 02859 2211 02862 2209 02864 2207 02866 2206 02880 2215+
-3755040 17815904 LOTT  2014 01 11 09 07 //// 11 07 00 01
02728 0186 02725 0183 02734 0192 02728 0186 02727 0185 02736 0194+
-3704657 17451175 MNKT  2014 01 11 09 07 //// 11 07 00 01
02873 -0123 02864 -0125 02858 -0125 02844 -0132 02834 -0135 02818 -0145+
-3947566 17692007 NAPT  2014 01 11 09 07 //// 11 07 00 01
02405 2054 02410 2056 02416 2059 02422 2063 02433 2071 02438 2073+
-3441483 17304870 NCPT  2014 01 11 09 07 //// 11 07 00 01
-03462 -7178 -03559 -7271 -03579 -7288 -03517 -7222 -03542 -7244 -03622 -7320+
-4581435 17062939 OTAT  2014 01 11 09 07 //// 11 07 00 01
04368 3415 04374 3415 04381 3415 04387 3415 04390 3411 04395 3410+
-2928002 -17789440 RBCT  2014 01 11 09 07 //// 11 07 00 01
05493 2019 05494 2022 05496 2024 05500 2029 05519 2048 05498 2028+
-2925114 -17790384 RFRT  2014 01 11 09 07 //// 11 07 00 01
02401 0209 02393 0201 02406 0215 02422 0232 02402 0213 02395 0206+
-4357010 17277383 SUMT  2014 01 11 09 07 //// 11 07 00 01
01521 1901 01515 1889 01518 1886 01533 1896 01534 1891 01541 1892+
-3764109 17618118 TAUT  2014 01 11 09 07 //// 11 07 00 01
04327 3975 04324 3973 04323 3974 04330 3982 04321 3975 04320 3975+
-4128448 17477985 WLGT  2014 01 11 09 07 //// 11 07 00 01
02799 2057 02800 2054 02807 2057 02806 2053 02812 2056 02818 2058++
7777
0000012000
862
SITH41 VTBB 110900 RRC
AAXX 11094
48382 32560 10705 10310 20167 39959 40133 56023 81100
  333 58006=
0000029100
863
UAAS11 RJTD 110900
AIREP
DAL289 3000N 14057E 0815 F370 MS48 267/135KT=
UAL177 2100N 14036E 0832 F400 MS54 251/37KT=
DAL293 2500N 13910E 0837 F400 MS55 270/75KT=
DAL297 3000N 14057E 0848 F380 MS49 270/133KT CODE0 FR16.2=
DAL611 3200N 14600E 0848 F390 MS51 270/150KT=
0000005100
864
SIAA01 SAWB 110900
AAXX 1109/
NIL
0000025200
865
SICH01 SCSC 110900
AAXX 11094
85406 NIL=
85418 NIL=
85432 NIL=
85442 NIL=
85467 NIL=
85469 NIL=
85488 NIL=
85500 NIL=
85556 NIL=
85558 NIL=
85564 NIL=
85574 NIL=
85577 42960 00000 10143 20084 39516 40122 56003=
00000000