0000033900
194
SNAU44 AMMC 110800
AAXX 11084
94658 46/// /1816 10225 20141 30162 40196=
94666 46/// /2115=
94678 46/// /1616 10213 20079 39573 40169=
94681 46/// /1312 10279 20050 39850 40167=
94682 46/// /2111 10337 21009 30117 40152=
94684 46/// /1713 10372 20042 39786 40126=
94690 46/// /2116 10314 20058 30035 40163=

0000048300
195
SNAU45 AMMC 110800
AAXX 11084
94807 46/// /1716 10184 20135=
94808 46/// /1518 10218 20112=
94809 46/// /1620 10193 20141 30187 40195=
94811 46/// /1619 10154 20129 39799 40196=
94813 46/// /1919 10184 20131 30187 40208=
94822 46/// /1616 10173 20142 30146 40212=
95675 46/// /2021=
95678 46/// /1109 10180 20094=
95806 46/// /1617 10210 20139 30149 40201=
95815 46/// /2015 10276 20090 30146 40178=
95816 46/// /1815 10183 20134 30207 40211=

0000035700
196
SNAU47 AMMC 110800
AAXX 11084
94116 46/// /2505 10313 20237 30036 40041=
94119 46/// /1706 10309 20238 30018 40040=
94125 46/// /0000 10268 20243 39927 40044=
94139 46/// /0803 10247 20238 30028 40050=
94234 46/// /0905 10351 20199 39801 40035=
94284 45/// /1416 30080 40090 53002=
94328 46/// /1513 10390 20019 39433 40048=

0000009300
197
SNAU48 AMMC 110800
AAXX 11084
95121 46/// /2102 10296 20238 30029 40046=

0000120000
198
SNAU49 AMMC 110800
AAXX 11084
94171 478// 70704 10253 20235 30004 40049 58002 7//44=
94174 45/// /2602 10289 20238 30046 40052 55002=
94182 45/// /2002 10292 30047 40051 55000=
94183 45/// /1608 10273 20231 39886 40066 55002=
94188 47/// /1211 10250 20240 30067 40089 53004 7//44=
94260 45/// /0209 10319 20229 30051 40058 56009=
94261 45/// /0311 10337 20194 39908 40050 55004=
94266 45/// /3506 10326 20227 30037 40058 55005=
94274 47/// /1006 10272 20226 39739 40074 53004 7//44=
94276 47/// /0000 10253 20253 39841 40069 55000 7//44=
94285 45/// /1413 10280 20250 30083 40087 55000=
94295 47/// /1114 10280 20220 30087 40098 55000 7//44=
94335 45/// /2409 10343 20147 39844 40051 55004=
94336 47/// /1917 10271 39755 40074 53010 7//44=
94337 45/// /1015 10392 20136 39908 40045 55014=
94338 45/// /1213 10380 20096 39760 40055 56010=
94342 45/// /1312 10364 20155 39849 40063 55010=
94343 45/// /0714 10340 20150 39719 40069 55005=
94365 47457 81709 10240 20226 30096 40119 53004 7//44=
94372 45/// /1315 10251 20197 39892 40128 55000=
94396 45/// /1208 10311 20138 39867 40114 55004=
94399 45/// /0707 10306 20147 39808 40107 55004=

0000091200
199
SNAU50 AMMC 110800
AAXX 11084
94368 45/// /1122 10266 20216 30050 40117 53004=
94370 45/// /1209 10262 20188 30095 40131 55002=
94373 45/// /1012 10268 20192 30128 40135 55003=
94376 459// 80709 10290 20148 39905 40124 53004=
94378 45/// /1218 10261 30110 40133 55000=
94380 45/// /0915 10257 20191 30049 40134 53004=
94381 45/// /1015 10270 20184 30119 40138 53003=
94387 45/// /1015 10264 20169 30109 40145 53005=
94517 45/// /1704 10324 20121 39894 40118 55010=
94542 45/// /0813 10293 20109 39738 40124 55002=
94549 45/// /0807 10268 20142 39649 40137 53001=
94553 47/// /1102 10199 20162 39186 40149 53004 741/4=
94555 45/// /0306 10259 20154 39603 40137 53008=
94557 45/// ///// 10229 20150=
94558 45/// ///08 10241 20159=
94562 45/// /0810 10271 20161=
94566 45/// /1007 10262 20170 30076 40150 53005=
94567 45/// /1113 10257 20160 30137 40149 53006=

0000135300
200
SNAU51 AMMC 110800
AAXX 11084
94568 45/// /0912 10269 20148 30124 40152 53008=
94569 45/// /1209 10251 20176 30153 40158 55000=
94570 45/// /1207 10250 20180 30149 40157 53001=
94575 45/// /0911 10259 20165 30143 40158 53009=
94576 45/// /0907 10259 20170 30149 40159 53007=
94580 45/// /1010 10250 20172 30158 40163 53004=
94581 45/// /0911=
94592 45/// /0807 10254 20171 30161 40166 53004=
94594 46/// /1117 10240 20182 30042 40157 53002=
95283 476// 81009 10255 20234 30080 40086 55002 7//44=
95286 45/// /0804 10252 20198 39560 40083 55000=
95292 47/// /2406 10244 20234 30078 40099 53003 7//44=
95293 45/// /0405 10247 20212 39485 40100 53004=
95295 45/// /0811 10281 20206=
95296 45/// /0617 10279 20217 30094 40103 53002=
95351 47/// /0906 10248 20213 39798 40112 51013 7//44=
95367 455// 61116 10275 20213 30118 40124 55001=
95492 45/// /1311 10357 20093 39962 40108 56007=
95529 45/// /0404 10303 20123 39783 40126 55005=
95543 45/// /1008 10294 20144 30004 40131 53004=
95551 458// 80911 10243 20132 39435 40150 53001=
95565 45/// /1311 10258 20164 30136 40151 53006=
95566 45/// /0804 10249 20166=
95572 45/// /1104 10244 20159 30096 40158 53003=
95573 47/// /1909 7//44=
95575 45/// /0905 10257 20160 30102 40158 53010=
95591 45/// /1015 10252 20166 30144 40159 53004=

0000012600
201
SNAU54 AMMC 110800
AAXX 11084
94752 46/// /1107 10286 20158 30047 40142=
94754 46/// /1103 10248 20079=

0000029100
202
SNAU55 AMMC 110800
AAXX 11084
94759 46/// /0405 10233 20166=
94760 46/// /1209 10279 20149=
94763 46/// /1106 10307 20152=
94774 46/// /0711 10221 20183=
94780 46/// /0311=
94838 46/// /2214 10345 20021 30056 40146=
94886 46/// /2411 10177 20142 30192 40196=

0000029400
203
SNAU56 AMMC 110800
AAXX 11084
94915 46/// /2707 10189 20086=
94927 46/// /1207 10242 20094 39406 40156=
94929 46/// /1207 10224 20160 39299 40155=
94938 46/// /0904 10240 20199 30107 40150=
94939 46/// /1914 10221 20157 30097 40160=
95705 46/// /3304 10349 20113=

0000030300
204
SNAU57 AMMC 110800
AAXX 11084
95749 46/// /0107 10236 20199=
95756 46/// /0416=
95767 46/// /1303 10263 20168 30139 40147=
95770 46/// /0210 10222 20194 30125 40148=
95774 46/// /0905 10253 20153=
95822 46/// /2011 10195 20132 30148 40209=
95832 46/// /1911 10253 20092=

0000052800
205
SNAU58 AMMC 110800
AAXX 11084
94830 46/// /2009 10174 20137 30199 40211=
94833 46/// /2018 10150 20094=
94840 46/// /1912 10171 20126 30051 40205=
94846 46/// /2015 10181 20130=
94857 46/// /1914 10183 20125 30185 40201=
94859 46/// /1817 10253 20111=
94862 46/// /2707 10356 20113 39970 40118=
94863 46/// /1408 10197 20117 39918 40195=
94866 46/// /1814 10192 20118 30057 40196=
94871 46/// /2514 10178 20131=
94872 46/// /1204 10157 20121 39598 40189=
94878 46/// /2403 10276 20090=

0000050400
206
SNAU59 AMMC 110800
AAXX 11084
94881 46/// /2617 10251 20109=
94892 46/// /2308 10179 20134 30183 40200=
94898 46/// /2109 10170 20125 30183 40199=
94911 46/// /2515 10182 20133 30172 40188=
94914 46/// /0000 10208 20133 39442 40165=
94930 46/// /1703 10188 20123=
95831 46/// /2112 10357 21020=
95835 46/// /2015 10285 20097=
95840 46/// /2013 10206 20101 39930 40194=
95845 46/// /2110 10214 20109 39885 40190=
95864 46/// /1919=
95867 46/// /1607 10204 20134=

0000018100
207
SNAU60 AMMC 110800
AAXX 11084
95872 46/// /1719=
95880 NIL=
95913 46/// /1704 10221 20135=
95918 46/// /1906 10196 20135 30106 40180=
95995 46/// /1009=

0000024900
208
SNAU61 AMMC 110800
AAXX 11084
94955 46/// /2611 10210 20096 3//// 4////=
94959 46/// /2610 10153 20055=
94969 46/// /3409 10267 20100=
94987 46/// /0310 10180 20135 30055 40121=
95952 46/// /2413 10082 20073 38899 40162=

0000021600
209
SNAU62 AMMC 110800
AAXX 11084
95979 46/// /2615 10137 20035=
95985 46/// /3319 10173 20160 30112 40130=
95986 46/// /0115 10141 20131 39832 40115=
95988 46/// /3614 10171 20134 30084 40117=

0000074500
210
SNBX40 EBBR 110800
AAXX 11081
06407 41345 72005 10043 20024 30146 40152 56002 72122 875//
333 81707 87656 91108 91206=
06428 47238 /2204 10037 20035 30120 40164 53005 71010
 333 85/03 88/05 91107 91205=
06447 NIL=
06451 42360 72305 10049 20033 30091 40159 53003 8567/
333 85709 86359 91108 91205=
06456 42770 72203 10045 20037 39823 40172 53006 875//
 333 87656 91106 91204=
06476 45672 82202 10034 20022 39503 40174 53006
333 88/44 91104 91202=
06479 41348 79901 10020 20019 30082 40157 55000 71022 8563/
 333 83709 85711 87362 91103 91202=
06490 45867 81805 10036 2//// 39592 4//// 55002
333 88/56 91108 91205=
06590 41630 71701 10022 20019 39718 40179 53002 72122 875//
333 87637 91102 91201=
0000072300
211
SNBX41 EBBR 110800
AAXX 11081
06400 42356 72004 10048 20040 30145 40154 55000 8557/
 333 82707 84650 86358 91106 91205=
06431 NIL=
06432 45256 /2303 10043 20038 30095 40167 53005
 333 85/04 87/07 91106 91204=
06449 41262 72004 10049 20038 39934 40165 55002 72122 865//
333 82705 85640 91107 91205=
06450 42259 82304 10043 20025 30142 40158 53002 876//
333 87706 91108 91205=
06458 45961 /2303 10045 20039 30022 40162 55001
 333 88/59 91105 91203=
06465 45357 /2002 10030 20026 30095 40160 55000
 333 88/08 91104 91202=
06478 42770 72005 10052 20032 39940 40162 55001 87532
333 87650 91107 91205=
06496 45856 /2202 10017 20017 39490 40172 53001
 333 81/57 87/66 91105 91202=
0000027400
212
SSVX12 KARS 110812
ZZYY 48520 11014 0730/ 775841 019447 6112/
11119 11286 40042 52006
444 20120 11014 0721/ 501// 80140 80000=
ZZYY 73634 11014 0730/ 365954 144509 6112/
11119 11007 49865 52003
22219 01019
444 20120 11014 0650/ 501// 80140 80000=
0000012800
213
SSVX07 KARS 110812
ZZYY 48733 11014 0750/ 772963 152375 6113/
11119 11256 40054
444 20130 11014 0743/ 504//=
00000000