0000008900
966
SPIN90 VOMM 110900
SPECI VOBZ 110900Z 14002KT 5000 HZ SCT020 30/17 Q1012=
0000050000
967
SAIR36 OIII 110900
METAR OIBA 110900Z  13014KT 7000 FEW025CB FEW030 OVC100 21/13
 Q1018=
METAR OIBV 110900Z NIL=
METAR OIFS 110900Z  00000KT 1000 -SN BR FEW025CB SCT030 OVC070
 M04/M06 Q1019=
METAR OIIP 110900Z  09006KT 0700 SN BR SCT030CB SCT035 OVC080
 M01/M02 Q1019=
METAR OIMB 110900Z 09004KT 9999 FEW040 SCT100 BKN190 07/M13 Q1020=
METAR OIMN 110900Z 00000KT CAVOK 08/M09 Q1018 A3007=
METAR OIMS 110900Z NIL=
METAR OIMT 110900Z NIL=
METAR OIZJ 110900Z 11014KT CAVOK 20/04 Q1020=

0000047500
968
SAIR37 OIII 110900
METAR OIBL 110900Z 03004KT 3000 RA SCT025 OVC080 14/11 Q1020=
METAR OIBQ 110900Z  16018KT 9999 FEW020 FEW025CB SCT035 OVC080
 15/15 Q1017 RESH=
METAR OIIK 110900Z  15006KT 5000 BR FEW035CB SCT040 OVC/// 01/M02
 Q1021=
METAR OIMC 110900Z NIL=
METAR OIMD 110900Z NIL=
METAR OIMQ 110900Z NIL=
METAR OINE 110900Z 00000KT 0500 FG BKN015 SCT200 08/07 Q1015=
METAR OITK 110900Z NIL=
METAR OITM 110900Z 00000KT 1100 BR SCT042 OVC110 M04/M06 Q1021=

0000009900
969
SASD31 OEJD 110900 RRA
METAR OYSN 110900Z 23012KT 9999 SCT030 SCT180 23/M08 Q1025=

0000011600
970
SIIN90 VIJP 110900
AAXX 11093
42339 31995 40502 10200 21005 40180 70500 80002
  333 58047 84070=
0000011600
971
SIIN90 VISM 110900
AAXX 11094
42081 32696 10000 10118 20048 38935 48511 81500
  333 58025 81635=
0000012400
972
SIIN90 VOVZ 110900
AAXX 11094
43150 31596 10000 10274 20201 30065 40140 70500 81500 333 58005
81620 =

0000011600
973
SIIN90 VOMM 110900
AAXX 11094
43279 32497 20704 10288 20193 30116 40134 82400
  333 58010 82618=
0000010300
974
SAIN90 VEPT 110850
METAR VEPT 110850Z 12006KT 1400 -RA BKN015 BKN100 16/14 Q1015 NOSIG=
0000012400
975
SMST01 EGRR 110600 CCA
AAXX 11064
61902 12480 11312 10234 20189 40126 69904 81100 333 20232 59007
81818=
0000010200
976
SAIQ01 ORBI 110900
METAR ORMM 110900Z 27010KT 3000 BR SCT040 OVC100 13/12 Q1017 NOSIG=
0000011200
977
SMRA10 RUNW 110600 CCA
AAXX 11061
28722 81697 81803 11011 21038 39952 40083 54000 72052 885//=
0000021800
978
SAJD20 OJAI 110900
METAR OJAI 110900Z 29005KT 5000 BR SCT025 10/08 Q1024 NOSIG=
METAR OJAM 110900Z 00000KT 2500 BR SCT025 09/07 Q1023 NOSIG=
METAR OJAQ 110900Z 00000KT 9999 FEW030 15/10 Q1025 NOSIG=
0000066100
979
UDAF01 FAPR 110904
AMDAR 1109
LVR AFZA22 3415N 05550W 110814 F380 MS565 304/092 TB0 S031 333 F/// VG011=
LVR AFZA22 3430N 05638W 110822 F380 MS580 301/099 TB0 S031 333 F/// VG011=
LVR AFZA22 3445N 05726W 110829 F380 MS600 305/105 TB0 S031 333 F/// VG011=
LVR AFZA22 3459N 05814W 110836 F380 MS600 307/101 TB0 S031 333 F/// VG011=
LVR AFZA22 3513N 05902W 110843 F380 MS597 312/103 TB0 S031 333 F/// VG011=
LVR AFZA22 3527N 05951W 110850 F380 MS595 313/106 TB0 S031 333 F/// VG011=
LVR AFZA22 3542N 06039W 110857 F380 MS615 311/116 TB0 S031 333 F/// VG011=
LVR AFZA22 3557N 06125W 110904 F380 MS623 311/127 TB0 S031 333 F/// VG011=
0000066100
980
UDAF01 FAPR 110900
AMDAR 1109
/// AFZA01 2542S 02801E 110813 F150 MS035 275/013 TB0 S031 333 F/// VG000=
ASC AFZA01 2538S 02757E 110815 F160 MS025 179/009 TB0 S031 333 F/// VG000=
LVR AFZA01 2505S 02726E 110821 F254 MS191 303/017 TB0 S031 333 F/// VG000=
LVR AFZA01 2424S 02649E 110828 F363 MS455 286/033 TB0 S031 333 F/// VG000=
LVR AFZA01 2343S 02614E 110835 F380 MS505 298/027 TB0 S031 333 F/// VG000=
LVR AFZA01 2301S 02539E 110842 F380 MS507 288/026 TB0 S031 333 F/// VG000=
LVR AFZA01 2218S 02504E 110849 F380 MS502 303/020 TB0 S031 333 F/// VG000=
LVR AFZA01 2135S 02428E 110856 F380 MS504 300/016 TB0 S031 333 F/// VG000=
0000066100
981
UDAF01 FAPR 110903
AMDAR 1109
ASC AFZA45 2604S 02816E 110859 F076 PS143 343/008 TB1 S031 333 F/// VG020=
UNS AFZA45 2603S 02816E 110860 F079 PS157 287/001 TB1 S031 333 F/// VG020=
UNS AFZA45 2603S 02815E 110860 F081 PS154 098/002 TB1 S031 333 F/// VG027=
ASC AFZA45 2602S 02815E 110900 F083 PS147 053/017 TB0 S031 333 F/// VG017=
ASC AFZA45 2600S 02814E 110901 F086 PS135 044/005 TB0 S031 333 F/// VG015=
ASC AFZA45 2558S 02814E 110901 F095 PS110 302/004 TB0 S031 333 F/// VG014=
ASC AFZA45 2553S 02813E 110902 F115 PS059 254/018 TB0 S031 333 F/// VG012=
ASC AFZA45 2549S 02812E 110903 F134 PS002 264/018 TB0 S031 333 F/// VG011=
0000028700
982
SICU01 KWBC 110900
AAXX 11091
78224 41958 09901 10166 20161 30102 40178 56006 70544=
78229 32559 20904 10221 20199 30111 40187 57010 82202 333 82830=
78255 42959 01003 10197 20180 30037 40186 57010=
78264 32559 23403 10202 20175 30094 40168 57010 82200 333 82820=
0000177700
983
SIMX01 KWBC 110900
AAXX 11091
76220 31920 00000 11036 2//// 38174 40222 53004 70002 90840 333
35/// 58038 96126=
76305 32970 03302 10168 20048 30165 40173 51001 90845 333 30///
58///=
76342 31840 71803 10149 20056 39445 40151 52001 70222 87070 90850
333 30/// 56050 58015 87458=
76382 32460 31401 10114 20093 38915 40172 54000 83500 90845 333
30/// 56500 58058 83614=
76390 31950 02305 10071 21031 38239 40174 57001 70544 90848 333
30/// 58039=
76525 32960 02206 10081 21041 37475 40146 57004 90850 333 30///
58029=
76548 32860 51501 10186 20183 30136 40146 57004 85030 90845 333
30/// 56050 59028 85358=
76556 32960 01604 10128 20070 39114 40118 57008 90845 333 30///
58009=
76577 32560 50000 10118 20105 38052 40138 56003 85500 90840 333
30/// 56500 58008 85621=
76593 32950 01403 10214 20211 30148 40150 57004 90850 333 30///
59006=
76632 31930 02301 10090 20062 37706 40134 57003 70500 90840 333
30/// 58007 98130=
76654 31956 00000 10228 20193 30136 40140 57006 70544 90850 333
30/// 58024=
76675 32760 22501 10027 20013 37383 40171 57007 82060 90845 333
34/// 56090 58009=
76680 31568 00000 10112 20086 37758 40105 57004 70540 90850 333
30/// 58012=
76685 32950 00000 10104 20062 37869 40116 52001 90845 333 30///
59005=
76726 32968 03501 10122 20045 38392 40136 55004 90845 333 30///
59008=
76743 31940 00101 10215 20177 3 30122 40130 57004 7000 90850 333
30/// 59016=
76750 32558 10000 10220 20210 30130 40140 57008 81100 90845 333
30/// 56300 58/// 81820=
76775 32960 00501 10142 20094 38522 40137 57003 90845 333 30///
58001=
76840 32910 00000 10210 20192 30067 40125 5//// 90845 333 30///
58017=
76843 32965 00000 10196 20170 39479 40114 56004 90845 333 30///
59011=
0000022600
984
SIVD20 KWNB 110900 RRD
BBXX
44013 11091 99423 70707 46/// /1304 10047 20047 40219 58030 90850
22200 00046 10501 70003 333 91205 555 11046 22049 30841 41405
60849 132042 138038 145034 143033 139032 136030=
0000069400
985
SIVD19 KWNB 110900 RRA
BBXX
46126 11091 99540 71666 46/// /2103 10044 49816 90836 22200 00047
1//00 70000 333 91205 555 11034 22037=
46126 11091 99540 71666 46/// /2103 10044 49816 90840 22200 00047
1//00 70000 333 91205 555 11034 22037=
46126 11091 99540 71666 46/// /2004 10044 49816 90842 22200 00047
1//00 70000 333 91207 555 11047 22051=
46126 11091 99540 71666 46/// /2004 10043 49811 90845 22200 00047
1//00 70000 333 91207 555 11047 22051=
46078 11091 99560 71526 46/// /2206 10033 20022 49946 58014 90850
22200 00044 11105 20502 323// 41105 70025 333 91208 555 11067
22070 30806 42311 60849 223064 223063 227065 231071 227087 229084
82310 90807=
00000000