0000036900
106
SXXX32 EUMS 110857 RRX
22E595B6
:PRS 1 /1 M 3978 3994 4025 4018 4036 3981 4024 4008 4072 4037 4062 4047 4053 4062 4043 4042 4051 4039 4044 4015 4015 3993 3985 3984 3994 3982 3960 3960 3949 :RAD 1 /3 7202 7212 7227 7225 7215 7196 7173 7160 7154 7155 :ENC 2 /5 5317 5346 5353 5333 5288 5267 :SW1 57 /60 0 :SW2 27 /60 60 :BAT 14 /15 12.8 :NAME 22E595B6 /
0000039700
107
SXXX32 EUMS 110857 RRX
16590056
:PRS 1 /1 2569 2562 2565 2555 2551 2540 2542 2536 2536 2544 2547 2555 :RAD 1 /1 6879 6873 6876 6865 6862 6851 6851 6848 6845 6851 6857 6864 6867 6874 6882 6888 6891 6893 :ENC 6 /6 5070 5095 5111 5112 5119 5133 5137 5148 5157 5165 :ENB 6 /6 5067 5094 5110 5110 5118 5131 5135 5148 5156 5164 :SW1 57 /60 0 :SW2 24 /60 0 :BAT 5 /6 13.1 :NAME 16590056
0000065100
108
SXXX32 EUMS 110857 RRX
16AF741C
OT92 ID:SA-MAIS-07 DT:2014 01 11 08 47
:RAD /1 08884 08781 08752 08850 08826 08992 08799 08048 08867 08811 08938 08896 08795 08825 08880 0877/ 08821 08012 08893 08869 08851 089?0 08924 08862 08782 08853 08830 08962 08847 08843 08835 08886 08863 08978 08808 08817 08896 08904 08845 08918 08887 08905 08945 08850 08866 08886 08768 08805 08845 08874 08947 08828 08922 08838 08894(08920 08905 08996 08891 08771 08864 08969 08904 08931 08941 08909 08910 08918 08926 08943 08873 08961 08899 08896 08925 0883/ 09019 09024 08967 08936 08885 08850 08950 08904 08938 08905 08919 09001 08910 08942
:BAT 12.9V
0000011000
109
UANT99 KDDL 110904
ARP DLH501 4616N01229W 0904 F350 MS60 281/63 KT
DAIGL QXT AOE 110905 J61A
0000045100
110
SXXX32 EUMS 110858 RRX
32BD7124
:PRS 1 /1 2276 2278 2277 2281 2284 2285 2289 2289 2294 2297 2297 2296 2292 2290 2295 2306 2301 2294 2296 2297 2296 2295 2296 2296 2298 2304 2306 2305 2304 2302 :RAD 3 /3 8068 8071 8077 8079 8081 8076 8081 8081 8091 8095 8099 8101 8102 8102 8101 8099 8102 8111 8118 8126 :ENC 3 /5 5068 5077 5084 5082 5086 5096 5102 5105 5102 5101 5110 5123 :SW1 59 /60 0 :SW2 29 /60 0 :BAT 14 /15 13.5 :NAME 32BD7124 /
0000067200
111
SXXX32 EUMS 110858 RRX
16F152DA
OT12 ID:IR-JASK-09 DT:2014 01 11 08 48
:RAD /1(0209: 02085 02089 0:089 02093 02104 02104 02116 02125 02134 02132 02122 02117 02116 02106 02101 02100 02095 02096 02095(02089 02086 02085 02083 02083 02088 02089 02103 02098 02097/
:PR1 /1 -0103 -0104 -0104 -0104 -0104 /0103 -0105 -0104 -0104 -0104 /0103 -0103 -0103 -0104 -0106 -0104 -0104 -0104 -0105 -0104 -0104 -0104 -0104 -0106 -0104 -0103 -0104 -0105 -0105 -0105
:PR2 /1 00913 00902 00906 00909 00907 00918 00929 00931 00940 00944 00946 00944 00943 00936 00931 00926 00921 00920 00916 00913 00913 00903 00904 00907 00898 00908 00914 00913 00911 00915
:BAT 13.5V
0000124100
112
SILY20 HLMC 110900
AAXX 11094
62002 32960 02310 10130 20022 39513 48564 53011=
62007 32960 42107 10155 20084 40231 52004 84070
  333 84360=
62008 32960 02122 10125 20104 39435 48566 53013=
62010 32960 31905 10172 20070 40244 53014 85030
  333 83360=
62012 32960 31810 10170 20057 30218 40248 53014 80009
  333 83170=
62014 NIL=
62016 32960 61614 10116 20073 40279 52011 84076
  333 84360 85270=
62018 32960 61805 10140 20056 30191 52031 86070
  333 86460=
62019 32960 71808 10150 20094 40259 53011 80006
  333 87270=
62053 32560 62205 10160 20104 40273 51009 82530
  333 82620 86358=
62055 NIL=
62056 NIL=
62059 NIL=
62062 32960 52712 10150 20109 40264 52010 85050
  333 85358=
62103 32968 41712 10150 20048 39817 4//// 53016 80002
  333 84070=
62120 32970 32009 10120 20090 39667 83030
  333 83360=
62124 NIL=
62131 32970 50000 10140 20056 39964 40286 51011 80004
  333 85070=
62161 32970 60000 10170 20065 40273 51010 86050
  333 86360=
62176 32970 00000 10125 20062 40279 51001=
62200 32660 73607 10144 20037 3//// 4//// 5//// 84036
  333 84360 83270=
62212 NIL=
62259 32970 01508 10140 20066 40278 58009=
62271 32970 00909 10138 20037 40316 53014=
0000016300
113
SSVX13 LFPW 110900
ZZYY 13593 11014 0900/ 738166 018517 6113/ 22219 00169 33300 88872
 20000 43624 444 20130 11014 0856/ 50101 80118 80048 9/015=
0000015700
114
SSVX13 LFPW 110900
ZZYY 62508 11014 0900/ 745917 006070 6113/ 11119 40207 52021 22219
 00130 444 20130 11014 0856/ 50101 80104 80031 9/015=
0000015700
115
SSVX13 LFPW 110904
ZZYY 31868 11014 0904/ 529165 031762 6113/ 11119 40218 52010 22219
 00248 444 20130 11014 0900/ 50101 80142 80015 9/015=
0000031800
116
SIQB50 LQSM 110900
AAXX 11091
14543 NIL=
14549 46/// /0000 10063 2//// 39826 40245 50010 70000=
14554 41850 31803 10116 20059 39950 40226 51005 71044 82041 333 82357
=
14650 42560 42703 10067 20038 39131 48561 51002 82204 333 82830 84082
=
14657 46/// /1300 10111 21011 30226 40226 52009=
0000039800
117
SIQB40 LQSM 110900
AAXX 11091
14528 42770 13201 10102 20067 39924 40221 58001 81100 333 81850=
14537 41670 30000 10055 20046 30037 40232 50011 70241 81441 333 81643
=
14544 42670 53601 10046 20019 39576 40255 50010 82131 333 10122 82843
=
14557 42960 12101 10080 20042 39873 40243 52006 81031 333 81360=
14640 41/01 90000 10056 20050 39406 48552 52007 74544 333 89///=
0000026900
118
SIQB21 LQSM 110900
AAXX 11091
14648 42670 82701 10094 20084 30125 40246 52012 8257/ 333 82646 88461
=
14652 42384 42308 11011 21025 37962 48527 53009 81105 333 81806=
14542 41858 50000 10062 20045 30044 40237 52011 71022 85050 333 85358
95990=
0000011200
119
SIQB20 LQSM 110900
AAXX 11091
14654 42970 21102 10104 20033 39486 40226 52010 80001 333 82072=
0000011200
120
SIAB01 LATI 110900
AAXX 11091
13615 45761 /1201 10125 20083 30199 40246 52009 8//// 333 88/50=
0000018400
121
SSVX13 LFPW 110900
ZZYY 62503 11014 0900/ 745981 002449 6113/ 11119 40203 52027 22219
 00134 33300 88872 20000 43542 444 20130 11014 0900/ 50101 80100
 80000 9/015=
0000018400
122
SSVX13 LFPW 110900
ZZYY 41800 11014 0900/ 725921 035816 6110/ 11119 40189 52004 22219
 00230 33300 88872 20000 43748 444 20100 11014 0900/ 50101 80148
 80069 9/015=
0000016900
123
SSVX13 LFPW 110900
ZZYY 41737 11014 0900/ 725756 037020 6113/ 11119 40194 52007 33300
 88872 20000 43753 444 20130 11014 0900/ 50101 80148 80063 9/015=
0000015700
124
SSVX13 LFPW 110900
ZZYY 62507 11014 0900/ 747363 011737 6113/ 11119 40165 57012 22219
 00119 444 20130 11014 0855/ 50101 80104 80031 9/015=
0000047600
125
SSVX08 KARS 110904
ZZYY 52007 10014 1200/ 308031 164802 6112/
33311 88872 20001 33060 43420 20025 32988 43453 20050 32895 43493
20075 32764 20100 32729 20125 32589 20150 32479 20200 32075
20250 31633 20300 31285 20500 30764
444 20120 10014 1053/ 521//=
ZZYY 52004 10014 0000/ 305008 165171 6111/
33311 88870 20001 33066 20025 33001 20075 33033 20100 32928
20150 32662 20200 32047 20250 31393 20300 31040 20500 30819
444 20110 10014 0128/ 521//=
00000000