0000009300
586
SPUS41 KWBC 102230
SPECI
KHVN 102226Z 00000KT 2SM BR OVC006 02/01 A3036=

0000010400
587
SPUS42 KWBC 102230
SPECI
KBPT 102226Z 16012KT 3SM -RA BR BKN012 OVC048 19/17 A2985=

0000011700
588
SPUS42 KWBC 102230
SPECI
KGLS 102227Z 16009KT 2 1/2SM -RA BR FEW003 BKN011 OVC041 17/17
A2984=

0000009600
589
SPCN51 CWAO 102230
SPECI CZCP 102230Z AUTO 29021KT 1 1/4SM FEW001 M32/ A2942=

0000011100
590
SPLT32 EYVI 102231
SPECI EYKA 102231Z AUTO 27014KT 9999 OVC014/// 02/M00 Q0999
R08/290095=

0000011100
591
SANC01 NWWW 102230
METAR NWWW 102230Z AUTO 13008KT 080V200 9999 FEW046 SCT056 29/16
Q1012=

0000008900
592
SAHU31 LHBM 102230
METAR LHBP 102230Z 19005KT CAVOK 02/01 Q1021 NOSIG=

0000011200
593
SASR31 WSSS 102230
METAR WSSS 102230Z 36003KT 280V060 9999 FEW018 BKN300 24/23 Q1011
NOSIG=

0000011700
594
SALI20 GLRB 102230
METAR GLRB 102230Z 00000KT 9000 BKN014  FEW024 CB 26/25 Q1012
RMK CB-S, BRVC=

0000010000
595
SABU31 LBSM 102230 CCA
METAR LBSF 102230Z 21004MPS 5000 BR NSC 00/00 Q1021 NOSIG=

0000012200
596
SAFG20 SOCA 102230
METAR SOCA 102230Z AUTO 12004KT 080V170 9000 -RA SCT005 BKN009
BKN023 23/22 Q1011=

0000010200
597
SAGQ21 FGSL 102230
METAR FGSL 102230Z 23005KT 7000 FEW012 SCT130 24/22 Q1012 NOSIG=

0000011700
598
SPUS31 KWBC 102231
SPECI
KPHL 102227Z 06003KT 1SM R09R/5000VP6000FT -RA BR OVC004 02/01
A3034=

0000011300
599
SPUS41 KWBC 102231
SPECI
KDOV 102228Z AUTO 04003KT 3SM R01/5500FT -RA BR OVC003 03/03 A3030=

0000010300
600
SAPF20 NTAA 102230
METAR NTAA 102230Z 25003KT 220V280 9999 SCT020 31/22 Q1012 NOSIG=

0000010800
601
SATH33 VTBB 102200 CCA
METAR COR VTUU 102200Z 04002KT 7000 NSC 18/17 Q1016 A3000
NOSIG=

0000020500
602
SZSR01 WSSS 110948
CREX++
T000103 A001 D01021 D06025++
0126166 10385160 00044 2014 01 11 09 06 //// 11 07 00 06
01510 0030 01526 0016 01549 0009 01567 0007 01587 -0003 01620 0010++
7777
0000009900
603
SAUS75 KWBC 102200 RRC
METAR
PHOG 102227Z COR 02010KT 10SM SCT035 27/19 A2995=

0000150200
604
FTSA32 KWBC 102236
TAF
TAF SUAA 102230Z 1100/1124 16005KT 9999 FEW023 TX22/1118Z
      TN18/1109Z
      TEMPO 1100/1108 5000 TSRA SCT030 FEW040CB SCT100
      BECMG 1106/1108 17015G25KT 9999 BKN015=
TAF SUCA 102230Z 1100/1124 16005KT 9999 FEW023 TX22/1118Z
      TN18/1109Z
      TEMPO 1100/1108 5000 TSRA SCT030 FEW040CB SCT100
      BECMG 1106/1108 17015G25KT 9999 BKN015=
SUCA 102230Z 1100/1124 16005KT 9999 FEW023 TX22/1118Z TN18/1109Z
      TEMPO 1100/1108 5000 TSRA SCT030 FEW040CB SCT100
      BECMG 1106/1108 17015G25KT 9999 BKN015=
TAF SULS 102230Z 1100/1124 16005KT 9999 FEW023 TX22/1118Z
      TN18/1109Z
      TEMPO 1100/1108 5000 TSRA SCT030 FEW040CB SCT100
      BECMG 1106/1108 17015G25KT 9999 BKN015=
TAF SUMU 102230Z 1100/1124 16005KT 9999 FEW023 TX22/1118Z
      TN18/1109Z
      TEMPO 1100/1108 5000 TSRA SCT030 FEW040CB SCT100
      BECMG 1106/1108 17015G25KT 9999 BKN015=
TAF SURV 102230Z 1100/1124 16005KT 9999 SCT023 BKN080 TX26/1118Z
      TN20/1109Z
      TEMPO 1100/1112 23020G30KT 5000 TSRA BKN015 FEW040CB OVC060
      BECMG 1112/1114 22010KT=
SURV 102230Z 1100/1124 16005KT 9999 SCT023 BKN080 TX26/1118Z
      TN20/1109Z
      TEMPO 1100/1112 23020G30KT 5000 TSRA BKN015 FEW040CB OVC060
      BECMG 1112/1114 22010KT=
SUSO 102230Z 1100/1124 16005KT 9999 SCT023 BKN080 TX26/1118Z
      TN20/1109Z
      TEMPO 1100/1112 23020G30KT 5000 TSRA BKN015 FEW040CB OVC060
      BECMG 1112/1114 22010KT=

0000045700
605
FTUS51 KWBC 102236 AAA
TAF AMD
KBFD 102235Z 1023/1118 14007KT 1/4SM FG VV002
     FM110400 16009KT 4SM -RA BR BKN006 OVC009 WS019/21048KT
     FM111100 17014G27KT 2SM RA BR OVC009 WS012/19049KT=
KSLK 102232Z 1023/1118 23006KT P6SM OVC011
      TEMPO 1023/1103 6SM BR OVC009
     FM110300 18004KT 6SM BR SCT007 OVC015
     FM110800 18005KT 6SM BR VCSH BKN015 OVC025
     FM111200 18010G18KT 5SM -RA BR OVC015 WS020/20045KT=

00000000