0000253500
406
UDFR01 LFPW 110908
AMDAR 1108
DES EU0951 4405N 00321E 110852 F143 MS137 /// 222/012 TB0 S031
333 F143 VG002=
DES EU0951 4404N 00323E 110852 F139 MS132 /// 215/011 TB0 S031
333 F139 VG002=
DES EU0951 4402N 00325E 110852 F136 MS127 /// 213/008 TB0 S031
333 F136 VG001=
DES EU0951 4400N 00328E 110853 F133 MS122 /// 218/007 TB0 S031
333 F133 VG002=
DES EU0951 4358N 00329E 110853 F130 MS115 /// 239/009 TB0 S031
333 F130 VG002=
DES EU0951 4356N 00332E 110853 F126 MS107 /// 242/012 TB0 S031
333 F126 VG004=
DES EU0951 4355N 00334E 110854 F123 MS100 /// 246/016 TB1 S031
333 F123 VG009=
DES EU0951 4353N 00336E 110854 F120 MS090 /// 242/028 TB0 S031
333 F120 VG006=
DES EU0951 4352N 00338E 110854 F116 MS082 /// 241/037 TB0 S031
333 F116 VG003=
DES EU0951 4350N 00340E 110855 F113 MS075 /// 239/037 TB0 S031
333 F113 VG005=
DES EU0951 4348N 00342E 110855 F110 MS060 /// 242/035 TB0 S031
333 F110 VG003=
DES EU0951 4346N 00344E 110855 F106 MS050 /// 255/026 TB1 S031
333 F106 VG018=
DES EU0951 4345N 00346E 110856 F102 MS050 /// 261/021 TB1 S031
333 F102 VG018=
DES EU0951 4343N 00347E 110856 F098 MS037 /// 262/022 TB0 S031
333 F098 VG001=
DES EU0951 4342N 00349E 110856 F094 MS030 /// 270/017 TB0 S031
333 F094 VG002=
DES EU0951 4341N 00350E 110857 F091 MS022 /// 265/018 TB0 S031
333 F091 VG007=
DES EU0951 4339N 00352E 110857 F089 MS015 /// 259/015 TB0 S031
333 F089 VG004=
DES EU0951 4338N 00353E 110857 F086 MS010 /// 239/015 TB1 S031
333 F086 VG016=
DES EU0951 4337N 00355E 110858 F082 PS002 /// 251/010 TB0 S031
333 F082 VG007=
DES EU0951 4335N 00356E 110858 F076 PS017 /// 238/009 TB0 S031
333 F076 VG002=
DES EU0951 4334N 00358E 110858 F071 PS035 /// 247/010 TB1 S031
333 F071 VG015=
DES EU0951 4333N 00359E 110859 F065 PS052 /// 262/011 TB0 S031
333 F065 VG003=
DES EU0951 4332N 00401E 110859 F059 PS062 /// 292/014 TB1 S031
333 F059 VG017=
DES EU0951 4331N 00402E 110859 F054 PS040 /// 234/012 TB0 S031
333 F054 VG005=
DES EU0951 4329N 00403E 110900 F050 PS012 /// 214/007 TB0 S031
333 F050 VG004=
DES EU0951 4329N 00404E 110900 F043 PS025 /// 220/006 TB1 S031
333 F043 VG013=
DES EU0951 4328N 00406E 110900 F034 PS040 /// 163/006 TB1 S031
333 F034 VG023=
UNS EU0951 4327N 00407E 110901 F028 PS057 /// 064/007 TB1 S031
333 F028 VG011=
UNS EU0951 4327N 00409E 110901 F021 PS067 /// 206/006 TB0 S031
333 F021 VG009=
UNS EU0951 4329N 00410E 110901 F018 PS077 /// 193/013 TB0 S031
333 F018 VG006=
0000013000
407
SMAA01 RJTD 110600 CCA
AAXX 11064
89532 41/60 70702 11004 21026 39914 49941 53003
70272 8787/ 333 55165 23200=
0000013800
408
SMAA80 AMMC 110600 CCB
AAXX 11064
89532 41/60 70702 11004 21026 39914 49941 53003 70272 8787/
  333 55165 23200=


0000010400
409
SIAA21 RJTD 110900
AAXX 11094
89532 42/70 70504 11004 21018 39915 49942 50001
8787/=
0000165600
410
SAFC21 OEJD 110900
METAR
OEAB 110900Z 21010KT 8000  RA SCT012 SCT015 13/12 Q1024 NOSIG=
OEAH 110900Z 17012KT 9999 SCT030 SCT100 15/13 Q1018 RERA  NOSIG=
OEAO 110900Z 34006KT CAVOK 15/01 Q1023=
OEBA 110900Z 34006KT 8000 SCT030 12/12 Q1022 NOSIG=
OEBH 110900Z 26010KT 9999 SCT030 18/08 Q1020 NOSIG=
OEDF 110900Z 18013KT 9999 SCT030 BKN100 17/12 Q1019 NOSIG=
OEDM 110900Z 33012KT CAVOK 14/03 Q1020=
OEDR 110900Z 18014KT 9999 SCT040 OVC080  18/14 Q1017 NOSIG=
OEGN 110900Z 22011KT 9999 SCT030 SCT100 29/22 Q1016 NOSIG=
OEGS 110900Z 29010KT CAVOK 14/08 Q1020=
OEGT 110900Z 32006KT CAVOK 11/02 Q1023 NOSIG=
OEHL 110900Z 30024KT 9999 SCT045 11/03 Q1021 NOSIG=
OEJN 110900Z 30014KT 9999 FEW040 25/10 Q1018 NOSIG=
OEKJ NIL=
OEKK 110900Z 33020KT CAVOK 15/13 Q1019 NOSIG=
OEKM 110900Z 22010KT 8000  RA OVC020 13/12 Q1024 NOSIG=
OEMA 110900Z 10004KT 8000 SKC 16/00 Q1023 NOSIG=
OEMK 110900Z 06002KT CAVOK 25/11 Q1017=
OENG 110900Z 07004KT 9999 SCT030 BKN090 24/04 Q1018 NOSIG=
OEPA 110900Z 28010KT 9999 FEW035 13/09 Q1018 NOSIG=
OERF 110900Z 36016KT 9999 BKN040 BKN100 09/04 Q1018=
OERK 110900Z 24009KT 9999 BKN040 17/11 Q1020 NOSIG=
OERR 110900Z 31017KT 9999 BKN030 08/08 Q1020 NOSIG=
OERY NIL=
OESH 110900Z 21011KT CAVOK 24/09 Q1016 NOSIG=
OESK 110900Z 32016KT 9999 BKN020 09/00 Q1021=
OETB 110900Z 30011KT 9999 FEW040 13/02 Q1023 NOSIG=
OETF 110900Z 09005KT 9999 SCT030 13/04 Q1022 NOSIG=
OETR 110900Z 33014KT 9999 SCT030 BKN100 05/04 Q1022=
OEWD 110900Z 12008KT CAVOK 21/11 Q1017 NOSIG=
OEWJ 110900Z 02003KT 9999 FEW030 23/07 Q1021 NOSIG=
OEYN 110900Z 00000KT CAVOK 23/07 Q1018 NOSIG=
0000185600
411
SASD20 OEJD 110900
METAR OEAB 110900Z 21010KT 8000  RA SCT012 SCT015 13/12 Q1024 NOSIG=
METAR OEAH 110900Z 17012KT 9999 SCT030 SCT100 15/13 Q1018 RERA  NOSIG=
METAR OEAO 110900Z 34006KT CAVOK 15/01 Q1023=
METAR OEBA 110900Z 34006KT 8000 SCT030 12/12 Q1022 NOSIG=
METAR OEBH 110900Z 26010KT 9999 SCT030 18/08 Q1020 NOSIG=
METAR OEDF 110900Z 18013KT 9999 SCT030 BKN100 17/12 Q1019 NOSIG=
METAR OEDM 110900Z 33012KT CAVOK 14/03 Q1020=
METAR OEDR 110900Z 18014KT 9999 SCT040 OVC080  18/14 Q1017 NOSIG=
METAR OEGN 110900Z 22011KT 9999 SCT030 SCT100 29/22 Q1016 NOSIG=
METAR OEGS 110900Z 29010KT CAVOK 14/08 Q1020=
METAR OEGT 110900Z 32006KT CAVOK 11/02 Q1023 NOSIG=
METAR OEHL 110900Z 30024KT 9999 SCT045 11/03 Q1021 NOSIG=
METAR OEJN 110900Z 30014KT 9999 FEW040 25/10 Q1018 NOSIG=
METAR OEKJ 110900Z NIL=
METAR OEKK 110900Z 33020KT CAVOK 15/13 Q1019 NOSIG=
METAR OEKM 110900Z 22010KT 8000  RA OVC020 13/12 Q1024 NOSIG=
METAR OEMA 110900Z 10004KT 8000 SKC 16/00 Q1023 NOSIG=
METAR OEMK 110900Z 06002KT CAVOK 25/11 Q1017=
METAR OENG 110900Z 07004KT 9999 SCT030 BKN090 24/04 Q1018 NOSIG=
METAR OEPA 110900Z 28010KT 9999 FEW035 13/09 Q1018 NOSIG=
METAR OERF 110900Z 36016KT 9999 BKN040 BKN100 09/04 Q1018=
METAR OERK 110900Z 24009KT 9999 BKN040 17/11 Q1020 NOSIG=
METAR OERR 110900Z 31017KT 9999 BKN030 08/08 Q1020 NOSIG=
METAR OERY 110900Z NIL=
METAR OESH 110900Z 21011KT CAVOK 24/09 Q1016 NOSIG=
METAR OESK 110900Z 32016KT 9999 BKN020 09/00 Q1021=
METAR OETB 110900Z 30011KT 9999 FEW040 13/02 Q1023 NOSIG=
METAR OETF 110900Z 09005KT 9999 SCT030 13/04 Q1022 NOSIG=
METAR OETR 110900Z 33014KT 9999 SCT030 BKN100 05/04 Q1022=
METAR OEWD 110900Z 12008KT CAVOK 21/11 Q1017 NOSIG=
METAR OEWJ 110900Z 02003KT 9999 FEW030 23/07 Q1021 NOSIG=
METAR OEYN 110900Z 00000KT CAVOK 23/07 Q1018 NOSIG=
0000009200
412
SASD32 OEJD 110900
METAR OETF 110900Z 09005KT 9999 SCT030 13/04 Q1022 NOSIG=
0000217100
413
SZNZ01 NZKL 110909
CREX++
T000103 A001 D01021 D06025++
-3683144 17478654 AUCT  2014 01 11 09 01 //// 11 07 00 01
04050 3189 04049 3191 04046 3192 04037 3186 04034 3186 04028 3183+
-4402404 -17636748 CHIT  2014 01 11 09 01 //// 11 07 00 01
04446 1937 04444 1932 04443 1927 04455 1937 04462 1941 04466 1942+
-4089929 17623168 CPIT  2014 01 11 09 01 //// 11 07 00 01
03331 2299 03315 2279 03327 2288 03334 2292 03325 2280 03341 2293+
-3618905 17548887 GBIT  2014 01 11 09 01 //// 11 07 00 01
05013 -0025 05002 -0034 04996 -0039 04999 -0035 05012 -0020 05023 -0008+
-3867541 17802288 GIST  2014 01 11 09 01 //// 11 07 00 01
03333 2733 03342 2741 03338 2735 03340 2736 03347 2741 03328 2720+
-4241288 17370277 KAIT  2014 01 11 09 01 //// 11 07 00 01
02840 2221 02844 2220 02850 2222 02834 2203 02845 2209 02857 2218+
-3755040 17815904 LOTT  2014 01 11 09 01 //// 11 07 00 01
02729 0186 02714 0172 02725 0183 02732 0191 02730 0188 02749 0208+
-3704657 17451175 MNKT  2014 01 11 09 01 //// 11 07 00 01
02936 -0101 02900 -0129 02916 -0107 02878 -0138 02899 -0110 02867 -0136+
-3947566 17692007 NAPT  2014 01 11 09 01 //// 11 07 00 01
02403 2067 02411 2073 02396 2055 02420 2077 02400 2054 02395 2046+
-3441483 17304870 NCPT  2014 01 11 09 01 //// 11 07 00 01
-03060 -6797 -03093 -6826 -03294 -7023 -03224 -6949 -03265 -6988 -03242 -6961+
-4581435 17062939 OTAT  2014 01 11 09 01 //// 11 07 00 01
04326 3411 04334 3413 04339 3412 04348 3414 04355 3415 04363 3416+
-2928002 -17789440 RBCT  2014 01 11 09 01 //// 11 07 00 01
05510 2031 05486 2008 05507 2031 05498 2022 05509 2034 05513 2039+
-2925114 -17790384 RFRT  2014 01 11 09 01 //// 11 07 00 01
02411 0214 02415 0219 02389 0193 02404 0209 02403 0209 02418 0225+
-4357010 17277383 SUMT  2014 01 11 09 01 //// 11 07 00 01
01480 1894 01486 1895 01485 1888 01500 1898 01490 1882 01500 1886+
-3764109 17618118 TAUT  2014 01 11 09 01 //// 11 07 00 01
04340 3979 04339 3979 04331 3973 04334 3978 04323 3968 04323 3970+
-4128448 17477985 WLGT  2014 01 11 09 01 //// 11 07 00 01
02776 2054 02782 2057 02785 2057 02783 2051 02784 2049 02796 2057++
7777
0000010900
414
UANT01 CWAO 110907
ARP THY10 5452N05213W 0906 F330 MS62 282/96 KT
TCJJL QXT AOW 110907 F15A
0000071400
415
SINL20 EHDB 110900
AAXX 11091
06206 46/// /2907 10073 20061 30040 40093 53015
333 91009 91112 91210=
06207 47250 62511 10080 20074 30025 40079 57007 75865 8////
333 82/05 84/07 85/08 91014 91115 91213=
06239 47675 80206 10073 20055 30009 40070 52016 72365 8////
333 81/35 88/56 91007 91113 91210=
06252 46/// /2906 10074 20055 30064 40110 53021 222// 00095 10604
333 91007 91116 91213=
06260 47350 82105 10042 20030 30135 40137 51001 72281 8////
333 87/07 88/08 91009 91109 91206=
06270 47244 82209 10057 20049 30099 40099 58008 78165 8////
333 84/05 88/06 91013 91113 91209=
06290 47256 82104 10030 20019 30097 40138 51001 71011 8////
333 85/05 88/07 91007 91110 91206=
0000090600
416
SACI32 ZBBB 110900
METAR ZGKL 110900Z VRB02MPS 5000 BR FEW006 SCT016 OVC036
07/06
Q1025 NOSIG=
METAR ZGNN 110900Z 01003MPS 2000 -RA BR FEW007 SCT013 OVC026
14/12
Q1021 NOSIG=
METAR ZGOW 110900Z 11005MPS 7000 NSC 18/12 Q1021 NOSIG=
METAR ZGSZ 110900Z 20002MPS 6000 NSC 19/13 Q1020 NOSIG=
METAR ZLXY 110900Z 24005MPS CAVOK 07/M14 Q1030 NOSIG=
METAR ZMUB 110900Z 00000MPS 4000NW FU NSC M24/M28 Q1028 NOSIG
RMK
QFE662.6 69 NW MO=
METAR ZPPP 110900Z 23009MPS CAVOK 15/M03 Q1020 NOSIG=
METAR ZSAM 110900Z 12004MPS CAVOK 18/12 Q1022 NOSIG=
METAR ZSFZ 110900Z 03004MPS 9999 OVC023 14/08 Q1024 NOSIG=
METAR ZSNB 110900Z VRB01MPS 1800 -RA BR SCT003 BKN016 OVC040
07/06
Q1028 BECMG TL1030 1400=
METAR ZSQD 110900Z 16002MPS 2000 FU NSC 02/M06 Q1030 NOSIG=
METAR ZUGY 110900Z 05002MPS 010V090 7000 FEW009 BKN016 OVC033
03/01
Q1024 NOSIG=
METAR ZUUU 110900Z 02004MPS 350V060 8000 NSC 10/M00 Q1027 NOSIG=

0000011600
417
SIIN90 VISR 110900
AAXX 11094
42027 31596 41401 10062 21027 38474 48560 70521 83430
  333 58054=
0000011600
418
SIIN90 VICH 110900
AAXX 11094
42103 31995 33202 10178 20076 40185 70511 80001
  333 58024 83070=
0000010400
419
SIIN90 VIDD 110900
AAXX 11094
42182 31995 02908 10180 20097 40179 70500
  333 58027=
0000013400
420
SIIN90 VEGG 110900
AAXX 11094
42299 21396 80000 10074 20032 38205 48517 70252 8763/
  333 58012 6990/ 82709 85617=
0000062500
421
SAJP32 RJTD 110900
METAR RJFF 110900Z 32003KT 9999 FEW035 SCT150 06/M04 Q1028=
METAR RJCC 110900Z 26005KT 220V340 9999 FEW020 M07/M16 Q1019=
METAR RJFK 110900Z 34005KT 9999 FEW040 BKN050 06/M03 Q1027=
METAR RJSN 110900Z 31013KT 9999 FEW006 SCT020 BKN040 03/M03 Q1026=
METAR RJFT 110900Z VRB02KT 9999 FEW040 BKN050 05/M02 Q1028=
METAR RJFU 110900Z VRB02KT CAVOK 05/M00 Q1028=
METAR RJCH 110900Z 31008KT 9999 FEW015 SCT030 M07/M10 Q1021=
METAR RJSS 110900Z 25005KT 9999 FEW020 01/M06 Q1024=
METAR RJOA 110900Z 01006KT 9999 FEW040 SCT/// 02/M04 Q1027=
METAR RJOB 110900Z VRB02KT 9999 FEW040 SCT180 02/M05 Q1027=

0000025500
422
FTIN31 VECC 110900
TAF VECC 110900Z 1112/1218 00000KT 1800 FU/BR NSC BECMG 1121/1123 1000
         MIFG BECMG 1200/1202 0400 FG BECMG 1204/1206 36005KT 1200 BR
         BECMG 1207/1209 2500 HZ BECMG 1213/1215 00000KT 1800 FU/BR=
 

0000011000
423
SIIN90 VOHY 110900
AAXX 11094
43147 32597 30000 10294 20189 30115 40136 83800
  333 58006=
0000009200
424
SAIN90 VOMM 110910
METAR VOMM 110910Z 06006KT 8000 FEW020 28/19 Q1012 NOSIG=
0000024700
425
FTIN90 VECC 110900
TAF VECC 110900Z 1112/1218 00000KT 1800 FU/BR NSC BECMG 1121/1123 1000
         MIFG BECMG 1200/1202 0400 FG BECMG 1204/1206 36005KT 1200 BR
         BECMG 1207/1209 2500 HZ BECMG 1213/1215 00000KT 1800 FU/BR=
 

00000000