0000011900
846
SACN62 CYKY 102200
METAR CYKY 102200Z 30005KT 15SM SCT030 OVC070 M09/M10 A2945 RMK
 SC4AC4 SLP016=

0000009500
847
SAPF20 NTAA 102200
METAR NTAA 102200Z 23005KT 9999 FEW020 30/22 Q1012 NOSIG=

0000009900
848
SASR31 WSAP 102200
METAR WSAP 102200Z 02006KT 9999 
FEW020 BKN300 25/23 Q1010=

0000013400
849
SACN62 CYQL 102200
METAR CYQL 102200Z 26024KT 40SM FEW060 FEW140 BKN270 04/M03 A2952 RMK
 SC1AC1CI6 SC TR SLP023=

0000009600
850
SABA31 MYGF 102159
METAR MYGF 102200Z 14007KT 9999 SCT015 BKN220 25/22 A3009=

0000015600
851
SACN61 CYHE 102200
METAR CYHE 102200Z AUTO 29014G24KT 9SM SCT038 BKN045 BKN055 BKN099
 09/05 A2992 RMK MAX WND 28017KT AT 2156Z SLP133=

0000010600
852
SACN62 CYEK 102200
METAR CYEK 102200Z 35010KT 15SM FEW100 M32/M35 A2971 RMK AS1 SLP064=

0000011400
853
SACN61 CYPQ 102200
METAR CYPQ 102200Z AUTO 16006KT 1 1/4SM BR OVC003 00/00 A3012 RMK
 SLP211=

0000013600
854
SACN62 CYQI 102200
METAR CYQI 102200Z 22010G16KT 7SM -RA BKN006 OVC012 01/00 A3040 RMK
 SF5SF3 PCPN VRY LGT SLP296=

0000021100
855
SABU31 LBSM 102200
METAR LBSF 102200Z VRB02MPS 2800 BR NSC M01/M01 Q1022 NOSIG=
METAR LBWN 102200Z 31004MPS CAVOK 08/03 Q1018 NOSIG=
METAR LBBG 102200Z 24005MPS 7000 NSC 04/03 Q1019 NOSIG=

0000014500
856
SABU32 LBSM 102200
METAR LBPD 102200Z 29005MPS CAVOK 10/03 Q1019 NOSIG=
METAR LBGO 102200Z VRB01MPS CAVOK 03/01 Q1020 NOSIG=

0000017100
857
SAMX31 KWBC 102145 RRC
METAR
MMMZ 102140Z 26009KT 15SM BKN220 25/12 A2987 RMK 8/004 ISOL CC=
MMPR 102144Z 21005KT 15SM FEW120 26/18 A2990 RMK 8/080=

0000012100
858
SADL34 EDZO 102150 RRA
METAR EDNY 102150Z AUTO VRB01KT 2200 1300/ R24/1100VP2000U BCFG
01/M00 Q1019=

0000009900
859
SAPR01 SPIM 102200
METAR SPIM 102200Z 17015KT CAVOK 23/19 Q1010 NOSIG RMK PP000=

0000008900
860
SABZ24 SBFL 102200
METAR SBFL 102200Z 36008KT 9999 FEW030 27/24 Q1010=

0000015700
861
SAGC31 MWCR 102200
METAR MWCR 102200Z 11008KT 080V140 9999 FEW018 28/24 Q1015 NOSIG=
METAR MWCB 102200Z 11008KT 9999 FEW016 28/23 Q1015=

0000010200
862
SABR31 TBPB 102200
METAR TBPB 102200Z 06017KT 9999 FEW018 BKN036 25/21 Q1013 NOSIG=

0000009800
863
SAHU31 LHBM 102200
METAR LHBP 102200Z 17005KT 130V200 CAVOK 01/M00 Q1021 NOSIG=

0000011700
864
SALI20 GLRB 102200
METAR GLRB 102200Z 00000KT 9000 FEW014  FEW024 CB 26/25 Q1012
RMK CB-S, BRVC=

0000012700
865
SACN62 CYYJ 102200
METAR CYYJ 102200Z 13004KT 30SM SCT037 BKN055 OVC075 09/04 A2996 RMK
 SC3SC3AC2 SLP147=

00000000