0000009100
766
SAMF20 TFFR 110100
METAR TFFR 110100Z AUTO 08005KT 9999 NSC 24/20 Q1017=

0000008900
767
SAID33 WALR 110100
METAR WALR 110100Z 31008KT 9000 SCT016 27/24 Q1013=

0000009500
768
SAGQ20 FGSL 110100
METAR FGSL 110100Z 23005KT 6000 FEW010 24/22 Q1011 NOSIG=

0000011500
769
SASR31 WSSS 110100
METAR WSSS 110100Z 35004KT 280V030 9999 FEW020TCU BKN300 27/23 Q1013
NOSIG=

0000010500
770
SAFG20 SOCA 110100
METAR SOCA 110100Z AUTO VRB02KT 9999 -RA FEW020 OVC086 23/21 Q1012=

0000011000
771
UANT01 CWAO 110952
ARP AFR022 5101N01941W 0952 F360 MS63 221/74 KT
FGSPC QXT AOE 110952 F14A
0000398000
772
SOFX01 RJTD 111000
KKYY 11014 0222/ 132338 144556 88871 84660
20004 31900 43471 20009 31899 43471 20014 31899 43471 20018
31900 43471 20024 31900 43471 20028 31900 43471 20033 31900
43471 20038 31899 43471 20043 31899 43471 20048 31900 43471
20053 31900 43471 20058 31900 43471 20063 31900 43471 20068
31900 43471 20073 31898 43471 20078 31898 43471 20083 31893
43472 20088 31889 43472 20093 31889 43472 20098 31889 43472
20103 31889 43472 20108 31888 43472 20113 31886 43472 20118
31879 43472 20123 31877 43472 20128 31875 43473 20133 31874
43473 20138 31873 43473 20142 31873 43474 20147 31872 43474
20152 31871 43474 20157 31864 43474 20163 31858 43475 20167
31849 43476 20172 31836 43477 20177 31827 43477 20183 31817
43476 20187 31805 43476 20193 31796 43476 20198 31790 43475
20207 31780 43475 20217 31769 43475 20227 31761 43474 20237
31752 43474 20247 31745 43474 20257 31736 43473 20267 31728
43473 20276 31720 43473 20286 31713 43472 20296 31700 43472
20307 31688 43471 20316 31675 43470 20326 31666 43470 20336
31657 43469 20346 31649 43469 20356 31639 43468 20365 31630
43467 20376 31618 43466 20386 31610 43465 20395 31588 43463
20405 31580 43463 20415 31564 43461 20425 31535 43459 20435
31512 43458 20445 31495 43456 20455 31484 43456 20465 31465
43454 20475 31442 43453 20484 31419 43452 20495 31387 43449
20514 31326 43446 20535 31283 43443 20554 31227 43439 20574
31190 43437 20594 31144 43434 20613 31093 43430 20633 31029
43426 20653 30959 43420 20672 30904 43416 20693 30839 43411
20713 30773 43407 20732 30721 43405 20752 30669 43405 20772
30629 43403 20791 30578 43403 20811 30564 43403 20831 30544
43405 20851 30525 43406 20871 30513 43408 20890 30499 43409
20910 30485 43412 20930 30469 43417 20950 30451 43418 20970
30446 43419 20989 30442 43420 21039 30416 43424 21088 30396
43428 21138 30371 43432 21187 30350 43435 21236 30334 43438
21286 30323 43439 21335 30311 43441 21384 30298 43443 21433
30286 43445 21483 30276 4//// 21532 30267 43448 21582 30257
43450 21631 30251 43451 21680 30244 43453 21730 30229 43455
21778 30229 43455 21828 30225 43456 21877 30221 43457 21925
30217 43457 22000 30210 43459
Q2900689=
KKYY 11014 0556/ 130776 153596 88871 84460
20015 31932 43464 20025 31933 43464 20035 31933 43464 20045
31933 43464 20056 31933 43464 20066 31933 43464 20075 31933
43464 20085 31933 43464 20094 31933 43464 20104 31933 43465
20115 31932 43466 20124 31927 43466 20135 31893 43470 20144
31860 43471 20154 31827 43472 20164 31799 43471 20174 31778
43471 20184 31758 43470 20194 31733 43470 20211 31700 43469
20235 31655 43467 20261 31619 43465 20286 31583 43462 20311
31535 43459 20335 31470 43454 20360 31408 43451 20385 31331
43446 20410 31245 43440 20435 31140 43432 20459 31055 43426
20484 30969 43419 20509 30901 43413 20534 30829 43408 20558
30769 43404 20584 30709 43402 20608 30654 43400 20633 30620
43399 20657 30584 43400 20682 30558 43400 20707 30559 43408
20732 30518 43406 20757 30490 43408 20781 30473 43410 20806
30461 43413 20831 30449 43416 20855 30439 43418 20879 30427
43420 20905 30417 43422 20929 30404 43424 20954 30389 43427
20979 30378 43429 21004 30366 43430 21028 30358 43432 21053
30349 43433 21078 30341 43435 21102 30334 43436 21127 30327
43437 21152 30321 43438 21176 30316 43439 21201 30309 43440
21226 30303 43441 21251 30298 43442 21275 30291 43443 21300
30285 43444 21325 30280 43445 21349 30274 43446 21374 30268
43447 21399 30265 43448 21424 30259 43449 21448 30258 43450
21473 30252 43450 21497 30247 43451 21522 30244 43451 21546
30241 43452 21571 30238 43452 21595 30234 43453 21620 30232
43453 21645 30230 43454 21670 30228 43454 21694 30224 43455
21719 30221 43455 21744 30218 43456 21768 30214 43457 21793
30211 43457 21817 30209 43458 21843 30207 43458 21867 30204
43459 21891 30201 43459 21916 30199 43459 21940 30197 43460
21958 30196 43460
Q2901031=
0000008500
773
SAFJ31 NFNA 111100
METAR NFNA 111100Z 17005KT 9999 SCT020 26/24 Q1007
0000011000
774
UANT01 CWAO 111054
ARP UAL22 5307N02315W 1054 F350 MS64 206/65 KT
N17126 DDL H03 111054 F44A
0000009300
775
SNKI01 AMMC 111100
AAXX 11114
96995 45/// /1305 10261 20218 39793 40087=

0000008400
776
SAYE20 OYIB 110800 RRA
METAR OYIB 110800Z 03004KT CAVOK 22/06 Q1022=
0000012400
777
SIYE70 OYIB 110900 RRA
AAXX 11094
41452 42962 23504 10227 20047 38095 48497 80001 91051 333 58003
82070=
0000029100
778
SXXX32 EUMS 111048 RRX
269375AE
OT12 ID:FI-STAN-07 DT:2014 01 11 10 38
:RAD /1 07166 07161 07165 07158 07158 07159 07154 07156 07153 07154 07154 07148 07142 07137 07132 07127 07124 07113 07106 07099 07093 07087 07073 07063 07060 07052 07050 07045 07038 07033
:BAT 13.3V
0000037900
779
SXXX32 EUMS 111048 RRX
12FD90D0
:PRS 1 /1 1463 1457 1447 1445 1437 1420 1423 1422 1418 1435 1423 1418 :RAD 1 /3 5991 5980 5977 5978 5981 5981 5980 5981 5989 5997 :ENC 3 /6 5732 5722 5728 5723 5740 5759 5760 5770 5771 5725 :RA2 3 /6 4885 4883 4882 4882 4900 4918 4917 4929 4923 4879 :SW1 48 /60 40 :SW2 18 /60 60 :BAT 5 /6 12.8 :WTP 5 /6 28.4 28.4 :NAME 12FD90D0
0000045300
780
SXXX32 EUMS 111048 RRX
32D8A2BE
:PRS 1 /1 1676 1676 1674 1677 1682 1680 1685 1682 1687 1683 1692 1688 1688 1693 1690 1692 1694 1697 1695 1697 1698 1706 1697 1700 1707 1700 1706 1706 1716 1703 :RAD 1 /3 7257 7262 7267 7272 7274 7277 7279 7280 7284 7289 7292 7302 7302 7306 7312 7318 7325 7333 7338 7347 :ENC 3 /5 4690 4698 4705 4710 4714 4718 4724 4730 4738 4750 4761 4773 :SW1 48 /60 60 :SW2 18 /60 60 :BAT 14 /15 13.1 :NAME 32D8A2BE /
0000045100
781
SXXX32 EUMS 111048 RRX
22856700
:PRS 1 /1 4021 4021 4017 4021 4028 4021 4017 4029 4031 4034 4028 4023 4036 4027 4014 4015 4021 4014 4011 4011 4015 4019 4022 4016 4015 4019 4016 4014 4019 4020 :RAD 1 /3 7525 7528 7530 7526 7522 7520 7519 7521 7520 7521 7518 7516 7512 7509 7509 7508 7507 7504 7505 7505 :ENC 3 /5 5719 5727 5721 5711 5716 5717 5713 5706 5703 5703 5699 5702 :SW1 48 /60 0 :SW2 18 /60 0 :BAT 14 /15 12.6 :NAME 22856700 /
0000048200
782
SXXX32 EUMS 111049 RRX
262AD2C2
OT12 ID:PK-ORMA-10 DT:2014 01 11 10 48
:PRS /1 06758 06767 06785 06782 06781 06798 06801 06797 06809 06811 06817 06826 06827 06846 06835 06843 06841 06848 06849 06857 06872 06867 06884 06891 06904 06912 06911 06922 06925 06921
:RAD /1 ///// ///// ///// ///// ///// ///// ///// ///// ///// ///// ///// ///// ///// ///// ///// ///// ///// ///// ///// ///// ///// ///// ///// ///// ///// ///// ///// ///// ///// /////
:BAT 13.1V/
0000065100
783
SXXX32 EUMS 111049 RRX
18D74682
OT12 ID:ZA-GOUG-13 DT:2014 01 11 10 48
:RAD /3 21127 21136 21121 21111 21136 21136 21146 21137 21146 21157 21125 21118 21121 28874 21112 21136 21147 21151 21151 28866 21142 28871 21130 21146 21130 21130 28873 21142 28873 21157 21142 21118 28872 28868 28851 21151 21155 21177 02267 21125 28873 21142 19701 21166 28866 28872 28871 28866 21029 21111 21100 21102 21102 21091 21102 21106 21110 21097 21097 21107 21097 21110 21111 21127 21107 21116 02151 21113 21123 21128 21147 21141 21162 21153 21143 21158 21129 01783 21128 21138 21166 21159 21201 21147 21149 21164 21149 21175 21144 21164
:BAT 14.2V
0000069800
784
SXXX32 EUMS 111049 RRX
26A63714
OT12 ID:CO-PNTN-06 DT:2014 01 11 10 39
:RAD /1 01261 01273 01299 01275 01308 01291 01278 01242 01298 01276 01278 01272 01281 01280 01302 01310 01305 01306 01307 01292 01321 01334 01319 01313 01308 01348 01317 01328 01349 01301
:PR1 /1 ///// ///// ///// ///// ///// ///// ////' ///// ///// ///// ///// ///// ///// //'// ///// ///// ///// ///// ///// ///// ///// ///// ///// ///// ///// ///// ///// ///// ///// /////
:PR2 /1 ///// ///// ///// ///// ///// ///// ///// ///// ///// ///// ///// ///// ///// ///// ///// ///// ///// ///// ///// ///// ///// ///// ///// ///// ///// ///// ///// ///// ///// /////
:TM1 /15 /// /// /// ///
:BAT 12.4V
0000039700
785
SXXX32 EUMS 111051 RRX
16590056
:PRS 1 /1 2294 2295 2296 2298 2301 2303 2304 2307 2300 2303 2307 2303 :RAD 1 /1 6599 6602 6602 6602 6606 6608 6609 6611 6605 6608 6611 6607 6614 6612 6617 6619 6625 6632 :ENC 6 /6 4827 4833 4859 4862 4854 4892 4920 4916 4929 4960 :ENB 6 /6 4825 4833 4858 4859 4853 4892 4919 4915 4928 4960 :SW1 51 /60 0 :SW2 18 /60 0 :BAT 5 /6 13.0 :NAME 16590056
00000000