0000084900
926
SASN31 ESWI 110120
METAR ESGG 110120Z 24016KT 9999 OVC005 04/04 Q1001 R21/29//95=
METAR ESGJ 110120Z AUTO 23010KT 8000 BR FEW004/// SCT010///
BKN015/// 02/02 Q1000 REDZ REUP=
METAR ESGP 110120Z 22010KT 9999 BKN014 OVC031 06/04 Q1001
R19/19//95=
METAR ESGT 110120Z NIL=
METAR ESMK 110120Z AUTO 25010KT 9999NDV FEW013/// SCT028/// 06/04
Q1006 RERA REDZ=
METAR ESMQ 110120Z AUTO 20005KT 9999 FEW021/// SCT027/// 01/00
Q1004=
METAR ESMS 110120Z 25015KT 9999 BKN039 OVC150 05/03 Q1007
R17/29//95=
METAR ESMT 110120Z AUTO 24012KT 9999 FEW009/// OVC035/// 06/04
Q1005=
METAR ESMX 110120Z AUTO 22008KT 9999 DZ FEW007/// SCT008///
OVC010/// 04/03 Q1003 REDZ=
METAR ESTA 110120Z AUTO 25015KT 9999 SCT011/// OVC037/// 06/04
Q1005=
METAR ESTL 110120Z AUTO 24009KT 9999NDV FEW032/// BKN038/// 05/05
Q1006=

0000064900
927
SAFI31 EFHK 110120
METAR EFHK 110120Z 33012KT 9999 BKN011 M03/M04 Q0995 NOSIG=
METAR EFJY 110120Z AUTO 01008KT 9999 -SN OVC014 
M07/M09 Q0997=
METAR EFKU 110120Z AUTO 01010KT 9999 -SN OVC018 
M08/M10 Q0998=
METAR EFOU 110120Z AUTO 06010KT 020V110 7000 -SN BKN028/// OVC032/// 
M12/M15 Q1005 12420581=
METAR EFRO 110120Z AUTO 04011KT CAVOK M16/M19 
Q1010=
METAR EFTP 110120Z AUTO 35005KT 9999 BKN006 OVC008 
M04/M05 Q0997=
METAR EFTU 110120Z AUTO 04006KT 350V090 9999 -SN OVC006/// M02/M03 
Q0997 R08/19//80=
METAR EFVA 110120Z AUTO 02007KT 9999 SG FEW049/// SCT060/// BKN071///
M08/// Q1001 R16/49//95=

0000055500
928
SADL31 EDZO 110120
METAR EDDF 110120Z VRB01KT 9999 MIFG FEW026 M01/M01 Q1018 NOSIG=
METAR EDDH 110120Z 23010KT 9999 BKN013 06/04 Q1012 NOSIG=
METAR EDDK 110120Z 11002KT CAVOK 02/01 Q1017 NOSIG=
METAR EDDL 110120Z 15007KT CAVOK 02/00 Q1017 NOSIG=
METAR EDDM 110120Z 36001KT 9999 MIFG NSC M02/M02 Q1019 NOSIG=
METAR EDDN 110120Z 10004KT CAVOK 00/00 Q1018=
METAR EDDS 110120Z 28002KT CAVOK M01/M01 Q1018=
METAR EDDT 110120Z 25009KT 9999 BKN028 05/02 Q1015=
METAR EDDV 110120Z 27006KT 230V300 9999 FEW015 BKN035 05/04 Q1015=

0000044300
929
SADL32 EDZO 110120
METAR EDDB 110120Z 22009KT 9999 SCT024 SCT260 03/02 Q1015 NOSIG=
METAR EDDC 110120Z 24007KT CAVOK 04/00 Q1016=
METAR EDDE 110120Z 22010KT CAVOK 02/01 Q1016=
METAR EDDG 110120Z 22008KT 9000 BKN009 05/03 Q1015 NOSIG=
METAR EDDP 110120Z 21007KT 9999 SCT040 SCT100 BKN230 03/01 Q1017
     NOSIG=
METAR EDDR 110120Z 07003KT CAVOK M00/M01 Q1017=
METAR EDDW 110120Z 22008KT 8000 BKN011 06/04 Q1013=

0000009700
930
SPCN51 CWAO 110122
SPECI CZCP 110122Z AUTO 29022KT 1 1/4SM -SN CLR M33/ A2944=

0000055900
931
SADN31 EKCH 110120
METAR EKCH 110120Z 24011KT 9999 FEW020 BKN041 BKN160 05/04 Q1008
NOSIG=
METAR EKBI 110120Z 24011KT 210V280 9999 SCT008 BKN025 BKN150
06/04 Q1007=
METAR EKYT 110120Z 24013KT 9999 FEW010 BKN035 BKN160 07/05 Q1003=
METAR EKRK 110120Z AUTO 25013KT 9999NDV FEW013/// BKN034///
BKN150/// 05/04 Q1007=
METAR EKAH 110120Z AUTO 24007KT 190V270 9999NDV SCT015/// BKN150///
06/03 Q1006=
METAR EKEB 110120Z AUTO 23011KT 9999NDV BKN017/// 07/05 Q1007=
METAR EKRN 110120Z AUTO 26017KT 9999NDV BKN036/// 06/06 Q1009=

0000016500
932
SADN32 EKCH 110120
METAR EKVJ 110123Z NIL=
METAR EKSB 110123Z NIL=
METAR EKSN 110123Z NIL=
METAR EKVD 110123Z NIL=
METAR EKOD 110123Z NIL=

0000052700
933
SADN34 EKCH 110120
METAR EKHN 110120Z AUTO 24007G19KT 180V270 7000NDV BKN011///
BKN150/// ///// Q1009=
METAR EKHR 110120Z AUTO 24016KT 9999NDV FEW012/// BKN015///
08/06 Q1007=
METAR EKHA 110120Z AUTO 24022KT 3200NDV 07/06 Q1007=
METAR EKHD 110120Z AUTO 30020KT 6000NDV 07/06 Q1004=
METAR EKTE 110120Z AUTO 22019KT 9999NDV -SHRA FEW010 BKN022 BKN028 
07/06 Q1007=
METAR EKGC 110120Z AUTO 24022KT 9999NDV 07/06 Q1006=
METAR EKAV 110120Z AUTO 24017KT 9999NDV FEW037/// BKN120///
06/04 Q1005=

0000016100
934
SOVI10 KWAL 110956
B110070A 011095601 P9751095 B\P~W@@p0ekI1@mm???CcCf>@mi3@CC?@K5C?6bF2?????A"??? ?TIuKBZBZBfBgBnBn:AMPTEMP 25.85C  44+0NN 219E
0000037400
935
SANT31 KWBC 110100 RRB
METAR
BGBW 110125Z NIL=
BGCO 110125Z NIL=
BGGH 110120Z AUTO 14008KT 9999NDV FEW053/// FEW066/// SCT200///
     M08/M16 Q0993=
BGJN 110120Z AUTO 10012KT 9999NDV BKN190/// M09/M20 Q0995=
BGKK 110120Z AUTO /////KT 1300NDV -SN OVC009/// M03/M04 Q0987
     RESN=
BGSF 110120Z AUTO 06009KT 9999NDV BKN230/// M15/M22 Q0996=

0000037700
936
SAFI34 EFHK 110120
EFET 110120Z AUTO 33002KT CAVOK M30/M33 Q1014=
EFIV 110120Z AUTO 25003KT 9999 OVC002 M29/M32 Q1016=
EFKE 110120Z AUTO 02014KT CAVOK M14/M18 Q1009=
EFKI 110120Z AUTO 05011KT 020V080 9999 -IC SCT017 BKN116 BKN239
M12/M14 Q1001=
EFKS 110120Z AUTO 03006KT 340V080 CAVOK M17/M21 Q1006=
EFKT 110120Z AUTO 01003KT CAVOK M21/M23 Q1014=

0000055200
937
SAGR31 LGAT 110120
METAR LGAD 110120Z NIL=
METAR LGAV 110120Z 22002KT CAVOK 08/06 Q1020 NOSIG=
METAR LGIR 110120Z 17007KT CAVOK 11/09 Q1021 NOSIG=
METAR LGKL 110120Z AUTO VRB02KT //// // ////// 10/08 Q1022
     RE//=
METAR LGKO 110120Z NIL=
METAR LGKR 110120Z 00000KT 9999 FEW014 SCT018 BKN070 11/10 Q1021
 NOSIG=
METAR LGLM 110120Z AUTO 31004KT //// // ////// 11/10 Q1020
     RE//=
METAR LGRP 110120Z NIL=
METAR LGSA 110120Z 26014KT 9999 FEW020 14/09 Q1020=
METAR LGSM 110120Z NIL=
METAR LGTS 110120Z NIL=

0000044700
938
SAGR32 LGAT 110120
METAR LGAL 110120Z NIL=
METAR LGEL 110120Z NIL=
METAR LGIO 110120Z AUTO 00000KT //// // ////// 06/06 Q1022
     RE//=
METAR LGKV 110120Z NIL=
METAR LGMT 110120Z NIL=
METAR LGPZ 110120Z AUTO 05004KT //// // ////// 12/10 Q1023
     RE//=
METAR LGRX 110120Z NIL=
METAR LGSK 110120Z NIL=
METAR LGSR 110120Z AUTO 24006KT 150V260 //// // //////
     15/11 Q1020 RE//=
METAR LGZA 110120Z NIL=

0000012200
939
SAEU31 BKPR 110130
BKPR 110130Z 00000KT 0100 R17/0125 FZFG OVC002 M00/M01 Q1023 NOSIG
 RMK 17010095 =

0000043900
940
SAGR33 LGAT 110120
METAR LGBL 110120Z NIL=
METAR LGHI 110120Z NIL=
METAR LGKC 110120Z NIL=
METAR LGKF 110120Z AUTO VRB03KT //// // ////// 13/09 Q1022
     RE//=
METAR LGKP 110120Z NIL=
METAR LGKZ 110120Z AUTO 33012KT //// // ////// 06/00 Q1021
     RE//=
METAR LGMK 110120Z NIL=
METAR LGNX 110120Z NIL=
METAR LGPA 110120Z AUTO VRB03KT //// // ////// 13/12 Q1019
     RE//=
METAR LGSO 110120Z NIL=

0000121900
941
SAAK31 KWBC 110100
METAR
PABR 110053Z 31013KT 10SM FEW007 SCT120 M24/M28 A2988=
PACD 110053Z 15014G20KT 10SM FEW040 OVC100 03/M01 A2928=
PAED 110058Z 24005KT 8SM -SN OVC014 M04/M04 A2938=
PAEI NIL=
PAEN 110053Z 06004KT 10SM SCT006 OVC020 M03/M04 A2939=
PAFA 110053Z 00000KT 10SM FEW080 M27/M31 A2958=
PAFR NIL=
PAFS 110056Z AUTO 05004KT 10SM -SN OVC031 M14/M19 A2954=
PAFY NIL=
PAJN 110053Z 07008KT 10SM FEW018 BKN038 BKN060 OVC140 02/00
     A2945=
PAKN 110054Z 03004KT 10SM FEW004 BKN025 M03/M03 A2941=
PAKT 110053Z 00000KT 10SM FEW016 BKN033 BKN040 02/01 A2950=
PANC 110053Z 35004KT 7SM -SN SCT006 OVC014 M04/M06 A2938=
PAOM 110053Z 04006KT 10SM FEW100 M12/M19 A2965=
PAOR 110053Z 00000KT 7SM -SN BKN048 BKN070 BKN090 BKN130 M17/M19
     A2937=
PAOT 110053Z 03007KT 10SM CLR M18/M24 A2978=
PARY 110056Z AUTO 00000KT 10SM CLR M23/M27 A2959=
PASC 110053Z 26013KT 3SM -SN BR SCT010 BKN014 M31/M34 A2985=
PASG NIL=
PASI 110053Z 07010KT 10SM SCT014 BKN026 OVC045 02/01 A2944=
PATQ 110056Z AUTO 29006KT 10SM -SN FEW004 BKN008 M26/M29 A2991=
PAVD 110056Z 10SM FEW015 FEW090 BKN120 M05/M07 A2934=
PAWG 110056Z 15004KT 10SM OVC050 03/M01 A2951=
PFYU NIL=

0000010900
942
SAGR31 LGAT 110120 RRA
METAR LGTS 110120Z 00000KT 5000 BR SCT008 SCT180 05/04 Q1021 NOSIG=

0000216800
943
SPUS70 KWBC 110032
SPECI
KADG 110028Z AUTO 16007KT 2SM -RA BR OVC002 02/02 A2986 RMK AO2
     UPE01RAB01 P0000 TSNO=
KBEH 110028Z AUTO 15012G19KT 3SM RA BR SCT007 BKN012 OVC033 03/03
     A2972 RMK AO2 P0005=
KDNL 110028Z AUTO 00000KT 3SM -RA BR OVC006 09/09 A3012 RMK AO2
     RAB2354 P0010 T00940089 TSNO=
KFOE 110028Z 28008KT 9SM SCT006 OVC016 03/01 A2959 RMK AO2
     T00280011=
KILN 110028Z AUTO 13009KT 10SM BKN028 OVC035 07/06 A2988 RMK AO2
     T00670061=
KLWC 110028Z AUTO 29008KT 4SM BR SCT008 BKN012 OVC017 03/02 A2959
     RMK AO2 T00330022=
KMEM 110028Z 17012G19KT 7SM -RA BKN033 OVC047 12/09 A2976 RMK AO2
     RAB00 P0002=
KMVY 110028Z AUTO 17004KT 6SM -RA BR SCT006 OVC012 06/04 A3037 RMK
     AO2 P0001 $=
KPKD 110028Z AUTO 17007KT 1SM BR OVC002 M03/M03 A2946 RMK AO2
     T10331033 TSNO=
PABA 110028Z AUTO 27019KT 2SM -SN OVC047 M26/M29 A2985 RMK AO2
     SNB26 P0000 FZRANO=
PAGK 110028Z AUTO 00000KT 3/4SM -SN BR OVC025 M09/M11 A2931 RMK
     AO2 SNB05 P0000 T10891106 TSNO=
KNSE 110029Z 12007KT 1/4SM -RA BR OVC002 16/14 A3000 RMK AO2 RAB29
     P0000 T01560144 $=
KBHM 110029Z 00000KT 10SM BKN007 OVC013 12/10 A3003 RMK AO2=
KCUB 110029Z AUTO 00000KT 4SM -RA BR FEW004 BKN008 OVC039 11/10
     A3014 RMK AO2 RAB06 P0001 T01060100 TSNO=
KEYE 110029Z AUTO 14006KT 1/2SM -RA FG OVC002 05/04 A2980 RMK AO2
     P0003 T00500044=
KGRD 110029Z AUTO 05004KT 1 1/4SM BR OVC002 08/07 A3015 RMK AO2
     RAB12E21 P0001=
KIGX 110029Z AUTO 35005KT 3SM RA BR BKN006 OVC012 06/04 A3019 RMK
     AO2 P0017 T00560044=
KLBT 110029Z AUTO 00000KT 2 1/2SM -RA BR BKN009 OVC013 17/16 A3013
     RMK AO2 P0011 T01720161=
KLXT 110029Z AUTO 26005KT 7SM FEW008 SCT011 OVC025 04/04 A2956 RMK
     AO2 T00440039=
KPTK 110029Z 15010KT 1/4SM R09R/2000V2800FT FG VV002 02/01 A2986
     RMK AO2=
KRHI 110030Z AUTO 11005KT 2 1/2SM BR FEW007 BKN019 OVC023 M04/M05
     A2958 RMK AO2 SNE03 P0000 T10391050=
PABA 110028Z AUTO 27019KT 2SM -SN OVC047 M26/M29 A2985 RMK AO2
     SNB26 P0000 FZRANO=
PAGA 110027Z AUTO 00000KT 6SM HZ CLR M25/M28 A2968 RMK AO2 FZRANO
     PNO $=

0000010400
944
SPUS31 KWBC 110032
SPECI
KMEM 110028Z 17012G19KT 7SM -RA BKN033 OVC047 12/09 A2976=

0000009700
945
SASA31 KWBC 110000 RRC
METAR
SOCA 110030Z AUTO VRB03KT 9999 NSC 23/21 Q1012=

00000000