0000010700
826
SPUS41 KWBC 102032
SPECI
KHVN 102028Z 00000KT 2SM BR SCT003 BKN010 OVC029 01/00 A3037=

0000010800
827
SPUS42 KWBC 102032
SPECI
KTMB 102028Z 13012G17KT 10SM FEW022 SCT027 BKN038 27/22 A3007=

0000013200
828
SPCN31 CWAO 102030
SPECI CYZF 102030Z 30004KT 2SM -SN FEW008 BKN016 OVC040 M22/M26 A2949
 RMK SF1SC6SC1 SLP014=

0000010800
829
SACA33 KWBC 102000 RRD
METAR
TFFR 102030Z 09013KT 9999 SCT036 SCT056 27/19 Q1015 NOSIG=

0000013300
830
SASA31 KWBC 102000 RRD
METAR
SOCA 102030Z AUTO 13003KT 100V160 9999 -RA FEW007 SCT048 BKN066
     25/23 Q1009=

0000016300
831
SACY31 LCLK 102030
METAR LCLK 102030Z 31004KT CAVOK 09/03 Q1021 NOSIG=
METAR LCPH 102030Z 03007KT CAVOK 11/04 Q1022=
METAR LCNC 102030Z NIL=

0000009500
832
SAHK31 VHHH 102030
METAR VHHH 102030Z 08007KT 9000 FEW025 15/11 Q1023 NOSIG=

0000023100
833
FTMX65 MMMX 102032 AMD
TAF AMD MMMA 102032Z 1021/1118 15015G25KT 6SM BLDU SCT020 
         FM110200 16010G20KT 6SM HZ SCT015 
         TEMPO 1112/1115 1SM BR BKN005 
         FM111800 15015KT 6SM HZ SCT020=

0000023300
834
SACZ31 LKPW 102030
METAR LKKV 102030Z NIL=
METAR LKMT 102030Z 19007KT CAVOK 03/M02 Q1018 NOSIG=
METAR LKPR 102030Z 23011KT CAVOK 04/00 Q1018 NOSIG=
METAR LKTB 102030Z 21006KT 180V240 CAVOK 02/M01 Q1019 NOSIG=

0000010400
835
SAIL31 BICC 102030
METAR BIKF 102030Z 26016KT 9999 FEW029 BKN055 OVC070 02/M02 Q0990=

0000035800
836
FCSN31 ESWI 102000
TAF ESGJ 102030Z 1021/1102 22007KT 9999 BKN015 PROB40 1021/1023
BKN013=
TAF ESGP 102030Z 1021/1106 20010KT 9999 BKN020 PROB40 1022/1106 RA
BKN008=
TAF ESGT 102000Z NIL=
TAF ESMK 102000Z NIL=
TAF ESMQ 102000Z NIL=
TAF ESMT 102000Z NIL=
TAF ESMX 102000Z NIL=
TAF ESTA 102000Z NIL=
TAF ESTL 102000Z NIL=

0000028100
837
FCSN32 ESWI 102000
TAF ESOE 102000Z NIL=
TAF ESOK 102030Z 1021/1023 12005KT 9999 BKN016 PROB40 1021/1023
BKN013=
TAF ESOW 102000Z NIL=
TAF ESSB 102000Z NIL=
TAF ESSD 102000Z NIL=
TAF ESSP 102030Z 1021/1023 33007KT 9999 BKN013=
TAF ESSV 102000Z NIL=

0000040600
838
FCSN33 ESWI 102000
TAF ESNG 102000Z NIL=
TAF ESNK 102000Z NIL=
TAF ESNN 102000Z NIL=
TAF ESNO 102000Z NIL=
TAF ESNQ 102000Z NIL=
TAF ESNS 102030Z 1021/1023 36012KT 1000 SN VV006 PROB40 1021/1023
4000 -SN VV015=
TAF ESNU 102030Z 1021/1106 35015KT 6000 -SN BKN015 PROB40 1021/1106
2000 SN VV008=
TAF ESNZ 102030Z 1021/1023 03005KT 9999 -SN BKN025=
TAF ESUT 102000Z NIL=

0000042600
839
FCSN34 ESWI 102000
TAF ESCF 102000Z NIL=
TAF ESCM 102000Z NIL=
TAF ESDF 102000Z NIL=
TAF ESIA 102000Z NIL=
TAF ESIB 102000Z NIL=
TAF ESMV 102000Z NIL=
TAF ESNL 102000Z NIL=
TAF ESPA 102030Z 1021/1024 02010KT 1000 SN VV020 TEMPO 1021/1024 5000
-SN VV014 RMK ISSUED BY ESSA=
TAF ESPE 102000Z NIL=
TAF ESSL 102030Z 1021/1023 35003KT 9999 OVC010 PROB40 1021/1023
OVC009 RMK ISSUED BY ESSA=

0000121000
840
FTUS31 KWBC 102033 AAA
TAF AMD
KEWR 102031Z 1021/1124 VRB04KT 2SM BR SCT005 OVC012
      TEMPO 1021/1024 1SM -DZ BKN005 OVC012
     FM110000 VRB03KT 1SM BR BKN005 OVC012
      TEMPO 1102/1105 -RA
     FM110500 15005KT 3/4SM -RA BR BKN005 OVC008
     FM110800 16008KT 3/4SM -RA BR OVC004 WS020/19050KT
     FM111400 17014KT 1SM -RA BR OVC004 WS015/19050KT
     FM111900 18016G23KT 1SM RA OVC004 WS015/19050KT=
KJFK 102031Z 1021/1124 VRB04KT 2SM BR SCT008 OVC020
      TEMPO 1021/1024 1SM -DZ BR BKN008
     FM110000 VRB04KT 1SM BR FEW005 BKN008 OVC015
      TEMPO 1102/1105 -RA
     FM110500 16008KT 3/4SM -RA BR BKN005 OVC008 WS020/19040KT
     FM110800 15011KT 3/4SM -RA BR OVC004 WS020/19055KT
     FM111400 17018KT 1SM -RA BR OVC004 WS015/19060KT
     FM111900 18023G30KT 1SM RA OVC004 WS015/19060KT=
KLGA 102031Z 1021/1118 06005KT 2SM BR SCT008 OVC015
      TEMPO 1021/1024 1SM -DZ BR BKN008
     FM110000 06005KT 1SM BR FEW005 BKN008 OVC012
      TEMPO 1102/1105 -RA
     FM110500 15007KT 3/4SM -RA BR BKN005 OVC008 WS020/19040KT
     FM110800 15011KT 3/4SM -RA BR OVC004 WS020/19055KT
     FM111400 17016KT 1SM -RA BR OVC004 WS015/19060KT=

0000075800
841
FTUS31 KWBC 102033 AAB
TAF AMD
KSWF 102031Z 1021/1124 VRB02KT 5SM BR OVC015
     FM110000 VRB02KT 2SM BR FEW006 BKN012 OVC025
      TEMPO 1102/1105 -DZ BKN006 OVC015
     FM110500 14004KT 3/4SM -RA BR BKN006 OVC010
     FM110800 16008KT 1/2SM -RA FG OVC004
     FM111400 17010KT 1/2SM -RA FG OVC004 WS015/19050KT
     FM111900 17014KT 1SM RA OVC004 WS015/19050KT AMD NOT SKED=
KTEB 102031Z 1021/1118 VRB03KT 3SM BR SCT008 OVC020
      TEMPO 1021/1024 1SM -DZ BR BKN008
     FM110000 VRB02KT 1SM BR SCT006 OVC012
      TEMPO 1102/1105 -RA BKN006 OVC012
     FM110500 15003KT 3/4SM -RA BR BKN005 OVC008
     FM110800 15007KT 3/4SM -RA BR OVC004 WS020/19050KT
     FM111400 17009KT 1SM -RA BR OVC004 WS015/19050KT=

0000104500
842
FTUS41 KWBC 102033 AAA
TAF AMD
KBDR 102031Z 1021/1118 VRB02KT 1SM BR SCT012 OVC025
      TEMPO 1021/1024 -DZ
     FM110000 VRB03KT 1SM BR FEW006 BKN012 OVC025
      TEMPO 1102/1105 -RA
     FM110500 15003KT 3/4SM -RA BR BKN006 OVC012
     FM110800 15008KT 3/4SM -RA BR OVC003 WS020/19050KT
     FM111400 17011KT 1SM -RA BR OVC004 WS015/19050KT=
KGON 102031Z 1021/1118 VRB03KT 1SM BR SCT008 BKN012 OVC020
      TEMPO 1021/1024 -RADZ BR BKN008
     FM110000 VRB04KT 1SM BR FEW006 BKN008 OVC012
     FM110600 14004KT 3/4SM -RA BR BKN006 OVC012
     FM110900 15008KT 3/4SM -RA BR OVC004 WS020/19050KT
     FM111400 16011KT 1SM -RA BR OVC004 WS020/19055KT=
KHPN 102031Z 1021/1118 VRB04KT 4SM BR BKN008 OVC015
      TEMPO 1021/1024 2SM -DZ BR
     FM110000 VRB03KT 1SM BR BKN006 OVC010
      TEMPO 1102/1105 -RA
     FM110500 15003KT 3/4SM -RA BR BKN004 OVC009
     FM110800 15008KT 1/2SM -RA FG OVC003 WS020/19050KT
     FM111400 17011KT 1SM -RA BR OVC004 WS015/19050KT AMD NOT
      SKED=

0000021500
843
FTUS44 KWBC 102033 AAA
TAF AMD
KCLM 102030Z 1021/1118 12005KT P6SM OVC016
     FM110000 11005KT 4SM RA BR OVC011
      TEMPO 1104/1108 2SM -RA OVC008
     FM111200 29010KT P6SM -RA OVC018=

0000143900
844
FTUS71 KWBC 102033 AAA
TAF AMD
KBDR 102031Z 1021/1118 VRB02KT 1SM BR SCT012 OVC025
      TEMPO 1021/1024 -DZ
     FM110000 VRB03KT 1SM BR FEW006 BKN012 OVC025
      TEMPO 1102/1105 -RA
     FM110500 15003KT 3/4SM -RA BR BKN006 OVC012
     FM110800 15008KT 3/4SM -RA BR OVC003 WS020/19050KT
     FM111400 17011KT 1SM -RA BR OVC004 WS015/19050KT=
KEWR 102031Z 1021/1124 VRB04KT 2SM BR SCT005 OVC012
      TEMPO 1021/1024 1SM -DZ BKN005 OVC012
     FM110000 VRB03KT 1SM BR BKN005 OVC012
      TEMPO 1102/1105 -RA
     FM110500 15005KT 3/4SM -RA BR BKN005 OVC008
     FM110800 16008KT 3/4SM -RA BR OVC004 WS020/19050KT
     FM111400 17014KT 1SM -RA BR OVC004 WS015/19050KT
     FM111900 18016G23KT 1SM RA OVC004 WS015/19050KT=
KGON 102031Z 1021/1118 VRB03KT 1SM BR SCT008 BKN012 OVC020
      TEMPO 1021/1024 -RADZ BR BKN008
     FM110000 VRB04KT 1SM BR FEW006 BKN008 OVC012
     FM110600 14004KT 3/4SM -RA BR BKN006 OVC012
     FM110900 15008KT 3/4SM -RA BR OVC004 WS020/19050KT
     FM111400 16011KT 1SM -RA BR OVC004 WS020/19055KT=
KHPN 102031Z 1021/1118 VRB04KT 4SM BR BKN008 OVC015
      TEMPO 1021/1024 2SM -DZ BR
     FM110000 VRB03KT 1SM BR BKN006 OVC010
      TEMPO 1102/1105 -RA
     FM110500 15003KT 3/4SM -RA BR BKN004 OVC009
     FM110800 15008KT 1/2SM -RA FG OVC003 WS020/19050KT
     FM111400 17011KT 1SM -RA BR OVC004 WS015/19050KT AMD NOT
      SKED=

0000118600
845
FTUS71 KWBC 102033 AAB
TAF AMD
KISP 102031Z 1021/1118 VRB03KT 2SM BR SCT012 OVC020
      TEMPO 1021/1024 1SM -DZ BR BKN012
     FM110000 VRB04KT 1SM BR SCT008 BKN012 OVC025
      TEMPO 1102/1105 -RA BKN008 OVC015
     FM110500 16008KT 3/4SM -RA BR BKN006 OVC012 WS020/19040KT
     FM110800 15013KT 3/4SM -RA BR OVC004 WS020/19055KT
     FM111400 17016KT 1SM -RA BR OVC004 WS015/19060KT=
KJFK 102031Z 1021/1124 VRB04KT 2SM BR SCT008 OVC020
      TEMPO 1021/1024 1SM -DZ BR BKN008
     FM110000 VRB04KT 1SM BR FEW005 BKN008 OVC015
      TEMPO 1102/1105 -RA
     FM110500 16008KT 3/4SM -RA BR BKN005 OVC008 WS020/19040KT
     FM110800 15011KT 3/4SM -RA BR OVC004 WS020/19055KT
     FM111400 17018KT 1SM -RA BR OVC004 WS015/19060KT
     FM111900 18023G30KT 1SM RA OVC004 WS015/19060KT=
KLGA 102031Z 1021/1118 06005KT 2SM BR SCT008 OVC015
      TEMPO 1021/1024 1SM -DZ BR BKN008
     FM110000 06005KT 1SM BR FEW005 BKN008 OVC012
      TEMPO 1102/1105 -RA
     FM110500 15007KT 3/4SM -RA BR BKN005 OVC008 WS020/19040KT
     FM110800 15011KT 3/4SM -RA BR OVC004 WS020/19055KT
     FM111400 17016KT 1SM -RA BR OVC004 WS015/19060KT=

00000000