0000011000
766
SPUS41 KWBC 102239
SPECI
KWRI 102234Z AUTO 03003KT 3/4SM R06/2000FT BR VV003 02/02 A3030=

0000010400
767
SPUS42 KWBC 102239
SPECI
KBPT 102235Z 17012KT 2SM -RA BR BKN012 OVC048 19/17 A2985=

0000009800
768
SPUS43 KWBC 102239
SPECI
KMKE 102235Z 17013KT 2SM FZRA BR OVC003 01/01 A2971=

0000016600
769
SAAK31 KWBC 102200 RRB
METAR
PAVD 102236Z 10SM FEW005 FEW020 BKN100 M02/M05 A2938=
PAWG 102236Z 00000KT 10SM FEW012 BKN030 OVC080 03/M01 A2960=

0000012500
770
SAAK32 KWBC 102200 RRB
METAR
PADK 102236Z AUTO 23014G27KT 10SM FEW036 SCT046 OVC055 03/M01
     A2894=

0000217100
771
SZNZ01 NZKL 110948
CREX++
T000103 A001 D01021 D06025++
-3683144 17478654 AUCT  2014 01 11 09 40 //// 11 07 00 01
03964 3186 03966 3189 03965 3188 03963 3187 03961 3185 03961 3186+
-4402404 -17636748 CHIT  2014 01 11 09 40 //// 11 07 00 01
04602 1963 04621 1979 04596 1950 04588 1939 04595 1942 04601 1945+
-4089929 17623168 CPIT  2014 01 11 09 40 //// 11 07 00 01
03453 2277 03449 2269 03453 2269 03476 2288 03476 2283 03483 2285+
-3618905 17548887 GBIT  2014 01 11 09 40 //// 11 07 00 01
04991 -0027 04990 -0028 04998 -0021 05003 -0016 05011 -0009 05015 -0006+
-3867541 17802288 GIST  2014 01 11 09 40 //// 11 07 00 01
03456 2770 03480 2791 03472 2780 03488 2793 03478 2780 03484 2782+
-4241288 17370277 KAIT  2014 01 11 09 40 //// 11 07 00 01
03035 2239 03028 2226 03041 2235 03057 2246 03050 2234 03058 2237+
-3755040 17815904 LOTT  2014 01 11 09 40 //// 11 07 00 01
02756 0189 02759 0191 02769 0199 02775 0202 02765 0191 02770 0194+
-3704657 17451175 MNKT  2014 01 11 09 40 //// 11 07 00 01
02606 -0161 02615 -0146 02601 -0152 02601 -0145 02601 -0138 02585 -0147+
-3947566 17692007 NAPT  2014 01 11 09 40 //// 11 07 00 01
02496 2035 02504 2039 02513 2044 02518 2045 02513 2036 02520 2039+
-3441483 17304870 NCPT  2014 01 11 09 40 //// 11 07 00 01
-04312 -7936 -04316 -7938 -04415 -8035 -04426 -8044 -04434 -8050 -04450 -8064+
-4581435 17062939 OTAT  2014 01 11 09 40 //// 11 07 00 01
04571 3403 04578 3404 04582 3402 04591 3404 04595 3401 04599 3399+
-2928002 -17789440 RBCT  2014 01 11 09 40 //// 11 07 00 01
05479 2013 05480 2014 05485 2018 05481 2014 05482 2015 05483 2015+
-2925114 -17790384 RFRT  2014 01 11 09 40 //// 11 07 00 01
02382 0195 02392 0205 02389 0201 02378 0191 02380 0192 02395 0206+
-4357010 17277383 SUMT  2014 01 11 09 40 //// 11 07 00 01
01735 1909 01740 1908 01733 1894 01749 1903 01763 1911 01748 1889+
-3764109 17618118 TAUT  2014 01 11 09 40 //// 11 07 00 01
04311 3982 04320 3990 04314 3984 04314 3984 04312 3982 04309 3978+
-4128448 17477985 WLGT  2014 01 11 09 40 //// 11 07 00 01
02906 2036 02906 2032 02913 2035 02917 2035 02926 2040 02916 2026++
7777
0000010500
772
SAAB31 LATI 102250
METAR LATI 102250Z 00000KT 5000 BR SCT036 BKN057 11/09 Q1022 NOSIG=

0000039100
773
FTAF33 OEJD 102200
TAF DTMB 102230Z 1100/1124 17008KT 9999 FEW020 TEMPO 1100/1118
18015G25KT=
TAF DTTA 102230Z 1100/1124 VRB03KT 8000 FEW026 PROB30 TEMPO 1101/1107
4000 BR BECMG 1108/1110 18010KT 9999 FEW020=
TAF DTTJ 102230Z 1100/1124 18004KT 8000 NSC PROB30 TEMPO 1102/1107
4000 BR BECMG 1107/1109 18012KT CAVOK=
TAF HLLB 102200Z NIL=
TAF HLLT 102200Z NIL=

0000009300
774
SPCN45 CWAO 102238
SPECI CYOA 102238Z 14010KT 3SM -SN DRSN OVC025 RMK SC8=

0000009100
775
SPCN46 CWAO 102245
SPECI CYKZ 102245Z 14004KT 2 1/2SM BR OVC004 RMK ST8=

0000024200
776
FTCN36 CWAO 102200 AAA
TAF AMD CYGL 102246Z 1022/1118 23012KT 6SM -SN OVC010 TEMPO 1022/1106
     2SM -SN -FZDZ BR OVC004
    FM110600 15010KT 2SM -SN OVC005 TEMPO 1106/1118 4SM -SN OVC010
    RMK NXT FCST BY 110000Z=

0000037700
777
FTNC20 NWWM 102300
TAF NWWL 102300Z 1100/1124 12013KT 9999 SCT033=
TAF NWWM 102300Z 1100/1124 13018KT 9999 SCT030 BKN060 BECMG 1110/1112
 07010KT BECMG 1120/1122 13015KT=
TAF NWWR 102300Z 1100/1124 12010KT 9999 SCT035 SCT060 PROB30 TEMPO
1109/1121 4000 SHRA=
TAF NWWU 102300Z 1100/1124 11015KT 9999 SCT025 BKN050 PROB30 TEMPO
1118/1124 4000 SHRA=

0000011100
778
SPAU32 YBBN 102246
SPECI YPGV 102242Z 13010KT 9999 -SHRA BKN012 SCT060 OVC180 27/25
Q1008=

0000181100
779
SPUS70 KWBC 102246
SPECI
KADF 102241Z AUTO 31003KT 2 1/2SM RA BR BKN005 OVC010 13/13 A2975
     RMK AO2 CIG 003V009 LTG DSNT E RAE18B34 P0003=
KCHO 102242Z 01003KT 2SM -RA BR BKN003 OVC009 02/01 A3026 RMK AO2
     RAB05 P0003 T00220011=
KESF 102242Z AUTO 20005KT 3SM -RA BR OVC010 18/17 A2987 RMK AO2
     RAB16 P0002=
KMFI 102242Z AUTO 11007KT 3/4SM -SN BR BKN005 OVC011 M02/M03 A2961
     RMK AO2 FZRAE00SNB00 P0001 I1000 T10171028=
KPHD 102242Z AUTO 13005KT 5SM BR BKN026 OVC060 04/03 A3006 RMK AO2
     T00440033 TSNO=
KSSI 102242Z AUTO 12008KT 2SM BR OVC002 18/17 A3010 RMK AO2
     T01780172=
KY50 102242Z AUTO 07007KT 3/4SM FZRA OVC002 M01/ A2964 RMK AO2
     TSNO FZRAB23 P0000 $=
PAGA 102241Z AUTO 00000KT 1 3/4SM HZ CLR M23/M26 A2969 RMK AO2 VIS
     1V5 FZRANO PNO $=
PACV 102243Z 00000KT 2 1/2SM R27/4000VP6000FT -SN BR BKN013 OVC017
     01/00 A2936 RMK AO2 SNE09B38 P0000 $=
KAMW 102243Z AUTO 00000KT 2SM BR FEW003 OVC013 00/00 A2954 RMK AO2
     T00000000=
KAUW 102243Z AUTO 11009KT 1 3/4SM -SN BR OVC004 M03/M03 A2961 RMK
     AO2 FZRAB29E38SNB38 P0000 I1002 T10281033=
KBKL 102243Z 15014KT 7SM BKN007 OVC060 04/03 A3000 RMK AO2 $=
KFSM 102243Z 01006KT 1 3/4SM BR FEW001 SCT095 SCT120 10/09 A2963
     RMK AO2=
KLLQ 102243Z AUTO 18005KT 3SM -RA BR SCT007 OVC012 13/12 A2981 RMK
     AO2 P0001=
KLSE 102243Z 09003KT 1 3/4SM -FZRA BR OVC011 00/M02 A2959 RMK AO2
     UPB37E43FZRAB43SNE08 P0001 I1001 T00001017=
KLXT 102243Z AUTO 24004KT 1 3/4SM BR OVC003 05/04 A2954 RMK AO2
     T00500044=
KORE 102243Z AUTO 20003KT 7SM FEW007 OVC013 M01/M02 A3032 RMK AO2
     T10111022=
KPKB 102243Z 10004KT 10SM SCT015 09/07 A3008 RMK AO2 T00940072=
KZZV 102243Z AUTO 13006KT 8SM BKN013 OVC021 07/05 A3004 RMK
     AO2=

0000009800
780
SPUS42 KWBC 102246
SPECI
KSSI 102242Z AUTO 12008KT 2SM BR OVC002 18/17 A3010=

0000061000
781
FTLY31 HLMC 102300
TAF HLLT 102300Z 1100/1124 VRB02KT CAVOK BECMG 1110/1112 20010KT
BECMG 1116/1118 VRB02KT=
TAF HLLM 102300Z 1100/1124 VRB02KT 8KM NSC BECMG 1110/1112 06010KT
BECMG 1116/1118 VRB02KT=
TAF HLMS 102300Z 1100/1124 VRB02KT CAVOK BECMG 1108/1110 20010KT
BECMG 1116/1118 VRB02KT =
TAF HLLB 102300Z 1100/1124 VRB02KT 9999 SCT020 BECMG 1110/1112
25010KT BECMG 1116/1118 VRB02KT=
TAF HLLS 102300Z 1100/1124 VRB02KT CAVOK BECMG 1108/1110 12015KT
BECMG 1116/1118 VRB02KT =
TAF HLKF 102300Z 1100/1124 VRB02KT CAVOK BECMG 1108/1110 06010KT
BECMG 1116/1118 VRB02KT =

0000019100
782
FTVN41 SVBM 110000
TAF SVBM 102245Z 1100/1200 11010KT 9999 SCT016 TX31/1900Z TN18/0800Z
BECMG 1104/1108 09010KT 9999 SCT016 SCT100  BECMG 1109/1113 07005KT
9999 SCT013=

0000100300
783
FTMS40 WMKK 102300
TAF WBGB 102300Z 1100/1124 12005KT 9999 SCT016 BKN300
TEMPO 1100/1103 5000 RA SCT014 BKN150
TEMPO 1109/1112 4000 TSRA SCT014 FEW015CB BKN150=
TAF WBGR 102300Z 1100/1124 10005KT 9999 FEW016 SCT150 BKN300
TEMPO 1100/1103 4000 RA SCT014 BKN150=
TAF WBGS 102300Z 1100/1124 03005KT 9999 SCT018 BKN300
TEMPO 1109/1112 4000 TSRA FEW015CB SCT016 BKN150=
TAF WBKL 102300Z 1100/1124 22006KT 9999 FEW012 FEW016CB SCT140
BKN290 PROB30 TEMPO 1100/1104 4000 TSRA FEW010 FEW015CB SCT040=
TAF WBKS 102300Z 1100/1124 07010KT 9999 FEW012 FEW017CB SCT140
BKN270 TEMPO 1100/1105 06010G20KT 2500 TSRA FEW010 FEW015CB SCT030
BECMG 1116/1118 27010KT=
TAF WBKW 102300Z 1100/1124 27005KT 9999 FEW016 FEW017CB SCT140
BKN300=
TAF WMKL 102300Z 1100/1124 05005KT 9999 FEW017CB SCT140 BKN280
PROB30 TEMPO 1107/1111 4000 TSRA FEW010 FEW015CB SCT018=
TAF WMKM 102300Z 1100/1124 03005KT 9999 FEW017CB SCT140 BKN280
TEMPO 1107/1111 4000 TSRA FEW010 FEW015CB SCT018=

0000023300
784
FTLY31 HLMC 102200 RRA
TAF HLLT 102300Z 1100/1124 VRB02KT CAVOK BECMG 1110/1112 20010KT
BECMG 1116/1118 VRB02KT=
TAF HLLB 102300Z 1100/1124 VRB02KT 9999 SCT020 BECMG 1110/1112
25010KT BECMG 1116/1118 VRB02KT=

0000100400
785
FTMS40 WMKK 102300
TAF WBGB 102300Z 1100/1124 12005KT 9999 SCT016 BKN300
TEMPO 1100/1103 5000 RA SCT014 BKN150
TEMPO 1109/1112 4000 TSRA SCT014 FEW015CB BKN150=
TAF WBGR 102300Z 1100/1124 10005KT 9999 FEW016 SCT150 BKN300
TEMPO 1100/1103 4000 RA SCT014 BKN150=
TAF WBGS 102300Z 1100/1124 03005KT 9999 SCT018 BKN300
TEMPO 1109/1112 4000 TSRA FEW015CB SCT016 BKN150=
TAF WBKL 102300Z 1100/1124 22006KT 9999 FEW012 FEW016CB SCT140 BKN290
PROB30 TEMPO 1100/1104 4000 TSRA FEW010 FEW015CB SCT040=
TAF WBKS 102300Z 1100/1124 07010KT 9999 FEW012 FEW017CB SCT140 BKN270
TEMPO 1100/1005 06010G20KT 2500 TSRA FEW010 FEW015CB SCT030
 BECMG 1116/1118 27010KT=
TAF WBKW 102300Z 1100/1124 27005KT 9999 FEW016 FEW017CB SCT140
BKN300=
TAF WMKL 102300Z 1100/1124 05005KT 9999 FEW017CB SCT140 BKN280
PROB30 TEMPO 1107/1111 4000 TSRA FEW010 FEW015CB SCT018=
TAF WMKM 102300Z 1100/1124 03005KT 9999 FEW017CB SCT140 BKN280
TEMPO 1107/1111 4000 TSRA FEW010 FEW015CB SCT018=

00000000