0000011500
846
SACN62 CYEV 110100
METAR CYEV 110100Z 28009G17KT 10SM IC OVC080 M25/M28 A2973 RMK AC8
 SLP078=

0000011600
847
SACN62 CYTS 110100
METAR CYTS 110100Z 18009G16KT 15SM -SN OVC014 M02/M04 A2983 RMK SC8
 SLP119=

0000012400
848
SACN62 CYUY 110100
METAR CYUY 110100Z 18008KT 2 1/2SM -FZDZ -SN BR VV003 M04/M04 A2993
 RMK FG8 SLP155=

0000092500
849
SACI31 ZBBB 110100
METAR ZBAA 110100Z VRB01MPS CAVOK M07/M18 Q1032 NOSIG=
METAR ZBSJ 110100Z 33002MPS 1400 R15/1400N FU NSC M05/M11 Q1032
 NOSIG=
METAR ZBTJ 110100Z 17001MPS 0400 R16R/0650N FZFG NSC M08/M09
Q1033
BECMG TL0200
0600=
METAR ZBYN 110100Z 00000MPS 5000 HZ NSC M08/M18 Q1030 NOSIG=
METAR ZGGG 110100Z 08002MPS 060V120 4000 HZ NSC 13/08 Q1025 NOSIG=
METAR ZSHC 110100Z 08002MPS 3000 -RA BR FEW010 BKN030 05/03
Q1032
BECMG TL0130 2500 -RA=
METAR ZSPD 110100Z 06005MPS 020V080 9999 -RA SCT030 07/02 Q1033
NOSIG=
METAR ZSSS 110100Z 07005MPS 9999 -RA OVC033 07/01 Q1032 NOSIG=
METAR ZWSH 110100Z 33004MPS 4500 FU NSC M09/M13 Q1033 NOSIG=
METAR ZWWW 110100Z VRB01MPS 0700 R25/0800N FZFG BKN005 M21/M24
Q1036
BECMG TL0250 0500 FZFG=
METAR ZYTL 110100Z VRB01MPS 3000 BR NSC M00/M06 Q1032 NOSIG=
METAR ZYTX 110100Z 14002MPS 100V160 5000 FU NSC M10/M16 Q1031 NOSIG=

0000048900
850
SATH33 VTBB 110100
METAR VTBO 110100Z 04010KT 5000 BR FEW030 25/20 Q1016=
METAR VTUD 110100Z NIL=
METAR VTUI 110100Z NIL=
METAR VTUK 110100Z 35007KT 8000 NSC 19/17 Q1018 A3008
RWY03 INFO C=
METAR VTUL 110100Z 27002KT 2000 BR NSC 16/15 Q1018 A3008=
METAR VTUO 110100Z NIL=
METAR VTUQ 110100Z NIL=
METAR  VTUU 110100Z 02002KT 8000 NSC 20/17 Q1017 A3004 NOSIG=
METAR VTUV 110100Z NIL=
METAR VTUW 110100Z 00000KT 6000 HZ 18/16 Q1018 A3008
RWY15 INFO A=

0000024100
851
SANZ31 NZKL 110100
METAR NZAA 110100Z AUTO 22012KT 9999 OVC048/// 22/14 Q1018 NOSIG=
METAR NZWN 110100Z AUTO 33012KT 290V360 9999 NCD 21/11 Q1016 NOSIG=
METAR NZCH 110100Z AUTO 07011KT 9999 BKN021/// 17/12 Q1016 NOSIG=

0000100300
852
SACI32 ZBBB 110100
METAR ZGKL 110100Z 04002MPS 020V080 1800 -RA BR FEW005
SCT013
OVC026 06/06 Q1027 NOSIG=
METAR ZGNN 110100Z 06002MPS 1800 BR SCT013 OVC023 13/11 Q1024 NOSIG=
METAR ZGOW 110100Z VRB01MPS 3200 BR NSC 14/10 Q1027 NOSIG=
METAR ZGSZ 110100Z 32002MPS 280V340 4500 HZ NSC 15/10 Q1025 NOSIG=
METAR ZLXY 110100Z 29001MPS 2700 HZ NSC M03/M08 Q1033 BECMG TL0140
3000=
METAR ZMUB 110100Z VRB01MPS 3000NW FU NSC M36/M40 Q1027 NOSIG
RMK
QFE662.3 64 NW MO=
METAR ZPPP 110100Z 21005MPS CAVOK 08/02 Q1024 NOSIG=
METAR ZSAM 110100Z 27002MPS 230V300 9999 BKN040 14/10 Q1027 NOSIG=
METAR ZSFZ 110100Z 35003MPS 310V030 9999 OVC027 12/05 Q1028 NOSIG=
METAR ZSNB 110100Z VRB01MPS 2000 -RA BR BKN030 OVC050 05/04 Q1032
NOSIG=
METAR ZSQD 110100Z 00000MPS 1200 R17/0800N BR NSC M01/M04
Q1034
BECMG
TL0130 1600=
METAR ZUGY 110100Z 03002MPS 9999 -DZ FEW006 BKN012 OVC030
01/01
Q1027 NOSIG=
METAR ZUUU 110100Z 00000MPS 3000 BR NSC 05/03 Q1029 NOSIG=

0000044100
853
SATH31 VTBB 110100
METAR VTCH 110100Z NIL=
METAR VTCL 110100Z 12002KT 0200 R36/250N FG VV001 16/16 
Q1018 A3008
NOSIG
INFO: C=
METAR VTCN 110100Z VRB02KT 0100 FG VV/// 15/15 Q1018=
METAR VTCP 110100Z NIL=
METAR VTCT 110100Z 00000KT 0100 FG VV001 17/16 Q1019 A3011=
METAR VTPH 110100Z NIL=
METAR VTPO 110100Z 35004KT 4000 BR NSC 20/19 Q1017=
METAR VTPP 110100Z 06002KT 3000 BR FEW030 SCT300 20/19 Q1016=

0000012200
854
SAIY32 LIIB 110050 RRB
METAR LIPX 110045Z 27001KT 1000 R04/P1500D BR FEW010 BKN045 08/06
      Q1022=

0000053900
855
SATH32 VTBB 110100
METAR VTSB 110100Z 00000KT 5000 BR FEW020 SCT300 24/24 Q1014
A2995 INFO B / RWY 22=
METAR VTSC 110100Z 07010KT 6000 SCT016 BKN030 26/23 Q1014 A2996
           RWY02 INFO A =
METAR VTSF 110100Z 00000KT 9999 FEW018 SCT100 BKN300
25/24 Q1014 A2996 INFO B / RWY 19=
METAR VTSG 110100Z 05004KT 9999 FEW020 BKN300 24/22 Q1014
A2996 INFO M RWY32=
METAR VTSH 110100Z NIL=
METAR VTSM 110100Z 06009KT 9000 FEW020 BKN300 27/23 
Q1015 A2998=
METAR VTSR 110100Z NIL=
METAR VTST 110100Z NIL=

0000166800
856
SAUS71 KWBC 110100
METAR
KABE 110051Z 00000KT 3/4SM BR OVC002 01/M01 A3030=
KACK 110053Z 12005KT 10SM FEW020 OVC037 04/02 A3037=
KACY 110054Z 00000KT 1/2SM -RA FG FEW003 OVC019 05/05 A3030=
KAGC 110053Z 11007KT 10SM CLR 07/05 A3002=
KAGS 110053Z 36003KT 2 1/2SM RA BR OVC004 09/09 A3012=
KAKR 110054Z AUTO VRB06KT 6SM BR FEW004 OVC018 05/04 A2996=
KALB 110051Z 18007KT 10SM BKN037 OVC065 01/M02 A3029=
KAND 110056Z AUTO 06006KT 2SM BR OVC004 08/08 A3013=
KAOO 110053Z AUTO 02003KT 6SM BR OVC012 01/M02 A3017=
KAPG 110050Z 00000 1/2 -RA BR VV003 03/02 A3029=
KART 110056Z AUTO 00000KT 10SM BKN028 OVC034 03/M01 A3014=
KAVL 110054Z 19004KT 2SM BR OVC003 07/07 A3012=
KAVP 110054Z AUTO 00000KT 10SM OVC008 02/00 A3022=
KBAF 110053Z 00000KT 4SM BR BKN019 OVC047 M01/M03 A3032=
KBDL 110051Z 16006KT 4SM BR OVC017 01/00 A3032=
KBDR 110052Z 02004KT 1 1/4SM BR OVC005 01/01 A3033=
KBED 110056Z 20004KT 5SM BR OVC016 02/01 A3033=
KBFD 110053Z AUTO 14007KT 1/2SM FG VV002 02/01 A3008=
KBGM 110053Z 14004KT 7SM OVC008 01/M01 A3017=
KBGR 110053Z 00000KT 10SM FEW050 BKN070 M05/M08 A3032=
KBKL 110053Z 14013G19KT 9SM BKN007 BKN110 05/04 A2992=
KBKW 110051Z AUTO 14011KT 10SM OVC006 08/06 A3006=
KBOS 110054Z 15003KT 5SM BR FEW011 OVC017 02/01 A3036=
KBTV 110054Z 19007KT 10SM SCT042 OVC070 01/M03 A3025=
KBUF 110054Z 16003KT 10SM FEW030 SCT050 BKN170 OVC270 04/02
     A3005=
KBVY 110053Z AUTO 22004KT 7SM FEW010 BKN020 OVC080 02/01 A3034=
KBWI 110054Z 08004KT 1 1/2SM -RA BR OVC005 02/02 A3027=
KCAE 110056Z 00000KT 3SM -RA BR BKN004 OVC033 10/09 A3013=
KCAK 110051Z 15006KT 1SM BR OVC006 05/05 A2996=

0000013200
857
SACN62 CYXC 110100
METAR CYXC 110100Z 32002KT 20SM -SN FEW030 BKN080 BKN210 01/M03 A2977
 RMK SC2AC4CI1 SLP118=

0000167300
858
SAUS71 KWBC 110100 RRA
METAR
KCAR 110054Z AUTO 19004KT 10SM SCT090 BKN120 M10/M16 A3020=
KCEF 110058Z AUTO 16003KT 7SM OVC018 M01/M01 A3031=
KCHO 110053Z 00000KT 2SM -RA BR BKN003 OVC011 02/01 A3024=
KCHS 110056Z 15005KT 10SM FEW035 SCT065 BKN100 17/16 A3013=
KCKB 110053Z VRB04KT 10SM CLR 07/05 A3001=
KCLE 110051Z 15014G20KT 7SM BKN005 OVC100 06/03 A2995=
KCLT 110052Z 02003KT 7SM OVC003 06/06 A3016=
KCMH 110051Z 13009KT 10SM SCT022 OVC100 08/06 A2991=
KCRW 110054Z 00000KT 10SM SCT060 BKN180 10/07 A2997=
KCVG 110052Z 16010KT 10SM OVC027 09/08 A2987=
KDAN 110053Z AUTO 04003KT 8SM OVC003 04/03 A3020=
KDAY 110056Z 14011KT 1/4SM BR OVC002 06/06 A2985=
KDCA 110052Z 05006KT 2SM -RA BR OVC006 03/01 A3027=
KDUJ 110056Z AUTO 12010KT 7SM BKN006 OVC041 03/01 A3008=
KECG 110054Z 14007KT 10SM SCT100 BKN120 14/12 A3025=
KEKN 110051Z AUTO 15012G19KT 10SM CLR 11/07 A3007=
KELM 110053Z 10004KT 8SM OVC013 03/M01 A3018=
KERI 110051Z 16015G21KT 10SM OVC060 06/03 A2998=
KEWB 110053Z 23003KT 1SM R05/5000VP6000FT BR OVC003 04/04
     A3035=
KEWN 110054Z 12003KT 10SM BKN033 BKN041 18/14 A3021=
KEWR 110051Z 03005KT 3/4SM R04R/P6000FT -DZ BR OVC003 01/01
     A3032=
KFAY 110053Z AUTO 34009KT 2 1/2SM RA BR SCT016 OVC030 16/14
     A3014=
KFLO 110053Z 27007KT 2 1/2SM -RA BR BKN004 BKN009 OVC014 16/15
     A3014=
KFRG 110053Z 00000KT 3/4SM BR BKN002 OVC006 02/02 A3032=
KFVE 110053Z AUTO 17006KT 10SM CLR M09/M15 A3016=
KGFL 110053Z AUTO 00000KT 6SM BR OVC039 M02/M04 A3027=
KGON 110056Z 00000KT 1SM R05/5500VP6000FT BR OVC004 02/02
     A3034=
KGSO 110054Z 01004KT 3SM -RA BR OVC002 03/03 A3017=

0000167800
859
SAUS71 KWBC 110100 RRB
METAR
KGSP 110053Z 04004KT 1 1/4SM BR OVC002 08/08 A3013=
KHFD 110053Z 00000KT 2 1/2SM BR BKN006 OVC011 01/00 A3034=
KHKY 110053Z 01003KT 1SM BR VV002 06/05 A3016=
KHPN 110056Z 00000KT 1SM R16/6000VP6000FT -DZ BR VV002 01/00
     A3030=
KHTS 110051Z 11005KT 10SM CLR 09/08 A2994=
KHVN 110053Z 02003KT 1 1/4SM R02/6000VP6000FT BR OVC004 02/01
     A3033=
KHYA 110056Z 00000KT 5SM -RA BR BKN003 OVC013 03/03 A3036=
KIAD 110052Z 35003KT 3/4SM R01R/3500VP6000FT -DZ BR OVC003 02/01
     A3026=
KIAG 110053Z 17006KT 10SM FEW029 OVC140 03/01 A3004=
KILG 110051Z AUTO 05005KT 1SM R01/P6000FT -RA BR OVC003 03/02
     A3030=
KILM 110053Z AUTO 14006G14KT 10SM BKN021 OVC027 21/17 A3017=
KINT 110054Z 04005KT 5SM BR OVC003 03/03 A3018=
KIPT 110054Z 00000KT 6SM HZ OVC016 01/M02 A3025=
KISP 110056Z 00000KT 1/4SM R06/2400V5500FT -DZ FG OVC002 03/02
     A3031=
KJFK 110051Z 02004KT 1/2SM R04R/2800V4500FT -RA BR BKN003 OVC008
     03/02 A3033=
KJST 110054Z AUTO 15007KT 10SM BKN007 02/00 A3009=
KLBE 110050Z 00000KT 10SM BKN130 06/05 A3006=
KLCK 110055Z AUTO 13008KT 10SM BKN120 08/06 A2991=
KLEB 110053Z 00000KT 10SM FEW010 OVC065 M03/M06 A3029=
KLGA 110051Z 05007KT 1/2SM R04/6000VP6000FT -DZ BR OVC005 01/00
     A3032=
KLUK 110053Z VRB03KT 10SM OVC034 09/07 A2989=
KLWM 110054Z 21004KT 9SM OVC013 02/M01 A3035=
KLYH 110054Z 02006KT 2SM -RA BR BKN003 OVC007 02/02 A3021=
KMDT 110056Z 00000KT 1 1/4SM -DZ BR OVC003 01/M01 A3027=
KMFD 110052Z 14011KT 1/2SM FG VV002 05/05 A2990=
KMGW 110053Z 16006KT 10SM CLR 08/06 A3002=
KMHT 110053Z 00000KT 4SM BR BKN013 OVC075 M02/M03 A3032=

0000010600
860
SACN62 CYYY 110100
METAR CYYY 110100Z 22008KT 30SM SCT100 M06/M12 A3015 RMK AC3 SLP213=

0000013900
861
SAAE32 VTBB 110100
METAR VLLB 110100Z NIL=
METAR VLLN 110100Z NIL=
METAR VLPS 110100Z NIL=
METAR VLSK 110100Z NIL=

0000168200
862
SAUS71 KWBC 110100 RRC
METAR
KMIV 110054Z AUTO 00000KT 3/4SM -RA BR SCT006 OVC015 04/04
     A3029=
KMMU NIL=
KMRB 110053Z 08003KT 1 3/4SM -RA BR OVC003 02/01 A3023=
KMSS 110053Z AUTO 06005KT 9SM OVC024 M03/M06 A3020=
KMTN NIL=
KMYR NIL=
KNKT 110054Z 12008KT 10SM SCT024 BKN032 BKN041 17/14 A3021=
KOQU NIL=
KORF 110051Z AUTO 15003KT 8SM FEW044 BKN095 BKN110 09/07 A3024=
KORH 110054Z 22006KT 1/4SM FG VV002 00/00 A3030=
KPHF 110054Z AUTO 00000KT 3SM -RA BR FEW070 BKN110 08/06 A3025=
KPHL 110054Z 05003KT 1 1/2SM -RA BR OVC004 02/01 A3031=
KPIT 110051Z 10005KT 8SM FEW009 SCT060 BKN150 06/05 A3001=
KPKB 110053Z 00000KT 9SM CLR 07/06 A3001=
KPLB NIL=
KPOU 110053Z 00000KT 5SM BR OVC015 01/M02 A3031=
KPQI 110055Z AUTO 17005KT 10SM OVC110 M11/M16 A3023=
KPSM 110058Z 23003KT 4SM BR FEW015 OVC080 M02/M02 A3033=
KPVD 110051Z 00000KT 1SM R05/5000V6000FT -DZ BR OVC004 01/00
     A3035=
KPWM 110051Z 22004KT 10SM FEW040 OVC085 M02/M04 A3033=
KRDG 110054Z AUTO 00000KT 3/4SM -RA BR VV003 01/M01 A3028=
KRDU 110051Z 00000KT 1/2SM -RA BR BKN003 OVC022 06/06 A3018=
KRIC 110054Z 00000KT 1 1/2SM BR OVC003 05/04 A3023=
KROA 110054Z 00000KT 1SM -DZ BR OVC003 03/03 A3022=
KROC 110054Z 13005KT 10SM OVC050 04/00 A3010=
KRWI 110053Z AUTO VRB05KT 10SM -RA FEW075 OVC100 13/12 A3020=
KSAV 110053Z 13003KT 7SM SCT018 18/17 A3012=
KSBY 110054Z 13004KT 5SM BR FEW070 OVC090 08/07 A3027=
KSCH 110050Z 16003KT 10SM BKN065 00/M02 A3027=
KSLK 110051Z AUTO 24006KT 9SM OVC025 M01/M03 A3014=
KSWF NIL=
KSYR 110054Z 09006KT 10SM BKN050 OVC250 01/M02 A3016=
KTEB 110051Z 01004KT 1SM R06/P6000FT BR OVC003 02/00 A3032=

0000034400
863
SAUS71 KWBC 110100 RRD
METAR
KTOL 110052Z 13004KT 1/4SM -RA BR VV002 02/02 A2985=
KTTN 110053Z 00000KT 1SM -RA BR OVC002 01/00 A3030=
KUCA NIL=
KWRI 110058Z AUTO 02002KT 1SM R06/2200FT -RA BR VV004 02/02
     A3028=
KYNG 110051Z 14010KT 6SM BR OVC005 04/03 A2999=
KZZV 110053Z AUTO 13006KT 10SM CLR 07/06 A2996=

0000167300
864
SAUS72 KWBC 110100
METAR
KABI 110052Z 26005KT 10SM CLR 15/M08 A2977=
KABQ 110052Z COR 10007KT 10SM FEW250 09/M12 A2995=
KABQ 110052Z 10007KT 10SM CLR 09/M12 A2995=
KABY 110053Z 00000KT 5SM BR OVC004 14/14 A3009=
KACT 110051Z 21006KT 10SM CLR 14/14 A2974=
KAEX 110053Z 15010KT 10SM BKN012 OVC017 18/17 A2982=
KAFW 110053Z COR 33011G16KT 10SM FEW035 SCT220 13/08 A2971=
KAFW 110053Z 33011G16KT 10SM FEW035 SCT220 13/08 A2971=
KAHN 110051Z 07005KT 3/4SM BR OVC003 08/07 A3011=
KALI 110053Z AUTO 26003KT 10SM CLR 19/13 A2984=
KAMA 110053Z 29012KT 10SM OVC110 09/M11 A2979=
KANB 110053Z AUTO 05007KT 10SM OVC012 11/09 A3004=
KAPF 110053Z 09005KT 10SM CLR 24/21 A3008=
KATL 110052Z 11007KT 1/4SM R09R/4500V5500FT -DZ BR OVC002 09/08
     A3008=
KAUS 110053Z 23008KT 10SM FEW090 BKN150 BKN200 19/14 A2980=
KBFM 110053Z 00000KT 2SM BR OVC003 15/14 A3000=
KBHM 110053Z 04005KT 7SM OVC007 11/09 A3002=
KBNA 110053Z 18012KT 10SM SCT018 OVC032 12/09 A2992=
KBPT 110053Z 18011G17KT 2SM -RA BR BKN004 OVC016 18/18 A2983=
KBQK 110055Z AUTO 00000KT 10SM OVC011 18/17 A3013=
KBRO 110053Z 17006KT 10SM CLR 21/18 A2987=
KBTR 110053Z AUTO 12007KT 10SM BKN012 BKN026 OVC035 16/15
     A2991=
KCEW 110053Z AUTO 00000KT 1/2SM FG VV002 16/15 A3004=
KCHA 110053Z 00000KT 3/4SM -DZ BKN004 OVC007 08/07 A3004=
KCLL 110053Z 20007KT 10SM CLR 18/17 A2980=
KCNM 110053Z AUTO 26020KT 10SM CLR 15/M11 A2984=
KCRP 110051Z 17006KT 10SM FEW035 SCT250 19/17 A2984=
KCSG 110051Z 00000KT 3/4SM -RA BR VV002 11/11 A3007=
KCSV 110053Z AUTO 19009G19KT 160V230 5SM BR OVC004 11/09 A2997=
KDAB 110053Z 00000KT 10SM FEW250 20/18 A3012=

0000169800
865
SAUS72 KWBC 110100 RRA
METAR
KDAL 110053Z 22005KT 10SM SCT220 18/10 A2970=
KDFW 110053Z 21007KT 10SM FEW035 SCT250 15/09 A2969=
KDHN 110053Z 12005KT 1 1/4SM BR OVC002 14/14 A3009=
KDLF 110058Z AUTO 18004KT 10SM CLR 15/08 A2985=
KDMN 110053Z AUTO 25010KT 10SM CLR 11/M09 A3002=
KELP 110051Z 26020G28KT 10SM CLR 15/M10 A2996=
KESF 110053Z AUTO 18007KT 10SM BKN008 OVC012 19/17 A2984=
KEYW 110053Z 11010KT 10SM CLR 24/22 A3006=
KFLL 110053Z 12008KT 10SM BKN019 BKN190 24/22 A3010=
KFSM 110053Z 30013G18KT 1/2SM R25/P6000FT FG FEW010 SCT034 BKN048
     09/09 A2968=
KFTW 110053Z 20006KT 10SM CLR 16/09 A2970=
KFTY 110053Z 00000KT 1 1/2SM BR OVC003 09/09 A3008=
KGGG 110053Z 19010KT 10SM OVC009 17/16 A2973=
KGLS 110052Z AUTO 19008KT 10SM FEW005 BKN018 OVC036 18/18
     A2985=
KGNV 110053Z 00000KT 10SM BKN025 BKN034 OVC044 21/20 A3010=
KGPT 110053Z 13009KT 3/4SM BR VV002 14/14 A2996=
KGUP 110053Z AUTO 22007KT 10SM CLR 02/M11 A3008=
KGWO 110053Z AUTO 16013KT 10SM FEW035 BKN048 OVC055 15/12
     A2984=
KHOT 110053Z AUTO VRB04KT 10SM OVC007 14/13 A2970=
KHOU 110053Z 19007KT 10SM BKN014 BKN020 OVC070 20/18 A2983=
KHRL 110052Z 18008KT 10SM CLR 21/18 A2985=
KHRO 110053Z AUTO 18010KT 8SM FEW055 SCT090 09/08 A2960=
KHSV 110053Z 15005KT 9SM OVC014 11/09 A2997=
KIAH 110053Z 18007KT 10SM SCT014 BKN055 20/18 A2982=
KINK 110053Z AUTO 24015KT 10SM CLR 16/M10 A2982=
KJAN 110054Z 15011KT 10SM BKN013 OVC045 15/13 A2989=
KJAX 110056Z 08003KT 10SM FEW100 17/17 A3011=
KJBR 110053Z AUTO 30006KT 4SM RA BR OVC015 08/07 A2978=
KLBB 110053Z 24006KT 10SM FEW250 09/M09 A2976=
KLCH 110053Z 18011KT 10SM BKN004 OVC012 18/17 A2985=

00000000