0000053200
566
FTUS31 KWBC 110312 AAA
TAF AMD
KMCO 110310Z 1103/1124 13004KT P6SM BKN150
     FM110800 17005KT 5SM BR OVC005
     FM111400 19010G15KT P6SM SCT015 BKN150
     FM111600 20014G22KT P6SM SCT025 BKN080=
KRDU 110311Z 1103/1124 VRB02KT 2SM -RADZ BR OVC003 WS018/19030KT
     FM110500 VRB03KT 1/2SM -DZ FG VV002 WS014/19035KT
     FM111100 18010KT P6SM OVC006
     FM111300 19014G22KT P6SM BKN009 OVC020
     FM111700 20017G28KT 5SM -SHRA BR BKN012 OVC025
     FM112200 25016G23KT P6SM FEW025 BKN100=

0000030500
567
FTUS42 KWBC 110312 AAA
TAF AMD
KBRO 110310Z 1103/1124 18004KT P6SM SCT015
      TEMPO 1103/1106 4SM BR SCT004 OVC015
     FM110600 VRB04KT 4SM BR SCT004 OVC015
     FM110900 VRB03KT 2SM BR BKN004
      TEMPO 1112/1115 1/2SM FG VV001
     FM111800 05010KT P6SM FEW015 SCT030=

0000022200
568
FTUS41 KWBC 110312 AAA
TAF AMD
KCAK 110311Z 1103/1124 15006KT 4SM BR OVC060
     FM111200 20012KT 4SM -RA BR OVC003
     FM111800 23012KT 4SM -DZ BR OVC003
     FM112000 24015G25KT 6SM BR OVC015=

0000053500
569
FTUS71 KWBC 110312
TAF
TAF KCEF 1103/1209 16006KT 8000 BR BKN004 OVC009 WS020/23028KT
      620809 QNH3026INS
      BECMG 1104/1105 15006KT 4800 -RA BR OVC008 WS020/23030KT
      620809 QNH3018INS
      BECMG 1108/1109 12006KT 1200 -RA OVC008 WS020/19037KT 620809
      QNH2990INS
      BECMG 1114/1115 18009KT 2400 -RA OVC005 WS020/19058KT 620809
      QNH2937INS
      BECMG 1207/1208 28012KT 9999 NSW BKN020 QNH2940INS T12/1120Z
      T00/1103Z
      LAST NO AMDS AFT 1103
      NEXT 1110=

0000074400
570
FTUS71 KWBC 110312 AAA
TAF AMD
KCAK 110311Z 1103/1124 15006KT 4SM BR OVC060
     FM111200 20012KT 4SM -RA BR OVC003
     FM111800 23012KT 4SM -DZ BR OVC003
     FM112000 24015G25KT 6SM BR OVC015=
KMFD 110309Z 1103/1124 16012KT 4SM BR OVC002
     FM110500 18010G20KT 3SM -RA BR OVC002
     FM111100 19012KT 4SM -RA BR OVC001
     FM111700 21010G20KT 6SM BR OVC003
     FM112300 24015G25KT P6SM OVC007=
KRDU 110311Z 1103/1124 VRB02KT 2SM -RADZ BR OVC003 WS018/19030KT
     FM110500 VRB03KT 1/2SM -DZ FG VV002 WS014/19035KT
     FM111100 18010KT P6SM OVC006
     FM111300 19014G22KT P6SM BKN009 OVC020
     FM111700 20017G28KT 5SM -SHRA BR BKN012 OVC025
     FM112200 25016G23KT P6SM FEW025 BKN100=

0000060500
571
FTUS72 KWBC 110312 AAA
TAF AMD
KBRO 110310Z 1103/1124 18004KT P6SM SCT015
      TEMPO 1103/1106 4SM BR SCT004 OVC015
     FM110600 VRB04KT 4SM BR SCT004 OVC015
     FM110900 VRB03KT 2SM BR BKN004
      TEMPO 1112/1115 1/2SM FG VV001
     FM111800 05010KT P6SM FEW015 SCT030=
KCLL 110310Z 1103/1124 22008KT 6SM BR SCT025
     FM110700 26005KT P6SM SCT015 BKN250
     FM111200 33009KT P6SM SKC=
KMCO 110310Z 1103/1124 13004KT P6SM BKN150
     FM110800 17005KT 5SM BR OVC005
     FM111400 19010G15KT P6SM SCT015 BKN150
     FM111600 20014G22KT P6SM SCT025 BKN080=

0000025900
572
FTUS73 KWBC 110312 AAA
TAF AMD
KSLN 110310Z 1103/1124 25008KT P6SM SCT025 OVC035
      TEMPO 1103/1104 P6SM -RASN
     FM110400 28008KT P6SM SCT025 BKN050 BKN100
     FM110500 30007KT P6SM SCT250
     FM111600 31015G22KT P6SM SKC=

0000053500
573
FTUS41 KWBC 110312
TAF
TAF KCEF 1103/1209 16006KT 8000 BR BKN004 OVC009 WS020/23028KT
      620809 QNH3026INS
      BECMG 1104/1105 15006KT 4800 -RA BR OVC008 WS020/23030KT
      620809 QNH3018INS
      BECMG 1108/1109 12006KT 1200 -RA OVC008 WS020/19037KT 620809
      QNH2990INS
      BECMG 1114/1115 18009KT 2400 -RA OVC005 WS020/19058KT 620809
      QNH2937INS
      BECMG 1207/1208 28012KT 9999 NSW BKN020 QNH2940INS T12/1120Z
      T00/1103Z
      LAST NO AMDS AFT 1103
      NEXT 1110=

0000017100
574
FTUS74 KWBC 110312 AAA
TAF AMD
KSBA 110309Z 1103/1124 VRB03KT 4SM BR SCT250
     FM111800 VRB03KT 5SM HZ SCT250
     FM112100 22006KT P6SM SCT250=

0000009500
575
SAIO31 KWBC 110300 RRC
METAR
FMMT 110300Z 00000KT 9999 SCT017 25/25 Q1013=

0000010200
576
SAPA31 KWBC 110300 RRA
METAR
AYPY 110300Z 26004KT 9999 SCT020 BKN280 31/25 Q1005=

0000012800
577
SAUS72 KWBC 110300 RRD
METAR
TNCM 110300Z 06010KT 9999 SCT017TCU 25/20 Q1019 A3009 TCU/SHRA E
     TO NE=

0000021400
578
FTUS42 KWBC 110309 AAA
TAF AMD
KHOU 110307Z 1103/1124 22007KT P6SM SCT007 OVC012
     FM110600 24005KT P6SM SCT005 BKN012
     FM110900 27004KT P6SM SCT010
     FM111200 33010KT P6SM SKC=

0000032800
579
FTUS44 KWBC 110309 AAA
TAF AMD
KBFI 110306Z 1103/1124 15010G18KT P6SM -RA SCT019 OVC035
      TEMPO 1104/1107 4SM RA BR OVC015
     FM110700 18015G28KT 6SM -RA BR OVC018
     FM110800 18020G33KT 6SM -RA BR OVC018
     FM111400 20016G28KT P6SM -RA OVC028
     FM111900 20022G35KT P6SM -SHRA OVC020=

0000040800
580
FTUS43 KWBC 110309 AAA
TAF AMD
KOMA 110308Z 1103/1124 30005KT 6SM BR BKN015 OVC080
      TEMPO 1104/1107 P6SM NSW FEW015 SCT040 OVC080
     FM110700 30007KT P6SM SCT100 BKN250
     FM111600 31012KT P6SM SCT250=
KTOL 110308Z 1103/1124 18009KT 2SM -RA BR OVC004
     FM111100 23009KT 2SM -RA BR OVC003
     FM111700 24011KT 4SM BR OVC007
     FM111900 24010G20KT P6SM OVC015=

0000086000
581
FTUS31 KWBC 110309 AAA
TAF AMD
KDTW 110306Z 1103/1206 15007KT 2SM BR OVC004 WS020/19043KT
      TEMPO 1105/1109 1SM RA BR OVC002
     FM111200 18010KT 2SM SHRA BR OVC004
     FM111700 24012G20KT 6SM BR OVC010=
KIAH 110307Z 1103/1206 22007KT P6SM SCT007 BKN015 OVC035
     FM110600 24005KT P6SM SCT005 BKN012
     FM110900 27004KT P6SM SCT010
     FM111200 33010KT P6SM SKC=
KLAX 110308Z 1103/1206 27005KT P6SM SCT250
     FM110500 VRB03KT P6SM SCT250
     FM110800 VRB03KT 4SM BR SCT007
     FM111800 VRB03KT 5SM HZ SCT250
     FM112100 26009KT P6SM SCT250
     FM120300 26004KT P6SM SCT250=
KLIT 110308Z 1103/1124 17008KT 5SM BR VCTS SCT006 OVC012CB
      WS020/21045KT
      TEMPO 1103/1107 VRB15G25KT 2SM TSRA BR OVC006CB
     FM110700 26012KT P6SM SCT100 BKN250
     FM111500 27010G20KT P6SM SCT250=

0000022000
582
FTUS71 KWBC 110309 AAA
TAF AMD
KTOL 110308Z 1103/1124 18009KT 2SM -RA BR OVC004
     FM111100 23009KT 2SM -RA BR OVC003
     FM111700 24011KT 4SM BR OVC007
     FM111900 24010G20KT P6SM OVC015=

0000060800
583
FTUS72 KWBC 110309 AAA
TAF AMD
KHOU 110307Z 1103/1124 22007KT P6SM SCT007 OVC012
     FM110600 24005KT P6SM SCT005 BKN012
     FM110900 27004KT P6SM SCT010
     FM111200 33010KT P6SM SKC=
KIAH 110307Z 1103/1206 22007KT P6SM SCT007 BKN015 OVC035
     FM110600 24005KT P6SM SCT005 BKN012
     FM110900 27004KT P6SM SCT010
     FM111200 33010KT P6SM SKC=
KLIT 110308Z 1103/1124 17008KT 5SM BR VCTS SCT006 OVC012CB
      WS020/21045KT
      TEMPO 1103/1107 VRB15G25KT 2SM TSRA BR OVC006CB
     FM110700 26012KT P6SM SCT100 BKN250
     FM111500 27010G20KT P6SM SCT250=

0000055800
584
FTUS74 KWBC 110309 AAA
TAF AMD
KBFI 110306Z 1103/1124 15010G18KT P6SM -RA SCT019 OVC035
      TEMPO 1104/1107 4SM RA BR OVC015
     FM110700 18015G28KT 6SM -RA BR OVC018
     FM110800 18020G33KT 6SM -RA BR OVC018
     FM111400 20016G28KT P6SM -RA OVC028
     FM111900 20022G35KT P6SM -SHRA OVC020=
KLAX 110308Z 1103/1206 27005KT P6SM SCT250
     FM110500 VRB03KT P6SM SCT250
     FM110800 VRB03KT 4SM BR SCT007
     FM111800 VRB03KT 5SM HZ SCT250
     FM112100 26009KT P6SM SCT250
     FM120300 26004KT P6SM SCT250=

0000060200
585
FTUS73 KWBC 110309 AAA
TAF AMD
KDTW 110306Z 1103/1206 15007KT 2SM BR OVC004 WS020/19043KT
      TEMPO 1105/1109 1SM RA BR OVC002
     FM111200 18010KT 2SM SHRA BR OVC004
     FM111700 24012G20KT 6SM BR OVC010=
KLNK 110307Z 1103/1124 30005KT 1 1/2SM BR FEW015 SCT040 OVC080
      TEMPO 1104/1107 P6SM NSW
     FM110700 30007KT P6SM SCT100 BKN250
     FM111600 31012KT P6SM SCT250=
KOMA 110308Z 1103/1124 30005KT 6SM BR BKN015 OVC080
      TEMPO 1104/1107 P6SM NSW FEW015 SCT040 OVC080
     FM110700 30007KT P6SM SCT100 BKN250
     FM111600 31012KT P6SM SCT250=

00000000