0000179700
546
SZPS01 AMMC 110745
CREX++
T000103 A001 D01021 D06025++
-0204190 14737360 56130 2014 01 11 07 38 3027 11 07 00 01
00971 0109 00971 0111 00966 0109 00963 0108 00958 0105 00959 0108+
-0669280 15640860 56363 2014 01 11 07 38 //// 11 07 00 01
00522 -0064 00519 -0065 00512 -0070 00510 -0070 00506 -0073 00500 -0077+
-0942890 15995560 56670 2014 01 11 07 38 3043 11 07 00 01
00736 -0028 00731 -0032 00728 -0034 00730 -0030 00730 -0029 00726 -0031+
-1072080 16580190 57131 2014 01 11 07 38 //// 11 07 00 01
03381 2958 03380 2960 03376 2958 03372 2957 03380 2967 03377 2967+
-1551560 16718860 57210 2014 01 11 07 38 //// 11 07 00 01
00587 -0066 00580 -0069 00574 -0072 00564 -0078 00557 -0082 00564 -0072+
-1775690 16830030 57320 2014 01 11 07 38 3017 11 07 00 01
00682 -0078 00677 -0080 00673 -0081 00669 -0082 00665 -0082 00659 -0085+
-4397330 16861610 65180 2014 01 11 07 38 2888 11 07 00 01
02431 0397 02435 0400 02411 0375 02408 0371 02396 0358 02415 0377+
-2120470 -15978530 65980 2014 01 11 07 38 3013 11 07 00 01
00505 -0015 00517 -0001 00502 -0014 00491 -0024 00498 -0015 00526 0014+
-2113810 -17518140 66600 2014 01 11 07 38 //// 11 07 00 01
00837 0101 00828 0095 00824 0095 00824 0098 00810 0087 00815 0095+
-1382670 -17176110 66840 2014 01 11 07 38 3012 11 07 00 01
00517 0040 00516 0040 00521 0047 00508 0036 00506 0035 00511 0042+
-1813250 17842750 67050 2014 01 11 07 38 3030 11 07 00 01
00980 0107 00977 0108 00976 0111 00969 0108 00965 0108 00962 0109+
-1760530 17743810 67070 2014 01 11 07 38 3035 11 07 00 01
00950 0016 00946 0016 00941 0016 00937 0017 00931 0015 ///// ////+
-0850250 17919500 67440 2014 01 11 07 38 3028 11 07 00 01
01621 -0007 01613 -0013 01614 -0009 01614 -0007 01619 0000 01613 -0004++
7777

0000034200
547
SZIO01 AMMC 110745
CREX++
T000103 A001 D01021 D06025++
-1211670 09689190 46280 2014 01 11 07 38 3020 11 07 00 01
01284 0031 01285 0032 01288 0035 01289 0037 01284 0032 01279 0027+
-1042940 10566940 46290 2014 01 11 07 38 //// 11 07 00 01
01358 -0002 01405 0044 01411 0048 01382 0018 01410 0045 01404 0038++
7777

0000191100
548
SZAU01 AMMC 110745
CREX++
T000103 A001 D01021 D06025++
-1927750 14705860 59260 2014 01 11 07 38 3030 11 07 00 01
02402 0171 02407 0172 02407 0168 02414 0172 02411 0166 02416 0168+
-2316110 15079000 59670 2014 01 11 07 38 3003 11 07 00 01
03451 0130 03451 0126 03459 0131 03465 0133 03474 0140 03486 0148+
-3447330 15091170 60420 2014 01 11 07 38 2953 11 07 00 01
01071 -0028 01067 -0032 01065 -0033 01062 -0035 01062 -0035 01063 -0033+
-4105000 14591500 60910 2014 01 11 07 38 2888 11 07 00 01
02331 -0006 02350 0004 02355 0000 02361 -0003 02368 -0004 02379 -0002+
-4254640 14793080 61170 2014 01 11 07 38 2895 11 07 00 01
01327 0096 01324 0093 01321 0090 01314 0084 01313 0083 01313 0083+
-3834390 14161360 61410 2014 01 11 07 38 2907 11 07 00 01
00545 0051 00541 0046 00544 0048 00505 0007 00508 0010 00565 0065+
-3214890 13364170 62000 2014 01 11 07 38 2965 11 07 00 01
01250 0120 01252 0121 01251 0119 01249 0116 01250 0116 01254 0118+
-3387080 12189720 62080 2014 01 11 07 38 2945 11 07 00 01
00857 0105 00863 0110 00875 0122 00860 0106 00887 0133 00868 0113+
-3182560 11573860 62237 2014 01 11 07 38 2973 11 07 00 01
00912 0056 00907 0050 00914 0056 00906 0047 00910 0050 00908 0048+
-2422000 11339750 62385 2014 01 11 07 38 //// 11 07 00 01
01274 -0102 01277 -0100 01294 -0085 01308 -0073 01255 -0127 01257 -0127+
-2181670 11419110 62430 2014 01 11 07 38 //// 11 07 00 01
01934 -0041 01935 -0043 01940 -0040 01922 -0062 01940 -0046 01939 -0049+
-1800080 12221830 62650 2014 01 11 07 38 3043 11 07 00 01
05938 0054 05947 0054 05956 0055 05966 0054 05974 0052 05983 0050+
-1247190 13084580 63230 2014 01 11 07 38 3050 11 07 00 01
05306 0277 05299 0275 05292 0272 05285 0273 05280 0273 05273 0274+
-1386000 13641580 63511 2014 01 11 07 38 3043 11 07 00 01
01700 0115 01707 0120 01712 0124 01715 0125 01718 0128 01723 0131++
7777

0000009300
549
SAIN35 VIDP 110700 RRA
METAR VAUD 110700Z 06005KT 2000 HZ NSC 15/06 Q1019=

0000011000
550
SAIN90 VEGY 110730
METAR VEGY 110730Z 09007KT 1300 BR FEW010 BKN018 OVC080 17/16 Q1016 NOSIG=

0000049300
551
UGIN22 VOMM 110600
PPBB 61051 43128
90023 18004 16511 16508 907// 17512=
PPBB 61061 43150 NIL=
PPBB 61061 43185 90012 13506 12509 11513
9037/ 11515 11009 912// 09003=
PPBB 61071 43279 90012 09003 09006 11007 9036/ 09508 11505=
PPBB 61061 43284 NIL=
PPBB 61061 43295 NIL=
PPBB 61061 43311 NIL=
PPBB 61051 43346
90012 04508 03008 03509 9037/ 04510 14511 9125/ 10513
06011=
PPBB 61061 43369 NIL=
PPBB 61051 43371
90012 00000 26004 25004 903// 29505=

0000040700
552
UPIN22 VOMM 110600
PPAA 61051 43128
55185 17009=
PPAA 61061 43150 55392 16004 22503 24527 55150
   30033    77999=
PPAA 61061 43185 55392 11515 12513 10511 77999=
PPAA 61071 43279 55292 10009 11006=
PPAA 11061 43284 NIL=
PPAA 11061 43295 NIL=
PPAA 11061 43311 NIL=
PPAA 61051 43346
55392 04010 09010 13506 77999=
PPAA 11061 43369 NIL=
PPAA 61051 43371 55192 27503=

0000015300
553
SAIN35 VIDP 110730
METAR VIDN 110730Z 26005KT 6000 FEW030 SCT040 18/07 Q1018=
METAR VIGG 110730Z 22003KT 5000 HZ FEW035 17/03 Q1019=

0000010100
554
SANP31 VNKT 110750
METAR VNKT 110750Z 00000KT 6000 FEW020 BKN100 15/M01 Q1019 NOSIG=

0000097500
555
UDAS02 BABJ 110734
AMDAR 1107
LVR CNFOZM 2350N 11429E 110722 F311 MS329 263/065 TB/ S//1=
LVR CNFOZM 2409N 11444E 110725 F311 MS326 264/072 TB/ S//1=
LVR CNFOZM 2431N 11454E 110728 F311 MS330 263/077 TB/ S//1=
LVR CNFOZM 2453N 11500E 110731 F311 MS330 266/083 TB/ S//1=
LVR CNFOZN 3651N 12323E 110721 F276 MS463 262/097 TB/ S//1=
LVR CNFOZN 3642N 12306E 110724 F276 MS460 262/092 TB/ S//1=
LVR CNFOZN 3633N 12248E 110727 F276 MS450 262/088 TB/ S//1=
LVR CNFOZN 3624N 12231E 110730 F276 MS448 264/088 TB/ S//1=
ASC CNFLWT 4129N 12330E 110731 F057 MS135 283/028 TB/ S//1=
ASC CNFLWT 4126N 12331E 110731 F074 MS173 282/023 TB/ S//1=
ASC CNFLWT 4124N 12332E 110732 F091 MS193 281/036 TB/ S//1=
ASC CNFPQK 3131N 12105E 110730 F125 MS088 257/032 TB/ S//1=
ASC CNFPQK 3134N 12103E 110731 F147 MS121 256/052 TB/ S//1=
ASC CNFPQK 3137N 12102E 110731 F162 MS153 252/052 TB/ S//1=
ASC CNFPQK 3139N 12100E 110732 F179 MS153 279/044 TB/ S//1=
0000140900
556
UDAS02 BABJ 110736
AMDAR 1107
DES CNFPQL 3706N 11710E 110730 F030 MS028 252/016 TB/ S//1=
DES CNFPQL 3704N 11712E 110731 F024 MS020 229/012 TB/ S//1=
DES CNFPQL 3702N 11713E 110732 F018 MS005 237/007 TB/ S//1=
DES CNFPQL 3659N 11713E 110733 F016 PS003 228/010 TB/ S//1=
DES CNFLWR 3107N 12120E 110732 F010 PS015 085/009 TB/ S//1=
DES CNFLWR 3109N 12120E 110733 F002 PS035 079/007 TB/ S//1=
DES CNFOZL 3048N 11438E 110731 F109 MS070 248/036 TB/ S//1=
DES CNFOZL 3050N 11434E 110732 F099 MS060 264/027 TB/ S//1=
DES CNFOZL 3051N 11429E 110733 F089 MS040 258/019 TB/ S//1=
DES CNFOZL 3052N 11424E 110734 F079 MS035 272/008 TB/ S//1=
ASC CNFPQK 3142N 12059E 110733 F196 MS196 277/048 TB/ S//1=
ASC CNFPQK 3144N 12058E 110733 F205 MS221 278/051 TB/ S//1=
ASC CNFPQK 3145N 12057E 110733 F210 MS236 278/053 TB/ S//1=
ASC CNFPQK 3148N 12056E 110734 F221 MS265 281/057 TB/ S//1=
ASC CNFLWT 4121N 12333E 110733 F106 MS214 286/044 TB/ S//1=
ASC CNFLWT 4118N 12334E 110733 F113 MS225 281/049 TB/ S//1=
ASC CNFLWT 4114N 12336E 110734 F130 MS246 287/054 TB/ S//1=
ASC CNFLWT 4111N 12337E 110734 F141 MS260 283/064 TB/ S//1=
LVR CNFPXL 3048N 11426E 110725 F291 MS375 261/090 TB/ S//1=
DES CNFPXL 3057N 11453E 110728 F284 MS373 261/081 TB/ S//1=
LVR CNFPXL 3105N 11519E 110731 F266 MS330 261/073 TB/ S//1=
LVR CNFPXL 3114N 11545E 110734 F266 MS333 260/073 TB/ S//1=
0000010000
557
SNAU42 AMMC 110700 RRB
AAXX 11074
95623 11975 00204 10385 20079 60001 70200=


0000039800
558
SWIO40 RJTD 110745
:PRS 1 #1 1662 1630 1654 1627 1647 1632 1652 1649 1632 1666 1663 1662
1670 1678 1648 1672 1672 1661 1702 1678 1682 1680 1681 1675 1682 1704
1681 1688 1693 1691 :RAD 1 #3 6033 6041 6046 6056 6060 6067 6075 6080
6085 6087 :ENC 5 #5 5019 5039 5046 5053 5066 5066 5069 5072 5067 5064
5067 5070 :SW1 45 #60 60 :SW2 15 #60 60 :BAT 14 #15 13.2 :NAME 
0650018E=
0000010700
559
UANT01 EGRR 110700 RRA
ARP BAW34N 47N030W 0737 F330 48N020W 0823 NEXT 48N015W MS 50 217/51=
0000011800
560
SASY31 OSDI 110800
OSDI 110800Z 00000KT 1500 BR 04/03 Q1025=
OSLK 110800Z 12004KT CAVOK 17/03 Q1024=
0000011100
561
UANT01 CWAO 110744
ARP UAL977 6118N05209W 0744 F340 MS58 244/26 KT
N216UA QXS UAK 110744 F35A
0000011000
562
UANT01 CWAO 110744
ARP KLM256 4922N04829W 0744 F370 MS65 302/53 KT
PHAOD QXT AOW 110744 J87A
0000011000
563
UANT01 CWAO 110744
ARP DLH405 5127N03311W 0744 F370 MS53 207/33 KT
DABVN QXT EUA 110744 F02A
0000011100
564
UANT01 CWAO 110744
ARP UAL982 4602N04516W 0744 F350 MS62 323/55 KT
N229UA DDL XXW 110744 F31A
0000011000
565
UANT01 CWAO 110744
ARP AAL80 5224N03336W 0744 F380 MS54 219/34 KT
N761AJ DDL XXW 110744 F26A
00000000