0000017200
086
SSVF50 LFPW 110720 RRA
ZZYY 62078 11014 0720/ 747239 002787 22219 00072 10802 20080
21008=
ZZYY 62067 11014 0720/ 746833 002295 22219 10702 20066 21008=
0000017200
087
SSVF50 LFPW 110735 RRA
ZZYY 62066 11014 0735/ 743532 001615 22219 00120 11002 20100
21011=
ZZYY 62064 11014 0735/ 744653 001447 22219 11002 20100 21011=
0000052400
088
SSVF50 LFPW 110740 RRA
ZZYY 62074 11014 0740/ 747285 003285 22219 00100 10902 20090
21012=
ZZYY 62079 11014 0740/ 743403 001674 22219 00126 10902 20090
21009=
ZZYY 62069 11014 0740/ 748290 004968 22219 00111 11004 20100
21018=
ZZYY 61431 11014 0740/ 143411 004163 22219 00124 10401 20040
21004=
ZZYY 62068 11014 0740/ 748717 003961 22219 10400 20040 21002=
ZZYY 61191 11014 0740/ 142917 003125 22219 00122 10401 20040
21003=
ZZYY 62059 11014 0740/ 749695 001620 22219 10401 20040 21005=
0000017200
089
SSVD50 LFPW 110710 RRA
ZZYY 41099 11014 0710/ 714176 060935 22219 00268 10805 20080
21025=
ZZYY 31217 11014 0710/ 704937 052194 22219 10600 20060 21001=
0000024400
090
SSVD50 LFPW 110740 RRA
ZZYY 41099 11014 0740/ 714176 060935 22219 00268 10805 20080
21024=
ZZYY 31217 11014 0740/ 704937 052194 22219 10800 20080 21001=
ZZYY 41097 11014 0740/ 714548 061097 22219 00269 10301 20030
21005=
0000015500
091
SAIN34 VOMM 110910
METAR VOHS 110910Z 18005KT 5000 HZ SCT020 30/11 Q1015 NOSIG=
METAR VOTR 110910Z 08006KT 7000 FEW016 30/19 Q1012 NOSIG=
0000015400
092
SANG31 YBBN 110900 RRA
SPECI AYPY 110900Z 35015KT 9999 TSHRA SCT010 SCT019CB BKN020 OVC130
26/25 Q1007    RMKS: CB/LTNG/TSHRA TO N/E/NW==

0000031600
093
SSVD50 LFPW 110810 RRA
ZZYY 41099 11014 0810/ 714176 060935 22219 00268 10805 20080
21024=
ZZYY 31217 11014 0810/ 704937 052194 22219 10700 20070 21002=
ZZYY 41097 11014 0810/ 714548 061097 22219 00268 10301 20030
21004=
ZZYY 44050 11014 0810/ 746700 056183 22219 00002 10805 20080
21027=
0000010800
094
SSVD50 LFPW 110840 RRA
ZZYY 44050 11014 0840/ 746700 056183 22219 00002 10705 20070
21026=
0000017200
095
SSVF50 LFPW 110805 RRA
ZZYY 62066 11014 0805/ 743532 001615 22219 00121 10902 20090
21009=
ZZYY 62064 11014 0805/ 744653 001447 22219 10902 20090 21011=
0000038800
096
SSVF50 LFPW 110810 RRA
ZZYY 62074 11014 0810/ 747285 003285 22219 00100 10902 20090
21012=
ZZYY 62079 11014 0810/ 743403 001674 22219 00126 10902 20090
21009=
ZZYY 62069 11014 0810/ 748290 004968 22219 00110 11003 20100
21017=
ZZYY 61191 11014 0810/ 142917 003125 22219 00123 10401 20040
21003=
ZZYY 62059 11014 0810/ 749695 001620 22219 10401 20040 21006=
0000010800
097
SSVF50 LFPW 110835 RRA
ZZYY 61188 11014 0835/ 142490 003168 22219 00124 10501 20050
21003=
0000010800
098
SSVF50 LFPW 110905 RRA
ZZYY 61188 11014 0905/ 142490 003168 22219 00124 10501 20050
21003=
0000011000
099
UANT01 CWAO 110918
ARP SAS944 5852N04048W 0918 F350 MS60 243/32 KT
OYKBA DDL UAK 110918 J86A
0000116000
100
SITA20 UTDD 110900
AAXX 11091
38598 41996 20909 10015 21007 40292 57027 71011 82030=
38599 NIL=
38705 NIL=
38713 42999 30502 10042 21104 39044 48500 58013 80001=
38715 42999 31806 11060 21123 47040 52002 80003=
38718 NIL=
38719 NIL=
38725 NIL=
38734 42699 61406 11037 21153 47090 57009 83503=
38744 42999 60000 11108 21170 38088 48620 57017 80002=
38836 NIL=
38838 42998 30000 10042 21026 39599 40283 57021 80001=
38844 NIL=
38846 42699 52102 11004 21073 38549 48520 57005 82933=
38847 42999 30000 10040 21012 40283 57029 80003=
38851 41999 81308 11029 21117 48610 58017 73642=
38856 42998 80000 11031 21103 48600 58020 80003=
38869 42999 60000 11112 21208 47140 58015 80002=
38875 42999 42902 11175 21217 47/// 5//// 81502=
38878 42999 00000 11106 21290 47110 58006=
38932 NIL=
38933 42997 23602 10080 21071 39762 40281 58029 80002=
38944 42998 32701 21042 39667 40212 57034 80001=
38947 42998 33201 10064 21001 40271 58024 80001=
38951 42997 30907 11016 21205 48620 58014 80001 333   91118=
38954 42999 23001 11026 21179 37990 48580 58028 80001=
38957 42998 00000 11060 21151 47890 58020=
0000015500
101
SIVD10 EHDB 110900 RRB
BBXX
PHSG 11094 99061 71334 41/98 71219 10250 20235 40100 57010 70222
87/// 22214 00250 20203 323// 40306 80240=
0000014900
102
SIVF10 EHDB 110900 RRA
BBXX
LXFG 11093 99421 70187 41497 51935 10140 20105 40150 57020 70200
84782 22253 20505 331// 40805 80120=
0000014300
103
SIVD10 EHDB 110900 RRC
BBXX
PHEO 11094 99210 71575 41398 10613 10240 20218 40100 51010 70100
811// 22263 00260 20301 80225=
0000204500
104
SIXX40 ETGT 110900
AAXX 11094
40550 35/64 /3305 10136 20101 40176 58020
 333 55306 01161 10000 21693 30289 41177 51420 61982 55407 41404
90069 90400 91009 91117 91209 91305=
40551 45/68 /2613 10134 20089 40182 58018
 333 90069 90400 91015 91121 91217 91313=
40552 47/69 /3114 10126 20091 40179 58014 70060
 333 55302 90069 90400 91017 91119 91217 91313=
40553 37/65 /3215 10132 2//// 4//// 5//// 70086
 333 55305 90069 90400 91017 91117 91215 91311=
40568 46/// /2713 10130 20107 40180 56025
 333 90401 91017 91119 91215 91309=
40570 45/68 /3012 10118 20081 40186 58018
 333 55309 90069 90401 91017 91117 91213 91309=
40573 47/69 /3116 10118 20064 40188 58020 70061
 333 90069 90401 91019 91121 91217 91315=
40580 46/// /3005 10140 20097 40183 58015
 333 553// 01074 10000 21466 30212 41254 51425 61677 55407 41254
90400 91011 91111 91205 91303=
40581 46/// /3003 10146 20107 40187 58015
 333 90400 91011 91111 91203 91303=
40582 41658 63110 10133 20100 40178 58020 72122 82530
 333 55300 00563 10000 20871 30189 41265 51375 61060 55407 40682
82640 86360 90401 91013 91115 91211 91309=
40585 46/// /2913 10133 20096 222// 1//// 3//// 4//// 70///
 333 90401 91019 91121 91217 91311=
40586 46/// /3005 10145 20086 40183 58015
 333 90400 91009 91119 91207 91307=
40587 46/// /3010 10138 20092 40181 58018
 333 553// 00842 10000 21224 30270 41282 51392 61493 55407 40954
90401 91015 91117 91213 91309=
40588 47/50 /2915 10128 20110 40177 58022 78186
 333 55300 90000 90400 91017 91117 91215 91307=
40590 47/64 /3216 10131 20084 40186 58015 70061
 333 90069 90401 91019 91121 91217 91313=
40592 47/59 /3008 10142 20111 40174 58023 71086
 333 55304 00938 10000 21364 30234 41259 51455 61598 55407 41130
90069 90400 91015 91115 91207 91305=
40593 46/// /3011 10155 20113
 333 90401 91015 91115 91209 91307=
40594 46/// /2611 10152 20118 40176 58025
 333 90400 91015 91121 91215 91311=
40596 46/// /2011 10158 20138
 333 90401 91013 91129 91221 91313=
0000030500
105
SNVE01 KWBC 110700 RRE
BBXX
VNAH 11074 99383 31416 46/// /2011 10183 20124 30189 40213 57001
 22200 85147=
C6FS9 11074 99238 31512 46/// /1021 10259 20185 30107 40143 57012
 22200 04281 85208=
VNSZ 11074 99412 31464 46/// /3120 10237 20076 30100 40126 57001
 22200 04182 85146=
00000000