0000013500
366
SIVD17 CWVR 110900
BBXX
46147 11091 99518 71312 46/// /2411 10080 49794 52002
22200 00078 11007 70037 333 91213=

0000165600
367
SICI25 BABJ 110900
AAXX 11091
50353 32970 03404 11261 21329 40298 52015=
50557 32965 03601 11279 21335 40317 52017=
50756 32960 33202 11238 21285 40297 52016 83///=
50949 32965 03201 11113 21197 40253 52006=
50963 31758 82503 11177 21199 40263 52002 77000 88///=
50978 32970 32505 11141 21223 40253 52004 83///=
51087 32980 02502 11100 21169 40453 57012 333 05204=
51156 32980 10701 11070 21192 40405 57009 81/// 333 05100=
51644 32960 02202 11025 21128 40439 57018 333 00301=
51656 31955 02503 11035 21140 40444 57011 70500 333 00300=
51886 42980 63402 11052 21241 37147 57007 86/// 333 00500=
52602 42980 72703 11060 21292 37309 57003 87/// 333 00500=
52713 42980 70202 11078 21216 36936 57003 87/// 333 00401=
52754 42980 71403 11083 21174 36791 52001 87/// 333 00351=
52818 32680 63202 11037 21252 37278 57004 86/// 333 00400=
52836 32680 72503 11073 21212 36923 52003 87/// 333 00301=
52955 32980 83202 11056 21197 36981 54000 88/// 333 00401=
53068 42971 03403 11086 21251 40392 52021 333 00400=
53276 32980 22904 11100 21239 40388 52022 82///=
54135 32980 12902 11055 21224 40279 52008 81///=
54236 41958 32701 11038 21192 40275 52005 70500 83///=
54539 31904 02203 11010 21035 40281 57008 74600=
54662 32960 32203 10020 21066 40289 57005 83///=
54753 31910 02201 10015 21017 40296 57013 70500=
54857 41937 82002 10035 21020 40304 57008 70500 88///=
57067 41956 80201 10059 21054 40309 57005 70500 88///=
57178 32961 22203 10078 21028 40303 57009 82///=
57245 31960 83601 10057 20007 40322 57001 70060 88/// 333
00502=
57297 31955 70902 10069 21045 40299 57006 70500 87///=
0000012800
368
SIMS20 WMKK 110900 RRA
AAXX 11094
96481 41460 70503 10253 20237 30074 40093 76162 8497/ 333 81916 84627 86364=
0000018400
369
SINZ20 NZKL 110900 RRA
AAXX 11094
93800 46/// /0619 10123 20104 40124 57019=
93805 46/// /3531 10140 20094 40050 57038=
93947 46/// /2815 10083 20076 49937 57007=
0000011800
370
SIVE20 NZKL 110900
BBXX
ZMFR   11094 99440 51752 43/// /2320 10137 20091 40122 52019 22262 
00162=
0000104200
371
SIRA21 RUHB 110900
AAXX 11091
30385 42999 33601 11357 21375 39816 40456 53009 80001=
30469 NIL=
30636 42998 80000 11271 21309 39748 40429 52008 83039=
30650 42999 00000 11276 21322 39189 40433 52004=
30664 42999 00000 11354 21377 39330 40471 52008=
30777 42998 22403 11271 21317 39680 40408 52016 80002=
30822 41598 71202 11091 21141 39755 40360 54000 70182 82902=
30844 42999 22703 11158 21192 39347 40386 52007 82040=
30925 42899 61803 11162 21222 39362 40399 53001 82041=
31371 41999 22702 11252 21308 30001 40292 52015 70230 80001=
31388 42984 30000 11365 21394 39974 40277 52012 80001=
31478 11999 81401 11372 21395 39022 40265 53007 69902 77172 82037 333
11314=
31532 11999 30000 11385 21414 39875 40273 53008 69902 70271 80001 333
11356=
31594 42997 03301 11315 21352 30079 40274 52004=
31624 12999 02903 11253 21318 39941 40220 53/// 60002 333 11215=
31655 12998 01904 11245 21311 30140 40192 53001 60002 333 11223=
31754 12999 00000 11269 21315 39670 40223 53007 60002 333 11350=
0000196700
372
UDAS02 BABJ 110915
AMDAR 1109
DES CNFLWT 3224N 11834E 110910 F149 MS096 278/036 TB/ S//1=
DES CNFLWT 3219N 11835E 110910 F135 MS109 261/031 TB/ S//1=
DES CNFLWT 3218N 11835E 110911 F132 MS130 254/042 TB/ S//1=
DES CNFLWT 3212N 11836E 110912 F110 MS080 262/031 TB/ S//1=
DES CNFLWQ 2304N 11255E 110909 F080 PS030 301/011 TB/ S//1=
DES CNFLWQ 2303N 11257E 110909 F077 PS038 291/010 TB/ S//1=
DES CNFLWQ 2302N 11301E 110910 F072 PS050 302/006 TB/ S//1=
DES CNFLWQ 2300N 11305E 110911 F062 PS074 274/002 TB/ S//1=
LVR CNFLWM 2626N 10718E 110910 F177 MS089 274/056 TB/ S//1=
ASC CNFLWM 2624N 10723E 110911 F184 MS095 265/056 TB/ S//1=
ASC CNFLWM 2622N 10727E 110911 F210 MS149 263/061 TB/ S//1=
ASC CNFLWM 2621N 10731E 110912 F227 MS190 263/071 TB/ S//1=
LVR CNFPYL 2810N 11608E 110903 F246 MS221 259/105 TB/ S//1=
LVR CNFPYL 2754N 11625E 110906 F246 MS215 258/103 TB/ S//1=
LVR CNFPYL 2738N 11643E 110909 F246 MS210 257/100 TB/ S//1=
LVR CNFPYL 2722N 11700E 110912 F246 MS205 257/097 TB/ S//1=
LVR CNFNXM 2616N 10531E 110904 F351 MS443 258/114 TB/ S//1=
LVR CNFNXM 2615N 10601E 110907 F351 MS443 256/116 TB/ S//1=
LVR CNFNXM 2624N 10631E 110910 F351 MS443 256/118 TB/ S//1=
LVR CNFNXM 2632N 10701E 110913 F351 MS444 255/119 TB/ S//1=
DES CNFPTK 3104N 12117E 110910 F019 MS003 067/013 TB/ S//1=
DES CNFPTK 3104N 12119E 110911 F015 PS003 070/015 TB/ S//1=
DES CNFPTK 3105N 12120E 110912 F014 PS000 066/016 TB/ S//1=
DES CNFPTK 3108N 12120E 110913 F007 PS013 069/014 TB/ S//1=
DES CNFOZM 3559N 11708E 110910 F138 MS185 277/021 TB/ S//1=
DES CNFOZM 3601N 11708E 110911 F138 MS188 276/022 TB/ S//1=
DES CNFOZM 3606N 11707E 110912 F138 MS185 279/023 TB/ S//1=
DES CNFOZM 3610N 11707E 110913 F130 MS161 287/025 TB/ S//1=
ASC CNFLWM 2619N 10735E 110913 F239 MS210 259/082 TB/ S//1=
ASC CNFLWM 2618N 10737E 110913 F244 MS213 254/090 TB/ S//1=
ASC CNFLWM 2617N 10739E 110913 F250 MS223 250/091 TB/ S//1=
0000072800
373
SIYE10 OYSC 110900
AAXX 11094
41372 NIL=
41390 NIL=
41391 NIL=
41396 42965 30309 10248 20100 39432 40145 80001 333 59003 83070=
41398 42562 60918 10252 20176 30114 48547 83560 333 59005 83625
86356=
41399 NIL=
41404 42560 72312 10228 21080 37872 48528 83509 333 58004 83630
84168=
41407 42760 40310 10262 20092 38941 48511 82032 91001 333 59007
82356=
41431 41558 11920 10280 20205 30143 40156 70600 81100 333 58012
81830=
41434 NIL=
41437 42965 21313 10225 20056 38894 48535 80001 333 59012 82068=
41438 NIL=
41443 NIL=
41450 NIL=
41452 NIL=
41466 NIL=
41477 NIL=
41480 42560 31315 10277 20181 30162 40165 83800 333 59005 83820=
41481 NIL=
41482 NIL=
41494 NIL=
0000016100
374
SOVI10 KWAL 110926
B110070A 011092601 P9751095 B\P~W@@R0ekI1@mj???C`Cd>@mb3@GC?@M5C}6bE2?????@"??? ?TIWKBiBcBeBjBiBm:AMPTEMP 26.22C  46+0NN 219E
0000079300
375
FJIN51 VECC 110925

              INDIA METEOROLOGICAL DEPARTMENT
          R/T VOLMET B/C VECC 0925 UTC 11012014

VIDP SIGMET NIL=

VECC SIGMET NIL=

MET/SPECIAL REPORT

VECC 110920Z 350/06KT VIS 2800M FU NSC T26 DP13 QNH 1014 NOSIG=

VIDP 110900Z 300/11KT VIS 3000M HZ NSC T18 DP07 QNH 1017 NOSIG=

VGHS 110920Z 340/08KT VIS 4000M HZ NSC T27 DP12 QNH 1013 NOSIG=

VYYY 110430Z 080/04KT VIS 8KM NSC T28 DP25 QNH 1016 = 
VNKT 110920Z 240/06KT VIS 6KM SCT2500FT/750M BKN10000FT/3000M T14
     DP02 QNH 1018 NOSIG=

FCST VECC 11/12 000/00KT VIS 1800M FU/BR NSC=

FCST VIDP 11/09 310/08KT VIS 3200M HZ NSC BECMG 11/15 250/03KT VIS
          1200M BR=

TAF VVTS NIL=



    DUTY ASSISTANT                    DUTY OFFICER

0000011000
376
SIIN90 VIDP 110900
AAXX 11094
42139 31995 20000 10182 20090 40167 70510 82500
  333 58020=
0000366100
377
SIXX40 ETGT 110900 RRA
AAXX 11091
40022 42965 01501 10170 20018 40226 51006=
40025 42960 02002 10178 20022 40233 58002=
40030 42970 00000 10102 20050 40234 58002=
40061 42970 22504 10082 20027 40220 50003 82030 333 82360=
40066 42970 00000 10154 21022 40225 52009=
40080 41940 00000 10070 20047 39519 40248 50005 71040=
40604 42960 00000 10112 20029 40216 52003=
40608 41958 40000 10104 20040 40212 58006 70511 80002 333 840//=
40621 41558 80000 10100 20066 40214 52004 76061 888// 333 84822
84625=
40622 41458 82602 10067 20044 40189 51005 76166 8682/ 333 82818
86622 88456=
40623 42560 63304 10075 20007 40234 52011 86500 333 86622=
40629 42560 53303 10108 20081 40220 52006 83532 333 83630=
40634 42560 83402 10096 20073 40212 52012 887// 333 82825 86630=
40637 42560 70000 10130 20100 40180 50004 87800 333 83825 87630=
40642 42560 83304 10054 20026 40215 54000 8652/ 333 86625 98460=
40650 41525 81204 10100 20083 40174 50002 71022 888// 333 84830
86633=
40656 41540 80203 10094 20088 40161 50003 75152 885// 333 88630=
40658 42560 63604 10090 20070 40190 57007 86800 333 83830 84632=
40665 42660 70000 10100 20085 40184 58009 83530 333 83635 85360=
40670 41556 82504 10094 20070 40184 58006 71022 8552/ 333 85628
88460=
40672 42660 61603 10126 20052 40172 52004 86800 333 82830 84635=
40674 42560 63005 10108 20055 40186 58007 86100 333 86830=
40676 42560 62403 10110 20072 40196 58008 86500 333 86632=
40680 41550 81504 10125 20109 40173 58010 71022 888// 333 82830
86630=
40691 41558 81804 10145 20121 40202 57022 72582 8552/ 333 82830
83640 88460=
40700 42960 02706 10088 21076 30072 40163 57032 555 10034 29030
66666 00006 10010 20024 30032 50070 90090 77777 00/// 10/// 20///
30030 50/// 70/// 99///=
40701 41930 00000 11128 21129 38624 40357 58003 71000 555 11125=
40703 41515 80000 11076 21101 38969 40330 58015 71072 886// 333
88725 555 11080 29082 66666 01048 11050 21040 31006 50033 90080=
40704 42865 62808 11012 21084 38606 40224 58004 82071 333 82358
86070 555 11034 29058 66666 01030 11034 21030 31016 50006 90068=
40708 42865 81909 11002 21042 38649 40199 57014 83076 333 83358
87268 555 11016 29074 66666 01028 11026 21024 31012 50008 90060=
40710 42665 82103 11096 21133 38328 40336 58006 8452/ 333 84635
88458 555 11102 29074 66666 01074 11072 21060 31044 51018 90058=
40712 41620 60402 11058 21102 38706 40296 57010 70522 83506 333
83635 86267 555 11068 29071 66666 01034 11036 21028 31012 50008
90055=
40713 41611 80000 11040 21064 38689 40290 58010 71022 8351/ 333
83642 88461 555 11046 29083 66666 01018 11022 21006 31022 50032
90092=
40716 42960 80000 11012 21063 38938 40259 58014 8801/ 333 88460
555 11028 29068 66666 01008 11006 20008 30012 50050 90096=
40719 41530 73102 10084 20057 30168 40158 58027 71022 84570 333
84625 86360 555 10072 29083 66666 00076 10064 20072 30078 50100
90126=
40721 42960 53103 10126 21016 39620 40163 57032 84032 333 84360
555 10068 29037 66666 00084 10080 20064 30070 50085 90118=
40723 42960 50000 10076 21092 38960 40213 57035 81036 333 81360
85266 555 10020 29029 66666 01016 10020 21004 30014 50034 90080=
40726 41620 80000 11022 21055 38679 40273 58008 77177 8352/ 333
83635 88457 555 11032 29078 66666 01024 11026 21018 30000 50030
90080=
40727 41540 63201 11020 21062 38491 40266 58010 70522 86700 333
86720 555 11033 29073 66666 01017 11017 21007 30011 50023 90074=
40729 42660 80302 11012 21042 38343 40263 58007 8441/ 333 84635
88458 555 11022 29080 66666 01020 11028 21016 31024 50006 90048
77777 00008 10018 20/// 30022 50019 70/// 99///=
0000591100
378
SIXX40 ETGT 110900 RRB
AAXX 11091
40731 41650 81503 10005 21025 38758 40255 58018 71022 8332/ 333
81935 83640 88459 555 11006 29080 66666 01002 11003 20012 30018
50038 90072=
40734 42960 80302 10114 20098 30187 40161 58025 83037 333 83360
88268 555 10106 29090 66666 00080 10074 20076 30082 50094 90118=
40736 42960 81602 10110 20072 30187 40161 57022 8801/ 333 88460
555 10092 29078 66666 00074 10074 20078 30090 50102 90127 77777
00/// 10036 20036 30036 50/// 70/// 99///=
40737 42660 70000 10106 20063 30144 40162 57029 81536 333 81635
85267 555 10086 29075 66666 00084 10066 20072 30082 50106 90124
77777 00035 10/// 20/// 30042 50046 70/// 99///=
40738 41556 63302 10112 20065 30169 40171 57036 70520 81152 333
81830 83359 85069 555 10090 29073 66666 00100 10072 20064 30076
50100 90126=
40739 42662 52404 10026 21079 38697 40233 58024 82502 333 82635
84068 555 11010 29046 66666 00028 10028 20010 30026 50040 90081=
40740 42960 30000 10092 21143 38731 40196 58020 83030 333 83360
555 10020 29018 66666 01021 11023 21013 30002 50026 90062=
40741 42962 61606 10134 21067 39865 40204 57039 80006 333 86267
555 10061 29024 66666 00095 10067 20051 30062 50079 90111=
40743 42965 51102 10070 21078 39089 40236 57028 80002 333 85069
      555 10020 29034 66666 00042 10034 20056 30072 50090 90124=
40747 41550 80301 11007 21034 38646 40241 58013 71087 85320 333
82725 81935 83635 86458 555 11016 29082 66666 00004 10008 20022
30028 50048 90086=
40757 42660 71201 10052 21055 38919 40231 58022 82570 333 82635
87360 555 10014 29046 66666 00066 10048 20032 30044 50058 90102
77777 00014 10011 20/// 30010 50010 70/// 99///=
40762 42965 21503 10072 21084 38573 40242 57023 82030 333 82360
      555 10018 29032 66666 00034 11004 21004 30012 50040 90074=
40763 42665 31503 10082 21062 38949 40244 57023 83500 333 83635
555 10030 29036 66666 00098 10048 20036 30052 50072 90114=
40768 41630 70000 11045 21080 38260 40297 57018 71022 85472 333
85635 84359 555 11056 29074 66666 01004 11040 21018 31004 50013
90042=
40769 41520 70000 11032 21054 38296 40264 57026 77072 8377/ 333
83720 87458 555 11032 29085 66666 00002 10002 20012 30020 50040
90084=
40780 41460 81703 10030 20030 38674 40190 58008 8632/ 333 81815
82935 84635 88459 555 10030 29100 66666 00014 10022 20034 30040
50058 90092=
40782 41458 72203 10026 20016 38880 40202 57013 76082 8632/ 333
81715 81935 85640 87458 555 10022 29093 66666 00050 10048 20050
30058 50072 90108=
40783 41550 61105 11004 21015 37971 40203 58017 71087 85370 333
82930 83635 86359 555 11008 29092 66666 00002 10002 20016 30020
50040 90080=
40785 41520 83102 10008 20003 39123 40277 58002 77372 8552/ 333
85620 88558 555 10006 29096 66666 00012 10018 20032 30046 50072
90114=
40789 42660 70000 10070 21017 39221 40213 58025 81577 333 81640
85360 86270 555 10036 29054 66666 00068 10058 20054 30066 50105
90146=
40791 42662 40102 10086 21044 39384 40225 57031 83402 333 83640
83070 555 10038 29040 66666 00090 10082 20072 30090 50112 90156=
40792 42970 31703 10090 21088 38739 40219 57021 80002 333 83070
555 10028 29027 66666 00068 10054 20030 30040 50062 90110=
40794 41660 81205 10112 20100 30093 40192 58020 72166 8532/ 333
82935 83640 88458 555 10106 29090 66666 00110 10110 20114 30122
50145 90170=
40798 41510 80000 11040 21057 37950 40278 58016 77072 8432/ 333
81925 83630 88557 555 11044 29088 66666 01006 10002 20008 30018
50034 90064=
40809 42662 70902 10071 21126 38518 40232 58022 81578 333 81640
83460 87269 555 10009 29023 66666 00038 10024 20032 30044 50074
90116=
40812 41550 81004 10099 20078 39795 40175 57024 76166 8332/ 333
83930 83635 88557 555 10089 29087 66666 00114 10110 20122 30126
50142 90160 77777 00081 10064 20/// 30/// 50099 70/// 99///=
40818 42662 20602 10056 21027 37964 40199 58016 81202 333 81840
555 10022 29055 66666 01010 11008 21006 30000 50038 90074=
40821 41657 23603 10076 21021 38792 40210 58030 70582 81530 333
      81635 555 10037 29050 66666 00097 10064 20040 30053 50081
      90130=
40827 42665 80903 10055 21054 38850 40230 58028 8341/ 333 83635
88460 555 10016 29045 66666 00048 10044 20042 30064 50094 90146=
40829 42960 71003 10100 21010 39661 40254 57036 80006 333 87269
555 10056 29046 66666 00072 10070 20086 30084 50128 90168=
40831 41625 82405 10124 20105 30175 40183 58011 71082 8432/ 333
82935 82640 88459 555 10114 29088 66666 00136 10136 20140 30096
50160 90208=
40833 41562 81106 10138 20105 30162 40195 58018 72582 883// 333
83930 85640 555 10121 29080 66666 00132 10132 20138 30144 50194
90200 77777 00052 10099 20/// 30090 50092 70/// 99///=
40835 41656 81404 10090 20082 39349 40178 57030 76166 8532/ 333
82935 83640 88557 555 10086 29095 66666 00082 10084 20088 30098
50114 90130=
40836 41530 80000 10020 20011 38197 40225 57019 71076 8532/ 333
81930 84635 88558 555 10016 29094 66666 00004 10012 20020 30028
50044 90072 77777 00/// 10014 20/// 30014 50014 70/// 99012=
40845 41560 81609 10152 20145 30176 40181 58024 72598 8692/ 333
81720 82925 83635 88458 555 10148 29096 66666 00136 10138 20144
30144 5//// 90182=
40851 42660 81205 10074 21011 38278 40203 58021 8342/ 333 83640
88460 555 10038 29055 66666 00062 10042 20042 30058 50080 90146=
40853 42665 83203 10040 21023 37762 40230 57019 83410 333 83640
87460 555 10014 29063 66666 00010 10014 20024 30048 50060 90120=
40854 42665 80000 10096 21037 38958 40186 58031 81476 333 87459
88270 555 10044 29039 66666 00132 10114 20078 30090 50136 90182=
40857 41557 81103 10137 20102 30173 40183 58020 76166 8432/ 333
81925 83635 88557 555 10119 29080 66666 00134 10146 20142 30146
50156 90168=
40858 41558 81306 10130 20090 30172 40183 58014 76062 8592/ 333
81930 84635 88558 555 10110 29077 66666 00142 10148 20154 30160
50168 90192=
0000172600
379
SIXX40 ETGT 110900 RRC
AAXX 11091
40859 41560 80000 10080 20017 38736 40193 58018 70282 8432/ 333
81930 83635 88459 555 10052 29064 66666 00082 10076 20076 30086
50104 90141=
40872 41558 80303 10170 20106 30190 40194 58017 70522 8432/ 333
81925 83630 88459 555 10136 29066 66666 00156 10162 20168 30174
50186 90196=
40877 42660 80904 10120 20030 39636 40194 57021 8442/ 333 84640
88459 555 10080 29054 66666 00134 10120 20118 30130 50170 90208=
40878 42965 62102 10110 21129 38887 40255 57025 80006 333 86270
555 10033 29017 66666 00096 10079 20083 30100 50121 90149=
40879 42562 80000 10149 21067 39531 40227 58032 8172/ 333 81720
88459 555 10068 29022 66666 00156 10144 20138 30150 50172 90220=
40882 41558 80705 10150 20124 30171 40207 58012 72166 8332/ 333
81930 82725 88459 555 10136 29085 66666 00140 10140 20152 30164
50178 90222=
40883 41530 80302 10142 20112 30183 40206 56020 76262 8352/ 333
83625 88558 555 10126 29082 66666 00142 10142 20146 30176 50182
90224 77777 00/// 10/// 20007 30006 50002 70/// 99///=
40889 41658 81308 10210 20160 30192 40197 57034 76060 8342/ 333
83635 88559 555 10180 29073 66666 00180 10178 20178 30188 50204
90242=
40890 41557 81307 10210 20129 30180 40187 57032 70722 8337/ 333
82925 82630 88460 555 10164 29060 66666 00230 10206 20194 30190
50208 90234 77777 00/// 10/// 20/// 30/// 50/// 70/// 99///=
40893 42960 61107 10198 20038 30205 40211 57025 86060 333 86359
555 10122 29035 66666 00242 10192 20178 30182 50198 90180 77777
00/// 10100 20099 30100 50100 99///=
40898 42965 60703 10207 21098 30200 40210 58031 80006 222// 00225
10700 333 86269 555 10096 29012 66666 00260 10162 20188 30190
50228 90256=
0000163600
380
SIXX40 ETGT 110900 RRA
AAXX 11094
40153 42960 03605 10094 20028 39145 48540 52001=
40179 42565 52203 10168 20112 30199 40236 57001 85800=
40180 42560 49903 10167 20108 30194 40243 50000 84100=
40183 43/// /3306 10108 20058 39297 48554 52003=
40190 46/// /2503 10127 20107 39907 40242 57001=
40199 43/// /0502 10178 20099 30223 40249 57003=
40356 42560 63314 10050 20040 39232 48518 84520 333 58068 84630
86460 555 04410 50238=
40357 42560 73117 10077 20080 39557 40210 87600 333 58066 87730=
40360 42960 03206 10110 20020 39638 40244 333 58066=
40361 42560 73216 10094 20000 39434 40220 87600 333 58069 87720=
40362 42660 73616 10088 20040 39665 40192 87470 333 58053 87640
85360=
40373 42660 22810 10133 20090 39761 40187 82500 333 58019 82635=
40375 42660 23011 10130 20020 39339 40232 82200 333 58061 82840=
40377 42960 03320 10147 20130 39708 40195 333 59009=
40394 42660 43024 10106 20030 39059 48527 84500 333 58061 84645
555 04410 50205=
40400 42560 10203 10228 20070 30186 40214 81200 333 58049 81830=
40401 42960 03406 10152 20010 39515 40229 333 58061=
40405 42960 02910 10140 20080 39449 40196 333 58053=
40416 42660 81814 10178 20140 30155 40175 8457/ 333 59021 84640
88358=
40417 42560 71813 10174 20120 30175 40190 83530 333 59021 83630
87360=
40420 42560 71712 10153 20130 39975 40186 84520 333 59017 84630
84460=
40430 41958 01004 10163 20000 39492 40224 70600 333 58063=
40435 42960 03312 10140 20030 39140 40176 333 58069=
40437 42660 52409 10171 20110 39483 40194 85500 333 58016 85640=
40439 42960 00000 10233 20070 30179 40189 333 58038=
0000128400
381
SITN20 HTDA 110900
AAXX 11094
63729 21480 80808 10215 20197 38894 48/// 76092 8392/
  333 55300 58002 69907 83618 81920 88458=
63733 32580 10904 10280 20150 38872 48519 81901
  333 55310 59002 81825 81927=
63756 32580 10608 10280 20165 38882 48525 81900
  333 55310 58001 81828 81929=
63791 32680 10812 10302 20142 39135 48532 81200
  333 55310 58007 81834=
63801 32580 32410 10276 20209 39228 48565 81901
  333 55310 58003 81823 81924 83080=
63832 32580 31405 10260 20185 38844 48521 83200
  333 55310 58001 82822=
63862 32580 20000 10269 20183 38912 48532 82100
  333 55310 58007 82824=
63866 32580 20000 10308 20188 39523 48/// 82100
  333 55310 59002 82828=
63870 32580 50410 10314 20212 30109 40127 85200
  333 55310 58006 85822=
63881 32480 61703 10223 20122 38217 48/// 82161
  333 553// 58001 82819 86357=
63887 32580 50000 10260 20176 38601 48527 85200
  333 55310 58003 85821=
63894 32580 40110 10324 20234 30075 40135 84200
  333 553// 58007 83826=
63932 32580 71208 10234 20150 3//// 4//// 8497/
  333 553// 5//// 84822 81923 85359=
63962 32570 60000 10240 20196 38973 48534 83930
  333 55300 58014 83821 81922 84359=
63971 32580 43415 10305 20237 30003 40133 84900
  333 55310 58014 84825 81926=
0000087900
382
SIIV20 DIAP 110900
AAXX 11094
65528 NIL=
65536 NIL=
65545 42956 02402 10257 20224 39709 40124
  333 58007=
65548 NIL=
65555 NIL=
65557 41405 8//// 10245 20239 39891 40131 74244 885//
  333 58007 88611=
65560 42458 8//// 10242 20235 39811 40119 882//
  333 58005 88813 94919=
65562 42060 3//// 10258 20232 3//// 4//// 83030
  333 5//// 83360=
65563 41350 82606 10245 20233 39891 40130 71011 885//
  333 58005 88608=
65578 42458 60404 10273 20252 30122 40129 86800
  333 58002 82812 86620 94917=
65585 42458 4//// 10265 20242 30084 40122 82270
  333 58000 82813 83360 94902=
65592 42458 6//// 10262 20254 30095 40118 83230
  333 58003 83813 85360 94914=
65594 42456 70000 10266 20247 30095 40129 84232
  333 59001 84813 84360 94918=
65599 42460 6//// 10260 20247 30040 40114 81970
  333 59001 81913 86360 94944 95834=
0000103800
383
SIET20 HAAB 110900
AAXX 11091
63330 42580 31408 10198 20066 37806 40279 82130 333 58011 82820
81356=
63331 42580 4//// 10262 20098 38060 40241 84800 333 59004 82824
83626=
63332 42580 53602 10214 20110 38236 40120 83201 333 58006 83824
825070=
63333 42580 21404 10234 20115 38180 40146 82100 333 58000 82826=
63334 41560 21904 10212 20050 37641 40080 70500 82100 333 59003
82827=
63340 42580 12002 10240 20131 37973 40203 81100 333 58010 81827=
63402 41575 30000 10248 20162 38402 4//// 70500 83900 333 59004 82828
81929=
63403 41560 61502 10220 20143 70522 82230 333 82823 85360=
63450 NIL=
63451 42580 10000 10254 20075 38150 40067 81100 333 59005 81828=
63453 42980 02901 10266 20150 39090 333 58008=
63460 42980 02701 10250 20104=
63471 NIL=
63474 42580 10304 10194 20056 81100 333 81823=
63478 41578 10905 10315 2//// 39808 40187 70500 81100 333 59008
81828=
63500 42580 10601 10292 20124 81100 333 81825=
63533 41570 13604 10257 20118 7050/ 81100 333 81825=
     NNNN=
0000025900
384
SISG20 GOOY 110900
AAXX 11094
61600 NIL=
61612 NIL=
61627 NIL=
61630 NIL=
61641 42960 40210 10199 20164 30127 40160 80002
  333 58014 84073=
61666 NIL=
61679 NIL=
61687 NIL=
61695 NIL=
61697 NIL=
61698 NIL=
61699 NIL=
0000011000
385
UANT99 KDDL 110925
ARP AFR459 4542N01001W 0925 F370 MS62 295/48 KT
FGSQH DDL SCQ 110925 F87A
00000000