0000011000
266
SPUS42 KWBC 110119
SPECI
KGLS 110115Z AUTO 21007KT 10SM FEW003 BKN014 OVC043 18/18 A2986=

0000178900
267
SPUS70 KWBC 110120
SPECI
KMBS 110116Z 16007KT 3SM -RA BR BKN008 BKN013 OVC024 02/01 A2980
     RMK AO2 P0002=
KMRY 110116Z 00000KT 5SM BR OVC002 11/10 A3019 RMK AO2=
KADF 110115Z AUTO 17003KT 1 3/4SM BR BKN012 13/13 A2971 RMK AO2
     VIS 1 1/4V3=
KDXR 110116Z 00000KT 1/2SM FG VV004 01/M01 A3032 RMK AO2=
KENW 110116Z 16012KT 2SM RA BR BKN005 OVC040 03/02 A2955 RMK AO2
     PRESFR P0005 T00330022=
KFAY 110116Z AUTO VRB03KT 1 1/4SM +RA BR SCT014 OVC022 17/16 A3013
     RMK AO2 P0039=
KGLR 110116Z AUTO 15008KT 2SM -FZRA BR OVC003 M02/M02 A2972 RMK
     AO2 P0001 I1002 T10171022=
KHZY 110116Z AUTO 15008KT 8SM BKN008 04/02 A2998 RMK AO2 TSNO=
KLAF 110116Z AUTO 15013G17KT 5SM -RA BR SCT006 SCT012 OVC055 05/04
     A2972 RMK AO2 P0002 T00500044=
KLXT 110116Z AUTO 27007KT 10SM BKN008 BKN012 OVC021 04/03 A2957
     RMK AO2 T00440028=
PACV 110116Z 16003KT 10SM R27/2600VP6000FT FEW001 BKN025 BKN200
     M02/M03 A2931 RMK AO2 $=
PAOH 110116Z AUTO 00000KT 3SM BR SCT018 BKN028 BKN039 01/01 A2943
     RMK AO2 TSNO UPE16 P0000 $=
KDFI 110117Z AUTO 17004KT 2 1/2SM -RA BR OVC004 04/03 A2983 RMK
     AO2 P0002=
KDTN 110117Z AUTO 16008KT 5SM -RA BR FEW006 SCT017 OVC070 16/15
     A2973 RMK AO2 P0003=
KEWN 110117Z 14003KT 10SM SCT023 BKN029 BKN037 17/14 A3021 RMK
     AO2=
KFWN 110117Z AUTO 00000KT 1 1/2SM BR OVC004 00/M01 A3028 RMK AO2
     T00001006=
PACM 110117Z AUTO 00000KT 10SM FEW022 BKN027 OVC100 M11/M13 A2953
     RMK AO2 TSNO $=
KGNV 110117Z 00000KT 10SM BKN025 BKN035 OVC043 20/19 A3011 RMK AO2
     LTG DSNT SE T02000194=
PACM 110117Z AUTO 00000KT 10SM FEW022 BKN027 OVC100 M11/M13 A2953
     RMK AO2 TSNO $=
PAMR 110117Z 36003KT 2 1/2SM -SN OVC016 M03/M06 A2938 RMK AO2
     P0000=

0000011200
268
SABW31 VGHS 110150
METAR VGHS 110150Z 00000KT 0500 FG BKN003 15/13 Q1014 BECMG S/VIS
0800M=

0000010700
269
SALT31 EYVI 110150
METAR EYVI 110150Z 28015KT 9999 OVC015 02/M00 Q1000 R20/2/0295 NOSIG=

0000017000
270
SAMP31 LMMM 110200
METAR HLLT NIL=
METAR HLLB 110145Z
00000KT 9999 SCT020 BKN080 12/10 Q1025 =
METAR LMML 110145Z AUTO 23005KT CAVOK 15/13 Q1022=

0000016500
271
SAIS31 LLBG 110150
METAR LLET 110150Z NIL=
METAR LLHA 110150Z NIL=
METAR LLIB 110150Z NIL=
METAR LLOV 110150Z NIL=
METAR LLSD 110150Z NIL=

0000034000
272
SASW31 LSSW 110150
METAR LSZH 110150Z VRB01KT 0400 R14/0600N R16/0800N R28/0600N
    R34/0600N FG VV001 02/02 Q1019 BECMG 0200=
METAR LSGG 110150Z 00000KT CAVOK 02/01 Q1018 NOSIG=
METAR LSZB 110150Z AUTO VRB01KT 1600 R14/0800D FZFG NCD M01/M01
    Q1018=
METAR LSZA 110150Z AUTO VRB01KT 9999 OVC045 07/06 Q1022=

0000024800
273
SASW39 LSSW 110150
METAR LSMA 110150Z NIL=
METAR LSMD 110150Z NIL=
METAR LSME 110150Z NIL=
METAR LSMM 110150Z NIL=
METAR LSMP 110150Z NIL=
METAR LSMS 110150Z AUTO 07003KT 7000NDV SCT150 SCT170 03/02 Q1019
    RMK GRN=

0000012300
274
FCMC31 GMMC 102300 RRB
TAF GMMN 102300Z 1101/1110 18004KT 9999 SCT016 BKN100 TEMPO 1101/1110
6000 -RA=

0000022700
275
FTUS80 KWBC 110103
TAF
TAF KLCK 110051Z 1101/1124 14009KT P6SM SCT025 BKN100
     FM110500 16010KT 5SM BR VCSH OVC015
     FM110800 17012KT 4SM -RA BR OVC008
     FM111400 23014G23KT P6SM VCSH OVC012=

0000027800
276
FTUS80 KWBC 110103 AAA
TAF AMD
KSAV 110102Z 1101/1124 14005KT 6SM BR SCT004 SCT015
     FM110300 18005KT 3/4SM BR OVC004
     FM111200 19009KT 4SM BR OVC004
     FM111700 21014G22KT 6SM SHRA SCT015 BKN040
     FM112300 26012G17KT P6SM SCT040 SCT120=

0000035900
277
FTUS51 KWBC 110106 AAA
TAF AMD
KMYR 110103Z 1101/1124 18007KT 5SM -SHRA BKN003
      TEMPO 1101/1104 14005KT BKN012
     FM110400 15008KT 5SM BR BKN008
     FM110800 18009KT 4SM BR BKN006
     FM111600 19012G20KT P6SM VCSH BKN018
      TEMPO 1120/1124 20020G30KT 2SM +SHRA BKN012CB AMD LTD TO CLD
      VIS AND WIND 1104/1111=

0000029200
278
FTUS53 KWBC 110106 AAA
TAF AMD
KEGE 110102Z 1101/1124 27010KT P6SM VCSH SCT050 OVC070
     FM110200 VRB03KT P6SM VCSH SCT035 BKN050
     FM111200 VRB03KT P6SM VCFG SCT015 BKN050
     FM111800 VRB03KT P6SM SCT060 SCT200 AMD LTD TO CLD VIS AND
      WIND 1102/1114=

0000018100
279
FTUS52 KWBC 110106 AAA
TAF AMD
KXNA 110103Z 1101/1124 26010KT P6SM FEW018 SCT024 OVC070
     FM110200 26008KT P6SM OVC250
     FM111800 28013G21KT P6SM SKC=

0000130500
280
FTUS80 KWBC 110106 AAA
TAF AMD
KEGE 110102Z 1101/1124 27010KT P6SM VCSH SCT050 OVC070
     FM110200 VRB03KT P6SM VCSH SCT035 BKN050
     FM111200 VRB03KT P6SM VCFG SCT015 BKN050
     FM111800 VRB03KT P6SM SCT060 SCT200 AMD LTD TO CLD VIS AND
      WIND 1102/1114=
KMYR 110103Z 1101/1124 18007KT 5SM -SHRA BKN003
      TEMPO 1101/1104 14005KT BKN012
     FM110400 15008KT 5SM BR BKN008
     FM110800 18009KT 4SM BR BKN006
     FM111600 19012G20KT P6SM VCSH BKN018
      TEMPO 1120/1124 20020G30KT 2SM +SHRA BKN012CB AMD LTD TO CLD
      VIS AND WIND 1104/1111=
KSGF 110105Z 1101/1124 25010KT 6SM BR VCTS BKN015CB
     FM110200 26008KT 6SM BR SCT015 BKN080
     FM110500 26010KT 3SM BR BKN007
     FM111400 27010G18KT P6SM SCT250=
KTUL 110103Z 1101/1124 27005KT P6SM FEW180
     FM110200 26007KT P6SM SCT250
     FM111800 30008KT P6SM SKC=
KXNA 110103Z 1101/1124 26010KT P6SM FEW018 SCT024 OVC070
     FM110200 26008KT P6SM OVC250
     FM111800 28013G21KT P6SM SKC=
PADU 110104Z 1101/1124 14011G17KT P6SM -RA SCT018 OVC025
      TEMPO 1101/1102 OVC018
     FM110200 21011G18KT P6SM -SHRA SCT025 BKN035
     FM110600 21013G21KT P6SM BKN035
     FM111300 21018G27KT P6SM -SHRA BKN035
     FM112100 22021G33KT P6SM -SHRA SCT035 BKN045=

0000034500
281
SPUS70 KWBC 110102
SPECI
KPBF 110058Z AUTO 31006KT 4SM VCTS -RA BR BKN004 OVC009 13/12
     A2976 RMK AO2 LTG DSNT S AND SW TSB57 P0000=
KFAY 110059Z AUTO 30007KT 1 3/4SM +RA BR BKN016 OVC028 16/15 A3014
     RMK AO2 P0010=
KM19 110059Z AUTO 12009KT 1SM RA BR VV009 07/07 A2975 RMK AO2 VIS
     1/2V5 P0002 PRESFR=

0000010200
282
SPUS41 KWBC 110103
SPECI
KCEF 110101Z AUTO 16003KT 7SM FEW015 OVC020 00/00 A3031=

0000011900
283
SPUS41 KWBC 110103
SPECI
KWRI 110101Z AUTO 02002KT 1 1/4SM R06/2200FT -RA BR OVC004 02/02
A3028=

0000154500
284
SPUS70 KWBC 110104
SPECI
KAHN 110100Z 07005KT 1SM BR OVC003 08/07 A3011 RMK AO2=
KBGM 110100Z 14007KT 7SM OVC010 01/M01 A3016 RMK AO2=
KCHO 110100Z 00000KT 3/4SM -RA BR BKN005 OVC009 02/01 A3024 RMK
     AO2 P0000 T00170011=
KFSM 110100Z 29006G18KT 2SM BR FEW010 SCT048 BKN070 11/10 A2967
     RMK AO2=
KFWN 110100Z AUTO 00000KT 2 1/2SM BR OVC005 00/M01 A3029 RMK AO2
     T00001011=
KHKY 110100Z 01006KT 3/4SM -RA BR VV002 06/05 A3015 RMK AO2
     RAB0055 P0000=
KUNO 110100Z AUTO 15006KT 1SM BR VV002 07/07 A2963 RMK AO2
     T00720067=
PAMR 110100Z 32003KT 1 1/2SM -SN BR BKN010 OVC016 M03/M06 A2938
     RMK AO2 CIG 006V012 P0000=
KCGI 110101Z AUTO 26004KT 1 1/4SM RA BR FEW006 BKN028 OVC070 05/05
     A2977 RMK AO2 P0002 T00500050=
KDPA 110101Z 19010KT 5SM RA BR BKN007 OVC016 03/03 A2961 RMK AO2
     P0002=
KDXR 110101Z 00000KT 1SM BR OVC005 01/M01 A3032 RMK AO2=
KELD 110101Z AUTO 27005KT 1 1/4SM +RA BR BKN007 OVC013 15/15 A2975
     RMK AO2 CIG 004V009 P0008 T01500150 TSNO=
KFCI 110102Z AUTO 00000KT 2 1/2SM OVC003 04/M01 A3023 RMK AO1=
KGED 110101Z AUTO 13006KT 1 1/4SM BR SCT045 OVC060 06/05 A3028 RMK
     AO2 T00610050=
KHKA 110101Z AUTO 17012KT 9SM -RA SCT019 OVC028 10/08 A2975 RMK
     AO2 P0000=
KMRY 110101Z 26003KT 3/4SM BR OVC002 11/10 A3019 RMK AO2 VIS
     1/4V4=
KWST 110101Z AUTO 00000KT 1/2SM FG VV004 02/01 A3034 RMK AO2
     T00170011=
PABA 110101Z AUTO 27020KT 1SM -SN FEW047 OVC070 M25/M28 A2984 RMK
     AO2 SNB0026 P0000 FZRANO=

0000174100
285
SPUS70 KWBC 110106
SPECI
KUTS 110102Z AUTO 21011G15KT 10SM SCT010 BKN017 19/17 A2979 RMK
     AO2=
KEWB 110102Z 20003KT 3/4SM R05/3000V5500FT BR OVC003 04/04 A3035
     RMK AO2 T00440039=
KFLO 110102Z 26007KT 6SM BR BKN004 OVC009 16/15 A3014 RMK AO2
     RAE00 P0000=
KGRB 110102Z 11010KT 3SM RA BR BKN011 OVC038 01/01 A2958 RMK AO2
     PRESFR P0002 T00110006=
KMIW 110102Z AUTO 32003KT 3/4SM BR VV004 00/00 A2951 RMK AO2
     T00000000 TSNO=
KPOU 110102Z 00000KT 5SM BR OVC013 01/M02 A3031 RMK AO2=
PADU 110102Z 12009KT 10SM -RA SCT014 BKN022 OVC030 04/01 A2910 RMK
     AO2 P0000=
PAGK 110102Z AUTO 34003KT 1 1/4SM -SN BR OVC031 M09/M11 A2930 RMK
     AO2 P0000 T10891111 TSNO=
PAJZ 110106Z AUTO 01006KT 10SM OVC004 M07/M08 A2950 RMK AO2 PWINO
     TSNO CIG 001V005 $=
PAMR 110102Z 00000KT 1 1/2SM -SN BR SCT010 OVC016 M03/M06 A2938
     RMK AO2 P0000=
PASC 110102Z 27013KT 3SM -SN BR SCT008 BKN014 M30/M34 A2985 RMK
     AO2 P0000=
KDUJ 110103Z AUTO 11011KT 6SM BR OVC004 03/01 A3007 RMK AO2=
KIAH 110103Z 18006KT 10SM BKN015 BKN060 20/18 A2981 RMK AO2=
KIND 110103Z 15007KT 1/4SM R05L/2000V2800FT -RA FG VV002 03/03
     A2978 RMK AO2 P0000=
KISW 110103Z AUTO 14004KT 3SM -SN BR OVC006 00/M01 A2956 RMK AO2
     FZRAE0057SNB0057 P0002 I1000 T00001006=
KOGB 110103Z AUTO 00000KT 2 1/2SM -RA BR OVC005 13/12 A3013 RMK
     AO2 VIS 1 1/2V4 P0001 T01280117 TSNO=
KSRC 110103Z AUTO 12009KT 4SM -RA BR SCT001 BKN038 OVC090 08/08
     A2970 RMK AO2 TSNO BKN V SCT P0000 PRESFR=
PABA 110101Z AUTO 27020KT 1SM -SN FEW047 OVC070 M25/M28 A2984 RMK
     AO2 SNB0026 P0000 FZRANO=
PASC 110102Z 27013KT 3SM -SN BR SCT008 BKN014 M30/M34 A2985 RMK
     AO2 P0000=

00000000