0000028900
306
FTCN34 CWAO 102300 AAA
TAF AMD CYQR 102313Z 1023/1106 32005KT 1/4SM FZFG VV002 TEMPO
     1023/1102 3SM BR FEW005 SCT080
    FM110200 28007KT P6SM SCT008 SCT080 TEMPO 1102/1104 11/2SM BR
     BKN008
    FM110400 29007KT P6SM FEW020
    RMK NXT FCST BY 110000Z=

0000107000
307
FASP41 LEMM 102300
LECM GAMET VALID 110300/110900 LEMM-
LECM MADRID FIR/2 BLW FL150
SECN I
SFC VIS: 3000-5000 M BR ALBACETE
SIG WX: ISOL TS BTN W00630 AND W003 AND S OF N37
SIG CLD: ISOL TCU/CB 030/120-ABV 150 HFT AMSL BTN W00630 AND W003
         AND S OF N37
TURB: MOD SFC/050-060 HFT AMSL MELILLA AREA
SECN II
PSYS: 06 H 1014 HPA N47 W010 EXTD 1014 PENINSULA IBERICA STNR
INTSF
CLD:  BKN AS AC 130-140/ABV 150 HFT AMSL E OF LINE N40 W005 - N37
      W00630
      BKN ST SC 020/040 HFT AMSL N OF LINE N3730 E002 - N40 W004
WND/T:    GIBRALTAR      ALBACETE       BADAJOZ
       -------------- -------------- --------------
020HFT 100/012KT PS10 110/002KT PS06 251/003KT PS11
050HFT 270/006KT PS06 319/004KT PS06 057/007KT PS08
100HFT 273/006KT MS05 248/009KT MS04 356/009KT MS04
150HFT 251/009KT MS15 204/018KT MS13 332/011KT MS15
200HFT 311/010KT MS27 188/027KT MS25 200/003KT MS25
300HFT 029/005KT MS52 196/047KT MS50 079/007KT MS52
FZLVL:   79 HFT AMSL    82 HFT AMSL    83 HFT AMSL
MNM QNH:1014 HPA=

0000109600
308
FASP42 LEMM 102300
LECB GAMET VALID 110300/110900 LEMM-
LECB BARCELONA FIR BLW FL150
SECN I
SFC VIS: 1000-3000 M BR/BCFG VAL EBRO
         3000-5000 M BR LOC COT CATALUNA, COMUNIDAD VALENCIANA,
         LOC ALL MAR SUBZONA AND LAN BTN N3730 AND N39
SIG CLD: OVC ST 005-010/015-020 HFT AGL VAL EBRO
SECN II
PSYS: 06 H 1014 HPA N47 W010 EXTD 1014 PENINSULA IBERICA STNR
INTSF
CLD:  BKN ST SC 020/040 HFT AMSL LOC COT CATALUNA,COMUNIDAD
VALENCIANA,
      LOC ALL MAR SUBZONA AND LAN BTN N3730 AND N39
      BKN AC AS 130-140/ABV 150 HFT AMSL LAN N OF N41
WND/T:    BARCELONA      P.MALLORCA     MURCIA
       -------------- -------------- --------------
020HFT 124/007KT PS09 195/004KT PS11 060/006KT PS09
050HFT 134/003KT PS07 248/011KT PS09 220/015KT PS07
100HFT 194/015KT MS02 223/016KT MS01 225/014KT MS03
150HFT 197/027KT MS14 198/024KT MS12 193/022KT MS12
200HFT 209/032KT MS23 205/026KT MS23 181/030KT MS25
300HFT 217/036KT MS47 215/038KT MS47 196/062KT MS48
FZLVL:   92 HFT AMSL    95 HFT AMSL    82 HFT AMSL
MNM QNH:1016 HPA=

0000012500
309
FTCN33 CWAO 102300 AAA
TAF AMD CYOC 102314Z 1018/1102 FCST CNCLD DUE NO OBS
    RMK NXT FCST BY 110000Z=

0000011900
310
SACN62 CYOJ 101800
METAR CYOJ 101800Z 16003KT 15SM SCT090 BKN140 M19/M21 A2947 RMK
 AC4AC2 SLP016=

0000011200
311
SACN62 CYPL 101800
METAR CYPL 101800Z 20007KT 3SM -SN OVC007 M08/M10 A2956 RMK SF8
 SLP038=

0000014400
312
SNDL22 EDZW 110500 RRB
AAXX 11051
10379 42582 62204 10042 20019 30026 40149 56009 86500
  333 55300 20000 30000 41113 86630=
0000075000
313
SNNL50 EHDB 110500
AAXX 11051
06206 47/// /2210 10073 20069 30028 40081 58015 7//00
333 91013 91113 91210=
06207 47359 62411 10083 20064 30036 40090 58013 75286 8////
333 81/08 84/11 85/13 91013 91113 91211=
06239 47258 82412 10073 20072 39992 40053 57021 76180 8////
333 83/04 87/05 88/07 91014 91116 91213=
06252 46/// /2113 10085 20073 30045 40091 58012 222// 00096 10604
333 91015 91115 91213=
06260 47356 82104 10045 20031 30137 40139 58009 71000 8////
333 88/07 91007 91109 91206
555 53000=
06270 47238 82207 10057 20049 30110 40110 58012 75110 8////
333 87/05 88/06 91010 91111 91208
555 53000=
06290 47359 82105 10039 20026 30101 40142 58008 71000 8////
333 88/07 91009 91109 91205
555 53000=
0000177000
314
SNNL51 EHDB 110500
AAXX 11051
06201 47158 82607 10076 20069 30017 40069 56008 75286 8////
333 83/03 84/05 86/06 91008 91110 91208=
06203 47256 8//10 10086 20067 30065 40116 58002 76285 8////
333 81/05 84/09 85/12 91013 91114 91211=
06204 47463 82312 10085 20065 30045 40096 58015 75265 8////
333 81/10 85/24 87/31 91015 91115 91212=
06205 47468 83207 10068 20058 39992 40051 56007 75186 8////
333 81/15 84/27 85/31 91008 91110 91209=
06208 47247 82110 10065 20054 30052 40101 57016 76181 8////
333 82/06 84/07 85/08 91011 91111 91210=
06211 47259 82211 10071 20064 30023 40079 56015 75885 8////
333 81/05 84/06 86/08 91013 91114 91211=
06212 47229 72411 10083 20068 3//// 4//// 5//// 75850 8////
333 81/05 83/08 85/10 91014 91114 91211=
06235 47350 82109 10069 20063 30113 40113 58012 76285 8////
333 82/07 84/09 85/14 91012 91114 91210
555 53000=
06240 47356 82108 10052 20039 30137 40132 58010 71081 8////
333 86/07 88/08 91010 91110 91208
555 53000=
06251 41/59 /2109 10069 20061 30100 40101 57012 7//00
333 91012 91114 91211
555 53000=
06258 46/// /2113
333 91015 91116 91213=
06269 47350 82108 10047 20035 30135 40129 58011 71051 8////
333 88/07 91011 91112 91208
555 53000=
06280 47329 82106 10054 20045 30115 40119 57012 75381 8////
333 85/07 88/08 91009 91109 91207
555 53000=
06310 47238 82007 10046 20035 30136 40146 58006 71011 8////
333 88/06 91009 91109 91208
555 53000=
06344 47350 82007 10049 20036 30144 40137 58009 71010 8////
333 88/07 91009 91110 91207
555 53000=
06370 45261 82104 10033 20021 30125 40151 58009 8////
333 88/06 91007 91107 91206
555 53000=
06380 45972 82004 10023 20013 30017 40159 58011 8////
333 88/60 91005 91106 91205
555 53000=
0000085800
315
SNNL52 EHDB 110500
AAXX 11051
06210 47356 82006 10052 20036 30132 40132 58010 71010 8////
333 85/07 87/09 88/10 91009 91109 91206
555 53000=
06225 46/// /2113
333 91015 91115 91213=
06242 47256 82209 10072 20066 30102 40104 58011 75286 8////
333 81/04 83/09 88/31 91010 91113 91211=
06257 46/// ///// 10061 20046
555 53000=
06275 47256 82205 10036 20026 30086 40142 58009 71000 8////
333 88/06 91007 91108 91205
555 53000=
06330 46/// /2009 10050 20037 30121 40135 58010
333 91011 91111 91209
555 53000=
06340 47257 82304 10034 20022 30133 40152 57003 71010 8////
333 86/06 88/07 91007 91107 91204=
06350 47257 82304 10033 20020 30135 40150 57006 71010 8////
333 88/06 91006 91106 91204
555 53000=
06375 47258 82205 10032 20022 30124 40149 58009 71010 8////
333 88/05 91007 91107 91205
555 53000=
0000034900
316
SNAA01 KARS 110800 RRF
AAXX 1108/
89869 46/// ///// 11038 39921 4//// 5//// 90820=
89866 46/// ///// 11035 39878 4//// 5//// 90830=
89799 46/// ///// 11219 4//// 5//// 90820=
89828 46/// ///// 11190 36549 4//// 5//// 90820=
89879 46/// ///// 10016 39896 4//// 5//// 90820=
89879 46/// ///// 10018 39896 4//// 5//// 90830=
0000021000
317
FTID32 WADL 102300
TAF WADL 102300Z 1100/1124 27010KT 9999 SCT016
     TEMPO 1106/1109 4000 TSRA FEW015CB SCT016  
     BECMG 1110/1112 00000KT 7000 FEW018
     TEMPO 1120/1123 3000 BR=

0000011700
318
FTNT31 KWBC 102318
TAF
TAF LPBJ 102305Z 1100/1124 VRB02KT CAVOK
      BECMG 1108/1110 12005KT=

0000069000
319
FTCS31 MROC 102314
MROC 102310Z  1100/1124 11010KT 9999 FEW030
           TX29/1119Z TN20/1111Z
           TEMPO 1100/1103 16003KT FEW015 SCT060
           TEMPO 1110/1119 11012G22KT
           PROB40 TEMPO 1120/1124 24007KT=
MRLB 102310Z  1100/1124 07015KT CAVOK
         TX34/1121Z TN24/1112Z
         BECMG 1103/1105 14003KT FEW040
         TEMPO 1114/1120 09014G24KT FEW040=
MRLM 102310Z  1100/1124 24005KT 9999 FEW030 SCT120 
          TX31/1120Z TN23/1110Z
          BECMG 1101/1103 26006KT SCT030
          PROB30 TEMPO 1107/1114 DZ SCT020 BKN110  
          BECMG 1115/1117 07007KT FEW035
          PROB30 TEMPO 1121/1124 RA FEW020TCU=

0000010600
320
SPUS41 KWBC 102317
SPECI
KDOV 102313Z AUTO 09004KT 1 3/4SM -RA BR OVC002 03/03 A3029=

0000012700
321
FCFR31 LFPW 102200 AAF
TAF AMD LFBA 102256Z 1022/1024 VRB02KT 4000 BR NSC TEMPO 1023/1024
0400 BCFG VV///=

0000017900
322
FTCN34 CWAO 102300 AAA
TAF AMD CYEN 102317Z 1023/1024 31012KT 3/4SM BR OVC008 TEMPO
     1023/1024 3SM BR OVC012
    RMK NXT FCST WILL BE ISSUED AT 111145Z=

0000015900
323
SAUS71 KWBC 102300 RRF
METAR
KLCK 102315Z AUTO 12007KT 10SM SCT025 BKN120 07/05 A2997=
KPQI 102315Z AUTO 18005KT 10SM CLR M10/M18 A3024=

0000007700
324
FCFR33 LFPW 102300 AAB
TAF AMD LFRQ 102302Z 1023/1103 CNL=

0000014900
325
FCRS32 RUMS 102300 RRA
TAF URML 102315Z 1100/1109 VRB02MPS 5000 BR SCT015 SCT100 530001
TEMPO 1100/1105 0900 FZFG SCT003 BKN005=

00000000