0000009900
706
SAIS32 LLBG 102150
METAR LLBG 102150Z 12004KT 9999 -RA BKN032 12/10 Q1021 NOSIG=

0000008300
707
SACS31 MROC 102153
METAR MRLB 102200Z 07013KT CAVOK 32/17 A2975=

0000012000
708
SPCN31 CWAO 102151
SPECI CYYZ 102151Z 14005KT 3SM BR BKN003 OVC009 01/M00 A3010 RMK
 ST6ST2 SLP202=

0000063900
709
SAFI31 EFHK 102150
METAR EFHK 102150Z 33013KT 9999 BKN009 M02/M03 Q0992 BECMG BKN010=
METAR EFJY 102150Z AUTO 36008KT 9999 OVC012 M06/M08
 Q0996=
METAR EFKU 102150Z AUTO 01009KT 9999 -SN OVC015 
M07/M09 Q0996=
METAR EFOU 102150Z AUTO 06006KT 010V110 9999 -SN FEW038/// OVC046/// 
M11/M14 Q1004 12420581=
METAR EFRO 102150Z AUTO 04013KT CAVOK M17/M19 
Q1009=
METAR EFTP 102150Z AUTO 36010KT 9999 BKN008 OVC010 
M03/M04 Q0995=
METAR EFTU 102150Z AUTO 01006KT 320V040 9999 OVC005/// M02/M02 Q0995 
R08/19//80=
METAR EFVA 102150Z AUTO 03006KT 9999 SG FEW014/// OVC027/// M07/// 
Q1000 R16/450162=

0000084200
710
SASN31 ESWI 102150
METAR ESGG 102150Z 23010KT 9999 OVC003 03/03 Q1001 R21/29//95=
METAR ESGJ 102150Z 19004KT 9999 FEW012 BKN017 00/00 Q1001
R01/720068=
METAR ESGP 102150Z 25010KT 9999 SCT019 BKN025 05/04 Q1001
R19/19//95=
METAR ESGT 102150Z NIL=
METAR ESMK 102150Z AUTO 27010KT 9000NDV FEW009/// SCT015///
BKN022/// 06/05 Q1005 REDZ=
METAR ESMQ 102150Z AUTO 30004KT 240V340 9999 SCT016/// BKN023///
02/M00 Q1004=
METAR ESMS 102150Z 26014KT 9999 SCT010 BKN032 05/05 Q1006
R17/29//95=
METAR ESMT 102150Z AUTO 25012KT 9999 SCT007/// BKN011/// OVC022///
06/04 Q1004=
METAR ESMX 102150Z 17004KT 9999 FEW012 OVC021 01/00 Q1003=
METAR ESTA 102150Z AUTO 26015KT 9999 BKN010/// OVC024/// 06/04
Q1005=
METAR ESTL 102150Z AUTO 27014KT 5000NDV BR FEW009/// SCT013///
BKN015/// 06/06 Q1005 REUP REDZ=

0000057000
711
SADL31 EDZO 102150
METAR EDDF 102150Z 17003KT 9999 FEW040 BKN250 03/02 Q1019 NOSIG=
METAR EDDH 102150Z 24009KT 9999 BKN016 06/04 Q1013 NOSIG=
METAR EDDK 102150Z 14006KT CAVOK 03/01 Q1017 NOSIG=
METAR EDDL 102150Z 19006KT 9999 FEW040 BKN240 04/02 Q1017 NOSIG=
METAR EDDM 102150Z 30002KT 9999 MIFG NSC M00/M00 Q1019 NOSIG=
METAR EDDN 102150Z 13002KT 9999 BKN040 02/02 Q1019=
METAR EDDS 102150Z VRB01KT CAVOK 01/00 Q1019=
METAR EDDT 102150Z 25011KT 9999 FEW030 BKN050 05/01 Q1014 NOSIG=
METAR EDDV 102150Z 24008KT 9999 FEW040 05/03 Q1015=

0000042900
712
SADL32 EDZO 102150
METAR EDDB 102150Z 24013KT 9999 FEW032 BKN058 05/01 Q1015 NOSIG=
METAR EDDC 102150Z 24006KT 9999 BKN040 05/01 Q1016=
METAR EDDE 102150Z 22008KT CAVOK 02/M00 Q1017=
METAR EDDG 102150Z 22008KT 9999 FEW012 05/03 Q1016 TEMPO BKN010=
METAR EDDP 102150Z 23010KT CAVOK 03/02 Q1017 NOSIG=
METAR EDDR 102150Z 06002KT CAVOK 01/M00 Q1018=
METAR EDDW 102150Z 23006KT 9999 FEW022 04/03 Q1014=

0000030200
713
SAUK36 EGGY 102150
METAR EGBE 102150Z NIL=
METAR EGBJ 102150Z NIL=
METAR EGCN 102150Z 20014KT 9999 -RA NSC 08/06 Q1009=
METAR EGSC 102150Z NIL=
METAR EGSD 102150Z NIL=
METAR EGSH 102150Z AUTO 21009KT 9999 NCD 08/06 Q1012=
METAR EGVN 102150Z NIL=
METAR EGWU 102150Z NIL=

0000033600
714
SAUK37 EGGY 102150
METAR EGAE 102150Z NIL=
METAR EGNC 102150Z NIL=
METAR EGNH 102150Z NIL=
METAR EGNJ 102150Z AUTO 19015KT 9999 BKN048/// 07/07 Q1009=
METAR EGNO 102150Z NIL=
METAR EGNR 102150Z NIL=
METAR EGPE 102150Z AUTO 18010KT 9999 NCD 02/M01 Q1005=
METAR EGPI 102150Z NIL=
METAR EGPN 102150Z NIL=

0000044200
715
SAUK38 EGGY 102150
METAR EGEC 102150Z NIL=
METAR EGEO 102150Z NIL=
METAR EGPA 102150Z AUTO 24015KT 9999 NCD 06/03 Q1001=
METAR EGPC 102150Z AUTO 25012KT 9999 NCD 03/M00 Q1002=
METAR EGPL 102150Z AUTO 27012KT 9999 // SCT030/// SCT040/// 05/02
    Q1005=
METAR EGPM 102150Z AUTO 26017KT 9999 FEW016/// SCT029/// 06/04 Q0997=
METAR EGPO 102150Z AUTO 25007KT 9999 FEW034/// 02/M00 Q1003=
METAR EGPU 102150Z NIL=

0000040000
716
SASW32 LSSW 102150
METAR LSGC 102150Z AUTO 00000KT 4100 BR NCD M01/M01 Q1017=
METAR LSGS 102150Z NIL=
METAR LSZG 102150Z AUTO VRB01KT 4400 BR NCD 01/01 Q1019=
METAR LSZR 102150Z AUTO 22001KT 7000 NCD 03/01 Q1019=
METAR LSZS 102150Z NIL=
METAR LSZC 102150Z AUTO 25004KT 200V290 1100 BR NCD 00/00 Q1019=
METAR LSZL 102150Z AUTO 00000KT 9999NDV OVC047 07/05 Q1022 RMK WHT=

0000050700
717
SAFI32 EFHK 102150
METAR EFHA 102150Z AUTO 36010KT 9999 OVC007 M06/M06
 Q0995=
EFHF 102150Z AUTO 34016KT 310V010 9999 OVC011 M01/M03 Q0992=
METAR EFKA 102150Z AUTO 04011KT 9999 -SG OVC012 
M07/M08 Q0999=
EFKK 102150Z AUTO 03009KT 9999 FEW020 BKN025 BKN070 M09/M11 Q1001=
EFMA 102150Z AUTO 34010KT 320V020 5000 -SN OVC014 M00/M01 Q0998=
METAR EFPO 102150Z AUTO 01007KT 9999 OVC009/// M04/M05 Q0997 
R12/29//95=
EFSI 102150Z AUTO 36007KT 340V040 9999 OVC008 M06/M07 Q0998=

0000029800
718
FTUS42 KWBC 102154 AAA
TAF AMD
KHOU 102153Z 1022/1118 18010KT 4SM -RA BKN015 OVC025
     FM102300 18008KT P6SM BKN019 OVC025
     FM110200 18006KT 5SM BR SCT007 BKN015
     FM110600 23007KT P6SM BKN007
     FM110900 27008KT P6SM SCT010
     FM111100 33006KT P6SM SKC=

0000038600
719
FTUS71 KWBC 102154 AAA
TAF AMD
KFAY 102151Z 1022/1118 03004KT 4SM -RA BR SCT035 OVC050
      TEMPO 1022/1024 1SM -RA BR SCT020 BKN035
     FM110000 06004KT 5SM -RADZ BR BKN005 OVC009
     FM110400 VRB05KT 1SM -DZ BR OVC003
     FM110700 18010KT P6SM OVC008
     FM111300 19013G24KT P6SM BKN009 OVC020
     FM111700 20017G28KT 5SM -SHRA BR BKN012 OVC025=

0000029300
720
FTUS31 KWBC 102154 AAA
TAF AMD
KIAH 102153Z 1022/1124 18009KT P6SM BKN018 BKN050 OVC070
      TEMPO 1022/1023 5SM RA BR
     FM110200 18006KT 5SM BR SCT007 BKN015
     FM110600 23007KT P6SM BKN012
     FM110900 27008KT P6SM SCT010
     FM111100 33006KT P6SM SKC=

0000054200
721
FTUS72 KWBC 102154 AAA
TAF AMD
KHOU 102153Z 1022/1118 18010KT 4SM -RA BKN015 OVC025
     FM102300 18008KT P6SM BKN019 OVC025
     FM110200 18006KT 5SM BR SCT007 BKN015
     FM110600 23007KT P6SM BKN007
     FM110900 27008KT P6SM SCT010
     FM111100 33006KT P6SM SKC=
KIAH 102153Z 1022/1124 18009KT P6SM BKN018 BKN050 OVC070
      TEMPO 1022/1023 5SM RA BR
     FM110200 18006KT 5SM BR SCT007 BKN015
     FM110600 23007KT P6SM BKN012
     FM110900 27008KT P6SM SCT010
     FM111100 33006KT P6SM SKC=

0000023900
722
FTUS73 KWBC 102154 AAA
TAF AMD
KCGI 102151Z 1022/1118 15011KT 6SM -SHRA BR SCT004 OVC030
      TEMPO 1022/1024 2SM SHRA BR OVC004
     FM110000 17011KT 4SM SHRA BR SCT004 OVC010
     FM110600 26010KT P6SM SCT015=

0000068900
723
SASN32 ESWI 102150
METAR ESKN 102150Z 33006KT 9999 BKN013 M03/M05 Q1002 R26/710195=
METAR ESOE 102150Z AUTO 11006KT 9999NDV OVC014/// M02/M04 Q1001=
METAR ESOK 102150Z AUTO 12009KT 9999 OVC005/// M01/M01 Q0999 RESHUP=
METAR ESOW 102150Z 35002KT 9999 OVC013 M04/M07 Q1002=
METAR ESSA 102150Z 30010KT 9999 BKN009 M04/M05 Q1001 R01L/19//71
R08/19//58 R01R/19//68 BECMG BKN010=
METAR ESSB 102150Z AUTO 30009KT 9999NDV FEW009/// BKN010///
OVC015/// M04/M05 Q1001=
METAR ESSD 102150Z AUTO 08002KT 2100 -SN VV002 M06/M09 Q1001=
METAR ESSP 102150Z 36005KT 9999 BKN013 M02/M04 Q1002 R27/72//95=
METAR ESSV 102150Z AUTO 31010KT 9999NDV OVC009/// M01/M02 Q1002=

0000013800
724
SAPA31 KWBC 102100 CCA
METAR
PTRO 102053Z COR 08011KT 14SM BKN015CB BKN100 OVC270 25/25 A2978
     RMK CB VC ALQDS=

0000072500
725
SASN33 ESWI 102150
METAR ESNG 102150Z AUTO 03009KT 9999 NCD M16/M19 Q1011=
METAR ESNK 102150Z AUTO 34013KT 9999 -SN FEW019/// BKN022///
OVC034/// M10/M14 Q1004 RESG=
METAR ESNN 102150Z AUTO 32010KT 3700NDV -SN FEW018/// SCT033///
M10/M13 Q1004 RESG R16/49/79=
METAR ESNO 102150Z AUTO 36011KT 320V040 9999 BKN022/// OVC029///
M12/M16 Q1003=
METAR ESNQ 102150Z AUTO 33004KT 9999NDV FEW004/// BKN011///
M17/M19 Q1011=
METAR ESNS 102150Z AUTO 35012KT //// VV006 M12/M13 Q1005=
METAR ESNU 102150Z 35013KT 6000 -SN FEW016 OVC033 M11/M14 Q1003
R14/49//50=
METAR ESNZ 102150Z 05003KT 3000 -SN VV011 M14/M16 Q1002=
METAR ESUT 102150Z AUTO 09015G35KT 020V170 9999 FEW078/// M13/M19
Q1003=

00000000