0000075800
846
FTUS71 KWBC 102033 AAC
TAF AMD
KSWF 102031Z 1021/1124 VRB02KT 5SM BR OVC015
     FM110000 VRB02KT 2SM BR FEW006 BKN012 OVC025
      TEMPO 1102/1105 -DZ BKN006 OVC015
     FM110500 14004KT 3/4SM -RA BR BKN006 OVC010
     FM110800 16008KT 1/2SM -RA FG OVC004
     FM111400 17010KT 1/2SM -RA FG OVC004 WS015/19050KT
     FM111900 17014KT 1SM RA OVC004 WS015/19050KT AMD NOT SKED=
KTEB 102031Z 1021/1118 VRB03KT 3SM BR SCT008 OVC020
      TEMPO 1021/1024 1SM -DZ BR BKN008
     FM110000 VRB02KT 1SM BR SCT006 OVC012
      TEMPO 1102/1105 -RA BKN006 OVC012
     FM110500 15003KT 3/4SM -RA BR BKN005 OVC008
     FM110800 15007KT 3/4SM -RA BR OVC004 WS020/19050KT
     FM111400 17009KT 1SM -RA BR OVC004 WS015/19050KT=

0000053100
847
SAYG31 LYBM 102030
METAR LYBE 102030Z 15003KT 8000 NSC 06/05 Q1023 NOSIG=
METAR LYBT 102030Z 19001KT 5000 BR NSC 05/05 Q1023 NOSIG=
METAR LYKV 102030Z 00000KT 9999 SCT040 06/01 Q1023 NOSIG=
METAR LYNI 102030Z 05004KT 360V090 CAVOK 07/02 Q1023 NOSIG=
METAR LYPG 102030Z 36006KT 360V150 6000 NSC 06/06 Q1022 BECMG 3000
BR=
METAR LYPR 102030Z NIL=
METAR LYTV 102030Z VRB01KT CAVOK 07/07 Q1022=
METAR LYUZ 102030Z 00000KT 8000 BKN020 04/03 Q1021=
METAR LYVR 102030Z 21003KT CAVOK 04/01 Q1022 NOSIG=

0000042100
848
SAPL31 EPWA 102030
METAR EPGD 102030Z 28012KT 9999 -SHRA BKN011 SCT024CB
    05/03 Q1004 =
METAR EPKK 102030Z 24013KT 9999 FEW040 BKN060 05/M01
    Q1016 =
METAR EPLL 102030Z 27013KT 9999 BKN032 06/00 Q1012 =
METAR EPPO 102030Z 26014KT CAVOK 06/01 Q1012 R10/19//95 =
METAR EPRZ 102030Z 27021KT CAVOK 06/00 Q1013 =
METAR EPWA 102030Z 27019G29KT 230V290 9999 BKN023 06/02 Q1009
    NOSIG=

0000042300
849
SAPL32 EPWA 102030
METAR EPBY 102030Z 26017KT 9999 BKN020 OVC033 06/03
    Q1009 =
METAR EPKT 102030Z 24014KT 9999 SCT045 05/M01 Q1015 =
METAR EPLB 102030Z NIL=
METAR EPMO 102030Z 26021KT 9999 -SHRA SCT022CB BKN032
    05/03 Q1008 =
METAR EPSC 102030Z 26012KT 9999 SCT017 05/03 Q1011 =
METAR EPWR 102030Z 27010KT CAVOK 06/M01 Q1016 =
METAR EPZG 102030Z 25010KT 230V290 CAVOK 06/01 Q1014 =

0000052500
850
FTUS73 KWBC 102033 AAA
TAF AMD
KALO 102031Z 1021/1118 11007KT 3SM -FZDZ BR OVC006
     FM110200 27008KT 4SM -SN BR BKN004 OVC012
     FM110800 27006KT 5SM BR OVC015
     FM111600 28014KT P6SM OVC080=
KLOZ 102030Z 1021/1118 VRB03KT P6SM OVC022
     FM102100 20005KT P6SM SCT015 OVC050
     FM110000 20005KT P6SM VCSH SCT015 OVC050
     FM110700 18010KT 4SM -RA BR OVC020
     FM111000 20006KT P6SM -RA OVC015
     FM111500 24009G17KT P6SM OVC015
     FM111700 25015G22KT 4SM BR OVC035=

0000021500
851
FTUS74 KWBC 102033 AAA
TAF AMD
KCLM 102030Z 1021/1118 12005KT P6SM OVC016
     FM110000 11005KT 4SM RA BR OVC011
      TEMPO 1104/1108 2SM -RA OVC008
     FM111200 29010KT P6SM -RA OVC018=

0000027100
852
SAIE31 EIDB 102030
METAR EIDW 102030Z 27010KT 9999 FEW025 BKN200 03/03 Q1009 NOSIG=
METAR EINN 102030Z 19003KT 9999 FEW009 FEW018CB SCT035 04/03 Q1011
     NOSIG=
METAR EICK 102030Z 31006KT 9999 FEW016 04/03 Q1011 NOSIG=
METAR EIKN 102030Z NIL=

0000041900
853
FTUS51 KWBC 102033 AAA
TAF AMD
KISP 102031Z 1021/1118 VRB03KT 2SM BR SCT012 OVC020
      TEMPO 1021/1024 1SM -DZ BR BKN012
     FM110000 VRB04KT 1SM BR SCT008 BKN012 OVC025
      TEMPO 1102/1105 -RA BKN008 OVC015
     FM110500 16008KT 3/4SM -RA BR BKN006 OVC012 WS020/19040KT
     FM110800 15013KT 3/4SM -RA BR OVC004 WS020/19055KT
     FM111400 17016KT 1SM -RA BR OVC004 WS015/19060KT=

0000031200
854
FTUS52 KWBC 102033 AAA
TAF AMD
KJKL 102032Z 1021/1118 20005KT P6SM SCT025 OVC050
     FM110000 VRB05KT P6SM VCSH SCT025 OVC050
     FM110900 18010KT 4SM -RA BR OVC020
     FM111400 20006KT P6SM -RA OVC015
     FM111500 24009G17KT P6SM OVC015
     FM111700 25015G22KT 4SM BR OVC035=

0000077200
855
FTUS53 KWBC 102033 AAA
TAF AMD
KALO 102031Z 1021/1118 11007KT 3SM -FZDZ BR OVC006
     FM110200 27008KT 4SM -SN BR BKN004 OVC012
     FM110800 27006KT 5SM BR OVC015
     FM111600 28014KT P6SM OVC080=
KLOZ 102030Z 1021/1118 VRB03KT P6SM OVC022
     FM102100 20005KT P6SM SCT015 OVC050
     FM110000 20005KT P6SM VCSH SCT015 OVC050
     FM110700 18010KT 4SM -RA BR OVC020
     FM111000 20006KT P6SM -RA OVC015
     FM111500 24009G17KT P6SM OVC015
     FM111700 25015G22KT 4SM BR OVC035=
KMCW 102030Z 1021/1118 15010KT 1SM -FZDZ BR OVC002
      TEMPO 1021/1024 1/4SM FZFG
     FM110100 20006KT 1SM BR OVC010
     FM110500 26009KT 5SM BR OVC025
     FM111100 29011KT P6SM SCT025 BKN080
     FM111600 30015G22KT P6SM OVC100=

0000143300
856
FTUS80 KWBC 102033 AAA
TAF AMD
KALO 102031Z 1021/1118 11007KT 3SM -FZDZ BR OVC006
     FM110200 27008KT 4SM -SN BR BKN004 OVC012
     FM110800 27006KT 5SM BR OVC015
     FM111600 28014KT P6SM OVC080=
KBDR 102031Z 1021/1118 VRB02KT 1SM BR SCT012 OVC025
      TEMPO 1021/1024 -DZ
     FM110000 VRB03KT 1SM BR FEW006 BKN012 OVC025
      TEMPO 1102/1105 -RA
     FM110500 15003KT 3/4SM -RA BR BKN006 OVC012
     FM110800 15008KT 3/4SM -RA BR OVC003 WS020/19050KT
     FM111400 17011KT 1SM -RA BR OVC004 WS015/19050KT=
KCLM 102030Z 1021/1118 12005KT P6SM OVC016
     FM110000 11005KT 4SM RA BR OVC011
      TEMPO 1104/1108 2SM -RA OVC008
     FM111200 29010KT P6SM -RA OVC018=
KEWR 102031Z 1021/1124 VRB04KT 2SM BR SCT005 OVC012
      TEMPO 1021/1024 1SM -DZ BKN005 OVC012
     FM110000 VRB03KT 1SM BR BKN005 OVC012
      TEMPO 1102/1105 -RA
     FM110500 15005KT 3/4SM -RA BR BKN005 OVC008
     FM110800 16008KT 3/4SM -RA BR OVC004 WS020/19050KT
     FM111400 17014KT 1SM -RA BR OVC004 WS015/19050KT
     FM111900 18016G23KT 1SM RA OVC004 WS015/19050KT=
KGON 102031Z 1021/1118 VRB03KT 1SM BR SCT008 BKN012 OVC020
      TEMPO 1021/1024 -RADZ BR BKN008
     FM110000 VRB04KT 1SM BR FEW006 BKN008 OVC012
     FM110600 14004KT 3/4SM -RA BR BKN006 OVC012
     FM110900 15008KT 3/4SM -RA BR OVC004 WS020/19050KT
     FM111400 16011KT 1SM -RA BR OVC004 WS020/19055KT=

0000144200
857
FTUS80 KWBC 102033 AAB
TAF AMD
KHPN 102031Z 1021/1118 VRB04KT 4SM BR BKN008 OVC015
      TEMPO 1021/1024 2SM -DZ BR
     FM110000 VRB03KT 1SM BR BKN006 OVC010
      TEMPO 1102/1105 -RA
     FM110500 15003KT 3/4SM -RA BR BKN004 OVC009
     FM110800 15008KT 1/2SM -RA FG OVC003 WS020/19050KT
     FM111400 17011KT 1SM -RA BR OVC004 WS015/19050KT AMD NOT
      SKED=
KISP 102031Z 1021/1118 VRB03KT 2SM BR SCT012 OVC020
      TEMPO 1021/1024 1SM -DZ BR BKN012
     FM110000 VRB04KT 1SM BR SCT008 BKN012 OVC025
      TEMPO 1102/1105 -RA BKN008 OVC015
     FM110500 16008KT 3/4SM -RA BR BKN006 OVC012 WS020/19040KT
     FM110800 15013KT 3/4SM -RA BR OVC004 WS020/19055KT
     FM111400 17016KT 1SM -RA BR OVC004 WS015/19060KT=
KJFK 102031Z 1021/1124 VRB04KT 2SM BR SCT008 OVC020
      TEMPO 1021/1024 1SM -DZ BR BKN008
     FM110000 VRB04KT 1SM BR FEW005 BKN008 OVC015
      TEMPO 1102/1105 -RA
     FM110500 16008KT 3/4SM -RA BR BKN005 OVC008 WS020/19040KT
     FM110800 15011KT 3/4SM -RA BR OVC004 WS020/19055KT
     FM111400 17018KT 1SM -RA BR OVC004 WS015/19060KT
     FM111900 18023G30KT 1SM RA OVC004 WS015/19060KT=
KJKL 102032Z 1021/1118 20005KT P6SM SCT025 OVC050
     FM110000 VRB05KT P6SM VCSH SCT025 OVC050
     FM110900 18010KT 4SM -RA BR OVC020
     FM111400 20006KT P6SM -RA OVC015
     FM111500 24009G17KT P6SM OVC015
     FM111700 25015G22KT 4SM BR OVC035=

0000011300
858
SAAJ31 UBBB 111000
METAR UBBQ 111000Z 31007KT 9999 NSC 09/M01 Q1011
R16/CLRD70 NOSIG RMK MT OP=
0000013400
859
SAAJ31 UBBB 111000
METAR UBBN 111000Z 28006KT 2700 -SN BR OVC009 M09/M10 Q1024
R14R/490050 NOSIG RMK MT OBSC QFE692=
0000010600
860
SAAJ31 UBBB 111000
METAR UBBB 111000Z 20023G33KT 8000 SCT200 08/01 Q1010
88CLRD70 NOSIG=
0000010700
861
SAAJ31 UBBB 111000
METAR UBBG 111000Z 30011KT 9999 FEW100 10/M06 Q1013
R30/CLRD70 NOSIG =
0000086600
862
SAUR30 UKMS 111000
METAR UKBB 111000Z 26006MPS 9999 -RA BKN024 05/02
         Q1009 88290060    TEMPO 27011G16MPS=
METAR UKHH 111000Z 28009MPS 9999 SCT016CB BKN026
         05/01 Q1003  25190057 TEMPO 28012G21MPS=
METAR UKOO 111000Z 25008G14MPS CAVOK 08/M01 Q1019
         34190058 NOSIG=
METAR UKDE 111000Z 28011MPS 9999 FEW020 SCT100 07/01
         Q1011 02290356 NOSIG=
METAR UKDD 111000Z 29012MPS 210V020 9999 BKN026 06/02
          Q1009 26210370 TEMPO 29010G17MPS=
METAR UKFF 111000Z 27011MPS 240V310 9999 SCT032 09/01
          Q1019 19010070 NOSIG=
METAR UKLL 111000Z 26007MPS 230V290 9999 BKN049
         06/M03 Q1016  31CLRD80 NOSIG=
METAR UKCC 111000Z 27009MPS 9999 BKN017 05/03 Q1008
         26090070 TEMPO 28012G17MPS=
METAR UKDR 111000Z 28011MPS CAVOK 07/M00 Q1012
         1819//60 TEMPO 27010G15MPS=
0000041600
863
SSVX02 LFVW 111059
ZZYY 41646 11014 1054/ 729258 061126 6112/
22219 00233
33311 88872 20000 32333 43666
444 2012/ 11014 1050/ 50101 9/015=
ZZYY 13984 11014 1052/ 724381 072699 6111/
22219 00259
33311 88872 20000 32591 43603
444 2011/ 11014 1050/ 50101 9/015=
ZZYY 13983 11014 1053/ 731343 066246 6112/
22219 00219
33311 88872 20000 32187 43597
444 2012/ 11014 1050/ 50101 9/015=
0000016300
864
SSVX13 LFPW 111100
ZZYY 13591 11014 1100/ 722923 066431 6113/ 22219 00262 33300 88872
 20000 43604 444 20130 11014 1100/ 50101 80106 80011 9/015=
0000016300
865
SSVX13 LFPW 111100
ZZYY 13595 11014 1100/ 730277 019465 6113/ 22219 00199 33300 88872
 20000 43682 444 20130 11014 1100/ 50101 80108 80026 9/015=
00000000