0000010300
946
FCZA31 FAPR 110000
TAF FAEL 110000Z 1103/1112 NIL=
TAF FAWK 110000Z 1101/1112 NIL=

0000041200
947
SABX31 EBBR 110120
METAR EBAW 110120Z AUTO 22009KT 170V250 9999 OVC008/// 04/02 Q1016=
METAR EBBR 110120Z 21007KT 9999 BKN011 04/02 Q1016 NOSIG=
METAR EBCI 110120Z 20008KT 9999 SCT007 03/02 Q1016 NOSIG=
METAR EBLG 110120Z 18007KT CAVOK 03/01 Q1016 NOSIG=
METAR EBOS 110120Z 20011KT 9999 SCT004 BKN006 04/02 Q1015 TEMPO
     BKN004=
METAR ELLX 110120Z AUTO 11001KT //// 02/01 Q1016=

0000049000
948
SAOS31 LOWM 110120
METAR LOWW 110120Z 18006KT 150V210 CAVOK M01/M03 Q1021 NOSIG=
METAR LOWL 110120Z AUTO VRB01KT 9999 FEW240 M02/M02 Q1020=
METAR LOWS 110120Z AUTO VRB01KT 9999 FEW050 BKN060 02/02 Q1019=
METAR LOWI 110120Z AUTO VRB02KT 5000 BR OVC003 03/02 Q1020
    R88///////=
METAR LOWG 110120Z AUTO VRB01KT 0900 R35/0750N R17/1100D FG FEW001
    OVC007 03/03 Q1020 R88///////=
METAR LOWK 110120Z AUTO VRB02KT 4400 BR OVC002 01/01 Q1021
    R88///////=

0000006100
949
SAOS32 LOWM 110120
METAR LOXZ 110120Z NIL=

0000021700
950
SANO35 ENMI 110120
METAR ENMS 110120Z NIL=
METAR ENRM 110120Z NIL=
METAR ENRS 110120Z NIL=
METAR ENSK 110120Z NIL=
METAR ENSO 110120Z NIL=
METAR ENST 110120Z NIL=
METAR ENVD 110120Z NIL=

0000023700
951
FCZA32 FAPR 110000
TAF FAKM 110000Z 1103/1112 14012KT CAVOK
         BECMG 1109/1111 24010KT TX33/1112ZTN12/1103Z=
TAF FAMM 110000Z 1101/1112 NIL=
TAF FAWB 110000Z 1101/1112 NIL=
TAF FAWK 110000Z 1101/1112 NIL=

0000084900
952
SAIY31 LIIB 110120
METAR LIEA 110120Z VRB01KT 6000 0100W R20/1400VP1500N PRFG NSC
06/06 Q1020=
METAR LIEE 110120Z VRB01KT 9999 MIFG NSC 08/08 Q1019=
METAR LIEO 110120Z VRB01KT 6000 R05/0550D NSC 04/03 Q1021=
METAR LIMC 110120Z 02001KT 8000 BKN040 07/06 Q1022 NOSIG=
METAR LIME 110120Z 31003KT 3000 BR BKN012 08/07 Q1021=
METAR LIMF 110120Z 10003KT 9999 BKN035 07/05 Q1021=
METAR LIMJ 110120Z 05003KT 010V070 9999 SCT018 BKN035 13/10 Q1021=
METAR LIML 110120Z 00000KT 5000 -RA BR FEW005 BKN035 08/07 Q1022
NOSIG=
METAR LIRA 110115Z 00000KT 8000 SCT030 SCT070 08/07 Q1021=
METAR LIRF 110120Z 05003KT 6000 NSC 07/07 Q1022 NOSIG=
METAR LIRN 110120Z 32004KT 5000 BR NSC 08/07 Q1022=
METAR LIRP 110115Z 11005KT 8000 BKN045 08/07 Q1021 TEMPO 5000 BR=
METAR LIRQ 110120Z 00000KT 8000 FEW020 BKN040 11/10 Q1021=

0000021700
953
SANO36 ENMI 110120
METAR ENBS 110120Z NIL=
METAR ENHK 110120Z NIL=
METAR ENHV 110120Z NIL=
METAR ENLK 110120Z NIL=
METAR ENMH 110120Z NIL=
METAR ENNK 110120Z NIL=
METAR ENNM 110120Z NIL=

0000061400
954
SAIY32 LIIB 110120
METAR LIBD 110120Z 23005KT 7000 NSC 06/06 Q1022=
METAR LIBR 110115Z 26003KT 8000 NSC 07/05 Q1022 NOSIG=
METAR LICC 110120Z NIL=
METAR LICJ 110120Z 27002KT CAVOK 11/07 Q1021=
METAR LIPE 110120Z 13002KT 0800 R12/1500VP2000U FG OVC001 07/07
Q1021=
METAR LIPH 110115Z /////KT 1800 BR SCT020 BKN035 06/05 Q1021=
METAR LIPQ 110120Z 00000KT 1500 BR SCT010 BKN020 08/05 Q1021=
METAR LIPR 110115Z /////KT 6000 BKN040 09/09 Q1021=
METAR LIPX 110115Z 00000KT 1000 R04/P1500U BR FEW010 BKN045 08/06
      Q1022=
METAR LIPZ 110120Z VRB02KT 4000 BR BKN040 08/07 Q1021=

0000004200
955
SAIY33 LIIB 110120
NIL=

0000045600
956
SAFI33 EFHK 110120
EFJO 110120Z AUTO 01014KT 320V050 9999 -SN BKN015 OVC042 M08/M10
Q0995=
EFLP 110120Z AUTO 35012KT 320V040 9999 -SG BKN011 M06/M09 Q0992=
EFMI 110120Z AUTO VRB06KT 9999 -SG OVC014 M07/M08 Q0995=
EFSA 110120Z AUTO 35009KT 300V040 9999 -SN OVC014 M07/M09 Q0994=
EFUT 110120Z AUTO 35011KT 310V020 9999 -SG SCT012 BKN023 M06/M07
Q0994=
EFVR 110120Z AUTO 02009KT 340V060 2300 -SN FEW015 OVC018 M07/M10
Q0996=

0000019300
957
SADL33 EDZO 110120
METAR EDFE 110120Z NIL=
METAR EDFH 110120Z 21005KT 9999 FEW010 01/00 Q1016=
METAR EDFM 110120Z NIL=
METAR EDLV 110120Z NIL=
METAR EDVK 110120Z NIL=

0000010100
958
SADL34 EDZO 110120
METAR EDQM 110120Z AUTO 23007KT 9999NDV BKN009/// 01/M00 Q1017=

0000008700
959
SAIY32 LIIB 110120 RRA
METAR LICC 110120Z 27010KT CAVOK 11/06 Q1021=

0000054700
960
SANO32 ENMI 110120
METAR ENAL 110120Z NIL=
METAR ENCN 110120Z AUTO 23008KT 9999NDV BKN061/// OVC120/// 05/04
           Q1000=
METAR ENHD 110120Z AUTO 25015KT 9999NDV FEW019/// SCT024/// OVC110///
           07/05 Q0999=
METAR ENRO 110120Z AUTO 09010KT 7000NDV -SN SCT006/// OVC013///
           M15/M18 Q0998=
METAR ENRY 110120Z AUTO 24003KT 9999NDV OVC130/// 02/00 Q0998=
METAR ENSB 110120Z NIL=
METAR ENTC 110120Z NIL=
METAR ENTO 110120Z AUTO 25008KT 9999NDV BKN110/// OVC140/// 01/M01
           Q0997=

0000075500
961
SANO39 ENMI 110120
METAR ENNE 110120Z NIL=
METAR ENQR 110120Z AUTO 09008G19KT 030V180 6000NDV -SN OVC008///
           01/M01 Q0998 W///S/=
METAR ENSE 110120Z AUTO 09021KT 9999NDV RA FEW006/// SCT009///
           BKN014/// 01/M02 Q0998 W///S5=
METAR ENQC 110120Z AUTO 04011KT 9999NDV -DZ OVC012/// 03/01 Q0997
           W///S4=
METAR ENQA 110120Z AUTO 09010KT 9999NDV FEW010/// SCT013/// BKN017///
           03/02 Q0997 W04/S4=
METAR ENHM 110120Z AUTO 28028KT 2400NDV +SHRA BR FEW018/// SCT026///
           05/03 Q0998 W08/S4=
METAR ENVH 110120Z AUTO 26022KT 6000NDV -SHRA OVC008/// 07/07 Q1003
           W///S4=
METAR ENLA 110120Z AUTO 30021KT 9999NDV FEW013/// BKN066/// 08/06
           Q1002 W///S4=

0000021700
962
SANO37 ENMI 110120
METAR ENNO 110120Z NIL=
METAR ENOV 110120Z NIL=
METAR ENSD 110120Z NIL=
METAR ENSG 110120Z NIL=
METAR ENSN 110120Z NIL=
METAR ENSR 110120Z NIL=
METAR ENSS 110120Z NIL=

0000057000
963
SANO38 ENMI 110120
METAR ENDR 110120Z AUTO 07024KT M04/M08 Q1002=
METAR ENEK 110120Z 25018KT 6000 -RADZ BKN005 BKN025 07/07 Q1003
           W08/S4=
METAR ENGC 110120Z NIL=
METAR ENHE 110120Z 09021KT 070V140 4000 -SHSNRA BKN010 M04/M04 Q1004
           W///S5=
METAR ENOA 110120Z NIL=
METAR ENSL 110120Z AUTO 29029KT 9999NDV FEW035/// 07/01 Q1001
           W05/S4=
METAR ENFB 110120Z AUTO 08022KT 9999NDV BKN013/// 03/00 Q0997
           W///S5=
METAR ENSF 110120Z AUTO 09019KT 9999NDV BKN028/// 03/00 Q0997
           W///S5=

0000027300
964
SANO31 ENMI 110120
METAR ENAN 110120Z NIL=
METAR ENBR 110120Z NIL=
METAR ENBO 110120Z NIL=
METAR ENDU 110120Z NIL=
METAR ENGM 110120Z 04005KT 9999 BKN004 M02/M02 Q0997=
METAR ENOL 110120Z NIL=
METAR ENVA 110120Z NIL=
METAR ENZV 110120Z NIL=

0000066600
965
SANO33 ENMI 110120
METAR ENAT 110120Z AUTO 22006KT 9999NDV -SN OVC001/// M15/M17 Q1019
           RMK WIND 700FT 19008KT=
METAR ENBL 110120Z NIL=
METAR ENEV 110120Z AUTO 08011KT 040V120 9999NDV NCD M08/M15 Q1015 RMK
           WIND 1400FT 07017KT=
METAR ENFL 110120Z NIL=
METAR ENKB 110120Z AUTO VRB01KT 9999NDV FEW016/// SCT021/// BKN026///
           M06/M08 Q0999=
METAR ENKR 110120Z 16008KT 0900 -SN BKN002 OVC004 M21/M23 Q1016
           SEASMOKE NORTH OF THE FIELD RMK WIND 775FT 23007KT=
METAR ENML 110120Z NIL=
METAR ENNA 110120Z 19003KT 9999 -SN BCFG BKN001 OVC002 M16/M18 Q1018
           RMK WIND 1800FT VRB04KT=

00000000