0000128300
386
FTUS80 KWBC 102321 RRK
TAF
KOMA 102320Z 1100/1124 29005KT 4SM BR OVC015
      TEMPO 1100/1103 P6SM NSW SCT015 OVC040
     FM110300 31005KT P6SM SCT015 SCT040 OVC080
     FM110700 30007KT P6SM SCT100 BKN250
     FM111600 31012KT P6SM SCT250=
KPDT 102320Z 1100/1124 23010KT P6SM VCSH OVC080
     FM110400 20010KT P6SM VCSH SCT025 OVC040
     FM111000 20014G22KT P6SM SCT050 OVC100
     FM111800 24024G35KT P6SM -SHRA BKN050=
KPEQ 102320Z 1100/1124 26015G23KT P6SM SKC
     FM110100 25008KT P6SM SKC=
KPGA 102320Z 1100/1124 VRB04KT P6SM SCT250=
KPHX 102320Z 1100/1124 27004KT P6SM FEW250
     FM110500 10004KT P6SM FEW250
     FM112200 26004KT P6SM FEW250=
KPLN 102320Z 1100/1124 14008KT 5SM BR OVC009
     FM110100 13006KT 2SM -SNPL BR OVC005 WS020/20030KT
     FM110700 14006KT 2SM -FZRAPL BR OVC005 WS020/20030KT
     FM111000 20005KT 2SM -SNRA BR OVC005
     FM111400 28010KT 3SM -SN BR OVC008=
KPNS 102320Z 1100/1124 00000KT 1/4SM FG VV002
      TEMPO 1100/1104 2SM BR OVC002
     FM110600 16012KT 4SM SHRA BR OVC005
      TEMPO 1107/1110 3SM -TSRA BKN005CB
     FM111500 27012KT 5SM BR OVC007
     FM112000 30012KT P6SM SCT015=
KPRC 102320Z 1100/1124 32008KT P6SM SCT250
     FM110100 VRB05KT P6SM SCT250=

0000144900
387
FTUS80 KWBC 102321 RRM
TAF
KROA 102320Z 1100/1124 00000KT 2SM -RADZ BR OVC003
     FM110300 00000KT 3/4SM -RADZ BR OVC003 WS018/20035KT
     FM111200 VRB03KT 2SM -DZ BR OVC006 WS015/20045KT
     FM111800 18008KT 5SM SHRA BR OVC010 WS015/20050KT=
KRST 102320Z 1100/1124 17005KT 1SM -SN BR OVC002
      TEMPO 1100/1103 1/2SM -FZDZ FG OVC002
     FM110300 25007KT 2SM BR OVC002
     FM110900 30011KT 4SM BR OVC006
     FM111500 30014KT P6SM BKN012
     FM111900 30016G22KT P6SM SCT030=
KSBN 102320Z 1100/1124 16014KT 1SM RA BR OVC006 WS020/20050KT
     FM111000 22012KT 4SM -SHRA OVC008
     FM111500 25015G23KT 3SM BR VCSH BKN008 OVC015=
KSDL 102320Z 1100/1124 VRB03KT P6SM FEW250=
KSFF 102320Z 1100/1124 22010KT P6SM SCT030 BKN060 OVC120
     FM110200 22010KT 6SM -RA SCT007 OVC012
     FM110700 20010KT 5SM RA OVC015 WS020/21040KT
     FM111100 20025G35KT P6SM -RA BKN010 OVC030
     FM112100 21030G42KT P6SM -RA BKN019 BKN040=
KSFO 102320Z 1100/1206 33005KT P6SM FEW006 SCT200
     FM110300 29006KT P6SM FEW012 BKN250
     FM110500 27004KT P6SM OVC010
     FM111700 23012KT P6SM BKN100
     FM112100 26008KT P6SM VCSH OVC030
     FM112300 29003KT P6SM BKN060=
KSGF 102320Z 1100/1124 20015KT P6SM SCT025 OVC080
      TEMPO 1100/1102 3SM SHRA BR OVC015CB
     FM110200 25011KT 6SM BR SCT008 BKN080
     FM110500 26010KT 3SM BR BKN007
     FM111400 27010G18KT P6SM SCT250=

0000145500
388
FTUS80 KWBC 102321 RRN
TAF
KSJC 102320Z 1100/1124 31008KT P6SM FEW025
     FM110300 30006KT P6SM FEW025
     FM110800 VRB03KT P6SM BKN015
     FM111600 15005KT P6SM BKN040=
KSJT 102320Z 1100/1124 28016G26KT P6SM FEW250
     FM110100 29008KT P6SM SKC
     FM111900 24006KT P6SM SKC=
KSNS 102320Z 1100/1124 25005KT P6SM SKC
     FM110300 VRB03KT P6SM SKC
     FM110900 12003KT P6SM BKN015
     FM111700 13006KT P6SM SCT060=
KSOA 102320Z 1100/1124 22012G18KT P6SM SKC
     FM111000 VRB02KT P6SM SKC
     FM111800 26006KT P6SM SKC=
KSSI 102320Z 1100/1124 14007KT 1SM BR OVC003
     FM110400 15005KT 1/2SM FG OVC002
      TEMPO 1108/1112 1/4SM FG VV001
     FM111400 20010G18KT P6SM VCSH BKN015 OVC025
     FM111700 24014G23KT 5SM -SHRA OVC015=
KSTJ 102320Z 1100/1124 26006KT 4SM BR OVC004
     FM110400 27006KT 4SM BR OVC006
     FM110800 26010KT P6SM SCT150=
KSTS 102320Z 1100/1124 23007KT P6SM FEW030 SCT250
     FM110300 VRB03KT P6SM FEW030 BKN200
     FM110700 VRB03KT P6SM BKN010
     FM111700 19005KT P6SM -RA OVC030
     FM112200 28008KT P6SM BKN050=
KTCS 102320Z 1100/1124 20010KT P6SM FEW250
     FM110300 30008KT P6SM SCT250
     FM111200 VRB04KT P6SM SKC
     FM112000 18008KT P6SM FEW250=
KTOP 102320Z 1100/1124 28006KT 6SM BR BKN008 OVC015
     FM110400 29005KT 3SM -SN BR OVC008
     FM110600 28006KT 5SM BR SCT008 BKN080
     FM111100 29009KT P6SM FEW100=

0000096000
389
FTUS80 KWBC 102321 RRO
TAF
KTRI 102320Z 1100/1124 00000KT 2SM BR SCT040 OVC120
     FM110400 00000KT 6SM BR SCT020 OVC035
     FM110900 VRB04KT 4SM BR VCSH SCT012 OVC026
     FM111200 23008KT 3SM RA BR SCT004 OVC008
     FM112200 22012G24KT P6SM VCSH SCT015 OVC025=
KTVC 102320Z 1100/1124 15006KT 2SM -FZRAPL BR OVC005 WS020/20030KT
     FM110300 14006KT 2SM -RA BR OVC004 WS020/20030KT
     FM111000 22005KT 2SM -RASN BR OVC004
     FM111400 27008KT 3SM -SN BR OVC008=
KTYS 102320Z 1100/1124 VRB04KT P6SM OVC040
     FM110600 20006KT 4SM BR OVC012
     FM110900 20010KT 3SM BR VCSH SCT008 OVC012
     FM111200 22012G22KT 3SM RA BR SCT004 OVC008
     FM112000 22015G26KT P6SM VCSH SCT016 OVC024=
KVGT 102320Z 1100/1124 VRB06KT P6SM BKN250=
KYKM 102320Z 1100/1124 28010G20KT P6SM VCSH OVC050
     FM110300 23011G20KT 6SM -SHRA OVC035
     FM111500 25018G25KT P6SM SCT100
      TEMPO 1120/1124 23028G40KT=

0000009500
390
SPUS42 KWBC 102321
SPECI
KSSI 102317Z AUTO 12010KT 9SM OVC006 17/17 A3010=

0000012800
391
SPCN31 CWAO 102320
SPECI CYVR 102320Z 07008KT 12SM -RA FEW030 OVC046 08/05 A2993 RMK
 SF2SC6 PRESFR SLP135=

0000019600
392
SALV32 EVRA 102320
METAR EVLA 102320Z AUTO 29010G20KT 9999 FEW014 BKN017 OVC024 02/M00 
Q1002=
METAR EVVA 102320Z AUTO 31016KT 270V330 9999 -RA BKN013 OVC021 02/01 
Q1000=

0000016400
393
SADN33 EKCH 102320
METAR EKKA 102320Z 24012KT 9999 FEW014 SCT038 BKN150 06/04 Q1006=
METAR EKSP 102320Z 25013KT 9999 FEW030 SCT140 05/04 Q1008=

0000013400
394
FTAE31 VTBB 102300 RRA
TAF  VTUU  102300Z 1100/1124 06005KT 6000 FEW030
     BECMG 1101/1103 04005KT 9000 FEW030=

0000010300
395
SPCN42 CWAO 102320
SPECI CYAZ 102320Z 11011G17KT 4SM RA BR SCT006 OVC016 RMK SF4SC4=

0000070600
396
SAVN20 SVMR 102300
METAR SVCR 102300Z NIL=
METAR SVMC 102300Z /////KT 9999 FEW016 SCT070 28/20 Q1011=
METAR SVBM 102300Z 09005KT 9999 FEW016 26/19 Q1015=
METAR SVBS 102300Z 27006KT 9999 FEW013 27/17 Q1014=
METAR SVMI 102300Z 05003KT 9999 SCT013 27/21 Q1013=
METAR SVFM 102300Z NIL=
METAR SVBC 102300Z NIL=
METAR SVCU 102300Z 07019KT 9999 SCT013 26/17 Q1013=
METAR SVMG 102300Z /////KT 9999 SCT010 26/22 Q1012 NOSIG=
METAR SVAC 102300Z /////KT CAVOK 27/16 Q1011=
METAR SVMT 102300Z 02010KT 9999 FEW013 27/20 Q1009=
METAR SVBI 102300Z 09004KT CAVOK 30/13 Q1009=
METAR SVCB 102300Z NIL=
METAR SVVA 102300Z 36007KT 9999 FEW016 27/17 Q1012=
METAR SVSO 102300Z NIL=

0000215800
397
SPUS70 KWBC 102322
SPECI
PABA 102318Z AUTO 27023KT 1/2SM SN FEW011 BKN018 OVC024 M26/M29
     A2985 RMK AO2 P0000 FZRANO=
PACV 102318Z 04004KT 10SM FEW020 SCT037 BKN100 BKN200 01/M01 A2934
     RMK AO2 SNE2259 P0000 $=
PAGK 102318Z AUTO 00000KT 2 1/2SM BR OVC085 M09/M11 A2933 RMK AO2
     T10941111 TSNO=
PPIZ 102318Z AUTO 18003KT 1 1/2SM HZ OVC004 M22/M25 A3001 RMK AO2
     TSNO $=
KBRD 102318Z AUTO 18007KT 1 1/2SM HZ OVC004 M01/M04 A2952 RMK
     AO2=
KHBG 102318Z AUTO 00000KT 2SM -RA BR OVC007 15/14 A2996 RMK AO2
     P0001 T01500139=
KLFK 102318Z AUTO 22008KT 1 3/4SM RA BR BKN013 BKN018 OVC024 19/17
     A2978 RMK AO2 RAB03 P0002=
KMAI 102318Z AUTO 00000KT 1SM BR VV005 16/15 A3005 RMK AO2=
KMFI 102318Z AUTO 10005KT 3/4SM -SN BR FEW006 SCT010 OVC018
     M02/M03 A2959 RMK AO2 P0002 T10171028=
KPQL 102318Z 13009KT 6SM BR OVC004 17/16 A2998 RMK AO2 RAB2257E07
     P0000 T01720161=
KRSW 102318Z 13006KT 2 1/2SM +RA BR FEW019 BKN041 OVC070 23/21
     A3008 RMK AO2 RAB10 P0009 T02280211=
KSPW 102318Z AUTO 24004KT 1/2SM FZFG VV002 M01/M02 A2953 RMK AO2
     T10111017=
KTVC 102318Z VRB04KT 2 1/2SM BR OVC007 00/M02 A2978 RMK AO2 TWR
     VIS 3 FZDZB2256E03 P0000 I1000 T00001017 $=
KVIH 102318Z AUTO 18013KT 10SM OVC007 07/07 A2958 RMK AO2
     T00720067 $=
KBUY 102319Z AUTO 01003KT 10SM OVC004 03/02 A3020 RMK AO2
     T00330022=
KCDW 102319Z 00000KT 3/4SM BR OVC003 00/M01 A3034 RMK AO2=
KLNK 102319Z 00000KT 6SM BR BKN013 BKN034 OVC048 01/00 A2957 RMK
     AO2 T00060000=
PABA 102318Z AUTO 27023KT 1/2SM SN FEW011 BKN018 OVC024 M26/M29
     A2985 RMK AO2 P0000 FZRANO=
KADF 102318Z AUTO 15006KT 1SM +RA BR BKN002 BKN011 OVC022 13/13
     A2975 RMK AO2 P0012=
KGLS 102319Z 16013KT 3/4SM -RA BR BKN004 OVC016 17/17 A2984 RMK
     AO2 P0001=
KRKS 102318Z AUTO 28026G35KT 10SM BKN028 BKN034 M01/M06 A2987 RMK
     AO2 PK WND 28039/2306 T10111061=
KTOP 102319Z 28008KT 5SM BR BKN009 OVC013 04/02 A2957 RMK AO2
     RAE01 CIG 006V012 P0000 T00390022=
KY50 102319Z AUTO 08006KT 2 1/2SM -FZRA OVC002 M01/ A2961 RMK AO2
     TSNO P0000 PRESFR $=

0000012200
398
SAMO31 ZMUB 102330
METAR ZMUB 102330Z 00000MPS 5000NW FU NSC M35/M39 Q1026 NOSIG RMK
 QFE661.4 65 NT=

0000031500
399
SAAF17 LFPW 102300 RRA
METAR HEAX 102300Z 35005KT CAVOK 15/11 Q1023 NOSIG=
METAR HEGN 102300Z 30008KT CAVOK 13/07 Q1021 NOSIG=
METAR HELX 102300Z 00000KT CAVOK 12/07 Q1022 NOSIG=
METAR HEMM 102300Z 24006KT 9999 SCT020 11/09 Q1024 NOSIG=
METAR HESN 102300Z 35005KT CAVOK 11/02 Q1022 NOSIG=

0000066300
400
SAFI31 EFHK 102320
METAR EFHK 102320Z 33014KT 9999 BKN010 M02/M04 Q0994 BECMG BKN009=
METAR EFJY 102320Z AUTO 01008KT 9999 OVC009 M07/M08
 Q0996=
METAR EFKU 102320Z AUTO 01011KT 9999 -SN OVC018 
M07/M09 Q0997=
METAR EFOU 102320Z AUTO 06009KT 010V110 9999 -SN BKN026/// BKN041/// 
OVC059/// M12/M14 Q1005 12420581=
METAR EFRO 102320Z AUTO 04013KT CAVOK M17/M19 
Q1009=
METAR EFTP 102320Z AUTO 02009KT 9999 OVC008 M04/M04
 Q0996=
METAR EFTU 102320Z AUTO 01005KT 330V050 7000 -SG OVC005/// M02/M03 
Q0996 REUP R08/19//80=
METAR EFVA 102320Z AUTO 03009KT 9999 -SG BKN014/// BKN023/// 
OVC050/// M08/M10 Q1001 R16/49//95=

0000034700
401
SZIO01 AMMC 111051
CREX++
T000103 A001 D01021 D06025++
-1211670 09689190 46280 2014 01 11 10 44 3020 11 07 00 01
01010 0045 01010 0047 01007 0046 00995 0036 00996 0040 00993 0039+
-1042940 10566940 46290 2014 01 11 10 44 //// 11 07 00 01
01306 -0010 01265 -0049 01268 -0045 01291 -0019 01257 -0052 01293 -0014++
7777

0000046700
402
SZPA01 AMMC 111051
CREX++
T000103 A001 D01021 D06025++
0136250 17293000 67590 2014 01 11 10 44 3015 11 07 00 01
01505 0036 01492 0020 01504 0029 01493 0014 01509 0027 01517 0032+
0710610 17137250 67680 2014 01 11 10 44 3013 11 07 00 01
01018 0064 01017 0060 01026 0066 01034 0071 01028 0063 01029 0062+
0698060 15820000 67950 2014 01 11 10 44 3023 11 07 00 01
00598 0031 00603 0035 00599 0030 00603 0034 00605 0035 00603 0032++
7777

0000179400
403
SZPS01 AMMC 111051
CREX++
T000103 A001 D01021 D06025++
-0204190 14737360 56130 2014 01 11 10 44 3028 11 07 00 01
00515 0091 00513 0090 00510 0089 00503 0084 00503 0085 00498 0082+
-0669280 15640860 56363 2014 01 11 10 44 //// 11 07 00 01
00389 -0051 00389 -0051 00388 -0053 00386 -0056 00385 -0057 00387 -0056+
-0942890 15995560 56670 2014 01 11 10 44 3043 11 07 00 01
00463 -0054 00460 -0056 00459 -0056 00460 -0054 00457 -0056 00458 -0054+
-1072080 16580190 57131 2014 01 11 10 44 //// 11 07 00 01
00538 0230 00373 0064 00273 -0038 00527 0215 00478 0164 01127 0812+
-1551560 16718860 57210 2014 01 11 10 44 //// 11 07 00 01
00335 -0131 00318 -0149 00323 -0146 00339 -0132 00331 -0142 00339 -0136+
-1775690 16830030 57320 2014 01 11 10 44 3017 11 07 00 01
00348 -0107 00347 -0109 00347 -0109 00347 -0110 00348 -0110 00350 -0108+
-4397330 16861610 65180 2014 01 11 10 44 2887 11 07 00 01
01916 0376 01900 0366 01898 0368 01895 0370 01891 0372 01865 0351+
-2120470 -15978530 65980 2014 01 11 10 44 3010 11 07 00 01
00427 -0020 00423 -0025 00426 -0022 00440 -0009 00441 -0009 00442 -0009+
-2113810 -17518140 66600 2014 01 11 10 44 //// 11 07 00 01
00713 0099 00724 0107 00723 0104 00722 0101 00722 0098 00727 0101+
-1382670 -17176110 66840 2014 01 11 10 44 3010 11 07 00 01
00620 0056 00608 0041 00622 0053 00615 0044 00619 0045 00620 0044+
-1813250 17842750 67050 2014 01 11 10 44 3030 11 07 00 01
00787 0113 00788 0111 00792 0113 00793 0111 00795 0111 00799 0113+
-1760530 17743810 67070 2014 01 11 10 44 3032 11 07 00 01
00760 0037 00760 0034 00762 0034 00764 0033 00768 0034 ///// ////+
-0850250 17919500 67440 2014 01 11 10 44 3027 11 07 00 01
01769 0023 01772 0023 01774 0022 01783 0027 01789 0030 01793 0031++
7777

0000191200
404
SZAU01 AMMC 111051
CREX++
T000103 A001 D01021 D06025++
-1927750 14705860 59260 2014 01 11 10 44 3025 11 07 00 01
02167 0182 02167 0188 02161 0188 02156 0189 02151 0190 02145 0190+
-2316110 15079000 59670 2014 01 11 10 44 3002 11 07 00 01
03010 0243 03006 0246 02989 0236 02991 0248 02978 0242 02985 0257+
-3447330 15091170 60420 2014 01 11 10 44 2953 11 07 00 01
00674 -0028 00680 -0020 00675 -0022 00663 -0031 00651 -0041 00640 -0049+
-4105000 14591500 60910 2014 01 11 10 44 2888 11 07 00 01
02918 0003 02904 -0007 02901 -0005 02899 -0003 02889 -0009 02891 -0001+
-4254640 14793080 61170 2014 01 11 10 44 2895 11 07 00 01
01160 0123 01162 0126 01165 0130 01158 0125 01158 0126 01154 0123+
-3834390 14161360 61410 2014 01 11 10 44 2908 11 07 00 01
00720 0047 00703 0029 00736 0062 00691 0016 00717 0041 00704 0028+
-3214890 13364170 62000 2014 01 11 10 44 2960 11 07 00 01
01116 0058 01107 0050 01102 0045 01097 0040 01096 0039 01095 0039+
-3387080 12189720 62080 2014 01 11 10 44 2950 11 07 00 01
00991 0041 00988 0037 00997 0045 01003 0050 01001 0047 01017 0062+
-3182560 11573860 62237 2014 01 11 10 44 2973 11 07 00 01
01022 0067 01029 0074 01023 0069 01027 0073 01017 0063 01020 0066+
-2422000 11339750 62385 2014 01 11 10 44 //// 11 07 00 01
01462 -0027 01404 -0084 01390 -0097 01430 -0056 01420 -0066 01387 -0098+
-2181670 11419110 62430 2014 01 11 10 44 //// 11 07 00 01
02199 -0063 02186 -0076 02190 -0071 02200 -0061 02192 -0069 02184 -0077+
-1800080 12221830 62650 2014 01 11 10 44 3043 11 07 00 01
06921 0017 06920 0017 06919 0017 06921 0020 06923 0024 06924 0026+
-1247190 13084580 63230 2014 01 11 10 44 3050 11 07 00 01
04260 0139 04257 0138 04254 0137 04251 0135 04249 0135 04248 0135+
-1386000 13641580 63511 2014 01 11 10 44 3043 11 07 00 01
01870 0131 01868 0128 01867 0127 01864 0123 01864 0122 01863 0121++
7777

0000015400
405
SMVX01 WSSS 110600 RRB
BBXX
S6LT3 11060 99163 10410 41596 81206 10280 20224 40206 5////
71022 8/710 22274 00260 20401 333// 40401 80240=
00000000