0000009800
806
SALT32 EYVI 110320
METAR EYKA 110320Z 28011KT 250V310 9999 BKN017 01/M02 Q1003=

0000013800
807
SALV31 EVRA 110320
METAR EVRA 110320Z 30010KT 240V360 9999 SCT010 OVC017 02/00 Q1000 
R36/290158 TEMPO BKN010 OVC015=

0000010800
808
SPIN90 VEGY 111100
SPECI VEGY 111100Z 11003KT 1300 -RA  FEW010 BKN018 16/15 Q1016 NOSIG =

0000009500
809
SAIN90 VEIM 111100
METAR VEIM 111100Z 20003KT 5000 HZ FEW020 22/06 Q1015 NOSIG=
0000008900
810
SAIN90 VOCL 111100
METAR VOCL 111100Z 28006KT 8000 NSC 30/21 Q1010 NOSIG=
0000008900
811
SAIN90 VOCB 111100
METAR VOCB 111100Z 09006KT 6000 NSC 30/13 Q1013 NOSIG=
0000008900
812
SAIN90 VOBZ 111100
METAR VOBZ 111100Z 13002KT 5000 HZ SCT020 28/19 Q1012=
0000018100
813
FTCN35 CWAO 102000 AAA
TAF AMD CYVV 102025Z 1020/1024 18008KT 6SM BR OVC015 TEMPO 1020/1024
     4SM -SN BR OVC006
    RMK NXT FCST WILL BE ISSUED AT 111145Z=

0000010400
814
SPKO31 RKSI 102021
SPECI RKTU 102021Z 02001KT 4000 -SN BR BKN040 M06/M07 Q1032 NOSIG=

0000011200
815
SABW31 VGHS 102020
METAR VGHS 102020Z 00000KT 0600 FG BKN006 15/13 Q1014 TEMPO S/VIS
0400M=

0000056900
816
SNVF21 ENMI 110500
BBXX
LDGJ 11051 99603 10053 43/// /1602 10047 20023 49968 5//// 222/0
      04079 1//// 3//// 4//// 5////=
LF4H 11054 99596 10022 46/98 02722 10058 20023 49986 52001 8////
      90502 22200 06078 10606 70031=
LGWS 11051 99230 30143 43/// /0405 10165 20153 40122 5//// 222/0
      04164 1//// 3//// 4//// 5////=
LJIT 11051 99583 10040 43/// /2912 10068 20011 40017 5//// 222/0
      04070 1//// 3//// 4//// 5////=
LMEL 11051 99603 10053 43/// /1602 10040 20040 49965 5//// 222/0
      04079 1//// 3//// 4//// 5////=
0000009200
817
SPCN51 CWAO 102031
SPECI CWOB 102031Z AUTO 16003KT -SN OVC011 M19/ A2910=

0000011500
818
FCIY37 LIIB 102000 RRA
TAF LICT 102000Z 1021/1106 14013KT 9999 FEW025 TEMPO 1021/1100
VRB03KT=

0000009500
819
SAPF20 NTAA 102030
METAR NTAA 102030Z 27003KT 9999 FEW020 29/23 Q1013 NOSIG=

0000008900
820
SAEG31 HECA 102030
METAR HECA 102030Z 30002KT CAVOK 14/10 Q1023 NOSIG=

0000024400
821
SAHU41 LHBM 102030
METAR LHKE 102015Z 28003MPS CAVOK 04/M00 Q1021 NOSIG RMK BLU=
METAR LHPA 102015Z 15002MPS 4000 BR FEW083 M01/M01 Q1021 NOSIG RMK
     GRN=
METAR LHSN 102015Z 25004MPS CAVOK 04/M00 Q1021 NOSIG RMK BLU=

0000024300
822
FTCN32 CWAO 102000 AAA
TAF AMD CYPE 102032Z 1020/1107 23005KT 6SM -SN OVC030 TEMPO 1020/1023
     1SM -SN VV020
    FM102300 20005KT P6SM SCT050 BKN090 TEMPO 1023/1107 6SM -SN
     BKN050
    RMK NXT FCST BY 110100Z=

0000028100
823
FTCN32 CWAO 102000 AAA
TAF AMD CYMM 102032Z 1020/1107 31005KT 6SM -SN SCT015 OVC030 TEMPO
     1020/1024 11/2SM -SN BR OVC015
    FM110000 26005KT P6SM SCT020 OVC030 TEMPO 1100/1107 5SM -SN
     OVC020
    RMK FCST BASED ON AUTO OBS. NXT FCST BY 110100Z=

0000167200
824
SPUS70 KWBC 102032
SPECI
KADF 102027Z AUTO 15004KT 3/4SM -RA BR OVC003 12/12 A2978 RMK AO2
     CIG 002V007 P0003=
KCXO 102028Z 14008KT 8SM -RA BKN009 OVC015 18/17 A2981 RMK AO2 CIG
     006V012 PRESFR P0000=
KDWH 102028Z 17007KT 10SM SCT016 BKN032 OVC070 21/18 A2981 RMK
     AO2=
KGSH 102028Z AUTO 15012KT 3SM BR OVC033 04/02 A2987 RMK AO2=
KHVN 102028Z 00000KT 2SM BR SCT003 BKN010 OVC029 01/00 A3037 RMK
     AO2=
KMSY 102028Z 12008KT 7SM BKN011 OVC045 19/16 A2995 RMK AO2
     T01890156=
KRST 102028Z 14009KT 3/4SM R31/4500V6000FT BR OVC003 M01/M02 A2959
     RMK AO2 SFC VIS 1 FZRAB1959E22 P0000 I1002 T10111022=
KSPI 102029Z 17017KT 2 1/2SM +RA BR OVC004 04/04 A2972 RMK AO2
     P0011 $=
KTMB 102028Z 13012G17KT 10SM FEW022 SCT027 BKN038 27/22 A3007 RMK
     AO2=
KAMG 102029Z AUTO 13003KT 6SM BR SCT006 BKN013 OVC037 21/19 A3009
     RMK AO2 RAB03E23 P0000 T02110194=
KCDW 102029Z 00000KT 1 3/4SM BR OVC008 M01/M03 A3037 RMK AO2=
KCXO 102029Z 14008KT 3SM -RA BR BKN009 OVC015 18/18 A2981 RMK AO2
     CIG 006V012 PRESFR P0000=
KDCA 102029Z 04003KT 1 3/4SM -RA BR OVC006 04/02 A3033 RMK AO2
     DZE02RAB14 VIS N 3 P0000=
KISW 102029Z AUTO 12006KT 2 1/2SM BR OVC004 M02/M03 A2972 RMK AO2
     I1001 T10171028=
KJEF 102029Z 16012KT 10SM -RA FEW011 BKN060 OVC075 08/06 A2963 RMK
     AO2 P0002=
KOMA 102029Z 14004KT 1 3/4SM -SN BR OVC005 01/00 A2955 RMK AO2 TWR
     VIS 2 P0000 T00110000=
KSRC 102029Z AUTO 19004KT 1 3/4SM RA BR SCT001 OVC011 08/08 A2982
     RMK AO2 TSNO P0005=
PACV 102029Z 00000KT 4SM R27/3500VP6000FT -SN BR SCT007 OVC018
     M01/M01 A2938 RMK AO2 P0005 $=

0000009700
825
SPUS31 KWBC 102032
SPECI
KMSY 102028Z 12008KT 7SM BKN011 OVC045 19/16 A2995=

00000000