0000226700
086
SPUS70 KWBC 110244
SPECI
KEQY 110240Z AUTO 03006KT 3SM -RA BR OVC002 07/06 A3011 RMK AO2
     P0000=
KEWR 110240Z 03005KT 3/4SM -DZ BR SCT003 OVC005 01/01 A3029 RMK
     AO2 SFC VIS 1 1/4 DZE07B31RAB07E31 P0001=
KGLS 110240Z AUTO 19008KT 3/4SM BR VV002 16/16 A2986 RMK AO2=
KLLQ 110240Z AUTO 28006KT 1 3/4SM +RA BR OVC007 16/14 A2975 RMK
     AO2 LTG DSNT N AND NE P0017=
KOWD 110240Z AUTO 00000KT 1 3/4SM BR OVC003 02/02 A3032 RMK AO2
     T00170017=
KPDK 110240Z 08003KT 3/4SM BR VV002 08/07 A3005 RMK AO2
     RAE0154=
KSSI 110240Z AUTO 15009KT 8SM BKN004 18/17 A3011 RMK AO2
     T01780172=
KSTJ 110240Z AUTO 32007KT 7SM SCT011 OVC041 01/00 A2960 RMK AO2
     T00110000=
KSUX 110240Z 00000KT 1/4SM R31/1200V1800FT FZFG VV004 M05/M06
     A2957 RMK AO2 I1000 T10501056=
KTOI 110240Z AUTO 14004KT 1 1/2SM BR OVC002 15/14 A3003 RMK AO2
     T01500139=
PABR 110240Z 32011KT 1/2SM R07/2400V2800FT FZFG VV003 M22/M25
     A2985 RMK AO2 I1000 T12221250=
PAMB 110240Z AUTO 04009KT 3SM BR SCT004 OVC014 M04/M04 A2938 RMK
     AO2 TSNO SNE37 P0000 $=
PANW 110237Z AUTO 01003KT 3/4SM BR OVC001 M07/M07 A2945 RMK AO2
     TSNO $=
KMIW 110240Z AUTO 29007KT 1SM BR VV004 00/00 A2951 RMK AO2
     T00000000 TSNO=
KUGN 110240Z AUTO 17011G21KT 10SM BKN007 BKN017 OVC055 04/03 A2954
     RMK AO2 RAE38 P0009 $=
KAUW 110241Z AUTO 09003KT 3/4SM -SN BR VV016 M02/M03 A2948 RMK AO2
     P0004 T10221028=
KBML 110241Z AUTO 00000KT 10SM BKN024 OVC065 M05/M08 A3023 RMK AO2
     T10501078=
KCLM 110241Z AUTO 00000KT 2 1/2SM -RA BR BKN006 OVC050 06/06 A2967
     RMK AO2 PRESFR P0005 T00610056=
KELD 110241Z AUTO 17007KT 10SM BKN019 BKN026 OVC100 15/15 A2975
     RMK AO2 RAE01 P0000 T01500150 TSNO=
KEWB 110241Z 12003KT 1/2SM R05/2400VP6000FT FG OVC003 04/04 A3031
     RMK AO2 T00440039=
KFAY 110241Z AUTO 00000KT 1SM -RA BR OVC012 17/16 A3012 RMK AO2
     P0018 RVRNO=
KHGR 110241Z 35003KT 3/4SM -RA BR OVC005 01/00 A3018 RMK AO2 P0003
     T00110000=
KRME 110241Z AUTO 10007KT 10SM BKN016 00/M03 A3019 RMK AO2
     T00001028=
KSGH 110241Z AUTO 17010KT 3SM BR BKN001 OVC019 06/06 A2984 RMK AO2
     BKN V OVC=
PAWI 110241Z AUTO 30008KT 3SM BR OVC003 A2989 RMK AO2 TSNO $=

0000010600
087
SPUS31 KWBC 110244
SPECI
KEWR 110240Z 03005KT 3/4SM -DZ BR SCT003 OVC005 01/01 A3029=

0000009900
088
SPUS42 KWBC 110244
SPECI
KGLS 110240Z AUTO 19008KT 3/4SM BR VV002 16/16 A2986=

0000009400
089
SPUS42 KWBC 110244
SPECI
KPDK 110240Z 08003KT 3/4SM BR VV002 08/07 A3005=

0000009500
090
SPUS42 KWBC 110244
SPECI
KSSI 110240Z AUTO 15009KT 8SM BKN004 18/17 A3011=

0000029800
091
FTBX31 EBBR 102300 CCA
TAF COR EBOS 110244Z 1100/1206 20010KT 9999 SCT006
    PROB40 TEMPO 1100/1107 BKN006
    PROB40 TEMPO 1107/1110 BKN012
    BECMG 1110/1112 32015KT 
    BECMG 1120/1123 20004KT 
    BECMG 1201/1203 3000 BR
    PROB40 1203/1206 0500 FZFG BKN001 =

0000046000
092
FTUS43 KWBC 110245 AAA
TAF AMD
KAPN 110242Z 1103/1124 15009KT 2SM -FZRA BR OVC003 WS020/20040KT
     FM111000 18009KT 2SM -RA BR OVC005 WS020/20040KT
     FM111600 27008KT 3SM -SN BR OVC008=
KPIA 110243Z 1103/1124 18009G18KT 5SM BR OVC003
     FM110400 24012KT 1/2SM FG OVC002
     FM110900 25011KT 2SM BR OVC003
     FM111400 26012G18KT 4SM BR OVC015
     FM111700 28013G22KT P6SM BKN025
     FM112100 27012KT P6SM SCT250=

0000059100
093
FTUS41 KWBC 110245 AAA
TAF AMD
KABE 110242Z 1103/1124 VRB03KT 2SM BR SCT002 OVC007
      TEMPO 1103/1106 1SM -RA BR OVC002
     FM110600 16005KT 2SM -RA BR BKN004 OVC010 WS020/20050KT
     FM111500 19013KT 1SM RA BR BKN003 OVC010 WS020/21050KT
     FM112100 22012G22KT 1SM RA BR BKN003 OVC012 WS020/18050KT
     FM112300 26009KT 2SM RA BR BKN004 OVC025=
KCAE 110244Z 1103/1124 VRB04KT 3SM BR VCSH OVC005
      TEMPO 1103/1104 -RA
     FM111200 19007KT 5SM BR VCSH OVC005
     FM111600 21012G22KT 3SM -SHRA OVC005
     FM112300 25011G19KT P6SM OVC035=

0000081000
094
FTUS71 KWBC 110245 AAA
TAF AMD
KABE 110242Z 1103/1124 VRB03KT 2SM BR SCT002 OVC007
      TEMPO 1103/1106 1SM -RA BR OVC002
     FM110600 16005KT 2SM -RA BR BKN004 OVC010 WS020/20050KT
     FM111500 19013KT 1SM RA BR BKN003 OVC010 WS020/21050KT
     FM112100 22012G22KT 1SM RA BR BKN003 OVC012 WS020/18050KT
     FM112300 26009KT 2SM RA BR BKN004 OVC025=
KAGS 110244Z 1103/1124 VRB04KT 2SM BR VCSH OVC004
      TEMPO 1105/1109 1/2SM FG OVC001
     FM111200 20008KT 5SM BR VCSH OVC003
     FM111600 22014G22KT 3SM -SHRA OVC005
     FM112200 25011G19KT P6SM BKN035=
KCAE 110244Z 1103/1124 VRB04KT 3SM BR VCSH OVC005
      TEMPO 1103/1104 -RA
     FM111200 19007KT 5SM BR VCSH OVC005
     FM111600 21012G22KT 3SM -SHRA OVC005
     FM112300 25011G19KT P6SM OVC035=

0000082000
095
FTUS73 KWBC 110245 AAA
TAF AMD
KAPN 110242Z 1103/1124 15009KT 2SM -FZRA BR OVC003 WS020/20040KT
     FM111000 18009KT 2SM -RA BR OVC005 WS020/20040KT
     FM111600 27008KT 3SM -SN BR OVC008=
KDEC 110244Z 1103/1124 18010G20KT P6SM VCSH OVC003
     FM110600 24012KT 3SM BR OVC003
     FM111400 26012G18KT P6SM OVC015
     FM111800 27014G22KT P6SM BKN025
     FM112200 27014KT P6SM SCT250=
KPIA 110243Z 1103/1124 18009G18KT 5SM BR OVC003
     FM110400 24012KT 1/2SM FG OVC002
     FM110900 25011KT 2SM BR OVC003
     FM111400 26012G18KT 4SM BR OVC015
     FM111700 28013G22KT P6SM BKN025
     FM112100 27012KT P6SM SCT250=
KPLN 110241Z 1103/1124 13006KT 4SM -FZRA BR OVC005 WS020/20030KT
     FM111000 20005KT 2SM -SNRA BR OVC005
     FM111400 28010KT 3SM -SN BR OVC008=

0000015600
096
FCNO32 ENMI 110200 RRA
TAF ENHD 110200Z 1105/1112 26018KT 9999 SCT012 BKN025 PROB40 TEMPO
         1105/1112 4000 SHRA BKN012 FEW015CB=

0000031200
097
FTUS43 KWBC 110248 AAA
TAF AMD
KMLI 110245Z 1103/1124 19005KT 2SM -RADZ BR OVC004
      TEMPO 1103/1105 3/4SM -DZ BR OVC003
     FM110500 23005KT 1/4SM -DZ FG OVC002
     FM110900 28011KT 2SM -SN BR OVC004
     FM111400 28011KT 4SM BR VCSH OVC006
     FM111900 29012KT P6SM OVC020=

0000074700
098
FTUS73 KWBC 110248 AAA
TAF AMD
KMLI 110245Z 1103/1124 19005KT 2SM -RADZ BR OVC004
      TEMPO 1103/1105 3/4SM -DZ BR OVC003
     FM110500 23005KT 1/4SM -DZ FG OVC002
     FM110900 28011KT 2SM -SN BR OVC004
     FM111400 28011KT 4SM BR VCSH OVC006
     FM111900 29012KT P6SM OVC020=
KRFD 110246Z 1103/1124 18010G18KT 3SM -RA BR OVC004
     FM110400 18012KT 1 1/2SM -DZ BR VCSH OVC004
      TEMPO 1104/1107 1/2SM FG OVC002
     FM110900 26012G18KT P6SM VCSH BKN007 OVC012
     FM111700 27013G21KT P6SM SCT015=
KSUX 110247Z 1103/1124 VRB03KT 1SM BR SCT004
      TEMPO 1103/1105 1/4SM FZFG VV004
     FM110500 29006KT 4SM BR SCT008
     FM111200 31008KT P6SM SKC
     FM111600 31015G20KT P6SM SCT050=

0000014000
099
SPMG20 FMMI 110245
SPECI FMMI 110245Z 29003KT 2000W  R11/1000V1400U BR FEW007
SCT020 BKN230 17/17 Q1021 BECMG 8000 NSW=

0000258000
100
SPUS70 KWBC 110246
SPECI
KALO 110242Z 29003KT 1SM R12/2600V4000FT BR VV004 00/M01 A2950 RMK
     AO2 T00001006=
KAOH 110242Z AUTO 17008KT 2 1/2SM -RA BR OVC004 06/05 A2979 RMK
     AO2 PNO $=
KBFM 110242Z 16004KT 3SM VCTS RA BR OVC003 16/16 A2998 RMK AO2
     P0022 T01610156=
KBMG 110242Z AUTO 15009KT 1/4SM -RA FG BKN005 OVC009 07/06 A2972
     RMK AO2 P0004 T00670061=
KBRL 110242Z AUTO 22005KT 1/4SM FG VV004 03/03 A2952 RMK AO2 RAE32
     P0000 T00330033=
KBVY 110242Z AUTO 19003KT 5SM BR OVC013 02/01 A3031 RMK AO2
     T00220006=
KDPA 110242Z 18015KT 5SM -RA BR OVC003 03/03 A2955 RMK AO2
     SNB31E41 P0001=
KDTW 110242Z 13004KT 1/2SM RA BR OVC002 03/03 A2983 RMK AO2 SFC
     VIS 2 P0006=
KDVN 110242Z AUTO 20008KT 2 1/2SM BR OVC003 03/03 A2951 RMK
     AO2=
KEVV 110242Z 17004KT 3SM +RA BR SCT009 OVC015 09/08 A2973 RMK AO2
     P0017 T00890078=
KGLR 110243Z AUTO 16012KT 6SM UP BR OVC007 00/M01 A2963 RMK AO2
     UPB17E19B37FZRAE17B19E37 P0009 I1002 T00001006=
KISW 110242Z AUTO 00000KT 2SM -SN BR SCT005 OVC016 00/M01 A2950
     RMK AO2 P0004 T00001006=
KMCB 110242Z AUTO 17009KT 3/4SM -RA BR VV002 17/16 A2990 RMK AO2
     RAE06B40 P0001 T01670161=
KMEB 110242Z AUTO 00000KT 5SM BR BKN007 OVC014 14/14 A3014 RMK AO2
     RAE21 TSE0157 CIG 005V011 P0028 T01390139=
KMPV 110242Z AUTO 00000KT 9SM SCT028 OVC055 M03/M05 A3025 RMK
     AO2=
KMSS 110242Z AUTO 06004KT 9SM OVC028 M03/M06 A3016 RMK AO2=
KY50 110242Z AUTO 00000KT 1 1/4SM UP OVC002 00/ A2950 RMK AO2 TSNO
     UPB40FZRAE40 P0000 $=
KABY 110243Z 11004KT 1/4SM FG VV002 15/15 A3008 RMK AO2=
KAEX 110243Z 15006KT 5SM VCTS +RA BR BKN007 OVC010 18/17 A2978 RMK
     AO2 LTG DSNT S AND SW TSB39 CIG 005V009 P0009=
KAMG 110243Z AUTO 14005KT 9SM FEW004 OVC060 18/17 A3008 RMK AO2
     T01830172 $=
KBPK 110243Z AUTO 25008G16KT 210V310 2 1/2SM +RA BR SCT008 BKN025
     OVC075 09/08 A2962 RMK AO2 RAB02 P0008=
KDIJ 110243Z AUTO 16010KT 10SM BKN025 BKN085 M03/M06 A2997 RMK
     AO2=
KDSV 110243Z AUTO 18005KT 9SM SCT018 03/01 A3006 RMK AO2=
KEYE 110243Z AUTO 15007KT 3/4SM -RA BR VV002 06/06 A2971 RMK AO2
     P0001 T00560056=
KOFP 110243Z AUTO 00000KT 3/4SM BR VV003 04/04 A3021 RMK AO2
     RAB07E19 P0000 T00390039=
KRUE 110243Z AUTO 31011G16KT 1SM RA BR FEW009 BKN043 OVC065 09/09
     A2970 RMK AO2 PRESRR P0015=
KWST 110243Z AUTO 00000KT 1/4SM FG VV003 02/02 A3031 RMK AO2
     T00170017=
PAPB 110243Z AUTO 10008KT 10SM FEW021 SCT028 OVC065 01/M01 A2907
     RMK AO2 T00111006 TSNO $=

0000009400
101
SAAB31 LATI 110250
METAR LATI 110250Z 0000KT 6000 BKN053 10/08 Q1022 NOSIG=

0000009600
102
FCNO33 ENMI 110200 RRA
TAF ENKB 110200Z 1105/1112 07008KT 9999 FEW015 SCT030=

0000009500
103
SPCN42 CWAO 110242
SPECI CYUA 110242Z AUTO 29023KT 3/4SM -SN CLR M24/ A2974=

0000011300
104
SPUS41 KWBC 110243
SPECI
KWRI 110240Z AUTO 05002KT 1 1/4SM R06/2200FT BR OVC002 02/02 A3024=

0000009700
105
SICN01 CWAO 110900 RRB
AAXX 11094
71051 25/// ///// 11104 21115
333 60007=

00000000