0000016200
546
WSBW20 VGHS 111030
VGFR SIGMET 01 VALID 111200/111600 VGHS-
VGFR DHAKA FIR ISOL CB FCST AT 111200Z N OF N21 AND E OF E88 TOP
FL380 MOV ESE NC=
0000016300
547
SSVX13 LFPW 110930
ZZYY 13592 11014 0930/ 728919 053555 6113/ 22219 00235 33300 88872
 20000 43654 444 20130 11014 0930/ 50101 80112 80008 9/015=
0000018400
548
SSVX13 LFPW 110930
ZZYY 41734 11014 0930/ 705275 039125 6113/ 11119 40120 52010 22219
 00264 33300 88872 20000 43604 444 20130 11014 0930/ 50101 80118
 80018 9/015=
0000016300
549
SSVX13 LFPW 110930
ZZYY 13595 11014 0930/ 730276 019467 6113/ 22219 00199 33300 88872
 20000 43682 444 20130 11014 0930/ 50101 80108 80024 9/015=
0000016300
550
SSVX13 LFPW 110930
ZZYY 13591 11014 0930/ 722913 066434 6113/ 22219 00262 33300 88872
 20000 43603 444 20130 11014 0930/ 50101 80106 80008 9/015=
0000016300
551
SSVX13 LFPW 110930
ZZYY 13593 11014 0930/ 738166 018519 6113/ 22219 00169 33300 88872
 20000 43624 444 20130 11014 0930/ 50101 80118 80039 9/015=
0000011200
552
SINL54 EHDB 110900 RRA
AAXX 11091
06285 46/// /2212
333 91014 911// 912//
555 511// 512//=
0000011200
553
SINL54 EHDB 110900 RRB
AAXX 11091
06315 46/// /2108
333 91010 91110 91208
555 51110 51208=
0000011200
554
SINL54 EHDB 110900 RRC
AAXX 11091
06313 46/// /2111
333 91013 91113 91211
555 51113 51211=
0000011200
555
SINL54 EHDB 110900 RRD
AAXX 11091
06312 46/// /2212
333 91014 91115 91212
555 51114 51212=
0000011200
556
SINL54 EHDB 110900 RRE
AAXX 11091
06308 46/// /2107
333 91009 91110 91207
555 51109 51207=
0000011200
557
SINL54 EHDB 110900 RRF
AAXX 11091
06209 46/// /2114
333 91016 91117 91214
555 51117 51214=
0000011200
558
SINL54 EHDB 110900 RRG
AAXX 11091
06316 46/// /2109
333 91011 91111 91209
555 51111 51209=
0000011200
559
SINL54 EHDB 110900 RRH
AAXX 11091
06331 46/// /2008
333 91010 91110 91209
555 51110 51209=
0000011200
560
SINL54 EHDB 110900 RRI
AAXX 11091
06324 46/// /2107
333 91009 91110 91208
555 51110 51208=
0000017400
561
SIDL21 EDZW 110900 CCB
AAXX 11091
10506 21573 72303 10035 20023 39581 40171 52006 70262 8557/
  333 20006 3/101 55300 20098 30097 69907 82630 85650 86360=
0000011000
562
UANT01 CWAO 110930
ARP TAY010 5235N04522W 0930 F340 MS62 300/80 KT
OOTSC QXT AME 110930 F25A
0000014900
563
SIVZ11 SBBR 110900 RRG
BBXX
SHIP 11091 99/// 1//// 36/// /2300 10150 20141 39017 40152 52///
  333 10159 20150 553// 00058 91101=
0000016700
564
SOVI10 KWAL 110931
B110070A 011093101"P9751095 B\P~W@@X0ekI1@me???CaCe>@mj3@LC?@Z4Ck5C~6bE9K[2?????A"??? ?TI\KBkBiBkBiBhBi:AMPTEMP 26.22C  44+0NN 219E
0000159300
565
SISU21 HSSS 110900
AAXX 11094
62600 42970 00410 10170 20100 30041 40264 333 58030=
62640 42970 00410 10200 20000 39817 40175 333 58025=
62641 42970 00119 10240 20120 30144 40194 333 58042=
62650 42970 00320 10190 20020 39980 40159 333 58017=
62660 41968 00515 10190 20020 39892 40259 333 58017=
62680 42970 30308 10216 20014 39772 40175 80002 333 56009 58004
83075=
62721 41958 70314 10210 20000 39738 40186 70722 80007 333 56009
58002 87275=
62730 42970 23604 10260 20150 39623 40177 80004 333 56009 58000
87275=
62733 42970 03604 10250 20060 39620 40127 333 59010=
62750 42970 70215 10220 20025 39720 40150 80007 333 56009 58001
87275=
62751 42970 70107 10230 21010 39312 40175 80007 333 56009 58003
87275=
62752 42970 73606 10267 20093 39465 40133 80007 333 56009 58003
87275=
62760 42970 70506 10166 21006 39353 40189 80007 333 56009 58013
87275=
62762 42970 70406 10225 20015 39672 40151 80007 333 56009 58012
87275=
62770 41940 70517 10180 21040 39283 40195 70722 80007 333 56009
58007 87275=
62771 42970 70211 10190 21020 39536 40174 80007 333 56009 58008
87275=
62772 42970 73610 10220 20010 39736 40174 80007 333 56009 58002
87275=
62790 42970 70513 10200 21020 39462 40199 80007 333 56009 58012
87275=
62795 42970 70410 10260 21030 39645 40144 80007 333 56009 58015
87275=
62805 42970 70407 10245 20050 39604 40132 80007 333 56009 58001
87275=
62809 42970 70406 10204 21010 39666 40185 80007 333 56009 58013
87275=
62810 42970 73608 10205 20045 3//// 4//// 70622 80007 333 56009
5//// 87275=
00000000