0000004200
526
FTLY31 HLMC 102200
NIL=

0000023300
527
FTCN36 CWAO 102200 AAA
TAF AMD CYUY 102229Z 1022/1106 20010KT 2SM -SN OVC005 TEMPO 1022/1024
     5SM BR OVC008
    FM110000 19010KT 3SM -SN OVC008 TEMPO 1100/1106 P6SM -SN OVC012
    RMK NXT FCST BY 110000Z=

0000085200
528
SATU31 LTAA 102220
METAR LTAC 102220Z VRB01KT 4800 BR OVC007 M03/M03 Q1022 BECMG 1200
 BCFG OVC003=
METAR LTAF 102220Z 04005KT CAVOK 05/M01 Q1021 NOSIG=
METAR LTAI 102220Z 36004KT CAVOK 06/06 Q1022 NOSIG=
METAR LTAJ 102220Z 00000KT CAVOK M01/M05 Q1021 NOSIG=
METAR LTAZ 102220Z 08004KT 9000 BKN008 M02/M02 Q1022=
METAR LTBA 102220Z 21007KT 180V260 6000 NSC 09/08 Q1021 NOSIG=
METAR LTBJ 102220Z 00000KT 3600 BR NSC 05/03 Q1021 NOSIG=
METAR LTBS 102220Z 03006KT CAVOK 06/05 Q1022 NOSIG=
METAR LTCG 102220Z 00000KT CAVOK 07/M01 Q1016 NOSIG=
METAR LTCS 102220Z 30004KT CAVOK 04/M05 Q1021=
METAR LTFC 102220Z 00000KT 0300 R05/0450U R23/0500U FZFG VV001
 M04/M04 Q1022=
METAR LTFE 102220Z 12003KT 6000 FEW035 BKN100 07/06 Q1022 NOSIG=
METAR LTFJ 102220Z 20005KT 9999 SCT011 08/03 Q1021 BECMG TL2400 4000
 BR=

0000063300
529
SATU32 LTAA 102220
METAR LTAG 102220Z 04007KT CAVOK 02/M02 Q1021 NOSIG=
METAR LTAN 102220Z NIL=
METAR LTAP 102220Z 00000KT CAVOK M05/M06 Q1021 NOSIG=
METAR LTAT 102220Z 20003KT CAVOK M08/M09 Q1022 NOSIG=
METAR LTAU 102220Z 00000KT 3300 BCFG VV002 M03/M04 Q1023 BECMG TL2300
 0400 FZFG=
METAR LTBF 102220Z NIL=
METAR LTBU 102220Z 00000KT 4000 BR FEW020 05/05 Q1020=
METAR LTCC 102220Z 30003KT 260V320 CAVOK M02/M05 Q1021 NOSIG=
METAR LTCE 102220Z 00000KT 0900 0300W R26L/0500U R08R/P1500U
 R26R/0300U R08L/P1500D BCFG NSC M28/M30 Q1021 NOSIG=
METAR LTCJ 102220Z 21002KT 7000 NSC M03/M03 Q1021=

0000008900
530
SATU35 LTAA 102220
METAR LCEN 102220Z 28011KT CAVOK 07/02 Q1021 NOSIG=

0000009800
531
SAID31 WIII 102230
METAR WIII 102230Z 21004KT 5000 BR FEW020 26/23 Q1009 NOSIG=

0000009700
532
SPAU32 AMMC 102229
SPECI YMAV 102230Z AUTO 20007KT 9999 // OVC013 17/13 Q1020=

0000032100
533
FTUS72 KWBC 102230 AAA
TAF AMD
KMLU 102226Z 1022/1118 20006KT P6SM OVC015
      TEMPO 1023/1103 2SM -RA BR OVC005
     FM110300 19012G18KT P6SM VCTS OVC015CB
      TEMPO 1104/1108 VRB15G30KT 2SM TSRA BR OVC007CB
     FM110800 26010KT 5SM -TSRA BR OVC009CB
     FM111200 29011KT P6SM BKN250=

0000009800
534
SPCN42 CWAO 102229
SPECI CYUA 102229Z AUTO 30022G30KT 5/8SM -SN CLR M25/ A2978=

0000010300
535
SARM31 LUKK 102230
METAR LUKK 102230Z 27011KT CAVOK 04/M01 Q1015 R26/CLRD65
NOSIG=

0000010000
536
SACG20 FCBB 102230
METAR FCBB 102230Z 23004KT 210V270 7000 NSC 24/23 Q1012 NOSIG=

0000012000
537
FCLT34 EYVI 102300
TAF EYSA 102300Z 1100/1109 27018KT 9000 OVC012 TEMPO 1102/1107 5000
RASN BKN006=

0000096500
538
FTAL32 DAAA 102200
TAF DABB 102300Z 1100/1124 14008KT 9999 FEW033 SCT200 TEMPO
         1100/1107 7000 NSC BECMG 1108/1112 32012KT BECMG 1118/1122
         SCT033 SCT100=
TAF DABC 102300Z 1100/1124 20006KT 9999 FEW040 SCT220 BECMG
         1108/1112 32010KT BECMG 1118/1122 SCT033 SCT100=
TAF DABS 102300Z 1100/1124 32010KT 9999 FEW033 SCT220 BECMG
         1120/1124 SCT033 SCT100=
TAF DAOI 102200Z NIL=
TAF DAON 102200Z NIL=
TAF DAUA 102200Z NIL=
TAF DAUG 102300Z 1100/1124 04010KT 9999 FEW040 SCT100 BECMG
                 1105/1107 VRB02KT BECMG 1108/1110 32010KT BECMG
                 1112/1114 04010KT BECMG 1120/1122 12010KT=
TAF DAUH 102300Z 1100/1124 06010KT 9999 SCT040 SCT100 BECMG
                1105/1107 VRB02KT CAVOK BECMG 1110/1112 02012KT
                 BECMG 1122/1124 08012KT=
TAF DAUZ 102300Z 1100/1124 10012KT 8000 FEW046 BECMG 1112/1114
                 16012KT BECMG 1118/1120 10012KT=

0000026300
539
FTAL33 DAAA 102200
TAF DAUI 102300Z 1100/1124 VRB02KT 9999 FEW046  BECMG 1102/1104
                 06010KT BECMG 1108/1110 12012KT BECMG 1112/1114
                 20014KT BECMG 1117/1120 VRB02KT BECMG 1122/1124
                 28012KT=

0000012400
540
FTAE32 VTBB 101700 RRB
TAF VYMD 101630Z 1018/1118 36002KT 8000 NSC
TEMPO 1018/1024 00000KT 4000 BR NSC=

0000017600
541
FTCN35 CWAO 102200 AAA
TAF AMD CYXZ 102230Z 1022/1024 17008KT P6SM OVC008 TEMPO 1022/1024
     5SM -SN OVC006
    RMK NXT FCST WILL BE ISSUED AT 111245Z=

0000017100
542
FTUK34 EGGY 102000 AAA
TAF AMD EGVN 102228Z 1022/1121 21007KT 9999 SCT040 TEMPO 1022/1104
    7000 RA SCT020 PROB40 TEMPO 1022/1104 4000 -RADZ BKN008=

0000159600
543
FTAL34 DAAA 102200
TAF DAAG 102300Z 1100/1124 18010KT 9999 FEW030 SCT080 BECMG
                 1110/1112 VRB02KT 8000 NSC BECMG 1114/1116 28010KT
                 BECMG 1117/1120 VRB02KT=
TAF DAAT 102300Z 1100/1124 07014KT 8000 FEW053 SCT100 PROB30 TEMPO
                 1100/1106 06024KT 6000 BECMG 1008/1110 32012KT
                 BECMG 1110/1114 12014KT 6000 BECMG 1120/1122
                 02010KT=
TAF DABB 102300Z 1100/1124 14008KT 9999 FEW033 SCT200 TEMPO
         1100/1107 7000 NSC BECMG 1108/1112 32012KT BECMG 1118/1122
         SCT033 SCT100=
TAF DABC 102300Z 1100/1124 20006KT 9999 FEW040 SCT220 BECMG
         1108/1112 32010KT BECMG 1118/1122 SCT033 SCT100=
TAF DABS 102300Z 1100/1124 32010KT 9999 FEW033 SCT220 BECMG
         1120/1124 SCT033 SCT100=
TAF DAOI 102200Z NIL=
TAF DAON 102200Z NIL=
TAF DAOO 102200Z NIL=
TAF DAUG 102300Z 1100/1124 04010KT 9999 FEW040 SCT100 BECMG
                 1105/1107 VRB02KT BECMG 1108/1110 32010KT BECMG
                 1112/1114 04010KT BECMG 1120/1122 12010KT=
TAF DAUH 102300Z 1100/1124 06010KT 9999 SCT040 SCT100 BECMG
                1105/1107 VRB02KT CAVOK BECMG 1110/1112 02012KT
                 BECMG 1122/1124 08012KT=
TAF DAUI 102300Z 1100/1124 VRB02KT 9999 FEW046  BECMG 1102/1104
                 06010KT BECMG 1108/1110 12012KT BECMG 1112/1114
                 20014KT BECMG 1117/1120 VRB02KT BECMG 1122/1124
                 28012KT=
TAF DAUZ 102300Z 1100/1124 10012KT 8000 FEW046 BECMG 1112/1114
                 16012KT BECMG 1118/1120 10012KT=

0000009200
544
SARM31 LUKK 102230
METAR LUBL 102230Z AUTO 24011KT 9999 NCD 02/M02 Q1013=

0000012600
545
SAMR20 TFFF 102230
METAR TFFF 102230Z AUTO 06008KT 9999 SCT030/// BKN038/// BKN048///
///TCU 24/20 Q1015=

00000000