0000026400
006
SIST21 EGRR 110900
AAXX 11094
61901 469// /1011 10192 20171 39679 40184 51020 333 8//99 555
 7/090=
88878 46/// /1920 10057 20015 40064 52013=
88889 41581 72219 10037 21019 39984 40070 52022 76086 878//
 333 81828 87636 91027 90710 91128=
0000342200
007
SIUK21 EGRR 110900
AAXX 11094
03005 41475 53221 10047 20006 39905 40005 52012 72782 84960
  333 55300 20000 83915 90710 91130=
03017 478// /2811 10030 20015 30016 40048 53018 723//
  333 55300 20000 81/57 84/67=
03023 NIL=
03026 47984 /2208 10012 21005 30064 40083 51020 721//
  333 55300 20000 82/64=
03063 45984 /2207 10007 21017 39814 40097 51019
  333 55300 20000 8//99=
03066 45984 /2412 10020 21004 30076 40083 51018
  333 55300 20000 8//99=
03075 45477 /3012 10009 21005 30019 40064 53020
  333 81/17 83/36=
03091 45981 /2710 10027 21021 39999 40080 51020
  333 55300 20000 86/64=
03100 45980 /2912 10044 21006 30106 40122 52026
  333 55300 20000 8//99=
03111 46476 /2620 10039 20024 30130 40142 51029
  333 82/12 85/58 90710 91129=
03134 47985 /1802 10010 20001 30054 40128 51027 723//
  333 55300 20000 8//99=
03136 47480 /2504 10023 20009 30105 40138 50030 741//
  333 55300 20000 82/11 86/57 90710 91129=
03162 41480 32705 10005 21005 39846 40140 53025 72681 82830
  333 42997 55300 20004 81818=
03166 45981 /2410 10021 20001 30048 40119 52024
  333 55300 20000 8//99=
03171 42584 12712 10021 21022 30089 40102 53020 81833
  333 55300 20000 81820 92600=
03204 41465 12915 10043 20022 30137 40157 51026 70165 81600
  333 55300 20002 81714=
03240 45983 /2608 10035 21008 30087 40116 53023
  333 55300 20003 81/64=
03257 45966 /2605 10021 20003 30098 40139 52026
  333 55300 20015 82/62 85/66=
03292 469// /2707 10031 20006 30111 40130 53030
  333 8//99=
03302 45469 /3009 10043 20021 30160 40174 51033
  333 55300 20009 82/17=
03354 45967 /2304 10023 20017 30012 40158 51027
  333 55301 20030 8//99=
03377 42980 22508 10035 20011 30066 40152 51036 82030
  333 55300 20055 82363=
03414 45976 /2605 10011 20000 30077 40167 51025
  333 55300 20014 8//99=
03462 45983 /2609 10031 20015 30069 40161 53038
  333 55301 20049 8//99=
03482 45973 /2809 10044 20035 30124 40150 53039
  333 8//99=
03502 47581 /3016 10054 21002 30025 40190 53030 723//
  333 55301 20023 82/23=
03535 45970 /2104 10025 20019 30044 40164 51026
  333 553// 20045 8//99=
03590 45482 /3011 10052 20038 30041 40152 53035
  333 55300 20037 86/12=
03649 42682 12203 10038 20022 30076 40179 52035 81500
  333 55302 2//// 81640=
03680 46/// ///// 10043 20030 30011 40170 53034
  333 553// 20062=
03716 47961 /1001 10033 20029 30125 40187 52028 710//
  333 55301 20033 8//99=
03740 469// /2305 10032 20026 30007 40187 53033
  333 55304 2//// 8//99=
03746 42482 13007 10039 20028 30030 40187 53035 81600
  333 81710=
03772 45981 /2908 10062 20036 30143 40174 53037
  333 55304 20049 8//99=
03796 46/// /3012 10072 20064 30013 40156 53019=
03803 45983 /0104 10073 20035 30165 40204 53019
  333 8//99=
03808 42582 13605 10071 20025 30093 40201 53021 81500
  333 55302 20032 81628=
03809 42575 23503 10051 20025 30108 40203 53024 82800
  333 81824=
03827 45977 /3605 10037 20028 30136 40200 52026
  333 8//99=
03840 45976 /3004 10033 20027 39885 40197 51032
  333 8//99=
03853 45980 /2002 10039 20029 30169 40193 53034
  333 55301 20046 8//99=
03874 NIL=
03882 45983 /3107 10069 20046 30105 40169 53030
  333 55300 20033 8//99=
03894 41584 13507 10073 20045 40202 52033 70261 81501
  333 81620=
03917 45267 /1803 10012 20009 30086 40165 53025
  333 55300 20000 87/03=
0000015100
008
SNST41 EGRR 110800 RRB
AAXX 11084
88900 45/// /1301 10024 20021 39918 49920 56005=
88903 42/// /0101 10014 20007 39922 49922 55004=
0000032700
009
SAUK63 EGRR 110850 RRA
METAR EGDR 110850Z 35003KT 9999 FEW024 05/03 Q1019 NOSIG=
METAR EGOW 110850Z 29016KT 9999 SHRA SCT015 BKN020 05/04 Q1015=
METAR EGQM 110850Z AUTO 26008KT 9999 FEW140/// 04/M01 Q1011=
METAR EGUY 110850Z 27012KT CAVOK 04/02 Q1016=
METAR EGWC 110850Z 00000KT 9999 FEW020 02/01 Q1016=
0000013200
010
SIVD02 CWAO 110900
BBXX
SHIP 11094 99482 70472 46/// /2728 11017 21058 40156 58001 7//// 8//// 22222 0//// 2//// =
0000013200
011
SIVD02 CWAO 110900
BBXX
SHIP 11094 99461 70602 46/// /3207 10005 21020 40231 54000 7//// 8//// 22200 0//// 2//// =
0000013200
012
SIVD02 CWAO 110900
BBXX
SHIP 11094 99513 70569 46/// /2620 11073 21117 40157 53020 7//// 8//// 22200 0//// 2//// =
0000013200
013
SIVD02 CWAO 110900
BBXX
SHIP 11094 99459 70581 46/// /2423 10006 20009 40245 51011 7//// 8//// 22253 0//// 2//// =
0000013200
014
SIVD02 CWAO 110900
BBXX
SHIP 11094 99623 70748 46/// /2007 11190 21243 40069 51024 7//// 8//// 22200 0//// 2//// =
0000013200
015
SIVD02 CWAO 110900
BBXX
SHIP 11094 99491 70583 46/// /2517 11027 21081 40200 51010 7//// 8//// 22200 0//// 2//// =
0000013200
016
SIVD02 CWAO 110900
BBXX
SHIP 11094 99429 70824 46/// /1916 10055 20064 40004 56037 7//// 8//// 22200 0//// 2//// =
0000013200
017
SIVD02 CWAO 110900
BBXX
SHIP 11094 99468 70712 46/// /0403 11038 2//// 40198 58029 7//// 8//// 22200 0//// 2//// =
0000013200
018
SIVD02 CWAO 110900
BBXX
SHIP 11094 99437 70818 46/// /1811 10039 20038 40008 56039 7//// 8//// 22212 00007 2//// =
0000013200
019
SIVD02 CWAO 110900
BBXX
SHIP 11094 99453 70660 46/// /2006 11018 21050 40253 58007 7//// 8//// 22200 0//// 2//// =
0000012000
020
SMAA41 KPAL 110900
AAXX 11091 
89061 36/// /3602 11007 21035 39990 49996 57013    
333  91003 91104=
0000013200
021
SIVD02 CWAO 110900
BBXX
SHIP 11094 99462 70602 46/// /2618 10007 20018 40237 58004 7//// 8//// 22200 0//// 2//// =
0000013200
022
SIVD02 CWAO 110900
BBXX
SHIP 11094 99430 70879 46/// /2204 10039 20033 4//// 5//// 7//// 8//// 22200 0//// 2//// =
0000013200
023
SIVD02 CWAO 110900
BBXX
SHIP 11094 99433 70798 46/// /0202 10017 20018 40042 58057 7//// 8//// 22200 0//// 2//// =
0000013200
024
SIVD02 CWAO 110900
BBXX
SHIP 11094 99455 70735 46/// /3607 11051 21061 4//// 5//// 7//// 8//// 22200 0//// 2//// =
0000013200
025
SILC01 TLPL 110900
AAXX 11094
78948 41460 70920 10219 20211 30146 40154 78081 878// 333 02299 58005
85818 83640=
00000000