0000011500
226
SICN03 CWAO 110900 RRB
AAXX 11094
71421 25/// /2502 11114 21148 39444 40181 50007
333 60007=

0000012100
227
SICN01 CWAO 110900 RRA
AAXX 11094
71107 27/// /2725 10066 20034 39688 49797 53010 7//4/
333 60027=

0000065100
228
SAER10 OMAM 110900
METAR OMAD 110900Z 19006KT 150V220 9999 FEW045 21/15 Q1019 A3010
                   NOSI G=
METAR OMAH 110900Z 16006KT 7000 -RA OVC080 20/08 Q1020 A3012=
METAR OMAM 110900Z 20008KT 9999NDV FEW040 BKN100 22/11 Q1018 A3007=
METAR OMDL 110900Z VRB02KT 8000NDV -RA OVC080 19/15 Q1019 A3009=
METAR OMDM 110900Z 16006KT CAVOK 22/09 Q1019=
METAR OMLW 110900Z 19009KT CAVOK 21/11 Q1019=
METAR OMMZ 110900Z AUTO 15009KT /////NDV //// ///// 20/10 Q1019 A3011=
METAR OMSN 110900Z AUTO 14014KT /////NDV //// ///// 19/13 Q1018 A3008=
METAR OMSW 110900Z NIL=
METAR OMTH 110900Z 11009KT 9999 BKN090 20/09 Q1020=
0000029700
229
SIER20 OMAM 110900
AAXX 11094
41200 42960 61709 10210 20100 30157 40208 8603/ 333 58002 86366=
41202 NIL=
41203 NIL=
41206 NIL=
41207 NIL=
41208 NIL=
41209 NIL=
41210 NIL=
41211 NIL=
41216 42660 71906 10208 20116 30191 40195 8253/ 333 58004 82645
      86366=
0000009600
230
SAER41 OMAM 110911 RRF
METAR OMAM 110900Z 20008KT 9999 BKN100 22/11 Q1018 A3006=
0000003900
231
SIER10 OMAM 110900
NIL=
0000009600
232
SAER41 OMAM 110915 RRF
METAR OMAM 110900Z 20008KT 9999 SCT100 22/11 Q1018 A3006=
0000016000
233
SSVX02 CWAO 110900
ZZYY 56947 11014 0900/ 331657 105885 6113/ 11119 
40171 57011 22219 00216 444 20130 11014 0900/ 50101 80142 80016 
9/015=
0000016000
234
SSVX02 CWAO 110900
ZZYY 56945 11014 0900/ 317798 111525 6113/ 11119 
40080 57013 22219 00293 444 20130 11014 0900/ 50101 80144 80024 
9/015=
0000013900
235
SSVX02 CWAO 110900
ZZYY 64721 11014 0900/ 770327 004333 6113/ 22219 
00052 444 20130 11014 0900/ 50101 80138 80002 9////=
0000013900
236
SSVX02 CWAO 110900
ZZYY 64732 11014 0900/ 765043 003686 6113/ 22219 
00052 444 20130 11014 0900/ 50101 80140 80003 9/015=
0000016000
237
SSVX02 CWAO 110900
ZZYY 56951 11014 0900/ 331123 111429 6113/ 11119 
40126 57019 22219 00215 444 20130 11014 0900/ 50101 80144 80032 
9/015=
0000012700
238
SSVX02 CWAO 110900
ZZYY 48741 11014 0900/ 174197 157357 6113/ 444 
20130 11014 0900/ 50101 80132 80002 9////=
0000013900
239
SSVX02 CWAO 110900
ZZYY 64726 11014 0900/ 172070 013034 6113/ 22219 
00063 444 20130 11014 0900/ 50101 80138 80002 9////=
0000016000
240
SSVX02 CWAO 110900
ZZYY 56540 11014 0900/ 554160 177427 6113/ 11119 
40002 52004 22219 00116 444 20130 11014 0900/ 50101 80136 80016 
9/015=
0000016000
241
SSVX02 CWAO 110900
ZZYY 56950 11014 0900/ 307916 103136 6113/ 11119 
40066 57023 22219 00294 444 20130 11014 0900/ 50101 80146 80016 
9/015=
0000013900
242
SSVX02 CWAO 110900
ZZYY 64736 11014 0900/ 168573 005635 6113/ 22219 
00066 444 20130 11014 0900/ 50101 80140 80003 9/015=
0000013900
243
SSVX02 CWAO 110900
ZZYY 64727 11014 0900/ 768469 001199 6113/ 22219 
00061 444 20130 11014 0900/ 50101 80138 80005 9/015=
0000013900
244
SSVX02 CWAO 110900
ZZYY 64740 11014 0900/ 766319 011559 6112/ 22219 
00040 444 20130 11014 0900/ 50101 80148 80027 9/015=
0000013900
245
SSVX02 CWAO 110900
ZZYY 64710 11014 0900/ 174736 000040 6113/ 22219 
00004 444 20130 11014 0900/ 50101 80108 80000 9////=
00000000