0000011800
926
SIUR20 UKMS 110900 CCA
AAXX 11091
33345 42598 72805 10052 20003 39890 40094 52019 87500 333
87626=
0000040800
927
SIAJ21 UBBB 110900
AAXX 11091
37575 42999 02302 10082 21041 39609 40194 57004=
37675 42999 00501 10126 21044 39433 40071 57027=
37735 42999 02704 10079 21094 39783 40159 57010=
37749 42998 00901 10057 21013 30055 40173 57027=
37756 42999 02808 10061 21028 39251 40179 57025=
37864 32997 21908 10068 20014 40118 57032 80001=
37985 42597 71401 10063 20016 30177 40163 58027 87500=
0000009400
928
SILV20 UMRR 110900 RRA
AAXX 11091
26416 43/// /2402 10005 21001 40048 52009=
0000012000
929
SILY20 HLMC 110900 RRA
AAXX 11094
62124 32960 21516 10145 20062 39752 40262 51017 82040
  333 82360=
0000064300
930
SINV20 NVVV 110900
AAXX 11093

91551 41598 71305 10281 20253 40068 52017 72528 8427/

333  5639/ 84820 87461=

91553 41598 51212 10265 20246 40074 52012 70222 85200

333  563// 85820=

91554 41598 71012 10285 20240 40074 52019 70222 879//

333  563// 83820 81925 87640=

91555 41598 41310 10274 20232 40080 52016 70282 84200

333  563// 84820=

91557 41598 39902 10244 20214 40091 52016 70222 83800

333  569// 83825=

91565 41598 10000 10225 20202 40095 52013 70121 81200

333  563// 81825=

91568 41598 51008 10260 20204 40104 52010 70222 85200

333  563// 85825=


0000094100
931
SOVX05 LFPW 110916
KKYY 10014 1200/ 144494 138624 88872 84660 20004 30761 43400 20014
30761 43400 20024 30761 43400 20034 30761 43400 20044 30761 43399
20054 30728 43399 20064 30657 43399 20073 30650 43399 20084 30647
43399 20093 30638 43398 20104 30558 43400 20113 30542 43400 20123
30535 43400 20133 30531 43400 20143 30522 43400 20153 30516 43400
20163 30494 43400 20173 30439 43401 20183 30374 43400 20193 30285
43404 20202 30268 43404 20217 30223 43404 20232 30195 43404 20247
30173 43405 20262 30155 43404 20277 30137 43405 20292 30129 43405
20306 30117 43405 20321 30113 43405 20336 30104 43405 20351 30100
43406 20366 30095 43406 20381 30094 43406 20395 30092 43406 20415
30089 43406 20435 30086 43406 20455 30083 43406 20475 30081 43406
20494 30078 43407 20514 30077 43407 20534 30075 43407 20574 30070
43407 20613 30064 43407 20633 30060 43407 20652 30058 43407 20673
30056 43407 Q2900450=
0000010800
932
UANT99 KDDL 110914
ARP THY6 5705N03716W 0914 F350 MS58 235/25 KT
TCJND QXT AOW 110914 J32A
0000011000
933
UANT99 KDDL 110914
ARP BAW204 4656N03014W 0914 F370 MS47 210/45 KT
GVIID QXT AOW 110914 F56A
0000010900
934
UANT99 KDDL 110915
ARP THY12 5541N02405W 0915 F350 MS58 230/62 KT
TCJJO QXT AOE 110915 F32A
0000011000
935
UANT01 CWAO 110915
ARP ETH500 5250N04741W 0914 F340 MS62 292/80 KT
ETAPX QXT AME 110915 F38A
0000011000
936
UANT01 CWAO 110915
ARP KLM256 5301N02952W 0914 F370 MS56 203/53 KT
PHAOD QXT AOE 110915 J07A
0000010900
937
UANT01 CWAO 110915
ARP THY34 5545N04323W 0915 F350 MS59 281/47 KT
TCJJH QXT AOW 110915 F27A
0000003800
938
SIVD21 ESWI 110900
NIL
0000003800
939
SIVA21 ESWI 110900
NIL
0000003800
940
SIVB21 ESWI 110900
NIL
0000034600
941
SIGG40 UGGG 110900
AAXX 11091
37279 42898 71301 10114 20043 30061 40203 52019 87070=
37308 42799 70000 10005 21069 39566 40234 53005 82531=
37531 42599 63302 10032 21043 39480 40215 58020 83550=
37553 42999 23201 10110 21074 39501 40136 57022 80030=
37651 16/// ///00 10100 21067 3//// 4//// 5//// 60007=
37492 NIL=

0000009100
942
SXEO40 EEMH 110900
SEA 1109
26058  3/562=
26115  3/531=
86094  3/542=
0000074600
943
SSVX08 KARS 110914
ZZYY 15002 10014 1200/ 700000 009870 6112/
33311 88872 20001 32733 20020 32727 43504 20040 32398 43592
20060 32021 20080 31765 20100 31648 20120 31578 43568 20140 31503
20180 31397 20300 31050 20500 30705
444 20120 10014 1325/ 521//=
ZZYY 13010 10014 1200/ 700000 000013 6112/
33311 88872 20001 32811 20020 32797 43447 20040 32284 43606
20060 31816 20080 31727 20100 31603 20120 31543 43564 20140 31505
20180 31441 20300 31039 20500 30713
444 20120 10014 1324/ 521//=
ZZYY 15006 10014 1200/ 506029 009995 6111/
33311 88872 20001 32576 20040 32525 43611 20060 32303 20080 32018
20100 31635 20120 31471 43551 20140 31354 20180 31179 20300 30988
20500 30742
444 20110 10014 1323/ 521//=
0000035400
944
SIRE19 FMEE 110900
AAXX 11094
61996 26/// /2715 10201 20099 30186 40220 58001
  333 4//// 60007 90710 91125
  555 60005=
61997 26/// /3419 10085 20084 39812 49986 56047
  333 4//// 60167 90710 91127
  555 60035=
61998 22580 62319 10076 20023 30026 40063 53001 85845
  333 58027 60007 83826 83640 90710 91125
  555 60005=
0000130600
945
SSVX02 LFVW 110915
ZZYY 41652 11014 0910/ 724032 037285 6111/
22219 00235
33311 88872 20000 32347 43600
444 2011/ 11014 0729/ 50101 9/015=
ZZYY 41644 11014 0908/ 730949 039741 6112/
22219 00217
33311 88872 20000 32168 43644
444 2012/ 11014 0730/ 50101 9/015=
ZZYY 13983 11014 0909/ 731337 066239 6113/
22219 00219
33311 88872 20000 32191 43596
444 2013/ 11014 0853/ 50101 9/015=
ZZYY 41647 11014 0910/ 724151 048671 6111/
22219 00244
33311 88872 20000 32442 43668
444 2011/ 11014 0854/ 50101 9/015=
ZZYY 41651 11014 0910/ 729240 048569 6111/
22219 00///
33311 88872 20000 44383
444 2011/ 11014 0853/ 50101 9/015=
ZZYY 41646 11014 0909/ 729256 061103 6111/
22219 00234
33311 88872 20000 32337 43670
444 2011/ 11014 0853/ 50101 9/015=
ZZYY 41648 11014 0910/ 725631 043580 6111/
22219 00233
33311 88872 20000 32334 43740
444 2011/ 11014 0854/ 50101 9/015=
ZZYY 41649 11014 0909/ 733898 031693 6111/
22219 00200
33311 88872 20000 31996 43635
444 2011/ 11014 0731/ 50101 9/015=
ZZYY 41645 11014 0910/ 727981 040082 6111/
22219 00226
33311 88872 20000 32257 43719
444 2011/ 11014 0908/ 50101 9/015=
ZZYY 41650 11014 0910/ 723324 049604 6111/
22219 00247
33311 88872 20000 32467 43747
444 2011/ 11014 0854/ 50101 9/015=
00000000