0000010900
214
UANT99 KDDL 110759
ARP LOT46 6100N02957W 0756 F390 MS57 320/42 KT
SPLRD DDL KEF 110759 L70A
0000011000
215
UANT99 KDDL 110759
ARP BAW23T 5503N02827W 0759 F380 MS57 211/57 KT
GVIIF QXT AOW 110759 F25A
0000011000
216
UANT99 KDDL 110759
ARP UAL46 5333N02523W 0759 F380 MS56 221/64 KT
N78002 DDL XXW 110759 F65A
0000011000
217
UANT99 KDDL 110759
ARP SWR19R 5037N02443W 0759 F390 MS57 212/71 KT
HBJHL QXT AOE 110759 J19A
0000295000
218
UDFR01 LFPW 110800
AMDAR 1107
ASC EU4463 4843N 00219E 110744 F009 PS055 /// 023/003 TB0 S031
333 F009 VG001=
ASC EU4463 4843N 00217E 110744 F018 PS060 /// 311/003 TB1 S031
333 F018 VG052=
ASC EU4463 4842N 00217E 110745 F025 PS050 /// 289/008 TB1 S031
333 F025 VG020=
ASC EU4463 4841N 00216E 110745 F032 PS037 /// 263/006 TB2 S031
333 F032 VG073=
ASC EU4463 4841N 00214E 110745 F035 PS037 /// 259/010 TB0 S031
333 F035 VG014=
ASC EU4463 4840N 00213E 110746 F038 PS042 /// 263/014 TB2 S031
333 F038 VG053=
UNS EU4463 4840N 00211E 110746 F042 PS035 /// 260/013 TB0 S031
333 F042 VG007=
UNS EU4463 4838N 00210E 110746 F049 PS020 /// 283/009 TB1 S031
333 F049 VG026=
ASC EU4463 4837N 00210E 110747 F058 PS000 /// 287/019 TB0 S031
333 F058 VG006=
ASC EU4463 4835N 00211E 110747 F067 MS017 /// 279/022 TB2 S031
333 F067 VG038=
ASC EU4463 4832N 00211E 110748 F085 MS054 /// 270/025 TB0 S031
333 F085 VG008=
ASC EU4463 4831N 00211E 110748 F097 MS067 /// 259/031 TB1 S031
333 F097 VG030=
ASC EU4463 4829N 00211E 110748 F106 MS084 /// 262/030 TB2 S031
333 F106 VG034=
ASC EU4463 4824N 00211E 110749 F118 MS109 /// 273/031 TB0 S031
333 F118 VG005=
ASC EU4463 4822N 00212E 110750 F127 MS124 /// 268/030 TB1 S031
333 F127 VG020=
ASC EU4463 4820N 00212E 110750 F136 MS139 /// 272/027 TB0 S031
333 F136 VG004=
ASC EU4463 4818N 00212E 110750 F142 MS152 /// 279/026 TB1 S031
333 F142 VG013=
ASC EU4463 4816N 00212E 110751 F150 MS159 /// 278/024 TB1 S031
333 F150 VG026=
ASC EU4463 4814N 00213E 110751 F163 MS184 /// 282/022 TB2 S031
333 F163 VG035=
ASC EU4463 4812N 00213E 110751 F173 MS204 /// 296/023 TB1 S031
333 F173 VG024=
ASC EU4463 4810N 00213E 110752 F178 MS222 /// 295/022 TB1 S031
333 F178 VG022=
ASC EU4463 4804N 00213E 110753 F192 MS252 /// 283/026 TB0 S031
333 F192 VG007=
ASC EU4463 4802N 00212E 110753 F199 MS264 /// 275/022 TB1 S031
333 F199 VG010=
ASC EU4463 4800N 00212E 110753 F206 MS277 /// 272/029 TB1 S031
333 F206 VG008=
ASC EU4463 4758N 00211E 110754 F212 MS292 /// 272/033 TB0 S031
333 F212 VG003=
ASC EU4463 4755N 00211E 110754 F218 MS307 /// 272/034 TB0 S031
333 F218 VG003=
ASC EU4463 4753N 00211E 110754 F224 MS319 /// 272/036 TB0 S031
333 F224 VG005=
ASC EU4463 4751N 00211E 110755 F229 MS332 /// 272/035 TB0 S031
333 F229 VG001=
ASC EU4463 4749N 00211E 110755 F234 MS344 /// 273/036 TB0 S031
333 F234 VG003=
ASC EU4463 4746N 00210E 110755 F239 MS357 /// 272/034 TB0 S031
333 F239 VG004=
ASC EU4463 4744N 00210E 110756 F244 MS369 /// 273/034 TB0 S031
333 F244 VG003=
ASC EU4463 4741N 00210E 110756 F249 MS382 /// 273/034 TB0 S031
333 F249 VG001=
ASC EU4463 4739N 00209E 110756 F254 MS394 /// 270/033 TB0 S031
333 F254 VG003=
ASC EU4463 4737N 00209E 110757 F260 MS404 /// 264/033 TB0 S031
333 F260 VG006=
ASC EU4463 4735N 00208E 110757 F264 MS417 /// 266/033 TB0 S031
333 F264 VG006=
0000010000
219
SNVD25 LFPW 110800
BBXX
BAREU12 11084 99405 70737 46/// ///// 40188 57044
22262=
0000011300
220
SAQT31 OTBD 110800
METAR OTBD 110800Z 22005KT 170V250 7000 -RA SCT015 OVC120 16/13 Q1021
NOSIG=
0000038300
221
SABN31 OBBI 110800
METAR OBBI 110800Z 19006KT 9999 -RA FEW020 17/14 Q1020 NOSIG=
METAR OEDF 110800Z 18011KT 9999 SCT030 OVC090  16/11 Q1019 NOSIG=
METAR OEDR 110800Z 19009KT 9999 SCT040 BKN080 17/13 Q1018 NOSIG=
METAR OTBD 110800Z 22005KT 170V250 7000 -RA SCT015 OVC120 16/13 Q1021
NOSIG=
METAR OKBK 110800Z 30009KT 4000 -RA SCT040 OVC080 13/11 Q1018 NOSIG=
0000003800
222
UGZW20 FVHA 110600
NIL
0000003900
223
ULZW01 FVHA 110600
NIL=
0000003900
224
UEZW01 FVHA 110600
NIL=
0000011000
225
UANT01 CWAO 110759
ARP TAY010 5507N02715W 0759 F340 MS57 223/71 KT
OOTSC QXT EUA 110759 F14A
0000015700
226
SSVX13 LFPW 110800
ZZYY 41972 11014 0800/ 734554 040352 6113/ 11119 40233 52011 22219
 00195 444 20130 11014 0800/ 50101 80120 80081 9/015=
0000010000
227
SNVF25 LFPW 110800
BBXX
BAREU66 11084 99361 70045 46/// ///// 40179 52013
22265=
0000011800
228
SNVF25 LFPW 110800
BBXX
BATFR16 11084 99446 70152 46/// /1425 10112 20084 40125 55003
22214 00134=
0000015700
229
SSVX13 LFPW 110800
ZZYY 44773 11014 0800/ 742169 029008 6113/ 11119 40027 52020 22219
 00148 444 20130 11014 0800/ 50101 80118 80005 9/015=
0000015700
230
SSVX13 LFPW 110800
ZZYY 44863 11014 0800/ 739027 038270 6113/ 11119 40189 52020 22219
 00161 444 20130 11014 0800/ 50101 80118 80100 9/015=
0000015700
231
SSVX13 LFPW 110800
ZZYY 41971 11014 0800/ 736025 058683 6113/ 11119 40319 54000 22219
 00205 444 20130 11014 0800/ 50101 80120 80005 9/015=
0000015700
232
SSVX13 LFPW 110800
ZZYY 44874 11014 0800/ 745769 020814 6113/ 11119 40000 57059 22219
 00129 444 20130 11014 0800/ 50101 80118 80006 9/015=
0000018400
233
SSVX13 LFPW 110800
ZZYY 41736 11014 0800/ 711981 040302 6113/ 11119 40140 52002 22219
 00256 33300 88872 20000 43602 444 20130 11014 0800/ 50101 80112
 80027 9/015=
00000000