0000017100
386
FTUS53 KWBC 102221 AAA
TAF AMD
KCNU 102220Z 1022/1118 24010KT P6SM SCT035
     FM110000 27009KT P6SM SCT020 OVC100
     FM111000 28011KT P6SM SKC=

0000043400
387
FTUS80 KWBC 102221 AAA
TAF AMD
KABI 102220Z 1022/1118 28018G28KT P6SM SKC
     FM110000 28007KT P6SM SKC=
KCNU 102220Z 1022/1118 24010KT P6SM SCT035
     FM110000 27009KT P6SM SCT020 OVC100
     FM111000 28011KT P6SM SKC=
KJBR 102220Z 1022/1118 24003KT 2SM -RA BR VCTS SCT005 BKN025CB
     FM110700 24012KT P6SM BKN012 OVC070
     FM111000 25010KT P6SM SCT020
     FM111500 27012G20KT P6SM SCT025=

0000010300
388
FTUS80 KWBC 102221
TAF
TAF PTSA 102215Z 1022/1118 05015KT P6SM VCSH SCT020 SCT130=

0000010200
389
SPUS31 KWBC 102221
SPECI
KPHF 102217Z AUTO 06005KT 3SM -RA BR OVC039 07/04 A3029=

0000009700
390
SPUS31 KWBC 102221
SPECI
KRDU 102217Z 00000KT 1SM -RA BR OVC003 07/06 A3021=

0000016500
391
SAAK31 KWBC 102200 RRA
METAR
PAVD 102216Z 10SM FEW005 FEW020 BKN100 M03/M06 A2938=
PAWG 102216Z 08007KT 10SM FEW012 BKN030 OVC080 03/00 A2961=

0000012400
392
SAAK32 KWBC 102200 RRA
METAR
PADK 102216Z AUTO 23024G34KT 9SM FEW028 BKN039 OVC075 04/M01
     A2894=

0000017800
393
SAMP31 LMMM 102230
METAR HLLT NIL=
METAR HLLB 102220Z
00000KT 9999 SCT020 BKN080 14/11 Q1025 =
METAR LMML 102215Z AUTO 23008KT 200V260 CAVOK 15/12 Q1022=

0000008900
394
SAMP31 LMMM 102230 RRA
METAR HLLT 102220Z
16004KT CAVOK 11/07 Q1024=

0000010600
395
SALT31 EYVI 102220
METAR EYVI 102220Z 28019KT 7000 OVC013 02/00 Q0997 R20/2/0295 NOSIG=

0000035100
396
FTCN35 CWAO 102200 AAA
TAF AMD CYAM 102221Z 1022/1108 VRB03KT 3SM BR OVC010 TEMPO 1022/1024
     2SM BR OVC008
    FM110000 13010KT 6SM BR OVC008 TEMPO 1100/1102 3SM -SN -FZDZ
     OVC005
    FM110200 12012KT 3SM -SN OVC008 TEMPO 1102/1108 2SM -SHSN OVC005
     PROB30 1104/1108 1SM -FZDZ BR
    RMK NXT FCST BY 110200Z=

0000026800
397
FTCN34 CWAO 102200 AAA
TAF AMD CYTL 102221Z 1022/1108 18005KT 5SM -SN OVC015 TEMPO 1022/1104
     P6SM -SN SCT015 OVC025
    FM110400 VRB03KT 3SM -SN OVC015 TEMPO 1104/1108 1SM -SN BR OVC009
    RMK FCST BASED ON AUTO OBS. NXT FCST BY 110200Z=

0000035500
398
SASW31 LSSW 102220
METAR LSZH 102220Z VRB01KT 2000 0400N R14/1100U R16/0800U R28/P2000N
    R34/1200D PRFG SCT002 01/00 Q1019 BECMG 0200 VV001=
METAR LSGG 102220Z 00000KT CAVOK 02/01 Q1019 NOSIG=
METAR LSZB 102220Z AUTO VRB02KT 3700 R14/0800U BR NCD M01/M01 Q1019=
METAR LSZA 102220Z AUTO VRB01KT 9999 SCT041 BKN046 08/06 Q1022=

0000018000
399
FTCN33 CWAO 102200 AAA
TAF AMD CYLK 102221Z 1022/1101 VRB02KT P6SM -SN OVC040 TEMPO
     1022/1101 1SM -SN OVC015
    RMK NXT FCST WILL BE ISSUED AT 111745Z=

0000017200
400
FTCN33 CWAO 102200 AAA
TAF AMD CYSM 102221Z 1022/1106 VRB03KT P6SM -SN SCT020 BKN080 TEMPO
     1022/1106 1SM -SN OVC020
    RMK NXT FCST BY 110000Z=

0000013200
401
SAPA31 KWBC 102200 RRB
METAR
PKWA 102220Z AUTO 06018KT 10SM SCT030 SCT039 29/21 A2983 RMK AO2
     T02940211=

0000011100
402
SPCN51 CWAO 102221
SPECI CWOB 102221Z AUTO 19002KT BKN001 BKN014 OVC018 OVC023 M19/
A2914=

0000011100
403
SPCN47 CWAO 102221
SPECI CYWA 102221Z AUTO 11005KT 9SM FEW008 BKN011 OVC015 M05/M06
A3013=

0000019900
404
SALV32 EVRA 102220
METAR EVLA 102220Z AUTO 29010KT 260V320 9999 SCT018 BKN026 OVC032 
03/M01 Q1001=
METAR EVVA 102220Z AUTO 31015G27KT 9999 BKN017 BKN024 OVC030 03/01 
Q0999=

0000015700
405
SADN33 EKCH 102220
METAR EKKA 102220Z 24012KT 9999 FEW012 BKN033 06/05 Q1006=
METAR EKSP 102220Z 25011KT 9999 FEW018 SCT035 05/04 Q1008=

00000000