0000028300
166
SAAP32 FAPR 110000
METAR FABL 110000Z AUTO 17003KT //// // ////// 17/10 Q1018=
METAR FACT 110000Z 19010KT 9999 FEW030 17/12 Q1017 NOSIG=
METAR FALE 110000Z 22004KT 180V250 9999 -RA BKN022 21/19 Q1015 NOSIG=
METAR FAOR 110000Z 21006KT CAVOK 19/08 Q1021 NOSIG=

0000022300
167
SASP40 LEMM 110000
METAR LEGA 110000Z NIL=
METAR LEGT 110000Z NIL=
METAR LEMO 110000Z 00000KT CAVOK 09/08 Q1015
NOSIG=
METAR LERI 110000Z NIL=
METAR LERT 110000Z 08007KT CAVOK 13/10 Q1014 NOSIG=

0000021600
168
SASP41 LEMM 110000
METAR LEAO 110000Z NIL=
METAR LEBT 110000Z NIL=
METAR LECV 110000Z NIL=
METAR LEEC 110000Z NIL=
METAR LELO 110000Z 07003KT 040V100 0500 R29/1900N FG OVC002 04/04
Q1018=

0000010600
169
SACN62 CYQB 110000
METAR CYQB 110000Z 19002KT 10SM OVC017 M09/M11 A3026 RMK SC8 SLP256=

0000012700
170
SACN62 CYQT 110000
METAR CYQT 110000Z 07004KT 3SM -SN BR OVC008 M04/M04 A2962 RMK SF8
 VIS VRB 2-4 SLP042=

0000012800
171
SACN62 CYRL 110000
METAR CYRL 110000Z 14006KT 2 1/2SM -SN BR OVC008 M06/M07 A2941 RMK
 SN5SC3 /S02/ SLP983=

0000012500
172
SACN62 CYQK 110000
METAR CYQK 110000Z 17010KT 1 1/2SM -SN BR OVC008 M05/M06 A2940 RMK
 SC8 /S02/ SLP983=

0000013200
173
SACN62 CYQX 110000
METAR CYQX 110000Z 24016G27KT 20SM FEW030 SCT120 BKN140 M08/M12 A3006
 RMK SC1AC2AC4 SLP191=

0000010600
174
SACN62 CYVO 110000
METAR CYVO 110000Z 18009KT 12SM OVC010 M05/M06 A2996 RMK ST8 SLP173=

0000010200
175
SACN62 CYRT 110000
METAR CYRT 110000Z 36008KT 15SM IC SKC M33/M37 A2971 RMK SLP067=

0000012600
176
SACN62 CYWL 110000
METAR CYWL 110000Z 11008KT 15SM BKN070 OVC100 M02/M05 A2971 RMK
 AC7AC1 PRESFR SLP100=

0000011900
177
SACN62 CYXE 110000
METAR CYXE 110000Z 26007KT 15SM BKN026 BKN120 M06/M08 A2950 RMK
 SC5AC2 SLP025=

0000010600
178
SACN62 CYXJ 110000
METAR CYXJ 110000Z 24014KT 15SM SCT220 M05/M11 A2948 RMK CI4 SLP034=

0000010400
179
SACN62 CYSN 110000
METAR CYSN 110000Z 19002KT 15SM OVC028 03/01 A3006 RMK SC8 SLP183=

0000012900
180
SACN62 CYTS 110000
METAR CYTS 110000Z 20010G16KT 15SM -SN OVC013 M02/M05 A2984 RMK SC8
 PCPN VRY LGT SLP125=

0000018200
181
SACN62 CYUX 110000
METAR CYUX 110000Z 32017KT 4SM IC DRSN BKN140 OVC220 M31/M34 A2935
 RMK AS5CS3 -31.1/-25.4/0.0/0 LAST STFD OBS/NXT 111200Z WND ESTD
 SLP939=

0000019100
182
SAIY33 LIIB 110000
METAR LIMA 110000Z NIL=
METAR LIMG 110000Z NIL=
METAR LIMP 110000Z NIL=
METAR LIMS 110000Z NIL=
METAR LIMW 110000Z NIL=
METAR LIMZ 110000Z NIL=

0000026800
183
SAIY34 LIIB 110000
METAR LIPC 102355Z /////KT 1400 0700 R11/1500D BCFG SCT003 BKN010
      08/06 Q1022=
METAR LIPF 110000Z NIL=
METAR LIPO 102350Z 04002KT 4000 BR BKN040 08/07 Q1022=
METAR LIPY 102350Z 34003KT 9999 FEW015 BKN045 10/09 Q1022=

0000015600
184
SATD31 TTPP 110000
METAR
TTPP 110000Z 00000KT 9999 FEW018 25/20 Q1013 NOSIG=
TTCP 110000Z 00000KT 9999 FEW016 24/20 Q1014 RESH NOSIG=

0000032200
185
SAIY35 LIIB 110000
METAR LIQN 110000Z NIL=
METAR LIQW 110000Z NIL=
METAR LIRG 110000Z NIL=
METAR LIRH 110000Z NIL=
METAR LIRL 110000Z NIL=
METAR LIRM 102355Z 35004KT 4000 BR BKN060 10/09 Q1021=
METAR LIRS 102355Z /////KT CAVOK 08/05 Q1022=
METAR LIRU 110000Z NIL=
METAR LIRV 110000Z NIL=

00000000