0000010600
226
SACN62 CYUL 110000
METAR CYUL 110000Z 01006KT 10SM OVC024 M07/M09 A3025 RMK SC8 SLP245=

0000012700
227
SACN62 CYQR 110000
METAR CYQR 110000Z 32004KT 1/8SM R13/1600FT/N FZFG VV002 M08/M09
 A2950 RMK FG8 SLP027=

0000010500
228
SACN62 CYGK 110000
METAR CYGK 110000Z 14006KT 10SM OVC022 01/M01 A3016 RMK ST8 SLP219=

0000011800
229
SACN62 CYKA 110000
METAR CYKA 110000Z 00000KT 30SM SCT062 OVC120 00/M01 A2985 RMK SC4AC4
 SLP127=

0000011900
230
SACN62 CYQM 110000
METAR CYQM 110000Z 22008KT 15SM FEW055 SCT200 M05/M08 A3028 RMK
 SC2CI1 SLP259=

0000011900
231
SACN62 CYSJ 110000
METAR CYSJ 110000Z 24010KT 15SM BKN013 OVC020 M01/M04 A3030 RMK
 SC6SC2 SLP269=

0000012700
232
SACN62 CYQU 110000
METAR CYQU 110000Z 26018G26KT 25SM DRSN FEW120 BKN220 M02/M09 A2954
 RMK AC2CI4 SLP039=

0000012200
233
SACN62 CYUY 110000
METAR CYUY 110000Z 19011G16KT 2 1/2SM -SN BR OVC004 M04/M04 A2994 RMK
 SF8 SLP159=

0000041200
234
SAJP31 RJTD 110000
METAR RJAA 110000Z 31004KT 9999 FEW025 01/M07 Q1024 NOSIG=
METAR RJBB 110000Z 29009KT 240V320 9999 FEW025 05/M03 Q1029 NOSIG=
METAR RJTT 110000Z 03005KT 360V070 9999 FEW060 03/M06 Q1025 NOSIG=
METAR RJOO 110000Z 33004KT 9999 FEW025 03/M05 Q1029=
METAR ROAH 110000Z 04009KT 010V080 9999 FEW025 16/07 Q1028=
METAR RJGG 110000Z 28014KT 9999 FEW020 05/M02 Q1028 NOSIG=

0000169000
235
SAUS71 KWBC 110000
METAR
KABE 102351Z 00000KT 1 1/2SM BR OVC005 01/M01 A3031=
KACK 102353Z 15009KT 10SM OVC018 04/02 A3038=
KACY 102354Z 00000KT 1/2SM FG VV003 05/05 A3031=
KAGC 102353Z 10003KT 10SM CLR 07/06 A3007=
KAGS 102353Z 34005KT 2SM BR OVC006 09/09 A3012=
KAKR 102354Z AUTO 14007KT 1SM BR OVC002 04/04 A2999=
KALB 102351Z 17006KT 10SM SCT044 OVC065 01/M03 A3030=
KAND 102356Z AUTO 05005KT 5SM BR OVC004 08/08 A3013=
KAOO 102353Z AUTO 07003KT 6SM BR BKN014 00/M02 A3018=
KAPG NIL=
KART 102356Z AUTO 15003KT 10SM OVC029 03/M01 A3016=
KAVL 102354Z 19003KT 2 1/2SM BR OVC003 07/07 A3013=
KAVP 102354Z 19005KT 9SM SCT012 01/M01 A3024=
KBAF 102353Z 27003KT 5SM BR SCT046 OVC080 M02/M03 A3034=
KBDL 102351Z 19004KT 4SM BR FEW013 OVC021 01/M01 A3034=
KBDR 102352Z 01003KT 1 1/4SM BR OVC005 01/01 A3035=
KBED 102356Z 20005KT 7SM OVC012 01/00 A3034=
KBFD 102353Z AUTO 14007KT 1/2SM FG VV002 02/01 A3009=
KBGM 102353Z 15005KT 8SM OVC008 01/M01 A3018=
KBGR 102353Z 00000KT 10SM OVC070 M04/M08 A3033=
KBKL 102353Z 15015G22KT 8SM BKN007 05/04 A2996=
KBKW 102351Z AUTO 14011KT 10SM BKN006 08/06 A3006=
KBOS 102354Z 21006KT 5SM BR FEW010 BKN015 OVC026 02/01 A3036=
KBTV 102354Z 18008KT 10SM OVC075 01/M04 A3025=
KBUF 102354Z 17005KT 10SM FEW019 SCT029 SCT050 OVC180 03/02
     A3006=
KBVY 102353Z 22005KT 6SM BR OVC010 02/00 A3036=
KBWI 102354Z 00000KT 1SM R10/2400VP6000FT -RA BR OVC003 02/02
     A3029=
KCAE 102356Z 00000KT 3SM SCT007 BKN015 OVC037 09/09 A3014=
KCAK 102351Z 15006KT 1/8SM FG VV004 05/05 A3000=
KCAR 102354Z AUTO 18004KT 10SM CLR M10/M16 A3022=
KCEF 102358Z 00000KT 4SM BR OVC006 M01/M01 A3033=

0000170200
236
SAUS71 KWBC 110000 RRA
METAR
KCHO 102353Z 00000KT 2SM -RA BR BKN003 OVC006 02/01 A3025=
KCHS 102356Z 17003KT 10SM FEW035 BKN070 BKN250 18/16 A3014=
KCKB 102353Z 00000KT 10SM CLR 07/06 A3004=
KCLE 102351Z 16012KT 6SM BR OVC005 05/03 A2999=
KCLT 102352Z 02004KT 10SM OVC005 06/06 A3017=
KCMH 102351Z 13011KT 10SM OVC022 08/06 A2995=
KCRW 102354Z 08004KT 10SM FEW075 BKN160 BKN230 10/08 A3000=
KCVG 102352Z 14011KT 10SM SCT019 OVC025 09/08 A2987=
KDAN 102353Z AUTO 00000KT 6SM BR OVC003 04/03 A3023=
KDAY 102356Z 15011KT 1/4SM BR OVC002 07/06 A2989=
KDCA 102352Z COR 06005KT 1 1/2SM -DZ BR OVC010 03/02 A3030=
KDCA 102352Z 06005KT 1 1/2SM -DZ BR OVC010 03/02 A3030=
KDUJ 102356Z AUTO 13008KT 2 1/2SM BR OVC002 03/02 A3010=
KECG 102354Z 12005KT 10SM FEW080 OVC100 12/10 A3028=
KEKN 102351Z AUTO 16007KT 10SM OVC060 11/06 A3009=
KELM 102353Z 07003KT 7SM OVC013 03/M01 A3019=
KERI 102351Z 16010G17KT 10SM OVC060 05/03 A3003=
KEWB 102353Z 00000KT 1SM R05/2600V4000FT -RA BR OVC002 04/04
     A3036=
KEWN 102354Z 14003KT 10SM SCT033 BKN041 17/14 A3023=
KEWR 102351Z 01004KT 1SM R04R/P6000FT -DZ BR OVC003 01/01
     A3034=
KFAY 102353Z AUTO 34004KT 3SM -RA BR SCT020 BKN032 OVC075 13/12
     A3017=
KFLO 102353Z 14006KT 8SM BKN008 OVC019 18/17 A3013=
KFRG 102353Z 00000KT 3/4SM BR OVC004 02/02 A3034=
KFVE 102353Z AUTO 19007KT 10SM OVC110 M08/M15 A3017=
KGFL 102353Z AUTO 00000KT 6SM BR OVC036 M02/M04 A3029=
KGON 102356Z 00000KT 1SM R05/P6000FT BR OVC004 02/02 A3035=
KGSO 102354Z 03005KT 4SM -RA BR OVC002 03/03 A3018=
KGSP 102353Z 02005KT 1 1/4SM BR OVC002 08/08 A3013=
KHFD 102353Z 00000KT 4SM BR SCT007 OVC012 01/00 A3036=

0000012300
237
SACN62 CYVQ 110000
METAR CYVQ 110000Z 31004KT 20SM -SN BKN080 BKN270 M26/M29 A2976 RMK
 AC5CI2 SLP090=

0000012800
238
SACN62 CYVT 110000
METAR CYVT 110000Z 32014KT 10SM -SN DRSN BKN006 OVC015 M11/M13 A2942
 RMK SC6SC2 SLP995=

0000171000
239
SAUS71 KWBC 110000 RRB
METAR
KHKY 102353Z 08003KT 2 1/2SM BR OVC003 06/06 A3016=
KHPN 102356Z 00000KT 1SM R16/P6000FT -DZ BR VV003 01/M01 A3032=
KHTS 102351Z 10005KT 10SM FEW050 09/08 A2997=
KHVN 102353Z 00000KT 1SM R02/4500V6000FT BR OVC004 02/01 A3035=
KHYA 102356Z 19004KT 3SM -RA BR OVC009 03/03 A3038=
KIAD 102352Z 00000KT 3/4SM R01R/P6000FT -DZ BR OVC005 02/01
     A3029=
KIAG 102353Z 19003KT 10SM FEW022 OVC130 03/01 A3006=
KILG 102351Z AUTO 04005KT 1 1/4SM -RA BR OVC003 03/02 A3032=
KILM 102353Z AUTO 13007KT 10SM SCT027 OVC034 20/17 A3018=
KINT 102354Z 05003KT 2 1/2SM -RA BR OVC003 03/03 A3019=
KIPT 102354Z 06005KT 6SM HZ OVC016 01/M02 A3026=
KISP 102356Z 00000KT 1/8SM R06/2000V3500FT -DZ FG OVC004 03/02
     A3032=
KJFK 102351Z 01003KT 1/2SM R04R/4000V4500FT -RA BR OVC003 03/02
     A3035=
KJST 102354Z AUTO 14005KT 10SM CLR 02/00 A3010=
KLBE 102350Z 00000KT 10SM BKN130 07/06 A3009=
KLCK 102355Z AUTO 13008KT 10SM OVC021 08/06 A2995=
KLEB 102353Z 17003KT 10SM SCT028 OVC070 M04/M06 A3029=
KLGA 102351Z 05005KT 1 1/2SM -DZ BR OVC005 01/M01 A3034=
KLUK 102353Z 18004KT 10SM OVC024 09/07 A2991=
KLWM 102354Z 21004KT 7SM OVC013 01/M02 A3036=
KLYH 102354Z 02006KT 2SM -RA BR BKN003 OVC008 02/02 A3023=
KMDT 102356Z 00000KT 2SM -RA BR OVC005 01/M01 A3028=
KMFD 102352Z 15010KT 1/2SM FG VV002 04/04 A2995=
KMGW 102353Z 00000KT 9SM CLR 08/06 A3005=
KMHT 102353Z 00000KT 6SM BR SCT015 BKN080 M02/M04 A3032=
KMIV 102354Z AUTO 00000KT 1/2SM -RA FG BKN003 OVC020 04/04
     A3031=
KMMU NIL=
KMRB 102353Z 00000KT 1 1/4SM BR OVC004 02/00 A3025=
KMSS 102353Z AUTO 07005KT 10SM OVC022 M03/M07 A3021=
KMTN NIL=
KMYR NIL=

0000011300
240
SACN62 CYVC 110000
METAR CYVC 110000Z 30005KT 12SM -SN OVC012 M06/M07 A2938 RMK SC8
 SLP976=

0000072000
241
SAJP32 RJTD 110000
METAR RJFF 110000Z 16006KT 9999 FEW035 SCT040 BKN050 04/M03 Q1031=
METAR RJCC 110000Z 20005KT 9999 -SHSN FEW015 SCT040 BKN070 M07/M11
           Q1018=
METAR RJFK 110000Z 36002KT 9999 FEW035 SCT060 01/M05 Q1030=
METAR RJSN 110000Z 29010KT 9999 -SHSN FEW020 SCT030 BKN040 02/M04
           Q1025=
METAR RJFT 110000Z 06003KT 9999 SCT060 03/M02 Q1030=
METAR RJFU 110000Z 13004KT 9999 FEW040 BKN070 05/01 Q1031=
METAR RJCH 110000Z 31004KT 8000 -SHSN FEW005 SCT015 BKN025 M06/M09
           Q1020=
METAR RJSS 110000Z 23008KT 9999 FEW020 01/M07 Q1023=
METAR RJOA 110000Z 30006KT 9999 FEW020 SCT030 00/M05 Q1029=
METAR RJOB 110000Z 28007KT 9999 FEW020 01/M03 Q1029=

0000011100
242
SACN62 CYWG 110000
METAR CYWG 110000Z 24004KT 6SM BR OVC013 M05/M07 A2940 RMK SC8
 SLP972=

0000166600
243
SAUS71 KWBC 110000 RRC
METAR
KNKT 102354Z AUTO 13007KT 10SM FEW034 FEW042 17/14 A3023=
KOQU 102350Z 09003KT 1/2SM FG VV002 00/00 A3037=
KORF 102351Z AUTO 00000KT 4SM BR BKN085 OVC110 06/06 A3027=
KORH 102354Z 21007KT 1/4SM R11/1800V2400FT FG VV002 00/00
     A3031=
KPHF 102354Z AUTO 10005KT 3SM -RA BR FEW080 BKN110 07/05 A3026=
KPHL 102354Z 05005KT 1 1/4SM -RA BR OVC004 02/01 A3033=
KPIT 102351Z 12004KT 10SM BKN009 OVC060 06/05 A3006=
KPKB 102353Z 09004KT 10SM CLR 08/07 A3004=
KPLB NIL=
KPOU 102353Z 00000KT 6SM HZ FEW015 BKN021 OVC032 01/M02 A3033=
KPQI 102355Z AUTO 00000KT 10SM CLR M10/M17 A3025=
KPSM 102358Z 28002KT 4SM BR FEW015 BKN085 M02/M02 A3034=
KPVD 102351Z 00000KT 1SM R05/5000VP6000FT -DZ BR OVC006 01/00
     A3037=
KPWM 102351Z 23003KT 10SM SCT080 OVC095 M02/M04 A3033=
KRDG 102354Z 00000KT 1 1/4SM -RA BR OVC004 01/M01 A3030=
KRDU 102351Z 02005KT 1SM RA BR OVC003 07/06 A3019=
KRIC 102354Z 12003KT 2SM -RA BR OVC003 04/04 A3025=
KROA 102354Z 00000KT 1SM BR OVC003 03/03 A3023=
KROC 102354Z 14005KT 10SM SCT022 OVC032 04/01 A3012=
KRWI 102353Z AUTO VRB03KT 6SM -RA BR SCT080 BKN100 OVC120 11/11
     A3022=
KSAV 102353Z 13009KT 4SM BR BKN006 OVC011 18/17 A3013=
KSBY 102354Z 10004KT 1 1/4SM BR FEW065 OVC090 07/06 A3029=
KSCH 102350Z 00000KT 10SM SCT031 BKN042 BKN065 01/M02 A3029=
KSLK 102351Z AUTO 22007KT 8SM FEW022 OVC055 M02/M03 A3014=
KSWF NIL=
KSYR 102354Z 05006KT 10SM OVC055 02/M01 A3018=
KTEB 102351Z 36003KT 1 1/2SM BR OVC003 02/00 A3034=
KTOL 102352Z 13006KT 1/4SM BR OVC002 02/02 A2988=
KTTN 102353Z 02004KT 3/4SM BR OVC002 01/M01 A3032=
KUCA NIL=

0000014700
244
SACN62 CYXT 110000
METAR CYXT 110000Z 04003KT 8SM -DZ FEW005 BKN009 BKN020 OVC055 01/01
 A2960 RMK SF1SF4SC2SC1 PRESFR SLP034=

0000010600
245
SACN62 CYYE 110000
METAR CYYE 110000Z 33004KT 15SM BKN050 M15/M18 A2953 RMK SC5 SLP034=

00000000