0000009400
166
SICI22 BABJ 110900 RRB
AAXX 11091
59134 32962 01103 10167 20114 40224 57008=
0000016500
167
SICI21 BABJ 110900 RRB
AAXX 11091
51243 32965 02502 11166 21210 40449 57013 333 05302=
51463 31956 00901 11137 21183 40402 57010 70500 333 05457=
0000015700
168
SICI22 BABJ 110900 RRC
AAXX 11091
58752 31756 82901 10108 20058 40270 57003 70500 88///=
59758 32475 20705 10218 20178 40192 57005 82///=
0000032800
169
SICI23 BABJ 110900 RRC
AAXX 11091
51431 32980 50901 10009 21136 40307 57030 85/// 333 06003=
53614 32962 03203 10003 21213 40379 52009 333 00403=
53845 32968 70405 10000 21222 40360 52002 87/// 333 00301=
57127 32961 82701 10067 20004 40311 57003 88///=
57131 32960 82204 10068 21124 40323 57007 88///=
0000010600
170
SICI22 BABJ 110900 RRD
AAXX 11091
58457 41918 80202 10061 20052 40293 52002 76065 88///=
0000023900
171
SICI23 BABJ 110900 RRD
AAXX 11091
53646 32975 02905 11005 21233 40352 52001 333 00202=
54161 32965 02503 11098 21185 40268 52002=
54292 32975 02205 11065 21208 40244 57011=
54374 32965 03601 11110 21170 40294 57009=
0000016100
172
SICI21 BABJ 110900 RRC
AAXX 11091
51288 32980 20202 11081 21188 38413 57009 82/// 333 00005=
54337 42959 71101 11018 21094 40274 57003 87///=
0000015700
173
SICI22 BABJ 110900 RRE
AAXX 11091
59287 31965 22501 10212 20112 40207 57011 70500 82///=
59316 32762 50903 10165 20116 40227 57006 85///=
0000010400
174
SICI23 BABJ 110900 RRE
AAXX 11091
52203 32980 01401 11026 21195 40440 57011 333 00403=
0000019800
175
SAIN35 VIDP 110900
METAR VAUD 110900Z 02008KT 3000 HZ NSC 18/04 Q1018=
METAR VIBR 110900Z 00000KT 7000 FEW035 12/05 Q1018=
METAR VIDN 110900Z 20005KT 6000 SCT030 BKN040 18/07 Q1017=

0000016300
176
SIIN90 VICH 110900
AAXX 11094
42105 31996 13203 10186 20061 40181 70510 80001
  333 58017=
00010 32996 02706 10187 20068 40178
  333 58022=
0000013400
177
SIIN90 VEGK 110900
AAXX 11094
42379 21595 70903 10176 20130 40153 72096 85510
  333 56590 58004 6003/ 85625 87458=
0000009200
178
SAIN90 VECC 110920
METAR VECC 110920Z 35006KT 2800 FU NSC 26/13 Q1014 NOSIG=
0000011000
179
SICI21 BABJ 110900 RRD
AAXX 11091
51709 32970 20401 11020 21115 40415 57023 82/// 333 00300=
0000020800
180
SICI22 BABJ 110900 RRF
AAXX 11091
57494 31557 80000 10050 20020 40303 52002 71000 88///=
58102 32962 01601 10077 21088 40300 57005=
58150 31948 20903 10032 21003 40309 57002 70500 82///=
0000010400
181
SICI23 BABJ 110900 RRF
AAXX 11091
51747 32970 02901 11019 21157 40462 57012 333 00403=
0000014500
182
SICI21 BABJ 110900 RRE
AAXX 11091
53588 32980 02709 11104 21254 37791 52004=
54497 41958 01401 11032 21107 40284 57009 71000=
0000010600
183
SICI22 BABJ 110900 RRG
AAXX 11091
58221 31955 31102 10054 20013 40304 52001 70500 83///=
0000011000
184
SICI23 BABJ 110900 RRG
AAXX 11091
53564 41959 03201 11024 21207 40374 52004 70500 333 00203=
0000027900
185
SICI21 BABJ 110900 RRF
AAXX 11091
51573 32970 01401 11048 21183 40447 57018 333 00400=
52983 32980 83401 11036 21227 38194 52003 88/// 333 00751=
54511 31945 72201 10019 21147 40281 57002 70500 87///=
57083 31913 70000 10061 21033 40290 57014 70500 87///=
00000000