0000041100
266
SARA33 RUMS 102300
METAR UIAA 102300Z 03005MPS 9999 FEW100 M25/M30 Q1025 NOSIG RMK
QFE710 29CLRD70=
METAR UIBB 102300Z 08002MPS 5000 BR SCT007 M22/M25 Q1028 NOSIG RMK
QFE727/0970 30490240=
METAR UIII 102300Z 04002MPS 9999 SCT020 BKN200 M20/M23 Q1031 NOSIG
RMK QFE728/0971 30490340=
METAR UIUU 102300Z 16002MPS 5000 -SN SCT033 OVC100 M15/M17 Q1029
NOSIG RMK QFE727/0969 26450545=

0000012700
267
SARA31 RUMS 102300
METAR UEEE 102300Z 00000MPS 2400 -SN BR OVC200 M44/M48 Q1035 NOSIG
RMK QFE767 23490145=

0000096700
268
SARS32 RUMS 102300
METAR URKA 102300Z 19010G15MPS 9999 SCT017 09/07 Q1010 RMK
QFE754/1005=
METAR URKK 102300Z 21008G11MPS CAVOK 09/M00 Q1010 TEMPO 22010G15MPS
RMK QFE754 SC065=
METAR URML 102300Z 19003MPS 9999 SKC M01/M02 Q1015 NOSIG RMK
QFE761/1015 SC070=
METAR URMM 102300Z 28003MPS 6000 SCT160 M04/M05 Q1012 12CLRD70 NOSIG
RMK QFE731/0975=
METAR URMN 102300Z 19003MPS 9999 FEW260 03/M07 Q1012 NOSIG RMK QFE722
SC06=
METAR URMO 102300Z NIL=
METAR URMT 102300Z 19004MPS CAVOK 00/M01 Q1010 NOSIG RMK QFE719
SC0.60=
METAR URRR 102300Z 23008G11MPS 9999 OVC014 07/05 Q1007 22290045 TEMPO
24010G15MPS=
METAR URSS 102300Z 04004G07MPS 9999 SCT230 03/M02 Q1016 NOSIG RMK
R06/08001MPS QFE760 02000070 06//////=
METAR URWA 102300Z 20003MPS 9999 OVC040 03/M01 Q1015 NOSIG RMK
QFE763/1018 SC055=
METAR URWI 102300Z NIL=
METAR URWW 102300Z 20008MPS 3000 -RA BR SCT013 OVC100 02/02 Q1008
TEMPO 1000 OVC004 RMK 29290060=

0000093600
269
SACI32 ZBBB 102300
METAR ZGKL 102300Z VRB01MPS 1500 -RA BR FEW005 OVC026 07/06 Q1026
NOSIG=
METAR ZGNN 102300Z 05002MPS 2500 BR FEW008 SCT011 OVC020
13/11
Q1022 NOSIG=
METAR ZGOW 102300Z VRB01MPS 3200 BR NSC 12/10 Q1026 NOSIG=
METAR ZGSZ 102300Z 07002MPS 4000 BR NSC 13/10 Q1024 NOSIG=
METAR ZLXY 102300Z 29001MPS 2700 BR NSC M05/M08 Q1031 NOSIG=
METAR ZMUB 102300Z VRB01MPS 5000NW FU NSC M34/M38 Q1026 NOSIG
RMK
QFE661.3 65 NT=
METAR ZPPP 102300Z 21005MPS CAVOK 04/00 Q1022 NOSIG=
METAR ZSAM 102300Z 28001MPS 9999 BKN030 14/09 Q1026 NOSIG=
METAR ZSFZ 102300Z VRB02MPS 9999 OVC027 11/05 Q1027 NOSIG=
METAR ZSNB 102300Z 00000MPS 2500 -RA BR BKN030 05/04 Q1031 NOSIG=
METAR ZSQD 102300Z 00000MPS 2500 BR NSC M04/M06 Q1033 BECMG TL0020
1400=
METAR ZUGY 102300Z VRB01MPS 8000 -DZ FEW003 BKN010 OVC026
01/00
Q1025 NOSIG=
METAR ZUUU 102300Z 00000MPS 5000 BR SCT050 05/02 Q1028 NOSIG=

0000016500
270
SATH41 VTBB 102300
METAR VTPB 102300Z NIL=
METAR VTPM 102300Z NIL=
METAR VTSE 102300Z NIL=
METAR VTSK 102300Z NIL=
METAR VTUJ 102300Z NIL=

0000054500
271
SARA36 RUMS 102300
METAR UWUU 102300Z 15002MPS 4500 BR OVC010 M02/M03 Q1007 14650440
TEMPO 1000 SN FZRA BKN003 RMK QFE745/0993=
METAR USCC 102300Z 15004MPS 3000 -SHSN BR SCT010CB OVC070 M06/M07
Q1010 09490350 TEMPO 1100 SHSN BKN005 RMK QFE737=
METAR USNN 102300Z 00000MPS 9999 -SN OVC016 M13/M14 Q1018 NOSIG RMK
QFE759 03420332=
METAR USRR 102300Z 07002MPS 7000 FEW010 BKN044 M27/M30 Q1018 NOSIG
RMK QFE758 07////35=
METAR USSS 102300Z 11002MPS 3900 -SN BKN012 OVC067 M05/M07 Q1008
08590230 NOSIG RMK QFE736=

0000009700
272
SASB31 VCRI 102310
METAR VCRI 102310Z 34002KT 9000 FEW016   22/20 Q1011 NOSIG=

0000013800
273
SARA35 RUMS 102300
METAR USCM 102300Z VRB02MPS 5000 -SN OVC023 M07/M08 Q1008 TEMPO 1000
BR VV003 19490532 RMK QFE718=

0000050200
274
SARS33 RUMS 102300
METAR ULLI 102300Z 35006MPS 320V020 9999 -SNRA FEW010 OVC016 M01/M03
Q0986 28550540 78////// NOSIG RMK 28L/35006G09MPS=
METAR UUBW 102300Z 20005MPS 9999 OVC010 04/02 Q0987 NOSIG=
METAR UUDD 102300Z 24003MPS 9999 BKN009 04/03 Q0987 64290195 NOSIG=
METAR UUDL 102300Z NIL=
METAR UUEE 102300Z 20004MPS 9999 OVC009 03/02 Q0986 75290151 25290151
NOSIG=
METAR UUWW 102300Z 20004MPS 9999 BKN049 OVC100 03/02 Q0986 24290045
NOSIG=
METAR UUMO 102300Z NIL=

0000093500
275
SARS35 RUMS 102300
METAR USPP 102300Z 14004MPS 7000 SCT011 BKN086 M07/M08 Q1007 21350139
NOSIG RMK QFE744/0993=
METAR UWKD 102300Z 17006G09MPS 5000 BR OVC003 M00/M00 Q1003
R11/2/0050 TEMPO OVC003 RMK QFE742/0989=
METAR UWKE 102300Z 20003MPS 1400 R21/P1500 BR OVC002 M04/M05 Q1005
NOSIG RMK  QBB070 QFE737/0983 21420542=
METAR UWKS 102300Z 16006MPS 2700 BR OVC002 M00/M01 Q0999 NOSIG RMK
QBB080 QFE735 24290250=
METAR UWLW 102300Z 18004G07MPS 5000 BR OVC008 00/M00 Q1004 20820550
NOSIG RMK QFE747=
METAR UWOR 102300Z 18004MPS 9999 SCT020 OVC100 M02/M03 Q1009 25450245
NOSIG RMK QFE733/0978=
METAR UWOO 102300Z 19001MPS 0300 R08/0800N FZFG VV002 M01/M02 Q1009
08590332 NOSIG RMK QBB070 QFE746/0995=
METAR UWSS 102300Z 18005MPS 2000 BR OVC003 00/M00 Q1005 1219//55
TEMPO 1500 BR RMK QFE742=
METAR UWWW 102300Z 19004MPS 9999 OVC005 M00/M01 Q1006 23520540
33//99// NOSIG RMK QFE743/0991=

0000028800
276
SARS31 RUMS 102300
METAR ULWC 102300Z NIL=
METAR UUBP 102300Z NIL=
METAR UUOB 102300Z 25006MPS 7000 OVC008 02/02 Q0999 29290050 NOSIG=
METAR UUOK 102300Z NIL=
METAR UWGG 102300Z 17006MPS 4400 -SN OVC006 01/01 Q0991 TEMPO 1000
SHSNRA VV004 18690540 RMK QFE737=

0000097000
277
SARA34 RUMS 102300
METAR UNAA 102300Z 22005MPS CAVOK M04/M09 Q1030 NOSIG RMK QFE749
20090040=
METAR UNBB 102300Z 21004MPS 9000 -SN BKN015 M09/M11 Q1030 NOSIG RMK
QFE750/1000 24400545=
METAR UNEE 102300Z 18006MPS 1800 SN OVC008 M08/M09 Q1026 NOSIG RMK
QFE747 23452045=
METAR UNKL 102300Z 22003MPS 9000 -SHSN SCT033CB OVC083 M07/M11 Q1026
NOSIG RMK QFE743 29////50=
METAR UNNT 102300Z 21006MPS 9999 -SHSN DRSN FEW021 OVC047CB M07/M10
Q1027 25390139 16390136 NOSIG RMK QFE760/1014=
METAR UNOO 102300Z 21005MPS 6000 -SHSN SCT020 BKN033CB M06/M09 Q1022
25390137 NOSIG RMK QFE758=
METAR UNTT 102300Z 21007MPS 1600 SHSN SCT003 BKN016CB OVC066 M07/M08
Q1024 NOSIG RMK QBB100 QFE753 21390032=
METAR USTR 102300Z 17004MPS 9999 -SHSN BKN010CB OVC050 M04/M04 Q1012
TEMPO 1500 SHSN BKN005 RMK QFE750/1000 21390050 12750029=
METAR USHH 102300Z 03002MPS 9999 -SN BKN008 OVC080 M21/M24 Q1016
TEMPO 2000 SN BKN005 RMK QFE758 06////37=

0000064200
278
SARS36 RUMS 102300
METAR ULAA 102300Z 07007G10MPS 4800 -BLSN OVC007 M17/M20 Q1002 TEMPO
0600 SN BLSN OVC005 RMK QFE750/1001 SC050=
METAR ULMM 102300Z 00000MPS 9000 BKN003 M33/M37 Q1017 NOSIG RMK
QBB090 OBST OBSC QFE755 31450239=
METAR ULOO 102300Z NIL=
METAR ULPB 102300Z AUTO 01006MPS 1200 NCD M10/M11 Q0989=
METAR UMKK 102300Z 30005MPS 250V330 9999 BKN022CB OVC100 04/00 Q1004
R24/29//60 NOSIG RMK QFE752/1003=
METAR UUOO 102300Z 22005G09MPS 8000 -RA OVC004 02/01 Q0996 NOSIG RMK
12290250=
METAR UUYY 102300Z 03003MPS 1900 SN BR BKN015 OVC066 M15/M16 Q1004
TEMPO 1000 SN BR 0145//33 RMK QFE744/0992=

0000050100
279
SAAE33 VTBB 102300
METAR VVTS 102300Z VRB01KT 9999 FEW017 SCT040 22/21 Q1013 NOSIG =
METAR VVNB 102300Z 31003KT 2400 BR FEW020 BKN050 15/11 Q1021 NOSIG=
METAR VVDN 102300Z 36005KT 4000 BR FEW015 BKN060 20/19 Q1019 NOSIG=
METAR VVPB 102300Z VRB02KT 4000 BR BKN017 BKN050 19/18 Q1020 NOSIG=
METAR VVCR 102300Z 36006KT 8000 FEW015 BKN050 24/18 Q1016 NOSIG=
METAR VVCT 102300Z 00000KT 8000 FEW015 BKN040 22/21 Q1013 NOSIG=
METAR VVPQ 102300Z 06005KT CAVOK 25/18 Q1013 NOSIG=

0000010000
280
SALC31 TLPL 102300
METAR TLPL 102300Z 08014KT 9999 SCT020 25/21 Q1015 TEMPO SHRA=

0000103500
281
FTMG20 FMMI 102300
TAF FMMI 102300Z 1100/1206 VRB04KT 9999 FEW017 BKN020 BECMG 1102/1104
06010KT BECMG 1108/1110 34010KT SCT020CB SCT023 PROB40 TEMPO
1111/1114 4000 TSRA BECMG 1114/1116 12010KT PROB30 TEMPO 1115/1120
4000 TSRA BECMG 1120/1122 VRB03KT FEW017 BKN020=
TAF FMNN 102300Z 1100/1124 VRB03KT 9999 SCT020 SCT040 BECMG 1102/1104
16010KT PROB40 TEMPO 1102/1118 SHRA BECMG 1104/1106 24010KT SCT020CB
BECMG 1120/1122 SCT020 SCT040=
TAF FMNA 102300Z 1100/1124 28010KT 9999 SCT020CB SCT040 PROB40 TEMPO
1100/1122 4000 TSRA=
TAF FMST 102300Z 1100/1124 34010KT 9999 FEW020 BKN040 PROB40 TEMPO
1108/1115 4000 SHRA=
TAF FMSD 102300Z 1100/1124 10010KT 9999 SCT017CB SCT033 PROB40 TEMPO
1100/1110 4000 SHRA PROB40 TEMPO 1110/1118 4000 TSRA BECMG 1120/1122
SCT017 SCT033=
TAF FMMS 102300Z 1100/1124 06010KT 9999 SCT017 SCT040 PROB40 TEMPO
1100/1103 4000 SHRA BECMG 1108/1110 14010KT SCT017CB SCT040 PROB40
TEMPO 1111/1118 4000 TSRA BECMG 1114/1116 08010KT BE3CMG 1120/1122
SCT017 SCT040=

0000094500
282
FTNT31 KWBC 102309
TAF
TAF BIAR 102308Z 1100/1124 15012KT 9999 BKN035 OVC050
      TEMPO 1100/1109 16020G35KT PROB40 1100/1112 5000 SHSN BKN015
      BECMG 1112/1115 22008KT 9999 FEW025 SCT035=
TAF BIEG 102308Z 1100/1124 06020G30KT 7000 SNRA SCT012 OVC020
      TEMPO 1100/1109 2000 SN BKN008 OVC012
      BECMG 1109/1112 27010KT 9999 NSW SCT020 BKN035 PROB40
      TEMPO 1109/1115 5000 SHSN BKN015 OVC025=
TAF BIKF 102308Z 1100/1124 26016KT 9999 FEW020 BKN035 BKN050
      PROB40
      TEMPO 1100/1109 3000 SHSN BKN012
      BECMG 1111/1114 18010KT
      BECMG 1118/1121 14010KT PROB30
      TEMPO 1119/1124 3000 SHSN BKN015=
TAF BIRK 102308Z 1100/1124 27012KT 3000 SNRA BKN007 OVC015
      TEMPO 1100/1104 1200 SN VV005
      BECMG 1103/1106 25012KT 9999 NSW FEW020 BKN030 BKN050 PROB40
      TEMPO 1104/1109 3000 SHSN BKN012
      BECMG 1109/1112 VRB02KT
      BECMG 1121/1124 10010KT=

0000017500
283
FTUS72 KWBC 102309 AAA
TAF AMD
KFSM 102307Z 1023/1118 04005KT 3SM BR BKN005
      TEMPO 1023/1103 2SM TSRA BKN030CB
     FM110300 24011KT P6SM SCT100=

0000013400
284
FTUS73 KWBC 102309 AAA
TAF AMD
KBFF 102306Z 1023/1118 33015G25KT P6SM BKN090
     FM110200 30010KT P6SM SCT090=

0000038900
285
FTUS74 KWBC 102309
TAF
TAF KNTD 1023/1123 15010KT 9999 SCT220 QNH3000INS
     FM110200 VRB05KT 9000 BR FEW001 SCT220 QNH3001INS
      TEMPO 1103/1107 0800 FG VV001
     FM110700 VRB04KT 0800 FG VV002 QNH3008INS
     FM111700 VRB05KT 9000 HZ FEW002 SCT220 QNH3012INS
     FM112100 26008KT 9000 HZ FEW220 QNH3010INS T10/1113Z
      T18/1122Z
      FS30056=

00000000