0000019100
966
SANO34 ENMI 110120
METAR ENBN 110120Z NIL=
METAR ENBV 110120Z NIL=
METAR ENFG 110120Z NIL=
METAR ENHF 110120Z NIL=
METAR ENRA 110120Z NIL=
METAR ENSH 110120Z NIL=

0000053000
967
SAUK31 EGGY 110120
METAR EGBB 110120Z AUTO 21009KT 3900 -RA FEW007/// BKN025///
    08/07 Q1010=
METAR EGCC 110120Z 26004KT 9999 BKN032 BKN041 06/05 Q1009 RERA=
METAR EGKK 110120Z 21007KT 9999 BKN009 08/07 Q1013=
METAR EGLL 110120Z AUTO 24004KT 200V260 9000 -RA FEW008 SCT011
    BKN036 07/06 Q1013 REDZ=
METAR EGPF 110120Z 23005KT 9999 SCT020TCU 01/00 Q1008=
METAR EGPH 110120Z VRB03KT CAVOK 01/M00 Q1008=
METAR EGPK 110120Z NIL=
METAR EGSS 110120Z 21011KT 9999 -RA FEW010 BKN043 07/06 Q1012=

0000050500
968
SAUK32 EGGY 110120
METAR EGAA 110120Z 19005KT 9000 NSC 01/01 Q1010=
METAR EGAC 110120Z NIL=
METAR EGFF 110120Z 26011KT 2000 +DZ BKN001 08/07 Q1012=
METAR EGGW 110120Z 20010KT 9999 FEW005 SCT030 07/06 Q1011 REDZ=
METAR EGLC 110120Z AUTO 21006KT 9999 -RA FEW022/// OVC030///
    08/07 Q1013 RERA=
METAR EGNM 110120Z 29009KT 9999 -RADZ BKN008 05/05 Q1008=
METAR EGNX 110120Z 23014KT 4000 RA BKN012 BKN024 07/07 Q1009=
METAR EGPD 110120Z AUTO 23007KT 9999 NCD M01/M03 Q1005=

0000034400
969
SAUK33 EGGY 110120
METAR EGGD 110120Z 23008KT 4000 -DZ BR BKN004 07/07 Q1011=
METAR EGGP 110120Z 29008KT 9999 SCT033 06/04 Q1010=
METAR EGHI 110120Z NIL=
METAR EGNS 110120Z NIL=
METAR EGNT 110120Z 28005KT 9999 FEW030 02/02 Q1008=
METAR EGNV 110120Z NIL=
METAR EGPB 110120Z AUTO 26019KT 9999 SCT028/// 07/03 Q0999=

0000024500
970
SAUK34 EGGY 110120
METAR EGHE 110120Z NIL=
METAR EGHK 110120Z NIL=
METAR EGHQ 110120Z NIL=
METAR EGJA 110120Z NIL=
METAR EGJB 110120Z NIL=
METAR EGJJ 110120Z NIL=
METAR EGTE 110120Z 22008KT 9999 SCT033 08/07 Q1012=

0000027100
971
SAUK35 EGGY 110120
METAR EGHH 110120Z 22009KT 9999 FEW030 09/08 Q1013=
METAR EGKA 110120Z NIL=
METAR EGKB 110120Z NIL=
METAR EGLF 110120Z NIL=
METAR EGMC 110120Z NIL=
METAR EGMD 110120Z NIL=
METAR EGMH 110120Z NIL=
METAR EGTC 110120Z NIL=

0000039300
972
SAUK36 EGGY 110120
METAR EGBE 110120Z 21009KT 6000 -RADZ SCT014 SCT022 BKN028 08/06
    Q1010=
METAR EGBJ 110120Z NIL=
METAR EGCN 110120Z 22011KT 9999 SCT013 SCT025 09/07 Q1009=
METAR EGSC 110120Z NIL=
METAR EGSD 110120Z NIL=
METAR EGSH 110120Z AUTO 21010KT 9000 -RA SCT030/// SCT037///
    08/07 Q1011 RERA=
METAR EGVN 110120Z NIL=
METAR EGWU 110120Z NIL=

0000030000
973
SAUK37 EGGY 110120
METAR EGAE 110120Z NIL=
METAR EGNC 110120Z NIL=
METAR EGNH 110120Z NIL=
METAR EGNJ 110120Z NIL=
METAR EGNO 110120Z NIL=
METAR EGNR 110120Z NIL=
METAR EGPE 110120Z AUTO 22010KT 9999 NCD 02/M01 Q1005=
METAR EGPI 110120Z NIL=
METAR EGPN 110120Z NIL=

0000042600
974
SAUK38 EGGY 110120
METAR EGEC 110120Z NIL=
METAR EGEO 110120Z NIL=
METAR EGPA 110120Z AUTO 26016KT 9999 FEW021/// SCT026/// 05/03
    Q1002=
METAR EGPC 110120Z AUTO 22006KT 9999 NCD 01/M00 Q1003=
METAR EGPL 110120Z AUTO 24014KT 9999 // NCD 05/02 Q1005=
METAR EGPM 110120Z AUTO 25019KT 9999 FEW030/// 05/02 Q0997=
METAR EGPO 110120Z AUTO 22007KT 9999 NCD 02/M01 Q1004=
METAR EGPU 110120Z NIL=

0000035800
975
SASW32 LSSW 110120
METAR LSGC 110120Z AUTO 00000KT CAVOK 01/01 Q1017=
METAR LSGS 110120Z NIL=
METAR LSZG 110120Z AUTO 10003KT 2000 BR OVC001 02/01 Q1019=
METAR LSZR 110120Z AUTO 24002KT 0100 R10/0400N BR NCD 03/02 Q1019=
METAR LSZS 110120Z NIL=
METAR LSZC 110120Z AUTO 26002KT 0150 FG VV002 02/02 Q1019=
METAR LSZL 110120Z NIL=

0000073400
976
SASN32 ESWI 110120
METAR ESKN 110120Z 13003KT 6000 -SN SCT019 M03/M05 Q1002
R26/710195=
METAR ESOE 110120Z AUTO 13004KT 090V180 9999NDV -FZDZ OVC007///
M02/M03 Q1000=
METAR ESOK 110120Z AUTO 08003KT 9000 OVC006/// 00/00 Q0997=
METAR ESOW 110120Z AUTO 09006KT 2300NDV -SN FEW001/// SCT017///
M04/M06 Q1001=
METAR ESSA 110120Z 36006KT 9999 BKN008 M04/M06 Q1001 R01L/19//71
R08/19//58 R01R/19//68 NOSIG=
METAR ESSB 110120Z AUTO 29005KT 9999NDV OVC008/// M04/M05 Q1002=
METAR ESSD 110120Z AUTO 05005KT 0900 R32/P1500N -SN VV002 M06/M08
Q1000=
METAR ESSP 110120Z AUTO 11006KT 9999NDV -SN FEW015/// BKN027///
M02/M02 Q1001 RESG=
METAR ESSV 110120Z AUTO 29008KT 9999NDV OVC011/// M00/M02 Q1003=

0000010100
977
SAIO31 KWBC 110100 RRC
METAR
VRMM 110100Z 07014KT 9999 SCT018 28/24 Q1012 NOSIG=

0000070200
978
SASN33 ESWI 110120
METAR ESNG 110120Z AUTO 33006KT 9999 NCD M18/M20 Q1012=
METAR ESNK 110120Z AUTO 33011KT 3000 -SN FEW019/// M10/M13 Q1005=
METAR ESNN 110120Z AUTO 32009KT 3200NDV -SN FEW020/// SCT030///
M10/M12 Q1005 R16/49/79=
METAR ESNO 110120Z AUTO 36010KT 320V040 9999 -SN OVC022/// M11/M15
Q1003=
METAR ESNQ 110120Z AUTO 02004KT 9999NDV FEW009/// M18/M20 Q1012
RESN=
METAR ESNS 110120Z AUTO 35013KT //// VV007 M13/M14 Q1006=
METAR ESNU 110120Z 34016KT 4600 -SN OVC035 M11/M14 Q1004 R14/49//50=
METAR ESNZ 110120Z AUTO 03003KT 360V060 9999NDV -SN SCT047///
M15/M16 Q1003 RESG=
METAR ESUT 110120Z AUTO 29003G18KT 9999 SCT025/// OVC064/// M13/M19
Q1005=

0000057100
979
SASN34 ESWI 110120
METAR ESCF 110120Z AUTO 15004KT 9999NDV BKN012/// OVC018/// M01/M02 
Q1000=
METAR ESDF 110120Z AUTO 24006KT 9999NDV -SHRA FEW005/// BKN021/// 
OVC030/// 04/04 Q1005=
METAR ESIB 110120Z AUTO 25015KT 9999NDV BKN018/// BKN130/// 05/04 
Q0999=
METAR ESMV 110120Z NIL=
METAR ESPA 110120Z AUTO 03010KT 360V070 9999NDV -SG BKN049/// 
M14/M17 Q1009=
METAR ESPE 110120Z AUTO 36006KT 310V030 9999NDV OVC044/// M15/M18 
Q1010=
METAR ESSL 110120Z AUTO 14005KT 110V180 9999NDV FEW015///
OVC019/// M02/M02 Q1000 R29/19//95=

0000041300
980
SASN35 ESWI 110120
METAR ESGR 110120Z NIL=
METAR ESKM 110120Z NIL=
METAR ESNL 110120Z AUTO 35007KT 5000NDV -SN FEW023/// SCT028///
OVC037/// M13/M17 Q1006=
METAR ESNX 110120Z AUTO 01010KT 5000NDV -SN VV024 M15/M18 Q1006=
METAR ESNY 110120Z NIL=
METAR ESSF 110120Z NIL=
METAR ESSK 110120Z NIL=
METAR ESUD 110120Z AUTO 36004KT 320V020 5000 -SN FEW007/// OVC028///
M14/M17 Q1007=

0000010500
981
SPUS41 KWBC 110031
SPECI
KAKR 110027Z AUTO 14007KT 4SM BR BKN002 OVC018 04/04 A2997=

0000010400
982
SPUS42 KWBC 110031
SPECI
KSHV 110027Z 21005KT 3SM -RA BR BKN008 OVC011 17/16 A2974=

0000051300
983
SAFI32 EFHK 110120
METAR EFHA 110120Z AUTO 35010KT 9999 OVC009 M06/M07
 Q0997=
EFHF 110120Z AUTO 33011KT 310V010 9999 -SG OVC012 M02/M05 Q0995=
METAR EFKA 110120Z AUTO 05011KT 9999 -SHSN OVC017 
M07/M09 Q1000=
EFKK 110120Z AUTO 04009KT 8000 -SHSN OVC039 M09/M11 Q1002=
EFMA 110120Z AUTO 33006KT 300V360 5000 -SN OVC010 M01/M01 Q0999=
METAR EFPO 110120Z AUTO 05007KT 020V080 9999 OVC008/// M04/M05 Q0998 
R12/29//95=
EFSI 110120Z AUTO 02006KT 350V060 9999 OVC011 M07/M08 Q0999=

0000012200
984
SAUK31 EGGY 110120 CCA
METAR COR EGCC 110120Z 26004KT 9999 BKN032 BKN041 06/05 Q1009 RERA
     NOSIG=

0000087300
985
FADL41 EDZH 110300
EDWW GAMET VALID 110300/110900 EDZH-
BREMEN FIR BLW FL100
SECN I
SFC VIS : 4000 M RA NW-PART
MT OBSC : ABV 2500 FT AMSL
SIG CLD : BKN 0500-0900/XXX FT AGL W-, C- AND N-PART
ICE     : MOD INC ABV FZLVL
TURB    : MOD SFC/2000 FT AMSL NW-PART
SIGMET APPLICABLE: AT TIME OF ISSUE NIL
SECN II
PSYS    : 06 L 0995 HPA S-NORWAY STNR WKN
          06 OCCLUSION LINE SKAGERRAK - SE-ENGLAND MOV E NC
WIND/T  : 2000 FT AMSL 260/30KT
          5000 FT AMSL 270/30KT
          FL100        250/25KT
CLD     : SCT/BKN SC 1500-4000 FT AMSL /FL070
          BKN/OVC SC/AC 1500-3000/XXX FT AMSL NW-PART
FZLVL   : 3500-4000 FT AMSL
          03/07 2500-3000 FT AMSL E-PART
MNM QNH : 03/05 1007 HPA
          05/07 1007 HPA
          07/09 1007 HPA
CHECK GAFOR (VIS AND CLD BASE), AIRMET AND SIGMET-INFORMATION

00000000