0000015700
366
SSVX13 LFPW 110800
ZZYY 14515 11014 0800/ 333114 049851 6113/ 11119 40098 57014 22219
 00203 444 20130 11014 0600/ 50101 80148 80015 9/015=
0000061400
367
SIIN90 VEPT 110900
AAXX 11094
42492 21494 70905 10160 20143 40150 76066 84530
  333 59008 6002/ 84615 87360=
42591 21494 80703 10164 20154 40153 72996 8672/
  333 58003 6006/ 85618 88458=
42498 21494 80000 10160 20143 40153 72166 8452/
  333 58015 6004/ 84618 88458=
42500 21595 80501 10148 20141 40164 76162 8352/
  333 58007 6004/ 83620 88458=
42587 21994 80000 10182 20162 40148 70552 85520
  333 58007 6003/ 85615 88456=
42798 31994 40506 10246 20125 40131 70422 84030
  333 58003 84360=
42701 31494 80508 10166 20125 39408 40147 70444 8452/
  333 58010 84615 88459=
0000008400
368
SIIN90 VISM 110900
AAXX 11094
42066 32595 10502 10032 21083 81100=
0000015700
369
SSVX13 LFPW 110900
ZZYY 16538 11014 0900/ 340793 078474 6113/ 11119 40179 57001 22219
 00144 444 20130 11014 0900/ 50101 80144 80026 9/015=
0000015700
370
SSVX13 LFPW 110900
ZZYY 62681 11014 0900/ 750275 049952 6113/ 11119 40133 52002 22219
 00024 444 20130 11014 0900/ 50101 80132 80026 9/015=
0000015700
371
SSVX13 LFPW 110900
ZZYY 16543 11014 0900/ 345965 078201 6113/ 11119 40070 52004 22219
 00075 444 20130 11014 0900/ 50101 80142 80015 9/015=
0000015700
372
SSVX13 LFPW 110900
ZZYY 25618 11014 0900/ 180151 112903 6113/ 11119 40216 52001 22219
 01136 444 20130 11014 0900/ 50101 80138 8//// 9/015=
0000015700
373
SSVX13 LFPW 110900
ZZYY 14515 11014 0900/ 333163 049869 6113/ 11119 40095 57017 22219
 00204 444 20130 11014 0900/ 50101 80148 80011 9/015=
0000164900
374
SIRO44 YRBK 110900
AAXX 11091
15000 22997 62704 10047 20047 39878 40199 52016 86070 333 55303 60007
91008
91108 555 60000=
15007 22598 50000 10034 21026 39725 40205 51013 81101 333 60007 91001
91102 555
60000=
15023 22998 22504 10051 21019 39752 40184 51013 81041 333 60007 91004
91105 555
60000=
15025 22597 52605 10058 21025 30059 40197 51016 85500 333 60007 91007
91108 555
60000=
15056 22997 22804 10062 2//// 39848 40204 51016 82040 333 55309 0////
20648
3//// 60007 91006 91108 555 60000=
15069 22597 82305 11007 21026 39121 42812 52014 8457/ 333 60007 91008
91109 555
60000=
15073 22998 12201 10061 21032 39733 40207 51013 80001 333 60007 91002
91102 555
60000=
15088 21/92 92912 11084 21084 37947 48384 52017 74944 333 60007 91018
92722=
15094 22597 22301 10058 21074 39725 40202 51013 81101 333 60007=
15109 22598 12604 10070 21050 39763 40203 51014 81500 333 60007 91008
91108 555
32000 42000 50000 60000 70000=
15111 23/// /2102 10045 20006 39935 40204 51013 333 6///7 91004 91106
555 6////=
15113 22597 42701 10040 21006 30051 40214 51007 81506 333 60007=
15154 22997 01501 10054 20000 30063 40209 51014 333 60007 91002 91103
555 60000=
15194 22598 22806 10081 21037 39913 40210 51009 81240 333 60007 91010
91112 555
60000=
15197 22997 32702 10040 20000 30004 40220 51015 80001 333 55310 0////
20774
3//// 60007 555 60000=
15219 NIL=
15264 22997 10600 10045 21002 30156 40229 51011 80001 333 60007 91001
91103 555
60000=
15265 22997 42002 10029 21011 30147 40224 51014 80001 333 55310 0////
20726
3//// 60007 91005 91106 555 60000=
0000015700
375
SSVX13 LFPW 110900
ZZYY 25652 11014 0900/ 181922 103243 6113/ 11119 40161 54000 22219
 01098 444 20130 11014 0900/ 50101 80138 8//// 9/015=
0000015700
376
SSVX13 LFPW 110900
ZZYY 25624 11014 0900/ 185364 120853 6113/ 11119 40071 52008 22219
 01137 444 20130 11014 0900/ 50101 80134 8//// 9/015=
0000015700
377
SSVX13 LFPW 110906
ZZYY 62695 11014 0906/ 743196 019517 6113/ 11119 40039 57020 22219
 00135 444 20130 11014 0900/ 50101 80140 80019 9/015=
0000040700
378
SXXX32 EUMS 110900
262D700E
:PRS 1 /1 1911 1911 1890 1854 1846 1895 1877 1859 1887 1896 1927 1880 1914 1875 1863 1873 1824 1841 1865 1924 1922 1925 1890 1909 1829 1817 1813 1883 1871 1901 :RAD 1 /3 4327 4327 4333 4324 4322 4336 4340 4325 4327 4346 4340 4325 4339 4360 4352 :ENC 5 /5 4428 4435 4422 4454 4405 4468 4410 4464 4446 4443 4486 4471 :SW1 60 /60 60 :BAT 14 /15 13.5 :NAME 262D700E
0000044900
379
SXXX32 EUMS 110900 RRA
16289262
:PRS 1 /1 2196 2192 2208 2210 2205 2216 2203 2198 2200 2201 2214 2213 2207 2217 2205 2211 2196 2209 2204 2206 2214 2216 2211 2210 2229 2236 2219 2206 2207 2219 :RAD 1 /3 7659 7664 7662 7668 7668 7667 7673 7674 7679 7682 7687 7687 7692 7695 7696 7697 7703 7709 7714 7714 :ENC 5 /5 5031 5031 5031 5041 5038 5044 5054 5064 5069 5071 5071 5078 :SW1 60 /60 0 :SW2 30 /60 0 :BAT 14 /15 13.1 :NAME 16289262
0000045500
380
SXXX32 EUMS 110900 RRB
324DF524
:PRS 1 /1 2990 2996 3003 3010 3017 3024 3031 3038 3045 3052 3059 3067 3074 3081 3089 3096 3103 3111 3118 3126 3133 3141 3148 3155 3163 3170 3177 3185 3192 3199 :RAD 1 /3 3046 3067 3088 3110 3131 3155 3177 3201 3223 3245 3267 3291 3313 3336 3358 3380 3403 3425 3446 3468 :ENC 5 /5 1989 2026 2063 2100 2137 2174 2209 2244 2280 2317 2355 2393 :SW1 60 /60 0 0 :SW2 30 /60 60 60 :BAT 14 /15 12.6 :NAME 324DF524
0000041600
381
SXXX32 EUMS 110901
26CB10AC
:PRS 1 /1 -1337 -1337 -1337 -1337 -1337 -1337 -1337 -1337 -1338 -1337 -1337 -1337 -1337 -1338 -1337 -1337 -1337 -1337 -1337 -1337 -1337 -1337 -1337 -1338 -1337 -1337 -1337 -1337 -1338 -1338 :RAD 3 /3 5755 5753 5753 5754 5753 5753 5753 5753 5752 5753 :RA2 3 /3 5715 5720 5713 5722 5716 5722 5715 5721 5718 5715 :SW1 2 /60 60 :SW2 32 /60 60 :BAT 14 /15 13.0 :NAME 26CB10AC
0000044900
382
SXXX32 EUMS 110901 RRA
1227146C
:PRS 1 /1 3155 3149 3145 3141 3136 3131 3124 3121 3116 3113 3111 3106 3102 3099 3095 3091 3088 3084 3083 3079 3075 3070 3065 3061 3057 3053 3047 3044 3042 3036 :RAD 3 /3 3153 3136 3100 3093 3086 3080 3035 3027 3032 3021 3010 2990 2986 2964 2972 2942 2939 2946 2907 2898 :ENC 1 /5 3887 3863 3845 3827 3806 3785 3765 3744 3726 3706 3683 3662 :SW1 2 /60 0 :SW2 32 /60 60 :BAT 14 /15 13.2 :NAME 1227146C
0000044400
383
SXXX32 EUMS 110903
22856700
:PRS 1 /1 3956 3955 3955 3955 3963 3955 3951 3946 3946 3946 3946 3940 3934 3944 3941 3938 3935 3930 3929 3934 3926 3919 3924 3920 3918 3919 3906 3907 3917 3911 :RAD 1 /3 7456 7452 7445 7439 7434 7428 7422 7416 7408 7402 7396 7393 7388 7379 7370 7364 7357 7350 7341 7334 :ENC 3 /5 5653 5644 5636 5625 5615 5605 5594 5593 5575 5563 5553 5536 :SW1 3 /60 0 :SW2 33 /60 0 :BAT 14 /15 13.0 :NAME 22856700
0000045000
384
SXXX32 EUMS 110903 RRA
32D8A2BE
:PRS 1 /1 1824 1825 1829 1829 1825 1834 1833 1827 1836 1840 1844 1842 1844 1842 1839 1846 1844 1849 1852 1843 1849 1848 1856 1857 1857 1855 1854 1860 1853 1859 :RAD 1 /3 7406 7413 7420 7424 7424 7428 7434 7437 7439 7438 7439 7438 7445 7451 7450 7451 7457 7465 7465 7469 :ENC 3 /5 4838 4848 4851 4855 4860 4862 4867 4871 4876 4879 4890 4899 :SW1 3 /60 59 :SW2 33 /60 60 :BAT 14 /15 13.1 :NAME 32D8A2BE
0000047700
385
SXXX32 EUMS 110904
262AD2C2
OT12 ID:PK-ORMA-10 DT:2014 01 11 09 03
:PRS /1 06509 06518 06513 06511 06508 06508 06506 06510 06507 06514 06519 06523 06526 06533 06543 06545 06546 06542 06540 06548 06543 06548 06545 06539 06551 06551 06554 06557 06561 06557
:RAD /1 ///// ///// ///// ///// ///// ///// ///// ///// ///// ///// ///// ///// ///// ///// ///// ///// ///// ///// ///// ///// ///// ///// ///// ///// ///// ///// ///// ///// ///// /////
:BAT 13.1V
00000000