0000090100
006
SAFR35 LFPW 110230
METAR LFMI 110230Z AUTO 10004KT 9999 OVC025 11/08 Q1019=
METAR LFMK 110230Z AUTO 10009KT 9999 SCT015 BKN024 BKN029 10/08
Q1017=
METAR LFOV 110230Z AUTO 04002KT 1700 BR FEW003 BKN042 OVC230 06/06
Q1015=
METAR LFRD 110230Z AUTO 20004KT 0250 R35/0800N FG VV/// 07/06 Q1015=
METAR LFRI 110230Z AUTO 00000KT 8000 NSC 08/07 Q1015=
METAR LFRM 110230Z AUTO VRB03KT 4800 BR FEW044 OVC066 07/06 Q1015=
METAR LFRN 110230Z AUTO VRB03KT 3400 -DZ BR FEW005 BKN009 BKN032
07/07 Q1015=
METAR LFRO 110230Z AUTO 17005KT 9999 BKN044 OVC056 07/06 Q1015=
METAR LFRV 110230Z AUTO VRB03KT 0600 FG VV/// 07/07 Q1015=
METAR LFRZ 110230Z AUTO 36003KT 3300 BR BKN014 OVC024 08/08 Q1015=
METAR LFSB 110230Z AUTO 14005KT 9999 NSC 03/02 Q1017=
METAR LFST 110230Z AUTO 31002KT 6000 NSC M00/M01 Q1018=
METAR LFTH 110230Z AUTO 05003KT 9999 BKN025 OVC031 11/08 Q1020=

0000075700
007
SAFR36 LFPW 110230
METAR LFBA 110230Z AUTO 12001KT 2200 BR NSC 06/06 Q1017=
METAR LFBE 110230Z AUTO VRB02KT 4300 BR NSC 04/04 Q1017=
METAR LFGJ 110230Z AUTO 08003KT 7000 FEW022 SCT150 02/02 Q1017=
METAR LFJR 110230Z AUTO 04003KT 010V080 2400 BR BKN001 BKN005
BKN086 06/06 Q1015=
METAR LFMD 110230Z AUTO VRB01KT 9999 OVC036 11/08 Q1020=
METAR LFMH 110230Z AUTO 15008KT 5000 BR NSC 05/04 Q1016=
METAR LFOT 110230Z AUTO VRB02KT 4900 BR ///TCU 06/05 Q1015=
METAR LFPN 110230Z AUTO 11003KT 2000 -RA BR OVC002 05/05 Q1016=
METAR LFRC 110230Z AUTO 19010KT 2600 BR OVC003 07/06 Q1015=
METAR LFRG 110230Z AUTO 20006KT 7000 -DZ BKN036 OVC043 06/05 Q1016=
METAR LFRK 110230Z AUTO 19005KT 7000 -RADZ FEW041 OVC066 06/05
Q1016=

0000073700
008
SAFR37 LFPW 110230
METAR LFAQ 110230Z AUTO 18007KT 0150 R27/0750N FG VV/// 04/04 Q1016=
METAR LFAT 110230Z AUTO 13006KT 3100 BR FEW010 BKN200 BKN220 03/03
Q1015=
METAR LFLN 110230Z AUTO 05003KT 9999 NSC 04/03 Q1016=
METAR LFPM 110230Z AUTO VRB02KT 5000 BR OVC003 05/05 Q1016=
METAR LFPT 110230Z AUTO 10004KT 1200 R05///// BR OVC002 05/04 Q1016=
METAR LFRH 110230Z AUTO 32003KT 0200 0150 R25/0650N R07/0650N FG
VV/// 07/07 Q1016=
METAR LFRQ 110230Z AUTO 00000KT 0200 R28/0750D FG VV/// 06/05 Q1016=
METAR LFRT 110230Z AUTO 24004KT 200V260 9999 NSC 06/05 Q1015=
METAR LFSD 110230Z AUTO 00000KT 8000 NSC 01/01 Q1017=
METAR LFTW 110230Z AUTO 10005KT 7000 OVC030 10/06 Q1019=
METAR LFBU 110230Z NIL=

0000010300
009
SARO31 LROM 110230 CCA
METAR COR LRCK 110230Z VRB09KT 1500 BR NSC 02/02 Q1019 NOSIG=

0000013100
010
SAUK37 EGGY 110220 RRA
METAR EGPI 110220Z AUTO 28012KT 250V310 9999 FEW012/// SCT025///
     03/02 Q1009 RERA=

0000012300
011
SAUK38 EGGY 110220 RRA
METAR EGPU 110220Z AUTO 27020KT 240V300 9999 -SHRA FEW033/// 04/M00
     Q1007=

0000055000
012
SASP31 LEMM 110230
METAR LEMD 110230Z 00000KT CAVOK 07/05 Q1016 NOSIG=
METAR LEBL 110230Z 32009KT 5000 BR SCT025 10/06 Q1018 NOSIG=
METAR LEPA 110230Z 05005KT CAVOK 10/09 Q1017 NOSIG=
METAR LEZL 110230Z NIL=
METAR LEMG 110230Z 29006KT 4000 -RA BR FEW020 SCT070 12/10 Q1017
NOSIG=
METAR LEVC 110230Z VRB01KT 6000 BKN035 10/08 Q1017 NOSIG=
METAR LEAL 110230Z VRB02KT 9000 FEW015 09/08 Q1017 NOSIG=
METAR LEIB 110230Z NIL=
METAR LEVX 110230Z 00000KT 0200 R20/0200N R02/0400D BCFG VV001
07/06 Q1016 TEMPO 3000 BCFG=

0000050100
013
SASP32 LEMM 110230
METAR LEAS 110230Z NIL=
METAR LEBB 110230Z NIL=
METAR LECO 110230Z NIL=
METAR LEGE 110230Z 00000KT 6000 OVC020 08/07 Q1018=
METAR LEST 110230Z 08003KT 050V120 3000 BR NSC 05/05 Q1017 NOSIG=
METAR LEZG 110230Z 29004KT 270V330 0900 R30R/1400U BCFG OVC003
06/06 Q1018=
METAR LESO 110230Z NIL=
METAR LEVT 110230Z VRB01KT 7000 FEW012 M00/M01 Q1017=
METAR LERS 110230Z NIL=
METAR LEMH 110230Z NIL=
METAR LEAM 110230Z NIL=
METAR LEGR 110230Z NIL=

0000025900
014
SACR31 LEMM 110230
METAR GCLP 110230Z VRB02KT 9999 FEW020 15/10 Q1016 NOSIG=
METAR GCXO 110230Z NIL=
METAR GCTS 110230Z 36005KT 9999 FEW035 15/10 Q1016 NOSIG=
METAR GCRR 110230Z NIL=
METAR GCFV 110230Z NIL=
METAR GCLA 110230Z NIL=

0000009600
015
SASP39 LEMM 110230
METAR LETL 110230Z AUTO 14004KT 3900 HZ VV/// 03/03 Q1017=

0000014000
016
SASP33 LEMM 110230
METAR LEVD 110230Z NIL=
METAR LEVS 110230Z NIL=
METAR LESA 110230Z 00000KT 8000 NSC M01/M01 Q1016=

0000004200
017
SASP34 LEMM 110230
NIL=

0000229400
018
SPUS70 KWBC 110234
SPECI
KCUB 110230Z AUTO 00000KT 3SM BR OVC005 11/10 A3013 RMK AO2
     RAE0159 P0000 T01060100 TSNO=
KEWN 110230Z 12005KT 10SM FEW019 BKN030 OVC050 18/16 A3018 RMK
     AO2=
KLAF 110230Z AUTO 16013G22KT 10SM -RA BKN006 BKN055 OVC075 05/04
     A2965 RMK AO2 P0000 T00500044=
KMDH 110229Z AUTO 17009KT 9SM -RA FEW008 OVC070 07/06 A2970 RMK
     AO2 P0002 T00720061=
KMEM 110226Z COR 17009KT 2SM -RA BR FEW013 OVC021 13/11 A2973 RMK
     AO2 RAB17 OCNL LTG DSNT N P0000=
KMIC 110231Z 00000KT 3SM BR OVC003 M01/M02 A2950 RMK AO2=
KRAC 110230Z AUTO 19009KT 4SM -RA BR SCT003 BKN009 OVC041 03/03
     A2955 RMK AO2 P0003 T00330028=
KSBM 110230Z AUTO 17009KT 8SM -RA OVC004 02/02 A2952 RMK AO2 P0003
     T00170017=
KSSI 110230Z AUTO 14010KT 10SM FEW002 FEW007 18/17 A3011 RMK AO2
     T01780172=
KSUX 110231Z 00000KT 1/4SM R31/1600V2600FT FZFG VV007 M05/M05
     A2957 RMK AO2 I1000 T10501050=
PAPB 110230Z AUTO 11009KT 10SM FEW019 BKN028 OVC090 01/00 A2907
     RMK AO2 T00110000 TSNO $=
PABR 110231Z 31010KT 3/4SM R07/2400VP6000FT BR OVC004 M23/M26
     A2985 RMK AO2 T12281256=
PAMB 110231Z AUTO 04009KT 1 1/2SM -SN BR SCT004 OVC014 M04/M04
     A2939 RMK AO2 TSNO P0000 $=
K1M4 110231Z AUTO 14006KT 2 1/2SM BR OVC003 10/10 A2995 RMK AO2
     RAE29 P0000=
KALO 110231Z 29003KT 3/4SM R12/3000V4000FT BR VV005 00/M01 A2950
     RMK AO2 T00001006=
KAXN 110231Z AUTO 26005KT 1 3/4SM BR OVC002 M02/M02 A2947 RMK
     AO2=
KBMG 110231Z AUTO 14008KT 1/4SM -RA FG OVC003 07/06 A2972 RMK AO2
     PRESFR P0004 T00670056=
KBRL 110231Z AUTO 21005KT 1/2SM -RA FG VV002 04/04 A2951 RMK AO2
     P0000 T00390039=
KDMO 110231Z AUTO 29008KT 8SM SCT006 OVC017 06/04 A2958 RMK AO2
     T00610039=
KDWH 110231Z AUTO 23010KT 10SM BKN014 BKN018 OVC032 21/19 A2984
     RMK AO2 TSNO=
KFAY 110231Z AUTO 01005KT 2SM BR BKN013 OVC018 17/16 A3011 RMK AO2
     VIS 1V5 RAE30 P0015=
KGZH 110231Z AUTO 14003KT 1 1/4SM -RA BR OVC003 14/14 A3001 RMK
     AO2 RAB19 P0001 T01440139=
KMEB 110231Z AUTO 00000KT 2 1/2SM BR FEW004 BKN009 OVC014 14/14
     A3014 RMK AO2 VIS 1 1/4V4 RAE21 TSE0157 P0028 T01390139=
KRHI 110231Z AUTO 12003KT 2SM -SN BR OVC013 M04/M04 A2950 RMK AO2
     P0002 T10391044=

0000010800
019
SPUS31 KWBC 110234
SPECI
KMEM 110226Z COR 17009KT 2SM -RA BR FEW013 OVC021 13/11 A2973=

0000009700
020
SPUS42 KWBC 110234
SPECI
KMOB 110230Z 14006KT 1 1/2SM BR OVC003 15/15 A2998=

0000011300
021
SPUS41 KWBC 110234
SPECI
KWRI 110231Z AUTO 05002KT 1 3/4SM R06/3000FT BR OVC002 03/02 A3024=

0000011000
022
SPUS42 KWBC 110234
SPECI
KSAV 110230Z 16003KT 1SM R01/4500VP6000FT BR BKN005 18/17 A3011=

0000010300
023
SPUS42 KWBC 110234
SPECI
KSSI 110230Z AUTO 14010KT 10SM FEW002 FEW007 18/17 A3011=

0000010400
024
SPUS43 KWBC 110234
SPECI
KINL 110230Z AUTO 20006KT 1 3/4SM BR OVC003 M04/M05 A2943=

0000015500
025
FCNO35 ENMI 110200
TAF ENRM 110200Z NIL=
TAF ENSO 110200Z NIL=
TAF ENVD 110200Z NIL=
TAF ENNO 110200Z NIL=
TAF ENSN 110200Z NIL=

00000000