0000138800
226
SPUS70 KWBC 102310
SPECI
KAXN 102306Z AUTO 18005KT 1/2SM FZFG OVC002 M02/M02 A2950 RMK
     AO2=
KENW 102306Z 13008KT 2SM RA BR SCT005 BKN011 OVC034 02/01 A2967
     RMK AO2 PRESFR P0002 T00170006=
KGLS 102306Z 16010KT 1/2SM -RA FG BKN005 OVC012 17/17 A2984 RMK
     AO2 P0000=
KIND 102306Z 17006KT 2SM RA BR FEW003 BKN008 OVC036 03/03 A2985
     RMK AO2 P0001=
KMRB 102306Z 06003KT 2 1/2SM BR OVC005 02/00 A3026 RMK AO2
     T00220000=
KSSI 102306Z AUTO 12009KT 3SM BR OVC004 17/17 A3010 RMK AO2
     T01670167=
KTHV 102306Z AUTO 06003KT 1SM UP BR OVC004 02/01 A3029 RMK AO2
     UPB04 P0000 T00170006=
KZZV 102306Z AUTO 10004KT 7SM SCT015 OVC020 07/05 A3003 RMK
     AO2=
KACV 102307Z AUTO 00000KT 2 1/2SM BR OVC002 10/09 A3020 RMK AO2
     VIS 1 1/2V3 T01000089=
KGLR 102307Z AUTO 14009KT 3/4SM BR OVC002 M03/M03 A2980 RMK AO2
     I1000 T10281033=
KLGA 102307Z 05004KT 1 1/2SM -DZ BR OVC005 01/M01 A3035 RMK AO2
     P0000=
KLXT 102307Z AUTO 24006KT 3SM BR OVC003 06/04 A2954 RMK AO2 CIG
     002V007 T00560044=
KMEB 102307Z AUTO 01005KT 2SM RA BR SCT004 BKN008 OVC013 13/13
     A3017 RMK AO2 P0022 T01330133=
KPNS 102307Z AUTO 00000KT 1/2SM R17/2000V2200FT FG VV002 16/15
     A3001 RMK AO2 T01610150=
KSHN 102307Z AUTO 15003KT 2 1/2SM -RA BR BKN025 OVC033 08/07 A2996
     RMK AO2 P0002 T00780067 TSNO=

0000011000
227
SPUS31 KWBC 102310
SPECI
KIND 102306Z 17006KT 2SM RA BR FEW003 BKN008 OVC036 03/03 A2985=

0000010200
228
SPUS31 KWBC 102310
SPECI
KLGA 102307Z 05004KT 1 1/2SM -DZ BR OVC005 01/M01 A3035=

0000011300
229
SPUS41 KWBC 102310
SPECI
KDOV 102308Z AUTO 08003KT 2SM R01/4500FT -RA BR OVC002 03/03 A3029=

0000010600
230
SPUS42 KWBC 102310
SPECI
KGLS 102306Z 16010KT 1/2SM -RA FG BKN005 OVC012 17/17 A2984=

0000009800
231
SPUS42 KWBC 102310
SPECI
KSSI 102306Z AUTO 12009KT 3SM BR OVC004 17/17 A3010=

0000009300
232
SPUS42 KWBC 102310
SPECI
KSAV 102307Z 11006KT 2SM BR OVC004 19/18 A3012=

0000011700
233
SPUS42 KWBC 102310
SPECI
KPNS 102307Z AUTO 00000KT 1/2SM R17/2000V2200FT FG VV002 16/15
A3001=

0000068600
234
SAAG31 KWBC 102300
METAR
SAAG NIL=
SAAP NIL=
SAAR NIL=
SABE 102300Z 32008KT 9999 SCT035 FEW045CB 28/21 Q1008=
SACO 102300Z 14011KT 9999 FEW030TCU SCT100 27/18 Q1012=
SADD NIL=
SAEZ 102300Z 20005KT 150V240 9999 FEW050TCU SCT100 28/16 Q1008=
SAME 102300Z 14004KT CAVOK 30/06 Q1010=
SARC NIL=
SARE NIL=
SARF 102300Z 05004KT 9999 FEW035TCU 32/24 Q1005=
SARI 102300Z 05003KT 9999 FEW030 SCT200 28/24 Q1011=
SARP 102300Z 00000KT 9999 BKN030CB 33/22 Q1009=
SASA 102300Z 05001KT 9999 SCT020 BKN200 27/15 Q1010=
SASJ NIL=
SAWE NIL=
SAWG 102300Z 27019KT 9999 -RA SCT035 BKN050 11/03 Q1011=
SAZM NIL=
SAZS 102300Z 32016KT CAVOK 17/05 Q1018=

0000024200
235
SAAG41 KWBC 102300
METAR
SAAC NIL=
SAAV NIL=
SAGS NIL=
SANE NIL=
SANT NIL=
SANU NIL=
SAOR NIL=
SARL NIL=
SATM NIL=
SAVC 102300Z 05009KT 9999 FEW030 SCT200 19/01 Q1012=
SAVT NIL=
SAZB NIL=
SAZN NIL=

0000021400
236
SACA33 KWBC 102300 RRB
METAR
TLPL 102300Z 08014KT 9999 SCT020 25/21 Q1015 TEMPO SHRA=
TTCP 102300Z 06005KT 9999 SCT015 25/20 Q1013 NOSIG=
TTPP 102300Z 09005KT 9999 FEW018 25/21 Q1013 NOSIG=

0000009800
237
SAHA31 KWBC 102300 RRA
METAR
MTPP 102300Z 08005KT 9000 FEW02429 1015/0 A2997=

0000047800
238
SAJP31 KWBC 102300 RRA
METAR
RJAA 102300Z 32004KT 9999 FEW025 M03/M06 Q1024 NOSIG RMK 1CU025
     A3025=
RJCC 102300Z 22006KT 9999 VCSH FEW015 SCT050 M10/M13 Q1018 RMK
     1ST015 3CU050 A3007 SH W=
RJFK 102300Z 29004KT 9999 FEW035 BKN050 02/M06 Q1030 RMK 1CU035
     7SC050 A3041 VOLCANIC ASH CLOUD S=
RJOO 102300Z 33008KT 9999 FEW025 01/M06 Q1029 RMK 1CU025 A3040=
RJTT 102300Z 03008KT 9999 FEW030 02/M06 Q1024 NOSIG RMK 1CU030
     A3026=

0000102500
239
SAPR41 KWBC 102300
METAR
SPCL 102300Z 02006KT 9999 FEW030 SCT100 28/24 Q1007 RMK BIRD
     HAZARD RWY 02/20 PP000=
SPEC NIL=
SPEI NIL=
SPEO NIL=
SPGM 102300Z NIL=
SPHI 102300Z 18015KT CAVOK 26/22 Q1009 RMK PP000=
SPHO 102300Z 34009KT 9999 VCSH SCT040 OVC100 18/12 Q1018 RMK
     PP000=
SPHY 102300Z NIL=
SPJA NIL=
SPJI 102300Z NIL=
SPJL 102300Z 12009KT 9999 FEW010 SCT080 13/05 Q1032 RMK PP000=
SPJN NIL=
SPJR 102300Z 16004KT 9999 VCSH SCT023 BKN037 15/11 Q1024 WS RMK
     PP000=
SPME 102300Z 28004KT 9999 FEW013 BKN033 27/23 Q1008 RMK BIRD
     HAZARD RWY 32/14 PP000=
SPMS 102300Z /////KT 9999 VCSH BKN015 BKN100 27/23 Q1009 RMK BIRD
     HAZARD 09/27 PP000=
SPNC NIL=
SPPY NIL=
SPRU 102300Z 16008KT 9999 FEW030 23/20 Q1009 RMK PP000=
SPST 102300Z 35012KT 9999 SCT020 SCT100 29/20 Q1006 RMK BIRD
     HAZARD RWY 17/35 PP000=
SPTU 102300Z 08004KT 5000 -RA BR BKN010 OVC070 23/23 Q1006 RMK
     BIRD HAZARD RWY 01/19 RA INICIO 2159Z PP310=
SPUR NIL=

0000036400
240
SASA31 KWBC 102300 RRA
METAR
SKBO 102300Z NIL=
SKBQ 102300Z 02007KT CAVOK 27/23 A2979=
SKCG 102300Z 04005KT CAVOK 29/21 A2976=
SKCL 102300Z 01003KT 9999 FEW017 BKN090 25/19 A2988=
SKLT 102300Z 00000KT 9999 SCT015 SCT080 25/24 A2974=
SKRG 102300Z 05004KT 9999 BKN012 SCT070 17/14 A3019=
SKSP 102300Z 09010KT 9999 FEW018 27/23 A2984=

0000028900
241
SASA41 KWBC 102300 RRA
METAR
SKBG 102300Z 32003KT 9999 SCT015 23/19 A2990=
SKMD 102300Z 06005KT 9999 8000N ??TSRA BKN030 SCT035CB 19/16 A3000
     RMK CB/W/NW/N=
SKPE 102300Z 30004KT 9999 FEW018 SCT080 22/18 A3001=
SKSM 102300Z 04004KT 9999 FEW020 31/19 A2974=

0000009900
242
SAGQ21 FGSL 102300 RRA
METAR FGBT 102300Z 14002KT 9999 FEW010 26/25 Q1011 NOSIG=

0000011800
243
SAAG05 SABM 102300 RRA
METAR SARL 102300Z 05010KT 9999 FEW025 FEW045CB SCT100 BKN200 24/21
Q1007=

0000017500
244
SACG21 FCBB 102300
METAR FCBB 102300Z 25003KT 220V320 7000 BKN016 24/22 Q1012 NOSIG=
METAR FCPP NIL=
METAR FCPD NIL=
METAR FCOU NIL=
METAR FCOI NIL=

0000023600
245
FTID32 WIPP 102300
TAF WIPP 102300Z 1100/1124 33008KT 9999 SCT015
     TEMPO 1100/1102 29005KT 6000 BKN013
     BECMG 1113/1115 00000KT 7000 FEW015
     PROB30 TEMPO 1120/1124 VRB04KT 5000 -TSRA FEW020CB SCT013=

00000000