0000013500
474
SNVD02 CWAO 110800
BBXX
SHIP 11084 99513 70569 46/// /2617 11071 21115 40155 51023 7//// 8//// 22200 0//// 2//// =

0000013500
475
SNVD02 CWAO 110800
BBXX
SHIP 11084 99455 70735 46/// /3505 11054 21066 4//// 5//// 7//// 8//// 22200 0//// 2//// =

0000013500
476
SNVD02 CWAO 110800
BBXX
SHIP 11084 99430 70879 46/// /2206 10052 20035 4//// 5//// 7//// 8//// 22200 0//// 2//// =

0000013500
477
SNVD02 CWAO 110800
BBXX
SHIP 11084 99488 70676 46/// /1707 11063 21093 40210 56003 7//// 8//// 22200 0//// 2//// =

0000013500
478
SNVD02 CWAO 110800
BBXX
SHIP 11084 99623 70748 46/// /2208 11185 21241 40060 53023 7//// 8//// 22200 0//// 2//// =

0000012200
479
SAIN90 VEGY 110800
METAR VEGY 110800Z 05006KT 0800 TSRA FEW010 BKN018 FEW030CB OVC080 17/16 Q1016 N
OSIG=

0000010000
480
SAIN90 VERC 110800
VERC 110800Z 36008KT 1200 MIFG SCT 015 OVC080 17/12  Q1017 NOSIG=
0000009700
481
SAIN90 VIDP 110800
METAR VIDP 110800Z 33011KT 2700 HZ NSC 17/08 Q1017 BECMG 3000=
0000012600
482
SAIN90 VEGY 110745 CCA
METAR VEGY 110745Z 05006KT 0800 TSRA FEW010 BKN018 FEW030CB OVC080 17/16 Q1016 NOSIG =

0000013500
483
SNVD02 CWAO 110800
BBXX
SHIP 11084 99429 70824 46/// /1813 10053 20063 40018 56044 7//// 8//// 22200 0//// 2//// =

0000013500
484
SNVD02 CWAO 110800
BBXX
SHIP 11084 99474 70619 46/// /2209 11037 21081 40239 51008 7//// 8//// 22200 0//// 2//// =

0000013800
485
SNVD17 KWNB 110800 RRG
BBXX
52202 11081 99137 11448 46/// ///// 1//// 90800 22200 00283 10704
20704 305// 41101 70022=
0000013800
486
SNVD17 KWNB 110800 RRF
BBXX
52211 11081 99153 11457 46/// ///// 1//// 90748 22200 00281 10905
20905 304// 41101 70025=
0000027100
487
SNVD22 KWNB 110800 RRG
BBXX
46041 11081 99473 71247 46/// ///17 1//// 49969 56042 90750 22200
00086 10910 20708 3//// 40907 70051 333 91221 555 11179 22192=
46232 11081 99325 71174 46/// ///// 1//// 90803 22200 00161 11303
20802 328// 41302 70013=
0000012200
488
SNRE15 FMEE 110800
AAXX 11084
61996 26/// /2618 10185 20093 30188 40222 52002
  333 60005 90710 91127=
0000012800
489
SNRE15 FMEE 110800
AAXX 11084
61998 26/// /2214 10074 20017 30025 40062 51001
  333 58026 60005 90710 91121=
0000097500
490
UDAS02 BABJ 110756
AMDAR 1107
DES CNFOZN 3616N 12038E 110751 F073 MS090 303/016 TB/ S//1=
DES CNFOZN 3618N 12036E 110751 F066 MS085 313/019 TB/ S//1=
DES CNFOZN 3620N 12032E 110752 F060 MS080 320/020 TB/ S//1=
DES CNFOZN 3621N 12029E 110753 F052 MS079 307/012 TB/ S//1=
ASC CNFNXL 3648N 11710E 110752 F040 MS036 227/015 TB/ S//1=
ASC CNFNXL 3648N 11708E 110753 F052 MS053 262/015 TB/ S//1=
ASC CNFNXL 3648N 11705E 110754 F068 MS073 273/018 TB/ S//1=
DES CNFPXL 3138N 11750E 110752 F134 MS116 249/048 TB/ S//1=
DES CNFPXL 3139N 11755E 110752 F126 MS090 252/046 TB/ S//1=
DES CNFPXL 3139N 11757E 110753 F123 MS085 252/046 TB/ S//1=
DES CNFPXL 3139N 11803E 110754 F109 MS060 263/033 TB/ S//1=
LVR CNFPYM 3644N 11254E 110745 F291 MS475 268/099 TB/ S//1=
LVR CNFPYM 3623N 11300E 110748 F291 MS470 264/092 TB/ S//1=
LVR CNFPYM 3602N 11308E 110751 F291 MS470 264/086 TB/ S//1=
LVR CNFPYM 3545N 11323E 110754 F291 MS465 269/090 TB/ S//1=
0000035500
491
UDAS02 BABJ 110754
AMDAR 1107
ASC CNFNXL 3651N 11713E 110751 F004 PS046 284/008 TB/ S//1=
ASC CNFNXL 3650N 11713E 110751 F008 PS036 277/008 TB/ S//1=
ASC CNFNXL 3650N 11713E 110752 F015 PS015 266/010 TB/ S//1=
ASC CNFNXL 3649N 11713E 110752 F017 PS010 263/011 TB/ S//1=
ASC CNFNXL 3649N 11712E 110752 F020 PS006 252/007 TB/ S//1=
0000014000
492
SNDL21 EDZW 110800 RRA
AAXX 11081
10004 46/58 /2212 10078 20067 3007/ 40073 56011
222// 00080
  333 55300 91115 91212=
0000021700
493
SNDL22 EDZW 110800 RRA
AAXX 11081
10007 46/41 /2214 10065 20056 30084 40084 56007
222// 00072
  333 553// 91116 91214=
10439 42459 79901 11001 21005 39946 40173 57001 8563/
  333 85710 83364=
00000000