0000022800
006
SABU31 LBSM 110130
METAR LBSF 110130Z VRB01MPS 1000 R27/P2000N BR FEW004 M02/M02 Q1022
    NOSIG=
METAR LBWN 110130Z 31005MPS CAVOK 05/02 Q1020 NOSIG=
METAR LBBG 110130Z 27002MPS CAVOK 03/01 Q1020 NOSIG=

0000087700
007
FTIL31 BICC 110200
TAF BIKF 110112Z 1103/1203 26013KT 9999 FEW020 SCT035 BKN050
         PROB40 TEMPO 1103/1109 3000 SHSN BKN012
         BECMG 1111/1114 18010KT
         BECMG 1118/1121 14010KT
         PROB30 TEMPO 1119/1124 3000 SHSN BKN015=
TAF BIRK 110112Z 1103/1203 27010KT 9999 SCT015 BKN027 BKN045
         PROB40 TEMPO 1103/1109 3000 SHSN BKN012
         BECMG 1109/1112 VRB02KT
         BECMG 1121/1124 10010KT=
TAF BIAR 110112Z 1103/1203 15012KT 9999 BKN035 OVC050
         TEMPO 1200/1107 16020G35KT
         TEMPO 1106/1115 3000 SN BKN012
         BECMG 1113/1116 21008KT 9999 FEW025 SCT035=
TAF BIEG 110112Z 1103/1203 06020G30KT 7000 SNRA SCT012 OVC020
         TEMPO 1103/1109 2000 SN BKN008 OVC012
         BECMG 1109/1112 27010KT 9999 NSW SCT020 BKN035
         PROB40 TEMPO 1109/1115 5000 SHSN BKN015 OVC025=

0000009100
008
SANC01 NWWW 110130
METAR NWWW 110130Z AUTO 14020KT 9999 NSC 31/15 Q1011=

0000042100
009
FTCN34 CWAO 110100 AAA
TAF AMD CYWG 110132Z 1101/1124 30009KT P6SM SCT004 OVC012 TEMPO
     1101/1103 2SM -SN -FZDZ BR OVC004 PROB30 1101/1103 3/4SM BR
     OVC003
    FM110300 21007KT P6SM OVC012 TEMPO 1103/1105 21/2SM -SN BR OVC008
    FM110500 31010KT P6SM BKN025 TEMPO 1105/1108 5SM -SN OVC012
    FM110900 30008KT P6SM SCT020 PROB30 1109/1115 1SM BR BKN005
    RMK NXT FCST BY 110600Z=

0000017100
010
SACY31 LCLK 110130
METAR LCLK 110130Z 32004KT CAVOK 10/06 Q1021 NOSIG=
METAR LCPH 110130Z AUTO 02009KT 9999 NCD 10/06 Q1022=
METAR LCNC 110130Z NIL=

0000013100
011
FTAI41 FHAW 110200
TAF FHAW 110130Z 1103/1121 14012KT 9999 FEW020 PROB30 TEMPO 1103/1108
 7000
-SHRA SCT018=

0000022600
012
SACZ31 LKPW 110130
METAR LKKV 110130Z NIL=
METAR LKMT 110130Z 24006KT CAVOK 01/M01 Q1019 NOSIG=
METAR LKPR 110130Z 23009KT CAVOK 02/M01 Q1018 NOSIG=
METAR LKTB 110130Z 16002KT CAVOK 01/M01 Q1019 NOSIG=

0000009700
013
SAIL31 BICC 110130
METAR BIKF 110130Z 26015KT 9999 FEW042 BKN090 02/M04 Q0993=

0000086000
014
FTNT31 KWBC 110133
TAF
TAF BIAR 110112Z 1103/1203 15012KT 9999 BKN035 OVC050
      TEMPO 1200/1107 16020G35KT
      TEMPO 1106/1115 3000 SN BKN012
      BECMG 1113/1116 21008KT 9999 FEW025 SCT035=
TAF BIEG 110112Z 1103/1203 06020G30KT 7000 SNRA SCT012 OVC020
      TEMPO 1103/1109 2000 SN BKN008 OVC012
      BECMG 1109/1112 27010KT 9999 NSW SCT020 BKN035 PROB40
      TEMPO 1109/1115 5000 SHSN BKN015 OVC025=
TAF BIKF 110112Z 1103/1203 26013KT 9999 FEW020 SCT035 BKN050
      PROB40
      TEMPO 1103/1109 3000 SHSN BKN012
      BECMG 1111/1114 18010KT
      BECMG 1118/1121 14010KT PROB30
      TEMPO 1119/1124 3000 SHSN BKN015=
TAF BIRK 110112Z 1103/1203 27010KT 9999 SCT015 BKN027 BKN045
      PROB40
      TEMPO 1103/1109 3000 SHSN BKN012
      BECMG 1109/1112 VRB02KT
      BECMG 1121/1124 10010KT=

0000015400
015
FTUS75 KWBC 110133 AAA
TAF AMD
NSTU 110131Z 1102/1124 34012KT P6SM VCSH SCT014 BKN040 OVC100
      TEMPO 1102/1104 4SM SHRA BKN014=

0000047500
016
SAYG31 LYBM 110130
METAR LYBE 110130Z 15007KT CAVOK 06/02 Q1023 NOSIG=
METAR LYBT 110130Z 17003KT 0500 FG NSC 01/01 Q1023 NOSIG=
METAR LYKV 110130Z NIL=
METAR LYNI 110130Z 11002KT CAVOK 01/00 Q1024=
METAR LYPG 110130Z 01006KT 9999 BKN100 08/06 Q1023 NOSIG=
METAR LYPR 110130Z NIL=
METAR LYTV 110130Z VRB01KT 9999 FEW050 08/08 Q1022=
METAR LYUZ 110130Z 11004KT 9999 BKN020 04/04 Q1022=
METAR LYVR 110130Z VRB01KT 7000 NSC 02/M00 Q1023 NOSIG=

0000040700
017
SAPL31 EPWA 110130
METAR EPGD 110130Z 28014KT 8000 -SHRA BKN011 FEW020TCU
    05/04 Q1007 =
METAR EPKK 110130Z 24010KT 9999 BKN046 04/M01 Q1017 =
METAR EPLL 110130Z 27013KT CAVOK 05/00 Q1014 =
METAR EPPO 110130Z 25009KT 9999 BKN046 05/01 Q1014
    R10/19//95 =
METAR EPRZ 110130Z 26015KT CAVOK 05/M02 Q1016 =
METAR EPWA 110130Z 26017KT 240V300 9999 BKN036 05/01 Q1011 NOSIG=

0000035100
018
SAPL32 EPWA 110130
METAR EPBY 110130Z 26011KT CAVOK 06/02 Q1011 =
METAR EPKT 110130Z 24009KT 9999 SCT045 03/M01 Q1016 =
METAR EPLB 110130Z NIL=
METAR EPMO 110130Z 25015KT 9999 BKN025 05/02 Q1011=
METAR EPSC 110130Z 25006KT 9999 BKN019 05/02 Q1012 =
METAR EPWR 110130Z 24007KT CAVOK 04/M00 Q1017 =
METAR EPZG 110130Z NIL=

0000027000
019
SAIE31 EIDB 110130
METAR EIDW 110130Z 24009KT 9999 FEW025 02/01 Q1011 NOSIG=
METAR EINN 110130Z 21007KT 9999 FEW018CB 04/03 Q1013 TEMPO 1200
     BKN004=
METAR EICK 110130Z 26006KT 240V300 9999 FEW016 02/01 Q1013 NOSIG=
METAR EIKN 110130Z NIL=

0000010800
020
SAIO31 KWBC 110100 RRD
METAR
FMMI 110130Z VRB02KT 9999 FEW017 SCT230 17/17 Q1021 NOSIG=

0000018600
021
SANL32 EHDB 110125
METAR EHEH 110125Z AUTO 19007KT 9999 FEW010 04/02 Q1015 
BLU=
METAR EHKD 110125Z AUTO 21018KT 8000 BR BKN006 BKN008 OVC009 07/06
Q1012 
YLO=

0000011100
022
SADL34 EDZO 110120 RRA
METAR EDNY 110120Z AUTO 09003KT 0100 R24/0325N FG BKN001 01/00 Q1019=

0000011000
023
SAMJ41 LWSK 110130
METAR LWSK 110130Z 00000KT 0250 R34/0400N FG OVC002 01/01 Q1024
NOSIG=

0000028800
024
FTKO31 RKSI 110110 AAA
TAF AMD RKTU 110110Z 1101/1206 27006KT 3200 BR SCT030 SCT200
         BECMG 1102/1103 4800
         BECMG 1103/1104 9999 NSW
         BECMG 1121/1122 4800 -SN BR BKN030
         BECMG 1200/1201 4800 BR
         BECMG 1201/1202 9999 NSW=

0000018400
025
SADL36 EDZO 110120
METAR ETNL 110120Z 25007KT 9999 BKN024 SCT029 04/03 Q1012
      WHT=
METAR ETSI 110120Z AUTO 20001KT 0300 // ////// M03/M03 Q1019
      ///=

00000000