0000036900
126
SXXX32 EUMS 111042 RRX
22E595B6
:PRS 1 /1 M 3919 3908 3951 3888 3962 3939 3960 3947 3955 3925 3961 3953 3952 3971 3961 3983 3985 3976 4018 4011 4029 4026 3976 4039 3980 4024 4000 3947 3985 :RAD 1 /3 7107 7122 7133 7147 7170 7201 7291 7412 7551 7542 :ENC 2 /5 5239 5257 5274 5314 5312 5276 :SW1 42 /60 0 :SW2 12 /60 60 :BAT 14 /15 12.7 :NAME 22E595B6 /
0000065100
127
SXXX32 EUMS 111042 RRX
16AF741C
OT12 ID:SA-MAIS-07 DT:2014 01 11 10 32
:RAD /1 08960 08917 08954 08960 09011 08958 08956 08949 08968 08966 08928 09062 08992 09011 08918 08980 08972 08904 09016 08988 08891 08939 08988 08954 08981 09015 08916 08929 08930 08872 09010 09018 08993 08920 89074 09018 08995 08987 08980 09007 09152 08985 09050 09038 08929 09013 09034 09013 09018 09027 08969 09016 09137 09005 09045 08968 09027 09048 09058 09005 09172 08999 08972 09047 08976 09037 08999 09060 09041 09122 09008 09038 08978 09045 09077 09047 09162 09083 09115 09048 09096 09081 09005 09069 09136 09110 09116 09057 08992 /////
:BAT 14.4V
0000045100
128
SXXX32 EUMS 111043 RRX
32BD7124
:PRS 1 /1 2170 2170 2168 2169 2173 2176 2176 2175 2175 2178 2191 2194 2199 2197 2200 2200 2199 2203 2203 2205 2207 2210 2213 2215 2206 2212 2211 2213 2218 2219 :RAD 3 /3 7955 7966 7971 7986 7989 7990 7994 8003 8002 8009 8013 8022 8030 8036 8042 8049 8058 8068 8079 8086 :ENC 3 /5 4957 4971 4984 4988 4996 5004 5014 5029 5039 5051 5071 5086 :SW1 44 /60 0 :SW2 14 /60 0 :BAT 14 /15 12.9 :NAME 32BD7124 /
0000067100
129
SXXX32 EUMS 111043 RRX
16F152DA
OT12 ID:IR-JASK-09 DT:2014 01 11 10 33
:RAD /1 02215 02220 02228 02225 02230 02242 02252 02258 02267 02274 02282 02294 02288 02297 02304 02308 02316 02331 02343 02351 02355 02357 02359 02348 02343 02332 02326 02319 02314 02327
:PR1 /1 -0101 -0104 -0102 -0103 -0102 -0104 -0101 -0103 -0102 -0103 -0103 -0102 -0103 -0104 -0104 -0105 -0103 -0103 -0103 -0105 -0104 -0102 -0104 -0102 -0104 -0105 -0103 -0101 -0103 -0103
:PR2 /1 01033 01040 01038 01043 01053 01061 01062 01078 01086 01093 01102 01109 01119 01115 01126 01133 01139 01145 01162 01172 01184 01185 01190 01190 01173 01166 01149 01147 01150 01151
:BAT 13.5V
0000070200
130
SXXX32 EUMS 111043 RRX
223412A2
OT12 ID:IND-SADENG DT:2014 01 11 10 42
:PRS /1 02082 02068 02129 02088 02107 02184 02145 02085 02114 02184 02006 02138 02148 02129 02088 02128 02124 02128 02086 02062 02103 02146 02154 02110 02070 02040 02035 02114 02199 02111
:ENC /1 -12729 -12733 -12693 -12719 -12696 -12633 -12673 -12713 -12693 -12649 -12749 -12699 -12673 -12689 -12699 -12686 -12659 -12663 -12719 -12736 -12699 -12653 -12636 -12663 -12699 -12746 -12749 -12703 -12603 -12696
:RAD /1 11800 11798 11846 11851 11822 11876 11906 11848 11840 11837 11805 11847 11855 11871 11830 11851 11880 11832 11808 11782 11771 11871 11880 11902 11842 11807 11774 11828 11871 11852
:BAT 12.0V/
0000039700
131
SXXX32 EUMS 111045 RRX
16590056
:PRS 1 /1 2304 2307 2300 2303 2307 2303 2309 2307 2311 2316 2320 2326 :RAD 1 /1 6609 6611 6605 6608 6611 6607 6614 6612 6617 6619 6625 6632 6638 6640 6644 6647 6654 6653 :ENC 6 /6 4833 4859 4862 4854 4892 4920 4916 4929 4960 4970 :ENB 6 /6 4833 4858 4859 4853 4892 4919 4915 4928 4960 4970 :SW1 45 /60 0 :SW2 12 /60 0 :BAT 5 /6 13.0 :NAME 16590056
0000041300
132
SXXX32 EUMS 111045 RRX
262D700E
:PRS 1 /1 2179 2159 2184 2187 2174 2182 2178 2148 2114 2135 2141 2126 2111 2143 2150 2126 2137 2124 2096 2041 2065 2077 2036 2088 2080 2101 2098 2133 2078 2075 :RAD 1 /3 4596 4578 4562 4557 4546 4525 4517 4524 4517 4496 4483 4479 4467 4450 4442 :ENC 5 /5 4700 4681 4664 4616 4644 4591 4587 4565 4540 4552 4504 4531 :SW1 45 /60 60 :BAT 14 /15 13.5 :NAME 262D700E /
0000166800
133
SAUS71 KWBC 102200 RRC
METAR
KMHT 102153Z 00000KT 10SM FEW019 BKN090 M01/M02 A3032=
KMIV 102154Z AUTO 00000KT 1/2SM RA FG VV004 04/04 A3031=
KMMU NIL=
KMRB 102153Z 07003KT 1 3/4SM -RA BR OVC010 03/01 A3027=
KMSS 102153Z AUTO 07005KT 10SM OVC018 M02/M06 A3024=
KMTN NIL=
KMYR NIL=
KNKT 102154Z AUTO 13008KT 10SM FEW030 SCT045 BKN110 19/14
     A3024=
KOQU 102150Z 21006KT 1SM BR BKN005 OVC020 00/00 A3038=
KORF 102151Z AUTO 36004KT 2 1/2SM BR SCT004 BKN055 OVC075 06/04
     A3030=
KORH 102154Z 23007KT 6SM BR OVC004 01/00 A3031=
KPHF 102154Z AUTO 05003KT 3SM -RA BR FEW005 BKN043 OVC080 07/04
     A3030=
KPHL 102154Z 07004KT 1 1/4SM BR OVC006 02/01 A3034=
KPIT 102151Z 14004KT 10SM SCT011 BKN065 BKN250 08/05 A3011=
KPKB 102153Z 14004KT 10SM BKN017 OVC031 10/07 A3010=
KPLB NIL=
KPOU 102153Z 00000KT 7SM FEW017 OVC080 01/M03 A3033=
KPQI 102155Z AUTO 16004KT 10SM FEW038 M09/M18 A3025=
KPSM 102158Z 20003KT 6SM BR BKN018 OVC070 M01/M01 A3034=
KPVD 102151Z 00000KT 1 1/2SM BR BKN010 OVC030 01/M01 A3037=
KPWM 102151Z 21004KT 10SM OVC070 M01/M05 A3035=
KRDG 102154Z 00000KT 3SM HZ OVC011 01/M02 A3032=
KRDU 102151Z 04005KT 1 1/2SM -RA BR OVC004 07/06 A3021=
KRIC 102154Z 07004KT 2SM -RA BR OVC003 04/03 A3028=
KROA 102154Z 00000KT 1SM -RA BR OVC005 03/03 A3024=
KROC 102154Z 14005KT 10SM OVC024 04/M01 A3014=
KRWI 102153Z AUTO 03004KT 3SM -RA BR BKN065 OVC080 10/09 A3023=
KSAV 102153Z 14007KT 2SM R01/5500VP6000FT RA BR SCT006 BKN012
     OVC020 19/18 A3012=
KSBY 102154Z 10004KT 1 1/2SM -RA BR SCT003 BKN070 OVC090 07/06
     A3031=
KSCH 102150Z 15004KT 10SM OVC046 01/M03 A3029=

0000053200
134
SAUS71 KWBC 102200 RRD
METAR
KSLK 102151Z AUTO 23005KT 8SM OVC011 M02/M04 A3015=
KSWF NIL=
KSYR 102154Z 10005KT 10SM BKN035 OVC060 02/M02 A3021=
KTEB 102151Z 00000KT 2SM BR OVC007 01/M01 A3035=
KTOL 102152Z 15007KT 9SM FEW007 OVC024 03/02 A2996=
KTTN 102153Z 05003KT 1 1/2SM -RA BR OVC004 01/00 A3033=
KUCA NIL=
KWRI 102158Z AUTO 04002KT 1SM R06/3500FT BR VV003 02/02 A3031=
KYNG 102151Z 15006KT 2 1/2SM BR BKN005 OVC012 04/03 A3008=
KZZV 102153Z AUTO 12005KT 5SM BR BKN007 OVC025 07/05 A3005=

0000018700
135
FTKR31 ZKPY 102150
TAF ZKPY 102150Z 1100/1124 33004MPS 9999 SKC BECMG 1106/1107
 26004MPS 6000 
NSC BECMG 1111/1112 19004MPS OVC033 TEMPO 1114/1120 2000 -SN OVC020=

0000011100
136
SAUK37 EGGY 102150 RRA
METAR EGPI 102150Z AUTO 28011KT 9999 FEW031/// SCT040/// 06/02 Q1008=

0000009500
137
SAUK38 EGGY 102150 RRA
METAR EGPU 102150Z AUTO 25012KT 9999 NCD 03/01 Q1006=

0000013300
138
SACN62 CYCD 102200
METAR CYCD 102200Z 04002KT 15SM FEW010 FEW030 OVC080 07/06 A2995 RMK
 SF1SC1AC6 VIRGA SLP141=

0000011200
139
SACN62 CYGR 102200
METAR CYGR 102200Z 24017G25KT 15SM FEW240 M05/M09 A3025 RMK CI1
 SLP244=

0000010600
140
SACN62 CYSJ 102200
METAR CYSJ 102200Z 23008KT 15SM OVC027 M01/M05 A3031 RMK SC8 SLP272=

0000011200
141
SACN62 CYGL 102200
METAR CYGL 102200Z 22008KT 4SM -SN OVC005 M06/M07 A2971 RMK SC8
 SLP079=

0000011900
142
SACN62 CYUY 102200
METAR CYUY 102200Z 20009KT 2 1/2SM -SN BR OVC005 M05/M05 A2995 RMK
 SF8 SLP165=

0000010600
143
SACN62 CYCY 102200
METAR CYCY 102200Z 26004KT 15SM FEW160 M25/M28 A2918 RMK AS1 SLP886=

0000013300
144
SACN62 CYSB 102200
METAR CYSB 102200Z 16010KT 1/8SM R22/1600FT/N -FZDZ FZFG VV001
 M03/M03 A2995 RMK FG8 SLP163=

0000011900
145
SACN62 CYVQ 102200
METAR CYVQ 102200Z 00000KT 25SM BKN080 BKN270 M25/M29 A2975 RMK
 AC6CI1 SLP086=

00000000