0000081400
286
SACH10 SCSC 110300
METAR SCFA 110300Z 17008KT 9999 SCT014 20/17 Q1012 NOSIG=
METAR SCAR 110300Z 16002KT CAVOK 23/17 Q1013=
METAR SCBA 110300Z AUTO 31017G28KT CAVOK 09/03 Q1020=
METAR SCCF 110300Z 22007KT CAVOK 14/06 Q1025=
METAR SCIE 110300Z 24006KT CAVOK 15/10 Q1016=
METAR SCAT 110300Z AUTO 00000KT 9999 // ///011 17/14 Q1013=
METAR SCDA 110300Z 19009KT CAVOK 22/17 Q1013=
METAR SCSE 110300Z 24002KT CAVOK 16/14 Q1011=
METAR SCJO 110300Z NIL=
METAR SCTE 110300Z 16004KT CAVOK 10/07 Q1024 NOSIG=
METAR SCNT 110300Z NIL=
METAR SCCI 110300Z 30006KT 9999 SCT030 OVC090 08/04 Q1010 NOSIG=
METAR SCEL 110300Z 14006KT CAVOK 21/06 Q1013 NOSIG=
METAR SCIP 110300Z VRB03KT 9999 FEW020 SCT060 23/17 Q1020 NOSIG=
METAR SCPQ 110300Z AUTO 22003KT 160V250 9999 BKN032 10/07 Q1024=

0000009800
287
SACV20 GVNP 110300
METAR GVNP 110300Z /////KT 9999 BKN019  XX/XX Q////
NOSIG=

0000010600
288
SAPR01 SPIM 110300
METAR SPIM 110300Z 16011KT CAVOK 22/19 Q1012 NOSIG RMK SCT170 PP000=

0000024300
289
FTUS54 KWBC 110257 AAA
TAF AMD
KCEC 110254Z 1103/1124 16009KT P6SM SCT023 SCT050 OVC060
     FM110700 16015G25KT P6SM OVC004
     FM110900 17025G35KT 2SM RA BR BKN002
     FM111800 19018G25KT 2SM RA BR SCT002 OVC020=

0000058900
290
FTUS80 KWBC 110257 AAA
TAF AMD
KCEC 110254Z 1103/1124 16009KT P6SM SCT023 SCT050 OVC060
     FM110700 16015G25KT P6SM OVC004
     FM110900 17025G35KT 2SM RA BR BKN002
     FM111800 19018G25KT 2SM RA BR SCT002 OVC020=
KOAJ 110255Z 1103/1124 14006KT P6SM VCSH SCT015 BKN025
      TEMPO 1103/1105 5SM -RA BKN007
     FM110500 15008KT 5SM BR VCSH BKN009
     FM111300 19015G25KT P6SM BKN050
     FM112100 20016G25KT 5SM -RA VCTS BKN025CB AMD LTD TO CLD VIS
      AND WIND=
KPHX 110254Z 1103/1124 09004KT P6SM FEW250
     FM112200 26004KT P6SM FEW250=

0000010500
291
SPUS41 KWBC 110257
SPECI
KCEF 110255Z AUTO 29003KT 6SM BR SCT005 OVC009 00/00 A3030=

0000011300
292
SAAK31 KWBC 110200 RRE
METAR
PAOM 110153Z COR 04017KT 10SM DRSN FEW032 SCT100 M12/M19 A2964=

0000039400
293
SAMX34 MMMD 110300
METAR MMMD 110244Z 12008KT 7SM  SKC 24/20 A2996 RMK SLP143 53014 931=
METAR MMUN 110242Z 11008KT 7SM  SCT015 26/23 A3001 
      RMK SLP155 52014 990 8/500 ISOL TCU=
METAR MMCZ 110241Z 00000KT 7SM  SCT015 20/20 A3001 
      RMK SLP170 52032 980 8/100 VC TCU=
METAR MMTP 110245Z 00000KT 10SM  SCT250 27/22 A2985 
      RMK SLP099 52004 961 8/002=

0000008700
294
SAUK33 EGGY 110250 RRA
METAR EGNS 110250Z 28005KT CAVOK 04/02 Q1011=

0000010300
295
SAIY32 LIIB 110250 RRB
METAR LIPH 110245Z /////KT 1800 BR SCT020 BKN035 06/05 Q1021=

0000009500
296
SAEG31 HECA 110300
METAR HECA 110300Z 00000KT 2000 BR NSC 10/08 Q1023 NOSIG=

0000008900
297
SABZ24 SBCT 110300
METAR SBCT 110300Z 04002KT 9999 FEW010 20/17 Q1018=

0000013100
298
SALT34 EYVI 110250
METAR EYSA 110250Z AUTO 27015KT 9999NDV -SHSN OVC014 01/M01 Q1002 
R14L/2/0295 R14R/2/0295=

0000010200
299
SACV20 GVSV 110300
METAR GVSV 110300Z 07006KT 9999 SCT023 BKN200 19/15 Q1016 NOSIG=

0000008900
300
SAID33 WALR 110300
METAR WALR 110300Z 31008KT 9000 SCT015 29/24 Q1012=

0000008700
301
SAMX41 MMMX 110258
METAR MMPB 110253Z 28003KT 10SM  SKC 12/05 A3029=

0000011500
302
SAMJ41 LWSK 110300
METAR LWSK 110300Z 00000KT 0400 R34/0550V0650N FG OVC002 01/00 Q1024
NOSIG=

0000011200
303
SAID31 WIII 110300
METAR WIII 110300Z 34002KT 9000 FEW020CB SCT021 31/23 Q1010 RMK CB TO
W=

0000011800
304
SABZ24 SBFL 110300
METAR SBFL 110300Z 13005KT 9000 TS VCSH BKN014
BKN030 FEW035CB 24/22 
Q1013=

0000098400
305
SANL33 EHDB 110255
METAR EHAK 110255Z AUTO 24021KT 2500 -DZRA FEW001/// BKN003///
OVC004/// 07/06 Q1005 REDZ=
METAR EHDV 110255Z AUTO 23024KT 9999 -DZ FEW005/// SCT009///
BKN012/// 08/06 Q1007 REDZ=
METAR EHFD 110255Z AUTO 24023KT 9999 DZRA FEW019/// SCT023///
BKN036/// 08/07 Q1006=
METAR EHFZ 110255Z AUTO 23022KT //// // ///////// 08/07 Q1009 RE//=
METAR EHJA 110255Z AUTO 22026KT 9999 -RA FEW025/// BKN031///
BKN036/// 07/06 Q1008 RERA REDZ=
METAR EHJR 110255Z NIL=
METAR EHKV 110255Z AUTO 26031KT 9999 FEW011/// SCT013/// BKN016///
09/06 Q1010=
METAR EHMA 110255Z AUTO 21020KT 7000 SCT006/// BKN007/// OVC008///
07/06 Q1011=
METAR EHMG 110255Z AUTO 23024KT 9999 FEW011/// SCT015/// BKN019///
09/07 Q1010=
METAR EHPG 110255Z AUTO ///27KT 9999 -RADZ FEW011/// SCT016///
BKN020/// 09/07 Q1011=
METAR EHQE 110255Z AUTO 24023KT 9999 FEW009/// SCT011/// BKN014///
09/07 Q////=
METAR EHSA 110255Z NIL=
METAR EHSC 110255Z NIL=

00000000