0000009500
746
SAVN22 SVMI 102200
METAR SVMI 102200Z 07004KT 9999 SCT016 27/21 Q1013 NOSIG=

0000088000
747
SAMX45 MMMY 102155
METAR MMMY 102143Z 03006KT 8SM  SCT160 SCT250 25/13 A2982 
      RMK 8/072 HZY=
METAR MMAN 102141Z 10009KT 7SM  SCT200 27/15 A2985 RMK 8/002 HZY=
METAR MMMA 102140Z 16014G24KT 7SM  SKC 26/19 A2984 RMK BLDU=
METAR MMIO 102140Z 29008KT 10SM SCT200 25/11 A3001 RMK 8/001=
METAR MMRX 102142Z 18005KT 10SM  SKC 28/14 A2980 RMK HZY FU ST=
METAR MMNL 102141Z 35004KT 10SM  SCT230 26/13 A2983 RMK 8/002=
METAR MMCV 102140Z 17008G18KT 6SM  SKC 26/14 A2980 
      RMK HZY BLDU ISOL SC=
METAR MMTC 102140Z 00000KT 10SM FEW120 BKN250 22/M02 A2998
      RMK 8/072=
METAR MMMV 102140Z 25015KT 8SM BKN080 27/// A2984 RMK 8/070 HZY=
METAR MMCU 102140Z 18004KT 10SM SKC 21/M01 A3000
      RMK CI SE=
METAR MMPG 102140Z 00000KT 8SM SCT100 BKN200 21/13 A2984
      RMK 8/071 HZY=
METAR MMCS 102140Z 27008KT 10SM SKC 18/M06 A2991=

0000009800
748
SPCN51 CWAO 102155
SPECI CZCP 102155Z AUTO 29022KT 3/4SM -SN FEW001 M32/ A2941=

0000048100
749
SAGR33 LGAT 102150
METAR LGBL 102150Z 27004KT 9999 FEW020 SCT180 06/04 Q1020 NOSIG=
METAR LGHI 102150Z NIL=
METAR LGKC 102150Z NIL=
METAR LGKF 102150Z AUTO VRB01KT //// // ////// 14/09 Q1022
     RE//=
METAR LGKP 102150Z NIL=
METAR LGKZ 102150Z AUTO VRB03KT //// // ////// 08/M01 Q1020
     RE//=
METAR LGMK 102150Z NIL=
METAR LGNX 102150Z NIL=
METAR LGPA 102150Z AUTO VRB03KT //// // ////// 14/13 Q1019
     RE//=
METAR LGSO 102150Z NIL=

0000008900
750
SABZ21 SBNT 102200
METAR SBNT 102200Z 12010KT 9999 SCT023 27/21 Q1011=

0000009400
751
SAAG41 SARI 102200
METAR SARI 102200Z  00000KT 9999  SCT030  31/24
Q1010=

0000029200
752
FTES31 MSLP 102125
TAF MSLP 102125Z 1100/1124 23007KT 9999 FEW060 TX33/1118Z TN20/1111Z 
FM110300 02009KT CAVOK
FM111800 18010KT 9999 FEW066=
TAF MSSS 102125Z 1100/1124 18007KT 9999 FEW047 TX31/1118Z TN17/1111Z
FM110600 35007KT CAVOK
FM112000 17008KT 9999 FEW043=

0000012400
753
SAUK31 EGGY 102150 CCB
METAR COR EGCC 102150Z 19012KT 9999 FEW015 BKN019 08/06 Q1008 TEMPO
     BKN014=

0000010000
754
SPUS43 KWBC 102156
SPECI
KINL 102152Z AUTO 16005KT 2SM BR OVC004 M05/M07 A2948=

0000040200
755
SASW39 LSSW 102150 RRA
METAR LSMA 102150Z AUTO 20004KT 3600NDV BR SCT003 00/M00 Q1019 RMK
           GRN=
METAR LSMD 102150Z AUTO VRB01KT 1100NDV R11/0750VP2000U R29/P2000N
           BR OVC001 01/01 Q1019 RMK RED=
METAR LSME 102150Z AUTO 04002KT 3700NDV BR FEW001 OVC004 01/01 Q1020
           RMK AMB=
METAR LSMP 102150Z AUTO 00000KT 5000NDV SCT130 02/01 Q1019 RMK GRN=

0000028400
756
FTCA33 KWBC 102157
TAF
TAF TNCA 102200Z 1100/1124 08013KT 9999 SCT018
      TEMPO 1104/1112 BKN014=
TAF TNCB 102200Z 1100/1124 09012KT 9999 SCT018
      TEMPO 1104/1112 BKN014=
TAF TNCC 102200Z 1100/1124 09011KT 9999 SCT018
      TEMPO 1104/1112 BKN014=

0000034100
757
SANL31 EHDB 102155
METAR EHAM 102155Z 21014KT 9000 FEW008 SCT010 06/05 Q1015 TEMPO 7000
BKN010=
METAR EHBK 102155Z AUTO 20010KT 9999 NSC 03/02 Q1017 NOSIG=
METAR EHGG 102155Z AUTO 22012KT 6000 SCT007 BKN009 OVC010 06/05 Q1013
NOSIG=
METAR EHRD 102155Z AUTO 20013KT 170V230 8000 SCT009 OVC010 06/04
Q1015 NOSIG=

0000007700
758
FTDL33 EDZO 101700 AAB
TAF AMD EDLW 102152Z 1021/1118 CNL=

0000007700
759
FTDL34 EDZO 101700 AAB
TAF AMD EDLW 102152Z 1021/1118 CNL=

0000008900
760
SAQB31 LQSM 102200
METAR LQSA 102200Z 00000KT 8000 BKN060 06/04 Q1022=

0000006100
761
SAOS32 LOWM 102150
METAR LOXZ 102150Z NIL=

0000049800
762
SAOS31 LOWM 102150
METAR LOWW 102150Z 24007KT CAVOK 03/M01 Q1021 NOSIG=
METAR LOWL 102150Z VRB01KT CAVOK 00/M01 Q1021 NOSIG=
METAR LOWS 102150Z 14004KT 110V170 9999 SCT035 BKN080 04/02 Q1020
NOSIG=
METAR LOWI 102150Z VRB01KT 6000 SCT003 BKN007 03/03 Q1020 R08/29//75
NOSIG=
METAR LOWG 102150Z VRB02KT 2000 BR SCT002 OVC006 04/03 Q1021
R17/29//95 BECMG 1200 BCFG BKN002=
METAR LOWK 102150Z VRB02KT 0700 R10/1000N R28/0800N FG VV002 02/02
Q1021 R10L/19//95 NOSIG=

0000049400
763
SAFI33 EFHK 102150
EFJO 102150Z AUTO 02015KT 340V050 9999 -SG FEW014 SCT017 BKN065
OVC085 M08/M10 Q0993=
EFLP 102150Z 35013G23KT 320V020 4000 -SN FEW009 BKN011 OVC023 M06/M08
Q0990=
EFMI 102150Z AUTO VRB06G17KT 9999 -SG OVC012 M06/M07 Q0993=
EFSA 102150Z AUTO 35009KT 300V030 9999 -IC FEW015 BKN018 BKN041
M08/M09 Q0992=
EFUT 102150Z AUTO 35010KT 320V030 9999 -SG BKN011 BKN034 M05/M06
Q0991=
EFVR 102150Z AUTO 01008KT 340V040 0500 +SN BKN015 M07/M09 Q0994=

0000038300
764
SABX31 EBBR 102150
METAR EBAW 102150Z 21011KT 9000 OVC009 05/03 Q1017 NOSIG=
METAR EBBR 102150Z 23007KT 9999 BKN011 05/02 Q1017 NOSIG=
METAR EBCI 102150Z 20008KT 9999 SCT010 04/02 Q1017 NOSIG=
METAR EBLG 102150Z 19009KT CAVOK 04/02 Q1017 NOSIG=
METAR EBOS 102150Z 20011KT 9999 FEW012 04/02 Q1016 NOSIG=
METAR ELLX 102150Z 22002KT CAVOK 02/01 Q1017 NOSIG=

0000026900
765
SAEO32 EETN 102150
METAR EEKA 102150Z NIL=
METAR EEKE 102150Z AUTO 33010KT 9999NDV -RA BKN009 OVC018 02/02 
Q0995=
METAR EETU 102150Z AUTO 33012KT 9999NDV -DZ SCT005/// BKN007///
OVC009/// 01/00 Q0988 RESG REUP RERA=
METAR EEPU 102150Z NIL=

00000000