0000054600
806
SAUK31 EGGY 110220
METAR EGBB 110220Z AUTO 27007KT 9999 -RA FEW004/// SCT027///
    BKN033/// 07/06 Q1010 REDZ=
METAR EGCC 110220Z 28008KT 9999 -RA FEW010 SCT025 BKN030 06/05
    Q1010=
METAR EGKK 110220Z 20007KT 9999 -RA BKN008 08/07 Q1013=
METAR EGLL 110220Z AUTO 19006KT 8000 SCT038 08/07 Q1012=
METAR EGPF 110220Z 21005KT CAVOK M00/M01 Q1009=
METAR EGPH 110220Z 24008KT 9999 -RA SCT026 SCT032 02/00 Q1008=
METAR EGPK 110220Z NIL=
METAR EGSS 110220Z 20012KT 9999 -RA FEW006 SCT018 BKN044 07/06
    Q1012=

0000055700
807
SAUK32 EGGY 110220
METAR EGAA 110220Z 21004KT 180V240 8000 NSC 01/01 Q1011=
METAR EGAC 110220Z NIL=
METAR EGFF 110220Z 26008KT 9999 FEW013 SCT021 BKN030 07/06 Q1012
    RERA=
METAR EGGW 110220Z 20010KT 6000 -DZ BKN004 BKN023 07/06 Q1011=
METAR EGLC 110220Z AUTO 21009KT 9999 -RA FEW024/// BKN030///
    BKN045/// 09/07 Q1013 RERA=
METAR EGNM 110220Z 29005KT 9999 FEW020 BKN026 05/04 Q1008=
METAR EGNX 110220Z 25012KT 9999 -RA SCT008 BKN015 BKN036 07/06
    Q1009=
METAR EGPD 110220Z AUTO 24007KT 9999 NCD 01/M03 Q1005=

0000035400
808
SAUK33 EGGY 110220
METAR EGGD 110220Z 26014KT 3500 -DZ BKN002 07/06 Q1012=
METAR EGGP 110220Z 31010KT 9999 -SHRA FEW018 SCT031 06/04 Q1011=
METAR EGHI 110220Z NIL=
METAR EGNS 110220Z NIL=
METAR EGNT 110220Z 25006KT 9999 FEW030 02/02 Q1008=
METAR EGNV 110220Z NIL=
METAR EGPB 110220Z AUTO 25018KT 9999 FEW023/// 06/04 Q0999=

0000021700
809
SAUK34 EGGY 110220
METAR EGHE 110220Z NIL=
METAR EGHK 110220Z NIL=
METAR EGHQ 110220Z NIL=
METAR EGJA 110220Z NIL=
METAR EGJB 110220Z NIL=
METAR EGJJ 110220Z NIL=
METAR EGTE 110220Z NIL=

0000024300
810
SAUK35 EGGY 110220
METAR EGHH 110220Z NIL=
METAR EGKA 110220Z NIL=
METAR EGKB 110220Z NIL=
METAR EGLF 110220Z NIL=
METAR EGMC 110220Z NIL=
METAR EGMD 110220Z NIL=
METAR EGMH 110220Z NIL=
METAR EGTC 110220Z NIL=

0000031400
811
SAUK36 EGGY 110220
METAR EGBE 110220Z NIL=
METAR EGBJ 110220Z NIL=
METAR EGCN 110220Z NIL=
METAR EGSC 110220Z NIL=
METAR EGSD 110220Z NIL=
METAR EGSH 110220Z AUTO 21012KT 9999 -RA FEW009/// SCT032///
    BKN039/// 08/07 Q1011 RERA=
METAR EGVN 110220Z NIL=
METAR EGWU 110220Z NIL=

0000029800
812
SAUK37 EGGY 110220
METAR EGAE 110220Z NIL=
METAR EGNC 110220Z NIL=
METAR EGNH 110220Z NIL=
METAR EGNJ 110220Z NIL=
METAR EGNO 110220Z NIL=
METAR EGNR 110220Z NIL=
METAR EGPE 110220Z 22009KT 9999 FEW012 02/M00 Q1005=
METAR EGPI 110220Z NIL=
METAR EGPN 110220Z NIL=

0000041600
813
SAUK38 EGGY 110220
METAR EGEC 110220Z NIL=
METAR EGEO 110220Z NIL=
METAR EGPA 110220Z AUTO 25012KT 9999 NCD 04/02 Q1002=
METAR EGPC 110220Z AUTO 24008KT 9999 NCD 02/M00 Q1003=
METAR EGPL 110220Z AUTO 26016KT 9999 // SCT030/// 05/00 Q1006=
METAR EGPM 110220Z AUTO 26012KT 9999 SCT030/// 06/02 Q0997=
METAR EGPO 110220Z AUTO 22011KT 9999 FEW029/// 02/M00 Q1004=
METAR EGPU 110220Z NIL=

0000009800
814
SPUS31 KWBC 110223
SPECI
KLOU 110219Z 16008KT 10SM FEW020 BKN110 11/08 A2979=

0000010000
815
SPUS41 KWBC 110223
SPECI
KBED 110219Z 00000KT 4SM BR SCT006 OVC014 02/01 A3031=

0000036000
816
SASW32 LSSW 110220
METAR LSGC 110220Z AUTO 00000KT 9999 NSC 01/01 Q1017=
METAR LSGS 110220Z NIL=
METAR LSZG 110220Z AUTO VRB01KT 0350 FG VV002 02/02 Q1019=
METAR LSZR 110220Z AUTO 26002KT 0150 R10/0650N BR NCD 03/02 Q1019=
METAR LSZS 110220Z NIL=
METAR LSZC 110220Z AUTO 27001KT 0100 FG VV001 02/02 Q1019=
METAR LSZL 110220Z NIL=

0000081200
817
SASN32 ESWI 110220
METAR ESKN 110220Z 11005KT 9999 SCT009 BKN040 M03/M04 Q1001
R26/710195=
METAR ESOE 110220Z AUTO 11006KT 4500NDV -SN FEW005/// OVC007///
M02/M03 Q0999=
METAR ESOK 110220Z AUTO 00000KT 7000 BR FEW007/// OVC008/// M00/M00
Q0997=
METAR ESOW 110220Z AUTO 06005KT 1100NDV R01/P1500N R19/P1500N -SN
FEW001/// SCT013/// M04/M06 Q1001=
METAR ESSA 110220Z 01003KT 5000 -SN BKN033 M04/M05 Q1001 R01L/19//71
R08/19//58 R01R/19//68 BECMG 4000=
METAR ESSB 110220Z AUTO 22003KT 200V260 9999NDV -SN OVC008///
M03/M05 Q1001=
METAR ESSD 110220Z AUTO 07005KT 1000 R32/P1500N -SN VV002 M07/M08
Q1001=
METAR ESSP 110220Z AUTO 12007KT 7000NDV BR FEW008/// BKN011///
OVC016/// M02/M02 Q1001 RESN RESG=
METAR ESSV 110220Z AUTO 28006KT 9999NDV OVC012/// 00/M02 Q1003=

0000058800
818
FTUS41 KWBC 110224 AAA
TAF AMD
KGSO 110221Z 1102/1124 04004KT 5SM -DZ BR BKN005 OVC010
      WS010/19035KT
     FM110400 VRB05KT 1/2SM -DZ FG VV002 WS010/19036KT
     FM111500 19013G20KT P6SM OVC006
     FM111800 21016G23KT 5SM -SHRA BR BKN007 OVC015
     FM112200 25016G23KT P6SM FEW025 BKN100=
KINT 110220Z 1102/1124 04004KT 5SM -DZ BR OVC003 WS010/19035KT
     FM110400 VRB05KT 1/2SM -DZ FG VV002 WS010/19036KT
     FM111500 19013G20KT P6SM OVC006
     FM111800 21016G23KT 5SM -SHRA BR BKN007 OVC015
     FM112200 25016G23KT P6SM FEW025 BKN100=

0000058800
819
FTUS71 KWBC 110224 AAA
TAF AMD
KGSO 110221Z 1102/1124 04004KT 5SM -DZ BR BKN005 OVC010
      WS010/19035KT
     FM110400 VRB05KT 1/2SM -DZ FG VV002 WS010/19036KT
     FM111500 19013G20KT P6SM OVC006
     FM111800 21016G23KT 5SM -SHRA BR BKN007 OVC015
     FM112200 25016G23KT P6SM FEW025 BKN100=
KINT 110220Z 1102/1124 04004KT 5SM -DZ BR OVC003 WS010/19035KT
     FM110400 VRB05KT 1/2SM -DZ FG VV002 WS010/19036KT
     FM111500 19013G20KT P6SM OVC006
     FM111800 21016G23KT 5SM -SHRA BR BKN007 OVC015
     FM112200 25016G23KT P6SM FEW025 BKN100=

0000008500
820
SPCN51 CWAO 110223
SPECI CWOB 110223Z AUTO 05009KT CLR M21/ A2923=

0000069600
821
SASN33 ESWI 110220
METAR ESNG 110220Z AUTO 04006KT 9999 NCD M17/M20 Q1012=
METAR ESNK 110220Z AUTO 33013KT 3700 -SN FEW017/// SCT019///
BKN033/// M10/M13 Q1005=
METAR ESNN 110220Z AUTO 34011KT 8000NDV -SN FEW019/// SCT071///
M10/M12 Q1004 R16/49/79=
METAR ESNO 110220Z AUTO 35011KT 1600 -SN VV013 M12/M14 Q1003=
METAR ESNQ 110220Z AUTO VRB01KT 9999NDV NCD M20/M22 Q1012 RESN
RESG=
METAR ESNS 110220Z AUTO 36013KT //// VV007 M13/M14 Q1006=
METAR ESNU 110220Z 35014KT 4500 -SN OVC035 M11/M14 Q1004 R14/49//50=
METAR ESNZ 110220Z AUTO 04003KT 5000NDV -SN VV024 M14/M16 Q1003=
METAR ESUT 110220Z AUTO 08010G25KT 010V140 8000 IC OVC070/// M14/M18
Q1005 RESG=

0000010100
822
SAIO31 KWBC 110200 RRD
METAR
VRMM 110200Z 07013KT 9999 FEW018 28/23 Q1013 NOSIG=

0000054300
823
SASN34 ESWI 110220
METAR ESCF 110220Z AUTO 18005KT 9999NDV SCT011/// OVC013/// M00/M00 
Q1000=
METAR ESDF 110220Z AUTO 24007KT 9999NDV BKN016/// OVC021/// 05/04 
Q1005=
METAR ESIB 110220Z AUTO 25014KT 9999NDV BKN015/// OVC041/// 05/04 
Q0999=
METAR ESMV 110220Z NIL=
METAR ESPA 110220Z AUTO 02009KT 360V060 9999NDV -SG BKN050/// 
M14/M17 Q1009=
METAR ESPE 110220Z AUTO 36006KT 320V030 9999NDV OVC045/// M15/M19 
Q1010=
METAR ESSL 110220Z AUTO 17006KT 9000NDV -RASN OVC015/// M01/M01
Q1000 R29/19//95=

0000040300
824
SASN35 ESWI 110220
METAR ESGR 110220Z NIL=
METAR ESKM 110220Z NIL=
METAR ESNL 110220Z AUTO 34007KT 4800NDV -SN OVC024/// M13/M16
Q1006=
METAR ESNX 110220Z AUTO 02011KT 3700NDV -SN ///027 M16/M18 Q1007
RESG=
METAR ESNY 110220Z NIL=
METAR ESSF 110220Z NIL=
METAR ESSK 110220Z NIL=
METAR ESUD 110220Z AUTO 36005KT 7000 -SN FEW030/// BKN043///
OVC094/// M14/M17 Q1006=

0000053300
825
SAFI32 EFHK 110220
METAR EFHA 110220Z AUTO 35009KT 9999 OVC010 M06/M07
 Q0997=
EFHF 110220Z AUTO 33012KT 310V010 9999 OVC011 M03/M05 Q0996=
METAR EFKA 110220Z AUTO 04010KT 9999 -SHSN FEW017 
OVC026 M07/M10 Q1001=
EFKK 110220Z AUTO 04011KT 010V070 9999 -SG SCT044 OVC060 M09/M11
Q1002=
EFMA 110220Z AUTO 33006KT 280V360 9999 -SHSN OVC015 M01/M01 Q1000=
METAR EFPO 110220Z AUTO 02005KT 350V060 9999 OVC008/// M04/M05 Q0999 
R12/29//95=
EFSI 110220Z AUTO 01005KT 340V050 9999 OVC013 M07/M08 Q1000=

00000000