0000066800
986
USAA01 NZCM 110000
TTAA 61001 89664
99997 00056 18501 00512 ///// ///// 92601 07158 18518
85255 11341 17017 70716 21114 15006 50514 33959 24513
40666 44759 24520 30855 51765 24023 25975 45585 24514
20124 43786 24513 15318 43586 26009 10592 41586 23504
88320 52361 23026
77999
31313 48008 82219=

0000069700
87361=
0000011200
87368
0000009600
87371
0000035800
87378
0000037300
87381
0000039400
87385=
0000043700
87428
0000047800
87442=
0000052100
87533
0000058300
87555=
0000060500
87878
0000062600
88040=
0000054500
89456
0000062800
90148
0000060700
91125
0000067000
92428
0000066800
987
USAA01 NZCM 110000
TTAA 61001 89664
99997 00056 18501 00512 ///// ///// 92601 07158 18518
85255 11341 17017 70716 21114 15006 50514 33959 24513
40666 44759 24520 30855 51765 24023 25975 45585 24514
20124 43786 24513 15318 43586 26009 10592 41586 23504
88320 52361 23026
77999
31313 48008 82219=

0000069700
87361=
0000011200
87368
0000009600
87371
0000035800
87378
0000037300
87381=
0000039500
87413
0000041600
87422=
0000043800
87504
0000052100
87527
0000058300
87571=
0000052300
87882
0000062600
88058=
0000060700
89446
0000060700
90147
0000064900
91147
0000071100
92440
0000061500
988
SAIR31 OIII 111100
METAR OIAW 111100Z NIL=
METAR OIFM 111100Z 34004KT 2200 HZ SCT040 OVC100 02/M03 Q1017
      A3004=
METAR OIII 111100Z 24008KT 0800 -SN SCT025 OVC080 00/M01 Q1019
 A3010 TEMPO 0800 SN FEW035CB SCT030 BKN100=
METAR OIKB 111100Z 34004KT 7000 -RA FEW025CB SCT030 OVC090 16/07
Q1020 A3014 NOSIG=
METAR OIKK 111100Z NIL=
METAR OIMM 111100Z 30006KT 9999 FEW040 SCT110 09/M12 Q1018 A3007=
METAR OISS 111100Z 00000KT 1500-RA BR FEW030CB SCT035 OVC070 03/02
Q1019 A3011=
METAR OITT 111100Z VRB02KT 5000 HZ FEW035 BKN180 M03/M10 Q1020
A3013=
METAR OIZH 111100Z NIL=
0000013200
989
SIID21 WIIX 110900 RRA
AAXX 11094
96745 32559 63506 10306 20248 30080 40085 57014 83521
  333 56000 83620 86460=
0000064600
990
SAIR32 OIII 111100
METAR OIAA 111100Z 30008KT 4000 BR FEW035CB FEW040 BKN100
13/11 Q1017=
METAR OIBK 111100Z 08012KT 6000 -RA FEW030CB SCT025 OVC080 15/13
Q1019=
METAR OICC 111100Z 00000KT 0800 R11/0600D +SN SCT021CB
SCT030 OVC060 M00/M01 Q1018 A3008 TEMPO SN=
METAR OIGG 111100Z 33004KT 3000 BR SCT025 BKN090 10/08
Q1013=
METAR OIIE 111100Z 22006KT 5000 BR SCT025 SCT035CB SCT045
OVC080 01/M00 Q1020 A3013 NOSIG=
METAR OITR 111100Z 09004KT 2000 HZ SCT035 BKN170 M05/M09 Q1019
NOSIG=
METAR OIYY 111100Z 33006KT 5000 HZ FEW035 SCT100 08/M01
      Q1018=
METAR OAKN 111100Z NIL=
METAR OAKB 111100Z NIL=
0000048400
991
SAIR33 OIII 111100
METAR OIBB 111100Z 15012KT 9999 FEW030CB SCT035 OVC080 14/10 Q1016
A3002=
METAR OIBP 111100Z 02004KT 7000 5000SE SCT020 FEW030CB
OVC080 14/13 Q1019 A3010=
METAR OICK 111100Z NIL=
METAR OICS 111100Z 26002KT 7000 SCT035 BKN080 02/M04 Q1018=
METAR OIHH 111100Z NIL=
METAR OINZ 111100Z 32004KT CAVOK 11/06 Q1015=
METAR OISR 111100Z 11010KT 2500 RA FEW030CB SCT035 OVC080 10/10
Q1020=
METAR OITL 111100Z NIL=
METAR OIZC 111100Z NIL=
0000067700
992
SAIR34 OIII 111100
METAR OIAG 111100Z 10014KT 4000 SHRA SCT030CB BKN035 12/11 Q1018=
METAR OIAM 111100Z 11018KT 8000 SHRA SCT030CB SCT035 13/11 Q1016=
METAR OICI 111100Z Z 00000KT 7000 FEW015 FEW025CB SCT035 OVC090
 05/05 Q1015 A3000=
METAR OIKQ 111100Z  34010KT 8000 -RA FEW025CB SCT030 BKN090 14/08
 Q1019=
METAR OINN 111100Z 09006KT CAVOK 11/10 Q1014=
METAR OINR 111100Z 13008KT 7000 FEW045 OVC160 11/07 Q1013=
METAR OISL 111100Z  00000KT 9999 FEW020 FEW035CB OVC090 08/05
 Q1020=
METAR OISY 111100Z  00000KT 0500 +SNRA FEW030CB SCT035 OVC080 01/01
 Q1019 RERA=
METAR OITZ 111100Z  17010KT 9999 FEW030CB SCT035 SCT080 02/M04
 Q1015=
0000045200
993
SAIR35 OIII 111100
METAR OIAD 111100Z NIL=
METAR OIBJ 111100Z  09008KT 1000 RA FEW020 SCT030 OVC090 09/09
 Q1020=
METAR OIBS 111100Z 06020KT 7000 -SHRA FEW030CB OVC080 19/16 Q1019=
METAR OIHR 111100Z NIL=
METAR OIKM 111100Z NIL=
METAR OIKR 111100Z NIL=
METAR OING 111100Z 29006KT 6000 SCT030 BKN090 12/07 Q1016=
METAR OIZB 111100Z 09004KT CAVOK 10/M03 Q1022=
METAR OIZI 111100Z 07008KT 9999 FEW020 OVC090 15/M05 Q1019=
0000056100
994
SAIR36 OIII 111100
METAR OIBA 111100Z  00000KT 5000 -RA FEW025CB FEW030 OVC080 20/12
 Q1018=
METAR OIBV 111100Z 05014KT 6000 -RA SCT030 OVC080 15/14 Q1018=
METAR OIFS 111100Z  00000KT 3000 BR FEW025CB SCT030 OVC080 M02/M04
 Q1017=
METAR OIIP 111100Z  00000KT 1200 BR SCT020 SCT035 OVC080 M01/M01
 Q1018=
METAR OIMB 111100Z 09012KT 9999 SCT030 BKN090 07/M13 Q1019=
METAR OIMN 111100Z 14010KT CAVOK 09/M15 Q1017 A3003=
METAR OIMS 111100Z NIL=
METAR OIMT 111100Z NIL=
METAR OIZJ 111100Z 00000KT 9999 SCT030 BKN090 20/06 Q1019=
0000059200
995
SAIR37 OIII 111100
METAR OIBL 111100Z  03006KT 3000 -RA FEW020CB SCT025 OVC080 14/12
 Q1019=
METAR OIBQ 111100Z  19010KT 9999 BKN020 FEW025CB OVC080 15/14 Q1016
 RERA=
METAR OIIK 111100Z  11004KT 5000 HZ FEW035CB SCT040 OVC090 01/M03
 Q1019=
METAR OIMC 111100Z 15012KT 9999 SCT040 BKN170 15/M05 Q1018=
METAR OIMD 111100Z 05006KT 9999 FEW035 SCT190 08/M05 Q1016=
METAR OIMQ 111100Z 12004KT 9999 FEW040 10/M07 Q1019=
METAR OINE 111100Z 21008KT 2000 HZ NSC 11/07 Q1014=
METAR OITK 111100Z NIL=
METAR OITM 111100Z 31004KT 1100 HZ FEW042 BKN110 M03/M07 Q1019=
0000011100
996
UANT01 CWAO 111102
ARP BAW9172 5138N03207W 1102 F410 MS53 330/31 KT
GZBJB QXT AOW 111102 L39A
0000011000
997
UANT01 CWAO 111102
ARP UAL45 5301N01956W 1102 F360 MS66 219/67 KT
N29124 DDL IG1 111102 F49A
0000023400
998
UAPA01 KWBC 111103
ARP ASA864 40N 136W 1051 F360 MS57 260/094KT TB OCNL LGT CHOP=
ARP UAL1452 3210N 13250W 1054 F350 MS47 249/041KT=
ARP ASA822 2443N 15516W 1053 F340 MS51 210/028KT TB CONS LGT CHOP
    OCNL MOD=
0000014000
999
SNRE20 FMEE 111100
AAXX 11114
61980 22565 50819 10306 20219 40138 81884
  333 58006 60005 81828 85076 90710 91127 92437=
0000015700
000
SSVX13 LFPW 111100
ZZYY 44745 11014 1100/ 745755 050358 6113/ 11119 40247 52005 22219
 00015 444 20130 11014 1100/ 50101 80150 80000 9/015=
0000015700
001
SSVX13 LFPW 111100
ZZYY 61688 11014 1100/ 144058 029453 6113/ 11119 40226 57011 22219
 00088 444 20131 11014 1057/ 50101 80090 80003 9/015=
0000383100
002
SNFR30 LFPW 111100
AAXX 11114
07005 22457 72613 10085 20068 30099 40190 51018 872//
  333 60005 81813 86816 90710 91122 93100=
07015 21462 72411 10074 20055 30121 40179 52014 72162 875//
  333 69905 83711 85639 90710 91117 93100=
07020 26/// /3612 10092 20040 30197 40224 53029
  333 60005 90710 91117=
07027 269// /3006 10087 20071 30129 40211 51027
  333 60005 90710 91109=
07037 21156 72605 10064 20061 30020 40207 51022 70142 876//
  333 60005 87703 90710 91112 93100=
07072 24669 70000 10065 20061 30080 40197 51019 700//
  333 60005 90710 91102=
07110 22982 10607 10093 20057 30100 40216 51020 80001
  333 60005 81075 90710 91110 93100=
07117 26/// /0507 10099 20053 30148 40219 51022
  333 60005 90710 91110=
07130 24233 82202 10064 20063 30166 40219 51023 710//
  333 60005 90710 91105=
07139 24258 73602 10069 20068 30038 40215 51024 700//
  333 60005 90710 91106=
07149 22357 62906 10079 20067 30096 40206 51029 86600
  333 60005 86707 90710 91109 93100=
07168 22560 73403 10058 20054 30063 40209 53027 85802
  333 60005 81820 85656 86075 90710 91106 93100=
07181 24436 81907 10054 20051 39780 40197 53014 710//
  333 69965 90710 91110=
07190 24157 81803 10038 20032 30012 40199 52011 700//
  333 60005 90710 91106=
07207 26/// /1102 10082 20076 30168 40221 51023
  333 60005 90710 91106=
07222 22358 80303 10091 20080 30186 40218 51024 876//
  333 60005 83708 87639 90710 91106=
07240 24249 60000 10071 20062 30077 40215 51029 710//
  333 60005 90710 91100=
07255 22359 82805 10094 20075 30012 40214 51028 887//
  333 60005 88709 90710 91108 93100=
07280 24127 81602 10061 20057 39933 40211 51023 710//
  333 60005 90710 91105=
07299 21966 71605 10062 20035 39875 40208 51020 71422 8707/
  333 60005 83359 87361 90710 91107 93100=
07314 26/// /3609 10097 20080 30186 40214 51024
  333 60005 90710 91117=
07335 212// 82802 10087 20081 30068 40215 51025 71022 886//
  333 60005 88704 90710 91106 93100=
07434 224// 82006 10085 20065 39730 40213 51018 886//
  333 60005 88710 90710 91114 93100=
07460 24981 /1804 10111 20045 39815 40204 51019 700//
  333 60005 90710 91110=
07471 24970 80000 10061 20033 39238 48822 51013 700//
  333 60005 90710 91103=
07481 22580 72114 10111 20068 39924 40212 51016 8153/
  333 60005 81626 84366 87370 90710 91124 93100=
07510 223// 72903 10116 20105 30151 40209 51016 875//
  333 60005 81706 87620 90710 91106 93100=
07535 24360 82202 10087 20071 39902 40218 51015 700//
  333 60005 90710 91107=
07558 24/70 /1403 10076 20065 39375 40213 51011 700//
  333 60005 90710 91109=
07577 22560 80000 10100 20081 30133 40223 50008 878//
  333 60005 81820 87633 90710 91102 93100=
07591 24/// /2105 10063 20008 39206 4//// 51008 700//
  333 60005 90710 91108=
07607 24558 82402 10115 20097 30139 40211 51012 700//
  333 60005 90710 91103=
07621 24963 80203 10104 20078 39776 40210 50011 700//
  333 60005 90710 91104=
07627 22562 81101 10097 20062 39720 40215 50009 875//
  333 60005 87623 90710 91103 93100=
07630 22559 81702 10102 20078 30034 40216 51013 875//
  333 60005 87623 90710 91105 93100=
07643 22562 80306 10116 20086 30211 40221 51009 885//
  333 60005 83621 88642 90710 91109=
07650 22570 70806 10137 20083 30181 40220 50005 878//
  333 60005 81830 87643 90710 91109 93100=
07661 26/// /0407 10132 20091 30059 40220 50005
  333 60005 90710 91111=
07690 22680 53209 10136 20057 30188 40219 50005 81530
  333 60005 81640 85368 90710 91115 93100=
07747 24967 80603 10127 20080 30161 40214 51008 700//
  333 60005 90710 91105=
07761 24974 /0403 10142 20084 30199 40210 50000 700//
  333 60005 90710 91106=
07790 22582 51703 10157 20100 30201 40215 58002 8113/
  333 60005 81823 85368 90710 91107 93100=
0000152700
003
SNFR31 LFPW 111100
AAXX 11114
07024 24486 73306 10084 20046 30049 40217 51030 700//
  333 60005 90710 91112=
07031 24256 82805 10076 20072 30035 40210 51025 700//
  333 60005 90710 91112=
07100 26/// /0813 10107 20054 30130 40213 51020
  333 60005 90710 91117=
07103 26/// /0510 10093 20064 30113 40212 51021
  333 60005 90710 91116=
07107 26/// /0610 10109 20058 30196 40218 51021
  333 60005 90710 91113=
07118 24986 /0204 10096 20046 30114 40220 51022 700//
  333 60005 90710 91109=
07120 24969 /0106 10090 20063 30053 40218 51022 700//
  333 60005 90710 91109=
07125 24481 /3608 10095 20066 30143 40214 51024 700//
  333 60005 90710 91113=
07134 24119 80302 10063 20062 30094 40217 51024 710//
  333 60005 90710 91107=
07200 26/// /1005 10109 20083 30189 40212 51021
  333 60005 90710 91112=
07201 24985 /0705 10098 20070 30101 40216 51020 700//
  333 60005 90710 91110=
07203 26/// /0907 10068 20067
  333 60005 90710 91110=
07205 24159 61007 10071 20070 30165 40219 51022 700//
  333 60005 90710 91109=
07217 24/02 93504 10067 20064 30217 40221 51023 745//
  333 60005 90710 91107=
07230 21125 73502 10074 20073 30158 40217 51025 71022 876//
  333 60005 87702 90710 91105 93100=
07235 22256 20000 10094 20065 30151 40215 51025 82600
  333 60005 82704 90710 91102 93100=
07300 26/// /0105 10098 20070 30179 40218 51022
  333 60005 90710 91110=
07306 22256 83608 10086 20077 30106 40215 51023 876//
  333 60005 87705 90710 91111 93100=
0000119000
004
SNFR32 LFPW 111100
AAXX 11114
07140 24130 60000 10067 20064 30056 40212 51029 710//
  333 60005 90710 91105=
07143 24369 73003 10079 20067 30019 40208 51024 700//
  333 60005 90710 91107=
07145 21263 63003 10069 20069 39994 40207 51025 72842 86100
  333 60005 86805 90710 91110 93100=
07146 22260 73006 10069 20065 30009 40206 51025 876//
  333 60005 87703 90710 91111 93100=
07150 24236 82908 10065 20061 30146 40207 51027 710//
  333 60005 90710 91113=
07153 24/04 92505 10060 20053 30094 40208 51027 745//
  333 60005 90710 91107=
07156 24/58 /2705 10080 20066 30111 40207 51027 700//
  333 60005 90710 91113=
07157 21007 82910 10061 20055 30069 40207 51026 74642 886//
  333 60005 83701 88703 90710 91114 93100=
07245 24/02 /3003 10059 20059 30061 40215 51030 745//
  333 60005 90710 91106=
07247 24158 82604 10076 20067 30111 40214 51028 700//
  333 60005 90710 91107=
07249 24/30 93103 10064 20063 30057 40211 51027 710//
  333 60005 90710 91107=
07257 24461 83005 10084 20067 39997 40213 51026 700//
  333 60005 90710 91108=
07354 22359 82709 10094 20078 30023 40214 51029 886//
  333 60005 88709 90710 91114 93100=
0000049600
005
SNFR33 LFPW 111100
AAXX 11114
07093 24759 81707 10039 20030 39878 40195 53012 700//
  333 69925 90710 91114=
07180 21458 81602 10040 20036 39937 40200 53012 76066 875//
  333 69905 85616 87656 90710 91103 93100=
07288 22965 72305 10091 20058 39834 40207 51020 8707/
  333 60005 87360 90710 91112 93100=
07292 24461 81903 10078 20049 39876 40207 52020 700//
  333 69905 90710 91106=
07386 24659 72309 10102 20074 39973 40209 52020 700//
  333 60005 90710 91117=
00000000