0000192400
106
SNFR36 LFPW 111100
AAXX 11114
07554 24470 82702 10062 20044 39135 4//// 51010 700//
  333 60005 90710 91102=
07560 26/// /1914 10020 20020 38450 4//// 51010
  333 69945 90710 91120=
07563 24664 82003 10123 20080 30165 40223 50007 700//
  333 60005 90710 91104=
07579 24541 82902 10095 20081 30160 40227 50008 710//
  333 60005 90710 91103=
07586 26/// /2903 10106 20071 30095 40224 51007
  333 60005 90710 91106=
07588 24569 70703 10072 20042 39680 40234 50007 700//
  333 60005 90710 91106=
07635 24560 80702 10098 20070 30063 40218 51011 700//
  333 60005 90710 91104=
07638 24563 80305 10111 20094 30199 40219 51010 700//
  333 60005 90710 91108=
07641 26/// /3607 10110 20086 30126 40220 50010
  333 60005 90710 91111=
07646 24562 80904 10111 20070 30094 40221 51007 700//
  333 60005 90710 91107=
07647 24669 81004 10126 20087 30191 40219 50005 700//
  333 60005 90710 91106=
07648 24670 80504 10124 20071 30151 40223 50005 700//
  333 60005 90710 91107=
07666 26/// /3505 10122 20103 30162 40210 51010
  333 60005 90710 91107=
07667 24666 83403 10137 20095 30216 40221 50004 700//
  333 60005 90710 91105=
07675 24/69 /2202 10132 20087 30124 40223 50005 700//
  333 60005 90710 91103=
07684 24660 71403 10165 20077 30212 40217 50004 700//
  333 60005 90710 91107=
07749 26/// /3008 10119 20076 30110 40215 51011
  333 60005 90710 91112=
07754 22975 53201 10153 20099 30142 40211 51004 84032
  333 60005 84364 85076 90710 91104 93100=
07765 24686 83601 10139 20107 30200 40221 58001 700//
  333 60005 90710 91103=
07770 26/// /0811 10159 20117 30074 40212 58001
  333 60005 90710 91120=
07775 26/// /2210 10144 20096 30129 40218 50001
  333 60005 90710 91115=
07780 24585 80608 10152 20106 30189 40217 50000 700//
  333 60005 90710 91116=
07785 26/// /2605 10164 20098 30076 40210 50000
  333 60005 90710 91110=
0000111200
107
SNFR37 LFPW 111100
AAXX 11114
07002 26/// /3112 10082 20050 30101 40184 53028
  333 60005 90710 91124=
07003 24566 /3111 10096 20058 30162 40186 53023 700//
  333 69905 90710 91118=
07010 26/// /3015 10088 20048 30156 40176 53024
  333 60005 90710 91126=
07028 26/// /3207 10083 20061 30079 40206 51027
  333 60005 90710 91113=
07038 24/11 92707 10063 20063 30040 40210 51023 710//
  333 60005 90710 91110=
07040 26/// /3212 10090 20050 30148 40197 51025
  333 60005 90710 91125=
07046 24586 /3310 10085 20047 30091 40206 51025 700//
  333 60005 90710 91115=
07055 22262 72705 10065 20058 30066 40203 51021 876//
  333 60005 87705 90710 91110 93100=
07057 24109 82406 10055 20052 30093 40202 51022 744//
  333 60005 90710 91111=
07061 24/58 /2407 10068 20068 30073 40194 51018 700//
  333 60005 90710 91112=
07075 24619 81604 10059 20042 30012 40194 51015 710//
  333 60005 90710 91107=
07169 24769 82303 10070 20059 30030 40199 51023 700//
  333 6///5 90710 91106=
07283 24446 /2403 10061 20060 39639 40200 51023 710//
  333 69905 90710 91107=
0000015700
108
SSVX13 LFPW 111100
ZZYY 44762 11014 1100/ 751158 006173 6113/ 11119 40209 52017 22219
 00106 444 20130 11014 1057/ 50101 80096 80000 9/015=
0000015700
109
SSVX13 LFPW 111100
ZZYY 62687 11014 1100/ 166095 001403 6113/ 11119 40058 52002 22219
 00075 444 20130 11014 1057/ 50101 80098 80000 9/015=
0000015700
110
SSVX13 LFPW 111100
ZZYY 62714 11014 1100/ 734344 021707 6113/ 11119 40143 52002 22219
 00192 444 20130 11014 1057/ 50101 80100 80000 9/015=
0000015700
111
SSVX13 LFPW 111100
ZZYY 44624 11014 1100/ 746719 020021 6113/ 11119 49968 57059 22219
 00128 444 20130 11014 1057/ 50101 80098 80018 9/015=
0000015700
112
SSVX13 LFPW 111100
ZZYY 61687 11014 1100/ 144718 029827 6113/ 11119 40223 57009 22219
 00074 444 20131 11014 1057/ 50101 80090 80003 9/015=
0000038500
113
SSVX13 LFPW 111100
ZZYY 61690 11014 1100/ 142804 029453 6113/ 11119 40229 57015 22219
 00094 33300 88870 20000 30944 20011 30936 20013 30928 20016 30924
 20021 30928 20026 30936 20031 30936 20036 30932 20040 30940 20045
 30924 20050 30832 20055 30800 20060 30788 20066 30784 20071 30784
 20075 30792 20080 30804 444 20131 11014 1057/ 50101 80102 80010
 9/015=
0000015700
114
SSVX13 LFPW 111100
ZZYY 62713 11014 1100/ 733778 019521 6113/ 11119 40169 52013 22219
 00182 444 20130 11014 1057/ 50101 80098 80000 9/015=
0000014400
115
SNFR30 LFPW 111100 CCA
AAXX 11114
07460 22984 31804 10111 20045 39815 40204 51019 83031
  333 60005 83361 90710 91110 93100=
0000011000
116
UANT01 CWAO 111103
ARP UAL80 5400N01953W 1103 F340 MS63 224/86 KT
N14120 DDL IG1 111103 F54A
0000015700
117
SSVX13 LFPW 111100
ZZYY 44610 11014 1100/ 750338 040761 6113/ 11119 40090 52006 22219
 00100 444 20130 11014 0759/ 50101 80150 80002 9/015=
0000145600
118
UDFR01 LFPW 111104
AMDAR 1110
ASC EU3610 5022N 03054E 111029 F018 PS020 /// 274/021 TB1 S031
333 F018 VG024=
ASC EU3610 5023N 03054E 111029 F024 MS002 /// 278/025 TB1 S031
333 F024 VG021=
UNS EU3610 5025N 03053E 111030 F037 MS032 /// 290/041 TB2 S031
333 F037 VG040=
ASC EU3610 5025N 03052E 111030 F044 MS049 /// 301/044 TB0 S031
333 F044 VG007=
ASC EU3610 5025N 03050E 111030 F052 MS062 /// 302/043 TB1 S031
333 F052 VG019=
ASC EU3610 5025N 03048E 111031 F063 MS072 /// 313/038 TB1 S031
333 F063 VG012=
ASC EU3610 5025N 03046E 111031 F073 MS092 /// 312/037 TB0 S031
333 F073 VG008=
ASC EU3610 5025N 03044E 111031 F084 MS119 /// 310/035 TB0 S031
333 F084 VG006=
ASC EU3610 5025N 03042E 111032 F095 MS137 /// 312/036 TB0 S031
333 F095 VG007=
ASC EU3610 5025N 03032E 111033 F125 MS197 /// 311/037 TB1 S031
333 F125 VG008=
ASC EU3610 5026N 03024E 111034 F154 MS249 /// 305/043 TB0 S031
333 F154 VG007=
ASC EU3610 5026N 03016E 111035 F183 MS302 /// 309/065 TB0 S031
333 F183 VG004=
ASC EU3610 5026N 03013E 111035 F193 MS297 /// 306/070 TB1 S031
333 F193 VG021=
ASC EU3610 5026N 03005E 111036 F215 MS337 /// 308/075 TB1 S031
333 F215 VG016=
ASC EU3610 5026N 03002E 111037 F225 MS357 /// 311/079 TB1 S031
333 F225 VG019=
ASC EU3610 5026N 02959E 111037 F232 MS379 /// 313/079 TB0 S031
333 F232 VG005=
UNS EU3610 5027N 02921E 111041 F307 MS534 /// 313/105 TB0 S031
333 F307 VG007=
0000011100
119
UANT99 KDDL 111103
ARP AAL136 5603N02828W 1103 F350 MS62 221/67 KT
N719AN DDL XXN 111103 F70A
0000010900
120
UANT99 KDDL 111103
ARP SWR39 5704N03254W 1103 F350 MS61 204/55 KT
HBJMO QXT AOW 111103 J60A
0000017800
121
SAJD20 OJAI 111100
METAR OJAI 111100Z 29010KT 8000 SCT025 12/07 Q1023 NOSIG=
METAR OJAM 111100Z NIL=
METAR OJAQ 111100Z 34006KT 9999 SCT030 18/07 Q1023 NOSIG=
0000017800
122
SAJD20 OJAM 111100
METAR OJAI 111100Z 29010KT 8000 SCT025 12/07 Q1023 NOSIG=
METAR OJAM 111100Z NIL=
METAR OJAQ 111100Z 34006KT 9999 SCT030 18/07 Q1023 NOSIG=
0000012800
123
SNRE15 FMEE 111100
AAXX 11114
61998 26/// /2324 10081 20015 30029 40065 50004
  333 58030 60005 90710 91131=
0000012200
124
SNRE15 FMEE 111100
AAXX 11114
61996 26/// /2415 10142 20104 30185 40220 56003
  333 69925 90710 91126=
0000060300
125
UDAS02 BABJ 111056
AMDAR 1110
ASC CNFPYN 3634N 10344E 111053 F115 MS190 357/027 TB/ S//1=
LVR CNFPQL 3355N 11843E 111051 F246 MS344 258/064 TB/ S//1=
LVR CNFPQL 3349N 11842E 111052 F246 MS343 259/062 TB/ S//1=
LVR CNFPQL 3344N 11841E 111053 F246 MS343 258/061 TB/ S//1=
LVR CNFPQL 3343N 11841E 111053 F246 MS343 259/060 TB/ S//1=
DES CNFLWR 2706N 10826E 111052 F238 MS235 257/074 TB/ S//1=
LVR CNFLWR 2705N 10823E 111053 F236 MS230 257/073 TB/ S//1=
LVR CNFLWR 2704N 10820E 111053 F236 MS230 258/074 TB/ S//1=
LVR CNFLWR 2702N 10814E 111054 F236 MS225 257/076 TB/ S//1=
00000000