0000064800
026
SARA32 RUMS 110130
METAR UHBB 110130Z 24002MPS CAVOK M30/M33 Q1023 NOSIG RMK QFE749/0999
36410160=
METAR UHHH 110130Z 25008G12MPS 9999 DRSN SKC M24/M31 Q1019 NOSIG RMK
QFE758/1011 23090060=
METAR UHMA 110130Z NIL=
METAR UHMD 110130Z NIL=
METAR UHMM 110130Z 02004G09MPS 9999 DRSN FEW066 M17/M28 Q1007 NOSIG
RMK QFE741 88820555=
METAR UHPP 110130Z 29004MPS 9999 BKN030 BKN100 M04/M14 Q0994 NOSIG
RMK MT OBSC QFE742/0989 SC05 055 055=
METAR UHSS 110130Z 01003MPS 5000 FU BKN041 M16/M18 Q1013 NOSIG RMK
QFE758/1011 01810366=
METAR UHWW 110130Z VRB01MPS 9999 SKC M16/M21 Q1027 NOSIG RMK
QFE769/1025 25CLRD70=

0000097800
027
SARA34 RUMS 110130
METAR UNAA 110130Z VRB01MPS 9999 SCT040 OVC086 M04/M09 Q1030 NOSIG
RMK QFE750 20090040=
METAR UNBB 110130Z 21005MPS 9999 -SN BKN036 M09/M11 Q1030 NOSIG RMK
QFE750/1000 24452045=
METAR UNEE 110130Z 20006MPS 2700 -SN OVC010 M07/M08 Q1027 NOSIG RMK
QFE748 23452045=
METAR UNKL 110130Z 23004G07MPS 3800 -SHSN SCT033CB OVC083 M07/M10
Q1027 WS RWY29 NOSIG RMK QFE744 29////50=
METAR UNNT 110130Z 21005MPS 9000 -SHSN DRSN BKN014 OVC051CB M07/M10
Q1028 25390139 16390136 NOSIG RMK QFE761/1015=
METAR UNOO 110130Z 19005MPS 4500 -SHSN BKN016 BKN033CB M07/M09 Q1022
25390137 NOSIG RMK QFE758=
METAR UNTT 110130Z 23007MPS 6000 FEW006 SCT019CB OVC066 M07/M09 Q1025
NOSIG RMK QFE754 21390032=
METAR USTR 110130Z 18005MPS 9999 BKN012CB M05/M06 Q1012 TEMPO 1500
SHSN BKN005 RMK QFE749/0999 21390050 12750029=
METAR USHH 110130Z 03003MPS 9000 -SN BKN004 OVC080 M21/M24 Q1016
TEMPO 2000 SN BKN003 RMK QBB140 QFE758 06////50=

0000048000
028
SARS33 RUMS 110130
METAR ULLI 110130Z 34009MPS 9999 -SN BKN016 OVC066 M03/M05 Q0988
28550540 78////// NOSIG=
METAR UUBW 110130Z 21005MPS 9999 OVC012 04/01 Q0986 NOSIG=
METAR UUDD 110130Z 20004MPS 9999 OVC012 03/02 Q0986 14290095 NOSIG=
METAR UUDL 110130Z NIL=
METAR UUEE 110130Z 20005MPS 9999 -RA OVC008 03/02 Q0985 75290151
25290151 NOSIG=
METAR UUWW 110130Z 21005MPS 9999 -RA BKN005 OVC020 02/02 Q0985
24290045 NOSIG=
METAR UUMO 110130Z NIL=

0000080000
029
SARS32 RUMS 110130
METAR URKA 110130Z NIL=
METAR URKK 110130Z 23008G11MPS CAVOK 10/01 Q1010 TEMPO 22010G15MPS
RMK QFE754 SC065=
METAR URML 110130Z NIL=
METAR URMM 110130Z 00000MPS 7000 SCT160 M05/M06 Q1010 30CLRD70 NOSIG
RMK QFE729/0972=
METAR URMN 110130Z NIL=
METAR URMO 110130Z NIL=
METAR URMT 110130Z 20002MPS CAVOK 01/M01 Q1008 NOSIG RMK QFE718
SC0.60=
METAR URRR 110130Z 23010G13MPS 9999 -SHRA BKN009 SCT026CB OVC100
07/06 Q1005 22290045 NOSIG=
METAR URSS 110130Z 05005MPS 9999 BKN230 03/M02 Q1016 NOSIG RMK
R06/12002MPS QFE761 02000070 06//////=
METAR URWA 110130Z 21003MPS 9999 OVC034 02/M01 Q1014 NOSIG RMK
QFE762/1016 SC055=
METAR URWI 110130Z NIL=
METAR URWW 110130Z 20007MPS 4000 -SHRA BKN009 SCT023CB 03/02 Q1005
NOSIG RMK 29290060=

0000060300
030
SARS36 RUMS 110130
METAR ULAA 110130Z 07008G12MPS 5000 -BLSN OVC027 M17/M19 Q1001 BECMG
2000 SN BLSN OVC005 RMK QFE750/1000 SC050=
METAR ULMM 110130Z 00000MPS 9999 SCT003 M34/M38 Q1017 NOSIG RMK
QBB110 OBST OBSC QFE755 31450239=
METAR ULOO 110130Z NIL=
METAR ULPB 110130Z NIL=
METAR UMKK 110130Z 31004MPS 280V350 9999 OVC024 04/01 Q1006
R24/29//60 NOSIG RMK QFE753/1004=
METAR UUOO 110130Z 24005MPS 9999 -RA OVC004 01/00 Q0995 NOSIG RMK
12290250=
METAR UUYY 110130Z 03004MPS 5000 BR SCT009 BKN016CB OVC066 M14/M16
Q1002 TEMPO 0700 +SHSN 0145//33 RMK QFE743/0990=

0000051400
031
SAAE33 VTBB 110130
METAR VVTS 110130Z VRB02KT 8000 FEW017 SCT040 27/19 Q1015 NOSIG =
METAR VVNB 110130Z 30004KT 280V360 2300 BR FEW020 BKN040 16/12 Q1023
NOSIG=
METAR VVDN 110130Z 01005KT 6000 FEW015 BKN060 22/19 Q1021 NOSIG=
METAR VVPB 110130Z 28003KT 4000 BR SCT015 BKN050 20/19 Q1021 NOSIG=
METAR VVCR 110130Z 01011KT 8000 FEW017 BKN060 26/18 Q1018 NOSIG=
METAR VVCT 110130Z 07006KT 8000 FEW015 BKN040 25/20 Q1015 NOSIG=
METAR VVPQ 110130Z 04004KT 9999 FEW015 27/19 Q1015 NOSIG=

0000028400
032
FTCN35 CWAO 110100 AAA
TAF AMD CYQG 110136Z 1101/1124 17007KT 3/4SM -RA BR OVC002 TEMPO
     1101/1109 2SM -RA BR
    FM110900 20012KT 1SM -RA BR OVC003
     BECMG 1115/1117 24012G22KT
    FM111900 25015G30KT P6SM -SHRA OVC012
    RMK NXT FCST BY 110600Z=

0000074800
033
SACI31 ZBBB 110130
METAR ZBAA 110130Z 35003MPS CAVOK M04/M20 Q1032 NOSIG=
ZBSJ NIL=
METAR ZBTJ 110130Z 13001MPS 0400 R16R/0600N FZFG NSC M05/M07
Q1033
BECMG TL0230
0600=
METAR ZBYN 110130Z 05001MPS 5000 HZ NSC M07/M18 Q1030 NOSIG=
METAR ZGGG 110130Z VRB01MPS 4000 HZ NSC 14/09 Q1026 NOSIG=
METAR ZSHC 110130Z 08002MPS 2500 -RA BR FEW010 BKN030 05/03
Q1032 NOSIG=
METAR ZSPD 110130Z 06005MPS 9999 -RA NSC 07/02 Q1033 NOSIG=
METAR ZSSS 110130Z 07005MPS 9999 -RA OVC033 07/02 Q1032 NOSIG=
ZWSH NIL=
METAR ZWWW 110130Z 03001MPS 0700 R25/1100N FZFG BKN006 M22/M25 Q1036
NOSIG=
METAR ZYTL 110130Z 28003MPS 3000 BR NSC 01/M06 Q1032 NOSIG=
METAR ZYTX 110130Z 15002MPS 110V190 6000 NSC M07/M15 Q1031 NOSIG=

0000024100
034
SANZ31 NZKL 110130
METAR NZAA 110130Z AUTO 22010KT 9999 OVC048/// 21/13 Q1018 NOSIG=
METAR NZWN 110130Z AUTO 33012KT 300V010 9999 NCD 21/11 Q1016 NOSIG=
METAR NZCH 110130Z AUTO 06012KT 9999 OVC020/// 17/12 Q1015 NOSIG=

0000034800
035
FTFR31 LFPW 102300 AAB
TAF AMD LFPG 110124Z 1101/1206 VRB03KT 0500 FG BKN003 TEMPO 1101/1111
 0200 FG VV/// PROB40 TEMPO 1101/1109 1500 -RA BR BKN002 BECMG
1111/1112 1200 BCFG BKN005 BECMG 1113/1115 8000 NSW BKN008 BECMG
1116/1118 CAVOK BECMG 1122/1124 3000 BR BKN005 BECMG 1200/1202 0900
FG BKN002 TX08/1113Z TN01/1124Z=

0000038100
036
SAAO33 DRRN 110125
METAR DBBB 110130Z 22006KT 6000 FEW012 BKN200 27/26 Q1010 NOSIG=
METAR DFFD 110130Z 10008KT CAVOK 24/02 Q1013 NOSIG=
METAR DGAA 110125Z NIL=
METAR DNKN 110125Z NIL=
METAR DNMM 110125Z NIL=
METAR DRRN 110130Z 09011KT 4000 DU NSC 22/M01 Q1013 NOSIG=
METAR DXXX 110130Z 24003KT 8000 SCT012 27/26 Q1011 NOSIG=
METAR FTTJ 110125Z NIL=

0000017500
037
FTBN31 OBBI 102300 RRA
TAF OTBD 110113Z 1100/1206 36005KT 7000 RA FEW025 OVC100 PROB40 TEMPO
1103/1117 VRB25KT 4000 TSRA FEW030CB BECMG 1120/1122 33015KT=

0000035800
038
FTCN31 CWAO 110100 AAA
TAF AMD CYXT 110135Z 1101/1113 VRB03KT 4SM -SHRASN BR BKN009 TEMPO
     1101/1103 P6SM NSW SCT009 BKN040
    FM110300 01007KT 6SM -RASN BKN020 TEMPO 1103/1110 1SM -SN BKN005
     PROB30 1105/1110 1/2SM SHSN BKN003
    FM111000 01010KT P6SM BKN040 TEMPO 1110/1113 4SM -SN BKN020
    RMK NXT FCST BY 110700Z=

0000018500
039
SARE20 FMEE 110130
METAR FMEE 110130Z 12012KT 9999 FEW030 26/20 Q1015 NOSIG=
METAR FMEP 110130Z AUTO 08003KT 030V120 9999 NCD 24/20 Q1014=
METAR FMCZ 110130Z NIL=

0000009800
040
SANL33 EHDB 110125 RRA
METAR EHJR 110125Z AUTO 22028G33KT  09/07 Q1010 W10/H20=

0000010200
041
SANL33 EHDB 110125 RRB
METAR EHSC 110125Z AUTO 22026G28KT 9000 06/06 Q1013 W08/H13=

0000018200
042
FTUS43 KWBC 110136 AAA
TAF AMD
KMKC 110134Z 1102/1124 28006KT P6SM -RA OVC009
     FM110600 27006KT 4SM -DZ BR VCSH OVC008
     FM110900 26010KT P6SM SCT150=

0000052300
043
FTUS73 KWBC 110136 AAA
TAF AMD
KMKC 110134Z 1102/1124 28006KT P6SM -RA OVC009
     FM110600 27006KT 4SM -DZ BR VCSH OVC008
     FM110900 26010KT P6SM SCT150=
KOWB 110134Z 1102/1124 16012KT P6SM -RA SCT008 OVC080
     FM110230 16012KT 5SM -RA BR OVC035
      TEMPO 1103/1107 2SM RA BR OVC012
     FM111000 24010KT P6SM BKN015
     FM111900 25012KT P6SM SCT025=
KSTJ 110134Z 1102/1124 30010KT 6SM BR BKN008 OVC035
     FM110400 27006KT 4SM BR OVC006
     FM110800 26010KT P6SM SCT150=

0000016200
044
FTUS75 KWBC 110136
TAF
TAF AMD NSTU 110131Z 1102/1124 34012KT P6SM VCSH SCT014 BKN040
      OVC100
      TEMPO 1102/1104 4SM SHRA BKN014=

0000025500
045
FTUS42 KWBC 110136 AAA
TAF AMD
KNEW 110133Z 1102/1124 11010KT 1SM BR OVC003
      TEMPO 1105/1109 2SM TSRA OVC006CB
     FM110900 22015KT 3SM -RA BR OVC002
     FM111200 27013KT 2SM BR OVC003
     FM111600 30012KT P6SM SCT250=

00000000