0000009500
426
SPCN51 CWAO 110159
SPECI CWCL 110159Z AUTO 18003KT 7SM OVC002 M03/M07 A2967=

0000010300
427
SARM31 LUKK 110200
METAR LUKK 110200Z 26011KT CAVOK 04/M02 Q1016 R26/CLRD65
NOSIG=

0000010300
428
SAIY32 LIIB 110150 RRB
METAR LIPH 110145Z /////KT 1800 BR SCT020 BKN035 06/05 Q1021=

0000011000
429
SAMJ41 LWSK 110200
METAR LWSK 110200Z 00000KT 0250 R34/0400N FG OVC002 01/01 Q1024
NOSIG=

0000014900
430
SAUS71 KWBC 110100 RRH
METAR
KMMU 110145Z 00000KT 1/2SM BR OVC003 00/00 A3030=
KMTN 110145Z 00000KT 2SM DZ OVC005 03/03 A3027=

0000026700
431
SAXX69 EGRR 110200
METAR EQBH 110150Z 02002KT 9999 SKC M00/M02 Q1027 BLU TEMPO 6000 HZ
      WHT RMK A3033 PA2546 DA1364=
METAR KQTZ 110155Z 13909KT 5000 -RA BR BKN008 BKN015 OVC060 10/08 A2997
      RMK SLP151 WND DATA ESTMD ALSTG/SLP ESTMD=

0000043300
432
SARH31 LDZM 110200
METAR LDSP 110200Z 00000KT 9999 SCT032 BKN040 12/10 Q1023 =
METAR LDPL 110200Z VRB02KT 9999 BKN058 10/09 Q1021 =
METAR LDDU 110200Z 05006KT CAVOK 10/05 Q1022 =
METAR LDZA 110200Z 00000KT 0100 R05/0225N R23/0275N FG VV001 04/03
Q1021 TEMPO 0300 =
METAR LDZD 110200Z 12004KT 9999 SCT027 OVC050 09/09 Q1022 =
METAR LDRI 110200Z NIL=
METAR LDOS 110200Z 15005KT 9999 FEW040 04/03 Q1022=

0000008900
433
SASU01 HSSS 110200
METAR HSSS 110200Z 36011KT CAVOK 14/00 Q1017 NOSIG=

0000008400
434
SAAG41 SADF 110200
METAR SADF 110200Z  02002KT CAVOK 23/18 Q1011=

0000009600
435
SAUS73 KWBC 110100 RRH
METAR
KBJC 110145Z 00000KT 30SM FEW120 02/M12 A2978=

0000010600
436
SACN61 CYBC 110200
METAR CYBC 110200Z AUTO 28004KT 9SM FEW013 M09/M10 A3012 RMK SLP202=

0000010000
437
SARM31 LUKK 110200
METAR LUBL 110200Z AUTO 25012KT 9999 ///065/// 02/M03
Q1015=

0000008300
438
SABZ18 SBKP 110200
METAR SBKP 110200Z 13010KT CAVOK 24/18 Q1016=

0000008300
439
SABZ18 SBGR 110200
METAR SBGR 110200Z 18002KT CAVOK 20/18 Q1017=

0000130100
440
FTUS80 KWBC 110139 AAA
TAF AMD
KATL 110136Z 1102/1206 12007KT 1/2SM -RADZ FG OVC002
     FM111000 16009KT 1SM -SHRA BR OVC004
     FM111400 21010G18KT 2SM -SHRA BR OVC007
     FM111900 27013G22KT P6SM BKN025
     FM112100 29014G23KT P6SM SCT040
     FM120000 28011KT P6SM SCT250=
KFTY 110136Z 1102/1124 10005KT 1SM -DZ BR OVC003
     FM110300 13004KT 1/2SM -RADZ FG OVC002
     FM111000 16006KT 1SM -SHRA BR OVC004
     FM111400 21009KT 2SM -SHRA BR OVC007
     FM111900 27010G18KT P6SM BKN025
     FM112100 29012G20KT P6SM SCT040=
KPDK 110137Z 1102/1124 10005KT 1SM -DZ BR OVC003
     FM110200 13004KT 1/2SM -RADZ FG OVC002
     FM111000 16006KT 1SM -SHRA BR OVC004
     FM111400 21009KT 2SM -SHRA BR OVC007
     FM111900 27010G18KT P6SM BKN025
     FM112100 29012G20KT P6SM SCT040=
KSHV 110138Z 1102/1124 20010KT P6SM BKN015 OVC025
      TEMPO 1102/1105 3SM -SHRA BR OVC004
     FM110500 23012G18KT P6SM BKN020
     FM110900 27007KT P6SM SKC
     FM111700 29014G22KT P6SM SKC=
KSSI 110137Z 1102/1124 14007KT 3SM BR OVC006
      TEMPO 1102/1104 1SM BR OVC004
     FM110400 15005KT 1SM BR OVC003
      TEMPO 1107/1111 1/4SM FG VV001
     FM111400 20010G18KT P6SM VCSH BKN015 OVC025
     FM111700 24014G23KT 5SM -SHRA OVC015=

0000012500
441
SAAK32 KWBC 110100 RRA
METAR
PADK 110136Z AUTO 22028G37KT 10SM SCT033 BKN041 BKN060 04/M02
     A2883=

0000013400
442
SAMR20 TFFF 110200
METAR TFFF 110200Z AUTO 07013KT 040V100 9999 FEW035/// BKN045///
BKN058/// ///TCU 25/20 Q1016=

0000008300
443
SABZ24 SBFI 110200
METAR SBFI 110200Z 06004KT CAVOK 27/22 Q1012=

0000009500
444
SPCN51 CWAO 110158
SPECI CWCL 110158Z AUTO 17003KT 8SM BKN003 M03/M07 A2967=

0000105600
445
SPUS70 KWBC 110138
SPECI
KOGB 110134Z AUTO 00000KT 4SM -RA BR FEW005 OVC018 13/12 A3013 RMK
     AO2 P0003 T01280117 TSNO=
KPBF 110134Z AUTO 14004KT 3SM TSRA BR FEW007 BKN012 OVC018 12/12
     A2974 RMK AO2 LTG DSNT ALQDS TSB0057E25B33 P0012=
KDTN 110134Z AUTO 18009KT 10SM SCT009 BKN013 OVC070 16/15 A2974
     RMK AO2 RAE18 P0003=
KMRB 110134Z 00000KT 2SM BR OVC003 02/01 A3022 RMK AO2 RAE0057
     P0001 T00220006=
KCMI 110134Z 19014G21KT 2SM RA BR OVC003 04/04 A2967 RMK AO2 WSHFT
     0110 P0009 $=
KY50 110134Z AUTO 05003KT 1 3/4SM UP OVC002 00/ A2954 RMK AO2 TSNO
     P0000 $=
KDEC 110134Z 16010KT 7SM -RA OVC003 04/04 A2963 RMK AO2 CIG
     002V008 P0002=
KBPK 110135Z AUTO 16003KT 10SM BKN013 BKN027 BKN050 09/08 A2962
     RMK AO2=
KCHO 110135Z 00000KT 1 1/2SM -RA BR BKN004 02/02 A3022 RMK AO2
     P0002 T00170017=
KEET 110135Z AUTO 11003KT 4SM BR OVC003 11/11 A3001 RMK AO2
     RAB18E33 P0001 T01110111=
PAAQ 110135Z 00000KT 10SM FEW009 BKN015 OVC030 M04/M06 A2936 RMK
     AO2=

00000000