0000015700
794
SSVX13 LFPW 110800
ZZYY 64609 11014 0800/ 768936 004395 6113/ 11119 40117 52009 22219
 00048 444 20130 11014 0600/ 50101 80140 80026 9/015=
0000015700
795
SSVX13 LFPW 110800
ZZYY 41706 11014 0800/ 715747 052422 6113/ 11119 40156 57005 22219
 00259 444 20130 11014 0600/ 50101 80144 80027 9/015=
0000015700
796
SSVX13 LFPW 110800
ZZYY 64622 11014 0800/ 766576 009553 6113/ 11119 40048 52004 22219
 00020 444 20130 11014 0600/ 50101 80142 80008 9/015=
0000015700
797
SSVX13 LFPW 110800
ZZYY 14530 11014 0800/ 330403 053532 6113/ 11119 40169 54000 22219
 00234 444 20130 11014 0600/ 50101 80150 80015 9/015=
0000015700
798
SSVX13 LFPW 110800
ZZYY 64526 11014 0800/ 766031 008358 6113/ 11119 40036 52007 22219
 00023 444 20130 11014 0600/ 50101 80142 80005 9/015=
0000015700
799
SSVX13 LFPW 110800
ZZYY 13666 11014 0800/ 714655 048053 6113/ 11119 40149 57005 22219
 00257 444 20130 11014 0600/ 50101 80144 80003 9/015=
0000015700
800
SSVX13 LFPW 110800
ZZYY 14516 11014 0800/ 332215 055038 6113/ 11119 40181 57005 22219
 00206 444 20130 11014 0600/ 50101 80146 80021 9/015=
0000015700
801
SSVX13 LFPW 110800
ZZYY 41711 11014 0800/ 717362 050824 6113/ 11119 40167 57006 22219
 00256 444 20130 11014 0600/ 50101 80146 80021 9/015=
0000015700
802
SSVX13 LFPW 110800
ZZYY 44765 11014 0800/ 746775 035454 6113/ 11119 40009 52026 22219
 00110 444 20130 11014 0600/ 50101 80140 8//// 9/015=
0000015700
803
SSVX13 LFPW 110800
ZZYY 64663 11014 0800/ 767255 015283 6113/ 11119 40038 52003 22219
 00031 444 20130 11014 0600/ 50101 80148 80011 9/015=
0000015700
804
SSVX13 LFPW 110800
ZZYY 16534 11014 0800/ 335046 055122 6113/ 11119 40175 57013 22219
 00196 444 20130 11014 0600/ 50101 80150 80015 9/015=
0000015700
805
SSVX13 LFPW 110800
ZZYY 64665 11014 0800/ 765533 008558 6113/ 11119 40025 52008 22219
 00024 444 20130 11014 0600/ 50101 80148 80032 9/015=
0000015700
806
SSVX13 LFPW 110800
ZZYY 64606 11014 0800/ 766255 006852 6113/ 11119 40046 52002 22219
 00036 444 20130 11014 0600/ 50101 80134 80015 9/015=
0000109800
807
SNNO23 ENMI 110800
AAXX 11081
01015 NIL=
01023 41689 10000 11258 21281 30090 40198 52005 70200 81500=
01033 NIL=
01059 46/// /1301 11173 21189 30178 40189 50002=
01089 46/// /1304 11198 21217 30070 40187 52007=
01167 NIL=
01180 NIL=
01210 46/// /1203 11028 21065 39960 49987 52001=
01228 46/// /1110 11056 21088 30007 40015 54001=
01240 46/// /1210 11062 21101 30006 40027 50002=
01304 46/// /0103 10003 21047 39944 49976 52004=
01311 47781 82903 10051 20033 39911 49972 52004 722//=
01340 46/// /2904 11018 21025 39095 49965 57003=
01355 NIL=
01360 NIL=
01392 46/// /0203 11080 21101 39787 40021 50004=
01406 46/// ///// 10055 20025 39959 49977 51010=
01411 46/// ///// 10056 20023 39969 49996 50001=
01425 26/// /0402 10030 20017 39928 40008 50005 333 69925=
01433 46/// /2708 11030 21040 38715 49971 57005=
01442 26/// /1504 10011 21001 39741 49999 50005 333 60005=
01450 NIL=
01452 46/// /0501 10001 21002 39985 40007 51008=
01473 46/// /0000 11038 21044 39774 49986 53006=
01494 47/40 03402 11013 21015 39917 49982 52004 720//=
0000095700
808
SNNO24 ENMI 110800
AAXX 11081
01037 46/// /1101 11195 21211=
01046 46/// /1403 11152 21181 30187 40195 52005=
01058 46/// /0000 11275 21307 39703 40228 52004=
01065 NIL=
01092 46/// /0105 11024 21071=
01107 46/// /0811 11035 21108 30111 40115 53007=
01114 NIL=
01144 46/// /0912 11063 21155=
01199 46/// /2401 11208 21226 39696 40207 52007=
01245 NIL=
01259 46/// /0805 11093 21146 30020 40044 50005=
01262 NIL=
01278 NIL=
01293 46/// /1903 11133 21178 39844 40064 52005=
01329 46/// /2703 10034 20018 39907 49968 50001=
01337 46/// /0801 10002 21009 39903 49969 55001=
01344 NIL=
01364 NIL=
01373 NIL=
01380 46/// /1102 11121 21138=
01389 NIL=
01393 NIL=
01424 46/// ///// 10042 20015 39983 49987 53002=
01431 46/// /2702 10006 21013 39334 49997 54000=
01436 46/// /2910 10059 20032=
01465 26/// /2308 10047 20032 39980 49998 52007 333 60005=
01471 46/// /2101 11061 21062=
01483 NIL=
0000008600
809
SAIN90 VAUD 110800
METAR VAUD 110800Z 03004KT 2500 HZ NSC 17/04 Q1018=
0000008400
810
SAIN90 VOBM 110800
METAR VOBM 110800Z 07002KT 8000 NSC 29/09 Q1016=

0000065000
811
SAJP32 RJTD 110800
METAR RJFF 110800Z 27003KT 220V310 9999 FEW035 07/M04 Q1028=
METAR RJCC 110800Z 29005KT 9999 FEW020 M07/M16 Q1019=
METAR RJFK 110800Z 34007KT 9999 FEW040 BKN050 BKN120 07/M03 Q1027=
METAR RJSN 110800Z 30015KT 9999 FEW006 SCT030 BKN050 03/M03 Q1025=
METAR RJFT 110800Z VRB02KT 9999 FEW040 SCT060 BKN150 07/M04 Q1027=
METAR RJFU 110800Z VRB01KT 9999 FEW045 BKN060 BKN/// 07/M01 Q1028=
METAR RJCH 110800Z 31011KT 9999 VCSH FEW005 SCT025 M07/M10 Q1021=
METAR RJSS 110800Z 29008KT 9999 FEW020 01/M06 Q1024=
METAR RJOA 110800Z 36006KT 9999 FEW040 03/M06 Q1026=
METAR RJOB 110800Z 28003KT 9999 FEW030 SCT040 04/M06 Q1026=

0000016600
812
SAJP32 RJTD 110800 RRA
METAR RJOT 110800Z 26004KT 9999 FEW035 SCT170 04/M04 Q1027=
METAR RJFO 110800Z 34009KT 9999 FEW035 SCT170 BKN/// 07/M02 Q1028=

0000059000
813
SAMS31 WMKK 110800
METAR WBGG 110800Z 36009KT 310V030 9999 FEW015CB SCT020 BKN150 27/23
Q1009 NOSIG=
METAR WBKK 110800Z 24001KT 9999 FEW014 SCT130 OVC260 28/24 Q1009 
NOSIG=
METAR WBSB 110800Z 30008KT 9999 SCT016 FEW017CB BKN280 29/25 Q1009 
NOSIG=
METAR WMKK 110800Z 23005KT 180V270 9999 SCT018 BKN280 31/25 Q1008 
NOSIG=
METAR WMKP 110800Z 03012KT 9999 FEW020 BKN140 BKN270 28/22 Q1009 
NOSIG=
METAR WSSL 110800Z 02013KT 9999 FEW013 FEW016TCU FEW020CB SCT300 
29/26 Q1008 RESHRA=
METAR WSSS 110800Z 03006KT 310V060 8000 -SHRA FEW015CB SCT017TCU 
27/25 Q1008 RESHRA NOSIG=

00000000