0000102700
986
SPUS70 KWBC 102350
SPECI
KBLI 102346Z 15005KT 8SM -RA BKN017 OVC045 08/06 A2993 RMK AO2
     P0001=
KBOS 102346Z 20006KT 6SM BR SCT010 OVC015 02/01 A3037 RMK AO2=
KDMO 102346Z AUTO 25006KT 10SM SCT007 BKN020 OVC025 09/08 A2955
     RMK AO2 T00940078=
KGON 102346Z 00000KT 1SM R05/5500VP6000FT BR OVC004 02/02 A3035
     RMK AO2 RAB02E43 P0000=
KHOU 102346Z 20008KT 10SM BKN016 BKN022 OVC070 21/18 A2982 RMK
     AO2=
KPIE 102346Z 19003KT 10SM BKN023 BKN032 BKN048 23/19 A3008 RMK AO2
     T02330194=
KUNO 102346Z AUTO 15011KT 3SM BR OVC002 07/06 A2966 RMK AO2
     RAE06B17E31 P0001 T00670061=
PABA 102344Z AUTO 27020KT 1 1/4SM -SN BR FEW006 SCT028 BKN045
     M27/M29 A2985 RMK AO2 PK WND 27026/2320 P0000 FZRANO=
KAHN 102347Z 07005KT 1 1/2SM BR OVC003 08/07 A3012 RMK AO2
     P0001=
KM19 102347Z AUTO 30007KT 4SM +RA BR SCT004 BKN009 07/07 A2979 RMK
     AO2 CIG 005V010 P0035 WSHFT 2321=
KMDH 102347Z AUTO 16012KT 5SM RA BR OVC010 08/06 A2973 RMK AO2
     P0013=

0000010000
987
SPUS31 KWBC 102350
SPECI
KBOS 102346Z 20006KT 6SM BR SCT010 OVC015 02/01 A3037=

0000011000
988
SPUS41 KWBC 102350
SPECI
KGON 102346Z 00000KT 1SM R05/5500VP6000FT BR OVC004 02/02 A3035=

0000008900
989
SAVN31 SVVA 110000
METAR SVVA 110000Z 36007KT 9999 FEW016 25/17 Q1013=

0000009700
990
SPCN51 CWAO 102352
SPECI CZCP 102352Z AUTO 29025KT 1 1/4SM -SN CLR M33/ A2943=

0000016500
991
SAIS31 LLBG 102350
METAR LLET 102350Z NIL=
METAR LLHA 102350Z NIL=
METAR LLIB 102350Z NIL=
METAR LLOV 102350Z NIL=
METAR LLSD 102350Z NIL=

0000084800
992
SASN31 ESWI 102350
METAR ESGG 102350Z 25012KT 9999 OVC005 04/04 Q1001 R21/29//95=
METAR ESGJ 102350Z 22008KT 9999 FEW004 SCT007 BKN009 01/01 Q1001
R01/720068=
METAR ESGP 102350Z 24009KT 9999 FEW012 SCT016 BKN020 06/04 Q1001
R19/19//95=
METAR ESGT 102350Z NIL=
METAR ESMK 102350Z AUTO 27011KT 9000NDV BR FEW011/// SCT014///
BKN018/// 06/05 Q1006 RERA=
METAR ESMQ 102350Z AUTO 21005KT 9999 OVC028/// 01/00 Q1004=
METAR ESMS 102350Z 26015KT 9999 FEW024 OVC039 05/03 Q1007
R17/29//95=
METAR ESMT 102350Z AUTO 24013KT 9999 FEW026/// OVC031/// 05/04
Q1004=
METAR ESMX 102350Z AUTO 20005KT 9999 FEW006/// SCT010/// OVC026///
02/02 Q1003=
METAR ESTA 102350Z AUTO 25017KT 9999 SCT010/// BKN014/// OVC033///
06/04 Q1005=
METAR ESTL 102350Z AUTO 25013KT 9999NDV FEW015/// SCT020///
BKN035/// 06/05 Q1006=

0000066500
993
SAFI31 EFHK 102350
METAR EFHK 102350Z 33014KT 9999 BKN010 M03/M05 Q0994 NOSIG=
METAR EFJY 102350Z AUTO 36007KT 9999 OVC011 M07/M08
 Q0996=
METAR EFKU 102350Z AUTO 02011KT 9999 -SN BKN017 
BKN040 M07/M10 Q0997=
METAR EFOU 102350Z AUTO 06009KT 020V100 9999 -SN FEW035/// OVC048/// 
M12/M14 Q1005 12420581=
METAR EFRO 102350Z AUTO 03013KT CAVOK M17/M20 
Q1009=
METAR EFTP 102350Z AUTO 02008KT 9999 BKN007 OVC009 
M04/M05 Q0997=
METAR EFTU 102350Z AUTO 35006KT 320V020 5000 -SG SCT005/// OVC007/// 
M02/M03 Q0996 R08/19//80=
METAR EFVA 102350Z AUTO 04008KT 9999 -SN BKN014/// BKN048/// 
OVC076/// M08/M10 Q1001 R16/49//95=

0000010500
994
SAIS32 LLBG 102350
METAR LLBG 102350Z 16004KT 9999 RA FEW020 BKN029 12/10 Q1021 NOSIG=

0000057800
995
SADL31 EDZO 102350
METAR EDDF 102350Z 14002KT 9999 FEW040 SCT250 00/M00 Q1018 NOSIG=
METAR EDDH 102350Z 24009KT 9999 BKN013 06/04 Q1013 NOSIG=
METAR EDDK 102350Z 13005KT CAVOK 03/01 Q1017 NOSIG=
METAR EDDL 102350Z 14005KT CAVOK 03/01 Q1017 NOSIG=
METAR EDDM 102350Z VRB01KT 9999 R26R/P2000N R26L/1100VP2000U MIFG NSC
     M02/M02 Q1019 NOSIG=
METAR EDDN 102350Z 11004KT CAVOK 00/00 Q1018=
METAR EDDS 102350Z VRB02KT CAVOK M00/M01 Q1018=
METAR EDDT 102350Z 25008KT CAVOK 04/01 Q1015=
METAR EDDV 102350Z 23005KT 9999 FEW018 SCT040 05/03 Q1015=

0000042100
996
SADL32 EDZO 102350
METAR EDDB 102350Z 24009KT 9999 BKN048 05/02 Q1015 NOSIG=
METAR EDDC 102350Z 25008KT CAVOK 05/01 Q1016=
METAR EDDE 102350Z 22008KT CAVOK 02/01 Q1017=
METAR EDDG 102350Z 24010KT 9000 BKN009 05/03 Q1015 NOSIG=
METAR EDDP 102350Z 22009KT 9999 SCT040 SCT230 03/02 Q1017 NOSIG=
METAR EDDR 102350Z 08003KT CAVOK 00/M01 Q1018=
METAR EDDW 102350Z 24012KT 9999 BKN011 06/04 Q1014=

0000010400
997
SACV20 GVNP 110000
METAR GVNP 110000Z /////KT 9999 BKN020 BKN200 XX/XX Q////
NOSIG=

0000009600
998
SPUS43 KWBC 102353
SPECI
KBTL 102349Z 22007KT 3SM RA BR OVC005 03/02 A2982=

0000012200
999
SAMO31 ZMUB 110000
METAR ZMUB 110000Z VRB01MPS 5000NW FU NSC M34/M39 Q1026 NOSIG RMK
 QFE661.6 64 NT=

0000054400
000
SADN31 EKCH 102350
METAR EKCH 102350Z 25014KT 9999 FEW016 BKN040 06/04 Q1008 NOSIG=
METAR EKBI 102350Z 24009KT 210V270 9999 FEW012 BKN150 05/04
Q1007=
METAR EKYT 102350Z 25015KT 9999 FEW015 SCT020 BKN160 06/05 Q1004=
METAR EKRK 102350Z AUTO 26010KT 9999NDV BKN036/// 05/04 Q1007=
METAR EKAH 102350Z AUTO 25011KT 9999NDV BKN035/// BKN150///
06/03 Q1006=
METAR EKEB 102350Z AUTO 22011KT 9999NDV FEW009/// BKN011///
06/05 Q1008=
METAR EKRN 102350Z AUTO 27021KT 9999NDV -SHRA  FEW013/// OVC031///
06/06 Q1008=

0000009800
001
SAPM31 MPTO 110000
METAR 
MPTO 110000Z 06004KT 9999 FEW020 27/20 Q1008 NOSIG=

0000016500
002
SADN32 EKCH 102350
METAR EKVJ 102353Z NIL=
METAR EKSB 102353Z NIL=
METAR EKSN 102353Z NIL=
METAR EKVD 102353Z NIL=
METAR EKOD 102353Z NIL=

0000043200
003
SADN34 EKCH 102350
METAR EKHN 102350Z AUTO 24010G24KT 180V270 8000NDV BKN013///
///// Q1010=
METAR EKHR 102350Z AUTO 24022KT 9999NDV FEW014/// BKN019///
08/06 Q1008=
METAR EKHA 102350Z AUTO 23023KT 9999NDV 07/06 Q1008=
METAR EKHD 102350Z AUTO 28020KT 6000NDV 07/06 Q1005=
METAR EKGC 102350Z AUTO 23019KT 9999NDV 07/06 Q1007=
METAR EKAV 102350Z AUTO 25016KT 9999NDV FEW022/// BKN035///
06/04 Q1005=

0000010200
004
SACV20 GVSV 110000
METAR GVSV 110000Z 07009KT 99Y9 FEW022 BKN200 20/16 Q1017 NOSIG=

0000033100
005
SAGL31 BGSF 102350
METAR BGSF 102350Z AUTO 06011KT 9999NDV  BKN230/// M15/M22 Q0996=
METAR BGBW 102353Z NIL=
METAR BGGH 102350Z 12010KT 9999 SCT045 M07/M15 Q0993=
METAR BGJN 102350Z AUTO 10013KT 9999NDV  BKN220/// M09/M19 Q0995=
METAR BGKK 102350Z AUTO VRB77GP99KT 0500NDV  SN BKN012/// M01/M03 
Q0985=

00000000