0000123200
126
FTUR30 UKMS 111000
TAF UKBB 111032Z 1111/1212 26007G12MPS 9999 BKN010
         TEMPO 1111/1114 27011G16MPS 3000 -SHRA
         SCT005 BKN008CB  TEMPO 1114/1118 2000 SHRASN
         SCT003 BKN007CB  BECMG 1118/1120 25005G10MPS
         BECMG 1206/1208 22005G10MPS  TX05/1111Z
         TNM04/1205Z=
TAF UKCC 111037Z 1112/1212 27010G15MPS 9999 BKN010
         SCT015CB TEMPO 1112/1118 27013G18MPS 2100
         -SHRA BR BKN007 BKN015CB BECMG 1118/1120
         26007G12MPS 2100 BR BKN007 TEMPO 1120/1206 1000
         -SHRASN BR BKN003 SCT015CB BECMG 1206/1208
         24008G15MPS 6000 BKN008 SCT015CB TX05/1112Z
         TN00/1202Z=
TAF UKDD 111041Z 1112/1212 26009G14MPS 9999 BKN012
         BKN020CB TEMPO  1112/1120 29013G18MPS 2100
         -SHRA BR BKN006 BKN015CB TEMPO 1120/1206
         2100 -SHRA BR BKN005 BKN015CB BECMG 1206/1208
         23006G11MPS TX06/1112Z  TN00/1200Z=
TAF UKKM 111042Z 1111/1212 27007G12MPS 9999 BKN015
         BKN070  TEMPO 1111/1117 29012G17MPS 3000
         -SHRA BKN007 BKN015CB  BECMG 1117/1119
         24006G11MPS  BECMG 1206/1208 22007G12MPS  TEMPO
         1208/1212 2000 SHRASN BKN007 BKN015CB
         TX05/1111Z TNM01/1204Z=
0000190700
127
SZAU01 AMMC 111045
CREX++
T000103 A001 D01021 D06025++
-1927750 14705860 59260 2014 01 11 10 38 3025 11 07 00 01
02206 0187 02199 0185 02191 0183 02183 0181 02180 0183 02171 0181+
-2316110 15079000 59670 2014 01 11 10 38 3002 11 07 00 01
03071 0255 03061 0254 03059 0259 03044 0251 03036 0253 03028 0252+
-3447330 15091170 60420 2014 01 11 10 38 2953 11 07 00 01
00698 -0019 00682 -0033 00685 -0027 00681 -0029 00684 -0023 00685 -0019+
-4105000 14591500 60910 2014 01 11 10 38 2888 11 07 00 01
02949 0010 02939 0004 02944 0012 02933 0006 02928 0005 02923 0003+
-4254640 14793080 61170 2014 01 11 10 38 2895 11 07 00 01
01159 0114 01157 0114 01155 0113 01161 0120 01158 0118 01154 0115+
-3834390 14161360 61410 2014 01 11 10 38 2908 11 07 00 01
00709 0040 00718 0048 00732 0062 00752 0081 00720 0048 00716 0044+
-3214890 13364170 62000 2014 01 11 10 38 2962 11 07 00 01
01123 0062 01121 0061 01118 0058 01116 0057 01116 0057 01115 0056+
-3387080 12189720 62080 2014 01 11 10 38 2950 11 07 00 01
01004 0060 00997 0052 01001 0055 01001 0054 00982 0034 00983 0034+
-3182560 11573860 62237 2014 01 11 10 38 2973 11 07 00 01
01034 0079 01035 0080 01023 0068 01024 0069 01016 0061 01021 0066+
-2422000 11339750 62385 2014 01 11 10 38 //// 11 07 00 01
01460 -0034 01459 -0034 01449 -0043 01325 -0166 01439 -0052 01422 -0068+
-2181670 11419110 62430 2014 01 11 10 38 //// 11 07 00 01
02201 -0062 02218 -0045 02197 -0066 02193 -0069 02207 -0055 02181 -0081+
-1800080 12221830 62650 2014 01 11 10 38 3043 11 07 00 01
06938 0030 06933 0026 06926 0020 06918 0012 06916 0010 06919 0014+
-1247190 13084580 63230 2014 01 11 10 38 3050 11 07 00 01
04270 0137 04268 0138 04267 0139 04266 0140 04264 0140 04262 0139+
-1386000 13641580 63511 2014 01 11 10 38 3043 11 07 00 01
01883 0147 01878 0142 01874 0137 01871 0134 01871 0133 01870 0131++
7777

0000046700
128
SZPA01 AMMC 111045
CREX++
T000103 A001 D01021 D06025++
0136250 17293000 67590 2014 01 11 10 38 3015 11 07 00 01
01511 0061 01510 0056 01508 0051 01511 0052 01501 0038 01490 0024+
0710610 17137250 67680 2014 01 11 10 38 3013 11 07 00 01
00996 0057 01007 0065 01009 0065 01007 0061 01008 0059 01015 0063+
0698060 15820000 67950 2014 01 11 10 38 3023 11 07 00 01
00593 0029 00593 0029 00594 0029 00600 0034 00598 0032 00604 0038++
7777

0000034700
129
SZIO01 AMMC 111045
CREX++
T000103 A001 D01021 D06025++
-1211670 09689190 46280 2014 01 11 10 38 3020 11 07 00 01
01018 0039 01018 0041 01008 0033 01013 0040 01010 0040 01003 0035+
-1042940 10566940 46290 2014 01 11 10 38 //// 11 07 00 01
01304 -0023 01268 -0057 01312 -0011 01261 -0061 01296 -0024 01274 -0044++
7777

0000179800
130
SZPS01 AMMC 111045
CREX++
T000103 A001 D01021 D06025++
-0204190 14737360 56130 2014 01 11 10 38 3028 11 07 00 01
00547 0112 00542 0109 00537 0105 00528 0098 00526 0098 00521 0095+
-0669280 15640860 56363 2014 01 11 10 38 //// 11 07 00 01
00389 -0048 00388 -0049 00387 -0051 00387 -0051 00392 -0047 00390 -0049+
-0942890 15995560 56670 2014 01 11 10 38 3043 11 07 00 01
00467 -0056 00468 -0054 00466 -0055 00466 -0054 00461 -0058 00464 -0054+
-1072080 16580190 57131 2014 01 11 10 38 //// 11 07 00 01
00646 0346 00233 -0068 00253 -0049 00237 -0067 00242 -0063 00226 -0081+
-1551560 16718860 57210 2014 01 11 10 38 //// 11 07 00 01
00326 -0129 00339 -0118 00331 -0127 00357 -0103 00338 -0124 00336 -0127+
-1775690 16830030 57320 2014 01 11 10 38 3017 11 07 00 01
00339 -0114 00341 -0112 00342 -0112 00345 -0109 00346 -0108 00346 -0109+
-4397330 16861610 65180 2014 01 11 10 38 2887 11 07 00 01
01942 0371 01949 0382 01968 0408 01947 0391 01946 0396 01943 0398+
-2120470 -15978530 65980 2014 01 11 10 38 3010 11 07 00 01
00413 -0029 00428 -0014 00430 -0013 00431 -0013 00407 -0038 00439 -0007+
-2113810 -17518140 66600 2014 01 11 10 38 //// 11 07 00 01
00694 0093 00701 0097 00714 0109 00716 0109 00703 0093 00719 0107+
-1382670 -17176110 66840 2014 01 11 10 38 3013 11 07 00 01
00595 0045 00601 0048 00586 0031 00610 0053 00606 0046 00612 0050+
-1813250 17842750 67050 2014 01 11 10 38 3030 11 07 00 01
00768 0106 00771 0107 00773 0107 00777 0109 00777 0107 00781 0109+
-1760530 17743810 67070 2014 01 11 10 38 3032 11 07 00 01
00748 0040 00749 0039 00750 0037 00752 0036 00755 0036 ///// ////+
-0850250 17919500 67440 2014 01 11 10 38 3028 11 07 00 01
01749 0023 01751 0022 01759 0027 01758 0023 01764 0025 01770 0028++
7777

0000011100
131
UANT99 KDDL 111043
ARP AAL291 5501N01921W 1043 F360 MS60 240/84 KT
N190AA DDL XXN 111043 F50A
0000014400
132
SIVB30 KWBC 110900 RRB
BBXX
DGSE 11093 99513 11711 41498 63119 10006 21009 49840 54000 70211
 85/// 22214 04050 2//// 80000=
0000008900
133
SAIN90 VECC 110900
METAR VEJS 110900Z 05006KT 1500 FU SCT100 25/13 Q1014=
0000009500
134
SAIN90 VANP 110910
METAR VANP 110910Z 22006KT 4000 HZ FEW020 27/16 Q1013 NOSIG=
0000108400
135
SIIN90 VANP 110900 RRA
AAXX 11094
42675 31493 83604 10166 20145 40155 74644 886//
  333 58030 88710=
42361 31994 23204 10200 20076 40169 71000 80001
  333 58029 82075=
42567 31593 73206 10180 20134 40159 71040 85430
  333 58023=
42763 32596 70000 10190 20156 39796 40146 83530
  333 58020=
42671 32996 00501 10194 20118 39522 40146
  333 58031=
42571 31594 83203 10152 20141 40148 71044 8653/
  333 58014=
42667 31595 10508 10188 20119 39554 40150 70500 81500
  333 58027 81620=
42754 31594 50508 10168 20115 39501 40149 70522 83530
  333 83620 83360=
42559 32996 03602 10184 20106 40153
  333 58030=
42874 32596 42704 10264 20164 40122 82530
  333 58007 82625 83360=
43041 32596 22302 10292 20112 39508 40109 82200
  333 59002 82830=
42693 32596 53202 10234 20158 39446 40124 82530
  333 59001 82620 85360=
42779 32596 52305 10234 20158 39424 40116 83530
  333 59001 83620 85360=
42867 31596 22306 10274 20153 40115 70500 82500
  333 58005 82620=
42933 32997 32902 10274 20076 40118 80001
  333 58019 83075=
0000015900
136
SIVC30 KWBC 110900 RRB
BBXX
TBWUK67 11094 99012 70803 41598 52513 10274 20233 40096 55000
 76022 85800 22253 00260 20301 327// 40802 80246=
0000324400
137
SIVD30 KWBC 110900 RRG
BBXX
3ETA8 11094 99233 70872 41797 31913 10250 2021/ 40130 54000 7//10
 81100 22275 04268 20201 3//// 40201 50201 6//// 80220 ICE /////=
PHEO 11094 99210 71575 41398 10613 10240 20218 40100 51010 70100
 811// 22263 00260 20301 80225=
46126 11091 99540 71666 46/// /2105 10043 49811 90854 22200 00047
 1//00 70000 333 91206 555 11049 22053=
46126 11091 99540 71666 46/// /2004 10043 49811 90850 22200 00047
 1//00 70000 333 91206 555 11048 22052=
46126 11091 99540 71666 46/// /2004 10043 49811 90848 22200 00047
 1//00 70000 333 91206 555 11048 22052=
44150 11091 99425 70640 46/// /2104 1//// 40288 57008 22200 00043
 10602 70010 333 91204=
44139 11091 99442 70571 46/// /2408 10015 40287 54000 22200 00016
 10804 70020 333 91210=
C6VG7 11094 99222 70852 417// 81515 10260 2//// 40158 53001 79522
 889// 22214 00270 2//04 3//// 4//04 5//04 6//// 8//// ICE /////=
41300 11094 99159 70575 46/// /0615 10251 20196 40152 54000 22200
 00260 10805 70026=
A8IP3 11094 99183 70749 41999 01214 10260 20218 40153 55010 70000
 22254 00270 20503 311// 40903 5//// 80230=
DGTX 11094 99328 71178 41/97 12002 10155 20130 40190 54000 70200
 8//// 22283 00200 2//// 80140=
WSQ2674 11094 99327 71172 43/// /2502 10117 2//// 40198 5////
 7//// 8//// 222// 04152 2//// 3//// 4//// 5//// 6//// 8//// ICE
 /////=
WECB 11094 99327 71172 43/// /2301 10129 20099 40205 5//// 7////
 8//// 222// 04148 2//// 3//// 4//// 5//// 6//// 8//// ICE /////=
46053 11091 99343 71199 46/// /0701 10147 40198 51008 90850 22200
 00150 11403 20401 330// 41403 70016 333 91202 555 11012 22013
 30829 40602 60849 072012 055014 052013 060006 198004 198008=
44058 11091 99376 70763 46/// /1808 10097 40161 58029 90900 22200
 00044 10301 70004 333 91211 555 11092 22100=
44059 11091 99368 70763 46/// /1703 10167 40159 58022 90900 22200
 00078 333 91205 555 11039 22043=
46077 11091 99579 71543 46/// /3202 10012 49925 58016 90850 22200
 00045 10701 20301 3//// 40701 70007 333 91202 555 11016 22017
 30755 43005 60849 327017 322024 321023 313027 311027 302032 83005
 90757=
A8IN7 11094 99181 70757 41/98 20816 10270 20225 40160 54000 70200
 8//// 22214 20402 312// 40802 80239=
44041 11091 99372 70768 46/// /1304 10139 90900 22200 00038 1//00
 70001 333 91204 555 11042 22045=
44042 11091 99380 70763 46/// /1714 10124 40133 90900 22200 00038
 10201 70003 333 91218 555 11162 22176=
42060 11091 99163 70632 46/// /0709 10260 40157 55006 90850 22200
 00267 11004 20603 306// 41002 70018 333 91211 555 11096 22102
 30814 40711 60849 069090 067085 070087 067094 061087 066083 80710
 90814=
44064 11091 99370 70760 46/// /1506 10120 40167 56023 90900 22200
 00069 10301 70005 333 91207 555 11068 22074=
44063 11091 99390 70764 46/// /2903 10021 40148 56034 90900 22200
 00015 1//00 70000 333 91206 555 11039 22043=
44062 11091 99386 70764 46/// /3402 10041 40157 58039 90900 22200
 00030 1//00 70001 333 91203 555 11018 22020=
41046 11091 99238 70683 46/// /0909 10255 20187 40216 56006 90850
 22200 00259 10905 20804 3//// 40903 70026 333 91210 555 11091
 22096 30828 40811 60849 088085 088089 085091 090087 083085 084084
 80810 90828=
0000017300
138
SIVD80 KWBC 110900 RRA
BBXX
WYP8657 11094 99458 70846 43/// /1610 10014 49961 2227/ 00001=
WUR8857 11094 99438 70875 43/// /2110 10013 49957 2221/ 00003=
0000042700
139
SIVD31 KWBC 110900 RRA
BBXX
PHSG 11094 99061 71334 41/98 71219 10250 20235 40100 57010 70222
 87/// 22214 00250 20203 323// 40306 80240=
C6FR3 11093 99149 70935 415// 23413 10260 2//// 40120 54/// 70200
 82//5 22233 00270 20101 3//// 4//// 5//// 6//// 8//// ICE /////=
KAQP 11094 99098 71043 43/// /0710 10266 20217 40100 5//// 7////
 8//// 222// 04270 2//// 3//// 4//// 5//// 6//// 8//// ICE /////=
0000055900
140
SIVE30 KWBC 110900 RRA
BBXX
VNSZ 11094 99411 31464 46/// /3221 10194 20083 30096 40122 57003
 22276 04166 85132=
ZMGB 11094 99415 31756 41/98 10515 10158 20144 40150 57011 70200
 81/// 22253 00170 20202 319// 40903 80150=
VNAH 11094 99383 31416 46/// /1909 10175 20124 30195 40219 52005
 22200 04177 85144=
C6FS9 11094 99238 31512 46/// /1219 10257 20201 30114 40150 52008
 22232 04275 85218=
KAOU 11094 99057 31060 43/// /3011 10262 20239 40084 5//// 7////
 8//// 222// 04304 2//// 3//// 4//// 5//// 6//// 8//// ICE /////=
0000098300
141
SIVF30 KWBC 110900 RRB
BBXX
LXFG 11093 99421 70187 41497 51935 10140 20105 40150 57020 70200
 84782 22253 20505 331// 40805 80120=
C6WK7 11094 99379 10236 41/98 00301 10177 2//// 40230 54/// 7////
 80/// 22200 00170 2//// 3//// 4//// 5//// 6//// 8//// ICE /////=
62023 11093 99514 70079 46/97 /32// 10074 2//// 4//// 5//// 22200
 10704 70021 555 70035 81009=
LF4H 11094 99596 10022 46/// /2922 10060 20025 49993 52006 8////
 22200 06077 10706 70031=
LDGJ 11091 99603 10053 43/// /1502 10050 20025 49973 5//// 222/0
 04078 1//// 3//// 4//// 5////=
LJIT 11091 99584 10044 43/// /2912 10059 20010 40013 5//// 222/0
 04071 1//// 3//// 4//// 5////=
BATUK01 11094 99579 70062 43/// /2617 10052 21002 40088 51026
 22242 04094=
PGRQ 11094 99367 70304 41/98 33223 10139 2//// 40125 52015 7//00
 83200 22222 0//// 21007 333// 41206=
PJKV 11093 99472 70162 41298 81515 10110 20043 40102 55007 70322
 86778 22224 04100 20803 329// 40603 80080=
0000013600
142
SIVD17 CWVR 110900
BBXX
46207 11091 99509 71299 46/// /2210 10083 49829 54000
22200 00078 10908 70040 333 91213 =

0000012400
143
SIRS22 RUMS 110900 RRA
AAXX 11091
27703 41397 82704 10015 20007 39960 49901 52014 76166 8872/ 333
86708=
0000099500
144
SSWB19 RKSL 110900
ZZYY 21229 11014 09001 13746/ 13111/ 
11109 03104 10046 40254 5//// 
22209 00130 10502 20053 21012= 
ZZYY 22101 11014 09001 13724/ 12602/ 
11109 01602 10020 40307 5//// 
22209 00052 10501 20049 21004= 
ZZYY 22102 11014 09001 13479/ 12578/ 
11109 03502 10041 40312 5//// 
22209 00069 10401 20043 21007= 
ZZYY 22103 11014 09001 13400/ 12750/ 
11109 03305 10053 40301 5//// 
22209 00143 10302 20026 21010= 
ZZYY 22104 11014 09001 13477/ 12890/ 
11109 03002 10056 40296 5//// 
22209 00152 10601 20064 21007= 
ZZYY 22105 11014 09001 13754/ 13000/ 
11109 02905 10042 40276 5//// 
22209 00121 10602 20058 21009= 
ZZYY 22106 11014 09001 13635/ 12978/ 
11109 03209 10053 40281 5//// 
22209 00114 10602 20064 21010= 
ZZYY 22107 11014 09001 13308/ 12603/ 
11109 03606 10083 40307 5//// 
22209 00162 10501 20046 21007= 
ZZYY 22183 11014 09001 13473/ 12624/ 
11109 03604 10040 40315 5//// 
22209 00066 10200 20021 21002= 
0000027100
145
SIVA20 LFPW 110900
BBXX
BATFR55 11094 99081 30421 44796 33408 10279 20219 40139 58010 702//
831//
22262 04294 20602 305// 40802 5////=
A8YN6 11094 99194 10631 41698 40616 10220 20134 40150 57050 70222
83160
22235 04249 20502 304// 40803 80170=
00000000