0000015700
866
SSVX13 LFPW 111100
ZZYY 41972 11014 1100/ 734566 040338 6113/ 11119 40256 52023 22219
 00195 444 20130 11014 1100/ 50101 80120 80081 9/015=
0000018400
867
SSVX13 LFPW 111100
ZZYY 41734 11014 1100/ 705265 039112 6113/ 11119 40136 52016 22219
 00264 33300 88872 20000 43601 444 20130 11014 1100/ 50101 80118
 80021 9/015=
0000010000
868
SNVF25 LFPW 111100
BBXX
BAREU66 11114 99359 70055 46/// ///// 40199 52020
22242=
0000015700
869
SSVX13 LFPW 111100
ZZYY 16592 11014 1100/ 346208 066533 6113/ 11119 40148 57009 22219
 00060 444 20130 11014 1100/ 50101 80118 80024 9/015=
0000015700
870
SSVX13 LFPW 111100
ZZYY 41970 11014 1100/ 730900 058800 6113/ 11119 40306 52011 22219
 00215 444 20130 11014 1100/ 50101 80118 80056 9/015=
0000015700
871
SSVX13 LFPW 111100
ZZYY 14920 11014 1100/ 328510 067380 6113/ 11119 40227 57014 22219
 00227 444 20130 11014 1100/ 50101 80122 80015 9/015=
0000018400
872
SSVX13 LFPW 111100
ZZYY 41736 11014 1100/ 711994 040312 6113/ 11119 40163 52014 22219
 00256 33300 88872 20000 43602 444 20130 11014 1100/ 50101 80112
 80026 9/015=
0000012100
873
SAQT31 OTBD 111100
METAR OTBD 111100Z 23006KT 180V290 8000 FEW018 SCT100 OVC120 17/14
Q1019 RERA NOSIG=
0000036200
874
SABN31 OBBI 111100
METAR OBBI 111100Z 19006KT 9999 FEW020 17/14 Q1018 NOSIG=
METAR OEDF 111100Z 19018KT 9999 SCT040 18/11 Q1017 NOSIG=
METAR OEDR 111100Z 20014KT 9999 FEW030 SCT080 17/14 Q1016 NOSIG=
METAR OTBD 111100Z 23006KT 180V290 8000 FEW018 SCT100 OVC120 17/14
Q1019 RERA NOSIG=
METAR OKBK 111100Z 33013KT CAVOK 15/08 Q1017 NOSIG=
0000016700
875
SOVI10 KWAL 111101
B110070A 011110101"P9751095 B\P~W@@v0ekJ1@mJ???C[C`>@mX3@CC~@H4Cj5D@6bQ9Kz2?????@"??? ?TJzKBKBQBHBOBJBN:AMPTEMP 25.85C  45+0NN 219E
0000023800
876
SNVD17 KWNB 111100 RRB
BBXX
46061 11111 99602 71468 46/// /3206 10015 49888 57013 91050 22200
00045 11003 20401 300// 41003 70016 333 91207 555 11057 22060
31035 43307 61049 324055 320054 310053 311046 323045 331041=
0000012800
877
SNVF51 EGRR 111100
BBXX
62105 11114 99550 70132 46/// /2410 10079 21009 40153 53021 22200
00108 10907 70037=
0000012800
878
SNVF51 EGRR 111100
BBXX
62301 11114 99524 70047 46/// /3209 10070 20020 40203 51027 22200
00097 10503 70015=
0000012800
879
SNVF51 EGRR 111100
BBXX
62001 11114 99452 70050 46/// /0808 10119 20071 40215 51020 22200
00128 10903 70016=
0000012800
880
SNVF51 EGRR 111100
BBXX
64045 11114 99591 70117 46/// /2715 10062 20004 40093 53025 22200
00096 10909 70046=
0000012800
881
SNVF51 EGRR 111100
BBXX
62107 11114 99501 70061 46/// /0305 10095 20026 40215 51017 22200
00104 11005 70024=
0000014400
882
SNVF51 EGRR 111100
BBXX
62163 11114 99475 70084 46/// /1019 10104 20077 40191 50004 22200
00122 10806 70031 333 90710 91129=
0000068900
883
USAA01 NZCM 110000
TTAA 61001 89664
99997 00056 18501 00512 ///// ///// 92601 07158 18518
85255 11341 17017 70716 21114 15006 50514 33959 24513
40666 44759 24520 30855 51765 24023 25975 45585 24514
20124 43786 24513 15318 43586 26009 10592 41586 23504
88320 52361 23026
77999
31313 48008 82219=

0000069700
87361=
0000011200
87368=
0000015000
87382
0000012800
87386
0000045600
87406
0000047700
87410=
0000049900
87467
0000047900
87475
0000047900
87491
0000056200
87512
0000054200
87550=
0000058500
87863=
0000052400
88871
0000064800
89326
0000056600
89898
0000056600
90775
0000075200
91857
0000065100
884
SXXX32 EUMS 110004 RRM
18D74682
OT12 ID:ZA-GOUG-13 DT:2014 01 11 00 03
:RAD /3 06887 21193 21118 02103 01737 20774 15989 19597 16980 21157 21174 21064 20934 20619 21145 20638 21003 18620 17357 17402 21015 02881 20932 02057 21092 02131 21003 02011 21112 01938 01660 20713 21336 20355 21029 20881 21230 02050 21457 21132 20999 02110 20830 21218 21216 21216 02211 21174 21502 21551 21212 21297 21203 21473 21213 16169 21188 20136 18521 01976 02760 04009 21426 02221 21377 20616 21228 20999 01706 20923 20835 21138 21202 21210 01898 21194 21202 21207 21204 21204 21209 21414 21210 21199 02313 21213 02257 21209 21208 21210
:BAT 14.3V
0000070900
885
USAA01 NZCM 110000
TTAA 61001 89664
99997 00056 18501 00512 ///// ///// 92601 07158 18518
85255 11341 17017 70716 21114 15006 50514 33959 24513
40666 44759 24520 30855 51765 24023 25975 45585 24514
20124 43786 24513 15318 43586 26009 10592 41586 23504
88320 52361 23026
77999
31313 48008 82219=

0000069700
87361=
0000011200
87368
0000009600
87371
0000035800
87378
0000037300
87381
0000039400
87385=
0000043700
87428
0000047800
87442
0000056100
87461
0000047900
87477=
0000056300
87584
0000052200
87646
0000064600
87799=
0000062700
88850
0000062700
89311
0000077200
89864
0000062800
90738
0000062800
91843
00000000