0000011000
446
UANT99 KDDL 110907
ARP UAL90 5102N01654W 0907 F350 MS64 240/61 KT
N77012 DDL XXW 110907 F49A
0000009500
447
SAIN90 VOHS 110910
METAR VOHS 110910Z 18005KT 5000 HZ SCT020 30/11 Q1015 NOSIG=
0000010400
448
SIIN90 VEAT 110900
AAXX 11094
42724 31995 03603 10250 20107 40147 70500
  333 59003=
0000011000
449
UANT99 KDDL 110907
ARP AFR459 4445N01321W 0907 F370 MS61 271/55 KT
FGSQH QXT AOE 110907 F81A
0000011100
450
UANT99 KDDL 110907
ARP UAL982 4909N02838W 0907 F350 MS51 182/60 KT
N229UA DDL XXW 110907 F47A
0000011100
451
UANT99 KDDL 110908
ARP UAL126 5101N03953W 0908 F370 MS56 323/25 KT
N17139 DDL IG1 110908 F84A
0000068500
452
UDNT02 EGRR 110911
AMDAR 1107
LVR EU0902   5505N 03344W 110759 F369 MS585 227/038 TB0 S031=
LVR EU0902   5503N 03200W 110806 F369 MS577 217/046 TB0 S031=
LVR EU0902   5500N 03017W 110813 F369 MS587 212/048 TB0 S031=
LVR EU0902   5503N 02832W 110820 F369 MS595 215/054 TB0 S031=
LVR EU0902   5505N 02648W 110827 F369 MS617 220/053 TB0 S031=
LVR EU0902   5506N 02502W 110834 F369 MS602 220/054 TB0 S031=
LVR EU0902   5505N 02316W 110841 F369 MS615 226/056 TB0 S031=
LVR EU0902   5503N 02129W 110848 F369 MS625 229/054 TB0 S031=
LVR EU0902   5500N 01943W 110855 F369 MS630 234/061 TB0 S031=
LVR EU0902   5501N 01754W 110902 F369 MS632 246/070 TB0 S031=
0000043300
453
UDEU02 EGRR 110911 RRB
AMDAR 1108
LVR EU0026   5256N 00915E 110833 F300 MS485 261/043 TB/ S031=
LVR EU0026   5227N 00813E 110840 F300 MS485 251/043 TB/ S031=
LVR EU0026   5158N 00712E 110847 F300 MS482 245/050 TB/ S031=
LVR EU0026   5128N 00614E 110854 F300 MS487 247/056 TB/ S031=
LVR EU0026   5059N 00518E 110901 F330 MS547 249/068 TB/ S031=
LVR EU0026   5030N 00425E 110908 F330 MS547 246/071 TB/ S031=
0000068500
454
UDSA02 EGRR 110911
AMDAR 1108
UNS EU1301   2328S 04638W 110858 F050 PS205 326/015 TB/ S031=
UNS EU1301   2328S 04637W 110859 F047 PS207 320/011 TB/ S031=
DES EU1301   2328S 04636W 110859 F044 PS217 334/010 TB/ S031=
DES EU1301   2327S 04635W 110859 F041 PS222 335/012 TB/ S031=
DES EU1301   2327S 04634W 110900 F038 PS225 354/013 TB/ S031=
DES EU1301   2327S 04633W 110900 F035 PS225 013/006 TB/ S031=
DES EU1301   2327S 04632W 110901 F032 PS227 338/002 TB/ S031=
DES EU1301   2326S 04631W 110901 F029 PS225 052/004 TB/ S031=
DES EU1301   2326S 04630W 110901 F026 PS202 114/003 TB/ S031=
DES EU1301   2326S 04628W 110902 F023 PS205 132/002 TB/ S031=
0000029300
455
UDAS02 BABJ 110859
AMDAR 1108
DES CNFPQL 3646N 11934E 110855 F222 MS345 279/071 TB/ S//1=
DES CNFPQL 3648N 11939E 110855 F217 MS330 276/072 TB/ S//1=
DES CNFPQL 3651N 11943E 110856 F211 MS318 274/066 TB/ S//1=
DES CNFPQL 3654N 11946E 110856 F205 MS305 272/066 TB/ S//1=
0000091300
456
UDAS02 BABJ 110857
AMDAR 1108
LVR CNFOZL 2952N 11353E 110846 F276 MS328 259/103 TB/ S//1=
LVR CNFOZL 2935N 11346E 110849 F276 MS310 254/110 TB/ S//1=
LVR CNFOZL 2917N 11342E 110852 F276 MS306 253/107 TB/ S//1=
LVR CNFOZL 2857N 11344E 110855 F276 MS298 253/102 TB/ S//1=
LVR CNFLWT 3455N 11909E 110846 F291 MS440 268/105 TB/ S//1=
LVR CNFLWT 3441N 11854E 110849 F291 MS433 266/105 TB/ S//1=
LVR CNFLWT 3422N 11847E 110852 F291 MS428 265/101 TB/ S//1=
LVR CNFLWT 3401N 11844E 110855 F291 MS425 263/097 TB/ S//1=
LVR CNFOZM 3341N 11722E 110846 F256 MS365 276/066 TB/ S//1=
LVR CNFOZM 3358N 11715E 110849 F256 MS368 275/070 TB/ S//1=
LVR CNFOZM 3416N 11712E 110852 F256 MS373 276/072 TB/ S//1=
LVR CNFOZM 3435N 11712E 110855 F256 MS375 274/078 TB/ S//1=
DES CNFLWQ 2359N 11128E 110854 F276 MS260 255/070 TB/ S//1=
DES CNFLWQ 2345N 11143E 110856 F250 MS188 257/067 TB/ S//1=
0000054100
457
UDAS02 BABJ 110900
AMDAR 1109
DES CNFPTK 3138N 12015E 110855 F141 MS116 261/050 TB/ S//1=
DES CNFPTK 3136N 12019E 110856 F130 MS094 265/050 TB/ S//1=
DES CNFPTK 3133N 12025E 110857 F120 MS073 264/043 TB/ S//1=
DES CNFPTK 3131N 12032E 110858 F118 MS068 263/047 TB/ S//1=
DES CNFLWQ 2343N 11146E 110857 F246 MS174 257/066 TB/ S//1=
DES CNFLWQ 2340N 11149E 110857 F240 MS165 259/061 TB/ S//1=
DES CNFLWQ 2334N 11155E 110858 F227 MS129 255/062 TB/ S//1=
DES CNFLWQ 2329N 11201E 110859 F208 MS123 256/066 TB/ S//1=
0000141000
458
SIOM20 OOMS 110900
AAXX 11094
41240 36/// /9902 10210 20088 30184 40198
333 0E/// 59016  =
41241 NIL=
41242 NIL=
41244 36/// /1504 10210 20075 39962 49355
333 0E015 58046 =
41246 36/// /0508 10216 20124 30204 40209
333 0E018 59016 =
41249 36/// /3007 10195 20077 39461 40143
333 0E013 59006 =
41250 NIL=
41252 NIL=
41253 NIL=
41254 NIL=
41255 36/// /2205 10210 20067 39662 40217
333 0E016 59001 =
41256 32560 60611 10212 20082 30203 40213 81531 333 59012 81620
84070=
41257 NIL=
41258 36/// /1006 10207 20079 30204 40209
333 0E/// 59011 =
41259 36/// /2408 10096 21231 37125 40001
333 0E/// 58001  =
41262 NIL=
41263 36/// /1603 10211 20074 39603 40178
333 0E016 59003 =
41265 36/// /1705 10217 21019 39598 40180
333 0E013 59007 =
41267 36/// /3310 10214 20073 30196 40212
333 0E016 59003  =
41268 36/// /0011 10219 20081 30193 48465
333 0E017 59004 =
41270 NIL=
41272 NIL=
41275 NIL=
41276 36/// /0915 10231 20086 30039 40196
333 0E014 59001 =
41280 NIL=
41287 NIL=
41288 NIL=
41290 NIL=
41293 36/// /2106 10210 20006 39846 40195
333 0E015 58006 =
41295 NIL=
41301 NIL=
41304 NIL=
41314 32660 69905 10242 20112 39675 40174 84501
  333 59009 84630 85080 =
41315 36/// /2108 10190 20125 39181 42818
333 0E/// 59004  =
41316 32560 41214 10258 20152 30140 40167 83440
  333 59006 83625 81359 =
0000068900
459
UDEU02 EGRR 110911 RRC
AMDAR 1108
DES EU0478   4343N 00556E 110851 F162 MS175 241/026 TB/ S031=
DES EU0478   4337N 00605E 110852 F123 MS082 240/023 TB/ S031=
DES EU0478   4334N 00617E 110854 F097 MS017 267/017 TB/ S031=
DES EU0478   4332N 00627E 110855 F080 PS017 243/011 TB/ S031=
DES EU0478   4329N 00636E 110857 F070 PS037 235/011 TB/ S031=
DES EU0478   4327N 00645E 110858 F053 PS062 215/014 TB/ S031=
DES EU0478   4325N 00654E 110900 F048 PS072 208/012 TB/ S031=
DES EU0478   4323N 00702E 110901 F038 PS052 096/008 TB/ S031=
DES EU0478   4324N 00708E 110903 F030 PS067 078/014 TB/ S031=
DES EU0478   4328N 00709E 110904 F028 PS072 081/016 TB/ S031=
0000068900
460
UDEU02 EGRR 110911 RRD
AMDAR 1108
LVR EU9743   5028N 00148W 110804 F350 MS560 249/057 TB/ S031=
LVR EU9743   4947N 00224W 110811 F350 MS570 255/053 TB/ S031=
LVR EU9743   4904N 00256W 110818 F350 MS573 255/051 TB/ S031=
LVR EU9743   4821N 00326W 110825 F350 MS590 253/049 TB/ S031=
LVR EU9743   4738N 00356W 110832 F350 MS598 258/045 TB/ S031=
LVR EU9743   4654N 00425W 110839 F350 MS605 264/041 TB/ S031=
LVR EU9743   4610N 00454W 110846 F350 MS608 272/028 TB/ S031=
LVR EU9743   4524N 00523W 110853 F350 MS610 288/027 TB/ S031=
LVR EU9743   4437N 00550W 110900 F350 MS605 301/022 TB/ S031=
LVR EU9743   4345N 00558W 110907 F350 MS598 311/025 TB/ S031=
0000128300
461
SITH20 VTBB 110900
AAXX 11094
48300 32562 20000 10275 20182 39821 40130 57025 82505
  333 58009=
48327 32560 12302 10305 20150 39787 40136 57015 81500
  333 58012=
48331 32560 10000 10307 20131 39906 40132 57023 81100
  333 58010=
48353 31959 01502 10300 20143 39845 40130 57019 70500 
  333 59002=
48356 32662 20703 10291 20182 39946 40141 56018 82100
  333 58001=
48375 32662 10607 10312 20152 39885 40106 57022 81100
  333 58009=
48378 31556 22307 10302 20175 30080 40132 57021 70500 81505
  333 58004=
48381 32560 43506 10301 20153 39930 40144 55012 82205
  333 58015=
48407 32560 30303 10305 20128 39987 40126 57015 81105
  333 58003=
48431 31957 20000 10300 20158 39918 40128 57024 70500 80005
  333 58003=
48456 32560 30507 10314 20179 30108 40122 57021 81101
  333 58005=
48480 32561 50303 10334 20179 30102 40106 57017 82236
  333 58011=
48500 31940 30208 10300 20198 30113 40120 57019 70511 80005
  333 58004=
48551 32560 70306 10285 20231 30105 40113 57014 82257
  333 58001=
48565 32560 51005 10315 20202 30080 40090 57034 81141
  333 58006=
48569 32560 71013 10300 20209 30071 40110 57015 82236
  333 58005=
48583 21440 81204 10240 20230 30105 40111 57019 76162 8282/
  333 58008 60196=
0000122700
462
SITH21 VTBB 110900
AAXX 11094
48303 32562 11504 10282 20167 39694 40130 55023 81100
  333 58012=
48328 32560 20000 10308 20159 39856 40129 57017 82100
  333 59007=
48330 32562 50000 10307 20173 39949 40132 57020 82106
  333 58008=
48351 31556 10000 10310 20140 30056 40129 57022 70500 81100
  333 58006=
48354 32665 40205 10295 20136 39939 40140 57019 83141
  333 58004=
48376 31550 20703 10307 20165 39990 40133 57022 70500 81205
  333 58008=
48377 31957 00000 10302 20175 39964 40126 57021 70500 
  333 58007=
48379 32962 00000 10322 20163 39982 40112 57029 
  333 58002=
48400 31950 10000 10315 20176 30093 40133 57025 70500 80005
  333 58009=
48432 31959 00105 10302 20135 39962 40128 57016 70500 
  333 58006=
48455 32560 20703 10328 20179 30117 40122 57022 81105
  333 58006=
48462 31557 10000 10321 20189 30071 40126 56019 70500 81100
  333 58008=
48475 31958 20208 10293 20214 30116 40123 57020 70500 80005
  333 58005=
48477 NIL=
48517 31557 30505 10290 20222 30108 40114 56021 71011 81145
  333 58000=
48532 32560 61106 10313 20190 30095 40104 57021 83106
  333 58030=
48567 32560 60509 10307 20210 30082 40100 57015 81246
  333 58003=
0000167600
463
SITH40 VTBB 110900
AAXX 11094
48310 32561 10000 10298 20158 39681 40128 56015 81100
  333 58013=
48325 32960 00000 10305 20186 39882 40121 57038 
  333 58007=
48329 32560 32202 10300 20174 39802 40136 57013 82801
  333 58023=
48352 31559 21703 10300 20154 39930 40128 57032 70500 82100
  333 59011=
48357 32564 20503 10290 20145 39974 40142 57018 81101
  333 58001=
48380 31956 00803 10308 20182 30044 40137 57020 70500 
  333 58007=
48383 32561 20202 10290 20161 39988 40146 57007 82100
  333 59002=
48403 31958 50202 10298 20145 39924 40132 57033 70522 80006
  333 58008=
48405 32560 30303 10305 20150 39967 40128 57020 82205
  333 58002=
48420 32960 40410 10310 20187 30114 40118 57019 80006
  333 58008=
48421 31950 20000 10330 20174 30006 40117 57025 70500 80005
  333 58007=
48425 31958 20304 10310 20187 30121 40131 57020 70500 80005
  333 58007=
48426 32563 20304 10326 20163 30112 40125 56023 82101
  333 58006=
48429 32560 30509 10318 20136 30122 40129 57020 81101
  333 58013=
48430 31956 20706 10332 20143 30112 40119 56022 70500 80005
  333 58005=
48450 31956 00000 10315 20168 30090 40123 57022 70500 
  333 58005=
48459 31559 10503 10334 20183 30110 40112 55015 70500 81105
  333 58005=
48465 31956 20208 10307 20189 30118 40123 56021 70500 80005
  333 58008=
48550 21458 71107 10260 20253 30109 40116 57016 76062 82846
  333 58008 69917=
48552 21460 63003 10257 20241 30106 40113 57017 70162 83806
  333 58008 60097=
48566 32560 50612 10315 20216 30087 40095 57014 82145
  333 58004=
48568 31459 61107 10280 20213 30107 40114 57017 71022 83836
  333 58010=
0000126000
464
SITH41 VTBB 110900
AAXX 11094
48315 31958 00000 10286 20121 39872 40139 57019 70500 
  333 58006=
48374 32962 00000 10310 20149 39969 40133 57019 
  333 58004=
48382 NIL=
48385 31558 40000 10305 20130 39601 40107 57020 70511 84200
  333 58002=
48390 31450 20507 10305 20161 39973 40132 57024 70500 82101
  333 58005=
48402 NIL=
48413 32560 20000 10315 20164 30049 40128 57036 81105
  333 58006=
48416 NIL=
48418 32560 20909 10310 20147 30071 40129 57022 81101
  333 58010=
48434 31956 20304 10300 20174 39912 40129 57022 70500 80005
  333 58007=
48436 31958 23403 10305 20161 39921 40125 57023 70500 80005
  333 58006=
48439 32961 10605 10320 20160 30106 40120 57024 80001
  333 58009=
48460 32962 00710 10305 20180 30083 40114 57014 
  333 58007=
48461 32965 23308 10290 20224 30046 40115 57017 80005
  333 58008=
48478 31958 51503 10295 20213 30113 40118 57021 70511 80006
  333 58011=
48501 31958 33103 10322 20219 30103 40108 55017 70521 82031
  333 58001=
48561 32562 40000 10310 20233 30089 40098 56019 82205
  333 58004=
48564 32560 60000 10323 20224 30102 40106 57016 82246
  333 58013=
48570 32560 60503 10296 20184 30079 40086 57028 82246
  333 59006=
48580 NIL=
0000168800
465
SITH42 VTBB 110900
AAXX 11094
48302 NIL=
48304 32965 00000 10286 20183 39677 40130 57020 
  333 58013=
48334 32560 20000 10300 20174 39786 40143 57007 82100
  333 58019=
48360 32662 10706 10283 20144 39877 40135 57020 81100
  333 59002=
48372 31558 50000 10310 20187 30077 40134 57019 70511 82235
  333 58007=
48373 31540 10000 10303 20196 30071 40133 57022 70500 81100
  333 58008=
48386 31930 33202 10310 20196 30089 40134 57017 70511 80006
  333 58005=
48387 31558 21004 10244 20155 39179 40126 57016 70500 82500
  333 58006=
48408 32660 30000 10310 20179 39982 40129 57016 81101
  333 58006=
48415 31557 20306 10331 20150 30110 40121 57023 70500 81105
  333 58014=
48433 31958 20102 10305 20161 39967 40131 57016 70500 80005
  333 58003=
48437 32964 03503 10297 20135 39924 40131 57019 
  333 58004=
48440 32560 30000 10320 20192 30068 40117 56023 81105
  333 58004=
48451 32960 20000 10302 20184 30116 40127 57012 80005
  333 58008=
48454 31558 60405 10318 20160 30111 40118 57021 70522 82106
  333 58007=
48457 31958 30403 10284 20190 30105 40122 57023 70511 80005
  333 58009=
48463 31950 50106 10317 20213 30028 40120 56019 70511 80006
  333 58007=
48464 31559 10505 10310 20187 30110 40123 57019 70500 81100
  333 58009=
48479 31956 40000 10300 20174 30062 40113 57019 70511 80006
  333 58005=
48520 31559 60806 10288 20220 30097 40112 57019 71022 83546
  333 58001=
48554 31456 80000 10280 20241 30110 40114 57017 71022 83877
  333 58023=
48563 32560 50804 10307 20199 30066 40101 57016 82235
  333 59002=
48571 32561 40000 10280 20217 30097 40108 57015 82101
  333 58013=
00000000