0000135400
386
FPLK01 VCCC 111100
FORECAST ISSUED 1600 (LOCAL TIME) ON 20140111
01 DAY FORECAST 

ANURADHAPURA       
12   23   30    SHOWERS OR THUNDERSHOWERS AT TIMES.

                                
BATTICALOA                                        
12   24   29    SHOWERS OR THUNDERSHOWERS AT TIMES.

                
COLOMBO                            
12   24   31    THUNDER SHOWERS DURING THE AFTERNOON 
                AND NIGHT.
                         
GALLE        
12   24   30    THUNDER SHOWERS DURING THE AFTERNOON 
                AND NIGHT.
                             
JAFFNA          
12   24   29    SHOWERS OR THUNDERSHOWERS AT TIMES.

                             
KANDY          
12   19   29    THUNDER SHOWERS DURING THE AFTERNOON
                AND NIGHT.
                                               
NUWARAELIYA       
12   10   19    THUNDER SHOWERS DURING THE AFTERNOON 
                AND NIGHT.
                                              
RATNAPURA
12   23   33    THUNDER SHOWERS DURING THE AFTERNOON 
                AND NIGHT.
                                 
TRINCOMALEE      
12   25   29    SHOWERS OR THUNDERSHOWERS AT TIMES.

                               
MANNAR   
12   24   29    SHOWERS OR THUNDERSHOWERS AT TIMES.
0000015700
387
SMVA01 KWBC 110600 RRL
BBXX
S6LT3 11060 99163 10410 41596 81206 10280 20224 40206 5//// 71022
 8/710 22274 00260 20401 333// 40401 80240=
0000013000
388
SACN62 CYGR 110300
METAR CYGR 110300Z 25015G20KT 15SM SKC M05/M10 A3022 RMK LAST
 OBS/NEXT 111000 UTC SLP233=

0000011800
389
SACN62 CYGK 110300
METAR CYGK 110300Z 14004KT 15SM FEW025 OVC050 01/M01 A3008 RMK SC2SC6
 SLP191=

0000011300
390
SACN62 CYHM 110300
METAR CYHM 110300Z 13004KT 2 1/2SM BR OVC140 02/01 A2992 RMK AC8
 SLP140=

0000012900
391
SACN62 CYOJ 110300
METAR CYOJ 110300Z 02002KT 15SM SCT025 BKN040 OVC070 M18/M21 A2953
 RMK SC3SC3AC2 SLP037=

0000011300
392
SACN62 CYMX 110300
METAR CYMX 110300Z 04004KT 15SM -SN OVC021 M08/M11 A3021 RMK SC8
 SLP236=

0000010600
393
SACN62 CYPA 110300
METAR CYPA 110300Z 27007KT 15SM BKN082 M08/M09 A2946 RMK AC7 SLP007=

0000010600
394
SACN62 CYXE 110300
METAR CYXE 110300Z 24008KT 15SM FEW100 M10/M11 A2954 RMK AC2 SLP042=

0000012900
395
SACN62 CYXC 110300
METAR CYXC 110300Z 00000KT 20SM FEW030 BKN070 OVC210 M02/M04 A2978
 RMK SC2AC3CI3 SLP124=

0000013300
396
SACN62 CYSB 110300
METAR CYSB 110300Z 15012KT 1/2SM R22/2400FT/N -FZDZ FZFG VV001
 M03/M03 A2984 RMK FG8 SLP127=

0000012300
397
SACN62 CYVR 110300
METAR CYVR 110300Z 08013KT 3SM -RA BR BKN010 OVC017 06/05 A2975 RMK
 ST6SC2 SLP074=

0000013600
398
SACN62 CYXH 110300
METAR CYXH 110300Z 20004KT 15SM SCT110 M07/M09 A2971 RMK AC4 LAST
 STFD OBS/NEXT 111300Z SLP099=

0000012900
399
SACN62 CYXY 110300
METAR CYXY 110300Z 26002KT 15SM FEW008 SCT025 BKN065 M16/M18 A2922
 RMK SF2SC1SC3 SLP954=

0000011900
400
SACN62 CYQU 110300
METAR CYQU 110300Z 27009KT 25SM FEW100 SCT210 M05/M11 A2952 RMK
 AC1CI3 SLP035=

0000014100
401
SACN62 CYZT 110300
METAR CYZT 110300Z 11026G41KT 6SM -RA BR BKN011 OVC042 04/04 A2935
 RMK SC5SC3 PRESSFR PRESFR SLP938=

0000012600
402
SACN62 CYYD 110300
METAR CYYD 110300Z 10002KT 25SM FEW065 OVC120 M04/M05 A2943 RMK
 SC2AC6 PRESFR SLP991=

0000040900
403
SAPL31 EPWA 110300
METAR EPGD 110300Z 28013G24KT 8000 -SHRA BKN011 FEW015TCU
    04/04 Q1008 =
METAR EPKK 110300Z 25011KT 9999 BKN046 04/M01 Q1017 =
METAR EPLL 110300Z 26010KT CAVOK 04/00 Q1014 =
METAR EPPO 110300Z 25011KT 9999 SCT021 BKN038 05/01
    Q1014 R10/19//95 =
METAR EPRZ 110300Z 26014KT CAVOK 05/M02 Q1016 =
METAR EPWA 110300Z 27016KT 9999 FEW040 05/01 Q1012 NOSIG=

0000039500
404
SAPL32 EPWA 110300
METAR EPBY 110300Z 25010KT 9999 SCT023 BKN040 05/02
    Q1012 =
METAR EPKT 110300Z 23009KT 9999 FEW047 02/M02 Q1016 =
METAR EPLB 110300Z NIL=
METAR EPMO 110300Z 26016KT 9999 FEW023 SCT037 OVC048 05/02 Q1011
    REDZ=
METAR EPSC 110300Z 24009KT 9999 BKN015 05/02 Q1012 =
METAR EPWR 110300Z 23005KT CAVOK 05/M00 Q1017 =
METAR EPZG 110300Z NIL=

0000008400
405
SAAG41 SAME 110300
METAR SAME 110300Z  18006KT CAVOK 27/04 Q1015=

00000000