0000015700
826
SSVX13 LFPW 110900
ZZYY 44612 11014 0900/ 745770 045331 6113/ 11119 40217 57002 22219
 00040 444 20130 11014 0900/ 50101 80154 80000 9/015=
0000011000
827
UANT01 CWAO 110900
ARP SAS936 5905N03642W 0859 F330 MS60 219/33 KT
LNRKF DDL XXW 110900 J48A
0000011000
828
UANT01 CWAO 110900
ARP UAE231 6126N05453W 0900 F340 MS57 284/21 KT
A6ECE DDL XXN 110900 F81A
0000011000
829
UANT01 CWAO 110900
ARP SAS944 5802N04523W 0900 F350 MS58 265/38 KT
OYKBA DDL UAK 110900 J82A
0000008700
830
UASN61 ESWI 110900
ARS
B737 MOD ICE OBS AT 0855Z OSNAK FL160/FL140 
=
0000015700
831
SSVX13 LFPW 110900
ZZYY 64667 11014 0900/ 763137 029221 6113/ 11119 49984 52022 22219
 00062 444 20130 11014 0900/ 50101 80154 80002 9/015=
0000204200
832
SIBM20 VBRR 110900
AAXX 11094
48001 31450 80000 10190 20159 40154 70322 84700 333 56320 58007=
48004 32460 33201 10240 20155 83300 333 56500=
48008 32958 00401 10250 20150 40157 333 58015=
48010 32060 00000 10260 20160 40142 333 59009=
48018 32560 13201 10275 20154 40145 70311 81400 333 5699/ 58012=
48019 32960 00402 10260 20119 40147 333 58004=
48020 NIL=
48025 32456 33201 10260 20160 40148 83800 333 56500 58000=
48035 31960 02202 10264 20070 40108 70500 333 58015=
48037 32960 03601 10287 20159 40138 333 58022=
48042 32958 03601 10287 20159 40137 333 58026=
48045 32560 11803 10195 20130 81100 333 56500=
48048 32958 00401 10287 20179 40144 333 58013=
48053 32950 03601 10300 20166 40128 333 58019=
48057 32960 03201 10232 20016 333=
48060 32456 20000 10252 20150 40126 81200 333 56500 58020=
48062 32960 02303 10285 20230 40141 333 58015=
48071 31960 03203 10270 20191 40145 70500 333 58015=
48077 32958 00000 10320 20163 40125 70500 333 58011=
48078 32957 22701 10318 20163 40132 80001 333 56009 58012=
48080 31560 12204 10329 20258 40136 70511 81100 333 56900 58014=
48094 32960 00402 10320 20230 40125 333 58009=
48097 32457 60503 10325 20206 40141 70222 83206 333 56909 58021=
48108 32996 50502 10335 20258 40116 80005 333 56009 58010=
48109 32597 20401 10304 20253 40125 70222 80030 333 56090 58007=
48110 31596 33203 10330 20224 40110 70511 82306 333 56909 58006=
48112 32597 80403 10310 20237 40107 83876 333 56199 58007=
48030 32960 02204 10204 20033 333=
48051 /2958 03103 10300 20120 70200 333=
48072 31959 01302 10290 20259 70511 333=
48075 32558 21401 10270 20170 40125 70111 82100 333 56500 59007=
48085 32958 23203 10300 20239 40123 80005 333 56009 58009=
48087 32960 20000 10328 20201 80001 333 56009 =
48095 32960 20000 10310 20203 70222 80002 333 56009=
48099 32458 40000 10330 20212 40117 84800 333 56900 58007=
48101 32660 33202 10317 20215 70211 81206 333 56909=
48103 32457 23201 10330 20172 40114 82800 333 56700 58006=

0000059700
833
SIVD20 KWNB 110900 RRC
BBXX
44065 11091 99404 70737 46/// /1406 10078 40182 56036 90850 22200
00056 333 91207 555 11068 22078 30846 41507 60849 143061 145063
144062 142061 140058 141061=
44007 11091 99435 70701 46/// /0000 10025 20018 40230 58022 90850
22200 00045 10601 20401 315// 40601 70007 333 91201 555 11001
22001 30754 42101 60849 052001 164001 164000 164001 164001 210004=
44022 11091 99409 70737 46/// /0404 10019 20015 90845 333 91205
555 11041 22041=
44040 11091 99410 70736 46/// /0704 10023 20023 90845 22200 11401
70003 333 91205 555 11051 22057=
0000027400
834
SXHW11 KWAL 110902
15D142A4 011090202":PRS 1 #1 1502 1490 1481 1488 1472 1482 1481 1466 1475 1486 :RAD 1 #1 7080 7071 7068 7066 7062 7064 7062 7059 7061 7063 :ENC 2 #5 4973 4966 4958 4950 :SW1 2 #60 0 :SW2 32 #60 0 :BAT 4 #5 13.0 :NAME 15D142A4  34+0NN 216W
0000007600
835
SNAU50 AMMC 110800 RRA
AAXX 11084
94386 45/// /1213=


0000009600
836
SIMJ01 LWOH 110900
AAXX 11091
13579 31/04 93001 10028 20019 39421 52007 74444=
0000011300
837
SAQT31 OTBD 110900
METAR OTBD 110900Z 20004KT 160V250 7000 -RA FEW018 OVC100 16/14 Q1020
NOSIG=
0000011800
838
SIVB30 LFPW 110900
BBXX
BATFR10 11094 99240 11231 46/// /1120 10207 20119 40229 53004
22283 04242=
0000010600
839
SIVJ30 LFPW 110900
BBXX
BATEU00 11094 99691 30277 46/// /0709 11011 21022 49911
22200=
0000011000
840
UANT99 KDDL 111040
ARP UAL45 5302N01555W 1040 F360 MS65 237/68 KT
N29124 DDL ORK 111040 F39A
0000068900
841
UDEU02 EGRR 111043 RRB
AMDAR 1110
ASC EU7724   6348N 02018E 111035 F002 MS126 016/006 TB/ S031=
ASC EU7724   6348N 02017E 111035 F004 MS128 015/009 TB/ S031=
ASC EU7724   6348N 02017E 111035 F006 MS131 020/014 TB/ S031=
ASC EU7724   6348N 02017E 111035 F010 MS139 019/018 TB/ S031=
ASC EU7724   6348N 02016E 111035 F014 MS146 021/023 TB/ S031=
ASC EU7724   6349N 02016E 111035 F015 MS148 022/023 TB/ S031=
ASC EU7724   6349N 02015E 111035 F016 MS148 029/024 TB/ S031=
ASC EU7724   6349N 02015E 111036 F017 MS144 041/030 TB/ S031=
ASC EU7724   6349N 02014E 111036 F018 MS131 048/032 TB/ S031=
ASC EU7724   6348N 02013E 111036 F020 MS139 047/036 TB/ S031=
0000011000
842
UANT01 CWAO 111039
ARP UAL56 5104N01702W 1038 F320 MS56 233/68 KT
N66051 DDL XXN 111039 F10A
0000047600
843
SSVX08 KARS 111040
ZZYY 52004 10014 0000/ 305008 165171 6111/
33311 88870 20001 33066 20025 33001 20075 33033 20100 32928
20150 32662 20200 32047 20250 31393 20300 31040 20500 30819
444 20110 10014 0128/ 521//=
ZZYY 52007 10014 1200/ 308031 164802 6112/
33311 88872 20001 33060 43420 20025 32988 43453 20050 32895 43493
20075 32764 20100 32729 20125 32589 20150 32479 20200 32075
20250 31633 20300 31285 20500 30764
444 20120 10014 1053/ 521//=
0000012800
844
SSVX07 KARS 111040
ZZYY 48731 11014 1030/ 774120 154943 6111/
11119 11216 40029
444 20110 11014 1024/ 504//=
0000011000
845
UANT01 CWAO 111040
ARP AFR439 5502N02918W 1040 F370 MS61 210/54 KT
FGITJ QXT AOW 111040 F20A
00000000