0000032100
806
FTCN35 CWAO 102300 AAA
TAF AMD CYWA 102340Z 1100/1112 14005KT 11/2SM -SN OVC003 TEMPO
     1100/1106 6SM BR SCT003 OVC020 PROB40 1102/1106 1SM -FZRA BR
    FM110600 14005KT 4SM -FZRA BR SCT003 OVC010 TEMPO 1106/1112 3/4SM
     -SN -PL OVC003
    RMK FCST BASED ON AUTO OBS. NXT FCST BY 110600Z=

0000013400
807
SPAU32 YBBN 102340
SPECI YPGV 102330Z 12013KT 9999 VCSH FEW008 BKN013 BKN120 27/25 Q1008
RESHRA
RMK SHRA TO NW=

0000129800
808
SAAU31 YBBN 102330
METAR YPAD 102330Z 22007KT CAVOK 24/12 Q1019
NOSIG=
METAR YBAS 102330Z 12009KT CAVOK 32/03 Q1016=
METAR YBBN 102330Z 14006KT 9999 FEW030 BKN063 27/16 Q1018=
METAR YBCS 102330Z 18010KT 9999 -SHRA FEW006 SCT025 BKN065 28/23
Q1011=
METAR YSCB 102330Z 29008KT CAVOK 26/13 Q1020
RMK 1SC080 6CI240=
METAR YPXM 102330Z NIL=
METAR YPCC 102330Z 15009KT 9999 FEW025 SCT037 27/22 Q1011=
METAR YCFS 102330Z AUTO 07011KT 9999 // NCD 25/17 Q1019=
METAR YPDN 102330Z 24007KT 9999 FEW020 SCT140 BKN350 27/24 Q1009=
METAR YBCG 102330Z AUTO 15007KT 9999 // NCD 25/17 Q1019=
METAR YHID 102330Z AUTO 34009KT //// // ////// 27/25 Q1008=
METAR YPJT 102330Z AUTO 09008KT 9999 // NCD 27/11 Q1017=
METAR YPKU 102330Z AUTO 01002KT 9999 // NCD 30/25 Q1010=
METAR YPLM 102330Z AUTO 20009KT 9999 // NCD 29/20 Q1008=
METAR YMML 102330Z 17009KT 9999 OVC013 17/14 Q1020
FM0000 18012KT 9999 SCT015 BKN020
TEMPO 0000/0100 BKN015=
METAR YPPH 102330Z 06010KT CAVOK 26/11 Q1016=
METAR YSSY 102330Z 01006KT CAVOK 29/15 Q1017
FM0100 05012KT CAVOK=
METAR YSTW 102330Z AUTO 29005KT 9999 // NCD 27/13 Q1020=
METAR YPTN 102330Z AUTO 09007KT 9999 // NCD 29/22 Q1010=
METAR YBTL 102330Z 13007KT 9999 FEW014 SCT029 BKN056 28/23 Q1013
RMK DISTANT SHOWERS=

0000012200
809
SPAU32 AMMC 102340
SPECI YPGV 102330Z 12013KT 9999 VCSH FEW008 BKN013 BKN120 27/25 Q1008
     RESHRA=

0000139200
810
SPUS70 KWBC 102340
SPECI
KHKS 102336Z 14011KT 10SM SCT017 OVC049 17/13 A2988 RMK AO2=
KSHN 102336Z AUTO 14005KT 2 1/2SM -RA BR SCT007 BKN024 OVC032
     08/07 A2995 RMK AO2 P0005 T00780067 TSNO=
KTOI 102336Z AUTO 00000KT 1 3/4SM BR OVC003 13/12 A3005 RMK AO2
     T01330122=
PABA 102336Z AUTO 27021KT 3/4SM -SN BR FEW006 SCT018 OVC045
     M27/M29 A2986 RMK AO2 PK WND 27026/2320 P0000 FZRANO=
PABA 102336Z AUTO 27021KT 3/4SM -SN BR FEW006 SCT018 OVC045
     M27/M29 A2986 RMK AO2 PK WND 27026/2320 P0000 FZRANO=
PANW 102334Z AUTO 01003KT 2SM BR OVC001 M07/M08 A2948 RMK AO2 TSNO
     $=
PAOH 102337Z AUTO 00000KT 1 3/4SM BR BKN038 01/01 A2947 RMK AO2
     TSNO VIS 3/4V3 UPB2258E08 P0000 $=
KADF 102336Z AUTO 14006KT 1 1/2SM -RA BR BKN002 BKN024 13/13 A2972
     RMK AO2 BKN V SCT LTG DSNT SE P0015=
KBRD 102337Z AUTO 18009KT 1 1/4SM HZ OVC004 M01/M04 A2952 RMK
     AO2=
KDFI 102337Z AUTO 12005KT 5SM BR BKN006 BKN016 OVC090 04/02 A2986
     RMK AO2 RAB18E27 P0000=
KGON 102337Z 00000KT 3/4SM R05/5000V5500FT -RA BR OVC004 02/02
     A3036 RMK AO2 RAB02 P0000=
KLCH 102337Z 16008KT 8SM -RA SCT006 OVC036 18/17 A2986 RMK AO2
     RAB35 P0000 T01780167=
KMGY 102337Z AUTO 15010KT 9SM OVC006 07/07 A2990 RMK AO2 CIG
     003V010 T00720067=
KSSI 102337Z AUTO 12007KT 10SM SCT008 BKN012 17/17 A3011 RMK AO2
     T01720167=

0000015000
811
FTMG20 FMMI 101700 RRA
TAF FIMP 101730Z 1018/1200 09008KT 9999 SCT017 PROB30 TEMPO
    1022/1104 7000 -SHRA FEW010 BKN016 BKN050=

0000008900
812
SAID31 WIII 102330
METAR WARR 102330Z VRB02KT 8000 FEW020 25/24 Q1011=

0000009500
813
SPCN42 CWAO 102340
SPECI CYQD 102340Z 13003KT 15SM BKN007 OVC010 RMK SF6SC2=

0000011700
814
SPUS41 KWBC 102341
SPECI
KGON 102337Z 00000KT 3/4SM R05/5000V5500FT -RA BR OVC004 02/02
A3036=

0000010100
815
SPUS42 KWBC 102341
SPECI
KLCH 102337Z 16008KT 8SM -RA SCT006 OVC036 18/17 A2986=

0000010300
816
SPUS42 KWBC 102341
SPECI
KSSI 102337Z AUTO 12007KT 10SM SCT008 BKN012 17/17 A3011=

0000094400
817
FTCA32 KWBC 102342
TAF
TAF TIST 102336Z 1100/1124 08010KT P6SM FEW030
     FM111230 08015G23KT P6SM FEW035
     FM112100 09013KT P6SM FEW030=
TAF TISX 102336Z 1100/1124 06007KT P6SM VCSH FEW030
     FM111230 09016G23KT P6SM SCT025
     FM112200 08012KT P6SM SCT025=
TAF TJBQ 102336Z 1100/1124 10008KT P6SM FEW030
     FM111400 08020G27KT P6SM SCT020
     FM112200 09014KT P6SM SCT020 AMD NOT SKED 1102/1111=
TAF TJMZ 102336Z 1100/1124 07007KT P6SM FEW040
     FM111530 08008KT P6SM SCT030 AMD NOT SKED TIL 111600=
TAF TJPS 102336Z 1100/1124 06005KT P6SM FEW030
     FM111500 13010KT P6SM SCT030
     FM112230 09007KT P6SM FEW030 AMD NOT SKED TIL 110300=
TAF TJSJ 102336Z 1100/1124 08008KT P6SM FEW025
     FM110400 VRB04KT P6SM VCSH FEW025
     FM111330 07016G25KT P6SM SCT025=
TAF TKPK 102336Z 1100/1124 06012KT P6SM VCSH FEW020
     FM111300 06016KT P6SM SCT020 AMD NOT SKED 1102/1111=

0000013200
818
FTCA33 KWBC 102342
TAF
TAF TNCM 102336Z 1100/1124 07011KT P6SM VCSH FEW020
     FM111300 09014KT P6SM SCT020=

0000087200
819
FTUS31 KWBC 102342 RRA
TAF
KPHL 102339Z 1100/1206 VRB04KT 1SM -RA BR BKN004 OVC010
     FM110200 14005KT 1SM -RA BR BKN005 OVC015
     FM110600 16005KT 2SM -RA BR BKN004 OVC010 WS020/20050KT
     FM111500 19013KT 1SM RA BR BKN003 OVC010 WS020/21050KT
     FM111900 19013G24KT 1SM RA BR BKN003 OVC012 WS020/18050KT
     FM120100 23012KT 2SM RA BR BKN004 OVC020=
KRDU 102339Z 1100/1124 06004KT 2SM -RADZ BR OVC003 WS018/19030KT
     FM110400 VRB03KT 1/2SM -DZ FG VV002 WS014/19035KT
     FM111100 18010KT P6SM OVC006
     FM111300 19014G22KT P6SM BKN009 OVC020
     FM111700 20017G28KT 5SM -SHRA BR BKN012 OVC025
     FM112200 25016G23KT P6SM FEW025 BKN100=
KSTL 102338Z 1100/1206 17011KT 3SM -RA BR OVC007
     FM110300 20013KT 4SM BR OVC007
     FM110700 25012KT 5SM BR OVC012
     FM111600 27012G20KT P6SM SCT020 BKN250=

0000142600
820
FTUS41 KWBC 102342
TAF
KABE 102339Z 1100/1124 VRB03KT 3SM BR BKN007 OVC012
     FM110200 14005KT 1SM -RA BR BKN007 OVC015
     FM110600 16005KT 2SM -RA BR BKN004 OVC010 WS020/20050KT
     FM111500 19013KT 1SM RA BR BKN003 OVC010 WS020/21050KT
     FM112100 22012G22KT 1SM RA BR BKN003 OVC012 WS020/18050KT
     FM112300 26009KT 2SM RA BR BKN004 OVC025=
KALB 102339Z 1100/1124 19007KT P6SM SCT030 OVC050
     FM110600 16006KT 3SM -FZRAPL BR SCT015 OVC035
     FM110900 16006KT 4SM -SHRA BR OVC015
     FM111200 18010KT 4SM -SHRA BR OVC010
     FM111600 18012G23KT 3SM -SHRA OVC010=
KBTV 102339Z 1100/1124 19009KT P6SM SCT035 OVC050
     FM110800 17012KT 4SM -FZRA BR BKN015 OVC020
     FM111100 17014G24KT 3SM -RA BR OVC011 WS020/18050KT
     FM111500 17015G25KT 4SM -RA BR OVC008 WS020/18050KT=
KCAE 102339Z 1100/1124 VRB05KT 3SM BR VCSH OVC005
     FM111200 19007KT 5SM BR VCSH OVC005
     FM111600 21012G22KT 3SM -SHRA OVC005
     FM112300 25011G19KT P6SM OVC035=
KCMH 102339Z 1100/1124 14009KT P6SM SCT010 BKN025
     FM110300 16010KT 5SM BR VCSH OVC015
     FM110700 17012KT 4SM -RA BR OVC008
     FM111400 23014G23KT P6SM VCSH OVC012=
KDAY 102339Z 1100/1124 15012KT 1/2SM FG VCSH OVC002
      TEMPO 1100/1102 1/4SM FG VV002
     FM110300 17015G23KT 4SM -RA BR OVC007
     FM111200 22015G25KT P6SM VCSH OVC011
     FM111500 24016G26KT P6SM OVC015=

0000137600
821
FTUS41 KWBC 102342 RRA
TAF
KGSO 102339Z 1100/1124 04004KT 5SM -DZ BR OVC003 WS010/19035KT
     FM110300 VRB05KT 1/2SM -DZ FG VV002 WS010/19036KT
     FM111500 19013G20KT P6SM OVC006
     FM111800 21016G23KT 5SM -SHRA BR BKN007 OVC015
     FM112200 25016G23KT P6SM FEW025 BKN100=
KILG 102339Z 1100/1124 VRB04KT 1SM -RA BR BKN003 OVC010
     FM110200 14005KT 1SM -RA BR BKN005 OVC015
     FM110600 16005KT 2SM -RA BR BKN004 OVC010 WS020/20050KT
     FM111500 19013KT 1SM RA BR BKN003 OVC010 WS020/21050KT
     FM111800 19013G24KT 1SM RA BR BKN003 OVC012 WS020/18050KT=
KINT 102339Z 1100/1124 04004KT 5SM -DZ BR OVC003 WS010/19035KT
     FM110300 VRB05KT 1/2SM -DZ FG VV002 WS010/19036KT
     FM111500 19013G20KT P6SM OVC006
     FM111800 21016G23KT 5SM -SHRA BR BKN007 OVC015
     FM112200 25016G23KT P6SM FEW025 BKN100=
KLUK 102339Z 1100/1124 15005KT P6SM VCSH OVC020
     FM110200 15008KT P6SM SCT015 BKN100
     FM110600 17007KT 4SM -SHRA BR OVC009
     FM111300 21010G18KT P6SM VCSH OVC012
     FM111600 25012G22KT P6SM OVC025=
KMSS 102339Z 1100/1124 07006KT P6SM OVC020
      TEMPO 1100/1104 6SM BR OVC018
     FM110400 08006KT 6SM BR OVC018
     FM110800 08008KT 5SM -FZRA BR OVC015
     FM111300 09009KT 3SM -RA BR BKN009 OVC015 WS020/20040KT
     FM111500 15010G18KT 4SM -RA BR OVC007 WS020/22040KT=

0000030200
822
FTUS42 KWBC 102342
TAF
KSAV 102339Z 1100/1124 14005KT 2SM BR OVC004
      TEMPO 1102/1106 1/2SM FG VV002
     FM110600 18005KT 1/2SM FG OVC003
     FM111200 19009KT 4SM BR OVC004
     FM111700 21014G22KT 6SM SHRA SCT015 BKN040
     FM112300 26012G17KT P6SM SCT040 SCT120=

0000089100
823
FTUS43 KWBC 102342
TAF
KAZO 102340Z 1100/1124 25008KT 1 1/2SM RA BR OVC006
     FM110300 17012G19KT 1/2SM -RA FG OVC003
     FM111000 20010KT 1SM BR OVC003
     FM111700 27012G20KT 2SM -SN BR OVC003=
KGRR 102340Z 1100/1124 14011KT 1SM -RA BR OVC004
     FM110100 16012G19KT 1 1/2SM RA BR OVC005
     FM110500 18010G16KT 1SM -RA BR OVC003
     FM111000 20009KT 1SM BR OVC003
     FM111600 26012G20KT 2SM -SN BR OVC005=
KMLI 102340Z 1100/1124 15007KT 3SM -RA BR OVC008
     FM110200 15005KT 1 1/2SM -DZ BR OVC004
      TEMPO 1105/1109 1/4SM -DZ FG OVC002
     FM110900 28011KT 2SM -SN BR OVC004
     FM111400 28011KT 4SM BR VCSH OVC006
     FM111900 29012KT P6SM OVC020=
KSUS 102338Z 1100/1124 17011KT 3SM -RA BR OVC007
     FM110300 20012KT 4SM BR OVC007
     FM110700 25011KT 5SM BR OVC012
     FM111600 27012G20KT P6SM SCT020 BKN250=

0000029800
824
FTUS43 KWBC 102342 AAA
TAF AMD
KSGF 102339Z 1100/1124 17013KT P6SM VCTS SCT025 OVC080CB
      WS011/24030KT
      TEMPO 1100/1102 3SM TSRA BR OVC015CB
     FM110200 25011KT 6SM BR SCT008 BKN080
     FM110500 26010KT 3SM BR BKN007
     FM111400 27010G18KT P6SM SCT250=

0000033300
825
FTUS71 KWBC 102342 RRE
TAF
KTTN 102339Z 1100/1124 VRB03KT 1 1/2SM -RA BR OVC004
     FM110200 14005KT 1SM -RA BR OVC004
     FM110600 16005KT 2SM -RA BR BKN004 OVC010 WS020/20050KT
     FM111500 19013KT 1SM RA BR BKN003 OVC010 WS020/21050KT
     FM111900 19013G24KT 1SM RA BR BKN003 OVC012 WS020/18050KT=

00000000