0000026000
786
FTCN34 CWAO 110300 AAA
TAF AMD CYTL 110318Z 1103/1114 11005KT 11/2SM -SN OVC010 TEMPO
     1103/1106 3SM -SN OVC025
    FM110600 09005KT 1SM -SN OVC006 TEMPO 1106/1114 2SM -SN OVC010
    RMK FCST BASED ON AUTO OBS. NXT FCST BY 110800Z=

0000011300
787
SPUS41 KWBC 110319
SPECI
KWRI 110316Z AUTO 09002KT 1 1/2SM R06/2800FT BR OVC003 03/03 A3023=

0000011800
788
SPUS41 KWBC 110319
SPECI
KWRI 110317Z AUTO 08002KT 1 1/2SM R06/2800FT UP BR OVC003 03/03
A3023=

0000011000
789
SPUS42 KWBC 110319
SPECI
KSAV 110315Z 15003KT 1/4SM R01/1000V1200FT FG VV001 18/17 A3009=

0000011000
790
SPUS43 KWBC 110319
SPECI
KSUS 110315Z 19005KT 4SM RA BR SCT009 BKN040 OVC048 07/06 A2960=

0000031400
791
SASW31 LSSW 110320
METAR LSZH 110320Z 34002KT 0400 R14/0700N R16/0650N R28/0550N
    R34/0600N FG VV001 02/02 Q1018 NOSIG=
METAR LSGG 110320Z 00000KT CAVOK 02/01 Q1018 NOSIG=
METAR LSZB 110320Z AUTO VRB01KT 6000 NSC M00/M00 Q1018=
METAR LSZA 110320Z AUTO VRB01KT 9999 OVC044 07/06 Q1021=

0000012500
792
SAPA31 KWBC 110300 RRB
METAR
PKWA 110320Z AUTO 07014KT 10SM OVC050 31/20 A2973 RMK AO2
     T03060195=

0000013100
793
SALT31 EYVI 110320
METAR COR EYVI 110320Z 29012KT 7000 -SNRA BKN013 OVC023 01/M01 Q1002
     R20/2/0195 NOSIG=

0000018200
794
SALV32 EVRA 110320
METAR EVLA 110320Z AUTO 28007KT 9999 -RA SCT010 BKN014 OVC017 02/00 
Q1003=
METAR EVVA 110320Z AUTO 29011KT 260V320 9999 OVC013 02/00 Q1002=

0000015000
795
SADN33 EKCH 110320
METAR EKKA 110320Z 23011KT 9999 FEW011 BKN019 07/05 Q1004=
METAR EKSP 110320Z 24015KT 9999 BKN007 07/05 Q1007=

0000187600
796
SPUS70 KWBC 110322
SPECI
KADF 110317Z AUTO 22014KT 10SM -RA FEW002 SCT032 BKN047 14/11
     A2972 RMK AO2 BKN V SCT TSE08 P0001=
KAMG 110318Z AUTO 14006KT 6SM BR OVC003 18/17 A3008 RMK AO2
     T01830172 $=
KGEZ 110318Z AUTO 16012KT 3SM -RA BR SCT014 SCT065 OVC075 06/05
     A2972 RMK AO2 P0001 T00610050=
KGGG 110318Z 22009KT 10SM FEW011 SCT023 18/16 A2976 RMK AO2=
KGON 110318Z 00000KT 3/4SM R05/4500V5000FT -RA BR OVC004 03/02
     A3029 RMK AO2 P0000=
KLLQ 110318Z AUTO 22007KT 3SM -RA BR SCT015 BKN025 OVC048 16/14
     A2973 RMK AO2 P0012=
KOGB 110318Z AUTO 00000KT 7SM FEW002 BKN009 OVC055 13/12 A3010 RMK
     AO2 T01280117 TSNO=
KPDK 110318Z AUTO 00000KT 1 1/2SM BR OVC002 08/07 A3006 RMK AO2
     RAB0258E15 P0002=
KPSF 110318Z AUTO 00000KT 1 3/4SM BR OVC004 M01/M02 A3023 RMK
     AO2=
KPTW 110318Z AUTO 00000KT 2SM -RA BR OVC004 01/01 A3024 RMK AO2
     P0001 T00110006=
KTCL 110318Z AUTO 13007KT 3SM -RA BR OVC005 13/12 A2995 RMK AO2
     P0001=
PATO 110318Z AUTO 28006KT 8SM BKN011 OVC018 M02/M03 A2935 RMK AO2
     SNE0257 P0000 T10221028 TSNO=
PAOH 110319Z AUTO 09003KT 1/2SM FZFG BKN004 M01/M01 A2938 RMK AO2
     TSNO $=
KEWB 110319Z AUTO 14003KT 3/4SM R05/2200V3500FT BR OVC003 04/04
     A3030 RMK AO2 T00440039=
KFOK 110319Z 00000KT 3/4SM BR BKN004 OVC011 04/03 A3030 RMK AO2
     RAE09 P0001=
KHDO 110319Z AUTO 00000KT 1SM BR CLR 10/08 A2989 RMK AO2
     T01000083=
KHKA 110319Z AUTO 14006KT 3SM -RA BR OVC080 09/08 A2972 RMK AO2
     P0005=
KHKY 110319Z AUTO 00000KT 2SM -RA BR OVC003 06/06 A3012 RMK AO2
     P0004=
KILG 110319Z AUTO 06004KT 1 1/2SM BR OVC002 03/03 A3023 RMK AO2
     RAE10 P0001=
KPOU 110319Z 00000KT 2SM BR OVC007 01/M01 A3027 RMK AO2=
KRUE 110319Z AUTO 00000KT 10SM BKN070 BKN080 11/09 A2969 RMK AO2
     TSB0258E13RAB0257E11 P0001=

0000009800
797
SPUS31 KWBC 110322
SPECI
KTEB 110318Z 01003KT 1 3/4SM -RA OVC007 02/00 A3027=

0000010200
798
SPUS41 KWBC 110322
SPECI
KAVP 110318Z AUTO 00000KT 5SM -RA BR OVC010 02/00 A3018=

0000011700
799
SPUS41 KWBC 110322
SPECI
KGON 110318Z 00000KT 3/4SM R05/4500V5000FT -RA BR OVC004 03/02
A3029=

0000010200
800
SPUS42 KWBC 110322
SPECI
KPDK 110318Z AUTO 00000KT 1 1/2SM BR OVC002 08/07 A3006=

0000016200
801
SAMO31 ZMUB 110330
METAR ZMUB 110330Z VRB01MPS 1500NW 2000SE R14/0800N R32/P2000D FU BR

 NSC M28/M31 Q1029 NOSIG RMK QFE663.0 70 NW SE MO=

0000009500
802
SAIS32 LLBG 110320
METAR LLBG 110320Z VRB03KT 9999 BKN050 12/10 Q1022 NOSIG=

0000063600
803
SAUK20 EGGY 110320
METAR EGRE 110320Z AUTO 07022KT 9999 RA BKN012/// 03/M01 Q0997 RESN
     W///S5=
METAR EGRK 110320Z AUTO 26029KT 9999 FEW037/// 06/02 Q0998 W///S5=
METAR EGRM 110320Z AUTO 28023KT 9999 FEW025/// 05/02 Q1002 W///S5=
METAR EGRO 110320Z AUTO 29025KT //// // ///////// 06/01 Q1003 W///S4=
METAR EGRP 110320Z AUTO 28011KT 250V320 9999 FEW027/// ///// Q1004
     W///S4=
METAR EGRS 110320Z AUTO 30021KT 9999 FEW026/// 07/00 Q1004 W///S4=
METAR EGRV 110320Z AUTO 24023KT 7000 RA BKN006/// 07/07 Q1008 W///S4=
METAR EGRW 110320Z AUTO 23026KT 9999 OVC016/// 07/06 Q1008 RERA
     W///S4=

0000046200
804
SAUK21 EGGY 110320
METAR EGRF 110320Z AUTO 29026KT 9999 FEW011/// 06/00 Q0997 RERA
     W///S5=
METAR EGRG 110320Z AUTO 10020KT 9999 RA SCT010/// 04/02 Q0995 W///S5=
METAR EGRI 110320Z AUTO 27023KT 9999 FEW032/// 07/00 Q0999=
METAR EGRL 110320Z AUTO 27020G34KT 200V340 9999 SCT024/// 07/01 Q0999
     W///S5=
METAR EGRN 110320Z AUTO 32022KT 9999 NCD 07/02 Q1005=
METAR EGRT 110320Z AUTO /////KT 6000 BKN004/// 07/06 Q1008 W///S4=

0000016700
805
SAFA31 EKCH 110320
METAR EKVG 110320Z AUTO 25014G27KT 210V290 9999NDV BKN017///
04/02 Q0996 RMK BKN018/// BKN057/// WIND 850FT 29015G33KT 210V330=

00000000