0000025500
046
FTUS72 KWBC 110136 AAA
TAF AMD
KNEW 110133Z 1102/1124 11010KT 1SM BR OVC003
      TEMPO 1105/1109 2SM TSRA OVC006CB
     FM110900 22015KT 3SM -RA BR OVC002
     FM111200 27013KT 2SM BR OVC003
     FM111600 30012KT P6SM SCT250=

0000010200
047
SANL33 EHDB 110125 RRC
METAR EHSA 110125Z AUTO 21025G29KT 9999 08/06 Q1013 W09/H17=

0000033200
048
SAAL31 DAAA 110130
METAR DAAG 110130Z 08001KT 9999 FEW030 SCT080 11/06 Q1016=
METAR DAAT 110130Z 02004KT CAVOK 15/M03 Q1022=
METAR DABB 110130Z NIL=
METAR DABC 110130Z NIL=
METAR DAON 110130Z NIL=
METAR DAOO 110130Z VRB02KT 9999 FEW026 SCT233 11/07 Q1015=
METAR DAUH 110130Z 35004KT CAVOK 11/08 Q1021=

0000019100
049
SAIE32 EIDB 110130
METAR EICM 110130Z NIL=
METAR EIDL 110130Z NIL=
METAR EIKY 110130Z NIL=
METAR EIME 110130Z NIL=
METAR EISG 110130Z NIL=
METAR EIWF 110130Z NIL=

0000025900
050
SACR31 LEMM 110130
METAR GCLP 110130Z 34009KT 9999 FEW020 16/09 Q1016 NOSIG=
METAR GCXO 110130Z NIL=
METAR GCTS 110130Z 36010KT 9999 FEW035 16/09 Q1016 NOSIG=
METAR GCRR 110130Z NIL=
METAR GCFV 110130Z NIL=
METAR GCLA 110130Z NIL=

0000020000
051
SASP34 LEMM 110130
METAR LEDA 110130Z NIL=
METAR LEJR 110130Z NIL=
METAR LELL 110130Z NIL=
METAR LEPP 110130Z NIL=
METAR LEXJ 110130Z VRB02KT 9999 SCT023 BKN030 11/09 Q1017=

0000010200
052
SASP39 LEMM 110130
METAR LETL 110130Z AUTO 13004KT 110V170 6000  VV/// 04/02 Q1017=

0000025400
053
SATS40 DTTA 110130
METAR DTMB 110130Z 16005KT CAVOK 11/07 Q1019 NOSIG=
METAR DTNH 110130Z VRB02KT CAVOK 08/06 Q1019=
METAR DTTA 110130Z 00000KT 7000 SCT026 09/08 Q1018 NOSIG=
METAR DTTJ 110130Z 16005KT 8000 NSC 12/09 Q1020 NOSIG=

0000012700
054
SPUS42 KWBC 110035
SPECI
KBPT 110031Z 17014KT 2 1/2SM R12/5500VP6000FT +RA BR BKN004 OVC016
19/18 A2983=

0000009300
055
SPUS42 KWBC 110035
SPECI
KMOB 110031Z 14005KT 2SM BR OVC003 14/14 A2999=

0000009600
056
SPCN31 CWAO 110133
SPECI CYQG 110133Z 17007KT 3/4SM -RA BR OVC002 RMK FG3SF5=

0000008500
057
SAEA20 HKNC 110100 RRB
METAR HKGA 110100Z 00000KT SKC 25/20 Q1011=

0000008500
058
SPCN51 CWAO 110134
SPECI CWOB 110134Z AUTO 05006KT CLR M21/ A2921=

0000018200
059
SAKY31 RUMS 110130
METAR UCFM 110130Z 12001MPS 4000 FU SKC M11/M17 Q1024 R08/CLRD70
NOSIG=
METAR UCFO 110130Z 18003MPS 8000 SKC M09/M13 Q1026 R12/CLRD70 NOSIG=

0000094000
060
SAKZ31 RUMS 110130
METAR UAAA 110130Z 16002MPS 1000 R05L/P2000 R05R/P2000U BR FU SCT200
M16/M19 Q1025 8891//60 NOSIG=
METAR UACC 110130Z 18007MPS 9999 -SN DRSN OVC028 M08/M10 Q1023
R22/8/0050 NOSIG RMK QFE736/0981=
METAR UAKK 110130Z 18009MPS 9999 OVC027 M14/M17 Q1026 R23/850555
NOSIG RMK QFE722/0963=
METAR UAOO 110130Z 17006MPS 3300 BR BKN130 M04/M06 Q1022 NOSIG RMK
QFE754/1006=
METAR UARR 110130Z 21004MPS 9999 BKN008 OVC026 00/M00 Q1010
R22/650340 NOSIG RMK QFE754/1005=
METAR UATE 110130Z 10004MPS 0300 R12/0900N FZFG VV001 M01/M01 Q1018
R12/0///70 NOSIG RMK QBB050 QFE761/1015=
METAR UATG 110130Z 18003MPS 5000 BR OVC029 01/01 Q1015 R14/19//65
NOSIG RMK QFE763/1018=
METAR UATT 110130Z 25002MPS 9000 OVC003 M01/M01 Q1010 R13/490245
NOSIG RMK QBB090 QFE738/0984=
METAR UAUU 110130Z 18007MPS 6000 -SHSN OVC022CB M08/M10 Q1013 TEMPO
17012MPS 1000 SHSN BLSN BKN005CB RMK QFE744/0992=

0000020500
061
SAAY31 RUMS 110130
METAR UDYZ 110130Z VRB02MPS 2000 BR BKN008 M10/M11 Q1027 R09/000070
NOSIG=
METAR UDSG 110130Z 00000MPS M0075 R02/0275N FZFG VV001 M18/M21 Q1020
R02/CLRD70 NOSIG=

0000024400
062
SATA31 RUMS 110130
METAR UTDD 110130Z 00000MPS M0050 R09/M0050N FZFG VV001 M10/M12 Q1026
09CLRD70 NOSIG RMK QBB030 QFE701/0935=
METAR UTDL 110130Z 07009G13MPS 4300 BR BKN210 M02/M08 Q1027 NOSIG RMK
QFE731/0974 8819//65=

0000010800
063
SAUK37 EGGY 110120 RRA
METAR EGPI 110120Z AUTO 25009KT 220V280 9999 NCD 03/02 Q1008 RERA=

0000010900
064
SAUK38 EGGY 110120 RRA
METAR EGPU 110120Z AUTO 26012KT 230V290 9999 FEW032/// 04/01 Q1007=

0000004200
065
SASP36 LEMM 110130
NIL=

00000000