0000179100
026
SZPS01 AMMC 110918
CREX++
T000103 A001 D01021 D06025++
-0204190 14737360 56130 2014 01 11 09 11 3027 11 07 00 01
00785 0155 00781 0153 00777 0152 00772 0150 00769 0149 00758 0140+
-0669280 15640860 56363 2014 01 11 09 11 //// 11 07 00 01
00384 -0073 00383 -0073 00388 -0067 00385 -0069 00387 -0066 00387 -0066+
-0942890 15995560 56670 2014 01 11 09 11 3043 11 07 00 01
00601 -0030 00598 -0032 00603 -0025 00599 -0028 00597 -0028 00598 -0026+
-1072080 16580190 57131 2014 01 11 09 11 //// 11 07 00 01
02412 2143 02214 1946 02175 1907 01262 0995 02239 1972 01492 1226+
-1551560 16718860 57210 2014 01 11 09 11 //// 11 07 00 01
00355 -0073 00340 -0087 00343 -0083 00338 -0087 00351 -0073 00351 -0072+
-1775690 16830030 57320 2014 01 11 09 11 3017 11 07 00 01
00425 -0092 00422 -0093 00421 -0093 00418 -0094 00416 -0095 00413 -0096+
-4397330 16861610 65180 2014 01 11 09 11 2887 11 07 00 01
02332 0392 02311 0373 02280 0346 02292 0361 02307 0379 02296 0371+
-2120470 -15978530 65980 2014 01 11 09 11 3012 11 07 00 01
00419 -0003 00431 0009 00413 -0008 00407 -0014 00379 -0042 00443 0023+
-2113810 -17518140 66600 2014 01 11 09 11 //// 11 07 00 01
00622 0082 00629 0089 00629 0090 00631 0093 00623 0085 00636 0099+
-1382670 -17176110 66840 2014 01 11 09 11 3013 11 07 00 01
00483 0062 00482 0060 00480 0057 00492 0069 00481 0057 00486 0062+
-1813250 17842750 67050 2014 01 11 09 11 3030 11 07 00 01
00721 0099 00719 0098 00719 0100 00719 0101 00714 0097 00718 0102+
-1760530 17743810 67070 2014 01 11 09 11 3033 11 07 00 01
00673 0017 00672 0017 00672 0018 00672 0019 00671 0019 ///// ////+
-0850250 17919500 67440 2014 01 11 09 11 3028 11 07 00 01
01567 0019 01576 0027 01577 0027 01576 0026 01573 0022 01574 0022++
7777

0000010000
027
SIAU40 AMMC 110900 CCA
AAXX 11094
94210 46/// /2513 10299 30056 40062 56017=


0000012400
028
SIVS21 VNNN 110900
AAXX 11091
48852 32598 60901 10226 20199 30163 40173 56005 868// 333 58000 82895 86697=
0000315600
029
SIIR23 OIII 110900
AAXX 11091
40700 42960 02706 10088 21076 30072 40163 57032 555 10034 29030
66666 00006 10010 20024 30032 50070 90090 77777 00/// 10/// 20///
30030 50/// 70/// 99///=
40723 42960 50000 10076 21092 38960 40213 57035 81036 333 81360
85266 555 10020 29029 66666 01016 10020 21004 30014 50034 90080=
40726 41620 80000 11022 21055 38679 40273 58008 77177 8352/ 333
83635 88457 555 11032 29078 66666 01024 11026 21018 30000 50030
90080=
40727 41540 63201 11020 21062 38491 40266 58010 70522 86700 333
86720 555 11033 29073 66666 01017 11017 21007 30011 50023 90074=
40734 42960 80302 10114 20098 30187 40161 58025 83037 333 83360
88268 555 10106 29090 66666 00080 10074 20076 30082 50094 90118=
40737 42660 70000 10106 20063 30144 40162 57029 81536 333 81635
85267 555 10086 29075 66666 00084 10066 20072 30082 50106 90124
77777 00035 10/// 20/// 30042 50046 70/// 99///=
40741 42962 61606 10134 21067 39865 40204 57039 80006 333 86267
      555 10061 29024 66666 00095 10067 20051 30062 50079 90111=
40780 41460 81703 10030 20030 38674 40190 58008 8632/ 333 81815
82935 84635 88459 555 10030 29100 66666 00014 10022 20034 30040
50058 90092=
40791 42662 40102 10086 21044 39384 40225 57031 83402 333 83640
83070 555 10038 29040 66666 00090 10082 20072 30090 50112 90156=
40792 42970 31703 10090 21088 38739 40219 57021 80002 333 83070
555 10028 29027 66666 00068 10054 20030 30040 50062 90110=
40794 41660 81205 10112 20100 30093 40192 58020 72166 8532/
333 82935 83640 88458 555 10106 29090 66666 00110 10110 20114
30122 50145 90170=
40812 41550 81004 10099 20078 39795 40175 57024 76166 8332/ 333
83930 83635 88557 555 10089 29087 66666 00114 10110 20122 30126
50142 90160 77777 00081 10064 20/// 30/// 50099 70/// 99///=
40829 42960 71003 10100 21010 39661 40254 57036 80006 333 87269
      555 10056 29046 66666 00072 10070 20086 30084 50128 90168=
40833 41562 81106 10138 20105 30162 40195 58018 72582 883// 333
83930 85640 555 10121 29080 66666 00132 10132 20138 30144 50194
90200 77777 00052 10099 20/// 30090 50092 70/// 99///=
40835 41656 81404 10090 20082 39349 40178 57030 76166 8532/ 333
82935 83640 88557 555 10086 29095 66666 00082 10084 20088 30098 50114
90130=
40845 41560 81609 10152 20145 30176 40181 58024 72598 8692/ 333
81720 82925 83635 88458 555 10148 29096 66666 00136 10138 20144
30144 5//// 90182=
40882 41558 80705 10150 20124 30171 40207 58012 72166 8332/ 333
      81930 82725 88459 555 10136 29085 66666 00140 10140 20152
      30164 50178 90222=
40889 41658 81308 10210 20160 30192 40197 57034 76060 8342/ 333
      83635 88559 555 10180 29073 66666 00180 10178 20178
      30188 50204 90242=
40890 41557 81307 10210 20129 30180 40187 57032 70722 8337/ 333
      82925 82630 88460 555 10164 29060 66666 00230 10206 20194
      30190 50208 90234 77777 00/// 10/// 20/// 30/// 50/// 70///
      99///=
40893 42960 61107 10198 20038 30205 40211 57025 86060 333 86359
      555 10122 29035 66666 00242 10192 20178 30182 50198 90180
      77777 00/// 10100 20099 30100 50100 99///=
40897 NIL=
0000057400
030
SMAA01 SAWB 110600 RRB
AAXX 11064
88963 32960 10501 11020 21048 39962 49993 57008 81071 333 56055 81360
 92416 92733 95000=
88968 32465 71615 11019 21053 39969 49984 57017 87600 333 56400 84710
 86620 92417 92733 92851 94079 94069=
89034 AUS=
89053 32362 52912 11005 21032 30006 40021 58012 85700 333 56500 82707
 83630 92427 92851 94076 94475 98562=
89055 32965 70000 11021 21058 39746 49990 57012 84076 333 56056 84360
 86270 95100=
89066 32960 30000 11018 21026 39992 40001 57012 82075 333 56066 82360
 92406 92733 92840 94045 95005=
0000069100
031
SIIN90 VILK 110900
AAXX 11094
42369 31594 70203 10160 20131 40163 71142 85530
  333 58012 85620 87360=
42372 21393 83603 10164 20150 40159 75044 8672/
  333 58012 6990/ 84708 86615 88458=
42377 21594 80000 10156 20146 40170 71022 8652/
  333 58014 6990/ 86625 88460=
42475 31494 89902 10180 20170 4//// 71022 8762/
  333 56290 58/// 82710 86620 88458=
42189 31595 60000 10162 20126 40159 71022 84520
  333 58001 84625 86460=
42273 21595 83602 10146 20143 40167 76166 8652/
  333 58014 6002/ 86620 88458=
42379 21595 70903 10176 20130 40153 72096 85510
  333 56590 58004 6003/ 85625 87458=
42463 31995 03203 10184 20111 40172 70500
  333 58026=
0000010000
032
SANP31 VNKT 110920
METAR VNKT 110920Z 24006KT 6000 SCT025 BKN100 14/02 Q1018 NOSIG=

0000024100
033
SOAT10 KWAL 110918
FA8005BC 011091837 OT12 ID:KN-BASS-01 DT:2014 01 11 09 16
:RD -3110 -3117 -3135 -3130 -3088 -3100 -3097 -3090 -3101 -3111
:PR 0555 0517 0502 0537 0606 0593 0570 0515 0534 0573
:B 13.7V
 46+1NN 219E
0000063400
034
SIAA01 SAWB 110900 RRA
AAXX 11094
88963 42962 00000 11002 21059 39958 49988 57004 333 92407 92732 95000=
88968 42465 71615 11016 21046 39970 49985 53001 87600 333 56400 84710
 86620 92417 92732 92851 94070 94060=
89034 42460 80000 11022 21068 39610 49924 54000 8567/ 333 56009 85715
 88360 90114 92730 92801 90514=
89053 42565 22710 11001 21054 30002 40016 56004 81501 333 56709 81630
 92427 92851 94063 94467 98565=
89055 42965 43204 11009 21054 39740 49983 57007 84050 333 56050 84360
 95165=
89066 42960 20902 11016 21030 39978 49987 57013 82070 333 56060 82360
 92406 92732 92840 94040 95000=
0000066400
035
SASA85 EGRR 110900 RRD
METAR SAZS 110900Z 00000KT CAVOK 08/05 Q1022=
METAR SBCR 110900Z 20001KT CAVOK 23/21 Q1010=
METAR SBGO 110900Z 33002KT 9999 FEW035 FEW040TCU 19/16 Q1017=
METAR SBJP 110900Z 21006KT 9999 FEW020 22/20 Q1013=
METAR SBRP 110900Z 10004KT CAVOK 20/18 Q1015=
METAR SLCA 110900Z 00000KT 9999 NSC 20/1 Q1013=
METAR SLCB 110900Z 00000KT 9999 FEW0527 13/09 Q1023=
METAR SLLP 110900Z 08006KT 4000E VCFG FEW003 SCT200 04/03 Q1035=
METAR SLRI 110900Z 00000KT 9999 SCT020 BKN080 24/24 Q1009=
METAR SLVR 110900Z 36004KT 9999 BKN007 BKN200 23/22 Q1010=
METAR SUSO 110900Z 13005KT 999 TS SCT020 FEW050CB OVC060 21/21 Q1010=
0000163300
036
SASA85 EGRR 110900 RRE
METAR SAAR 110900Z 14011KT CAVOK 18/10 Q1014=
METAR SAOC 110900Z 11002KT CAVOK 15/10 Q1017=
METAR SARC 110900Z 00000KT 9999 FEW035 FEW050CB OVC100 28/24 Q1009=
METAR SARE 110900Z 14002KT 9999 FEW056CB OVC100 26/24 Q1009=
METAR SARF 110900Z 34002KT 9999 BKN020 26/23 Q1009=
METAR SASJ 110900Z 00000KT 9999 FEW030 SCT100 24/20 Q1010=
METAR SAWH 110900Z VRB05KT 9999 -DZ SCT030 BKN045 BKN070 06/04 Q1004=
METAR SAZM 110900Z 20006KT 9999 FEW020 14/07 Q1016=
METAR SAZN 110900Z 11002KT CAVOK 16/02 Q1018=
METAR SBAF 110900Z 03002KT CAVOK 26/21 Q1013=
METAR SBBH 110900Z 00000KT CAVOK 21/18 Q1018=
METAR SBBU 110900Z 04003KT CAVOK 24/21 Q1016=
METAR SBCO 110900Z 04002KT 0200 R30/0700 R12/1600 FG SCT005 21/// Q1011=
METAR SBGW 110900Z 35001KT CAVOK 19/17 Q1016=
METAR SBHT 110900Z 00000KT 9999 FEW010 22/22 Q1011=
METAR SBIL 110900Z 09006KT 9999 BKN025 26/22 Q1014=
METAR SBKG 110900Z 08002KT 9999 FEW020 20/20 Q1015=
METAR SBME 110900Z 05008KT CAVOK 26/24 Q1014=
METAR SBMK 110900Z 04004KT 350V080 9999 BKN025 21/18 Q1017=
METAR SBMT 110900Z 15002KT CAVOK 22/18 Q1017=
METAR SBSC 110900Z 01007KT CAVOK 27/20 Q1012=
METAR SBST 110900Z 10002KT CAVOK 23/21 Q1011=
METAR SBUL 110900Z 08009KT CAVOK 19/15 Q1018=
METAR SBUR 110900Z 08005KT 9999 FEW030 21/15 Q1017=
METAR SBYS 110900Z 01002KT 9999 FEW030 20/19 Q1016=
METAR SKCG 110900Z 00000KT CAVOK 24/23 A2981=
METAR SKLT 110900Z 00000KT 9999 BKN009 BKN080 24/24 A2984 RMK AD OPR
      IMC=
METAR SKSP 110900Z 08014KT 9999 FEW017 27/24 A2987=
METAR SLCB 110900Z 00000KT 9999 FEW027 13/09 Q1023=
0000036900
037
SASA85 EGRR 110900 RRF
METAR SBAN 110900Z 36003KT 9999 FEW030 FEW035TCU BKN100 15/15 Q1019=
METAR SBBI 110900Z 02002KT 9999 FEW030TCU 20/18 Q1018=
METAR SBDN 110900Z 34002KT CAVOK 22/19 Q1013=
METAR SBIZ 110900Z 00000KT CAVOK 23/23 Q1011=
METAR SBJR 110900Z 34002KT CAVOK 27/25 Q1013=
METAR SBSM 110900Z 00000KT 9999 FEW020 SCT070 21/20 Q1011=
0000011900
038
SAIR31 OIII 110900 RRA
METAR OIZH 110900Z 12012KT 9999 FEW035 SCT090 BKN190 07/M08 Q1020
A3014 NOSIG=
0000011000
039
UANT01 CWAO 110917
ARP SAS936 5904N03154W 0917 F330 MS59 224/50 KT
LNRKF DDL XXW 110917 J50A
0000047600
040
SSVX08 KARS 110916
ZZYY 52004 10014 0000/ 305008 165171 6111/
33311 88870 20001 33066 20025 33001 20075 33033 20100 32928
20150 32662 20200 32047 20250 31393 20300 31040 20500 30819
444 20110 10014 0128/ 521//=
ZZYY 52007 10014 1200/ 308031 164802 6112/
33311 88872 20001 33060 43420 20025 32988 43453 20050 32895 43493
20075 32764 20100 32729 20125 32589 20150 32479 20200 32075
20250 31633 20300 31285 20500 30764
444 20120 10014 1053/ 521//=
0000011000
041
UANT01 CWAO 110917
ARP SVA061 5226N02303W 0917 F360 MS60 208/77 KT
HZAKI QXT AOE 110917 F47A
0000008000
042
UAPA01 KWBC 110918
ARP PAL105 37N 150W 0910 F340 MS57 340/040KT=
0000116700
043
SIVZ11 SBBR 110900 RRD
BBXX
SHIP 11091 99/// 1//// 36/// /0601 10216 20192 39613 40138 52///
  333 10216 20210 553// 00015 91105=
SHIP 11091 99/// 1//// 36/// /0800 10210 20197 39502 40153 52///
  333 10213 20206 553// 00038 91103=
SHIP 11091 99/// 1//// 36/// /0404 10177 20165 39353 40135
  333 10177 20174 553// 00035 91105=
SHIP 11091 99/// 1//// 36/// /0403 10225 20193 30001 40097
  333 10226 20224 553// 10001 91106=
SHIP 11091 99/// 1//// 36/// /0502 10225 20186 39603 40168
  333 10226 20220 553// 00030 91103=
SHIP 11091 99/// 1//// 36/// /0602 10182 20157 38824 49922
  333 10185 20180 553// 00023 91103=
SHIP 11091 99/// 1//// 36/// /0702 10229 20187 39478 40125 52///
  333 10230 20228 553// 00033 91106=
SHIP 11091 99/// 1//// 36/// /0701 10158 20144 39088 40171
  333 10160 20158 553// 00031 91103=
SHIP 11091 99/// 1//// 36/// /0702 10251 20209 39667 40123
  333 10251 20249 553// 00045 91104=
SHIP 11091 99/// 1//// 36/// /1300 10229 20220 39986 40165
  333 10229 20215 553// 00167 91101=
SHIP 11091 99/// 1//// 36/// /1101 10227 20204 39812 40141 57///
  333 10227 20220 553// 00034 91101=
0000253500
044
UDFR01 LFPW 110918
AMDAR 1109
DES EU0224 4558N 00018E 110903 F269 MS432 /// 252/019 TB0 S031
333 F269 VG002=
DES EU0224 4556N 00016E 110903 F269 MS432 /// 251/019 TB0 S031
333 F269 VG000=
DES EU0224 4554N 00014E 110903 F269 MS430 /// 250/018 TB2 S031
333 F269 VG037=
DES EU0224 4552N 00013E 110904 F261 MS415 /// 263/019 TB2 S031
333 F261 VG025=
DES EU0224 4550N 00011E 110904 F249 MS382 /// 270/020 TB2 S031
333 F249 VG027=
DES EU0224 4547N 00010E 110904 F237 MS355 /// 268/017 TB0 S031
333 F237 VG006=
DES EU0224 4545N 00008E 110905 F226 MS330 /// 268/014 TB1 S031
333 F226 VG023=
DES EU0224 4543N 00006E 110905 F212 MS292 /// 268/013 TB0 S031
333 F212 VG007=
DES EU0224 4541N 00004E 110905 F201 MS265 /// 277/013 TB0 S031
333 F201 VG005=
DES EU0224 4538N 00002E 110906 F190 MS240 /// 284/009 TB1 S031
333 F190 VG009=
DES EU0224 4537N 00001E 110906 F180 MS215 /// 281/009 TB1 S031
333 F180 VG010=
DES EU0224 4534N 00001W 110906 F171 MS202 /// 281/014 TB1 S031
333 F171 VG017=
DES EU0224 4532N 00002W 110907 F162 MS185 /// 270/014 TB0 S031
333 F162 VG004=
DES EU0224 4531N 00004W 110907 F154 MS165 /// 271/016 TB1 S031
333 F154 VG018=
DES EU0224 4528N 00005W 110907 F146 MS142 /// 265/018 TB1 S031
333 F146 VG023=
DES EU0224 4526N 00007W 110908 F139 MS132 /// 273/019 TB0 S031
333 F139 VG000=
DES EU0224 4525N 00008W 110908 F132 MS127 /// 257/022 TB1 S031
333 F132 VG017=
DES EU0224 4523N 00010W 110908 F121 MS105 /// 256/023 TB1 S031
333 F121 VG012=
DES EU0224 4521N 00011W 110909 F113 MS085 /// 244/024 TB0 S031
333 F113 VG000=
DES EU0224 4519N 00013W 110909 F107 MS067 /// 237/024 TB0 S031
333 F107 VG004=
DES EU0224 4517N 00014W 110909 F103 MS060 /// 239/024 TB0 S031
333 F103 VG001=
DES EU0224 4516N 00015W 110910 F100 MS055 /// 238/023 TB2 S031
333 F100 VG032=
DES EU0224 4514N 00016W 110910 F100 MS052 /// 238/023 TB1 S031
333 F100 VG022=
DES EU0224 4513N 00017W 110910 F100 MS052 /// 238/023 TB1 S031
333 F100 VG019=
DES EU0224 4511N 00018W 110911 F096 MS045 /// 230/022 TB0 S031
333 F096 VG004=
DES EU0224 4510N 00019W 110911 F090 MS035 /// 223/021 TB0 S031
333 F090 VG004=
DES EU0224 4509N 00020W 110911 F084 MS022 /// 229/022 TB0 S031
333 F084 VG003=
DES EU0224 4507N 00022W 110912 F078 MS010 /// 229/021 TB0 S031
333 F078 VG002=
UNS EU0224 4506N 00022W 110912 F073 MS002 /// 244/019 TB0 S031
333 F073 VG005=
DES EU0224 4505N 00024W 110912 F067 PS000 /// 259/016 TB0 S031
333 F067 VG010=
0000036300
045
SXXX32 EUMS 110912
22E595B6
:PRS 1 /1 M 4064 4035 4051 4014 4055 3988 3992 3983 3995 4035 3973 4006 3978 3993 4010 3978 3994 4025 4018 4036 3981 4024 4008 4072 4037 4062 4047 4053 4062 :RAD 1 /3 7208 7190 7186 7185 7190 7202 7212 7227 7225 7215 :ENC 2 /5 5335 5305 5299 5317 5346 5353 :SW1 12 /60 0 :SW2 42 /60 60 :BAT 14 /15 12.7 :NAME 22E595B6
00000000