0000064400
626
SASP32 LEMM 102230
METAR LEAS 102230Z VRB02KT 5000 -DZ FEW010 SCT014 BKN025 10/09
Q1017 TEMPO 2000 DZ BKN010=
METAR LEBB 102230Z 00000KT 9000 SCT014 BKN022 11/09 Q1017 TEMPO
3000 DZ BKN012=
METAR LECO 102230Z VRB02KT 6000 VCFG NSC 07/07 Q1017=
METAR LEGE 102230Z 00000KT 6000 OVC018 09/07 Q1019=
METAR LEST 102230Z VRB01KT 9000 NSC 07/07 Q1017 TEMPO 3000 BR=
METAR LEZG 102230Z 08003KT 050V120 2500 BR BKN004 BKN007 06/06
Q1018=
METAR LESO 102230Z NIL=
METAR LEVT 102230Z VRB02KT 6000 NSC 04/03 Q1016=
METAR LERS 102230Z NIL=
METAR LEMH 102230Z NIL=
METAR LEAM 102230Z NIL=
METAR LEGR 102230Z NIL=

0000013500
627
SASP33 LEMM 102230
METAR LEVD 102230Z NIL=
METAR LEVS 102230Z NIL=
METAR LESA 102230Z 00000KT CAVOK 01/01 Q1015=

0000035400
628
SACR31 LEMM 102230
METAR GCLP 102230Z 01012KT 9999 FEW023 17/12 Q1017 NOSIG=
METAR GCXO 102230Z 30009KT 270V350 9000 NSC 12/09 Q1018 NOSIG=
METAR GCTS 102230Z 36008KT 9999 FEW030 16/11 Q1017 NOSIG=
METAR GCRR 102230Z 35003KT 9999 FEW020 14/10 Q1017=
METAR GCFV 102230Z 34006KT 9999 FEW020 15/11 Q1016=
METAR GCLA 102230Z NIL=

0000008800
629
SASP39 LEMM 102230
METAR LETL 102230Z AUTO VRB01KT CAVOK 04/02 Q1017=

0000021800
630
SASP34 LEMM 102230
METAR LEDA 102230Z NIL=
METAR LEJR 102230Z NIL=
METAR LELL 102230Z NIL=
METAR LEPP 102230Z 13004KT 9000 NSC 06/05 Q1017=
METAR LEXJ 102230Z 24002KT 9999 BKN036 11/09 Q1017=

0000080200
631
FTHO31 MHTG 102228
TAF
TAF MHTG 102225Z 1100/1124 06005KT 9999 SCT025
        TX27/1120Z TN14/1112Z
         BECMG 1103/1105 FEW012 BKN022
         BECMG 1108/1110 36005KT 7000 FEW008
         BECMG 1114/1116 9999 FEW016 SCT024
         BECMG 1120/1122 07006KT 8000 VCSH BKN026=
TAF MHLM 102225Z 1100/1124 00000KT 9999 SCT028 SCT090
       TX31/1120Z TN19/1112Z
        BECMG 1110/1112 21004KT FEW024 SCT080
        BECMG 1115/1117 03008KT SCT028=
TAF MHLC 102225Z 1100/1124 00000KT 9999 SCT022 SCT080
       TX29/1119Z TN19/1112Z
        BECMG 1112/1114 19004KT 9999 FEW024 SCT090
        BECMG 1117/1119 02008KT SCT026TCU=
TAF MHRO 102225Z 1100/1124 13010KT 9999 SCT018 SCT080
       TX30/1119Z TN25/1112Z
       BECMG 1117/1119 07014KT SCT020TCU=

0000012500
632
SAMJ41 LWSK 102230 CCA
METAR COR LWSK 102230Z 00000KT 1000 R34/2000 BR OVC002 02/01 Q1024
TEMPO 0600 FG=

0000009500
633
SAHK31 VHHH 102230
METAR VHHH 102230Z 05010KT 8000 FEW025 15/11 Q1024 NOSIG=

0000010000
634
SPCN51 CWAO 102234
SPECI CZCP 102234Z AUTO 29021KT 1 1/4SM -SN FEW001 M32/ A2942=

0000176600
635
SPUS70 KWBC 102234
SPECI
KBFD 102230Z AUTO 13007KT 1/4SM FG VV002 01/01 A3011 RMK AO2
     T00110006 TSNO=
KCSG 102230Z 11004KT 3/4SM BR OVC003 11/11 A3007 RMK AO2=
KCUB 102230Z AUTO 00000KT 2SM RA BR BKN003 BKN014 OVC019 10/10
     A3016 RMK AO2 P0083 T01000100 TSNO=
KDUJ 102230Z AUTO 12007KT 1SM BR OVC002 02/01 A3012 RMK AO2=
KLNS 102230Z 08004KT 1 3/4SM BR OVC005 01/00 A3030 RMK AO2=
KMDH 102231Z AUTO 15011KT 5SM -RA BR SCT010 OVC065 08/06 A2976 RMK
     AO2 P0003 T00780061=
KMEB 102230Z AUTO 01003KT 2 1/2SM -RA BR OVC020 13/13 A3016 RMK
     AO2 P0003 T01330133=
KSRC 102230Z AUTO 13006KT 1 1/2SM -RA BR OVC001 07/07 A2975 RMK
     AO2 TSNO P0001=
PABA 102228Z AUTO 27021KT 1 1/4SM -SN OVC022 M26/M29 A2986 RMK AO2
     P0000 FZRANO=
KAKR 102231Z AUTO 16005KT 1 1/4SM BR OVC002 04/03 A3004 RMK AO2
     TSNO=
KFLO 102231Z 12003KT 10SM FEW008 BKN018 OVC095 18/17 A3014 RMK AO2
     RAE29 P0002=
KGZH 102231Z AUTO 13006KT 2SM BR OVC003 15/14 A3003 RMK AO2
     T01500139=
KLNK 102231Z 00000KT 4SM -SN BR FEW013 OVC021 01/M01 A2957 RMK AO2
     UPB21E27SNE21B27 P0000 T00111006=
KLXT 102230Z AUTO 21006KT 2 1/2SM BR OVC004 05/04 A2954 RMK AO2
     CIG 003V008 T00500044=
KMCI 102231Z 23006KT 2SM -DZ BR BKN005 OVC011 04/04 A2954 RMK AO2
     SFC VIS 6 P0000 T00440039=
KMLC 102231Z AUTO 21009KT 10SM FEW017 SCT023 SCT031 16/13 A2963
     RMK AO2=
KMPO 102231Z AUTO 22007KT 1/2SM FG VV002 01/00 A3023 RMK AO2
     T00110000=
KNEW 102231Z 11007KT 3/4SM BR OVC002 14/13 A2996 RMK AO2
     T01390133=
KSBY 102231Z 12005KT 1 3/4SM -RA BR FEW049 BKN080 OVC090 06/05
     A3030 RMK AO2 P0000=
KVTA 102231Z AUTO 12005KT 10SM SCT010 OVC021 07/04 A3002 RMK AO2
     T00670039=

0000011100
636
SPUS41 KWBC 102234
SPECI
KCAE 102230Z 00000KT 5SM -RA BR SCT003 BKN013 OVC022 10/09 A3014=

0000010400
637
SPUS41 KWBC 102234
SPECI
KCEF 102231Z AUTO 00000KT 8SM SCT018 OVC080 M01/M01 A3033=

0000009800
638
SPUS41 KWBC 102234
SPECI
KDOV 102229Z AUTO 04003KT 4SM BR OVC003 03/03 A3030=

0000009800
639
SPUS42 KWBC 102234
SPECI
KHSV 102230Z 16008KT 10SM BKN013 OVC026 12/08 A3000=

0000021400
640
FTTU33 LTAA 101700 AAB
TAF AMD LTAU 102230Z 1022/1118 VRB02KT 2900 BR BKN002 TEMPO 1100/1104
 0800 FZFG TEMPO 1104/1107 0800 FZFG BECMG 1107/1109 4500 SCT010
 BKN200 BECMG 1109/1111 8000 NSC=

0000012300
641
SAUK37 EGGY 102220 RRA
METAR EGPI 102220Z AUTO 30010KT 9999 FEW027/// BKN042/// 05/03 Q1008
     RERA=

0000009500
642
SAUK38 EGGY 102220 RRA
METAR EGPU 102220Z AUTO 24010KT 9999 NCD 03/01 Q1006=

0000007700
643
FCLT33 EYVI 102236 AAA
TAF AMD EYPA 102236Z 1021/1106 CNL=

0000011800
644
FTLT32 EYVI 102300
TAF EYKA 102300Z 1100/1112 27016G26KT 8000 BKN010 TEMPO 1103/1107
6000 OVC005=

0000025000
645
SAIE31 EIDB 102230
METAR EIDW 102230Z 26009KT 9999 FEW025 SCT200 02/01 Q1011 NOSIG=
METAR EINN 102230Z VRB01KT 9999 MIFG NSC 02/01 Q1012 NOSIG=
METAR EICK 102230Z 27005KT 9999 FEW016 03/02 Q1013 NOSIG=
METAR EIKN 102230Z NIL=

00000000