0000060900
066
SARS36 RUMS 110230
METAR ULAA 110230Z 07006G10MPS 3600 -SN BLSN OVC007 M17/M19 Q1001
BECMG 2000 SN BLSN OVC005 RMK QFE750/1000 SC053=
METAR ULMM 110230Z 00000MPS 9999 BKN004 M34/M38 Q1017 NOSIG RMK
QBB130 OBST OBSC QFE755 31450239=
METAR ULOO 110230Z NIL=
METAR ULPB 110230Z NIL=
METAR UMKK 110230Z 30003MPS 270V340 9999 OVC025 04/01 Q1006
R24/29//60 NOSIG RMK QFE753/1005=
METAR UUOO 110230Z 25004MPS 9999 OVC004 02/01 Q0994 TEMPO BKN003 RMK
12290250=
METAR UUYY 110230Z 03004MPS 5000 BR SCT009 BKN016CB OVC066 M13/M15
Q1002 TEMPO 0700 +SHSN 0145//33 RMK QFE742/0990=

0000040400
067
FTCN31 CWAO 110200
TAF CYVR 110238Z 1103/1206 07015KT 6SM -RA BR SCT007 OVC015 TEMPO
     1103/1110 2SM -RA BR BKN007 OVC015
     BECMG 1104/1106 10015G25KT
    FM111000 19012G22KT P6SM SCT015 BKN040 TEMPO 1110/1203 5SM -SHRA
     BR BKN015
     BECMG 1117/1119 19020G30KT
    FM120300 30015G30KT P6SM FEW050
     BECMG 1203/1205 30030G40KT
    RMK NXT FCST BY 110600Z=

0000016400
068
FCDN31 EKCH 110200
TAF EKRK 110240Z 1103/1112 24012KT 9999 BKN020 TEMPO 1103/1108 
BKN008 TEMPO 1108/1111 -RA BKN004 TEMPO 1111/1112 RA BKN006=

0000012300
069
FCFR32 LFPW 102300 AAA
TAF AMD LFOT 110244Z 1102/1109 05005KT CAVOK TEMPO 1102/1109 2500
-DZRA BKN012=

0000028700
070
FTOS32 LOWM 102300 CCA
TAF COR LOWK 110244Z 1103/1124 VRB02KT 1800 BCFG OVC004
    TX06/1112Z TN00/1124Z
    TEMPO 1103/1108 0300 FG VV002
    BECMG 1108/1111 4000 BR SCT002 BKN005
    TEMPO 1111/1117 6000 NSW SCT004 BKN007
    TEMPO 1117/1124 0400 FG VV002=

0000083500
071
FTUS52 KWBC 110245 AAA
TAF AMD
KAGS 110244Z 1103/1124 VRB04KT 2SM BR VCSH OVC004
      TEMPO 1105/1109 1/2SM FG OVC001
     FM111200 20008KT 5SM BR VCSH OVC003
     FM111600 22014G22KT 3SM -SHRA OVC005
     FM112200 25011G19KT P6SM BKN035=
KCUB 110244Z 1103/1124 VRB04KT 3SM BR VCSH OVC005
      TEMPO 1103/1104 -RA
     FM111200 19006KT 5SM BR VCSH OVC005
     FM111600 21010G20KT 3SM -SHRA OVC005
     FM112300 25011G19KT P6SM OVC035=
KDNL 110244Z 1103/1124 VRB04KT 3SM BR VCSH OVC004
     FM111200 20008KT 5SM BR VCSH OVC005
     FM111600 22014G22KT 3SM -SHRA OVC005
     FM112200 25011G19KT P6SM BKN035=
KOGB 110244Z 1103/1124 VRB04KT 3SM BR VCSH OVC005
      TEMPO 1105/1109 1/2SM FG OVC003
     FM110900 18006KT 3SM BR VCSH OVC004
     FM111600 21014G22KT P6SM -SHRA OVC005=

0000050100
072
FTUS53 KWBC 110245 AAA
TAF AMD
KDEC 110244Z 1103/1124 18010G20KT P6SM VCSH OVC003
     FM110600 24012KT 3SM BR OVC003
     FM111400 26012G18KT P6SM OVC015
     FM111800 27014G22KT P6SM BKN025
     FM112200 27014KT P6SM SCT250=
KGCC 110244Z 1103/1124 31015KT P6SM BKN070
     FM111600 21020G30KT P6SM BKN120 BKN250=
KPLN 110241Z 1103/1124 13006KT 4SM -FZRA BR OVC005 WS020/20030KT
     FM111000 20005KT 2SM -SNRA BR OVC005
     FM111400 28010KT 3SM -SN BR OVC008=

0000139200
073
FTUS80 KWBC 110245 AAA
TAF AMD
KABE 110242Z 1103/1124 VRB03KT 2SM BR SCT002 OVC007
      TEMPO 1103/1106 1SM -RA BR OVC002
     FM110600 16005KT 2SM -RA BR BKN004 OVC010 WS020/20050KT
     FM111500 19013KT 1SM RA BR BKN003 OVC010 WS020/21050KT
     FM112100 22012G22KT 1SM RA BR BKN003 OVC012 WS020/18050KT
     FM112300 26009KT 2SM RA BR BKN004 OVC025=
KAGS 110244Z 1103/1124 VRB04KT 2SM BR VCSH OVC004
      TEMPO 1105/1109 1/2SM FG OVC001
     FM111200 20008KT 5SM BR VCSH OVC003
     FM111600 22014G22KT 3SM -SHRA OVC005
     FM112200 25011G19KT P6SM BKN035=
KAPN 110242Z 1103/1124 15009KT 2SM -FZRA BR OVC003 WS020/20040KT
     FM111000 18009KT 2SM -RA BR OVC005 WS020/20040KT
     FM111600 27008KT 3SM -SN BR OVC008=
KBMI 110242Z 1103/1124 18018KT 3/4SM BR VCSH OVC001
     FM110600 24012KT 1/2SM FG OVC002
     FM111200 26012G18KT P6SM OVC015
     FM111800 28014G22KT P6SM BKN025
     FM112200 27012KT P6SM SCT250=
KCAE 110244Z 1103/1124 VRB04KT 3SM BR VCSH OVC005
      TEMPO 1103/1104 -RA
     FM111200 19007KT 5SM BR VCSH OVC005
     FM111600 21012G22KT 3SM -SHRA OVC005
     FM112300 25011G19KT P6SM OVC035=
KCUB 110244Z 1103/1124 VRB04KT 3SM BR VCSH OVC005
      TEMPO 1103/1104 -RA
     FM111200 19006KT 5SM BR VCSH OVC005
     FM111600 21010G20KT 3SM -SHRA OVC005
     FM112300 25011G19KT P6SM OVC035=

0000019200
074
FTUS80 KWBC 110245
TAF
TAF KEVW 110238Z 1103/1124 25014KT P6SM VCSH SCT025 BKN060
     FM110400 25011KT P6SM SCT030 BKN080
     FM111700 22018G27KT P6SM SCT050 BKN120=

0000110600
075
FTUS80 KWBC 110245 AAB
TAF AMD
KDEC 110244Z 1103/1124 18010G20KT P6SM VCSH OVC003
     FM110600 24012KT 3SM BR OVC003
     FM111400 26012G18KT P6SM OVC015
     FM111800 27014G22KT P6SM BKN025
     FM112200 27014KT P6SM SCT250=
KDNL 110244Z 1103/1124 VRB04KT 3SM BR VCSH OVC004
     FM111200 20008KT 5SM BR VCSH OVC005
     FM111600 22014G22KT 3SM -SHRA OVC005
     FM112200 25011G19KT P6SM BKN035=
KGCC 110244Z 1103/1124 31015KT P6SM BKN070
     FM111600 21020G30KT P6SM BKN120 BKN250=
KOGB 110244Z 1103/1124 VRB04KT 3SM BR VCSH OVC005
      TEMPO 1105/1109 1/2SM FG OVC003
     FM110900 18006KT 3SM BR VCSH OVC004
     FM111600 21014G22KT P6SM -SHRA OVC005=
KPIA 110243Z 1103/1124 18009G18KT 5SM BR OVC003
     FM110400 24012KT 1/2SM FG OVC002
     FM110900 25011KT 2SM BR OVC003
     FM111400 26012G18KT 4SM BR OVC015
     FM111700 28013G22KT P6SM BKN025
     FM112100 27012KT P6SM SCT250=
KPLN 110241Z 1103/1124 13006KT 4SM -FZRA BR OVC005 WS020/20030KT
     FM111000 20005KT 2SM -SNRA BR OVC005
     FM111400 28010KT 3SM -SN BR OVC008=

0000009800
076
SPUS31 KWBC 110245
SPECI
KDTW 110242Z 13004KT 1/2SM RA BR OVC002 03/03 A2983=

0000009800
077
SPUS41 KWBC 110245
SPECI
KBVY 110242Z AUTO 19003KT 5SM BR OVC013 02/01 A3031=

0000011600
078
SPUS41 KWBC 110245
SPECI
KDOV 110243Z AUTO 05004KT 3/4SM R01/3500FT -RA BR VV001 04/04
A3022=

0000011200
079
SPUS41 KWBC 110245
SPECI
KEWB 110241Z 12003KT 1/2SM R05/2400VP6000FT FG OVC003 04/04 A3031=

0000010100
080
SPUS41 KWBC 110245
SPECI
KGSO 110241Z 02005KT 1 3/4SM -DZ BR OVC005 03/03 A3015=

0000009700
081
SPUS41 KWBC 110245
SPECI
KMSS 110242Z AUTO 06004KT 9SM OVC028 M03/M06 A3016=

0000010800
082
SPUS41 KWBC 110245
SPECI
KWRI 110243Z AUTO 06002KT 1SM R06/2200FT BR VV002 03/02 A3024=

0000011100
083
SPUS42 KWBC 110245
SPECI
KTYS 110242Z 25006KT 6SM -RA BR BKN010 BKN029 OVC035 08/07 A3000=

0000011300
084
SPUS44 KWBC 110245
SPECI
KCLM 110241Z AUTO 00000KT 2 1/2SM -RA BR BKN006 OVC050 06/06 A2967=

0000009400
085
SAAK31 KWBC 110200 RRD
METAR
PFYU 110236Z 00000KT 10SM FEW100 M38/ A2970=

00000000