0000012400
246
SABZ42 KWBC 110100 RRC
METAR
SBPV 110100Z 27002KT 9999 VCTS BKN015 FEW025CB BKN070 26/23 Q10
     10=

0000012500
247
SABZ41 KWBC 110100 RRC
METAR
SBGO 110100Z 26003KT 8000 -TSRA SCT030 FEW035CB OVC080 21/18 Q1
     018=

0000020900
248
SABZ43 KWBC 110100 RRB
METAR
SBAN 110100Z 20006KT 5000 -TSRA SCT030 FEW040CB SCT090 19/17 Q1
     019=
SBIZ 110100Z 23003KT 9999 VCTS FEW015 FEW025CB SCT030 BKN080 25
     /23 Q1011=

0000009500
249
SACA31 KWBC 110100 RRA
METAR
MBPV 110100Z 06007KT 9999 SCT012 24/22 Q1020=

0000010100
250
SACA33 KWBC 110100 RRC
METAR
TTPP 110100Z 00000KT 9999 FEW016 24/20 Q1014 NOSIG=

0000010100
251
SASA31 KWBC 110100 RRC
METAR
SYCJ 110100Z 03006KT 9999 SCT016 22/21 Q1012 NOSIG=

0000009500
252
SASA32 KWBC 110100 RRC
METAR
SGES 110100Z 14004KT 9999 FEW033 27/21 Q1010=

0000014400
253
SACA33 KWBC 110100 RRD
METAR
TNCM 110100Z 07013KT 9999 VCSHRA BKN017TCU 25/20 Q1019 A3009 RERA
     RW TCU E TEMPO -SHRA=

0000010100
254
SAUS73 KWBC 110100 RRG
METAR
KGYY 110145Z 17015G25KT 5SM -RA OVC006 06/04 A2961=

0000012300
255
SAES20 MSLP 110200
METAR MSLP 110150Z 34004KT 230V020 CAVOK 25/19 Q1011 A2986=
METAR MSSS 110150Z NIL=

0000010000
256
SACS31 MROC 110147
METAR
MROC 110200Z 10010G20KT 9999 FEW030 21/13 A3000 NOSIG=

0000009500
257
SAIS32 LLBG 110150
METAR LLBG 110150Z 13005KT 9999 BKN050 12/10 Q1021 NOSIG=

0000034200
258
FTBZ42 KWBC 110118
TAF
TAF SBSP 110100Z 1106/1206 05005KT CAVOK TN20/1108Z TX34/1117Z
      BECMG 1111/1113 35008KT 9999 SCT035
      BECMG 1115/1117 30005KT 9999 SCT035 FEW045TCU PROB40
      1118/1121 27010KT 8000 TSRA SCT030 FEW040CB
      BECMG 1121/1123 13005KT CAVOK
      BECMG 1203/1205 04005KT RMK PGL=

0000032900
259
FTBZ43 KWBC 110118
TAF
TAF SBRP 110100Z 1106/1206 11003KT CAVOK TN20/1108Z TX35/1117Z
      BECMG 1112/1114 33008KT 9999 SCT035
      BECMG 1115/1117 SCT035 FEW045TCU PROB40 1118/1121 30010KT
      8000 TSRA SCT030 FEW040CB
      BECMG 1121/1123 08005KT CAVOK
      BECMG 1200/1202 00000KT RMK PGL=

0000022700
260
FTUS53 KWBC 110118 AAA
TAF AMD
KTOP 110117Z 1101/1124 28006KT 6SM BR SCT008 OVC015
     FM110400 29005KT 3SM -SN BR OVC008
     FM110600 28006KT 5SM BR SCT008 BKN080
     FM111100 29009KT P6SM FEW100=

0000042900
261
FTUS80 KWBC 110118 AAA
TAF AMD
KCTB 110115Z 1101/1124 28008KT P6SM SCT120 SCT250
     FM110300 23012KT P6SM BKN090
     FM111400 24028G35KT P6SM BKN250
     FM112000 25040G50KT P6SM BKN120
      TEMPO 1120/1124 25045G58KT=
KTOP 110117Z 1101/1124 28006KT 6SM BR SCT008 OVC015
     FM110400 29005KT 3SM -SN BR OVC008
     FM110600 28006KT 5SM BR SCT008 BKN080
     FM111100 29009KT P6SM FEW100=

0000010000
262
SPUS41 KWBC 110118
SPECI
KBED 110114Z 00000KT 5SM BR BKN013 OVC017 02/01 A3033=

0000011700
263
SPUS42 KWBC 110118
SPECI
KPNS 110114Z AUTO 10009KT 1/2SM R17/2000V2200FT FG VV002 17/16
A3000=

0000009400
264
SPUS31 KWBC 110119
SPECI
KMCI 110115Z 29006KT 7SM -DZ OVC004 03/02 A2957=

0000011100
265
SPUS31 KWBC 110119
SPECI
KLIT 110115Z 14007KT 4SM -RA BR SCT011 BKN025 OVC080 12/11 A2972=

00000000