0000010200
066
SANL33 EHDB 102155 RRB
METAR EHSC 102155Z AUTO 22028G31KT 9999 07/06 Q1014 W08/H17=

0000012800
067
SACN62 CYVT 102200
METAR CYVT 102200Z 30012KT 12SM -SN DRSN BKN006 OVC015 M10/M12 A2938
 RMK SC5SC3 SLP978=

0000010200
068
SANL33 EHDB 102155 RRC
METAR EHSA 102155Z AUTO 21026G30KT 9999 08/06 Q1014 W09/H17=

0000012900
069
SACN62 CYWL 102200
METAR CYWL 102200Z 11006KT 15SM FEW070 BKN140 BKN220 M02/M05 A2975
 RMK AC1AC5CI1 SLP115=

0000102800
070
SACA32 KWBC 102200
METAR
MDLR 102200Z 09015KT 9999 FEW020 26/21 Q1016=
MDPC 102200Z 10010KT 9999 FEW022 25/21 Q1017=
MDPP 102200Z 09010KT 9999 SCT020 27/22 Q1017=
MDSD 102200Z 06012KT 9999 FEW022 29/23 Q1016=
MDST 102200Z 13005KT 9999 SCT018 25/22 Q1018=
MTCH NIL=
MTPP 2200Z 08010KT 9999 FEW027 31 Q1014/7 A2996=
MTPP 2200Z 08010KT 9999 FEW027 31 Q1014.7 A2996=
TAPA NIL=
TIST 102153Z AUTO 07013KT 10SM CLR 26/19 A3004 RMK AO2 SLP172
     T02560194 TSNO=
TISX 102153Z 09008KT 10SM OVC050 23/21 A3004 RMK AO2 RAB00E49
     SLP171 P0000 T02330211=
TJBQ 102150Z 10012G21KT 10SM SCT030 SCT050 28/ A3006=
TJMZ NIL=
TJNR 102153Z AUTO 07011G17KT 10SM OVC055 26/21 A3007 RMK AO2
     SLP181 T02610206 TSNO=
TJPS NIL=
TJSJ 102156Z 09014G18KT 10SM FEW025 SCT046 SCT065 27/22 A3005 RMK
     AO2 SLP173 VCSH N NE SE T02720217=
TKPK 102200Z 07010KT 9999 FEW022 25/20 Q1016=
TKPN NIL=
TQPF NIL=
TRPM NIL=
TUPJ 102200Z 08006KT 9999 FEW020 25/19 Q1017 RMK A3005=
TUPW NIL=

0000051300
071
FTUS42 KWBC 102206 AAA
TAF AMD
KHRL 102204Z 1022/1118 18017KT P6SM SKC
     FM110100 18008KT P6SM BKN040
     FM110600 VRB03KT 5SM BR FEW020
     FM110900 VRB03KT 1/2SM FG SCT005
      TEMPO 1110/1113 1/4SM FG VV001
     FM111400 32010KT P6SM FEW030=
KMFE 102204Z 1022/1118 VRB03KT P6SM SKC
     FM110100 18007KT P6SM SCT030
     FM110600 VRB04KT 5SM BR FEW020
     FM110900 24003KT 1/2SM FG SCT005
      TEMPO 1110/1113 1/4SM FG VV001
     FM111500 32010KT P6SM FEW030=

0000019500
072
FTUS43 KWBC 102206 AAA
TAF AMD
KLEX 102205Z 1022/1118 15008KT P6SM SCT008 BKN015
     FM110300 18014G22KT 5SM -SHRA BR OVC008
     FM111500 24014G22KT P6SM SCT010 BKN040=

0000131000
073
FTUS72 KWBC 102206 AAA
TAF AMD
KDHN 102203Z 1022/1118 11003KT 1/4SM FG OVC002
     FM111200 19010KT 2SM RA BR OVC003
     FM111700 26010G15KT P6SM VCSH OVC015=
KGGG 102202Z 1022/1118 20009KT 3SM -RA BR VCSH BKN011 BKN023
      OVC030
     FM110000 19015G25KT 6SM -TSRA BR OVC015CB
     FM110300 23008KT P6SM SCT015 BKN250
     FM110600 26010KT P6SM SCT250
     FM110900 28006KT P6SM SKC=
KGNV 102205Z 1022/1118 15008KT P6SM VCSH SCT025 BKN040
      TEMPO 1022/1102 BKN025
     FM110200 14002KT 4SM BR BKN010 BKN020
     FM110600 15002KT 1SM BR BKN003 OVC006
     FM111400 19012G18KT P6SM VCSH BKN010 OVC020=
KHRL 102204Z 1022/1118 18017KT P6SM SKC
     FM110100 18008KT P6SM BKN040
     FM110600 VRB03KT 5SM BR FEW020
     FM110900 VRB03KT 1/2SM FG SCT005
      TEMPO 1110/1113 1/4SM FG VV001
     FM111400 32010KT P6SM FEW030=
KJAX 102203Z 1022/1118 14010KT P6SM VCSH SCT035
     FM110200 14005KT 5SM BR BKN010 BKN020
     FM110600 15005KT 2SM BR BKN005 OVC010
     FM111400 19012G18KT P6SM VCSH BKN015 OVC025=
KMFE 102204Z 1022/1118 VRB03KT P6SM SKC
     FM110100 18007KT P6SM SCT030
     FM110600 VRB04KT 5SM BR FEW020
     FM110900 24003KT 1/2SM FG SCT005
      TEMPO 1110/1113 1/4SM FG VV001
     FM111500 32010KT P6SM FEW030=

0000025400
074
FTUS73 KWBC 102206
TAF
TAF AMD KRFD 102201Z 1022/1118 15012G22KT 1 1/2SM RA BR BKN006
      OVC020
     FM110000 15012KT 3SM -RA BKN005 OVC020
     FM110300 20012KT 1SM -DZ BR VCSH OVC005
     FM110900 26012G18KT P6SM OVC012=

0000019500
075
FTUS73 KWBC 102206 AAA
TAF AMD
KLEX 102205Z 1022/1118 15008KT P6SM SCT008 BKN015
     FM110300 18014G22KT 5SM -SHRA BR OVC008
     FM111500 24014G22KT P6SM SCT010 BKN040=

0000130800
076
FTUS71 KWBC 102206 AAA
TAF AMD
KCAK 102203Z 1022/1118 17008KT 1/2SM FG OVC003
      TEMPO 1022/1102 1/4SM FG VV001
     FM110500 16012KT 2SM -RA BR OVC005 WS015/19045KT
     FM111700 22009KT 2SM BR OVC004=
KCHO 102204Z 1022/1118 00000KT 1SM BR BKN003 OVC007
     FM102300 00000KT 2SM BR OVC003
     FM110100 00000KT 2SM -RA BR OVC003
     FM111000 VRB03KT 1SM BR OVC003 WS020/20035KT
     FM111300 19006KT 1/2SM FG OVC003 WS020/20040KT
     FM111600 19008KT 3/4SM BR OVC003 WS020/20045KT
     FM111700 19008KT 1SM SHRA BR OVC003 WS020/20045KT=
KCVG 102205Z 1022/1124 16008KT 6SM BR OVC050
     FM110000 15010KT 4SM BR VCSH OVC015
     FM110600 17011KT 4SM -SHRA BR OVC008
     FM111200 22011G20KT P6SM VCSH OVC012
     FM111600 25016G25KT P6SM OVC022
     FM112300 26014KT P6SM BKN025=
KDAY 102204Z 1022/1118 15010KT 1/2SM FG OVC002
      TEMPO 1022/1024 1/4SM FG
     FM110000 15012KT 4SM BR VCSH OVC011
     FM110500 17015G23KT 4SM -RA BR OVC007
     FM111200 22015G25KT P6SM VCSH OVC013
     FM111500 24016G26KT P6SM OVC018=
KSYR 102205Z 1022/1118 12006KT P6SM SCT025 OVC050
      TEMPO 1023/1101 OVC025
     FM110100 18006KT P6SM SCT015 OVC022
     FM110700 18010KT 4SM -SHRA OVC012
     FM111200 13014KT 6SM -SHRA SCT008 OVC011=

0000043500
077
SAIO31 KWBC 102200
METAR
FIMP 102200Z 10004KT 9999 SCT017 BKN050 26/24 Q1016=
FIMR NIL=
FJDG 102155Z 33013KT 9000 -SHRA SCT020 SCT050 BKN080 26/25 A2980
     RMK SLP088 T02580248=
FMCH NIL=
FMCV NIL=
FMCZ NIL=
FMEE NIL=
FMMI 102200Z VRB01KT 9999 FEW017 SCT230 18/18 Q1020 NOSIG=
FMMT NIL=
FMNN NIL=
FSIA NIL=
FSSS NIL=
VRMM NIL=
VYMD NIL=
VYYY NIL=
WBGG NIL=
WBKK NIL=
WBSB NIL=

0000045000
078
SAHW31 KWBC 102200
METAR
PBKH NIL=
PHJR 102153Z VRB06KT 10SM SCT040 27/18 A2998=
PHKO 102153Z 32012KT 10SM CLR 27/18 A2992=
PHLI 102153Z COR 04015KT 10SM SCT021 26/20 A3002=
PHLI 102153Z 04015KT 10SM SCT021 26/20 A3005=
PHNL 102153Z 04011G19KT 330V090 10SM FEW026 SCT037 SCT044 27/17
     A2997=
PHOG 102154Z 02010KT 10SM FEW016 SCT030 26/20 A2997=
PHTO 102153Z 36007KT 10SM FEW030 FEW070 25/19 A2997=
PNGF NIL=

0000042400
079
SAAL31 DAAA 102200
METAR DAAG 102200Z 18002KT 9999 FEW030 SCT080 11/07 Q1018=
METAR DAAT 102200Z 09015KT CAVOK 14/M02 Q1022=
METAR COR DABB 102200Z 00000KT 8000 NSC 09/08 Q1017=
METAR DABC 102200Z 18003KT CAVOK 08/02 Q1020=
METAR DAON 102200Z 14003KT 9999 FEW030 BKN100 14/05 Q1015=
METAR DAOO 102200Z 36004KT 9999 FEW023 SCT100 13/07 Q1015=
METAR DAUH 102200Z 05006KT 9999 SCT040 14/08 Q1021=

0000065500
080
SAVN20 SVMR 102200
METAR SVCR 102200Z NIL=
METAR SVMC 102200Z NIL=
METAR SVBM 102200Z 11006KT 9999 FEW016 28/17 Q1014=
METAR SVBS 102200Z NIL=
METAR SVMI 102200Z 07004KT 9999 SCT016 27/21 Q1013 NOSIG=
METAR SVFM 102200Z NIL=
METAR SVBC 102200Z 02010KT 9999 FEW010 29/20 Q1010=
METAR SVCU 102200Z 05016KT 9999 SCT013 27/18 Q1012=
METAR SVMG 102200Z /////KT 9999 SCT010 27/22 Q1012 NOSIG=
METAR SVAC 102200Z /////KT CAVOK 32/18 Q1011=
METAR SVMT 102200Z NIL=
METAR SVBI 102200Z 09004KT 9999 FEW027 33/16 Q1009=
METAR SVCB 102200Z NIL=
METAR SVVA 102200Z 09007KT 9999 FEW016 30/17 Q1012=
METAR SVSO 102200Z NIL=

0000017200
081
SAPA31 KWBC 102200 CCA
METAR
PKMJ 102157Z 06016KT 15SM FEW015 SCT050 BKN300 29/22 A2979=
PKMJ 102157Z 06016KT 15SM FEW 015 SCT050 BKN300 29/22 A2979=

0000098000
082
SANT31 KWBC 102200
METAR
BGBW 102150Z 06009KT 9999 BKN060 BKN070 M09/M18 Q0995 RMK 6SC
     7AC=
BGCO 102150Z AUTO 02002KT //// OVC033/// M08/M09 Q1010=
BGGH 102150Z 08005KT 330V120 9999 DRSN FEW030 M07/M15 Q0994=
BGJN 102150Z AUTO 11023KT 9999NDV NCD M09/M19 Q0994=
BGKK 102150Z AUTO 06024G37KT 1100NDV SN VV008/// M01/M03 Q0984=
BGSF 102150Z AUTO 05010KT 9999NDV NCD M14/M21 Q0996=
BGTL 102158Z AUTO 13019KT 9999 CLR M08/M11 A2914 RMK AO2 SLP855
     T10771113=
BIAR 102200Z 09003KT 030V160 9999 -SN BKN039 OVC044 02/M03
     Q0996=
BIEG 102200Z 09025G35KT 3000 -SN VV010 01/M00 Q0996 RMK R04/790193
     RWY SANDED=
BIKF 102200Z 27013KT 9999 FEW039 BKN050 BKN070 02/M03 Q0991=
BIRK 102200Z 29010KT 1500 -SN VV007 01/M01 Q0991=
GVAC 102200Z 04009KT 9999 SCT014 BKN200 20/15 Q1016 NOSIG=
GVPR NIL=
LPBJ NIL=
LPLA 102200Z 25015KT 9999 FEW014 SCT020 BKN032 15/12 Q1005=
TXKF 102155Z 07012KT 9999 SCT029 BKN300 17/12 Q1030=

0000021900
083
SAIE32 EIDB 102200
METAR EICM 102200Z NIL=
METAR EIDL 102200Z NIL=
METAR EIKY 102200Z NIL=
METAR EIME 102200Z 25009KT 9999 FEW020 03/02 Q1010=
METAR EISG 102200Z NIL=
METAR EIWF 102200Z NIL=

0000010300
084
SACN61 CYXS 102200
METAR CYXS 102200Z AUTO 17008KT 9SM CLR M02/M04 A2969 RMK SLP088=

0000011800
085
SACN62 CYXC 102200
METAR CYXC 102200Z VRB03KT 20SM BKN050 BKN090 04/M03 A2967 RMK SC5AC2
 SLP074=

00000000