0000042900
766
UDNA02 EGRR 110754
AMDAR 1107
LVR EU0230   5252N 07041W 110716 F350 MS645 276/092 TB/ S031=
LVR EU0230   5324N 06915W 110723 F350 MS667 273/081 TB/ S031=
LVR EU0230   5353N 06744W 110730 F350 MS672 277/093 TB/ S031=
LVR EU0230   5421N 06611W 110737 F350 MS660 285/096 TB/ S031=
LVR EU0230   5448N 06437W 110744 F350 MS647 290/093 TB/ S031=
LVR EU0230   5513N 06301W 110751 F350 MS647 284/082 TB/ S031=
0000068900
767
UDNT02 EGRR 110754 RRA
AMDAR 1105
LVR EU0249   5014N 04416W 110521 F330 MS612 329/075 TB0 S031=
LVR EU0249   5029N 04255W 110528 F330 MS600 328/060 TB0 S031=
LVR EU0249   5043N 04132W 110535 F330 MS570 322/049 TB0 S031=
LVR EU0249   5057N 04009W 110542 F330 MS542 314/027 TB0 S031=
LVR EU0249   5116N 03847W 110549 F330 MS562 222/006 TB0 S031=
LVR EU0249   5135N 03726W 110556 F330 MS555 230/019 TB0 S031=
LVR EU0249   5153N 03602W 110603 F330 MS575 185/025 TB0 S031=
LVR EU0249   5210N 03438W 110610 F330 MS552 191/038 TB0 S031=
LVR EU0249   5227N 03312W 110617 F330 MS575 193/049 TB0 S031=
LVW EU0249   5242N 03143W 110624 F330 MS572 198/066 TB0 S031=
0000058900
768
SAER10 OMAM 110730
METAR OMAD 110730Z NIL=
METAR OMAH 110730Z 11009KT 7000NDV SKC 20/11 Q1020 A3014=
METAR OMAM 110730Z 18011KT 9999 FEW040 BKN100 21/10 Q1016 A3000=
METAR OMDL 110730Z 11014KT 8000NDV -RA OVC080 19/15 Q1019 A3010=
METAR OMDM 110730Z 16008KT 140V200 CAVOK 21/10 Q1022=
METAR OMLW 110730Z 16012KT CAVOK 20/11 Q1019=
METAR OMMZ 110730Z AUTO 16011KT /////NDV //// ///// 20/10 Q1021 A3015=
METAR OMSN 110730Z AUTO 12013KT /////NDV //// ///// 20/13 Q1020 A3013=
METAR OMSW 110730Z NIL=
METAR OMTH 110700Z 10012KT 9999 FEW025 BKN090 19/10 Q1023=
0000003800
769
SAER50 OMAE 110750
NIL
0000043300
770
UDEU02 EGRR 110754 RRA
AMDAR 1107
LVR EU0161   5940N 01757E 110714 F004 MS010 290/000 TB/ S031=
LVR EU0161   5932N 01729E 110721 F212 MS310 290/067 TB/ S031=
LVR EU0161   5855N 01632E 110728 F362 MS510 297/044 TB/ S031=
LVR EU0161   5817N 01528E 110735 F400 MS510 289/035 TB/ S031=
LVR EU0161   5740N 01421E 110742 F400 MS510 292/040 TB/ S031=
LVR EU0161   5703N 01318E 110749 F400 MS510 287/040 TB/ S031=
0000028500
771
SAIN31 VABB 110740
METAR VABB 110740Z 28010KT 3000 FU NSC 25/06 Q1014 NOSIG=
METAR VANP 110740Z 18008KT 4000 HZ FEW025 SCT100 25/17 Q1014 NOSIG=
METAR VOHS 110740Z 18006KT 5000 HZ SCT020 29/13 Q1016 NOSIG=
METAR VOMM 110740Z 35004KT 6000 SCT020 29/19 Q1013 NOSIG=
0000009200
772
SAIN90 VOTV 110740
METAR VOTV 110740Z 18005KT 6000 FEW018 30/24 Q1010 NOSIG=
0000009600
773
SAIN34 VOMM 110740 RRA
METAR VOTV 110740Z 18005KT 6000 FEW018 30/24 Q1010 NOSIG=
0000009600
774
SAIN31 VOMM 110740 RRA
METAR VOTV 110740Z 18005KT 6000 FEW018 30/24 Q1010 NOSIG=
0000068900
775
UDAF02 EGRR 110754 RRA
AMDAR 1104
LVR EU1282   0921S 00804E 110439 F370 MS477 090/012 TB0 S031=
LVR EU1282   1016S 00822E 110446 F369 MS475 083/007 TB0 S031=
LVR EU1282   1111S 00840E 110454 F370 MS477 082/007 TB0 S031=
LVR EU1282   1206S 00859E 110501 F369 MS477 055/011 TB0 S031=
LVR EU1282   1302S 00918E 110508 F370 MS475 053/012 TB0 S031=
LVR EU1282   1357S 00937E 110515 F370 MS467 051/014 TB0 S031=
LVR EU1282   1452S 00956E 110522 F370 MS467 045/012 TB0 S031=
LVR EU1282   1546S 01019E 110529 F370 MS467 062/009 TB0 S031=
LVR EU1282   1639S 01042E 110536 F370 MS467 097/007 TB0 S031=
LVR EU1282   1732S 01105E 110543 F370 MS467 104/004 TB0 S031=
0000043300
776
UDEU02 EGRR 110754 RRB
AMDAR 1107
LVR EU1987   5354N 00958E 110710 F322 MS540 255/050 TB/ S031=
LVR EU1987   5319N 00905E 110717 F330 MS547 258/051 TB/ S031=
LVR EU1987   5244N 00813E 110724 F330 MS542 261/049 TB/ S031=
LVR EU1987   5207N 00722E 110731 F330 MS547 258/045 TB/ S031=
LVR EU1987   5131N 00632E 110738 F330 MS542 256/045 TB/ S031=
LVR EU1987   5057N 00539E 110745 F330 MS540 251/046 TB/ S031=
0000011300
777
UDAF02 EGRR 110754 RRB
AMDAR 1101
LVR EU1282   1241N 00212E 110151 F340 MS437 239/032 TB0 S031=
0000068900
778
UDAF02 EGRR 110754 RRC
AMDAR 1102
LVR EU1282   0656N 00222E 110233 F340 MS420 260/021 TB0 S031=
LVR EU1282   0559N 00228E 110240 F340 MS420 259/021 TB0 S031=
LVR EU1282   0503N 00243E 110247 F350 MS442 250/030 TB0 S031=
LVR EU1282   0407N 00259E 110254 F350 MS437 243/034 TB0 S031=
LVR EU1282   0314N 00319E 110301 F350 MS432 236/032 TB0 S031=
LVR EU1282   0220N 00341E 110308 F350 MS435 232/028 TB0 S031=
LVR EU1282   0127N 00402E 110315 F349 MS437 232/022 TB0 S031=
LVR EU1282   0034N 00423E 110322 F350 MS437 217/015 TB0 S031=
LVR EU1282   0019S 00445E 110329 F350 MS440 255/008 TB0 S031=
LVR EU1282   0113S 00507E 110336 F350 MS435 276/006 TB0 S031=
0000069700
779
UDEU02 EGRR 110754 RRC
AMDAR 1107
ASC EU0100   5215N 00459E 110733 F062 MS040 266/034 TB0 S031
333 F062 VG001=
ASC EU0100   5216N 00504E 110734 F079 MS065 263/030 TB0 S031
333 F079 VG003=
ASC EU0100   5217N 00508E 110734 F097 MS097 267/029 TB0 S031
333 F097 VG000=
UNS EU0100   5219N 00517E 110735 F115 MS131 282/031 TB0 S031
333 F115 VG016=
ASC EU0100   5224N 00519E 110736 F130 MS157 281/033 TB0 S031
333 F130 VG005=
ASC EU0100   5226N 00519E 110737 F136 MS157 281/036 TB0 S031
333 F136 VG006=
ASC EU0100   5230N 00522E 110738 F157 MS193 270/029 TB0 S031
333 F157 VG003=
ASC EU0100   5301N 00609E 110743 F286 MS472 242/051 TB0 S031
333 F286 VG002=
0000010900
780
UANT99 KDDL 110750
ARP VIR6J 4758N01513W 0750 F390 MS58 254/53 KT
GVRAY DDL XXF 110751 J57A
0000011000
781
UANT99 KDDL 110751
ARP VIR10K 5233N03238W 0751 F390 MS57 217/42 KT
GVKSS DDL XXF 110751 J07A
0000011000
782
UANT99 KDDL 110751
ARP AZA611 4937N02440W 0751 F400 MS53 221/72 KT
EIEJJ QXT AOE 110751 J61A
0000011100
783
UANT99 KDDL 110751
ARP UAL985 5338N02435W 0751 F360 MS54 222/66 KT
N674UA DDL XXW 110751 F37A
0000011000
784
UANT99 KDDL 110751
ARP AFR689 4937N02453W 0751 F380 MS58 195/67 KT
FGSPT QXT AOW 110751 F31A
0000043300
785
UDEU02 EGRR 110754 RRD
AMDAR 1107
LVR EU0226   5129N 00027W 110707 F000 PS070 267/004 TB/ S031=
LVR EU0226   5142N 00015W 110714 F067 MS030 278/027 TB/ S031=
LVR EU0226   5206N 00048E 110721 F293 MS460 234/076 TB/ S031=
LVR EU0226   5251N 00140E 110728 F410 MS480 249/037 TB/ S031=
LVR EU0226   5335N 00232E 110735 F410 MS480 256/032 TB/ S031=
LVR EU0226   5419N 00319E 110742 F410 MS480 257/031 TB/ S031=
00000000