0000093100
506
SABZ42 KWBC 101800
METAR
SBJR NIL=
SBLO 101800Z 01007KT 9999 SCT035 33/15 Q1013=
SBMA 101800Z 14003KT 9999 SCT018 BKN090 29/22 Q1009=
SBME NIL=
SBMN 101800Z 36005KT 9999 BKN020 FEW025TCU BKN100 28/22 Q1008=
SBMO 101800Z 11013KT 9999 SCT020 SCT080 29/22 Q1012=
SBMQ 101800Z 10003KT 9999 FEW013 BKN100 29/22 Q1010=
SBMT NIL=
SBPC NIL=
SBPK 101800Z 27007KT 9999 -TSRA BKN040 FEW040CB 22/21 Q1013=
SBPP NIL=
SBPV 101800Z 18002KT 9999 BKN026 30/22 Q1008=
SBRB 101800Z 28003KT 9999 BKN025 FEW030TCU ///// Q1009=
SBRJ 101800Z 16010KT 9999 FEW020 31/23 Q1011=
SBSC NIL=
SBSJ NIL=
SBSM NIL=
SBSP 101800Z 14009KT 100V180 9999 BKN040 31/18 Q1015=
SBST NIL=
SBTE 101800Z 24001KT 9999 SCT030 34/19 Q1008=
SBTU NIL=
SBUG 101800Z 16019KT 7000 -TSRA SCT009 BKN013 FEW040CB BKN080 2
     3/20 Q1009=
SBUR NIL=
SBVH NIL=
SBVT 101800Z 05006KT 9999 BKN020 29/23 Q1014=
SBYS NIL=

0000058800
507
SABZ43 KWBC 101800
METAR
SBAN NIL=
SBAT NIL=
SBBA NIL=
SBBQ NIL=
SBBW NIL=
SBCC NIL=
SBER NIL=
SBES NIL=
SBGA NIL=
SBIZ NIL=
SBJF NIL=
SBJP 101800Z 11011KT 9999 SCT025 29/20 Q1011=
SBKG NIL=
SBLB NIL=
SBLP NIL=
SBMK NIL=
SBMS NIL=
SBMZ NIL=
SBPB 101800Z 06014KT 9999 FEW020 32/24 Q1008=
SBPJ NIL=
SBPL 101800Z 09007KT 9999 FEW025 31/19 Q1011=
SBPN NIL=
SBQV NIL=
SBRP 101800Z 17004KT 9999 SCT040 FEW045TCU 34/14 Q1012=
SBTF 101800Z 14003KT 9999 SCT008 BKN080 26/24 Q1010=
SBTK NIL=
SBUF NIL=
SBUI NIL=
SBUL NIL=

0000071000
508
SACA31 KWBC 101800
METAR
MBJT NIL=
MBPV 101800Z 10009KT 9999 SCT012 29/20 Q1019=
MBSC NIL=
MKJP 101800Z 14017KT 9999 FEW024 32/23 Q1014=
MKJS 101800Z 06012KT 9999 SCT022 28/25 Q1015=
MUCM 101750Z 10013KT 080V140 9999 SCT020 29/16 Q1018=
MUCU 101750Z 14012KT 9999 FEW020 30/20 Q1017=
MUHA 101755Z 15008KT 110V190 9000 SCT030 27/19 Q1018=
MUVR 101756Z 10005KT 030V160 9000 SCT020 30/17 Q1018=
MWCB 101800Z 09007KT 9999 FEW018 29/24 Q1017=
MWCR 101800Z 12008KT 070V170 9999 SCT018 30/24 Q1016 NOSIG=
MYAM NIL=
MYAT NIL=
MYBS NIL=
MYEC NIL=
MYEG NIL=
MYEH NIL=
MYEM NIL=
MYGF NIL=
MYGW NIL=
MYNN 101800Z 12012KT 9999 SCT016TCU SCT035 BKN080 28/23 A3013=

0000054700
509
SACA33 KWBC 101800
METAR
TBPB 101800Z 06020KT 9999 SCT018 27/21 Q1013 NOSIG=
TDPD NIL=
TDPR NIL=
TFFF 101800Z AUTO 06015KT 030V090 9999 BKN033 BKN046 BKN056 28/20
     Q1014=
TFFG NIL=
TFFJ NIL=
TFFR NIL=
TGPY 101800Z 09009KT 9999 -SHRA BKN016 25/24 Q1013 NOSIG=
TGPZ NIL=
TLPC NIL=
TLPL NIL=
TNCA 101800Z 07012KT 030V110 9999 SCT022 28/23 Q1012 A2991=
TNCB NIL=
TNCC NIL=
TNCE NIL=
TNCM NIL=
TTCP NIL=
TTPP NIL=
TVSM NIL=
TVSU NIL=
TVSV 101800Z 09016KT 9999 FE020 SCT038 28/23 Q1014=

0000058100
510
SACA41 KWBC 101800
METAR
MKBK NIL=
MUBA NIL=
MUBY NIL=
MUCA NIL=
MUCL 101750Z 10014KT 9999 FEW020 28/22 Q1017=
MUCM 101750Z 10013KT 080V140 9999 SCT020 29/16 Q1018=
MUCU 101750Z 14012KT 9999 FEW020 30/20 Q1017=
MUGM 101756Z 12018KT 9999 FEW030 29/18 A3003 RMK SLP171 T02940183
     10306 20217 58023=
MUGT NIL=
MUHA 101755Z 15008KT 110V190 9000 SCT030 27/19 Q1018=
MUMO NIL=
MUMZ NIL=
MUNG NIL=
MUVR 101756Z 10005KT 030V160 9000 SCT020 30/17 Q1018=
MUVT NIL=
MYEF NIL=
MYSM NIL=
TABS NIL=
TAOA NIL=
TBBI NIL=
TDCF NIL=

0000024700
511
SAHA31 KWBC 101800
METAR
KQHA NIL=
MTCA NIL=
MTCH NIL=
MTEG NIL=
MTJA NIL=
MTJE NIL=
MTPP 1800Z 09016KT 9999 FEW028 32/XX Q1015/7 A2999=
MTPP 1800Z 09016KT 9999 FEW028 32/XX Q1015.7 A2999=
MTPX NIL=
MTTP NIL=

0000047500
512
SAJP31 KWBC 101800
METAR
RJAA 101800Z 32001KT 9999 FEW025 M05/M08 Q1022 NOSIG=
RJAH 101800Z VRB01KT 9999 FEW020 M05/M09 Q1022=
RJCC 101800Z 23009KT 200V260 9999 -SHSN FEW010 BKN040 BKN070
     M09/M12 Q1017=
RJCH NIL=
RJFK NIL=
RJFT NIL=
RJFU NIL=
RJNN NIL=
RJOO NIL=
RJSS NIL=
RJTT 101800Z 29005KT 240V310 CAVOK 00/M06 Q1023 NOSIG=
RODN 101758Z AUTO 03005KT 10SM CLR 08/05 A3032 RMK AO2 SLP276
     T00790052 10139 20079 57017=

0000004200
513
SAJP41 KWBC 101800
NIL=

0000011500
514
SAIN32 VIDP 111030 RRB
METAR VIBN 111030Z 05005KT 1200 BR SCT020 FEW030CB BKN100 17/17
    Q1015=
0000032700
515
SAJP42 KWBC 101800
METAR
RJDK NIL=
RJDM NIL=
RJDO NIL=
RJDT NIL=
RJEB NIL=
RJEC NIL=
RJEO NIL=
RJER NIL=
RJFA NIL=
RJFC NIL=
RJFE NIL=
RJFG NIL=
RJFM NIL=
RJFN NIL=
RJFO NIL=
RJFR 101800Z 23006KT 9999 FEW020 BKN050 04/M03 Q1030=
RJFY NIL=
RJFZ NIL=
RJKA NIL=
RJKB NIL=

0000034900
516
SAJP43 KWBC 101800
METAR
RJKI NIL=
RJKN NIL=
RJNF NIL=
RJNG NIL=
RJNH NIL=
RJNO NIL=
RJNT NIL=
RJNY NIL=
RJOA NIL=
RJOB NIL=
RJOC NIL=
RJOE NIL=
RJOF NIL=
RJOI 101755Z 30005KT 9999 FEW030 BKN050 02/M03 A3038 RMK SLP289
     T00171028 10022 20006 54000=
RJOK NIL=
RJOM NIL=
RJOP NIL=
RJOR NIL=

0000004200
517
SAJP44 KWBC 101800
NIL=

0000024100
518
SAJP45 KWBC 101800
METAR
RJTJ NIL=
RJTK NIL=
RJTL NIL=
RJTO NIL=
RJTQ NIL=
RJTR NIL=
RJTU NIL=
RJTX NIL=
RJTY 101758Z AUTO 02002KT 10SM CLR M03/M08 A3025 RMK AO2 SLP255
     T10251075 10001 21025 50003=

0000011200
519
SACN62 CYYT 101800
METAR CYYT 101800Z 28015G23KT 15SM SCT030 M07/M12 A3016 RMK SC4
 SLP224=

0000013100
520
SACN62 CYXY 101800
METAR CYXY 101800Z 09003KT 040V130 30SM -SN FEW025 BKN060 M12/M14
 A2932 RMK ST1SC6 SLP983=

0000169100
521
SAUS71 KWBC 101800 RRA
METAR
KCAK 101751Z 18003KT 1/8SM FG VV000 03/03 A3016=
KCAR 101754Z AUTO 17007KT 10SM CLR M09/M18 A3024=
KCEF 101758Z 19005KT 1 3/4SM -SN BR BKN011 BKN025 OVC150 M01/M02
     A3038=
KCHO 101753Z 00000KT 2SM -RA BR OVC004 01/01 A3033=
KCHS 101756Z 15016KT 10SM BKN025 BKN050 23/17 A3019=
KCKB 101753Z 17003KT 10SM OVC018 09/07 A3021=
KCLE 101751Z 17007KT 9SM BKN009 OVC018 04/01 A3016=
KCLT 101752Z 35006KT 6SM BR OVC003 05/04 A3026=
KCMH 101751Z 14007KT 3SM BR OVC006 05/03 A3015=
KCRW 101754Z 00000KT 10SM SCT038 BKN070 BKN200 09/07 A3018=
KCVG 101752Z 16008KT 1/2SM BR OVC003 07/07 A3010=
KDAN 101753Z AUTO 31003KT 3SM -RA BR OVC003 03/02 A3032=
KDAY 101756Z 15006KT 1/4SM R06L/P6000FT BR OVC002 04/03 A3010=
KDCA 101752Z COR 00000KT 2SM -RA BR OVC005 04/02 A3037=
KDCA 101752Z 00000KT 2SM -RA BR OVC005 04/02 A3037=
KDUJ 101756Z AUTO VRB04KT 3SM BR OVC003 02/00 A3019=
KECG 101754Z 16013G20KT 10SM BKN080 18/11 A3031=
KEKN 101751Z AUTO 00000KT 10SM FEW020 BKN085 08/06 A3022=
KELM 101753Z 00000KT 8SM FEW038 OVC065 03/M03 A3025=
KERI 101751Z 19008KT 10SM BKN016 OVC021 04/01 A3016=
KEWB 101753Z 00000KT 4SM -RA BR OVC021 01/M01 A3041=
KEWN 101754Z 16011G20KT 10SM BKN044 BKN080 BKN100 22/12 A3030=
KEWR 101751Z 02003KT 3SM BR SCT009 OVC029 01/M01 A3040=
KFAY 101753Z AUTO 03009KT 4SM BR SCT033 OVC041 11/10 A3023=
KFLO 101753Z 13005KT 10SM BKN030 OVC039 19/14 A3019=
KFRG 101753Z 00000KT 3SM BR OVC041 01/01 A3039=
KFVE 101753Z AUTO 12004KT 10SM CLR M09/M16 A3019=
KGFL 101753Z AUTO VRB03KT 7SM BKN011 OVC032 M03/M05 A3034=
KGON 101756Z 32003KT 1 3/4SM -RA BR BKN016 OVC022 01/00 A3041=

0000011800
522
SACN62 CYYC 101800
METAR CYYC 101800Z 34002KT 40SM SCT180 BKN300 00/M10 A2943 RMK AC3CI2
 SLP011=

0000163200
523
SAUS71 KWBC 101800 RRB
METAR
KGSO 101754Z 02006KT 1 1/4SM -RA BR BKN004 OVC009 02/01 A3027=
KGSP 101753Z 05008KT 1 1/4SM -RA BR BKN004 OVC013 07/07 A3022=
KHFD 101753Z 00000KT 1SM -SN BR BKN007 OVC014 M01/M03 A3041=
KHKY 101753Z 06003KT 1 1/2SM -RA BR BKN001 OVC021 06/04 A3024=
KHPN 101756Z 00000KT 5SM BR OVC009 00/M02 A3037=
KHTS 101751Z 10003KT 10SM BKN022 08/07 A3016=
KHVN 101753Z 00000KT 1 1/2SM -RA BR BKN020 OVC027 01/M01 A3040=
KHYA 101756Z 18005KT 10SM FEW026 BKN036 OVC065 03/01 A3041=
KIAD 101752Z VRB04KT 1SM R01R/5000VP6000FT -RA BR BKN005 OVC011
     01/00 A3035=
KIAG NIL=
KILG 101751Z 04003KT 1 1/4SM BR BKN004 OVC026 02/01 A3038=
KILM 101753Z AUTO 15010G22KT 10SM FEW100 BKN120 22/14 A3026=
KINT 101754Z 03005KT 2 1/2SM UP BR BKN005 OVC010 03/02 A3028=
KIPT 101754Z 08007KT 5SM HZ OVC021 00/M03 A3034=
KISP 101756Z 00000KT 2SM BR OVC040 02/01 A3038=
KJFK 101751Z 35003KT 6SM -RA BR FEW017 BKN040 OVC065 02/00
     A3041=
KJST 101754Z AUTO 19004KT M1/4SM FG VV002 02/02 A3020=
KLBE 101750Z 00000KT 5SM BR OVC007 05/05 A3023=
KLCK 101755Z AUTO 15006KT 10SM OVC005 06/03 A3015=
KLEB 101753Z 00000KT 9SM BKN028 BKN110 M05/M09 A3034=
KLGA 101751Z 05004KT 4SM BR OVC034 00/M02 A3040=
KLUK 101753Z 25004KT 6SM BR OVC007 07/06 A3012=
KLWM 101754Z 21004KT 1 3/4SM -SN BKN014 OVC023 M01/M04 A3041=
KLYH 101754Z 00000KT 2 1/2SM R04/5000VP6000FT -RA BR BKN003 BKN011
     OVC021 02/02 A3031=
KMDT 101756Z 00000KT 2 1/2SM HZ OVC009 00/M03 A3037=
KMFD 101752Z 16010KT 1/2SM FG VV002 03/02 A3012=
KMGW 101753Z VRB03KT 10SM BKN013 OVC030 09/07 A3022=

0000011900
524
SACN62 CYYE 101800
METAR CYYE 101800Z 35002KT 30SM BKN040 BKN060 M17/M19 A2944 RMK
 SC6SC1 SLP004=

0000013200
525
SACN62 CYZF 101800
METAR CYZF 101800Z 12005KT 2 1/2SM -SN BKN014 OVC026 M23/M26 A2949
 RMK SC5SC3 /SO2/ SLP013=

00000000