0000090300
786
FTMS41 WMKK 102300
TAF WMAP 102300Z 1100/1124 35005KT 9999 FEW017CB SCT140 BKN260
TEMPO 1107/1111 4000 TSRA FEW007 FEW015CB SCT018=
TAF WMBT 102300Z 1100/1124 03005KT 9999 FEW017CB SCT020 BKN260
TEMPO 1102/1106 5000 RA FEW005=
TAF WMKA 102300Z 1100/1124 23005KT 9999 FEW017CB SCT020 BKN280
PROB30 TEMPO 1102/1106 4000 TSRA FEW010 FEW015CB SCT018=
TAF WMKC 102300Z 1100/1124 20005KT 9999 FEW010 SCT020 OVC220
TEMPO 1100/1104 5000 RA FEW005=
TAF WMKE 102300Z 1100/1124 35005KT 9999 FEW017CB SCT020 BKN280
TEMPO 1100/1104 5000 RA FEW005=
TAF WMKI  102300Z 1100/1124 03005KT 9999 FEW017CB SCT020 BKN280
TEMPO 1100/1104 4000 TSRA FEW010 FEW015CB SCT018=
TAF WMKN 102300Z 1100/1124 20005KT 9999 FEW010 SCT020 OVC200
TEMPO 1100/1104 5000 RA FEW005=
TAF WMPA 102300Z 1100/1124 10005KT 9999 FEW017CB SCT030 BKN280
TEMPO 1107/1111 4000 TSRA FEW010 FEW015CB SCT018=

0000013500
787
FTMS43 WMKK 102300
TAF WMKD 102300Z 1100/1124 02005KT 9999 FEW010 FEW017CB SCT020 BKN260
TEMPO 1102/1108 6000 -RA=

0000023300
788
FTUS72 KWBC 102245
TAF
TAF KDLF 1022/1124 32006KT 9999 FEW015 QNH2982INS
      BECMG 1108/1109 33006KT 9999 SKC QNH3000INS T22/1120Z
      T03/1111Z AMD 102235
      LAST NO AMDS AFT 1102
      NEXT 1218=

0000039300
789
FTUS72 KWBC 102245 AAA
TAF AMD
KFSM 102242Z 1023/1118 02004KT P6SM BKN080 BKN090 OVC110
      TEMPO 1100/1103 2SM TSRA BKN030CB
     FM110300 24011KT P6SM SCT100=
KNEW 102241Z 1023/1118 11010KT 1SM BR OVC002
      TEMPO 1105/1109 2SM TSRA OVC006CB
     FM110900 22015KT 3SM -RA BR OVC002
     FM111200 27013KT 2SM BR OVC003
     FM111600 30012KT P6SM SCT250=

0000011100
790
SPUS31 KWBC 101725
SPECI
KRDU 101721Z 03004KT 2SM -RA BR BKN004 BKN032 OVC045 05/04 A3031=

0000009800
791
SPUS41 KWBC 101725
SPECI
KAVP 101721Z 25004KT 8SM SCT020 BKN048 02/M02 A3032=

0000066100
792
UDAF01 FAPR 110945
AMDAR 1109
LVR AFZA48 3229S 02611E 110933 F289 MS322 267/045 TB0 S031 333 F/// VG009=
DES AFZA48 3259S 02557E 110939 F184 MS100 276/037 TB0 S031 333 F/// VG008=
UNS AFZA48 3304S 02554E 110940 F162 MS065 279/029 TB0 S031 333 F/// VG010=
DES AFZA48 3309S 02553E 110941 F139 MS010 285/033 TB0 S031 333 F/// VG010=
DES AFZA48 3310S 02553E 110941 F139 MS008 284/033 TB0 S031 333 F/// VG018=
DES AFZA48 3316S 02552E 110942 F119 PS017 290/025 TB0 S031 333 F/// VG010=
DES AFZA48 3323S 02550E 110943 F099 PS060 288/019 TB0 S031 333 F/// VG010=
DES AFZA48 3331S 02549E 110945 F081 PS095 319/014 TB0 S031 333 F/// VG011=
0000045800
793
SNVD15 KWNB 111000
BBXX
44064 11101 99370 70760 46/// /1306 10115 40158 90940 333 91207
555 11064 22069=
44062 11101 99386 70764 46/// /3402 10028 40152 90940 333 91202
555 11018 22020=
44063 11101 99390 70764 46/// /3402 10022 40138 90940 333 91203
555 11023 22025=
44041 11101 99372 70768 46/// /1303 10142 90940 333 91204 555
11039 22043=
44042 11101 99380 70763 46/// /1708 10111 40141 90940 333 91209
555 11087 22094=
0000058800
794
SIVD19 KWNB 110900 RRE
BBXX
46126 11091 99540 71666 46/// /2204 10041 49808 90900 22200 00047
1//00 70001 333 91205 555 11043 22047=
46126 11091 99540 71666 46/// /2502 10040 49808 90918 22200 00045
1//00 70000 333 91203 555 11016 22018=
46126 11091 99540 71666 46/// /2502 10040 49808 90920 22200 00045
1//00 70000 333 91203 555 11016 22018=
46126 11091 99540 71666 46/// /2102 10040 49808 90924 22200 00045
1//00 70001 333 91203 555 11020 22021=
46126 11091 99540 71666 46/// /2302 10040 49810 90930 22200 00045
1//00 70001 333 91203 555 11022 22024=
0000066100
795
UDAF01 FAPR 110946
AMDAR 1109
ASC AFZA44 1816S 03057E 110900 F156 MS023 101/012 TB0 S031 333 F/// VG009=
LVR AFZA44 1836S 03049E 110904 F232 MS142 063/007 TB0 S031 333 F/// VG008=
LVR AFZA44 1924S 03031E 110911 F346 MS425 214/003 TB0 S031 333 F/// VG008=
LVR AFZA44 2013S 03013E 110918 F380 MS506 296/005 TB0 S031 333 F/// VG009=
LVR AFZA44 2101S 02954E 110925 F380 MS508 235/009 TB0 S031 333 F/// VG009=
LVR AFZA44 2149S 02936E 110932 F380 MS507 274/008 TB0 S031 333 F/// VG009=
LVR AFZA44 2229S 02904E 110939 F380 MS510 243/011 TB0 S031 333 F/// VG009=
UNS AFZA44 2312S 02840E 110946 F380 MS515 323/010 TB0 S031 333 F/// VG009=
0000012400
796
SNVD20 KWNB 111000
BBXX
44058 11101 99376 70763 46/// /1807 10106 40155 90940 333 91208
555 11075 22082=
0000188500
797
SICI01 KWBC 110900 RRH
AAXX 11091
55228 32780 22903 11057 21290 36005 57009 82/// 333 00500=
55472 32780 63205 11068 21299 35698 57009 86/// 333 00255 91118
91525=
55578 32780 70402 10008 21209 36336 57021 87/// 333 00155=
55664 32880 42511 11001 21281 35958 57019 84/// 333 05153 91123
91525=
55773 41670 71809 11040 21113 35977 57019 70080 87/// 333 05154=
56172 42680 72901 10104 21129 37289 57005 87/// 333 00401=
56257 32680 10405 10041 21248 36238 57014 81/// 333 00151=
56374 32580 41107 11024 21098 37415 54000 84/// 333 00500=
56385 41/00 90201 11091 21096 37011 52002 77074 333 00500=
56985 32580 02503 10228 20012 40119 57012 333 00104=
57237 32965 63403 10057 21042 40300 52004 86///=
57604 31720 81601 10071 20065 40287 57002 71000 88///=
57633 32762 81101 10029 20003 40300 54000 88/// 333 00402=
57707 32470 80000 10020 21013 38538 57002 88/// 333 00501=
57902 32570 80402 10036 20010 40254 57007 88/// 333 00759=
55279 32669 82905 11089 21273 35667 57004 88/// 333 00155=
55696 32680 72207 10025 21171 36314 57004 87/// 333 00254=
56079 41780 80202 11053 21076 36671 52004 77077 88/// 333 00657=
56106 32680 82904 11019 21285 36174 57015 88/// 333 00254=
56116 32680 82904 11024 21133 36308 57009 88/// 333 00253=
56137 42680 82004 10059 21204 36754 57016 88/// 333 00254=
56247 32867 72203 10145 21209 37358 57030 87/// 333 00252=
56312 42680 71104 10038 21099 37071 57014 87/// 333 00151=
56462 32680 11601 10086 21183 37083 57016 81/// 333 00352=
56651 32680 43205 10144 21096 37626 57014 84/// 333 00100=
56691 31359 83603 11021 21028 37787 57003 76660 88/// 333 00555=
56954 32579 22004 10243 20066 40157 57020 82/// 333 00100=
56966 32768 03201 10232 20119 40137 57038 333 00251=
57306 31959 00901 10099 20030 40284 57002 70500=
57832 31765 80201 10027 20009 40303 52002 76000 88///=
0000034500
798
SNVD01 KWBC 110800 RRR
BBXX
42392 11081 99272 70900 46/// ///// 1//// 90740 22200 10401 70007=
42369 11081 99272 70903 46/// /1803 1//// 90740=
42887 11081 99282 70885 46/// /1809 10225 20203 90740 22200 10502
 70009 555 11072 22078=
42375 11081 99285 70883 46/// /1508 1//// 90740 22200 10401 70007
 555 11065 22071=
0000013800
799
SIVA30 KWBC 110900 RRD
BBXX
LXSH 11093 99264 10351 41698 23615 10200 20106 40215 7//// 82100
 22274 04220 2//// 80145=
0000034900
800
SIVB30 KWBC 110900 RRE
BBXX
9VBB3 11093 99217 11455 41297 80428 10230 20199 40178 51029 70222
 887// 22284 04260 20404 335// 41005 80210=
52211 11091 99153 11457 46/// ///// 1//// 90918 22200 00281 10805
 20805 303// 41101 70027=
52202 11091 99137 11448 46/// ///// 1//// 90930 22200 00283 10805
 20804 303// 41101 70023=
0000369000
801
SIVD30 KWBC 110900 RRL
BBXX
42085 11091 99179 70665 46/// /0505 10247 40162 90930 333 91207
 555 11059 22064=
42085 11091 99179 70665 46/// /0505 10246 40161 90910 333 91206
 555 11056 22061=
42085 11091 99179 70665 46/// /0405 10245 40162 90920 333 91207
 555 11058 22063=
41052 11091 99183 70648 46/// /0708 10257 40162 90910 333 91209
 555 11085 22092=
41052 11091 99183 70648 46/// /0708 10257 40163 90920 333 91210
 555 11087 22095=
44033 11091 99441 70690 46/28 /1001 10011 40223 90904 22200 00019
 10602 70008 333 91202 555 11013 22015=
44034 11091 99441 70681 46/26 /1803 10045 40235 90904 22200 00069
 10602 70012 333 91204 555 11029 22032=
44037 11091 99435 70679 46/00 /1804 10053 40242 90904 22200 00049
 10603 70014 333 91205 555 11046 22050=
41052 11091 99183 70648 46/// /0508 10251 40163 90930 333 91212
 555 11090 22098=
44029 11091 99425 70706 46/16 /1204 10051 40206 90904 22200 00048
 10401 70004 333 91204 555 11040 22044=
44030 11091 99432 70704 46/20 /1001 10038 40211 90904 22200 00054
 10501 70006 333 91201 555 11009 22010=
44032 11091 99437 70694 46/30 /2001 10042 40226 90904 22200 00046
 10502 70011 333 91202 555 11016 22017=
41056 11091 99183 70655 46/// /0605 10253 40164 90910 333 91207
 555 11059 22064=
41056 11091 99183 70655 46/// /0705 10252 40164 90920 333 91207
 555 11059 22064=
41056 11091 99183 70655 46/// /0606 10253 40165 90930 333 91207
 555 11061 22067=
41051 11091 99183 70650 46/// /0606 10254 90910 333 91207 555
 11063 22068=
42360 11091 99267 70905 46/// /1906 10222 40139 58006 90900 22200
 00225 10602 70009 333 91208 555 11064 22070=
44141 11091 99430 70580 46/// /2908 10043 40301 57001 22200 00122
 10803 70016 333 91210=
44137 11091 99423 70620 46/// /1802 10046 40300 57005 22200 00076
 10702 70011 333 91202=
46239 11091 99363 71221 46/// ///// 1//// 90929 22200 00133 11406
 21003 330// 41405 70030=
51205 11091 99210 71564 46/// ///// 1//// 90921 22200 00249 11004
 21003 333// 41202 70022=
46114 11091 99367 71223 46/// ///// 1//// 90908 22200 00124 11507
 21003 330// 41506 70034=
44042 11091 99380 70763 46/// /1809 10114 40142 90930 333 91211
 555 11103 22112=
44058 11091 99376 70763 46/// /1807 10100 40157 90930 333 91208
 555 11075 22082=
44063 11091 99390 70764 46/// /3203 10023 40141 90930 333 91204
 555 11036 22039=
44041 11091 99372 70768 46/// /1303 10142 90930 333 91203 555
 11034 22036=
44062 11091 99386 70764 46/// /3303 10028 40155 90930 333 91204
 555 11030 22033=
44059 11091 99368 70763 46/// /1603 10167 40151 90930 333 91205
 555 11038 22041=
44099 11091 99369 70757 46/// ///// 1//// 90918 22200 00065 10502
 20502 70010=
41112 11091 99307 70813 46/// ///// 1//// 90922 22200 00115 10803
 20803 70013=
41037 11091 99340 70774 46/// /2009 10198 40170 57016 90900 333
 91210 555 11104 22113=
44064 11091 99370 70760 46/// /1306 10114 40160 90930 333 91207
 555 11072 22078=
44098 11091 99428 70702 46/// ///// 1//// 90921 22200 00058 10501
 20501 70007=
42099 11091 99273 70843 46/// ///// 1//// 90922 22200 00220 10301
 20301 70007=
41114 11091 99276 70802 46/// ///// 1//// 90925 22200 00235 10803
 20803 305// 41101 70014=
44097 11091 99410 70711 46/// ///// 1//// 90925 22200 00068 10402
 20402 70009=
44056 11091 99362 70757 46/// ///// 1//// 90923 22200 00088 10803
 20803 311// 41101 70014=
41108 11091 99337 70780 46/// ///// 1//// 90929 22200 00121 10703
 20703 70014=
42364 11091 99291 70881 46/// /2418 10200 20183 40132 56017 90930=
42361 11091 99276 70925 46/// /1911 10222 20222 40129 55000 90930
 555 11088 22093=
0000047100
802
SIVD30 KWBC 110900 RRM
BBXX
46221 11091 99339 71186 46/// ///// 1//// 90925 22200 00155 11302
 20701 327// 41301 70008=
46214 11091 99379 71235 46/// ///// 1//// 90926 22200 00112 11307
 20903 331// 41307 70037=
42390 11091 99261 70949 46/// ///// 10306 20228 40135 53003 90930=
41036 11091 99342 70769 46/// /2009 10219 20202 40171 90920 22200
 00210 333 91210 555 11093 22101 30824 42014 60919 199086 198085
 198088 200104 198109 194110=
0000010200
803
SIVF30 KWBC 110900 RRG
BBXX
MINUK05 1109/ 99602 70011 46/// ///// 10058 40005 52021=
0000018600
804
FTPQ31 PGUM 102200 AAA
TAF PGSN 102244Z 1023/1118 05014G24KT P6SM VCSH SCT020 SCT120
     FM110000 06014KT P6SM VCSH SCT020
     FM110800 06009KT P6SM VCSH FEW020=

0000016600
805
FTPQ31 PGUM 102200 AAB
TAF PTRO 102253Z 1023/1118 08015G22KT P6SM VCSH BKN015CB OVC120
     FM110000 08013G24KT P6SM VCSH SCT016CB BKN050 BKN120=

00000000