0000058600
526
SACA31 KWBC 110300
METAR
MBJT NIL=
MBPV NIL=
MBSC NIL=
MKJP 110300Z 10006KT 9999 FEW024 26/20 Q1016=
MKJS 110300Z 15003KT 9999 FEW024 25/20 Q1016=
MUCM 110253Z 07008KT 9000 FEW020 20/18 Q1019=
MUCU 110251Z 35005KT 9000 FEW020 22/20 Q1018=
MUHA 110255Z VRB02KT 9000 SKC 19/18 Q1018=
MUVR 110250Z 08007KT 8000 FEW020 24/22 Q1019=
MWCB NIL=
MWCR 110300Z 11004KT 9999 FEW018 25/23 Q1016 NOSIG=
MYAM NIL=
MYAT NIL=
MYBS NIL=
MYEC NIL=
MYEG NIL=
MYEH NIL=
MYEM NIL=
MYGF NIL=
MYGW NIL=
MYNN 110300Z 12005KT 9999 FEW018 25/23 A3014=

0000049300
527
SABZ43 KWBC 110300
METAR
SBAN NIL=
SBAT NIL=
SBBA NIL=
SBBQ NIL=
SBBW NIL=
SBCC NIL=
SBER NIL=
SBES NIL=
SBGA NIL=
SBIZ NIL=
SBJF NIL=
SBJP NIL=
SBKG NIL=
SBLB NIL=
SBLP NIL=
SBMK NIL=
SBMS NIL=
SBMZ NIL=
SBPB 110300Z 09012KT 9999 SCT017 28/24 Q1011=
SBPJ NIL=
SBPL 110300Z 10001KT 9999 FEW023 24/22 Q1013=
SBPN NIL=
SBQV NIL=
SBRP 110300Z 12004KT CAVOK 21/19 Q1015=
SBTF NIL=
SBTK NIL=
SBUF NIL=
SBUI NIL=
SBUL NIL=

0000050500
528
SACA33 KWBC 110300
METAR
TBPB 110300Z 05016KT 9999 BKN016 25/21 Q1015 NOSIG=
TDPD NIL=
TDPR NIL=
TFFF 110300Z AUTO 07009KT 030V090 9999 FEW024 SCT056 24/21
     Q1016=
TFFG NIL=
TFFJ NIL=
TFFR 110300Z AUTO 08006KT 9999 SCT027 BKN034 BKN056 24/21
     Q1017=
TGPY 110300Z 05007KT 9999 FEW018 SCT045 25/23 Q1014=
TGPZ NIL=
TLPC NIL=
TLPL NIL=
TNCA NIL=
TNCB NIL=
TNCC NIL=
TNCE NIL=
TNCM NIL=
TTCP NIL=
TTPP NIL=
TVSM NIL=
TVSU NIL=
TVSV NIL=

0000083100
529
SACA35 KWBC 110300
METAR
MGGI NIL=
MGPB 110300Z 06006KT 9999 -RA SCT017 BKN080 23/22 Q1015 A2997=
MGSJ 110300Z 00000KT CAVOK 23/22 Q1013 A2991=
MHLC 110300Z 00000KT 9999 SCT024 SCT080 22/21 Q1014 A2996
     NOSIG=
MHLM 110300Z 35004KT 9999 FEW026 SCT080 22/22 Q1015 A2997
     NOSIG=
MHTG 110300Z 10003KT 9999 BKN024 20/16 Q1019 A3009 REDZ NOSIG=
MNPC NIL=
MPBO NIL=
MPCH NIL=
MPDA 110300Z 00000KT CAVOK Q1010=
MPMG 110300Z VRB02KT 9999 FEW020 25/23 Q1011 NOSIG=
MPSA NIL=
MPTO 110300Z 00000KT C A V O K 24/20 Q1010 NOSIG=
MPTO 110300Z 00000KT 24/20 Q1010 NOSIG=
MRLB NIL=
MRLM NIL=
MROC 110300Z 11012KT 9999 FEW030 20/13 A3002 NOSIG=
MRPV NIL=
MSLP 110250Z 33005KT CAVOK 23/18 Q1012 A2988=
MSSS 110250Z 00000KT CAVOK 22/17 Q1015 A2998=
MSSS 110250Z NIL=
MZBZ NIL=

0000053900
530
SACA41 KWBC 110300
METAR
MKBK NIL=
MUBA NIL=
MUBY NIL=
MUCA NIL=
MUCL 110250Z 11003KT 9000 FEW018 25/22 Q1017=
MUCM 110253Z 07008KT 9000 FEW020 20/18 Q1019=
MUCU 110251Z 35005KT 9000 FEW020 22/20 Q1018=
MUGM 110256Z 33006KT 9999 CLR 24/19 A3006 RMK SLP180 T02390189
     51013=
MUGT NIL=
MUHA 110255Z VRB02KT 9000 SKC 19/18 Q1018=
MUMO NIL=
MUMZ NIL=
MUNG NIL=
MUVR 110250Z 08007KT 8000 FEW020 24/22 Q1019=
MUVT NIL=
MYEF NIL=
MYSM NIL=
TABS NIL=
TAOA NIL=
TBBI NIL=
TDCF NIL=

0000004200
531
SAHA31 KWBC 110300
NIL=

0000074900
532
SAJP31 KWBC 110300
METAR
RJAA 110300Z 32009KT 9999 FEW030 06/M08 Q1023 NOSIG=
RJAH 110300Z VRB03KT 9999 FEW030 07/M08 Q1022=
RJCC 110300Z 35005KT 9999 -SHSN FEW020 SCT040 BKN070 M06/M12
     Q1017=
RJCH 110300Z 29012KT 2400 R12/1000VP1800U -SHSN FEW005 BKN012
     BKN020 M05/M07 Q1019=
RJFK 110300Z 36009KT 9999 FEW035 SCT/// 08/M03 Q1028=
RJFT 110300Z VRB03KT 9999 FEW040 06/M04 Q1029=
RJFU 110300Z 15004KT 080V210 9999 FEW040 BKN050 07/01 Q1030=
RJNN NIL=
RJOO 110300Z 30009KT 250V330 9999 FEW030 08/M05 Q1027=
RJSS 110300Z 31016KT 9999 FEW020 04/M07 Q1022=
RJTT 110300Z 09005KT 9999 FEW030 06/M05 Q1023 NOSIG=
RODN 110258Z AUTO 09013G19KT 10SM CLR 19/09 A3032 RMK AO2 SLP275
     T01850085 58014=

0000069700
533
SAJP41 KWBC 110300
METAR
RJAF 110300Z 33004KT 290V360 9999 VCSH FEW030 M02/M09 Q1020=
RJAI NIL=
RJAK NIL=
RJAM NIL=
RJAO NIL=
RJAT NIL=
RJAW NIL=
RJBD 110300Z 32014KT 290V350 9999 FEW025 SCT035 08/M03 Q1027=
RJCA NIL=
RJCB 110300Z VRB06KT 9999 FEW050 BKN060 M05/M19 Q1013=
RJCJ NIL=
RJCK 110300Z 26009KT 200V330 9999 FEW040 BKN050 M04/M18 Q1013=
RJCM 110300Z VRB02KT 9999 SCT030 M08/M14 Q1013=
RJCN 110300Z 23008KT 9999 FEW035 BKN050 M07/M15 Q1013=
RJCO NIL=
RJCR NIL=
RJCT NIL=
RJCW 110300Z 27019KT 1000 R08/1300VP1800N -SHSN BLSN FEW004 BKN009
     BKN015 M10/M17 Q1013=
RJDB NIL=
RJDC 110300Z 22008KT 9999 FEW030 BKN040 06/M00 Q1030=

0000088800
534
SACI31 ZBBB 110300
METAR ZBAA 110300Z 33002MPS 290V350 CAVOK M01/M21 Q1031 NOSIG=
METAR ZBSJ 110300Z 30001MPS 1600 R33/1300N FU NSC 00/M12 Q1032
NOSIG=
METAR ZBTJ 110300Z 20003MPS 0500 R34L/0750N FZFG NSC M01/M05
Q1032
BECMG TL0400
0600 HZ=
METAR ZBYN 110300Z 13001MPS 3500 HZ NSC M03/M18 Q1029 NOSIG=
METAR ZGGG 110300Z 07002MPS 020V110 5000 HZ NSC 17/09 Q1025 NOSIG=
METAR ZSHC 110300Z 00000MPS 2500 -RA BR FEW010 BKN030 06/04
Q1031 NOSIG=
METAR ZSPD 110300Z 06006MPS CAVOK 07/01 Q1032 NOSIG=
METAR ZSSS 110300Z 06004MPS 020V100 9999 -RA FEW023 07/02 Q1031
NOSIG=
METAR ZWSH 110300Z 35002MPS 5000 FU NSC M09/M13 Q1034 NOSIG=
METAR ZWWW 110300Z 25001MPS 0400 R25/0600N FZFG BKN004 M22/M25 Q1037
NOSIG=
METAR ZYTL 110300Z 28003MPS 250V310 4000 HZ NSC 03/M06 Q1031 NOSIG=
METAR ZYTX 110300Z 18004MPS 150V210 CAVOK M02/M20 Q1029 NOSIG=

0000025300
535
SANZ31 NZKL 110300
METAR NZAA 110300Z AUTO 22010KT 9999 OVC045/// 20/14 Q1018 NOSIG=
METAR NZWN 110300Z AUTO 33012KT 9999 NCD 21/11 Q1015 NOSIG=
METAR NZCH 110300Z AUTO 06013KT 030V090 9999 OVC020/// 17/11 Q1014
          NOSIG=

0000103000
536
SACI32 ZBBB 110300
METAR ZGKL 110300Z 06002MPS 020V090 1800 -RA BR FEW004
SCT010
OVC026 07/06 Q1028 NOSIG=
METAR ZGNN 110300Z 07003MPS 2500 BR SCT015 OVC026 14/11 Q1025 NOSIG=
METAR ZGOW 110300Z VRB01MPS 5000 HZ NSC 16/09 Q1026 NOSIG=
METAR ZGSZ 110300Z 31003MPS 4000 HZ NSC 17/11 Q1025 NOSIG=
METAR ZLXY 110300Z 24002MPS 3000 HZ NSC 04/M09 Q1033 NOSIG=
METAR ZMUB 110300Z 00000MPS 1600NW 2000SE R14/1200D R32/P2000N FU
BR
NSC M29/M32 Q1029 NOSIG RMK QFE662.9 71 NW SE MO=
METAR ZPPP 110300Z 22008MPS CAVOK 12/01 Q1025 NOSIG=
METAR ZSAM 110300Z 01002MPS 330V080 CAVOK 17/11 Q1026 NOSIG=
METAR ZSFZ 110300Z 33003MPS 290V040 9999 OVC027 14/07 Q1027 NOSIG=
METAR ZSNB 110300Z VRB01MPS 1600 -RA BR FEW009 BKN020 OVC050
06/05
Q1031 BECMG TL0430 1300=
METAR ZSQD 110300Z VRB01MPS 1400 R17/1200N FU NSC 03/M04 Q1033
BECMG
TL0330 1600=
METAR ZUGY 110300Z 02002MPS 350V070 9999 FEW007 BKN015 OVC030
02/01
Q1027 NOSIG=
METAR ZUUU 110300Z 00000MPS 3000 BR NSC 08/03 Q1030 NOSIG=

0000011500
537
SAVN27 SVBM 110300
METAR SVBM 110300Z 05004KT 9999 BKN016 21/17 Q1018=
METAR SVBI 110300Z NIL=

0000009500
538
SACA31 TNCC 110300
METAR TNCC 110300Z 09012KT 9999 SCT014 26/23 Q1015 NOSIG=

0000011000
539
UANT99 KDDL 110955
ARP DLH499 5454N04135W 0955 F350 MS59 284/42 KT
DABYG QXT AME 110955 F03A
0000010900
540
UANT99 KDDL 110956
ARP DAL8 6024N01331W 0956 F330 MS51 245/39 KT
N706DN QXT AOE 110956 F40A
0000050600
541
SAID31 WIII 110300
METAR WIII 110300Z 34002KT 9000 FEW020CB SCT021 31/23 Q1010 RMK CB TO
W= 
METAR WIHH 110300Z 15005KT 6000 SCT017 30/23 QNH 1011 NOSIG= 
METAR WIMM 110300Z 26005KT 5000 HZ BKN017 28/25 Q1013= 
METAR WADD 110300Z 23005KT 190V280 9999 FEW015CB FEW017 29/25 Q1011
NOSIG= 
METAR WAAA 110300Z /////KT 9999 FEW001 30/23 Q1012= 
METAR WIDD 110300Z 34008KT 9999 FEW014 28/23 Q1012= 
METAR WARR 110300Z 08007KT 030V120 9999 SCT020 29/24 Q1011= 
METAR WABB NIL=

0000030700
542
SAIO31 KWBC 110300 RRB
METAR
VYMD 110300Z NIL=
VYYY 110300Z NIL=
WBGG 110300Z 04005KT 9999 BKN020 BKN150 28/24 Q1012 NOSIG=
WBKK 110300Z 27002KT 9999 FEW015 SCT140 BKN270 30/25 Q1012
     NOSIG=
WBSB 110300Z 11002KT 9999 FEW015 FEW016CB SCT140 BKN280 29/24
     Q1013 NOSIG=

0000049900
543
SAID32 WIII 110300
METAR WIBB 110300Z 36006KT 5000 HZ BKN010 26/24 Q1011= 
METAR WIPT 110300Z 36006KT 9999 FEW020 29/23 Q1011= 
METAR WIPP 110300Z 32003KT 5000 -RA BKN015 FEW020CB 25/25 Q1011= 
METAR WAOO 110300Z 04004KT 9999 SCT020 29/25 Q1011 NOSIG= 
METAR WALL 110300Z 36006KT 9000 FEW020 BKN090 28/24 Q1011 NOSIG= 
METAR WADL 110300Z 27005KT 9000 HZ SCT016 30/24 Q1011= 
METAR WIOO 110300Z 05005KT 9999 FEW1E WOXWR Q1011 NOSIG= 
METAR WAMM NIL=
METAR WIDN NIL=

0000124000
544
SAAU31 YBBN 110300
METAR YPAD 110300Z 21017KT CAVOK 26/13 Q1018
NOSIG=
METAR YBAS 110300Z 11016KT CAVOK 38/05 Q1014=
METAR YBBN 110300Z 09009KT 9999 SCT035 28/16 Q1016=
METAR YBCS 110300Z 17015KT 9999 -SHRA SCT024 SCT050 BKN110 28/21
Q1010=
METAR YSCB 110300Z 27007KT 9999 SCT050 SCT240 31/08 Q1017=
METAR YPXM 110300Z NIL=
METAR YPCC 110300Z 13011KT 9999 BKN037 29/21 Q1012=
METAR YCFS 110300Z AUTO 06014KT 9999 // NCD 26/18 Q1017=
METAR YPDN 110300Z 25005KT 9999 FEW030 BKN350 31/23 Q1008=
METAR YBCG 110300Z AUTO 12009KT 9999 // NCD 28/18 Q1017=
METAR YHID 110300Z AUTO 33008KT 9999 // ////// 29/25 Q1007=
METAR YPJT 110300Z AUTO 10012KT 9999 // NCD 36/11 Q1014=
METAR YPKU 110300Z AUTO 11003KT 9999 // NCD 35/23 Q1008=
METAR YPLM 110300Z AUTO 03008KT 9999 // NCD 33/21 Q1009=
METAR YMML 110300Z 15010KT 9999 SCT019 SCT024 20/12 Q1019
FM0330 18014KT CAVOK=
METAR YPPH 110300Z 09014KT CAVOK 36/10 Q1014=
METAR YSSY 110300Z 06013KT CAVOK 32/15 Q1014
NOSIG=
METAR YSTW 110300Z AUTO 22009G22KT 9999 // BKN069 31/11 Q1017=
METAR YPTN 110300Z AUTO 13007KT 9999 // SCT045 SCT054 33/22 Q1008=
METAR YBTL 110300Z 10015KT 9999 FEW025 SCT032 BKN120 30/21 Q1011
RMK DISTANT SHOWERS=

0000012400
545
SACN62 CYXX 110300
METAR CYXX 110300Z 03007KT 4SM -RA OVC025 05/ A2977 RMK SC8 DP 4.1
 VIA CYXC SLP083=

00000000