0000010000
706
SANG31 YBBN 110200 RRA
METAR AYPY 110200Z 28004KT 9999 SCT018 BKN280 31/24 Q1006=

0000013900
707
SAEA20 HKNC 110200 RRA
METAR HKJK 110200Z 03005KT CAVOK 15/12 Q1021 NOSIG=
METAR HKNC 110200Z 00000KT SKC 15/12 Q1022=

0000010200
708
SALT33 EYVI 110220
METAR EYPA 110220Z AUTO VRB06KT 9999 -RA BKN015/// 02/M00 Q1004=

0000027700
709
FTUS43 KWBC 110221 AAA
TAF AMD
KGRR 110218Z 1102/1124 16015KT 5SM -RA BR BKN008 OVC045
     FM110300 16016KT 3SM RA BR OVC005
     FM110500 18010G16KT 1SM -RA BR OVC003
     FM111000 20009KT 1SM BR OVC003
     FM111600 26012G20KT 2SM -SN BR OVC005=

0000109200
710
FTUS73 KWBC 110221 AAA
TAF AMD
KAXN 110217Z 1102/1124 23007KT 3SM BR OVC004
     FM110400 27006KT P6SM SCT200
     FM110800 31010KT P6SM SCT025 BKN040
     FM111800 29009KT P6SM SCT040 SCT250=
KBTL 110219Z 1102/1124 17013G22KT P6SM -RA OVC007
     FM110300 18014G24KT 3SM -RA BR OVC005
     FM110500 19014G21KT 2SM -RA BR OVC003
     FM111100 22012KT 1SM BR OVC003
     FM111700 26012G20KT 2SM -SN BR OVC005=
KGRR 110218Z 1102/1124 16015KT 5SM -RA BR BKN008 OVC045
     FM110300 16016KT 3SM RA BR OVC005
     FM110500 18010G16KT 1SM -RA BR OVC003
     FM111000 20009KT 1SM BR OVC003
     FM111600 26012G20KT 2SM -SN BR OVC005=
KLAN 110220Z 1102/1124 16009KT 2SM RA BR OVC006
     FM110500 18013G21KT 3SM -RA BR OVC003
     FM111400 22008KT 2SM -RA BR OVC003
     FM111800 25012G20KT 2SM -SN BR OVC004=
KMKG 110218Z 1102/1124 14016G24KT 3SM -RA BR BKN007 OVC012
     FM110300 15016G26KT 4SM RA BR OVC005
     FM110500 18012G18KT 1/2SM -RA FG OVC003
     FM111000 21007KT 1SM BR OVC003
     FM111600 27012G20KT 2SM -SN BR OVC005=

0000227900
711
SPUS70 KWBC 110220
SPECI
KPAH 110216Z 27010KT 2 1/2SM RA BR BKN005 BKN016 OVC031 09/08
     A2978 RMK AO2 P0008 T00940083=
KSGH 110216Z AUTO 15011KT 1 1/2SM BR OVC001 06/06 A2984 RMK
     AO2=
KSRC 110216Z AUTO 15004KT 5SM -RA BR OVC001 09/09 A2970 RMK AO2
     TSNO P0001=
KVAY 110216Z AUTO 00000KT 1SM BR OVC004 02/01 A3027 RMK AO2
     RAE10UPB10E15 P0001 T00170011=
KAWM 110216Z AUTO 31005KT 4SM VCTS RA BR FEW009 BKN013 OVC022
     11/11 A2975 RMK AO2 LTG DSNT NE AND SW TSE08B16 P0009=
KBIV 110216Z AUTO 16014KT 4SM RA BR SCT009 BKN016 OVC046 04/04
     A2964 RMK AO2 P0004 T00440039=
KCMX 110216Z AUTO 18005KT 2SM -SN BR BKN025 OVC033 M03/M06 A2956
     RMK AO2 SNB04 P0000=
PADU 110216Z 13007KT 10SM FEW021 SCT043 BKN060 04/01 A2906 RMK AO2
     RAE08 P0000=
KHAO 110217Z AUTO 15005KT 10SM OVC030 10/08 A2984 RMK AO2
     T01000078=
KMSS 110217Z AUTO 06003KT 9SM OVC028 M03/M06 A3018 RMK AO2=
KADG 110217Z AUTO 18008KT 2SM -RA BR OVC002 02/02 A2981 RMK AO2
     P0003 TSNO=
KDNL 110217Z AUTO VRB03KT 3SM -RA BR BKN005 OVC010 10/09 A3011 RMK
     AO2 P0001 T01000089 TSNO=
KDSV 110217Z AUTO 15005KT 9SM BKN018 03/01 A3008 RMK AO2=
KEVW 110217Z AUTO 26021KT 10SM SCT027 BKN034 OVC050 M01/M06 A3005
     RMK AO2 PK WND 25026/0207 T10111061=
KEWB 110217Z 00000KT 1 1/2SM R05/3500VP6000FT BR OVC003 05/04
     A3032 RMK AO2 T00500044=
KOKB 110217Z AUTO 00000KT 4SM BR CLR 12/11 A3005 RMK AO2 TSNO=
KPBF 110217Z AUTO 11005KT 3/4SM RA BR SCT010 SCT030 OVC090 12/11
     A2972 RMK AO2 LTG DSNT NE-SE P0004=
KPNS 110217Z AUTO 13005KT 1SM R17/2800V4500FT -RA BR VV002 17/17
     A3000 RMK AO2 RAB01 P0001 T01720167=
KY50 110217Z AUTO 00000KT 3SM -FZRA OVC002 00/ A2951 RMK AO2 TSNO
     P0000 $=
KASX 110217Z AUTO 00000KT 10SM BKN015 OVC029 M02/M04 A2954 RMK
     AO2=
KGLR 110217Z AUTO 16012KT 4SM UP BR BKN006 OVC010 00/M01 A2966 RMK
     AO2 UPB17FZRAE17 PRESFR P0005 I1001 T00001006=
KLBT 110217Z AUTO 19003KT 8SM BKN007 OVC011 18/18 A3013 RMK AO2
     RAE10 P0000 T01780178=
KSMQ 110217Z AUTO 00000KT 3/4SM BR OVC006 01/00 A3027 RMK AO2
     RAE05 P0000 T00060000 TSNO=
KSUX 110217Z 27003KT 1/2SM R31/2600V4000FT FZFG VV009 M04/M05
     A2957 RMK AO2 I1000 T10391050=

0000009400
712
SPUS42 KWBC 110220
SPECI
KMOB 110216Z 14004KT 1/2SM FG VV002 15/15 A2998=

0000011100
713
SPUS43 KWBC 110220
SPECI
KCMX 110216Z AUTO 18005KT 2SM -SN BR BKN025 OVC033 M03/M06 A2956=

0000064700
714
SACA33 KWBC 110200
METAR TBPB 110200Z 06013KT 9999 BKN016 25/21 Q1015 NOSIG=
METAR TDPD NIL=
METAR TDPR NIL=
METAR TFFF 110200Z AUTO 07013KT 040V100 9999 FEW035/// BKN045///
BKN058/// ///TCU 25/20 Q1016=
METAR TFFG NIL=
METAR TFFJ NIL=
METAR TFFR 110200Z AUTO 08005KT 9999 FEW024/// ///TCU 24/21 Q1017=
METAR TGPY 110200Z 08008KT 9999 FEW018 24/22 Q1014=
METAR TGPZ NIL=
METAR TLPC NIL=
METAR TLPL NIL=
METAR TNCA 110200Z 07013KT 9999 SCT018 26/23 Q1014 A2995=
METAR TNCB NIL=
METAR TNCC NIL=
METAR TNCE NIL=
METAR TNCM NIL=
METAR TTCP NIL=
METAR TTPP NIL=
METAR TVSM NIL=
METAR TVSU NIL=

0000009300
715
SAJP32 RJTD 110200 RRB
METAR RJFO 110200Z 34009KT 9999 FEW030 07/01 Q1030=

0000009300
716
SAJP32 RJTD 110200 RRA
METAR RJFO 110200Z 34009KT 9999 FEW030 07/01 Q1030=

0000010000
717
SASA31 KWBC 110200 RRA
METAR SKLT 110200Z 00000KT 9999 SCT010 BKN080 25/24 A2984=

0000016200
718
SAUS71 KWBC 110200 RRE
METAR
KLCK 110215Z AUTO 16008KT 10SM OVC037 08/06 A2986=
KPQI 110215Z AUTO 19005KT 10SM BKN024 OVC090 M09/M16 A3024=

0000010100
719
SAUS72 KWBC 110200 RRE
METAR
KLRU 110215Z AUTO 27019G23KT 10SM CLR 10/M09 A3001=

0000028200
720
SAUS73 KWBC 110200 RRD
METAR
KCIU 110215Z AUTO 11011KT 3SM OVC006 M02/M03 A2971=
KELO 110212Z AUTO 18005KT 10SM OVC009 M04/M06 A2946=
KGYY 110215Z AUTO 19008G15KT 160V230 5SM -RA OVC006 06/05
     A2961=
KLBL 110215Z AUTO 28009KT 10SM CLR M02/M10 A2979=

0000009500
721
SAUS74 KWBC 110200 RRC
METAR
KOTH 110215Z 15004KT 10SM OVC024 11/11 A3005=

0000015700
722
FCRM31 LUKK 110200
TAF LUKK 110220Z 1103/1112 26012KT 9999 SCT030=
TAF LUBL 110220Z NIL=
TAF LUBM 110220Z NIL=
TAF LUCH 110220Z NIL=

0000014700
723
SAAF18 LFPW 110200 RRB
METAR FMMT 110200Z 00000KT 9999 FEW017 25/24 Q1011=
METAR FMNM 110200Z 26002KT 9999 FEW020 25/24 Q1011=

0000027300
724
FTUS53 KWBC 110218 AAA
TAF AMD
KALO 110215Z 1102/1124 VRB04KT 1SM BR OVC006
     FM110500 27008KT 2SM -SN BR BKN008 OVC015
     FM110700 28009KT 4SM BR SCT010 OVC018
     FM111000 30011KT P6SM SCT015 BKN035
     FM111700 30014G20KT P6SM BKN080=

0000022700
725
FTUS80 KWBC 110218
TAF
TAF AMD KEVW 110214Z 1102/1124 25011KT P6SM VCSH SCT025 BKN060
      TEMPO 1102/1103 BKN025
     FM110300 25011KT P6SM SCT030 BKN080
     FM111700 22018G27KT P6SM SCT050 BKN120=

00000000