0000010800
086
SAUK37 EGGY 102250 RRA
METAR EGPI 102250Z AUTO 26011KT 230V290 9999 NCD 05/02 Q1008 RERA=

0000009500
087
SAUK38 EGGY 102250 RRA
METAR EGPU 102250Z AUTO 24008KT 9999 NCD 02/01 Q1006=

0000019100
088
FTAF34 OEJD 102200 RRA
TAF HKMO 102220Z 1100/1206 00000KT 9999 SCT020
BECMG 1109/1112 09010G20KT FEW026
BECMG 1118/1121 03010KT FEW022
BECMG 1200/1203 00000KT SCT020=

0000026700
089
SACZ43 LKPW 102300
METAR LKCV 102300Z 24007KT CAVOK 04/01 Q1018 NOSIG=
METAR LKKB 102300Z 23010KT CAVOK 04/01 Q1018=
METAR LKLN 102300Z NIL=
METAR LKNA 102300Z 26009KT 9999 FEW044 01/M01 Q1018=
METAR LKPD 102300Z 25008KT CAVOK 04/M00 Q1018=

0000010600
090
SACN61 CYNM 102300
METAR CYNM 102300Z AUTO 20008KT 9SM OVC011 M05/M06 A2989 RMK SLP141=

0000011200
091
SACN61 CYNA 102300
METAR CYNA 102300Z AUTO 29009G15KT 9SM OVC014 M08/M09 A3007 RMK
 SLP183=

0000011300
092
SACN61 CYNE 102300
METAR CYNE 102300Z AUTO 00000KT 4SM -SN OVC006 M10/M10 A2945 RMK
 SLP993=

0000011300
093
SACN62 CYMX 102300
METAR CYMX 102300Z 05003KT 10SM -SN OVC013 M09/M12 A3026 RMK ST8
 SLP254=

0000011300
094
SACN62 CYND 102300
METAR CYND 102300Z 09007KT 10SM -SN OVC010 M06/M08 A3021 RMK SC8
 SLP236=

0000011300
095
SACN62 CYOJ 102300
METAR CYOJ 102300Z 19002KT 10SM -SN OVC050 M17/M19 A2951 RMK SC8
 SLP028=

0000115600
096
FTAE31 VTBB 102300
TAF VTBS 102300Z 1100/1206 08005KT CAVOK
    BECMG 1101/1103 05010KT 
    BECMG 1112/1114 34005KT 9000 NSC
    BECMG 1120/1122 02005KT
    BECMG 1201/1203 07010KT CAVOK=
TAF VTBD 102300Z 1100/1206 04005KT 9000 NSC
    BECMG 1101/1103 08010KT CAVOK
    BECMG 1111/1113 32005KT 9000 NSC
    BECMG 1119/1121 02005KT
    BECMG 1201/1203 08008KT CAVOK=
TAF VTBU 102300Z 1100/1124 00000KT 3000 BR NSC
    BECMG 1102/1104 20006KT 7000 FEW025 SCT300
    BECMG 1110/1112 35004KT 4000 BR NSC=
TAF VTCC 102300Z 1100/1206 VRB03KT 5000 BR FEW040
     BECMG 1102/1104 18005KT 8000
     BECMG 1122/1124 VRB03KT 5000 BR 
     BECMG 1202/1204 16005KT 8000=
TAF VTSS 102300Z 1100/1124 00000KT 4000 BR FEW020 BKN300 
    BECMG 1101/1103 06008KT 9999 SCT020 BKN120 
    TEMPO 1106/1112 VRB15KT 4000 SHRA FEW016CB BKN020 OVC110 
    BECMG 1114/1116 00000KT 8000=
TAF VTSP 102300Z NIL=
TAF VTCT 102300Z 1100/1206 VRB03KT 2000 BR FEW040
     BECMG 1102/1104 16005KT 8000
     BECMG 1122/1124 VRB03KT 2000 BR 
     BECMG 1202/1204 12005KT 8000=
TAF VTSG 102300Z NIL=
TAF VTUU 102300Z NIL=

0000071200
097
SAZA31 FAPR 102300
METAR FABL 102300Z NIL=
METAR FACT 102300Z 19009KT 9999 FEW030 17/12 Q1018 NOSIG=
METAR FAGG 102300Z AUTO 30003KT 9999 OVC024 16/14 Q1019=
METAR FALA 102300Z AUTO 11003KT //// // 21/09 Q1019=
METAR FALE 102300Z 23013KT 9999 FEW035 BKN045 21/18 Q1015 NOSIG=
METAR FALW 102300Z AUTO 24004KT //// // ////// 14/11 Q1017=
METAR FAMM 102300Z AUTO 23006KT //// // ////// 22/06 Q1017=
METAR FAOR 102300Z 19007KT CAVOK 20/07 Q1021 NOSIG=
METAR FAPE 102300Z 25014KT CAVOK 19/13 Q1017 NOSIG=
METAR FAPN 102300Z AUTO 03002KT //// // ////// 24/05 Q1015=
METAR FAPP 102300Z AUTO 03004KT //// // ////// 21/16 Q1017=
METAR FAUP 102300Z 19009KT CAVOK 22/02 Q1016 NOSIG=

0000022100
098
FCHU41 LHBM 102300
TAF LHKE 102245Z 1100/1109 24003MPS CAVOK
    TEMPO 1100/1106 VRB02MPS 5000 BR MIFG NSC=
TAF LHSN 102300Z 1100/1109 24003MPS CAVOK
    TEMPO 1100/1106 VRB02MPS 5000 BR MIFG NSC=

0000094800
099
FTKO31 RKSI 102300
TAF RKSI 102300Z 1100/1206 05005KT 6000 NSC
          BECMG 1103/1104 23006KT
          BECMG 1114/1115 30007KT
          BECMG 1203/1204 31015G25KT=
TAF RKSS 102300Z 1100/1206 32006KT 4200 BR FEW030
          BECMG 1101/1102 7000 NSW
          BECMG 1204/1205 33015G25KT=
TAF RKPC 102300Z 1100/1206 02007KT 9999 BKN030
          BECMG 1110/1111 18005KT
          BECMG 1115/1116 33007KT
          TEMPO 1204/1206 33015G25KT=
TAF RKPK 102300Z 1100/1206 33006KT 9999 SCT040=
TAF RKTU 102300Z 1100/1206 24006KT 3200 BR SCT030
         BECMG 1100/1101 27006KT 4800 SCT030 SCT200
         BECMG 1101/1102 9999 NSW=
TAF RKTN 102300Z 1100/1206 30006KT 9999 SCT030=
TAF RKJB 102300Z 1100/1206 30006KT 6000 SCT030 BKN200
          BECMG 1112/1113 11005KT 4200 BR NSC
          BECMG 1121/1122 6000 NSW
          BECMG 1202/1203 34012KT=
TAF RKNY 102300Z 1100/1206 26012KT CAVOK=

0000027500
100
FTTH33 VTBB 102300
TAF VTUD 102300Z NIL=
TAF VTUI 102300Z NIL=
TAF VTUK 102300Z NIL=
TAF VTUL 102300Z NIL=
TAF VTUO 102300Z NIL=
TAF VTUW 102300Z NIL=
TAF VTUQ 102300Z NIL=
TAF VTUV 102300Z NIL=
TAF VTUJ 102300Z NIL=
TAF VTBO 102300Z NIL=

0000027800
101
SAAP32 FAPR 102300
METAR FACT 102300Z 19009KT 9999 FEW030 17/12 Q1018 NOSIG=
METAR FALE 102300Z 23013KT 9999 FEW035 BKN045 21/18 Q1015 NOSIG=
METAR FAOR 102300Z 19007KT CAVOK 20/07 Q1021 NOSIG=
METAR FBSK 102300Z 23003KT 190V360 CAVOK 21/09 Q1014 NOSIG=

0000158700
102
SAUS75 KWBC 102300 RRA
METAR
PANC 102253Z 34004KT 6SM -SN BR SCT005 OVC013 M03/M04 A2940=
PANT 102253Z 13007KT 10SM FEW022 SCT048 OVC060 04/02 A2958=
PAOM 102253Z 04009KT 10SM SCT100 SCT200 M11/M18 A2966=
PAOR 102253Z 33003KT 4SM -SN BKN037 BKN070 M16/M18 A2938=
PAOT 102253Z 03004KT 10SM CLR M18/M24 A2979=
PAPG 102255Z 13005KT 10SM SCT025 BKN040 04/00 A2955=
PASC 102253Z 25013KT 4SM -SN BR FEW017 OVC030 M29/M33 A2987=
PASI 102253Z 11006KT 10SM BKN024 OVC046 02/01 A2951=
PASN 102253Z 15005KT 10SM BKN016 01/M02 A2916=
PATA 102252Z 00000KT 10SM CLR M31/M34 A2966=
PATC 102255Z AUTO 03019KT 1/2SM FZFG VV002 M18/M20 A2975=
PATK 102253Z 00000KT 10SM OVC014 M07/M09 A2940=
PAUN 102256Z AUTO 08018KT 10SM CLR M14/M21 A2959=
PAVD 102256Z 10SM FEW015 FEW090 BKN100 M03/M06 A2937=
PAYA 102253Z 08004KT 1/2SM R11/3500V4500FT -SN FG FEW002 BKN026
     OVC075 00/00 A2941=
PGRO 102250Z 06010G16KT 7SM SCT028 BKN100 BKN120 25/24 A2997=
PGUA 102258Z AUTO 06012KT 10SM FEW018 27/23 A2996=
PGUM 102254Z 06013KT 10SM FEW026 SCT050 27/23 A2996=
PHJH 102250Z 03015KT 15SM FEW015 FEW035 26/19 A2993=
PHLI 102253Z AUTO 03014KT 10SM FEW022 26/20=
PHMK 102254Z 02008G15KT 10SM SCT022 26/21 A2994=
PHNL 102253Z 01014G19KT 8SM -RA FEW025 SCT036 BKN045 25/18
     A2994=
PHNY 102256Z AUTO 04009KT 360V070 10SM FEW033 24/17 A2997=
PHOG 102254Z 01010KT 10SM FEW030 SCT050 26/19 A2993=
PHTO 102253Z 03007KT 10SM FEW030 SCT050 26/20 A2992=
PMDY 102256Z AUTO 10014KT 5SM HZ CLR 22/16 A3022=
PWAK 102255Z 09010KT 10SM FEW023 27/27 A3003=

0000155500
103
SPUS70 KWBC 102306
SPECI
PALH 102302Z 01004KT 10SM SCT007 OVC016 M03/M05 A2941 RMK AO2=
KAMW 102302Z AUTO 00000KT 3SM BR BKN004 OVC013 00/00 A2954 RMK AO2
     CIG 002V005 T00000000 $=
KFOE 102302Z 28009KT 7SM SCT008 BKN012 OVC031 04/02 A2956 RMK AO2
     T00390022=
KFSM 102302Z 04005KT 3SM BR BKN001 11/10 A2964 RMK AO2=
KHWO 102302Z 11006KT 10SM BKN020 24/22 A3009 RMK AO2=
KMFI 102302Z AUTO 10007KT 3/4SM -SN BR SCT006 BKN011 OVC018
     M02/M03 A2960 RMK AO2 P0000 T10171028=
KMSY 102302Z 12007KT 5SM BR OVC004 17/16 A2994 RMK AO2
     T01670161=
KOWD 102302Z 19003KT 4SM BR OVC009 01/01 A3036 RMK AO2 CIG 008V013
     T00110006=
KSMQ 102302Z AUTO 00000KT 1SM BR OVC008 01/00 A3032 RMK AO2
     T00060000 TSNO=
KSSI 102302Z AUTO 12009KT 2SM BR OVC002 17/17 A3010 RMK AO2
     T01720167=
KAOH 102303Z AUTO 14010KT 3SM BR OVC002 04/03 A2988 RMK AO2 PNO
     $=
KEQY 102303Z AUTO 03005KT 10SM -RA BKN014 OVC018 07/06 A3016 RMK
     AO2 P0000=
KHBG 102303Z AUTO 11003KT 1 3/4SM -RA BR OVC009 15/14 A2997 RMK
     AO2 P0000 T01500139=
KMCB 102303Z AUTO 16008KT 10SM OVC009 17/15 A2993 RMK AO2
     T01720150=
KMEB 102303Z AUTO VRB04KT 3/4SM +RA BR SCT004 BKN008 OVC015 13/13
     A3018 RMK AO2 P0022 T01330133=
KMKE 102303Z 16014KT 3SM FZRA BR BKN005 OVC041 02/01 A2967 RMK AO2
     SFC VIS 4 P0003 I1000 T00170006=
KMQY 102303Z 10SM 13/09 A2997 RMK AO2 PNO=
KTVC 102303Z 14005KT 1 3/4SM BR OVC005 M01/M02 A2978 RMK AO2 TWR
     VIS 3 FZDZB2256E03 P0000 I1000 T10061022 $=

0000009300
104
SPUS31 KWBC 102306
SPECI
KMSY 102302Z 12007KT 5SM BR OVC004 17/16 A2994=

0000037600
105
SABO41 KWBC 102300
METAR
SLCA NIL=
SLCN NIL=
SLCO NIL=
SLCP NIL=
SLJE NIL=
SLJO NIL=
SLMG NIL=
SLOR NIL=
SLPO NIL=
SLPS 102300Z 00000KT 9999 SCT020 FEW025CB 27/24 Q1006=
SLRB NIL=
SLRI NIL=
SLRQ NIL=
SLRY NIL=
SLSA NIL=
SLSI NIL=
SLSU 102300Z 01007KT 9999 FEW020 20/11 Q1025=
SLVG NIL=
SLVM NIL=
SLYA NIL=
SLZO NIL=

00000000