0000032300
766
SMCI01 BABJ 110000 RRC
AAXX 11001
51709 32965 22503 11100 21134 38752 40435 57001 82/// 333
00752=
54471 42960 01102 11090 21149 30310 40316 52003 333 00102=
54511 31936 41601 11074 21149 30282 40324 52002 705// 84///
333 00101=
57083 31/05 92501 11009 21029 30195 40338 52008 745// 333
00300=
0000012400
767
SMCI01 BABJ 110000 CCB
AAXX 11001
50953 42961 52502 11216 21253 30116 40278 52015 85/// 333
00202 92513=
0000014200
768
SMCI02 BABJ 110000 RRC
AAXX 11001
57494 11456 80201 10030 20021 30283 40315 52010 60031 710//
88/// 333 00351 30032 70058=
0000019100
769
SMCI02 BABJ 110000 CCA
AAXX 11001
56778 32565 00201 10041 20016 38140 52013 333 00253 31011=
59644 11558 80702 10164 20144 30210 40227 52017 69901 760//
88/// 333 05104=
0000078500
770
SMCI03 BABJ 110000 RRC
AAXX 11001
50136 32965 20000 11409 21455 39717 40356 52012 82/// 333
00601 92501=
51747 32962 70000 11220 21260 40488 57003 87/// 333 00751=
53564 41920 00701 11192 21230 39300 40420 52005 705// 333
00200=
53614 31941 72002 11105 21182 39014 40383 52010 705// 87///
333 00300=
53845 32965 20000 11117 21191 38936 40386 52011 82/// 333
00451=
54094 41736 20202 11237 21272 39862 40280 57002 705// 82///
333 00103 31022 92535=
54292 32962 03601 11147 21211 39944 40287 52002 333 00102
92506=
54618 31/00 90000 11054 21058 30314 40333 52003 749// 333
00101=
57127 12961 80701 10023 20005 39702 40332 52012 69921 88///
333 00500 30015 70018=
57131 31958 83202 11007 21086 40349 52015 705// 88/// 333
00403 31041=
0000010400
771
SICI26 BABJ 102100 CCB
AAXX 10211
58314 42/// 92001 10033 20004 40312 57002 333 70003=
0000011800
772
SMCI04 BABJ 101800 CCA
AAXX 10181
58921 31/59 90401 10102 20058 30024 40275 57002 70500 333
10143=
0000011800
773
SMCI06 BABJ 101800 CCC
AAXX 10181
58314 12/// 91601 10037 21003 30204 40314 52002 69911 333
10064=
0000011000
774
SMCI08 BABJ 101800 CCC
AAXX 10181
56116 32/// 92702 11087 21168 36315 52002 333 00353 10024=
0000011800
775
SMCI01 BABJ 110000 RRD
AAXX 11001
51076 32980 00201 11197 21230 39502 40488 57008 333 00400
92507=
0000012400
776
SMCI02 BABJ 110000 RRD
AAXX 11001
59117 31659 72901 10105 20079 30128 40271 52010 710// 87///
333 05100=
0000011800
777
SMCI03 BABJ 110000 CCA
AAXX 11001
54618 31/00 90000 11054 21058 30314 40333 52003 749// 333
00101=
0000009400
778
SICI28 BABJ 101500 CCC
AAXX 10151
56116 32/// 92001 11077 21158 36313 52014=
0000010400
779
SICI28 BABJ 102100 CCC
AAXX 10211
56116 32/// 93202 11098 21174 36309 57006 333 00254=
0000066800
780
USAA01 NZCM 110000
TTAA 61001 89664
99997 00056 18501 00512 ///// ///// 92601 07158 18518
85255 11341 17017 70716 21114 15006 50514 33959 24513
40666 44759 24520 30855 51765 24023 25975 45585 24514
20124 43786 24513 15318 43586 26009 10592 41586 23504
88320 52361 23026
77999
31313 48008 82219=

0000069700
87361=
0000011200
87368=
0000015000
87382=
0000030600
87414
0000014800
87423
0000049900
87438=
0000050000
87532
0000048000
87568
0000056300
87609
0000068700
87654
0000058400
87789
0000060500
87988=
0000060700
89405
0000062800
90049
0000006400
91033
0000075200
92329
0000068900
781
USAA01 NZCM 110000
TTAA 61001 89664
99997 00056 18501 00512 ///// ///// 92601 07158 18518
85255 11341 17017 70716 21114 15006 50514 33959 24513
40666 44759 24520 30855 51765 24023 25975 45585 24514
20124 43786 24513 15318 43586 26009 10592 41586 23504
88320 52361 23026
77999
31313 48008 82219=

0000069700
87361=
0000011200
87368=
0000015000
87382
0000012800
87386
0000045600
87406
0000047700
87410
0000049800
87416
0000051900
87420=
0000047900
87502
0000013400
87528
0000052100
87563
0000054200
87615
0000064600
87668=
0000054400
88240
0000056500
88514
0000068900
88787
0000058600
89255=
0000068900
782
USAA01 NZCM 110000
TTAA 61001 89664
99997 00056 18501 00512 ///// ///// 92601 07158 18518
85255 11341 17017 70716 21114 15006 50514 33959 24513
40666 44759 24520 30855 51765 24023 25975 45585 24514
20124 43786 24513 15318 43586 26009 10592 41586 23504
88320 52361 23026
77999
31313 48008 82219=

0000069700
87361=
0000011200
87368
0000009600
87371
0000035800
87378
0000037300
87381
0000039400
87385
0000039400
87407=
0000012000
87430
0000054000
87439
0000049900
87460
0000047900
87470=
0000052200
87585
0000052200
87663=
0000064700
88226=
0000054500
90116
0000064900
91120
0000071100
92410
0000062700
783
USAA01 NZCM 110000
TTAA 61001 89664
99997 00056 18501 00512 ///// ///// 92601 07158 18518
85255 11341 17017 70716 21114 15006 50514 33959 24513
40666 44759 24520 30855 51765 24023 25975 45585 24514
20124 43786 24513 15318 43586 26009 10592 41586 23504
88320 52361 23026
77999
31313 48008 82219=

0000069700
87361=
0000011200
87368=
0000015000
87382
0000012800
87386=
0000045700
87427
0000045800
87444
0000047900
87464=
0000052100
87578=
0000056400
87893=
0000056500
88922
0000064800
89378
0000066900
90032
0000075200
91063
0000054600
92356
0000064700
784
USAA01 NZCM 110000
TTAA 61001 89664
99997 00056 18501 00512 ///// ///// 92601 07158 18518
85255 11341 17017 70716 21114 15006 50514 33959 24513
40666 44759 24520 30855 51765 24023 25975 45585 24514
20124 43786 24513 15318 43586 26009 10592 41586 23504
88320 52361 23026
77999
31313 48008 82219=

0000069700
87361=
0000011200
87368
0000009600
87371
0000035800
87378
0000037300
87381
0000039400
87385
0000039400
87407
0000041500
87411
0000014600
87417
0000045700
87421=
0000050000
87501
0000056200
87513=
0000060500
87736=
0000062700
88792
0000064800
89264=
0000066800
785
USAA01 NZCM 110000
TTAA 61001 89664
99997 00056 18501 00512 ///// ///// 92601 07158 18518
85255 11341 17017 70716 21114 15006 50514 33959 24513
40666 44759 24520 30855 51765 24023 25975 45585 24514
20124 43786 24513 15318 43586 26009 10592 41586 23504
88320 52361 23026
77999
31313 48008 82219=

0000069700
87361=
0000011200
87368=
0000015000
87382=
0000030600
87414
0000014800
87423
0000049900
87438
0000052000
87459
0000058200
87471
0000050000
87489=
0000052200
87715
0000066700
87819
0000056400
88002
0000064700
88159=
0000056600
90031
0000060800
91090
0000071100
92378
00000000