0000010000
674
SNNO23 ENMI 110800 RRC
AAXX 11081
01033 46/// /1404 11036 21125 30141 40173 52002=
0000010000
675
SNNO24 ENMI 110700 RRC
AAXX 11071
01114 46/// /0705 11060 21202 30091 40102 52006=
0000017100
676
SNNO24 ENMI 110800 RRC
AAXX 11081
01245 26/// /3102 11153 21171 39279 40026 50001 333 60005=
01389 26/// /0502 11096 21114 39717 40041 51009 333 69945=
0000023800
677
SNNO25 ENMI 110700 RRC
AAXX 11071
01076 26/// /0000 11225 21248 30140 40184 53004 333 4/067 60005=
01321 26/// /2901 11040 21050 39722 49980 55000 333 60005=
01495 26/// /3103 10036 20016 39963 49976 55002 333 60005=
0000011000
678
UANT01 CWAO 110858
ARP BAW204 4623N03330W 0858 F370 MS47 247/39 KT
GVIID QXT AOW 110858 F52A
0000010800
679
UANT01 CWAO 110858
ARP THY8 4722N03832W 0858 F370 MS53 305/37 KT
TCJNR QXT AOW 110858 J23A
0000016400
680
SNDL22 EDZW 110800 CCB
AAXX 11081
10453 41986 12316 11028 21028 38795 48422 58001 73641 81031
  333 55303 81361 91119 91216 96241
  444 26105=
0000028800
681
SSVX02 LFVW 110858
ZZYY 13983 11014 0851/ 731338 066234 6111/
22219 00219
33311 88872 20000 32192 43596
444 2011/ 11014 0713/ 50101 9/015=
ZZYY 41646 11014 0852/ 729250 061083 6112/
22219 00234
33311 88872 20000 32339 43669
444 2012/ 11014 0713/ 50101 9/015=
0000010800
682
UANT01 CWAO 110858
ARP LOT4 6151N03211W 0858 F390 MS57 309/39 KT
SPLRA DDL KUS 110858 L40A
0000010900
683
UANT01 CWAO 110858
ARP DAL8 5806N02913W 0858 F330 MS58 215/58 KT
N706DN QXT AOE 110858 F33A
0000011400
684
SISV20 FDMS 110900
AAXX 11094
68396 32680 60000 10236 20179 39490 48545 58001 86500
555 91020=
0000011000
685
UANT01 CWAO 110858
ARP DLH499 5247N05525W 0858 F350 MS65 277/65 KT
DABYG QXS YAY 110858 F88A
0000074600
686
SABN32 OBBI 110900
METAR OMAA 110900Z 17006KT 130V230 9999 FEW045 21/11 Q1019 A3010
                   NOSIG=
METAR OMAD 110900Z 19006KT 150V220 9999 FEW045 21/15 Q1019 A3010
                   NOSI G=
METAR OMAL 110900Z 17009KT CAVOK 21/09 Q1020 A3014 27008KT=
METAR OMDB 110900Z 17009KT CAVOK 22/10 Q1020 NOSIG=
METAR OMDW 110900Z 17009KT CAVOK 21/10 Q1020 NOSIG=
METAR OMFJ 110900Z 15007KT 120V190 9999 SCT020 BKN100 21/09 Q1020
                   A3012=
METAR OMRK 110900Z 14010KT CAVOK 21/11 Q1020 A3012=
METAR OMSJ 110900Z 15009KT 9999 FEW040 21/11 Q1020=
METAR OOMS 110850Z 06011KT 9999 FEW020 SCT200 21/08 Q1021 NOSIG=
METAR OOSA 110850Z 12014KT 080V150 9999 SCT025 26/15
Q1016 NOSIG  RH52 RMK01=
0000015800
687
SNVE21 AMMC 110800 RRB
BBXX
MPRZ 11084 99247 31648 41397 71338 10230 20183 40135 51012 70322
872// 22214 00250 20305 310// 40303 80200=

0000217100
688
SZNZ01 NZKL 110900
CREX++
T000103 A001 D01021 D06025++
-3683144 17478654 AUCT  2014 01 11 08 52 //// 11 07 00 01
04083 3188 04084 3193 04082 3195 04074 3191 04070 3191 04067 3192+
-4402404 -17636748 CHIT  2014 01 11 08 52 //// 11 07 00 01
04452 1968 04462 1975 04456 1966 04449 1957 04452 1957 04450 1952+
-4089929 17623168 CPIT  2014 01 11 08 52 //// 11 07 00 01
03299 2291 03299 2288 03308 2295 03323 2307 03328 2309 03330 2308+
-3618905 17548887 GBIT  2014 01 11 08 52 //// 11 07 00 01
05032 -0021 05033 -0018 05037 -0012 05032 -0015 05025 -0021 05015 -0029+
-3867541 17802288 GIST  2014 01 11 08 52 //// 11 07 00 01
03331 2743 03341 2752 03344 2753 03338 2746 03344 2751 03347 2753+
-4241288 17370277 KAIT  2014 01 11 08 52 //// 11 07 00 01
02789 2204 02795 2207 02796 2203 02798 2202 02808 2208 02803 2199+
-3755040 17815904 LOTT  2014 01 11 08 52 //// 11 07 00 01
02736 0190 02732 0187 02744 0199 02723 0179 02732 0188 02715 0172+
-3704657 17451175 MNKT  2014 01 11 08 52 //// 11 07 00 01
02961 -0134 02937 -0152 02949 -0133 02937 -0139 02946 -0123 02929 -0134+
-3947566 17692007 NAPT  2014 01 11 08 52 //// 11 07 00 01
02372 2056 02380 2062 02379 2059 02370 2048 02366 2042 02387 2061+
-3441483 17304870 NCPT  2014 01 11 08 52 //// 11 07 00 01
-03003 -6774 -02915 -6682 -03038 -6801 -03097 -6856 -03165 -6921 -03202 -6954+
-4581435 17062939 OTAT  2014 01 11 08 52 //// 11 07 00 01
04272 3414 04277 3412 04284 3413 04289 3412 04293 3410 04297 3408+
-2928002 -17789440 RBCT  2014 01 11 08 52 //// 11 07 00 01
05515 2026 05508 2021 05523 2037 05532 2047 05517 2033 05488 2005+
-2925114 -17790384 RFRT  2014 01 11 08 52 //// 11 07 00 01
02397 0190 02422 0217 02441 0237 02426 0222 02397 0194 02390 0189+
-4357010 17277383 SUMT  2014 01 11 08 52 //// 11 07 00 01
01400 1863 01393 1851 01410 1862 01415 1862 01434 1876 01428 1864+
-3764109 17618118 TAUT  2014 01 11 08 52 //// 11 07 00 01
04283 3904 04344 3968 04346 3972 04343 3971 04348 3978 04347 3979+
-4128448 17477985 WLGT  2014 01 11 08 52 //// 11 07 00 01
02740 2047 02745 2049 02752 2053 02762 2060 02756 2050 02758 2049++
7777
0000328600
689
SIVD15 KWNB 110900 RRB
BBXX
42020 11091 99270 70967 46/// /2406 10188 20188 40132 53010 90850
22200 00206 10602 20501 312// 40602 70011 333 91207 555 11065
22068 30757 42308 60849 240062 235057 240059 241060 229060 229065=
41044 11091 99216 70586 46/// /0709 10244 40202 56006 90850 22200
00257 10905 20804 300// 40903 70026 333 91211 555 11098 22103
30755 40613 60849 067093 061090 059092 060097 064100 063102 80611
90755=
42035 11091 99292 70944 46/// /2307 10141 20141 40114 52003 90850
22200 00116 10602 20602 314// 40801 70009 333 91208 555 11074
22084 30838 42408 60849 231067 235068 236064 242062 242057 245049=
42056 11091 99198 70849 46/// /1208 10271 20223 40151 58007 90850
22200 00274 10603 20603 312// 40802 70016 333 91209 555 11080
22085 30753 41210 60849 123074 126073 128076 124078 123082 122082
81209 90756=
41012 11091 99300 70805 46/// /1705 10191 20191 40177 56013 90850
22200 00170 10903 20401 307// 40903 70016 333 91205 555 11052
22061 30759 41607 60849 169045 166047 164048 159053 158056 161059=
42036 11091 99285 70845 46/// /1605 10210 20205 40163 56005 90850
22200 00206 10301 20301 70005 333 91206 555 11055 22060 30820
41607 60849 158052 158056 161060 160062 159060 156055=
42019 11091 99279 70954 46/// /2406 10211 40127 52004 90850 22200
00205 10703 20502 316// 40702 70015 333 91207 555 11061 22067
30800 42307 60849 236056 233057 236055 232054 232056 223059=
42059 11091 99151 70675 46/// /0910 10264 40153 56005 90850 22200
00269 10805 20805 70024 333 91211 555 11104 22110 30824 41012
60849 089097 094099 092096 089093 089095 090090 81011 90840=
41049 11091 99275 70629 46/// /0610 10228 40258 57004 90850 22200
00250 10705 20705 309// 41602 70025 333 91212 555 11107 22113
30826 40612 60849 056100 057095 055096 057097 059095 055093 80611
90845=
42012 11091 99301 70876 46/// /1708 10194 20194 40122 58024 90850
22200 00177 10502 20502 70009 333 91209 555 11087 22097 30847
41709 60849 170080 173073 174071 176068 174070 173070=
42058 11091 99149 70749 46/// /0812 10270 20238 40121 55008 90850
22200 00274 10907 20705 310// 40904 70033 333 91215 555 11133
22142 30817 41016 60849 083123 091120 092128 094130 089129 090129
81014 90815=
41041 11091 99143 70461 46/// /0709 10247 20244 40146 54000 90850
22200 00258 11406 20704 336// 41404 70029 333 91211 555 11096
22101 30836 40711 60849 073090 070093 065091 065089 070085 072082
80710 90828=
42040 11091 99292 70882 46/// /1709 10217 40126 58022 90850 22200
00206 333 91210 555 11085 22093 30849 41610 50125 60849 167085
169081 169070 170070 173070 175073 70850 81709 90849=
42002 11091 99258 70937 46/// /2006 10232 20231 40137 56011 90850
22200 00232 10702 20501 310// 40702 70011 333 91207 555 11059
22063 30846 42007 60849 195059 196057 199056 201057 201056 206055=
44064 11091 99370 70760 46/// /1506 10115 40169 90850 333 91207
555 11070 22077=
44062 11091 99386 70764 46/// /1001 10048 40157 90850 333 91202
555 11013 22014=
44063 11091 99390 70764 46/// /0601 10020 40145 90850 333 91202
555 11014 22015=
44041 11091 99372 70768 46/// /1404 10127 90850 333 91205 555
11047 22051=
44042 11091 99380 70763 46/// /1815 10124 40131 90850 333 91221
555 11177 22192=
0000066100
690
UDAF01 FAPR 110859
AMDAR 1108
ASC AFZA45 2608S 02814E 110857 F052 PS226 014/013 TB1 S031 333 F/// VG037=
ASC AFZA45 2607S 02815E 110858 F052 PS219 223/008 TB1 S031 333 F/// VG025=
ASC AFZA45 2607S 02815E 110858 F054 PS208 317/008 TB1 S031 333 F/// VG031=
ASC AFZA45 2606S 02815E 110859 F057 PS194 342/011 TB1 S031 333 F/// VG029=
ASC AFZA45 2606S 02815E 110859 F061 PS186 121/006 TB1 S031 333 F/// VG029=
ASC AFZA45 2606S 02815E 110859 F064 PS176 238/008 TB1 S031 333 F/// VG030=
ASC AFZA45 2605S 02815E 110859 F068 PS164 125/007 TB1 S031 333 F/// VG029=
ASC AFZA45 2605S 02815E 110859 F072 PS150 354/009 TB1 S031 333 F/// VG021=
0000066100
691
UDAF01 FAPR 110857
AMDAR 1108
ASC AFZA41 2612S 02821E 110815 F134 PS005 273/020 TB0 S031 333 F/// VG010=
ASC AFZA41 2616S 02822E 110817 F155 MS022 233/007 TB0 S031 333 F/// VG010=
LVR AFZA41 2651S 02828E 110822 F256 MS202 297/034 TB0 S031 333 F/// VG009=
LVR AFZA41 2745S 02823E 110829 F352 MS437 296/058 TB0 S031 333 F/// VG009=
LVR AFZA41 2838S 02818E 110836 F380 MS502 289/071 TB0 S031 333 F/// VG010=
LVR AFZA41 2931S 02813E 110843 F380 MS501 286/082 TB0 S031 333 F/// VG010=
LVR AFZA41 3025S 02809E 110850 F380 MS492 290/087 TB0 S031 333 F/// VG010=
LVR AFZA41 3117S 02800E 110857 F323 MS391 283/031 TB0 S031 333 F/// VG009=
0000041000
692
SIVD17 KWNB 110900 RRA
BBXX
46075 11091 99539 71608 46/// /2207 10049 49845 56037 90850 22200
00049 11105 20703 3//// 41104 70026 333 91209 555 11076 22081
30751 41909 60849 216071 215074 204073 179071 170069 168074 81708
90751=
46001 11091 99563 71479 46/// ///// 1//// 49952 57003 90850 22200
00048 11104 70020=
32012 11091 99199 50853 46/// ///// 1//// 90850 22200 11704 70022=
0000128400
693
SIVD20 KWNB 110900 RRB
BBXX
44027 11091 99443 70673 46/// /1703 10037 20023 40241 58014 90850
22200 00057 10702 20401 3//// 40702 70011 333 91204 555 11035
22036 30811 42305 60849 166033 182029 207029 224035 226037 243033=
41013 11091 99334 70777 46/// /1910 10223 20202 40168 58014 90850
22200 00201 10804 20804 70019 333 91212 555 11104 22114 30841
41813 60849 187097 187097 188097 189099 185101 179098=
44014 11091 99366 70748 46/// ///// 10156 20151 40188 56029 90850
22200 10604 70018=
44017 11091 99407 70720 46/// /1606 10098 20097 40202 58029 90850
22200 00071 10502 20502 317// 40901 70009 333 91207 555 11071
22082 30758 41708 60849 161063 165064 171063 174065 170068 168072=
41008 11091 99314 70809 46/// /1805 10166 20166 40165 58015 90850
22200 00147 10803 20401 309// 40802 70014 333 91206 555 11057
22066 30848 41806 60849 181049 183048 193043 208035 207028 203025=
44009 11091 99385 70747 46/// ///// 10113 20109 40180 56028 90850
22200 00067 10902 70008=
44020 11091 99414 70702 46/// ///// 10057 40225 58022 90850 22200
00018 10301 20301 70003=
44059 11091 99368 70763 46/// /1604 10167 40160 90850 333 91206
555 11045 22049=
44058 11091 99376 70763 46/// /1608 10099 40158 90850 333 91209
555 11088 22095=
00000000