0000003800
006
SIVE21 ESWI 110900
NIL
0000003800
007
SIVJ21 ESWI 110900
NIL
0000417300
008
SIIR22 OIII 110900
AAXX 11091
40701 41930 00000 11128 21129 38624 40357 58003 71000 555 11125
29099 66666 01068 11058 21040 31032 50013 90054=
40704 42865 62808 11012 21084 38606 40224 58004 82071 333 82358
86070 555 11034 29058 66666 01030 11034 21030 31016 50006 90068=
40708 42865 81909 11002 21042 38649 40199 57014 83076 333 83358
87268 555 11016 29074 66666 01028 11026 21024 31012 50008 90060=
40710 42665 82103 11096 21133 38328 40336 58006 8452/ 333 84635
88458 555 11102 29074 66666 01074 11072 21060 31044 51018 90058=
40713 41611 80000 11040 21064 38689 40290 58010 71022 8351/ 333
83642 88461 555 11046 29083 66666 01018 11022 21006 31022 50032
90092=
40719 41530 73102 10084 20057 30168 40158 58027 71022 84570 333
84625 86360 555 10072 29083 66666 00076 10064 20072 30078 50100
90126=
40731 41650 81503 10005 21025 38758 40255 58018 71022 8332/ 333
81935 83640 88459 555 11006 29080 66666 01002 11003 20012 30018
50038 90072=
40738 41556 63302 10112 20065 30169 40171 57036 70520 81152 333
      81830 83359 85069 555 10090 29073 66666 00100 10072 20064
      30076 50100 90126=
40740 42960 30000 10092 21143 38731 40196 58020 83030 333 83360
      555 10020 29018 66666 01021 11023 21013 30002 50026 90062=
40747 41550 80301 11007 21034 38646 40241 58013 71087 85320 333
82725 81935 83635 86458 555 11016 29082 66666 00004 10008 20022
30028 50048 90086=
40757 42660 71201 10052 21055 38919 40231 58022 82570 333 82635
87360 555 10014 29046 66666 00066 10048 20032 30044 50058 90102
77777 00014 10011 20/// 30010 50010 70/// 99///=
40763 42665 31503 10082 21062 38949 40244 57023 83500 333 83635
      555 10030 29036 66666 00098 10048 20036 30052 50072 90114=
40782 41458 72203 10026 20016 38880 40202 57013 76082 8632/ 333
81715 81935 85640 87458 555 10022 29093 66666 00050 10048 20050
30058 50072 90108=
40783 41550 61105 11004 21015 37971 40203 58017 71087 85370 333
82930 83635 86359 555 11008 29092 66666 00002 10002 20016 30020
50040 90080=
40789 42660 70000 10070 21017 39221 40213 58025 81577 333 81640
      85360 86270 555 10036 29054 66666 00068 10058 20054 30066
      50105 90146=
40798 41510 80000 11040 21057 37950 40278 58016 77072 8432/ 333
      81925 83630 88557 555 11044 29088 66666 01006 10002 20008
      30018 50034 90064=
40818 42662 20602 10056 21027 37964 40199 58016 81202 333 81840
555 10022 29055 66666 01010 11008 21006 30000 50038 90074=
40827 42665 80903 10055 21054 38850 40230 58028 8341/ 333 83635
88460 555 10016 29045 66666 00048 10044 20042 30064 50094 90146=
40836 41530 80000 10020 20011 38197 40225 57019 71076 8532/ 333
81930 84635 88558 555 10016 29094 66666 00004 10012 20020 30028
50044 90072 77777 00/// 10014 20/// 30014 50014 70/// 99012=
40851 42660 81205 10074 21011 38278 40203 58021 8342/ 333 83640
      88460 555 10038 29055 66666 00062 10042 20042 30058 50080
      90146=
40853 42665 83203 10040 21023 37762 40230 57019 83410 333 83640
      87460 555 10014 29063 66666 00010 10014 20024 30048 50060
      90120=
40854 42665 80000 10096 21037 38958 40186 58031 81476 333 87459
      88270 555 10044 29039 66666 00132 10114 20078 30090 50136
      90182=
40857 41557 81103 10137 20102 30173 40183 58020 76166 8432/ 333
81925 83635 88557 555 10119 29080 66666 00134 10146 20142 30146
50156 90168=
40859 41560 80000 10080 20017 38736 40193 58018 70282 8432/ 333
81930 83635 88459 555 10052 29064 66666 00082 10076 20076 30086
50104 90141=
40878 42965 62102 10110 21129 38887 40255 57025 80006 333 86270
555 10033 29017 66666 00096 10079 20083 30100 50121 90149=
40879 42562 80000 10149 21067 39531 40227 58032 8172/ 333 81720
88459 555 10068 29022 66666 00156 10144 20138 30150 50172 90220=
40883 41530 80302 10142 20112 30183 40206 56020 76262 8352/ 333
      83625 88558 555 10126 29082 66666 00142 10142 20146 30176
      50182 90224 77777 00/// 10/// 20007 30006 50002 70/// 99///=
40898 42965 60703 10207 21098 30200 40210 58031 80006 222// 00225
      10700 333 86269 555 10096 29012 66666 00260 10162 20188
      30190 50228 90256=
0000217100
009
SZNZ01 NZKL 110918
CREX++
T000103 A001 D01021 D06025++
-3683144 17478654 AUCT  2014 01 11 09 10 //// 11 07 00 01
04018 3185 04017 3188 04015 3188 04011 3187 04008 3187 04007 3188+
-4402404 -17636748 CHIT  2014 01 11 09 10 //// 11 07 00 01
04481 1944 04491 1951 04492 1949 04494 1947 04501 1952 04506 1953+
-4089929 17623168 CPIT  2014 01 11 09 10 //// 11 07 00 01
03355 2294 03339 2275 03364 2296 03359 2288 03353 2278 03369 2291+
-3618905 17548887 GBIT  2014 01 11 09 10 //// 11 07 00 01
05007 -0020 05015 -0011 05018 -0007 05014 -0010 05005 -0018 04997 -0026+
-3867541 17802288 GIST  2014 01 11 09 10 //// 11 07 00 01
03339 2724 03328 2712 03324 2706 03325 2705 03323 2701 03325 2701+
-4241288 17370277 KAIT  2014 01 11 09 10 //// 11 07 00 01
02864 2207 02866 2206 02880 2215 02853 2184 02880 2207 02867 2189+
-3755040 17815904 LOTT  2014 01 11 09 10 //// 11 07 00 01
02728 0186 02727 0185 02736 0194 02724 0181 02727 0184 02730 0187+
-3704657 17451175 MNKT  2014 01 11 09 10 //// 11 07 00 01
02844 -0132 02834 -0135 02818 -0145 02824 -0131 02803 -0145 02801 -0140+
-3947566 17692007 NAPT  2014 01 11 09 10 //// 11 07 00 01
02422 2063 02433 2071 02438 2073 02459 2091 02457 2086 02471 2097+
-3441483 17304870 NCPT  2014 01 11 09 10 //// 11 07 00 01
-03517 -7222 -03542 -7244 -03622 -7320 -03707 -7402 -03824 -7516 -03649 -7338+
-4581435 17062939 OTAT  2014 01 11 09 10 //// 11 07 00 01
04387 3415 04390 3411 04395 3410 04398 3407 04406 3408 04416 3412+
-2928002 -17789440 RBCT  2014 01 11 09 10 //// 11 07 00 01
05500 2029 05519 2048 05498 2028 05484 2015 05482 2013 05494 2025+
-2925114 -17790384 RFRT  2014 01 11 09 10 //// 11 07 00 01
02422 0232 02402 0213 02395 0206 02372 0184 02387 0199 02395 0207+
-4357010 17277383 SUMT  2014 01 11 09 10 //// 11 07 00 01
01533 1896 01534 1891 01541 1892 01543 1888 01560 1900 01530 1863+
-3764109 17618118 TAUT  2014 01 11 09 10 //// 11 07 00 01
04330 3982 04321 3975 04320 3975 04316 3972 04313 3970 04338 3996+
-4128448 17477985 WLGT  2014 01 11 09 10 //// 11 07 00 01
02806 2053 02812 2056 02818 2058 02821 2057 02833 2065 02831 2060++
7777
0000131700
010
SILA20 VLIV 110900
AAXX 11091
48921 31457 21401 10186 20151 38641 48140 57008 71044 82200
 333 58013=
48924 32562 21802 10263 20181 39505 40119 57025 82100
 333 58011=
48925 NIL=
48926 32560 21601 10276 20173 39676 40137 57024 82100
 333 58010=
48927 31458 70904 10185 20149 39168 48642 57017 70544 878//
 333 58011=
48928 32460 30905 10202 20136 39086 48573 57018 83100
 333 58011=
48930 32470 23001 10280 20159 39803 40147 57021 81100
 333 58010=
48935 32468 20402 10230 20078 39015 48521 57013 82200
 333 58008=
48938 31558 10402 10282 20159 39807 40136 57033 70544 81100
 333 58016=
48940 31457 31801 10290 20169 39937 40130 57024 70544 83200
 333 58002=
48941 NIL=
48944 31460 10403 10218 20154 39525 40111 57007 70544 81500
 333 59003=
48945 31956 00000 10290 20150 39971 40148 57019 70544 
 333 58007=
48946 31557 20402 10288 20236 39966 40129 57018 70544 81800
 333 59001=
48947 32460 40404 10294 20173 39995 40159 57009 83230
 333 58005=
48948 NIL=
48952 31557 12702 10310 20195 39922 40110 57021 70544 81100
 333 58004=
48953 32560 31802 10305 20181 39938 40099 57011 82240
 333 58006=
48955 32760 32202 10320 20171 39996 40111 57025 83500
 333 58006=
48957 32565 21801 10325 20208 39986 40092 57027 82010
 333 59009=
0000012400
011
SIVS40 VNNN 110900
AAXX 11091
48907 32598 60502 10291 20215 30110 40113 55017 81208 333 58003 81895 86299=
0000024700
012
SMVX02 DEMS 110918
BBXX AUYB 11091 99130 10739 46/// /3309 10276 29069 49089 90858 222//=
BBXX VTJR 11091 99161 10828 46/// /1205 10267 29065 49121 90903 22231=
BBXX VTTK 11091 99177 10833 46/// /0105 10270 29067 49126 90904 222//=
0000011400
013
SAIN90 VERC 110900
VERC 110900Z 05008KT 1000 MIFG SCT 015 OVC080 17/13  Q1016 TEMPO 0800
 RA/FG=
0000023800
014
SWVD12 LFPW 110900
MMXX 41300 11014 0900/ 71551 05728 00011 15400 20282 30090
11130 0005/ 1024/ 30/// 14054 11174
22226 71007 10002 31428 54877 70073 93129 13319 32219
52111 71011 90610 10903 30403 50404 70201 90101=
0000011000
015
UANT01 CWAO 110916
ARP BAW204 4700N02946W 0916 F370 MS48 199/51 KT
GVIID QXT AOW 110916 F59A
0000064800
016
SSVX11 LFVW 110916
ZZYY 52084 11014 0300/ 105020 155966 6113/
33311 88872 20002 32969 43432 20025 32963 20050 32962 43434
20075 32974 20100 32928 43457 20125 32772 43464 20150 32350 43503
20200 31376 43460 20250 31031 43461 20300 30938 43463
20500 30789 43458 20750 30599 43455
444 20130 11014 0255/ 522//=
ZZYY 52083 10014 22004 107970 156028 6112/
11119 00716 10290 29071 40099
22219 00290
33311 88872 20000 32901 20002 32901 43380 20025 32902 43396
20050 32903 43396 20075 32902 43398 20100 32699 43478
20125 32406 43498 20150 32006 43498 20200 31330 43455
20250 31031 43457 20300 30965 43460 20750 30000=
0000010800
017
UANT01 CWAO 110916
ARP THY8 4807N03505W 0916 F370 MS51 256/27 KT
TCJNR QXT AOW 110916 J26A
0000011300
018
SITU61 LTAA 110900 CCA
AAXX 11094
17110 42970 00206 10126 20124 30154 40250 51013
 333 91111=
0000011000
019
UANT01 CWAO 110917
ARP DLH499 5345N05114W 0916 F350 MS64 285/81 KT
DABYG QXS YAY 110917 F93A
0000010900
020
UANT01 CWAO 110917
ARP SWR39 5616N05934W 0917 F350 MS62 290/82 KT
HBJMO QXS YHO 110917 J33A
0000009700
021
SIIS42 LLBD 110900
AAXX 11094
40183 43/// /3306 10108 20058 39297 48554 52003 =
0000011100
022
UANT99 KDDL 110916
ARP UAL924 5100N01642W 0916 F370 MS62 244/67 KT
N778UA DDL XXW 110916 F44A
0000034700
023
SZIO01 AMMC 110918
CREX++
T000103 A001 D01021 D06025++
-1211670 09689190 46280 2014 01 11 09 11 3022 11 07 00 01
01176 0013 01174 0012 01175 0015 01173 0015 01168 0012 01172 0018+
-1042940 10566940 46290 2014 01 11 09 11 //// 11 07 00 01
01389 -0027 01395 -0021 01380 -0036 01384 -0032 01402 -0013 01389 -0026++
7777

0000047300
024
SZPA01 AMMC 110918
CREX++
T000103 A001 D01021 D06025++
0136250 17293000 67590 2014 01 11 09 11 3017 11 07 00 01
01219 -0039 01228 -0031 01229 -0031 01225 -0036 01233 -0030 01230 -0034+
0710610 17137250 67680 2014 01 11 09 11 3013 11 07 00 01
00843 0084 00845 0084 00848 0086 00851 0087 00850 0085 00854 0087+
0698060 15820000 67950 2014 01 11 09 11 3023 11 07 00 01
00587 0050 00583 0046 00587 0051 00581 0044 00583 0047 00581 0045++
7777

0000191300
025
SZAU01 AMMC 110918
CREX++
T000103 A001 D01021 D06025++
-1927750 14705860 59260 2014 01 11 09 11 3030 11 07 00 01
02511 0178 02507 0175 02506 0176 02506 0177 02504 0177 02500 0175+
-2316110 15079000 59670 2014 01 11 09 11 3003 11 07 00 01
03503 0199 03503 0204 03513 0217 03515 0222 03520 0232 03517 0232+
-3447330 15091170 60420 2014 01 11 09 11 2950 11 07 00 01
00945 -0002 00944 -0001 00937 -0005 00929 -0011 00921 -0017 00912 -0023+
-4105000 14591500 60910 2014 01 11 09 11 2888 11 07 00 01
02929 -0015 02929 -0018 02933 -0018 02937 -0018 02952 -0006 02955 -0006+
-4254640 14793080 61170 2014 01 11 09 11 2895 11 07 00 01
01303 0143 01298 0139 01290 0132 01284 0128 01280 0125 01276 0122+
-3834390 14161360 61410 2014 01 11 09 11 2905 11 07 00 01
00629 0034 00610 0014 00639 0042 00620 0022 00657 0057 00631 0031+
-3214890 13364170 62000 2014 01 11 09 11 2963 11 07 00 01
01313 0175 01313 0176 01313 0176 01310 0174 01305 0170 01304 0170+
-3387080 12189720 62080 2014 01 11 09 11 2948 11 07 00 01
00930 0090 00926 0085 00931 0089 00928 0085 00939 0095 00931 0085+
-3182560 11573860 62237 2014 01 11 09 11 2973 11 07 00 01
01015 0083 01016 0083 01005 0071 00997 0063 00985 0050 00981 0046+
-2422000 11339750 62385 2014 01 11 09 11 //// 11 07 00 01
01448 -0047 01417 -0079 01371 -0126 01359 -0138 01464 -0034 01397 -0102+
-2181670 11419110 62430 2014 01 11 09 11 //// 11 07 00 01
02129 -0057 02121 -0066 02126 -0063 02127 -0064 02121 -0071 02137 -0057+
-1800080 12221830 62650 2014 01 11 09 11 3043 11 07 00 01
06747 0093 06754 0093 06762 0095 06768 0095 06773 0096 06779 0094+
-1247190 13084580 63230 2014 01 11 09 11 3050 11 07 00 01
04657 0183 04650 0181 04644 0182 04637 0179 04629 0176 04621 0174+
-1386000 13641580 63511 2014 01 11 09 11 3043 11 07 00 01
01861 0178 01861 0177 01864 0179 01865 0179 01864 0178 01864 0177++
7777

00000000