0000110900
746
SPUS70 KWBC 102238
SPECI
KHQM 102234Z AUTO 16008KT 1 1/2SM -RA BKN014 BKN019 OVC039 A2998
     RMK AO2 P0003 TSNO $=
KMMK 102234Z AUTO 00000KT 3SM BR OVC007 01/00 A3036 RMK AO2
     T00110000 TSNO=
KAUW 102234Z AUTO 11008KT 2SM -FZRA BR OVC004 M03/M03 A2962 RMK
     AO2 FZRAB29 P0000 I1002 T10281028=
KBIV 102234Z AUTO 13009KT 4SM RA BR BKN005 OVC017 02/02 A2979 RMK
     AO2 PRESFR P0011 T00220017=
KMIA 102234Z 12009KT 10SM SCT020 SCT031 BKN210 BKN300 26/22 A3008
     RMK AO2=
KBML 102234Z AUTO 00000KT 10SM SCT023 OVC048 M05/M08 A3025 RMK AO2
     T10501083=
KBPT 102235Z 17012KT 2SM -RA BR BKN012 OVC048 19/17 A2985 RMK AO2
     RAB05 P0000=
KISW 102235Z AUTO 11007KT 1 1/4SM -SN BR OVC005 M01/M02 A2963 RMK
     AO2 FZRAE2156SNB2156 CIG 003V008 P0004 I1000 T10111022=
KMKE 102235Z 17013KT 2SM FZRA BR OVC003 01/01 A2971 RMK AO2 SFC
     VIS 2 1/2 RAB00E20FZRAB20 P0008 I1000 T00110006=
KROG 102235Z 18008KT 10SM FEW017 BKN029 OVC033 12/09 A2961 RMK
     AO2=
KSRC 102235Z AUTO 13005KT 1SM -RA BR OVC001 07/07 A2975 RMK AO2
     TSNO P0002=

0000011100
747
SPUS44 KWBC 102238
SPECI
KHQM 102234Z AUTO 16008KT 1 1/2SM -RA BKN014 BKN019 OVC039 A2998=

0000010400
748
SAJP42 KWBC 102230 RRA
METAR
RJDT 102230Z 35006KT 300V070 9999 SCT035 02/M06 Q1031=

0000024300
749
SAJP31 KWBC 102230 RRA
METAR
RJAA 102230Z 24002KT 9999 FEW025 SCT080 M05/M08 Q1024 NOSIG=
RJCC 102230Z 24006KT 220V280 8000 -SHSN FEW015 SCT035 M09/M12
     Q1018=
RJTT 102230Z 03009KT 9999 FEW030 02/M05 Q1024 NOSIG=

0000013500
750
SATH33 VTBB 102200 CCB
METAR COR VTUU 102200Z 04002KT 7000 NSC 18/17 Q1016 A3000
NOSIG
           INFO R RWY 05=

0000022400
751
FTUS71 KWBC 102239
TAF
TAF AMD KLCK 102234Z 1023/1118 17009KT P6SM BKN010
     FM110300 17010KT 5SM BR VCSH OVC015
     FM110700 17012KT 4SM -RA BR OVC008
     FM111400 23014G23KT P6SM VCSH OVC012=

0000023000
752
FTUS72 KWBC 102239 AAA
TAF AMD
KCSV 102235Z 1023/1118 17006G14KT P6SM OVC006
     FM110300 17012G22KT 4SM -SHRA BR OVC003
     FM110800 18012G22KT 2SM SHRA BR OVC003
     FM111600 25010G20KT P6SM OVC015=

0000019900
753
FTUS75 KWBC 102239
TAF
TAF PASC 102232Z 1023/1118 25013KT 4SM BR SCT025 BKN040
      TEMPO 1023/1102 3SM -SN BR BKN025
     FM110200 25018KT 3SM BR BLSN FEW015 BKN025 OVC035=

0000014300
754
FTUS75 KWBC 102239 AAA
TAF AMD
PAOR 102237Z 1023/1118 VRB03KT 6SM -SN SCT020 BKN060
     FM110600 00000KT 4SM BR BKN020=

0000017300
755
SAUS71 KWBC 102200 RRF
METAR
KLCK 102235Z AUTO 14005KT 10SM SCT008 SCT065 OVC080 07/05
     A3000=
KPQI 102235Z AUTO 18004KT 10SM CLR M09/M18 A3025=

0000021000
756
SAUS73 KWBC 102200 RRF
METAR
KCIU 102235Z AUTO 15012KT 4SM OVC008 M02/M02 A2987=
KELO 102233Z AUTO 19006KT 2SM -SN OVC009 M05/M06 A2951=
KLBL 102235Z AUTO 33016KT 10SM CLR 10/M12 A2970=

0000010500
757
SAUS74 KWBC 102200 RRD
METAR
KOTH 102235Z 19012G19KT 10SM FEW020 OVC038 12/09 A3013=

0000030700
758
SAUS75 KWBC 102200 RRD
METAR
PADK 102236Z AUTO 23014G27KT 10SM FEW036 SCT046 OVC055 03/M01
     A2894=
PAGS 102236Z AUTO 13008KT 10SM SCT028 BKN035 OVC060 03/01
     A2948=
PAUN 102236Z AUTO 08018KT 10SM CLR M14/M21 A2959=
PAVD 102236Z 10SM FEW005 FEW020 BKN100 M02/M05 A2938=

0000023300
759
FTHW31 KWBC 102239 AAA
TAF AMD
PHNL 102237Z 1023/1124 03011KT P6SM VCSH SCT025 BKN035
      TEMPO 1023/1101 5SM SHRA BKN025
     FM110800 03005KT P6SM FEW030 SCT050
     FM112100 13008KT P6SM FEW030 SCT050=

0000023000
760
FTUS52 KWBC 102239 AAA
TAF AMD
KCSV 102235Z 1023/1118 17006G14KT P6SM OVC006
     FM110300 17012G22KT 4SM -SHRA BR OVC003
     FM110800 18012G22KT 2SM SHRA BR OVC003
     FM111600 25010G20KT P6SM OVC015=

0000038200
761
FTUS80 KWBC 102239
TAF
TAF AMD KLCK 102234Z 1023/1118 17009KT P6SM BKN010
     FM110300 17010KT 5SM BR VCSH OVC015
     FM110700 17012KT 4SM -RA BR OVC008
     FM111400 23014G23KT P6SM VCSH OVC012=
TAF PASC 102232Z 1023/1118 25013KT 4SM BR SCT025 BKN040
      TEMPO 1023/1102 3SM -SN BR BKN025
     FM110200 25018KT 3SM BR BLSN FEW015 BKN025 OVC035=

0000050800
762
FTUS80 KWBC 102239 AAA
TAF AMD
KCSV 102235Z 1023/1118 17006G14KT P6SM OVC006
     FM110300 17012G22KT 4SM -SHRA BR OVC003
     FM110800 18012G22KT 2SM SHRA BR OVC003
     FM111600 25010G20KT P6SM OVC015=
PAOR 102237Z 1023/1118 VRB03KT 6SM -SN SCT020 BKN060
     FM110600 00000KT 4SM BR BKN020=
PHNL 102237Z 1023/1124 03011KT P6SM VCSH SCT025 BKN035
      TEMPO 1023/1101 5SM SHRA BKN025
     FM110800 03005KT P6SM FEW030 SCT050
     FM112100 13008KT P6SM FEW030 SCT050=

0000011200
763
SPUS31 KWBC 102239
SPECI
KMIA 102234Z 12009KT 10SM SCT020 SCT031 BKN210 BKN300 26/22 A3008=

0000009900
764
SPUS41 KWBC 102239
SPECI
KCEF 102236Z 00000KT 8SM BKN018 OVC080 M01/M01 A3033=

0000011300
765
SPUS41 KWBC 102239
SPECI
KWRI 102235Z AUTO 03003KT 3/4SM R06/1800FT UP BR VV003 02/02 A3030=

00000000