0000011400
554
SPUR30 UKMS 110847
SPECI UKDR 110847Z 27010G16MPS CAVOK 04/M00 Q1012
1819//60 TEMPO 27010G15MPS=
0000010400
555
SAAH10 OAKB 110850
METAR OAKB 110850Z 23004KT 8000 NSC 04/M15 Q1025 NOSIG RMK BLU+ BLU+=
0000013000
556
SMKN01 HKNC 110600 RRI
AAXX 11063
63793 11580 30910 10240 20205 40158 69954 70252 83200 333 20195
58001 83820=
0000027500
557
SXHW11 KWAL 110857
15D142A4 011085702 :PRS 1 #1 1482 1481 1466 1475 1486 1469 1477 1477 1454 1462 :RAD 1 #1 7064 7062 7059 7061 7063 7058 7058 7056 7050 7054 :ENC 2 #5 4966 4958 4950 4941 :SW1 57 #60 0 :SW2 27 #60 0 :BAT 4 #5 13.0 :NAME 15D142A4  34+0NN 216W
0000009200
558
SAFJ31 NFNA 110900
METAR NFNA 110900Z 18006KT 9999 SCT023 SCT048 27/23 Q1006
0000127700
559
SOFB01 RKSL 110800
KKYY 10014 1357/ 147012 158271 88872 84660 20004 30330 43271
20009 30329 43271 20019 30330 43271 20030 30330 43271 20039 
30330 43271 20049 30330 43271 20059 30330 43271 20067 30330 
43271 20079 30305 43274 20089 30274 43281 20100 30150 43306 
20109 30145 43313 20119 30159 43322 20129 30172 43328 20138 
30192 43336 20149 30223 43345 20158 30249 43352 20169 30270 
43360 20179 30292 43367 20188 30299 43370 20198 30307 43374 
20218 30321 43380 20238 30328 43383 20258 30332 43387 20278 
30333 43390 20297 30335 43393 20318 30337 43397 20337 30338 
43399 20357 30340 43403 20377 30342 43406 20397 30340 43408 
20416 30338 43411 20436 30338 43413 20456 30337 43415 20476 
30333 43417 20495 30333 43419 20516 30331 43420 20535 30330 
43421 20555 30327 43422 20575 30324 43424 20595 30322 43425 
20614 30318 43426 20635 30315 43427 20654 30311 43428 20674 
30308 43429 20693 30304 43431 20714 30301 43432 20734 30298 
43432 20754 30296 43433 20772 30292 43434 20793 30289 43435 
20817 30284 43436 20841 30282 43437 20867 30279 43437 20891 
30275 43438 20916 30272 43439 20941 30269 43440 20965 30264 
43441 20990 30261 43442 21040 30254 43443 21089 30248 43445 
21187 30236 43447 21286 30224 43450 Q2901712=
0000009200
560
SAFJ31 NFFN 110900
METAR NFFN 110900Z 12004KT 9999 FEW030 25/21 Q1006 NOSIG=
0000012700
561
SITV20 NGFU 110900
AAXX 11094
91643 41499 53107 10286 20255 40065 51017 70122 82108 333
567/9 82819 85280=

---
0000179100
562
SZPS01 AMMC 110857
CREX++
T000103 A001 D01021 D06025++
-0204190 14737360 56130 2014 01 11 08 50 3027 11 07 00 01
00836 0153 00828 0147 00830 0152 00830 0154 00825 0152 00828 0158+
-0669280 15640860 56363 2014 01 11 08 50 //// 11 07 00 01
00416 -0062 00414 -0063 00415 -0061 00416 -0059 00413 -0061 00412 -0061+
-0942890 15995560 56670 2014 01 11 08 50 3043 11 07 00 01
00632 -0030 00630 -0030 00628 -0031 00626 -0031 00626 -0030 00623 -0031+
-1072080 16580190 57131 2014 01 11 08 50 //// 11 07 00 01
02665 2377 02412 2125 01351 1066 02178 1894 02433 2150 03066 2784+
-1551560 16718860 57210 2014 01 11 08 50 //// 11 07 00 01
00357 -0101 00371 -0086 00372 -0083 00369 -0084 00373 -0078 00378 -0072+
-1775690 16830030 57320 2014 01 11 08 50 3017 11 07 00 01
00478 -0081 00476 -0081 00472 -0083 00468 -0085 00464 -0086 00460 -0088+
-4397330 16861610 65180 2014 01 11 08 50 2887 11 07 00 01
02365 0371 02383 0391 02364 0374 02361 0373 02370 0385 02364 0381+
-2120470 -15978530 65980 2014 01 11 08 50 3013 11 07 00 01
00432 -0002 00392 -0041 00402 -0031 00448 0016 00441 0010 00420 -0010+
-2113810 -17518140 66600 2014 01 11 08 50 //// 11 07 00 01
00649 0086 00648 0087 00647 0087 00646 0087 00651 0094 00644 0088+
-1382670 -17176110 66840 2014 01 11 08 50 3012 11 07 00 01
00475 0059 00470 0054 00472 0056 00471 0055 00468 0052 00474 0058+
-1813250 17842750 67050 2014 01 11 08 50 3030 11 07 00 01
00756 0102 00755 0103 00755 0104 00753 0104 00752 0105 00748 0103+
-1760530 17743810 67070 2014 01 11 08 50 3033 11 07 00 01
00715 0024 00711 0022 00706 0019 00703 0018 00701 0018 ///// ////+
-0850250 17919500 67440 2014 01 11 08 50 3028 11 07 00 01
01574 0033 01574 0033 01572 0032 01565 0024 01572 0031 01569 0028++
7777

0000034600
563
SZIO01 AMMC 110857
CREX++
T000103 A001 D01021 D06025++
-1211670 09689190 46280 2014 01 11 08 50 3022 11 07 00 01
01205 0009 01200 0005 01205 0012 01202 0010 01207 0017 01196 0007+
-1042940 10566940 46290 2014 01 11 08 50 //// 11 07 00 01
01417 0000 01396 -0022 01394 -0024 01402 -0016 01396 -0022 01411 -0007++
7777

0000047300
564
SZPA01 AMMC 110857
CREX++
T000103 A001 D01021 D06025++
0136250 17293000 67590 2014 01 11 08 50 3017 11 07 00 01
01212 -0028 01214 -0027 01208 -0033 01209 -0033 01210 -0033 01212 -0031+
0710610 17137250 67680 2014 01 11 08 50 3013 11 07 00 01
00802 0066 00804 0067 00805 0067 00800 0061 00799 0059 00806 0066+
0698060 15820000 67950 2014 01 11 08 50 3023 11 07 00 01
00608 0067 00605 0064 00600 0059 00594 0054 00595 0055 00597 0057++
7777

0000191500
565
SZAU01 AMMC 110857
CREX++
T000103 A001 D01021 D06025++
-1927750 14705860 59260 2014 01 11 08 50 3030 11 07 00 01
02519 0168 02516 0166 02515 0165 02518 0168 02518 0169 02518 0169+
-2316110 15079000 59670 2014 01 11 08 50 3003 11 07 00 01
03570 0207 03568 0206 03561 0202 03551 0194 03544 0190 03530 0177+
-3447330 15091170 60420 2014 01 11 08 50 2950 11 07 00 01
00961 -0034 00956 -0037 00954 -0036 00955 -0033 00955 -0031 00954 -0030+
-4105000 14591500 60910 2014 01 11 08 50 2888 11 07 00 01
02818 -0033 02822 -0035 02838 -0024 02844 -0023 02841 -0031 02842 -0035+
-4254640 14793080 61170 2014 01 11 08 50 2893 11 07 00 01
01314 0130 01313 0130 01306 0124 01303 0122 01317 0137 01320 0142+
-3834390 14161360 61410 2014 01 11 08 50 2905 11 07 00 01
00587 0013 00560 -0015 00625 0049 00583 0006 00624 0046 00556 -0023+
-3214890 13364170 62000 2014 01 11 08 50 2963 11 07 00 01
01322 0169 01322 0170 01322 0171 01322 0171 01321 0170 01321 0171+
-3387080 12189720 62080 2014 01 11 08 50 2948 11 07 00 01
00902 0087 00898 0082 00906 0089 00896 0078 00908 0089 00912 0092+
-3182560 11573860 62237 2014 01 11 08 50 2973 11 07 00 01
00992 0074 00996 0077 00994 0074 00995 0075 00992 0071 00997 0075+
-2422000 11339750 62385 2014 01 11 08 50 //// 11 07 00 01
01370 -0108 01431 -0047 01410 -0070 01319 -0162 01397 -0084 01402 -0080+
-2181670 11419110 62430 2014 01 11 08 50 //// 11 07 00 01
02091 -0056 02104 -0044 02088 -0063 02091 -0062 02096 -0058 02098 -0059+
-1800080 12221830 62650 2014 01 11 08 50 3043 11 07 00 01
06598 0082 06607 0082 06616 0085 06624 0088 06631 0085 06638 0087+
-1247190 13084580 63230 2014 01 11 08 50 3050 11 07 00 01
04804 0211 04798 0212 04790 0208 04782 0206 04773 0204 04766 0202+
-1386000 13641580 63511 2014 01 11 08 50 3043 11 07 00 01
01803 0137 01805 0138 01811 0143 01815 0146 01820 0150 01826 0155++
7777

0000010800
566
UANT99 KDDL 110856
ARP THY6 5653N04145W 0856 F350 MS57 262/39 KT
TCJND QXT AOW 110856 J29A
0000009700
567
SAPK31 OPST 110855
METAR OPST 110900Z 31010KT 4000 HZ NSC 18/04 Q1019 NOSIG RH40=
0000009400
568
SAGU31 MGGT 110900
METAR
MGGT 110900Z 36010KT 9999 SCT014 14/13 Q1025 A3027=
0000012200
569
SMAI41 FHAW 110600 CCA
AAXX 11064 61902 12480 11312 10234 20189 40126 69904 81100 333 20232 59007
81818=
0000011000
570
UANT01 CWAO 110856
ARP XLF057 4659N02957W 0856 F400 MS48 217/62 KT
FGRSQ DDL XXN 110856 J01A
0000008600
571
SACY42 EGRR 110850
METAR LCRA 110850Z 28008KT 9999 FEW035 17/07 Q1023=
0000009400
572
SAIN90 VECO 110700
METAR VECO 110700Z 30003KT 5000  HZ SCT100  19/12 Q1018=

0000011900
573
SIHE20 EGRR 110900
AAXX 11094
61901 469// /1011 10192 20171 39679 40184 51020 333 8//99 555
 7/090=
00000000