0000079200
746
USAA01 NZCM 110000
TTAA 61001 89664
99997 00056 18501 00512 ///// ///// 92601 07158 18518
85255 11341 17017 70716 21114 15006 50514 33959 24513
40666 44759 24520 30855 51765 24023 25975 45585 24514
20124 43786 24513 15318 43586 26009 10592 41586 23504
88320 52361 23026
77999
31313 48008 82219=

0000069700
87361=
0000011200
87368
0000009600
87371
0000035800
87378
0000037300
87381
0000039400
87385
0000039400
87407
0000041500
87411
0000014600
87417
0000045700
87421
0000049900
87440
0000052000
87462
0000050000
87472
0000005900
87495
0000058300
87519
0000056300
87548
0000056300
87600=
0000052300
88063=
0000060700
89449
0000062800
90134
0000064900
91140
0000062800
92415
0000054400
747
USAA01 NZCM 110000
TTAA 61001 89664
99997 00056 18501 00512 ///// ///// 92601 07158 18518
85255 11341 17017 70716 21114 15006 50514 33959 24513
40666 44759 24520 30855 51765 24023 25975 45585 24514
20124 43786 24513 15318 43586 26009 10592 41586 23504
88320 52361 23026
77999
31313 48008 82219=

0000069700
87361=
0000011200
87368=
0000015000
87382=
0000030600
87414=
0000011000
87481=
0000054200
87583
0000058400
87642
0000062600
87763=
0000060600
88809
0000077200
89269=
0000071000
748
USAA01 NZCM 110000
TTAA 61001 89664
99997 00056 18501 00512 ///// ///// 92601 07158 18518
85255 11341 17017 70716 21114 15006 50514 33959 24513
40666 44759 24520 30855 51765 24023 25975 45585 24514
20124 43786 24513 15318 43586 26009 10592 41586 23504
88320 52361 23026
77999
31313 48008 82219=

0000069700
87361=
0000011200
87368
0000009600
87371
0000035800
87378
0000037300
87381
0000039400
87385
0000039400
87407=
0000012000
87430
0000054000
87439
0000049900
87460=
0000048000
87541
0000054200
87545
0000052200
87598
0000054300
87659=
0000060600
88221=
0000054500
90111
0000069000
91075
0000060800
92355
0000066800
749
USAA01 NZCM 110000
TTAA 61001 89664
99997 00056 18501 00512 ///// ///// 92601 07158 18518
85255 11341 17017 70716 21114 15006 50514 33959 24513
40666 44759 24520 30855 51765 24023 25975 45585 24514
20124 43786 24513 15318 43586 26009 10592 41586 23504
88320 52361 23026
77999
31313 48008 82219=

0000069700
87361=
0000011200
87368=
0000015000
87382
0000012800
87386
0000045600
87406
0000047700
87410
0000049800
87416
0000051900
87420
0000047800
87441
0000045800
87463
0000047900
87474
0000054100
87493
0000052100
87509=
0000048100
87737=
0000050300
88793
0000058600
89265=
0000077100
750
USAA01 NZCM 110000
TTAA 61001 89664
99997 00056 18501 00512 ///// ///// 92601 07158 18518
85255 11341 17017 70716 21114 15006 50514 33959 24513
40666 44759 24520 30855 51765 24023 25975 45585 24514
20124 43786 24513 15318 43586 26009 10592 41586 23504
88320 52361 23026
77999
31313 48008 82219=

0000069700
87361=
0000011200
87368
0000009600
87371
0000035800
87378
0000037300
87381
0000039400
87385
0000039400
87407
0000041500
87411
0000014600
87417
0000045700
87421
0000049900
87440
0000052000
87462=
0000050100
87574
0000050100
87625
0000054300
87671
0000060500
87795
0000056400
87969
0000062600
88165=
0000066900
90057
0000062800
91026
0000067000
92334
0000066800
751
USAA01 NZCM 110000
TTAA 61001 89664
99997 00056 18501 00512 ///// ///// 92601 07158 18518
85255 11341 17017 70716 21114 15006 50514 33959 24513
40666 44759 24520 30855 51765 24023 25975 45585 24514
20124 43786 24513 15318 43586 26009 10592 41586 23504
88320 52361 23026
77999
31313 48008 82219=

0000069700
87361=
0000011200
87368=
0000015000
87382
0000012800
87386
0000045600
87406
0000047700
87410
0000049800
87416
0000051900
87420
0000047800
87441=
0000045900
87536
0000052100
87559
0000054200
87603
0000052200
87665
0000060500
87771=
0000062700
88820
0000056500
89281=
0000079200
752
USAA01 NZCM 110000
TTAA 61001 89664
99997 00056 18501 00512 ///// ///// 92601 07158 18518
85255 11341 17017 70716 21114 15006 50514 33959 24513
40666 44759 24520 30855 51765 24023 25975 45585 24514
20124 43786 24513 15318 43586 26009 10592 41586 23504
88320 52361 23026
77999
31313 48008 82219=

0000069700
87361=
0000011200
87368
0000009600
87371
0000035800
87378
0000037300
87381
0000039400
87385
0000039400
87407
0000041500
87411
0000014600
87417
0000045700
87421
0000049900
87440
0000052000
87462
0000050000
87472
0000005900
87495
0000058300
87519
0000056300
87548=
0000056400
87866
0000052300
88017=
0000054500
89423
0000073100
90093
0000069000
91054
0000071100
92343
0000062700
753
USAA01 NZCM 110000
TTAA 61001 89664
99997 00056 18501 00512 ///// ///// 92601 07158 18518
85255 11341 17017 70716 21114 15006 50514 33959 24513
40666 44759 24520 30855 51765 24023 25975 45585 24514
20124 43786 24513 15318 43586 26009 10592 41586 23504
88320 52361 23026
77999
31313 48008 82219=

0000069700
87361=
0000011200
87368=
0000015000
87382=
0000030600
87414
0000014800
87423
0000049900
87438=
0000050000
87532
0000048000
87568=
0000056400
87875
0000058500
88018
0000058500
88206
0000064800
88487
0000075100
88782
0000062700
89263=
0000066800
754
USAA01 NZCM 110000
TTAA 61001 89664
99997 00056 18501 00512 ///// ///// 92601 07158 18518
85255 11341 17017 70716 21114 15006 50514 33959 24513
40666 44759 24520 30855 51765 24023 25975 45585 24514
20124 43786 24513 15318 43586 26009 10592 41586 23504
88320 52361 23026
77999
31313 48008 82219=

0000069700
87361=
0000011200
87368
0000009600
87371
0000035800
87378
0000037300
87381
0000039400
87385
0000039400
87407
0000041500
87411
0000014600
87417=
0000041700
87480=
0000060400
87592
0000056300
87635=
0000048200
88216=
0000062800
90071
0000060800
91057
0000062900
92336
0000060600
755
USAA01 NZCM 110000
TTAA 61001 89664
99997 00056 18501 00512 ///// ///// 92601 07158 18518
85255 11341 17017 70716 21114 15006 50514 33959 24513
40666 44759 24520 30855 51765 24023 25975 45585 24514
20124 43786 24513 15318 43586 26009 10592 41586 23504
88320 52361 23026
77999
31313 48008 82219=

0000069700
87361=
0000011200
87368
0000009600
87371
0000035800
87378
0000037300
87381=
0000039500
87413
0000041600
87422
0000043700
87443
0000045800
87466=
0000054200
87540=
0000048100
87746=
0000050300
88800
0000064800
89261=
0000011800
756
SMCI06 BABJ 101800 CCB
AAXX 10181
58314 12/// 91601 10037 21003 30204 40314 52002 69911 333
10064=
0000011000
757
SMCI38 BABJ 101800 CCA
AAXX 10181
55279 32/72 92205 11101 21350 35655 52002 333 00053 11030=
0000039200
758
SMCI01 BABJ 110000 RRA
AAXX 11001
50468 32970 03201 11355 21388 30040 40281 52010 333 00453
92517=
53513 32980 12204 11127 21227 39071 40384 52008 81/// 333
00106=
53588 32480 42707 11122 21287 37798 57002 84/// 333 00304=
54337 42940 32501 11127 21167 30230 40319 52002 83/// 333
00103 92501=
54497 41957 00703 11118 21131 30313 40333 52008 710// 333
00102=
0000059800
759
SMCI02 BABJ 110000 RRA
AAXX 11001
58040 31906 70000 11030 21034 30335 40343 52004 742// 87///
333 00001 31033=
58102 32962 50902 10011 21043 30284 40334 52010 85/// 333
00101 31033=
58221 31927 70702 10010 21008 30297 40333 52014 710// 87///
333 00005 31012=
58238 31736 80905 10039 21005 30278 40324 52005 705// 88///
333 05104 30030=
58251 31936 80902 10022 21012 30328 40334 54000 705// 88///
333 05103 30000=
59287 31961 70000 10120 20090 30169 40257 52012 710// 87///
333 05101=
59316 31755 60401 10136 20086 30263 40272 52016 705// 86///
333 05101=
0000037300
760
SMCI03 BABJ 110000 RRA
AAXX 11001
50745 32963 70000 11239 21262 30076 40280 52005 87/// 333
00200 92502=
50774 11656 72501 11311 21339 39914 40276 52008 69902 770//
87/// 333 00201 79999 92528=
50788 32970 22001 11269 21309 30152 40248 57001 82/// 333
00253 31025 92521=
54102 32966 71802 11177 21250 39073 40366 57001 87/// 333
00204 92504=
0000010400
761
SICI38 BABJ 102100 CCB
AAXX 10211
55279 32/80 92703 11113 21310 35667 52012 333 00151=
0000037600
762
SMCI01 BABJ 110000 RRB
AAXX 11001
51243 32965 23402 11235 21268 39864 40485 57009 82/// 333
00351 92508=
51288 32980 01103 11151 21217 38429 57005 333 00503 92505=
51463 32980 02205 11116 21204 39239 40426 57012 333 00202
31019 92525=
51573 32965 02701 11127 21177 30411 40459 52007 333 00751=
52983 32980 02501 11149 21201 38192 52018 333 00653=
0000011800
763
SMCI01 BABJ 110000 CCA
AAXX 11001
54401 32963 72902 11150 21240 39379 40369 52004 87/// 333
00102=
0000058600
764
SMCI02 BABJ 110000 RRB
AAXX 11001
57265 11959 82902 10020 20011 30168 40337 52010 69991 710//
88/// 333 00500 30020 70022=
58362 32962 80704 10062 20015 30322 40331 52008 88/// 333
05207 30023=
58457 11908 83201 10045 20039 30261 40315 52007 60021 760//
88/// 333 05304 30043 70021=
58752 31756 82902 10086 20034 40304 52006 705// 88/// 333
05305=
58847 32563 83202 10103 20061 30182 40287 52007 88/// 333
05303=
59134 32760 83202 10123 20080 30101 40272 52014 88/// 333
05203=
59758 32665 70703 10193 20178 30141 40218 52017 87/// 333
05102=
0000047300
765
SMCI03 BABJ 110000 RRB
AAXX 11001
51133 32980 00000 11148 21181 39693 40395 57017 333 05251
92512=
51431 32980 01401 11181 21208 39529 40393 57020 333 05401
31048 92520=
52203 32980 00201 11183 21229 39507 40477 52008 333 00751=
53646 32970 73401 11115 21219 38949 40373 52008 87/// 333
00304=
53798 31909 72201 11037 21095 30226 40327 57003 705// 87///
333 00151=
54423 31941 20000 11164 21229 39795 40351 52003 705// 82///
333 00102=
00000000