0000010900
886
SPUS44 KWBC 102342
SPECI
KNUW 102339Z 09009KT 10SM -RA FEW010 BKN020 OVC080 09/06 A2994=

0000010100
887
SPUS44 KWBC 102342
SPECI
KRNT 102338Z 15004KT 9SM -RA SCT024 OVC041 09/07 A2999=

0000008100
888
SAEA20 HKNC 102300 RRA
METAR HKKT 102300Z 00000KT CAVOK 14/09=

0000024800
889
FTCN33 CWAO 102300 AAA
TAF AMD CYDB 102343Z 1100/1112 29005KT P6SM FEW015 BKN140 TEMPO
     1100/1109 5SM -SN BKN005
    FM110900 VRB03KT P6SM SCT020 BKN040 TEMPO 1109/1112 5SM -SN
     BKN020
    RMK NXT FCST BY 110600Z=

0000011000
890
SPUS31 KWBC 102343
SPECI
KEWR 102339Z 03005KT 1SM R04R/P6000FT -DZ BR OVC003 01/01 A3034=

0000012200
891
SATU31 LTAA 102320 RRA
METAR LTFC 102320Z 00000KT 0300 R05/0400U R23/0400U FZFG VV001
 M04/M04 Q1023=

0000189000
892
SPUS70 KWBC 102346
SPECI
KAMW 102342Z AUTO 00000KT 2 1/2SM BR OVC003 00/00 A2954 RMK AO2
     T00000000 $=
KCXY 102342Z 09004KT 2 1/2SM BR OVC005 01/M01 A3030 RMK AO2=
KDVN 102342Z AUTO 17007KT 4SM -RA BR OVC005 02/02 A2954 RMK AO2
     UPB2259E02 P0005=
KEET 102342Z AUTO 11003KT 10SM OVC004 11/11 A3001 RMK AO2
     T01110106=
KGLS 102342Z 18012KT 2SM +RA BR FEW002 BKN011 OVC017 17/17 A2984
     RMK AO2 P0005=
KHUF 102342Z 15010KT 3SM -RA OVC004 05/ A2980 RMK AO2 P0006 $=
KMFI 102342Z AUTO 10007KT 2 1/2SM -SN BR OVC014 M02/M03 A2957 RMK
     AO2 P0002 T10171033=
KMKE 102342Z 15015KT 4SM -FZRA BR OVC005 02/01 A2964 RMK AO2 P0011
     I1000 T00220011=
KOGB 102342Z AUTO 35003KT 9SM -RA BKN005 BKN015 OVC060 13/12 A3013
     RMK AO2 RAB30 P0000 T01280117 TSNO=
KPSF 102342Z AUTO 16003KT 8SM OVC008 00/M02 A3026 RMK AO2=
KRDG 102342Z 00000KT 1 1/2SM BR OVC006 01/M01 A3030 RMK AO2 TWR
     VIS 3=
KSEG 102342Z AUTO 00000KT 3SM BR BKN015 BKN050 M01/M02 A3027 RMK
     AO2 T10061022=
KTAN 102341Z AUTO 00000KT 3/4SM BR VV003 02/00 A3037 RMK AO2
     T00220000=
KWST 102342Z AUTO 06003KT 3/4SM -RA BR VV003 02/01 A3037 RMK AO2
     RAE05B21 P0000 T00170011=
KY50 102342Z AUTO 09006KT 6SM UP OVC002 M01/ A2960 RMK AO2 TSNO
     UPB36FZRAE36 P0000 $=
KTDR 102341Z AUTO 13006KT 5SM BR OVC003 17/ A3007 RMK AO2 $=
KHFF 102334Z 01004KT 7SM -RA BKN003 OVC034 09/09 A3018 RMK AO2=
KALO 102343Z AUTO 00000KT 1 3/4SM BR BKN005 OVC010 00/00 A2953 RMK
     AO2 UPB07E18 P0001 T00000000 TSNO=
KCQX 102343Z AUTO 18007KT 8SM OVC014 04/02 A3039 RMK AO2
     T00390017=
KFSM 102343Z 08004KT 7SM SCT002 OVC029 10/09 A2963 RMK AO2=
KLAF 102343Z 16010KT 5SM -RA BR FEW009 BKN034 OVC043 04/03 A2977
     RMK AO2 P0006 T00390033=
KTTN 102343Z 02003KT 3/4SM UP BR OVC002 01/00 A3032 RMK AO2
     RAB17E29UPB29 P0000=

0000009400
893
SPUS41 KWBC 102346
SPECI
KABE 102342Z 00000KT 2SM BR OVC007 01/M01 A3031=

0000011100
894
SPUS42 KWBC 102346
SPECI
KGLS 102342Z 18012KT 2SM +RA BR FEW002 BKN011 OVC017 17/17 A2984=

0000016600
895
SAAF18 LFPW 102300 RRB
METAR FMMT 102300Z 32004KT 9999 VCSH FEW017 SCT033 26/25 Q1012=
METAR FMNM 102300Z 28002KT 9999 FEW020 SCT230 24/23 Q1011=

0000008800
896
SPCN31 CWAO 102345
SPECI CYFB 102345Z 32002KT 15SM FEW035 RMK SC1 IC=

0000009900
897
SPCN47 CWAO 102346
SPECI CYWA 102346Z AUTO 13006KT 2 1/2SM OVC003 M04/M05 A3011=

0000010500
898
SAAB31 LATI 102350
METAR LATI 102350Z 16003KT 5000 BR SCT035 BKN056 11/09 Q1022 NOSIG=

0000009900
899
SPUS43 KWBC 102346
SPECI
KMKE 102342Z 15015KT 4SM -FZRA BR OVC005 02/01 A2964=

0000019900
900
FTCN34 CWAO 102300 AAA
TAF AMD CYQD 102348Z 1023/1107 VRB03KT P6SM OVC012 TEMPO 1023/1107
     3SM -SN BKN006 OVC010
     BECMG 1101/1103 28007KT
    RMK NXT FCST BY 110100Z=

0000013200
901
SAEO32 EETN 102350
METAR EETU 102350Z AUTO 32012KT 7000NDV -SN FEW003/// SCT007///
OVC009/// 01/M01 Q0990 RESG=

0000094800
902
FTUS51 KWBC 102348
TAF
KBGM 102345Z 1100/1124 17006KT P6SM OVC012
      TEMPO 1100/1104 OVC009
     FM110400 17008KT P6SM OVC009
     FM110700 17009KT 4SM BR OVC007 WS020/21050KT
      TEMPO 1108/1112 2SM -SHRA BR OVC005
     FM111200 17012KT P6SM -SHRA OVC005
     FM112000 20011KT 3SM SHRA BR OVC007=
KELM 102345Z 1100/1124 12006KT P6SM OVC015
     FM110400 14008KT P6SM FEW009 OVC012
      TEMPO 1104/1108 OVC009
     FM110800 17010KT 3SM -SHRA OVC009 WS020/21050KT
     FM111200 18011KT P6SM -SHRA SCT009 OVC012
     FM111800 23010KT P6SM -SHRA OVC009
      TEMPO 1119/1123 3SM SHRA=
KITH 102345Z 1100/1124 16006KT P6SM SCT015 BKN035
      TEMPO 1101/1105 OVC015
     FM110700 17009KT 4SM BR OVC010 WS020/21050KT
      TEMPO 1108/1112 2SM -SHRA BR OVC007
     FM111200 17012KT P6SM -SHRA OVC007
     FM111800 17011KT 3SM SHRA BR OVC012
     FM112200 21010KT P6SM OVC009 AMD NOT SKED=

0000029600
903
FTUS52 KWBC 102348 AAA
TAF AMD
KTRI 102344Z 1100/1124 00000KT P6SM SCT040 OVC120
     FM110400 00000KT 6SM BR SCT020 OVC035
     FM110900 VRB04KT 4SM BR VCSH SCT012 OVC026
     FM111200 23008KT 3SM RA BR SCT004 OVC008
     FM112200 22012G24KT P6SM VCSH SCT015 OVC025=

0000029000
904
FTUS53 KWBC 102348 RRA
TAF
KSPI 102346Z 1100/1124 17013G23KT 6SM -RA OVC006
     FM110200 18014G22KT 6SM BR OVC005
     FM110600 24012KT 3SM BR OVC004
     FM111400 26012G18KT P6SM OVC015
     FM111700 27014G22KT P6SM BKN025
     FM112100 27014KT P6SM SCT250=

0000143600
905
FTUS53 KWBC 102348
TAF
KBFF 102346Z 1100/1124 32012G22KT P6SM BKN090
     FM110300 30012KT P6SM SCT090
     FM110800 29014KT P6SM SCT090
     FM111600 30018G30KT P6SM SCT090=
KCDR 102346Z 1100/1124 27009KT P6SM BKN070
     FM110400 28012KT P6SM SCT070
     FM110700 28015G25KT P6SM SCT070
     FM111600 26010KT P6SM SCT070
     FM111900 26013G24KT P6SM SCT070=
KCMI 102346Z 1100/1124 16017G27KT 4SM -RA BR OVC003
     FM110400 19012G18KT 2SM BR OVC004
     FM110600 24012KT 3SM BR OVC004
     FM111400 26012G18KT P6SM OVC015
     FM111800 27014G22KT P6SM BKN025
     FM112200 27014KT P6SM SCT250=
KCYS 102346Z 1100/1124 30024G37KT P6SM SCT120
     FM110200 29022G31KT P6SM SCT120
     FM110600 29030G41KT P6SM SCT120
     FM111600 27026G38KT P6SM SCT120=
KDEC 102346Z 1100/1124 16015G25KT 6SM -RA OVC005
     FM110300 18012G20KT 5SM BR OVC004
     FM110600 24012KT 3SM BR OVC004
     FM111400 26012G18KT P6SM OVC015
     FM111800 27014G22KT P6SM BKN025
     FM112200 27014KT P6SM SCT250=
KLAR 102346Z 1100/1124 28025G38KT P6SM BKN090
     FM110600 27029G44KT P6SM SCT090
     FM111900 24027G40KT P6SM SCT090=
KRWL 102346Z 1100/1124 27027G42KT P6SM BKN080
     FM110200 26031G45KT P6SM OVC050
      TEMPO 1102/1106 2SM -SN OVC025
     FM110600 25030G42KT 2SM -SN OVC015
     FM111100 25028G40KT 1SM -SN BR OVC009
     FM111500 24028G44KT P6SM BKN040=

00000000