0000009900
066
SAEA20 HKNC 110100 RRC
METAR HKMO 110100Z 32004KT 9999 BKN018 25/23 Q1012 NOSIG=

0000009900
067
SAKN20 HKNC 110100 RRA
METAR HKMO 110100Z 32004KT 9999 BKN018 25/23 Q1012 NOSIG=

0000027100
068
FTCN36 CWAO 110100
TAF CYGV 110138Z 1102/1114 27010KT P6SM BKN025 OVC070 TEMPO 1102/1106
     3SM -SN OVC020
    FM110600 27008KT P6SM SCT020 BKN070 TEMPO 1106/1114 6SM -SN
     BKN020 OVC070
    RMK FCST BASED ON AUTO OBS. NXT FCST BY 110800Z=

0000018800
069
FTCN36 CWAO 110100
TAF CYGP 110138Z 1102/1114 27008KT P6SM FEW030 SCT100
     BECMG 1107/1109 VRB03KT
    FM111200 VRB03KT P6SM SCT020
    RMK NXT FCST BY 110800Z=

0000043300
070
FTCN35 CWAO 110100
TAF CYTZ 110138Z 1102/1202 09006KT P6SM OVC015 TEMPO 1102/1106 5SM
     -DZ BR OVC008
    FM110600 06008KT 6SM -RA BR OVC010 TEMPO 1106/1107 2SM -RA BR
     OVC005
    FM110700 12008KT 1SM -RA BR OVC003
    FM110900 16008KT 1/2SM -RA FG VV002
    FM111400 20010KT 11/2SM -RA BR OVC003
    FM112200 23015G25KT P6SM -SHRA OVC012
    RMK FCST BASED ON AUTO OBS. NXT FCST BY 110800Z=

0000034500
071
FTCN36 CWAO 110100
TAF CYBC 110138Z 1102/1114 27008KT P6SM BKN015 TEMPO 1102/1106 SCT015
    FM110600 25008KT P6SM SCT005 OVC010 TEMPO 1106/1110 3SM -SN -FZDZ
     BR BKN005 OVC010
    FM111000 22006KT 21/2SM -SN -FZDZ BR OVC004 TEMPO 1110/1114 6SM
     BR OVC007
    RMK FCST BASED ON AUTO OBS. NXT FCST BY 110800Z=

0000025500
072
FTCN36 CWAO 110100
TAF CYYY 110138Z 1102/1114 22012KT P6SM FEW030 SCT100
    FM110600 21010KT P6SM BKN030
    FM111000 19008KT P6SM OVC025 TEMPO 1110/1114 P6SM -SN OVC020
     BECMG 1110/1112 16010KT
    RMK NXT FCST BY 110800Z=

0000013000
073
FTCN37 CWAO 110100
TAF CZBF 110138Z 1102/1104 VRB03KT P6SM FEW120
    RMK NXT FCST WILL BE ISSUED AT 110945Z=

0000015600
074
FTCN35 CWAO 110100
TAF CYKF 110138Z 1102/1105 16006KT 1SM BR OVC003
    RMK FCST BASED ON AUTO OBS. NXT FCST WILL BE ISSUED AT 111045Z=

0000027500
075
FTCN36 CWAO 110100
TAF CYNA 110138Z 1102/1114 28012KT 3SM -SN OVC015 TEMPO 1102/1108
     P6SM -SN BKN025 OVC070
    FM110800 28010KT P6SM SCT020 BKN070 TEMPO 1108/1114 6SM -SN
     BKN020 OVC070
    RMK FCST BASED ON AUTO OBS. NXT FCST BY 110800Z=

0000016700
076
FTCN35 CWAO 110100
TAF CYGK 110138Z 1102/1104 14004KT P6SM OVC025 TEMPO 1102/1104 5SM BR
     OVC020
    RMK NXT FCST WILL BE ISSUED AT 111245Z=

0000009800
077
SPCN46 CWAO 110137
SPECI CYRB 110137Z 25009KT 4SM -SN SCT030 OVC060 RMK SC2SC4=

0000026400
078
FTCN34 CWAO 110100
TAF CYQK 110138Z 1102/1114 17010KT 11/2SM -SN BR OVC003 TEMPO
     1102/1110 3SM BR OVC008
     BECMG 1104/1106 23005KT
    FM111000 30008KT P6SM OVC006 TEMPO 1110/1114 6SM -SN -FZDZ OVC012
    RMK NXT FCST BY 110800Z=

0000027000
079
FTCN34 CWAO 110100
TAF CYXL 110138Z 1102/1114 18005KT 1SM -SN BR OVC006 TEMPO 1102/1105
     3SM -SN BR OVC010
    FM110500 20005KT 3SM -SN BR OVC006 TEMPO 1105/1114 6SM BR OVC012
     PROB40 1108/1114 2SM -FZDZ BR
    RMK NXT FCST BY 110800Z=

0000025300
080
FTCN34 CWAO 110100
TAF CYTL 110138Z 1102/1114 11005KT P6SM -SN OVC015 TEMPO 1102/1106
     5SM -SN OVC009
    FM110600 09005KT 3SM -SN OVC010 TEMPO 1106/1114 1SM -SN BR OVC006
    RMK FCST BASED ON AUTO OBS. NXT FCST BY 110800Z=

0000034800
081
FTCN34 CWAO 110100
TAF CYHD 110138Z 1102/1114 18008KT 2SM -SN BR OVC004 TEMPO 1102/1104
     6SM BR OVC010
    FM110400 20005KT 3SM -SN BR OVC004 TEMPO 1104/1113 6SM BR OVC012
     PROB40 1108/1113 2SM -FZDZ BR
    FM111300 30010KT P6SM OVC007 TEMPO 1113/1114 OVC015
    RMK FCST BASED ON AUTO OBS. NXT FCST BY 110800Z=

0000031000
082
FTUS31 KWBC 110139 AAA
TAF AMD
KATL 110136Z 1102/1206 12007KT 1/2SM -RADZ FG OVC002
     FM111000 16009KT 1SM -SHRA BR OVC004
     FM111400 21010G18KT 2SM -SHRA BR OVC007
     FM111900 27013G22KT P6SM BKN025
     FM112100 29014G23KT P6SM SCT040
     FM120000 28011KT P6SM SCT250=

0000104000
083
FTUS42 KWBC 110139 AAA
TAF AMD
KFTY 110136Z 1102/1124 10005KT 1SM -DZ BR OVC003
     FM110300 13004KT 1/2SM -RADZ FG OVC002
     FM111000 16006KT 1SM -SHRA BR OVC004
     FM111400 21009KT 2SM -SHRA BR OVC007
     FM111900 27010G18KT P6SM BKN025
     FM112100 29012G20KT P6SM SCT040=
KPDK 110137Z 1102/1124 10005KT 1SM -DZ BR OVC003
     FM110200 13004KT 1/2SM -RADZ FG OVC002
     FM111000 16006KT 1SM -SHRA BR OVC004
     FM111400 21009KT 2SM -SHRA BR OVC007
     FM111900 27010G18KT P6SM BKN025
     FM112100 29012G20KT P6SM SCT040=
KSHV 110138Z 1102/1124 20010KT P6SM BKN015 OVC025
      TEMPO 1102/1105 3SM -SHRA BR OVC004
     FM110500 23012G18KT P6SM BKN020
     FM110900 27007KT P6SM SKC
     FM111700 29014G22KT P6SM SKC=
KSSI 110137Z 1102/1124 14007KT 3SM BR OVC006
      TEMPO 1102/1104 1SM BR OVC004
     FM110400 15005KT 1SM BR OVC003
      TEMPO 1107/1111 1/4SM FG VV001
     FM111400 20010G18KT P6SM VCSH BKN015 OVC025
     FM111700 24014G23KT 5SM -SHRA OVC015=

0000030100
084
FTCN35 CWAO 110100
TAF CYTS 110138Z 1102/1114 18010KT P6SM -SN OVC015 TEMPO 1102/1106
     3SM -SN
    FM110600 14008KT 2SM -SN OVC010 TEMPO 1106/1113 1/2SM SN VV004
    FM111300 VRB03KT 3SM -SN BR OVC006 TEMPO 1113/1114 1SM -SN BR
     OVC003
    RMK NXT FCST BY 110800Z=

0000130100
085
FTUS72 KWBC 110139 AAA
TAF AMD
KATL 110136Z 1102/1206 12007KT 1/2SM -RADZ FG OVC002
     FM111000 16009KT 1SM -SHRA BR OVC004
     FM111400 21010G18KT 2SM -SHRA BR OVC007
     FM111900 27013G22KT P6SM BKN025
     FM112100 29014G23KT P6SM SCT040
     FM120000 28011KT P6SM SCT250=
KFTY 110136Z 1102/1124 10005KT 1SM -DZ BR OVC003
     FM110300 13004KT 1/2SM -RADZ FG OVC002
     FM111000 16006KT 1SM -SHRA BR OVC004
     FM111400 21009KT 2SM -SHRA BR OVC007
     FM111900 27010G18KT P6SM BKN025
     FM112100 29012G20KT P6SM SCT040=
KPDK 110137Z 1102/1124 10005KT 1SM -DZ BR OVC003
     FM110200 13004KT 1/2SM -RADZ FG OVC002
     FM111000 16006KT 1SM -SHRA BR OVC004
     FM111400 21009KT 2SM -SHRA BR OVC007
     FM111900 27010G18KT P6SM BKN025
     FM112100 29012G20KT P6SM SCT040=
KSHV 110138Z 1102/1124 20010KT P6SM BKN015 OVC025
      TEMPO 1102/1105 3SM -SHRA BR OVC004
     FM110500 23012G18KT P6SM BKN020
     FM110900 27007KT P6SM SKC
     FM111700 29014G22KT P6SM SKC=
KSSI 110137Z 1102/1124 14007KT 3SM BR OVC006
      TEMPO 1102/1104 1SM BR OVC004
     FM110400 15005KT 1SM BR OVC003
      TEMPO 1107/1111 1/4SM FG VV001
     FM111400 20010G18KT P6SM VCSH BKN015 OVC025
     FM111700 24014G23KT 5SM -SHRA OVC015=

00000000