0000039200
386
SAHK31 VHHH 110030
METAR VHHH 110030Z 08009KT 8000 NSC 16/11 Q1025 NOSIG=
METAR RCTP 110030Z VRB04KT 9999 FEW020 BKN100 18/13 Q1025 NOSIG
RMK A3027=
METAR RCKH 110030Z 04004KT 360V080 6000 FEW016 19/14 Q1025 NOSIG
RMK A3027=
METAR RCSS 110030Z 12010KT 9999 FEW030 18/13 Q1025 NOSIG RMK A3028
=
METAR VMMC 110030Z 06008KT 020V110 6000 FEW020 16/11 Q1025 NOSIG=

0000036600
387
SAHU41 LHBM 110030
METAR LHDC 110030Z NIL=
METAR LHKE 110015Z 25001MPS 6000 NSC M01/M02 Q1021 NOSIG RMK WHT=
METAR LHPA 110015Z 00000MPS 8000 BKN040 02/01 Q1021 NOSIG RMK BLU=
METAR LHPP 110030Z NIL=
METAR LHPR 110030Z NIL=
METAR LHSM 110030Z NIL=
METAR LHSN 110015Z 24004MPS CAVOK 02/M01 Q1021 NOSIG RMK BLU=
METAR LHUD 110030Z NIL=

0000003900
388
SIVE22 RJTD 110900
NIL=
0000168600
389
SAUS73 KWBC 110000
METAR
KABR 102353Z AUTO 22007KT 10SM CLR M06/M08 A2952=
KALN 102350Z 15012G21KT 10SM -RA OVC017 05/05 A2966=
KALO 102354Z AUTO 12003KT 1 3/4SM BR BKN005 OVC009 00/00 A2953=
KAPN 102354Z AUTO 13007KT 6SM BR OVC006 M01/M02 A2986=
KASE 102353Z 01007KT 1 1/2SM -SN BR BKN012 BKN037 OVC044 M06/M08
     A2990=
KATY 102353Z AUTO 00000KT 6SM BR CLR M08/M08 A2951=
KAXN 102353Z AUTO 19007KT 1 1/2SM BR OVC002 M02/M02 A2951=
KAZO 102353Z COR 16006KT 1 1/2SM RA BR BKN006 BKN011 03/02
     A2980=
KAZO 102353Z 16006KT 1 1/2SM RA BR BKN006 BKN011 OVC029 03/02
     A2980=
KBDE 102353Z AUTO 17007KT 4SM BR OVC007 M04/M05 A2943=
KBFF 102353Z AUTO 34008KT 10SM OVC090 03/M07 A2968=
KBIS 102352Z 26009KT 10SM CLR M02/M07 A2948=
KBJC NIL=
KBKF 102355Z 29011KT 70SM FEW050 FEW200 01/M10 A2974=
KBRL 102353Z AUTO 19011KT 8SM OVC003 04/04 A2954=
KBTL 102353Z 19007KT 2 1/2SM RA BR OVC005 03/02 A2981=
KCGI 102353Z AUTO 15014G22KT 4SM RA BR SCT049 BKN065 OVC075 07/06
     A2973=
KCID 102352Z 16005KT 1SM -RA BR OVC004 01/00 A2951=
KCIU 102355Z AUTO 12010KT 5SM OVC006 M02/M02 A2982=
KCMI 102353Z 15017G24KT 3SM -RA BR OVC003 04/04 A2969=
KCMX 102353Z AUTO 15008KT 6SM HZ OVC021 M02/M06 A2961=
KCOS 102354Z 33012KT 10SM FEW090 FEW160 02/M13 A2976=
KCOU 102354Z 17011KT 10SM OVC007 07/06 A2956=
KCPR 102353Z 33004KT 10SM CLR M04/M09 A2971=
KCYS 102353Z 30014G24KT 10SM CLR M01/M09 A2969=
KDDC 102352Z AUTO 31016KT 10SM SCT080 03/M02 A2968=
KDEC 102354Z 16016G26KT 6SM -RA BR OVC003 05/04 A2965=
KDEN 102353Z 29012KT 10SM FEW100 SCT150 SCT220 01/M09 A2972=
KDET 102353Z 16005KT 6SM BR OVC007 04/02 A2992=

0000167000
390
SAUS73 KWBC 110000 RRA
METAR
KDLH 102355Z 18006KT 3/4SM -FZDZSN BR OVC004 M04/M06 A2952=
KDSM 102354Z 00000KT 1/2SM R31/3500V5000FT -DZ FG VV002 01/01
     A2954=
KDTW 102353Z 13004KT 3SM BR OVC004 03/02 A2991=
KEAU 102356Z 14004KT 3SM UP BR OVC004 M02/M03 A2959=
KEGE 102350Z 26013G18KT 10SM VCSH FEW030 BKN040 M02/M06 A2992=
KELO 102353Z AUTO 17006KT 10SM OVC013 M05/M06 A2950=
KEVV 102354Z 13005KT 6SM BR BKN120 08/07 A2983=
KFAR 102353Z 18008KT 7SM CLR M04/M07 A2946=
KFNT 102353Z 15012KT 5SM BR BKN008 OVC020 03/01 A2985=
KFSD 102356Z 27005KT 6SM BR BKN080 M01/M02 A2954=
KFWA 102354Z 14005KT 1 1/2SM -RA BR OVC003 03/02 A2984=
KGCK 102354Z 34008KT 10SM CLR 00/M04 A2969=
KGFK 102353Z 20008KT 6SM BR FEW250 M07/M09 A2939=
KGJT 102353Z 07005KT 10SM CLR M04/M07 A2998=
KGRB 102353Z 15008KT 5SM -RA BR OVC006 01/01 A2966=
KGRI 102353Z 30006KT 10SM FEW070 01/M02 A2957=
KGRR 102353Z 16015KT 3SM RA BR FEW006 OVC055 04/02 A2976=
KGYY NIL=
KHIB NIL=
KHON 102355Z AUTO 27006KT 10SM CLR M03/M06 A2955=
KHUF 102353Z 15009KT 3SM -RA OVC004 05/ A2979=
KHUT 102352Z 28003KT 10SM SCT070 02/M02 A2962=
KICT 102353Z 25004KT 10SM SCT065 SCT150 03/M02 A2962=
KIKK 102355Z AUTO 15016G22KT 5SM RA OVC004 05/04 A2968=
KIND 102354Z COR 17008KT 1 1/4SM -RA BR OVC006 03/03 A2984=
KIND 102354Z 17008KT 1 1/4SM -RA BR OVC006 03/03 A2984=
KINL 102355Z AUTO 17004KT 3SM BR OVC004 M04/M06 A2946=
KIRK 102355Z AUTO 26004KT 3/4SM -RA BR VV003 03/03 A2954=
KJAC 102351Z 15011KT 10SM VCSH BKN035 M02/M04 A2991=
KJLN 102353Z 24010KT 10SM SCT013 BKN080 11/09 A2958=
KJMS 102356Z AUTO 27012KT 10SM CLR M01/M06 A2943=

0000166600
391
SAUS73 KWBC 110000 RRB
METAR
KJXN 102356Z 15010G20KT 4SM UP BR OVC003 03/02 A2982=
KLAN 102353Z 15010KT 4SM BR OVC006 03/02 A2981=
KLAR 102353Z AUTO 29020KT 10SM CLR M05/M11 A2971=
KLBF 102353Z AUTO 29004KT 10SM SCT110 M01/M02 A2962=
KLBL 102355Z AUTO 31007KT 9SM CLR 03/M12 A2973=
KLEX 102354Z 14007KT 10SM FEW024 FEW035 10/07 A2990=
KLNK 102354Z 28003KT 6SM BR OVC016 01/M01 A2958=
KLOU 102353Z 16003KT 10SM OVC023 11/08 A2989=
KLOZ 102353Z AUTO 15004KT 10SM CLR 11/08 A2995=
KLSE 102353Z 31004KT 3SM BR OVC009 00/M01 A2957=
KMBS 102353Z 12009KT 1 1/2SM -RA BR BKN005 OVC009 02/01 A2983=
KMCI 102353Z 27007KT 10SM OVC008 04/03 A2955=
KMDW 102351Z 18013KT 3SM RA BR OVC006 04/04 A2968=
KMHK 102352Z 27004KT 8SM OVC019 02/02 A2960=
KMKC 102354Z 25006KT 10SM BKN014 OVC031 05/03 A2956=
KMKE 102352Z 16015KT 4SM -FZRA BR OVC004 02/01 A2963=
KMKG 102355Z 14011KT 1SM R32/P6000FT RA BR OVC007 02/01 A2974=
KMLI 102352Z 18010KT 6SM -RA BR OVC008 04/03 A2954=
KMOT 102354Z 28011KT 10SM BKN013 M02/M06 A2944=
KMSN 102353Z 14008KT 8SM -FZRA OVC006 02/01 A2958=
KMSP 102353Z 15003KT 5SM BR OVC008 M01/M02 A2956=
KOFF 102358Z 28004KT 5SM R30/5500FT BKN020 01/01 A2956=
KOMA 102352Z 30004KT 4SM BR SCT017 OVC023 01/M01 A2957=
KORD 102351Z 18016KT 7SM -RA OVC007 04/02 A2965=
KOSH 102353Z 11004KT 4SM RA BR OVC005 01/M01 A2962=
KOTM 102353Z AUTO 19004KT 3/4SM BR VV008 01/01 A2952=
KOWB 102356Z 16008KT 7SM OVC016 08/08 A2985=
KPAH 102353Z 16009KT 5SM RA BR SCT042 BKN049 OVC055 09/08
     A2976=
KPIA 102354Z 16012KT 6SM -RA BR OVC004 04/03 A2959=
KPIR 102353Z AUTO 27010KT 10SM CLR 01/M06 A2956=

0000048600
392
SATH33 VTBB 110000
METAR VTBO 110000Z NIL=
METAR VTUD 110000Z 00000KT 4000 BR NSC 16/15 Q1018
A3007 INFO B RWY30=
METAR VTUI 110000Z NIL=
METAR VTUK 110000Z 35005KT 6000 NSC 17/17 Q1017 A3005
RWY03 INFO B=
METAR VTUL 110000Z NIL=
METAR VTUO 110000Z NIL=
METAR VTUQ 110000Z NIL=
METAR  VTUU 110000Z 01004KT 7000 NSC 18/17 Q1017 A3003
NOSIG=
METAR VTUV 110000Z 08004KT 6000 NSC 17/16 Q1017 A3003   
      INFO A RWY 36=
METAR VTUW 110000Z NIL=

0000132400
393
SAUS73 KWBC 110000 RRC
METAR
KPLN 102354Z AUTO 14007KT 8SM OVC009 M01/M03 A2981=
KPTK 102353Z 15006KT 1/2SM R09R/3000V3500FT FG VV002 02/01
     A2988=
KPUB 102353Z AUTO 29015G24KT 10SM CLR 06/M13 A2976=
KRAP 102352Z 33007KT 10SM BKN095 02/M06 A2959=
KRFD 102354Z 17009KT 5SM -RA BR OVC006 02/02 A2960=
KRKS 102354Z AUTO 28024G37KT 10SM SCT026 SCT050 M02/M07 A2990=
KRST 102354Z 06003KT 1 1/4SM -SN BKN029 BKN037 OVC070 M01/M03
     A2953=
KSAW NIL=
KSBN 102354Z 17010KT 1SM RA BR OVC006 04/02 A2978=
KSDF 102356Z 15006KT 10SM OVC023 10/08 A2988=
KSDM 102353Z 28005KT 9SM CLR 19/07 A3005=
KSGF 102352Z 15014KT 8SM -TSRA SCT029 BKN042 OVC075 09/08
     A2955=
KSLN 102353Z 28005KT 9SM OVC030 03/01 A2961=
KSPI 102352Z 16020G25KT 9SM -RA SCT006 OVC050 05/05 A2961=
KSTC 102353Z 17005KT 1 1/2SM BR OVC003 M03/M03 A2953=
KSTJ 102353Z AUTO 29007KT 3SM BR BKN002 OVC010 02/02 A2957=
KSTL NIL=
KSTP 102353Z 14004KT 4SM BR OVC006 M01/M02 A2958=
KSUS 102354Z 18009KT 10SM SCT011 BKN075 OVC100 08/06 A2962=
KSUX 102352Z 29003KT 2SM BR OVC006 01/M01 A2955=
KTVC 102353Z 13005KT 3SM BR OVC007 00/M02 A2977=
KUIN 102354Z AUTO 18010KT 10SM OVC011 06/05 A2956=
KWRL 102353Z AUTO 00000KT 10SM BKN110 M03/M07 A2973=
KYIP 102353Z AUTO 14006KT 2SM BR OVC004 03/01 A2990=

0000013100
394
SACN62 CYCD 110000
METAR CYCD 110000Z 09003KT 12SM -RA FEW010 SCT030 OVC080 06/06 A2988
 RMK SF1SC2AC5 SLP120=

0000011200
395
SACN62 CYYY 110000
METAR CYYY 110000Z 21012G18KT 30SM SCT100 M06/M13 A3014 RMK AC3
 SLP212=

0000012900
396
SACN62 CYDF 110000
METAR CYDF 110000Z 23021KT 8SM -SHSN DRSN BKN025 OVC070 M06/M09 A3009
 RMK SC7AC1 SLP192=

0000012900
397
SACN62 CYZF 110000
METAR CYZF 110000Z 29005KT 10SM -SN BKN055 BKN240 M25/M27 A2950 RMK
 SC5CI2 /S01/ SLP020=

0000011900
398
SACN62 CYYQ 110000
METAR CYYQ 110000Z 31006KT 15SM SCT130 OVC270 M28/M32 A2974 RMK
 AC4CI4 SLP074=

0000011800
399
SACN62 CYQL 110000
METAR CYQL 110000Z 26013KT 30SM BKN100 BKN270 03/M04 A2959 RMK AC5CI2
 SLP049=

0000012300
400
SACN62 CYZT 110000
METAR CYZT 110000Z 11022G28KT 8SM -RA SCT012 OVC022 05/04 A2960 RMK
 SF4SC4 SLP025=

0000045300
401
SATH31 VTBB 110000
METAR VTCH 110000Z 00000KT 0800 FG VV001 14/13 Q1018 A3006
INFO:A=
METAR VTCL 110000Z VRB01KT 0300 R36/0250 FG VV001 16/16 Q1017 A3005
NOSIG
INFO: B=
METAR VTCN 110000Z NIL=
METAR VTCP 110000Z NIL=
METAR VTCT 110000Z 00000KT 0100 FG VV001 17/16 Q1018 A3007=
METAR VTPH 110000Z 00000KT 8000 NSC 23/18 Q1014 NOSIG=
METAR VTPO 110000Z NIL=
METAR VTPP 110000Z 00000KT 2000 FEW028 SCT300 19/18 Q1015=

0000012800
402
SACN62 CYXC 110000
METAR CYXC 110000Z 23006KT 20SM FEW030 BKN080 BKN210 03/M03 A2974 RMK
 SC2AC4CI1 SLP105=

0000013400
403
SACN62 CYSB 110000
METAR CYSB 110000Z 17012G18KT 3/4SM R22/5500FT/D -FZDZ BR VV001
 M03/M03 A2994 RMK FG8 SLP158=

0000041900
404
SATH32 VTBB 110000
METAR VTSB 110000Z 00000KT 4000 BR FEW020 SCT300 23/23 Q1013
A2992 INFO A / RWY 22=
METAR VTSC 110000Z NIL=
METAR VTSF 110000Z NIL=
METAR VTSG 110000Z 07004KT 7000 FEW020 SCT300 23/21
Q1013 A2993 INFO L RWY32=
METAR VTSH 110000Z NIL=
METAR VTSM 110000Z 00000KT 9000 VCSH FEW018TCU BKN300 27/24 
Q1014 A2995 TCU S=
METAR VTSR 110000Z NIL=
METAR VTST 110000Z NIL=

0000013900
405
SAAE32 VTBB 110000
METAR VLLB 110000Z NIL=
METAR VLLN 110000Z NIL=
METAR VLPS 110000Z NIL=
METAR VLSK 110000Z NIL=

00000000