0000033100
206
SACA33 KWBC 102200 RRA
METAR
TLPL 102200Z 08017KT 9999 SCT020 24/22 Q1014 RESH NOSIG=
TNCA 102200Z 05011KT 9999 FEW018 27/23 Q1012 A2990=
TNCM 102200Z 07011KT 040V1000 9999 FEW019 26/19 Q1017 A3003=
TTCP 102200Z 08006KT 9999 SCT015 26/20 Q1013 NOSIG=
TTPP 102200Z 10008KT 9999 FEW018 27/21 Q1012 NOSIG=

0000013600
207
SAJP41 KWBC 102200 RRA
METAR
RJAW 102200Z 04012G23KT 9999 FEW020 BKN030 17/10 Q1022 RMK 1CU020
     7CU030 A3021=

0000013500
208
SASA31 KWBC 102200 RRA
METAR
SVBC 102200Z NIL=
SVBC 102200Z 02010KT 9999 FEW010 29/20 Q1010=
SVMC 102200Z NIL=

0000009700
209
SASA42 KWBC 102200 RRA
METAR
SCTC 102200Z 25011KT 210V280 CAVOK 21/08 Q1018=

0000014900
210
SAVN42 KWBC 102200 RRA
METAR
SVSE 102200Z NIL=
SVSR 102200Z /////KT CAVOK 30/// Q1010=
SVTM 102200Z NIL=
SVVP 102200Z NIL=

0000012800
211
SACN62 CYKA 102200
METAR CYKA 102200Z 10005KT 30SM FEW010 BKN057 OVC140 01/M01 A2985 RMK
 SF1SC5AC2 SLP125=

0000010100
212
SASB31 VCRI 102210 RRA
METAR VCRI 102210Z 03006KT 9000 FEW016   22/21 Q1011 NOSIG=

0000027800
213
FTCN35 CWAO 102200 AAA
TAF AMD CYHM 102209Z 1022/1118 18008KT 5SM BR OVC008 TEMPO 1022/1105
     1/2SM FG VV002
    FM110500 18012KT 1SM -RA BR OVC003 TEMPO 1105/1107 4SM BR OVC006
    FM111200 20012KT 11/2SM -RA BR OVC003
    RMK NXT FCST BY 110000Z=

0000017200
214
FTCN33 CWAO 102200 AAA
TAF AMD CYIO 102209Z 1022/1107 20008KT P6SM -SN OVC030 TEMPO
     1022/1107 2SM -SN BKN020 OVC030
    RMK NXT FCST BY 110100Z=

0000031400
215
FTBZ18 SBGR 110000
TAF SBSP 102200Z 1100/1124 12004KT CAVOK TN20/1108Z
TX34/1117Z
BECMG 1104/1106 05005KT
BECMG 1111/1113 35008KT 9999
SCT035
BECMG 1115/1117 30005KT 9999 SCT035 FEW045TCU
PROB40 1118/1121
27010KT 8000 TSRA SCT030 FEW040CB
BECMG 1121/1123 13005KT CAVOK RMK
PGL=

0000026800
216
FTBZ18 SBGR 110000
TAF SBGR 102200Z 1100/1206 09004KT CAVOK TN20/1108Z
TX33/1117Z
BECMG 1111/1113 33008KT SCT040
BECMG 1115/1117 SCT035
FEW045TCU
PROB40 1118/1122 30008KT 9000 TSRA SCT030 FEW045CB
BECMG
1122/1124 10005KT CAVOK RMK PGL=

0000024700
217
FTCN37 CWAO 102200 AAA
TAF AMD CYQI 102209Z 1022/1106 22012KT 5SM -RA BR BKN006 OVC012 TEMPO
     1022/1104 P6SM NSW SCT006 OVC012 PROB30 1022/1104 OVC005
    FM110400 20012KT 3SM -DZ BR OVC005
    RMK NXT FCST BY 110000Z=

0000025800
218
FTCA35 KWBC 102209
TAF
MRPV 102200Z 1100/1124 07012KT 9999 FEW040 TX26/1120Z TN19/1112Z
      BECMG 1100/1102 07012G22KT CAVOK
      BECMG 1117/1119 07010KT 9999 SCT035 PROB40
      TEMPO 1121/1124 07006KT 9999 RA FEW020TCU SCT030=

0000028000
219
FTHW31 KWBC 102209 AAA
TAF AMD
PHKO 102206Z 1022/1118 32010KT P6SM SCT060
     FM110600 11005KT P6SM SCT060=
PHOG 102206Z 1022/1118 03012KT P6SM FEW030 SCT050
     FM110500 06006KT P6SM FEW030 SCT050 AMD LTD TO WX VIS AND
      WIND
      1109/1116=

0000016900
220
FTPA31 KWBC 102209 AAA
TAF AMD
PHJH 102206Z 1022/1118 03013KT P6SM FEW025 SCT045
     FM110600 05008KT P6SM FEW025 SCT045 AMD NOT SKED AFT 110400=

0000028200
221
FTPA32 KWBC 102209
TAF
TAF NCRG 102207Z 1100/1124 04012KT 9999 -SHRA SCT020 SCT045
      BECMG 1104/1106 05005KT
      BECMG 1121/1123 05012KT=
TAF NFNA 102205Z 1100/1124 15012KT 9999 BKN020
      BECMG 1105/1107 16005KT
      BECMG 1121/1123 16012KT=

0000025300
222
FTSA41 KWBC 102209
TAF
TAF SEMT 102150Z 1100/1124 20006KT 9999 OVC020
     FM111200 18005KT 9999 SCT020 TX29/1120Z TN24/1110Z=
SEMT 102150Z 1100/1124 20006KT 9999 OVC020
     FM111200 18005KT 9999 SCT020 TX29/1120Z TN24/1110Z=

0000048500
223
FTSA42 KWBC 102209
TAF
TAF SELT 102150Z 1100/1124 17008KT 9999 BKN023 SCT100
     FM110600 VRB03KT 6000 -RA BCFG FEW010 BKN020 BKN100
     FM111200 17005KT 9999 BKN023 SCT100
     FM111800 20010KT 9999 SCT023 BKN100 TX20/1119Z TN11/1110Z=
SELT 102150Z 1100/1124 17008KT 9999 BKN023 SCT100
     FM110600 VRB03KT 6000 -RA BCFG FEW010 BKN020 BKN100
     FM111200 17005KT 9999 BKN023 SCT100
     FM111800 20010KT 9999 SCT023 BKN100 TX20/1119Z TN11/1110Z=

0000022600
224
FTUS51 KWBC 102209 AAA
TAF AMD
KPSM 102208Z 1022/1118 20003KT 6SM BR BKN018 OVC070
     FM110000 20003KT 4SM BR OVC018
     FM110300 23003KT 1SM BR OVC007
     FM111200 14004KT 1 1/2SM -RA BR OVC004=

0000028900
225
FTUS52 KWBC 102209 AAA
TAF AMD
KRKD 102207Z 1022/1118 27005KT P6SM OVC070
     FM110300 22003KT P6SM OVC015
     FM110900 21003KT P6SM OVC004
     FM111200 13005KT 2SM -RA BR OVC004
     FM111500 16015KT 1/2SM -RA FG OVC003 AMD LTD TO CLD VIS AND
      WIND=

00000000