0000063600
074
SNSP21 LEMM 110800
AAXX 11084
08084 46/// /2302 10046 20046 39770 40213 53010
  555 60005=
08184 46/// /0202 10091 20077 30039 40196 53012
  555 60005=
08202 46/// /0000 11021 21024 39252 42796 53009
  555 60005=
08360 46/// /2706 10081 20069 30150 40188 53014
  555 60005=
08373 46/// /0000 10107 20101 30159 40181 53012
  555 60005=
08410 46/// /1003 10069 20065 30072 40185 53013
  555 60005=
08419 47/56 /1502 10061 20057 39515 40195 53009 71011
  555 60005=
08451 46/// /3602 10106 20106 30141 40174 53017
  555 60005=
08487 46/// /3203 10111 20085 30157 40183 53017
  555 60005=
0000369100
075
SNPL40 SOWR 110800
AAXX 11081
12100 42465 72103 10050 20027 30103 40110 54000 875//
  333 91108=
12105 42673 82203 10048 20028 30068 40110 51002 885//=
12115 42468 82508 10055 20037 30083 40097 53004 8657/
  333 91113=
12120 42470 82712 10054 20039 30087 40091 53003 882//=
12125 46/// /2506 10054 20036 30047 40098 52005 =
12135 42470 72704 10051 20041 30089 40092 52009 878//
  333 91110=
12160 42465 72307 10030 20030 39876 40105 52014 873//=
12185 41478 72606 10042 20033 39959 40095 52015 72522 879//=
12195 41462 82706 10028 20025 39858 40087 52019 72522 885//=
12200 42460 72103 10046 20034 30108 40115 56002 8451/=
12205 42460 72104 10042 20025 30120 40128 56001 81508=
12210 46/// /2103 10034 20018 30049 40114 54000=
12215 41/// /9904 10038 20025 39948 40120 52004 7////
  =
12230 42462 82303 10041 20018 30044 40135 52007 885//=
12235 41360 82306 10035 20028 39907 40119 51006 72522 885//
  333 88608 91111=
12250 42468 82403 10045 20022 30044 40133 52008 885//
  333 88615=
12270 42466 72605 10040 20025 39946 40130 52016 875//
  333 87613=
12272 42475 82404 10039 20029 39943 40111 52018 885//
  333 88613=
12280 41460 82605 10039 20035 39944 40102 51018 78022 889//
  333 91010 91110=
12285 41/// /2605 10048 20019 30006 40122 52020 700//=
12295 42469 82705 10040 20030 39920 40105 52019 885//
  333 88615 91011 91111=
12300 42480 82502 10033 20020 30055 40146 53004 885//
  333 88616=
12310 42570 72203 10039 20018 30082 40149 51001 82558=
12330 42565 72303 10031 20013 30044 40154 53005 875//=
12345 42661 72106 10038 20015 30005 40151 53005 83558=
12360 42465 72406 10040 20017 30004 40139 52011 86508=
12375 42570 62604 10043 20010 30014 40146 53014 81502=
12385 42774 72504 10045 20015 39946 40137 52018 875//=
12399 42567 72606 10049 20016 39960 40129 52021 8653/
  333 91011 91111=
12400 42680 62203 10026 20014 39922 40162 52002 83588=
12415 42784 62002 10025 21004 30018 40174 53003 82538=
12418 42670 72303 10033 20015 30049 40165 52004 85538=
12424 42699 52203 10033 20005 30022 40177 52005 83532=
12435 42561 72204 10031 20013 39991 40166 52008 875//=
12455 42672 72504 10028 21003 39926 40176 52008 875//=
12465 42468 72506 10035 20009 39936 40161 52009 85508=
12469 42680 72306 10036 20008 39928 40163 52007 85508=
12488 42584 72504 10044 21002 39999 40155 53013 875//=
12495 42682 72505 10036 21004 39865 40161 52016 875//=
12497 42570 72607 10045 20004 39922 40144 53020 84508
  333 91113=
12500 42666 51302 10004 21018 39758 40186 51001 81501=
12510 41/91 72915 11058 21062 38319 48445 53002 74843 865//
  444 66//5=
12520 42475 71603 10018 21001 39753 40196 51007 875//
  333 87619=
12530 42965 72002 10029 20006 39983 40187 53008 82038=
12540 42672 52406 10030 20002 39940 40198 53007 81532=
12550 42665 72303 10025 21008 39818 40184 51002 8555/=
12560 42765 72105 10033 21002 39847 40193 52006 875//=
12566 42782 72404 10039 20001 39894 40193 51007 875//=
12570 42571 72503 10026 21005 39856 40180 52010 86508=
12575 42666 72402 10047 21015 39932 40191 51008 8453/=
12580 42780 72505 10043 21007 39927 40190 52015 84501=
12585 42765 72405 10038 21004 39906 40177 52015 875//=
12595 NIL=
12600 42684 72204 10046 21030 39707 40195 53006 875//=
12625 42682 72603 10008 21063 39187 42803 53009 875//=
12650 42384 72404 11096 21104 37956 48476 51007 82538
  333 91009 91109=
12660 42570 72801 10039 21032 39836 40201 53010 875//=
12670 42777 62104 10029 21026 39788 40197 53010 81539=
12690 42574 72003 10017 21032 39682 40203 52009 82532=
12695 41/// /9903 10052 21031 39845 40188 52013 700//=
0000010000
076
SNNO23 ENMI 110800 RRA
AAXX 11081
01180 46/// /2302 11081 21140 30110 40170 52006=
0000010000
077
SNNO24 ENMI 110800 RRA
AAXX 11081
01393 46/// /0702 11173 21191 39213 40067 50007=
0000015100
078
SNNO25 ENMI 110800 RRA
AAXX 11081
01265 46/// /2402 11135 21150 39434 40046 50006=
01469 46/// /3503 11029 21048 39818 49992 52008=
0000010000
079
SNNO26 ENMI 110800 RRA
AAXX 11081
01476 46/// /2406 10035 20014 39977 49983 53004=
0000092600
080
SNEO40 EEMH 110800
AAXX 11081
26029 27/70 /3202 11004 21018 39969 49998 52012 78586
 333  10020 21010 69927
 555  21010 50011=
26046 27458 83404 11028 21038 39890 49981 52024 77177 88///
 333  10003 21030 60007 88/10 91008 91110
 555  21030 51006=
26124 27360 83102 11003 21004 39971 40001 52012 70077 88///
 333  10017 21004 69927 88/08
 555  1/001 21004 3/001 50010 52101=
26128 27384 72905 10011 21002 30003 40006 53016 72488 87///
 333  10027 20007 60007 87/07 91112
 555  1/000 20007 3/000 50026=
26145 27384 83202 11018 21034 39945 49985 52026 72487 88///
 333  10010 21019 60007 88/10
 555  1/101 21019 3/101 50002 52102=
26233 27381 73103 11006 21020 39892 49999 53023 78588 87///
 333  10014 21008 69937 87/09
 555  1/100 21008 3/100 50016 52101=
26249 27354 83003 11003 21012 39889 49991 53025 77177 88///
 333  10032 21003 60007 88/07
 555  1/000 21003 3/000 50023 52101=
0000009400
081
SNNO21 ENMI 110700 RRB
AAXX 11071
01300 46/// /0606 10020 21007 39888 49987=
0000009400
082
SNNO21 ENMI 110800 RRA
AAXX 11081
01300 46/// /0606 10020 21006 39888 49986=
0000009400
083
SNNO22 ENMI 110700 RRD
AAXX 11071
01400 46/// /2809 10067 21005 39994 40055=
0000014500
084
SNNO22 ENMI 110800 RRB
AAXX 11081
01400 46/// /2809 10066 21001 39996 40057=
01447 46/// /0000 11081 21088 39310 40000 57002=
0000003800
085
SNVF20 EHDB 110800
NIL
0000011100
086
UANT01 CWAO 110811
ARP UPS218 5102N01648W 0811 F300 MS52 245/73 KT
N360UP QXT IGW 110811 F16A
0000034400
087
SZIO01 AMMC 110812
CREX++
T000103 A001 D01021 D06025++
-1211670 09689190 46280 2014 01 11 08 05 3020 11 07 00 01
01268 0026 01268 0026 01262 0021 01264 0024 01262 0022 01255 0016+
-1042940 10566940 46290 2014 01 11 08 05 //// 11 07 00 01
01373 -0018 01442 0050 01370 -0023 01420 0026 01389 -0006 01406 0010++
7777

0000046700
088
SZPA01 AMMC 110812
CREX++
T000103 A001 D01021 D06025++
0136250 17293000 67590 2014 01 11 08 05 3017 11 07 00 01
01262 0014 01253 0007 01262 0016 01258 0013 01259 0015 01267 0023+
0710610 17137250 67680 2014 01 11 08 05 3013 11 07 00 01
00825 0108 00829 0112 00828 0111 00826 0109 00821 0103 00822 0105+
0698060 15820000 67950 2014 01 11 08 05 3023 11 07 00 01
00635 0065 00632 0063 00631 0062 00629 0062 00627 0060 00624 0058++
7777

0000191300
089
SZAU01 AMMC 110812
CREX++
T000103 A001 D01021 D06025++
-1927750 14705860 59260 2014 01 11 08 05 3030 11 07 00 01
02473 0166 02477 0167 02477 0164 02478 0164 02478 0162 02484 0167+
-2316110 15079000 59670 2014 01 11 08 05 3003 11 07 00 01
03489 0102 03488 0100 03507 0118 03508 0117 03532 0142 03532 0140+
-3447330 15091170 60420 2014 01 11 08 05 2950 11 07 00 01
01058 -0015 01065 -0006 01060 -0010 01062 -0006 01060 -0007 01054 -0012+
-4105000 14591500 60910 2014 01 11 08 05 2888 11 07 00 01
02551 -0009 02560 -0009 02561 -0015 02562 -0021 02569 -0022 02575 -0023+
-4254640 14793080 61170 2014 01 11 08 05 2895 11 07 00 01
01311 0090 01310 0090 01313 0093 01315 0095 01317 0098 01317 0099+
-3834390 14161360 61410 2014 01 11 08 05 2905 11 07 00 01
00524 0000 00552 0027 00542 0015 00562 0034 00544 0015 00577 0047+
-3214890 13364170 62000 2014 01 11 08 05 2965 11 07 00 01
01272 0118 01271 0117 01269 0115 01271 0116 01273 0118 01276 0120+
-3387080 12189720 62080 2014 01 11 08 05 2948 11 07 00 01
00847 0075 00872 0100 00856 0083 00848 0074 00853 0078 00834 0059+
-3182560 11573860 62237 2014 01 11 08 05 2972 11 07 00 01
00991 0111 00994 0113 00998 0116 00984 0101 00982 0098 00977 0092+
-2422000 11339750 62385 2014 01 11 08 05 //// 11 07 00 01
01320 -0099 01276 -0144 01300 -0122 01310 -0114 01323 -0102 01390 -0036+
-2181670 11419110 62430 2014 01 11 08 05 //// 11 07 00 01
01991 -0053 01992 -0055 02012 -0037 02026 -0026 01999 -0055 02023 -0034+
-1800080 12221830 62650 2014 01 11 08 05 3043 11 07 00 01
06189 0046 06199 0047 06209 0050 06218 0048 06229 0050 06238 0052+
-1247190 13084580 63230 2014 01 11 08 05 3050 11 07 00 01
05126 0260 05118 0256 05110 0254 05101 0253 05093 0250 05087 0252+
-1386000 13641580 63511 2014 01 11 08 05 3043 11 07 00 01
01790 0170 01790 0169 01791 0169 01791 0168 01794 0169 01797 0172++
7777

0000042900
090
UDEU02 EGRR 110814
AMDAR 1107
LVR EU3837   5156N 00954W 110737 F349 MS625 268/080 TB0 S031=
LVR EU3837   5152N 00808W 110744 F349 MS597 281/079 TB0 S031=
LVR EU3837   5146N 00624W 110751 F349 MS572 277/056 TB0 S031=
LVR EU3837   5142N 00448W 110758 F349 MS572 262/064 TB0 S031=
LVR EU3837   5136N 00317W 110805 F319 MS550 267/072 TB0 S031=
DES EU3837   5130N 00204W 110810 F182 MS265 289/079 TB/ S031=
0000068900
091
UDEU02 EGRR 110814 RRA
AMDAR 1108
DES EU2399   4507N 00738E 110807 F035 PS035 044/003 TB/ S031=
DES EU2399   4508N 00738E 110807 F032 PS040 071/004 TB/ S031=
DES EU2399   4509N 00738E 110808 F029 PS047 076/004 TB/ S031=
DES EU2399   4510N 00738E 110808 F026 PS055 078/003 TB/ S031=
DES EU2399   4511N 00738E 110808 F023 PS060 104/003 TB/ S031=
DES EU2399   4512N 00738E 110809 F020 PS067 151/002 TB/ S031=
DES EU2399   4513N 00738E 110809 F017 PS072 156/002 TB/ S031=
DES EU2399   4514N 00738E 110809 F014 PS077 163/003 TB/ S031=
DES EU2399   4514N 00738E 110810 F011 PS080 201/003 TB/ S031=
DES EU2399   4515N 00739E 110810 F009 PS080 220/002 TB/ S031=
0000116100
092
UDAS02 BABJ 110802
AMDAR 1108
LVR CNFPQK 3233N 11934E 110750 F301 MS415 257/099 TB/ S//1=
LVR CNFPQK 3248N 11921E 110753 F301 MS418 260/098 TB/ S//1=
LVR CNFPQK 3303N 11908E 110756 F301 MS420 262/098 TB/ S//1=
LVR CNFPQK 3318N 11856E 110759 F301 MS428 266/100 TB/ S//1=
DES CNFOZN 3623N 12020E 110757 F016 MS028 267/005 TB/ S//1=
DES CNFOZN 3621N 12021E 110757 F011 MS015 232/004 TB/ S//1=
DES CNFOZN 3619N 12021E 110758 F003 PS005 192/005 TB/ S//1=
DES CNFPXL 3141N 11824E 110758 F084 MS048 267/020 TB/ S//1=
DES CNFPXL 3142N 11827E 110758 F076 MS048 268/017 TB/ S//1=
DES CNFPXL 3143N 11827E 110759 F075 MS045 266/013 TB/ S//1=
DES CNFPXL 3144N 11830E 110800 F065 MS040 249/010 TB/ S//1=
ASC CNFNXL 3644N 11637E 110759 F207 MS308 274/059 TB/ S//1=
ASC CNFNXL 3643N 11633E 110759 F222 MS341 279/070 TB/ S//1=
ASC CNFNXL 3643N 11629E 110800 F236 MS358 271/079 TB/ S//1=
ASC CNFNXQ 3837N 10537E 110751 F295 MS509 263/101 TB/ S//1=
LVR CNFNXQ 3843N 10518E 110754 F321 MS568 261/102 TB/ S//1=
LVR CNFNXQ 3850N 10458E 110757 F321 MS565 259/098 TB/ S//1=
LVR CNFNXQ 3856N 10437E 110800 F321 MS563 263/097 TB/ S//1=
0000072700
093
UDAS02 BABJ 110804
AMDAR 1108
ASC CNFPTK 3616N 12023E 110801 F000 PS034 196/003 TB/ S//1=
ASC CNFPTK 3615N 12023E 110802 F004 PS026 198/003 TB/ S//1=
LVR CNFNXL 3642N 11625E 110801 F236 MS358 273/079 TB/ S//1=
LVR CNFNXL 3642N 11621E 110801 F236 MS355 274/080 TB/ S//1=
LVR CNFNXL 3641N 11617E 110802 F236 MS353 275/079 TB/ S//1=
LVR CNFNXL 3641N 11616E 110802 F236 MS355 276/080 TB/ S//1=
ASC CNFPTK 3614N 12023E 110802 F011 PS004 219/002 TB/ S//1=
DES CNFPXL 3146N 11833E 110801 F056 MS038 163/006 TB/ S//1=
DES CNFPXL 3144N 11835E 110801 F048 MS033 058/001 TB/ S//1=
DES CNFPXL 3144N 11835E 110802 F046 MS033 096/003 TB/ S//1=
DES CNFPXL 3141N 11835E 110803 F036 MS028 153/003 TB/ S//1=
00000000