0000033500
586
WSZA21 FAOR 111105
FAOR SIGMET A02 VALID 111108/111400 FAOR-
FAJO JOHANNESBURG OCEANIC FIR EMBD TS OBS WI
S3000 E05035 - S3229 E05628 - S3755 E05606 - S3846 E05700 -
S4500 E05700 - S4500 E06148 - S4947 E06137 - S5630 E05451 -
S5630 E05451 - S5618 E04737 - S5153 E04947 - S4503 E05222 -
S4002 E04841 TOP FL320=
0000055200
587
SNVF11 BIRK 111100
BBXX
TFBKF 11114 99635 70202 46/// ///// 22200 10704 70019=
TFBLK 11114 99657 70248 46/// ///// 22200 10806 70032=
TFGRS 11114 99663 70182 46/// ///// 22200 10705 70026=
TFGRV 11114 99638 70225 46/// ///// 22200 10905 70023=
TFGSK 11114 99641 70229 46/// ///// 22200 10906 70031=
TFHFN 11114 99642 70152 46/// ///// 22200 10807 70035=
TFKGR 11114 99657 70136 46/// ///// 22200 10809 70047=
TFSRT 11114 99633 70203 46/// ///// 22200 10906 70032=
TFSTD 11114 99664 70234 46/// ///// 22200 10807 70033=
0000028300
588
SXHW11 KWAL 111105
B15047DC 011110533"
1,140111,10:00:00,1.0,2,1.0,17.0,1019.5,45.88,13.0,
1,140111,10:15:00,1.0,2,1.0,17.4,1019.6,45.88,13.0,
1,140111,10:30:00,1.0,2,1.0,16.5,1019.4,45.88,13.0,
1,140111,10:45:00,1.0,2,1.0,16.1,1019.0,45.88,13.0, 44+0NN 210W
0000015100
589
SNST41 EGRR 111000 RRA
AAXX 11104
88900 45/// /2702 10031 20026 39913 49916 57006=
88903 42/// /0502 10032 20026 39920 49920 50000=
0000031100
590
SNST41 EGRR 111100
AAXX 11114
61901 42381 71008 10203 20172 39679 40182 878// 333 58006 84807
 83813=
88878 46/// /2020 10060 20007 40081 52024=
88883 46/// /2207 10068 20033 40095 52017=
88889 41481 72019 10048 21022 30000 40086 53023 72162 875//
 333 81618 87634 91029 90710 91129=
0000345300
591
SNUK41 EGRR 111100
AAXX 11114
03005 41445 72817 10046 20018 39917 40018 52015 78782 879//
  333 55300 20082 87915 90710 91129 91029=
03017 47789 /2712 10037 20013 30028 40060 51020 723//
  333 55302 20118 81/50 84/62 90710 91125=
03026 47683 /2806 10034 20001 30079 40098 52022 723//
  333 55302 20245 83/35=
03063 47982 /2105 10007 21011 39834 40118 53025 724//
  333 55306 20230 8//99=
03066 47783 /2411 10027 20002 30098 40104 53027 723//
  333 55304 20249 81/50 86/60=
03075 45780 /2620 10019 20000 30028 40073 51021
  333 81/50=
03091 45982 /2917 10041 21019 30017 40097 53023
  333 55310 20368 8//99 90710 91125=
03100 45975 /2814 10053 20013 30122 40138 52025
  333 55310 20349 8//99=
03111 46474 /2416 10048 20026 30144 40156 53018
  333 82/12=
03134 47483 /2707 10024 20014 30073 40147 53026 781//
  333 55301 20249 81/12 83/44=
03136 45780 /2513 10052 20018 30120 40153 51026
  333 55307 20458 82/56=
03162 41482 13011 10026 21004 39857 40149 52017 72681 81800
  333 41998 55308 20433 81815 90710 91125=
03166 45682 /2411 10033 20000 30066 40137 52024
  333 55310 20365 81/35=
03171 42589 12519 10026 21006 30107 40119 53026 81803
  333 55310 20423 81820=
03204 42484 12913 10057 20021 30157 40177 51029 81600
  333 55310 20531 81714=
03240 45981 /2720 10049 21002 30102 40130 51026
  333 55306 20365 8//99 90710 91126=
03257 45576 /2803 10049 20013 30118 40159 53028
  333 55309 20548 82/28=
03292 469// /2809 10060 20014 30129 40148 51031
  333 84/58=
03302 45970 /3009 10059 20030 30176 40191 51029
  333 55309 20529 8//99=
03354 45980 /2609 10049 20020 30030 40175 51023
  333 55309 20639 8//99=
03377 42481 32611 10053 20024 30083 40168 51027 83800
  333 55307 20621 81819 83645=
03414 45580 /2808 10057 20015 30098 40187 53027
  333 55308 20739 85/29=
03462 45981 /2509 10050 20029 30083 40174 51028
  333 55310 20624 8//99=
03482 45975 /2811 10056 20033 30145 40171 51035
  333 8//99=
03502 45578 /3209 10057 20014 30037 40202 51026
  333 55309 20623 81/22=
03535 45980 /2509 10059 20026 30064 40182 53022
  333 553// 20720 8//99=
03590 45983 /3013 10058 20022 30063 40174 51037
  333 55310 20739 8//99=
03649 42980 12507 10063 20029 30090 40192 51025 80001
  333 55310 2//// 81075=
03680 46/// ///// 10055 20029 30031 40190 51032
  333 553// 20735=
03716 45982 /3008 10066 20037 30144 40205 52027
  333 55310 20597 8//99=
03740 469// /2507 10055 20036 30022 40201 51027
  333 55310 2//// 8//99=
03746 42981 12908 10064 20042 30048 40204 51031 80001
  333 81080=
03772 45983 /2905 10075 20033 30162 40193 51034
  333 55310 20662 8//99=
03796 46/// /3010 10077 20040 30034 40178 51033=
03803 45582 /0705 10099 20042 30174 40212 51017
  333 87/29=
03808 42581 40305 10090 20044 30106 40212 51021 84800
  333 55308 20685 82822 83627=
03809 42580 21403 10090 20044 30120 40214 51022 82800
  333 81825=
03827 45978 /0802 10078 20037 30149 40212 51023
  333 8//99=
03840 45980 /3003 10056 20032 39901 40211 51027
  333 8//99=
03853 45479 /2704 10068 20048 30186 40210 51030
  333 55310 20735 81/15=
03874 46/// /3206 10076 20045 30193 40204 51035=
03882 45982 /3106 10077 20040 30125 40190 51034
  333 55306 20490 8//99=
03894 42484 23510 10089 20059 40219 51028 82101
  333 82815=
03917 47/07 /2307 10008 20007 30098 40177 51020 732//
  333 55300 20129=
0000009200
592
SAUK63 EGRR 111050 RRA
METAR EGQS 111050Z 25013KT 9999 FEW020CB 03/00 Q1009=
0000014700
593
SNNC22 NWBB 111100
AAXX 11114
91570 46/// /1013 10266 20211 30100 40105 51010=
91574 46/// /1114 10258 20208 30114 40119 51009=
0000058900
594
SABY31 UMMN 111100
METAR UMBB 111100Z 28008G13MPS 9999 SCT025 SCT100 05/01 Q1013
R29/290050 NOSIG=
METAR UMGG 111100Z 29012G16MPS 9999 BKN029CB BKN100 04/M01 Q1004
R28/290050 NOSIG=
METAR UMII 111100Z 29007G13MPS P6000 OVC013CB 02/M00 Q0999 R23/290150
TEMPO 2000 SHSNRA BKN005=
METAR UMMG 111100Z 27007G10MPS 9999 BKN010 OVC066 05/02 Q1008
R35/290060 NOSIG=
METAR UMMM 111100Z 28008G11MPS 9999 OVC018 02/M02 Q1005 R30/190060
NOSIG RMK QFE734 =
METAR UMMS 111100Z 29007G11MPS 240V320 9999 BKN020 02/M02 Q1005
R31/CLRD// NOSIG=
METAR UMOO 111100Z NIL=
0000013500
595
SNVD02 CWAO 111100
BBXX
SHIP 11114 99462 70602 46/// /1907 10004 20015 40239 51001 7//// 8//// 22200 0//// 2//// =

0000013500
596
SNVD02 CWAO 111100
BBXX
SHIP 11114 99489 71232 46/// /1622 10093 20084 49920 56034 7//// 8//// 22283 0//// 2//// =

0000013500
597
SNVD02 CWAO 111100
BBXX
SHIP 11114 99513 70569 46/// /2719 11066 21109 40157 51002 7//// 8//// 22200 0//// 2//// =

0000013500
598
SNVD02 CWAO 111100
BBXX
SHIP 11114 99453 70660 46/// /3602 11033 21056 40238 58017 7//// 8//// 22200 0//// 2//// =

0000013500
599
SNVD02 CWAO 111100
BBXX
SHIP 11114 99476 70527 46/// /2608 11023 21060 40211 51017 7//// 8//// 22200 0//// 2//// =

0000028300
600
SXHW11 KWAL 111105
B15054AA 011110543"
1,140111,10:00:00,6.2,35,8.3,23.3,1013.9,0.00,13.0,
1,140111,10:15:00,7.0,43,9.1,23.2,1013.9,0.00,13.0,
1,140111,10:30:00,7.5,48,9.0,23.1,1013.8,0.00,13.0,
1,140111,10:45:00,7.0,44,9.7,23.1,1013.7,0.00,13.0, 44-0NN 210W
0000017000
601
SOVI10 KWAL 111106
B110070A 011110601 P9751095 B\P~W@@@0ekK1@mI???C^Cb>@mJ3@HC~@P4Cn5DA6bR9KS<BM2?????@"??? nTKCKBTBSBNBLBNBK:AMPTEMP 25.85C  45+0NN 219E
0000009400
602
SAYE20 OYHD 111100 CCA
METAR COR OYHD 111100Z 21022KT 9999 FEW030 28/20 Q1013=
0000011200
603
UANT99 KDDL 111104
ARP UAL920 6036N00925W 1104 F320 MS50 254/34 KT
N660UA QXS FAE1 111104 F63A
0000011000
604
UANT99 KDDL 111104
ARP UAL75 5401N01558W 1104 F360 MS64 241/78 KT
N17133 DDL BLY 111104 F25A
0000024300
605
SAKU31 NCRG 111200
METAR NCRG 111200Z
10003KT 9999 BKN016 25/24 Q1010=
METAR NCAI 111200Z AUTO
/////KT //// ////// 25/23 Q1011=
METAR NCMH 111200Z AUTO
02006KT //// ////// 28/25 Q1008=
METAR NCPY 111200Z AUTO
NIL=
00000000