0000015300
646
UPCG01 FCBB 110000 RRA
PPAA 60238 64400 44385 08506 10515 11507 44340 18514 20527 15516
     44320 10520 07524 09017 77123 08067 43752=
0000227900
647
SMRA10 RUHB 110000
AAXX 11001
30372 11995 20000 11460 21486 39464 40520 52010 60002 71040 80001 333
21461 47006 55016=
30433 12999 03101 11271 21317 39747 40414 52011 60002 333 21279 47026
55033=
30554 119// 00000 11432 21450 39202 40506 52011 60002 74000 21432
47007 55045=
30635 129// 01501 11229 21248 39755 40385 52015 60002 333 21232
47030=
30673 12999 23605 11295 21341 39493 40356 53017 60002 80001 333 21399
47009 55057=
30692 11996 83602 11297 21328 39746 40302 52014 69922 77172 8802/ 333
21317 3/134 47013 55053=
30758 12984 50602 11278 21310 39479 40397 52033 69902 80001 333 21279
47004 55026=
30802 12799 41301 11173 21242 38752 48521 58005 60002 81531 333 21201
47004 55068=
30823 11998 72001 11143 21156 39686 40362 52015 60012 77177 8702/ 333
21164 47018 55026=
30879 12999 00000 11344 21368 39482 40353 52011 60002 333 21352 47007
55063=
30935 11997 82101 11167 21193 39366 40369 52011 69922 77172 8807/ 333
21186 47011 55066=
30949 12699 62901 11160 21179 39159 40320 52012 60002 82530 333 21181
3/130 47008 55068=
30965 11999 30104 11282 21294 39430 40353 52022 69942 72271 80002 333
21282 47006 55066=
31168 41997 81902 11252 21312 30118 40126 50009 77173 8802/ 333 21252
55000 91112=
31285 41999 62001 11310 21348 30137 40215 52004 70272 86025=
31300 11999 00000 11322 21340 39925 40253 53005 60002 72840 333 21336
47011=
31329 12999 30000 11402 21421 39503 40281 52007 60002 83030 333 21412
47037 55070=
31369 41496 82905 11245 21277 30020 40112 53001 78587 85902 333 85919
91011 91110=
31416 41992 80000 11402 21446 30075 40184 52007 74641 80001 333 21421
55058=
31484 42999 22602 11276 21349 39815 40187 52009 82070 333 21280=
31512 129// 00000 11336 21366 30085 40276 52012 60002 333 21335
47009=
31538 42999 00000 11393 21423 39756 40266 53003 333 21398=
31561 42998 00000 11393 21437 30163 40193 52008 333 21412=
31683 42999 00000 11369 21411 30085 40169 53005 333 21368=
31707 42999 53202 11318 21329 30147 40251 53002 80001 333 21323
55062=
31733 42999 01804 11277 21315 30119 40202 52008 333 21288=
31735 41997 02609 11251 21316 30109 40207 53006 73630 333 91012
91112=
31770 42999 02302 11265 21304 30122 40155 53004 333 21279 55076=
0000425000
648
SMRS12 RUMS 110000
AAXX 11001
22028 42581 11804 11193 21205 30135 40177 51001 82500 333 91005
93506=
22106 41998 00000 11348 21390 30104 40195 55001 77600 333 93503=
22127 42998 00000 11340 21378 39952 40184 54000=
22324 41584 80306 11156 21188 30055 40108 57004 73632 82501 333 91010
91111=
22413 41459 80506 11119 21139 39965 40070 54000 77173 8671/ 333 91011
91114=
22525 41494 80807 11090 21102 39995 40008 57005 77573 8802/ 333 91013
91114=
22529 41495 80605 11123 21123 39994 40001 58008 77173 8872/ 333 88517
91011 91112 92982=
22621 41480 80304 11133 21168 39844 49991 58001 73683 889// 333
87915=
22717 41250 80205 11112 21125 39725 49925 53006 77173 8872/ 333 91110
93701=
22727 41922 83605 11109 21137 39869 49918 53004 77573 8807/ 333 91011
91111 92982=
22805 414// 80106 11070 21083 39883 49903 52015 78587 889// 333 91010
91111 93704=
22831 41396 80604 11083 21093 39826 49887 53001 77172 8872/ 333
88707=
22892 42597 80106 11056 21070 39898 49914 52021 886// 333 88720
91111=
22912 41970 80205 11063 21075 39848 49863 52015 77173 8802/ 333 91112
92980=
22913 41396 80105 11029 21039 39822 49851 53012 77172 8872/ 333 86708
91110=
22917 41459 80205 11010 21014 39827 49838 52009 77173 8872/ 333 88712
91010 91110 92982 93709=
22925 41369 80303 10003 21003 39701 49837 54000 77172 8872/ 333
86707=
26069 41399 83406 11015 21018 39750 48861 52027 70272 886// 333 88709
91012 91112=
26872 NIL=
26078 42/// /3303 10001 21004 39791 49839 52015=
26080 41384 83402 10005 20002 39797 49829 52007 70252 886// 333
88707=
26099 42/// /0000 11000 21000 39609 49822 57003=
26179 41196 83404 10018 20010 39800 49831 53003 75165 886// 333
88703=
26268 42/// /2903 10014 20005 39777 49856 53025=
26275 41397 82702 10031 20026 39801 49831 53005 76162 8772/ 333
87709=
26285 41396 82301 10035 20033 39751 49828 53001 78082 889// 333
87706=
26291 41497 81801 10026 20021 39718 49825 56003 78082 883// 333
84911=
26378 42/// /2503 10026 20022 39754 49840 52008=
26381 41499 82302 10031 20023 39757 49831 53002 70282 883// 333
88913=
26389 41496 82101 10016 20016 39576 49834 56001 71082 886//=
26393 41597 81801 10020 20017 39627 49830 57008 70381 889//=
26477 41596 82404 10030 20017 39730 49855 52009 78082 889//=
26479 41450 82703 10018 20015 39620 49846 54000 76186 8872/ 333
88711=
26499 42497 72103 10025 20017 39622 49845 57009 87500=
26578 41461 82305 10021 20016 39670 49870 52002 78082 889// 333
88916=
26585 41496 82604 10017 20011 39591 49859 57004 76162 8872/=
26695 41496 82306 10021 20014 39578 49875 56008 76162 8652/ 333 86612
91110=
26784 41496 82406 10023 20010 39653 49899 57006 78082 8695/ 333 84914
91110=
26795 42565 82203 10024 20014 39607 49894 57008 885// 333 88622=
26882 41584 72506 10020 20012 39637 49908 57007 70262 83130 333
91110=
27108 NIL=
27164 41996 81302 10001 20001 39721 49906 57034 71022 8802/=
27176 42599 81405 10002 20001 39758 49953 58031 8850/=
27215 41496 80000 10016 20013 39635 49837 57007 71072 886// 333
88713=
27223 41496 81903 10007 20004 39700 49843 57013 70287 885// 333
88618=
27316 41540 71902 10022 20022 39680 49848 57011 71062 87500=
27321 41573 81803 10022 20020 39702 49850 56011 70262 885//=
27347 41315 81702 10001 20000 39721 49874 57020 77572 887// 333
85706=
27417 41597 81702 10029 20018 39656 49856 57013 70262 885//=
27507 41458 82204 10024 20014 39635 49868 56009 71022 886// 333
88712=
27511 41597 81903 10026 20019 39670 49861 58014 70282 883//=
27523 41597 82002 10029 20023 39714 49876 57012 70262 885//=
27539 41496 81801 10003 21001 39728 49894 57018 77177 8802/=
27606 42/// /2003 10027 20018 39971 40221 58008=
27611 42597 82003 10026 20019 39643 49872 57014 885//=
27627 41497 82303 10024 20018 39631 49897 57011 70282 889//=
27703 42497 82003 10030 20020 39652 49894 58013 8663/ 333 86710=
27745 412// 81705 10002 20002 39785 49926 57026 77176 8872/ 333 86705
91111=
27821 41439 82302 10012 20011 39635 49914 57012 71067 886//=
27823 41498 82106 10005 20004 39667 49922 57017 72276 8672/ 333
86711=
27921 41397 82403 10011 20011 39675 49941 57013 70275 886// 333
88707=
0000328400
649
SMRS10 RUMS 110000
AAXX 11001
26894 41458 83003 10032 20014 39707 49921 57013 72582 889// 333
88916=
26898 41596 82303 10033 20021 39665 49925 57015 71062 885// 333
88621=
26976 41459 82406 10034 20016 39762 49940 57004 78082 8692/ 333 86914
91013 91113=
26997 41458 62407 10033 20015 39743 49958 57008 71022 86700 333 86711
91011 91111=
27595 41295 81602 11004 21009 39882 40030 58020 77172 8872/ 333
88706=
27612 415// 81801 10037 20023 39683 49873 58013 71062 885//=
27707 41558 72403 10027 20016 39614 49901 57015 71022 87500 333
87623=
27719 41497 61903 10023 20016 39660 49905 58009 70266 86600=
27785 41397 81803 11003 21014 39875 40036 57020 70252 886// 333
88706=
27817 41457 82002 10025 20015 39685 49929 57013 71062 8872/=
27848 41396 81903 10007 20001 39772 49946 57032 77176 8872/ 333
88710=
27857 41497 81905 10010 20004 39795 49956 56031 70272 8802/ 333 88513
91110=
27906 41597 72006 10036 20018 39703 49940 57015 70262 87500=
27928 41496 82302 10009 20006 39748 49953 57017 72276 8872/=
27930 41440 82005 10005 21001 39737 49954 57021 78582 883// 333
91110=
27935 41595 82004 10003 21005 39757 49951 57027 77172 885// 333
88620=
27947 41396 81806 10006 21002 39802 49959 57033 78382 883// 333 88706
91110=
27957 41497 82003 10000 21003 39770 49979 57030 70276 886//=
27962 41497 81704 10012 20002 39790 40002 58034 76162 885// 333 88616
91111 91010 91111=
27983 42468 81803 11004 21019 39929 40059 57017 886// 333 88714=
27995 42573 82003 10002 21012 30014 40075 57013 885//=
28506 42997 81201 11042 21048 39953 40069 57005 8807/=
28704 41598 81605 11008 21012 39965 40061 58009 70274 885// 333
88621=
28711 41295 82001 11048 21054 39698 40079 57003 71022 886// 333 88703
93504=
34003 41496 82503 10022 20017 39663 49967 57009 71087 886// 333
91110=
34009 41596 82403 10023 20018 39670 49971 57012 71082 885//=
34013 41498 82504 10014 20006 39735 49953 57010 76162 8872/=
34047 41496 81907 10006 20001 39804 49986 57028 77167 8872/ 333
88710=
34109 41397 82402 10020 20015 39754 49988 57006 70262 886// 333
88707=
34110 41497 82705 10017 20006 39709 49985 57010 70262 886// 333
88710=
34123 41356 82505 10024 20014 39787 49968 57026 76162 8872/=
34139 41495 81806 10026 20021 39749 49985 57036 76366 8872/ 333 88713
91010 91112=
34146 41596 71803 10017 20009 39873 40003 57038 71062 87500=
34152 41360 81905 10010 20006 39811 40002 57034 77176 8872/ 333 88509
91110=
34163 41597 82007 10003 21006 39789 40040 58037 70244 885// 333 88620
91011 91111=
34171 41/03 91807 10002 20002 39854 40047 57039 74742 333 89/02 91010
91110=
34186 41/08 91905 10001 21004 39945 40082 57020 74342 333 93401=
34202 41597 82605 10031 20021 39731 40005 57002 70376 883//=
34231 41497 81905 10039 20029 39835 49975 57028 78082 889// 333
88918=
34238 41497 82105 10017 20009 39787 49977 57032 76166 8872/ 333
91111=
34247 41396 82105 10042 20032 39896 40009 57041 76162 8872/ 333
86710=
34336 41497 82004 10048 20048 39906 40008 57038 78082 8631/=
34391 42997 81804 10004 21003 30072 40099 58006 8802/=
35011 42984 81101 11021 21027 39943 40100 51003 8802/=
35121 41396 82603 11006 21010 39956 40103 51010 71042 886// 333
88707=
0000062700
650
USAA01 NZCM 110000
TTAA 61001 89664
99997 00056 18501 00512 ///// ///// 92601 07158 18518
85255 11341 17017 70716 21114 15006 50514 33959 24513
40666 44759 24520 30855 51765 24023 25975 45585 24514
20124 43786 24513 15318 43586 26009 10592 41586 23504
88320 52361 23026
77999
31313 48008 82219=

0000069700
87361=
0000011200
87368=
0000015000
87382=
0000030600
87414
0000014800
87423
0000049900
87438=
0000050000
87532
0000048000
87568
0000056300
87609
0000068700
87654=
0000060600
88235
0000056500
88509=
0000062800
91004
0000067000
92279
0000064800
651
USAA01 NZCM 110000
TTAA 61001 89664
99997 00056 18501 00512 ///// ///// 92601 07158 18518
85255 11341 17017 70716 21114 15006 50514 33959 24513
40666 44759 24520 30855 51765 24023 25975 45585 24514
20124 43786 24513 15318 43586 26009 10592 41586 23504
88320 52361 23026
77999
31313 48008 82219=

0000069700
87361=
0000011200
87368=
0000015000
87382
0000012800
87386
0000045600
87406=
0000047800
87429
0000015700
87445=
0000050000
87538
0000054200
87552
0000066600
87599
0000058400
87652=
0000060600
88230
0000062700
88505=
0000058700
91003
0000067000
92294
0000073000
652
USAA01 NZCM 110000
TTAA 61001 89664
99997 00056 18501 00512 ///// ///// 92601 07158 18518
85255 11341 17017 70716 21114 15006 50514 33959 24513
40666 44759 24520 30855 51765 24023 25975 45585 24514
20124 43786 24513 15318 43586 26009 10592 41586 23504
88320 52361 23026
77999
31313 48008 82219=

0000069700
87361=
0000011200
87368=
0000015000
87382
0000012800
87386=
0000045700
87427
0000045800
87444
0000047900
87464
0000052000
87476
0000050000
87490
0000045900
87515
0000054200
87561
0000056300
87628
0000058400
87682
0000058400
87821=
0000052400
88921
0000058600
89387
0000060700
90041
0000062800
91029
0000064900
92307
0000071000
653
USAA01 NZCM 110000
TTAA 61001 89664
99997 00056 18501 00512 ///// ///// 92601 07158 18518
85255 11341 17017 70716 21114 15006 50514 33959 24513
40666 44759 24520 30855 51765 24023 25975 45585 24514
20124 43786 24513 15318 43586 26009 10592 41586 23504
88320 52361 23026
77999
31313 48008 82219=

0000069700
87361=
0000011200
87368=
0000015000
87382
0000012800
87386
0000045600
87406=
0000047800
87429
0000015700
87445
0000049900
87465
0000054100
87473
0000050000
87488
0000052100
87521
0000054200
87549=
0000056400
87860
0000054400
88008=
0000058600
89412
0000056600
90078
0000064900
91041
0000067000
92309
0000068900
654
USAA01 NZCM 110000
TTAA 61001 89664
99997 00056 18501 00512 ///// ///// 92601 07158 18518
85255 11341 17017 70716 21114 15006 50514 33959 24513
40666 44759 24520 30855 51765 24023 25975 45585 24514
20124 43786 24513 15318 43586 26009 10592 41586 23504
88320 52361 23026
77999
31313 48008 82219=

0000069700
87361=
0000011200
87368=
0000015000
87382=
0000030600
87414
0000014800
87423
0000049900
87438
0000052000
87459
0000058200
87471
0000050000
87489
0000052100
87522=
0000058400
87725
0000058500
87827
0000058500
88015
0000062600
88202=
0000060700
90025
0000066900
91042
0000064900
92310
0000073000
655
USAA01 NZCM 110000
TTAA 61001 89664
99997 00056 18501 00512 ///// ///// 92601 07158 18518
85255 11341 17017 70716 21114 15006 50514 33959 24513
40666 44759 24520 30855 51765 24023 25975 45585 24514
20124 43786 24513 15318 43586 26009 10592 41586 23504
88320 52361 23026
77999
31313 48008 82219=

0000069700
87361=
0000011200
87368=
0000015000
87382
0000012800
87386
0000045600
87406
0000047700
87410
0000049800
87416=
0000045800
87478
0000043800
87484
0000050000
87523
0000054200
87562
0000060400
87623
0000056300
87678
0000064600
87811
0000068800
87998=
0000060700
89401
0000060700
90058
0000064900
91047
0000071100
92306
0000066800
656
USAA01 NZCM 110000
TTAA 61001 89664
99997 00056 18501 00512 ///// ///// 92601 07158 18518
85255 11341 17017 70716 21114 15006 50514 33959 24513
40666 44759 24520 30855 51765 24023 25975 45585 24514
20124 43786 24513 15318 43586 26009 10592 41586 23504
88320 52361 23026
77999
31313 48008 82219=

0000069700
87361=
0000011200
87368
0000009600
87371
0000035800
87378
0000037300
87381
0000039400
87385=
0000043700
87428
0000047800
87442
0000056100
87461=
0000021900
87579=
0000050200
87870
0000054300
88010
0000064700
88198
0000060600
88477=
0000069000
90975
0000064900
92285
0000066800
657
USAA01 NZCM 110000
TTAA 61001 89664
99997 00056 18501 00512 ///// ///// 92601 07158 18518
85255 11341 17017 70716 21114 15006 50514 33959 24513
40666 44759 24520 30855 51765 24023 25975 45585 24514
20124 43786 24513 15318 43586 26009 10592 41586 23504
88320 52361 23026
77999
31313 48008 82219=

0000069700
87361=
0000011200
87368
0000009600
87371
0000035800
87378
0000037300
87381=
0000039500
87413
0000041600
87422
0000043700
87443
0000045800
87466
0000054100
87469=
0000050100
87581
0000046000
87641=
0000054400
88252
0000056500
88523=
0000064900
91018
0000058700
92315
0000066800
658
USAA01 NZCM 110000
TTAA 61001 89664
99997 00056 18501 00512 ///// ///// 92601 07158 18518
85255 11341 17017 70716 21114 15006 50514 33959 24513
40666 44759 24520 30855 51765 24023 25975 45585 24514
20124 43786 24513 15318 43586 26009 10592 41586 23504
88320 52361 23026
77999
31313 48008 82219=

0000069700
87361=
0000011200
87368=
0000015000
87382
0000012800
87386
0000045600
87406
0000047700
87410=
0000049900
87467
0000047900
87475
0000047900
87491=
0000056300
87705
0000058400
87804
0000056400
87994=
0000062700
89396
0000064900
90042
0000064900
91051
0000067000
92311
0000066800
659
USAA01 NZCM 110000
TTAA 61001 89664
99997 00056 18501 00512 ///// ///// 92601 07158 18518
85255 11341 17017 70716 21114 15006 50514 33959 24513
40666 44759 24520 30855 51765 24023 25975 45585 24514
20124 43786 24513 15318 43586 26009 10592 41586 23504
88320 52361 23026
77999
31313 48008 82219=

0000069700
87361=
0000011200
87368
0000009600
87371
0000035800
87378
0000037300
87381
0000039400
87385=
0000043700
87428
0000047800
87442=
0000052100
87533
0000058300
87555
0000060400
87612
0000058400
87657=
0000064700
88223
0000056500
88474=
0000062800
90953
0000064900
92258
0000077100
660
USAA01 NZCM 110000
TTAA 61001 89664
99997 00056 18501 00512 ///// ///// 92601 07158 18518
85255 11341 17017 70716 21114 15006 50514 33959 24513
40666 44759 24520 30855 51765 24023 25975 45585 24514
20124 43786 24513 15318 43586 26009 10592 41586 23504
88320 52361 23026
77999
31313 48008 82219=

0000069700
87361=
0000011200
87368
0000009600
87371
0000035800
87378
0000037300
87381=
0000039500
87413
0000041600
87422
0000043700
87443
0000045800
87466
0000054100
87469
0000050000
87483
0000045900
87525
0000058300
87572
0000060400
87624
0000058400
87661
0000060500
87773
0000068800
87961
0000062600
88133=
0000064800
90036
0000060800
91021
0000071100
92305
0000068900
661
USAA01 NZCM 110000
TTAA 61001 89664
99997 00056 18501 00512 ///// ///// 92601 07158 18518
85255 11341 17017 70716 21114 15006 50514 33959 24513
40666 44759 24520 30855 51765 24023 25975 45585 24514
20124 43786 24513 15318 43586 26009 10592 41586 23504
88320 52361 23026
77999
31313 48008 82219=

0000069700
87361=
0000011200
87368=
0000015000
87382=
0000030600
87414
0000014800
87423
0000049900
87438
0000052000
87459
0000058200
87471
0000050000
87489
0000052100
87522=
0000058400
87725
0000058500
87827
0000058500
88015=
0000052400
89415
0000066900
90075
0000075200
91048
0000064900
92312
0000025700
662
SMIN90 VABB 110000
AAXX 11004
43117 32996 00000 10190 20113 40127
  333 59001=
43110 32996 03603 10176 20130 40132
  333 58012=
42921 32996 00000 10090 20038 40163
  333 58012=
43001 32996 00000 10158 20064 40141
  333 58022=
0000060600
663
USAA01 NZCM 110000
TTAA 61001 89664
99997 00056 18501 00512 ///// ///// 92601 07158 18518
85255 11341 17017 70716 21114 15006 50514 33959 24513
40666 44759 24520 30855 51765 24023 25975 45585 24514
20124 43786 24513 15318 43586 26009 10592 41586 23504
88320 52361 23026
77999
31313 48008 82219=

0000069700
87361=
0000011200
87368=
0000015000
87382=
0000030600
87414=
0000011000
87481
0000054100
87485=
0000050100
87709
0000058400
87817
0000060600
88022
0000058500
88215
0000073000
88496=
0000064900
90986
0000069000
92281
0000068900
664
USAA01 NZCM 110000
TTAA 61001 89664
99997 00056 18501 00512 ///// ///// 92601 07158 18518
85255 11341 17017 70716 21114 15006 50514 33959 24513
40666 44759 24520 30855 51765 24023 25975 45585 24514
20124 43786 24513 15318 43586 26009 10592 41586 23504
88320 52361 23026
77999
31313 48008 82219=

0000069700
87361=
0000011200
87368=
0000015000
87382
0000012800
87386
0000045600
87406
0000047700
87410=
0000049900
87467
0000047900
87475
0000047900
87491
0000056200
87512
0000054200
87550
0000058400
87597
0000062500
87670=
0000054400
88236
0000056500
88508=
0000064900
91006
0000067000
92292
0000066800
665
USAA01 NZCM 110000
TTAA 61001 89664
99997 00056 18501 00512 ///// ///// 92601 07158 18518
85255 11341 17017 70716 21114 15006 50514 33959 24513
40666 44759 24520 30855 51765 24023 25975 45585 24514
20124 43786 24513 15318 43586 26009 10592 41586 23504
88320 52361 23026
77999
31313 48008 82219=

0000069700
87361=
0000011200
87368
0000009600
87371
0000035800
87378
0000037300
87381=
0000039500
87413=
0000052000
87479
0000056200
87492
0000045900
87517
0000054200
87560
0000060400
87620
0000064600
87679=
0000058500
88249
0000062700
88520=
0000052500
90989
0000064900
92259
00000000