0000170100
406
SAUS74 KWBC 110000
METAR
KACV 102353Z AUTO 00000KT 1 1/2SM R32/4000VP6000FT BR OVC002 11/09
     A3020=
KALW 102353Z 19010KT 10SM BKN055 OVC095 09/02 A3001=
KBFI 102353Z 16007KT 10SM SCT021 OVC055 10/06 A2998=
KBFL 102354Z AUTO 22003KT 9SM CLR 16/05 A3020=
KBIL 102353Z 28014KT 10SM SCT090 SCT200 04/M04 A2964=
KBKE 102353Z AUTO 17005KT 10SM OVC065 02/M01 A3005=
KBLI 102353Z AUTO 14007KT 9SM -RA BKN017 OVC040 08/06 A2992=
KBOI 102353Z 01006KT 10SM OVC060 05/M01 A3011=
KBTM 102353Z AUTO 23006KT 10SM OVC048 01/M07 A2982=
KBUR 102353Z 12007KT 10SM CLR 23/05 A3003=
KBYI 102353Z AUTO 26014KT 10SM SCT055 03/M02 A3004=
KBZN 102356Z 27015KT 10SM BKN075 04/M08 A2979=
KCDC 102353Z AUTO 04003KT 10SM CLR 09/M06 A3011=
KCEC 102356Z AUTO 15009KT 2SM BR OVC003 09/09 A3020=
KCLM 102353Z AUTO 11004KT 6SM -RA BR BKN007 OVC012 07/06 A2988=
KCTB 102356Z AUTO 27016KT 10SM CLR 01/M05 A2962=
KCXL NIL=
KEKO 102356Z AUTO 23009KT 10SM FEW050 BKN085 07/M02 A3017=
KEUG 102354Z 19009KT 10SM FEW020 BKN048 OVC075 11/08 A3008=
KFAT 102353Z 00000KT 4SM HZ BKN200 16/06 A3021=
KFLG 102357Z VRB04KT 10SM CLR 08/M08 A3014=
KGCN 102354Z AUTO VRB05KT 10SM CLR 08/M07 A3013=
KGEG 102353Z 21014KT 10SM FEW020 SCT050 OVC100 04/01 A2990=
KGGW 102353Z AUTO 31004KT 10SM CLR M04/M08 A2954=
KGTF 102353Z 25011KT 10SM CLR 02/M04 A2965=
KHLN 102353Z 27018G32KT 10SM OVC060 05/M06 A2975=
KHQM 102353Z AUTO 16014KT 3SM -RA BKN014 BKN020 OVC039 A2993=
KIDA 102353Z 26008KT 10SM FEW085 02/M03 A2993=
KIWA NIL=
KLAS 102356Z 14004KT 10SM BKN250 16/M03 A3004=
KLAX 102353Z 27004KT 8SM FEW160 SCT250 17/10 A3005=
KLGB 102353Z 20005KT 6SM HZ CLR 18/09 A3004=

0000168400
407
SAUS74 KWBC 110000 RRA
METAR
KLMT 102353Z AUTO 12003KT 10SM OVC039 06/01 A3018=
KLVM 102353Z AUTO 26018G25KT 10SM BKN085 04/M08 A2972=
KMFR 102353Z 00000KT 9SM SCT012 OVC065 08/05 A3018=
KMLS 102353Z AUTO 28012KT 10SM FEW065 BKN080 OVC090 03/M03
     A2957=
KMRY 102354Z 33003KT 10SM CLR 13/10 A3018=
KMSO 102353Z 00000KT 10SM FEW050 OVC075 03/M01 A2990=
KMYV 102353Z AUTO 01005KT 10SM CLR 17/06 A3019=
KNTD 102354Z 17006KT 7SM CLR 18/12 A3003=
KOAK 102353Z 25004KT 10SM BKN250 14/08 A3019=
KOGD 102353Z 20005KT 10SM OVC080 04/M03 A3008=
KOLM 102354Z 18003KT 3SM -RA BR OVC035 08/07 A2997=
KONT 102353Z 25005KT 8SM FEW250 22/03 A3004=
KOTH 102355Z 17003KT 10SM OVC028 12/11 A3010=
KPAE 102353Z 17011G19KT 10SM BKN014 OVC060 08/05 A2995=
KPDX 102353Z 18009KT 10SM -RA FEW020 BKN060 OVC080 11/07 A3003=
KPHX 102351Z 21003KT 10SM SCT250 19/M04 A3004=
KPIH 102353Z 22024G29KT 10SM SCT043 03/M03 A2999=
KPMD 102353Z AUTO 32013KT 10SM CLR 20/M04 A3009=
KPRB 102353Z AUTO 12010KT 10SM CLR 19/03 A3015=
KPRC 102353Z 28007KT 10SM CLR 14/M06 A3010=
KPSP 102353Z 11006KT 10SM CLR 22/M03 A3005=
KRBL 102354Z AUTO 00000KT 10SM CLR 17/03 A3019=
KRDD 102353Z 00000KT 10SM CLR 17/04 A3018=
KRDM 102356Z 18010KT 10SM OVC050 07/M03 A3006=
KRNO 102355Z 00000KT 10SM FEW080 FEW180 OVC250 12/M01 A3023=
KRNT 102353Z 15005KT 10SM FEW024 OVC043 09/06 A2998=
KSAC 102353Z 32003KT 10SM CLR 17/06 A3019=
KSAN 102351Z 30006KT 7SM FEW250 19/09 A3005=
KSBA 102353Z 17004KT 10SM CLR 18/12 A3003=
KSBD 102351Z 24003KT 6SM HZ FEW250 22/00 A3004=
KSBP 102356Z 33012KT 10SM CLR 23/03 A3009=
KSCK 102355Z 29006KT 10SM CLR 16/07 A3018=

0000129100
408
SAAK31 KWBC 110000
METAR
PABR 102353Z 31013KT 10SM FEW007 SCT120 M25/M28 A2989=
PACD 102353Z 15011KT 10SM -RA SCT019 BKN040 BKN110 OVC170 03/M01
     A2930=
PAED NIL=
PAEI NIL=
PAEN 102353Z 02003KT 10SM OVC006 M03/M04 A2941=
PAFA 102353Z 00000KT 10SM FEW080 M26/M29 A2958=
PAFR NIL=
PAFS 102356Z AUTO 04005KT 10SM OVC029 M14/M18 A2955=
PAFY NIL=
PAJN 102353Z VRB05KT 10SM FEW015 BKN035 BKN060 OVC160 03/00
     A2948=
PAKN 102354Z COR 05005KT 10SM FEW004 BKN025 M02/M02 A2942=
PAKN 102354Z 05005KT 10SM FEW004 BKN025 M02/M02 A2942=
PAKT 102353Z 00000KT 10SM SCT016 BKN023 OVC039 02/01 A2955=
PANC 102353Z 33004KT 7SM -SN SCT005 OVC013 M03/M05 A2939=
PAOM 102353Z 05012KT 10SM FEW100 SCT200 M11/M18 A2965=
PAOR 102353Z 31003KT 6SM -SN SCT045 BKN070 BKN110 BKN130 M17/M19
     A2938=
PAOT 102353Z 04005KT 10SM CLR M19/M25 A2978=
PARY 102356Z AUTO 00000KT 10SM CLR M21/M23 A2959=
PASC 102353Z 25013KT 3SM -SN BR FEW017 BKN030 M30/M33 A2986=
PASG NIL=
PASI 102353Z 11006KT 5SM -RA BR BKN024 OVC046 02/01 A2948=
PATQ 102356Z AUTO 29006KT 1/4SM +SN OVC006 M26/M28 A2992=
PAVD 102356Z 10SM FEW015 FEW090 SCT100 M04/M05 A2935=
PAWG 102356Z 10010KT 10SM BKN050 OVC060 03/00 A2954=
PFYU 102356Z 00000KT 10SM FEW120 M36/ A2971=

0000162000
409
SAUS75 KWBC 110000 RRA
METAR
PANT 102353Z 11004KT 10SM FEW023 BKN050 OVC180 03/01 A2953=
PAOM 102353Z 05012KT 10SM FEW100 SCT200 M11/M18 A2965=
PAOR 102353Z 31003KT 6SM -SN SCT045 BKN070 BKN110 BKN130 M17/M19
     A2938=
PAOT 102353Z 04005KT 10SM CLR M19/M25 A2978=
PAPG 102350Z 00000KT 10SM FEW003 BKN036 OVC044 03/00 A2952=
PASC 102353Z 25013KT 3SM -SN BR FEW017 BKN030 M30/M33 A2986=
PASI 102353Z 11006KT 5SM -RA BR BKN024 OVC046 02/01 A2948=
PASN 102353Z 14004KT 10SM BKN016 01/M01 A2915=
PATA 102352Z 00000KT 10SM CLR M29/M33 A2965=
PATC 102355Z AUTO 03022KT 3/4SM BR VV002 M18/M20 A2975=
PATK 102353Z 00000KT 9SM OVC016 M07/M09 A2939=
PAUN 102356Z AUTO 08016KT 10SM CLR M14/M21 A2959=
PAVD 102356Z 10SM FEW015 FEW090 SCT100 M04/M05 A2935=
PAYA 102353Z COR 00000KT 3SM -SN BR BKN003 OVC027 00/00 A2939=
PAYA 102353Z 00000KT 3SM -SN BR BKN003 OVC027 00/00 A2939=
PGRO 102355Z 06014G21KT 7SM SCT028 SCT120 27/24 A2997=
PGUA 102358Z AUTO 06016G23KT 10SM FEW019 28/23 A2996=
PGUM 102354Z 06016KT 10SM FEW027 SCT034 28/22 A2995=
PHJH 102350Z 02015G22KT 15SM FEW020 FEW035 26/19 A2990=
PHLI 102353Z 03015KT 10SM CLR 26/19 A2995=
PHMK 102354Z 02010G17KT 10SM FEW050 24/20 A2991=
PHNL 102353Z COR 31009G17KT 8SM FEW025 SCT035 BKN100 24/19
     A2990=
PHNL 102353Z 31009G17KT 8SM BKN100 24/19 A2990=
PHNY 102356Z AUTO 05013KT 10SM CLR 25/16 A2994=
PHOG 102354Z 36010KT 10SM FEW035 27/20 A2990=
PHTO 102353Z 05007KT 10SM FEW021 SCT050 26/20 A2990=
PMDY 102356Z AUTO 10016G23KT 6SM HZ CLR 23/17 A3018=
PWAK 102355Z 09010KT 10SM FEW022 27/27 A3000=

0000027600
410
SATH41 VTBB 110000
METAR VTPB 110000Z NIL=
METAR VTPM 110000Z 15001KT 2800 BR NSC 16/15 Q1016 A3000
RMK/RWY27 INFO A=
METAR VTSE 110000Z 32002KT 2000 BR FEW020 SCT300 22/21
Q1014 A2995 RMK /RWY 24=
METAR VTSK 110000Z NIL=
METAR VTUJ 110000Z NIL=

0000089100
411
SACI31 ZBBB 110000
METAR ZBAA 110000Z 02002MPS 8000 NSC M11/M20 Q1032 NOSIG=
METAR ZBSJ 110000Z 23001MPS 1400 FU NSC M06/M12 Q1032 BECMG
TL0120 1600=
METAR ZBTJ 110000Z 15001MPS 0400 R16R/0900V1100D FZFG NSC
M09/M10
Q1032 BECMG
TL0130 0600=
METAR ZBYN 110000Z 13001MPS 6000 NSC M09/M18 Q1029 NOSIG=
METAR ZGGG 110000Z 09003MPS 050V110 4000 BR NSC 13/08 Q1025 NOSIG=
METAR ZSHC 110000Z 08001MPS 4000 -RA BR SCT030 05/03 Q1031
BECMG
TL0100 2500 -RA=
METAR ZSPD 110000Z 07004MPS 9999 -RA FEW030 07/01 Q1032 NOSIG=
METAR ZSSS 110000Z 08004MPS 050V110 9999 OVC033 07/00 Q1032 NOSIG=
METAR ZWSH 110000Z 33004MPS 4500 FU NSC M09/M13 Q1033 NOSIG=
METAR ZWWW 110000Z 07001MPS 0600 R25/0800N FZFG BKN005 M22/M24 Q1037
NOSIG=
METAR ZYTL 110000Z 00000MPS 4000 BR NSC M05/M08 Q1032 NOSIG=
METAR ZYTX 110000Z 13002MPS 5000 FU NSC M15/M18 Q1031 NOSIG=

0000028500
412
SANZ31 NZKL 110000
METAR NZAA 110000Z AUTO 22011KT 9999 FEW034/// OVC044/// 20/12 Q1019
          NOSIG=
METAR NZWN 110000Z AUTO 32011KT 290V350 9999 NCD 20/11 Q1017 NOSIG=
METAR NZCH 110000Z AUTO 07010KT 9999 BKN022/// OVC028/// 17/12 Q1016
          NOSIG=

0000020700
413
FTAU35 YBBN 110000 AAA
TAF AMD YCIN 110002Z 1100/1120
27008KT CAVOK
FM110700 33008KT CAVOK
FM111200 25008KT CAVOK
PROB30 INTER 1106/1116 VRB25G40KT 3000 TSRA SCT030 FEW080CB
RMK=

0000040400
414
SAPL31 EPWA 110000
METAR EPGD 110000Z 31014KT 9999 -SHRA BKN011 FEW023CB
    04/03 Q1006 =
METAR EPKK 110000Z 24013KT 9999 BKN053 04/M01 Q1016 =
METAR EPLL 110000Z 27014KT 9999 SCT030 05/00 Q1013 =
METAR EPPO 110000Z 24010KT 9999 BKN030 06/01 Q1013
    R10/19//95 =
METAR EPRZ 110000Z 26017KT CAVOK 05/M01 Q1015 =
METAR EPWA 110000Z 27018KT 9999 BKN026 05/01 Q1010 NOSIG=

0000036400
415
SAPL32 EPWA 110000
METAR EPBY 110000Z 25014KT 9999 BKN033 06/02 Q1011 =
METAR EPKT 110000Z 25013KT 9999 BKN045 04/M01 Q1016 =
METAR EPLB 110000Z NIL=
METAR EPMO 110000Z 26017KT 9999 BKN023 05/03 Q1010 RESHRA=
METAR EPSC 110000Z 24007KT 9999 BKN017 04/02 Q1012 =
METAR EPWR 110000Z 25007KT CAVOK 04/M00 Q1017 =
METAR EPZG 110000Z NIL=

0000027000
416
SAIE31 EIDB 110000
METAR EIDW 110000Z 25006KT 9999 FEW025 02/01 Q1011 NOSIG=
METAR EINN 110000Z 20007KT 9999 -SHRA FEW018CB SCT028 04/04 Q1013
     NOSIG=
METAR EICK 110000Z 22002KT 9999 FEW016 SCT060 03/01 Q1013 NOSIG=
METAR EIKN 110000Z NIL=

0000011200
417
SASR31 WSSS 110000
METAR WSSS 110000Z 36003KT 270V040 9999 FEW018 BKN300 25/23 Q1012
NOSIG=

0000047600
418
FTUS52 KWBC 110003 AAA
TAF AMD
KMLC 110002Z 1100/1124 VRB03KT P6SM SCT040 BKN045 OVC070
     FM110200 28008KT P6SM SCT250
     FM111800 30015G23KT P6SM SKC=
KMLU 110001Z 1100/1124 19007KT P6SM SCT007 OVC025
      TEMPO 1100/1102 2SM -DZ BR OVC005
     FM110300 19012G18KT P6SM OVC010
      TEMPO 1104/1108 VRB15G30KT 2SM TSRA BR OVC005CB
     FM110800 23008KT P6SM BKN015
     FM111200 26010KT P6SM SKC
     FM111800 28015G25KT P6SM SKC=

0000085000
419
FTUS80 KWBC 110003 AAA
TAF AMD
KGLD 110000Z 1100/1124 32010KT P6SM SCT090
     FM110300 29015KT P6SM SCT090 SCT250
     FM111300 27011KT P6SM SKC
     FM112000 23011KT P6SM FEW250=
KMCK 110001Z 1100/1124 33009KT P6SM BKN100
     FM110300 29012KT P6SM SCT090
     FM112200 24008KT P6SM SKC=
KMLC 110002Z 1100/1124 VRB03KT P6SM SCT040 BKN045 OVC070
     FM110200 28008KT P6SM SCT250
     FM111800 30015G23KT P6SM SKC=
KMLU 110001Z 1100/1124 19007KT P6SM SCT007 OVC025
      TEMPO 1100/1102 2SM -DZ BR OVC005
     FM110300 19012G18KT P6SM OVC010
      TEMPO 1104/1108 VRB15G30KT 2SM TSRA BR OVC005CB
     FM110800 23008KT P6SM BKN015
     FM111200 26010KT P6SM SKC
     FM111800 28015G25KT P6SM SKC=
PAOR 110000Z 1100/1124 33004KT 6SM -SN BR BKN035 BKN070
     FM110800 00000KT 6SM -SN BR BKN025=

0000010300
420
SACN61 CYZY 110000
METAR CYZY 110000Z AUTO 17008KT 9SM CLR M04/M06 A2962 RMK SLP071=

0000016900
421
SACY31 LCLK 110000
METAR LCLK 110000Z 34007KT CAVOK 12/06 Q1021 NOSIG=
METAR LCPH 110000Z 02007KT 9999 FEW020 11/06 Q1022=
METAR LCNC 110000Z NIL=

0000011100
422
SACN62 CYAM 110000
METAR CYAM 110000Z 11005KT 3SM BR OVC008 M02/M03 A2982 RMK ST8
 SLP111=

0000012800
423
SACN62 CYDC 110000
METAR CYDC 110000Z 27005KT 15SM FEW050 SCT060 BKN070 05/M02 A2984 RMK
 CU1SC3AC2 SLP127=

0000013800
424
SACN62 CYCY 110000
METAR CYCY 110000Z 28008KT 15SM FEW160 M25/M28 A2920 RMK AS2
 -23.3/-25.0/0/35/MEDIUM PACK SLP890=

0000011700
425
SACN62 CYBK 110000
METAR CYBK 110000Z 07003KT 070V180 15SM FEW020 M33/M36 A2971 RMK SC1
 SLP065=

00000000