0000025300
786
FTCN32 CWAO 102300
TAF CYQL 102339Z 1100/1112 26020G30KT P6SM BKN100
     BECMG 1102/1104 26015G25KT
    FM110700 23008KT P6SM BKN060
    FM111000 20010KT P6SM BKN030 TEMPO 1110/1112 5SM -SN BKN020
    RMK NXT FCST BY 110600Z=

0000024600
787
FTCN32 CWAO 102300
TAF CYQF 102339Z 1100/1112 19005KT P6SM SCT070
     BECMG 1101/1103 25005KT
     BECMG 1104/1106 15010KT
    FM111000 15012KT 6SM -SN BKN060 TEMPO 1110/1112 2SM -SN BKN012
    RMK NXT FCST BY 110600Z=

0000014600
788
FTCN32 CWAO 102300
TAF CYLL 102339Z 1100/1112 27010KT P6SM BKN050
     BECMG 1109/1111 14010KT
    RMK NXT FCST BY 110600Z=

0000021900
789
FTCN32 CWAO 102300
TAF CYXH 102339Z 1100/1112 32010KT P6SM SCT100
     BECMG 1103/1105 23005KT BKN060
    FM110800 18005KT P6SM BKN040 TEMPO 1108/1112 5SM -SN BKN020
    RMK NXT FCST BY 110600Z=

0000036200
790
FTCN32 CWAO 102300
TAF CYYC 102339Z 1100/1124 VRB03KT P6SM FEW020 FEW120
    FM110200 25010KT P6SM SCT200
     BECMG 1104/1106 20006KT BKN150
    FM110700 18005KT P6SM BKN030 TEMPO 1107/1113 5SM -SN BKN020
    FM111300 17008KT P6SM BKN040
    FM111600 23010KT P6SM SCT200
     BECMG 1120/1122 26010KT
    RMK NXT FCST BY 110300Z=

0000026000
791
FTCN32 CWAO 102300
TAF CZVL 102339Z 1100/1112 29010KT P6SM FEW150
     BECMG 1103/1105 24005KT
     BECMG 1107/1109 14010KT
    FM111000 14012KT P6SM BKN100 TEMPO 1110/1112 2SM -SN
    RMK FCST BASED ON AUTO OBS. NXT FCST BY 110600Z=

0000019800
792
SAAK31 KWBC 102300 RRB
METAR
PAVD 102336Z 10SM FEW015 FEW090 BKN100 M04/M06 A2936=
PAWG 102336Z 10011KT 10SM BKN040 03/00 A2956=
PFYU 102336Z 00000KT 10SM FEW120 M36/ A2972=

0000012400
793
SAAK32 KWBC 102300 RRB
METAR
PADK 102336Z AUTO 23023G33KT 7SM FEW029 SCT036 BKN045 04/M02
     A2891=

0000043900
794
SAEE31 LOWM 102330
METAR UACK 102330Z 21010MPS 4000 SHSN BLSN OVC021CB M08/M10
Q1020 R20/450342 NOSIG RMK QFE741/0988=
METAR UACP 102330Z NIL=
METAR UAII 102330Z 16002MPS 8000 BKN100 M05/M10 Q1024
R10/0///70 NOSIG RMK QFE733/0977=
METAR UADD 102330Z 18002MPS 9999 NSC M09/M14 Q1024 NOSIG RMK
QFE710/0947=
METAR UASK 102330Z NIL=
METAR UASP 102330Z NIL=
METAR UAOO 102330Z NIL=
METAR UAKD 102330Z NIL=

0000028400
795
FCFI31 EFHK 102300
TAF EFHA 102340Z NIL=
TAF EFHF 102340Z NIL=
TAF EFKA 102340Z NIL=
TAF EFKK 102340Z NIL=
TAF EFMA 102331Z 1100/1109 34008KT 9999 BKN015 TEMPO 1100/1102
     BKN013 TEMPO 1104/1109 7000 -SN=
TAF EFPO 102340Z NIL=
TAF EFSI 102340Z NIL=

0000017900
796
FCFI32 EFHK 102300
TAF EFJO 102340Z NIL=
TAF EFLP 102340Z NIL=
TAF EFMI 102340Z NIL=
TAF EFSA 102340Z NIL=
TAF EFUT 102340Z NIL=
TAF EFVR 102340Z NIL=

0000027100
797
FCFI33 EFHK 102300
TAF EFET 102340Z NIL=
TAF EFIV 102340Z NIL=
TAF EFKE 102340Z NIL=
TAF EFKI 102322Z 1100/1109 06012KT 9999 FEW020 BKN050=
TAF EFKS 102340Z NIL=
TAF EFKT 102322Z 1100/1109 03006KT CAVOK PROB40 1106/1109
     1500 IC BKN002=

0000083300
798
FTFI31 EFHK 102300
TAF EFHK 102331Z 1100/1124 35012KT 9999 SCT009 BKN015 TEMPO
     1100/1124 BKN009 BECMG 1112/1115 07005KT PROB40
     TEMPO 1112/1119 4000 -SN BKN013=
TAF EFJY 102331Z 1100/1124 03008KT 9999 OVC009 TEMPO 1100/1124
     SCT009 BKN015=
TAF EFKU 102322Z 1100/1124 02012KT 9999 BKN016=
TAF EFOU 102322Z 1100/1124 06008KT 9999 BKN025 TEMPO 1100/1106
     4000 -SN=
TAF EFRO 102322Z 1100/1124 04012KT CAVOK=
TAF EFTP 102329Z 1100/1124 01007KT 8000 BKN009 BECMG 1103/1105
     BKN015 PROB30 TEMPO 1113/1121 4000 -SN BKN013=
TAF EFTU 102331Z 1100/1124 04007KT 9999 BKN007 TEMPO 1100/1106
     7000 -SG BKN004 TEMPO 1106/1112 BKN015 BECMG 1112/1115
     BKN020=
TAF EFVA 102329Z 1100/1124 03008KT 8000 -SN SCT012 BKN020
     TEMPO 1100/1108 5000 BKN012 TEMPO 1108/1118 3000=

0000034200
799
FTCN36 CWAO 102300
TAF CYUY 102339Z 1100/1112 19012KT 2SM -SN BR OVC005 TEMPO 1100/1103
     P6SM NSW OVC008
    FM110300 18008KT P6SM SCT002 OVC005 TEMPO 1103/1108 3SM -SN BR
     BKN002 OVC005
    FM110800 15008KT 3SM -SN SCT002 OVC005 TEMPO 1108/1112 1SM -SHSN
     BKN002 OVC005
    RMK NXT FCST BY 110600Z=

0000028900
800
FTCN36 CWAO 102300
TAF CYVO 102339Z 1100/1112 18010KT P6SM BKN010 OVC025 TEMPO 1100/1108
     3SM -SN BKN008 OVC025
    FM110800 15008KT 3SM -SN SCT002 OVC005 TEMPO 1108/1112 1SM -SHSN
     BKN002 OVC005 PROB40 1110/1112 1SM -FZRA BR
    RMK NXT FCST BY 110600Z=

0000035100
801
FTCN34 CWAO 102300
TAF CYBR 102340Z 1100/1112 30015KT 6SM BR SCT005 OVC010 TEMPO
     1100/1102 11/2SM -SN BR OVC005
    FM110200 30010KT 6SM BR SCT008 OVC015 TEMPO 1102/1104 2SM BR
     OVC008 PROB30 1102/1104 1/2SM FZFG VV002
    FM110400 31012KT P6SM SCT020 PROB30 1104/1108 3/4SM BR BKN005
    RMK NXT FCST BY 110600Z=

0000017400
802
FTCN34 CWAO 102300
TAF CYYN 102340Z 1100/1112 24015KT P6SM BKN080
    FM110300 27012KT P6SM SCT100
    RMK FCST BASED ON AUTO OBS. NXT FCST BY 110600Z=

0000012200
803
FTCN34 CWAO 102300
TAF CYXE 102340Z 1100/1124 24007KT P6SM FEW040 SCT120
    RMK NXT FCST BY 110600Z=

0000014600
804
FTCN34 CWAO 102300
TAF CYQW 102340Z 1100/1112 25005KT P6SM FEW050 SCT090
    RMK FCST BASED ON AUTO OBS. NXT FCST BY 110600Z=

0000029100
805
FTCN34 CWAO 102300
TAF CYWG 102340Z 1100/1124 21007KT P6SM OVC015 TEMPO 1100/1104 21/2SM
     -SN BR OVC008
    FM110400 31010KT P6SM BKN025 TEMPO 1104/1108 5SM -SN BKN015
    FM110900 30008KT P6SM SCT020 PROB30 1109/1115 1SM BR BKN005
    RMK NXT FCST BY 110600Z=

00000000