0000142400
614
NOCN01 CWAO 111033

GENOT TLTP. NO. 002

ACTION - ELEVATION AND PARAMETERS CHANGE / CHANGEMENT D ELEVATION
ET DE PARAMETRES

STATION - WILLOW CREEK 1 AB

IDENTIFIER / INDICATIF - WWO

INDEX NUMBER / INDICATIF INTERNATIONAL - 71252

TYPE - AU8

LATITUDE - 53 23 N

LONGITUDE - 118 21 W

ELEVATION - 1370 M

CIRCUIT HEADER / EN-TETE TLTP - SACN95 CWAO SMCN32 CWAO

PROGRAM / PROGRAMME SA HOURLY OBSERVATIONS / OBSERVATIONS HORAIRES
SA
SM SYNOPTIC OBSERVATIONS / OBSERVATIONS SYNOPTIQUES SM

OPERATION
SA HOURLY OBSERVATIONS / OBSERVATIONS HORAIRES SA 0000 - 2300 UTC /
TU
SYNOPTIC / SYNOPTIQUES 0000 0600 1200 1800 UTC / TU

PARAMETERS / PARAMETRES
PRESSURE / PRESSION
TEMPERATURE
RELATIVE HUMIDITY / HUMIDITE RELATIVE
10 METER WIND DIRECTION AND SPEED AND GUSTS / DIRECTION VITESSE ET
RAFALES DU VENT A 10 METRE
2 METER WIND SPEED / VITESSE DU VENT A 2 METRE
WEIGHING GAUGE FOR PRECIPITATION (PLUVIOMETER) / CAPTEUR DE
PRECIPITATION (PLUVIOMETRE)
SNOW DEPTH / EPAISSEUR DE NEIGE AU SOL
TIPPING BUCKET RAIN GAUGE / PLUVIOMETRE A AUGET BASCULEUR

REMARKS / REMARQUES - PRESSURE ADDED AND STATION ELEVATION CHANGED
FROM 1402.1 TO 1370 METRES / PRESSION AJOUTER ET ELEVATION CHANGER
DE 1402.1 METRES A 1370 METRES

EFFECTIVE / EN VIGUEUR - JANUARY / 9 JANVIER 2014 1000 UTC / TU

GRIMES ADMA-MSC / SMA-SMC OTTAWA

0000014500
615
WSUR31 UKBV 111035
UKBV SIGMET 3 VALID 111200/111600 UKBV-
UKBV KYIV FIR SEV TURB FCST OVER WHOLE KYIV FIR
BLW FL100 STNR NC=
0000015700
616
SSVX13 LFPW 110800
ZZYY 33956 11014 0800/ 544742 042781 6113/ 11119 40016 52002 22219
 00125 444 20130 11014 0600/ 50101 80142 80027 9/015=
0000015700
617
SSVX13 LFPW 110800
ZZYY 33702 11014 0800/ 545907 048615 6113/ 11119 40002 57001 22219
 00123 444 20130 11014 0600/ 50101 80140 80015 9/015=
0000015700
618
SSVX13 LFPW 110800
ZZYY 62680 11014 0800/ 759132 017880 6113/ 11119 40052 52022 22219
 00098 444 20130 11014 0600/ 50101 80132 80018 9/015=
0000015700
619
SSVX13 LFPW 110800
ZZYY 64616 11014 0800/ 762535 022316 6113/ 11119 40002 52022 22219
 00083 444 20130 11014 0600/ 50101 80148 80008 9/015=
0000015700
620
SSVX13 LFPW 110800
ZZYY 64516 11014 0800/ 172835 012486 6113/ 11119 40160 52004 22219
 00062 444 20130 11014 0600/ 50101 80130 80016 9/015=
0000015700
621
SSVX13 LFPW 110800
ZZYY 25618 11014 0800/ 180145 112859 6113/ 11119 40215 52001 22219
 01139 444 20130 11014 0600/ 50101 80138 8//// 9/015=
0000015700
622
SSVX13 LFPW 110800
ZZYY 62681 11014 0800/ 750277 049932 6113/ 11119 40134 52002 22219
 00024 444 20130 11014 0600/ 50101 80132 80026 9/015=
0000015700
623
SSVX13 LFPW 110800
ZZYY 33957 11014 0800/ 545111 052802 6113/ 11119 40059 52006 22219
 00150 444 20130 11014 0600/ 50101 80140 80013 9/015=
0000015700
624
SSVX13 LFPW 110800
ZZYY 16643 11014 0800/ 341650 061342 6113/ 11119 40203 57018 22219
 00150 444 20130 11014 0600/ 50101 80152 80018 9/015=
0000015700
625
SSVX13 LFPW 110800
ZZYY 41707 11014 0800/ 718216 049258 6113/ 11119 40171 57008 22219
 00256 444 20130 11014 0600/ 50101 80144 80006 9/015=
0000015700
626
SSVX13 LFPW 110800
ZZYY 13664 11014 0800/ 726031 026091 6113/ 11119 40183 52006 22219
 00217 444 20130 11014 0600/ 50101 80142 80015 9/015=
0000015700
627
SSVX13 LFPW 110800
ZZYY 62678 11014 0800/ 758411 032775 6113/ 11119 40001 52014 22219
 00074 444 20130 11014 0600/ 50101 80082 80002 9/015=
0000015700
628
SSVX13 LFPW 110800
ZZYY 16538 11014 0800/ 340782 078444 6113/ 11119 40175 57004 22219
 00144 444 20130 11014 0600/ 50101 80144 80015 9/015=
0000015700
629
SSVX13 LFPW 110800
ZZYY 44607 11014 0800/ 746952 014375 6113/ 11119 40140 57016 22219
 00125 444 20130 11014 0600/ 50101 80142 80008 9/015=
0000015700
630
SSVX13 LFPW 110800
ZZYY 32703 11014 0800/ 526045 157142 6113/ 11119 40145 52013 22219
 00246 444 20130 11014 0600/ 50101 80122 80000 9/015=
0000015700
631
SSVX13 LFPW 110800
ZZYY 64668 11014 0800/ 762360 011712 6113/ 11119 40003 52026 22219
 00088 444 20130 11014 0600/ 50101 80152 80010 9/015=
0000083300
632
SACI31 ZBBB 110800
METAR ZBAA 110800Z 18004MPS 160V230 CAVOK 04/M25 Q1027 NOSIG=
METAR ZBSJ 110800Z 19002MPS 1400 R15/1300N FU NSC 05/M10 Q1027
 NOSIG=
METAR ZBTJ 110800Z 19003MPS 1100 R16R/1000N HZ NSC 01/M05 Q1028
NOSIG=
METAR ZBYN 110800Z 25004MPS 8000 NSC 03/M24 Q1026 NOSIG=
METAR ZGGG 110800Z VRB01MPS 5000 HZ NSC 22/11 Q1020 NOSIG=
METAR ZSHC 110800Z 09003MPS 3000 -RA BR SCT006 BKN017 06/04
Q1028 NOSIG=
METAR ZSPD 110800Z 05005MPS 9999 -RA FEW023 06/02 Q1030 NOSIG=
METAR ZSSS 110800Z 06004MPS 8000 -RA BKN015 05/02 Q1029 BECMG TL0930
BKN013=
METAR ZWSH 110800Z 11002MPS 060V180 5000 FU NSC M02/M10 Q1032 NOSIG=
METAR ZWWW 110800Z 29002MPS 260V320 0900 R25/1000N FZFG NSC
M17/M21
Q1034 NOSIG=
METAR ZYTL 110800Z 26004MPS 4000 HZ NSC 03/M07 Q1028 NOSIG=
METAR ZYTX 110800Z 24003MPS CAVOK M00/M17 Q1026 NOSIG=

0000015700
633
SSVX13 LFPW 110800
ZZYY 44546 11014 0800/ 745131 030483 6113/ 11119 49970 52005 22219
 00135 444 20130 11014 0600/ 50101 80138 80031 9/015=
00000000