0000046000
474
SSVF50 LFPW 110710 RRA
ZZYY 62074 11014 0710/ 747285 003285 22219 00100 10902 20090
21012=
ZZYY 62079 11014 0710/ 743403 001674 22219 00126 10902 20090
21009=
ZZYY 62069 11014 0710/ 748290 004968 22219 00111 11003 20100
21017=
ZZYY 61431 11014 0710/ 143411 004163 22219 00123 10401 20040
21003=
ZZYY 61191 11014 0710/ 142917 003125 22219 00122 10401 20040
21003=
ZZYY 62059 11014 0710/ 749695 001620 22219 10401 20040 21004=
0000010800
475
SSVF50 LFPW 110735 RRA
ZZYY 61188 11014 0735/ 142490 003168 22219 00127 10501 20050
21003=
0000010800
476
SSVF50 LFPW 110805 RRA
ZZYY 61188 11014 0805/ 142490 003168 22219 00125 10501 20050
21003=
0000011000
477
UANT01 CWAO 110819
ARP ETH502 5751N03723W 0819 F340 MS59 354/35 KT
ETAOP QXT AOE 110819 L26A
0000011100
478
UANT01 CWAO 110819
ARP UAL934 5505N03432W 0819 F370 MS57 221/36 KT
N799UA DDL XXW 110819 F51A
0000011000
479
UANT01 CWAO 110819
ARP XLF057 4540N03707W 0819 F390 MS49 276/41 KT
FGRSQ DDL XXN 110819 J85A
0000006200
480
SNBX41 EBBR 110800 RRA
AAXX 11081
06431 NIL=
0000006200
481
SNBX40 EBBR 110800 RRA
AAXX 11081
06447 NIL=
0000028600
482
SXHW11 KWAL 110820
B14036D2 011082013"
1,140111,07:15:00,10.5,66,13.6,0.0,1015.7,0.00,13.1,
1,140111,07:30:00,10.4,66,12.7,0.0,1015.6,0.00,13.1,
1,140111,07:45:00,10.5,71,12.1,0.0,1015.7,0.00,13.1,
1,140111,08:00:00,9.4,68,12.0,0.0,1015.6,0.00,13.1, 47-0NN  30W
0000028200
483
SXHW11 KWAL 110820
B1404042 011082023"
1,140111,07:15:00,5.8,71,10.1,0.0,1015.0,2.99,11.8,
1,140111,07:30:00,6.2,71,11.2,0.0,1015.0,2.99,11.8,
1,140111,07:45:00,6.6,72,10.1,0.0,1015.0,2.99,11.8,
1,140111,08:00:00,6.3,72,9.7,0.0,1014.9,2.99,11.8, 44-0NN  30W
0000013900
484
SNVF22 ENMI 110800
BBXX
LF4B 11084 99606 10037 47/98 /0309 10031 49975 52004 723// 90810
      22200 00040 10705 70024=
0000013900
485
SNST41 EGRR 110800 RRA
AAXX 11084
88878 46/// /2019 10052 20008 40057 52011=
88883 46/// /2008 10043 20022 40078 52010=
0000015000
486
SNUK41 EGRR 110800 CCA
AAXX 11084
03162 41450 62303 11001 21012 39839 40134 53021 78581 8683/
  333 42997 55300 20000 84814 84626=
0000011700
487
SMKN01 HKNC 110600 RRC
AAXX 11064
63688 32580  11104 10170 20097 48576 81901 333 20095 58010 81920=
0000012000
488
SAME31 OLBA 110800 CCA
METAR OJAM 110800Z 00000KT 1000 FG BKN025 08/06 Q1024 BECMG FM
0830
3000M HZ=
0000217100
489
SZNZ01 NZKL 110821
CREX++
T000103 A001 D01021 D06025++
-3683144 17478654 AUCT  2014 01 11 08 13 //// 11 07 00 01
04291 3190 04286 3192 04280 3192 04275 3194 04267 3192 04262 3192+
-4402404 -17636748 CHIT  2014 01 11 08 13 //// 11 07 00 01
04360 1962 04369 1969 04357 1955 04360 1957 04362 1957 04365 1958+
-4089929 17623168 CPIT  2014 01 11 08 13 //// 11 07 00 01
03178 2241 03182 2245 03190 2251 03182 2242 03186 2245 03203 2260+
-3618905 17548887 GBIT  2014 01 11 08 13 //// 11 07 00 01
05129 -0028 05124 -0029 05125 -0025 05127 -0019 05127 -0016 05125 -0016+
-3867541 17802288 GIST  2014 01 11 08 13 //// 11 07 00 01
03294 2713 03288 2708 03300 2720 03305 2726 03307 2728 03300 2722+
-4241288 17370277 KAIT  2014 01 11 08 13 //// 11 07 00 01
02682 2210 02685 2211 02688 2212 02701 2223 02705 2225 02705 2223+
-3755040 17815904 LOTT  2014 01 11 08 13 //// 11 07 00 01
02791 0187 02765 0163 02776 0177 02760 0163 02775 0180 02771 0178+
-3704657 17451175 MNKT  2014 01 11 08 13 //// 11 07 00 01
03181 -0144 03193 -0126 03160 -0153 03180 -0129 03143 -0160 03168 -0129+
-3947566 17692007 NAPT  2014 01 11 08 13 //// 11 07 00 01
02285 2015 02327 2057 02306 2035 02297 2026 02280 2009 02271 1999+
-3441483 17304870 NCPT  2014 01 11 08 13 //// 11 07 00 01
-02022 -5975 -02015 -5962 -02072 -6014 -01900 -5837 -02032 -5964 -02127 -6053+
-4581435 17062939 OTAT  2014 01 11 08 13 //// 11 07 00 01
04063 3427 04078 3436 04077 3430 04079 3427 04083 3426 04091 3429+
-2928002 -17789440 RBCT  2014 01 11 08 13 //// 11 07 00 01
05588 2027 05576 2018 05589 2033 05588 2035 05589 2038 05575 2026+
-2925114 -17790384 RFRT  2014 01 11 08 13 //// 11 07 00 01
02508 0228 02497 0220 02474 0199 02485 0212 02508 0238 02497 0230+
-4357010 17277383 SUMT  2014 01 11 08 14 //// 11 07 00 01
01210 1839 01218 1844 01231 1853 01217 1836 01227 1842 01227 1838+
-3764109 17618118 TAUT  2014 01 11 08 13 //// 11 07 00 01
04497 4005 04493 4005 04488 4003 04481 4000 04477 3999 04472 3998+
-4128448 17477985 WLGT  2014 01 11 08 13 //// 11 07 00 01
02633 2036 02634 2035 02641 2041 02648 2045 02663 2059 02660 2053++
7777
0000010600
490
SPIN90 VIBR 110100
SPECI VIBR 110100Z 14004KT 5000 BR SCT015 SCT030 BKN080 04/03 Q1020=

0000012400
491
SAJD20 OJAI 110800 CCA
METAR COR OJAM 110800Z 00000KT 1000 FG BKN025 08/06 Q1024 BECMG FM
0830
3000M HZ=
0000012400
492
SAJD20 OJAM 110800 CCA
METAR COR OJAM 110800Z 00000KT 1000 FG BKN025 08/06 Q1024 BECMG FM
0830
3000M HZ=
0000017000
493
SOVI10 KWAL 110821
B110070A 011082101"P9751095 B\P~W@@R0ekH1@nA???CjCk>@mz3@CD@@M4Cs5C?6bB9J_<BM2?????A"??? nTHRKCACBCAB|ByBx:AMPTEMP 26.22C  45+0NN 219E
00000000