0000009800
366
SNVJ01 KWBC 110700
BBXX
AMOUK40 1107/ 99644 50649 46/// ///// 11008 21024 40004=
0000021500
367
SNVD01 KWBC 110700 RRK
BBXX
44062 11071 99386 70764 46/// /0402 10030 40180 90720 333 91202
 555 11020 22021=
44063 11071 99390 70764 46/// /3202 10019 40167 90720 333 91203
 555 11021 22023=
0000066100
368
UDAF01 FAPR 110738
AMDAR 1107
LVR AFZA45 3056S 02715E 110658 F370 MS466 289/085 TB0 S031 333 F/// VG010=
LVR AFZA45 3008S 02733E 110706 F370 MS472 288/088 TB0 S031 333 F/// VG010=
LVR AFZA45 2920S 02749E 110713 F370 MS476 290/081 TB0 S031 333 F/// VG010=
LVR AFZA45 2831S 02805E 110720 F370 MS477 289/074 TB0 S031 333 F/// VG010=
LVR AFZA45 2742S 02822E 110727 F370 MS474 289/065 TB0 S031 333 F/// VG010=
LVR AFZA45 2654S 02844E 110734 F214 MS131 281/023 TB0 S031 333 F/// VG008=
UNS AFZA45 2641S 02849E 110736 F183 MS070 259/019 TB0 S031 333 F/// VG009=
DES AFZA45 2637S 02841E 110738 F161 MS031 220/013 TB0 S031 333 F/// VG011=
0000009200
369
SAIN90 VIJP 110730
METAR VIJP 110730Z 30007KT 5000 HZ NSC 19/00 Q1019 NOSIG=
0000009200
370
SAIN90 VOMM 110740
METAR VOMM 110740Z 35004KT 6000 SCT020 29/19 Q1013 NOSIG=
0000036200
371
SAIN32 VIDP 110730
METAR VIDP 110730Z 30009KT 2200 HZ NSC 16/07 Q1018 NOSIG=
METAR VILK 110730Z VRB02KT 1000 R27/1300 MIFG BKN015 OVC090 15/13
    Q1016 NOSIG=
METAR VIAR 110730Z 28005KT 240V330 4000 HZ NSC 16/10 Q1019=
METAR VIBN 110730Z 14007KT BR SCT020 FEW030CB 19/17 Q1015=
METAR VIJP 110730Z 30007KT 5000 HZ NSC 19/00 Q1019 NOSIG=
0000016200
372
SAIN32 VECC 110730
METAR VEBS 110730Z 17005KT 2000 HZ NSC 30/17 Q1015 NOSIG=
METAR VEGT 110730Z 05005KT 2200 HZ FEW020 SCT100 22/14 Q1016 NOSIG=
0000079400
373
FXCI01 BABJ 110735
TIANJIN OBSY NO WARNING STOP
SYNOPTIC SITUATION 110600 Z
HIGH 1030.0HPA AT 35N 124E MOVING SE 10KTS STOP
24 HOURS WEATHER FORECAST FROM 111000 Z
BOHAI SEA X
LIGHT FOG BECOMING CLEAR X
NE WINDS FORCE 6 TO 7 VEERING TO SLY WINDS FORCE 4 TO 5 TOMORROW AFTERNOON X
SEA MODERATE TO ROUGH BECOMING SLIGHT X
VIS LOCAL 3KM BECOMING 20KM
BOHAI STRAITS X
LIGHT FOG BECOMING CLEAR X
NE WINDS FORCE 6 TO 7 DECREASING FORCE 5 TO 6 TOMORROW AFTERNOON X
SEA MODERATE TO ROUGH BECOMING MODERATE X
VIS LOCAL 3KM BECOMING 20KM
NORTH HUANGHAI SEA AND CENTRAL HUANGHAI SEA X
LIGHT FOG BECOMING CLEAR X
NLY WINDS FORCE 6 TO 7 DECREASING FORCE 5 TO 6 TOMORROW EVENING X
SEA MODERATE TO ROUGH BECOMING MODERATE X
VIS LOCAL 3KM BECOMING 20KM STOP=
0000003900
374
SMVX01 RPMM 110600
NIL=
0000013300
375
UAPA01 KWBC 110739
ARP DAL293 1712N 14249E 0728 F400 MS54 270/007KT=
ARP WJA1852 29N 155W 0730 F350 MS55 244/036KT=
0000011000
376
UANT01 CWAO 110739
ARP AFL152 6118N03246W 0739 F380 MS57 201/24 KT
VQBBG QXT EUA 110739 J75A
0000017900
377
SMVD01 PANC 110600 RRM
BBXX
WLMK 11063 99235 10591
41298 30513 10200 20169 40220 54/// 7//00 80001
22214 00210 20202 3//// 40402 5//// 6//// 80180 ICE 0////=
0000011000
378
UANT01 CWAO 110739
ARP UAL46 5258N03008W 0739 F380 MS57 214/52 KT
N78002 DDL XXW 110739 F58A
0000010400
379
SMBM01 VBRR 110600 RRG
AAXX 11064
48042 31956 03601 10255 20155 40163 70500 333 58018=
0000029200
380
SXXX32 EUMS 110733 RRX
269375AE
OT12 ID:FI-STA/-07 DT:20/4 01/11 07 23
:RED /1 07809 07803 07800 07791 47788 07788 07784 07783 07789 07794 07794 07796 07804 07809 07808 07811 07807 07804 078/2 07798 07792 /7788 07778 07772 07764 07754 07747 07747 07736 07729/
:BAT 13.3V
0000039700
381
SXXX32 EUMS 110733 RRX
16590056
:PRS 1 /1 2671 2675 2677 2678 2683 2688 2686 2688 2689 2689 2687 2691 :RAD 1 /1 6983 6987 6990 6989 6992 6997 7000 7001 7001 6999 6999 7002 7000 7002 7003 7005 7007 7011 :ENC 6 /6 5218 5221 5238 5241 5228 5236 5233 5233 5238 5238 :ENB 6 /6 5216 5218 5234 5237 5225 5232 5229 5230 5234 5234 :SW1 33 /60 0 :SW2 60 /60 0 :BAT 5 /6 12.9 :NAME 16590056
0000045000
382
SXXX32 EUMS 110733 RRX
22856700
:PRS 1 /1 3760 3757 3751 3744 3741 3739 3736 3736 3736 3729 3718 3718 3721 3721 3717 3711 3706 3700 3700 3704 3706 3702 3707 3707 3700 3691 3691 3694 3698 3684 :RAD 1 /3 7244 7233 7224 7216 7209 7201 7200 7195 7185 7173 7162 7154 7148 7141 7133 7126 7118 7111 7099 7088 :ENC 3 /5 5444 5431 5417 5404 5401 5388 5363 5355 5346 5327 5320 5294 :SW1 33 /60 0 :SW2 3 /60 0 :BAT 14 /15 13.1 :NAME 22856700 /
0000045200
383
SXXX32 EUMS 110733 RRX
32D8A2BE
:PRS 1 /1 1911 1917 1922 1918 1922 1908 1921 1922 1929 1919 1925 1931 1922 1932 1941 1930 1931 1931 1941 1936 1937 1947 1938 1944 1943 1952 1948 1949 1950 1950 :RAD 1 /3 7496 7499 7502 7512 7511 7519 7529 7533 7538 7535 7534 7536 7536 7543 7552 7553 7553 7550 7547 7549 :ENC 3 /5 4923 4933 4940 4948 4956 4962 4965 4968 4974 4976 4976 4979 :SW1 33 /60 33 :SW2 3 /60 55 :BAT 14 /15 13.1 :NAME 32D8A2BE /
0000048200
384
SXXX32 EUMS 110734 RRX
262AD2C2
OT12 ID:PK-ORMA-10 DT:2014 01 11 07 33
:PRS /1 06717 06696 06693 06676 06666 06673 06661 06663 06664 06642 06644 06642 06634 06637 06644 06650 06635 06644 06653 06650 06649 06657 06653 06651 06641 06626 06628 06616 06617 06614
:RAD /1 ///// ///// ///// ///// ///// ///// ///// ///// ///// ///// ///// ///// ///// ///// ///// ///// ///// ///// ///// ///// ///// ///// ///// ///// ///// ///// ///// ///// ///// /////
:BAT 13.0V/
0000065100
385
SXXX32 EUMS 110734 RRX
18D74682
OT12 ID:ZA-GOUG-13 DT:2014 01 11 07 33
:RAD /3 21132 20948 21642 20734 21083 21142 21013 20813 20342 06081 21112 03917 19971 21137 01995 21096 21156 01930 01473 18386 20796 21131 21176 21167 16078 21171 20813 21158 21215 21187 21177 21187 21191 12217 21206 21202 21202 21205 21211 20668 20183 09770 21202 14294 21184 21185 20617 21142 21152 21163 12128 21087 21127 21037 21017 21072 20948 20440 21041 21076 17406 04075 21142 21100 21131 21127 21136 21121 21111 21136 21136 21146 21137 21146 21157 21125 21118 21121 28874 21112 21136 21147 21151 21151 28866 21142 28871 21130 21146 21130
:BAT 14.2V
00000000