0000040400
866
FCPL32 EPWA 110200
TAF EPBY 110230Z 1103/1112 26011KT 9999 BKN025=
TAF EPKT 110230Z 1103/1112 22010KT 9999 BKN040=
TAF EPLB 110200Z NIL=
TAF EPMO 110230Z 1103/1112 26015KT 9999 BKN030
    TEMPO 1103/1105 26020G30KT
    PROB30 TEMPO 1103/1106 BKN020CB=
TAF EPSC 110230Z 1103/1112 24008KT 9999 BKN018=
TAF EPWR 110230Z 1103/1112 24008KT 9999 SCT040=
TAF EPZG 110200Z NIL=

0000009100
867
SAHU31 LHBM 110230
METAR LHBP 110230Z VRB02KT CAVOK M02/M03 Q1021 NOSIG=

0000010400
868
SAMF20 TFFR 110230
METAR TFFR 110230Z AUTO 06004KT 9999 FEW030/// ///TCU 24/20 Q1017=

0000009500
869
SAGQ21 FGSL 110230
METAR FGSL 110230Z 23006KT 6000 FEW010 23/21 Q1010 NOSIG=

0000023000
870
FTUS51 KWBC 110230 AAA
TAF AMD
KDAY 110227Z 1102/1124 15012KT 5SM BR VCSH OVC025
     FM110400 17015G23KT 4SM -RA BR OVC007
     FM111200 22015G25KT P6SM VCSH OVC011
     FM111500 24016G26KT P6SM OVC015=

0000028100
871
FTUS52 KWBC 110230 AAA
TAF AMD
KCKV 110227Z 1102/1124 17010G20KT P6SM VCTS BKN015CB OVC025
     FM110400 18015G25KT 5SM -TSRA BR OVC008CB
      TEMPO 1107/1111 2SM TSRA OVC005CB
     FM111200 27012G25KT P6SM OVC025
     FM111500 27012G25KT P6SM BKN050=

0000029000
872
FTUS53 KWBC 110230 AAA
TAF AMD
KRST 110229Z 1102/1124 VRB04KT 2SM -SN BR OVC011
      TEMPO 1102/1104 SCT011 OVC025
     FM110500 25007KT 2SM BR OVC002
     FM110900 30011KT 4SM BR OVC006
     FM111500 30014KT P6SM BKN012
     FM111900 30016G22KT P6SM SCT030=

0000024600
873
FTUS54 KWBC 110230 AAA
TAF AMD
KPIH 110227Z 1102/1124 22016G26KT P6SM SCT030 OVC090
     FM110500 21015G23KT P6SM SCT010 BKN050
     FM111400 19020G30KT P6SM VCSH BKN050
     FM111700 19028G38KT P6SM VCSH SCT050 BKN100=

0000090000
874
FTUS80 KWBC 110230 AAA
TAF AMD
KCKV 110227Z 1102/1124 17010G20KT P6SM VCTS BKN015CB OVC025
     FM110400 18015G25KT 5SM -TSRA BR OVC008CB
      TEMPO 1107/1111 2SM TSRA OVC005CB
     FM111200 27012G25KT P6SM OVC025
     FM111500 27012G25KT P6SM BKN050=
KDAY 110227Z 1102/1124 15012KT 5SM BR VCSH OVC025
     FM110400 17015G23KT 4SM -RA BR OVC007
     FM111200 22015G25KT P6SM VCSH OVC011
     FM111500 24016G26KT P6SM OVC015=
KPIH 110227Z 1102/1124 22016G26KT P6SM SCT030 OVC090
     FM110500 21015G23KT P6SM SCT010 BKN050
     FM111400 19020G30KT P6SM VCSH BKN050
     FM111700 19028G38KT P6SM VCSH SCT050 BKN100=
KRST 110229Z 1102/1124 VRB04KT 2SM -SN BR OVC011
      TEMPO 1102/1104 SCT011 OVC025
     FM110500 25007KT 2SM BR OVC002
     FM110900 30011KT 4SM BR OVC006
     FM111500 30014KT P6SM BKN012
     FM111900 30016G22KT P6SM SCT030=

0000010400
875
SPUS31 KWBC 110230
SPECI
KMEM 110226Z 17009KT 2SM -RA BR FEW013 OVC021 13/11 A2973=

0000010500
876
SPUS41 KWBC 110230
SPECI
KBVY 110226Z AUTO 17003KT 5SM BR FEW010 OVC015 02/01 A3032=

0000009700
877
SPUS41 KWBC 110230
SPECI
KMSS 110226Z AUTO 07003KT 9SM OVC030 M03/M06 A3018=

0000011300
878
SPUS41 KWBC 110230
SPECI
KWRI 110228Z AUTO 04002KT 2 1/2SM R06/3500FT BR OVC002 03/02 A3024=

0000039300
879
SAHK31 VHHH 110230
METAR VHHH 110230Z 09011KT CAVOK 20/10 Q1025 NOSIG=
METAR RCTP 110230Z 32006KT 300V360 9999 FEW020 SCT110 21/03 Q1024
NOSIG RMK A3025=
METAR RCKH 110230Z 03005KT 350V090 7000 FEW018 23/15 Q1024 NOSIG
RMK A3026=
METAR RCSS 110230Z 10011KT 050V130 9999 FEW025 22/13 Q1024 NOSIG
RMK A3026=
METAR VMMC 110230Z 02005KT 7000 NSC 17/11 Q1025 NOSIG=

0000010100
880
SACA33 KWBC 110200 RRE
METAR
TNCC 110200Z 10012KT 9999 SCT014 26/23 Q1015 NOSIG=

0000011100
881
SAPF20 NTAA 110230
METAR NTAA 110230Z 24009KT 9999 SCT020 SCT100 30/23 Q1010 WS R22
NOSIG=

0000012200
882
SAIY32 LIIB 110220 RRB
METAR LIPX 110215Z 00000KT 1000 R04/P1500U BR FEW010 BKN045 08/06
      Q1022=

0000010600
883
SPCN43 CWAO 110230
SPECI CWHN 110230Z AUTO 30010G17KT 260V330 9SM OVC010 M07/M09 A2948=

0000010100
884
SAFG20 SOCA 110230
METAR SOCA 110230Z AUTO 24003KT 9999 FEW002 OVC092 23/22 Q1012=

0000010600
885
SASQ41 LZIB 110230 RRA
METAR LZPP 110230Z AUTO 11003KT 9999 // FEW100/// M00/M02 Q1020=

00000000