0000010200
646
SABW31 VGEG 110050 RRA
METAR VGEG 110050Z 00000KT 0100 FG SCT003 14/13 Q1014 NOSIG=

0000008300
647
SACS31 MROC 110056
METAR MRLB 110100Z 09008KT CAVOK 27/17 A2980=

0000009800
648
SAPM31 MPTO 110100
METAR 
MPTO 110100Z 06004KT 9999 FEW020 27/20 Q1009 NOSIG=

0000012200
649
SAEU31 BKPR 110100
BKPR 110100Z 00000KT 0100 R17/0125 FZFG OVC002 M01/M02 Q1023 NOSIG
 RMK 17010095 =

0000032900
650
SANL31 EHDB 110055
METAR EHAM 110055Z 21013KT 9000 SCT010 BKN035 06/04 Q1014 NOSIG=
METAR EHBK 110055Z AUTO 20010KT 9999 NCD 02/01 Q1016=
METAR EHGG 110055Z AUTO 22013KT 180V240 4600 -RADZ FEW009 OVC010
06/05 Q1013=
METAR EHRD 110055Z AUTO 20012KT 170V230 6000 FEW008 SCT010 05/04
Q1014 BECMG BKN010=

0000023100
651
FTUS71 KWBC 110057
TAF
TAF AMD KLCK 110051Z 1101/1124 14009KT P6SM SCT025 BKN100
     FM110500 16010KT 5SM BR VCSH OVC015
     FM110800 17012KT 4SM -RA BR OVC008
     FM111400 23014G23KT P6SM VCSH OVC012=

0000008900
652
SAID32 WADL 110100
METAR WADL 110100Z 33004KT 8000 FEW016 28/25 Q1012=

0000096600
653
SAMX41 MMMX 110056
METAR MMMX 110045Z 19009KT 12SM SCT025 17/05 A3023 NOSIG RMK 8/400
AC=
METAR MMAA 110045Z 25003KT 10SM SKC 28/21 A2985=
METAR MMBT 110040Z 00000KT 7SM FEW070 26/22 A2989 RMK 8/020=
METAR MMCB 110045Z 00000KT 10SM BKN080 24/09 A3002 RMK 8/070=
METAR MMOX 110041Z 13010KT 8SM FEW030 22/10 A3008 RMK 8/400=
METAR MMPA 110042Z 00000KT 4SM FEW120 21/19 A2989 RMK 8/030 HZY=
METAR MMPB 110047Z 17008KT 10SM SKC 14/05 A3029 RMK ISOL SC=
METAR MMPS 110041Z 28004KT 8SM SKC 27/22 A2999 RMK CU N=
METAR MMQT 110045Z 24009KT 7SM SCT020 BKN090 BKN250 18/08 A3019 RMK
8/538=
METAR MMTM 110055Z 16006KT 5SM  SCT010 BKN060 BKN200 21/18 A2985 RMK
                   8/538 HZY=
METAR MMTO 110044Z 16003KT 8SM BKN020TCU 13/06 A3030 RMK 8/200 AC=
METAR MMVR 110042Z 11005KT 7SM SKC 22/18 A2986 RMK HZY=
METAR MMZH 110045Z 00000KT 7SM SKC 28/23 A2985 RMK ISOL CU-CI=
METAR MMIT 110057Z NIL=
METAR MMTB 110057Z NIL=

0000012100
654
SAUK31 EGGY 110050 CCA
METAR COR EGLL 110050Z 21007KT 9999 -RA FEW022 BKN038 08/06 Q1013
     NOSIG=

0000029500
655
FTUS52 KWBC 110021 AAA
TAF AMD
KMCB 110020Z 1100/1124 15008KT 4SM -RA BR OVC004
     FM110500 23010KT 5SM -RA BR OVC005
      TEMPO 1105/1109 2SM TSRA OVC003CB
     FM111000 23010KT 5SM BR OVC005
     FM111500 30008KT P6SM SCT250
     FM111800 30012G20KT P6SM SKC=

0000011000
656
SAGC31 MWCR 110100
METAR MWCR 110100Z 09004KT 9999 SKC 26/24 Q1016 NOSIG=
METAR MWCB NIL=

0000053000
657
SAGR32 LGAT 110050
METAR LGAL 110050Z NIL=
METAR LGEL 110050Z 00000KT CAVOK 10/08 Q1019=
METAR LGIO 110050Z AUTO VRB01KT //// // ////// 06/06 Q1022
     RE//=
METAR LGKV 110050Z NIL=
METAR LGMT 110050Z 00000KT 9999 FEW015 BKN020 11/09 Q1021=
METAR LGPZ 110050Z AUTO 05004KT //// // ////// 12/10 Q1023
     RE//=
METAR LGRX 110050Z 00000KT 9999 BKN050 12/09 Q1022 NOSIG=
METAR LGSK 110050Z NIL=
METAR LGSR 110050Z AUTO 23011KT //// // ////// 15/11 Q1020
     RE//=
METAR LGZA 110050Z NIL=

0000008900
658
SASG20 GOOY 110100
METAR GOOY 110100Z 36010KT CAVOK 19/15 Q1014 NOSIG=

0000008900
659
SAJM31 MKJP 110100
METAR MKJP 110100Z 14012KT 9999 FEW024 28/19 Q1015=

0000010600
660
SACN61 CYMO 110100
METAR CYMO 110100Z AUTO 19009KT 9SM OVC026 M01/M03 A2976 RMK SLP077=

0000011600
661
SACN61 CYNA 110100
METAR CYNA 110100Z AUTO 28011G16KT 4SM -SN OVC016 M07/M08 A3007 RMK
 SLP182=

0000013400
662
SACN61 CYMM 110100
METAR CYMM 110100Z AUTO 27007KT 9SM OVC025 M12/M14 A2954 RMK MAX WND
 28017KT AT 0021Z SLP036=

0000011300
663
SACN61 CYNE 110100
METAR CYNE 110100Z AUTO 09002KT 3SM -SN OVC045 M09/M10 A2943 RMK
 SLP987=

0000011500
664
SACN61 CYNM 110100
METAR CYNM 110100Z AUTO 20009G16KT 6SM BR OVC009 M04/M05 A2989 RMK
 SLP142=

0000011900
665
SACN62 CYMA 110100
METAR CYMA 110100Z 26002KT 20SM SCT040 BKN070 M20/M23 A2940 RMK
 SC4AC2 SLP007=

00000000