0000015400
906
FTAB31 LATI 102257
TAF LATI 102300Z 1100/1124 VRB02KT 6000 BKN060 TX17/1112Z
TN08/1105Z
TEMPO 1110/1117 28006KT 9999 FEW030 SCT070=

0000009800
907
SPCN42 CWAO 102258
SPECI CYUA 102258Z AUTO 29023G30KT 3/4SM -SN CLR M24/ A2977=

0000011400
908
SABH31 MZBZ 102300
METAR MZBZ 102300Z 05007KT 9999 -RA FEW021 BKN045 25/22 A2993 Q1013
NOSIG=

0000010500
909
SACN61 CYZE 102300
METAR CYZE 102300Z AUTO 18017KT 9SM OVC011 00/M01 A2993 RMK SLP143=

0000010200
910
SAAG41 SADF 102300
METAR SADF 102300Z  36011KT 9999 TS FEW045 SCT050
28/20 Q1008=

0000030000
911
FTLV31 EVRA 102300
TAF EVRA 102301Z 1100/1124 31012KT 9999 BKN010 OVC015 TEMPO
     1100/1103 33020G30KT 5000 -RASN BKN007 OVC015
     BECMG 1105/1107 24007KT BKN020 BKN030 TEMPO 1112/1115
     BKN012 BKN020 BECMG 1115/1116 BKN010 OVC015 TEMPO
     1116/1124 BKN005 OVC015=

0000009800
912
SABZ18 SBKP 102300
METAR SBKP 102300Z 13009KT 9999 VCTS FEW045CB 25/18
Q1014=

0000010200
913
SASR31 WSSS 102300
METAR WSSS 102300Z VRB02KT 9999 FEW018 BKN300 24/23 Q1011 NOSIG=

0000011000
914
SANC01 NWWW 102300
METAR NWWW 102300Z AUTO 14012KT 9999 BKN049 BKN056 BKN066 29/15
Q1012=

0000012500
915
SACN62 CYBD 102300
METAR CYBD 102300Z 08004KT 15SM FEW024 OVC090 04/02 A2973 RMK SC1AS7
 VIS W12 SLP070=

0000011300
916
SACN61 CYAY 102300
METAR CYAY 102300Z AUTO 26014KT 7SM -SN OVC045 M09/M11 A2992 RMK
 SLP134=

0000010000
917
SAAG41 SARI 102300
METAR SARI 102300Z  05003KT 9999  FEW030 SCT200
28/24 Q1011=

0000089500
918
FTMX51 MMMX 102301
TAF MMAA 102301Z 1100/1206 24005KT P6SM SKC TX31/1120Z TN24/1112Z 
         FM110600 07005KT P6SM SCT140 
         FM111800 24015KT P6SM SKC 
         FM120300 24005KT P6SM SCT040=
TAF MMMX 102301Z 1100/1206 22005KT P6SM SCT025 BKN080 TX21/1122Z
TN08/1112Z
         TEMPO 1100/1104 VC RA BKN025 BKN080 
         FM110600 07005KT P6SM SCT080 
         FM111200 07005KT 4SM HZ SCT020 
         FM111800 22010KT P6SM SCT025 SCT080 
         FM120300 07005KT P6SM SCT080=
TAF MMTO 102301Z 1100/1206 20010KT 6SM HZ VC -RA BKN020 TX17/1121Z
TN02/1112Z
         TEMPO 1100/1104 5SM -RA BKN020 
         FM110600 00000KT P6SM SCT070 
         FM111000 00000KT 3SM BR BKN015 
         TEMPO 1111/1115 1SM BR OVC010 
         FM111600 04005KT 5SM HZ SCT015 
         FM112100 14010KT P6SM SCT020 
         TEMPO 1122/1202 BKN020=

0000011300
919
SPAU32 AMMC 102301
SPECI YPGV 102256Z AUTO 12010KT 9999 // SCT014 BKN019 OVC035 27/25
Q1008=

0000010000
920
SAAG41 SASA 102300
METAR SASA 102300Z  05001KT 9999  SCT020 BKN200
27/15 Q1010=

0000010400
921
SAAG41 SACO 102300
METAR SACO 102300Z  14011KT 9999  FEW030TCU SCT100
 27/18 Q1012=

0000073400
922
FAGR32 LGAT 102300
LGGG GAMET 11000/110600
ATHINAI FIR/2 BLW FL150
SECN I
SFC WSPD    : HAZARDOUS WX NIL
SFC VIS     : LOC 1000-5000M BR OR LESS THAN 1000M FOG
SIGWX       : HAZARDOUS WX NIL
MT OBSC     : LOC MT PASSES
SIG CLD(AGL): LOC BKN ST 0300-1500FT
MTW         : HAZARDOUS WX NIL
TURB        : HAZARDOUS WX NIL
ICE         : HAZARDOUS WX NIL
SIGMET APPLICABLE:
SECN II
PSYS        :
WIND/T(MSL) : 2000FT  36015KT PS07 (LAN)
                      09015KT PS08 (MAR)
              5000FT  VRB10KT PS04,
              10000FT 28020KT MS02
CLD (AGL)   : SCT AC 8000-14000FT,
              SCT CU 1800-7000FT
FZLVL       : 9500FT
MNM QNH     : 1019HPA
VA          : NIL

0000009500
923
SAGQ20 FGSL 102300
METAR FGSL 102300Z 22007KT 7000 FEW010 24/22 Q1012 NOSIG=

0000008500
924
FTID33 WAPP 102300
TAF WAPP 102300Z 1100/1124 35007KT 9999 SCT018=

0000068900
925
FAGR31 LGAT 102300
LGGG GAMET 11000/110600
ATHINAI FIR/1 BLW FL150
SECN I
SFC WSPD    : HAZARDOUS WX NIL
SFC VIS     : LOC 1000-5000M BR OR LESS THAN 1000M FOG
SIGWX       : HAZARDOUS WX NIL
MT OBSC     : LOC MT PASSES
SIG CLD(AGL): LOC BKN ST 0300-1500FT
MTW         : HAZARDOUS WX NIL
TURB        : HAZARDOUS WX NIL
ICE         : HAZARDOUS WX NIL
SIGMET APPLICABLE:
SECN II
PSYS        :
WIND/T(MSL) : 2000FT VRB05KT PS08,
              5000FT 27010KT PS07,
              10000FT 28020KT PS00
CLD (AGL)   : LOC SCT AC 8000-14000FT,
              SCT CU 2000-7000FT
FZLVL       : 10000FT
MNM QNH     : 1022HPA
VA          : NIL

00000000