0000029100
466
SXHW11 KWAL 111102
B159A272 011110243"
1,140111,09:59:52,10.0,81,14.9,22.2,1014.6,0.00,13.3,
1,140111,10:14:52,11.4,80,17.0,22.0,1014.7,0.03,13.3,
1,140111,10:29:52,12.4,69,17.5,21.9,1014.6,0.08,13.3,
1,140111,10:44:52,12.7,62,17.4,21.8,1014.5,0.09,13.3, 46+0NN  30W
0000011100
467
UANT99 KDDL 111101
ARP AAL291 5505N02243W 1101 F360 MS59 223/74 KT
N190AA DDL XXN 111101 F55A
0000011000
468
UANT99 KDDL 111101
ARP KLM735 4901N01556W 1101 F320 MS56 238/67 KT
PHBFN QXT AOE 111101 F08A
0000462200
469
SNVF50 EGRR 111100
BBXX
63057 11114 99592 10015 47998 /2822 10059 20006 40018 52017 700// 22200 10706 70032=
62128 11114 99587 10014 47498 /3022 10049 20024 40043 51022 700// 22200 10707 70033=
62113 11114 99584 10002 47497 /2924 10050 20010 40053 52015 762// 22200=
62112 11114 99584 70002 47598 /2814 10074 20025 40054 52016 700// 22200=
62129 11114 99584 10003 46/// /2923 10047 20005 40052 52017 22200=
62114 11114 99583 10000 46/// /2824 10055 20018 40051 52016 22200=
62148 11114 99536 10015 46/// ///// 22200=
62144 11114 99534 10017 47998 /2815 10064 20018 40153 52040 700// 22200 10503 70015=
62142 11114 99530 10021 47997 /3016 10068 20040 40147 52039 700// 22200 10403 70014=
62145 11114 99531 10028 47998 /3120 10070 20020 40151 52041 700// 22200 10503 70017=
62154 11114 99564 10022 46/// /2918 10061 21004 40078 52014 22200=
62123 11114 99563 10022 47598 /2924 10065 20001 40081 52013 700// 22200 1//05 70027=
62127 11114 99540 10007 47999 ///// 10059 21000 40149 52029 762// 22200 10503 70016=
62165 11114 99540 10011 47998 /2818 10063 20013 40150 52029 700// 22200 10503 70017=
62131 11114 99539 10012 46/// /3016 10066 20017 40145 52031 22200=
62150 11114 99536 10007 47998 /2819 10061 20019 40166 52033 700// 22200 10502 70012=
62121 11114 99535 10027 46/// ///// 10071 20018 40133 52037 22200=
64041 11114 99607 70026 47598 /2921 40013 52017 700// 22200 11008 70042=
MWYG6 11114 99603 70040 47498 /3025 40036 52024 700// 22200=
63115 11114 99616 10013 47598 /0607 10023 21020 49997 52014 700// 22200 10806 70030=
63114 11114 99613 10017 47599 /0505 10020 21027 49999 52016 700// 22200=
63117 11114 99613 10011 47499 /1007 40001 52018 700// 22200=
63101 11114 99612 10009 46/// /0808 10024 21001 49998 52018 22200 10806 70030=
63103 11114 99612 10011 46/// ///// 10025 20002 49990 52018 22200 10806 70028=
63112 11114 99611 10010 47498 /1005 10037 20007 49995 52020 700// 22200 10706 70028=
63104 11114 99612 10016 47598 /0707 10027 21009 49999 52016 700// 22200 10806 70032=
63107 11114 99611 10017 46/// /0607 10031 49997 52020 22200=
63106 11114 99610 10017 46/// /0508 10035 52020 22200=
63105 11114 99610 10017 47499 /0607 10024 21023 49999 52018 700// 22200=
63113 11114 99610 10017 46/// /0606 10048 20002 49998 52021 22200 10706 70028=
63108 11114 99608 10017 47/99 /0706 10032 20007 49995 52024 700// 22200 10706 70028=
63055 11114 99606 10016 47598 /0905 10048 20015 49996 52025 700// 22200 10705 70027=
63056 11114 99597 10016 47598 /2823 10055 20004 40006 52017 762// 22200 10707 70033=
63109 11114 99596 10015 46/// /3027 10050 20011 40008 52016 22200=
63110 11114 99595 10015 47598 /3024 10059 20020 40021 52021 700// 22200 10706 70032=
MQSY9 11114 99593 10015 47496 /3120 10049 20006 52021 762// 22200=
62118 11114 99577 10009 47598 /2824 10060 20012 40060 52016 700// 22200 10606 70028=
ZQSD5 11114 99583 10008 47598 ///// 10058 20013 40042 52013 700// 22200 1//07 70033=
PJAI 11114 99581 70014 47998 /2820 10055 21005 40071 52023 700// 22200=
62111 11114 99580 70003 46/// /3028 10057 20009 40080 52016 22200 10606 70028=
62117 11114 99579 10000 47598 /2825 10058 20009 40053 52012 700// 22200 10605 70023=
62134 11114 99580 10014 47596 /3023 10061 20018 40053 52014 700// 22200 10606 70028=
62102 11114 99579 10018 47598 /2824 10069 20011 40048 52013 700// 22200 10606 70029=
62143 11114 99577 10018 47598 /3113 10058 20014 40071 52015 700// 22200 10605 70027=
62155 11114 99577 10007 47598 /2923 10058 20018 40071 52014 763// 22200 10606 70028=
62116 11114 99576 10011 47598 /2823 10060 20013 40060 52013 700// 22200 10606 70030=
62164 11114 99572 10008 47598 /2820 10070 20014 40076 52017 700// 22200 00084 10605 70025=
62133 11114 99571 10009 46/// /3021 40077 52017 22200 10605 70024=
62104 11114 99574 10013 47598 /2822 10066 20011 40063 52012 700// 22200=
62140 11114 99573 10013 46/// ///21 10057 20008 40070 52015 22200=
62122 11114 99573 10016 47598 /2923 10062 20005 40069 53014 700// 22200 10605 70024=
62153 11114 99573 10020 47598 /2714 40064 52013 700// 22200=
62146 11114 99572 10021 47598 /2103 10057 20009 40074 53014 700// 22200 10605 70025=
62152 11114 99570 10018 47598 /2917 10061 21003 40080 53014 700// 22200 10505 70026=
62119 11114 99570 10019 47598 /3023 10065 20000 40079 53015 700// 22200 10505 70023=
62120 11114 99564 10021 47598 /2922 10060 21005 40080 52014 700// 22200=
62132 11114 99564 10020 46/// /3120 10064 21000 40095 52019 22200=
62149 11114 99537 10011 47998 /2820 10085 20026 40152 52032 700// 22200 10503 70014=
0000101500
470
FTSA85 EGRR 111059 RRG
TAF SAEZ 111100Z 1112/1212 16010KT CAVOK TX27/1119Z TN13/1209Z
     BECMG 1118/1121 12010KT
     BECMG 1209/1212 09010KT=
TAF SARE 111100Z 1112/1212 14010G25KT 5000 TSRA BKN025 OVC040
     FEW050CB TX28/1119Z TN23/1209Z
     TEMPO 1113/1117 0900 +TSRA BKN006 OVC040 FEW045CB
     BECMG 1119/1121 16010KT 9999 FEW010 SCT025 BKN090=
TAF SARF 111100Z 1112/1212 36010KT 9999 TS SCT020 FEW050CB BKN100
     TX29/1119Z TN22/1209Z
     BECMG 1115/1117 16010G25KT 5000 TSRA SCT020 OVC040
     FEW050CB
     BECMG 1200/1203 9999 FEW010 BKN020 BKN100=
TAF SARI 111100Z 1112/1212 05005KT CAVOK TX34/1118Z TN20/1209Z
     BECMG 1114/1116 09005KT 9999 SCT030 FEW050CB BKN100
     TEMPO 1118/1123 16010G25KT 5000 TSRA BKN020 BKN040 FEW050CB=
TAF SARP 111100Z 1112/1212 09010KT 9999 TS SCT020 FEW050CB BKN100
     TX28/1119Z TN22/1209Z
     BECMG 1115/1117 16010G25KT 5000 TSRA SCT020 BKN040
     FEW050CB
     BECMG 1200/1202 9999 FEW010 BKN020 BKN070=
0000176000
471
SASA85 EGRR 111100 RRB
METAR SAZS 111100Z 14003KT CAVOK 09/03 Q1023=
METAR SBAR 111100Z 12010KT 9999 SCT015 28/20 Q1014=
METAR SBBE 111100Z 13004KT 9999 FEW016 SCT100 24/24 Q1012=
METAR SBBR 111100Z 18002KT 9999 FEW030 SCT070 23/15 Q1020=
METAR SBBV 111100Z 07010KT CAVOK 24/19 Q1013=
METAR SBCB 111100Z 06018KT CAVOK 28/23 Q1014=
METAR SBCG 111100Z 34009KT CAVOK 25/19 Q1015=
METAR SBCR 111100Z 15003KT CAVOK 28/22 Q1012=
METAR SBFI 111100Z 09003KT CAVOK 27/23 Q1013=
METAR SBFZ 111100Z 12015KT 9999 SCT025 28/19 Q1012=
METAR SBGL 111100Z 01005KT CAVOK 29/22 Q1014=
METAR SBGR 111100Z 08007KT CAVOK 24/19 Q1018=
METAR SBKP 111100Z 03006KT CAVOK 25/18 Q1018=
METAR SBMN 111100Z 09004KT 9999 SCT009 BKN100 23/22 Q1013=
METAR SBMO 111100Z 17003KT 9999 FEW020 27/21 Q1015=
METAR SBMQ 111100Z 29004KT 9999 FEW015 BKN080 24/23 Q1012=
METAR SBNT 111100Z 15010KT 9999 BKN026 27/20 Q1013=
METAR SBPA 111100Z 32002KT 8000 FEW014 SCT100 23/21 Q1012=
METAR SBRF 111100Z 20004KT 9999 FEW012 SCT022 BKN060 25/24 Q1014=
METAR SBSN 111100Z 15003KT 9999 -RA SCT010 SCT015 OVC100 25/21 Q1012=
METAR SBTT 111100Z 00000KT 9999 -RA SCT010 BKN014 BKN100 24/24 Q1012=
METAR SBVT 111100Z 36006KT 9999 FEW015 SCT023 29/23 Q1017=
METAR SGAS 111100Z VRB03KT 9999 FEW033 BKN083 28/24 Q1010=
METAR SGES 111100Z VRB03KT 9999 SCT030 BKN070 25/23 Q1013=
METAR SMJP 111100Z 12006KT 9999 -RA FEW012 SCT045 23/22 Q1014 NOSIG=
METAR SPIM 111100Z 16008KT 9999 OVC006 20/19 Q1011 NOSIG RMK PP000=
METAR SUMU 111100Z 17015KT 9999 BKN023 21/16 Q1014 NOSIG=
METAR SVBM 111100Z 00000KT 9999 FEW016 BKN060 19/16 Q1017=
METAR SVMI 111100Z 00000KT 9999 SCT016 23/18 Q1014 NOSIG=
METAR SVVA 111100Z 02002KT 9999 FEW016 21/19 Q1015=
0000009600
472
SAUK39 EGRR 111050 RRA
METAR EGQS 111050Z 25013KT 9999 FEW020CB 03/00 Q1009 BLU=
0000024400
473
SNVD17 KWNB 111100 RRC
BBXX
46060 11111 99606 71468 46/// /3203 10010 49884 58012 91050 22200
00051 11101 317// 41101 70005 333 91204 555 11030 22031 31037
43305 61049 324028 324034 320032 321030 306030 307024 83204 91027=
0000074900
474
SNVD22 KWNB 111100 RRE
BBXX
46054 11111 99343 71205 46/// /3001 10141 40198 51008 91050 22200
00139 11305 20401 330// 41305 70026 333 91202 555 11007 22009
30959 40302 61049 297006 244003 074003 123004 045009 019013=
46026 11111 99378 71228 46/// ///03 10091 91050 22200 11505 20401
328// 41505 70026 333 91204 555 11028 22029=
46029 11111 99462 71245 46/// /2413 10096 20086 40011 55004 91050
22200 00091 11013 21012 326// 41405 70066 333 91216 555 11138
22148 31013 42024 61049 240126 246128 227157 199187 193173 193171=
46025 11111 99337 71191 46/// /1102 10148 20137 40194 52003 91050
22200 00154 11302 327// 41302 70010 333 91203 555 11022 22022
30950 40904 61049 106021 097019 107021 103019 100024 098028=
0000011800
475
SNVF25 LFPW 111100
BBXX
BATFR12 11114 99486 70064 46/// /0813 10104 20042 40211 51013
22200 04149=
0000011800
476
SNVF25 LFPW 111100
BBXX
BATFR52 11114 99501 70007 46/// /3314 10090 20027 40221 51050
22244 04109=
0000011200
477
SNVF25 LFPW 111100
BBXX
BATFR21 11114 99428 10087 46/// /2407 10135 20104 40212 50001
22273=
0000011800
478
SNVF25 LFPW 111100
BBXX
BATFR61 11114 99473 70061 46/// /0914 10110 20099 40209 51018
22282 04124=
0000128400
479
UDIO01 AMMC 111100
AMDAR 1111
LVR SG0012 0009S 10449E 111036 F290 MS284 039/020 TB0 S031
  333 F/// VG000=
LVR SG0012 0059S 10507E 111043 F330 MS390 058/022 TB0 S031
  333 F330 VG000=
LVR AU0078 3200S 05701E 110956 F360 MS441 242/022 TB0 S031
  333 F360 VG015=
LVR AU0078 3148S 05558E 111003 F360 MS443 265/025 TB0 S031
  333 F360 VG006=
LVR AU0078 3136S 05455E 111010 F360 MS443 270/026 TB0 S031
  333 F360 VG007=
LVR AU0078 3124S 05354E 111017 F360 MS443 277/036 TB0 S031
  333 F360 VG010=
LVR AU0078 3111S 05253E 111024 F360 MS437 286/034 TB0 S031
  333 F360 VG003=
ASC SG0016 0606S 10637E 111027 F018 PS226 345/008 TB0 S031
  333 F/// VG003=
UNS SG0016 0605S 10636E 111027 F020 PS220 346/011 TB3 S031
  333 F/// VG100=
ASC SG0016 0605S 10636E 111027 F023 PS215 343/010 TB3 S031
  333 F/// VG102=
ASC SG0016 0605S 10636E 111027 F025 PS215 352/009 TB3 S031
  333 F/// VG105=
ASC SG0016 0604S 10636E 111027 F028 PS212 018/007 TB3 S031
  333 F/// VG107=
ASC SG0016 0603S 10635E 111027 F038 PS191 032/007 TB0 S031
  333 F/// VG007=
ASC SG0016 0602S 10635E 111028 F044 PS178 051/005 TB0 S031
  333 F/// VG003=
ASC SG0016 0600S 10633E 111028 F058 PS152 056/004 TB0 S031
  333 F/// VG000=

0000114500
05043
0000023800
480
SSVX08 KARS 111101
ZZYY 43001 10014 1200/ 708036 110173 6112/
33311 88872 20001 32703 43345 20040 32525 20060 31562 20080 31344
20100 31278 20120 31229 20140 31181 20300 31016 20500 30776
444 20120 10014 1054/ 521//=
0000011000
481
UANT01 CWAO 111101
ARP KLM686 5506N03432W 1101 F370 MS59 191/32 KT
PHBFC QXT AOE 111101 F86A
0000009500
482
SNAA21 ENMI 111100
AAXX 11111
89504 43/// /0306 11038 21122 38461 49922 50007=
0000012200
483
SNLY40 EUMS 111100
AAXX 11104
62140 46/// /3205 10160 20047 3//// 4//// 5////=
62210 NIL=
62271 NIL=
0000069400
484
SSVX08 KARS 111102
ZZYY 28401 11014 10004 132217 144591 6111/
11119 03126
444 20110 11014 1053/ 521// 60401=
ZZYY 52004 10014 0000/ 305008 165171 6111/
33311 88870 20001 33066 20025 33001 20075 33033 20100 32928
20150 32662 20200 32047 20250 31393 20300 31040 20500 30819
444 20110 10014 0128/ 521//=
ZZYY 52004 11014 10004 305006 165167 6112/
11119 02706 10299 29074
22219 00306
444 20120 11014 0945/ 521// 60401=
ZZYY 52007 10014 1200/ 308031 164802 6112/
33311 88872 20001 33060 43420 20025 32988 43453 20050 32895 43493
20075 32764 20100 32729 20125 32589 20150 32479 20200 32075
20250 31633 20300 31285 20500 30764
444 20120 10014 1053/ 521//=
0000178100
485
UDAS02 BABJ 111050
AMDAR 1110
LVR CNFLWN 2511N 10948E 111038 F331 MS393 255/096 TB/ S//1=
LVR CNFLWN 2456N 11011E 111041 F331 MS398 255/092 TB/ S//1=
LVR CNFLWN 2441N 11033E 111044 F331 MS396 259/088 TB/ S//1=
LVR CNFLWN 2426N 11056E 111047 F331 MS395 260/084 TB/ S//1=
LVR CNFPQK 3714N 11649E 111038 F236 MS343 279/100 TB/ S//1=
LVR CNFPQK 3730N 11641E 111041 F236 MS348 274/099 TB/ S//1=
LVR CNFPQK 3743N 11631E 111044 F217 MS348 276/067 TB/ S//1=
DES CNFPQK 3743N 11612E 111047 F208 MS324 275/065 TB/ S//1=
ASC CNFOZM 3649N 11630E 111046 F190 MS269 264/047 TB/ S//1=
ASC CNFOZM 3648N 11628E 111046 F197 MS288 270/052 TB/ S//1=
LVR CNFOZM 3648N 11626E 111047 F197 MS290 273/053 TB/ S//1=
ASC CNFOZM 3647N 11622E 111047 F200 MS294 275/054 TB/ S//1=
LVR CNFPYM 2946N 11708E 111038 F311 MS343 259/136 TB/ S//1=
LVR CNFPYM 2925N 11707E 111041 F311 MS338 260/133 TB/ S//1=
LVR CNFPYM 2904N 11712E 111044 F311 MS325 260/133 TB/ S//1=
LVR CNFPYM 2842N 11718E 111047 F311 MS323 260/127 TB/ S//1=
DES CNFNXM 2744N 12043E 111046 F033 PS054 132/011 TB/ S//1=
DES CNFNXM 2745N 12045E 111046 F025 PS053 093/011 TB/ S//1=
DES CNFNXM 2748N 12047E 111047 F019 PS069 087/011 TB/ S//1=
DES CNFNXM 2750N 12048E 111048 F012 PS081 050/011 TB/ S//1=
DES CNFNXP 3636N 11702E 111046 F094 MS105 300/021 TB/ S//1=
DES CNFNXP 3640N 11702E 111047 F082 MS093 290/021 TB/ S//1=
DES CNFNXP 3644N 11702E 111048 F072 MS073 286/020 TB/ S//1=
DES CNFNXP 3649N 11703E 111049 F059 MS058 281/018 TB/ S//1=
DES CNFNZK 3645N 11832E 111047 F240 MS348 278/100 TB/ S//1=
DES CNFNZK 3645N 11833E 111047 F240 MS346 278/100 TB/ S//1=
DES CNFNZK 3645N 11842E 111048 F230 MS330 277/088 TB/ S//1=
DES CNFNZK 3645N 11852E 111049 F220 MS328 274/076 TB/ S//1=
00000000