0000012400
046
SIVS21 VNNN 110900
AAXX 11091
48803 32460 81402 10178 20131 30079 40195 56012 888// 333 58004 83894 88696=
0000011800
047
SIVS20 VNNN 110900
AAXX 11091
48825 32697 82702 10179 20146 30187 40196 55013 885// 333 58007 88696=
0000011800
048
SIVS21 VNNN 110900
AAXX 11091
48823 32698 80502 10208 20166 30186 40189 57012 885// 333 58003 88696=
0000339300
049
SAIR31 OIII 110900
 METAR OIAA 110900Z 24010KT 2500 BR FEW035CB FEW040 OVC090 12/11
 Q1018=
METAR OIAG NIL=
 METAR OIAH 110900Z 14008KT 6000 -RA FEW035CB SCT040 OVC070 09/08
 Q1017=
METAR OIAI NIL=
 METAR OIAM 110900Z 13014KT 7000 -RA FEW010 FEW030CB OVC090 13/11
 Q1018=
 METAR OIAW 110900Z 10008KT 7000 FEW025CB SCT030 OVC080 13/10
 Q1017=
 METAR OIBA 110900Z 13014KT 7000 FEW025CB FEW030 OVC100 21/13
 Q1018=
 METAR OIBB 110900Z 13012KT 8000 RA FEW030CB SCT035 OVC080 13/09
 Q1018 A3006=
 METAR OIBK 110900Z 07010KT 8000 FEW030CB FEW025 OVC090 15/12 Q1020
 RERA=
METAR OIBL 110900Z 03004KT 3000 RA SCT025 OVC080 14/11 Q1020=
METAR OIBS 110900Z 13016KT 8000 -RA SCT035 OVC090 21/16 Q1019=
 METAR OICC 110900Z 13004KT 1000 SN FEW035CB SCT040 OVC060 M01/M01
 Q1020 A3012 TEMPO SN=
 METAR OICI 110900Z 17006KT 9999 FEW015 FEW025CB SCT035 OVC090
 03/03 Q1017 A3004=
METAR OICJ NIL=
 METAR OICK 110850Z 22006KT 8000 -RA FEW015 FEW035CB SCT040 BKN080
 03/02 Q1018=
 METAR OICS 110900Z 03002KT 5000 BR FEW025 FEW035CB SCT035 BKN080
 M01/M03 Q1019=
METAR OIFK NIL=
 METAR OIFM 110900Z 25004KT 1800 HZ SCT040 OVC100 01/M03 Q1018
 A3009=
 METAR OIFS 110900Z 00000KT 1000 -SN BR FEW025CB SCT030 OVC070
 M04/M06 Q1019=
METAR OIGG 110900Z 31004KT 3000 BR SCT025 BKN100 08/06
Q1015=
METAR OIGK NIL=
METAR OIHH 110900Z 00000KT 3000 BR BKN035 SCT090 M04/M08
Q1019=
METAR OIHM NIL=
 METAR OIIE 110900Z 19008KT 1500 R29/P1800D R11/P1100D SHSN FEW025
 SCT035CB SCT045 OVC090 01/M02 Q1021 A3016 TEMPO SN=
 METAR OIII 110900Z 00000KT 5000 HZ SCT040 OVC100 04/M06 Q1020
 A3013 TEMPO 4000 SN FEW035CB SCT030 BKN100 TEMPO 4000 sn FEW035CB SCT030 BKN100=
 METAR OIIK 110900Z 15006KT 5000 BR FEW035CB SCT040 OVC/// 01/M02
 Q1021=
 METAR OIIP 110900Z 09006KT 0700 SN BR SCT030CB SCT035 OVC080
 M01/M02 Q1019=
METAR OIIS NIL=
 METAR OIKB 110900Z 35006KT 7000 -RA FEW025CB SCT030 OVC090 15/09
 Q1020 A3015 NOSIG=
METAR OIKK 110900Z 33004KT 9999 SCT035 BKN100 03/M04 Q1020 A3013=
METAR OIKO NIL=
 METAR OIKQ 110900Z 02012KT 8000 FEW025CB SCT030 SCT090 15/08
 Q1020=
METAR OIMB 110900Z 09004KT 9999 FEW040 SCT100 BKN190 07/M13 Q1020=
METAR OIMC NIL=
METAR OIMD NIL=
 METAR OIMM 110900Z 11008KT 9999 FEW040 SCT110 BKN170 07/M10 Q1019
 A3010=
METAR OINB NIL=
METAR OING 110900Z 33004KT 6000 FEW030 SCT090 BKN190 11/07 Q1016=
METAR OINK NIL=
METAR OINN 110900Z 03004KT CAVOK 11/10 Q1015=
METAR OINR 110900Z 13006KT 9999 FEW040 OVC170 11/06 Q1014=
METAR OISA NIL=
 METAR OISF 110850Z 00000KT 9999 FEW030CB SCT035 OVC090 08/02 Q1019
 RESH=
 METAR OISL 110900Z 00000KT 8000 -RA FEW025 FEW030CB OVC080 08/04
 Q1021=
 METAR OISS 110900Z 00000KT 1500 BR FEW030CB SCT035 OVC080 02/02
 Q1021 A3016 RESHSN=
METAR OISY NIL=
METAR OITL 110850Z 21023KT 9999 FEW030 BKN080 BKN180 00/M06 Q1015=
 METAR OITR 110900Z 04004KT 2000 HZ SCT035 BKN170 M06/M10 Q1021
 NOSIG=
 METAR OITT 110900Z 22004KT 5000 HZ FEW035 BKN180 M05/M11 Q1022
 A3018=
METAR OITU NIL=
METAR OIYY 110900Z 36006KT 7000 FEW035 08/M02 Q1019=
METAR OIZB 110900Z 10006KT CAVOK 10/M01 Q1023=
METAR OIZC NIL=
 METAR OIZH 110900Z 12012KT 9999 FEW035 SCT090 BKN190 07/M08 Q1020
 A3014 NOSIG=
METAR OIZI 110900Z 00000KT 9999 FEW020 OVC090 15/M07 Q1022=
METAR OIZJ 110900Z 11014KT CAVOK 20/04 Q1020=
0000012200
050
SAIN90 VILK 110900
METAR VILK 110900Z 02003KT 1200 R27/1300 MIFG BKN020 BKN100 16/13
Q1016
BECMG 1500=
0000038900
051
FCIN90 VILK 110900
TAF VILK 110900Z 1112/1121 32004KT 1000 BR/HZ FEW020 SCT100
BECMG 1114/1116 0500 MIFG/FG TEMPO 1113/1118 -RA/TSRA FEW030CB 
BKN090 BECMG 1117/1119 00000KT 0100 FG VVV///=
TAF VIBN 110900Z 1112/1121 32004KT 1000 BR/HZ FEW020 SCT100
BECMG 1114/1116 0500 MIFG/FG TEMPO 1113/1118 -RA/TSRA FEW030CB 
BKN090 BECMG 1117/1119 00000KT 0100 FG VVV///=

0000039100
052
FCIN90 VILK 110900 CCA
TAF VILK 110900Z 1112/1121 32004KT 1000 BR/HZ FEW020 SCT100
BECMG 1114/1116 0500 MIFG/FG TEMPO 1113/1118 -RA/TSRA FEW030CB 
BKN090 BECMG 1117/1119 00000KT 0100 FG VV///=
TAF VIBN 110900Z 1112/1121 32004KT 1000 BR/HZ FEW020 SCT100
BECMG 1114/1116 0500 MIFG/FG TEMPO 1113/1118 -RA/TSRA FEW030CB 
BKN090 BECMG 1117/1119 00000KT 0100 FG VV///=

0000349700
053
SAIR77 OIII 110900
METAR AZUH NIL=
METAR KHME 110850Z AUTO 09004KT //// // ////// 08/M08 Q1022=
 METAR OIAA 110900Z 24010KT 2500 BR FEW035CB FEW040 OVC090 12/11
 Q1018=
METAR OIAG NIL=
 METAR OIAH 110900Z 14008KT 6000 -RA FEW035CB SCT040 OVC070 09/08
 Q1017=
METAR OIAI NIL=
 METAR OIAM 110900Z 13014KT 7000 -RA FEW010 FEW030CB OVC090 13/11
 Q1018=
 METAR OIAW 110900Z 10008KT 7000 FEW025CB SCT030 OVC080 13/10
 Q1017=
 METAR OIBA 110900Z 13014KT 7000 FEW025CB FEW030 OVC100 21/13
 Q1018=
 METAR OIBB 110900Z 13012KT 8000 RA FEW030CB SCT035 OVC080 13/09
 Q1018 A3006=
 METAR OIBK 110900Z 07010KT 8000 FEW030CB FEW025 OVC090 15/12 Q1020
 RERA=
METAR OIBL 110900Z 03004KT 3000 RA SCT025 OVC080 14/11 Q1020=
METAR OIBS 110900Z 13016KT 8000 -RA SCT035 OVC090 21/16 Q1019=
 METAR OICC 110900Z 13004KT 1000 SN FEW035CB SCT040 OVC060 M01/M01
 Q1020 A3012 TEMPO SN=
 METAR OICI 110900Z 17006KT 9999 FEW015 FEW025CB SCT035 OVC090
 03/03 Q1017 A3004=
METAR OICJ NIL=
 METAR OICK 110850Z 22006KT 8000 -RA FEW015 FEW035CB SCT040 BKN080
 03/02 Q1018=
 METAR OICS 110900Z 03002KT 5000 BR FEW025 FEW035CB SCT035 BKN080
 M01/M03 Q1019=
METAR OIFK NIL=
 METAR OIFM 110900Z 25004KT 1800 HZ SCT040 OVC100 01/M03 Q1018
 A3009=
 METAR OIFS 110900Z 00000KT 1000 -SN BR FEW025CB SCT030 OVC070
 M04/M06 Q1019=
METAR OIGG 110900Z 31004KT 3000 BR SCT025 BKN100 08/06
Q1015=
METAR OIGK NIL=
METAR OIHM NIL=
 METAR OIIE 110900Z 19008KT 1500 R29/P1800D R11/P1100D SHSN FEW025
 SCT035CB SCT045 OVC090 01/M02 Q1021 A3016 TEMPO SN=
 METAR OIII 110900Z 00000KT 5000 HZ SCT040 OVC100 04/M06 Q1020
 A3013 TEMPO 4000 SN FEW035CB SCT030 BKN100 TEMPO 4000 sn FEW035CB SCT030 BKN100=
 METAR OIIK 110900Z 15006KT 5000 BR FEW035CB SCT040 OVC/// 01/M02
 Q1021=
 METAR OIIP 110900Z 09006KT 0700 SN BR SCT030CB SCT035 OVC080
 M01/M02 Q1019=
METAR OIIS NIL=
 METAR OIKB 110900Z 35006KT 7000 -RA FEW025CB SCT030 OVC090 15/09
 Q1020 A3015 NOSIG=
METAR OIKK 110900Z 33004KT 9999 SCT035 BKN100 03/M04 Q1020 A3013=
METAR OIKO NIL=
 METAR OIKQ 110900Z 02012KT 8000 FEW025CB SCT030 SCT090 15/08
 Q1020=
METAR OIMB 110900Z 09004KT 9999 FEW040 SCT100 BKN190 07/M13 Q1020=
METAR OIMC NIL=
METAR OIMD NIL=
 METAR OIMM 110900Z 11008KT 9999 FEW040 SCT110 BKN170 07/M10 Q1019
 A3010=
METAR OIMN 110900Z 00000KT CAVOK 08/M09 Q1018 A3007=
METAR OINB NIL=
METAR OING 110900Z 33004KT 6000 FEW030 SCT090 BKN190 11/07 Q1016=
METAR OINK NIL=
METAR OINN 110900Z 03004KT CAVOK 11/10 Q1015=
METAR OINR 110900Z 13006KT 9999 FEW040 OVC170 11/06 Q1014=
METAR OISA NIL=
 METAR OISF 110850Z 00000KT 9999 FEW030CB SCT035 OVC090 08/02 Q1019
 RESH=
 METAR OISL 110900Z 00000KT 8000 -RA FEW025 FEW030CB OVC080 08/04
 Q1021=
 METAR OISS 110900Z 00000KT 1500 BR FEW030CB SCT035 OVC080 02/02
 Q1021 A3016 RESHSN=
METAR OISY NIL=
METAR OITL 110850Z 21023KT 9999 FEW030 BKN080 BKN180 00/M06 Q1015=
 METAR OITR 110900Z 04004KT 2000 HZ SCT035 BKN170 M06/M10 Q1021
 NOSIG=
 METAR OITT 110900Z 22004KT 5000 HZ FEW035 BKN180 M05/M11 Q1022
 A3018=
METAR OITU NIL=
METAR OIYY 110900Z 36006KT 7000 FEW035 08/M02 Q1019=
METAR OIZB 110900Z 10006KT CAVOK 10/M01 Q1023=
METAR OIZC NIL=
 METAR OIZH 110900Z 12012KT 9999 FEW035 SCT090 BKN190 07/M08 Q1020
 A3014 NOSIG=
METAR OIZI 110900Z 00000KT 9999 FEW020 OVC090 15/M07 Q1022=
METAR OIZJ 110900Z 11014KT CAVOK 20/04 Q1020=
METAR SESG NIL=
METAR YAYT NIL=
0000337800
054
SAIR78 OIII 110900
METAR AZUH NIL=
METAR KHME 110850Z AUTO 09004KT //// // ////// 08/M08 Q1022=
 METAR OIAA 110900Z 24010KT 2500 BR FEW035CB FEW040 OVC090 12/11
 Q1018=
METAR OIAG NIL=
 METAR OIAH 110900Z 14008KT 6000 -RA FEW035CB SCT040 OVC070 09/08
 Q1017=
METAR OIAI NIL=
 METAR OIAM 110900Z 13014KT 7000 -RA FEW010 FEW030CB OVC090 13/11
 Q1018=
 METAR OIAW 110900Z 10008KT 7000 FEW025CB SCT030 OVC080 13/10
 Q1017=
 METAR OIBA 110900Z 13014KT 7000 FEW025CB FEW030 OVC100 21/13
 Q1018=
 METAR OIBB 110900Z 13012KT 8000 RA FEW030CB SCT035 OVC080 13/09
 Q1018 A3006=
 METAR OIBK 110900Z 07010KT 8000 FEW030CB FEW025 OVC090 15/12 Q1020
 RERA=
METAR OIBL 110900Z 03004KT 3000 RA SCT025 OVC080 14/11 Q1020=
METAR OIBS 110900Z 13016KT 8000 -RA SCT035 OVC090 21/16 Q1019=
 METAR OICC 110900Z 13004KT 1000 SN FEW035CB SCT040 OVC060 M01/M01
 Q1020 A3012 TEMPO SN=
 METAR OICI 110900Z 17006KT 9999 FEW015 FEW025CB SCT035 OVC090
 03/03 Q1017 A3004=
METAR OICJ NIL=
 METAR OICK 110850Z 22006KT 8000 -RA FEW015 FEW035CB SCT040 BKN080
 03/02 Q1018=
 METAR OICS 110900Z 03002KT 5000 BR FEW025 FEW035CB SCT035 BKN080
 M01/M03 Q1019=
METAR OIFK NIL=
 METAR OIFM 110900Z 25004KT 1800 HZ SCT040 OVC100 01/M03 Q1018
 A3009=
 METAR OIFS 110900Z 00000KT 1000 -SN BR FEW025CB SCT030 OVC070
 M04/M06 Q1019=
METAR OIGG 110900Z 31004KT 3000 BR SCT025 BKN100 08/06
Q1015=
METAR OIGK NIL=
METAR OIHH 110900Z 00000KT 3000 BR BKN035 SCT090 M04/M08
Q1019=
METAR OIHM NIL=
 METAR OIIE 110900Z 19008KT 1500 R29/P1800D R11/P1100D SHSN FEW025
 SCT035CB SCT045 OVC090 01/M02 Q1021 A3016 TEMPO SN=
 METAR OIII 110900Z 00000KT 5000 HZ SCT040 OVC100 04/M06 Q1020
 A3013 TEMPO 4000 SN FEW035CB SCT030 BKN100 TEMPO 4000 sn FEW035CB SCT030 BKN100=
 METAR OIIK 110900Z 15006KT 5000 BR FEW035CB SCT040 OVC/// 01/M02
 Q1021=
METAR OIIS NIL=
 METAR OIKB 110900Z 35006KT 7000 -RA FEW025CB SCT030 OVC090 15/09
 Q1020 A3015 NOSIG=
METAR OIKK 110900Z 33004KT 9999 SCT035 BKN100 03/M04 Q1020 A3013=
METAR OIKO NIL=
 METAR OIKQ 110900Z 02012KT 8000 FEW025CB SCT030 SCT090 15/08
 Q1020=
METAR OIMB 110900Z 09004KT 9999 FEW040 SCT100 BKN190 07/M13 Q1020=
METAR OIMC NIL=
METAR OIMD NIL=
 METAR OIMM 110900Z 11008KT 9999 FEW040 SCT110 BKN170 07/M10 Q1019
 A3010=
METAR OIMN 110900Z 00000KT CAVOK 08/M09 Q1018 A3007=
METAR OINB NIL=
METAR OING 110900Z 33004KT 6000 FEW030 SCT090 BKN190 11/07 Q1016=
METAR OINN 110900Z 03004KT CAVOK 11/10 Q1015=
METAR OINR 110900Z 13006KT 9999 FEW040 OVC170 11/06 Q1014=
METAR OISA NIL=
 METAR OISF 110850Z 00000KT 9999 FEW030CB SCT035 OVC090 08/02 Q1019
 RESH=
 METAR OISL 110900Z 00000KT 8000 -RA FEW025 FEW030CB OVC080 08/04
 Q1021=
 METAR OISS 110900Z 00000KT 1500 BR FEW030CB SCT035 OVC080 02/02
 Q1021 A3016 RESHSN=
METAR OISY NIL=
 METAR OITR 110900Z 04004KT 2000 HZ SCT035 BKN170 M06/M10 Q1021
 NOSIG=
 METAR OITT 110900Z 22004KT 5000 HZ FEW035 BKN180 M05/M11 Q1022
 A3018=
METAR OITU NIL=
METAR OIYY 110900Z 36006KT 7000 FEW035 08/M02 Q1019=
METAR OIZB 110900Z 10006KT CAVOK 10/M01 Q1023=
METAR OIZC NIL=
 METAR OIZH 110900Z 12012KT 9999 FEW035 SCT090 BKN190 07/M08 Q1020
 A3014 NOSIG=
METAR OIZI 110900Z 00000KT 9999 FEW020 OVC090 15/M07 Q1022=
METAR OIZJ 110900Z 11014KT CAVOK 20/04 Q1020=
METAR YAYT NIL=
0000009200
055
SAIQ01 ORBI 110900
METAR ORNI 110900Z 26018KT 8000 OVC025 11/08 Q1017 NOSIG=
0000217100
056
SZNZ01 NZKL 110906
CREX++
T000103 A001 D01021 D06025++
-3683144 17478654 AUCT  2014 01 11 08 58 //// 11 07 00 01
04067 3195 04059 3191 04055 3190 04050 3189 04049 3191 04046 3192+
-4402404 -17636748 CHIT  2014 01 11 08 58 //// 11 07 00 01
04435 1934 04432 1928 04440 1933 04446 1937 04444 1932 04443 1927+
-4089929 17623168 CPIT  2014 01 11 08 58 //// 11 07 00 01
03325 2301 03326 2299 03327 2297 03331 2299 03315 2279 03327 2288+
-3618905 17548887 GBIT  2014 01 11 08 58 //// 11 07 00 01
05012 -0031 05014 -0027 05015 -0024 05013 -0025 05002 -0034 04996 -0039+
-3867541 17802288 GIST  2014 01 11 08 58 //// 11 07 00 01
03358 2762 03351 2754 03349 2750 03333 2733 03342 2741 03338 2735+
-4241288 17370277 KAIT  2014 01 11 08 58 //// 11 07 00 01
02820 2212 02815 2204 02834 2218 02840 2221 02844 2220 02850 2222+
-3755040 17815904 LOTT  2014 01 11 08 58 //// 11 07 00 01
02731 0188 02716 0173 02720 0177 02729 0186 02714 0172 02725 0183+
-3704657 17451175 MNKT  2014 01 11 08 58 //// 11 07 00 01
02928 -0129 02935 -0115 02915 -0128 02936 -0101 02900 -0129 02916 -0107+
-3947566 17692007 NAPT  2014 01 11 08 58 //// 11 07 00 01
02376 2047 02391 2060 02412 2079 02403 2067 02411 2073 02396 2055+
-3441483 17304870 NCPT  2014 01 11 08 58 //// 11 07 00 01
-03134 -6882 -03195 -6939 -03035 -6775 -03060 -6797 -03093 -6826 -03294 -7023+
-4581435 17062939 OTAT  2014 01 11 08 58 //// 11 07 00 01
04306 3410 04311 3409 04317 3409 04326 3411 04334 3413 04339 3412+
-2928002 -17789440 RBCT  2014 01 11 08 58 //// 11 07 00 01
05511 2029 05522 2041 05524 2045 05510 2031 05486 2008 05507 2031+
-2925114 -17790384 RFRT  2014 01 11 08 58 //// 11 07 00 01
02415 0215 02401 0202 02419 0221 02411 0214 02415 0219 02389 0193+
-4357010 17277383 SUMT  2014 01 11 08 58 //// 11 07 00 01
01452 1883 01458 1883 01451 1870 01480 1894 01486 1895 01485 1888+
-3764109 17618118 TAUT  2014 01 11 08 58 //// 11 07 00 01
04339 3973 04342 3977 04342 3979 04340 3979 04339 3979 04331 3973+
-4128448 17477985 WLGT  2014 01 11 08 58 //// 11 07 00 01
02756 2044 02765 2050 02765 2046 02776 2054 02782 2057 02785 2057++
7777
0000014700
057
SINC21 NWBB 110900
AAXX 11094
91570 46/// /1113 10267 20210 30095 40100 51017=
91574 46/// /1115 10260 20201 30111 40116 53014=
0000013200
058
SIVD02 CWAO 110900
BBXX
SHIP 11094 99505 71278 46/// /2510 10087 20063 49872 55003 7//// 8//// 22200 0//// 2//// =
0000013200
059
SIVD02 CWAO 110900
BBXX
SHIP 11094 99474 70619 46/// /2303 11035 21036 40235 53004 7//// 8//// 22200 0//// 2//// =
0000028300
060
SXHW11 KWAL 110905
B15047DC 011090533"
1,140111,08:00:00,1.0,2,1.0,16.8,1019.9,45.88,13.1,
1,140111,08:15:00,1.0,2,1.0,16.8,1019.8,45.88,13.0,
1,140111,08:30:00,1.0,2,1.0,16.7,1019.7,45.88,13.1,
1,140111,08:45:00,1.0,2,1.0,16.8,1019.4,45.88,13.0, 43+0NN 210W
0000013200
061
SIVD02 CWAO 110900
BBXX
SHIP 11094 99449 70625 46/// /2604 10023 20017 40265 58005 7//// 8//// 22200 0//// 2//// =
0000013200
062
SIVD02 CWAO 110900
BBXX
SHIP 11094 99467 70719 46/// /0413 11052 21073 40188 58021 7//// 8//// 22213 00010 2//// =
0000013200
063
SIVD02 CWAO 110900
BBXX
SHIP 11094 99476 70527 46/// /2713 11028 21062 40201 53003 7//// 8//// 22200 0//// 2//// =
0000013200
064
SIVD02 CWAO 110900
BBXX
SHIP 11094 99474 70619 46/// /2209 11038 21080 40241 53004 7//// 8//// 22200 0//// 2//// =
0000013200
065
SIVD02 CWAO 110900
BBXX
SHIP 11094 99489 71235 46/// /1422 10088 20085 49924 58070 7//// 8//// 22200 0//// 2//// =
00000000