0000019800
106
FTCN38 CWAO 110100
TAF CYDF 110141Z 1102/1114 23015G25KT P6SM -SHSN BKN025 TEMPO
     1102/1114 4SM -SHSN OVC015
     BECMG 1111/1113 25010G20KT
    RMK NXT FCST BY 110800Z=

0000031100
107
FTCN38 CWAO 110100
TAF CYAY 110141Z 1102/1114 24015G25KT P6SM FEW020 BKN050 TEMPO
     1102/1104 3SM -SN BKN020
    FM110400 26015G25KT 6SM -SN SCT020 OVC040 TEMPO 1104/1111 2SM -SN
     OVC020
    FM111100 26012G22KT P6SM SCT030
    RMK FCST BASED ON AUTO OBS. NXT FCST BY 110800Z=

0000029100
108
SXXX32 EUMS 111054 RRX
166AC436
OT12 ID:IC-COMI-10 DT:2014 01 11 10 53
:RAD /1 06113 06110 06130 06113 06125 06115 06101 06119 06101 06107 06087 06083 06078 06103 06099 06115 06104 06099 06107 06094 06094 06093 06075 06094 06087 06106 06092 06077 06079 06085
:BAT 13.6V
0000010900
109
UANT99 KDDL 111053
ARP THY10 5605N02512W 1053 F330 MS61 217/93 KT
TCJJL QXT AOE 111053 F33A
0000008400
110
SAYE20 OYIB 110900 RRA
METAR OYIB 110900Z 35004KT CAVOK 23/05 Q1022=
0000009200
111
SAFJ31 NFFN 111100
METAR NFFN 111100Z 12004KT 9999 FEW030 24/21 Q1007 NOSIG=
0000016100
112
SOVI10 KWAL 111056
B110070A 011105601 P9751095 B\P~W@@p0ekJ1@mX???C[Ca>@mW3@MC~@W5C{6bP2?????@"??? ?TJuKBNBOBVBPBVBU:AMPTEMP 25.85C  46+0NN 219E
0000010000
113
SNAA01 KARS 111000 RRB
AAXX 1110/
89329 46/// ///// 11124 38805 4//// 5//// 91030=
0000107000
114
SOFB01 RKSL 111000
KKYY 10014 1549/ 139323 137355 88872 84660 20005 31093 43399
20015 31093 43399 20025 31092 43399 20034 31091 43399 20044 
31091 43399 20054 31089 43399 20064 31090 43399 20074 31089 
43399 20084 31084 43399 20093 31077 43399 20104 31076 43399 
20113 31076 43399 20124 31060 43400 20134 30898 43404 20144 
30772 43404 20153 30646 43404 20163 30512 43403 20173 30448 
43402 20183 30410 43402 20192 30366 43402 20203 30313 43402 
20218 30258 43403 20233 30222 43404 20247 30190 43404 20262 
30165 43404 20277 30150 43405 20292 30129 43405 20306 30121 
43405 20321 30111 43405 20336 30104 43406 20351 30099 43406 
20366 30093 43406 20380 30088 43406 20395 30084 43406 20415 
30081 43406 20435 30077 43406 20451 30073 43406 20474 30066 
43406 20494 30062 43406 20514 30059 43406 20533 30055 43406 
20553 30054 43406 20573 30052 43406 20593 30050 43406 20613 
30048 43406 20632 30047 43406 20651 30045 43406 20672 30044 
43406 20691 30044 43406 20715 30042 43406 20740 30040 43406 
20765 30038 43406 Q7900239=
0000009200
115
SAPK31 OPPS 111056
METAR OPPS 111100Z S--06KT 5000 HZ SCT200 19/M02 Q1019.7=
0000011100
116
UANT01 CWAO 111054
ARP UPS218 4804N04652W 1054 F320 MS59 309/54 KT
N360UP QXT IGW 111054 F45A
0000011100
117
UANT01 CWAO 111054
ARP DAL177 5406N02639W 1054 F340 MS62 200/77 KT
N1604R QXT AOE 111054 F89A
0000017100
118
SAGU31 MGGT 111100
METAR
MGGT 111100Z 36004KT 9999 FEW014 13/12 Q1025 A3027  VOL. PACAYA CON
VA A 9000FT CON DIRECCION S-SSW A UNA DISTANCIA DE 6-10KM=
0000012800
119
SNVF41 LFPW 111100
BBXX
61002 11114 99421 10047 46/// /0806 10130 20050 40210 52010
22200 00127 10401 70005=
0000051600
120
SSVX08 KARS 111055
ZZYY 51307 10014 1200/ 707996 124994 6111/
33311 88870 20020 32716 20040 32700 20060 32432 20080 31859
20100 31404 20120 31260 20140 31194 20180 31113 20300 31000
444 20110 10014 1057/ 521//=
ZZYY 32319 10014 1200/ 507990 110070 6113/
33311 88870 20020 32450 20080 32383 20100 32026 20120 31803
20180 31291 20300 31109 20500 30831
444 20130 10014 1310/ 521//=
ZZYY 32319 11014 10004 507993 110081 6111/
11119 01212 10238 29077
444 20110 11014 0439/ 521// 60401=
0000011000
121
UANT01 CWAO 111055
ARP BAW196 5210N04918W 1055 F350 MS63 290/69 KT
GCIVH QXS YAY 111055 F50A
0000039800
122
SAGU31 MGGT 111100
METAR
METAR MGMM 111100Z 00000KT CAVOK 18/17 Q1015 A2997=
METAR MGHT 111100Z 00000KT CAVOK 06/05 QFE 816.6=
METAR MGPB 111100Z 00000KT CAVOK 21/21 Q1014 A2994 SCT090=
METAR MGGT 111100Z 36004KT 9999 FEW014 13/12 Q1025 A3027  VOL. PACAYA
CON VA A 9000FT CON DIRECCION S-SSW A UNA DISTANCIA DE 6-10KM=
METAR MGSJ 111100Z 00000KT CAVOK 20/20 Q1013 A2991=
0000034700
123
SNVX21 EDZW 111000
BBXX
DBBA  11101 99541 10121 46/// ///// 10056 20042 40103 57005
22260 00068=
DBBC  11101 99536 10086 46/// /2006 10046 20040 40103 57003
22250 00063=
DBBI  11101 99535 10099 46/// /2405 10050 20046 40505 57008
22200 00048=
DBBT  11101 99440 10308 46/// /2603 10088 20052 40227 57003
22230 00092=
0000014600
124
SNVX21 EDZW 110800
BBXX
ZDKV8 11083 99107 31457 41297 70408 10275 20262 40070 51005
76222 8524/ 22273 20301 312// 40603 80265=
0000037600
125
SAPO31 LPMG 110130
METAR LPBJ 110130Z NIL=
METAR LPFR 110130Z 03008KT CAVOK 13/08 Q1014=
METAR LPMA 110130Z VRB02KT CAVOK 15/05 Q1016 RS36002KT 0532003KT
2330003KT=
METAR LPPR 110130Z 02002KT 2500 0550N R35/P2000 BR BCFG NSC 06/05
Q1015=
METAR LPPS 110130Z VRB02KT 9999 FEW014 14/13 Q1017=
METAR LPPT 110130Z 33006KT 300V360 CAVOK 11/09 Q1015=

00000000