0000052300
566
SAYG31 LYBM 102230
METAR LYBE 102230Z 16004KT 8000 NSC 05/03 Q1023 NOSIG=
METAR LYBT 102230Z VRB01KT 0800 FG NSC 03/03 Q1023 NOSIG=
METAR LYKV 102230Z 12003KT 050V150 9999 SCT040 04/01 Q1023 NOSIG=
METAR LYNI 102230Z 10004KT 050V130 CAVOK 04/02 Q1023=
METAR LYPG 102230Z VRB01KT 6000 FEW100 06/06 Q1023 TEMPO 3000=
METAR LYPR 102230Z NIL=
METAR LYTV 102230Z VRB01KT CAVOK 06/06 Q1022=
METAR LYUZ 102230Z VRB01KT 8000 BKN020 04/03 Q1021=
METAR LYVR 102230Z VRB01KT CAVOK 06/01 Q1023 NOSIG=

0000040200
567
FTUS41 KWBC 102233
TAF
TAF AMD KCEF 1022/1201 VRB06KT 9999 OVC019 620199 QNH3030INS
      BECMG 1104/1105 10006KT 4800 -FZDZ OVC008 WS020/20040KT
      660001 620307 QNH3010INS
      BECMG 1107/1108 15006KT 4800 -RA BR OVC008 WS020/20040KT
      QNH3002INS
      BECMG 1110/1111 17010KT 2400 -RA BR OVC008 WS020/20050KT
      QNH2941INS T12/1121Z TM01/1102Z AMD 102225=

0000058100
568
FTUS41 KWBC 102233 AAA
TAF AMD
KBAF 102231Z 1023/1118 00000KT 3SM BR OVC015
     FM110300 00000KT P6SM OVC015
     FM110600 00000KT P6SM OVC010
     FM111100 VRB03KT 2SM -RA BR OVC003
     FM111200 14004KT 2SM -RA OVC008 WS020/36040KT
     FM111500 18007KT 1/2SM -RA FG OVC003 WS020/19045KT=
KBED 102231Z 1023/1118 00000KT P6SM BKN015 BKN060
     FM110500 00000KT P6SM OVC025
     FM110800 VRB03KT P6SM OVC020
     FM111100 16005KT P6SM OVC010
     FM111300 17007KT 2SM -RA OVC008
     FM111600 18011G26KT 1SM -RA BR OVC003 WS020/19045KT=

0000040200
569
FTUS71 KWBC 102233
TAF
TAF AMD KCEF 1022/1201 VRB06KT 9999 OVC019 620199 QNH3030INS
      BECMG 1104/1105 10006KT 4800 -FZDZ OVC008 WS020/20040KT
      660001 620307 QNH3010INS
      BECMG 1107/1108 15006KT 4800 -RA BR OVC008 WS020/20040KT
      QNH3002INS
      BECMG 1110/1111 17010KT 2400 -RA BR OVC008 WS020/20050KT
      QNH2941INS T12/1121Z TM01/1102Z AMD 102225=

0000020300
570
FTUS75 KWBC 102233 AAA
TAF AMD
PASC 102232Z 1023/1118 25013KT 4SM BR SCT025 BKN040
      TEMPO 1023/1102 3SM -SN BR BKN025
     FM110200 25018KT 3SM BR BLSN FEW015 BKN025 OVC035=

0000020500
571
FTUY01 SUMU 102230
TAF
SURV 102230Z 1100/1124 16005KT 9999 SCT023 BKN080 TX26/1118Z
TN20/1109Z TEMPO 1100/1112 23020G30KT 5000 TSRA BKN015 
FEW040CB OVC060 BECMG 1112/1114 22010KT=

0000122200
572
FTUS71 KWBC 102233 AAA
TAF AMD
KBAF 102231Z 1023/1118 00000KT 3SM BR OVC015
     FM110300 00000KT P6SM OVC015
     FM110600 00000KT P6SM OVC010
     FM111100 VRB03KT 2SM -RA BR OVC003
     FM111200 14004KT 2SM -RA OVC008 WS020/36040KT
     FM111500 18007KT 1/2SM -RA FG OVC003 WS020/19045KT=
KBED 102231Z 1023/1118 00000KT P6SM BKN015 BKN060
     FM110500 00000KT P6SM OVC025
     FM110800 VRB03KT P6SM OVC020
     FM111100 16005KT P6SM OVC010
     FM111300 17007KT 2SM -RA OVC008
     FM111600 18011G26KT 1SM -RA BR OVC003 WS020/19045KT=
KBOS 102231Z 1023/1124 19004KT 5SM BR BKN012 OVC020
     FM110400 20005KT P6SM OVC012
     FM111300 17010G18KT 2SM -RA OVC008
     FM111500 18012G25KT 1/2SM -RA FG OVC003=
KHYA 102231Z 1023/1118 19007KT P6SM OVC005
     FM110400 20005KT P6SM OVC020
     FM111100 18010G19KT P6SM OVC040
     FM111500 18017G32KT 1/2SM -RA FG OVC003 WS020/36045KT=
KMHT 102231Z 1023/1118 00000KT P6SM FEW019 BKN090
     FM110600 00000KT 4SM BR OVC020
     FM111200 VRB03KT 2SM -FZRA BR OVC008
     FM111300 15004KT 1SM -RA BR OVC008
     FM111500 18005KT 3/4SM -RA BR OVC003
     FM111700 18009KT 3/4SM -RA BR OVC003 WS020/20045KT=

0000029100
573
FTUS72 KWBC 102233 AAA
TAF AMD
KTXK 102229Z 1022/1118 17005KT 3SM SHRA BR SCT015 OVC035
      TEMPO 1022/1102 1/2SM TSRA FG BKN007 OVC015CB
     FM110200 24010KT 5SM -RA BR VCTS OVC015CB
     FM110600 28008G16KT P6SM SCT015 SCT250
     FM110900 27008KT P6SM SKC=

0000042000
574
SAPL31 EPWA 102230
METAR EPGD 102230Z 28010KT 9999 -SHRA BKN009 SCT018CB
    04/04 Q1006 =
METAR EPKK 102230Z 24010KT 9999 BKN053 05/M00 Q1016 =
METAR EPLL 102230Z 27015KT 9999 BKN036 05/00 Q1012 =
METAR EPPO 102230Z 25009KT 9999 BKN029 06/01 Q1013
    R10/19//95 =
METAR EPRZ 102230Z 27017KT CAVOK 05/M00 Q1014 =
METAR EPWA 102230Z 27019G29KT 9999 SCT026 BKN046 05/02 Q1010
    NOSIG=

0000037900
575
SAPL32 EPWA 102230
METAR EPBY 102230Z 26016KT 9999 BKN027 06/03 Q1010 =
METAR EPKT 102230Z 24013KT 9999 BKN045 05/M02 Q1016 =
METAR EPLB 102230Z NIL=
METAR EPMO 102230Z 26019KT 9999 -SHRA SCT025CB BKN031
    05/03 Q1009 =
METAR EPSC 102230Z 25010KT 9999 SCT020 05/02 Q1012 =
METAR EPWR 102230Z 26007KT CAVOK 05/M00 Q1017 =
METAR EPZG 102230Z NIL=

0000026200
576
FTAG31 KWBC 102230
TAF
TAF SAEZ 102300Z 1100/1124 18010KT 9999 FEW050TCU TX26/1118Z
      TN15/1109Z
      TEMPO 1100/1106 15010G20KT 9000 -SHRA BKN030 FEW050CB
      BECMG 1109/1112 15015KT 9999 SCT040
      BECMG 1121/1124 11010KT=

0000008700
577
FTPA31 KWBC 102230
TAF
PTPN 102229Z 1022/1118 05014KT P6SM SCT018=

0000008700
578
FTPQ31 KWBC 102230
TAF
PTPN 102229Z 1022/1118 05014KT P6SM SCT018=

0000026800
579
FTSA41 KWBC 102230
TAF
TAF SKBG 102200Z 110024 VRB02KT 9999 FEW017 SCT200
      TEMPO 1100/1104 32008KT FEW015
      TEMPO 1109/1112 7000 MIFG SCT010
      TEMPO 1117/1123 32006KT FEW018 PROB40 1120/1123 SCT015
      TX25/1118Z TN18/1111Z=

0000051000
580
FTUS52 KWBC 102230 AAA
TAF AMD
KMLU 102226Z 1022/1118 20006KT P6SM OVC015
      TEMPO 1023/1103 2SM -RA BR OVC005
     FM110300 19012G18KT P6SM VCTS OVC015CB
      TEMPO 1104/1108 VRB15G30KT 2SM TSRA BR OVC007CB
     FM110800 26010KT 5SM -TSRA BR OVC009CB
     FM111200 29011KT P6SM BKN250=
KTEX 102227Z 1022/1118 32008KT 4SM -SN SCT012 OVC025
      TEMPO 1022/1023 2SM -SN BR BKN012
     FM110300 16005KT P6SM VCSH SCT015 BKN025
     FM111000 VRB03KT P6SM SCT025 BKN060=

0000020400
581
FTFK41 EGYP 102300
TAF EGYP 102228Z 1100/1118 21028G38KT 9999 BKN020 BECMG
1100/1103 21018G28KT BKN030 TEMPO 1103/1115 SCT020 BECMG
1109/1112 24018KT BECMG 1115/1118 27014KT BKN020=

0000051000
582
FTUS80 KWBC 102230 AAA
TAF AMD
KMLU 102226Z 1022/1118 20006KT P6SM OVC015
      TEMPO 1023/1103 2SM -RA BR OVC005
     FM110300 19012G18KT P6SM VCTS OVC015CB
      TEMPO 1104/1108 VRB15G30KT 2SM TSRA BR OVC007CB
     FM110800 26010KT 5SM -TSRA BR OVC009CB
     FM111200 29011KT P6SM BKN250=
KTEX 102227Z 1022/1118 32008KT 4SM -SN SCT012 OVC025
      TEMPO 1022/1023 2SM -SN BR BKN012
     FM110300 16005KT P6SM VCSH SCT015 BKN025
     FM111000 VRB03KT P6SM SCT025 BKN060=

0000008700
583
FTUS80 KWBC 102230
TAF
PTPN 102229Z 1022/1118 05014KT P6SM SCT018=

0000197900
584
SPUS70 KWBC 102230
SPECI
KBPT 102226Z 16012KT 3SM -RA BR BKN012 OVC048 19/17 A2985 RMK AO2
     RAB05 P0000=
KCUB 102226Z AUTO 00000KT 3/4SM +RA BR SCT003 OVC014 10/10 A3016
     RMK AO2 P0082 T01000100 TSNO=
KDYL 102226Z AUTO 02003KT 2 1/2SM BR OVC002 00/00 A3032 RMK AO2
     UPE2159 P0000 T00000000=
KEQY 102226Z AUTO 35004KT 5SM RA BR SCT005 BKN020 OVC025 07/06
     A3017 RMK AO2 P0020=
KHKY 102226Z AUTO 05004KT 1 3/4SM BR OVC003 07/06 A3017 RMK AO2
     TSNO=
KHVN 102226Z 00000KT 2SM BR OVC006 02/01 A3036 RMK AO2=
KORD 102226Z 16011KT 2 1/2SM -RA BR OVC006 02/01 A2969 RMK AO2
     P0009 T00220006 $=
KPYM 102226Z AUTO 20004KT 1SM BR OVC003 03/02 A3037 RMK AO2
     T00280017=
KTHV 102226Z AUTO 07003KT 1 3/4SM BR OVC006 02/01 A3029 RMK AO2
     T00170006=
KUGN 102226Z 15007KT 1 1/4SM RA BR OVC002 01/01 A2970 RMK AO2 PNO
     $=
KACV 102227Z AUTO 00000KT 1 1/4SM R32/4500VP6000FT BR OVC002 10/09
     A3021 RMK AO2 T01000094=
KAHN 102227Z 07005KT 1SM BR OVC003 08/07 A3013 RMK AO2=
KASH 102227Z 00000KT 6SM BR BKN018 BKN075 M02/M03 A3034 RMK AO2
     BKN V OVC=
KEFD 102220Z 18008KT 5SM BR BKN011 OVC025 20/18 A2984=
KESF 102227Z AUTO 24007KT 2 1/2SM -RA BR SCT010 BKN015 OVC021
     19/17 A2987 RMK AO2 RAB16 P0000=
KFHR 102227Z AUTO 20007KT 7SM -RA BKN026 BKN043 OVC060 08/06 A2997
     RMK AO2 RAB14 P0000 T00780056=
KGLS 102227Z 16009KT 2 1/2SM -RA BR FEW003 BKN011 OVC041 17/17
     A2984 RMK AO2 RAB01 P0000=
KOFP 102227Z AUTO 10004KT 2SM RA BR OVC003 04/03 A3028 RMK AO2
     RAE07B17 P0003 T00390033=
KPHL 102227Z 06003KT 1SM R09R/5000VP6000FT -RA BR OVC004 02/01
     A3034 RMK AO2 RAB27 P0000 $=
KPSX 102227Z AUTO 18006KT 10SM BKN024 BKN034 OVC060 19/18 A2983
     RMK AO2 T01940178=
KVUO 102227Z AUTO 15007KT 10SM SCT024 BKN070 OVC090 11/07 A3005
     RMK AO2 T01110072=
PASC 102225Z 25013KT 4SM -SN BR BKN026 OVC043 M29/M33 A2988 RMK
     AO2 SNB24 P0000=

0000010100
585
SPUS31 KWBC 102230
SPECI
KORD 102226Z 16011KT 2 1/2SM -RA BR OVC006 02/01 A2969=

00000000