0000033300
806
FTCA35 KWBC 102157
TAF
TAF MSLP 102125Z 1100/1124 23007KT 9999 FEW060 TX33/1118Z
      TN20/1111Z
     FM110300 02009KT CAVOK
     FM111800 18010KT 9999 FEW066=
TAF MSSS 102125Z 1100/1124 18007KT 9999 FEW047 TX31/1118Z
      TN17/1111Z
     FM110600 35007KT CAVOK
     FM112000 17008KT 9999 FEW043=

0000026100
807
FTUS53 KWBC 102157 AAA
TAF AMD
KAXN 102156Z 1022/1118 18009KT 1/2SM FZFG OVC002
     FM102300 20007KT 2SM BR BKN006 OVC015
     FM110300 27006KT P6SM SCT200
     FM110800 31010KT P6SM SCT025 BKN040
     FM111600 30010KT P6SM SCT250=

0000028100
808
FTUS52 KWBC 102157 AAA
TAF AMD
KMLB 102154Z 1022/1118 13008KT P6SM VCSH SCT020 SCT035 BKN200
      TEMPO 1022/1024 5SM SHRA BKN020 BKN025
     FM110000 14006KT P6SM OVC120
     FM110800 16005KT 5SM BR BKN010
     FM111400 19010G15KT P6SM SCT015 BKN150=

0000049300
809
FTUS80 KWBC 102157 AAA
TAF AMD
KAXN 102156Z 1022/1118 18009KT 1/2SM FZFG OVC002
     FM102300 20007KT 2SM BR BKN006 OVC015
     FM110300 27006KT P6SM SCT200
     FM110800 31010KT P6SM SCT025 BKN040
     FM111600 30010KT P6SM SCT250=
KMLB 102154Z 1022/1118 13008KT P6SM VCSH SCT020 SCT035 BKN200
      TEMPO 1022/1024 5SM SHRA BKN020 BKN025
     FM110000 14006KT P6SM OVC120
     FM110800 16005KT 5SM BR BKN010
     FM111400 19010G15KT P6SM SCT015 BKN150=

0000010600
810
SPUS41 KWBC 102157
SPECI
KDOV 102153Z AUTO 07003KT 1 1/4SM -RA BR OVC004 03/03 A3030=

0000010800
811
SPUS41 KWBC 102157
SPECI
KWRI 102155Z AUTO 04003KT 1SM R06/4000FT BR VV003 02/02 A3031=

0000019000
812
SANL32 EHDB 102155
METAR COR EHEH 102155Z AUTO 21009KT 9999 OVC012 05/03 Q1016 
GRN=
METAR EHKD 102155Z AUTO 21017KT 8000 BR SCT006 BKN007 BKN015 07/07
Q1013 
YLO=

0000010400
813
SAFK41 EGYP 102150
METAR EGYP 102150Z 21027G37KT 9999 SCT022 BKN040 05/M02 Q0997 WHT=

0000009700
814
SAAK32 KWBC 102100 RRC
METAR
PADL 102145Z 02007KT 10SM BKN015 M03/M03 A2948=

0000010100
815
SAUK33 EGGY 102150 RRA
METAR EGNS 102150Z 31005KT 280V010 9999 FEW022 06/04 Q1009=

0000022300
816
FTXX69 EGRR 102100 RRA
TAF AMD EQBH 102145Z 1021/1118 VRB03KT 9999 FEW250
     PROB30 1021/1104 0500 FG BKN000
     BECMG 1100/1103 08012KT
     BECMG 1104/1107 SCT020
     BECMG 1108/1110 SCT120=

0000041300
817
SPUS70 KWBC 102200
SPECI
KBPT 102121Z COR 18010G17KT 10SM -RA BR FEW023 BKN033 OVC044 19/17
     A2986 RMK AO2 RAB2056 P0000=
KHQM 102156Z AUTO 18008KT 2SM -RA BKN011 OVC018 A3000 RMK AO2
     P0000 TSNO $=
KSTL 102157Z 21010G14KT 2 1/2SM -RA BR OVC005 07/06 A2971 RMK AO2
     P0001=
KASE 102157Z 36006KT 2 1/2SM -SN BR FEW013 OVC040 M06/M08 A2985
     RMK AO2 P0000 T10611083=

0000049100
818
SACU31 MUHA 102200
METAR
MUHA 102155Z 17006KT 140V210 9000 FEW040 28/19 Q1016=
MUVR 102150Z 04009KT 9000 FEW020 27/21 Q1017=
MUSC 102150Z 08012KT 9000 FEW020 27/21 Q1017=
MUCC 102153Z 09009KT 9000 FEW020 27/21 Q1017=
MUCM 102150Z 07016KT 9999 FEW020 26/18 Q1017=
MUHG 102150Z 08011KT 9999 FEW020 28/19 Q1016=
MUCU 102151Z 12018KT 9999 FEW020 27/19 Q1015=
MUCL 102153Z 12010KT 060V180 9999 FEW020 27/22 Q1016=
MUCF 102150Z 22008KT 9000 SCT020 28/22 Q1016=

0000017500
819
SAXX69 EGRR 102100 RRB
METAR KQTZ 102055Z 12013G20KT 6000 BR FEW010 SCT015 OVC030 10/08 A3002
      RMK SLP166 WND DATA ESTMD ALSTG/SLP ESTMD 60023 56009=

0000037900
820
SAXX69 EGRR 102200
METAR EQBH 102150Z 17002KT 9999 FEW200 01/M01 Q1027 BLU TEMPO 6000
      HZ WHT RMK A3033 PA2543 DA1526=
METAR KQSA 102155Z 21005KT 9000 HZ CLR M03/M11 A3030 RMK AO2A SLP328
      WND DATA ESTMD ALSTG/SLP ESTMD=
METAR KQTZ 102155Z 13014G20KT 6000 BR FEW010 SCT015 OVC030 10/08 A3001
      RMK SLP161 WND DATA ESTMD ALSTG/SLP ESTMD=

0000035500
821
SANK31 MNMG 102200
METAR
MNPC  102200Z 09008KT 7000 BKN016 28/24 Q1010 HZ 79%=
MNRS  102200Z 07006KT CAVOK 30/21 Q1008=
MNJG   102200Z 00000KT 2000 DZ BKN016 21/18 Q1011=
MNJU   102200Z 09012KT 9999 FEW020 SCT080 29/21 Q1011=
MNCH  102200Z 04006KT 9999 FEW025 33/16 Q1008=
MNBL   102200Z 08004KT 9999 SCT018 28/24 Q1011 78%=

0000009200
822
SACG20 FCBB 102200
METAR FCBB 102200Z 24003KT 7000 NSC 24/23 Q1012 NOSIG=

0000010300
823
SARM31 LUKK 102200
METAR LUKK 102200Z 28009KT CAVOK 03/M01 Q1014 R26/CLRD65
NOSIG=

0000083200
824
SATU31 LTAA 102150
METAR LTAC 102150Z 33003KT 4800 BR OVC006 M03/M03 Q1022 BECMG 1200
 BCFG OVC003=
METAR LTAF 102150Z 06004KT CAVOK 06/M01 Q1021 NOSIG=
METAR LTAI 102150Z 35005KT 8000 NSC 06/05 Q1022 NOSIG=
METAR LTAJ 102150Z 00000KT CAVOK M01/M05 Q1021 NOSIG=
METAR LTAZ 102150Z VRB02KT 9999 BKN009 M02/M03 Q1023=
METAR LTBA 102150Z 21007KT 6000 NSC 09/08 Q1021 NOSIG=
METAR LTBJ 102150Z 11004KT 4000 BR NSC 05/03 Q1021 NOSIG=
METAR LTBS 102150Z 06005KT CAVOK 06/05 Q1022 NOSIG=
METAR LTCG 102150Z 19003KT CAVOK 06/M00 Q1016 NOSIG=
METAR LTCS 102150Z VRB01KT CAVOK 04/M05 Q1021=
METAR LTFC 102150Z 00000KT 0300 R05/0500U R23/0500U FZFG VV001
 M04/M04 Q1022=
METAR LTFE 102150Z VRB01KT 6000 FEW035 BKN100 07/06 Q1022 NOSIG=
METAR LTFJ 102150Z 21008KT 4400 BR SCT012 09/08 Q1021 NOSIG=

0000057300
825
SATU33 LTAA 102150
METAR LTAR 102150Z NIL=
METAR LTAY 102150Z VRB01KT CAVOK M02/M02 Q1021=
METAR LTBR 102150Z 19001KT CAVOK M01/M04 Q1024 NOSIG=
METAR LTBY 102150Z 10006KT 6000 OVC008 M01/M03 Q1023=
METAR LTCA 102150Z 28004KT 220V300 CAVOK M06/M08 Q1022 NOSIG=
METAR LTCD 102150Z VRB02KT CAVOK M11/M13 Q1023 NOSIG=
METAR LTCF 102150Z 00000KT CAVOK M21/M24 Q1021=
METAR LTCI 102150Z 08002KT 7000 FEW040 BKN100 M09/M10 Q1020 NOSIG=
METAR LTDA 102150Z 36003KT 320V030 CAVOK 02/00 Q1022=
METAR LTFH 102150Z VRB01KT CAVOK 07/M04 Q1015 NOSIG=

00000000