0000011000
254
UANT99 KDDL 110800
ARP AFR651 4435N02115W 0800 F360 MS62 221/76 KT
FGZNL QXT AOE 110801 F75A
0000011000
255
UANT99 KDDL 110800
ARP UAE206 4809N02847W 0800 F350 MS53 191/53 KT
A6EGP DDL XXW 110801 F48A
0000011000
256
UANT99 KDDL 110800
ARP AZA65F 5016N02750W 0800 F390 MS54 210/69 KT
EIEJG QXT AOE 110801 J55A
0000011500
257
SMCN22 CWAO 110600 RRG
AAXX 11064
71245 45/// /0000 11090 21129 6///1
333 11080 21113 7////=

0000051200
258
SNVD20 KWNB 110800 RRD
BBXX
44065 11081 99404 70737 46/// /1406 10079 40193 56040 90750 22200
00054 333 91207 555 11069 22079 30701 41507 60749 142061 141059
140052 149058 148061 144061=
44007 11081 99435 70701 46/// /0000 10024 20012 40239 58017 90750
22200 00045 10601 20401 316// 40601 70007 333 91201 555 11004
22004 30654 42202 60749 243005 232007 213008 223011 219013 221015=
44040 11081 99410 70736 46/// /0603 10020 20020 90745 22200 1//00
70001 333 91204 555 11041 22046=
0000027500
259
SXHW11 KWAL 110802
15D142A4 011080202":PRS 1 #1 1386 1382 1389 1397 1381 1383 1388 1383 1377 1377 :RAD 1 #1 6972 6971 6971 6973 6969 6967 6970 6964 6962 6963 :ENC 2 #5 4874 4871 4859 4853 :SW1 2 #60 0 :SW2 32 #60 23 :BAT 4 #5 13.0 :NAME 15D142A4  34+0NN 216W
0000011800
260
SNVB25 LFPW 110800
BBXX
BATFR10 11084 99238 11230 46/// /1219 10209 20130 40227 55///
22283 04242=
0000011800
261
SNVD25 LFPW 110800
BBXX
BATFR15 11084 99160 70615 46/// /0619 10259 20209 40160 55002
22282 04267=
0000011800
262
SNVD25 LFPW 110800
BBXX
BATFR14 11084 99315 70361 46/// /05// 10174 20102 40183 51022
22254 04214=
0000011800
263
SNVA25 LFPW 110800
BBXX
BATFR55 11084 99082 30422 46/// /3508 10279 20219 40144 58003
22272 04292=
0000164700
264
SNSQ51 LZIB 110800
AAXX 11081
11812 46/// /3003 10026 21013 39510 42809=
11813 46/// /9901 10040 21000 39858 40213=
11816 42682 60000 10013 20003 30051 40220 86541
  333 86643=
11819 46/// /0000 11001 21011 30000 40224=
11826 42665 20701 10001 21013 30016 40222 81541
  333 81640=
11841 42780 59901 10014 21007 39835 40221 84501
  333 84650=
11855 41656 59901 11006 21012 30052 40224 71022 84501
  333 84643=
11856 46/// /1202 10004 21010 39898 40226=
11858 42675 79902 10037 20009 30069 40224 87500
  333 87640=
11867 42770 60000 10003 21003 39899 40225 86501
  333 86650=
11880 42665 59901 11018 21018 30050 40229 84501
  333 84646=
11900 46/// /0000 11004 21014 39884 40230=
11903 46/// /2601 11007 21015 39835 40229=
11916 41065 73206 11091 21095 37950 48462 72844 875//
  333 87601 93540=
11918 42686 72305 10017 21042 39371 42799 875//
  333 87645=
11927 42775 59901 11011 21011 39952 40224 82531
  333 82650 84070=
11930 42589 73113 11064 21400 37312 47984 82042
  333 82330 86060
  444 26205=
11933 42589 79902 11042 21070 38654 48467 81542
  333 81620 87070=
11934 42684 71802 11028 21051 39372 42800 82541
  333 81640 87073=
11938 42682 60000 11033 21054 39127 42799 82542
  333 82636 83360 93501=
11952 46/// /1402 11025 21053 39360 42798=
11958 46/// /2206 11035 21036 3//// 4////=
11968 41001 62901 11024 21024 39934 40227 74622 84601
  333 84701 86070=
11976 41235 89901 10009 20002 39946 40217 71022 886//
  333 88706=
11978 41106 81302 10001 21002 30085 40220 74622 886//
  333 88703=
11993 46/// /0000 10008 20003 30000 40223=
0000015100
265
SSVB09 RJTD 110700
ZZYY 21709 11014 0700/ 127542 142087
11109 0//// 1//// 2//// 30242 40242 5////
22209 00216 10804 20079 21022=

0000008600
266
SPIN90 VIDP 110800
SPECI VIDD 110800Z 29006KT 1500 FU NSC 16/09 Q1018=
0000015100
267
SSVB09 RJTD 110800
ZZYY 21709 11014 0800/ 127551 142094
11109 0//// 1//// 2//// 30247 40247 5////
22209 00217 10905 20086 21023=

0000261800
268
UDFR01 LFPW 110801
AMDAR 1107
DES EU0288 3820N 00517W 110746 F236 MS365 /// 350/003 TB0 S031
333 F236 VG000=
DES EU0288 3819N 00519W 110746 F229 MS347 /// 341/002 TB0 S031
333 F229 VG001=
DES EU0288 3817N 00521W 110746 F223 MS327 /// 344/003 TB0 S031
333 F223 VG001=
DES EU0288 3816N 00523W 110747 F216 MS310 /// 324/002 TB0 S031
333 F216 VG001=
DES EU0288 3814N 00524W 110747 F211 MS295 /// 309/003 TB1 S031
333 F211 VG018=
DES EU0288 3813N 00526W 110747 F209 MS290 /// 280/004 TB2 S031
333 F209 VG040=
DES EU0288 3811N 00527W 110748 F204 MS282 /// 299/005 TB2 S031
333 F204 VG036=
DES EU0288 3810N 00529W 110748 F192 MS252 /// 333/009 TB3 S031
333 F192 VG047=
DES EU0288 3808N 00531W 110748 F185 MS232 /// 348/007 TB0 S031
333 F185 VG001=
DES EU0288 3807N 00532W 110749 F179 MS215 /// 007/009 TB0 S031
333 F179 VG000=
DES EU0288 3805N 00534W 110749 F172 MS202 /// 027/012 TB0 S031
333 F172 VG002=
DES EU0288 3804N 00535W 110749 F166 MS187 /// 024/011 TB0 S031
333 F166 VG001=
DES EU0288 3802N 00537W 110750 F160 MS172 /// 030/012 TB0 S031
333 F160 VG001=
DES EU0288 3801N 00538W 110750 F154 MS157 /// 034/013 TB0 S031
333 F154 VG001=
DES EU0288 3759N 00540W 110750 F147 MS147 /// 036/017 TB0 S031
333 F147 VG001=
DES EU0288 3758N 00541W 110751 F141 MS155 /// 038/016 TB0 S031
333 F141 VG001=
DES EU0288 3756N 00543W 110751 F135 MS142 /// 032/018 TB0 S031
333 F135 VG001=
DES EU0288 3755N 00545W 110751 F128 MS125 /// 035/017 TB0 S031
333 F128 VG002=
DES EU0288 3753N 00546W 110752 F123 MS110 /// 035/017 TB1 S031
333 F123 VG014=
DES EU0288 3752N 00548W 110752 F121 MS102 /// 037/018 TB0 S031
333 F121 VG001=
DES EU0288 3751N 00549W 110752 F117 MS097 /// 042/018 TB1 S031
333 F117 VG010=
DES EU0288 3750N 00551W 110753 F111 MS080 /// 043/017 TB0 S031
333 F111 VG001=
DES EU0288 3748N 00552W 110753 F106 MS062 /// 042/016 TB0 S031
333 F106 VG000=
DES EU0288 3747N 00553W 110753 F100 MS047 /// 051/015 TB0 S031
333 F100 VG001=
DES EU0288 3746N 00555W 110754 F094 MS030 /// 053/015 TB0 S031
333 F094 VG001=
DES EU0288 3744N 00556W 110754 F089 MS020 /// 057/012 TB1 S031
333 F089 VG022=
DES EU0288 3743N 00558W 110754 F085 MS012 /// 035/008 TB0 S031
333 F085 VG007=
UNS EU0288 3742N 00559W 110755 F081 MS010 /// 359/005 TB0 S031
333 F081 VG002=
UNS EU0288 3740N 00600W 110755 F077 MS002 /// 296/003 TB0 S031
333 F077 VG000=
DES EU0288 3739N 00600W 110755 F072 PS007 /// 281/004 TB0 S031
333 F072 VG008=
DES EU0288 3737N 00601W 110756 F066 PS020 /// 283/000 TB0 S031
333 F066 VG///=
0000011200
269
SNVD25 LFPW 110800
BBXX
BATFR18 11084 99123 70471 46/// /0922 10249 40130 50001
22213 04264=
0000044700
270
SXXX32 EUMS 110754
224AD678
:PRS 2 /1 2011 2009 2007 2005 2003 1998 1989 1985 1986 1990 1987 1985 1974 1971 1969 1969 1967 1966 1964 1960 1950 1947 1948 1952 1952 1954 1951 1947 1944 1942 :RAD 4 /3 4811 4802 4797 4789 4781 4778 4771 4767 4762 4758 4758 4753 4746 4742 4740 4738 4734 4729 4721 4716 :ENC 4 /5 8350 8334 8321 8312 8299 8294 8289 8284 8273 8266 8265 8253 :SW1 54 /60 60 :SW2 24 /60 60 :BAT 14 /15 13.4 :NAME 224AD678
0000036400
271
SXXX32 EUMS 110757
22E595B6
:PRS 1 /1 M 3897 3929 3870 3910 3914 3932 3937 3944 3917 3942 3917 3943 3923 3950 3931 3946 3/05 3922 3913 3896 3903 3873 3869 3883 3858 3848 3834 3827 3853 :RAD 1 /3 7101 7111 7112 7108 7099 7076 7048 7024 7005 7001 :ENC 2 /5 5216 5236 5237 5209 5168 5135 :SW1 57 /60 12 :SW2 27 /60 60 :BAT 14 /15 13.0 :NAME 22E595B6
0000044500
272
SXXX32 EUMS 110758
32BD7124
:PRS 1 /1 2343 2342 2337 2335 2339 2350 2346 2344 2344 2346 2349 2351 2352 2351 2349 2346 2347 2346 2347 2347 2348 2345 2344 2345 2348 2352 2352 2341 2338 2332 :RAD 3 /3 8128 8132 8129 8133 8131 8131 8129 8131 8124 8116 8109 8097 8088 8074 8069 8058 8055 8058 8048 8037 :ENC 3 /5 5132 5132 5132 5135 5132 5120 5103 5087 5070 5058 5057 5044 :SW1 59 /60 0 :SW2 29 /60 0 :BAT 14 /15 13.5 :NAME 32BD7124
0000070100
273
SXXX32 EUMS 110758 RRA
223412A2
OT12 ID:IND-SADENG DT:2014 01 11 07 57
:PRS /1 02023 01933 01897 02041 02079 02068 02064 02030 01984 02043 02031 02046 01981 01950 02051 02075 02037 02098 02037 02043 02015 02028 02071 02114 02114 02050 02051 02000 02077 01993
:ENC /1 -12919 -13003 -13013 -12896 -12846 -12853 -12879 -12906 -12946 -12883 -12856 -12836 -12896 -12929 -12866 -12823 -12859 -12806 -12846 -12843 -12859 -12843 -12773 -12739 -12726 -12779 -12809 -12836 -12776 -12823
:RAD /1 11737 11663 11650 11758 11831 11815 11792 11796 11751 11727 11761 11823 11800 11717 11713 11855 11823 11826 11792 11781 11735 11734 11762 11854 11843 11839 11774 11735 11789 11809
:BAT 12.4V
00000000