0000080700
366
FTXX69 EGRR 110000
TAF EQBH 102230Z 1100/1124 VRB03KT 9999 FEW250
     BECMG 1100/1103 08012KT
     PROB30 1100/1104 0500 FG BKN000
     BECMG 1104/1107 SCT020
     BECMG 1108/1110 SCT120=
TAF KQIR 1023/1205 VRB06KT 8000 -SHRA SCT030 BKN050 OVC100 QNH3003INS
     TEMPO 1102/1112 13010G15KT -TSRA SCT020CB BKN030 OVC050
     BECMG 1111/1112 28012G18KT 9999 NSW BKN050 QNH3008INS
     BECMG 1123/1124 33010G15KT 9999 SCT050 QNH3008INS T20/1111Z
     T13/1203Z=
TAF KQSA 1023/1205 VRB06KT 9000 HZ SKC QNH3029INS
     BECMG 1102/1103 VRB06KT 6000 HZ SKC QNH3028INS
     BECMG 1106/1107 26009KT 9999 NSW SKC QNH3026INS
     BECMG 1115/1116 VRB06KT 6000 HZ SCT100 QNH3027INS
     BECMG 1117/1118 VRB06KT 9000 HZ SCT100 BKN140 QNH3021INS
     T07/1110Z TM07/1102Z=

0000010300
367
SPCN51 CWAO 110021
SPECI CZCP 110021Z AUTO 30017KT 1 1/4SM BKN002 OVC009 M33/ A2944=

0000015000
368
SADN33 EKCH 110020
METAR EKKA 110020Z 24011KT 9999 SCT014 BKN035 06/05 Q1006=
METAR EKSP 110020Z 24012KT 9999 FEW011 06/04 Q1008=

0000010500
369
SPUS42 KWBC 110010
SPECI
KBTR 110006Z 11005KT 10SM BKN012 BKN026 OVC035 16/14 A2991=

0000010700
370
SPUS43 KWBC 110010
SPECI
KDLH 110006Z 19005KT 1 3/4SM -FZDZSN BR OVC004 M03/M06 A2952=

0000065800
371
SAPR41 KWBC 110000
METAR
SPCL 110000Z 03003KT 9999 FEW030 SCT100 27/24 Q1007 RMK PP000=
SPEC NIL=
SPEI NIL=
SPEO NIL=
SPGM NIL=
SPHI 110000Z 17014KT CAVOK 24/21 Q1010 RMK PP000=
SPHO NIL=
SPHY NIL=
SPJA NIL=
SPJI NIL=
SPJL 110000Z 12007KT 9999 FEW015 BKN080 12/05 Q1033 RMK PP000=
SPJN NIL=
SPJR NIL=
SPME 110000Z 28004KT 9999 FEW012 BKN027 26/23 Q1008 RMK BIRD
     HAZARD RWY 32/14 PP000=
SPMS NIL=
SPNC NIL=
SPPY NIL=
SPRU 110000Z 16006KT 9999 SCT020 OVC120 22/19 Q1010 RMK PP000=
SPST 110000Z 34008KT 9999 SCT020 SCT100 27/20 Q1007 RMK BIRD
     HAZARD RWY 17/35 PP000=
SPTU NIL=
SPUR NIL=

0000014200
372
SASA31 KWBC 110000 RRA
METAR
SKCG 110000Z NIL=
SKRG 110000Z 08006KT 9999 BKN012 SCT080 17/15 A3020=
SKSP 110000Z NIL=

0000009700
373
SASA42 KWBC 110000 RRA
METAR
SCTC 110000Z 25008KT 210V280 CAVOK 17/08 Q1019=

0000006700
374
SASA41 KWBC 110000 RRA
METAR
SKMD 110000Z NIL=

0000012300
375
SASA32 KWBC 110000 RRA
METAR
SUMU 110000Z 06001KT 9999 FEW050CB SCT200 24/21 Q1009 TEMPO TSR
     A=

0000031500
376
SAAF17 LFPW 110000 RRA
METAR HEAX 110000Z 34007KT CAVOK 16/11 Q1023 NOSIG=
METAR HEGN 110000Z 29008KT CAVOK 13/07 Q1021 NOSIG=
METAR HELX 110000Z 00000KT CAVOK 11/08 Q1022 NOSIG=
METAR HEMM 110000Z 23006KT 9999 FEW020 11/09 Q1024 NOSIG=
METAR HESN 110000Z 32005KT CAVOK 11/03 Q1022 NOSIG=

0000011400
377
SPCN44 CWAO 110021
SPECI CYTH 110021Z 06009KT 2 1/2SM -SN SCT008 BKN014 OVC041 RMK
ST3ST2ST2=

0000009700
378
SAQB31 LQBK 110030
METAR LQBK 110030Z 18002KT 0600 FG VV/// 05/05 Q1021 NOSIG=

0000085700
379
SASN31 ESWI 110020
METAR ESGG 110020Z 24013KT 9999 OVC004 04/04 Q1001 R21/29//95=
METAR ESGJ 110020Z AUTO 22009KT 9999 FEW003/// BKN005/// OVC022///
02/02 Q1000=
METAR ESGP 110020Z 23009KT 9999 SCT015 BKN025 OVC170 06/04 Q1001
R19/19//95=
METAR ESGT 110020Z NIL=
METAR ESMK 110020Z AUTO 26010KT 9999NDV BR FEW014/// SCT020///
BKN034/// 06/05 Q1006 RERA REDZ=
METAR ESMQ 110020Z AUTO 19004KT 9999 BKN031/// OVC056/// 01/00
Q1004=
METAR ESMS 110020Z 25010KT 9999 OVC037 05/04 Q1007 R17/29//95=
METAR ESMT 110020Z AUTO 24013KT 9999 FEW007/// BKN033/// 05/04
Q1005=
METAR ESMX 110020Z AUTO 18006KT 7000 BR FEW007/// SCT009///
BKN024/// 03/02 Q1003=
METAR ESTA 110020Z AUTO 25015KT 9999 BKN010/// OVC019/// 06/04
Q1005=
METAR ESTL 110020Z AUTO 25011KT 9999NDV FEW013/// SCT018///
BKN028/// 06/05 Q1006 REUP=

0000066100
380
SAFI31 EFHK 110020
METAR EFHK 110020Z 34012KT 9999 BKN010 M03/M04 Q0994 NOSIG=
METAR EFJY 110020Z AUTO 01010KT 9999 OVC013 M07/M09
 Q0997=
METAR EFKU 110020Z AUTO 01011KT 9999 -SG BKN018 
M08/M10 Q0997=
METAR EFOU 110020Z AUTO 06009KT 020V100 9999 -SN FEW019/// SCT038/// 
OVC044/// M12/M15 Q1005 12420581=
METAR EFRO 110020Z AUTO 03012KT CAVOK M17/M20 
Q1009=
METAR EFTP 110020Z AUTO 36006KT 9999 OVC007 M04/M05
 Q0997=
METAR EFTU 110020Z AUTO 36005KT 330V040 9999 -SN SCT005/// OVC007/// 
M02/M03 Q0997 R08/19//80=
METAR EFVA 110020Z AUTO 04008KT 9999 -SG FEW013/// SCT020/// 
OVC073/// M08/M10 Q1001 R16/49//95=

0000067000
381
SAVN21 SVMR 110000
METAR SVJC 110000Z NIL=
METAR SVLO 110000Z NIL=
METAR SVGI 110000Z NIL=
METAR SVMN 110000Z /////KT 9999 FEW013 28/// Q1011=
METAR SVVL 110000Z 29004KT 9999 SCT027 28/24 Q1015=
METAR SVGU 110000Z 34004KT CAVOK 28/14 Q1010=
METAR SVJM 110000Z NIL=
METAR SVCZ 110000Z NIL=
METAR SVVP 110000Z NIL=
METAR SVVG 110000Z NIL=
METAR SVMD 110000Z 16005KT 9000 VCBR BKN020 18/17 Q1019=
METAR SVCL 110000Z NIL=
METAR SVSA 110000Z /////KT 9999 FEW020 26/19 Q1013=
METAR SVGD 110000Z NIL=
METAR SVSR 110000Z NIL=
METAR SVTM 110000Z NIL=
METAR SVPA 110000Z /////KT 9999 FEW013 28/15 Q1010=
METAR SVSE 110000Z NIL=

0000028400
382
FTCN38 CWAO 110000 AAA
TAF AMD CYAY 110022Z 1100/1108 25018KT 6SM -SN FEW020 BKN050 TEMPO
     1100/1104 11/2SM -SN OVC020
    FM110400 26015G25KT 6SM -SN SCT020 OVC040 TEMPO 1104/1108 2SM -SN
     OVC020
    RMK FCST BASED ON AUTO OBS. NXT FCST BY 110200Z=

0000059600
383
SADL31 EDZO 110020
METAR EDDF 110020Z 12002KT 9999 FEW040 M00/M00 Q1018 NOSIG=
METAR EDDH 110020Z 24008KT 9999 BKN013 06/04 Q1012 NOSIG=
METAR EDDK 110020Z 14005KT CAVOK 02/00 Q1017 NOSIG=
METAR EDDL 110020Z 14006KT CAVOK 02/01 Q1017 NOSIG=
METAR EDDM 110020Z 05002KT 9999 R26R/0900VP2000U R26L/1100VP2000D
     MIFG FEW025 BKN050 BKN080 M02/M02 Q1019 NOSIG=
METAR EDDN 110020Z 10004KT CAVOK M00/M00 Q1018=
METAR EDDS 110020Z 07002KT CAVOK M01/M01 Q1018=
METAR EDDT 110020Z 24008KT CAVOK 04/02 Q1014=
METAR EDDV 110020Z 24007KT 9999 FEW015 BKN030 05/03 Q1015=

0000044200
384
SADL32 EDZO 110020
METAR EDDB 110020Z 24008KT 9999 FEW034 SCT046 BKN260 03/01 Q1015
     NOSIG=
METAR EDDC 110020Z 24006KT CAVOK 04/00 Q1016=
METAR EDDE 110020Z 22009KT CAVOK 02/00 Q1016=
METAR EDDG 110020Z 23008KT 9000 BKN009 05/03 Q1015 NOSIG=
METAR EDDP 110020Z 22009KT 9999 FEW040 BKN230 03/02 Q1017 NOSIG=
METAR EDDR 110020Z 06003KT CAVOK 00/M01 Q1018=
METAR EDDW 110020Z 23012KT 9999 BKN012 06/04 Q1013=

0000012400
385
SALI20 GLRB 110030
METAR GLRB 110030Z 00000KT 9000 SCT014  FEW024 CB BKN100 26/25
Q1012 RMK CB-S, BRVC=

00000000