0000046000
946
SIHU42 HABP 110900
AAXX 11091
12815 46/// /0000 10017 20010 30065 40218 50002=
12824 42580 72202 10052 20035 30039 40219 53001 875// 333 87630=
12830 46/// /1001 10050 20013 39878 40226 50001=
12870 41681 60000 10020 21011 39942 40225 52010 70211 85502
  333 85633=
12910 46/// /2601 10041 20037 39829 40215 57003=
12930 46/// /3301 10050 20046 30058 40220 52003=
12970 42660 81601 10036 20013 30088 40231 50003 885// 333 88640=
0000016500
947
SMGO01 FOOG 110900
AAXX 11094
64501 42360 81804 10265 20244 30130 40140 885//
  333 58011 84608 88640=
CHECK
TEXT
NEW ENDING ADDED DRRRYFYX
0000010800
948
UANT01 CWAO 110903
ARP VIR8 5451N05259W 0903 F350 MS65 283/89 KT
GVWIN DDL XXW 110903 J45A
0000015700
949
SSVX13 LFPW 110900
ZZYY 44624 11014 0900/ 746715 020033 6113/ 11119 40010 57049 22219
 00128 444 20130 11014 0857/ 50101 80098 80019 9/015=
0000038500
950
SSVX13 LFPW 110900
ZZYY 61690 11014 0900/ 142805 029447 6113/ 11119 40242 52008 22219
 00094 33300 88870 20000 30940 20011 30936 20013 30928 20016 30924
 20021 30928 20026 30936 20030 30936 20035 30932 20040 30940 20045
 30940 20050 30856 20055 30800 20060 30784 20065 30784 20070 30784
 20075 30788 20079 30800 444 20131 11014 0857/ 50101 80102 80015
 9/015=
0000015700
951
SSVX13 LFPW 110900
ZZYY 61688 11014 0900/ 144057 029453 6113/ 11119 40235 52007 22219
 00088 444 20131 11014 0857/ 50101 80090 80005 9/015=
0000015700
952
SSVX13 LFPW 110900
ZZYY 61687 11014 0900/ 144712 029822 6113/ 11119 40232 52008 22219
 00074 444 20131 11014 0857/ 50101 80090 80006 9/015=
0000016000
953
SSVX13 LFVW 110901
ZZYY 17572 11014 0900/ 537896 171831 6110/
11119 40162 52011
22219 00206
444 20100 11014 0856/ 50101 80110 80000 9/015=
0000030000
954
SSVX13 LFVW 110902
ZZYY 13577 11014 0850/ 724340 048298 6112/
11119 40209
33311 88872 20000 41500
444 20120 11014 0731/ 50101 80070 80006 9/015=
ZZYY 13577 11014 0750/ 724340 048298 6112/
11119 40208
33311 88872 20000 41500
444 20120 11014 0731/ 50101 80070 80006 9/015=
0000117800
955
SSVX02 LFVW 110902
ZZYY 41644 11014 0855/ 730949 039741 6112/
22219 00217
33311 88872 20000 32168 43644
444 2012/ 11014 0730/ 50101 9/015=
ZZYY 13983 11014 0854/ 731337 066239 6113/
22219 00219
33311 88872 20000 32192 43596
444 2013/ 11014 0853/ 50101 9/015=
ZZYY 41647 11014 0857/ 724151 048671 6111/
22219 00244
33311 88872 20000 32442 43668
444 2011/ 11014 0854/ 50101 9/015=
ZZYY 41651 11014 0856/ 729240 048569 6111/
22219 00///
33311 88872 20000 46175
444 2011/ 11014 0853/ 50101 9/015=
ZZYY 41646 11014 0857/ 729256 061103 6111/
22219 00234
33311 88872 20000 32339 43669
444 2011/ 11014 0853/ 50101 9/015=
ZZYY 41653 11014 0856/ 722212 048619 6111/
22219 00246
33311 88872 20000 32457 43735
444 2011/ 11014 0729/ 50101 9/015=
ZZYY 41648 11014 0856/ 725631 043580 6111/
22219 00233
33311 88872 20000 32334 43740
444 2011/ 11014 0854/ 50101 9/015=
ZZYY 13984 11014 0854/ 724355 072631 6112/
22219 00259
33311 88872 20000 32590 43602
444 2012/ 11014 0708/ 50101 9/015=
ZZYY 41650 11014 0857/ 723324 049604 6111/
22219 00247
33311 88872 20000 32465 43747
444 2011/ 11014 0854/ 50101 9/015=
0000014000
956
SSVX01 LFVW 110902
ZZYY 41099 11014 0846/ 714174 060935 6111/
22219 00268 10605 20061 21027
444 20110 11014 0708/ 516//=
0000068900
957
UDEU02 EGRR 110906 RRB
AMDAR 1108
DES EU0780   4802N 00325E 110847 F165 MS207 259/033 TB/ S031=
DES EU0780   4809N 00317E 110848 F137 MS157 241/046 TB/ S031=
DES EU0780   4815N 00310E 110850 F114 MS112 245/039 TB/ S031=
DES EU0780   4820N 00302E 110851 F100 MS080 250/039 TB/ S031=
DES EU0780   4828N 00259E 110853 F096 MS072 247/041 TB/ S031=
DES EU0780   4834N 00257E 110854 F079 MS052 263/026 TB/ S031=
DES EU0780   4841N 00254E 110856 F061 MS015 266/021 TB/ S031=
DES EU0780   4847N 00251E 110857 F046 PS022 275/017 TB/ S031=
DES EU0780   4848N 00244E 110859 F042 PS022 271/016 TB/ S031=
DES EU0780   4847N 00237E 110900 F031 PS025 296/012 TB/ S031=
0000061800
958
SAIR32 OIII 110900
METAR OIAA 110900Z 24010KT 2500 BR FEW035CB FEW040 OVC090
12/11 Q1018=
METAR OIBK 110900Z 07010KT 8000 FEW030CB FEW025 OVC090 15/12
Q1020 RERA=
METAR OICC 110900Z 13004KT 1000 SN FEW035CB SCT040 OVC060
M01/M01 Q1020 A3012 TEMPO SN=
METAR OIGG 110900Z 31004KT 3000 BR SCT025 BKN100 08/06
Q1015=
METAR OIIE 110900Z 19008KT 1500 R29/P1800D R11/P1100D
SHSN FEW025 SCT035CB SCT045 OVC090 01/M02 Q1021 A3016 TEMPO SN=
METAR OITR 110900Z 04004KT 2000 HZ SCT035 BKN170 M06/M10 Q1021
NOSIG=
METAR OIYY 110900Z 36006KT 7000 FEW035 08/M02 Q1019=
METAR OAKN 110900Z NIL=
METAR OAKB 110900Z NIL=

0000021800
959
SAIN90 VANP 110900
METAR VAKJ 110900Z 32006KT 0800 BR BKN020 BKN100 18/13 Q1016=
METAR VABP 110900Z 05008KT 2500 HZ FEW020 19/12 Q1016 NO SIG=
METAR VAID 110900Z 05008KT 1500 HZ SCT020 SCT100 Q1016=
0000008600
960
SAIN90 VOMM 110900
METAR VOTK 110900Z 05012KT 6000 FEW020 29/21 Q1011=
0000008800
961
SAIN90 VILD 110900
METAR VILD 110900Z 32002KT 5000 HZ NSC 19/3 Q1019=

0000052200
962
SAIR33 OIII 110900
METAR OIBB 110900Z 13012KT 8000 RA FEW030CB SCT035 OVC080 13/09 Q1018
A3006=
METAR OIBP 110900Z 01006KT 7000 5000SE SCT020 SCT030 OVC080 
14/12 Q1019 A3011=
METAR OICK 110900Z NIL=
METAR OICS 110900Z 03002KT 5000 BR FEW025 FEW035CB SCT035 BKN080
M01/M03 Q1019=
METAR OIHH 110900Z 00000KT 3000 BR BKN035 SCT090 M04/M08
Q1019=
METAR OINZ 110900Z 26004KT CAVOK 11/05 Q1016=
METAR OISR 110900Z 10004KT 9999 FEW005 FEW030CB OVC080 11/08
Q1021=
METAR OITL 110900Z NIL=
METAR OIZC 110900Z NIL=

0000056100
963
SAIR34 OIII 110900
METAR OIAG 110900Z NIL=
METAR OIAM 110900Z  13014KT 7000 -RA FEW010 FEW030CB OVC090 13/11
 Q1018=
METAR OICI 110900Z  17006KT 9999 FEW015 FEW025CB SCT035 OVC090
 03/03 Q1017 A3004=
METAR OIKQ 110900Z  02012KT 8000 FEW025CB SCT030 SCT090 15/08
 Q1020=
METAR OINN 110900Z 03004KT CAVOK 11/10 Q1015=
METAR OINR 110900Z 13006KT 9999 FEW040 OVC170 11/06 Q1014=
METAR OISL 110900Z  00000KT 8000 -RA FEW025 FEW030CB OVC080 08/04
 Q1021=
METAR OISY 110900Z NIL=
METAR OITZ 110900Z  18014KT 9999 FEW030CB SCT035 OVC080 M00/M06
 Q1017=

0000043000
964
SAIR35 OIII 110900
METAR OIAD 110900Z NIL=
METAR OIBJ 110900Z 08010KT 3000 -RA BKN035 OVC080 10/08 Q1021=
METAR OIBS 110900Z 13016KT 8000 -RA SCT035 OVC090 21/16 Q1019=
METAR OIHR 110900Z NIL=
METAR OIKM 110900Z NIL=
METAR OIKR 110900Z NIL=
METAR OING 110900Z 33004KT 6000 FEW030 SCT090 BKN190 11/07 Q1016=
METAR OIZB 110900Z 10006KT CAVOK 10/M01 Q1023=
METAR OIZI 110900Z 00000KT 9999 FEW020 OVC090 15/M07 Q1022=

0000010700
965
SAIN90 VEGY 110900
METAR VEGY 110900Z 07003KT 1300 BR  BKN018 BKN080 16/15 Q1015 NOSIG =

00000000