0000011000
406
UANT99 KDDL 110739
ARP AAL50 5400N02004W 0739 F340 MS59 234/66 KT
N726AN DDL XXW 110739 F62A
0000011000
407
UANT99 KDDL 110740
ARP TAY010 5508N02319W 0740 F340 MS58 236/75 KT
OOTSC QXT EUA 110740 F10A
0000011000
408
UANT99 KDDL 110740
ARP SWR15X 4901N01730W 0739 F380 MS61 242/70 KT
HBJHK QXT AOE 110740 J46A
0000029100
409
SXXX32 EUMS 110739 RRX
166AC436
OT12 ID:IC-COMI-10 DT:2014 01 11 07 38
:RAD /1 05639 05664 05672 05668 05683 05655 05667 05691 05698 05693 05704 05694 05708 05705 05708 05724 05723 05727 05735 05729 05740 05744 05731 05740 05757 05759 05768 05778 05774 05773
:BAT 13.9V
0000017000
410
SOVI10 KWAL 110741
B110070A 011074101"P9751095 B\P~W@@d0ekG1@nh???CkCm>@n]3@DD@@I4Cv5D@6bC9JQ<BH2?????@"??? iTGfKCeCkCkChCfCi:AMPTEMP 26.57C  44-0NN 219E
0000103700
411
UDAS02 BABJ 110730
AMDAR 1107
DES CNFPQL 3702N 11637E 110724 F088 MS108 278/030 TB/ S//1=
DES CNFPQL 3704N 11642E 110725 F075 MS080 269/028 TB/ S//1=
DES CNFPQL 3706N 11648E 110726 F060 MS065 278/023 TB/ S//1=
DES CNFPQL 3707N 11654E 110727 F045 MS046 249/021 TB/ S//1=
DES CNFLWR 3050N 12126E 110726 F049 MS009 219/030 TB/ S//1=
DES CNFLWR 3053N 12124E 110727 F038 MS010 180/017 TB/ S//1=
DES CNFLWR 3056N 12122E 110728 F030 MS008 155/014 TB/ S//1=
LVR CNFNXN 2847N 10618E 110719 F361 MS470 252/146 TB/ S//1=
LVR CNFNXN 2836N 10605E 110722 F361 MS470 252/144 TB/ S//1=
LVR CNFNXN 2825N 10553E 110725 F361 MS470 254/145 TB/ S//1=
LVR CNFNXN 2814N 10541E 110728 F361 MS465 255/140 TB/ S//1=
ASC CNFPQK 3118N 12115E 110727 F044 MS023 186/019 TB/ S//1=
ASC CNFPQK 3119N 12114E 110727 F051 MS028 205/024 TB/ S//1=
ASC CNFPQK 3120N 12113E 110727 F067 MS043 231/022 TB/ S//1=
ASC CNFPQK 3122N 12111E 110728 F083 MS043 256/032 TB/ S//1=
ASC CNFLWT 4138N 12328E 110728 F003 MS005 271/005 TB/ S//1=
0000153300
412
UDAS02 BABJ 110732
AMDAR 1107
ASC CNFLWT 4137N 12328E 110729 F012 MS026 245/007 TB/ S//1=
ASC CNFLWT 4137N 12327E 110729 F013 MS034 242/009 TB/ S//1=
DES CNFPYN 3430N 11337E 110726 F035 MS010 254/004 TB/ S//1=
DES CNFPYN 3432N 11337E 110727 F033 MS008 248/009 TB/ S//1=
DES CNFPYN 3435N 11340E 110728 F024 PS015 223/010 TB/ S//1=
DES CNFPYN 3434N 11343E 110729 F020 PS024 237/008 TB/ S//1=
DES CNFOZL 3039N 11458E 110727 F118 MS090 252/040 TB/ S//1=
DES CNFOZL 3041N 11453E 110728 F118 MS090 248/037 TB/ S//1=
DES CNFOZL 3043N 11448E 110729 F118 MS093 249/038 TB/ S//1=
DES CNFOZL 3045N 11443E 110730 F118 MS091 249/036 TB/ S//1=
ASC CNFPQK 3124N 12109E 110728 F085 MS048 255/032 TB/ S//1=
ASC CNFPQK 3126N 12107E 110729 F093 MS058 257/031 TB/ S//1=
ASC CNFPQK 3129N 12106E 110730 F112 MS074 264/034 TB/ S//1=
ASC CNFPQK 3130N 12105E 110730 F119 MS088 263/030 TB/ S//1=
ASC CNFLWT 4136N 12327E 110729 F017 MS046 260/008 TB/ S//1=
ASC CNFLWT 4134N 12328E 110730 F036 MS098 293/015 TB/ S//1=
ASC CNFLWT 4131N 12329E 110730 F049 MS125 299/027 TB/ S//1=
DES CNFPQL 3708N 11655E 110727 F045 MS043 250/022 TB/ S//1=
DES CNFPQL 3708N 11700E 110728 F045 MS048 242/023 TB/ S//1=
DES CNFPQL 3708N 11705E 110729 F039 MS040 249/022 TB/ S//1=
DES CNFPQL 3707N 11709E 110730 F031 MS030 251/016 TB/ S//1=
DES CNFLWR 3058N 12121E 110729 F023 MS003 102/010 TB/ S//1=
DES CNFLWR 3101N 12121E 110730 F017 PS005 082/008 TB/ S//1=
DES CNFLWR 3104N 12121E 110731 F014 PS008 081/009 TB/ S//1=
0000023100
413
SNVD20 KWNB 110700 RRP
BBXX
44060 11071 99413 70721 46/// /0603 10046 20044 40237 90715 22200
00042 333 91203 555 11031 22036=
44022 11071 99409 70737 46/// /0504 10017 20013 90730 333 91205
555 11036 22036=
0000011000
414
UANT01 CWAO 110739
ARP DAL40 5541N04400W 0739 F330 MS58 288/51 KT
N827MH QXT AOW 110739 F16A
0000011000
415
UANT01 CWAO 110740
ARP ETD130 5700N02958W 0739 F330 MS59 220/60 KT
A6EHJ QXT AOE 110740 J48A
0000011000
416
UANT01 CWAO 110740
ARP DAL84 4653N04042W 0740 F350 MS58 326/56 KT
N841MH QXT AOW 110740 F45A
0000011000
417
UANT01 CWAO 110740
ARP DAL10 4452N05204W 0740 F350 MS60 313/38 KT
N174DN QXT AOW 110740 F32A
0000011000
418
UANT01 CWAO 110740
ARP BAW18A 5133N03733W 0740 F330 MS54 262/26 KT
GYMMN QXT AOW 110740 F10A
0000009600
419
SAIN34 VOMM 110730 RRA
METAR VOCI 110730Z 36003KT 5000 HZ NSC 32/20 Q1011 NOSIG=
0000118600
420
SAAU31 YBBN 110730
METAR YPAD 110730Z 15017KT CAVOK 27/08 Q1017
FM0800 14012KT CAVOK
FM1000 MOD TURB BLW 3000FT=
METAR YBAS 110730Z 11018KT CAVOK 39/03 Q1010
RMK 5CU125=
METAR YBBN 110730Z 06012KT 9999 FEW040 26/17 Q1015=
METAR YBCS 110730Z 17007KT 9999 -SHRA SCT020 BKN070 27/24 Q1009=
METAR YSCB 110730Z AUTO 35005KT 9999 // BKN110 31/09 Q1015=
METAR YPXM 110730Z NIL=
METAR YPCC 110730Z 13013KT 9999 FEW026 29/21 Q1009=
METAR YCFS 110730Z AUTO 04013KT 9999 // NCD 25/17 Q1016=
METAR YPDN 110730Z 35007KT 9999 VCSH SCT032 SCT048 BKN350 28/25 Q1004
RESHRA=
METAR YBCG 110730Z AUTO 10009KT 9999 // NCD 26/17 Q1016=
METAR YHID 110730Z AUTO 25003KT 9999 // ////// 29/24 Q1005=
METAR YPJT 110730Z AUTO 07007KT 9999 // NCD 42/07 Q1010=
METAR YPKU 110730Z NIL=
METAR YPLM 110730Z AUTO 03011KT 9999 // NCD 38/21 Q1006=
METAR YMML 110730Z 17014KT 9999 FEW045 20/12 Q1019
NOSIG=
METAR YPPH 110730Z 12007KT CAVOK 43/05 Q1009=
METAR YSSY 110730Z 04014KT CAVOK 27/17 Q1014
RMK 1CU080 4CU120 6CI280
NOSIG=
METAR YSTW 110730Z AUTO 11010KT 9999 // NCD 31/08 Q1014=
METAR YPTN 110730Z AUTO 10009KT 9999 // SCT087 35/22 Q1004=
METAR YBTL 110730Z 09019KT 9999 FEW030 SCT220 30/21 Q1009=

0000360600
421
AAHQ50 VAPO 110745
PNE 001/11
            GLOBAL MARITIME DISTRESS AND SAFETY SYSTEM (GMDSS)
            DATE-11-01-2014        BULLETIN NO:-I 
            FROM:-DR.PCS RAO,DIRECTOR,INOSHAC,PUNE
            TO:-DGM (NHAC),NEW DELHI
            RPT:- DGM(TELECOM), NEW DELHI
            SHIPPING BULLETIN FOR MET. AREA VIII (N),NORTH OF EQUATOR
            VALID FOR 24/48 HOURS FROM 0900 UTC 11 JANUARY 2014
            --------------------------------------------------------------
            PART I:- NO STORM WARNING (.)
            PART II :-(.) 
            A TROUGH OF LOW AT MEAN SEA LEVEL NOW LIES OVER SOUTH 
            EAST BAY OF BENGAL AND ADJOINING EQUATORIAL INDIAN OCEAN(.)
            
            WEATHER SEASONAL OVER MET AREA (VIII)(.)
            
            ARB: A1 ARABIAN SEA EQUATOR TO 10 DEG. N AND W OF 80 DEG.E (.)
            A1-FORECAST FOR 24 HOUR
            I)WINDSPEED AND DIRECTION:-
             NE-LY 05/10 KTS BEC N-LY CLOSE TO THE EQUATOR(.)
            II)WEATHER:-ISOLATED RA/TS(.)
            III)VISIBILITY:8-6 NM(.)
            IV)WAVE HEIGHT:-0.5-1 M(.)
            
            A1-FORECAST FOR 48 HOUR
            I)WINDSPEED AND DIRECTION:-
             NE-LY 05/10 KTS BEC N-LY CLOSE TO THE EQUATOR(.)
            II)WEATHER:-ISOLATED RA/TS(.)
            III)VISIBILITY:8-6 NM(.)
            IV)WAVE HEIGHT:-0.5-1 M(.)
            
            A2 ARABIAN SEA :-23 DEG 45 MIN N 68 DEG E TO 12 DEG N 63 DEG E
            TO CAPE GARDAFUI TO N OF 10 DEG N (.)
            A2-FORECAST FOR 24 HOURS
            I)WINDSPEED AND DIRECTION:-N/NE-LY 10/15 KTS(.) 
            II)WEATHER:-FAIR/FOG TO THE W OF 70 DEG E (.)
            III)VISIBILITY:10-8 NM/IT MAY REDUCE TO <1 KM IN FOG (.)
            IV)WAVE HEIGHT:-1-2 M (.)
            
            A2-FORECAST FOR 48 HOURS
            I)WINDSPEED AND DIRECTION:-N/NE-LY 10/15 KTS(.) 
            II)WEATHER:-FAIR/FOG TO THE W OF 70 DEG E (.)
            III)VISIBILITY:10-8 NM/IT MAY REDUCE TO <1 KM IN FOG (.)
            IV)WAVE HEIGHT:-1-2 M (.)
            
            A3-FORECAST FOR 24 HOURS(.)
            I)WINDSPEED AND DIRECTION:-
            1)W OF 90 DEG E:NE/N-LY 10/15 KTS BEC CYCLONIC TO THE 
              S OF 06 DEG N(.)
            2)E OF 90 DEG E:NW/N-LY 05/10 KTS BEC NW-LY CLOSE TO EQUATOR(.)
            II)WEATHER:-FAIRLY WIDESPREAD RA/TS(.)
            III)VISIBILITY:-4-3 NM (.)
            IV)WAVE HEIGHT:1)1-2 M  2)0.5-1 M(.)
            
            A3-FORECAST FOR 48 HOURS(.)
            I)WINDSPEED AND DIRECTION:-
            1)W OF 90 DEG E:NE/N-LY 10/15 KTS BEC CYCLONIC TO THE 
              S OF 06 DEG N(.)
            2)E OF 90 DEG E:NW/N-LY 05/10 KTS BEC NW-LY CLOSE TO EQUATOR(.)
            II)WEATHER:-FAIRLY WIDESPREAD RA/TS(.)
            III)VISIBILITY:-4-3 NM (.)
            IV)WAVE HEIGHT:1)1-2 M  2)0.5-1 M(.)
            
            BOB: A4:- BAY OF BENGAL N OF 10 DEG N AND E OF 80 DEG E (.)
            A4-FORECAST FOR 24 HOURS (.)
            I)WINDSPEED AND DIRECTION:-
             1)S OF 15 DEG N:ENE-LY 10/15 KTS(.)
             2)N OF 15 DEG N:ANTICYCLONIC 05/10 KTS(.)
            II)WEATHER:- FAIR(.) 
            III)VISIBILITY:-10-8 NM(.)
            IV)WAVE HEIGHT:-1)1-2 M  2)0.5-1 (.)
            
            A4-FORECAST FOR 48 HOURS(.)
             I)WINDSPEED AND DIRECTION:-N/NE-LY 10/15 KTS(.)
            II)WEATHER:- FAIR(.) 
            III)VISIBILITY:-10-8 NM(.)
            IV)WAVE HEIGHT:-1-2 (.)
            --------------------------------------------------------------
            TOO:-11/1315 EF
            

0000113000
422
SAAU32 YBBN 110730
METAR YAMB 110730Z AUTO 09014KT 9999 // NCD 28/14 Q1014=
METAR YMAV 110730Z AUTO 19016KT 9999 // NCD 19/12 Q1019=
METAR YBRM 110730Z 26011KT 9999 FEW022 SCT400 32/25 Q1006=
METAR YCIN 110730Z NIL=
METAR YSDU 110730Z AUTO 15006KT 9999 // NCD 32/10 Q1014=
METAR YFRT 110730Z AUTO 14016KT //// // ////// 32/08 Q1017=
METAR YGEL 110730Z AUTO 21020KT 9999 // NCD 38/09 Q1006=
METAR YPGV 110730Z 11010KT 9999 SCT017 SCT260 BKN320 28/24 Q1004=
METAR YBHM 110730Z AUTO 11024KT 9999 // ////// 27/22 Q1011=
METAR YMHB 110730Z 25011KT 9999 FEW030 25/07 Q1011=
METAR YPKG 110730Z AUTO 08009KT 9999 // NCD 37/04 Q1016=
METAR YMLT 110730Z AUTO 34014KT 9999 // NCD 26/08 Q1011=
METAR YBMA 110730Z AUTO 12014KT 9999 // NCD 34/13 Q1007=
METAR YSNF 110730Z AUTO 11011KT 9999 // SCT031 SCT038 20/12 Q1017=
METAR YPEA 110730Z NIL=
METAR YPPD 110730Z AUTO 30014KT 9999 // NCD 35/27 Q1006=
METAR YSRI 110730Z AUTO 11012KT 9999 // SCT110 29/13 Q1013=
METAR YBRK 110730Z 08009KT 9999 FEW040 28/18 Q1012=
METAR YWLM 110730Z AUTO 08013KT 9999 // NCD 28/14 Q1014=
METAR YPWR 110730Z AUTO 18011KT 9999 // NCD 39/M00 Q1013=

0000252900
423
SMPH20 RPMM 110600
AAXX 11061
98132 31465 10906 10231 20183 40236 5/024 70544 81130
333 56299 81815 =
98133 31567 20905 10248 20186 40184 5//// 70544 82202
222// 20703 333 56299 82820 =
98222 31575 50902 10295 20204 40140 57025 70544 81206
333 56999 81820 84078 =
98233 31570 63601 10260 20217 40179 57021 70544 83570
333 56999 83620 86358 =
98324 31462 73404 10297 20255 40128 57024 70544 81258
333 56999 81816 84358 86280 =
98327 31665 70806 10267 20149 39975 40152 57034 70544
84270 333 56/// 84842 87360 =
98334 11468 80000 10216 20203 39974 40178 58022 69921
71582 8387/ 333 56999 83816 88356 =
98425 31562 62503 10292 20177 40132 58036 70544 83260
333 56999 83820 86358 =
98426 31570 60905 10287 20224 40131 57026 70544 81108
333 56999 81830 86280 =
98427 32472 60208 10262 20206 39955 40135 57025 83270
333 56999 83818 86357 =
98428 3146a 50904 10303 20187 40128 57025 70544 82461
333 56/// 82618 83359 =
98432 31568 50404 10282 20198 40149 58022 70544 82272
333 56199 82820 =
98433 31462 50407 10215 20172 39421 40150 57024 71544
84830 333 56999 84612 =
98434 31468 80605 10260 20233 30154 40162 57024 70544
82277 333 56199 82818 85359 88275 =
98435 32472 70605 10268 20229 40165 57015 83270 333
561// 83818 85458 =
98442 NIL=
98446 32470 80203 10252 20213 30102 40148 57022 84207
333 56199 84818 88270 =
98447 NIL=
98538 31464 83607 10256 20217 30136 40141 57019 71544
83267 333 56119 83811 84357 88272 =
98546 11460 80408 10258 20245 30112 40120 57026 60031
71582 83907 333 56199 83915 88275 =
98548 11478 80303 10270 20225 30113 40119 58024 69951
85807 333 56299 85816 88272 98323 =
98553 11462 80404 10265 20240 30105 40109 53005 60171
71586 8497/ 333 56199 84915 88358 =
98558 11458 80616 10258 20257 30032 40102 57037 60051
76186 8452/ 222// 20608 333 56199 84615 88457 =
98642 11458 81806 10248 20237 30088 40097 57025 60141
76366 8552/ 333 56199 85615 88457 =
98644 11462 80202 10255 30242 30067 40096 58029 60262
8552/ 333 56199 85616 88457 =
98648 11440 80402 10222 20220 30020 40102 57030 60291
76086 8592/ 333 56199 85912 88457 =
98746 11458 82502 10268 20226 40077 58020 60031 78084
8597/ 333 56999 85918 88358 =
98751 11470 80901 10230 20209 39395 40070 57033 60011
70564 8497/ 333 56999 84915 88356 =
98752 11430 80301 10242 20241 40098 57034 60181 76166
8492/ 333 56999 84915 88457 =
98851 11468 83604 10258 20236 39915 40065 57033 69901
78088 8351/ 333 56999 83618 88458 =
0000217100
424
SZNZ01 NZKL 110742
CREX++
T000103 A001 D01021 D06025++
-3683144 17478654 AUCT  2014 01 11 07 34 //// 11 07 00 01
04576 3193 04564 3190 04557 3190 04552 3193 04545 3194 04537 3194+
-4402404 -17636748 CHIT  2014 01 11 07 34 //// 11 07 00 01
04325 1967 04297 1939 04287 1928 04280 1921 04291 1932 04285 1925+
-4089929 17623168 CPIT  2014 01 11 07 34 //// 11 07 00 01
03211 2277 03219 2287 03198 2266 03196 2265 03212 2282 03192 2262+
-3618905 17548887 GBIT  2014 01 11 07 34 //// 11 07 00 01
05317 -0002 05302 -0012 05300 -0010 05298 -0007 05297 -0003 05290 -0006+
-3867541 17802288 GIST  2014 01 11 07 34 //// 11 07 00 01
03390 2750 03384 2747 03371 2736 03376 2744 03355 2725 03369 2740+
-4241288 17370277 KAIT  2014 01 11 07 34 //// 11 07 00 01
02635 2213 02631 2208 02641 2218 02633 2209 02646 2222 02645 2220+
-3755040 17815904 LOTT  2014 01 11 07 34 //// 11 07 00 01
02913 0189 02912 0191 02902 0186 02902 0189 02889 0180 02892 0187+
-3704657 17451175 MNKT  2014 01 11 07 34 //// 11 07 00 01
03339 -0154 03357 -0134 03345 -0142 03351 -0132 03342 -0138 03337 -0139+
-3947566 17692007 NAPT  2014 01 11 07 34 //// 11 07 00 01
02349 2054 02322 2029 02333 2041 02326 2036 02308 2019 02297 2010+
-3441483 17304870 NCPT  2014 01 11 07 34 //// 11 07 00 01
-01391 -5559 -01633 -5795 -01468 -5624 -01472 -5622 -01494 -5639 -01632 -5771+
-4581435 17062939 OTAT  2014 01 11 07 34 //// 11 07 00 01
03890 3425 03892 3423 03895 3422 03897 3421 03901 3421 03905 3422+
-2928002 -17789440 RBCT  2014 01 11 07 34 //// 11 07 00 01
05690 2018 05704 2035 05708 2042 05691 2029 05674 2014 05685 2029+
-2925114 -17790384 RFRT  2014 01 11 07 34 //// 11 07 00 01
02617 0222 02600 0209 02616 0228 02606 0221 02608 0227 02601 0223+
-4357010 17277383 SUMT  2014 01 11 07 34 //// 11 07 00 01
01127 1852 01120 1844 01127 1850 01136 1857 01136 1856 01127 1845+
-3764109 17618118 TAUT  2014 01 11 07 34 //// 11 07 00 01
04656 3996 04646 3991 04638 3988 04632 3986 04629 3988 04624 3988+
-4128448 17477985 WLGT  2014 01 11 07 34 //// 11 07 00 01
02571 2017 02576 2021 02572 2017 02569 2014 02559 2004 02564 2008++
7777
0000041000
425
SFUK43 EGRR 110735
R SFUK43_EGRR_110735.CSV un0E||xE*]E48-Ǣ_ҝ\TY	c]q6!1-@l*d]QW7%s֫4 ֳQi6Hk>r,javśgkcSXWyV쳲辰#u}ndn))g$ю)t9
W 4h'$\}BR$s\ARb}η}jw]ki(FW(%G
\7#<+5$y8Jl- $o2k?LEu㛲~䶈9Y/+  
00000000