0000060000
626
SARS33 RUMS 110300
METAR ULLI 110300Z 34006MPS 270V030 4900 -SN DRSN BKN017 OVC066
M04/M05 Q0990 28////// 78520540 NOSIG=
METAR UUBW 110300Z 22004MPS 9999 -RA OVC011 03/01 Q0986 NOSIG=
METAR UUDD 110300Z 24004MPS 210V270 9999 -RA BKN011 OVC100 03/02
Q0985 64290095 14290095 NOSIG=
METAR UUDL 110300Z NIL=
METAR UUEE 110300Z 20005MPS 5000 -RA OVC007 02/02 Q0984 75290151
25290151 NOSIG=
METAR UUWW 110300Z 22005MPS 9999 -RA BKN010 OVC018 02/01 Q0985
24290045 NOSIG=
METAR UUMO 110300Z 23003MPS 9999 -RA BKN010 OVC020 02/02 Q 985 NOSIG
RMK QFE724/0966 26250550=

0000012300
627
SARA35 RUMS 110300
METAR USCM 110300Z 14002MPS 5000 BR OVC012 M07/M08 Q1008 NOSIG
19420150 RMK QFE719=

0000054300
628
SARA36 RUMS 110300
METAR UWUU 110300Z 18004G07MPS 150V300 4500 BR OVC008 M02/M02 Q1007
14620342 TEMPO 1000 SN FZRA BKN003 RMK QFE744/0993=
METAR USCC 110300Z 16004MPS 5000 BR FU BKN006 OVC070 M06/M07 Q1010
09490350 TEMPO 1100 SHSN BKN005 RMK QFE737=
METAR USNN 110300Z 03003MPS 9999 OVC009 M16/M18 Q1019 NOSIG RMK
QFE760 03420332=
METAR USRR 110300Z 09003MPS 7000 SCT012 OVC070 M23/M26 Q1018 NOSIG
RMK QFE759 07////35=
METAR USSS 110300Z 14003MPS 9999 SCT008 OVC044 M05/M07 Q1008 08450137
NOSIG RMK QFE736=

0000043800
629
SARS31 RUMS 110300
METAR ULWC 110300Z 00000MPS 2200 -DZ BR OVC002 00/00 Q0981 TEMPO 1000
SNRA BR RMK QBB060 QFE726/0968 SC042=
METAR UUBP 110300Z NIL=
METAR UUOB 110300Z 26008MPS 9999 BKN017 03/01 Q0998 29290050 NOSIG=
METAR UUOK 110300Z 24005G10MPS 9999 -RA OVC015 03/02 Q0996 NOSIG RMK
12290050=
METAR UWGG 110300Z 17005MPS 2200 -SN OVC005 01/00 Q0988 TEMPO 1000
SHSNRA VV004 18690540 RMK QBB170 QFE734=

0000095400
630
SARA34 RUMS 110300
METAR UNAA 110300Z VRB02MPS 9000 SCT040 OVC083 M04/M09 Q1031 NOSIG
RMK QFE751 20090040=
METAR UNBB 110300Z 20004MPS 9999 -SN BKN029 M08/M11 Q1031 NOSIG RMK
QFE751/1001 24452045=
METAR UNEE 110300Z 19005MPS 2700 -SN OVC011 M08/M09 Q1028 NOSIG RMK
QFE748 23452045=
METAR UNKL 110300Z 24004MPS 9999 -SHSN SCT033CB OVC083 M06/M11 Q1027
NOSIG RMK QFE744 29////40=
METAR UNNT 110300Z 21005MPS 6000 -SN DRSN BKN012 OVC027 M07/M09 Q1029
25390137 16390142 NOSIG RMK QFE761/1015=
METAR UNOO 110300Z 18004MPS 4500 -SHSN BR BKN014 BKN033CB M07/M09
Q1022 25390137 NOSIG RMK QFE758=
METAR UNTT 110300Z 22006MPS 6000 SCT018CB OVC066 M07/M09 Q1026 NOSIG
RMK QFE754 21390032=
METAR USTR 110300Z 17005MPS 9999 BKN012CB M06/M07 Q1012 TEMPO 1500
SHSN BKN005 RMK QFE750/1000 21390050 12750029=
METAR USHH 110300Z 05003MPS 9999 BKN003 OVC080 M21/M24 Q1016 TEMPO
1000 SN BKN003 RMK QBB110 QFE758 06////50=

0000064600
631
SARS36 RUMS 110300
METAR ULAA 110300Z 07007G10MPS 2100 -SN BLSN OVC007 M17/M19 Q1000
TEMPO 0600 +SN BLSN BKN003 RMK QFE749/0999 SC053=
METAR ULMM 110300Z 00000MPS 9999 BKN004 M34/M38 Q1017 NOSIG RMK
QBB130 OBST OBSC QFE755 31450239=
METAR ULOO 110300Z NIL=
METAR ULPB 110300Z AUTO 36005MPS 1600 NCD M11/M12 Q0991=
METAR UMKK 110300Z 29003MPS 260V330 9999 BKN024 04/01 Q1006
R24/29//60 NOSIG RMK QFE753/1005=
METAR UUOO 110300Z 25004G07MPS 9999 OVC004 02/01 Q0994 TEMPO BKN003
RMK 12290250=
METAR UUYY 110300Z 02003MPS 4800 BR SCT008 BKN016CB OVC066 M13/M15
Q1002 TEMPO 0700 +SHSN 0145//33 RMK QFE742/0990=

0000015100
632
FCRS32 RUMS 110200 CCA
TAF URWA 110200Z 1103/1112 23006G12MPS 9999 BKN012 BKN100 520002
TEMPO 1103/1109 2100 -RA BR BKN005 OVC100=

0000030600
633
SACG21 FCBB 110300
METAR FCBB 110300Z 31001KT 8000 FEW010 BKN018 23/22 Q1012 NOSIG=
METAR FCPP 110300Z 00000KT 8000 FEW010 26/24 Q1010 NOSIG=
METAR FCPD 110300Z 00000KT CAVOK 24/21 Q1012=
METAR FCOU 110300Z 00000KT CAVOK 22/21 Q1011=
METAR FCOI 110300Z 22004KT CAVOK 25/23 Q1014=

0000009900
634
SAAF11 LFPW 110300 RRA
METAR FCPP 110300Z 00000KT 8000 FEW010 26/24 Q1010 NOSIG=

0000011700
635
SACN62 CYEV 110300
METAR CYEV 110300Z 27007KT 6SM -SN DRSN OVC073 M25/M29 A2971 RMK AC8
 SLP073=

0000025000
636
SAAF11 LFPW 110300 RRB
METAR FKKD 110300Z 13001KT 8000 SCT013 FEW016CB BKN300 25/25 Q1010
      BECMG 4000 BR=
METAR FKKR 110300Z 00000KT CAVOK 19/05 Q1013=
METAR FKYS 110300Z 24002KT 3000 BR SCT003 21/20 Q1015 BECMG 1000 BR=

0000009500
637
SAAF14 LFPW 110300 RRB
METAR FEFF 110300Z 00000KT  CAVOK  19/17 Q1011 NOSIG=

0000165100
638
SPUS70 KWBC 110316
SPECI
KDYL 110312Z AUTO 03003KT 2SM UP BR OVC003 00/00 A3023 RMK AO2
     P0001 T00000000 $=
KLFK 110312Z AUTO 22008KT 10SM SCT012 19/17 A2980 RMK AO2 $=
KNEW 110312Z AUTO 16008KT 1 1/4SM RA BR FEW002 BKN009 OVC018 15/14
     A2994 RMK AO2 P0002 T01500144 TSNO=
KGEZ 110313Z AUTO 16012KT 1 3/4SM -RA BR SCT014 SCT060 OVC075
     06/05 A2972 RMK AO2 P0001 T00610050=
KHOT 110313Z AUTO 24004KT 10SM BKN017 OVC065 14/13 A2970 RMK AO2
     RAE13 P0000=
KM19 110313Z AUTO 15009KT 1/2SM -RA FG BKN003 08/08 A2968 RMK AO2
     BKN V OVC P0000=
KMLI 110305Z COR 20007KT 10SM BKN006 OVC017 04/03 A2951 RMK
     AO2=
KMSP 110313Z 00000KT 4SM -FZDZ BR OVC008 M02/M02 A2951 RMK AO2
     FZDZB13SNE13 P0000 $=
KSRC 110313Z AUTO 21005KT 1 1/2SM BR OVC001 09/09 A2969 RMK AO2
     TSNO=
KADG 110313Z AUTO 18006KT 2 1/2SM RA BR OVC002 02/02 A2976 RMK AO2
     P0004 TSNO=
KDCU 110313Z AUTO 14007KT 2 1/2SM -RA BR OVC007 09/09 A2994 RMK
     AO2 RAB0258 P0001=
KEVV 110313Z 24007KT 5SM -RA BR BKN008 OVC013 09/08 A2975 RMK AO2
     LTG DSNT SE P0003 T00940078=
KEWR 110313Z 03005KT 1SM -DZ BR FEW003 OVC005 02/01 A3028 RMK AO2
     SFC VIS 1 1/2 P0000=
KFMY 110313Z AUTO 00000KT 10SM SCT024 22/21 A3010 RMK AO2=
KFOK 110313Z 00000KT 1SM BR SCT004 OVC011 05/03 A3030 RMK AO2
     RAE09 P0001=
PADU 110313Z 16007KT 10SM -RA SCT018 BKN028 OVC050 04/01 A2905 RMK
     AO2 RAB06 P0000=
PAHN 110313Z AUTO 06007KT 030V090 10SM FEW012 BKN026 OVC075 02/00
     A2934 RMK AO2 T00220000 TSNO=
PAJZ 110317Z AUTO 36003KT 3SM BR OVC002 M08/M09 A2949 RMK AO2
     PWINO TSNO $=

0000012100
639
SPUS42 KWBC 110316
SPECI
KNEW 110312Z AUTO 16008KT 1 1/4SM RA BR FEW002 BKN009 OVC018 15/14
A2994=

0000041600
640
SALY31 HLMC 110300
METAR HLLM 110250Z 18007KT 7000 13/07 Q1023=
METAR HLLT 110250Z 17004KT CAVOK 09/05 Q1022=
METAR HLGD 110300Z NIL=
METAR HLGT 110300Z NIL=
METAR HLJA 110300Z NIL=
METAR HLKF 110300Z NIL=
METAR HLKM 110300Z NIL=
METAR HLLB 110300Z NIL=
METAR HLLS 110300Z NIL=
METAR HLMI 110300Z NIL=
METAR HLNT 110300Z NIL=
METAR HLON 110300Z NIL=
METAR HLTD 110300Z NIL=

0000013400
641
FCTA31 RUMS 110200
TAF UTDL 110235Z 1104/1113 07007G12MPS 4000 BR NSC 530009 TEMPO
1104/1113 07010G15MPS 1600 BR=

0000022700
642
FTUS53 KWBC 110309 AAA
TAF AMD
KLNK 110307Z 1103/1124 30005KT 1 1/2SM BR FEW015 SCT040 OVC080
      TEMPO 1104/1107 P6SM NSW
     FM110700 30007KT P6SM SCT100 BKN250
     FM111600 31012KT P6SM SCT250=

0000147100
643
FTUS80 KWBC 110309 AAA
TAF AMD
KBFI 110306Z 1103/1124 15010G18KT P6SM -RA SCT019 OVC035
      TEMPO 1104/1107 4SM RA BR OVC015
     FM110700 18015G28KT 6SM -RA BR OVC018
     FM110800 18020G33KT 6SM -RA BR OVC018
     FM111400 20016G28KT P6SM -RA OVC028
     FM111900 20022G35KT P6SM -SHRA OVC020=
KDTW 110306Z 1103/1206 15007KT 2SM BR OVC004 WS020/19043KT
      TEMPO 1105/1109 1SM RA BR OVC002
     FM111200 18010KT 2SM SHRA BR OVC004
     FM111700 24012G20KT 6SM BR OVC010=
KHOU 110307Z 1103/1124 22007KT P6SM SCT007 OVC012
     FM110600 24005KT P6SM SCT005 BKN012
     FM110900 27004KT P6SM SCT010
     FM111200 33010KT P6SM SKC=
KIAH 110307Z 1103/1206 22007KT P6SM SCT007 BKN015 OVC035
     FM110600 24005KT P6SM SCT005 BKN012
     FM110900 27004KT P6SM SCT010
     FM111200 33010KT P6SM SKC=
KLAX 110308Z 1103/1206 27005KT P6SM SCT250
     FM110500 VRB03KT P6SM SCT250
     FM110800 VRB03KT 4SM BR SCT007
     FM111800 VRB03KT 5SM HZ SCT250
     FM112100 26009KT P6SM SCT250
     FM120300 26004KT P6SM SCT250=
KLBX 110306Z 1103/1124 22006KT P6SM SCT007 SCT015
      TEMPO 1104/1107 BKN007 OVC015
     FM110800 25004KT P6SM SCT010 SCT250
     FM111200 33010KT P6SM SKC=
KLIT 110308Z 1103/1124 17008KT 5SM BR VCTS SCT006 OVC012CB
      WS020/21045KT
      TEMPO 1103/1107 VRB15G25KT 2SM TSRA BR OVC006CB
     FM110700 26012KT P6SM SCT100 BKN250
     FM111500 27010G20KT P6SM SCT250=

0000058600
644
FTUS80 KWBC 110309 AAB
TAF AMD
KLNK 110307Z 1103/1124 30005KT 1 1/2SM BR FEW015 SCT040 OVC080
      TEMPO 1104/1107 P6SM NSW
     FM110700 30007KT P6SM SCT100 BKN250
     FM111600 31012KT P6SM SCT250=
KOMA 110308Z 1103/1124 30005KT 6SM BR BKN015 OVC080
      TEMPO 1104/1107 P6SM NSW FEW015 SCT040 OVC080
     FM110700 30007KT P6SM SCT100 BKN250
     FM111600 31012KT P6SM SCT250=
KTOL 110308Z 1103/1124 18009KT 2SM -RA BR OVC004
     FM111100 23009KT 2SM -RA BR OVC003
     FM111700 24011KT 4SM BR OVC007
     FM111900 24010G20KT P6SM OVC015=

0000033500
645
FTXX69 EGRR 110200 AAA
TAF AMD KQIR 1103/1205 10012KT 8000 -SHRA SCT030 BKN050 OVC100 QNH3003INS
     TEMPO 1106/1112 13010G15KT -TSRA SCT020CB BKN030 OVC050
     BECMG 1111/1112 28012G18KT 9999 NSW BKN050 QNH3008INS
     BECMG 1123/1124 33010G15KT 9999 SCT050 QNH3008INS T20/1111Z
     T13/1203Z AMD 110300=

00000000