0000016300
726
SACN62 CYBD 110100
METAR CYBD 110100Z 06005KT 14SM SCT022 OVC052 03/01 A2961 RMK SC3SC5
 TR SF  VIS W6  LAST OBS/NEXT 111500UTC PRESFR SLP028=

0000014800
727
SACN61 CYAY 110100
METAR CYAY 110100Z AUTO 25019G25KT 9SM -SN FEW050 BKN170 M09/M11
 A2989 RMK MAX WND 25021KT AT 0045Z SLP126=

0000014000
728
SACN62 CYBL 110100
METAR CYBL 110100Z 14012KT 4SM -RA BR FEW004 BKN008 OVC015 05/04
 A2973 RMK SF2SF5SC1 PRESFR SLP069=

0000011500
729
SACN62 CYAM 110100
METAR CYAM 110100Z 11008KT 2 1/2SM BR OVC011 M02/M03 A2979 RMK ST8
 SLP101=

0000011900
730
SACN62 CYBW 110100
METAR CYBW 110100Z 06007KT 15SM FEW120 SCT200 M06/M11 A2962 RMK
 AC1CI2 SLP087=

0000010600
731
SACN62 CYBK 110100
METAR CYBK 110100Z 00000KT 15SM FEW020 M32/M36 A2972 RMK SC1 SLP067=

0000009900
732
SASR31 WSAP 110100
METAR WSAP 110100Z 01005KT 9999 
FEW018 BKN300 26/23 Q1012=

0000020400
733
SABO41 SLLP 110100
METAR SLLP 110100Z 08006KT 9999 FEW015 SCT200 09/05 Q1034=
METAR SLVR 110100Z 36004KT 9999 FEW070 25/22 Q1009=
METAR SLCB 110100Z 10008KT 9999 FEW027 21/07 Q1022=

0000041300
734
SAPL31 EPWA 110100
METAR EPGD 110100Z 28013KT 9999 -SHRA BKN013 FEW020TCU
    05/04 Q1007 =
METAR EPKK 110100Z 24011KT 9999 BKN046 04/M01 Q1017 =
METAR EPLL 110100Z 27011G24KT CAVOK 05/00 Q1013 =
METAR EPPO 110100Z 25010KT 220V280 9999 BKN045 05/01
    Q1013 R10/19//95 =
METAR EPRZ 110100Z 26016KT CAVOK 05/M01 Q1015 =
METAR EPWA 110100Z 26017G28KT 9999 BKN033 05/01 Q1011 NOSIG=

0000035700
735
SAPL32 EPWA 110100
METAR EPBY 110100Z 26011KT CAVOK 06/02 Q1011 =
METAR EPKT 110100Z 24009KT 9999 BKN040 04/M01 Q1016 =
METAR EPLB 110100Z NIL=
METAR EPMO 110100Z 25019KT 9999 BKN031 05/02 Q1010=
METAR EPSC 110100Z 24007KT 9999 BKN013 04/02 Q1012 =
METAR EPWR 110100Z 24006KT 9999 BKN046 04/M00 Q1017 =
METAR EPZG 110100Z NIL=

0000039900
736
SAHU41 LHBM 110100
METAR LHKE 110045Z 22001MPS 6000 NSC M01/M02 Q1021 NOSIG RMK WHT=
METAR LHPA 110045Z 00000MPS 8000 BKN040 02/01 Q1021 NOSIG RMK BLU=
METAR LHPP 110045Z 10006KT 9999 BKN040 05/04 Q1021=
METAR LHPR 110045Z 00000KT 9999 FEW033 02/00 Q1021=
METAR LHSN 110045Z 27004MPS CAVOK 03/M01 Q1021 NOSIG RMK BLU=
METAR LHUD 110045Z 19002KT 6000 BKN050 01/M00 Q1022=

0000010600
737
SACN61 CYFC 110100
METAR CYFC 110100Z AUTO 25002KT 9SM OVC140 M09/M11 A3029 RMK SLP260=

0000013300
738
SACN62 CYDC 110100
METAR CYDC 110100Z 29004KT 10SM BKN040 03/M01 A2981 RMK SC6 LAST
 OBS/NEXT 11 1500UTC SLP118=

0000011200
739
SACN62 CYGL 110100
METAR CYGL 110100Z 20008KT 5SM -SN OVC003 M06/M07 A2972 RMK ST8
 SLP080=

0000012000
740
SACN61 CYDN 110100
METAR CYDN 110100Z AUTO 27004KT 6SM -SN FEW020 OVC039 M06/M08 A2945
 RMK SLP996=

0000010300
741
SACN61 CYDQ 110100
METAR CYDQ 110100Z AUTO 25004KT 9SM CLR M03/M10 A2951 RMK SLP036=

0000012900
742
SACN62 CYEG 110100
METAR CYEG 110100Z 21005KT 15SM SCT053 SCT150 BKN260 M09/M11 A2960
 RMK SC3AC1CI3 SLP073=

0000079600
743
SACH10 SCSC 110100
METAR SCFA 110100Z 17010KT 9999 SCT014 21/17 Q1011 NOSIG=
METAR SCAR 110100Z 11002KT CAVOK 23/18 Q1012=
METAR SCBA 110100Z AUTO 32020KT CAVOK 09/03 Q1019=
METAR SCCF 110100Z 26013KT CAVOK 17/07 Q1024=
METAR SCIE 110100Z 23010KT CAVOK 18/10 Q1015=
METAR SCAT 110100Z AUTO 22008KT 9999 // ///011 17/14 Q1013=
METAR SCDA 110100Z 19009KT 9999 FEW020 23/17 Q1012=
METAR SCSE 110100Z 28004KT CAVOK 16/13 Q1011=
METAR SCJO 110100Z NIL=
METAR SCTE 110100Z 18005KT CAVOK 13/07 Q1023 NOSIG=
METAR SCNT 110100Z NIL=
METAR SCCI 110100Z 24016KT 9999 SCT030 OVC100 08/04 Q1010 NOSIG=
METAR SCEL 110100Z 19012KT CAVOK 24/06 Q1013 NOSIG=
METAR SCIP 110100Z 10010KT 9999 SCT020 25/17 Q1019 NOSIG=
METAR SCPQ 110100Z AUTO 15007KT CAVOK 11/07 Q1023=

0000010200
744
SPUS31 KWBC 110023
SPECI
KPHF 110019Z AUTO 08004KT 2 1/2SM BR FEW100 07/04 A3025=

0000009700
745
SPUS43 KWBC 110023
SPECI
KPIA 110019Z 20011KT 4SM -RA BR OVC003 04/03 A2961=

00000000