0000009500
186
SAAT31 TAPA 102205
METAR TAPA 102200Z 08011KT 9999 SCT019 25/19 Q1016 NOSIG=

0000048700
187
FTUS41 KWBC 102209 AAA
TAF AMD
KCMH 102206Z 1022/1118 17009KT 6SM BR SCT010 OVC035
      TEMPO 1022/1024 BKN015
     FM110300 17010KT 5SM BR VCSH OVC015
     FM110700 17012KT 4SM -RA BR OVC008
     FM111400 23014G23KT P6SM VCSH OVC012=
KLUK 102205Z 1022/1118 16007KT P6SM SCT018 OVC120
     FM110000 15007KT 4SM BR VCSH OVC018
     FM110600 17007KT 4SM -SHRA BR OVC009
     FM111300 21010G18KT P6SM VCSH OVC012
     FM111600 25012G22KT P6SM OVC022=

0000039900
188
FTUS42 KWBC 102209 AAA
TAF AMD
KSSI 102206Z 1022/1118 13010KT P6SM SCT025
      TEMPO 1022/1102 BKN025
     FM110200 14005KT 3SM BR BKN005 OVC010
     FM110600 15005KT 1SM BR BKN003 OVC006
     FM111400 19010G15KT P6SM VCSH BKN010 OVC020=
KTUL 102207Z 1022/1118 28015G18KT P6SM FEW025 SCT050 SCT180
     FM110300 26009KT P6SM SCT250
     FM111500 28010KT P6SM SKC=

0000066400
189
FTUS71 KWBC 102209 AAA
TAF AMD
KCMH 102206Z 1022/1118 17009KT 6SM BR SCT010 OVC035
      TEMPO 1022/1024 BKN015
     FM110300 17010KT 5SM BR VCSH OVC015
     FM110700 17012KT 4SM -RA BR OVC008
     FM111400 23014G23KT P6SM VCSH OVC012=
KLUK 102205Z 1022/1118 16007KT P6SM SCT018 OVC120
     FM110000 15007KT 4SM BR VCSH OVC018
     FM110600 17007KT 4SM -SHRA BR OVC009
     FM111300 21010G18KT P6SM VCSH OVC012
     FM111600 25012G22KT P6SM OVC022=
KPSM 102208Z 1022/1118 20003KT 6SM BR BKN018 OVC070
     FM110000 20003KT 4SM BR OVC018
     FM110300 23003KT 1SM BR OVC007
     FM111200 14004KT 1 1/2SM -RA BR OVC004=

0000039900
190
FTUS72 KWBC 102209 AAA
TAF AMD
KSSI 102206Z 1022/1118 13010KT P6SM SCT025
      TEMPO 1022/1102 BKN025
     FM110200 14005KT 3SM BR BKN005 OVC010
     FM110600 15005KT 1SM BR BKN003 OVC006
     FM111400 19010G15KT P6SM VCSH BKN010 OVC020=
KTUL 102207Z 1022/1118 28015G18KT P6SM FEW025 SCT050 SCT180
     FM110300 26009KT P6SM SCT250
     FM111500 28010KT P6SM SKC=

0000012900
191
SACN62 CYPA 102200
METAR CYPA 102200Z 22005KT 15SM FEW040 BKN140 BKN250 M08/M10 A2940
 RMK SC2AC3CI2 SLP987=

0000048200
192
FTUS73 KWBC 102209 AAA
TAF AMD
KBRL 102206Z 1022/1118 17009KT 6SM -RA BR OVC003
     FM110100 18003KT 1/2SM -RA FG OVC002
     FM110700 26005KT 1SM -FZRASN BR OVC003
     FM110900 27010KT 2SM -SN BR OVC004
     FM111300 28011KT 4SM BR VCSH OVC006=
KEGE 102206Z 1022/1118 28010G18KT P6SM VCSH SCT035 BKN050
      TEMPO 1022/1101 5SM -SN BR SCT035 OVC050
     FM110200 VRB03KT P6SM VCSH SCT025 BKN040
     FM111200 VRB03KT P6SM VCFG SCT015 BKN050=

0000024200
193
FTUS73 KWBC 102209
TAF
TAF KRFD 102201Z 1022/1118 15012G22KT 1 1/2SM RA BR BKN006 OVC020
     FM110000 15012KT 3SM -RA BKN005 OVC020
     FM110300 20012KT 1SM -DZ BR VCSH OVC005
     FM110900 26012G18KT P6SM OVC012=

0000040000
194
FTUS75 KWBC 102209 AAA
TAF AMD
PHJH 102206Z 1022/1118 03013KT P6SM FEW025 SCT045
     FM110600 05008KT P6SM FEW025 SCT045 AMD NOT SKED AFT 110400=
PHKO 102206Z 1022/1118 32010KT P6SM SCT060
     FM110600 11005KT P6SM SCT060=
PHOG 102206Z 1022/1118 03012KT P6SM FEW030 SCT050
     FM110500 06006KT P6SM FEW030 SCT050 AMD LTD TO WX VIS AND
      WIND
      1109/1116=

0000009800
195
SPUS41 KWBC 102207
SPECI
KLWM 102203Z 00000KT 7SM BKN018 BKN095 00/M03 A3036=

0000011700
196
SPUS43 KWBC 102207
SPECI
KGRR 102203Z 12008KT 1SM R26L/6000VP6000FT -RA BR OVC004 02/01
A2983=

0000018400
197
FTPA31 PHFO 102200 AAA
TAF PHOG 102206Z 1022/1118 03012KT P6SM FEW030 SCT050
     FM110500 06006KT P6SM FEW030 SCT050
      AMD LTD TO WX VIS AND WIND 1109/1116=

0000019300
198
SAUS72 KWBC 102200 RRD
METAR
KBPT 102153Z COR 18010G17KT 10SM -RA BR FEW023 BKN033 OVC044 19/17
     A2986=
TNCM 102200Z 07011KT 040V1000 9999 FEW019 26/19 Q1017 A3003=

0000012500
199
FTPA31 PHFO 102200 AAA
TAF PHKO 102206Z 1022/1118 32010KT P6SM SCT060
     FM110600 11005KT P6SM SCT060=

0000145400
200
SPUS70 KWBC 102208
SPECI
PACV 102204Z 05004KT 2 1/2SM R27/2600VP6000FT -SN BR OVC013 01/M01
     A2937 RMK AO2 P0000 $=
PAGA 102204Z AUTO 00000KT 3SM HZ CLR M23/M26 A2970 RMK AO2 FZRANO
     PNO $=
KCMX 102205Z AUTO 14006KT 8SM BKN025 OVC030 M02/M06 A2967 RMK
     AO2=
KDAN 102204Z AUTO 06005KT 10SM BKN003 OVC014 04/02 A3024 RMK AO2
     RAE04 P0000=
KLSE 102205Z 10004KT 3SM -SN BR SCT010 OVC014 00/M02 A2961 RMK AO2
     P0000 T00001017=
KSBY 102204Z 10004KT 2 1/2SM -RA BR SCT005 BKN070 OVC090 07/06
     A3031 RMK AO2 P0000=
KTXK 102204Z 26009KT 1 1/4SM -RA BR SCT015 BKN021 OVC060 15/14
     A2976 RMK AO2 PRESRR P0001=
KAKH 102205Z AUTO 03006KT 3SM -RA BR OVC002 07/06 A3017 RMK AO2
     P0000=
KAKR 102205Z AUTO VRB03KT 1/2SM FG OVC002 04/03 A3005 RMK AO2
     TSNO=
KGLS 102205Z 17012KT 1 3/4SM BR FEW003 BKN025 OVC037 18/18 A2985
     RMK AO2 RAB01E03 P0000=
KIXD 102205Z 25006KT 2SM BR BKN004 OVC008 04/04 A2954 RMK AO2 CIG
     002V006 T00440044=
KMMK 102205Z AUTO 17003KT 2 1/2SM BR OVC009 01/00 A3036 RMK AO2
     T00110000 TSNO=
KOVS 102205Z AUTO VRB05KT 3SM BR OVC009 02/00 A2960 RMK AO2 CIG
     006V010 T00170000=
KSET 102205Z AUTO 17009KT 2 1/2SM -RA BR FEW014 BKN050 OVC070
     05/04 A2968 RMK AO2 P0002 T00500044 TSNO=
KTMB 102205Z 12009KT 10SM SCT022 26/22 A3008 RMK AO2=
PAGA 102204Z AUTO 00000KT 3SM HZ CLR M23/M26 A2970 RMK AO2 FZRANO
     PNO $=

0000010500
201
SPUS31 KWBC 102208
SPECI
KCHS 102204Z 16009KT 10SM FEW015 SCT035 BKN250 20/17 A3014=

0000011300
202
SPUS41 KWBC 102208
SPECI
KWRI 102204Z AUTO 04003KT 1 1/4SM R06/2400FT BR OVC003 02/02 A3031=

0000010400
203
SPUS43 KWBC 102208
SPECI
KCMX 102205Z AUTO 14006KT 8SM BKN025 OVC030 M02/M06 A2967=

0000009500
204
SABO41 KWBC 102200 RRA
METAR
SLOR 102200Z 10014KT 9999 FEW015 18/02 Q1031=

0000009500
205
SACA31 KWBC 102200 RRA
METAR
MKJS 102200Z 09011KT 9999 FEW022 28/24 Q1014=

00000000