0000083300
486
SAUK63 EGRR 111050
METAR EGDM 111050Z 29008KT CAVOK 06/04 Q1020=
METAR EGDR 111050Z 14003KT 9999 FEW025 09/04 Q1021 NOSIG=
METAR EGDX 111050Z 30008KT 9999 FEW020 07/04 Q1020=
METAR EGQL 111050Z 25019KT 9999 FEW020 03/M01 Q1011 NOSIG=
METAR EGQM 111050Z AUTO 27020KT 9999 NCD 05/M00 Q1012=
METAR EGUB 111050Z 23007KT 9999 FEW012 06/04 Q1019 NOSIG=
METAR EGVN 111050Z 25007KT CAVOK 06/03 Q1018 NOSIG=
METAR EGVO 111050Z 27007KT CAVOK 06/03 Q1019=
METAR EGWU 111050Z 30007KT 9999 FEW017 07/03 Q1019 NOSIG=
METAR EGXC 111050Z 27013KT 9999 BKN045 06/03 Q1016=
METAR EGXT 111050Z AUTO 25009KT 9999 NCD 05/03 Q1017=
METAR EGXV 111050Z AUTO 26009KT 9999 FEW150/// 05/03 Q1015=
METAR EGXW 111050Z 26011KT 9999 FEW019 SCT045 05/02 Q1016 NOSIG=
METAR EGYD 111050Z 26014KT 9999 FEW022 05/03 Q1016 NOSIG=
0000006100
487
AAUK99 EGRR 111100
Socket stay alive message.
0000008600
488
SAIN90 VOMD 111100
METAR VOMD 111100Z 07006KT 7000 FEW020 31/16 Q1011=
0000009400
489
SAIN90 VOBL 111100
METAR VOBL 111100Z 08004KT 030V130 CAVOK 32/11 Q1016 NOSIG=
0000010200
490
SAIN90 VEGT 111100
METAR VEGT 111100Z 00000KT 3000 HZ SCT020 BKN100 20/16 Q1016 NOSIG=
0000229100
491
FTIN51 VOMM 110900
TAF VOBL 110900Z 1112/1218 09005KT 6000 FEW015 BECMG 1121/1122 3000
    HZ SCT010 BECMG 1122/1123 1500 BR SCT005 TEMPO 1200/1203 0800 FG
    BKN005 BECMG 1203/1204 3000 HZ SCT010 BECMG 1204/1205 6000
     FEW015=
TAF VOCB 110900Z 1112/1218 04010KT 4000 HZ SCT015
     BECMG 1121/1122 09005KT 3000 HZ
     TEMPO 1200/1203 1500 BR
     BECMG 1204/1205 09010KT 4000 HZ
     BECMG 1207/1208 6000=
TAF VOCI 110900Z 1112/1218 22005KT 5000 HZ FEW015 SCT100 TEMPO
    1112/1115 FEW025CB BECMG 1117/1118 00000KT 4000 HZ TEMPO
     1200/1203 2000 BR/HZ FEW025CB BECMG 1204/1205 05005KT 5000 HZ
     TEMPO 1209/1212 2000 TSRA/RA SCT008 SCT012 FEW025CB OVC090 BECMG
     1217/1218 00000KT 4000 HZ=
TAF VOCL 110900Z 1112/1218 22005KT 5000 HZ FEW015 SCT100 TEMPO
    1112/1115 FEW025CB BECMG 1117/1118 00000KT 4000 HZ TEMPO
     1200/1203 2000 BR/HZ FEW025CB BECMG 1204/1205 22005KT 5000 HZ
     TEMPO 1209/1212 FEW025CB BECMG 1217/1218 00000KT 4000 HZ=
TAF VOHS 110900Z 1112/1218 15005KT 4000 HZ SCT020 TEMPO 1200/1203
    00000KT 3000 HZ  SCT010 SCT015 BECMG 1205/1206 12010KT 5000 HZ
    SCT020 BECMG 1215/1216 11005KT 5000 HZ NSC=
TAF VOMD 110900Z 1112/1218 07010KT 4000 HZ SCT020
     BECMG 1200/1203 00000KT 3000 HZ
     BECMG 1205/1206 07010KT 6000
     BECMG 1212/1213 4000 HZ=
TAF VOML 110900Z 1112/1218 29005KT 6000 FEW015 BECMG 1121/1122
    09005KT 3000 HZ SCT010 TEMPO 1200/1203 1500 BR SCT005 BECMG
    1203/1204 6000 FEW015 BECMG 1209/1210 29010KT=
TAF VOMM 110900Z 1112/1218 09005KT 4000 HZ SCT020
     BECMG 1121/1122 00000KT 2000 BR
     TEMPO 1123/1203 0800 MIFG
     BECMG 1203/1204 3000 HZ
     BECMG 1204/1205 07010KT 6000
     BECMG 1212/1213 4000 HZ=
TAF VOTR 110900Z 1112/1218 04010KT 4000 HZ SCT020
     BECMG 1120/1121 05005KT 3000 HZ
     TEMPO 1200/1203 1500 BR
     BECMG 1203/1204 4000 HZ
     BECMG 1205/1206 04010KT 6000=
TAF VOTV 110900Z 1112/1218 14005KT 5000 HZ FEW015 SCT100 TEMPO
    1112/1115 2000 TSRA/RA SCT008 SCT012 FEW025CB OVC090 BECMG
     1117/1118 00000KT 4000 HZ TEMPO 1200/1203 2000 BR/HZ FEW025CB
     BECMG 1204/1205 14005KT 5000 HZ TEMPO 1209/1212 2000 TSRA/RA
     SCT008 SCT012 FEW025CB OVC090 BECMG 1217/1218 00000KT 4000 HZ=

0000008800
492
SATU34 LTAA 110250 RRA
METAR LTCV 110250Z 26005KT CAVOK 01/M04 Q1016=

0000022300
493
FTRH31 LDZM 102300 AAA
TAF AMD LDZA 110304Z 1102/1124 VRB02KT 0100 FG VV001 TX11/1113Z
TN02/1104Z
PROB40 TEMPO 1102/1109 0600 BCFG NSC
BECMG 1109/1111 3000 BR SCT015
BECMG 1111/1113 23006KT CAVOK=

0000014100
494
SACN62 CYVT 110300
METAR CYVT 110300Z 32016G21KT 12SM -SN DRSN FEW015 OVC035 M12/M15
 A2949 RMK SC2SC6 OCNL BLSN SLP020=

0000010600
495
SACN62 CYVC 110300
METAR CYVC 110300Z 29009KT 15SM OVC012 M06/M08 A2942 RMK SC8 SLP988=

0000011200
496
SACN62 CYUY 110300
METAR CYUY 110300Z 18007KT 8SM -SN OVC005 M04/M04 A2988 RMK SF8
 SLP139=

0000016400
497
SACN62 CYWG 110300
METAR CYWG 110300Z 30010KT 1/2SM R31/5000VP6000FT/D
 R36/5000VP6000FT/D -FZDZ FZFG OVC002 M09/M09 A2943 RMK FG4ST4
SLP983=

0000012600
498
SACN62 CYWK 110300
METAR CYWK 110300Z 23009G15KT 12SM -SN BKN049 OVC072 M11/M14 A2978
 RMK SC6AC2 SLP132=

0000013100
499
SACN62 CYUT 110300
METAR CYUT 110300Z VRB05KT 25SM FEW030 BKN200 M32/M36 A2957 RMK
 SC1CS4 CALLOUT OBS SLP016=

0000027500
500
SACZ43 LKPW 110300
METAR LKCV 110300Z 24006KT CAVOK 03/00 Q1018 NOSIG=
METAR LKKB 110300Z 22006KT CAVOK 02/01 Q1018=
METAR LKLN 110300Z NIL=
METAR LKNA 110300Z 21004KT 180V250 9999 SCT046 00/M01 Q1018=
METAR LKPD 110300Z 23003KT CAVOK 03/M00 Q1018=

0000012300
501
SACN62 CYVQ 110300
METAR CYVQ 110300Z 29005KT 20SM -SN BKN080 OVC270 M25/M28 A2975 RMK
 AC6CI2 SLP086=

0000073500
502
SAZA31 FAPR 110300
METAR FABL 110300Z 23001KT CAVOK 14/10 Q1018 NOSIG=
METAR FACT 110300Z 17009KT 9999 FEW030 16/12 Q1016 NOSIG=
METAR FAEL 110300Z 25011KT CAVOK 17/12 Q1018=
METAR FAGG 110300Z 04003KT 9999 FEW045 13/12 Q1018=
METAR FALA 110300Z AUTO 00000KT //// // 17/11 Q1020=
METAR FALE 110300Z 26004KT 9999 BKN030 21/18 Q1016 NOSIG=
METAR FAMM 110300Z AUTO 15005KT //// // ////// 20/07 Q1017=
METAR FAOR 110300Z 00000KT CAVOK 18/07 Q1022 NOSIG=
METAR FAPE 110300Z 25011KT CAVOK 18/13 Q1017 NOSIG=
METAR FAPN 110300Z AUTO 23001KT //// // ////// 19/08 Q1016=
METAR FAPP 110300Z 02002KT 9999 BKN015 19/16 Q1018 TEMPO 5000 BR
      SCT008=
METAR FAUP 110300Z 15005KT CAVOK 17/05 Q1015 NOSIG=

0000011800
503
SACN62 CYWL 110300
METAR CYWL 110300Z 12010G15KT 1 1/2SM -SN VV010 M03/M04 A2959 RMK SN8
 SLP059=

0000011600
504
SACN61 CYXS 110300
METAR CYXS 110300Z AUTO 18007KT 9SM OVC095 M03/M04 A2954 RMK PRESFR
 SLP039=

0000013900
505
SATD31 TTPP 110300
METAR
TTPP 110300Z 00000KT 9999 FEW016 23/21 Q1014=
TTCP 110300Z 00000KT 9999 FEW015 24/19 Q1015=

00000000