0000020000
066
FTUS80 KWBC 110000 AAA
TAF AMD
PASC 102359Z 1100/1124 25013KT 4SM -SN BR SCT020 BKN030
      TEMPO 1100/1102 2SM -SN BR BKN017
     FM110200 25018KT 3SM BR BLSN BKN017 OVC035=

0000051400
067
SPUS70 KWBC 110000
SPECI
PASC 102356Z 25013KT 2 1/2SM -SN BR OVC022 M30/M33 A2986 RMK AO2
     P0000=
KMEB 102357Z AUTO 00000KT 1 3/4SM +RA BR BKN005 OVC015 14/14 A3016
     RMK AO2 P0004 T01390139=
PABA 102357Z AUTO 27019KT 2 1/2SM BR OVC045 M27/M29 A2985 RMK AO2
     PK WND 27026/2320 SNE48 P0000 FZRANO=
PASC 102356Z COR 25013KT 3SM -SN BR OVC022 M30/M33 A2986 RMK AO2
     P0000=
PASO 102357Z AUTO 18005KT 3/4SM -SN BR BKN013 OVC023 00/M01 A2939
     RMK AO2 P0000 TSNO=

0000009500
068
SPUS41 KWBC 110000
SPECI
KCEF 102355Z 00000KT 4SM BR OVC006 M01/M01 A3033=

0000011800
069
SPUS41 KWBC 110000
SPECI
KPVD 102356Z 00000KT 3/4SM R05/6000VP6000FT -DZ BR OVC004 01/00
A3037=

0000014700
070
SACN61 CYHE 110000
METAR CYHE 110000Z AUTO 28013G18KT 240V320 4SM RA BKN035 OVC045 07/04
 A2992 RMK PCPN 1.0MM PAST HR SLP132=

0000009300
071
SAIN34 VOMM 111040 RRA
METAR VOMM 111040Z 06005KT 8000 NSC 28/18 Q1012 NOSIG=
0000045500
072
SAIN31 VABB 111040
METAR VAAH 111040Z 04008KT 3500 FU NSC 22/11 Q1015 NOSIG=
METAR VABB 111040Z 31007KT 4000 FU NSC 24/08 Q1013 NOSIG=
METAR VANP 111040Z 23005KT 5000 HZ FEW020 28/15 Q1013 NOSIG=
METAR VOHS 111040Z VRB02KT 5000 HZ SCT020 30/10 Q1014 NOSIG=
METAR VOMM 111040Z 06005KT 8000 NSC 28/18 Q1012 NOSIG=
METAR VOTR 111040Z 09007KT 7000 FEW016 29/20 Q1011 NOSIG=
METAR VOTV 111040Z 13005KT 6000 FEW020 30/23 Q1009 NOSIG=
0000010400
073
SAIN90 VEPT 111050
METAR VEPT 111050Z 10007KT 1500 FU  SCT015  BKN100 17/14 Q1015 NOSIG=
0000013600
074
SACN61 CYPQ 110000
METAR CYPQ 110000Z AUTO 15004KT 6SM BR FEW005 OVC011 01/01 A3009 RMK
 PCPN 0.5MM PAST HR SLP199=

0000011800
075
SACN61 CYKF 110000
METAR CYKF 110000Z AUTO 16008KT 3/4SM BR VV003 01/01 A3000 RMK PRESFR
 SLP175=

0000011400
076
SACN61 CYPR 110000
METAR CYPR 110000Z AUTO 09006KT 9SM SCT130 03/01 A2953 RMK PRESFR
 SLP001=

0000009000
077
SAHU31 LHBM 110000
METAR LHBP 110000Z VRB01KT CAVOK 01/M01 Q1021 NOSIG=

0000009400
078
SAMF20 TFFR 110000
METAR TFFR 110000Z AUTO 08005KT 9999 FEW033 24/19 Q1017=

0000010200
079
SANC01 NWWW 110000
METAR NWWW 110000Z AUTO 14016KT 110V170 9999 FEW052 30/14 Q1012=

0000011400
080
SAMX41 MMMX 110001
METAR MMCB 102359Z 00000KT 10SM SCT030 SCT080 25/10 A3000
      RMK 8/170=

0000015800
081
SACN61 CYAY 110000
METAR CYAY 110000Z AUTO 25018KT 1 1/2SM -SN OVC043 M09/M10 A2991 RMK
 VIS VRB 1-2 1/2 MAX WND 25019KT AT 2356Z SLP130=

0000010500
082
SACN61 CYZE 110000
METAR CYZE 110000Z AUTO 18010KT 8SM OVC009 00/M01 A2990 RMK SLP134=

0000016300
083
SACN62 CYDA 110000
METAR CYDA 110000Z 00000KT 20SM FEW100 BKN210 M24/M26 A2949 RMK
 AC2CI3 CLIMAT -20.0/-25.5/0.0 LAST OBS/NXT 111500Z SLP032=

0000013600
084
SACN62 CYBW 110000
METAR CYBW 110000Z 26009KT 30SM FEW060 FEW120 BKN200 M04/M11 A2959
 RMK SC1AC1CI4 PRESRR SLP075=

0000013400
085
SACN62 CYBD 110000
METAR CYBD 110000Z 07003KT 14SM FEW025 FEW036 OVC065 03/02 A2969 RMK
 SC1SC1SC6 PRESFR SLP055=

00000000