0000010600
206
SACN61 CYHU 110000
METAR CYHU 110000Z AUTO 02006KT 7SM OVC025 M07/M09 A3025 RMK SLP245=

0000011300
207
SACN62 CYHM 110000
METAR CYHM 110000Z 17004KT 2 1/4SM BR OVC011 01/01 A3004 RMK SC8
 SLP183=

0000012900
208
SACN62 CYKY 110000
METAR CYKY 110000Z 29010KT 15SM FEW050 FEW070 BKN240 M09/M10 A2951
 RMK SC1AC1CI3 SLP036=

0000012400
209
SAAF13 LFPW 110000
METAR GLRB 110000Z 00000KT 9000 SCT014  FEW024 CB BKN100 27/25
Q1012 RMK CB-S, BRVC=

0000014700
210
SAAF17 LFPW 110000
METAR HLLB 102345Z
00000KT 9999 SCT020 BKN080 14/11 Q1025 =
METAR HLLT 102350Z 15006KT CAVOK 10/06 Q1023=

0000015600
211
SAAF18 LFPW 110000
METAR FIMP 110000Z 10005KT 9999 SCT017 SCT250 26/24 Q1015=
METAR FMMI 110000Z VRB03KT 9999 FEW017 17/17 Q1020 NOSIG=

0000053900
212
SASP31 LEMM 110000
METAR LEMD 110000Z 03002KT CAVOK 07/04 Q1016 NOSIG=
METAR LEBL 110000Z 32008KT 5000 BR SCT025 10/06 Q1019 NOSIG=
METAR LEPA 110000Z 07002KT CAVOK 10/09 Q1017 NOSIG=
METAR LEZL 110000Z 00000KT CAVOK 09/09 Q1015 NOSIG=
METAR LEMG 110000Z 28005KT 7000 FEW020 12/10 Q1016 NOSIG=
METAR LEVC 110000Z VRB01KT 6000 BKN030 11/09 Q1018 NOSIG=
METAR LEAL 110000Z 03003KT 300V070 9000 FEW015 10/09 Q1016 NOSIG=
METAR LEIB 110000Z NIL=
METAR LEVX 110000Z VRB01KT 6000 NSC 08/08 Q1016 TEMPO 3000 BR=

0000054200
213
SASP32 LEMM 110000
METAR LEAS 110000Z NIL=
METAR LEBB 110000Z NIL=
METAR LECO 110000Z VRB01KT 7000 VCFG FEW004 06/06 Q1018=
METAR LEGE 110000Z 00000KT 6000 OVC018 08/07 Q1018=
METAR LEST 110000Z 00000KT 5000 BR NSC 06/06 Q1017 TEMPO 3000 BR=
METAR LEZG 110000Z 07001KT 1500 BR BKN004 BKN006 06/06 Q1017=
METAR LESO 110000Z NIL=
METAR LEVT 110000Z 00000KT 6000 NSC 01/M00 Q1017=
METAR LERS 110000Z NIL=
METAR LEMH 110000Z 11003KT 9999 BKN008 12/12 Q1018=
METAR LEAM 110000Z NIL=
METAR LEGR 110000Z NIL=

0000013500
214
SASP33 LEMM 110000
METAR LEVD 110000Z NIL=
METAR LEVS 110000Z NIL=
METAR LESA 110000Z 00000KT CAVOK 00/00 Q1015=

0000013100
215
SACN62 CYBR 110000
METAR CYBR 110000Z 30012KT 5SM BR SCT006 BKN014 OVC100 M10/M11 A2943
 RMK SF4SC2AC2 SLP999=

0000012700
216
SACN62 CYCG 110000
METAR CYCG 110000Z 36005KT 15SM FEW017 BKN028 OVC055 03/01 A2988 RMK
 SC1SC5SC2 SLP135=

0000009900
217
SACN62 CZBF 110000
METAR CZBF 110000Z 29002KT 15SM SKC M19/M21 A3022 RMK SLP240=

0000014200
218
SACN62 CYBL 110000
METAR CYBL 110000Z /////KT 2SM -RA BR BKN004 OVC015 05/05 A2978 RMK
 SF7SC1 CIG VRB 3-5 PRESFR SLP086=

0000011600
219
SPUS41 KWBC 110005
SPECI
KDOV 110003Z AUTO 07002KT 3/4SM R01/2000FT -RA BR VV001 04/04
A3029=

0000009800
220
SPUS42 KWBC 110005
SPECI
KHSV 110001Z 14005KT 10SM SCT024 OVC031 11/08 A2998=

0000010500
221
SPUS43 KWBC 110005
SPECI
KMKC 110001Z 26005KT 10SM FEW008 BKN014 OVC038 06/03 A2956=

0000010200
222
SPUS44 KWBC 110005
SPECI
KBLI 110001Z 14006KT 10SM -RA SCT015 OVC040 08/06 A2991=

0000013400
223
SACN62 CYQI 110000
METAR CYQI 110000Z 22010KT 10SM -RA FEW006 OVC022 02/01 A3038 RMK
 SF2NS6 PCPN VRY LGT SLP290=

0000010600
224
SACN62 CYHZ 110000
METAR CYHZ 110000Z 21014KT 15SM OVC015 M01/M03 A3034 RMK SC8 SLP285=

0000011800
225
SACN62 CYGL 110000
METAR CYGL 110000Z 20007KT 5SM -FZDZ -SN OVC003 M06/M07 A2973 RMK ST8
 SLP084=

00000000