0000003900
306
UHCM01 FKKD 110000
NIL=
0000052400
307
USAA01 NZCM 110000
TTAA 61001 89664
99997 00056 18501 00512 ///// ///// 92601 07158 18518
85255 11341 17017 70716 21114 15006 50514 33959 24513
40666 44759 24520 30855 51765 24023 25975 45585 24514
20124 43786 24513 15318 43586 26009 10592 41586 23504
88320 52361 23026
77999
31313 48008 82219=

0000069700
87361=
0000011200
87368=
0000015000
87382=
0000030600
87414=
0000011000
87481=
0000054200
87583=
0000058500
87910=
0000058600
88937=
0000077300
92653
0000003900
308
SMVC01 ESWI 110000
NIL=
0000003900
309
SMVJ01 ESWI 110000
NIL=
0000066800
310
USAA01 NZCM 110000
TTAA 61001 89664
99997 00056 18501 00512 ///// ///// 92601 07158 18518
85255 11341 17017 70716 21114 15006 50514 33959 24513
40666 44759 24520 30855 51765 24023 25975 45585 24514
20124 43786 24513 15318 43586 26009 10592 41586 23504
88320 52361 23026
77999
31313 48008 82219=

0000069700
87361=
0000011200
87368
0000009600
87371
0000035800
87378
0000037300
87381=
0000039500
87413=
0000052000
87479=
0000056300
87590
0000058400
87644=
0000060600
88269
0000056500
88535
0000062700
89026
0000068900
89628
0000071100
90322
0000075200
91285
0000071100
92686
0000073100
311
USAA01 NZCM 110000
TTAA 61001 89664
99997 00056 18501 00512 ///// ///// 92601 07158 18518
85255 11341 17017 70716 21114 15006 50514 33959 24513
40666 44759 24520 30855 51765 24023 25975 45585 24514
20124 43786 24513 15318 43586 26009 10592 41586 23504
88320 52361 23026
77999
31313 48008 82219=

0000069700
87361=
0000011200
87368
0000009600
87371
0000035800
87378
0000037300
87381
0000039400
87385
0000039400
87407=
0000012000
87430
0000054000
87439
0000049900
87460=
0000048000
87541=
0000054300
87724=
0000058600
88287
0000054400
88561
0000064800
89086
0000066900
89596
0000069000
90300
0000064900
91306
0000071100
92708
0000077200
312
USAA01 NZCM 110000
TTAA 61001 89664
99997 00056 18501 00512 ///// ///// 92601 07158 18518
85255 11341 17017 70716 21114 15006 50514 33959 24513
40666 44759 24520 30855 51765 24023 25975 45585 24514
20124 43786 24513 15318 43586 26009 10592 41586 23504
88320 52361 23026
77999
31313 48008 82219=

0000069700
87361=
0000011200
87368=
0000015000
87382
0000012800
87386
0000045600
87406=
0000047800
87429
0000015700
87445
0000049900
87465
0000054100
87473
0000050000
87488
0000052100
87521=
0000054300
87728
0000066700
87829
0000062600
88054
0000058500
88312
0000064800
88583
0000064800
89092
0000073100
89607
0000067000
90294
0000073200
91303
0000069100
92706
0000064800
313
USAA01 NZCM 110000
TTAA 61001 89664
99997 00056 18501 00512 ///// ///// 92601 07158 18518
85255 11341 17017 70716 21114 15006 50514 33959 24513
40666 44759 24520 30855 51765 24023 25975 45585 24514
20124 43786 24513 15318 43586 26009 10592 41586 23504
88320 52361 23026
77999
31313 48008 82219=

0000069700
87361=
0000011200
87368
0000009600
87371
0000035800
87378
0000037300
87381
0000039400
87385
0000039400
87407=
0000012000
87430=
0000054100
87500
0000056200
87510=
0000050200
87730=
0000056400
88303
0000060600
88577=
0000064900
91333
0000067000
92715
0000062700
314
USAA01 NZCM 110000
TTAA 61001 89664
99997 00056 18501 00512 ///// ///// 92601 07158 18518
85255 11341 17017 70716 21114 15006 50514 33959 24513
40666 44759 24520 30855 51765 24023 25975 45585 24514
20124 43786 24513 15318 43586 26009 10592 41586 23504
88320 52361 23026
77999
31313 48008 82219=

0000069700
87361=
0000011200
87368=
0000015000
87382
0000012800
87386=
0000045700
87427=
0000045900
87505
0000050000
87526
0000050100
87565
0000062500
87605=
0000062700
88083
0000060600
88349
0000064700
88601=
0000062800
91335
0000077300
92719
0000064800
315
USAA01 NZCM 110000
TTAA 61001 89664
99997 00056 18501 00512 ///// ///// 92601 07158 18518
85255 11341 17017 70716 21114 15006 50514 33959 24513
40666 44759 24520 30855 51765 24023 25975 45585 24514
20124 43786 24513 15318 43586 26009 10592 41586 23504
88320 52361 23026
77999
31313 48008 82219=

0000069700
87361=
0000011200
87368=
0000015000
87382=
0000030600
87414=
0000011000
87481
0000054100
87485
0000050000
87516
0000054200
87558
0000060400
87607
0000056300
87649=
0000070900
88219
0000060600
88473
0000064800
88707=
0000067000
91364
0000067000
92711
0000075100
316
USAA01 NZCM 110000
TTAA 61001 89664
99997 00056 18501 00512 ///// ///// 92601 07158 18518
85255 11341 17017 70716 21114 15006 50514 33959 24513
40666 44759 24520 30855 51765 24023 25975 45585 24514
20124 43786 24513 15318 43586 26009 10592 41586 23504
88320 52361 23026
77999
31313 48008 82219=

0000069700
87361=
0000011200
87368
0000009600
87371
0000035800
87378
0000037300
87381
0000039400
87385
0000039400
87407
0000041500
87411
0000014600
87417
0000045700
87421
0000049900
87440
0000052000
87462
0000050000
87472=
0000058400
87593=
0000060600
87906
0000060600
88089
0000060600
88366
0000060600
88610=
0000075200
91345
0000062900
92714
0000079200
317
USAA01 NZCM 110000
TTAA 61001 89664
99997 00056 18501 00512 ///// ///// 92601 07158 18518
85255 11341 17017 70716 21114 15006 50514 33959 24513
40666 44759 24520 30855 51765 24023 25975 45585 24514
20124 43786 24513 15318 43586 26009 10592 41586 23504
88320 52361 23026
77999
31313 48008 82219=

0000069700
87361=
0000011200
87368
0000009600
87371
0000035800
87378
0000037300
87381=
0000039500
87413=
0000052000
87479
0000056200
87492
0000045900
87517
0000054200
87560
0000060400
87620
0000064600
87679
0000048100
87790
0000050200
87984
0000058500
88157
0000060600
88415
0000062700
88650
0000060700
89015
0000064800
89535
0000071100
90239
0000064900
91239
0000058800
92643
0000073000
318
USAA01 NZCM 110000
TTAA 61001 89664
99997 00056 18501 00512 ///// ///// 92601 07158 18518
85255 11341 17017 70716 21114 15006 50514 33959 24513
40666 44759 24520 30855 51765 24023 25975 45585 24514
20124 43786 24513 15318 43586 26009 10592 41586 23504
88320 52361 23026
77999
31313 48008 82219=

0000069700
87361=
0000011200
87368
0000009600
87371
0000035800
87378
0000037300
87381=
0000039500
87413
0000041600
87422=
0000043800
87504
0000052100
87527
0000058300
87571
0000052200
87616=
0000056500
88102
0000062700
88381
0000056500
88670
0000052400
89098
0000071000
89614
0000067000
90299
0000071100
91267
0000060800
92645
0000068900
319
USAA01 NZCM 110000
TTAA 61001 89664
99997 00056 18501 00512 ///// ///// 92601 07158 18518
85255 11341 17017 70716 21114 15006 50514 33959 24513
40666 44759 24520 30855 51765 24023 25975 45585 24514
20124 43786 24513 15318 43586 26009 10592 41586 23504
88320 52361 23026
77999
31313 48008 82219=

0000069700
87361=
0000011200
87368=
0000015000
87382
0000012800
87386
0000045600
87406
0000047700
87410=
0000049900
87467
0000047900
87475=
0000048000
87589
0000058400
87664
0000058400
87798
0000060500
87971=
0000064800
89009
0000058600
89573
0000073100
90267
0000071100
91272
0000056700
92647
0000079300
320
SAEG32 HECA 110000
METAR HEAL 110000Z NIL=
METAR HEAR 110000Z 00000KT 9999 FEW025 10/09 Q1021 NOSIG=
METAR HEAX 110000Z 34007KT CAVOK 16/11 Q1023 NOSIG=
METAR HEMM 110000Z 23006KT 9999 FEW020 11/09 Q1024 NOSIG=
METAR HEPS 110000Z 28006KT 9999 FEW025 13/13 Q1022 NOSIG=
METAR HELX 110000Z 00000KT CAVOK 11/08 Q1022 NOSIG=
METAR HESN 110000Z 32005KT CAVOK 11/03 Q1022 NOSIG=
METAR HEGN 110000Z 29008KT CAVOK 13/07 Q1021 NOSIG=
METAR HESH 110000Z 34006KT CAVOK 14/05 Q1020 NOSIG=
METAR HEBA 110000Z 32005KT CAVOK 11/10 Q1024 NOSIG=
METAR HEMA 110000Z 31012KT CAVOK 16/03 Q1021 NOSIG=
METAR HETB 110000Z NIL=
METAR HESC 110000Z 28010KT 9999 SCT025 04/02 Q1023 NOSIG=
METAR HEBL 110000Z NIL=
METAR HEAT 110000Z 30002KT CAVOK 07/04 Q1024 NOSIG=
METAR HESG 110000Z NIL=
0000073000
321
USAA01 NZCM 110000
TTAA 61001 89664
99997 00056 18501 00512 ///// ///// 92601 07158 18518
85255 11341 17017 70716 21114 15006 50514 33959 24513
40666 44759 24520 30855 51765 24023 25975 45585 24514
20124 43786 24513 15318 43586 26009 10592 41586 23504
88320 52361 23026
77999
31313 48008 82219=

0000069700
87361=
0000011200
87368
0000009600
87371
0000035800
87378
0000037300
87381=
0000039500
87413
0000041600
87422
0000043700
87443=
0000052100
87539
0000048000
87564
0000056300
87614
0000046200
87684
0000060500
87780
0000066700
87972=
0000062700
89004
0000066900
89536
0000066900
90243
0000071100
91255
0000054600
92634
0000062700
322
USAA01 NZCM 110000
TTAA 61001 89664
99997 00056 18501 00512 ///// ///// 92601 07158 18518
85255 11341 17017 70716 21114 15006 50514 33959 24513
40666 44759 24520 30855 51765 24023 25975 45585 24514
20124 43786 24513 15318 43586 26009 10592 41586 23504
88320 52361 23026
77999
31313 48008 82219=

0000069700
87361=
0000011200
87368=
0000015000
87382
0000012800
87386
0000045600
87406
0000047700
87410
0000049800
87416
0000051900
87420
0000047800
87441
0000045800
87463=
0000048000
87576=
0000060500
87895=
0000017500
88927=
0000050500
92652
0000060600
323
USAA01 NZCM 110000
TTAA 61001 89664
99997 00056 18501 00512 ///// ///// 92601 07158 18518
85255 11341 17017 70716 21114 15006 50514 33959 24513
40666 44759 24520 30855 51765 24023 25975 45585 24514
20124 43786 24513 15318 43586 26009 10592 41586 23504
88320 52361 23026
77999
31313 48008 82219=

0000069700
87361=
0000011200
87368
0000009600
87371
0000035800
87378
0000037300
87381=
0000039500
87413
0000041600
87422
0000043700
87443=
0000052100
87539
0000048000
87564=
0000056400
87880=
0000062700
88916=
0000075200
92632
0000022000
324
UPSG01 GOOY 110000
PPAA 60231 61600 NIL=
PPAA 60238 61641
44385 25513 25514 24014 44340 32012 27062 28593 44320
28587 26066 25046
77248 28595 43303=
PPAA 60231 61687 NIL=
PPAA 60231 61695 NIL=
0000066800
325
USAA01 NZCM 110000
TTAA 61001 89664
99997 00056 18501 00512 ///// ///// 92601 07158 18518
85255 11341 17017 70716 21114 15006 50514 33959 24513
40666 44759 24520 30855 51765 24023 25975 45585 24514
20124 43786 24513 15318 43586 26009 10592 41586 23504
88320 52361 23026
77999
31313 48008 82219=

0000069700
87361=
0000011200
87368
0000009600
87371
0000035800
87378
0000037300
87381
0000039400
87385=
0000043700
87428=
0000047900
87503=
0000056300
87717=
0000058500
88298
0000062700
88562
0000068900
89088
0000060700
89598
0000066900
90288
0000069000
91269
0000060800
92651
00000000