0000011900
526
SACN62 CYLL 110200
METAR CYLL 110200Z 27013KT 15SM BKN070 BKN250 M06/M08 A2953 RMK
 AC5CI1 SLP041=

0000011200
527
SACN62 CYHZ 110200
METAR CYHZ 110200Z 21012G18KT 15SM OVC007 M01/M02 A3033 RMK SC8
 SLP279=

0000012300
528
SACN62 CYHM 110200
METAR CYHM 110200Z 14006KT 3SM BR BKN160 02/01 A2995 RMK AC7 VIS VRB
 2 - 4 SLP152=

0000012400
529
SACN62 CYKA 110200
METAR CYKA 110200Z 10004KT 30SM BKN049 OVC075 00/M02 A2980 RMK SC6AC2
 VIRGA SLP109=

0000010200
530
SACN62 CYGR 110200
METAR CYGR 110200Z 24010G16KT 15SM SKC M04/M07 A3024 RMK SLP240=

0000011700
531
SACN62 CYMA 110200
METAR CYMA 110200Z 33004KT 280V340 20SM BKN040 M19/M22 A2939 RMK SC5
 SLP007=

0000010900
532
SASW32 LSSW 110150 RRA
METAR LSZL 110150Z AUTO 00000KT 9999NDV OVC046 06/05 Q1022 RMK WHT=

0000009800
533
SANL33 EHDB 110155 RRA
METAR EHJR 110155Z AUTO 22031G35KT  09/07 Q1010 W10/H20=

0000010200
534
SANL33 EHDB 110155 RRB
METAR EHSC 110155Z AUTO 23026G29KT 8000 06/06 Q1013 W08/H14=

0000010200
535
SANL33 EHDB 110155 RRC
METAR EHSA 110155Z AUTO 21025G29KT 9999 07/06 Q1013 W09/H17=

0000021100
536
FTCA33 KWBC 110206
TAF
TGPY 110200Z 1106/1206 09010KT 9999 SCT020
     FM111200Z 11014KT 9999 FEW020
      BECMG 1122/1124 08008KT FEW018 PROB30
      TEMPO 1200/1206 6000 SHRA SCT017=

0000025000
537
FTCA32 KWBC 110206
TAF
TAF TAPA 110200Z 1106/1206 08012KT 9999 SCT019 PROB40
      TEMPO 1114/1121 SHRA BKN015KT=
TAF AMD TKPN 110200Z 1100/1112 CNL=
TAF AMD TQPF 110200Z 1100/1112 CNL=
TAF AMD TUPJ 110200Z 1100/1112 CNL=

0000012500
538
FTUS42 KWBC 110206 AAA
TAF AMD
KMAF 110204Z 1102/1124 25014KT P6SM SKC
     FM110400 28008KT P6SM SKC=

0000031900
539
FTUS43 KWBC 110206 AAA
TAF AMD
KMDW 110203Z 1102/1124 18010G18KT 5SM -RA BR OVC006
     FM110500 19012G18KT 1SM -DZ BR VCSH OVC004
     FM110800 22012KT 3SM BR VCSH OVC004
     FM111200 26012G18KT P6SM VCSH OVC012
     FM111500 28014G22KT P6SM BKN018
     FM112100 27014G22KT P6SM SCT020=

0000059000
540
FTUS31 KWBC 110206 AAA
TAF AMD
KIND 110203Z 1102/1206 15007KT 1 1/2SM -RA BR OVC004
      TEMPO 1102/1103 1/4SM FG VV002
     FM110900 21012KT 2SM -RA BR OVC006
     FM111400 25014G22KT 6SM -RA BR SCT007 OVC010
     FM111800 25014G24KT P6SM BKN025
     FM120000 27012KT P6SM BKN025=
KORD 110203Z 1102/1206 18010G18KT 6SM -RA BR OVC007
     FM110500 19012G18KT 1SM -DZ BR VCSH OVC004
     FM110800 22012KT 3SM BR VCSH OVC004
     FM111200 26012G18KT P6SM VCSH BKN007 OVC012
     FM111500 28014G22KT P6SM BKN018
     FM112100 27014G22KT P6SM SCT020=

0000066400
541
FTUS72 KWBC 110206 AAA
TAF AMD
KHOT 110204Z 1102/1124 20008KT 5SM BR VCTS SCT007 OVC015CB
      WS020/22038KT
      TEMPO 1102/1105 3SM TSRA BR OVC007CB
     FM110600 26008KT P6SM OVC025
     FM110900 30005KT P6SM SCT100
     FM111500 29010KT P6SM SKC=
KHRO 110202Z 1102/1124 24012KT P6SM VCTS SCT020CB OVC070
      TEMPO 1102/1104 24012G30KT 2SM TSRA BR OVC020CB
     FM110400 27010KT P6SM SCT025 BKN250
      TEMPO 1110/1114 BKN025
     FM111500 27010G18KT P6SM SCT250=
KINK 110203Z 1102/1124 26014KT P6SM SKC
     FM110400 28008KT P6SM SKC=
KMAF 110204Z 1102/1124 25014KT P6SM SKC
     FM110400 28008KT P6SM SKC=

0000009000
542
SPUS43 KWBC 110155
SPECI
KMKC 110151Z 30007KT 9SM OVC011 04/02 A2958=

0000068200
543
FTUS71 KWBC 110206 AAA
TAF AMD
KDUJ 110204Z 1102/1124 12005KT P6SM BKN040
     FM110800 16011KT 5SM -RA OVC007 WS020/22045KT
     FM111300 19012KT 2SM -RA OVC005 WS020/22045KT
     FM112200 23012G24KT P6SM BKN015 OVC025=
KLBE 110202Z 1102/1124 17005KT P6SM BKN040
     FM110800 17006KT P6SM BKN015 OVC025 WS020/22045KT
     FM111300 18010KT 4SM -RA OVC009 WS020/22050KT
     FM112300 23012G24KT P6SM BKN015 OVC025 AMD NOT SKED
      1103/1111=
KZZV 110203Z 1102/1124 12005KT P6SM BKN040
     FM110500 13006KT P6SM BKN015 OVC025 WS020/22045KT
     FM110900 18010KT 4SM -RA OVC009 WS020/22050KT
     FM111900 23012G24KT P6SM BKN015 OVC025=

0000150300
544
FTUS73 KWBC 110206 AAA
TAF AMD
KCGI 110205Z 1102/1124 14008KT 4SM RA BR FEW030 OVC070
      TEMPO 1102/1104 6SM BR OVC025
     FM110400 18012G18KT 3SM SHRA BR OVC015
     FM110700 24012KT P6SM BKN025
     FM111200 27010KT P6SM SCT040=
KGYY 110203Z 1102/1124 17013G22KT 5SM -RA BR OVC006
     FM110500 19012KT 1SM -DZ BR VCSH OVC005
     FM110800 22012KT 3SM BR VCSH OVC005
     FM111200 26012G18KT P6SM VCSH BKN007 OVC012
     FM112200 26013G20KT P6SM SCT020=
KIND 110203Z 1102/1206 15007KT 1 1/2SM -RA BR OVC004
      TEMPO 1102/1103 1/4SM FG VV002
     FM110900 21012KT 2SM -RA BR OVC006
     FM111400 25014G22KT 6SM -RA BR SCT007 OVC010
     FM111800 25014G24KT P6SM BKN025
     FM120000 27012KT P6SM BKN025=
KMDW 110203Z 1102/1124 18010G18KT 5SM -RA BR OVC006
     FM110500 19012G18KT 1SM -DZ BR VCSH OVC004
     FM110800 22012KT 3SM BR VCSH OVC004
     FM111200 26012G18KT P6SM VCSH OVC012
     FM111500 28014G22KT P6SM BKN018
     FM112100 27014G22KT P6SM SCT020=
KORD 110203Z 1102/1206 18010G18KT 6SM -RA BR OVC007
     FM110500 19012G18KT 1SM -DZ BR VCSH OVC004
     FM110800 22012KT 3SM BR VCSH OVC004
     FM111200 26012G18KT P6SM VCSH BKN007 OVC012
     FM111500 28014G22KT P6SM BKN018
     FM112100 27014G22KT P6SM SCT020=
KRFD 110203Z 1102/1124 16012G18KT 6SM -RA BR OVC006
     FM110300 19012KT 3/4SM -DZ BR VCSH OVC004
     FM110900 26012G18KT P6SM VCSH BKN007 OVC012
     FM111700 27013G21KT P6SM SCT015=

0000083900
545
SACA32 KWBC 110200
METAR
MDLR NIL=
MDPC 110200Z 10015KT 9999 FEW020 25/21 Q1019=
MDPP NIL=
MDSD 110200Z 03005KT 9999 FEW018 22/20 Q1018=
MDST 110200Z 13006KT 9999 BKN016 22/21 Q1020=
MTCH NIL=
MTPP NIL=
TAPA 110200Z 08011KT 9999 SCT019 25/20 Q1018 NOSIG=
TIST 110153Z AUTO 08008KT 10SM CLR 24/18 A3010 RMK AO2 SLP192
     T02440183 TSNO=
TISX 110153Z AUTO 06007KT 10SM CLR 23/19 A3010 RMK AO2 RAB06E19
     SLP190 P0000 T02330189 TSNO=
TJBQ NIL=
TJMZ NIL=
TJNR 110153Z AUTO 06007G14KT 10SM FEW070 26/18 A3013 RMK AO2
     SLP203 T02560178 TSNO=
TJPS 110150Z 11005KT 8SM FEW030 24/19 A3008=
TJSJ 110156Z 08012KT 10SM FEW035 SCT045 26/18 A3011 RMK AO2 SLP196
     T02560183 ?=
TKPK 110200Z 07015KT 9999 SCT020 25/19 Q1018=
TKPN NIL=
TQPF NIL=
TRPM NIL=
TUPJ NIL=
TUPW NIL=

00000000