0000011300
046
SAID31 WIII 110000
METAR WIII 110000Z 18004KT 6000 FEW020CB FEW022 27/24 Q1010 RMK CB TO
NW=

0000046700
047
SARH31 LDZM 110000
METAR LDSP 110000Z 33004KT 290V350 9999 FEW020 BKN037 11/10 Q1023 =
METAR LDPL 110000Z 07004KT 9999 FEW042 BKN058 10/09 Q1021 =
METAR LDDU 110000Z 02008KT 340V050 CAVOK 12/07 Q1022 =
METAR LDZA 110000Z 00000KT 0800 R05/P2000N R23/1100VP2000U FG FEW003
SCT042 04/04 Q1021 TEMPO 0400 =
METAR LDZD 110000Z 14005KT 9999 OVC060 09/09 Q1022 =
METAR LDRI 110000Z NIL=
METAR LDOS 110000Z 15005KT 4000 BR SCT040 04/04 Q1022=

0000009200
048
SARM31 LUKK 110000
METAR LUBL 110000Z AUTO 25011KT 9999 NCD 02/M02 Q1014=

0000014100
049
SAVN27 SVBM 110000
METAR SVBM 110000Z 07006KT 9999 FEW016 23/19 Q1016=
METAR SVBI 110000Z NIL=
METAR SVVL 110000Z NIL=

0000011000
050
SAMR20 TFFF 110000
METAR TFFF 110000Z AUTO 05008KT 9999 FEW032 BKN046 BKN056 25/20
Q1016=

0000011000
051
SASR31 WSSL 110000
METAR WSSL 110000Z 34005KT 310V010 CAVOK 25/24 Q1011 RMK 2330Z Q1011
=

0000010600
052
SACN61 CYBC 110000
METAR CYBC 110000Z AUTO 26010KT 9SM BKN015 M09/M11 A3013 RMK SLP204=

0000011700
053
SABZ24 SBPA 110000
METAR SBPA 110000Z 01009KT 8000 -RA SCT011 SCT040
OVC100 22/21 Q1012 
RETS=

0000009500
054
SAQB31 LQBK 110000
METAR LQBK 110000Z 18002KT 0600 FG NSC 05/05 Q1021 NOSIG=

0000009800
055
SABZ18 SBKP 110000
METAR SBKP 110000Z 13011KT 9999 VCTS FEW045CB 25/18
Q1015=

0000021100
056
SABU31 LBSM 110000
METAR LBSF 110000Z 34003MPS 1800 BR NSC M02/M02 Q1022 NOSIG=
METAR LBWN 110000Z 30004MPS CAVOK 06/03 Q1019 NOSIG=
METAR LBBG 110000Z 25003MPS 9000 NSC 03/02 Q1019 NOSIG=

0000009900
057
SASR31 WSAP 110000
METAR WSAP 110000Z 36004KT 9999 
FEW018 BKN300 25/22 Q1011=

0000015300
058
SABU32 LBSM 110000
METAR LBPD 110000Z 29005MPS 260V320 CAVOK 09/03 Q1020 NOSIG=
METAR LBGO 110000Z VRB02MPS CAVOK 05/01 Q1022 NOSIG=

0000007700
059
FTDL33 EDZO 102300 RRA
TAF AMD EDSB 102359Z 1100/1118 CNL=

0000007700
060
FTDL34 EDZO 102300 RRA
TAF AMD EDSB 102359Z 1100/1118 CNL=

0000021500
061
SASQ31 LZIB 110000
METAR LZIB 110000Z 23002KT CAVOK 02/00 Q1020=
METAR LZKZ 110000Z VRB01KT 0200 R01/0400N FG SCT001 M01/M01 Q1018=
METAR LZTT 110000Z 29013KT 250V310 9999 FEW046 01/M06 Q1016=

0000017100
062
SASQ41 LZIB 110000
METAR LZPP 110000Z NIL=
METAR LZSL 110000Z 24006KT 9999 SCT050 01/M03 Q1018=
METAR LZZI 110000Z 32004KT 9999 BKN056 03/M01 Q1019=

0000008300
063
SABZ19 SBMA 110000
METAR SBMA 110000Z 03004KT CAVOK 25/24 Q1011=

0000008900
064
SAJM31 MKJP 110000
METAR MKJP 110000Z 13014KT 9999 FEW022 28/21 Q1015=

0000008900
065
SABZ19 SBMQ 110000
METAR SBMQ 110000Z 02003KT 9999 BKN025 26/23 Q1011=

00000000