0000015700
126
SSVX13 LFPW 110900
ZZYY 64664 11014 0900/ 767998 016186 6113/ 11119 40050 52002 22219
 00015 444 20130 11014 0900/ 50101 80148 80008 9/015=
0000015700
127
SSVX13 LFPW 110900
ZZYY 16620 11014 0900/ 337143 122812 6113/ 11119 40227 57012 22219
 00197 444 20130 11014 0900/ 50101 80110 80006 9/015=
0000015700
128
SSVX13 LFPW 110900
ZZYY 64614 11014 0900/ 761991 018149 6113/ 11119 40025 52028 22219
 00087 444 20130 11014 0900/ 50101 80142 80008 9/015=
0000015700
129
SSVX13 LFPW 110900
ZZYY 16535 11014 0900/ 325098 049553 6113/ 11119 40152 57006 22219
 00279 444 20130 11014 0900/ 50101 80124 80005 9/015=
0000015700
130
SSVX13 LFPW 110900
ZZYY 14516 11014 0900/ 332222 055034 6113/ 11119 40179 57006 22219
 00206 444 20130 11014 0900/ 50101 80146 80023 9/015=
0000015700
131
SSVX13 LFPW 110900
ZZYY 16546 11014 0900/ 338798 066995 6113/ 11119 40250 57006 22219
 00161 444 20130 11014 0900/ 50101 80146 80019 9/015=
0000015700
132
SSVX13 LFPW 110900
ZZYY 14511 11014 0900/ 331664 088950 6113/ 11119 40219 57007 22219
 00215 444 20130 11014 0900/ 50101 80080 80003 9/015=
0000015700
133
SSVX13 LFPW 110900
ZZYY 16549 11014 0900/ 346082 063996 6113/ 11119 40151 57006 22219
 00068 444 20130 11014 0900/ 50101 80148 80015 9/015=
0000015700
134
SSVX13 LFPW 110900
ZZYY 13666 11014 0900/ 714654 048086 6113/ 11119 40153 52002 22219
 00257 444 20130 11014 0900/ 50101 80144 80003 9/015=
0000015700
135
SSVX13 LFPW 110900
ZZYY 64521 11014 0900/ 175059 004007 6113/ 11119 40157 52009 22219
 00007 444 20130 11014 0900/ 50101 80138 80021 9/015=
0000015700
136
SSVX13 LFPW 110900
ZZYY 33701 11014 0900/ 545170 048276 6113/ 11119 40020 52008 22219
 00137 444 20130 11014 0900/ 50101 80140 80011 9/015=
0000015700
137
SSVX13 LFPW 110900
ZZYY 44607 11014 0900/ 746971 014428 6113/ 11119 40135 57014 22219
 00125 444 20130 11014 0900/ 50101 80142 80008 9/015=
0000015700
138
SSVX13 LFPW 110900
ZZYY 41706 11014 0900/ 715738 052428 6113/ 11119 40159 52002 22219
 00259 444 20130 11014 0900/ 50101 80144 80024 9/015=
0000015700
139
SSVX13 LFPW 110900
ZZYY 44764 11014 0900/ 744126 039331 6113/ 11119 40143 52020 22219
 00127 444 20130 11014 0900/ 50101 80140 80003 9/015=
0000209800
140
SIRO21 YRBK 110900
AAXX 11091
15015 22598 72503 10016 21023 39614 42814 52015 83508 333 60007 91007
91107
92600=
15020 22597 52101 10067 21012 30002 40202 51015 85800 333 60007 91002
91102=
15090 22997 52901 10066 21006 30115 40209 51016 82046 333 55310 0////
20861
30213 60007 91002 91102=
15108 21/91 92724 11078 21078 38044 48480 52018 74944 333 60007 91034
92722=
15120 22598 62901 10025 21007 39729 40238 51007 86800 333 55300 00168
20295
30289 60007 91002 91103=
15150 22997 00301 10050 20035 39995 40212 51010 333 60007 91001
91101=
15170 22598 72403 10022 21018 39434 42821 50008 87300 333 60007 91005
91106=
15200 22997 81202 10040 20033 30093 40241 51007 8807/ 333 60007 91002
91103=
15230 22598 60700 10025 20014 39954 40256 51005 86400 333 55301 00117
20393
30346 60007 91001 91101=
15260 22999 33301 10031 21016 39699 40247 52006 81041 333 60007 91002
91102
95000=
15280 21093 82720 11117 21139 37474 47010 52008 74141 885// 333 60007
91028=
15292 22598 41702 10031 20022 39947 40249 50004 84500 333 60007 91003
91103
95000=
15310 21995 11803 10035 20008 30140 40228 51013 71000 81030 333 55310
00512
20875 30775 60007 91005 91105=
15335 22997 02402 10102 21004 30216 40222 51010 333 60007 91004
91104=
15346 22997 11802 10031 21022 39947 40244 52010 80001 333 60007 91002
91102
95090=
15350 22997 22803 10088 21025 30106 40227 51011 80001 333 60007 91004
91105=
15360 22997 02406 10071 20071 30204 40218 51014 333 60007 91007 91107
92427=
15410 22997 01202 10047 20017 30145 40243 51007 333 60007 91002
91103=
15420 22997 12402 10035 21013 30122 40236 51013 80001 333 55310 0////
20838
3//// 60007 91003 91103=
15450 22997 31803 10063 20017 30001 40240 51009 81041 333 55310 00353
20910
30138 60007 91004 91104=
15460 22997 22504 10049 20024 30208 40233 51007 80001 333 60007 91008
91108=
15470 22997 22604 10037 20026 30111 40240 52010 80002 333 60007 91005
91105=
15480 21996 32702 10050 20023 30212 40230 51011 71011 80001 333 60007
91005
91105 92426=
0000011100
141
UANT01 CWAO 110905
ARP UPS218 5106N02648W 0905 F300 MS54 185/84 KT
N360UP QXT IGW 110905 F26A
0000098900
142
SAAU31 AMMC 110900
METAR YBAS 110900Z AUTO 14015KT 9999 // NCD 38/02 Q1010=
METAR YBBN 110900Z 07007KT 9999 SCT035 25/17 Q1016
     NOSIG=
METAR YBCS 110900Z 19010KT 8000 -SHRA SCT020 BKN035 25/23 Q1010=
METAR YBTL 110900Z 09012KT 9999 FEW025 SCT180 28/21 Q1010=
METAR YMML 110900Z 17011KT 9999 FEW024 18/12 Q1020
     FM1100 19009KT 9000 -DZ HZ BKN012=
METAR YPAD 110900Z 14015KT 9999 FEW035 23/11 Q1018
     FM1000 MOD TURB BLW 3000FT=
METAR YPCC 110900Z 14012KT 9999 FEW025 BKN038 29/23 Q1008=
METAR YPDN 110900Z 28007KT 9999 FEW025 OVC350 29/25 Q1004
     NOSIG=
METAR YPKU 110900Z AUTO 35005KT 9999 // NCD 30/24 Q1004=
METAR YPLM 110900Z AUTO 27011KT 9999 // NCD 40/17 Q1005=
METAR YPPH 110900Z 17011KT CAVOK 43/05 Q1009
     NOSIG=
METAR YPTN 110900Z AUTO 20009KT 5000 // SCT049 BKN063 BKN090 28/23 Q1006=
METAR YPXM 110900Z AUTO 09005KT 9999 // BKN020 OVC025 27/22 Q1009=
METAR YSSY 110900Z 04017KT CAVOK 25/18 Q1015
     NOSIG=
0000037500
143
SXXX32 EUMS 110900
12FD90D0
:PRS 1 /1 1488 1496 1479 1479 1480 1491 1480 1485 1475 1475 1476 1478 :RAD 1 /3 6040 6040 6039 6035 6023 6004 5991 5991 5994 5992 :ENC 3 /6 5776 5775 5756 5723 5730 5729 5754 5733 5726 5719 :RA2 3 /6 4935 4935 4911 4882 4888 4889 4913 4889 4884 4869 :SW1 60 /60 60 :SW2 30 /60 60 :BAT 5 /6 13.2 :WTP 5 /6 28.5 28.5 :NAME 12FD90D0
0000041300
144
SXXX32 EUMS 110900 RRA
262D700E
:PRS 1 /1 1911 1911 1890 1854 1846 1895 1877 1859 1887 1896 1927 1880 1914 1875 1863 1873 1824 1841 1865 1924 1922 1925 1890 1909 1829 1817 1813 1883 1871 1901 :RAD 1 /3 4327 4327 4333 4324 4322 4336 4340 4325 4327 4346 4340 4325 4339 4360 4352 :ENC 5 /5 4428 4435 4422 4454 4405 4468 4410 4464 4446 4443 4486 4471 :SW1 60 /60 60 :BAT 14 /15 13.5 :NAME 262D700E /
0000045700
145
SXXX32 EUMS 110900 RRB
324DF524
:PRS 1 /1 2990 2996 3003 3010 3017 3024 3031 3038 3045 3052 3059 3067 3074 3081 3089 3096 3103 3111 3118 3126 3133 3141 3148 3155 3163 3170 3177 3185 3192 3199 :RAD 1 /3 3046 3067 3088 3110 3131 3155 3177 3201 3223 3245 3267 3291 3313 3336 3358 3380 3403 3425 3446 3468 :ENC 5 /5 1989 2026 2063 2100 2137 2174 2209 2244 2280 2317 2355 2393 :SW1 60 /60 0 0 :SW2 30 /60 60 60 :BAT 14 /15 12.6 :NAME 324DF524 /
00000000