0000011000
586
UANT99 KDDL 111053
ARP UAL37 5402N01911W 1053 F360 MS66 223/84 KT
N21108 DDL IG1 111053 F49A
0000011000
587
UANT99 KDDL 111053
ARP DLH543 4438N01840W 1053 F370 MS64 224/84 KT
DAIHL QXT AOE 111053 J15A
0000011100
588
UANT99 KDDL 111053
ARP RCH944 4900N01949W 1053 F330 MS58 202/82 KT
00221A DDL XXN 111053 F78A
0000066100
589
UDAF01 FAPR 111053
AMDAR 1110
ASC AFZA63 2544S 02847E 111009 F161 MS030 183/000 TB0 S031 333 F/// VG000=
ASC AFZA63 2539S 02856E 111011 F180 MS070 275/007 TB0 S031 333 F/// VG000=
LVR AFZA63 2507S 02940E 111018 F283 MS267 285/033 TB0 S031 333 F/// VG000=
LVR AFZA63 2427S 03026E 111025 F362 MS449 289/025 TB0 S031 333 F/// VG000=
LVR AFZA63 2348S 03110E 111032 F370 MS480 284/016 TB0 S031 333 F/// VG000=
LVR AFZA63 2307S 03151E 111039 F370 MS480 285/006 TB0 S031 333 F/// VG000=
LVR AFZA63 2224S 03229E 111046 F370 MS477 187/003 TB0 S031 333 F/// VG000=
LVR AFZA63 2141S 03307E 111053 F370 MS477 206/006 TB0 S031 333 F/// VG000=
0000066100
590
UDAF01 FAPR 111050
AMDAR 1110
LVR AFZA01 1504S 01905E 110959 F400 MS565 081/018 TB0 S031 333 F/// VG000=
LVR AFZA01 1429S 01819E 111006 F400 MS567 095/014 TB0 S031 333 F/// VG000=
LVR AFZA01 1346S 01741E 111013 F400 MS565 107/021 TB0 S031 333 F/// VG000=
LVR AFZA01 1303S 01704E 111020 F400 MS569 107/015 TB0 S031 333 F/// VG000=
LVR AFZA01 1219S 01626E 111027 F400 MS575 099/019 TB0 S031 333 F/// VG000=
LVR AFZA01 1138S 01546E 111034 F400 MS570 106/026 TB0 S031 333 F/// VG000=
LVR AFZA01 1052S 01510E 111041 F400 MS569 103/036 TB0 S031 333 F/// VG000=
LVR AFZA01 1008S 01434E 111048 F303 MS310 095/016 TB0 S031 333 F/// VG000=
0000049400
591
SNVD15 KWNB 111100 RRA
BBXX
44100 11111 99363 70756 46/// ///// 1//// 91034 22200 00088 10804
20804 312// 41101 70022=
44095 11111 99358 70753 46/// ///// 1//// 91047 22200 00133 10806
20806 311// 41101 70028=
41115 11111 99184 70673 46/// ///// 1//// 91041 22200 10802 20802
301// 41401 70010=
41113 11111 99284 70805 46/// ///// 1//// 91040 22200 00180 10902
20902 70010=
41002 11111 99319 70748 46/// ///// 10231 40201 56015 91050 22200
00239 10805 70025=
0000059300
592
SNVD22 KWNB 111100 RRC
BBXX
46215 11111 99352 71209 46/// ///// 1//// 91035 22200 00129 11404
21002 327// 41404 70022=
46219 11111 99332 71199 46/// ///// 1//// 91040 22200 00142 11305
21003 330// 41304 70025=
46014 11111 99394 71240 46/// /1605 10106 40217 56005 91050 22200
00112 333 91207 555 11049 22052 31046 41507 61049 160045 194029
190031 189032 184033 174031=
46011 11111 99350 71210 46/// /3106 10140 40215 56003 91050 22200
00141 11405 20502 331// 41405 70025 333 91207 555 11065 22069
31047 43107 61049 314060 314056 319052 326049 327051 329054=
0000013400
593
SNVD19 KWNB 111100
BBXX
46070 11111 99551 11753 46/// ///// 10026 21002 49791 53008 91050
22200 00037 11108 70042=
0000072200
594
SNVD17 KWNB 111100
BBXX
52211 11111 99153 11457 46/// ///// 1//// 91048 22200 00281 10806
20806 304// 41102 70030=
51206 11111 99198 71550 46/// ///// 1//// 91033 22200 00248 11105
20904 311// 41103 70023=
46114 11111 99367 71223 46/// ///// 1//// 91038 22200 00125 11306
21003 330// 41306 70031=
46084 11111 99566 71361 46/// /3509 10045 20008 49865 56009 91050
22200 00071 11104 20702 300// 41104 70022 333 91211 555 11095
22100 31039 43611 61049 349091 351090 355083 357084 358083 004087
83510 91033=
46002 11111 99426 71305 46/// /2614 10124 40086 52004 91050 22200
00121 11011 21011 70055 333 91218 555 11155 22166 30957 42620
61049 256146 254149 254144 260141 259138 257148=
0000014600
595
SIVD20 KWNB 110900 RRV
BBXX
44040 11091 99410 70736 46/// /0505 10028 20028 90919 22200 1//00
70002 333 91206 555 11062 22072=
0000041900
596
SNVE15 KWNB 111100
BBXX
51208 11111 99223 71596 46/// ///// 1//// 91037 22200 00243 11107
21005 334// 41104 70036=
51207 11111 99215 71578 46/// ///// 1//// 91041 22200 00243 11105
21004 335// 41102 70024=
51203 11111 99208 71570 46/// ///// 1//// 91040 22200 00254 11301
21001 329// 41301 70007=
51202 11111 99214 71577 46/// ///// 1//// 91037 22200 00246 11105
21004 303// 41102 70024=
0000028800
597
SAMX31 KWBC 110045 RRA
METAR
MMCZ 110044Z 13003KT 7SM SCT015TCU 21/21 A2998 RMK 8/200=
MMMD 110047Z 10006KT 7SM FEW030 25/20 A2992 RMK 8/400=
MMTP 110052Z 00000KT 10SM SCT250 28/22 A2985 RMK 8/002=
MMUN 110051Z 13007KT 7SM SCT015 25/22 A2998 RMK 8/500 ISOL TCU=

0000051600
598
SAFI32 EFHK 110050
METAR EFHA 110050Z AUTO 35008KT 9999 OVC010 M06/M07
 Q0996=
EFHF 110050Z AUTO 33014KT 290V360 9999 -SG OVC011 M02/M04 Q0995=
METAR EFKA 110050Z AUTO 04009KT 9999 -SG OVC015 
M07/M09 Q1000=
EFKK 110050Z AUTO 04009KT 9999 -SG BKN034 OVC040 M09/M11 Q1002=
EFMA 110050Z AUTO 34005KT 320V020 9999 -SN OVC015 M01/M01 Q0999=
METAR EFPO 110050Z AUTO 02006KT 340V060 9999 OVC008/// M04/M05 Q0998 
R12/29//95=
EFSI 110050Z AUTO 02006KT 340V050 9999 OVC010 M07/M08 Q0999=

0000058200
599
SASN34 ESWI 110050
METAR ESCF 110050Z AUTO 14004KT 9999NDV OVC015/// M02/M02 Q1000=
METAR ESDF 110050Z AUTO 24004KT 190V260 9999NDV SCT006/// BKN015/// 
BKN023/// OVC031/// 04/03 Q1005=
METAR ESIB 110050Z AUTO 24014KT 9999NDV FEW020/// BKN170/// 05/03 
Q0999=
METAR ESMV 110050Z NIL=
METAR ESPA 110050Z AUTO 02009KT 360V060 9999NDV -SG SCT049/// 
BKN100/// M14/M16 Q1009=
METAR ESPE 110050Z AUTO 36006KT 330V040 9999NDV OVC043/// M15/M18 
Q1010=
METAR ESSL 110050Z AUTO 13005KT 9999NDV SCT016/// BKN020///
OVC028/// M02/M03 Q1001 R29/19//95=

0000042300
600
SASN35 ESWI 110050
METAR ESGR 110050Z NIL=
METAR ESKM 110050Z NIL=
METAR ESNL 110050Z AUTO 35007KT 330V030 9999NDV IC FEW022///
SCT026/// OVC036/// M13/M17 Q1006=
METAR ESNX 110050Z AUTO 02010KT 5000NDV -SN ///025 M15/M18 Q1006=
METAR ESNY 110050Z NIL=
METAR ESSF 110050Z NIL=
METAR ESSK 110050Z NIL=
METAR ESUD 110050Z AUTO 36004KT 8000 -SN FEW006/// SCT009///
OVC028/// M14/M17 Q1006=

0000052600
601
FTUS73 KWBC 110054 AAA
TAF AMD
KMKC 110051Z 1101/1124 27004KT P6SM FEW009 OVC014
     FM110600 27006KT 4SM BR VCSH OVC008
     FM110900 26010KT P6SM SCT150=
KSLN 110051Z 1101/1124 29011KT P6SM OVC025
      TEMPO 1101/1104 6SM -RASN SCT008 OVC015
     FM110400 30008KT P6SM SCT025 BKN100
     FM110500 30007KT P6SM SCT250
     FM111600 31015G22KT P6SM SKC=
KSTJ 110051Z 1101/1124 30008KT 5SM BR SCT004 SCT009 OVC030
     FM110400 27006KT 4SM BR OVC006
     FM110800 26010KT P6SM SCT150=

0000018100
602
FTUS43 KWBC 110054 AAA
TAF AMD
KMKC 110051Z 1101/1124 27004KT P6SM FEW009 OVC014
     FM110600 27006KT 4SM BR VCSH OVC008
     FM110900 26010KT P6SM SCT150=

0000011600
603
SPCN44 CWAO 110053
SPECI CYMJ 110053Z 30004KT 8SM -SHSN OVC075 RMK AC8 LAST OBS/NXT
121800 UTC=

0000010900
604
SAUS75 KWBC 110000 RRF
METAR
PAPG 110046Z 12003KT 10SM FEW016 BKN038 OVC042 02/00 A2948=

0000009500
605
SAIS32 LLBG 110050
METAR LLBG 110050Z 13004KT 9999 BKN045 12/10 Q1021 NOSIG=

00000000