0000377200
906
WWUS75 KCYS 111044
NPWCYS
URGENT - WEATHER MESSAGE
NATIONAL WEATHER SERVICE CHEYENNE WY
344 AM MST SAT JAN 11 2014
...VERY STRONG WINDS FOR PORTIONS OF SOUTHEAST WYOMING THIS
WEEKEND...
.STRONG WEST WINDS WILL CONTINUE OVER MOST AREAS IN AND AROUND
THE SOUTHEAST WYOMING MOUNTAINS TODAY. STRONG WINDS ARE EXPECTED
TO SPREAD INTO LOWER ELEVATIONS THIS EVENING AS A STRONG COLD
FRONT PUSHES ACROSS SOUTHEAST WYOMING. STRONG WINDS MAY SPREAD
INTO THE PLAINS BY SUNDAY AFTERNOON.
WYZ101-104-105-107-109-112300-
/O.CAN.KCYS.HW.W.0004.000000T0000Z-140112T0400Z/
/O.NEW.KCYS.HW.W.0005.140112T0000Z-140112T1300Z/
CONVERSE COUNTY LOWER ELEVATIONS-FERRIS/SEMINOE/SHIRLEY MOUNTAINS-
SHIRLEY BASIN-EAST PLATTE COUNTY-CENTRAL CARBON COUNTY-
INCLUDING THE CITIES OF...DOUGLAS...GLENROCK...MUDDY GAP...
MEDICINE BOW...GLENDO...WHEATLAND...CHUGWATER...GUERNSEY...
RAWLINS...SINCLAIR...HANNA
344 AM MST SAT JAN 11 2014
...HIGH WIND WARNING IN EFFECT FROM 5 PM THIS AFTERNOON TO 6 AM
MST SUNDAY...
THE NATIONAL WEATHER SERVICE IN CHEYENNE HAS ISSUED A HIGH WIND
WARNING...WHICH IS IN EFFECT FROM 5 PM THIS AFTERNOON TO 6 AM MST
SUNDAY.
* TIMING...STRONG WINDS ARE EXPECTED TO DEVELOP THIS EVENING WITH
  STRONG WINDS CONTINUING INTO LATE TONIGHT.
* WINDS...WESTERLY WINDS OF 35 TO 45 MPH WITH GUSTS TO 60 MPH.
* IMPACTS...MAINLY TO TRANSPORTATION. STRONG WINDS AND FREQUENT
  GUSTS POSE A SIGNIFICANT BLOW OVER RISK FOR HIGH PROFILE AND
  LIGHT WEIGHT VEHICLES. MOTORIST SHOULD SLOW DOWN AND USE
  EXTREME CAUTION WHEN ENCOUNTERING STRONG WINDS.
PRECAUTIONARY/PREPAREDNESS ACTIONS...
A HIGH WIND WARNING MEANS A HAZARDOUS HIGH WIND EVENT IS EXPECTED
OR OCCURRING. SUSTAINED WIND SPEEDS OF AT LEAST 40 MPH OR GUSTS
OF 58 MPH OR MORE CAN LEAD TO PROPERTY DAMAGE. THE LATEST ROAD
CONDITIONS PROVIDED BY THE WYOMING DEPARTMENT OF TRANSPORTATION
AND NEBRASKA DEPARTMENT OF ROADS ARE AVAILABLE BY CALLING
5 1 1 OR ON THE INTERNET.
&&
$$
WYZ118-111145-
/O.CAN.KCYS.HW.W.0004.000000T0000Z-140112T0400Z/
CENTRAL LARAMIE COUNTY-
INCLUDING THE CITY OF...CHEYENNE
344 AM MST SAT JAN 11 2014
...HIGH WIND WARNING IS CANCELLED...
THE NATIONAL WEATHER SERVICE IN CHEYENNE HAS CANCELLED THE HIGH
WIND WARNING.
WINDS WILL BE GUSTY TODAY BUT ARE NO LONGER EXPECTED TO REACH HIGH
WIND WARNING SPEEDS.
$$
WYZ106-110-116-117-112300-
/O.CON.KCYS.HW.W.0004.000000T0000Z-140112T1300Z/
CENTRAL LARAMIE RANGE AND SOUTHWEST PLATTE COUNTY-
NORTH SNOWY RANGE FOOTHILLS-SOUTH LARAMIE RANGE-
SOUTH LARAMIE RANGE FOOTHILLS-
INCLUDING THE CITIES OF...BORDEAUX...ARLINGTON...ELK MOUNTAIN...
VEDAUWOO...BUFORD...PUMPKIN VINE...HORSE CREEK...HARRIMAN...
WHITAKER
344 AM MST SAT JAN 11 2014
...HIGH WIND WARNING REMAINS IN EFFECT UNTIL 6 AM MST SUNDAY...
A HIGH WIND WARNING REMAINS IN EFFECT UNTIL 6 AM MST SUNDAY.
* TIMING...THROUGH SATURDAY NIGHT.
* WINDS...WEST TO SOUTHWEST WINDS OF 35 TO 45 MPH WITH GUSTS TO
  65 MPH. SUSTAINED WINDS WILL LIKELY INCREASE TO 45 TO 55 MPH
  SATURDAY NIGHT WITH GUSTS UPWARDS OF 75 MPH.
* IMPACTS...MAINLY TO TRANSPORTATION. STRONG WINDS AND FREQUENT
  GUSTS POSE A SIGNIFICANT BLOW OVER RISK FOR HIGH PROFILE AND
  LIGHT WEIGHT VEHICLES. MOTORIST SHOULD SLOW DOWN AND USE
  EXTREME CAUTION WHEN ENCOUNTERING STRONG WINDS.
PRECAUTIONARY/PREPAREDNESS ACTIONS...
A HIGH WIND WARNING MEANS A HAZARDOUS HIGH WIND EVENT IS EXPECTED
OR OCCURRING. SUSTAINED WIND SPEEDS OF AT LEAST 40 MPH OR GUSTS
OF 58 MPH OR MORE CAN LEAD TO PROPERTY DAMAGE. THE LATEST ROAD
CONDITIONS PROVIDED BY THE WYOMING DEPARTMENT OF TRANSPORTATION
AND NEBRASKA DEPARTMENT OF ROADS ARE AVAILABLE BY CALLING
5 1 1 OR ON THE INTERNET.
&&
$$
LIEBL
0000010000
907
SAAG41 SAWG 102200
METAR SAWG 102200Z  25018KT 9999  SCT035 BKN070
12/02 Q1010=

0000010000
908
SAAG41 SADF 102200
METAR SADF 102200Z  36007KT 9999  SCT030 BKN100
29/20 Q1007=

0000008900
909
SASG20 GOOY 102200
METAR GOOY 102200Z 36010KT CAVOK 20/14 Q1014?NOSIG=

0000010400
910
SPUS42 KWBC 102159
SPECI
KBPT 102155Z 17010KT 8SM FEW019 BKN026 OVC037 19/17 A2986=

0000035600
911
SANK31 MNMG 102200
METAR 
MNPC  102200Z 09008KT 7000 BKN016 28/24 Q1010 HZ 79?=
MNRS  102200Z 07006KT CAVOK 30/21 Q1008=
MNJG   102200Z 00000KT 2000 DZ BKN016 21/18 Q1011=
MNJU   102200Z 09012KT 9999 FEW020 SCT080 29/21 Q1011=
MNCH  102200Z 04006KT 9999 FEW025 33/16 Q1008=
MNBL   102200Z 08004KT 9999 SCT018 28/24 Q1011 78?=

0000009400
912
SABZ19 SBMA 102200
METAR SBMA 102200Z 03001KT 9999 FEW020TCU 26/23
Q1009=

0000005900
913
FTID31 EGGY 102100
TAF WIDD 102100Z NIL=

0000015900
914
FTLB31 OLBA 102200
TAF OLBA 102200Z 1100/1206 VRB06KT 6000 BKN026 BECMG 1109/1112
    27012KT BECMG 1118/1121 20015KT TEMPO 1100/1206 -RA=

0000009800
915
SABZ19 SBMQ 102200
METAR SBMQ 102200Z 04004KT 9999 FEW017 SCT100 27/23
Q1009=

0000010000
916
SPCN51 CWAO 102159
SPECI CZCP 102159Z AUTO 29021KT 1 1/4SM -SN FEW001 M32/ A2941=

0000009800
917
SAID31 WIII 102200
METAR WIII 102200Z 21003KT 4000 BR FEW020 26/23 Q1009 NOSIG=

0000009500
918
SPCN51 CWAO 102159
SPECI CWOB 102159Z AUTO 19003KT OVC005 OVC020 M19/ A2913=

0000012700
919
SPUR30 UKMS 111038
SPECI UKDD 111038Z 28011G18MPS 250V340 9999 BKN026
06/02 Q1010 26210370 TEMPO 29010G17MPS=
0000081900
920
FTUR31 UKMS 111000
TAF UKDR 111037Z 1112/1212 28008G13MPS 9999 SCT020CB
         TEMPO 1112/1118  28013G18MPS BECMG
         1118/1120 23005MPS 3100 BR BKN010 TEMPO 1209/1212
         23010G15MPS TX05/1212Z TNM00/1203Z=
TAF UKFF 111040Z 1112/1212 26012G17MPS 9999 SCT003
         BKN011 SCT020CB  BECMG 1116/1118 24007G12MPS
         TX09/1211Z TN00/1202Z=
TAF UKLL 111038Z 1112/1212 26007G12MPS 9999 BKN025
         TEMPO 1112/1118  28010G15MPS 2100 -SHRA
         BKN006 BKN020CB BECMG 1118/1119 24005G10MPS
         2100 BR BKN007 TEMPO 1119/1212 27009G14MPS
         1100 SHRASN BKN003  BKN020CB TX05/1113Z
         TN00/1205Z=
TAF UKOO 111038Z 1112/1212 28008G16MPS 6000 SCT003
         BKN007 SCT020CB  BECMG 1118/1119 28003MPS
         2100 BR TX09/1112Z TN02/1202Z=
0000011900
921
SPBY31 UMMN 111030
SPECI UMOO 111030Z 28010G13MPS 9999 BKN022CB OVC/// 01/M01 Q1003
R31/290067 NOSIG=
0000060800
922
SAUZ31 UTTW 111030
METAR UTFN 111030Z NIL=
METAR UTNN 111030Z 10002MPS CAVOK 05/M01 Q1020 R33/CLRD60 NOSIG=
METAR UTNU 111030Z 08002MPS 050V130 07/M02 Q1020 R31/CLRD60 NOSIG=
METAR UTSA 111030Z 17005MPS 9000 NSC 09/M06 Q1021 R25/CLRD70 NOSIG=
METAR UTSB 111030Z NIL=
METAR UTSK 111030Z 00000MPS CAVOK 09/M05 Q1021 R16/CLRD70=
METAR UTSS 111030Z VRB01MPS 9999 NSC 09/M07 Q1020 R88/CLRD70 NOSIG=
METAR UTST 111030Z 11003MPS CAVOK 11/M10 Q1024 R88/CLRD70 NOSIG=
METAR UTFA 111030Z NIL=
METAR UTFF 111030Z NIL=
METAR UTTT 111030Z 07002MPS CAVOK 10/M10 Q1022 R08R/CLRD70 NOSIG=
0000036900
923
UDEU02 EGRR 111048 RRD
AMDAR 1110
ASC EU7724   6321N 02001E 111042 F196 MS405 167/023 TB/ S031=
ASC EU7724   6318N 02000E 111042 F213 MS435 179/014 TB/ S031=
ASC EU7724   6315N 01958E 111043 F225 MS438 030/003 TB/ S031=
ASC EU7724   6311N 01956E 111043 F238 MS430 320/007 TB/ S031=
ASC EU7724   6308N 01954E 111044 F250 MS428 307/016 TB/ S031=
0000190500
924
UDEU02 EGRR 111048 RRE
AMDAR 1110
ASC EU0420   5503N 00140W 111025 F014 PS015 280/035 TB/ S031=
ASC EU0420   5502N 00141W 111025 F021 PS010 288/035 TB/ S031=
ASC EU0420   5500N 00142W 111025 F025 MS002 288/035 TB/ S031=
ASC EU0420   5459N 00143W 111025 F032 MS010 290/036 TB/ S031=
ASC EU0420   5458N 00145W 111025 F039 MS022 292/038 TB/ S031=
ASC EU0420   5457N 00146W 111025 F049 MS042 294/035 TB/ S031=
ASC EU0420   5455N 00147W 111025 F061 MS065 294/034 TB/ S031=
ASC EU0420   5454N 00148W 111025 F073 MS092 295/033 TB/ S031=
ASC EU0420   5453N 00149W 111025 F084 MS117 298/028 TB/ S031=
ASC EU0420   5451N 00151W 111025 F106 MS175 293/030 TB/ S031=
ASC EU0420   5448N 00153W 111026 F120 MS207 285/031 TB/ S031=
ASC EU0420   5444N 00154W 111026 F139 MS247 290/029 TB/ S031=
ASC EU0420   5441N 00156W 111026 F158 MS292 286/032 TB/ S031=
ASC EU0420   5437N 00157W 111027 F174 MS317 304/042 TB/ S031=
ASC EU0420   5433N 00158W 111027 F188 MS335 306/054 TB/ S031=
ASC EU0420   5428N 00159W 111027 F202 MS362 305/064 TB/ S031=
ASC EU0420   5424N 00200W 111028 F216 MS382 305/070 TB/ S031=
ASC EU0420   5419N 00201W 111028 F230 MS410 305/073 TB/ S031=
ASC EU0420   5415N 00202W 111028 F243 MS435 306/073 TB/ S031=
ASC EU0420   5410N 00203W 111029 F256 MS462 303/077 TB/ S031=
ASC EU0420   5405N 00204W 111029 F267 MS480 302/091 TB/ S031=
ASC EU0420   5400N 00205W 111029 F278 MS487 302/079 TB/ S031=
ASC EU0420   5355N 00206W 111030 F290 MS497 305/066 TB/ S031=
ASC EU0420   5350N 00207W 111030 F305 MS510 281/055 TB/ S031=
ASC EU0420   5345N 00208W 111030 F318 MS525 282/075 TB/ S031=
ASC EU0420   5340N 00209W 111031 F325 MS535 286/080 TB/ S031=
ASC EU0420   5335N 00210W 111031 F333 MS520 288/067 TB/ S031=
ASC EU0420   5330N 00211W 111031 F343 MS535 283/065 TB/ S031=
ASC EU0420   5325N 00210W 111032 F356 MS517 287/059 TB/ S031=
0000010000
925
SNAA01 KARS 111000 RRA
AAXX 1110/
89879 46/// ///// 10010 39895 4//// 5//// 91020=
00000000