0000011700
966
SPUS31 KWBC 110237
SPECI
KIND 110233Z 15009KT 1/4SM R05L/2000V3000FT -RA FG VV002 04/04
A2972=

0000008800
967
SPCN51 CWAO 110237
SPECI CWOB 110237Z AUTO 06010KT OVC001 M21/ A2924=

0000051100
968
SAMS31 WMKK 110230
METAR WBGG 110230Z 03004KT 9999 SCT018 BKN150 27/24 Q1012 NOSIG=
METAR WBKK 110230Z 26002KT 9999 FEW015 SCT140 BKN270 29/24 Q1012
NOSIG=
METAR WBSB 110230Z 32002KT 9999 FEW015 FEW016CB BKN280 29/24 Q1013
NOSIG=
METAR WMKK 110230Z 09003KT 9999 FEW018 SCT140 BKN280 27/24 Q1013
NOSIG=
METAR WMKP 110230Z 03008KT 9000 FEW020 BKN140 BKN270 27/23 Q1013
NOSIG=
METAR WSSL 110230Z NIL=
METAR WSSS 110230Z 36006KT 300V070 9999 FEW018 BKN300 28/24 Q1013
NOSIG=

0000009800
969
SANL33 EHDB 110225 RRA
METAR EHJR 110225Z AUTO 23029G34KT  09/07 Q1010 W10/H21=

0000010200
970
SANL33 EHDB 110225 RRB
METAR EHSC 110225Z AUTO 22024G27KT 8000 06/06 Q1013 W08/H15=

0000010200
971
SANL33 EHDB 110225 RRC
METAR EHSA 110225Z AUTO 21024G27KT 9999 08/06 Q1013 W09/H18=

0000015600
972
SAIO31 KWBC 110200 CCA
METAR
FMMI 110230Z 29002KT 8000 0800W R11/0800V1100D PRFG FEW007 SCT020
     BKN230 17/17 Q1021 TEMPO 1500 BR=

0000026500
973
FTUS73 KWBC 110236 AAA
TAF AMD
KJLN 110234Z 1103/1124 27011KT P6SM SCT025 BKN080
     FM110500 27010KT P6SM SCT015 BKN035
     FM110800 26010KT 6SM BR SCT007 BKN015
     FM111200 25010KT P6SM SCT015
     FM111400 27013G20KT P6SM FEW250=

0000035400
974
SAAL31 DAAA 110230
METAR DAAG 110230Z 28003KT 9999 FEW030 SCT080 10/07 Q1016=
METAR DAAT 110230Z 00000KT CAVOK 11/M04 Q1022=
METAR DABB 110230Z NIL=
METAR DABC 110230Z 19005KT CAVOK 06/01 Q1019=
METAR DAON 110230Z NIL=
METAR DAOO 110230Z 22002KT 9999 FEW026 BKN233 12/07 Q1015=
METAR DAUH 110230Z 36004KT CAVOK 09/07 Q1021=

0000019100
975
SAIE32 EIDB 110230
METAR EICM 110230Z NIL=
METAR EIDL 110230Z NIL=
METAR EIKY 110230Z NIL=
METAR EIME 110230Z NIL=
METAR EISG 110230Z NIL=
METAR EIWF 110230Z NIL=

0000052600
976
SAAE33 VTBB 110230
METAR VVTS 110230Z VRB01KT 5000 HZ FEW017 SCT040 27/20 Q1014 NOSIG
      =
METAR VVNB 110230Z VRB03KT 2400 BR FEW020 BKN050 16/12 Q1023 BECMG
FM0300 3200 BR=
METAR VVDN 110230Z 35004KT 6000 FEW015 BKN060 23/19 Q1021 NOSIG=
METAR VVPB 110230Z 30004KT 5000 BR SCT013 BKN050 21/19 Q1021 NOSIG=
METAR VVCR 110230Z 02013KT 8000 BKN100 27/19 Q1018 NOSIG=
METAR VVCT 110230Z 05008KT 9999 SCT015 27/20 Q1015 NOSIG=
METAR VVPQ 110230Z 06008KT 020V100 9999 FEW015 28/19 Q1015 NOSIG=

0000079800
977
SACI31 ZBBB 110230
METAR ZBAA 110230Z 35002MPS 320V020 CAVOK M01/M21 Q1032 NOSIG=
ZBSJ NIL=
METAR ZBTJ 110230Z 19002MPS 0500 R16R/0650N FZFG NSC M02/M05
Q1032
BECMG TL0330
0600=
METAR ZBYN 110230Z 00000MPS 4000 HZ NSC M04/M18 Q1030 NOSIG=
METAR ZGGG 110230Z 01002MPS 320V110 4500 HZ NSC 16/09 Q1026 NOSIG=
METAR ZSHC 110230Z VRB01MPS 2500 -RA BR FEW010 BKN030 06/04
Q1032 NOSIG=
METAR ZSPD 110230Z 06006MPS 020V080 9999 -RA NSC 08/01 Q1032 NOSIG=
METAR ZSSS 110230Z 07004MPS 340V150 9999 -RA FEW023 07/03 Q1032
NOSIG=
ZWSH NIL=
METAR ZWWW 110230Z 34001MPS 0400 R25/0700N FZFG BKN004 M23/M25
Q1037
BECMG TL0420 0600 FZFG=
METAR ZYTL 110230Z 29004MPS 3000 HZ NSC 02/M06 Q1032 NOSIG=
METAR ZYTX 110230Z 18002MPS 140V210 CAVOK M04/M16 Q1030 NOSIG=

0000026500
978
FTUS53 KWBC 110236 AAA
TAF AMD
KJLN 110234Z 1103/1124 27011KT P6SM SCT025 BKN080
     FM110500 27010KT P6SM SCT015 BKN035
     FM110800 26010KT 6SM BR SCT007 BKN015
     FM111200 25010KT P6SM SCT015
     FM111400 27013G20KT P6SM FEW250=

0000045500
979
FTUS52 KWBC 110236 AAA
TAF AMD
KHUM 110235Z 1103/1124 15010KT 3SM BR OVC002
      TEMPO 1103/1106 1SM TSRA OVC004CB
     FM110800 19010KT 2SM BR OVC002
     FM111500 28009KT P6SM SCT250=
KMCB 110234Z 1103/1124 15008KT 2SM BR OVC003
     FM110500 23010KT 5SM -RA BR OVC005
      TEMPO 1105/1109 2SM TSRA OVC003CB
     FM111000 23010KT 5SM BR OVC005
     FM111500 30008KT P6SM SCT250
     FM111800 30012G20KT P6SM SKC=

0000067100
980
FTUS80 KWBC 110236 AAA
TAF AMD
KHUM 110235Z 1103/1124 15010KT 3SM BR OVC002
      TEMPO 1103/1106 1SM TSRA OVC004CB
     FM110800 19010KT 2SM BR OVC002
     FM111500 28009KT P6SM SCT250=
KJLN 110234Z 1103/1124 27011KT P6SM SCT025 BKN080
     FM110500 27010KT P6SM SCT015 BKN035
     FM110800 26010KT 6SM BR SCT007 BKN015
     FM111200 25010KT P6SM SCT015
     FM111400 27013G20KT P6SM FEW250=
KMCB 110234Z 1103/1124 15008KT 2SM BR OVC003
     FM110500 23010KT 5SM -RA BR OVC005
      TEMPO 1105/1109 2SM TSRA OVC003CB
     FM111000 23010KT 5SM BR OVC005
     FM111500 30008KT P6SM SCT250
     FM111800 30012G20KT P6SM SKC=

0000141700
981
SPUS70 KWBC 110236
SPECI
KAKH 110232Z AUTO 03004KT 3/4SM BR VV002 06/06 A3013 RMK AO2=
KGLR 110232Z AUTO 16012G20KT 6SM -FZRA BR OVC006 00/M01 A2964 RMK
     AO2 UPB17E19FZRAE17B19 P0008 I1002 T00001006=
KRDG 110232Z AUTO 33004KT 3/4SM -RA BR VV003 01/M01 A3025 RMK AO2
     P0002 TSNO RVRNO=
KTDZ 110232Z AUTO 00000KT 3/4SM -RA BR OVC004 03/03 A2983 RMK AO2
     PRESFR P0010 TSNO=
KUGN 110232Z AUTO 18015G21KT 9SM -RA FEW007 SCT017 OVC050 04/04
     A2955 RMK AO2 P0008 $=
PACV 110232Z 00000KT 2SM BR BKN034 BKN095 M02/M03 A2930 RMK AO2
     $=
PANW 110229Z AUTO 02003KT 2SM BR OVC001 M07/M07 A2945 RMK AO2 TSNO
     VIS 1 1/2V2 1/2 $=
KHIE 110233Z AUTO 00000KT 8SM SCT029 BKN036 OVC060 M06/M08 A3024
     RMK AO2 T10561078=
KIND 110233Z 15009KT 1/4SM R05L/2000V3000FT -RA FG VV002 04/04
     A2972 RMK AO2 P0001=
KISW 110233Z AUTO 00000KT 1 3/4SM -SN BR SCT004 OVC015 00/M01
     A2951 RMK AO2 P0004 T00001006=
KJST 110233Z AUTO 16009KT 2 1/2SM BR OVC002 02/02 A3004 RMK AO2
     T00220017=
KMIE 110233Z 16009KT 2SM -RA BR OVC003 05/05 A2975 RMK AO2 P0001
     T00500050=
KMIW 110233Z AUTO 29005KT 3/4SM BR VV004 00/00 A2951 RMK AO2
     T00000000 TSNO=
KRKS 110233Z AUTO 25018G23KT 10SM BKN025 OVC033 M02/M06 A2997 RMK
     AO2 PK WND 27032/0157 T10221061=
KTOI 110233Z AUTO 14004KT 1 1/4SM BR OVC003 14/14 A3003 RMK AO2
     T01440139=

0000010500
982
SPUS41 KWBC 110236
SPECI
KCEF 110231Z AUTO 00000KT 4SM BR BKN008 OVC012 00/00 A3030=

0000004200
983
SAHA31 KWBC 110230
NIL=

0000004200
984
SAJP31 KWBC 110230
NIL=

0000004200
985
SAJP42 KWBC 110230
NIL=

00000000