0000009100
546
SAFG20 SOCA 110030
METAR SOCA 110030Z AUTO VRB03KT 9999 NSC 23/21 Q1012=

0000065100
547
SAMX44 MMMD 110053
METAR MMCM 110044Z 09006KT 7SM SCT010  BKN090 24/21 A2994
      RMK 8/520 =
METAR MMCP 110040Z 00000KT 6SM  SKC 25/23 A2989 RMK HZY=
METAR MMCZ 110044Z 13003KT 7SM  SCT015TCU 21/21 A2998 RMK 8/200=
METAR MMMD 110047Z 10006KT 7SM  FEW030 25/20 A2992 RMK 8/400=
METAR MMMT 110046Z 00000KT 8SM  OVC050 23/20 A2987 RMK 8/5//=
METAR MMTG 110044Z 32008KT 12SM  SKC 23/16 A2987=
METAR MMTP 110052Z 00000KT 10SM  SCT250 28/22 A2985 RMK 8/002=
METAR MMUN 110051Z 13007KT 7SM  SCT015 25/22 A2998 RMK 8/500 ISOL
TCU=
METAR MMVA 110040Z 00000KT 7SM  FEW070 21/19 A2990 RMK 8/030=
METAR MMCE 110045Z NIL=

0000010500
548
SPPR00 SPIM 110045
SPECI SPQU 110045Z 22005KT 180V240 9999 SCT008 BKN020 12/10 Q1025 =

0000008500
549
SAMX44 MMMD 110054
METAR MMCE 110049Z 03008KT 7SM SKC 24/22 A2988=

0000010200
550
SPCN51 CWAO 110055
SPECI CWCL 110055Z AUTO 21003KT 9SM SCT007 SCT037 M03/M06 A2971=

0000009700
551
SPCN51 CWAO 110055
SPECI CZCP 110055Z AUTO 29019KT 1 1/4SM -SN CLR M33/ A2944=

0000018500
552
SAVN24 SVMG 110100
METAR SVMG 110100Z /////KT 9999 SCT010 SCT080 25/22 Q1013 REDZ NOSIG=
METAR SVCU 110100Z NIL=
METAR SVCP 110100Z NIL=
METAR SVGI 110100Z NIL=

0000009500
553
SAVN22 SVMI 110100
METAR SVMI 110100Z 05001KT 9999 SCT016 24/21 Q1014 NOSIG=

0000014100
554
SAVN23 SVBC 110100
METAR SVBC 110100Z 00000KT 9999 FEW010 27/21 Q1011=
METAR SVMT 110100Z NIL=
METAR SVHG 110100Z NIL=

0000008900
555
SAVN26 SVMC 110100
METAR SVMC 110100Z /////KT 9999 FEW013 26/21 Q1012=

0000010200
556
SACV20 GVAC 110100
METAR GVAC 110100Z 03008KT 9999 BKN014 BKN200 20/14 Q1016 NOSIG=

0000058900
557
SADN31 EKCH 110050
METAR EKCH 110050Z 24011KT 9999 FEW020 SCT041 BKN160 05/04 Q1007
NOSIG=
METAR EKBI 110050Z 24010KT 210V270 9999 FEW013 BKN025 BKN150
05/04 Q1007=
METAR EKYT 110050Z 25013KT 9999 FEW012 SCT038 BKN160 06/05 Q1004=
METAR EKRK 110050Z AUTO 25013KT 220V280 9999NDV FEW015/// BKN036///
BKN150/// 06/04 Q1007=
METAR EKAH 110050Z AUTO 23006KT 140V280 9999NDV BKN015/// BKN038///
BKN150/// 06/03 Q1006=
METAR EKEB 110050Z AUTO 23012KT 9999NDV BKN017/// 07/05 Q1008=
METAR EKRN 110050Z AUTO 27018KT 9999NDV FEW011/// BKN033///
06/06 Q1008=

0000016500
558
SADN32 EKCH 110050
METAR EKVJ 110053Z NIL=
METAR EKSB 110053Z NIL=
METAR EKSN 110053Z NIL=
METAR EKVD 110053Z NIL=
METAR EKOD 110053Z NIL=

0000052100
559
SADN34 EKCH 110050
METAR EKHN 110050Z AUTO 24008G20KT 130V280 7000NDV BKN010///
///// Q1009=
METAR EKHR 110050Z AUTO 24018KT 9999NDV FEW011/// BKN015///
08/06 Q1007=
METAR EKHA 110050Z AUTO 23021KT 9000NDV 07/06 Q1007=
METAR EKHD 110050Z AUTO 24019KT 7000NDV 07/06 Q1004=
METAR EKTE 110050Z AUTO 22019KT 9999NDV FEW008 BKN031 BKN044 07/06 
Q1007=
METAR EKGC 110050Z AUTO 23018KT 9999NDV 07/06 Q1007=
METAR EKAV 110050Z AUTO 25019KT 9999NDV FEW037/// FEW120///
BKN160/// 06/04 Q1005=

0000088100
560
SAMX42 MMGL 110053
METAR MMAS 110041Z 27008KT 10SM  SCT030TCU SCT070 15/00 A3017 
      RMK 8/230=
METAR MMEP 110046Z 01004KT 12SM  FEW030 BKN080 19/14 A3009 RMK 8/130=
METAR MMGL 110051Z 23008KT 10SM  BKN040 19/02 A3011 RMK 8/400=
METAR MMIA 110042Z 27012KT 8SM  SCT025 BKN120 BKN230 22/19 A2999 
      RMK 8/439 HZY RTS=
METAR MMLO 110049Z 27004KT 8SM  BKN030 BKN220 18/05 A3015 RMK 8/502=
METAR MMMM 110041Z 18008KT 8SM  BKN030 BKN230 17/07 A3015 
      RMK 8/508 ISOL AC=
METAR MMPN 110046Z 00000KT 7SM  SCT040CB BKN070 BKN230 19/15 A3014 
      RMK 8/963 HZY=
METAR MMPR 110049Z 20005KT 15SM  BKN140 23/18 A2990 RMK 8/080=
METAR MMSP 110045Z 26005KT 12SM  SCT035 18/00 A3012 RMK 8/400=
METAR MMZC 110046Z 28010KT 10SM  FEW080 12/M02 A3019 RMK 8/070=
METAR MMZO 110045Z 12006KT 7SM SCT040 BKN250 25/18 A2985
      RMK 8/106 HZY=

0000009900
561
SAQB31 LQMO 110100
METAR LQMO 110100Z VRB01KT 2000 BR SCT035 OVC055 07/07 Q1022=

0000035300
562
SAGL31 BGSF 110050
METAR BGSF 110050Z AUTO 05009KT 9999NDV  BKN230/// M14/M21 Q0996=
METAR BGBW 110053Z NIL=
METAR BGGH 110050Z AUTO 14008KT 9999NDV  FEW065/// SCT200/// 
M08/M15 Q0993=
METAR BGJN 110050Z AUTO 10013KT 9999NDV  BKN200/// M09/M19 Q0995=
METAR BGKK 110050Z AUTO /////KT 0250NDV  +SN BKN008/// M02/M03 
Q0986=

0000056800
563
SAUK31 EGGY 110050
METAR EGBB 110050Z AUTO 21010KT 9999 FEW029/// SCT041///
    BKN049/// 08/07 Q1010=
METAR EGCC 110050Z 28005KT 9999 RA FEW008 BKN032 BKN038 06/05
    Q1009=
METAR EGKK 110050Z 21005KT 9999 -RA BKN009 08/07 Q1014=
METAR EGLL 110050Z 21007KT 9999 -RA FEW022 BKN038 08/06 Q1013=
METAR EGPF 110050Z 29004KT 9999 SCT023CB BKN030 BKN043 01/M00
    Q1008=
METAR EGPH 110050Z 25004KT CAVOK 01/M00 Q1008=
METAR EGPK 110050Z 29011KT 9999 FEW020 04/02 Q1009=
METAR EGSS 110050Z 21010KT 9999 -RA SCT023 BKN030 07/06 Q1012=

0000049200
564
SAUK32 EGGY 110050
METAR EGAA 110050Z 20006KT CAVOK 01/01 Q1010=
METAR EGAC 110050Z NIL=
METAR EGFF 110050Z 27007KT 9000 DZ BKN002 BKN023 07/07 Q1012=
METAR EGGW 110050Z 20009KT 9999 DZ FEW007 07/06 Q1011=
METAR EGLC 110050Z AUTO 21006KT 9999 RA BKN028/// BKN040/// 08/06
    Q1013=
METAR EGNM 110050Z 26008KT 9999 -RADZ FEW010 BKN015 06/06 Q1008=
METAR EGNX 110050Z 23014KT 9999 -RA FEW012 BKN030 08/06 Q1009=
METAR EGPD 110050Z 26006KT CAVOK 01/M03 Q1005=

0000035100
565
SAUK33 EGGY 110050
METAR EGGD 110050Z 21012KT 5000 RADZ SCT004 BKN009 07/07 Q1011=
METAR EGGP 110050Z 27005KT 9999 SCT033 06/05 Q1010=
METAR EGHI 110050Z NIL=
METAR EGNS 110050Z NIL=
METAR EGNT 110050Z 28008KT 9999 SCT032 03/02 Q1008=
METAR EGNV 110050Z NIL=
METAR COR EGPB 110050Z 25021KT 9999 FEW024 06/03 Q0999 NOSIG=

00000000