0000030600
946
SAMX34 MMMD 102300
METAR MMMD 102243Z 15008KT 7SM  FEW025TCU 29/19 A2990 RMK 8/200=
METAR MMCZ 102246Z 13006KT 8SM  SCT015TCU 24/22 A2996 RMK 8/200 CB W=
METAR MMTP 102244Z 27007KT 10SM  SCT250 29/22 A2985 RMK 8/002=
METAR MMUN 102243Z 13005KT 7SM  BKN015TCU 26/23 A2996 RMK 8/200=

0000049600
947
FCTU31 LTAA 102300
TAF LTAR 102240Z 1100/1109 VRB02KT CAVOK TEMPO 1103/1107 3500 BR
 SCT010=
TAF LTBY 102240Z 1100/1109 VRB02KT 9999 OVC006=
TAF LTCA 102240Z 1100/1109 VRB02KT CAVOK=
TAF LTCD 102240Z 1100/1109 VRB02KT CAVOK=
TAF LTCF 102240Z 1100/1109 VRB02KT CAVOK PROB30 TEMPO 1105/1108 1200
 BCFG=
TAF LTCI 102240Z 1100/1109 VRB02KT 7000 SCT040 TEMPO 1106/1109 4000
 BR=
TAF LTDA 102240Z 1100/1109 VRB02KT CAVOK=
TAF LTFH 102240Z 1100/1109 VRB02KT CAVOK=

0000096500
948
FTPR88 SPIM 102300
TAF SPHO 102300Z NIL=
TAF SPHY 102300Z NIL=
TAF
SPIM 102250Z 1100/1124 19010KT CAVOK
     TX25/1119Z TN20/1111Z
     TEMPO 1100/1103 9999 BKN012 BKN150
     TEMPO 1110/1114 VRB03KT 5000 BR SCT007 BKN120=
SPJL 102220Z 1100/1124 VRB05KT 9999 SCT010 SCT080
     TX17/1120Z TN06/1110Z
     TEMPO 1110/1113 SCT010 BKN070=
TAF    
SPQT 102300Z 1100/1124 VRB02KT 9999 SCT040
     TX32/1118Z TN22/1111Z
     BECMG 1104/1106 8000 SCT006 SCT100
     TEMPO 1108/1112 25004KT 0800 FG BKN002 SCT100
     BECMG 1113/1115 02007KT 9999 BKN020 SCT100
     TEMPO 1118/1123 VRB12KT 5000 SHRA BKN010 FEW025CB BKN100=
SPSO 102250Z 1100/1124 21010KT 9999 SCT080 SCT230
     TX28/1119Z TN20/1110Z
     TEMPO 1100/1104 3000 BR BKN012 SCT100
     TEMPO 1110/1115 00000KT 5000 BR SCT012 BKN100=
SPTN 102250Z 1100/1124 20014KT CAVOK
     TX28/1118Z TN18/1110Z
     TEMPO 1110/1114 00000KT 9999 SCT040 SCT130=

0000045500
949
FTAF34 OEJD 102200
TAF HKMO 102200Z NIL=
TAF HKNA 102200Z NIL=
TAF HTDA 102200Z NIL=
TAF HTKJ 102200Z NIL=
TAF HUEN 102100Z 1100/1206 36005KT 9000 FEW020 FEW022CB
TEMPO 1101/1107 VRB11KT 8000 -TSRA SCT018 FEW020CB BKN110
BECMG 1108/1113 19012KT 9000 FEW025 FEW027CB SCT190
FM111600 23006KT FEW022 FEW025CB BKN160
BECMG 1121/1124 35005KT FEW020 FEW022CB BKN130
TEMPO 1201/1206 VRB10KT 8000 -TSRA SCT018 FEW020CB BKN110=

0000025600
950
SAXX69 EGRR 102300
METAR EQBH 102250Z 02004KT 9999 FEW200 M00/M02 Q1027 BLU TEMPO 6000
      HZ WHT RMK A3033 PA2556 DA1412=
METAR KQSA 102255Z VRB02KT 9000 HZ CLR M04/M10 A3029 RMK AO2A SLP328
      WND DATA ESTMD ALSTG/SLP ESTMD=

0000060300
951
SAPR82 SPIM 102300
METAR SPHI 102300Z 18015KT CAVOK 26/22 Q1009 RMK PP000=
METAR SPIM 102300Z 16012KT CAVOK 23/19 Q1010 NOSIG RMK PP000=
METAR SPQT 102300Z VRB02KT CAVOK 26/23 Q1007 NOSIG 
RMK PP000=
METAR SPQU 102300Z 27008KT 9999 BKN017 14/09 Q1023 NOSIG
RMK PP000=
METAR SPRU 102300Z 16008KT 9999 FEW030 23/20 Q1009 RMK PP000=
METAR SPSO 102300Z /////KT 9999 BKN080 SCT230 24/19 Q1009 
RMK BIRD HAZARD RWY 22/04 PP000=
METAR SPTN 102300Z 20009KT CAVOK 23/16 Q1010 RMK PP000=
METAR SPZO 102300Z 01008KT 9999 FEW036 SCT046TCU BKN080 14/05
Q1026 NOSIG RMK PP000=

0000010300
952
SARM31 LUKK 102300
METAR LUKK 102300Z 25009KT CAVOK 02/M02 Q1015 R26/CLRD65
NOSIG=

0000089500
953
SAPR76 SPIM 102300
METAR SPCL 102300Z 02006KT 9999 FEW030 SCT100 28/24 Q1007
RMK BIRD HAZARD RWY 02/20 PP000=
METAR SPGM 102300Z NIL=
METAR SPHO 102300Z 34009KT 9999 VCSH SCT040 OVC100 18/12 Q1018 RMK
PP000=
METAR SPHY 102300Z NIL=
METAR SPJI 102300Z NIL=
METAR SPJL 102300Z 12009KT 9999 FEW010 SCT080 13/05 Q1032 RMK PP000=
METAR SPJR 102300Z 16004KT 9999 VCSH SCT023 BKN037 15/11 Q1024 WS RMK
PP000=
METAR SPLO 102300Z NIL=
METAR SPME 102300Z 28004KT 9999 FEW013 BKN033 27/23 Q1008
RMK BIRD HAZARD RWY 32/14 PP000=
METAR SPMS 102300Z /////KT 9999 VCSH BKN015 BKN100 27/23 Q1009 RMK
BIRD HAZARD 09/27 PP000=
METAR SPST 102300Z 35012KT 9999 SCT020 SCT100 29/20 Q1006 
RMK BIRD HAZARD RWY 17/35 PP000=
METAR SPTU 102300Z 08004KT 5000 -RA BR BKN010 OVC070 23/23 Q1006 RMK
BIRD HAZARD RWY 01/19 RA INICIO 2159Z PP310=
METAR SPYL 102300Z NIL=

0000010300
954
SACG20 FCBB 102300
METAR FCBB 102300Z 25003KT 220V320 7000 BKN016 24/22 Q1012 NOSIG=

0000079300
955
SATU31 LTAA 102250
METAR LTAC 102250Z 33003KT 300V360 4800 BR OVC007 M03/M04 Q1022
 NOSIG=
METAR LTAF 102250Z 04006KT CAVOK 03/M01 Q1021 NOSIG=
METAR LTAI 102250Z 36004KT 9999 SCT030 07/05 Q1022 NOSIG=
METAR LTAJ 102250Z VRB02KT CAVOK M02/M05 Q1021 NOSIG=
METAR LTAZ 102250Z NIL=
METAR LTBA 102250Z 20006KT 6000 NSC 09/08 Q1021 NOSIG=
METAR LTBJ 102250Z 15001KT 3200 BR NSC 05/03 Q1021 NOSIG=
METAR LTBS 102250Z 08006KT CAVOK 06/05 Q1022 NOSIG=
METAR LTCG 102250Z 00000KT CAVOK 06/M00 Q1016 NOSIG=
METAR LTCS 102250Z 34003KT CAVOK 05/M05 Q1021=
METAR LTFC 102250Z 00000KT 0300 R05/0400U R23/0400U FZFG VV001
 M04/M04 Q1023=
METAR LTFE 102250Z 14004KT 6000 FEW035 BKN100 07/07 Q1022 NOSIG=
METAR LTFJ 102250Z 19005KT 9999 SCT012 08/01 Q1021 NOSIG=

0000113800
956
FTPR84 SPIM 102300
SPHI 102250Z 1100/1124 15014KT CAVOK
     TX30/1118Z TN20/1109Z
     TEMPO 1110/1114 09005KT 9999 BKN010 SCT100=
TAF
SPME 102230Z 1100/1124 25006KT 9999 SCT017 BKN025
     TX29/1119Z TN22/1111Z
     BECMG 1102/1103 VRB02KT OVC020
     FM111200 00000KT 9999 SCT020
     BECMG 1114/1116 34008KT=
TAF
SPQU 102220Z 1100/1124 VRB03KT 8000 BKN020 SCT100
     TX19/1119Z TN11/1111Z
     TEMPO 1100/1104 BKN010 SCT025
     BECMG 1110/1112 9999 SCT020 SCT100
     BECMG 1115/1117 25011KT BKN030 SCT080=
SPRU 102250Z 1100/1124 15010KT 8000 OVC005
     TX25/1119Z TN19/1109Z
     TEMPO 1100/1104 9999 FEW030 SCT100
     TEMPO 1110/1114 3000 BR OVC003
     PROB30 TEMPO 1111/1113 0800 FG OVC002
     TEMPO 1119/1123 9999 FEW030 SCT130=
TAF SPTU 102300Z NIL=
TAF SPYL 102300Z NIL=
TAF 
SPZO 102205Z 1100/1124 34006KT 9999 SCT050 BKN100  
     TX20/1119Z TN06/1111Z
     TEMPO 1101/1104 -RA BKN080
     BECMG 1107/1110 11008KT 9000 -RA SCT040 OVC070
     PROB40 1110/1114 8000 RA FEW010 SCT030 OVC050
     BECMG 1114/1116 31006KT 9999 FEW030 SCT050 BKN100=

0000077800
957
SATU32 LTAA 102250
METAR LTAG 102250Z 03005KT CAVOK 01/M02 Q1021 NOSIG=
METAR LTAN 102250Z 14002KT 2700 BR OVC004 M02/M03 Q1022 NOSIG=
METAR LTAP 102250Z 20004KT 170V230 CAVOK M05/M06 Q1021 NOSIG=
METAR LTAT 102250Z 21007KT CAVOK M09/M10 Q1022 NOSIG=
METAR LTAU 102250Z 00000KT 3800 BR OVC002 M04/M04 Q1022 BECMG TL2350
 2900 TEMPO FM0000 0800 FZFG=
METAR LTBF 102250Z 00000KT 0800 R36/0600U R18/0900U FG NSC 00/00
 Q1022 BECMG 0300 FZFG VV003=
METAR LTBU 102250Z 34001KT 2500 R05/0400D R23/1200D BCFG NSC 04/04
 Q1020=
METAR LTCC 102250Z 26003KT CAVOK M03/M06 Q1021 NOSIG=
METAR LTCE 102250Z 00000KT 1300 R26L/P1500U R08R/P1500U R26R/0275U
 R08L/0400U BCFG NSC M27/M29 Q1021 NOSIG=
METAR LTCJ 102250Z VRB02KT 6000 NSC M02/M02 Q1021=

0000056100
958
SATU33 LTAA 102250
METAR LTAR 102250Z NIL=
METAR LTAY 102250Z 12002KT CAVOK M02/M03 Q1021=
METAR LTBR 102250Z 00000KT 8000 NSC M02/M05 Q1023 NOSIG=
METAR LTBY 102250Z 10007KT 6000 OVC008 M01/M03 Q1023=
METAR LTCA 102250Z 23005KT CAVOK M07/M09 Q1022 NOSIG=
METAR LTCD 102250Z VRB01KT CAVOK M12/M14 Q1023 NOSIG=
METAR LTCF 102250Z 00000KT CAVOK M22/M24 Q1021=
METAR LTCI 102250Z 07003KT 6000 SCT040 M10/M11 Q1020 NOSIG=
METAR LTDA 102250Z 06002KT CAVOK 03/01 Q1022=
METAR LTFH 102250Z 22004KT 150V250 CAVOK 06/M05 Q1016 NOSIG=

0000004100
959
SATU34 LTAA 102250
NIL

0000008900
960
SATU35 LTAA 102250
METAR LCEN 102250Z 28010KT CAVOK 08/03 Q1021 NOSIG=

0000041000
961
FCTU32 LTAA 102300
TAF LTAN 102240Z 1100/1109 VRB02KT 2500 BR OVC004 BECMG 1107/1109
 4000 BKN012=
TAF LTAY 102240Z 1100/1109 VRB02KT CAVOK BECMG 1103/1106 3200 BR
 PROB30 1106/1108 1200 BCFG=
TAF LTBF 102240Z 1100/1109 VRB02KT 0300 FZFG VV003 BECMG 1106/1109
 2000 BR NSC=
TAF LTBR 102240Z 1100/1109 VRB02KT 7000 NSC BECMG 1100/1103 4500 BR
 PROB30 1104/1106 0500 FZFG BKN005=

0000025800
962
FTCU31 MUHA 102300
TAF
MUHA 102300Z 1100/1124 16010KT 9000 SCT020 BECMG 1103/1105 
     VRB02KT BECMG 1113/1115 14012KT=
MUHG 102300Z 1100/1124 09014KT 9000 SCT020 BECMG 1103/1105 
     08004KT BECMG 1113/1115 09014KT=
MUCF  NIL=

0000014100
963
FTID31 EGGY 102100 RRA
TAF WIDD 102300Z 1100/1124 02008KT 8000 SCT015
         TEMPO 1106/1112 6000 -RA FEW015CB SCT014=

0000089700
964
FTAU33 YBBN 102300
TAF YBRM 102300Z NIL=
TAF YPXM 102300Z NIL=
TAF YPCC 102300Z NIL=
TAF AMD YCFS 101840Z 1018/1112
35005KT 9999 -SHRA SCT030 BKN060
BECMG 1023/1101 07010KT 9999 -SHRA SCT030 BKN060
RMK=
TAF YSDU 102256Z 1100/1118
08007KT 9999 SCT050
FM110200 20010KT 9999 SCT050
FM111400 14005KT 9999 FEW050
RMK=
TAF YMHB 102300Z NIL=
TAF YHID 102300Z NIL=
TAF YPJT 102231Z 1100/1118
09013KT CAVOK
FM111000 16008KT CAVOK
FM111400 09010KT CAVOK
RMK
FM111500 MOD TURB BLW 3000FT=
TAF YMLT 102300Z NIL=
TAF YSNF 102300Z NIL=
TAF YPEA 102231Z 1100/1118
09012KT CAVOK
RMK
FM111500 MOD TURB BLW 3000FT=
TAF AMD YPPD 101920Z 1019/1112
29006KT 9999 SCT010
FM102300 28008KT CAVOK
FM110500 29014KT CAVOK
RMK=
TAF YSRI 102300Z NIL=
TAF YBRK 102300Z NIL=
TAF YSTW 102300Z NIL=
TAF YWLM 102300Z NIL=
TAF YPWR 102300Z NIL=

0000058000
965
FTAU32 YBBN 102300
TAF YBAS 102300Z NIL=
TAF YMAV 102300Z NIL=
TAF YBCS 102300Z NIL=
TAF YSCB 102300Z NIL=
TAF YGEL 102231Z 1100/1124
09018G30KT CAVOK
FM110300 07014KT CAVOK
FM110700 20018KT CAVOK
FM111200 19008KT CAVOK
FM111800 VRB03KT CAVOK
RMK=
TAF YBCG 102300Z NIL=
TAF YPKG 102300Z NIL=
TAF YPLM 102300Z NIL=
TAF YPTN 102300Z NIL=
TAF AMD YBTL 102024Z 1020/1118
13012KT 9999 -SHRA FEW015 SCT030
FM110100 07016KT 9999 -SHRA SCT025 BKN045
FM111000 12012KT 9999 -SHRA SCT020 BKN040
INTER 1020/1110 4000 SHRA BKN016
RMK=

00000000