0000043300
446
SARA33 RUMS 110030
METAR UIAA 110030Z 04002MPS 9999 FEW100 SCT200 M27/M31 Q1027 NOSIG
RMK QFE711 29CLRD70=
METAR UIBB 110030Z 00000MPS 5000 -SHSN SCT026CB BKN100 M22/M24 Q1028
NOSIG RMK QFE727/0970 30490240=
METAR UIII 110030Z 09002MPS 5000 BR SCT006 BKN200 M21/M23 Q1032 NOSIG
RMK QFE731/0975 12490340=
METAR UIUU 110030Z 23003MPS 5000 -SN SCT033 OVC100 M13/M15 Q1030
NOSIG RMK QFE728/0970 26450545=

0000013600
447
SARA35 RUMS 110030
METAR USCM 110030Z VRB02MPS 6000 OVC016 M07/M08 Q1008 TEMPO 0300 FZFG
VV002 19490532 RMK QFE719=

0000055400
448
SARA36 RUMS 110030
METAR UWUU 110030Z 17003MPS 140V200 4500 BR OVC009 M02/M03 Q1007
14620342 TEMPO 1000 SN FZRA BKN003 RMK QFE745/0993 FBL ICE INC=
METAR USCC 110030Z 16003MPS 3000 -SHSN BR SCT010CB OVC070 M07/M08
Q1009 09490350 TEMPO 1100 SHSN BKN005 RMK QFE736=
METAR USNN 110030Z 02003MPS 8000 OVC012 M14/M16 Q1018 NOSIG RMK
QFE759 21420332=
METAR USRR 110030Z 08003MPS 7000 SCT016 M26/M29 Q1018 NOSIG RMK
QFE759 07////35=
METAR USSS 110030Z 15003MPS 9999 -SN BKN011 OVC067 M04/M06 Q1008
08490235 NOSIG RMK QFE736=

0000054100
449
SARS36 RUMS 110030
METAR ULAA 110030Z 07007G11MPS 040V100 9999 DRSN OVC020 M17/M20 Q1001
TEMPO 0600 SN BLSN OVC003 RMK QFE750/1000 SC050=
METAR ULMM 110030Z 00000MPS 9000 BKN003 M33/M37 Q1017 NOSIG RMK
QBB110 OBST OBSC QFE755 31450239=
METAR ULOO 110030Z NIL=
METAR ULPB 110030Z NIL=
METAR UMKK 110030Z NIL=
METAR UUOO 110030Z 24005G08MPS 9999 -RA OVC004 02/01 Q0995 NOSIG RMK
12290250=
METAR UUYY 110030Z 02004MPS 5000 BR SCT009 BKN016CB OVC066 M14/M16
Q1003 TEMPO 0700 +SHSN 0145//33 RMK QFE743/0991=

0000012200
450
SATU31 LTAA 110020 RRA
METAR LTFC 110020Z 00000KT 0400 R05/0450U R23/0450D FZFG VV001
 M05/M05 Q1023=

0000050300
451
SASP31 LEMM 110030
METAR LEMD 110030Z 36002KT CAVOK 07/04 Q1016 NOSIG=
METAR LEBL 110030Z 33008KT 5000 BR SCT025 09/06 Q1018 NOSIG=
METAR LEPA 110030Z VRB01KT CAVOK 10/09 Q1017 NOSIG=
METAR LEZL 110030Z NIL=
METAR LEMG 110030Z 28004KT 9999 FEW020 12/10 Q1016 NOSIG=
METAR LEVC 110030Z VRB01KT 6000 BKN030 11/08 Q1018 NOSIG=
METAR LEAL 110030Z VRB02KT 9000 FEW015 09/08 Q1016 NOSIG=
METAR LEIB 110030Z NIL=
METAR LEVX 110030Z 00000KT 6000 NSC 08/07 Q1016 TEMPO 3000 BR=

0000055900
452
SASP32 LEMM 110030
METAR LEAS 110030Z NIL=
METAR LEBB 110030Z NIL=
METAR LECO 110030Z VRB01KT 4000 0500S R21/2000N R03/0750D BCFG
VV001 06/06 Q1017=
METAR LEGE 110030Z 00000KT 6000 OVC018 08/07 Q1018=
METAR LEST 110030Z VRB01KT 0300 R17/0400D R35/0400D FG NSC 04/04
Q1017 NOSIG=
METAR LEZG 110030Z 00000KT 1100 R30R/P2000 BR OVC003 06/06 Q1017=
METAR LESO 110030Z NIL=
METAR LEVT 110030Z 00000KT 6000 NSC 00/M00 Q1017=
METAR LERS 110030Z NIL=
METAR LEMH 110030Z NIL=
METAR LEAM 110030Z NIL=
METAR LEGR 110030Z NIL=

0000013500
453
SASP33 LEMM 110030
METAR LEVD 110030Z NIL=
METAR LEVS 110030Z NIL=
METAR LESA 110030Z 00000KT CAVOK 00/00 Q1015=

0000019300
454
SASP34 LEMM 110030
METAR LEDA 110030Z NIL=
METAR LEJR 110030Z NIL=
METAR LELL 110030Z NIL=
METAR LEPP 110030Z NIL=
METAR LEXJ 110030Z 22002KT 9999 BKN029 11/09 Q1017=

0000024700
455
SACR31 LEMM 110030
METAR GCLP 110030Z 33007KT CAVOK 16/10 Q1017 NOSIG=
METAR GCXO 110030Z NIL=
METAR GCTS 110030Z NIL=
METAR GCRR 110030Z 36008KT 9999 FEW020 14/10 Q1017=
METAR GCFV 110030Z NIL=
METAR GCLA 110030Z NIL=

0000008800
456
SASP39 LEMM 110030
METAR LETL 110030Z AUTO 11007KT CAVOK 04/02 Q1017=

0000020400
457
SAAY31 RUMS 110030
METAR UDYZ 110030Z VRB01MPS 2300 BR BKN010 M10/M11 Q1027 R09/000070
NOSIG=
METAR UDSG 110030Z 00000MPS 0200 R02/0650N FZFG VV001 M20/M22 Q1021
R02/CLRD70 NOSIG=

0000082700
458
SAKZ31 RUMS 110030
METAR UAAA 110030Z 21002MPS 1200 R05L/P2000 R05R/P2000U BR FU SCT200
M15/M18 Q1026 8891//60 NOSIG=
METAR UACC 110030Z 18008MPS 9999 -SN DRSN OVC026 M08/M11 Q1024
R22/8/0050 NOSIG RMK QFE736/0982=
METAR UAKK 110030Z 18007MPS 9999 BKN023 OVC220 M13/M16 Q1026
R23/850555 NOSIG RMK QFE722/0963=
METAR UAOO 110030Z NIL=
METAR UARR 110030Z NIL=
METAR UATE 110030Z 10004MPS 0200 R12/0350V0650U FZFG VV001 M02/M02
Q1018 R12/0///70 NOSIG RMK QBB040 QFE761/1015=
METAR UATG 110030Z 18003MPS 5000 BR OVC025 01/01 Q1016 R14/19//65
NOSIG RMK QFE764/1019=
METAR UATT 110030Z 26002MPS 240V310 8000 OVC002 M01/M01 Q1010
R13/490245 NOSIG RMK QBB080 QFE738/0984=
METAR UAUU 110030Z 18006MPS 5000 -SHSN BLSN OVC033CB M07/M09 Q1013
TEMPO 2000 -SHSN BLSN BKN005CB RMK QFE744/0992=

0000024400
459
SATA31 RUMS 110030
METAR UTDD 110030Z 00000MPS M0050 R09/M0050N FZFG VV001 M09/M10 Q1027
09CLRD70 NOSIG RMK QBB030 QFE702/0936=
METAR UTDL 110030Z 07008G11MPS 3100 BR BKN210 M03/M07 Q1027 NOSIG RMK
QFE731/0974 8819//65=

0000013200
460
SAKY31 RUMS 110030
METAR UCFM 110030Z NIL=
METAR UCFO 110030Z 14002MPS 9000 SKC M07/M13 Q1026 R12/CLRD70 NOSIG=

0000009800
461
SPCN42 CWAO 110035
SPECI CYUA 110035Z AUTO 30027G33KT 5/8SM -SN CLR M25/ A2976=

0000010700
462
SPCN46 CWAO 110035
SPECI CYGQ 110035Z 20010G15KT 8SM -SN DRSN OVC006 RMK SF8 BR CIG RAG=

0000069300
463
FTCA32 KWBC 110036
TAF
TAF TAPA 102200Z 1100/1124 09015KT 9999 SCT020 PROB40
      TEMPO 1102/1108 09016G26KT SHRA BKN015 PROB40
      TEMPO 1120/1124 09016G26KT 5000 SHRA BKN014=
TAF TKPN 102200Z 1100/1124 09015KT 9999 SCT020 PROB40
      TEMPO 1102/1108 09016G26KT SHRA BKN015 PROB40
      TEMPO 1120/1124 09016G26KT 5000 SHRA BKN014=
TAF TQPF 102200Z 1100/1124 09015KT 9999 SCT020 PROB40
      TEMPO 1102/1108 09016G26KT SHRA BKN015 PROB40
      TEMPO 1120/1124 09016G26KT 5000 SHRA BKN014=
TAF TUPJ 102200Z 1100/1124 09015KT 9999 SCT020 PROB40
      TEMPO 1102/1108 09016G26KT SHRA BKN015 PROB40
      TEMPO 1120/1124 09016G26KT 5000 SHRA BKN014=

0000047100
464
SAAE33 VTBB 110030
METAR VVTS 110030Z NIL=
METAR VVNB 110030Z 31004KT 2100 BR FEW020 BKN050 15/12 Q1022 NOSIG=
METAR VVDN 110030Z 35005KT 5000 BR FEW015 BKN060 21/19 Q1020 NOSIG=
METAR VVPB 110030Z 30003KT 3000 -RA BR SCT015 SCT050 19/18 Q1021
NOSIG=
METAR VVCR 110030Z 35006KT 8000 FEW017 BKN100 25/18 Q1017 NOSIG=
METAR VVCT 110030Z VRB03KT 8000 FEW015 BKN040 24/20 Q1014 NOSIG=
METAR VVPQ 110030Z 04005KT 9999 FEW015 25/19 Q1014 NOSIG=

0000035900
465
FTUS52 KWBC 110015 AAA
TAF AMD
KFYV 110014Z 1100/1124 19009KT P6SM BKN025 OVC080
      TEMPO 1100/1102 VRB20G30KT 1SM TSRA BKN030CB
     FM110200 26008KT P6SM OVC250
     FM111800 28013G21KT P6SM SKC=
KXNA 110013Z 1100/1124 24007KT P6SM VCTS SCT020CB OVC024
     FM110200 26008KT P6SM OVC250
     FM111800 28013G21KT P6SM SKC=

00000000