0000053100
726
SASN34 ESWI 102150
METAR ESCF 102150Z AUTO VRB01KT 9999NDV OVC011/// M03/M03 Q1002=
METAR ESDF 102150Z AUTO VRB01KT 9999NDV SCT017/// BKN026/// 01/01 
Q1004=
METAR ESIB 102150Z AUTO 19007KT 9999NDV BKN018/// 01/M00 Q1000=
METAR ESMV 102150Z NIL=
METAR ESPA 102150Z 03011KT 360V060 4600 -SN VV013 M13/M15 Q1008=
METAR ESPE 102150Z AUTO 02006KT 330V050 9000NDV -SG FEW058/// 
BKN100/// M14/M17 Q1009=
METAR ESSL 102150Z AUTO 00000KT 9999NDV FEW007/// OVC019///
M03/M04 Q1002 RESG RESN R29/19//95=

0000041500
727
SASN35 ESWI 102150
METAR ESGR 102150Z NIL=
METAR ESKM 102150Z NIL=
METAR ESNL 102150Z AUTO 35008KT 7000NDV FEW023/// SCT027///
OVC037/// M14/M17 Q1005=
METAR ESNX 102150Z AUTO 02009KT 5000NDV -SN FEW010/// BKN024///
BKN029/// M15/M18 Q1006=
METAR ESNY 102150Z NIL=
METAR ESSF 102150Z NIL=
METAR ESSK 102150Z NIL=
METAR ESUD 102150Z AUTO 36003KT 4400 -SN OVC027/// M14/M17 Q1006=

0000027700
728
FTEO31 EETN 101700 CCA
TAF COR EETN  102150Z 1018/1118 36016G26KT 9999 BKN006 SCT012CB
     TEMPO 1018/1021 1200 +SHSNRA BKN004 SCT012CB TEMPO 1021/1104
     1000 +SN VV004 BECMG 1104/1106 32010KT BKN012 TEMPO 1113/1118
     VRB02KT 2000 SHSN SCT012CB=

0000073400
729
SAMX44 MMMD 102153
METAR MMCE 102146Z 34010KT 6SM SKC 24/21 A2986=
METAR MMCM 102144Z 12006KT 7SM SCT010CB  BKN090 27/22 A2991
      RMK 8/360=
METAR MMCP 102145Z 00000KT 7SM  SCT030 28/23 A2988 RMK 8/400=
METAR MMCT 102146Z 16004KT 9SM  SCT020TCU 29/22 A2994 
      RMK 8/200 MSGTX MMMD=
METAR MMCZ 102147Z 11008KT 8SM  SCT015TCU 24/22 A2995 RMK 8/200 VC
CB=
METAR MMMD 102148Z 14011KT 7SM  SCT025TCU 29/19 A2990 RMK 8/200=
METAR MMMT 102147Z 00000KT 10SM  SCT040 25/20 A2985 RMK 8/100=
METAR MMUN 102146Z 12013KT 7SM  BKN015TCU 28/23 A2996 RMK 8/200=
METAR MMVA 102141Z 06005KT 5SM  SCT010 BKN015 OVC060 22/19 A2989 
      RMK 8/62/ HZY=
METAR MMTG 102145Z NIL=
METAR MMTP 102145Z NIL=

0000009900
730
SAUS73 KWBC 102100 RRI
METAR
KSAW 102147Z 19011KT 4SM BR OVC009 M03/M04 A2973=

0000009000
731
SASU01 HSSS 102200
METAR HSSS 102200Z 33011KT CAVOK 17/M01 Q1018 NOSIG=

0000009900
732
SAQB31 LQMO 102200
METAR LQMO 102200Z 03004KT 2500 BR FEW040 BKN065 07/06 Q1023=

0000011400
733
SAPH41 RPLC 102200
METAR RPLC 102200Z
32003KT 9999 FEW042 BKN300 19/16 Q1017 A3004 RMK NOSIG=

0000010300
734
SAUK31 EGGY 102150 CCA
METAR COR EGLL 102150Z 21008KT 9999 FEW039 08/07 Q1013 NOSIG=

0000019400
735
FTAG41 KWBC 102154
TAF
TAF SAVC 102300Z 1100/1124 05015KT 9999 SCT030 FEW090 TRX28/1119Z
      TN12/1119Z
      BECMG 1106/1109 29010KT
      BECMG 1115/1110Z 02015KT=

0000032700
736
FTAG31 KWBC 102154
TAF
TAF SAWE 102300Z 1100/1124 25020KT 99999 -SHRA BKN010 BKN090
      TX18/1118Z TN05/1112Z=
TAF SAWG 102300Z 1100/1124 27025G35KT 9999 -SHRA BKN030 BKN090
      TX25/1118Z TN08/1112Z=
TAF SAWH 102300Z 1100/1124 25020G30KT 9999 -SHRA BKN020 BKN080
      TX20/1118Z TN04/1112Z=

0000023900
737
FTUS53 KWBC 102154 AAA
TAF AMD
KCGI 102151Z 1022/1118 15011KT 6SM -SHRA BR SCT004 OVC030
      TEMPO 1022/1024 2SM SHRA BR OVC004
     FM110000 17011KT 4SM SHRA BR SCT004 OVC010
     FM110600 26010KT P6SM SCT015=

0000038600
738
FTUS51 KWBC 102154 AAA
TAF AMD
KFAY 102151Z 1022/1118 03004KT 4SM -RA BR SCT035 OVC050
      TEMPO 1022/1024 1SM -RA BR SCT020 BKN035
     FM110000 06004KT 5SM -RADZ BR BKN005 OVC009
     FM110400 VRB05KT 1SM -DZ BR OVC003
     FM110700 18010KT P6SM OVC008
     FM111300 19013G24KT P6SM BKN009 OVC020
     FM111700 20017G28KT 5SM -SHRA BR BKN012 OVC025=

0000126900
739
FTUS80 KWBC 102154 AAA
TAF AMD
KASD 102153Z 1022/1118 10005KT 4SM BR OVC003
     FM110800 19010KT 2SM BR OVC005
      TEMPO 1108/1112 2SM TSRA OVC006CB
     FM111500 28009KT P6SM SCT250
     FM111700 32010G18KT P6SM SKC=
KCGI 102151Z 1022/1118 15011KT 6SM -SHRA BR SCT004 OVC030
      TEMPO 1022/1024 2SM SHRA BR OVC004
     FM110000 17011KT 4SM SHRA BR SCT004 OVC010
     FM110600 26010KT P6SM SCT015=
KFAY 102151Z 1022/1118 03004KT 4SM -RA BR SCT035 OVC050
      TEMPO 1022/1024 1SM -RA BR SCT020 BKN035
     FM110000 06004KT 5SM -RADZ BR BKN005 OVC009
     FM110400 VRB05KT 1SM -DZ BR OVC003
     FM110700 18010KT P6SM OVC008
     FM111300 19013G24KT P6SM BKN009 OVC020
     FM111700 20017G28KT 5SM -SHRA BR BKN012 OVC025=
KHOU 102153Z 1022/1118 18010KT 4SM -RA BKN015 OVC025
     FM102300 18008KT P6SM BKN019 OVC025
     FM110200 18006KT 5SM BR SCT007 BKN015
     FM110600 23007KT P6SM BKN007
     FM110900 27008KT P6SM SCT010
     FM111100 33006KT P6SM SKC=
KIAH 102153Z 1022/1124 18009KT P6SM BKN018 BKN050 OVC070
      TEMPO 1022/1023 5SM RA BR
     FM110200 18006KT 5SM BR SCT007 BKN015
     FM110600 23007KT P6SM BKN012
     FM110900 27008KT P6SM SCT010
     FM111100 33006KT P6SM SKC=

0000034900
740
SPUS70 KWBC 102154
SPECI
KFLD 102151Z AUTO 15008KT 3SM BR OVC005 00/M01 A2970 RMK AO2=
KLFT 102151Z 17012G18KT 6SM BR BKN014 OVC021 19/18 A2991 RMK AO2
     RAB09E34 P0000=
KLHQ 102151Z AUTO 15008KT 10SM FEW012 BKN022 07/05 A3003 RMK
     AO2=
KVSF 102151Z AUTO 00000KT 10SM SCT028 OVC041 M03/M06 A3031 RMK
     AO2=

0000010800
741
SPUS41 KWBC 102154
SPECI
KWRI 102152Z AUTO 04004KT 1SM R06/4500FT BR VV003 02/02 A3031=

0000012900
742
SPUS42 KWBC 102154
SPECI
KSAV 102150Z 12007KT 2SM R01/5500VP6000FT RA BR SCT006 BKN012
OVC017 19/18 A3012=

0000081300
743
SAMX42 MMGL 102155
METAR MMAS 102140Z 24016KT 10SM  SCT040 21/M04 A3013 RMK 8/100 ISOL
AC=
METAR MMEP 102153Z 21005KT 12SM  SCT100 27/02 A3006 RMK 8/030=
METAR MMGL 102149Z 27016KT 10SM  SCT030TCU BKN080 21/01 A3007 
      RMK 8/230=
METAR MMIA 102145Z NIL=
METAR MMLO 102146Z 23010KT 10SM  SCT030 SCT220 25/01 A3012 RMK 8/502=
METAR MMMM 102143Z 16007KT 8SM  BKN030TCU BKN230 20/08 A3012 RMK
8/208=
METAR MMPN 102141Z 19008KT 12SM  SCT040CB SCT110 BKN230 23/15 A3011 
      RMK 8/363 HZY=
METAR MMPR 102144Z 21005KT 15SM  FEW120 26/18 A2990 RMK 8/080=
METAR MMSP 102144Z 23011G21KT 15SM  SCT035 23/M05 A3009 RMK 8/100=
METAR MMZC 102140Z 24025G35KT 10SM  FEW040 20/M02 A3014 RMK 8/100=
METAR MMZO 102145Z 15008KT 8SM SCT020 BKN250 26/21 A2984
      RMK 8/106 HZY=

0000025300
744
SAMX31 KWBC 102145 RRB
METAR
MMCZ 102147Z 11008KT 8SM SCT015TCU 24/22 A2995 RMK 8/200 VC CB=
MMMD 102148Z 14011KT 7SM SCT025TCU 29/19 A2990 RMK 8/200=
MMTP 102145Z NIL=
MMUN 102146Z 12013KT 7SM BKN015TCU 28/23 A2996 RMK 8/200=

0000055400
745
SAGR32 LGAT 102150
METAR LGAL 102150Z NIL=
METAR LGEL 102150Z 00000KT CAVOK 08/06 Q1019=
METAR LGIO 102150Z AUTO VRB01KT //// // ////// 07/06 Q1022
     RE//=
METAR LGKV 102150Z NIL=
METAR LGMT 102150Z /////KT 9999 FEW015 BKN020 13/10 Q1021 RMK R32
      18004KT=
METAR LGPZ 102150Z AUTO 08004KT //// // ////// 12/10 Q1023
     RE//=
METAR LGRX 102150Z 00000KT 9999 BKN050 10/09 Q1022 NOSIG=
METAR LGSK 102150Z NIL=
METAR LGSR 102150Z AUTO 23016KT //// // ////// 15/11 Q1019
     RE//=
METAR LGZA 102150Z NIL=

00000000