0000010600
866
SACN62 CYYE 102200
METAR CYYE 102200Z 33006KT 30SM BKN040 M15/M18 A2950 RMK SC7 SLP024=

0000013000
867
SACN61 CYQW 102200
METAR CYQW 102200Z AUTO VRB02KT 8SM FEW009 SCT070 BKN085 BKN120
 M08/M09 A2946 RMK SLP013=

0000012200
868
SACN62 CYQX 102200
METAR CYQX 102200Z 23013G21KT 20SM FEW030 BKN130 M08/M12 A3008 RMK
 SC1AC6 SLP197=

0000010600
869
SACN61 CYZE 102200
METAR CYZE 102200Z AUTO 17010KT 8SM OVC011 M00/M02 A2994 RMK SLP149=

0000012200
870
SACN62 CYRL 102200
METAR CYRL 102200Z 14006KT 2 1/2SM -SN BR OVC009 M07/M08 A2942 RMK
 SN4SC4 SLP987=

0000010400
871
SACN62 CYSN 102200
METAR CYSN 102200Z 17006KT 15SM OVC015 03/01 A3011 RMK SC8 SLP199=

0000011200
872
SASR31 WSSS 102200
METAR WSSS 102200Z 35004KT 300V040 9999 FEW018 BKN300 24/23 Q1010
NOSIG=

0000011800
873
SAFG20 SOCA 102200
METAR SOCA 102200Z AUTO 14005KT 110V180 9999 FEW009 BKN015 OVC029
24/22 Q1010=

0000010200
874
SAGQ20 FGSL 102200
METAR FGSL 102200Z 25004KT 6000 FEW012 SCT130 25/22 Q1012 NOSIG=

0000014100
875
SACN61 CYAY 102200
METAR CYAY 102200Z AUTO 27012G19KT 3SM -SN OVC021 M09/M11 A2992 RMK
 MAX WND 25021KT AT 2103Z SLP136=

0000008300
876
SAAG41 SAME 102200
METAR SAME 102200Z 09007KT CAVOK 30/06 Q1010=

0000008900
877
SAJM31 MKJP 102200
METAR MKJP 102200Z 14021KT 9999 FEW022 29/21 Q1013=

0000010300
878
SACN61 CYFC 102200
METAR CYFC 102200Z AUTO 22003KT 9SM CLR M05/M10 A3030 RMK SLP262=

0000011200
879
SACN61 CYHD 102200
METAR CYHD 102200Z AUTO 17008KT 3SM BR OVC006 M06/M07 A2946 RMK
 SLP006=

0000011300
880
SACN61 CYGV 102200
METAR CYGV 102200Z AUTO 29006KT 9SM -SN OVC018 M09/M11 A3007 RMK
 SLP186=

0000012800
881
SAGQ21 FGSL 102200
METAR FGBT 102200Z NIL=
METAR FGSL 102200Z 25004KT 6000 FEW012 SCT130 25/22 Q1012 NOSIG=

0000027300
882
SAVN27 SVBM 102200
METAR SVBM 102200Z 11006KT 9999 FEW016 28/17 Q1014=
METAR SVSP 102200Z 06016KT 9999 FEW035 XX/XX Q1012=
METAR SVAC 102200Z NIL=
METAR SVBI 102200Z NIL=
METAR SVGU 102200Z NIL=
METAR SVSO 102200Z NIL=
METAR SVVL 102200Z NIL=

0000011200
883
SACN61 CYKF 102200
METAR CYKF 102200Z AUTO 16009KT 3/4SM BR OVC003 01/01 A3005 RMK
 SLP192=

0000013100
884
SACN61 CYKL 102200
METAR CYKL 102200Z AUTO /////KT 3/4SM -SN BKN044 OVC085 M11/M13 A2954
 RMK WND MISG SLP053=

0000012000
885
SACN61 CYMO 102200
METAR CYMO 102200Z AUTO 19008KT 3SM -SN FEW007 OVC011 M03/M03 A2978
 RMK SLP086=

00000000