0000030700
766
SAHO31 MHTG 102200
METAR MHRO 102200Z 07007KT 9999 SCT020 28/22 Q1012 A2989 NOSIG=
METAR MHLC 102200Z 34002KT 9999 SCT020 BKN070 25/22 Q1012 A2991
NOSIG=
METAR MHLM 102200Z 02011KT 9999 SCT030 28/23 Q1012 A2989NOSIG=
METAR MHTG 102200Z 08006KT 9999 SCT030 25/14 Q1016 A3000 NOSIG=

0000054500
767
SANO38 ENMI 102150
METAR ENDR 102150Z AUTO 06026KT M03/M08 Q1002=
METAR ENEK 102150Z NIL=
METAR ENGC 102150Z NIL=
METAR ENHE 102150Z 08029KT 9999 -SHSN BKN032 M02/M07 Q1003 W///S5=
METAR ENOA 102150Z 09014KT 9999 DZ OVC010 04/03 Q0998 W///S4=
METAR ENSL 102150Z AUTO 27023KT 9999NDV FEW015/// BKN110/// 08/05
           Q1001 W06/S4=
METAR ENFB 102150Z AUTO 07021KT 9999NDV FEW025/// BKN048/// 04/00
           Q0998 W///S5=
METAR ENSF 102150Z AUTO 07021KT 9999NDV BKN025/// 05/M01 Q0998
           W///S5=

0000028400
768
SANO37 ENMI 102150
METAR ENNO 102150Z NIL=
METAR ENOV 102150Z VRB02KT 9999 FEW040 M04/M06 Q0999 RMK WIND 2175FT
           34010KT=
METAR ENSD 102150Z NIL=
METAR ENSG 102150Z NIL=
METAR ENSN 102150Z NIL=
METAR ENSR 102150Z NIL=
METAR ENSS 102150Z NIL=

0000027800
769
SANO36 ENMI 102150
METAR ENBS 102150Z NIL=
METAR ENHK 102150Z NIL=
METAR ENHV 102150Z VRB01KT 5000 -SN FEW021 SCT032 BKN047 M05/M08
           Q1017=
METAR ENLK 102150Z NIL=
METAR ENMH 102150Z NIL=
METAR ENNK 102150Z NIL=
METAR ENNM 102150Z NIL=

0000008900
770
SAID32 WIDN 102200
METAR WIDN 102200Z 00000KT 8000 SCT015 25/24 Q1011=

0000019200
771
SADL34 EDZO 102150
METAR EDLP 102150Z 21009KT CAVOK 04/00 Q1016=
METAR EDQM 102150Z AUTO 23012KT 9999NDV NCD 02/M01 Q1017=
METAR EDSB 102150Z 00000KT CAVOK 00/M01 Q1019=

0000021900
772
SADL33 EDZO 102150
METAR EDFE 102150Z NIL=
METAR EDFH 102150Z 24006KT CAVOK 02/01 Q1017=
METAR EDFM 102150Z NIL=
METAR COR EDLV 102150Z 22009KT 9999 BKN012 06/03 Q1016=
METAR EDVK 102150Z NIL=

0000008300
773
SADL35 EDZO 102150
METAR EDJA 102150Z VRB01KT CAVOK 01/00 Q1018=

0000027200
774
FTNU31 TNCC 102200
TAF TNCC 102200Z 1100/1124 09011KT 9999 SCT018
    TEMPO 1104/1112 BKN014=
TAF TNCA 102200Z 1100/1124 08013KT 9999 SCT018
    TEMPO 1104/1112 BKN014=
TAF TNCB 102200Z 1100/1124 09012KT 9999 SCT018
    TEMPO 1104/1112 BKN014=

0000062100
775
SANO33 ENMI 102150
METAR ENAT 102150Z 21008KT 9999 -SN OVC003 M15/M17 Q1019 RMK WIND
           700FT 19006KT=
METAR ENBL 102150Z VRB01KT 9999 FEW/// SCT040 M03/M04 Q0996=
METAR ENEV 102150Z NIL=
METAR ENFL 102150Z 36005KT 9999 FEW050 00/M03 Q0998 =
METAR ENKB 102150Z 02003KT 320V050 9999 BKN022 M04/M08 Q1000=
METAR ENKR 102150Z 17010KT 3000 IC BR SCT001 BKN051 M21/M23 Q1016
           SEASMOKE NORTH OF THE FIELD RMK WIND 775FT 26006KT=
METAR ENML 102150Z 35003KT CAVOK M04/M08 Q1000=
METAR ENNA 102150Z VRB01KT 9999 VCFG BKN005 M14/M15 Q1018 RMK WIND
           1800FT 36005KT=

0000014300
776
SAVN31 SVVA 102200
METAR SVVA 102200Z 09007KT 9999 FEW016 30/17 Q1012=
METAR SVPC 102200Z 10010KT 9999 SCT030 XX/XX Q////=

0000032400
777
SANO35 ENMI 102150
METAR ENMS 102150Z 1411G23KT 100V200 CAVOK M09/M17 Q1008 RMK WIND
           412FT VRB05KT=
METAR ENRM 102150Z NIL=
METAR ENRS 102150Z NIL=
METAR ENSK 102150Z NIL=
METAR ENSO 102150Z NIL=
METAR ENST 102150Z NIL=
METAR ENVD 102150Z 31010KT 9999 FEW015 BKN025 M09/M12 Q1015=

0000084700
778
SAIY31 LIIB 102150
METAR LIEA 102150Z 36002KT 9000 3000N MIFG NSC 08/08 Q1020=
METAR LIEE 102150Z 17005KT 9999 MIFG NSC 11/11 Q1019=
METAR LIEO 102150Z 21002KT 7000 R05/0750VP1500D NSC 06/05 Q1021=
METAR LIMC 102150Z VRB03KT 9999 BKN040 09/06 Q1022 NOSIG=
METAR LIME 102150Z VRB02KT 2500 BR BKN010 08/07 Q1022=
METAR LIMF 102150Z 35002KT 9999 BKN035 07/05 Q1021=
METAR LIMJ 102150Z VRB02KT 9999 SCT018 BKN040 13/11 Q1021=
METAR LIML 102150Z 08004KT 050V110 5000 BR SCT004 BKN035 08/08
Q1022 NOSIG=
METAR LIRA 102145Z 00000KT 8000 SCT030 BKN070 10/09 Q1022=
METAR LIRF 102150Z 01004KT 310V040 9000 BKN030 10/08 Q1022 NOSIG=
METAR LIRN 102150Z 34004KT 300V060 5000 BR BKN030 11/07 Q1022=
METAR LIRP 102145Z 09004KT 9999 SCT050 10/08 Q1021 NOSIG=
METAR LIRQ 102150Z 00000KT 9999 FEW020 BKN035 12/11 Q1022=

0000066400
779
SAIY32 LIIB 102150
METAR LIBD 102150Z 24005KT 7000 NSC 08/08 Q1022=
METAR LIBR 102145Z 24005KT 7000 FEW020 08/07 Q1021 NOSIG=
METAR LICC 102150Z NIL=
METAR LICJ 102150Z 22006KT CAVOK 12/10 Q1021=
METAR LIPB 102150Z VRB02KT 9999 BKN045 05/04 Q1022=
METAR LIPE 102150Z 07002KT 0200 R12/1000V1400N FG VV/// 07/07
Q1022=
METAR LIPH 102150Z NIL=
METAR LIPK 102150Z NIL=
METAR LIPQ 102150Z 00000KT 2000 BR SCT009 BKN015 09/06 Q1021=
METAR LIPR 102145Z /////KT 8000 BKN040 09/09 Q1020=
METAR LIPX 102145Z 25001KT 1000 R04/P1500U BR SCT010 BKN045 08/06
      Q1022=
METAR LIPZ 102150Z VRB02KT 2500 BR SCT020 BKN050 08/07 Q1022=

0000008700
780
SAIY32 LIIB 102150 RRA
METAR LICC 102150Z 29005KT CAVOK 10/07 Q1021=

0000063700
781
SANO32 ENMI 102150
METAR ENAL 102150Z 05009KT 9999 -SN FEW016 BKN038 M01/M06 Q1000=
METAR ENCN 102150Z VRB02KT 9999 BKN017 02/02 Q1001=
METAR ENHD 102150Z 28011KT 8000 SHRA FEW006 SCT010 BKN016 06/05
           Q0999=
METAR ENRO 102150Z AUTO 08006KT 6000NDV -SN SCT003/// BKN006///
           OVC012/// M14/M17 Q0997=
METAR ENRY 102150Z 19009KT CAVOK 01/M00 Q0997=
METAR ENSB 102150Z 22010KT 9999 FEW017 BKN025 M01/M06 Q1007 RMK WIND
           1400FT 22016KT=
METAR ENTC 102150Z VRB02KT CAVOK M12/M14 Q1017 NOSIG RMK WIND 2600FT
           11009KT=
METAR ENTO 102150Z 23005KT CAVOK 00/M01 Q0997=

0000073100
782
SANO39 ENMI 102150
METAR ENNE 102150Z NIL=
METAR ENQR 102150Z AUTO 06012KT 9999NDV BKN035/// 05/M03 Q0998
           W///S/=
METAR ENSE 102150Z AUTO 08016KT 9999NDV -SHRASN FEW024/// BKN045///
           BKN056/// 03/M03 Q0998 W///S5=
METAR ENQC 102150Z AUTO 05010KT 9999NDV BKN049/// 05/M01 Q0998
           W///S5=
METAR ENQA 102150Z AUTO 07013KT 9999NDV BKN028/// BKN044/// 04/01
           Q0998 W04/S5=
METAR ENHM 102150Z AUTO 26020KT 9999NDV FEW028/// SCT077/// 07/05
           Q0999 W08/S4=
METAR ENVH 102150Z AUTO 24022KT 9999NDV -DZ FEW012/// OVC022/// 07/06
           Q1005 W///S4=
METAR ENLA 102150Z AUTO 26023KT 9999NDV BKN033/// BKN059/// 08/07
           Q1003 W///S4=

0000011200
783
SABZ20 SBEG 102200 CCA
METAR SBEG 102200Z 23005KT 9999 TS VCSH BKN015
FEW025CB 27/23 Q1009=

0000010000
784
SACS31 MROC 102151
METAR
MROC 102200Z 09007G17KT 9999 FEW030 27/11 A2993 NOSIG=

0000066200
785
SANO31 ENMI 102150
METAR ENAN 102150Z 11014KT CAVOK M06/M15 Q1016=
METAR ENBR 102150Z VRB01KT 9999 FEW003 BKN035 03/02 Q0999 RMK WIND
           1200FT 04003KT=
METAR ENBO 102150Z 11018KT CAVOK M07/M16 Q1011 NOSIG=
METAR ENDU 102150Z 31002KT 9999 FEW040 M23/M25 Q1017=
METAR ENGM 102150Z 20005KT 9999 FEW004 BKN043 M01/M02 Q0996 TEMPO
           BKN008=
METAR ENOL 102150Z 06007KT 9999 -SN FEW012 SCT020 BKN200 M08/M11
           Q1002=
METAR ENVA 102150Z 06007KT 030V100 9999 BKN027 M09/M14 Q1002 RESG RMK
           WIND 670FT 11012KT=
METAR ENZV 102150Z 25010KT 9999 VCSH FEW009 SCT013 BKN019 07/06
           Q1001=

00000000