0000034200
026
SAIY35 LIIB 102300
METAR LIQN 102300Z NIL=
METAR LIQW 102300Z NIL=
METAR LIRG 102300Z NIL=
METAR LIRH 102300Z NIL=
METAR LIRL 102300Z NIL=
METAR LIRM 102255Z 01004KT 4000 BR SCT015 BKN060 11/10 Q1021=
METAR LIRS 102255Z /////KT 9999 FEW020 SCT040 09/06 Q1022=
METAR LIRU 102300Z NIL=
METAR LIRV 102300Z NIL=

0000027300
027
SAIY36 LIIB 102300
METAR LIBC 102300Z NIL=
METAR LIBF 102300Z NIL=
METAR LIBG 102300Z NIL=
METAR LIBP 102250Z VRB03KT 4000 BR NSC 05/03 Q1022=
METAR LIRI 102300Z NIL=
METAR LIRJ 102300Z NIL=
METAR LIRZ 102250Z VRB02KT 7000 BKN040 08/07 Q1022=

0000025900
028
SAIY37 LIIB 102300
METAR LICA 102250Z 08006KT 9999 FEW025 07/06 Q1022=
METAR LICD 102250Z 20013KT CAVOK 16/14 Q1022=
METAR LICG 102300Z NIL=
METAR LICR 102250Z VRB02KT CAVOK 10/00 Q1020=
METAR LICT 102255Z 13003KT CAVOK 11/10 Q1020=

0000011800
029
SACN62 CYPL 102300
METAR CYPL 102300Z 19009KT 2SM -SN BR OVC005 M08/M09 A2950 RMK FG2SF6
 SLP016=

0000183000
030
FTHK31 VHHH 102300
TAF VHHH 102300Z 1100/1206 07010KT 7000 FEW030 TX20/1106Z 
TX21/1206Z TN16/1123Z TEMPO 1104/1110 30010KT TEMPO 1110/1118 
VRB05KT TEMPO 1122/1203 01010KT TEMPO 1203/1206 29010KT 4000 HZ=
TAF RCTP 102300Z 1100/1206 08010KT 9999 FEW020 SCT035
    TEMPO 1100/1102 12005KT 
    BECMG 1110/1112 04010KT FEW010 BKN025 BKN050
    TEMPO 1112/1118 FEW006 BKN012 BKN025
    TEMPO 1118/1124 4500 RA FEW005 BKN008 BKN020
    BECMG 1200/1202 02018KT FEW008 BKN016 BKN040=
TAF RCKH 102300Z 1100/1206 32005KT 7000 FEW015 SCT035
    TEMPO 1100/1102 01005KT 5000 HZ 
    TEMPO 1102/1106 24005KT 
    BECMG 1110/1112 02005KT 
    TEMPO 1116/1124 4000 BR
    BECMG 1202/1204 36010KT=
TAF RCSS 102300Z 1100/1124 11005KT 9999 FEW015 BKN035 BKN090
    TEMPO 1102/1108 12010KT 
    TEMPO 1118/1124 4500 RA FEW010 BKN020 BKN050=
TAF VMMC 102305Z 1100/1206 07010KT 7000 SCT025
    TEMPO 1100/1106 01008KT 3500 HZ=
TAF RPLL 102300Z 1100/1206 10010KT 9999 FEW025 TX29/1105Z TN22/1121Z
    TEMPO 1100/1106 11010KT 9999 FEW023 SCT100 TEMPO 1106/1112       
   12010KT 9000 SCT023 BKN100 TEMPO 1200/1206 10008KT=
TAF RPVM 102300Z 1100/1206 02010KT 9999 FEW020 BKN090 OVC250 TEMPO  
    1100/1106 02012KT FEW020 OVC090 TEMPO 1106/1112 04012KT 8000 -RA 
   FEW020 OVC080 TEMPO 1200/1206 36010KT=
TAF RPMD 102300Z 1100/1124 36006KT 9999 FEW016 BKN090 OVC290 TEMPO  
    1100/1106 02004KT 8000 -RA SCT016 BKN090 OVC290=
TAF RPLB 102300Z 1100/1124 07014KT 9999 FEW040 TX31/1106Z TN24/1122Z
    TEMPO 1100/1106 07018G30KT 9000 VCSHRA SCT020 BKN100=
TAF RPLI 102300Z 1100/1124 06008KT 9999 FEW019 TEMPO 1106/1112      
    09010KT FEW019 SCT2900=
TAF RPMZ 102300Z 1100/1124 04008KT 9999 FEW018 SCT350 TEMPO         
    1100/1106 02006KT 9000 -SHRA FEW018 OVC100=

0000010300
031
SACA31 TNCC 102300
METAR TNCC 102300Z 09008KT 050V110 9999 FEW014 26/23 Q1013 NOSIG=

0000013700
032
SACN62 CYQL 102300
METAR CYQL 102300Z 27020G25KT 40SM BKN100 BKN150 BKN270 04/M03 A2955
 RMK AC5AC1CI2 AC TR SLP034=

0000013400
033
SACN61 CYPY 102300
METAR CYPY 102300Z AUTO 25003KT 9SM -SN SCT048 BKN070 BKN083 OVC150
 M17/M19 A2951 RMK SLP018=

0000013600
034
SACN62 CYPW 102300
METAR CYPW 102300Z 10006KT 8SM -RA FEW020 SCT035 OVC080 05/03 A2989
 RMK SC1NS3AS5 SC TR SLP126=

0000011500
035
SACN62 CYQB 102300
METAR CYQB 102300Z 17003KT 10SM -SHSN OVC017 M09/M11 A3027 RMK SC8
 SLP259=

0000013200
036
SACN62 CYQR 102300
METAR CYQR 102300Z 32005KT 1/4SM R13/1800V2200FT/N FZFG VV002 M09/M09
 A2947 RMK FG8 SLP020=

0000013700
037
SACN62 CYQU 102300
METAR CYQU 102300Z 26017G25KT 25SM DRSN FEW060 FEW120 BKN210 M02/M09
 A2954 RMK SC1AC1CI4 SLP041=

0000015300
038
FTNT31 KWBC 102306
TAF
TAF BGSF 102300Z 1100/1206 06010KT 9999 FEW100
      TEMPO 1100/1106 BKN060
      TEMPO 1122/1206 BKN050=

0000008900
039
SAID32 WIDN 102300
METAR WIDN 102300Z 00000KT 8000 SCT013 25/24 Q1011=

0000009800
040
SANL33 EHDB 102255 RRA
METAR EHJR 102255Z AUTO 22027G30KT  09/07 Q1011 W10/H18=

0000010200
041
SANL33 EHDB 102255 RRB
METAR EHSC 102255Z AUTO 22026G28KT 9999 07/06 Q1014 W08/H17=

0000010200
042
SANL33 EHDB 102255 RRC
METAR EHSA 102255Z AUTO 22025G28KT 9999 08/06 Q1014 W09/H18=

0000013400
043
SACN61 CYTE 102300
METAR CYTE 102300Z AUTO 27013KT 9SM OVC075 M21/M25 A2937 RMK MAX WND
 27018KT AT 2211Z SLP952=

0000011800
044
SACN62 CYRL 102300
METAR CYRL 102300Z 13006KT 2SM -SN BR OVC008 M07/M08 A2941 RMK SN5SC3
 SLP985=

0000010400
045
SACN62 CYSN 102300
METAR CYSN 102300Z 15006KT 15SM OVC018 03/01 A3007 RMK SC8 SLP188=

00000000