0000011300
146
SAGC31 MWCR 110300
METAR MWCR 110300Z 11004KT 9999 FEW018 25/23 Q1016 NOSIG=
METAR MWCB NIL=

0000107100
147
SPUS70 KWBC 110250
SPECI
KCRE 110246Z 19003KT 3/4SM BR BKN003 OVC017 17/16 A3014 RMK AO2
     RAB0159E31 P0000=
KEST 110246Z AUTO 24006KT 2SM BR OVC005 M01/M02 A2951 RMK AO2
     I1001=
KFCM 110246Z 22003KT 3/4SM BR VV002 M01/M02 A2950 RMK AO2=
KFFC 110246Z AUTO 00000KT 3SM -RA BR OVC005 09/08 A3007 RMK AO2
     RAB06 P0003 T00890083=
KGLH 110246Z AUTO 18015KT 9SM OVC008 16/14 A2976 RMK AO2 P0001=
KMDT 110246Z 00000KT 1SM -RA BR OVC003 01/M01 A3022 RMK AO2
     DZE16RAB16 P0002 RVRNO=
KMEI 110246Z 16007KT 7SM OVC004 14/14 A2992 RMK AO2=
KMFI 110246Z AUTO 07003KT 3SM BR FEW009 BKN023 OVC037 M02/M03
     A2948 RMK AO2 SNE43 P0001 T10171028=
KSMQ 110246Z AUTO 35003KT 1 1/4SM -RA BR OVC006 01/00 A3026 RMK
     AO2 RAE05B37 P0001 T00060000 TSNO=
KJST 110247Z AUTO 17010KT 1 1/4SM BR OVC002 02/02 A3003 RMK AO2
     T00220017=
KPBF 110247Z AUTO 17003KT 2SM BR BKN045 OVC085 12/12 A2970 RMK AO2
     LTG DSNT SE RAE45 P0006=
KSRC 110247Z AUTO 19007KT 3SM BR OVC001 09/09 A2969 RMK AO2 TSNO
     RAE28 P0001=

0000009800
148
SPUS41 KWBC 110250
SPECI
KMDT 110246Z 00000KT 1SM -RA BR OVC003 01/M01 A3022=

0000011700
149
SPUS41 KWBC 110250
SPECI
KORH 110246Z AUTO 24006KT 1/4SM R11/2000V2400FT FG VV002 01/01
A3027=

0000017000
150
SAMP31 LMMM 110300
METAR HLLT NIL=
METAR HLLB 110245Z
00000KT 9999 SCT020 BKN080 11/09 Q1025 =
METAR LMML 110245Z AUTO 22005KT CAVOK 14/13 Q1022=

0000026300
151
SADR31 MDSD 110300
METAR MDPP 110300Z 09008KT 9999 FEW018 SCT070 24/21 Q1019=
METAR MDST 110300Z 13008KT 8000 -RA BKN015 21/21 Q1020=
METAR MDPC 110300Z 09015KT 9999 SCT018 25/20 Q1019 =
METAR MDSD 110300Z 00000KT 9999 FEW018 22/20 Q1019=

0000008100
152
SAEA20 HKNC 110200 RRC
METAR HKKT 110200Z 00000KT CAVOK 12/08=

0000011400
153
SALT33 EYVI 110250
METAR EYPA 110250Z AUTO 29005KT 220V350 9999 -SHRA OVC014/// 02/M00
Q1004=

0000019300
154
FTCN33 CWAO 110200 AAA
TAF AMD CYVQ 110257Z 1102/1112 30006KT P6SM -SN BKN080
    FM110500 30005KT P6SM SCT080 TEMPO 1105/1112 6SM -SN BKN080
    RMK NXT FCST BY 110600Z=

0000036100
155
FTFR31 LFPW 102300 AAF
TAF AMD LFPG 110254Z 1102/1206 VRB03KT 6000 -RA BKN003 TEMPO
1102/1111 2500 BR PROB40 TEMPO 1102/1111 0500 FG VV/// BECMG
1107/1109 22005KT BECMG 1111/1113 1200 BCFG BKN005 BECMG 1113/1115
8000 NSW BKN008 BECMG 1116/1118 CAVOK BECMG 1122/1124 3000 BR BKN005
BECMG 1200/1202 0900 FG BKN002 TX08/1113Z TN01/1124Z=

0000028100
156
FTES31 MSLP 110325
TAF MSLP 110325Z 1106/1206 02008KT CAVOK TX33/1118Z TN20/1111Z  
FM111800 18010KT 9999 FEW066
FM110100 30008KT CAVOK=
TAF MSSS 110325Z 1106/1206 35007KT CAVOK TX31/1118Z TN17/1111Z
FM112000 17008KT 9999 FEW043
FM110100 34007KT CAVOK=

0000011100
157
SADL34 EDZO 110250 RRA
METAR EDNY 110250Z AUTO 09003KT 0150 R24/0500N FG BKN001 01/00 Q1019=

0000063100
158
SAMX31 KWBC 110245 RRC
METAR
MMAA 110245Z 00000KT 8SM SKC 27/22 A2989 RMK SLP122 52020 957=
MMMX 110244Z 16006KT 12SM FEW080 16/05 A3028 NOSIG RMK SLP122
     52021 954 8/030 SC=
MMMY 110243Z 00000KT 12SM SKC 18/13 A2994 RMK SLP148 50029 961
     ISOL AC=
MMMZ 110251Z 01007KT 10SM FEW100 SCT220 17/12 A2993 RMK SLP135
     52017 903 8/032 HZY=
MMPR 110246Z 00000KT 15SM SKC 22/18 A2993 RMK SLP132 52020 901 AC
     SE=
MMTM 110241Z 15010KT 5SM SCT010 BKN060 BKN200 21/18 A2989 RMK
     SLP124 57061 992 8/538 HZY=
MMVR 110247Z 00000KT 7SM SKC 21/18 A2992 RMK SLP111 52020 991
     HZY=

0000010500
159
SABZ22 SBBR 110300
METAR SBBR 110300Z 19003KT 9999 VCTS SCT035
FEW040CB 22/16 Q1018=

0000051500
160
SAUK31 EGGY 110250
METAR EGBB 110250Z AUTO 27005KT 9999 -RA FEW010/// SCT024///
    BKN031/// 07/06 Q1010 RERA=
METAR COR EGCC 110250Z 31008KT 9999 FEW015 06/04 Q1010 NOSIG=
METAR EGKK 110250Z NIL=
METAR EGLL 110250Z 21007KT 9000 FEW034 BKN040 08/07 Q1012=
METAR EGPF 110250Z 20006KT 9999 FEW059TCU 00/M01 Q1009=
METAR EGPH 110250Z 24008KT 9999 FEW025 01/M00 Q1008=
METAR EGPK 110250Z 20004KT 9999 FEW028 03/01 Q1010=
METAR EGSS 110250Z 20010KT 9999 -RA BKN007 OVC020 07/06 Q1011=

0000010000
161
SPUS43 KWBC 110253
SPECI
KBDE 110249Z AUTO 18006KT 4SM BR OVC010 M03/M04 A2941=

0000008600
162
SAMX55 MMIO 110300
METAR MMIO 110240Z 00000KT 10SM SKC 14/08 A3012=

0000049300
163
SAUK32 EGGY 110250
METAR EGAA 110250Z AUTO 20006KT 9000 NCD 01/01 Q1011=
METAR EGAC 110250Z NIL=
METAR EGFF 110250Z 29011KT 9999 FEW008 SCT036 BKN043 07/06 Q1013=
METAR EGGW 110250Z 21010KT 8000 OVC005 07/06 Q1011=
METAR EGLC 110250Z AUTO 21008KT 9999 -DZ BKN040/// 09/07 Q1012=
METAR EGNM 110250Z 30007KT 9999 FEW030 SCT040 04/03 Q1009=
METAR EGNX 110250Z 26012KT 9999 -RA FEW008 SCT016 BKN042 07/06
    Q1010=
METAR EGPD 110250Z 25009KT CAVOK 02/M02 Q1005=

0000035500
164
SAUK33 EGGY 110250
METAR EGGD 110250Z 26010KT 9999 -DZ BKN003 BKN024 06/06 Q1012=
METAR EGGP 110250Z 31006KT 9999 -SHRA FEW018 SCT031 06/04 Q1011=
METAR EGHI 110250Z NIL=
METAR EGNS 110250Z NIL=
METAR EGNT 110250Z 25008KT 9999 FEW030 02/02 Q1008=
METAR EGNV 110250Z NIL=
METAR EGPB 110250Z AUTO 26020KT 9999 NCD 07/03 Q0999=

0000021700
165
SAUK34 EGGY 110250
METAR EGHE 110250Z NIL=
METAR EGHK 110250Z NIL=
METAR EGHQ 110250Z NIL=
METAR EGJA 110250Z NIL=
METAR EGJB 110250Z NIL=
METAR EGJJ 110250Z NIL=
METAR EGTE 110250Z NIL=

00000000