0000062700
326
USAA01 NZCM 110000
TTAA 61001 89664
99997 00056 18501 00512 ///// ///// 92601 07158 18518
85255 11341 17017 70716 21114 15006 50514 33959 24513
40666 44759 24520 30855 51765 24023 25975 45585 24514
20124 43786 24513 15318 43586 26009 10592 41586 23504
88320 52361 23026
77999
31313 48008 82219=

0000069700
87361=
0000011200
87368=
0000015000
87382=
0000030600
87414=
0000011000
87481=
0000054200
87583
0000058400
87642
0000062600
87763
0000054300
87949=
0000054500
88948
0000066900
89559
0000062800
90257
0000064900
91227
0000077400
92674
0000068900
327
USAA01 NZCM 110000
TTAA 61001 89664
99997 00056 18501 00512 ///// ///// 92601 07158 18518
85255 11341 17017 70716 21114 15006 50514 33959 24513
40666 44759 24520 30855 51765 24023 25975 45585 24514
20124 43786 24513 15318 43586 26009 10592 41586 23504
88320 52361 23026
77999
31313 48008 82219=

0000069700
87361=
0000011200
87368=
0000015000
87382
0000012800
87386
0000045600
87406
0000047700
87410
0000049800
87416
0000051900
87420
0000047800
87441=
0000045900
87536
0000052100
87559
0000054200
87603
0000052200
87665
0000060500
87771
0000062600
87959=
0000062700
88954=
0000064900
92650
0000038300
328
SMAL03 DAMM 110000
AAXX 11004
60395 12965 7//// 10132 20089 40168 56007 60001 84072
  333 84360 84073 95990=
60444 12560 70000 10078 20040 39112 48531 58005 60001 872//
  333 0//00 87830 95990=
60452 12965 52506 10178 20047 40151 50001 60001 80002 222// 20000
  333 85073 91816=
60457 12960 20000 10127 20036 40151 58001 60001 80002
  333 82073 95990=
0000075100
329
USAA01 NZCM 110000
TTAA 61001 89664
99997 00056 18501 00512 ///// ///// 92601 07158 18518
85255 11341 17017 70716 21114 15006 50514 33959 24513
40666 44759 24520 30855 51765 24023 25975 45585 24514
20124 43786 24513 15318 43586 26009 10592 41586 23504
88320 52361 23026
77999
31313 48008 82219=

0000069700
87361=
0000011200
87368=
0000015000
87382
0000012800
87386
0000045600
87406
0000047700
87410
0000049800
87416
0000051900
87420=
0000047900
87502
0000013400
87528
0000052100
87563
0000054200
87615=
0000054400
88106
0000056500
88377
0000058600
88682
0000064800
89049
0000064800
89591
0000064900
90281
0000069000
91273
0000073200
92660
0000056500
330
USAA01 NZCM 110000
TTAA 61001 89664
99997 00056 18501 00512 ///// ///// 92601 07158 18518
85255 11341 17017 70716 21114 15006 50514 33959 24513
40666 44759 24520 30855 51765 24023 25975 45585 24514
20124 43786 24513 15318 43586 26009 10592 41586 23504
88320 52361 23026
77999
31313 48008 82219=

0000069700
87361=
0000011200
87368=
0000015000
87382
0000012800
87386
0000045600
87406=
0000047800
87429=
0000005900
87506=
0000058400
87701
0000056400
87813=
0000058600
88899=
0000071100
92636
0000024400
331
SNVD15 KWNB 111100 RRD
BBXX
41009 11111 99285 70802 46/// /1806 10239 20219 40180 56007 91050
22200 00240 10903 20501 307// 40903 70015 333 91207 555 11062
22065 30955 41707 61049 179058 182056 184051 180053 173054 174057=
0000023200
332
SNVD20 KWNB 111100 RRE
BBXX
44013 11111 99423 70707 46/// /1505 10050 20050 40193 56040 91050
22200 00046 10501 20501 70003 333 91206 555 11058 22063 30956
41306 61049 152055 156057 155055 146050 140050 134054=
0000024400
333
SNVD17 KWNB 111100 RRE
BBXX
51101 11111 99243 71621 46/// /0613 10224 20195 40147 58014 91050
22200 00237 11009 20806 306// 41007 70047 333 91216 555 11136
22144 31018 40819 61049 061124 062120 069127 073122 089117 075120=
0000043900
334
SNVD22 KWNB 111100 RRF
BBXX
46069 11111 99337 71202 46/// /0202 10146 40195 54000 91050 22200
00142 11405 20301 3//// 41405 70026 333 91203 555 11026 22030
31011 40207 61049 023023 016029 028046 026055 018054 009050=
46088 11111 99483 71232 46/// /1607 10094 20078 49920 56020 91050
22200 00075 10502 20502 312// 40801 70010 333 91208 555 11077
22087 30952 41411 61049 157070 155072 152070 145074 145072 144091=
0000069400
335
SNVD19 KWNB 111100 RRA
BBXX
46126 11111 99540 71666 46/// /2002 10045 49805 91036 22200 00046
1//00 70002 333 91204 555 11023 22025=
46126 11111 99540 71666 46/// /2002 10045 49805 91040 22200 00046
1//00 70002 333 91204 555 11023 22025=
46126 11111 99540 71666 46/// /1903 10045 49805 91042 22200 00046
1//00 70002 333 91204 555 11033 22035=
46126 11111 99540 71666 46/// /1903 10043 49805 91045 22200 00045
1//00 70002 333 91204 555 11033 22035=
46078 11111 99560 71526 46/// /2107 10037 20017 49935 58017 91050
22200 00044 11104 20602 324// 41104 70022 333 91209 555 11076
22081 31007 42312 61049 213074 213077 216077 239067 224081 219069
82311 91007=
0000030500
336
SNVE15 KWNB 111100 RRA
BBXX
51004 11111 99175 71524 46/// /1008 10248 40135 58006 91050 22200
00249 11105 20503 309// 41104 70025 333 91209 555 11084 22090
30953 42911 61049 095080 278076 278072 278074 278079 277085=
51100 11111 99236 71539 46/// /0911 1//// 91050 555 11121 22129=
0000028700
337
SXHW11 KWAL 111105
B15017A0 011110503"
1,140111,10:00:00,6.8,122,9.2,11.5,1015.1,6.03,12.9,
1,140111,10:15:00,7.7,144,9.9,11.4,1015.0,6.03,12.9,
1,140111,10:30:00,7.6,138,8.8,11.5,1014.9,6.03,12.9,
1,140111,10:45:00,7.7,134,8.7,11.5,1014.8,6.03,12.9, 41+0NN 210W
0000012000
338
SITH41 VTBB 110900 RRD
AAXX 11094
48416 32560 20000 10280 20221 39994 40141 57003 81506
  333 58012=
0000013500
339
SNVD02 CWAO 111100
BBXX
SHIP 11114 99474 70619 46/// /2207 11042 21078 40238 58001 7//// 8//// 22200 0//// 2//// =

0000011900
340
SAIR33 OIII 111100 RRA
METAR OICK 111050Z 12004KT 8000 -RA FEW010 FEW030CB BKN035 OVC080
04/03 Q1017=
0000056300
341
SATH40 VTBB 111100
METAR VTCH 111100Z 12006KT 110V140 9999 FEW028 25/17 Q1014 A2995=
METAR VTCP 111100Z NIL=
METAR VTPH 111100Z NIL=
METAR VTPN 111100Z NIL=
METAR VTPP 111100Z VRB03KT 5000 HZ FEW030 28/17 Q1013 A2994=
METAR  VTSF  111100Z  000000KT  9999   FEW018  SCT022  BKN300  26/24 
Q1012  A2990=
METAR VTSM 111100Z 15008KT 8000 FEW020 SCT120 BKN300 28/23 Q1013
A2992=
METAR VTUK 111100Z 03004KT CAVOK 27/15 Q1015 A2997=
METAR VTUL 111100Z NIL=
METAR VTBS 111100Z 07006KT 350V120 9999 FEW025 SCT300 30/14 Q1013 
NOSIG=
0000404000
342
SAIR31 OIII 111100
 METAR OIAA 111100Z 30008KT 4000 BR FEW035CB FEW040 BKN100 13/11
 Q1017=
METAR OIAG 111100Z 10014KT 4000 SHRA SCT030CB BKN035 12/11 Q1018=
 METAR OIAH 111100Z 00000KT 4000 RA FEW030CB SCT035 OVC070 08/08
 Q1017=
METAR OIAI 111100Z 15004KT 9999 SCT030CB SCT035 OVC070 11/08 Q1015=
METAR OIAM 111100Z 11018KT 8000 SHRA SCT030CB SCT035 13/11 Q1016=
METAR OIAW 111100Z 14010KT 9999 FEW020CB SCT025 OVC080 14/10 Q1016=
 METAR OIBA 111100Z 00000KT 5000 -RA FEW025CB FEW030 OVC080 20/12
 Q1018=
 METAR OIBB 111100Z 15012KT 9999 FEW030CB SCT035 OVC080 14/10 Q1016
 A3002=
 METAR OIBK 111100Z 08012KT 6000 -RA FEW030CB SCT025 OVC080 15/13
 Q1019=
 METAR OIBL 111100Z 03006KT 3000 -RA FEW020CB SCT025 OVC080 14/12
 Q1019=
METAR OIBS 111100Z 06020KT 7000 -SHRA FEW030CB OVC080 19/16 Q1019=
 METAR OICC 111100Z 00000KT 0800 R11/0600D +SN SCT021CB SCT030
 OVC060 M00/M01 Q1018 A3008 TEMPO SN=
 METAR OICI 111100Z Z 00000KT 7000 FEW015 FEW025CB SCT035 OVC090
 05/05 Q1015 A3000=
 METAR OICJ 111050Z 00000KT 2000 -SN FEW030CB SCT035 OVC070 01/M01
 Q1017=
 METAR OICK 111050Z 12004KT 8000 -RA FEW010 FEW030CB BKN035 OVC080
 04/03 Q1017=
METAR OICS 111100Z 26002KT 7000 SCT035 BKN080 02/M04 Q1018=
METAR OIFK 111100Z 35004KT 4000 -SN BKN020 OVC070 01/00 Q1023=
 METAR OIFM 111100Z 34004KT 2200 HZ SCT040 OVC100 02/M03 Q1017
 A3004=
 METAR OIFS 111100Z 00000KT 3000 BR FEW025CB SCT030 OVC080 M02/M04
 Q1017=
METAR OIGG 111100Z 33004KT 3000 BR SCT025 BKN090 10/08
Q1013=
METAR OIGK 111050Z 32008KT 9999 FEW035 BKN150 M02/M07 Q1016=
METAR OIHH NIL=
METAR OIHM 111100Z 27010KT 0500 +SN SCT035 OVC080 M03/M03 Q1016=
 METAR OIIE 111100Z 22006KT 5000 BR SCT025 SCT035CB SCT045 OVC080
 01/M00 Q1020 A3013 NOSIG=
 METAR OIII 111100Z 24008KT 0800 -SN SCT025 OVC080 00/M01 Q1019
 A3010 TEMPO 0800 SN FEW035CB SCT030 BKN100 TEMPO 0800 SN FEW035CB SCT030 BKN100=
 METAR OIIK 111100Z 11004KT 5000 HZ FEW035CB SCT040 OVC090 01/M03
 Q1019=
 METAR OIIP 111100Z 00000KT 1200 BR SCT020 SCT035 OVC080 M01/M01
 Q1018=
METAR OIIS 111100Z 30004KT 9999 SCT030 OVC090 04/00 Q1019 RESN=
 METAR OIKB 111100Z 34004KT 7000 -RA FEW025CB SCT030 OVC090 16/07
 Q1020 A3014 NOSIG=
METAR OIKK 111050Z 00000KT 9999 SCT035 OVC100 06/M03 Q1019 A3010=
 METAR OIKO 111100Z 00000KT 8000 FEW030 FEW025CB OVC080 17/02
 Q1020=
 METAR OIKQ 111100Z 34010KT 8000 -RA FEW025CB SCT030 BKN090 14/08
 Q1019=
METAR OIMB 111100Z 09012KT 9999 SCT030 BKN090 07/M13 Q1019=
METAR OIMC 111100Z 15012KT 9999 SCT040 BKN170 15/M05 Q1018=
METAR OIMD 111100Z 05006KT 9999 FEW035 SCT190 08/M05 Q1016=
METAR OIMM 111100Z 30006KT 9999 FEW040 SCT110 09/M12 Q1018 A3007=
METAR OINB 111100Z 05006KT 9999 FEW022 OVC100 10/08 Q1014=
METAR OING 111100Z 29006KT 6000 SCT030 BKN090 12/07 Q1016=
METAR OINK 111100Z 22004KT 7000 FEW030 BKN100 12/06 Q1013=
METAR OINN 111100Z 09006KT CAVOK 11/10 Q1014=
METAR OINR 111100Z 13008KT 7000 FEW045 OVC160 11/07 Q1013=
 METAR OISA 111050Z 21006KT 9999 FEW035CB SCT040 BKN100 05/M01
 Q1016=
 METAR OISF 111050Z 14006KT 8000 -SHRA FEW030CB SCT035 OVC090 08/03
 Q1019=
 METAR OISL 111100Z 00000KT 9999 FEW020 FEW035CB OVC090 08/05
 Q1020=
 METAR OISS 111100Z 00000KT 1500-RA BR FEW030CB SCT035 OVC070 03/02
 Q1019 A3011=
 METAR OISY 111100Z 00000KT 0500 +SNRA FEW030CB SCT035 OVC080 01/01
 Q1019 RERA=
METAR OITL 111050Z 22019KT 9999 SCT090 BKN190 00/M04 Q1014=
 METAR OITR 111100Z 09004KT 2000 HZ SCT035 BKN170 M05/M09 Q1019
 NOSIG=
 METAR OITT 111100Z VRB02KT 5000 HZ FEW035 BKN180 M03/M10 Q1020
 A3013=
METAR OITU 111050Z 00000KT 3000 BR SKC M10/M10 Q1020=
 METAR OIYY 111100Z 33006KT 5000 HZ FEW035 SCT100 08/M01 Q1018=
METAR OIZB 111100Z 09004KT CAVOK 10/M03 Q1022=
METAR OIZC NIL=
 METAR OIZH 111100Z 11012KT 9999 SCT035 FEW040CB BKN090 07/M06
 Q1019 A3011 TEMPO SHRA=
METAR OIZI 111100Z 07008KT 9999 FEW020 OVC090 15/M05 Q1019=
METAR OIZJ 111100Z 00000KT 9999 SCT030 BKN090 20/06 Q1019=
0000431800
343
SAIR77 OIII 111100
METAR AZUH 111100Z 00000KT 2500 HZ OVC025 M07/M10 Q1022=
METAR KHME 111050Z 18004KT CAVOK 10/M07 Q1019=
 METAR OIAA 111100Z 30008KT 4000 BR FEW035CB FEW040 BKN100 13/11
 Q1017=
METAR OIAG 111100Z 10014KT 4000 SHRA SCT030CB BKN035 12/11 Q1018=
 METAR OIAH 111100Z 00000KT 4000 RA FEW030CB SCT035 OVC070 08/08
 Q1017=
METAR OIAI 111100Z 15004KT 9999 SCT030CB SCT035 OVC070 11/08 Q1015=
METAR OIAM 111100Z 11018KT 8000 SHRA SCT030CB SCT035 13/11 Q1016=
METAR OIAW 111100Z 14010KT 9999 FEW020CB SCT025 OVC080 14/10 Q1016=
 METAR OIBA 111100Z 00000KT 5000 -RA FEW025CB FEW030 OVC080 20/12
 Q1018=
 METAR OIBB 111100Z 15012KT 9999 FEW030CB SCT035 OVC080 14/10 Q1016
 A3002=
 METAR OIBK 111100Z 08012KT 6000 -RA FEW030CB SCT025 OVC080 15/13
 Q1019=
 METAR OIBL 111100Z 03006KT 3000 -RA FEW020CB SCT025 OVC080 14/12
 Q1019=
METAR OIBS 111100Z 06020KT 7000 -SHRA FEW030CB OVC080 19/16 Q1019=
 METAR OICC 111100Z 00000KT 0800 R11/0600D +SN SCT021CB SCT030
 OVC060 M00/M01 Q1018 A3008 TEMPO SN=
 METAR OICI 111100Z Z 00000KT 7000 FEW015 FEW025CB SCT035 OVC090
 05/05 Q1015 A3000=
 METAR OICJ 111050Z 00000KT 2000 -SN FEW030CB SCT035 OVC070 01/M01
 Q1017=
 METAR OICK 111050Z 12004KT 8000 -RA FEW010 FEW030CB BKN035 OVC080
 04/03 Q1017=
METAR OICS 111100Z 26002KT 7000 SCT035 BKN080 02/M04 Q1018=
METAR OIFK 111100Z 35004KT 4000 -SN BKN020 OVC070 01/00 Q1023=
 METAR OIFM 111100Z 34004KT 2200 HZ SCT040 OVC100 02/M03 Q1017
 A3004=
 METAR OIFS 111100Z 00000KT 3000 BR FEW025CB SCT030 OVC080 M02/M04
 Q1017=
METAR OIGG 111100Z 33004KT 3000 BR SCT025 BKN090 10/08
Q1013=
METAR OIGK 111050Z 32008KT 9999 FEW035 BKN150 M02/M07 Q1016=
METAR OIHM 111100Z 27010KT 0500 +SN SCT035 OVC080 M03/M03 Q1016=
 METAR OIIE 111100Z 22006KT 5000 BR SCT025 SCT035CB SCT045 OVC080
 01/M00 Q1020 A3013 NOSIG=
 METAR OIII 111100Z 24008KT 0800 -SN SCT025 OVC080 00/M01 Q1019
 A3010 TEMPO 0800 SN FEW035CB SCT030 BKN100 TEMPO 0800 SN FEW035CB SCT030 BKN100=
 METAR OIIK 111100Z 11004KT 5000 HZ FEW035CB SCT040 OVC090 01/M03
 Q1019=
 METAR OIIP 111100Z 00000KT 1200 BR SCT020 SCT035 OVC080 M01/M01
 Q1018=
METAR OIIS 111100Z 30004KT 9999 SCT030 OVC090 04/00 Q1019 RESN=
 METAR OIKB 111100Z 34004KT 7000 -RA FEW025CB SCT030 OVC090 16/07
 Q1020 A3014 NOSIG=
METAR OIKK 111050Z 00000KT 9999 SCT035 OVC100 06/M03 Q1019 A3010=
 METAR OIKO 111100Z 00000KT 8000 FEW030 FEW025CB OVC080 17/02
 Q1020=
 METAR OIKQ 111100Z 34010KT 8000 -RA FEW025CB SCT030 BKN090 14/08
 Q1019=
METAR OIMB 111100Z 09012KT 9999 SCT030 BKN090 07/M13 Q1019=
METAR OIMC 111100Z 15012KT 9999 SCT040 BKN170 15/M05 Q1018=
METAR OIMD 111100Z 05006KT 9999 FEW035 SCT190 08/M05 Q1016=
METAR OIMM 111100Z 30006KT 9999 FEW040 SCT110 09/M12 Q1018 A3007=
METAR OIMN 111100Z 14010KT CAVOK 09/M15 Q1017 A3003=
METAR OINB 111100Z 05006KT 9999 FEW022 OVC100 10/08 Q1014=
METAR OING 111100Z 29006KT 6000 SCT030 BKN090 12/07 Q1016=
METAR OINK 111100Z 22004KT 7000 FEW030 BKN100 12/06 Q1013=
METAR OINN 111100Z 09006KT CAVOK 11/10 Q1014=
METAR OINR 111100Z 13008KT 7000 FEW045 OVC160 11/07 Q1013=
 METAR OISA 111050Z 21006KT 9999 FEW035CB SCT040 BKN100 05/M01
 Q1016=
 METAR OISF 111050Z 14006KT 8000 -SHRA FEW030CB SCT035 OVC090 08/03
 Q1019=
 METAR OISL 111100Z 00000KT 9999 FEW020 FEW035CB OVC090 08/05
 Q1020=
 METAR OISS 111100Z 00000KT 1500-RA BR FEW030CB SCT035 OVC070 03/02
 Q1019 A3011=
 METAR OISY 111100Z 00000KT 0500 +SNRA FEW030CB SCT035 OVC080 01/01
 Q1019 RERA=
METAR OITL 111050Z 22019KT 9999 SCT090 BKN190 00/M04 Q1014=
 METAR OITR 111100Z 09004KT 2000 HZ SCT035 BKN170 M05/M09 Q1019
 NOSIG=
 METAR OITT 111100Z VRB02KT 5000 HZ FEW035 BKN180 M03/M10 Q1020
 A3013=
METAR OITU 111050Z 00000KT 3000 BR SKC M10/M10 Q1020=
 METAR OIYY 111100Z 33006KT 5000 HZ FEW035 SCT100 08/M01 Q1018=
METAR OIZB 111100Z 09004KT CAVOK 10/M03 Q1022=
METAR OIZC NIL=
 METAR OIZH 111100Z 11012KT 9999 SCT035 FEW040CB BKN090 07/M06
 Q1019 A3011 TEMPO SHRA=
METAR OIZI 111100Z 07008KT 9999 FEW020 OVC090 15/M05 Q1019=
METAR OIZJ 111100Z 00000KT 9999 SCT030 BKN090 20/06 Q1019=
METAR SESG 111100Z 25006KT 4000 BR SCT030 BKN090 04/02 Q1022=
METAR YAYT 111050Z 34004KT 9999 SCT035 SCT100 BKN200 09/M05 Q1020=
0000407200
344
SAIR78 OIII 111100
METAR AZUH 111100Z 00000KT 2500 HZ OVC025 M07/M10 Q1022=
METAR KHME 111050Z 18004KT CAVOK 10/M07 Q1019=
 METAR OIAA 111100Z 30008KT 4000 BR FEW035CB FEW040 BKN100 13/11
 Q1017=
METAR OIAG 111100Z 10014KT 4000 SHRA SCT030CB BKN035 12/11 Q1018=
 METAR OIAH 111100Z 00000KT 4000 RA FEW030CB SCT035 OVC070 08/08
 Q1017=
METAR OIAI 111100Z 15004KT 9999 SCT030CB SCT035 OVC070 11/08 Q1015=
METAR OIAM 111100Z 11018KT 8000 SHRA SCT030CB SCT035 13/11 Q1016=
METAR OIAW 111100Z 14010KT 9999 FEW020CB SCT025 OVC080 14/10 Q1016=
 METAR OIBA 111100Z 00000KT 5000 -RA FEW025CB FEW030 OVC080 20/12
 Q1018=
 METAR OIBB 111100Z 15012KT 9999 FEW030CB SCT035 OVC080 14/10 Q1016
 A3002=
 METAR OIBK 111100Z 08012KT 6000 -RA FEW030CB SCT025 OVC080 15/13
 Q1019=
 METAR OIBL 111100Z 03006KT 3000 -RA FEW020CB SCT025 OVC080 14/12
 Q1019=
METAR OIBS 111100Z 06020KT 7000 -SHRA FEW030CB OVC080 19/16 Q1019=
 METAR OICC 111100Z 00000KT 0800 R11/0600D +SN SCT021CB SCT030
 OVC060 M00/M01 Q1018 A3008 TEMPO SN=
 METAR OICI 111100Z Z 00000KT 7000 FEW015 FEW025CB SCT035 OVC090
 05/05 Q1015 A3000=
 METAR OICJ 111050Z 00000KT 2000 -SN FEW030CB SCT035 OVC070 01/M01
 Q1017=
 METAR OICK 111050Z 12004KT 8000 -RA FEW010 FEW030CB BKN035 OVC080
 04/03 Q1017=
METAR OICS 111100Z 26002KT 7000 SCT035 BKN080 02/M04 Q1018=
METAR OIFK 111100Z 35004KT 4000 -SN BKN020 OVC070 01/00 Q1023=
 METAR OIFM 111100Z 34004KT 2200 HZ SCT040 OVC100 02/M03 Q1017
 A3004=
 METAR OIFS 111100Z 00000KT 3000 BR FEW025CB SCT030 OVC080 M02/M04
 Q1017=
METAR OIGG 111100Z 33004KT 3000 BR SCT025 BKN090 10/08
Q1013=
METAR OIGK 111050Z 32008KT 9999 FEW035 BKN150 M02/M07 Q1016=
METAR OIHH NIL=
METAR OIHM 111100Z 27010KT 0500 +SN SCT035 OVC080 M03/M03 Q1016=
 METAR OIIE 111100Z 22006KT 5000 BR SCT025 SCT035CB SCT045 OVC080
 01/M00 Q1020 A3013 NOSIG=
 METAR OIII 111100Z 24008KT 0800 -SN SCT025 OVC080 00/M01 Q1019
 A3010 TEMPO 0800 SN FEW035CB SCT030 BKN100 TEMPO 0800 SN FEW035CB SCT030 BKN100=
 METAR OIIK 111100Z 11004KT 5000 HZ FEW035CB SCT040 OVC090 01/M03
 Q1019=
METAR OIIS 111100Z 30004KT 9999 SCT030 OVC090 04/00 Q1019 RESN=
 METAR OIKB 111100Z 34004KT 7000 -RA FEW025CB SCT030 OVC090 16/07
 Q1020 A3014 NOSIG=
METAR OIKK 111050Z 00000KT 9999 SCT035 OVC100 06/M03 Q1019 A3010=
 METAR OIKO 111100Z 00000KT 8000 FEW030 FEW025CB OVC080 17/02
 Q1020=
 METAR OIKQ 111100Z 34010KT 8000 -RA FEW025CB SCT030 BKN090 14/08
 Q1019=
METAR OIMB 111100Z 09012KT 9999 SCT030 BKN090 07/M13 Q1019=
METAR OIMC 111100Z 15012KT 9999 SCT040 BKN170 15/M05 Q1018=
METAR OIMD 111100Z 05006KT 9999 FEW035 SCT190 08/M05 Q1016=
METAR OIMM 111100Z 30006KT 9999 FEW040 SCT110 09/M12 Q1018 A3007=
METAR OIMN 111100Z 14010KT CAVOK 09/M15 Q1017 A3003=
METAR OINB 111100Z 05006KT 9999 FEW022 OVC100 10/08 Q1014=
METAR OING 111100Z 29006KT 6000 SCT030 BKN090 12/07 Q1016=
METAR OINN 111100Z 09006KT CAVOK 11/10 Q1014=
METAR OINR 111100Z 13008KT 7000 FEW045 OVC160 11/07 Q1013=
 METAR OISA 111050Z 21006KT 9999 FEW035CB SCT040 BKN100 05/M01
 Q1016=
 METAR OISF 111050Z 14006KT 8000 -SHRA FEW030CB SCT035 OVC090 08/03
 Q1019=
 METAR OISL 111100Z 00000KT 9999 FEW020 FEW035CB OVC090 08/05
 Q1020=
 METAR OISS 111100Z 00000KT 1500-RA BR FEW030CB SCT035 OVC070 03/02
 Q1019 A3011=
 METAR OISY 111100Z 00000KT 0500 +SNRA FEW030CB SCT035 OVC080 01/01
 Q1019 RERA=
 METAR OITR 111100Z 09004KT 2000 HZ SCT035 BKN170 M05/M09 Q1019
 NOSIG=
 METAR OITT 111100Z VRB02KT 5000 HZ FEW035 BKN180 M03/M10 Q1020
 A3013=
METAR OITU 111050Z 00000KT 3000 BR SKC M10/M10 Q1020=
 METAR OIYY 111100Z 33006KT 5000 HZ FEW035 SCT100 08/M01 Q1018=
METAR OIZB 111100Z 09004KT CAVOK 10/M03 Q1022=
METAR OIZC NIL=
 METAR OIZH 111100Z 11012KT 9999 SCT035 FEW040CB BKN090 07/M06
 Q1019 A3011 TEMPO SHRA=
METAR OIZI 111100Z 07008KT 9999 FEW020 OVC090 15/M05 Q1019=
METAR OIZJ 111100Z 00000KT 9999 SCT030 BKN090 20/06 Q1019=
METAR YAYT 111050Z 34004KT 9999 SCT035 SCT100 BKN200 09/M05 Q1020=
0000035900
345
SAIQ01 ORBI 111100
METAR ORBI 111100Z VRB01KT 2600 OVC030 10/08 Q1017 NOSIG=
METAR ORMM 111100Z 29016KT 9999 SCT040 BKN100 14/11 Q1016 NOSIG=
METAR ORBM 111100Z VRB03KT 7000 SCT040 13/04 Q1019 NOSIG=
METAR ORNI 111100Z 25013KT 4000 BR OVC025 10/09 Q1016 NOSIG=
METAR ORER 111100Z 10006KT 9000 SCT030 SCT080 10/09 Q1016 NOSIG=
NNNN

00000000