0000012200
726
SPCN31 CWAO 102239
SPECI CYYZ 102239Z 13006KT 3SM BR FEW003 OVC009 01/01 A3007 RMK
 FG1SF1ST6 SLP193=

0000015400
727
SAUS72 KWBC 102200 RRF
METAR
KBQK 102235Z AUTO 11006KT 10SM SCT003 19/18 A3010=
KLRU 102235Z AUTO 25021G26KT 10SM CLR 15/M09 A2997=

0000010600
728
SAUS73 KWBC 102200 RRG
METAR
KIKK 102235Z AUTO 16014G20KT 4SM -RA OVC004 04/03 A2974=

0000018000
729
FTUS52 KWBC 102242 AAA
TAF AMD
KMLC 102241Z 1023/1118 21009KT P6SM SCT023 SCT030
      TEMPO 1023/1101 2SM TSRA BKN030CB
     FM110100 26011KT P6SM SCT100=

0000027400
730
FTUS80 KWBC 102242 AAA
TAF AMD
KMLC 102241Z 1023/1118 21009KT P6SM SCT023 SCT030
      TEMPO 1023/1101 2SM TSRA BKN030CB
     FM110100 26011KT P6SM SCT100=
PAMC 102239Z 1023/1118 00000KT P6SM VCSH BKN025 OVC050
     FM110900 VRB03KT P6SM SCT020=

0000022000
731
FTUS80 KWBC 102242
TAF
TAF KLCK 102234Z 1023/1118 17009KT P6SM BKN010
     FM110300 17010KT 5SM BR VCSH OVC015
     FM110700 17012KT 4SM -RA BR OVC008
     FM111400 23014G23KT P6SM VCSH OVC012=

0000264600
732
SPUS70 KWBC 102242
SPECI
KSMQ 102238Z AUTO 00000KT 3/4SM BR OVC008 01/00 A3032 RMK AO2
     T00060000 TSNO=
KTOI 102238Z AUTO 10003KT 1 1/2SM BR OVC003 13/12 A3005 RMK AO2
     RAB03E14 P0000 T01330122=
PATQ 102238Z AUTO 29005KT 3/4SM -SN OVC004 M28/M31 A2994 RMK AO2
     TSNO SNB2159 P0000=
KASD 102238Z AUTO 12006KT 1 1/4SM BR OVC002 16/15 A2995 RMK AO2
     T01560150 TSNO=
KCGI 102238Z AUTO 15017G23KT 4SM RA BR FEW034 BKN055 OVC070 07/06
     A2976 RMK AO2 P0009 T00720061=
KCMH 102238Z 12007KT 8SM FEW007 OVC130 07/04 A3000 RMK AO2=
KCQX 102238Z AUTO 19005G17KT 10SM OVC015 03/01 A3039 RMK AO2
     T00330011=
KGGG 102238Z 18007KT 2 1/2SM -RA BR FEW008 OVC015 17/16 A2974 RMK
     AO2 P0008=
KGZH 102238Z AUTO 12005KT 1SM BR OVC003 15/14 A3003 RMK AO2 CIG
     002V005 T01500139=
KHUF 102238Z 17009KT 1 1/2SM RA BR BKN006 OVC016 04/04 A2983 RMK
     AO2 CIG 004V010 P0006=
KHYA 102238Z 20007KT 10SM OVC013 04/02 A3037 RMK AO2 T00390022=
KJST 102238Z AUTO 00000KT 10SM SCT008 04/03 A3012 RMK AO2
     T00390028=
KMSL 102238Z AUTO 15008KT 9SM FEW014 OVC030 12/08 A2998 RMK
     AO2=
KRHI 102239Z AUTO 14006KT 2 1/2SM BR OVC004 M04/M06 A2962 RMK AO2
     T10441056=
PATQ 102238Z AUTO 29005KT 3/4SM -SN OVC004 M28/M31 A2994 RMK AO2
     TSNO SNB2159 P0000=
KCUB 102239Z AUTO VRB04KT 1 3/4SM +RA BR SCT003 BKN014 OVC030
     10/09 A3015 RMK AO2 P0089 T01000094 TSNO=
KDAY 102239Z 13010KT 1/4SM R06L/2000V3500FT FG VV002 05/04 A2991
     RMK AO2=
KGRD 102239Z AUTO 02003KT 2 1/2SM BR OVC003 08/07 A3016 RMK AO2
     RAE2158 P0000=
KIOW 102239Z AUTO 14004KT 1SM UP BR OVC002 01/01 A2957 RMK AO2
     RAB11E20UPB35 P0001=
KMIE 102239Z 18012KT 3/4SM BR OVC002 04/04 A2987 RMK AO2
     T00440039=
KOVS 102239Z AUTO 00000KT 1SM -RA BR OVC008 01/00 A2959 RMK AO2
     RAB21 P0001 T00110000=
KPKD 102239Z AUTO 18008KT 1/4SM FZFG VV003 M03/M04 A2947 RMK AO2
     T10331039 TSNO=
KRAC 102239Z AUTO 17009G17KT 1 1/2SM RA BR OVC002 01/01 A2972 RMK
     AO2 P0009 T00110006=
KRWF 102239Z AUTO 18007KT 1 3/4SM BR OVC004 M01/M02 A2954 RMK
     AO2=
KSUX 102239Z 00000KT 2SM BR OVC008 01/M01 A2956 RMK AO2 SFC VIS 4
     T00061006=
PABA 102236Z AUTO 27021KT 1SM -SN OVC022 M26/M29 A2986 RMK AO2
     P0000 FZRANO=
PPIZ 102239Z AUTO 00000KT 1 3/4SM HZ OVC004 M22/M25 A3003 RMK AO2
     TSNO $=
KMPO 102239Z AUTO 21005KT 1/4SM FG VV002 01/01 A3023 RMK AO2
     T00110006=
KPTW 102239Z AUTO 00000KT 2SM BR OVC005 01/01 A3033 RMK AO2
     T00110006=
KTHV 102239Z AUTO 00000KT 1 1/2SM BR OVC005 02/01 A3029 RMK AO2
     T00170006=

0000009700
733
SPUS41 KWBC 102242
SPECI
KCMH 102238Z 12007KT 8SM FEW007 OVC130 07/04 A3000=

0000010900
734
SAAE33 VTBB 102230 RRA
METAR VVPB 102230Z 26003KT 4000 BR BKN017 BKN050 19/18 Q1019 NOSIG=

0000038200
735
SAEE31 LOWM 102230
METAR UACK 102230Z 21008MPS 9999 DRSN OVC013CB M07/M10 Q1020
R20/450342 NOSIG RMK QFE741/0988=
METAR UACP 102230Z NIL=
METAR UAII 102230Z 14001MPS 8000 BKN100 M06/M11 Q1025
R10/0///70 NOSIG RMK QFE733/0978=
METAR UADD 102230Z NIL=
METAR UASK 102230Z NIL=
METAR UASP 102230Z NIL=
METAR UAOO 102230Z NIL=
METAR UAKD 102230Z NIL=

0000027700
736
SAIO31 KWBC 102200 RRG
METAR
WBGG 102230Z 15002KT 4000 BR SCT000 SCT020 BKN150 22/22 Q1012
     NOSIG=
WBKK 102230Z 09005KT 9999 FEW014 BKN140 BKN270 24/22 Q1011
     NOSIG=
WBSB 102230Z 18004KT 9999 FEW005 FEW016CB BKN280 24/24 Q1012
     NOSIG=

0000035000
737
SAPO31 LPMG 102230
METAR LPBJ 102230Z NIL=
METAR LPFR 102230Z 34003KT 300V020 CAVOK 13/08 Q1014=
METAR LPMA 102230Z VRB02KT CAVOK 15/07 Q1016 RS25002KT 0534003KT
2335007KT=
METAR LPPR 102230Z VRB02KT 9000 NSC 08/08 Q1016=
METAR LPPS 102230Z 34004KT 9999 FEW015 15/14 Q1017=
METAR LPPT 102230Z 33006KT CAVOK 12/10 Q1014=

0000024300
738
SAPO32 LPMG 102230
METAR LPAZ 102230Z 19020KT 8000 -RA BKN005 BKN012 16/15 Q1011=
METAR LPFL 102230Z NIL=
METAR LPHR 102230Z NIL=
METAR LPLA 102230Z NIL=
METAR LPPD 102230Z 20013KT 8000 -RA FEW005 SCT011 16/15 Q1009=

0000041600
739
SAID32 WIII 102230
METAR WIPT 102230Z VRB03KT 4000 R33/M0050N RA SCT019 24/23 Q1010= 
METAR WIOO 102230Z 00000KT 6000 SCT010 23/23 Q1011 NOSIG= 
METAR WAOO 102230Z 05003KT 9000 SCT018 24/23 Q1010 NOSIG= 
METAR WADL 102230Z 00000KT 500 FG SCT016 24/24 Q1010= 
METAR WIBB 102230Z 01004KT 6000 SCT015 24/23 Q1010 NOSIG= 
METAR WAMM NIL=
METAR WIDN NIL=
METAR WIPP NIL=
METAR WALL NIL=

0000037600
740
SAID31 WIII 102230
METAR WIMM 102230Z 26004KT 4000 HZ FEW016CB SCT017 24/24 Q1011= 
METAR WIII 102230Z 21004KT 5000 BR FEW020 26/23 Q1009 NOSIG= 
METAR WADD 102230Z VRB01KT 9999 FEW015CB FEW015 26/24 Q1010 NOSIG= 
METAR WAAA 102230Z 11003KT 7000 -RA FEW018CB SCT019 24/24 Q1011= 
METAR WIHH NIL=
METAR WABB NIL=
METAR WARR NIL=
METAR WIDD NIL=

0000117700
741
SAAU32 YBBN 102230
METAR YAMB 102230Z AUTO 15003KT 9999 // NCD 25/16 Q1019=
METAR YMAV 102230Z AUTO 20007KT 9999 // OVC013 17/13 Q1020=
METAR YBRM 102230Z 25009KT 9999 FEW020 30/25 Q1009=
METAR YCIN 102230Z NIL=
METAR YSDU 102230Z AUTO 08007KT 9999 // NCD 25/18 Q1020=
METAR YFRT 102230Z AUTO 12017KT //// // ////// 19/18 Q1022=
METAR YGEL 102230Z 14005KT CAVOK 20/18 Q1010
RMK HZ, WBD 1.5=
METAR YPGV 102230Z 13011KT 9999 SCT012 SCT120 OVC180 27/25 Q1008=
METAR YBHM 102230Z AUTO 11019KT 9999 // ////// 28/22 Q1014=
METAR YMHB 102230Z 32005KT 300V360 9999 FEW020 BKN220 19/13 Q1014=
METAR YPKG 102230Z AUTO 10013KT 9999 // NCD 20/11 Q1021=
METAR YMLT 102230Z AUTO 15005KT 9999 // NCD 20/14 Q1014=
METAR YBMA 102230Z AUTO 14013KT 9999 // NCD 32/17 Q1012=
METAR YSNF 102230Z AUTO 10009KT 9999 // NCD 23/11 Q1019=
METAR YPEA 102230Z NIL=
METAR YPPD 102230Z AUTO 30007KT 9999 // SCT013 29/27 Q1008=
METAR YSRI 102230Z AUTO 04003KT 9999 // NCD 23/17 Q1018=
METAR YBRK 102230Z 11012KT 9999 FEW022 26/20 Q1015=
METAR YWLM 102230Z AUTO 06004KT 9999 // NCD 25/17 Q1018=
METAR YPWR 102230Z AUTO 15011KT 9999 // NCD 27/10 Q1017=

0000015200
742
FTTM31 YBBN 102200 RRA
TAF WPDL 102234Z 1100/1112
29010KT 9999 SCT040
TEMPO 1104/1112 VRB20G35KT 1000 TSRA BKN010 SCT040CB
RMK=

0000129200
743
SAAU31 YBBN 102230
METAR YPAD 102230Z 17005KT CAVOK 22/10 Q1019
FM0030 22014KT CAVOK=
METAR YBAS 102230Z 29001KT CAVOK 30/01 Q1016=
METAR YBBN 102230Z 18005KT 9999 FEW025 BKN063 26/17 Q1019=
METAR YBCS 102230Z 19013KT 9000 -SHRA FEW006 SCT023 BKN055 26/23
Q1011=
METAR YSCB 102230Z 25002KT CAVOK 23/14 Q1020
RMK 4CI240=
METAR YPXM 102230Z NIL=
METAR YPCC 102230Z AUTO 15008KT 9999 // NCD 26/21 Q1011=
METAR YCFS 102230Z AUTO 01007KT 9999 // NCD 25/16 Q1019=
METAR YPDN 102230Z 22003KT 9999 FEW020 BKN350 26/23 Q1009=
METAR YBCG 102230Z AUTO 21005KT 9999 // NCD 23/19 Q1019=
METAR YHID 102230Z AUTO 35014KT //// // ////// 28/24 Q1008=
METAR YPJT 102230Z AUTO 10009KT 9999 // NCD 24/11 Q1016=
METAR YPKU 102230Z AUTO 22001KT 9999 // NCD 29/25 Q1009=
METAR YPLM 102230Z AUTO 19003KT 9000 // NCD 25/21 Q1008=
METAR YMML 102230Z 18007KT 9000 OVC011 18/14 Q1020
FM2230 18010KT 9999 BKN008
FM2330 18012KT 9999 SCT015 BKN020=
METAR YPPH 102230Z 07014G24KT CAVOK 24/11 Q1016=
METAR YSSY 102230Z 36005KT CAVOK 26/16 Q1018
FM0100 05012KT CAVOK=
METAR YSTW 102230Z AUTO 06005KT 9999 // SCT081 25/14 Q1020=
METAR YPTN 102230Z AUTO 11004KT 9999 // NCD 27/23 Q1009=
METAR YBTL 102230Z 16008KT 9999 VCSH FEW009 SCT023 BKN055 25/24
Q1013=

0000011400
744
SPCN44 CWAO 102237
SPECI CYMJ 102237Z 25003KT 8SM FEW012 FEW100 BKN250 RMK SC1AC2CI4 VIS
N 3=

0000012900
745
SAKY31 RUMS 102230 RRA
METAR UCFM 102230Z 14003MPS 0900 R08/1900 FZFG FU SKC M11/M16 Q1026
R08/CLRD70 NOSIG=

00000000