0000009700
146
SPUS41 KWBC 110043
SPECI
KART 110038Z AUTO 13003KT 10SM OVC034 03/M01 A3015=

0000010900
147
SPUS41 KWBC 110043
SPECI
KWRI 110039Z AUTO 04002KT 2SM R06/3000FT BR OVC003 02/02 A3029=

0000198500
148
SPUS70 KWBC 110044
SPECI
KADF 110039Z AUTO 18006KT 9SM BKN016 13/13 A2973 RMK AO2 RAB15E35
     P0000=
KIOW 110040Z AUTO 00000KT 3/4SM BR VV003 01/01 A2954 RMK AO2=
KLFT 110040Z AUTO 18009KT 10SM OVC004 19/18 A2989 RMK AO2 RAE02
     P0000 TSNO=
KLPR 110040Z AUTO 17011KT 2 1/2SM BR OVC003 06/04 A2993 RMK
     AO2=
PATQ 110040Z AUTO 27010KT 2 1/2SM -SN BKN004 OVC008 M26/M29 A2991
     RMK AO2 TSNO CIG 003V007 SNE16B40 P0000=
PAAQ 110040Z 00000KT 10SM OVC028 M04/M06 A2937 RMK AO2=
PACV 110040Z 00000KT 10SM R27/3500VP6000FT BKN023 BKN200 M01/M01
     A2932 RMK AO2 $=
PAFS 110040Z AUTO 00000KT 10SM OVC031 M14/M19 A2954 RMK AO2 TSNO
     SNB05E33 P0000 $=
PATQ 110040Z AUTO 27010KT 2 1/2SM -SN BKN004 OVC008 M26/M29 A2991
     RMK AO2 TSNO CIG 003V007 SNE16B40 P0000=
KBOK 110041Z AUTO 13004KT 3SM BR BKN022 OVC049 09/09 A3019 RMK AO2
     $=
KDVN 110041Z AUTO 19007KT 2SM -RA BR OVC003 03/03 A2953 RMK AO2
     RAB2357 P0000=
KEST 110042Z AUTO 22003KT 1SM BR OVC003 M01/M01 A2952 RMK AO2
     T10111011=
KFHR 110041Z AUTO 08006KT 8SM -RA SCT009 SCT014 OVC038 07/06 A2987
     RMK AO2 PRESFR P0000 T00720061=
KFLD 110041Z AUTO 15008KT 7SM -RA FEW008 OVC014 01/00 A2957 RMK
     AO2 P0007 T00110000=
KFSM 110041Z 00000KT 1 1/2SM BR FEW024 SCT048 10/09 A2965 RMK AO2
     VIS 1/2V4 RAB10E25 P0001=
KLFK 110041Z AUTO 19006KT 5SM -RA BR SCT009 OVC014 19/17 A2978 RMK
     AO2 RAB08 $=
KM19 110041Z AUTO 00000KT 2SM RA BR CLR 08/08 A2980 RMK AO2
     P0013=
KOJC 110041Z 29009KT 6SM BR SCT008 SCT014 OVC032 03/03 A2956 RMK
     AO2 T00330028=
KRHI 110041Z AUTO 09005KT 1 1/4SM -SN BR FEW007 BKN017 OVC025
     M04/M05 A2957 RMK AO2 SNE03B32 P0000 T10391050=
KSPW 110041Z AUTO 26005KT 1 1/4SM BR BKN003 OVC007 M01/M02 A2953
     RMK AO2 I1000 T10061022=
PAOO 110041Z AUTO 05022KT 3/4SM -SN BR SCT003 BKN012 OVC033
     M06/M08 A2936 RMK AO2 TSNO BKN V SCT P0000 PK WND 05026/0011
     $=

0000011700
149
SPUS43 KWBC 110044
SPECI
KDSM 110040Z 32004KT 1/2SM R31/2200V2800FT -DZ FG OVC004 01/00
A2954=

0000014300
150
SPCN31 CWAO 110043
SPECI CYYJ 110043Z 13005KT 7SM -RA FEW005 BKN014 OVC032 07/06 A2986
 RMK SF1SC5SC3 SF TR PRESFR SLP111=

0000078400
151
FTUS52 KWBC 110045 AAA
TAF AMD
KFSM 110044Z 1101/1124 08004KT P6SM SCT002 OVC029
      TEMPO 1101/1102 5SM RA BKN030CB
     FM110200 28008KT P6SM BKN250
     FM112100 28015G23KT P6SM SKC=
KFYV 110044Z 1101/1124 19012KT P6SM BKN024 BKN029
     FM110200 26008KT P6SM OVC250
     FM111800 28013G21KT P6SM SKC=
KHUM 110042Z 1101/1124 07010KT 5SM BR OVC002
      TEMPO 1102/1106 1SM TSRA OVC004CB
     FM110800 19010KT 2SM BR OVC002
     FM111500 28009KT P6SM SCT250=
KVCT 110042Z 1101/1124 19009KT P6SM SCT025 BKN250
      TEMPO 1101/1104 BKN015
     FM110400 22007KT 5SM BR SCT012 BKN250
      TEMPO 1104/1107 3SM BR BKN012
     FM110700 24005KT 1/2SM FG BKN006
     FM111200 30005KT 3SM BR SCT006
     FM111400 34008KT P6SM SCT250=

0000078400
152
FTUS80 KWBC 110045 AAA
TAF AMD
KFSM 110044Z 1101/1124 08004KT P6SM SCT002 OVC029
      TEMPO 1101/1102 5SM RA BKN030CB
     FM110200 28008KT P6SM BKN250
     FM112100 28015G23KT P6SM SKC=
KFYV 110044Z 1101/1124 19012KT P6SM BKN024 BKN029
     FM110200 26008KT P6SM OVC250
     FM111800 28013G21KT P6SM SKC=
KHUM 110042Z 1101/1124 07010KT 5SM BR OVC002
      TEMPO 1102/1106 1SM TSRA OVC004CB
     FM110800 19010KT 2SM BR OVC002
     FM111500 28009KT P6SM SCT250=
KVCT 110042Z 1101/1124 19009KT P6SM SCT025 BKN250
      TEMPO 1101/1104 BKN015
     FM110400 22007KT 5SM BR SCT012 BKN250
      TEMPO 1104/1107 3SM BR BKN012
     FM110700 24005KT 1/2SM FG BKN006
     FM111200 30005KT 3SM BR SCT006
     FM111400 34008KT P6SM SCT250=

0000203800
153
SPUS70 KWBC 110046
SPECI
KACV 110042Z AUTO 00000KT 1 3/4SM BR FEW003 OVC047 11/09 A3020 RMK
     AO2 T01060089=
KAMG 110042Z AUTO 00000KT 1/2SM FG SCT009 OVC021 18/17 A3009 RMK
     AO2 T01780167=
KBMG 110042Z 15007KT 1/4SM FG OVC003 07/06 A2980 RMK AO2 RAE11
     P0000 T00670056=
KCEU 110042Z AUTO 07005KT 1 3/4SM BR OVC003 09/08 A3013 RMK AO2
     RAB08E33 P0000=
KEAU 110042Z 06003KT 2SM -SN BR BKN006 OVC014 M02/M03 A2955 RMK
     AO2 UPE2358SNB2358 CIG 003V008 P0000 T10171028=
KMMK 110042Z AUTO 00000KT 3/4SM BR VV007 01/00 A3034 RMK AO2
     T00060000 TSNO=
KNSE 110036Z 13006KT 3/4SM -RA BR OVC002 16/15 A3000 RMK AO2 RAB29
     P0001 T01560150 $=
KSPB 110042Z AUTO 16005KT 10SM -RA SCT028 BKN050 OVC075 10/08
     A2999 RMK AO2 RAB26 P0000 T01000078=
PARS 110042Z AUTO 05007KT 10SM BKN025 OVC031 M13/M17 A2953 RMK AO2
     TSNO $=
KADG 110043Z AUTO 18007KT 1/2SM -RA FG VV002 02/02 A2986 RMK AO2
     UPE01RAB01 P0000 TSNO=
KARR 110043Z 18013KT 3SM RA BR SCT004 SCT008 OVC014 04/03 A2962
     RMK AO2 P0014 T00390028=
KAXN 110043Z AUTO 20006KT 1 1/2SM BR OVC002 M02/M02 A2950 RMK
     AO2=
KBPT 110043Z 18011KT 4SM RA BR BKN004 OVC016 19/18 A2983 RMK AO2
     RAB01 P0008 $=
KDCA 110043Z 05006KT 1 3/4SM -RA BR OVC006 03/01 A3028 RMK AO2
     DZE2358RAB2358 P0005=
KGLR 110043Z AUTO 15007KT 1 1/2SM -FZRA BR OVC002 M02/M03 A2975
     RMK AO2 FZRAB37 P0000 I1001 T10221028=
KMEB 110043Z AUTO 06008KT 2 1/2SM +RA BR SCT012 SCT017 OVC027
     14/14 A3014 RMK AO2 P0029 T01390139=
KXNA 110043Z 26010KT 10SM FEW012 SCT020 BKN070 11/09 A2962 RMK AO2
     LTG DSNT E-S TSE28RAE25 P0004=
PATQ 110043Z AUTO 27009KT 3SM -SN SCT004 OVC008 M26/M29 A2991 RMK
     AO2 TSNO SNE16B40 P0000=
PAJZ 110047Z AUTO 03004KT 3SM BR OVC002 M07/M08 A2951 RMK AO2
     PWINO TSNO $=
PASC 110043Z 26013KT 3SM -SN BR BKN014 M31/M34 A2985 RMK AO2
     P0000=
PATQ 110043Z AUTO 27009KT 3SM -SN SCT004 OVC008 M26/M29 A2991 RMK
     AO2 TSNO SNE16B40 P0000=

0000010100
154
SPUS42 KWBC 110046
SPECI
KSHV 110042Z 25006KT 2 1/2SM -RA BR OVC004 16/16 A2975=

0000013700
155
SPCN31 CWAO 110045
SPECI CYVR 110045Z 10009KT 8SM -RA SCT006 BKN016 OVC035 06/06 A2987
 RMK ST3SC3NS2 PRESFR SLP116=

0000010300
156
SPUS42 KWBC 110047
SPECI
KBPT 110043Z 18011KT 4SM RA BR BKN004 OVC016 19/18 A2983=

0000008500
157
SPCN51 CWAO 110142
SPECI CWOB 110142Z AUTO 05007KT CLR M21/ A2922=

0000128300
158
SPUS70 KWBC 110038
SPECI
KIXD 110034Z 25006KT 7SM SCT007 SCT019 OVC028 03/03 A2957 RMK AO2
     T00330028=
KXNA 110034Z 25010KT 10SM FEW012 BKN022 BKN038 11/09 A2962 RMK AO2
     LTG DSNT E-S TSE28RAE25 P0004=
KAUW 110034Z AUTO 09007KT 5SM UP BR BKN011 OVC016 M02/M03 A2954
     RMK AO2 UPB29SNE29 P0001 T10221028=
KAXN 110034Z AUTO 20005KT 1 1/4SM BR OVC002 M02/M02 A2950 RMK
     AO2=
KBOK 110034Z AUTO 14005KT 3SM BR SCT024 OVC049 09/09 A3019 RMK AO2
     $=
KDVN 110034Z AUTO 19009KT 3SM BR OVC003 03/03 A2953 RMK AO2
     RAB2357E20 P0000=
KRST 110034Z 00000KT 2 1/2SM -SN FEW013 BKN034 OVC065 M02/M03
     A2953 RMK AO2 P0000 T10171028=
KSPB 110034Z AUTO 16004KT 10SM -RA FEW023 BKN029 OVC048 10/08
     A2999 RMK AO2 RAB26 P0000 T01000078=
KMNN 110034Z AUTO 15011KT 3SM BR SCT002 BKN120 04/04 A2989 RMK AO2
     TSNO=
KMRY 110034Z 32003KT 1 1/2SM BR OVC002 11/10 A3018 RMK AO2 VIS
     3/4V5=
KBIV 110035Z AUTO 16014KT 4SM RA BR BKN008 BKN013 OVC019 04/03
     A2972 RMK AO2 P0011 T00390028=
KFAY 110035Z AUTO 04005KT 1 3/4SM +RA BR SCT018 OVC034 16/14 A3014
     RMK AO2 P0017=
PAOO 110035Z AUTO 05022KT 1SM -SN BR FEW003 SCT012 BKN018 M06/M08
     A2936 RMK AO2 TSNO BKN V SCT P0000 PK WND 05026/0011 $=

0000022800
159
SAJP31 KWBC 110030 RRA
METAR
RJAA 110030Z 32004KT 290V350 9999 FEW030 02/M06 Q1025 NOSIG=
RJCC 110030Z 19004KT 9999 -SHSN FEW015 BKN040 M07/M13 Q1018=
RJTT 110030Z 02004KT 9999 FEW030 04/M06 Q1025 NOSIG=

0000017400
160
FTUS80 KWBC 110048 AAA
TAF AMD
KPUB 110046Z 1101/1124 29012KT P6SM FEW150 SCT200
     FM111000 26008KT P6SM FEW200
     FM112000 13008KT P6SM FEW200=

0000031700
161
FTAU31 AMMC 102300 AAA
TAF AMD YMML 110049Z 1101/1206 18010KT 9000 HZ BKN012
     BECMG 1102/1104 18012KT 9999 FEW015 BKN020
     BECMG 1104/1106 18014KT CAVOK
     BECMG 1109/1111 19009KT 9999 -DZ BKN008
     BECMG 1122/1124 19010KT 9999 SCT015 BKN020
     BECMG 1200/1202 18012KT CAVOK=

0000037100
162
FTUS52 KWBC 110051 AAA
TAF AMD
KGNV 110048Z 1101/1124 00000KT P6SM VCSH BKN040
      TEMPO 1101/1103 5SM -SHRA BKN025 OVC040
     FM110300 00000KT 5SM BR BKN010 BKN020
     FM110600 16003KT 2SM BR BKN005 OVC010
      TEMPO 1108/1112 1SM BR OVC003
     FM111400 20010G18KT P6SM VCSH BKN015 OVC025
     FM111700 24014G23KT 5SM -SHRA OVC015=

0000029600
163
FTUS53 KWBC 110051 AAA
TAF AMD
KDEC 110050Z 1101/1124 23012G24KT 6SM RA BR OVC005
     FM110200 23012G20KT 5SM BR OVC004
     FM110600 24012KT 3SM BR OVC004
     FM111400 26012G18KT P6SM OVC015
     FM111800 27014G22KT P6SM BKN025
     FM112200 27014KT P6SM SCT250=

0000127600
164
FTUS80 KWBC 110051 AAA
TAF AMD
KCVG 110049Z 1101/1206 15010KT P6SM VCSH OVC025
     FM110200 15010KT P6SM SCT015 BKN100
     FM110600 17011KT 4SM -SHRA BR OVC008
     FM111200 22011G20KT P6SM VCSH OVC012
     FM111600 25016G25KT P6SM OVC025
     FM112300 26014KT P6SM BKN025=
KDEC 110050Z 1101/1124 23012G24KT 6SM RA BR OVC005
     FM110200 23012G20KT 5SM BR OVC004
     FM110600 24012KT 3SM BR OVC004
     FM111400 26012G18KT P6SM OVC015
     FM111800 27014G22KT P6SM BKN025
     FM112200 27014KT P6SM SCT250=
KDLH 110049Z 1101/1124 17006KT 3SM -SN BR OVC004
      TEMPO 1101/1104 1SM -SN BR OVC003
     FM110700 26004KT 3SM BR OVC002
     FM111500 29009KT P6SM BKN014=
KGNV 110048Z 1101/1124 00000KT P6SM VCSH BKN040
      TEMPO 1101/1103 5SM -SHRA BKN025 OVC040
     FM110300 00000KT 5SM BR BKN010 BKN020
     FM110600 16003KT 2SM BR BKN005 OVC010
      TEMPO 1108/1112 1SM BR OVC003
     FM111400 20010G18KT P6SM VCSH BKN015 OVC025
     FM111700 24014G23KT 5SM -SHRA OVC015=
KILN 110049Z 1101/1124 14008KT 6SM BR SCT005 BKN025
     FM110300 15012KT 4SM BR VCSH SCT010 BKN050
     FM110500 17014G22KT 4SM -RA BR OVC007
     FM111300 22014G24KT P6SM VCSH OVC013
     FM111600 24014G25KT P6SM OVC016=

0000177700
165
SPUS70 KWBC 110048
SPECI
PAMR 110044Z 35003KT 1 1/2SM -SN BKN008 OVC012 M03/M06 A2938 RMK
     AO2 SNB19 P0000=
PASI 110044Z 07010KT 10SM -RA SCT014 BKN026 OVC045 02/01 A2944 RMK
     AO2 P0003 T00170006=
KBML 110044Z AUTO 00000KT 10SM SCT023 OVC037 M06/M08 A3024 RMK AO2
     T10561083=
KCMX 110044Z AUTO 17006G16KT 5SM HZ OVC013 M03/M06 A2962 RMK
     AO2=
KDNL 110044Z AUTO 34004KT 3SM RA BR OVC004 09/09 A3012 RMK AO2
     RAB2354 P0013 T00940089 TSNO=
KFLL 110044Z 11007KT 10SM BKN019 BKN190 24/22 A3010 RMK AO2=
KMGJ 110044Z AUTO 00000KT 9SM OVC014 00/M02 A3030 RMK AO2
     T00001022 TSNO=
KOTM 110044Z AUTO 24003KT 1/4SM FG VV004 01/01 A2952 RMK AO2
     T00110006 TSNO=
KPBF 110044Z AUTO 20006KT 4SM RA BR OVC009 13/12 A2976 RMK AO2 LTG
     DSNT NE AND SW TSB2354E20B23E38 CIG 006V011 P0015=
KSTP 110044Z 15007KT 2SM -SN BR OVC006 M01/M02 A2956 RMK AO2 SNB18
     P0000=
KTOI 110044Z AUTO 11003KT 3/4SM BR OVC003 13/13 A3004 RMK AO2
     T01330128=
PASC 110043Z 26013KT 3SM -SN BR BKN014 M31/M34 A2985 RMK AO2
     P0000=
KAKR 110045Z AUTO 15005KT 6SM BR SCT004 OVC018 05/04 A2996 RMK AO2
     TSNO=
KARB 110045Z AUTO 15005KT 3/4SM UP BR OVC002 02/02 A2986 RMK AO2
     UPB25 P0000=
KAUW 110045Z AUTO 11007KT 6SM UP BR BKN009 OVC014 M02/M03 A2954
     RMK AO2 UPB29SNE29 P0001 T10221028=
KFFC 110045Z AUTO 12005KT 3/4SM BR OVC002 09/09 A3008 RMK AO2
     T00890089=
KFOK 110045Z 00000KT 1SM BR FEW001 OVC014 03/02 A3034 RMK AO2
     RAE2358 P0000=
KHWO 110045Z 10003KT 10SM SCT016 24/22 A3012 RMK AO2=
KORD 110045Z 20008KT 5SM RA BR SCT008 BKN014 OVC044 04/02 A2960
     RMK AO2 P0011 $=
KUGN 110045Z 17010KT 3SM -RA BR OVC006 02/02 A2960 RMK AO2 CIG
     003V008 P0025 $=

00000000