0000040700
254
SXXX32 EUMS 111030
262D700E
:PRS 1 /1 2126 2137 2124 2096 2041 2065 2077 2036 2088 2080 2101 2098 2133 2078 2075 2072 2056 2083 2038 2048 2049 2027 2020 2044 2030 2045 2030 2002 1994 1996 :RAD 1 /3 4525 4517 4524 4517 4496 4483 4479 4467 4450 4442 4443 4437 4418 4410 4414 :ENC 5 /5 4616 4644 4591 4587 4565 4540 4552 4504 4531 4489 4498 4463 :SW1 30 /60 60 :BAT 14 /15 13.5 :NAME 262D700E
0000044900
255
SXXX32 EUMS 111030 RRA
16289262
:PRS 1 /1 2176 2185 2178 2190 2175 2184 2168 2177 2175 2164 2165 2192 2162 2189 2176 2179 2178 2171 2180 2187 2168 2179 2178 2183 2185 2173 2163 2182 2180 2170 :RAD 1 /3 7632 7633 7632 7635 7639 7636 7633 7635 7632 7633 7634 7636 7636 7637 7638 7634 7633 7633 7636 7636 :ENC 5 /5 5003 4997 5001 4993 4998 5001 4997 5002 5005 5000 4996 5005 :SW1 30 /60 0 :SW2 60 /60 0 :BAT 14 /15 13.0 :NAME 16289262
0000045500
256
SXXX32 EUMS 111030 RRB
324DF524
:PRS 1 /1 2471 2476 2481 2486 2492 2497 2502 2508 2513 2518 2523 2529 2534 2539 2544 2550 2555 2560 2565 2571 2575 2581 2586 2592 2597 2602 2608 2613 2619 2624 :RAD 1 /3 2497 2513 2529 2545 2564 2580 2596 2613 2630 2647 2662 2678 2695 2712 2733 2752 2773 2792 2808 2827 :ENC 5 /5 1457 1483 1508 1535 1562 1588 1615 1644 1671 1700 1730 1761 :SW1 30 /60 0 0 :SW2 60 /60 60 60 :BAT 14 /15 12.5 :NAME 324DF524
0000041600
257
SXXX32 EUMS 111031
26CB10AC
:PRS 1 /1 -1336 -1336 -1336 -1336 -1336 -1337 -1336 -1337 -1337 -1336 -1336 -1337 -1337 -1338 -1337 -1337 -1337 -1337 -1337 -1337 -1337 -1337 -1337 -1337 -1337 -1337 -1336 -1337 -1338 -1337 :RAD 3 /3 5796 5795 5791 5791 5787 5789 5787 5790 5787 5787 :RA2 3 /3 5772 5773 5763 5767 5758 5763 5752 5768 5752 5760 :SW1 32 /60 60 :SW2 2 /60 60 :BAT 14 /15 12.9 :NAME 26CB10AC
0000044900
258
SXXX32 EUMS 111031 RRA
1227146C
:PRS 1 /1 3544 3538 3533 3533 3527 3524 3521 3517 3512 3508 3505 3504 3497 3493 3490 3486 3479 3475 3472 3467 3461 3455 3450 3446 3442 3437 3434 3429 3425 3423 :RAD 3 /3 3517 3507 3478 3460 3460 3456 3427 3426 3395 3401 3400 3382 3363 3367 3366 3324 3305 3304 3293 3274 :ENC 1 /5 4285 4267 4248 4224 4198 4178 4160 4139 4117 4093 4065 4044 :SW1 32 /60 0 :SW2 2 /60 60 :BAT 14 /15 12.9 :NAME 1227146C
0000044400
259
SXXX32 EUMS 111033
22856700
:PRS 1 /1 4015 4021 4014 4011 4011 4015 4019 4022 4016 4015 4019 4016 4014 4019 4020 4027 4014 4009 4021 4023 4014 4010 4015 4010 4005 4008 4005 4009 4011 4005 :RAD 1 /3 7520 7519 7521 7520 7521 7518 7516 7512 7509 7509 7508 7507 7504 7505 7505 7500 7493 7488 7489 7485 :ENC 3 /5 5711 5716 5717 5713 5706 5703 5703 5699 5702 5700 5683 5683 :SW1 33 /60 0 :SW2 3 /60 0 :BAT 14 /15 12.7 :NAME 22856700
0000045000
260
SXXX32 EUMS 111033 RRA
32D8A2BE
:PRS 1 /1 1692 1694 1697 1695 1697 1698 1706 1697 1700 1707 1700 1706 1706 1716 1703 1717 1703 1705 1712 1716 1716 1712 1722 1719 1718 1716 1724 1728 1719 1730 :RAD 1 /3 7277 7279 7280 7284 7289 7292 7302 7302 7306 7312 7318 7325 7333 7338 7347 7349 7355 7356 7353 7355 :ENC 3 /5 4710 4714 4718 4724 4730 4738 4750 4761 4773 4780 4782 4785 :SW1 33 /60 60 :SW2 3 /60 60 :BAT 14 /15 13.1 :NAME 32D8A2BE
0000047700
261
SXXX32 EUMS 111034
262AD2C2
OT12 ID:PK-ORMA-10 DT:2014 01 11 10 33
:PRS /1 06721 06718 06740 06737 06739 06740 06752 06759 06750 06743 06739 06752 06760 06755 06761 06758 06767 06785 06782 06781 06798 06801 06797 06809 06811 06817 06826 06827 06846 06835
:RAD /1 ///// ///// ///// ///// ///// ///// ///// ///// ///// ///// ///// ///// ///// ///// ///// ///// ///// ///// ///// ///// ///// ///// ///// ///// ///// ///// ///// ///// ///// /////
:BAT 13.2V
0000010900
262
UANT99 KDDL 111035
ARP THY10 5600N02948W 1035 F330 MS60 206/78 KT
TCJJL QXT AOW 111035 F30A
0000011100
263
UANT99 KDDL 111036
ARP UAL123 5402N02941W 1036 F340 MS61 191/72 KT
N58101 DDL H03 111036 F44A
0000100500
264
FCIR32 OIII 110800
TAF OIBB 110830Z 1109/1118 12005MPS 6000 FEW030CB SCT035 OVC090
    TEMPO 1109/1118 12007MPS 3000 TSRA BR SCT030CB SCT035 OVC080=
TAF OICC 110830Z 1109/1118 18005MPS 5000 BR FEW030CB SCT035 BKN090
    TEMPO 1109/1112 16008MPS 2000 SNRA BR SCT030CB SCT035 OVC080=
TAF OIGG 110830Z 1109/1118 22005MPS 4000 BR FEW020 BKN090
    TEMPO 1109/1115 FEW025CB SCT030 BKN080 PROB30 4000 SHRA=
TAF OIIP 110830Z 1109/1118 06006MPS 4000 BR FEW035CB SCT040 BKN100
    TEMPO 1109/1118 1500 SN BR SCT030CB SCT035 OVC090=
TAF OING 110830Z 1109/1118 16005MPS 6000 FEW020 SCT090
    TEMPO 1109/1115 FEW025CB SCT030 BKN090 PROB30 4000 SHRA=
TAF OINZ 110830Z 1109/1118 16005MPS 6000 FEW030 BKN100
    TEMPO 1109/1115 FEW030CB SCT035 BKN090 PROB30 4000 SHRA=
TAF OITL 110830Z 1109/1118 28006MPS 6000 FEW035 BKN100
    TEMPO 1109/1115 21008G13MPS 6000 FEW035CB SCT040 BKN100=
TAF OIYY 110830Z 1109/1118 13005MPS 7000 FEW035 BKN100
    TEMPO 1112/1118 16006MPS 4000 SHRA FEW035CB SCT040 BKN100=

0000023700
265
SNVD15 KWNB 110700 RRS
BBXX
42044 11071 99262 70971 46/// /2402 1//// 40128 90730 22200 00142
333 91203 555 11027 22029=
42044 11071 99262 70971 46/// /2202 1//// 40126 90700 22200 00143
333 91203 555 11025 22027=
0000023700
266
SMVD15 KWNB 110600 RRU
BBXX
42044 11061 99262 70971 46/// /2003 1//// 40125 90630 22200 00143
333 91203 555 11032 22034=
42044 11061 99262 70971 46/// /2103 1//// 40124 90600 22200 00143
333 91204 555 11031 22034=
0000023700
267
SMVD15 KWNB 110600 RRV
BBXX
42046 11061 99279 70940 46/// /2008 10208 40126 90630 22200 00215
333 91210 555 11095 22103=
42046 11061 99279 70940 46/// /1908 10208 40128 90600 22200 00215
333 91209 555 11092 22100=
0000046700
268
SZPA01 AMMC 110815
CREX++
T000103 A001 D01021 D06025++
0136250 17293000 67590 2014 01 11 08 08 3017 11 07 00 01
01258 0013 01259 0015 01267 0023 01268 0025 01262 0020 01261 0020+
0710610 17137250 67680 2014 01 11 08 08 3013 11 07 00 01
00826 0109 00821 0103 00822 0105 00818 0101 00821 0104 00821 0104+
0698060 15820000 67950 2014 01 11 08 08 3023 11 07 00 01
00629 0062 00627 0060 00624 0058 00626 0061 00627 0063 00626 0063++
7777

0000179200
269
SZPS01 AMMC 110815
CREX++
T000103 A001 D01021 D06025++
-0204190 14737360 56130 2014 01 11 08 08 3027 11 07 00 01
00889 0099 00888 0101 00887 0103 00883 0101 00880 0100 00878 0101+
-0669280 15640860 56363 2014 01 11 08 08 //// 11 07 00 01
00471 -0065 00468 -0066 00464 -0068 00463 -0068 00455 -0074 00464 -0064+
-0942890 15995560 56670 2014 01 11 08 08 3043 11 07 00 01
00686 -0037 00684 -0037 00678 -0042 00679 -0039 00680 -0037 00673 -0043+
-1072080 16580190 57131 2014 01 11 08 08 //// 11 07 00 01
03372 3018 03378 3026 03361 3011 03376 3028 03367 3020 03314 2969+
-1551560 16718860 57210 2014 01 11 08 08 //// 11 07 00 01
00477 -0080 00484 -0070 00483 -0069 00484 -0065 00465 -0081 00471 -0072+
-1775690 16830030 57320 2014 01 11 08 08 3017 11 07 00 01
00588 -0079 00586 -0078 00582 -0079 00578 -0080 00575 -0081 00571 -0081+
-4397330 16861610 65180 2014 01 11 08 08 2888 11 07 00 01
02397 0351 02395 0350 02408 0363 02398 0354 02433 0389 02451 0408+
-2120470 -15978530 65980 2014 01 11 08 08 3013 11 07 00 01
00467 -0010 00505 0030 00461 -0013 00453 -0020 00469 -0002 00476 0006+
-2113810 -17518140 66600 2014 01 11 08 08 //// 11 07 00 01
00759 0112 00758 0114 00754 0112 00746 0107 00746 0110 00739 0105+
-1382670 -17176110 66840 2014 01 11 08 08 3012 11 07 00 01
00483 0046 00483 0047 00480 0045 00480 0046 00478 0045 00472 0040+
-1813250 17842750 67050 2014 01 11 08 08 3030 11 07 00 01
00869 0105 00866 0105 00861 0103 00861 0106 00857 0105 00853 0105+
-1760530 17743810 67070 2014 01 11 08 08 3033 11 07 00 01
00824 0012 00820 0011 00818 0013 00817 0015 00814 0016 ///// ////+
-0850250 17919500 67440 2014 01 11 08 08 3028 11 07 00 01
01577 0006 01568 -0002 01569 0001 01575 0008 01569 0003 01565 0001++
7777

0000034300
270
SZIO01 AMMC 110815
CREX++
T000103 A001 D01021 D06025++
-1211670 09689190 46280 2014 01 11 08 08 3020 11 07 00 01
01264 0024 01262 0022 01255 0016 01250 0012 01255 0017 01255 0018+
-1042940 10566940 46290 2014 01 11 08 08 //// 11 07 00 01
01420 0026 01389 -0006 01406 0010 01412 0015 01384 -0014 01420 0021++
7777

0000191300
271
SZAU01 AMMC 110815
CREX++
T000103 A001 D01021 D06025++
-1927750 14705860 59260 2014 01 11 08 08 3030 11 07 00 01
02478 0164 02478 0162 02484 0167 02484 0164 02486 0164 02490 0167+
-2316110 15079000 59670 2014 01 11 08 08 3003 11 07 00 01
03508 0117 03532 0142 03532 0140 03546 0153 03543 0150 03546 0152+
-3447330 15091170 60420 2014 01 11 08 08 2950 11 07 00 01
01062 -0006 01060 -0007 01054 -0012 01057 -0007 01055 -0008 01058 -0003+
-4105000 14591500 60910 2014 01 11 08 08 2888 11 07 00 01
02562 -0021 02569 -0022 02575 -0023 02582 -0024 02596 -0017 02604 -0016+
-4254640 14793080 61170 2014 01 11 08 08 2895 11 07 00 01
01315 0095 01317 0098 01317 0099 01317 0099 01313 0096 01322 0106+
-3834390 14161360 61410 2014 01 11 08 08 2905 11 07 00 01
00562 0034 00544 0015 00577 0047 00545 0014 00613 0081 00577 0044+
-3214890 13364170 62000 2014 01 11 08 08 2965 11 07 00 01
01271 0116 01273 0118 01276 0120 01277 0121 01282 0125 01280 0123+
-3387080 12189720 62080 2014 01 11 08 08 2948 11 07 00 01
00848 0074 00853 0078 00834 0059 00849 0073 00843 0066 00865 0087+
-3182560 11573860 62237 2014 01 11 08 08 2972 11 07 00 01
00984 0101 00982 0098 00977 0092 00973 0088 00968 0082 00964 0077+
-2422000 11339750 62385 2014 01 11 08 08 //// 11 07 00 01
01310 -0114 01323 -0102 01390 -0036 01363 -0065 01342 -0088 01336 -0095+
-2181670 11419110 62430 2014 01 11 08 08 //// 11 07 00 01
02026 -0026 01999 -0055 02023 -0034 02003 -0057 02011 -0051 02019 -0045+
-1800080 12221830 62650 2014 01 11 08 08 3043 11 07 00 01
06218 0048 06229 0050 06238 0052 06248 0050 06258 0053 06270 0053+
-1247190 13084580 63230 2014 01 11 08 08 3050 11 07 00 01
05101 0253 05093 0250 05087 0252 05080 0250 05073 0249 05066 0249+
-1386000 13641580 63511 2014 01 11 08 08 3043 11 07 00 01
01791 0168 01794 0169 01797 0172 01800 0174 01803 0175 01806 0177++
7777

0000023700
272
SNVD15 KWNB 110700 RRT
BBXX
42046 11071 99279 70940 46/// /2007 10206 40128 90730 22200 00215
333 91209 555 11082 22089=
42046 11071 99279 70940 46/// /2007 10207 40129 90700 22200 00215
333 91208 555 11081 22088=
0000023700
273
SNVD15 KWNB 110700 RRU
BBXX
42047 11071 99279 70936 46/// /2007 1//// 40126 90730 22200 00215
333 91208 555 11077 22084=
42047 11071 99279 70936 46/// /2008 1//// 40126 90700 22200 00215
333 91209 555 11090 22098=
00000000