0000027800
586
SAAE32 VTBB 110900 RRA
METAR VLLB 110900Z 30002KT 9999 FEW019 28/16 Q1015 NOSIG=
METAR VLLN 110900Z 18004KT 9999 FEW020 26/18 Q1015 NOSIG=
METAR VLPS 110900Z 27004KT 9999 SCT023 32/17 Q1012 NOSIG=
METAR VLSK 110900Z 09008KT 9999 SCT020 SCT100 29/17 Q1016 NOSIG=

0000025200
587
SAIN32 VIDP 110900
METAR VIDP 110900Z 30011KT 3000 HZ NSC 18/07 Q1017 NOSIG=
METAR VILK 110900Z 02003KT 1200 R27/1300 MIFG BKN020 BKN100 16/13
    Q1016
    BECMG 1500=
METAR VIAR 110900Z 28007KT 250V310 4000 HZ NSC 17/11 Q1019=
0000105500
588
SIUR20 UKMS 110900
AAXX 11091
33135 42697 62908 10049 21010 39913 40058 52026 86500=
33317 42498 72710 10044 21000 39806 40144 52016 87500 333
87616=
33345 42598 72805 10052 20003 39890 40094 52019 87000 333
87026=
33393 42960 52704 10053 21024 39789 40182 52011 85030=
33506 42597 72708 10044 20005 39877 40073 52019 87500=
33587 42997 02205 10047 21016 39883 40148 52017=
33631 42397 81203 10018 20007 30075 40223 52010 886// 333
88708=
33663 NIL=
33658 42784 32705 10062 21048 39898 40199 52014 83500 333
83650=
33711 42698 52709 10051 21008 39922 40132 52016 85500 333
85633=
33791 NIL=
33837 42982 62503 10072 21002 30143 40195 51010 80001=
33924 42998 12907 10084 20036 30184 40196 52011 80001=
33946 42960 22809 10081 21014 39980 40201 51006 82030=
34300 41497 72609 10049 20014 39853 40041 52012 78082 87300=
34504 42997 32910 10056 20019 39924 40102 52011 83030=
34519 42460 72610 10038 20015 39815 40092 52011 87600 333
87711=
34601 42560 42708 10059 20005 39983 40119 52014 82130=
0000084500
589
SIBY20 UMMN 110900
AAXX 11091
26554 41350 72905 10010 20002 39852 40015 52033 78582 879// 333
85707 91114=
26666 41257 82704 10020 20004 39774 49987 52032 76176 8872/ 333
88706 91011 91112=
26850 41465 82604 10010 21013 39771 40055 52029 77172 885// 333 88714
91110=
26863 42560 82911 10019 21012 39785 40021 52043 8657/ 333 86623
91015 91117=
26941 42460 72705 10036 20015 39853 40090 52021 87500 333 87614 91112=
26951 42575 63007 10026 21001 39878 40078 52025 86900 333 86926 91011
91114=
33008 42560 72605 10050 20009 39956 40135 52019 87500 333 87623 91010
91112=
33019 41457 82803 10046 20034 39935 40110 52021 71021 886// 333 86712
91110=
33036 42570 62704 10035 21009 39847 40078 52025 86500 333 91111=
33041 41460 72905 10036 21024 39893 40048 52031 72522 879// 333
87918 91011 91112=
0000015700
590
SIUR20 UKMS 110900 RRA
AAXX 11091
33663 42598 63004 10066 21032 30088 40184 52023 84530=
33791 42997 02711 10059 21004 39980 40131 52014=
0000041200
591
SIMV20 VRMM 110900
AAXX 11094
43533 41458 30708 10300 20243 30109 40111 70511 82201 333 58005
82818=
43555 42460 30713 10307 20247 30105 40107 82201 333 58005 82818=
43577 42462 40505 10300 20238 30105 40107 81242 333 58009 81818
83077=
43588 42462 70504 10300 20246 30105 40106 82238 333 58010 82818
87276=
43599 42460 60504 10306 20252 30109 40111 83202 333 58015 83817
86076=
0000212000
592
UDFR01 LFPW 110909
AMDAR 1108
ASC EU2450 4543N 00505E 110854 F008 PS087 /// 211/016 TB3 S031
333 F008 VG109=
UNS EU2450 4540N 00505E 110855 F036 PS045 /// 206/006 TB2 S031
333 F036 VG058=
UNS EU2450 4540N 00506E 110855 F040 PS037 /// 299/007 TB2 S031
333 F040 VG095=
UNS EU2450 4540N 00507E 110856 F044 PS027 /// 271/009 TB1 S031
333 F044 VG030=
UNS EU2450 4540N 00508E 110856 F046 PS022 /// 245/013 TB2 S031
333 F046 VG057=
ASC EU2450 4541N 00509E 110856 F052 PS030 /// 249/010 TB1 S031
333 F052 VG012=
UNS EU2450 4543N 00509E 110857 F060 PS032 /// 209/011 TB0 S031
333 F060 VG001=
ASC EU2450 4544N 00509E 110857 F070 PS017 /// 213/009 TB1 S031
333 F070 VG017=
ASC EU2450 4546N 00509E 110857 F081 MS002 /// 223/010 TB0 S031
333 F081 VG008=
ASC EU2450 4549N 00508E 110858 F101 MS049 /// 245/013 TB3 S031
333 F101 VG063=
ASC EU2450 4559N 00508E 110900 F134 MS119 /// 257/023 TB2 S031
333 F134 VG031=
ASC EU2450 4601N 00508E 110900 F145 MS142 /// 251/024 TB2 S031
333 F145 VG033=
ASC EU2450 4603N 00507E 110900 F158 MS169 /// 257/033 TB0 S031
333 F158 VG007=
ASC EU2450 4605N 00507E 110901 F170 MS197 /// 255/034 TB2 S031
333 F170 VG038=
ASC EU2450 4607N 00507E 110901 F177 MS222 /// 250/036 TB1 S031
333 F177 VG009=
ASC EU2450 4611N 00507E 110902 F187 MS252 /// 248/037 TB2 S031
333 F187 VG038=
ASC EU2450 4613N 00507E 110902 F193 MS262 /// 245/038 TB3 S031
333 F193 VG049=
ASC EU2450 4617N 00506E 110903 F216 MS297 /// 249/053 TB1 S031
333 F216 VG020=
ASC EU2450 4620N 00506E 110903 F219 MS307 /// 248/053 TB1 S031
333 F219 VG010=
ASC EU2450 4622N 00505E 110903 F219 MS304 /// 247/055 TB0 S031
333 F219 VG000=
ASC EU2450 4624N 00505E 110904 F220 MS304 /// 248/054 TB0 S031
333 F220 VG001=
UNS EU2450 4626N 00505E 110904 F220 MS307 /// 248/053 TB0 S031
333 F220 VG002=
ASC EU2450 4631N 00505E 110905 F220 MS304 /// 248/054 TB0 S031
333 F220 VG003=
ASC EU2450 4640N 00505E 110906 F220 MS309 /// 252/054 TB0 S031
333 F220 VG001=
ASC EU2450 4643N 00505E 110906 F220 MS307 /// 250/054 TB0 S031
333 F220 VG001=
0000012700
593
SMGO01 FOOL 110900
AAXX 11094
64501 42360 81804 10265 20244 30130 40140 885//
  333 58011 84608 88640=
?=
0000086200
594
SIPF20 NTAA 110900
AAXX 11094
91925 26/// /1004 10262 20212 30056 40116 58004
  333 60007 90710 91113
  555 60005 10917 58003=
91929 24479 81006 10256 20242 30126 40129 50002 700//
  333 4//// 60017 90710 91114
  555 69905=
91938 22570 10301 10253 20214 30128 40130 50002 8180/
  333 60007 81820 90710 91104
  555 60005 11005 59007=
91943 46/// /0809 10270 20228 30127 40130 51004
  333 58002=
91944 24560 80918 1//// 2//// 30144 4//// 50000 700//
  333 4//// 6///7 90710 91125
  555 6///5=
91948 26/// /0907 10250 20207 30089 40191 58007
  333 60007 90710 91115
  555 60005 11015 58004=
91954 26/// /0708 10244 20215 30162 40165 50004
  333 4//// 60037 90710 91119
  555 60005 10822 59004=
91958 26/// /0812 10242 20226 30213 40215 50001
  333 69927 90710 91120
  555 60005 10524 58005=
91945 NIL=
0000053500
595
SIMJ20 MJSK 110900
AAXX 11091
13586 31509 80000 10001 21004 39982 40285 51009 74444 886//=
13493 42998 23602 10059 20006 39431 40254 52008 82030=
13577 42598 60000 10042 20001 38713 48534 52004 83504=
13578 41/92 90000 10041 20038 37016 48534 52011 74544=
13579 31/04 93001 10020 20019 39421 40277 52007 74444 333 89/01=
13583 41/92 90000 11009 21015 39554 40270 51011 74744=
13591 41/91 90201 10013 20012 39867 40274 51014 74544=
13592 41493 80000 10030 20025 30113 40272 51007 74644 886// 333
90433=
0000011000
596
UANT99 KDDL 110908
ARP DAL10 4754N03557W 0908 F350 MS50 274/21 KT
N174DN QXT AOE 110908 F55A
0000011000
597
UANT99 KDDL 110908
ARP AFR943 4706N01422W 0908 F340 MS59 258/68 KT
FGZNO QXT AOE 110909 F89A
0000011000
598
UANT99 KDDL 110908
ARP VIR44B 5458N01958W 0908 F370 MS62 234/57 KT
GVGAL DDL XXF 110909 F72A
0000050000
599
SIBO20 SLLP 110900
AAXX 11094
85043 42565 60000 10242 20236 39928 40090 51002 84530
333 56800 59002 84620 86358=
85154 42870 40203 10236 20230 39920 40096 54000 84030
333 56070 58006 84358=
85201 41140 40806 10038 20028 36292 55002 74011 81601
333 56200 58010 81703 84070=
85223 31570 10000 10135 20088 37505 47133 54001 70400 81500
333 56000 58018 81627=
85244 42365 53604 10230 20223 39660 40090 54000 85501
333 56709 58007 85607 85070=
85245 NIL=
85315 NIL=
0000015400
600
SIVD03 CWAO 110900
BBXX
VEP717 11093 99467 70489 41598 82840 11020 2107/ 40208 57007 70222 885// 22200 07004 20706 324// 40904 81034=

0000012000
601
SITH41 VTBB 110900 RRA
AAXX 11094
48402 32962 20000 10300 20168 30110 40130 57024 80005
  333 58009=
0000016100
602
SAAU31 AMMC 110900 CCA
METAR YBCS 110900Z 19010KT 8000 -SHRA SCT020 BKN035 25/23 Q1010
     INTER 0900/1200 VRB15G25KT 4000 SHRA FEW008 BKN020=
0000020300
603
SIVS20 VNNN 110900
AAXX 11091
48839 32997 70505 10199 20184 30123 40189 56010 80008 333 58002 87299=
48826 31530 80701 10197 20177 30056 40193 56010 71022 888// 333 58001 86895 88697=
0000022700
604
SIVS21 VNNN 110900
AAXX 11091
48830 31420 83602 10143 20234 39890 40205 56011 71022 888// 333 58003 83894 88697=
48808 41420 80000 10141 20135 39916 40207 57011 76062 888// 333 58010 84894 88696 96010 96160=
0000045700
605
SIVF21 ENMI 110900
BBXX
LDGJ 11091 99603 10053 43/// /1502 10050 20025 49973 5//// 222/0
      04078 1//// 3//// 4//// 5////=
LF4H 11094 99596 10022 46/// /2922 10060 20025 49993 52006 8////
      22200 06077 10706 70031=
LGWS 11091 99229 30145 43/// /2903 10187 20175 40131 5//// 222/0
      04160 1//// 3//// 4//// 5////=
LJIT 11091 99584 10044 43/// /2912 10059 20010 40013 5//// 222/0
      04071 1//// 3//// 4//// 5////=
00000000