0000006100
174
AAUK99 EGRR 110800
Socket stay alive message.
0000021800
175
FCUK53 EGRR 110800
TAF EGQL 110735Z 1109/1118 25012KT 9999 FEW035=
TAF EGUB 110741Z 1109/1118 30007KT 9999 FEW015 PROB30 TEMPO
    1109/1115 SCT015=
TAF EGUO 110742Z 1109/1118 29010KT 9999 FEW020=
0000013900
176
FCUK54 EGRR 110800
TAF EGXC 110754Z 1109/1118 28008KT 9999 FEW018=
TAF EGYD 110726Z 1109/1118 27012KT 9999 FEW020 SCT035=
0000016800
177
FCUK55 EGRR 110800
TAF EGDM 110746Z 1109/1118 31008KT 9999 FEW012 PROB30 TEMPO
    1109/1112 SCT015=
TAF EGDX 110742Z 1109/1118 29010KT 9999 FEW020=
0000052000
178
FTUK51 EGRR 110800
TAF EGQS 110722Z 1109/1203 25014KT 9999 FEW040 PROB40 TEMPO
    1109/1116 26016G26KT SCT024CB=
TAF EGVN 110733Z 1109/1209 30005KT 9999 FEW030 BECMG 1120/1123 6000
    BR BECMG 1123/1202 2500 PROB30 1200/1206 0700 FG BKN000 BECMG
    1206/1209 9999 NSW SCT010=
TAF EGWU 110722Z 1109/1203 30008KT 9999 FEW022 PROB40 1200/1203 4000
    MIFG=
TAF EGXW 110732Z 1109/1203 27009KT 9999 FEW035 BECMG 1121/1124 4000
    BR BECMG 1200/1203 14005KT PROB40 1200/1203 0700 FG VV///=
0000003800
179
FTUK52 EGRR 110800
NIL
0000513900
180
SMIN55 VIDP 110600
AAXX 11063
38388 32998 00000 10016 21009 30151 40223 53004
  333 21058=
38392 32998 29901 11003 21036 30124 40230 52006 82030
  333 21070=
38507 32698 41304 10044 21023 30096 40200 57003 82501
  333 20020=
38511 32998 71301 10036 20018 30066 40209 58005 87030
  333 21038=
38545 32998 21302 10016 21058 30062 40241 53012 82080
  333 21042=
38647 32997 71104 10017 21008 30157 40200 57004 80006
  333 21025=
38656 32998 20000 10015 21047 30119 40231 52006 80002
  333 21048=
38687 32997 71806 10065 21066 30003 40240 53002 80001
  333 20000=
38763 32998 30802 11010 21026 30108 40217 57003 80001
  333 21036=
38774 32998 41101 10062 21038 30035 40233 53008 80001
  333 21005=
38799 32997 71805 10030 21031 30004 40240 52005 80003
  333 20007=
38806 32997 71607 10052 21049 39987 40251 53001 80002
  333 21009=
38880 32997 60702 10078 21060 39971 40228 51005 80001
  333 21009=
38886 32997 60000 10085 21060 30002 40231 53007 80008
  333 21004=
38895 32996 62103 10036 21034 39956 40252 52015 80006
  333 21028=
38911 32997 31609 10058 21022 39957 40256 53004 80001
  333 20005=
38915 32997 41009 10081 21094 39933 40260 53009 80001
  333 20018=
38974 32998 61602 10106 20002 39899 40232 53003 80002
  333 20023=
38987 32996 52502 10022 21038 39512 40274 52003 83072
  333 21030=
48001 32450 50000 10140 20124 40182 83520
  333 56110 58005=
48010 32058 00000 10230 20163 40178 70144
  333 58009=
48020 32258 30403 10245 20167 70122 83400
  333 56500=
48035 31958 02702 10242 20095 40137 70500
  333 58005=
48048 32958 00401 10246 20167 40170
  333 58010=
48071 31960 00503 10260 20203 40161 70500
  333 58005=
48080 32562 33103 10301 20223 40154 81836
  333 56999 58002=
48097 32957 21303 10310 20189 40153 70211 80006
  333 56009 58014=
48108 32996 50503 10330 20172 40145 80005
  333 56009 58010=
48110 31996 31304 10330 20206 40137 70511 80006
  333 56009 58010=
48112 32597 80403 10305 20230 40129 83876
  333 56199 58010=
48310 31558 12703 10271 20174 39696 40148 56033 70540 81100
  333 58003=
48325 31558 30000 10240 20176 39921 40166 57022 71042 82505
  333 58016=
48352 31559 11105 10280 20164 39962 40162 57034 70500 81101
  333 58000=
48380 31640 10701 10298 20187 30064 40158 57026 70500 81100
  333 58004=
48403 31958 60904 10291 20160 39957 40166 57019 70522 80006
  333 58020=
48420 31959 40406 10304 20192 30133 40137 57024 70511 80006
  333 58008=
48430 31956 20805 10328 20191 30134 40141 57029 70500 80005
  333 58003=
48450 31956 00000 10320 20181 30112 40145 52002 70500
  333 58002=
48459 31958 10706 10326 20183 30125 40127 57033 70500 80001
  333 59002=
48465 31956 20710 10300 20193 30139 40143 57024 70500 80005
  333 58009=
51716 32963 01401 11041 21118 39067 40455 57004
  333 00551 21144=
51811 32962 01102 11030 21133 38935 40445 57001
  333 00551 21133=
51818 32965 02001 11020 21132 38773 40431 57002
  333 00500 21135=
55299 32880 72003 11068 21266 35823 57019 87///
  333 00154 21184=
55472 32780 72705 11068 21324 35707 57010 87///
  333 00054 21135=
55578 32780 71102 10008 21245 36357 57011 87///
  333 00053 21107=
55591 32667 72706 10034 21216 36495 57018 87///
  333 00153 21061=
56079 11780 83602 11051 21082 36667 57018 69951 77070 88///
  333 00555 21107=
56106 32780 82904 11026 21312 36189 57017 88///
  333 00255 21119=
56116 32680 83202 11012 21174 36317 57022 88///
  333 00252 21118=
56137 32680 73401 10068 21207 36770 57030 87///
  333 00251 21090=
56144 32780 51101 10057 21175 36828 57033 85///
  333 00251 21070=
56152 32680 62705 11003 21158 36276 57022 86///
  333 00353 21164=
56172 32680 12904 10099 21097 37294 57050 81///
  333 00301 21068=
56247 32967 00901 10117 21168 37388 57056
  333 00251 21019=
56257 32680 03403 10030 21228 36252 57019
  333 00251 21093=
56374 11580 30907 11001 21095 37415 57036 69911 70080 83///
  333 00502 21061=
56462 32680 01803 10118 21201 37099 57044
  333 00351 21060=
56651 32680 22504 10133 21074 37640 57025 82///
  333 00201 20049=
56691 11463 83201 11013 21021 37790 57027 69901 72466 88///
  333 00660 21036 93427=
56739 32580 12503 10169 20005 38335 57025 81///
  333 00101 20014=
56748 32973 02504 10179 21009 38372 57029
  333 00100 20026=
56768 32680 02507 10172 21041 38187 57028
  333 00200 20035=
56951 32980 03203 10216 21010 38522 57034
  333 00101 20048=
56954 32577 12202 10225 20086 40180 57039 81///
  333 00100 20052=
56985 32575 03404 10222 21032 38714 40132 57035
  333 00005 20113=
57832 31764 83602 10026 20007 40301 57028 70060 88///
  333 20014=
57853 11440 80401 10047 20038 40296 57029 69941 76066 88///
  333 20040=
57902 32570 80903 10035 20006 38672 40256 57032 88///
  333 00656 20022=
57916 32563 81101 10099 20045 40259 57036 88///
  333 20073=
57922 32568 83603 10037 20013 39075 40279 57029 88///
  333 20011=
57932 11358 80000 10066 20044 39931 40285 57033 69911 76060 88///
  333 20052=
0000027900
181
UQIN61 VOMM 110600 RRA
PPDD 61063 43105 NIL=
PPDD 61063 43128 NIL=
PPDD 61063 43150 NIL=
PPDD 61063 43185 NIL=
PPDD 61063 43220 NIL=
PPDD 61063 43221 NIL=
PPDD 61063 43279 NIL=
PPDD 61063 43346 NIL=
PPDD 61063 43369 NIL=
PPDD 61063 43371 NIL=

0000010000
182
SAGI32 EGRR 110750
METAR LXGB 110750Z 11003KT 9999 FEW013 SCT026 BKN100 14/12 Q1017=
0000079700
183
SAUK63 EGRR 110750
METAR EGDM 110750Z 30006KT 9999 FEW040 04/03 Q1016 NOSIG=
METAR EGQL 110750Z 25014KT 9999 FEW045 01/M01 Q1009 NOSIG=
METAR EGQM 110750Z AUTO 28005KT 9999 FEW120/// SCT180/// 04/M00 Q1010=
METAR EGQS 110750Z 24010KT 9999 FEW013 FEW020CB 01/00 Q1007=
METAR EGUB 110750Z 27003KT 9999 FEW012 05/03 Q1016 NOSIG=
METAR EGVN 110750Z 28002KT 9999 FEW030 04/02 Q1016 NOSIG=
METAR EGVO 110750Z 27007KT 9999 FEW005 05/04 Q1016=
METAR EGWU 110750Z 30010KT 9999 FEW020 06/03 Q1015 NOSIG=
METAR EGXC 110750Z 28008KT CAVOK 04/03 Q1013=
METAR EGXT 110750Z AUTO 27009KT 9999 NCD 03/01 Q1014=
METAR EGXV 110750Z AUTO 27007KT 9999 NCD 04/01 Q1012=
METAR EGXW 110750Z 27006KT 9999 FEW040 04/02 Q1013=
METAR EGYD 110750Z 27009KT 9999 FEW040 03/02 Q1014 NOSIG=
0000014400
184
SNVF51 EGRR 110800
BBXX
62105 11084 99550 70132 46/// /2815 10077 21006 40133 52016 22200
00108 10909 70043 333 90710 91128=
0000012800
185
SNVF51 EGRR 110800
BBXX
62301 11084 99524 70047 46/// /2915 10075 20024 40177 52025 22200
00096 10504 70018=
0000012800
186
SNVF51 EGRR 110800
BBXX
64045 11084 99591 70117 46/// /2618 10053 20009 40069 53023 22200
00097 10809 70044=
0000012800
187
SNVF51 EGRR 110800
BBXX
62001 11084 99452 70050 46/// /0205 10117 20067 40195 52016 22200
00127 10703 70015=
0000012800
188
SNVF51 EGRR 110800
BBXX
62107 11084 99501 70061 46/// /3409 10092 20038 40197 53018 22200
00104 11004 70022=
0000012800
189
SNVF51 EGRR 110800
BBXX
62163 11084 99475 70084 46/// /0615 10104 20062 40187 53010 22200
00121 11006 70031=
0000014400
190
SNVF51 EGRR 110800
BBXX
62304 11084 99512 10018 46/97 /2229 10097 20078 40145 53002 22200
00101 10501 70005 333 90710 91137=
0000014400
191
SNVF51 EGRR 110800
BBXX
62103 11084 99499 70029 46/99 /3317 10091 20044 40191 53035 22200
00112 10702 70012 333 90710 91125=
0000014400
192
SNVF51 EGRR 110800
BBXX
62305 11084 99504 70000 46/// /3018 10091 20070 40165 53016 22200
00109 10601 70007 333 90710 91131=
0000012200
193
SNVF51 EGRR 110800
BBXX
62081 11084 99521 70105 46/// /1704 10082 20020 40171 51011 22200
10906 70030=
00000000