0000133200
266
SAAU31 YBBN 110000
METAR YPAD 110000Z 21006KT CAVOK 25/12 Q1019
NOSIG=
METAR YBAS 110000Z 11010KT CAVOK 34/05 Q1016=
METAR YBBN 110000Z 11007KT 9999 FEW030 SCT063 27/16 Q1018=
METAR YBCS 110000Z 16009KT 9999 FEW010 SCT025 BKN065 29/24 Q1011=
METAR YSCB 110000Z 31007KT 9999 FEW055 BKN240 27/12 Q1019=
METAR YPXM 110000Z AUTO 00000KT //// // NCD 25/23 Q1012=
METAR YPCC 110000Z 15010KT 9999 FEW025 BKN037 27/21 Q1012=
METAR YCFS 110000Z AUTO 07012KT 9999 // SCT094 25/18 Q1019=
METAR YPDN 110000Z 22006KT 9999 FEW020 BKN350 28/24 Q1009=
METAR YBCG 110000Z AUTO 15007KT 9999 // SCT033 BKN042 BKN048 26/17
Q1019=
METAR YHID 110000Z AUTO 35006KT //// // ////// 28/25 Q1008=
METAR YPJT 110000Z AUTO 08009KT 9999 // NCD 29/11 Q1017=
METAR YPKU 110000Z AUTO 02004KT 9999 // NCD 31/26 Q1010=
METAR YPLM 110000Z AUTO 18004KT 9999 // NCD 30/20 Q1009=
METAR YMML 110000Z 18009KT 7000 OVC011 17/14 Q1020
FM0100 18012KT 9999 SCT015 BKN020
TEMPO 0100/0200 9999 BKN015=
METAR YPPH 110000Z 06014KT CAVOK 27/11 Q1016=
METAR YSSY 110000Z 32006KT 260V010 CAVOK 29/15 Q1017
FM0100 05010KT CAVOK=
METAR YSTW 110000Z AUTO 22006KT 9999 // NCD 28/12 Q1019=
METAR YPTN 110000Z AUTO 07009KT 9999 // SCT030 30/23 Q1010=
METAR YBTL 110000Z 12014KT 9999 VCSH FEW015 SCT021 BKN058 28/23
Q1013=

0000027800
267
SANG31 YBBN 110000
METAR AYPY 110000Z VRB02KT 9999 SCT018 BKN280 30/23 Q1007=
METAR AYWK 110000Z NIL=
METAR AYVN 110000Z NIL=
METAR AYNZ 110000Z NIL=
METAR AYMH 110000Z NIL=
METAR AYGN 110000Z NIL=
METAR AYMO 110000Z NIL=
METAR AGGH 110000Z NIL=

0000123700
268
SAAU32 YBBN 110000
METAR YAMB 110000Z AUTO 22004KT 9999 // SCT053 27/16 Q1018=
METAR YMAV 110000Z AUTO 20007KT 9999 // OVC015 18/13 Q1020=
METAR YBRM 110000Z 29008KT 9999 FEW022 SCT160 31/24 Q1010=
METAR YCIN 110000Z AUTO 27008KT //// // BKN017 30/25 Q1010=
METAR YSDU 110000Z AUTO 02003KT 9999 // NCD 29/16 Q1019=
METAR YFRT 110000Z AUTO 10013KT //// // ////// 23/13 Q1022=
METAR YGEL 110000Z 07018KT CAVOK 37/02 Q1010=
METAR YPGV 110000Z 11015KT 9999 VCSH SCT016 SCT075 BKN130 28/24
Q1008=
METAR YBHM 110000Z AUTO 11018KT 9999 // ////// 28/23 Q1014=
METAR YMHB 110000Z 14007KT 070V180 9999 FEW035 BKN220 21/12 Q1014=
METAR YPKG 110000Z AUTO 10007KT 9999 // NCD 24/10 Q1022=
METAR YMLT 110000Z AUTO 14007KT 9999 // NCD 24/13 Q1014=
METAR YBMA 110000Z AUTO 12013KT 9999 // NCD 35/17 Q1012=
METAR YSNF 110000Z 13011KT 9999 FEW038 23/11 Q1019=
METAR YPEA 110000Z AUTO 09012KT 9999 // NCD 29/10 Q1016=
METAR YPPD 110000Z AUTO 30008KT //// // NCD 31/26 Q1009=
METAR YSRI 110000Z AUTO 08005KT 9999 // NCD 27/16 Q1017=
METAR YBRK 110000Z 11012KT 9999 SCT032 27/19 Q1015=
METAR YWLM 110000Z AUTO 31005KT //// // NCD 28/17 Q1018=
METAR YPWR 110000Z AUTO 13007KT 9999 // NCD 31/10 Q1017=

0000006100
269
SAUK39 EGGY 110000
METAR EGUN 110000Z NIL=

0000009900
270
SAGQ21 FGSL 110000 RRA
METAR FGBT 110000Z 13004KT 9999 FEW010 26/24 Q1011 NOSIG=

0000009500
271
SPCN47 CWAO 110011
SPECI CYWA 110011Z AUTO 14005KT 1SM OVC001 M04/M05 A3011=

0000035000
272
SAIO31 KWBC 110000 RRB
METAR
FMCZ 110000Z NIL=
FMEE 110000Z AUTO 12011KT 9999 FEW040 26/22 Q1014=
WBGG 110000Z 16003KT 5000 BR FEW001 SCT020 BKN150 23/23 Q1012
     NOSIG=
WBKK 110000Z 10003KT 9999 FEW015 SCT140 BKN270 25/23 Q1012
     NOSIG=
WBSB 110000Z 16003KT 9999 FEW006 FEW016CB BKN280 26/25 Q1013
     NOSIG=

0000025700
273
SACG21 FCBB 110000
METAR FCBB 110000Z 26003KT 8000 FEW016 23/22 Q1011 NOSIG=
METAR FCPP NIL=
METAR FCPD 110000Z 00000KT CAVOK 24/21 Q1012=
METAR FCOU 110000Z 00000KT CAVOK 23/22 Q1011=
METAR FCOI 110000Z VRB02KT CAVOK 24/23 Q1013=

0000022700
274
SAAF11 LFPW 110000 RRA
METAR FKKD 110000Z 00000KT 6000 BKN013 FEW016CB 27/26 Q1011 NOSIG=
METAR FKKR 110000Z 00000KT CAVOK 21/04 Q1013=
METAR FKYS 110000Z 26005KT 4000 BR BKN003 21/20 Q1015 BECMG 2000 BR=

0000008700
275
SAAF13 LFPW 110000 RRA
METAR GBYD 110000Z 01005KT CAVOK 20/14 Q1013=

0000009600
276
SAAF14 LFPW 110000 RRB
METAR FEFF 110000Z 00000KT 8000 NSC 21/18 Q1011 NOSIG=

0000015400
277
SAAF18 LFPW 110000 RRB
METAR FMMT 110000Z 00000KT 9999 FEW017 26/25 Q1011=
METAR FMNM 110000Z 26002KT 9999 FEW020 SCT230 25/23 Q1011=

0000009900
278
SAAF27 LFPW 110000 RRB
METAR FGBT 110000Z 13004KT 9999 FEW010 26/24 Q1011 NOSIG=

0000013100
279
SATH32 VTBB 110000 RRA
METAR VTSF 110000Z 00000KT 9999 FEW018 SCT100 BKN300
24/23 Q1013 A2993 INFO A / RWY 19=

0000012500
280
SACN62 CYXX 110000
METAR CYXX 110000Z 28003KT 10SM -RA OVC030 07/ A2993 RMK SC8 DP 5.3
 VIA CYXC SLP135=

0000011500
281
SAFK41 EGYP 102350 COR
METAR COR EGYP 102350Z 21026G38KT 9999 FEW018 BKN029 04/M03 Q1000
 BLU=

0000010300
282
SAUS73 KWBC 110000 RRD
METAR
KFSD 102356Z COR 27005KT 6SM BR BKN080 M01/M02 A2954=

0000009500
283
SAFR32 LFPW 110000 RRA
METAR LFCK 110000Z AUTO 13021KT 9999 NSC 11/06 Q1016=

0000028400
284
SANM40 FYWW 110000
METAR FYGO 110000Z AUTO 34005KT //// // ////// 19/11 Q1013=
METAR FYOA 110000Z AUTO 26007KT //// // ////// 24/M00 Q1013=
METAR FYWB 110000Z AUTO 02010KT //// // ////// 17/14 Q1013=
METAR FYWH 110000Z AUTO 01001KT //// // ////// 10/00 Q1020=

0000010600
285
SAAF05 LFPW 110000 RRA
METAR DBBB 110000Z 19006KT 6000 FEW012 BKN200 28/26 Q1010 NOSIG=

00000000