0000041000
714
SAME31 OLBA 110800
METAR OLBA 110800Z 21004KT 8000 FEW026 16/05 Q1025 NOSIG=
METAR OSDI 110800Z 00000KT 1500 BR 04/03 Q1025=
METAR OSAP NIL=
METAR OSLK 110800Z 12004KT CAVOK 17/03 Q1024=
METAR OJAI 110800Z 30004KT 2000 BR SCT010 BKN020 09/08 Q1024
NOSIG=
METAR OJAM 110800Z 00000KT 1000 FG BKN025 08/06 Q1024 NOSIG=
METAR OJAQ 110800Z 00000KT 9999 SCT030 SCT035 14/08 Q1025 NOSIG=
0000011000
715
UANT99 KDDL 110806
ARP UAL77 5308N02854W 0806 F350 MS60 195/75 KT
N14118 DDL IG1 110806 F98A
0000013800
716
SMID20 WIIX 110600 RRA
AAXX 11064
96559 32458 70000 10296 20229 30065 40103 57020 86170
  333 56300 57831 86810 80856=
0000015700
717
SSVX13 LFPW 110800
ZZYY 15548 11014 0800/ 522344 011298 6113/ 11119 40207 52023 22219
 00236 444 20130 11014 0600/ 50101 80144 80011 9/015=
0000015700
718
SSVX13 LFPW 110800
ZZYY 16616 11014 0800/ 549967 163183 6113/ 11119 49932 52027 22219
 00123 444 20130 11014 0600/ 50101 80072 80013 9/015=
0000015700
719
SSVX13 LFPW 110800
ZZYY 44771 11014 0800/ 754851 023019 6113/ 11119 40036 57026 22219
 00089 444 20130 11014 0600/ 50101 80138 80008 9/015=
0000015700
720
SSVX13 LFPW 110800
ZZYY 13665 11014 0800/ 717276 059132 6113/ 11119 40167 57012 22219
 00265 444 20130 11014 0600/ 50101 80142 80002 9/015=
0000015700
721
SSVX13 LFPW 110800
ZZYY 62512 11014 0800/ 736302 022968 6113/ 11119 40087 57020 22219
 00182 444 20130 11014 0600/ 50101 80140 80023 9/015=
0000015700
722
SSVX13 LFPW 110800
ZZYY 44770 11014 0800/ 749208 017878 6113/ 11119 40092 57025 22219
 00116 444 20130 11014 0600/ 50101 80138 80003 9/015=
0000014500
723
SSVX13 LFPW 110800
ZZYY 25622 11014 0800/ 186895 002221 6113/ 11119 49977 52001 444
 20130 11014 0600/ 50101 80130 80002 9/015=
0000015700
724
SSVX13 LFPW 110800
ZZYY 44869 11014 0800/ 728665 024153 6113/ 11119 40178 52004 22219
 00214 444 20130 11014 0600/ 50101 80106 80013 9/015=
0000015700
725
SSVX13 LFPW 110800
ZZYY 62515 11014 0800/ 751974 007087 6113/ 11119 40187 52025 22219
 00083 444 20130 11014 0600/ 50101 80136 80013 9/015=
0000015700
726
SSVX13 LFPW 110800
ZZYY 41705 11014 0800/ 726573 046071 6113/ 11119 40211 57003 22219
 00236 444 20130 11014 0600/ 50101 80142 80023 9/015=
0000015700
727
SSVX13 LFPW 110800
ZZYY 44602 11014 0800/ 754694 037767 6113/ 11119 40038 52001 22219
 00059 444 20130 11014 0600/ 50101 80138 80006 9/015=
0000015700
728
SSVX13 LFPW 110800
ZZYY 25652 11014 0800/ 181911 103093 6113/ 11119 40161 52001 22219
 01098 444 20130 11014 0600/ 50101 80138 8//// 9/015=
0000015700
729
SSVX13 LFPW 110800
ZZYY 14526 11014 0800/ 329146 067487 6113/ 11119 40246 57012 22219
 00229 444 20130 11014 0600/ 50101 80148 80026 9/015=
0000015700
730
SSVX13 LFPW 110800
ZZYY 13659 11014 0800/ 726144 026932 6113/ 11119 40182 52008 22219
 00219 444 20130 11014 0600/ 50101 80142 80003 9/015=
0000015700
731
SSVX13 LFPW 110800
ZZYY 14525 11014 0800/ 333244 071833 6113/ 11119 40269 57008 22219
 00204 444 20130 11014 0600/ 50101 80150 80019 9/015=
0000015700
732
SSVX13 LFPW 110800
ZZYY 44605 11014 0800/ 750475 023822 6113/ 11119 49958 57036 22219
 00110 444 20130 11014 0600/ 50101 80142 80015 9/015=
0000015700
733
SSVX13 LFPW 110800
ZZYY 16545 11014 0800/ 339740 086071 6113/ 11119 40150 57001 22219
 00143 444 20130 11014 0600/ 50101 80144 80031 9/015=
00000000