0000060300
926
FTUS53 KWBC 110233 AAA
TAF AMD
KFOE 110231Z 1103/1124 28008KT P6SM SCT008 OVC025
     FM110400 29007KT 5SM -RASN BR OVC019
     FM110600 28009KT 5SM BR SCT008 BKN080
     FM111100 29011KT P6SM FEW100=
KRIW 110231Z 1103/1124 30022G34KT P6SM SCT200
     FM110600 29011KT P6SM SCT150
     FM110900 VRB04KT P6SM BKN070
     FM111800 19015KT P6SM SCT100
     FM112100 18020G30KT P6SM SCT250=
KTOP 110232Z 1103/1124 28006KT 5SM BR SCT008 OVC028
     FM110400 29005KT 5SM -RASN BR OVC021
     FM110600 28006KT 5SM BR SCT008 BKN080
     FM111100 29009KT P6SM FEW100=

0000151100
927
FTUS80 KWBC 110233 AAA
TAF AMD
KBGM 110231Z 1103/1124 17006KT P6SM OVC007
      TEMPO 1103/1107 OVC004
     FM110700 17009KT 4SM BR OVC007 WS020/21050KT
      TEMPO 1108/1112 2SM -SHRA BR OVC004
     FM111200 17012KT P6SM -SHRA OVC005
     FM112000 20011KT 3SM SHRA BR OVC007=
KFOE 110231Z 1103/1124 28008KT P6SM SCT008 OVC025
     FM110400 29007KT 5SM -RASN BR OVC019
     FM110600 28009KT 5SM BR SCT008 BKN080
     FM111100 29011KT P6SM FEW100=
KPSM 110232Z 1103/1124 VRB03KT 4SM BR SCT015 OVC070
     FM110400 20005KT 4SM BR OVC015
     FM110500 14005KT 1SM -FZDZ BR OVC005
     FM111100 18010KT 1/2SM -RA FG VV003 WS020/19050KT
     FM111500 20012G25KT 2SM RA BR OVC005 WS020/21060KT=
KPWM 110231Z 1103/1124 22005KT P6SM SCT015 OVC080
     FM110400 20005KT 4SM BR OVC015
     FM110600 16005KT 1SM -FZDZ BR OVC005
     FM111200 18010KT 1/2SM -RA FG VV003 WS020/19050KT
     FM111600 20012G25KT 2SM RA BR OVC005 WS020/21060KT=
KRIW 110231Z 1103/1124 30022G34KT P6SM SCT200
     FM110600 29011KT P6SM SCT150
     FM110900 VRB04KT P6SM BKN070
     FM111800 19015KT P6SM SCT100
     FM112100 18020G30KT P6SM SCT250=
KRKD 110232Z 1103/1124 25005KT P6SM SCT015 OVC080
     FM110400 20005KT 4SM BR OVC015
     FM110600 16005KT 1SM -FZDZ BR OVC005
     FM111000 17008KT 1/2SM -RA FG VV003
     FM111400 19012KT 1/2SM RA FG VV003 WS020/19055KT
     FM111800 21015G30KT 3SM RA BR OVC005 WS020/21070KT AMD LTD TO
      CLD VIS AND WIND=

0000022900
928
FTUS80 KWBC 110233 AAB
TAF AMD
KTOP 110232Z 1103/1124 28006KT 5SM BR SCT008 OVC028
     FM110400 29005KT 5SM -RASN BR OVC021
     FM110600 28006KT 5SM BR SCT008 BKN080
     FM111100 29009KT P6SM FEW100=

0000012400
929
SPUS31 KWBC 110233
SPECI
KIAD 110229Z 35004KT 1SM R01R/6000VP6000FT -RA BR BKN005 OVC009
02/01 A3022=

0000009400
930
SPUS31 KWBC 110233
SPECI
KMSY 110229Z 16008KT 1/8SM FG VV003 17/17 A2994=

0000007700
931
SASU01 HSSS 110230
METAR HSSS 110230Z 36011KT CAVOK Q1017=

0000013300
932
SAUK31 EGGY 110220 CCA
METAR COR EGCC 110220Z 28008KT 9999 -RA FEW010 SCT025 BKN030 06/05
     Q1010 TEMPO SHRA=

0000063300
933
SATU32 LTAA 110220
METAR LTAG 110220Z 33004KT CAVOK 02/M02 Q1021 NOSIG=
METAR LTAN 110220Z NIL=
METAR LTAP 110220Z 33004KT CAVOK M05/M06 Q1022 NOSIG=
METAR LTAT 110220Z 21006KT CAVOK M09/M10 Q1021 NOSIG=
METAR LTAU 110220Z VRB01KT 1600 BR OVC002 M05/M05 Q1022 TEMPO 0800
 FZFG=
METAR LTBF 110220Z NIL=
METAR LTBU 110220Z 01004KT 1200 R05/0300U R23/0600U BCFG NSC 03/03
 Q1021=
METAR LTCC 110220Z VRB01KT CAVOK M04/M07 Q1019 NOSIG=
METAR LTCE 110220Z 00000KT 0400 R26L/0150U R08R/0200U R26R/0200U
 R08L/0175U FZFG VV002 M26/M28 Q1020 NOSIG=
METAR LTCJ 110220Z 20004KT 6000 NSC M04/M04 Q1020=

0000008900
934
SATU35 LTAA 110220
METAR LCEN 110220Z 27008KT CAVOK 10/05 Q1021 NOSIG=

0000011200
935
SAID31 WIII 110230
METAR WIII 110230Z 32003KT 9000 FEW020CB SCT021 32/24 Q1010 RMK CB TO
W=

0000043300
936
UDEU02 EGRR 111059 RRG
AMDAR 1110
LVR EU3522   4912N 00940E 111021 F380 MS592 259/035 TB/ S031=
LVR EU3522   5002N 00959E 111028 F380 MS570 260/028 TB/ S031=
LVR EU3522   5051N 01019E 111035 F380 MS567 266/032 TB/ S031=
LVR EU3522   5141N 01038E 111042 F380 MS582 260/035 TB/ S031=
LVR EU3522   5232N 01054E 111049 F380 MS590 253/044 TB/ S031=
LVR EU3522   5322N 01119E 111056 F380 MS575 253/050 TB/ S031=
0000012200
937
SNGI21 EGRR 111100
AAXX 11114
08495 42460 60804 10150 20125 30195 40201 51021 82532
  333 81713 84360=
0000087700
938
SAUK39 EGRR 111050
METAR EGDM 111050Z 29008KT CAVOK 06/04 Q1020 BLU=
METAR EGDR 111050Z 14003KT 9999 FEW025 09/04 Q1021 BLU NOSIG=
METAR EGDX 111050Z 30008KT 9999 FEW020 07/04 Q1020 BLU=
METAR EGQL 111050Z 25019KT 9999 FEW020 03/M01 Q1011 BLU NOSIG=
METAR EGQM 111050Z AUTO 27020KT 9999 NCD 05/M00 Q1012=
METAR EGUB 111050Z 23007KT 9999 FEW012 06/04 Q1019 BLU NOSIG=
METAR EGVN 111050Z 25007KT CAVOK 06/03 Q1018 BLU NOSIG=
METAR EGVO 111050Z 27007KT CAVOK 06/03 Q1019 BLU=
METAR EGWU 111050Z 30007KT 9999 FEW017 07/03 Q1019 BLU NOSIG=
METAR EGXC 111050Z 27013KT 9999 BKN045 06/03 Q1016 BLU=
METAR EGXT 111050Z AUTO 25009KT 9999 NCD 05/03 Q1017=
METAR EGXV 111050Z AUTO 26009KT 9999 FEW150/// 05/03 Q1015=
METAR EGXW 111050Z 26011KT 9999 FEW019 SCT045 05/02 Q1016 BLU NOSIG=
METAR EGYD 111050Z 26014KT 9999 FEW022 05/03 Q1016 BLU NOSIG=
0000008600
939
SAYE20 OYHD 111100
METAR OYHD 111100Z 21022KT 9999 FEW030 28/20 Q1012=
0000010000
940
SNVC25 LFPW 111100
BBXX
BAREU08 11114 99315 50720 46/// ///// 40124 52014
22244=
0000009400
941
SNVD25 LFPW 111100
BBXX
BAREU13 11114 99517 70386 46/// ///// 4////
22264=
0000011000
942
UANT01 CWAO 111056
ARP UAL56 5103N02014W 1056 F320 MS56 209/71 KT
N66051 DDL XXN 111056 F14A
0000011100
943
UANT01 CWAO 111056
ARP UAL123 5344N03353W 1056 F360 MS59 207/29 KT
N58101 DDL IG1 111056 F60A
0000011000
944
UANT01 CWAO 111056
ARP UAL37 5401N01951W 1056 F360 MS67 219/83 KT
N21108 DDL IG1 111056 F50A
0000025800
945
UAPA01 KWBC 111057
ARP AWE693 2517N 14531W 1049 F360 MS44 250/070KT TB SMTH=
ARP DAL1298 3017N 13138W 1052 F370 MS47 289/045KT=
ARP ASA871 35N 156W 1052 F350 MS58 100/020KT=
ARP WJA1865 2443N 15516W 1052 F360 MS53 212/039KT TB CONS LGT=
00000000