0000011700
906
SPAU32 YBBN 110232
SPECI YPGV 110230Z 11006KT 9999 5000W -SHRA FEW012 BKN016 27/25 Q1007
RESHRA=

0000008900
907
SAHK31 VHHH 110230
METAR VHHH 110230Z 09011KT CAVOK 20/10 Q1025 NOSIG=

0000013900
908
FTCA33 KWBC 110233
TAF
TAF TBPB 110200Z 1106/1206 06015KT 9999 SCT018
      TEMPO 1106/1118 8000 SHRA BKN014 BKN038=

0000012200
909
SPAU32 AMMC 110232
SPECI YPGV 110230Z 11006KT 9999 5000W -SHRA FEW012 BKN016 27/25 Q1007
     RESHRA=

0000022600
910
SACZ31 LKPW 110230
METAR LKKV 110230Z NIL=
METAR LKMT 110230Z 23008KT CAVOK 01/M01 Q1019 NOSIG=
METAR LKPR 110230Z 24008KT CAVOK 02/M00 Q1018 NOSIG=
METAR LKTB 110230Z 00000KT CAVOK 02/M01 Q1019 NOSIG=

0000009700
911
SAIL31 BICC 110230
METAR BIKF 110230Z 26013KT 9999 FEW041 BKN090 02/M04 Q0994=

0000052400
912
SAYG31 LYBM 110230
METAR LYBE 110230Z 15005KT CAVOK 04/02 Q1023 NOSIG=
METAR LYBT 110230Z 15002KT 3000 BR NSC 02/02 Q1023 NOSIG=
METAR LYKV 110230Z VRB01KT 9999 SCT040 04/02 Q1023 NOSIG=
METAR LYNI 110230Z 12003KT 100V200 CAVOK 00/M01 Q1024=
METAR LYPG 110230Z VRB01KT 9999 FEW040 BKN100 08/07 Q1022 NOSIG=
METAR LYPR 110230Z NIL=
METAR LYTV 110230Z 10001KT 9999 FEW050 09/08 Q1022=
METAR LYUZ 110230Z 09003KT 9999 BKN020 03/03 Q1021=
METAR LYVR 110230Z VRB01KT 8000 NSC 02/00 Q1023 NOSIG=

0000031300
913
FCSN31 ESWI 110200
TAF ESGJ 110200Z NIL=
TAF ESGP 110230Z 1103/1112 25012KT 9999 SCT010 BKN020 PROB40
1103/1107 RA BKN008=
TAF ESGT 110200Z NIL=
TAF ESMK 110200Z NIL=
TAF ESMQ 110200Z NIL=
TAF ESMT 110200Z NIL=
TAF ESMX 110200Z NIL=
TAF ESTA 110200Z NIL=
TAF ESTL 110200Z NIL=

0000004600
914
FCSN32 ESWI 110200
TAF NIL=

0000031400
915
FCSN33 ESWI 110200
TAF ESNG 110200Z NIL=
TAF ESNK 110200Z NIL=
TAF ESNN 110200Z NIL=
TAF ESNO 110200Z NIL=
TAF ESNQ 110200Z NIL=
TAF ESNS 110200Z NIL=
TAF ESNU 110230Z 1103/1112 35015KT 7000 -SN BKN035 TEMPO 1103/1112
2500 -SN VV014=
TAF ESNZ 110200Z NIL=
TAF ESUT 110200Z NIL=

0000004600
916
FCSN34 ESWI 110200
TAF NIL=

0000029900
917
FTUS41 KWBC 110233 AAA
TAF AMD
KPWM 110231Z 1103/1124 22005KT P6SM SCT015 OVC080
     FM110400 20005KT 4SM BR OVC015
     FM110600 16005KT 1SM -FZDZ BR OVC005
     FM111200 18010KT 1/2SM -RA FG VV003 WS020/19050KT
     FM111600 20012G25KT 2SM RA BR OVC005 WS020/21060KT=

0000080900
918
FTUS71 KWBC 110233 AAA
TAF AMD
KBGM 110231Z 1103/1124 17006KT P6SM OVC007
      TEMPO 1103/1107 OVC004
     FM110700 17009KT 4SM BR OVC007 WS020/21050KT
      TEMPO 1108/1112 2SM -SHRA BR OVC004
     FM111200 17012KT P6SM -SHRA OVC005
     FM112000 20011KT 3SM SHRA BR OVC007=
KPSM 110232Z 1103/1124 VRB03KT 4SM BR SCT015 OVC070
     FM110400 20005KT 4SM BR OVC015
     FM110500 14005KT 1SM -FZDZ BR OVC005
     FM111100 18010KT 1/2SM -RA FG VV003 WS020/19050KT
     FM111500 20012G25KT 2SM RA BR OVC005 WS020/21060KT=
KPWM 110231Z 1103/1124 22005KT P6SM SCT015 OVC080
     FM110400 20005KT 4SM BR OVC015
     FM110600 16005KT 1SM -FZDZ BR OVC005
     FM111200 18010KT 1/2SM -RA FG VV003 WS020/19050KT
     FM111600 20012G25KT 2SM RA BR OVC005 WS020/21060KT=

0000010200
919
SACG20 FCBB 110230
METAR FCBB 110230Z 00000KT 8000 FEW010 SCT016 23/22 Q1012 NOSIG=

0000041500
920
SAPL31 EPWA 110230
METAR EPGD 110230Z 28012KT 8000 -SHRA BKN011 SCT015TCU
    05/04 Q1008 =
METAR EPKK 110230Z 24009KT 9999 BKN046 04/M01 Q1017 =
METAR EPLL 110230Z 27012KT CAVOK 05/00 Q1014 =
METAR EPPO 110230Z 25009KT 9999 SCT021 05/01 Q1014
    R10/19//95 =
METAR EPRZ 110230Z 26016KT CAVOK 05/M02 Q1015 =
METAR EPWA 110230Z 27018G28KT 9999 FEW026 BKN040 05/01 Q1011
    NOSIG=

0000039600
921
SAPL32 EPWA 110230
METAR EPBY 110230Z 24010KT 9999 SCT023 BKN040 05/02
    Q1012 =
METAR EPKT 110230Z 23010KT 9999 SCT047 02/M02 Q1016 =
METAR EPLB 110230Z NIL=
METAR EPMO 110230Z 26017KT 9999 SCT023 BKN045 05/02 Q1011=
METAR EPSC 110230Z 25008KT 9999 BKN019 05/02 Q1012 =
METAR EPWR 110230Z 23006KT 9999 FEW020 SCT040 05/M00
    Q1017 =
METAR EPZG 110230Z NIL=

0000009900
922
SAQB31 LQBK 110230 RRA
METAR LQBK 110230Z 16002KT 1200 BR NSC 05/05 Q1021 NOSIG=

0000024300
923
SAIE31 EIDB 110230
METAR EIDW 110230Z 24011KT 9999 FEW035 03/02 Q1012 NOSIG=
METAR EINN 110230Z 25008KT 9999 FEW018CB 03/02 Q1014 NOSIG=
METAR EICK 110230Z 26008KT 9999 FEW016 03/01 Q1014 NOSIG=
METAR EIKN 110230Z NIL=

0000055900
924
FTUS51 KWBC 110233 AAA
TAF AMD
KBGM 110231Z 1103/1124 17006KT P6SM OVC007
      TEMPO 1103/1107 OVC004
     FM110700 17009KT 4SM BR OVC007 WS020/21050KT
      TEMPO 1108/1112 2SM -SHRA BR OVC004
     FM111200 17012KT P6SM -SHRA OVC005
     FM112000 20011KT 3SM SHRA BR OVC007=
KPSM 110232Z 1103/1124 VRB03KT 4SM BR SCT015 OVC070
     FM110400 20005KT 4SM BR OVC015
     FM110500 14005KT 1SM -FZDZ BR OVC005
     FM111100 18010KT 1/2SM -RA FG VV003 WS020/19050KT
     FM111500 20012G25KT 2SM RA BR OVC005 WS020/21060KT=

0000037700
925
FTUS52 KWBC 110233 AAA
TAF AMD
KRKD 110232Z 1103/1124 25005KT P6SM SCT015 OVC080
     FM110400 20005KT 4SM BR OVC015
     FM110600 16005KT 1SM -FZDZ BR OVC005
     FM111000 17008KT 1/2SM -RA FG VV003
     FM111400 19012KT 1/2SM RA FG VV003 WS020/19055KT
     FM111800 21015G30KT 3SM RA BR OVC005 WS020/21070KT AMD LTD TO
      CLD VIS AND WIND=

00000000