0000041100
726
FTCA35 KWBC 110318
TAF
TAF MGPB 1106/1206 00000KT 9999 FEW016 SCT090 TX28/1120Z
      TN18/1112Z
      TEMP0 1108/1116 CAV0K
      BECMG 1116/1118 36006KT SCT020
      BECMG 1200/1202 00000KT SCT016=
TAF MGSJ 1106/1206 00000KT CAV0K TX32/1120Z TN18/1112Z
      BECMG 1116/1118 18006KT 9000 FEW020 TEMP0 1122/1124
      FEW020TCU
      FEW025CB
     FM120200 00000KT CAV0K=

0000034600
727
FTUS51 KWBC 110318 AAA
TAF AMD
KRWI 110314Z 1103/1124 VRB02KT 3SM -RADZ BR SCT020 BKN070 OVC090
      TEMPO 1103/1106 3SM -RADZ BKN020
     FM110600 VRB02KT 1/2SM -DZ FG VV002 WS010/18035KT
     FM111000 18010KT 6SM BR OVC008
     FM111300 19013G24KT P6SM BKN009 OVC020
     FM111700 20017G28KT 5SM -SHRA BR BKN012=

0000071200
728
FTUS52 KWBC 110318 AAA
TAF AMD
KMCN 110316Z 1103/1124 12004KT 1/4SM -DZ FG OVC002
     FM110900 15006KT 1SM -SHRA BR OVC004
     FM111400 20010G17KT 2SM -SHRA BR OVC007
     FM111800 24011G18KT 4SM -SHRA BR BKN025 PROB30 1118/1121 2SM
      TSRA BR BKN010CB
     FM112100 28012G20KT P6SM BKN050=
KPSF 110314Z 1103/1124 20006KT 5SM BR BKN008 OVC060
      TEMPO 1103/1107 2SM BR SCT008 OVC060
     FM110700 20006KT 3SM -FZRAPL BR SCT008 OVC030
      TEMPO 1107/1109 BKN008 OVC030
     FM110900 15005KT 4SM -SHRA BR BKN008 OVC040
      TEMPO 1109/1112 1SM -FZRA BR OVC010
     FM111200 18006KT 3SM -RA BR OVC010
     FM111600 18012KT 3SM -SHRA BR OVC010 WS020/19040KT=

0000139800
729
FTUS80 KWBC 110318 AAA
TAF AMD
KBPT 110315Z 1103/1124 20011KT P6SM VCSH OVC004
     FM110900 24007KT 1SM BR OVC001
     FM111400 28007KT P6SM SKC
     FM111800 32012KT P6SM SKC=
KMCN 110316Z 1103/1124 12004KT 1/4SM -DZ FG OVC002
     FM110900 15006KT 1SM -SHRA BR OVC004
     FM111400 20010G17KT 2SM -SHRA BR OVC007
     FM111800 24011G18KT 4SM -SHRA BR BKN025 PROB30 1118/1121 2SM
      TSRA BR BKN010CB
     FM112100 28012G20KT P6SM BKN050=
KPAE 110316Z 1103/1124 15014G22KT P6SM -RA SCT014 OVC040
      TEMPO 1104/1108 2SM RA BR OVC014
     FM110800 20024G38KT 5SM -RA BR OVC015
     FM111400 19018G30KT P6SM -RA OVC025
     FM111900 18025G38KT P6SM -SHRA OVC018=
KPSF 110314Z 1103/1124 20006KT 5SM BR BKN008 OVC060
      TEMPO 1103/1107 2SM BR SCT008 OVC060
     FM110700 20006KT 3SM -FZRAPL BR SCT008 OVC030
      TEMPO 1107/1109 BKN008 OVC030
     FM110900 15005KT 4SM -SHRA BR BKN008 OVC040
      TEMPO 1109/1112 1SM -FZRA BR OVC010
     FM111200 18006KT 3SM -RA BR OVC010
     FM111600 18012KT 3SM -SHRA BR OVC010 WS020/19040KT=
KRWI 110314Z 1103/1124 VRB02KT 3SM -RADZ BR SCT020 BKN070 OVC090
      TEMPO 1103/1106 3SM -RADZ BKN020
     FM110600 VRB02KT 1/2SM -DZ FG VV002 WS010/18035KT
     FM111000 18010KT 6SM BR OVC008
     FM111300 19013G24KT P6SM BKN009 OVC020
     FM111700 20017G28KT 5SM -SHRA BR BKN012=

0000014600
730
SPCN31 CWAO 110314
SPECI CYWG 110314Z 30010KT 1/4SM R31/4000FT/N R36/4000VP6000FT/D FZFG
 VV003 M09/M10 A2943 RMK FG8 SLP983=

0000115500
731
SPUS70 KWBC 110318
SPECI
KPNS 110314Z AUTO 15006KT 1/2SM R17/1800V2200FT FG VV002 18/17
     A2999 RMK AO2 T01830172=
KUCP 110314Z AUTO 00000KT 10SM CLR 05/04 A2993 RMK AO2 TSNO=
KVLD 110314Z 20003KT 8SM FEW007 SCT011 BKN021 20/18 A3009 RMK
     AO2=
KBFD 110314Z AUTO 15013KT 7SM FEW006 BKN013 BKN020 02/01 A2999 RMK
     AO2 T00220011 TSNO=
KBLF 110314Z AUTO VRB06KT 10SM OVC006 11/08 A3006 RMK AO2=
KHDO 110314Z AUTO 00000KT 2 1/2SM BR CLR 10/09 A2989 RMK AO2 VIS
     3/4V4 T01000089=
KGLS 110314Z AUTO 20011KT 3/4SM BR VV002 16/16 A2987 RMK AO2=
KBFM 110315Z 16007KT 1/2SM -RA FG VV002 17/17 A2997 RMK AO2 P0001
     T01670167=
KCRE 110315Z 00000KT 1/4SM FG VV002 16/15 A3013 RMK AO2=
KGMU 110315Z AUTO 03007KT 2 1/2SM BR OVC004 08/07 A3011 RMK AO2
     RAE0258 P0001=
KHYA 110315Z 00000KT 9SM FEW009 SCT028 OVC043 04/03 A3031 RMK AO2
     T00390033=
KLWV 110315Z AUTO 18011KT 3SM -RA FEW011 BKN036 OVC055 07/ A2972
     RMK AO2 P0003 T0067 $=
PAIG 110315Z AUTO 04003KT 4SM BR BKN005 OVC012 M05/M06 A2943 RMK
     AO2 TSNO $=
KMAI 110315Z AUTO 00000KT 1SM BR VV002 17/17 A3003 RMK AO2=

0000009900
732
SPUS42 KWBC 110318
SPECI
KGLS 110314Z AUTO 20011KT 3/4SM BR VV002 16/16 A2987=

0000011700
733
SPUS42 KWBC 110318
SPECI
KPNS 110314Z AUTO 15006KT 1/2SM R17/1800V2200FT FG VV002 18/17
A2999=

0000009300
734
SAAP32 FAPR 110300 RRB
METAR FBSK 110300Z 20004KT CAVOK 20/10 Q1015 NOSIG=

0000021700
735
FTRA34 RUMS 110200 AAA
TAF AMD UNBB 110318Z 1103/1203 20008G14MPS 3000 -SHSN DRSN BKN010CB
530005 TEMPO 1103/1112 0500 +SHSN BLSN SCT002 BKN005 650050 TEMPO
1112/1203 1200 SHSN BR SCT002 BKN005=

0000011000
736
UANT99 KDDL 111059
ARP UAL45 5302N01909W 1058 F360 MS67 222/72 KT
N29124 DDL IG1 111059 F47A
0000010700
737
SPUR30 UKMS 111050
SPECI UKDE 111050Z 29011G16MPS 9999 SCT020 07/01 Q1011
02290356 NOSIG=
0000011100
738
UANT01 CWAO 111059
ARP UAL162 5407N02304W 1059 F340 MS63 212/76 KT
N34137 DDL IG1 111059 F37A
0000015700
739
SSVX13 LFPW 111100
ZZYY 44874 11014 1100/ 745806 020843 6113/ 11119 49959 57041 22219
 00131 444 20130 11014 1100/ 50101 80118 80013 9/015=
0000015700
740
SSVX13 LFPW 111100
ZZYY 41971 11014 1100/ 736056 058678 6113/ 11119 40320 52001 22219
 00205 444 20130 11014 1100/ 50101 80120 80005 9/015=
0000010000
741
SNVF25 LFPW 111100
BBXX
BATEU10 11114 99453 70043 46/// /0714 40213 51020
22245=
0000015700
742
SSVX13 LFPW 111100
ZZYY 44773 11014 1100/ 742149 028948 6113/ 11119 40054 52027 22219
 00147 444 20130 11014 1100/ 50101 80118 80006 9/015=
0000011800
743
SNVF25 LFPW 111100
BBXX
BATFR16 11114 99451 70141 46/// /1525 10117 20099 40127 51003
22214 00132=
0000009400
744
SNVF25 LFPW 111100
BBXX
BAREU14 11114 99536 70040 46/// ///// 40189
22264=
0000015700
745
SSVX13 LFPW 111100
ZZYY 44740 11014 1100/ 730674 030611 6113/ 11119 40176 52031 22219
 00202 444 20130 11014 1100/ 50101 80118 80019 9/015=
00000000