0000046100
026
SASW39 LSSW 102350 RRA
METAR LSMA 102350Z AUTO VRB02KT 1400NDV R01/1100VP2000U
           R19/0800VP2000D FG FEW001 SCT003 BKN120 00/00 Q1019 RMK
           RED=
METAR LSMD 102350Z AUTO 00000KT 0300NDV R11/0400N R29/0350N FG VV000
           02/02 Q1019 RMK RED=
METAR LSME 102350Z AUTO 00000KT 4600NDV BR OVC002 03/02 Q1019 RMK
           AMB=
METAR LSMP 102350Z AUTO 00000KT 7000NDV BR SCT130 00/00 Q1019 RMK
           GRN=

0000032200
027
SANL31 EHDB 102355
METAR EHAM 102355Z 21013KT 9000 SCT009 BKN011 06/04 Q1014 NOSIG=
METAR EHBK 102355Z AUTO 21010KT 9999 NCD 03/02 Q1016=
METAR EHGG 102355Z AUTO 23014KT 5000 BR SCT009 BKN010 FEW015CB 07/05
Q1013=
METAR EHRD 102355Z AUTO 20011KT 5000 BR FEW009 SCT010 BKN013 06/04
Q1015 NOSIG=

0000063400
028
FTUS71 KWBC 102357 CCA
TAF COR
KFLO 102354Z 1100/1124 13006KT P6SM VCSH BKN008 BKN018
      TEMPO 1102/1105 BKN018
     FM110500 14006KT 4SM BR BKN008 OVC015
     FM110900 17007KT 3SM BR BKN004
     FM111500 20012G18KT P6SM VCSH BKN009
      TEMPO 1117/1121 21018G28KT 2SM +SHRA BKN012CB
     FM112200 25014G23KT P6SM VCSH BKN020=
KMYR 102356Z 1100/1124 13011KT P6SM VCSH BKN020
     FM110400 15008KT 5SM BR BKN008
     FM110800 18009KT 4SM BR BKN006
     FM111600 19012G20KT P6SM VCSH BKN018
      TEMPO 1120/1124 20020G30KT 2SM +SHRA BKN012CB AMD LTD TO CLD
      VIS AND WIND 1104/1111=

0000115700
029
SAMX41 MMMX 102356
METAR MMMX 102344Z 18009KT 12SM SCT025TCU BKN080 19/04 A3020
      NOSIG RMK SLP095 52003 960 8/230=
METAR MMAA 102345Z 26003KT 10SM SKC 29/20 A2983 RMK SLP102 57006 962=
METAR MMBT 102340Z 00000KT 7SM FEW040 27/22 A2988 RMK 8/100=
METAR MMOX 102344Z 17014KT 15SM SCT030TCU 25/07 A3005 RMK SLP081
      55003 977 8/200=
METAR MMPA 102347Z 06006KT 4SM  FEW120 23/19 A2986 
      RMK SLP128 54001 991 8/030 HZY=
METAR MMPB 102342Z 18014KT 10SM  SKC 17/05 A3021 RMK ISOL SC=
METAR MMPS 102343Z 27008KT 15SM FEW100 29/21 A2997
      RMK SLP128 52001 963 8/030 CU N=
METAR MMQT 102345Z 00000KT 10SM SCT020 BKN050 BKN280 20/08 A3026 RMK
8/808=
METAR MMTM 102341Z 13006KT 5SM  SCT015 BKN060 BKN200 21/17 A2983 
      RMK SLP087 57074 993 8/538 HZY=
METAR MMTO 102348Z 00000KT 8SM  BKN020TCU BKN070 15/05 A3028 
      RMK SLP066 52031 953 8/230=
METAR MMVR 102343Z 11006KT 7SM  SKC 24/17 A2984 
      RMK SLP091 57007 992 HZY=
METAR MMZH 102349Z 00000KT 7SM SCT020TCU 29/23 A2984 RMK SLP102 M 951
      8/200=
METAR MMCB 102357Z NIL=
METAR MMIT 102357Z NIL=
METAR MMTB 102357Z NIL=

0000034900
030
SNAA01 KARS 110800 RRG
AAXX 1108/
89869 46/// ///// 11035 39921 4//// 5//// 90810=
89866 46/// ///// 11035 39880 4//// 5//// 90820=
89329 46/// ///// 11121 38820 4//// 5//// 90820=
89799 46/// ///// 11219 4//// 5//// 90810=
89108 46/// ///// 11203 37008 4//// 5//// 90820=
89314 46/// ///// 11111 38295 4//// 5//// 90820=
0000066100
031
UDAF01 FAPR 110951
AMDAR 1109
LVR AFZA08 3047S 02236E 110918 F400 MS590 260/049 TB0 S031 333 F/// VG000=
LVR AFZA08 3121S 02153E 110926 F400 MS590 260/040 TB0 S031 333 F/// VG000=
LVR AFZA08 3156S 02109E 110932 F400 MS585 274/040 TB0 S031 333 F/// VG000=
LVR AFZA08 3230S 02025E 110939 F387 MS546 261/044 TB0 S031 333 F/// VG000=
/// AFZA08 3245S 02006E 110942 F322 MS404 232/066 TB0 S031 333 F/// VG000=
LVR AFZA08 3301S 01944E 110946 F246 MS212 251/038 TB0 S031 333 F/// VG000=
DES AFZA08 3315S 01925E 110950 F183 MS099 257/025 TB0 S031 333 F/// VG000=
DES AFZA08 3320S 01919E 110951 F160 MS047 262/028 TB0 S031 333 F/// VG000=
0000041700
032
SNVD15 KWNB 111000 RRA
BBXX
44100 11101 99363 70756 46/// ///// 1//// 90934 22200 00089 10804
20804 311// 41101 70018=
44095 11101 99358 70753 46/// ///// 1//// 90947 22200 00136 10806
20806 313// 41101 70031=
41115 11101 99184 70673 46/// ///// 1//// 90941 22200 10802 20802
336// 41401 70010=
41113 11101 99284 70805 46/// ///// 1//// 90940 22200 00179 10802
20802 309// 41101 70010=
0000053900
033
SNVD17 KWNB 111000
BBXX
52211 11101 99153 11457 46/// ///// 1//// 90948 22200 00281 10806
20805 305// 41101 70028=
51206 11101 99198 71550 46/// ///// 1//// 90933 22200 00248 11005
21004 310// 41103 70024=
46114 11101 99367 71223 46/// ///// 1//// 90938 22200 00124 11406
21003 330// 41405 70028=
46084 11101 99566 71361 46/// /3609 10044 20006 49863 56025 90950
22200 00073 11104 20602 300// 41103 70021 333 91210 555 11090
22094 30900 40111 60949 359085 002084 004084 002085 002084 004082
80109 90927=
0000043000
034
UDAF01 FAPR 110954
AMDAR 1109
DES AFZA48 3335S 02548E 110945 F066 PS130 333/015 TB0 S031 333 F/// VG012=
DES AFZA48 3340S 02547E 110947 F049 PS120 303/012 TB0 S031 333 F/// VG012=
DES AFZA48 3345S 02546E 110948 F033 PS135 304/012 TB0 S031 333 F/// VG012=
DES AFZA48 3355S 02542E 110951 F018 PS155 221/012 TB0 S031 333 F/// VG013=
DES AFZA48 3358S 02538E 110953 F004 PS195 229/016 TB1 S031 333 F/// VG023=
0000066100
035
UDAF01 FAPR 110954
AMDAR 1109
DES AFZA48 3355S 02543E 110950 F021 PS147 221/012 TB0 S031 333 F/// VG013=
DES AFZA48 3355S 02542E 110951 F018 PS155 221/012 TB0 S031 333 F/// VG013=
DES AFZA48 3356S 02542E 110952 F015 PS162 206/012 TB1 S031 333 F/// VG023=
DES AFZA48 3356S 02541E 110952 F012 PS172 222/012 TB1 S031 333 F/// VG023=
DES AFZA48 3357S 02540E 110953 F009 PS180 210/014 TB1 S031 333 F/// VG023=
DES AFZA48 3357S 02539E 110953 F007 PS190 220/017 TB1 S031 333 F/// VG023=
DES AFZA48 3358S 02538E 110953 F004 PS195 229/016 TB1 S031 333 F/// VG023=
DES AFZA48 3358S 02537E 110954 F002 PS208 231/008 TB1 S031 333 F/// VG026=
0000066100
036
UDAF01 FAPR 110953
AMDAR 1109
LVR AFZA01 2052S 02354E 110902 F380 MS502 310/012 TB0 S031 333 F/// VG000=
LVR AFZA01 2008S 02319E 110910 F380 MS505 290/013 TB0 S031 333 F/// VG000=
LVR AFZA01 1924S 02245E 110917 F380 MS505 296/005 TB0 S031 333 F/// VG000=
LVR AFZA01 1839S 02210E 110924 F380 MS508 278/005 TB0 S031 333 F/// VG000=
LVR AFZA01 1755S 02136E 110931 F380 MS507 048/005 TB0 S031 333 F/// VG000=
LVR AFZA01 1712S 02057E 110938 F380 MS509 085/009 TB0 S031 333 F/// VG000=
LVR AFZA01 1630S 02019E 110945 F380 MS510 040/006 TB0 S031 333 F/// VG000=
LVR AFZA01 1547S 01942E 110952 F380 MS514 054/016 TB0 S031 333 F/// VG000=
0000014600
037
SNVD20 KWNB 110800 RRX
BBXX
44040 11081 99410 70736 46/// /0804 10022 20022 90819 22200 11401
70003 333 91205 555 11046 22051=
0000013400
038
SNVD19 KWNB 111000
BBXX
46070 11101 99551 11753 46/// ///// 10022 20001 49788 51009 90950
22200 00038 10807 70037=
0000032400
039
SNVE15 KWNB 111000
BBXX
51208 11101 99223 71596 46/// ///// 1//// 90937 22200 00243 11107
21006 335// 41104 70036=
51207 11101 99215 71578 46/// ///// 1//// 90941 22200 00243 10904
20904 300// 41102 70020=
51203 11101 99208 71570 46/// ///// 1//// 90940 22200 00254 11301
21001 329// 41301 70006=
0000071800
040
SNVD22 KWNB 111000 RRB
BBXX
46215 11101 99352 71209 46/// ///// 1//// 90935 22200 00128 11404
21003 327// 41403 70019=
46219 11101 99332 71199 46/// ///// 1//// 90940 22200 00142 11305
20803 329// 41303 70023=
46211 11101 99469 71242 46/// ///// 1//// 90943 22200 00084 11011
21009 324// 41106 70054=
46014 11101 99394 71240 46/// /1903 10102 40219 56008 90950 22200
00112 11509 20401 3//// 41509 70044 333 91204 555 11033 22034
30902 41705 60949 186033 190035 184036 183033 182032 183029=
46011 11101 99350 71210 46/// /3306 10140 40216 54000 90950 22200
00141 11405 20501 331// 41405 70025 333 91207 555 11063 22067
30924 43308 60949 328060 330065 332072 332068 327067 328067=
0000010900
041
UANT01 CWAO 110951
ARP THY34 5638N03429W 0951 F350 MS56 217/38 KT
TCJJH QXT AOW 110951 F33A
0000011000
042
UANT01 CWAO 110951
ARP BAW242 5450N05259W 0951 F370 MS61 281/69 KT
GCIVK QXS YAY 110951 F06A
0000010600
043
SAUS73 KWBC 102300 RRK
METAR
KBJC 102345Z 29007G15KT 30SM FEW060 SCT120 01/M09 A2974=

0000014700
044
SAGR31 LGAT 102350 RRA
METAR LGAD 102350Z 00000KT 9999 BKN020 12/09 Q1022=
METAR LGSA 102350Z 26016KT 9999 FEW020 14/09 Q1020=

0000011700
045
SABH31 MZBZ 110000
METAR MZBZ 110000Z 03005KT 9999 FEW021 BKN045 24/22 A2993 Q1013
RESHRA NOSIG=

00000000