0000170000
266
SNDL49 EDZW 111100
AAXX 11111
10756 47528 81902 10013 20010 39609 40191 50002 75165
  333 55300 20213 30213 81/27 85/43 88/50=
10761 47661 72503 10030 20017 39676 40192 53002 76165
  333 55300 20173 86/47 87/50=
10765 46/// /2001 10020 20019 39704 40188 58005=
10771 NIL=
10777 47621 71602 10013 20012 39539 40193 58003 74164
  333 55300 84/40 87/49=
10782 45858 53001 10017 20016 39583 40191 58008
  333 55306 20650 30427 84/57 85/70=
10796 47650 70401 11001 21002 39454 40204 56008 71000
  333 4/002 55301 81/41 86/58 87/61=
10803 47/59 92002 10060 20042 39906 40196 50010 76260
  333 55300 20147 30144=
10818 45688 82803 10072 20025 39055 48492 53012
  333 55302 20554 30495 82/34 87/58 88/61=
10827 46/// /2703 10078 20032 39101 48493 53012
  333 55300 20563 30540=
10837 NIL=
10838 46660 52202 10023 20022 39507 40197 53004
  333 55301 81/49 83/56 85/61=
10850 47013 71502 11002 21002 39583 40200 54000 74143
  333 55300 87/00 87/26 87/50=
10853 NIL=
10856 NIL=
10857 NIL=
10860 NIL=
10863 47957 71201 10026 20016 39614 40196 58001 71000
  333 55307 20749 30421 41042 86/59 87/61 87/64=
10865 45878 83401 10072 20033 39556 40182 57003
  333 55304 83/57 88/60 88/63=
10872 47950 80603 10012 20006 39767 40201 58009 71000
  333 55300 81/58 88/60=
10875 47950 71001 10007 20007 39700 40201 57010 71000
  333 55302 20690 30605 87/60 87/61=
10945 45967 72901 10043 20032 39390 40193 53007
  333 55304 86/60 86/62 87/65=
10954 NIL=
10963 45983 82401 10080 20033 39337 40181 58006
  333 4/002 55307 21124 30557 88/58 88/69=
10982 45969 70201 10067 20034 39525 40183 58006
  333 55309 20959 30549 87/59=
0000051200
267
SNVD20 KWNB 111100 RRD
BBXX
44065 11111 99404 70737 46/// /1610 10091 40150 58043 91050 22200
00058 333 91211 555 11105 22117 30950 41711 61049 161095 154084
150077 146081 146083 146080=
44007 11111 99435 70701 46/// /0504 10026 20024 40197 58042 91050
22200 00044 10601 20401 316// 40601 70006 333 91204 555 11038
22040 31036 40504 61049 047037 047037 049034 044031 041028 036025=
44040 11111 99410 70736 46/// /0605 10034 20034 91045 22200 1//00
70002 333 91206 555 11062 22072=
0000027400
268
SXHW11 KWAL 111102
15D142A4 011110202":PRS 1 #1 1686 1689 1671 1706 1705 1688 1681 1682 1700 1671 :RAD 1 #1 7273 7274 7271 7279 7279 7269 7267 7271 7273 7259 :ENC 2 #5 5182 5172 5160 5161 :SW1 2 #60 0 :SW2 32 #60 0 :BAT 4 #5 13.0 :NAME 15D142A4  34+0NN 216W
0000119700
269
UDEU02 EGRR 111104
AMDAR 1110
ASC EU0824   4614N 00607E 111041 F024 PS070 202/014 TB/ S031=
ASC EU0824   4615N 00607E 111041 F035 PS045 227/020 TB/ S031=
ASC EU0824   4615N 00608E 111041 F043 PS052 249/018 TB/ S031=
ASC EU0824   4616N 00608E 111042 F049 PS052 246/018 TB/ S031=
ASC EU0824   4617N 00609E 111042 F054 PS050 233/025 TB/ S031=
ASC EU0824   4617N 00609E 111042 F060 PS045 215/025 TB/ S031=
ASC EU0824   4618N 00609E 111043 F069 PS025 208/025 TB/ S031=
ASC EU0824   4619N 00610E 111043 F075 PS012 215/020 TB/ S031=
ASC EU0824   4619N 00610E 111043 F080 PS005 226/018 TB/ S031=
ASC EU0824   4620N 00611E 111044 F100 MS042 237/015 TB/ S031=
ASC EU0824   4622N 00616E 111045 F112 MS077 251/016 TB/ S031=
ASC EU0824   4623N 00621E 111045 F126 MS115 247/018 TB/ S031=
ASC EU0824   4625N 00626E 111046 F142 MS145 257/024 TB/ S031=
ASC EU0824   4627N 00632E 111047 F160 MS175 273/031 TB/ S031=
ASC EU0824   4628N 00638E 111047 F176 MS215 262/034 TB/ S031=
ASC EU0824   4630N 00643E 111048 F193 MS250 264/043 TB/ S031=
ASC EU0824   4632N 00649E 111049 F207 MS277 259/049 TB/ S031=
ASC EU0824   4635N 00655E 111049 F212 MS280 260/053 TB/ S031=
0000068900
270
UDEU02 EGRR 111104 RRA
AMDAR 1110
ASC EU4950   5535N 01235E 111053 F024 PS021 255/032 TB/ S031=
ASC EU4950   5534N 01233E 111053 F033 PS000 248/031 TB/ S031=
ASC EU4950   5532N 01234E 111054 F055 MS031 259/037 TB/ S031=
ASC EU4950   5531N 01239E 111055 F072 MS060 272/040 TB/ S031=
ASC EU4950   5533N 01242E 111055 F090 MS090 265/041 TB/ S031=
ASC EU4950   5535N 01246E 111056 F098 MS101 259/034 TB/ S031=
ASC EU4950   5538N 01249E 111056 F110 MS103 245/041 TB/ S031=
ASC EU4950   5541N 01253E 111057 F125 MS135 242/046 TB/ S031=
ASC EU4950   5544N 01257E 111057 F145 MS173 256/041 TB/ S031=
ASC EU4950   5546N 01301E 111058 F164 MS219 256/040 TB/ S031=
0000068900
271
UDEU02 EGRR 111104 RRB
AMDAR 1110
DES EU3080   3721N 00451W 111054 F130 MS107 073/014 TB/ S031=
DES EU3080   3718N 00451W 111054 F119 MS090 051/018 TB/ S031=
DES EU3080   3714N 00452W 111055 F108 MS067 048/016 TB/ S031=
DES EU3080   3711N 00453W 111056 F098 MS057 031/008 TB/ S031=
DES EU3080   3708N 00453W 111056 F088 MS030 007/008 TB/ S031=
DES EU3080   3704N 00454W 111057 F077 MS002 043/009 TB/ S031=
DES EU3080   3701N 00454W 111058 F068 PS017 067/006 TB/ S031=
DES EU3080   3659N 00452W 111058 F058 PS042 009/003 TB/ S031=
DES EU3080   3656N 00450W 111059 F053 PS052 342/002 TB/ S031=
DES EU3080   3654N 00448W 111100 F053 PS052 296/001 TB/ S031=
0000030500
272
UDEU02 EGRR 111104 RRC
AMDAR 1110
ASC EU4950   5549N 01304E 111059 F187 MS270 259/037 TB/ S031=
ASC EU4950   5552N 01309E 111059 F199 MS295 260/036 TB/ S031=
ASC EU4950   5555N 01313E 111100 F218 MS336 269/043 TB/ S031=
ASC EU4950   5558N 01317E 111100 F235 MS373 268/049 TB/ S031=
0000075300
273
UDEU02 EGRR 111104 RRD
AMDAR 1110
ASC EU0824   4638N 00701E 111050 F223 MS310 258/057 TB/ S031=
ASC EU0824   4641N 00707E 111051 F235 MS335 259/058 TB/ S031=
ASC EU0824   4644N 00712E 111051 F240 MS345 258/058 TB/ S031=
ASC EU0824   4647N 00718E 111052 F240 MS347 259/060 TB/ S031=
ASC EU0824   4650N 00724E 111053 F242 MS352 260/060 TB/ S031=
ASC EU0824   4654N 00730E 111053 F253 MS380 263/063 TB/ S031=
ASC EU0824   4657N 00735E 111054 F262 MS400 258/063 TB/ S031=
ASC EU0824   4701N 00740E 111055 F273 MS430 256/061 TB/ S031=
ASC EU0824   4705N 00745E 111055 F282 MS452 256/060 TB/ S031=
ASC EU0824   4709N 00751E 111056 F295 MS477 264/050 TB/ S031=
ASC EU0824   4713N 00756E 111057 F306 MS502 268/042 TB/ S031=
0000012400
274
SIIE21 EIDB 110900 CCA
AAXX 11091
03973 41580 12403 10009 20004 39912 40174 52019 72680 81800
333 81820=
0000068900
275
UDEU02 EGRR 111104 RRE
AMDAR 1110
DES EU5529   6613N 01309E 111048 F231 MS421 079/030 TB/ S031=
DES EU5529   6618N 01312E 111049 F212 MS370 084/030 TB/ S031=
DES EU5529   6624N 01315E 111050 F193 MS341 079/028 TB/ S031=
DES EU5529   6628N 01318E 111051 F177 MS335 075/041 TB/ S031=
DES EU5529   6633N 01320E 111052 F161 MS318 078/037 TB/ S031=
DES EU5529   6638N 01323E 111053 F145 MS289 085/035 TB/ S031=
DES EU5529   6643N 01325E 111054 F130 MS274 091/024 TB/ S031=
DES EU5529   6647N 01328E 111055 F122 MS258 092/019 TB/ S031=
DES EU5529   6652N 01330E 111056 F105 MS244 080/023 TB/ S031=
DES EU5529   6656N 01336E 111057 F084 MS228 103/015 TB/ S031=
0000011800
276
SNVD25 LFPW 111100
BBXX
BATFR15 11114 99162 70615 46/// /0702 10240 20205 40181 53022
22200 04269=
0000011200
277
SNVD25 LFPW 111100
BBXX
BATFR18 11114 99128 70467 46/// /0823 10249 40159 51029
22213 04264=
0000011800
278
SNVD25 LFPW 111100
BBXX
BATEU01 11114 99466 70562 46/// /2922 10009 21046 40223 50002
22264 04005=
0000011800
279
SNVD25 LFPW 111100
BBXX
BATFR14 11114 99309 70371 46/// /05// 10172 20092 40219 51036
22254 04217=
0000011800
280
SNVD25 LFPW 111100
BBXX
BATEU06 11114 99465 70560 46/// /2717 10002 21036 40239 53002
22224 04017=
0000013600
281
SNVA25 LFPW 111100
BBXX
A8JX9 11114 99124 10436 41697 41317 10256 20196 40130 50020 70200
81407
22235 20504 80215=
0000011800
282
SNVE25 LFPW 111100
BBXX
BATFR28 11114 99019 11047 46/// /0017 10264 20232 40105 53009
22243 04280=
0000028700
283
SXHW11 KWAL 111102
B15997E8 011110233"
1,140111,10:00:02,7.4,50,14.1,22.1,1013.7,0.05,13.2,
1,140111,10:15:02,9.2,49,14.8,22.0,1013.6,0.05,13.2,
1,140111,10:30:02,9.0,49,14.4,21.9,1013.6,0.05,13.2,
1,140111,10:45:02,8.1,45,15.1,21.8,1013.5,0.05,13.2, 46+0NN  30W
0000010800
284
UANT99 KDDL 111100
ARP VIR8 5606N02355W 1100 F350 MS58 229/73 KT
GVWIN DDL XXN 111100 J69A
0000217100
285
SZNZ01 NZKL 111103
CREX++
T000103 A001 D01021 D06025++
-3683144 17478654 AUCT  2014 01 11 10 55 //// 11 07 00 01
04151 3227 04156 3228 04161 3228 04165 3228 04171 3229 04175 3229+
-4402404 -17636748 CHIT  2014 01 11 10 55 //// 11 07 00 01
04935 2007 04937 2006 04950 2014 04939 2000 04949 2006 04952 2005+
-4089929 17623168 CPIT  2014 01 11 10 55 //// 11 07 00 01
03861 2311 03871 2315 03885 2324 03901 2334 03884 2312 03886 2309+
-3618905 17548887 GBIT  2014 01 11 10 55 //// 11 07 00 01
05171 -0005 05161 -0019 05163 -0021 05171 -0017 05179 -0013 05194 -0001+
-3867541 17802288 GIST  2014 01 11 10 55 //// 11 07 00 01
03733 2741 03732 2735 03731 2729 03738 2731 03731 2719 03759 2742+
-4241288 17370277 KAIT  2014 01 11 10 55 //// 11 07 00 01
03461 2258 03458 2250 03466 2253 03463 2244 03463 2239 03484 2254+
-3755040 17815904 LOTT  2014 01 11 10 55 //// 11 07 00 01
02983 0194 02996 0203 03005 0207 03010 0208 03029 0223 03021 0210+
-3704657 17451175 MNKT  2014 01 11 10 55 //// 11 07 00 01
02112 -0157 02103 -0160 02104 -0153 02088 -0163 02089 -0157 02068 -0172+
-3947566 17692007 NAPT  2014 01 11 10 55 //// 11 07 00 01
02883 2058 02886 2056 02894 2058 02875 2033 02903 2056 02894 2042+
-3441483 17304870 NCPT  2014 01 11 10 55 //// 11 07 00 01
-04019 -7621 -04139 -7743 -04006 -7611 -04204 -7812 -04230 -7840 -04334 -7945+
-4581435 17062939 OTAT  2014 01 11 10 55 //// 11 07 00 01
05036 3418 05042 3419 05046 3418 05052 3419 05058 3420 05063 3420+
-2928002 -17789440 RBCT  2014 01 11 10 55 //// 11 07 00 01
05559 1984 05554 1977 05580 2001 05577 1995 05572 1987 05577 1990+
-2925114 -17790384 RFRT  2014 01 11 10 55 //// 11 07 00 01
02479 0174 02495 0188 02500 0189 02489 0176 02509 0193 02504 0185+
-4357010 17277383 SUMT  2014 01 11 10 55 //// 11 07 00 01
02244 1899 02247 1895 02267 1908 02261 1895 02275 1903 02290 1912+
-3764109 17618118 TAUT  2014 01 11 10 55 //// 11 07 00 01
04500 4038 04504 4039 04511 4042 04510 4037 04513 4037 04514 4035+
-4128448 17477985 WLGT  2014 01 11 10 55 //// 11 07 00 01
03272 2067 03270 2060 03281 2067 03294 2075 03290 2067 03286 2058++
7777
00000000