0000010700
026
SACN62 CYRT 102200
METAR CYRT 102200Z 33009KT 15SM IC DRSN SKC M33/M37 A2969 RMK SLP060=

0000011300
027
SACN62 CYTS 102200
METAR CYTS 102200Z 19007KT 15SM -SN OVC017 M02/M05 A2984 RMK SC8
 SLP123=

0000013500
028
SACN62 CYUX 102200
METAR CYUX 102200Z 32018KT 3SM IC DRSN BKN140 BKN220 M30/M33 A2928
 RMK AS5CS2 WND ESTD SLP917=

0000009900
029
SACN62 CYUT 102200
METAR CYUT 102200Z 31008KT 25SM SKC M29/M34 A2945 RMK SLP977=

0000095100
030
SAKZ31 RUMS 102200
METAR UAAA 102200Z 16002MPS 1000 R23R/P2000N R23L/P2000 BR FU FEW200
M16/M18 Q1028 8891//60 NOSIG=
METAR UACC 102200Z 18007MPS 9999 -SN DRSN OVC025 M09/M12 Q1025
R22/8/0055 NOSIG RMK QFE737/0983=
METAR UAKK 102200Z 18010MPS 9999 SCT021 BKN220 M14/M17 Q1027
R23/850555 NOSIG RMK QFE723/0964=
METAR UAOO 102200Z 16006MPS 3300 BR BKN160 M04/M06 Q1024 NOSIG RMK
QFE756/1008=
METAR UARR 102200Z 26003MPS 240V300 9999 BKN011 OVC026 01/M01 Q1011
R22/650340 NOSIG RMK QFE754/1006=
METAR UATE 102200Z 12004MPS 0300 R12/0800N FZFG NSC M05/M05 Q1019
R12/0///70 NOSIG RMK QFE762/1017=
METAR UATG 102200Z 25003MPS 5000 BR OVC019 01/01 Q1016 R14/19//65
NOSIG RMK QFE764/1019=
METAR UATT 102200Z 24003MPS 9999 OVC005 M00/M01 Q1009 R13/491040
NOSIG RMK QBB170 QFE737/0983=
METAR UAUU 102200Z 18007MPS 4500 -SHSN BLSN OVC032CB M07/M09 Q1014
TEMPO 19012MPS 1000 SHSN BLSN BKN005CB RMK QFE744/0992=

0000011800
031
SACN62 CYUL 102200
METAR CYUL 102200Z 03005KT 8SM BKN018 OVC023 M07/M09 A3027 RMK SC6SC2
 SLP252=

0000012200
032
SACN62 CYRA 102200
METAR CYRA 102200Z VRB02KT 15SM IC BKN080 BKN220 M26/M29 A2952 RMK
 AC6CI1 SLP029=

0000019300
033
SACN62 CYTE 102200
METAR CYTE 102200Z 27018G24KT 15SM DRSN FEW013 BKN080 M21/M25 A2933
 RMK SC2AC4 -15.5/-22.5/TR/29 TRACE LOOSE LAST STFD OB/NEXT 131300Z
 PRESRR SLP937=

0000021100
034
SAAY31 RUMS 102200
METAR UDYZ 102200Z 00000MPS 2300 BR BKN010 M09/M11 Q1028 R09/000070
NOSIG=
METAR UDSG 102200Z VRB01MPS 0400 R02/0250VP1500D FZFG FEW001 M22/M24
Q1021 R02/CLRD70 NOSIG=

0000025800
035
SATA31 RUMS 102200
METAR UTDD 102200Z VRB01MPS M0050 R09/M0050N FZFG VV001 M08/M09 Q1028
09CLRD70 NOSIG RMK QBB030 QFE702/0937=
METAR UTDL 102200Z 07007MPS 1500 BR SCT006 M05/M06 Q1028 TEMPO 0700
FZFG RMK QFE731/0975 QBB200 8819//65=

0000019600
036
SAKY31 RUMS 102200
METAR UCFM 102200Z 15003MPS 0900 R08/1900 FZFG FU SKC M11/M16 Q1026
R08/CLRD70 NOSIG=
METAR UCFO 102200Z 18004MPS 9000 NSC M07/M11 Q1028 R12/CLRD70 NOSIG=

0000004200
037
SASP36 LEMM 102200
NIL=

0000004200
038
SASP37 LEMM 102200
NIL=

0000020500
039
SAAP32 FAPR 102200
METAR FACT 102200Z 18010KT 9999 FEW035 17/13 Q1018 NOSIG=
METAR FALE 102200Z 21003KT 190V250 CAVOK 22/20 Q1015 NOSIG=
METAR FQBR 102200Z 07004KT CAVOK 27/24 Q1009=

0000022300
040
SASP40 LEMM 102200
METAR LEGA 102200Z NIL=
METAR LEGT 102200Z NIL=
METAR LEMO 102200Z 00000KT CAVOK 09/09 Q1014
NOSIG=
METAR LERI 102200Z NIL=
METAR LERT 102200Z 08006KT CAVOK 13/10 Q1014 NOSIG=

0000020300
041
SASP41 LEMM 102200
METAR LEAO 102200Z NIL=
METAR LEBT 102200Z NIL=
METAR LECV 102200Z NIL=
METAR LEEC 102200Z NIL=
METAR LELO 102200Z 00000KT 0500 R29/1900D FG NSC 04/04 Q1017=

0000017700
042
SACN62 CYVM 102200
METAR CYVM 102200Z 12004KT 050V120 15SM IC BKN100 M23/M25 A2924 RMK
 AC6 -17.7/-24.3/0.2/34 MUCH LOOSE LAST STFD OBS/NEXT 111300Z SLP902=

0000010600
043
SACN62 CYVO 102200
METAR CYVO 102200Z 19011KT 10SM OVC010 M05/M06 A2999 RMK ST8 SLP183=

0000026400
044
SAIY33 LIIB 102200
METAR LIMA 102200Z NIL=
METAR LIMG 102200Z NIL=
METAR LIMP 102150Z 06004KT 4000 BR FEW030 SCT050 08/07 Q1023=
METAR LIMS 102200Z NIL=
METAR LIMW 102200Z NIL=
METAR LIMZ 102150Z 24004KT 9000 SCT025 SCT040 06/05 Q1022=

0000025300
045
SAIY34 LIIB 102200
METAR LIPC 102155Z /////KT 3500 BR SCT004 SCT010 BKN050 08/06 Q1022
=
METAR LIPF 102200Z NIL=
METAR LIPO 102150Z 10003KT 4000 BR BKN030 08/07 Q1022=
METAR LIPY 102150Z 17003KT 9999 FEW010 BKN045 12/09 Q1022=

00000000