0000015000
554
SNFR30 LFPW 110800 CCC
AAXX 11084
07690 22680 73408 10096 20044 30183 40215 50005 8453/
  333 60005 84641 85369 90710 91112 93100=
0000028800
555
SNQB50 LQSM 110800
AAXX 11081
14543 NIL=
14549 46/// /1802 10035 2//// 39827 40251 70000=
14554 41850 31803 10098 20049 39948 40226 71044 82041 333 82357=
14650 42560 32301 10051 20039 39131 48558 81204 333 81827=
14657 46/// /0701 10104 21016 30223 40223 52012=
0000035600
556
SNQB45 LQSM 110800
AAXX 11081
14528 42770 23201 10064 20051 39927 40228 81130 333 81850=
14537 41670 60000 10033 20026 30038 40235 72844 86400 333 86643=
14544 42670 63601 10020 20000 39577 40263 82531 333 82643=
14557 42960 10301 10054 20034 39872 40245 81031 333 81360=
14640 41/01 90000 10048 20042 39406 48549 74544 333 89///=
0000031500
557
SNQB40 LQSM 110800
AAXX 11081
14654 42770 21302 10085 20031 39485 40230 81501 333 81650=
14648 42665 80000 10086 20076 30123 40244 8257/ 333 82646 88461=
14652 42284 42708 11015 21029 37962 48528 82501 333 82603=
14542 41856 30000 10045 20035 30043 40237 53010 71022 83040 333 83358
95990=
0000066800
558
SABY31 UMMN 110800
METAR UMBB 110800Z 27009G14MPS 9999 SCT027CB SCT100 05/00 Q1012
R29/290050 NOSIG=
METAR UMGG 110800Z 28012G16MPS 9999 BKN032 BKN100 04/M01 Q1003
R28/290050 NOSIG=
METAR COR UMII 110800Z 28007G11MPS P6000 OVC011 02/00 Q0996
R23/290150 TEMPO 2000 SHSNRA BKN005 BKN010CB=
METAR UMMG 110800Z 27004G07MPS 9999 SCT010 BKN066 04/02 Q1008
R35/290060 NOSIG=
METAR UMMM 110800Z 29007G12MPS 9999 -SHRASN OVC015CB 01/M02 Q1004
R30/190060 NOSIG RMK QFE733 =
METAR UMMS 110800Z 30007G12MPS 260V320 9999 BKN017 01/M02 Q1003
R31/290060 NOSIG=
METAR UMOO 110800Z 28011G16MPS 9999 BKN022 OVC/// 02/M01 Q1001
R31/290067 NOSIG=
0000028300
559
SXHW11 KWAL 110805
B15054AA 011080543"
1,140111,07:00:00,3.7,89,5.8,23.8,1014.1,0.00,13.1,
1,140111,07:15:00,3.3,78,5.2,23.9,1014.1,0.00,13.1,
1,140111,07:30:00,2.9,89,5.7,23.5,1014.2,0.00,13.0,
1,140111,07:45:00,4.0,45,6.2,23.5,1014.1,0.00,13.0, 44-0NN 210W
0000023300
560
SNVD22 KWNB 110800 RRK
BBXX
46214 11081 99379 71235 46/// ///// 1//// 90756 22200 00112 11407
21003 331// 41406 70034=
46221 11081 99339 71186 46/// ///// 1//// 90755 22200 00155 11302
21001 326// 41301 70009=
0000023300
561
SNVE15 KWNB 110800 RRB
BBXX
51204 11081 99213 71581 46/// ///// 1//// 90751 22200 00247 11302
21001 332// 41301 70009=
51201 11081 99217 71581 46/// ///// 1//// 90752 22200 00246 11304
21004 332// 41303 70022=
0000017000
562
SOVI10 KWAL 110806
B110070A 011080601 P9751095 B\P~W@@@0ekH1@nT???CjCl>@nW3@DD@@G4Cs5C|6bC9Jb<BM2?????A"??? nTHCKCQCTCRCTCXCY:AMPTEMP 26.22C  45-0NN 219E
0000023300
563
SNVD17 KWNB 110800 RRH
BBXX
51205 11081 99210 71564 46/// ///// 1//// 90751 22200 00249 11004
21003 332// 41402 70022=
46239 11081 99363 71221 46/// ///// 1//// 90759 22200 00133 11206
21003 331// 41205 70029=
0000029500
564
SXHW11 KWAL 110806
B1507246 011080602"
1,140111,07:00:00,13.8,48,17.5,20.4,1016.3,13.07,12.9,
1,140111,07:15:00,12.7,53,17.4,20.3,1016.7,13.07,12.9,
1,140111,07:30:00,14.3,57,19.1,20.3,1016.8,13.07,12.9,
1,140111,07:45:00,15.0,57,20.2,20.3,1016.8,13.07,12.9, 42-0NN 210W
0000015000
565
SMCG01 FCBB 110600 RRA
AAXX 11063
64459 32460 60000 10240 20226 39768 40129 82270
  333 02000 20238 50234 55006 58026 82810 85360=
0000059900
566
SATH40 VTBB 110800
METAR VTCH 110800Z VRB02KT 9999 FEW028  29/15 Q1014 A2996=
METAR VTCP 110800Z NIL=
METAR VTPH 110800Z NIL=
METAR VTPN 110800Z NIL=
METAR VTPP 110800Z 23008KT 7000 FEW025 30/17 Q1013 A2993=
METAR  VTSF   110800Z  30004KT  9999  FEW018  SCT022  BKN300   25/24 
Q1011  A2987=
METAR VTSM 110800Z 02011KT 8000 VCSH FEW018CB BKN300 29/23 Q1012
A2989 CB SE S=
METAR VTUK 110800Z 04006KT 310V120 9999 FEW025 30/15 Q1014 A2996=
METAR VTUL 110800Z 15005KT 7000 HZ NSC 29/13 Q1012 A2990 NOSIG=
METAR VTBS 110800Z 06011KT 010V100 CAVOK 32/14 Q1013 NOSIG=
0000069500
567
SAAE31 VTBB 110800
METAR VTBS 110800Z 06011KT 010V100 CAVOK 32/14 Q1013 NOSIG=
METAR VTBD 110800Z 12008KT 9999 FEW030 SCT300 32/18 Q1012 NOSIG=
METAR VTCC 110800Z 24005KT 9999 FEW040 29/09 Q1016 A3002 NOSIG=
METAR VTBU 110800Z 23008KT 7000 FEW025 SCT300 31/20 Q1011 A2988=
METAR VTSS 110800Z 08017KT 9999 SCT018 SCT120 BKN300 30/20 Q1010
           A2985 NOSIG=
METAR VTSP 110800Z 10013KT 9999 FEW025 SCT300 32/20 Q1010 A2982
           NOSIG=
METAR VLVT 110800Z 18002KT 7000 SCT020 28/17 Q1014 NOSIG=
METAR VYMD 110800Z NIL=
METAR VYYY 110800Z NIL=
METAR VDPP 110800Z 02009KT 9999 FEW020 31/17 Q1010=
METAR VDSR 110800Z 25007KT1710V340 9000 FEW020 31/19 Q1010 NOSIG=
0000011100
568
UANT99 KDDL 110804
ARP UAL924 4934N03233W 0804 F370 MS51 203/36 KT
N778UA DDL XXW 110804 F32A
0000012600
569
SIIN44 DEMS 110300 RRE
AAXX 11034
43125 32997 03202 10190 20140 39376 40127 70500
  333 10300 20140 58004=
0000034200
570
SZIO01 AMMC 110806
CREX++
T000103 A001 D01021 D06025++
-1211670 09689190 46280 2014 01 11 07 59 3020 11 07 00 01
01270 0024 01271 0026 01268 0023 01259 0015 01268 0024 01274 0031+
-1042940 10566940 46290 2014 01 11 07 59 //// 11 07 00 01
01470 0085 01349 -0037 01434 0047 01409 0021 01389 0000 01443 0053++
7777

0000179100
571
SZPS01 AMMC 110806
CREX++
T000103 A001 D01021 D06025++
-0204190 14737360 56130 2014 01 11 07 59 3027 11 07 00 01
00907 0095 00906 0097 00900 0093 00898 0093 00899 0097 00897 0098+
-0669280 15640860 56363 2014 01 11 07 59 //// 11 07 00 01
00490 -0060 00490 -0058 00489 -0058 00487 -0058 00484 -0059 00478 -0064+
-0942890 15995560 56670 2014 01 11 07 59 3043 11 07 00 01
00695 -0040 00700 -0034 00698 -0034 00694 -0037 00694 -0036 00697 -0031+
-1072080 16580190 57131 2014 01 11 07 59 //// 11 07 00 01
03368 2995 03259 2888 03380 3011 03375 3008 03379 3014 03378 3015+
-1551560 16718860 57210 2014 01 11 07 59 //// 11 07 00 01
00499 -0085 00506 -0075 00518 -0060 00508 -0067 00502 -0070 00502 -0067+
-1775690 16830030 57320 2014 01 11 07 59 3017 11 07 00 01
00609 -0085 00606 -0085 00603 -0085 00600 -0085 00598 -0084 00597 -0082+
-4397330 16861610 65180 2014 01 11 07 59 2887 11 07 00 01
02437 0391 02440 0394 02439 0392 02430 0384 02404 0357 02403 0357+
-2120470 -15978530 65980 2014 01 11 07 59 3013 11 07 00 01
00480 -0008 00452 -0035 00490 0004 00491 0007 00510 0027 00463 -0019+
-2113810 -17518140 66600 2014 01 11 07 59 //// 11 07 00 01
00787 0116 00783 0115 00788 0123 00780 0117 00776 0116 00768 0111+
-1382670 -17176110 66840 2014 01 11 07 59 3012 11 07 00 01
00483 0036 00492 0046 00483 0039 00490 0047 00481 0039 00483 0042+
-1813250 17842750 67050 2014 01 11 07 59 3030 11 07 00 01
00900 0106 00898 0107 00892 0104 00890 0106 00886 0105 00883 0106+
-1760530 17743810 67070 2014 01 11 07 59 3033 11 07 00 01
00858 0012 00853 0011 00851 0013 00849 0015 00845 0014 ///// ////+
-0850250 17919500 67440 2014 01 11 07 59 3028 11 07 00 01
01588 0003 01586 0003 01587 0005 01587 0007 01582 0004 01573 -0004++
7777

0000046700
572
SZPA01 AMMC 110806
CREX++
T000103 A001 D01021 D06025++
0136250 17293000 67590 2014 01 11 07 59 3017 11 07 00 01
01282 0029 01265 0013 01267 0016 01263 0013 01261 0012 01266 0018+
0710610 17137250 67680 2014 01 11 07 59 3013 11 07 00 01
00826 0108 00825 0107 00828 0110 00826 0108 00824 0107 00825 0107+
0698060 15820000 67950 2014 01 11 07 59 3023 11 07 00 01
00640 0064 00638 0063 00640 0066 00640 0067 00638 0066 00634 0063++
7777

0000191300
573
SZAU01 AMMC 110806
CREX++
T000103 A001 D01021 D06025++
-1927750 14705860 59260 2014 01 11 07 59 3030 11 07 00 01
02452 0158 02459 0163 02459 0161 02468 0167 02465 0162 02473 0167+
-2316110 15079000 59670 2014 01 11 07 59 3003 11 07 00 01
03533 0156 03518 0139 03516 0135 03495 0113 03493 0109 03481 0096+
-3447330 15091170 60420 2014 01 11 07 59 2950 11 07 00 01
01056 -0024 01054 -0025 01052 -0026 01047 -0030 01054 -0021 01055 -0019+
-4105000 14591500 60910 2014 01 11 07 59 2888 11 07 00 01
02497 -0017 02501 -0021 02519 -0011 02533 -0004 02539 -0007 02544 -0009+
-4254640 14793080 61170 2014 01 11 07 59 2895 11 07 00 01
01322 0098 01314 0090 01312 0089 01311 0088 01311 0089 01312 0090+
-3834390 14161360 61410 2014 01 11 07 59 2905 11 07 00 01
00558 0040 00538 0019 00541 0021 00556 0035 00571 0049 00564 0041+
-3214890 13364170 62000 2014 01 11 07 59 2965 11 07 00 01
01272 0122 01271 0120 01272 0121 01269 0117 01270 0117 01271 0118+
-3387080 12189720 62080 2014 01 11 07 59 2947 11 07 00 01
00853 0086 00843 0075 00856 0088 00845 0076 00826 0056 00848 0077+
-3182560 11573860 62237 2014 01 11 07 59 2973 11 07 00 01
00932 0057 00933 0057 00938 0061 00957 0080 00967 0089 00979 0100+
-2422000 11339750 62385 2014 01 11 07 59 //// 11 07 00 01
01359 -0051 01282 -0130 01284 -0129 01312 -0102 01318 -0098 01279 -0139+
-2181670 11419110 62430 2014 01 11 07 59 //// 11 07 00 01
01983 -0047 01992 -0040 01994 -0041 01997 -0040 01990 -0050 01993 -0049+
-1800080 12221830 62650 2014 01 11 07 59 3043 11 07 00 01
06126 0042 06137 0041 06148 0044 06157 0041 06167 0044 06179 0046+
-1247190 13084580 63230 2014 01 11 07 59 3050 11 07 00 01
05167 0262 05161 0263 05154 0262 05147 0262 05140 0261 05133 0258+
-1386000 13641580 63511 2014 01 11 07 59 3043 11 07 00 01
01774 0161 01778 0164 01781 0166 01784 0168 01788 0171 01789 0170++
7777

00000000