0000023500
886
SAHU41 LHBM 110230
METAR LHKE 110215Z 20001MPS 8000 NSC 00/M01 Q1022 NOSIG RMK BLU=
METAR LHPA 110215Z 00000MPS 8000 BKN040 02/02 Q1021 NOSIG RMK BLU=
METAR LHSN 110215Z 25004MPS CAVOK 02/M01 Q1021 NOSIG RMK BLU=

0000011300
887
SPUS41 KWBC 110231
SPECI
KILG 110227Z AUTO 03004KT 1 1/2SM -RA BR BKN004 OVC009 03/02 A3026=

0000015600
888
SAIO31 KWBC 110200 RRE
METAR
FMMI 110230Z 29002KT 0800W 8000 R11/0800V1100D PRFG FEW007 SCT020
     BKN230 17/17 Q1021 TEMPO 1500 BR=

0000009400
889
SPUS43 KWBC 110231
SPECI
KDSM 110227Z 29006KT 3SM BR OVC005 01/M01 A2955=

0000008800
890
SPCN44 CWAO 110231
SPECI CYUS 110231Z AUTO 22012KT BKN025 M33/ A2946=

0000009800
891
SPCN42 CWAO 110231
SPECI CYUA 110231Z AUTO 30022G30KT 3/4SM -SN CLR M24/ A2974=

0000011200
892
SASR31 WSSS 110230
METAR WSSS 110230Z 36006KT 300V070 9999 FEW018 BKN300 28/24 Q1013
NOSIG=

0000036400
893
FTFR31 LFPW 102300 AAE
TAF AMD LFPG 110230Z 1102/1206 VRB03KT 4000 BR -RA BKN003 TEMPO
1102/1111 2000 BR PROB40 TEMPO 1102/1111 0500 FG VV/// BECMG
1107/1109 22005KT BECMG 1111/1113 1200 BCFG BKN005 BECMG 1113/1115
8000 NSW BKN008 BECMG 1116/1118 CAVOK BECMG 1122/1124 3000 BR BKN005
BECMG 1200/1202 0900 FG BKN002 TX08/1113Z TN01/1124Z=

0000011500
894
SAMJ41 LWSK 110230
METAR LWSK 110230Z 00000KT 0400 R34/0550V0650N FG OVC002 01/01 Q1024
NOSIG=

0000032700
895
FTCN32 CWAO 110200 AAA
TAF AMD CYOD 110232Z 1102/1124 26008KT P6SM FEW012 SCT060 BKN240
     TEMPO 1102/1106 BKN012 OVC060
    FM110600 VRB03KT P6SM FEW060 SCT180 PROB30 1109/1112 1/2SM FZFG
    FM111600 11012KT 5SM -SN OVC060 TEMPO 1118/1124 2SM -SN SCT010
     OVC020
    RMK NXT FCST BY 110600Z=

0000017400
896
SACY31 LCLK 110230
METAR LCLK 110230Z 30005KT CAVOK 10/06 Q1021 NOSIG=
METAR LCPH 110230Z AUTO 02008KT 9999 FEW029 10/06 Q1022=
METAR LCNC 110230Z NIL=

0000251900
897
SPUS70 KWBC 110232
SPECI
KBIS 110228Z 30007KT 10SM OVC029 M03/M07 A2951 RMK AO2
     T10281067=
KBJJ 110228Z AUTO 14006KT 3SM BR BKN004 BKN110 04/04 A2988 RMK AO2
     RAE07 CIG 003V008 P0000=
KBMI 110228Z 18018KT 3/4SM R29/4500VP6000FT BR OVC001 03/02 A2959
     RMK AO2=
KBOS 110228Z 15005KT 2 1/2SM BR BKN008 OVC014 02/00 A3033 RMK
     AO2=
KCEU 110228Z AUTO 06003KT 1 3/4SM BR OVC002 09/08 A3012 RMK
     AO2=
KCQX 110228Z AUTO 00000KT 10SM BKN014 OVC020 04/03 A3036 RMK AO2
     RAE28 P0000 T00390028=
KCRE 110228Z 18004KT 4SM -RA BR SCT003 OVC016 17/17 A3014 RMK AO2
     RAB0159 P0000=
KDCA 110228Z 03003KT 3SM -RA BR OVC008 03/02 A3023 RMK AO2
     P0001=
KGKY 110228Z AUTO 33011KT 10SM CLR 15/05 A2978 RMK AO2 WSHFT 0208
     TSNO $=
KHKA 110228Z AUTO 29003KT 5SM -RA BR FEW004 BKN016 OVC024 09/08
     A2978 RMK AO2 LTG DSNT SE AND S P0008=
KLWV 110228Z AUTO 23012KT 2SM +RA BKN009 BKN015 OVC046 07/ A2974
     RMK AO2 P0010 T0072 $=
KMCB 110228Z AUTO 17011KT 1 3/4SM BR OVC003 17/16 A2991 RMK AO2
     RAE06 P0001 T01670161=
KMFI 110228Z AUTO 07004KT 1 3/4SM -SN BR SCT021 BKN030 OVC037
     M02/M03 A2949 RMK AO2 P0001 T10171028=
KMVY 110228Z AUTO 19003KT 10SM FEW008 BKN029 OVC055 06/04 A3033
     RMK AO2 $=
KNSE 110222Z 14006KT 1/2SM DZ FG VV002 17/17 A3000 RMK AO2
     RAE20DZB20 P0000 T01720167 $=
KPNS 110228Z AUTO 14006KT 1/4SM R17/1600V2200FT FG VV002 17/17
     A3000 RMK AO2 LTG DSNT N AND NW RAB01E20 P0001 T01720167=
KRST 110228Z 00000KT 1 1/4SM -SN FEW011 OVC030 M02/M03 A2949 RMK
     AO2 P0000 T10171033=
KSGF 110228Z 27020G28KT 10SM FEW015 BKN023 BKN035 09/06 A2963 RMK
     AO2 PK WND 26028/0226 T00890056=
KTQE 110229Z AUTO 28004KT 6SM BR SCT010 OVC080 00/M02 A2959 RMK
     AO2 T00001017=
KEVV 110229Z VRB04KT 2 1/2SM +RA BR SCT013 BKN018 OVC080 09/08
     A2974 RMK AO2 P0011 T00890078=
KFFC 110229Z AUTO 00000KT 2SM -RA BR OVC002 09/09 A3007 RMK AO2
     RAB06 P0003 T00890089=
KIAD 110229Z 35004KT 1SM R01R/6000VP6000FT -RA BR BKN005 OVC009
     02/01 A3022 RMK AO2 SFC VIS 1 3/4 DZE20RAB20 P0001=
KLXT 110228Z AUTO 28009KT 9SM FEW008 BKN018 OVC031 04/02 A2959 RMK
     AO2 T00390022=
KMPV 110230Z AUTO 00000KT 10SM BKN028 OVC055 M03/M05 A3025 RMK
     AO2=
KMSY 110229Z 16008KT 1/8SM FG VV003 17/17 A2994 RMK AO2 SFC VIS
     1/2 RAB13E24 P0001 T01720172 RVRNO $=
KY50 110229Z AUTO 00000KT 1 3/4SM -FZRA OVC002 00/ A2951 RMK AO2
     TSNO CIG 001V005 P0000 $=

0000010400
898
SPUS31 KWBC 110232
SPECI
KBOS 110228Z 15005KT 2 1/2SM BR BKN008 OVC014 02/00 A3033=

0000009700
899
SPUS41 KWBC 110232
SPECI
KGSO 110228Z 03005KT 2SM -RA BR OVC005 03/03 A3015=

0000011700
900
SPUS42 KWBC 110232
SPECI
KPNS 110228Z AUTO 14006KT 1/4SM R17/1600V2200FT FG VV002 17/17
A3000=

0000010400
901
SPUS43 KWBC 110232
SPECI
KAPN 110229Z AUTO 14008KT 3SM -FZRA BR OVC003 00/00 A2974=

0000010800
902
SPUS43 KWBC 110232
SPECI
KSGF 110228Z 27020G28KT 10SM FEW015 BKN023 BKN035 09/06 A2963=

0000009500
903
SACA33 KWBC 110200 RRF
METAR
TTCP 110200Z 00000KT 9999 FEW015 24/19 Q1015=

0000010700
904
SASA31 KWBC 110200 RRD
METAR
SOCA 110230Z AUTO 24003KT 9999 FEW002 OVC092 23/22 Q1012=

0000016100
905
FTCN33 CWAO 110200 AAA
TAF AMD CYFS 110232Z 1102/1112 31004KT P6SM BKN100 TEMPO 1102/1112
     4SM -SN OVC080
    RMK NXT FCST BY 110600Z=

00000000