0000004200
506
SASP36 LEMM 110200
NIL=

0000011600
507
SACN61 CYZY 110200
METAR CYZY 110200Z AUTO 14008KT 9SM SCT033 BKN170 M04/M06 A2956 RMK
 SLP053=

0000004200
508
SASP37 LEMM 110200
NIL=

0000009900
509
SACN62 CZBF 110200
METAR CZBF 110200Z 24003KT 15SM SKC M19/M22 A3020 RMK SLP232=

0000021600
510
SAAP32 FAPR 110200
METAR FACT 110200Z 17006KT 9999 FEW030 15/12 Q1016 NOSIG=
METAR FALE 110200Z 27007KT 9999 SCT025 BKN035 21/19 Q1015 NOSIG=
METAR FAOR 110200Z 14004KT CAVOK 17/07 Q1021 NOSIG=

0000023200
511
SASP40 LEMM 110200
METAR LEGA 110200Z NIL=
METAR LEGT 110200Z NIL=
METAR LEMO 110200Z 00000KT CAVOK 08/08 Q1015
NOSIG=
METAR LERI 110200Z NIL=
METAR LERT 110200Z VRB07KT 9999 RA BKN054 15/11 Q1014 NOSIG=

0000004200
512
SASP41 LEMM 110200
NIL=

0000019100
513
SAIY33 LIIB 110200
METAR LIMA 110200Z NIL=
METAR LIMG 110200Z NIL=
METAR LIMP 110200Z NIL=
METAR LIMS 110200Z NIL=
METAR LIMW 110200Z NIL=
METAR LIMZ 110200Z NIL=

0000022400
514
SAIY34 LIIB 110200
METAR LIPC 110155Z /////KT 1000 R11/1500 BR SCT004 BKN050 08/05 Q1021
=
METAR LIPF 110200Z NIL=
METAR LIPO 110200Z NIL=
METAR LIPY 110150Z VRB02KT 8000 FEW015 BKN040 09/09 Q1022=

0000032200
515
SAIY35 LIIB 110200
METAR LIQN 110200Z NIL=
METAR LIQW 110200Z NIL=
METAR LIRG 110200Z NIL=
METAR LIRH 110200Z NIL=
METAR LIRL 110200Z NIL=
METAR LIRM 110155Z 02005KT 3000 BR SCT070 08/07 Q1021=
METAR LIRS 110155Z /////KT CAVOK 06/04 Q1021=
METAR LIRU 110200Z NIL=
METAR LIRV 110200Z NIL=

0000024500
516
SAIY36 LIIB 110200
METAR LIBC 110200Z NIL=
METAR LIBF 110200Z NIL=
METAR LIBG 110200Z NIL=
METAR LIBP 110150Z VRB02KT 5000 BR NSC 04/02 Q1022=
METAR LIRI 110200Z NIL=
METAR LIRJ 110200Z NIL=
METAR LIRZ 110200Z NIL=

0000021500
517
SAIY37 LIIB 110200
METAR LICA 110150Z 07005KT 9999 FEW025 06/05 Q1022=
METAR LICD 110200Z NIL=
METAR LICG 110200Z NIL=
METAR LICR 110200Z NIL=
METAR LICT 110155Z 13008KT CAVOK 12/10 Q1020=

0000010600
518
SAGQ21 FGSL 110200 RRA
METAR FGBT 110200Z 11004KT 9999 FEW010 SCT100 26/24 Q1010 NOSIG=

0000011900
519
SACN62 CYBR 110200
METAR CYBR 110200Z 27011KT 15SM FEW035 OVC110 M09/M10 A2945 RMK
 SC2AC6 SLP005=

0000012400
520
SACN62 CYAM 110200
METAR CYAM 110200Z 10008KT 15SM BR OVC007 M02/M03 A2974 RMK ST8 CIG
 VRB 6-8 SLP082=

0000011700
521
SACN62 CYEV 110200
METAR CYEV 110200Z 29008KT 6SM -SN DRSN OVC080 M25/M29 A2972 RMK AC8
 SLP076=

0000021600
522
SACG21 FCBB 110200
METAR FCBB 110200Z 00000KT 8000 FEW010 SCT016 23/22 Q1012 NOSIG=
METAR FCPP 110200Z VRB02KT 8000 FEW010 26/24 Q1009 NOSIG=
METAR FCPD NIL=
METAR FCOU NIL=
METAR FCOI NIL=

0000011300
523
SACN62 CYMX 110200
METAR CYMX 110200Z 04005KT 15SM -SN OVC019 M09/M12 A3022 RMK SC8
 SLP240=

0000011800
524
SACN62 CYGL 110200
METAR CYGL 110200Z 21007KT 4SM -FZDZ -SN OVC002 M06/M07 A2972 RMK ST8
 SLP080=

0000011900
525
SACN62 CYGP 110200
METAR CYGP 110200Z 30004KT 15SM FEW035 BKN230 M07/M14 A3012 RMK
 SC2CS5 SLP202=

00000000