0000010200
006
SPCN43 CWAO 102352
SPECI CWHN 102352Z AUTO 28009KT 9SM OVC009 OVC077 M06/M08 A2941=

0000009500
007
SAVN22 SVMI 110000
METAR SVMI 110000Z 05001KT 9999 SCT016 25/21 Q1013 NOSIG=

0000009500
008
SAID32 WIDN 110000
METAR WIDN 110000Z 35004KT 8000 FEW015 25/24 Q1012 NOSIG=

0000011500
009
SAMJ41 LWSK 110000
METAR LWSK 110000Z 00000KT 0350 R34/0500V0600N FG OVC002 01/01 Q1024
NOSIG=

0000011500
010
SABZ22 SBBR 110000
METAR SBBR 110000Z 12003KT 9999 VCTS SCT030
FEW040CB SCT100 20/15 Q10
17=

0000063400
011
FTUS51 KWBC 102357 CCA
TAF COR
KFLO 102354Z 1100/1124 13006KT P6SM VCSH BKN008 BKN018
      TEMPO 1102/1105 BKN018
     FM110500 14006KT 4SM BR BKN008 OVC015
     FM110900 17007KT 3SM BR BKN004
     FM111500 20012G18KT P6SM VCSH BKN009
      TEMPO 1117/1121 21018G28KT 2SM +SHRA BKN012CB
     FM112200 25014G23KT P6SM VCSH BKN020=
KMYR 102356Z 1100/1124 13011KT P6SM VCSH BKN020
     FM110400 15008KT 5SM BR BKN008
     FM110800 18009KT 4SM BR BKN006
     FM111600 19012G20KT P6SM VCSH BKN018
      TEMPO 1120/1124 20020G30KT 2SM +SHRA BKN012CB AMD LTD TO CLD
      VIS AND WIND 1104/1111=

0000013700
012
SASA41 KWBC 102300 RRC
METAR
SKMD 102300Z 06005KT 9999 8000N -TSRA BKN030 SCT035CB 19/16 A3000
     RMK CB/W/NW/N=

0000011800
013
SABW31 VGHS 102350
METAR VGHS 102350Z 00000KT 0400 FG BKN003 14/13 Q1013 TEMPO S/VIS    
  0200M=

0000010300
014
SPAU32 AMMC 102354
SPECI YPGV 102351Z 11015KT 9999 SCT014 SCT039 BKN130 28/24 Q1008=

0000011800
015
SPAU32 YBBN 102354
SPECI YPGV 102351Z 11015KT 9999 SCT014 SCT039 BKN130 28/24 Q1008
RMK CLEARING=

0000038500
016
SABX31 EBBR 102350
METAR EBAW 102350Z AUTO 22010KT 9999 OVC009/// 05/02 Q1017=
METAR EBBR 102350Z 21010KT 9999 BKN011 04/02 Q1017 NOSIG=
METAR EBCI 102350Z 19008KT 9999 FEW009 03/02 Q1017 NOSIG=
METAR EBLG 102350Z 19011KT CAVOK 03/01 Q1016 NOSIG=
METAR EBOS 102350Z 20008KT 9999 BKN008 04/02 Q1016 NOSIG=
METAR ELLX 102350Z 00000KT CAVOK 02/01 Q1017 NOSIG=

0000037800
017
SAMX31 KWBC 102345 RRB
METAR
MMCZ 102343Z 11005KT 8SM SCT015TCU 22/21 A2996 RMK SLP138 57015
     984 8/200=
MMMD 102344Z 13005KT 7SM FEW025 27/20 A2990 RMK SLP128 56006 990
     8/400=
MMTP 102344Z 00000KT 10SM SCT250 28/22 A2985 RMK SLP095 57024 960
     8/002=
MMUN 102343Z 12005KT 7SM SCT015TCU 26/22 A2997 RMK SLP141 54000
     981 8/200=

0000012500
018
SAMX44 MMMD 102355
METAR MMMT 102355Z 00000KT 8SM  OVC050 23/20 A2986 
      RMK SLP186 55001 991 8/5//=

0000008900
019
SABZ21 SBNT 110000
METAR SBNT 110000Z 12012KT 9999 SCT023 26/21 Q1013=

0000012100
020
SPCN42 CWAO 102353
SPECI CYIV 102353Z 00000KT 2 1/2SM -SN BR OVC002 RMK FG2ST6 BEAM
VISBL TO 500 FT=

0000013200
021
SPUS70 KWBC 102356
SPECI
KMFI 102352Z AUTO 09007KT 3SM -SN BR BKN010 OVC015 M02/M03 A2956
     RMK AO2 P0003=

0000032000
022
SAHO31 MHTG 110000
METAR MHRO 110000Z 07005KT 9999 SCT020TCU 24/22 Q1012 A2989 NOSIG=
METAR MHLC 110000Z 15002KT 9999 SCT024 BKN070 24/22 Q1013 A2991
NOSIG=
METAR MHLM 110000Z 01006KT 9999 FEW030 BKN080 25/23 Q1013 A2991
NOSIG=
METAR MHTG 110000Z 03007KT 9999 BKN028 22/14 Q1017 A3003 NOSIG=

0000008300
023
SABZ24 SBFI 110000
METAR SBFI 110000Z 16002KT CAVOK 26/23 Q1010=

0000008900
024
SABZ21 SBAR 110000
METAR SBAR 110000Z 11013KT 9999 SCT015 27/22 Q1013=

0000009200
025
SAMT20 GQPP 110000
METAR GQPP 110000Z 24004KT 8000 NSC 17/15 Q1016 NOSIG=

00000000