0000009100
326
SAHU31 LHBM 110300
METAR LHBP 110300Z VRB03KT CAVOK M02/M03 Q1021 NOSIG=

0000020800
327
SABU31 LBSM 110300
METAR LBSF 110300Z 10002MPS 2700 BR NSC M04/M04 Q1022 NOSIG=
METAR LBWN 110300Z 30004MPS CAVOK 04/01 Q1020 NOSIG=
METAR LBBG 110300Z 29001MPS CAVOK 03/02 Q1021 NOSIG=

0000014600
328
SABU32 LBSM 110300
METAR LBPD 110300Z VRB01MPS CAVOK 05/02 Q1021 NOSIG=
METAR LBGO 110300Z VRB01MPS CAVOK 01/M01 Q1022 NOSIG=

0000011600
329
SACN61 CYBC 110300
METAR CYBC 110300Z AUTO 30005KT 9SM BKN032 OVC150 M09/M12 A3012 RMK
 SLP203=

0000013800
330
SACN61 CYAY 110300
METAR CYAY 110300Z AUTO 26022G27KT 9SM -SN CLR M10/M13 A2989 RMK MAX
 WND 26024KT AT 0253Z SLP123=

0000010300
331
SACN61 CYDQ 110300
METAR CYDQ 110300Z AUTO VRB02KT 9SM CLR M03/M10 A2947 RMK SLP024=

0000012000
332
SACN61 CYHD 110300
METAR CYHD 110300Z AUTO 19005KT 2SM -SN BKN026 OVC047 M06/M07 A2940
 RMK SLP985=

0000014700
333
SACN61 CYHE 110300
METAR CYHE 110300Z AUTO 12003KT 040V130 9SM -RA SCT023 BKN039 BKN050
 OVC060 05/05 A2979 RMK PRESFR SLP088=

0000010500
334
SABZ19 SBMA 110300
METAR SBMA 110300Z 15005KT 5000 TSRA FEW020CB
BKN070 23/22 Q1012=

0000030500
335
FTCA35 KWBC 110300
TAF
TAF MSLP 110325Z 1106/1206 02008KT CAVOK TX33/1118Z TN20/1111Z
     FM111800 18010KT 9999 FEW066
     FM110100 30008KT CAVOK=
TAF MSSS 110325Z 1106/1206 35007KT CAVOK TX31/1118Z TN17/1111Z
     FM112000 17008KT 9999 FEW043
     FM110100 34007KT CAVOK=

0000023700
336
FTUS51 KWBC 110300 AAA
TAF AMD
KEWN 110256Z 1103/1124 13005KT P6SM -RA SCT015 BKN025
     FM110600 16008KT 5SM BR VCSH OVC025
     FM111400 19014G23KT P6SM BKN060
     FM112100 20016G25KT 5SM -RA VCTS BKN025CB=

0000025600
337
FTUS52 KWBC 110300 AAA
TAF AMD
KCUB 110258Z 1103/1124 VRB04KT 3SM BR VCSH OVC004
      TEMPO 1103/1104 -RA
     FM111200 19006KT 5SM BR VCSH OVC005
     FM111600 21010G20KT 3SM -SHRA OVC005
     FM112300 25011G19KT P6SM OVC035=

0000103300
338
FTUS80 KWBC 110300 AAA
TAF AMD
KCAE 110259Z 1103/1124 VRB04KT 3SM BR VCSH OVC004
      TEMPO 1103/1104 -RA
     FM111200 19007KT 5SM BR VCSH OVC005
     FM111600 21012G22KT 3SM -SHRA OVC005
     FM112300 25011G19KT P6SM OVC035=
KCUB 110258Z 1103/1124 VRB04KT 3SM BR VCSH OVC004
      TEMPO 1103/1104 -RA
     FM111200 19006KT 5SM BR VCSH OVC005
     FM111600 21010G20KT 3SM -SHRA OVC005
     FM112300 25011G19KT P6SM OVC035=
KEWN 110256Z 1103/1124 13005KT P6SM -RA SCT015 BKN025
     FM110600 16008KT 5SM BR VCSH OVC025
     FM111400 19014G23KT P6SM BKN060
     FM112100 20016G25KT 5SM -RA VCTS BKN025CB=
KMEM 110259Z 1103/1124 27013G20KT 3SM -RA BR VCTS SCT006 OVC015CB
     FM110700 24014KT P6SM BKN012 OVC100
     FM111100 26010KT P6SM SCT020
     FM111500 28012G20KT P6SM SCT025=
KPIT 110259Z 1103/1206 11005KT P6SM OVC100
     FM110500 13006KT P6SM OVC050 WS020/22045KT
     FM111000 18010KT 4SM -RA OVC009 WS020/22050KT
     FM112100 23012G24KT P6SM BKN015 OVC025=

0000030700
339
SPUS70 KWBC 110300
SPECI
KGEZ 110256Z AUTO 16012KT 2SM -RA BR SCT003 BKN013 OVC080 07/06
     A2974 RMK AO2 P0000 T00670056=
KASE 110257Z 00000KT 5SM -SN BR FEW009 OVC039 M06/M07 A3000 RMK
     AO2 P0000 T10561067=
KTDR 110257Z AUTO 15009G16KT 3SM BR OVC003 17/ A3007 RMK AO2 $=

0000009100
340
SANC01 NWWW 110300
METAR NWWW 110300Z AUTO 14021KT 9999 NSC 30/15 Q1009=

0000011000
341
SAMF20 TFFR 110300
METAR TFFR 110300Z AUTO 08006KT 9999 SCT027 BKN034 BKN056 24/21
Q1017=

0000009100
342
SAAG41 SAEZ 110300
METAR SAEZ 110300Z 19010KT 160V240 CAVOK 22/13 Q1012=

0000010000
343
SAAG41 SACO 110300
METAR SACO 110300Z  16012KT 9999  FEW028 BKN100
24/20 Q1015=

0000253500
344
UDFR01 LFPW 110957
AMDAR 1109
DES EU0253 4334N 00725E 110941 F278 MS425 /// 249/037 TB0 S031
333 F278 VG002=
UNS EU0253 4334N 00728E 110941 F271 MS412 /// 242/034 TB2 S031
333 F271 VG038=
UNS EU0253 4332N 00731E 110941 F258 MS382 /// 243/033 TB1 S031
333 F258 VG016=
DES EU0253 4331N 00734E 110942 F247 MS352 /// 234/035 TB1 S031
333 F247 VG016=
DES EU0253 4329N 00736E 110942 F239 MS332 /// 238/037 TB1 S031
333 F239 VG012=
DES EU0253 4328N 00738E 110942 F228 MS307 /// 239/036 TB0 S031
333 F228 VG002=
DES EU0253 4326N 00741E 110943 F219 MS285 /// 239/036 TB0 S031
333 F219 VG001=
DES EU0253 4325N 00743E 110943 F211 MS265 /// 238/036 TB0 S031
333 F211 VG000=
DES EU0253 4323N 00746E 110943 F202 MS247 /// 236/032 TB0 S031
333 F202 VG000=
DES EU0253 4322N 00747E 110944 F195 MS227 /// 237/028 TB0 S031
333 F195 VG006=
DES EU0253 4320N 00750E 110944 F187 MS215 /// 252/021 TB1 S031
333 F187 VG009=
DES EU0253 4319N 00752E 110944 F180 MS202 /// 259/021 TB0 S031
333 F180 VG004=
DES EU0253 4317N 00754E 110945 F174 MS187 /// 257/020 TB2 S031
333 F174 VG027=
DES EU0253 4316N 00756E 110945 F170 MS175 /// 250/023 TB1 S031
333 F170 VG009=
DES EU0253 4315N 00758E 110945 F163 MS170 /// 254/024 TB0 S031
333 F163 VG003=
DES EU0253 4314N 00801E 110946 F156 MS155 /// 251/024 TB0 S031
333 F156 VG001=
DES EU0253 4313N 00802E 110946 F150 MS140 /// 248/022 TB0 S031
333 F150 VG001=
DES EU0253 4311N 00804E 110946 F144 MS125 /// 253/017 TB0 S031
333 F144 VG004=
DES EU0253 4310N 00807E 110947 F138 MS107 /// 259/018 TB0 S031
333 F138 VG003=
DES EU0253 4309N 00808E 110947 F131 MS092 /// 261/019 TB0 S031
333 F131 VG002=
DES EU0253 4308N 00810E 110947 F124 MS077 /// 264/020 TB0 S031
333 F124 VG000=
DES EU0253 4307N 00812E 110948 F117 MS065 /// 269/020 TB0 S031
333 F117 VG005=
DES EU0253 4305N 00814E 110948 F111 MS047 /// 265/019 TB0 S031
333 F111 VG001=
DES EU0253 4304N 00816E 110948 F105 MS037 /// 269/018 TB2 S031
333 F105 VG026=
DES EU0253 4303N 00818E 110949 F102 MS032 /// 274/017 TB0 S031
333 F102 VG002=
DES EU0253 4302N 00820E 110949 F098 MS027 /// 276/017 TB0 S031
333 F098 VG007=
DES EU0253 4301N 00822E 110949 F092 MS017 /// 283/017 TB0 S031
333 F092 VG006=
DES EU0253 4259N 00823E 110950 F086 MS007 /// 281/018 TB1 S031
333 F086 VG008=
DES EU0253 4258N 00825E 110950 F081 PS007 /// 274/018 TB1 S031
333 F081 VG009=
DES EU0253 4258N 00826E 110950 F076 PS017 /// 274/016 TB0 S031
333 F076 VG001=
0000191300
345
SZAU01 AMMC 110957
CREX++
T000103 A001 D01021 D06025++
-1927750 14705860 59260 2014 01 11 09 50 3028 11 07 00 01
02445 0206 02442 0207 02438 0206 02439 0210 02426 0201 02428 0207+
-2316110 15079000 59670 2014 01 11 09 50 3003 11 07 00 01
03335 0207 03341 0218 03333 0215 03337 0226 03335 0228 03337 0237+
-3447330 15091170 60420 2014 01 11 09 50 2950 11 07 00 01
00842 -0005 00843 -0001 00839 -0002 00831 -0008 00829 -0007 00820 -0013+
-4105000 14591500 60910 2014 01 11 09 50 2888 11 07 00 01
03015 -0007 03020 -0003 03016 -0007 03015 -0008 03013 -0011 03011 -0013+
-4254640 14793080 61170 2014 01 11 09 50 2895 11 07 00 01
01228 0119 01223 0115 01221 0115 01221 0116 01218 0114 01216 0114+
-3834390 14161360 61410 2014 01 11 09 50 2907 11 07 00 01
00661 0029 00671 0038 00672 0039 00635 0001 00656 0021 00655 0019+
-3214890 13364170 62000 2014 01 11 09 50 2958 11 07 00 01
01240 0139 01235 0135 01233 0134 01235 0138 01231 0134 01229 0133+
-3387080 12189720 62080 2014 01 11 09 50 2950 11 07 00 01
00931 0042 00928 0038 00928 0037 00942 0050 00944 0050 00937 0042+
-3182560 11573860 62237 2014 01 11 09 50 2973 11 07 00 01
01039 0089 01040 0090 01040 0090 01045 0094 01045 0094 01046 0095+
-2422000 11339750 62385 2014 01 11 09 50 //// 11 07 00 01
01460 -0050 01496 -0014 01426 -0084 01430 -0080 01417 -0093 01439 -0071+
-2181670 11419110 62430 2014 01 11 09 50 //// 11 07 00 01
02177 -0063 02167 -0073 02176 -0066 02181 -0061 02173 -0070 02182 -0062+
-1800080 12221830 62650 2014 01 11 09 50 3043 11 07 00 01
06935 0098 06937 0097 06939 0096 06942 0096 06945 0095 06949 0097+
-1247190 13084580 63230 2014 01 11 09 50 3050 11 07 00 01
04430 0146 04425 0146 04419 0143 04415 0142 04412 0144 04407 0143+
-1386000 13641580 63511 2014 01 11 09 50 3043 11 07 00 01
01860 0152 01862 0153 01867 0157 01868 0158 01869 0159 01870 0159++
7777

00000000