0000069000
346
FTRS33 RUMS 102300
TAF UUBW 102250Z 1100/1124 22006MPS 8000 BKN010 TEMPO 1100/1106 -SHRA
BKN006 SCT010CB TEMPO 1106/1112 2200 -SHSNRA BKN006 SCT010CB BECMG
1110/1112 29007G12MPS=
TAF UUDD 102255Z 1100/1206 22007MPS 6000 OVC007 TEMPO 1100/1106 2100
-SHRASN BKN004 BKN012CB TEMPO 1106/1120 1000 SHSNRA SCT004 BKN012CB
BECMG 1109/1111 28008G13MPS=
TAF UUDL 102300Z NIL=
TAF UUEE 102250Z 1100/1124 20005MPS 6000 BKN007 TEMPO 1106/1124 1200
SHSNRA BKN004 SCT010CB BECMG 1109/1111 27005MPS=
TAF UUWW 102255Z 1100/1124 21006MPS 6000 BKN008 TEMPO 1100/1106 1200
SHRASN BKN004 BKN012CB BECMG 1106/1108 27007G12MPS TEMPO 1106/1115
1500 SHSNRA BKN005 SCT015CB=

0000097800
347
FTRS32 RUMS 102300
TAF URKA 102300Z 1100/1124 21009G14MPS 9999 BKN020CB 530005 TEMPO
1100/1106 1700 SHRA BR BKN004 BKN015CB=
TAF URKK 102301Z 1100/1124 22005G10MPS 9999 SCT020CB TEMPO 1100/1108
24010G15MPS 2000 SHRA SCT005 BKN020CB 530002 FM110800 27006G11MPS
9999 BKN020CB TEMPO 1108/1118 3000 -SHRA BKN007 BKN020CB=
TAF URMM 102300Z 1100/1124 28003G08MPS 2100 BR BKN007 TEMPO 1100/1108
VRB02MPS 0300 FZFG OVC004 FM110800 26003G08MPS 9999 BKN020CB TEMPO
1108/1124 3000 -SHRA BKN007 BKN010CB=
TAF URRR 102300Z 1100/1124 26011G16MPS 2100 BR BKN007 BKN020CB 530005
TEMPO 1100/1106 23007G12MPS 0800 -SHRA FG BKN003 BKN020CB TEMPO
1106/1109 -SHRA=
TAF URSS 102245Z 1100/1124 05007MPS 9999 BKN100 BECMG 1100/1102
BKN020CB OVC100 TEMPO 1103/1109 -SHRA BECMG 1107/1109 15007G12MPS
530002 TEMPO 1109/1118 VRB08G14MPS 2000 TSRA BKN005 BKN020CB OVC100
BECMG 1116/1118 04006MPS TEMPO 1118/1124 VRB06G11MPS 5000 -SHRA
SCT007 BKN020CB OVC100=

0000054300
348
FTRS34 RUMS 102300
TAF USPP 102300Z 1100/1124 16005MPS 2000 BR BKN007 650070 TEMPO
1100/1106 0500 FZFG VV002 BECMG 1106/1108 9999 NSW=
TAF UWKD 102255Z 1100/1124 17006G12MPS 2000 SNRA OVC005 SCT015CB
530001 TEMPO 1102/1106 0700 +SHSNRA VV003 BKN010CB 640000 TEMPO
1106/1115 18009G15MPS=
TAF UWKE 102245Z 1100/1124 VRB04MPS 1000 BR OVC003 650030 TEMPO
1100/1106 18008MPS 0500 SN FZRA FZFG OVC002 640000 BECMG 1106/1107
4000 BR OVC007 TEMPO 1106/1118 18012MPS 1000 SHSN FZRA BLSN BKN003
BKN010CB 640000 530001=

0000060600
349
FTRA36 RUMS 102300
TAF UWUU 102258Z 1100/1124 16005G10MPS 2000 SN BR OVC008 SCT015CB
650080 530003 TEMPO 1100/1105 VRB02MPS 0300 FZDZ FZFG VV002 640000
TEMPO 1105/1124 SNRA=
TAF UNEE 102252Z 1100/1124 20008G14MPS 2000 SHSN DRSN BKN010CB BKN070
530004 TEMPO 1100/1106 0600 +SHSN BLSN BKN002 TEMPO 1106/1121 1200
SHSN BKN004=
TAF USCC 102300Z 1100/1124 17006MPS 5000 BR FU BKN010CB OVC070 530005
TEMPO 1100/1106 VRB02MPS 2000 SHSN BKN005=
TAF USNN 102300Z 1100/1124 02003MPS 4000 -SN BR BKN015 OVC066 620150
TEMPO 1100/1103 0800 FZFG VV003 TEMPO 1103/1109 2000 BR BKN007=

0000054600
350
FTRS35 RUMS 102300
TAF UWLW 102245Z 1100/1124 19008MPS 2100 -SNRA BR OVC007 650070 TEMPO
1100/1103 0400 FZDZ FZFG VV002 TEMPO 1103/1115 16012MPS 0700 +SNRA
OVC003=
TAF UWOO 102300Z 1100/1124 VRB03MPS 0300 FZFG VV002 640000 TEMPO
1100/1105 24005MPS 0800 FZDZ FZFG VV002 BECMG 1106/1107 24005MPS
2000 SNRA BR OVC005=
TAF UWWW 102300Z 1100/1124 18006MPS 2000 BR OVC005 TEMPO 1100/1106
0400 FZDZ FZFG VV002 640000 FM110600 18010MPS 1500 SNRA OVC005
650050 TEMPO 1106/1120 16014MPS 0400 +SHSNRA VV003 BKN10CB 530003=

0000042900
351
FTRA33 RUMS 102300
TAF UIAA 102245Z 1100/1124 34004MPS 9999 BKN100 530009 TEMPO
1100/1106 03006MPS=
TAF UIBB 102247Z 1100/1124 08003MPS 3000 -SHSN BR SCT006 BKN014CB
BECMG 1103/1105 BKN014CB OVC100=
TAF UIII 102241Z 1100/1124 16004MPS 9999 SCT020 TEMPO 1103/1112
30004MPS 2000 FU=
TAF UIUU 102253Z 1100/1124 28007MPS 5000 -SHSN SCT020CB BKN100 TEMPO
1100/1103 2100 -SHSN BECMG 1109/1111 VRB02MPS=

0000011100
352
SATH33 VTBB 102300 RRB
METAR VTUK 102300Z 34004KT 7000 NSC 17/17 Q1017 A3003
RWY03 INFO A=

0000078300
353
FTAO33 DRRN 102300
TAF DBBB 102300Z 1100/1206 22010KT 8000 FEW013 BECMG 1103/1105
32002KT 3000 BR BKN010 BECMG 1109/1110 22010KT 8000 FEW013 BECMG
1202/1204 32002KT=
TAF DFFD 102300Z 1100/1206 08010KT 8000 NSC BECMG 1105/1107 3000 DU
BECMG 1111/1113 6000 NSW TEMPO 1117/1120 4000 DU=
TAF DGAA 102200Z 1100/1206 26010KT 9999 SCT014 BECMG 1110/1112
19012KT FEW022 TEMPO1114/1117
FEW030CB BECMG 1118/1120 SCT012 BECMG1200/1202 27010KT SCT010=
TAF DNKN 102300Z NIL=
TAF DNMM 102300Z NIL=
TAF DRRN 102300Z 1100/1206 06012KT 4000 DU NSC TEMPO 1106/1112 1500=
TAF DXXX 102300Z 1100/1206 26005KT 8000 SCT012 TEMPO 1106/1108
3000 BR BECMG 1109/1112 19010KT PROB30 TEMPO 1115/1119 TS FEW015
FEW020CB BECMG 1122/1124 VRB03KT=
TAF FTTJ 102300Z NIL=

0000080700
354
FTXX69 EGRR 102300
TAF EQBH 102230Z 1100/1124 VRB03KT 9999 FEW250
     BECMG 1100/1103 08012KT
     PROB30 1100/1104 0500 FG BKN000
     BECMG 1104/1107 SCT020
     BECMG 1108/1110 SCT120=
TAF KQIR 1023/1205 VRB06KT 8000 -SHRA SCT030 BKN050 OVC100 QNH3003INS
     TEMPO 1102/1112 13010G15KT -TSRA SCT020CB BKN030 OVC050
     BECMG 1111/1112 28012G18KT 9999 NSW BKN050 QNH3008INS
     BECMG 1123/1124 33010G15KT 9999 SCT050 QNH3008INS T20/1111Z
     T13/1203Z=
TAF KQSA 1023/1205 VRB06KT 9000 HZ SKC QNH3029INS
     BECMG 1102/1103 VRB06KT 6000 HZ SKC QNH3028INS
     BECMG 1106/1107 26009KT 9999 NSW SKC QNH3026INS
     BECMG 1115/1116 VRB06KT 6000 HZ SCT100 QNH3027INS
     BECMG 1117/1118 VRB06KT 9000 HZ SCT100 BKN140 QNH3021INS
     T07/1110Z TM07/1102Z=

0000009700
355
SPCN51 CWAO 102319
SPECI CZCP 102319Z AUTO 29023KT 1 5/8SM -SN CLR M33/ A2942=

0000058500
356
FTAU32 YBBN 102300 RRB
TAF YSCB 102310Z 1100/1124
28008KT CAVOK
FM110900 13010KT 9999 FEW030
RMK=
TAF YBCG 102318Z 1100/1124
13012KT 9999 FEW035
FM110100 09011KT 9999 FEW040 
FM111000 20005KT 9999 SCT030
FM112300 13010KT 9999 -SHRA SCT030 SCT040
RMK=
TAF YPKG 102311Z 1100/1124
09010KT CAVOK
RMK=
TAF YPLM 102311Z 1100/1124
05008KT CAVOK
FM110300 03014KT CAVOK
FM110900 31012KT CAVOK
FM111500 27005KT 9999 BKN010
RMK=
TAF YPTN 102318Z 1100/1124
12010KT 9999 SCT040
TEMPO 1104/1115 12025G40KT 1000 TSRA BKN010 SCT020CB
RMK=

0000006900
357
FCIY31 LIIB 102300
TAF LIMP 102300Z 1100/1109 NIL=

0000043100
358
FCIY32 LIIB 102300
TAF LIBR 102300Z 1100/1109 VRB03KT 7000 SCT015 SCT025 TEMPO 1100/1106
5000 BR=
TAF LIPB 102300Z 1100/1109 NIL=
TAF LIPH 102300Z 1100/1109 VRB03KT 1200 BR SCT010 BKN030 TEMPO
1100/1107 0400 FG BKN002=
TAF LIPR 102300Z 1100/1109 VRB03KT 3000 BR SCT010 BKN040 TEMPO
1100/1106 0500 FG BKN002=
TAF LIPX 102300Z 1100/1109 VRB03KT 1000 BR SCT010 BKN040 TEMPO
1100/1107 0400 FG BKN002=

0000017100
359
FCIY33 LIIB 102300
TAF LIMG 102300Z 1100/1109 NIL=
TAF LIMS 102300Z 1100/1109 NIL=
TAF LIMW 102300Z 1100/1109 NIL=
TAF LIMZ 102300Z 1100/1109 NIL=

0000016200
360
FCIY34 LIIB 102300
TAF LIPC 102300Z 1100/1109 VRB03KT 3000 BR SCT010 BKN030 TEMPO
1100/1106 0500 FG BKN002=
TAF LIPF 102300Z 1100/1109 NIL=

0000150700
361
FTUS71 KWBC 102321
TAF
KDAN 102320Z 1100/1124 06005KT 6SM -RA BR OVC003
     FM110400 00000KT 3SM -RADZ BR OVC003 WS018/20035KT
     FM111200 VRB03KT 2SM -DZ BR OVC006 WS015/20045KT
     FM111800 18008KT 5SM SHRA BR OVC010 WS015/20050KT=
KFLO 102320Z 1100/1124 13006KT P6SM VCSH FEW015 BKN018
     FM110500 14006KT 4SM BR BKN008 OVC015
     FM110900 17007KT 3SM BR BKN004
     FM111500 20012G18KT P6SM VCSH BKN009
      TEMPO 1117/1121 21018G28KT 2SM +SHRA BKN012CB
     FM112200 25014G23KT P6SM VCSH BKN020=
KILM 102320Z 1100/1124 13011KT P6SM VCSH SCT030 BKN040
     FM110400 15008KT 6SM BR SCT008 BKN015
     FM111000 18009KT 5SM BR VCSH BKN008
     FM111600 19012G20KT P6SM VCSH BKN018
      TEMPO 1120/1124 20020G30KT 2SM +SHRA BKN012CB=
KLEB 102320Z 1100/1124 00000KT P6SM SCT025 OVC040
     FM110400 00000KT 3SM -FZDZ BR OVC015
     FM110800 00000KT 1SM -FZRA BR OVC005 WS020/19045KT
     FM111400 19008G18KT 2SM RA BR OVC005 WS020/19055KT=
KLYH 102320Z 1100/1124 02005KT 2SM -RA BR OVC003
     FM110300 00000KT 3/4SM -RADZ BR OVC003 WS018/20035KT
     FM111200 VRB03KT 2SM -DZ BR OVC006 WS015/20045KT
     FM111800 18008KT 5SM SHRA BR OVC010 WS015/20050KT=
KMYR 102320Z 1100/1124 13011KT P6SM VCSH SCT030 BKN040
     FM110400 15008KT 5SM BR BKN008
     FM110800 18009KT 4SM BR BKN006
     FM111600 19012G20KT P6SM VCSH BKN018
      TEMPO 1120/1124 20020G30KT 2SM +SHRA BKN012CB AMD LTD TO CLD
      VIS AND WIND 1104/1111=

0000143600
362
FTUS72 KWBC 102321
TAF
KABI 102320Z 1100/1124 28018G28KT P6SM SKC
     FM110100 29006KT P6SM SKC
     FM111900 24006KT P6SM SKC=
KAEX 102320Z 1100/1124 18007KT P6SM VCSH SCT013 BKN035
     FM110100 17010KT 5SM BR VCSH OVC007
      TEMPO 1101/1104 3SM SHRA OVC004
     FM110400 21012KT 4SM -SHRA BR OVC004
     FM110900 27009KT 1SM BR OVC002
     FM111400 31008KT P6SM SCT006=
KBFM 102320Z 1100/1124 00000KT P6SM -RA OVC008
     FM110400 16012KT 4SM SHRA BR OVC005
      TEMPO 1106/1109 3SM -TSRA BKN005CB
     FM111500 27012KT 5SM BR OVC007
     FM111900 30012KT P6SM SCT015=
KBPT 102320Z 1100/1124 16012KT 5SM -SHRA BR VCSH BKN007
      TEMPO 1101/1105 3SM SHRA
     FM110900 27008KT 1SM BR OVC001
     FM111400 34008KT P6SM SKC=
KBRO 102320Z 1100/1124 18014G23KT P6SM SKC
     FM110300 17010KT P6SM SCT015
     FM110600 VRB05KT 4SM BR SCT004 OVC015
     FM110900 VRB03KT 2SM BR BKN004
      TEMPO 1112/1115 1/2SM FG VV001
     FM111800 05010KT P6SM FEW015 SCT030=
KCHA 102320Z 1100/1124 00000KT 2SM BR OVC009
      TEMPO 1100/1102 3/4SM -RA BR OVC004
     FM110400 18006KT 3SM BR OVC008
     FM110700 18008KT 3SM BR VCSH SCT008 OVC012
     FM111000 20010KT 3SM RA BR SCT004 OVC008
     FM111700 22012G20KT P6SM VCSH SCT015 OVC025
     FM112200 22014G24KT P6SM SCT025 OVC050=
KCNM 102320Z 1100/1124 26019G24KT P6SM SKC
     FM110200 27010KT P6SM SKC=

0000146000
363
FTUS51 KWBC 102321
TAF
KAUG 102320Z 1100/1124 20005KT P6SM SCT015 OVC070
     FM110400 20005KT 4SM BR OVC015
     FM110700 16005KT 1SM -FZDZ BR OVC005
     FM111300 18010KT 1/2SM -RA FG VV003 WS020/19050KT
     FM111700 20012G25KT 2SM RA BR OVC005 WS020/21060KT=
KBLF 102320Z 1100/1124 15008KT P6SM OVC006 WS010/20035KT
     FM111000 18015G25KT P6SM OVC025
     FM111600 23015G25KT 3SM SHRA OVC018=
KCON 102320Z 1100/1124 00000KT P6SM SCT015 OVC070
     FM110200 00000KT 4SM BR OVC015
     FM110600 00000KT 1SM -FZDZ BR OVC005
     FM111000 00000KT 1SM -FZRA BR OVC005 WS020/19050KT
     FM111200 18008KT 1/2SM -RA FG VV003 WS020/19050KT
     FM111600 20010G20KT 2SM RA BR OVC005 WS020/21060KT=
KDAN 102320Z 1100/1124 06005KT 6SM -RA BR OVC003
     FM110400 00000KT 3SM -RADZ BR OVC003 WS018/20035KT
     FM111200 VRB03KT 2SM -DZ BR OVC006 WS015/20045KT
     FM111800 18008KT 5SM SHRA BR OVC010 WS015/20050KT=
KFLO 102320Z 1100/1124 13006KT P6SM VCSH FEW015 BKN018
     FM110500 14006KT 4SM BR BKN008 OVC015
     FM110900 17007KT 3SM BR BKN004
     FM111500 20012G18KT P6SM VCSH BKN009
      TEMPO 1117/1121 21018G28KT 2SM +SHRA BKN012CB
     FM112200 25014G23KT P6SM VCSH BKN020=
KLEB 102320Z 1100/1124 00000KT P6SM SCT025 OVC040
     FM110400 00000KT 3SM -FZDZ BR OVC015
     FM110800 00000KT 1SM -FZRA BR OVC005 WS020/19045KT
     FM111400 19008G18KT 2SM RA BR OVC005 WS020/19055KT=

0000119300
364
FTUS51 KWBC 102321 RRA
TAF
KLWB 102320Z 1100/1124 01006KT 6SM BR OVC015 WS020/20025KT
     FM111500 21006KT 4SM -SHRA BR OVC010 WS015/22035KT
     FM111700 25009G20KT 4SM SHRA BR OVC015=
KLYH 102320Z 1100/1124 02005KT 2SM -RA BR OVC003
     FM110300 00000KT 3/4SM -RADZ BR OVC003 WS018/20035KT
     FM111200 VRB03KT 2SM -DZ BR OVC006 WS015/20045KT
     FM111800 18008KT 5SM SHRA BR OVC010 WS015/20050KT=
KMYR 102320Z 1100/1124 13011KT P6SM VCSH SCT030 BKN040
     FM110400 15008KT 5SM BR BKN008
     FM110800 18009KT 4SM BR BKN006
     FM111600 19012G20KT P6SM VCSH BKN018
      TEMPO 1120/1124 20020G30KT 2SM +SHRA BKN012CB AMD LTD TO CLD
      VIS AND WIND 1104/1111=
KPSM 102320Z 1100/1124 20005KT 6SM BR SCT015 OVC070
     FM110200 20005KT 4SM BR OVC015
     FM110500 14005KT 1SM -FZDZ BR OVC005
     FM111100 18010KT 1/2SM -RA FG VV003 WS020/19050KT
     FM111500 20012G25KT 2SM RA BR OVC005 WS020/21060KT=
KROA 102320Z 1100/1124 00000KT 2SM -RADZ BR OVC003
     FM110300 00000KT 3/4SM -RADZ BR OVC003 WS018/20035KT
     FM111200 VRB03KT 2SM -DZ BR OVC006 WS015/20045KT
     FM111800 18008KT 5SM SHRA BR OVC010 WS015/20050KT=

0000138100
365
FTUS52 KWBC 102321 RRA
TAF
KHIE 102320Z 1100/1124 00000KT P6SM SCT025 OVC040
     FM110600 00000KT 3SM -FZDZ BR OVC015
     FM111000 00000KT 1SM -FZRA BR OVC005 WS020/19045KT
     FM111300 14008G18KT 2SM -RA BR OVC008 WS020/19045KT
     FM111600 18008G18KT 3SM RA BR OVC010 WS020/19055KT=
KHND 102320Z 1100/1124 VRB05KT P6SM BKN250
     FM110300 18007KT P6SM BKN250=
KHOB 102320Z 1100/1124 26015G20KT P6SM SKC
     FM110100 28010KT P6SM SKC=
KHRL 102320Z 1100/1124 19014KT P6SM SKC
     FM110300 17010KT P6SM SCT015
     FM110900 VRB03KT 4SM BR SCT004 OVC015
      TEMPO 1112/1115 1/2SM FG VV004
     FM111500 VRB03KT 5SM BR SCT015 BKN030
     FM111800 VRB05KT P6SM FEW015 SCT030=
KHYS 102320Z 1100/1124 30008KT P6SM SCT035
     FM111600 28014G24KT P6SM SCT250=
KINK 102320Z 1100/1124 27014G21KT P6SM SKC
     FM110100 28008KT P6SM SKC=
KIWA 102320Z 1100/1124 29004KT P6SM FEW250
     FM110300 11005KT P6SM FEW250
     FM112000 28004KT P6SM FEW250 AMD LTD TO CLD VIS AND WIND
      1103/1113=
KLBT 102320Z 1100/1124 14007KT P6SM VCSH SCT020 BKN070
      TEMPO 1100/1101 5SM -SHRA BKN035
     FM110500 14006KT 4SM BR BKN008 OVC015
     FM110900 17007KT 3SM BR BKN004
     FM111500 20012G18KT P6SM VCSH BKN009
      TEMPO 1117/1121 21018G28KT 2SM +SHRA BKN012CB
     FM112200 25014G23KT P6SM VCSH BKN020=

00000000