0000020700
586
SASQ31 LZIB 102330
METAR LZIB 102330Z VRB01KT CAVOK 02/00 Q1021=
METAR LZKZ 102330Z 00000KT 0200 R01/0400N FG OVC001 M01/M01 Q1018=
METAR LZTT 102330Z 28009KT 9999 FEW043 01/M05 Q1016=

0000015000
587
SASQ41 LZIB 102330
METAR LZPP 102330Z NIL=
METAR LZSL 102330Z 18003KT 110V270 9999 SCT050 01/M03 Q1019=
METAR LZZI 102330Z NIL=

0000042000
588
FCPL32 EPWA 102300
TAF EPBY 102330Z 1100/1109 26014KT 9999 BKN028
    PROB40 TEMPO 1100/1103 26018G28KT=
TAF EPKT 102330Z 1100/1109 24012KT 9999 BKN040=
TAF EPLB 102300Z NIL=
TAF EPMO 102330Z 1100/1109 26015KT 9999 BKN030
    TEMPO 1100/1103 26020G30KT SHRA BKN020CB=
TAF EPSC 102330Z 1100/1109 24011KT 9999 BKN034=
TAF EPWR 102330Z 1100/1109 25008KT 9999 SCT045=
TAF EPZG 102300Z NIL=

0000087300
589
FTPL31 EPWA 102300
TAF EPGD 102330Z 1100/1124 28012KT 9999 BKN015
    TEMPO 1100/1110 28015G25KT 5000 SHRA BKN008 BKN015CB
    TEMPO 1110/1116 SCT025
    BECMG 1114/1117 22012KT
    TEMPO 1116/1124 22015G28KT=
TAF EPKK 102330Z 1100/1124 24010KT 9999 BKN045=
TAF EPLL 102330Z 1100/1124 26012KT 9999 BKN025
    PROB40 TEMPO 1100/1103 26015G25KT
    BECMG 1113/1115 20008KT CAVOK=
TAF EPPO 102330Z 1100/1124 25008KT 9999 SCT035
    PROB40 1105/1112 BKN014
    BECMG 1120/1122 BKN012
    TEMPO 1122/1124 25018G35KT=
TAF EPRZ 102330Z 1100/1124 27022G32KT 9999 BKN040
    BECMG 1101/1103 27012KT
    BECMG 1112/1114 21007KT=
TAF EPWA 102330Z 1100/1124 26020KT 9999 BKN025
    TEMPO 1100/1103 27022G32KT SHRA BKN020CB
    BECMG 1102/1105 26010KT
    PROB40 TEMPO 1109/1116 SHRA BKN020CB
    BECMG 1115/1118 20008KT CAVOK=

0000011100
590
SANC01 NWWW 102330
METAR NWWW 102330Z AUTO 14013KT 110V180 9999 FEW054 BKN068 30/14
Q1012=

0000136600
591
FTAU31 AMMC 102300
TAF YBAS 102309Z 1100/1124 13014KT CAVOK
     FM111000 10008KT CAVOK=
TAF YBBN 102318Z 1100/1206 13013KT 9999 FEW040
     FM110100 08012KT 9999 SCT045
     FM111000 13008KT 9999 FEW030
     FM111400 20005KT 9999 SCT030
     FM120100 11013KT 9999 FEW035=
TAF AMD YMML 102307Z 1100/1206 18010KT 9999 SCT015 BKN020
     BECMG 1101/1103 18014KT CAVOK
     BECMG 1110/1112 19009KT 9999 -DZ BKN008
     BECMG 1122/1124 19010KT 9999 SCT015 BKN020
     BECMG 1200/1202 18012KT CAVOK
     TEMPO 1100/1102 9999 BKN015=
TAF YPAD 102318Z 1100/1206 22014KT CAVOK
     FM110800 15012KT CAVOK
     FM111800 VRB05KT CAVOK
     FM120200 23012KT CAVOK=
TAF YPDN 102319Z 1100/1206 24010KT 9999 SCT020
     FM111400 17005KT 9999 SCT020
     FM120200 14010KT 9999 SCT020 PROB30
     TEMPO 1105/1118 VRB25G45KT 1000 TSRA BKN010 SCT020CB PROB30
     TEMPO 1105/1118 VRB25G45KT 1000 TSRA BKN010 SCT020CB=
TAF YPPH 102309Z 1100/1206 09013KT CAVOK
     FM112300 04018G30KT CAVOK
     FM120300 30014KT CAVOK=
TAF YPTN 102318Z 1100/1124 12010KT 9999 SCT040
     TEMPO 1104/1115 12025G40KT 1000 TSRA BKN010 SCT020CB=
TAF YSSY 102304Z 1100/1206 34008KT CAVOK
     FM110100 05015KT CAVOK
     FM111200 01008KT 9999 FEW025
     FM111800 16008KT 9999 SCT010 SCT025
     FM120200 16015KT 9999 SCT025=

0000077400
592
FTUS51 KWBC 102330
TAF
KACK 102327Z 1100/1124 19008KT P6SM OVC020
     FM110400 19008KT 3SM BR OVC012
     FM111100 17013G24KT 2SM -RA BR OVC008
     FM111700 18024G37KT 1SM -RA OVC005 WS020/20060KT
     FM112100 18027G42KT 3/4SM -RA OVC005 WS020/19060KT=
KHYA 102327Z 1100/1124 20007KT P6SM OVC012
     FM110400 20005KT 6SM BR OVC008
     FM111100 18010G19KT 2SM -RA BR OVC005
     FM111500 18017G32KT 1/2SM -RA FG OVC003 WS020/20050KT
     FM112300 18030G43KT 1/2SM -RA OVC003 WS020/19065KT=
KMHT 102327Z 1100/1124 00000KT P6SM OVC040
     FM110600 00000KT 2SM BR OVC015
     FM111000 00000KT 1SM -FZRA BR OVC008
     FM111500 17004KT 3/4SM -RA BR OVC004 WS020/20045KT
     FM112000 18013G25KT 1SM -RA OVC008 WS020/20050KT=

0000122400
593
FTUS53 KWBC 102330
TAF
KAPA 102328Z 1100/1124 31015G25KT P6SM FEW090 SCT140 BKN200
     FM110200 25010KT P6SM SCT140 BKN200
     FM110900 19008KT P6SM FEW090 BKN200
     FM111500 24012KT P6SM FEW090 SCT120 BKN180
     FM111800 29014G22KT P6SM FEW090 SCT120=
KBJC 102328Z 1100/1124 28014G22KT P6SM FEW090 BKN200
     FM110500 27020G40KT P6SM FEW090 SCT120 BKN200
      TEMPO 1116/1120 27040G55KT=
KBPI 102327Z 1100/1124 33006KT P6SM SCT020 BKN045
     FM110300 33006KT P6SM BKN060
     FM110800 VRB05KT P6SM VCFG FEW030=
KCMX 102327Z 1100/1124 14007KT P6SM BKN015
     FM110400 16005KT 2SM -SN BR BKN008
     FM111400 28010KT P6SM BKN015=
KCOD 102327Z 1100/1124 25020G30KT P6SM SCT120
     FM110700 25020G30KT P6SM BKN070
     FM111500 16015KT P6SM BKN150 AMD LTD TO CLD VIS AND WIND=
KHUF 102328Z 1100/1124 16012KT 2SM -RA BR OVC006
      TEMPO 1101/1103 OVC003
     FM110900 22010KT 3SM -RA BR OVC006
     FM111500 25012KT 4SM BR OVC010
     FM111800 25012G22KT P6SM OVC015=
KJAC 102327Z 1100/1124 22015G25KT P6SM VCSH SCT025 BKN050
     FM110800 19015KT P6SM SCT010 OVC040
     FM111400 19015KT 3SM -SN SCT010 OVC020 AMD LTD TO CLD VIS AND
      WIND=

0000146000
594
FTUS52 KWBC 102330
TAF
KAHN 102326Z 1100/1124 06005KT 1SM -DZ BR OVC003
     FM110300 09004KT 1/2SM -RADZ FG OVC002
     FM111200 15006KT 1SM -SHRA BR OVC004
     FM111500 20009KT 2SM -SHRA BR OVC007
     FM111900 27010G18KT P6SM BKN025
     FM112200 29012G20KT P6SM SCT040=
KCDS 102320Z 1100/1124 33007KT P6SM SKC
     FM111800 22010KT P6SM SKC=
KCSG 102326Z 1100/1124 09005KT 1SM -DZ BR OVC003
     FM110200 12004KT 1/2SM -RADZ FG OVC002
     FM110900 15006KT 1SM -SHRA BR OVC004
     FM111500 22010G17KT 2SM -SHRA BR OVC007
     FM111800 25011G18KT 4SM -SHRA BR BKN025 PROB30 1118/1121 2SM
      TSRA BR BKN010CB
     FM112100 28012G20KT P6SM BKN050=
KFMH 102327Z 1100/1124 20005KT 6SM BR OVC006
     FM110600 19005KT 1SM BR OVC005
     FM110900 18007KT 1/2SM -RA FG OVC004
     FM111400 18015G28KT 1SM -RA BR OVC003 WS020/36045KT
     FM111900 18025G40KT 3/4SM -RA OVC003 WS020/20065KT=
KFMN 102329Z 1100/1124 29016G23KT P6SM SCT150
     FM110200 29010KT P6SM SCT150
     FM111000 10005KT P6SM FEW250
     FM112000 25007KT P6SM SCT200=
KGUP 102329Z 1100/1124 28012KT P6SM FEW250
     FM110200 25010KT P6SM SCT150
     FM111000 VRB05KT P6SM SCT250
     FM111800 22007KT P6SM SCT200=
KLBB 102320Z 1100/1124 29011KT P6SM FEW250
     FM111800 23012KT P6SM SKC=
KLVS 102329Z 1100/1124 31019G29KT P6SM SKC
     FM110230 29010KT P6SM FEW150
     FM111900 20011G21KT P6SM SCT250=

0000074700
595
FTUS52 KWBC 102330 RRA
TAF
KMCN 102326Z 1100/1124 08005KT 1SM -DZ BR OVC002
     FM110200 09004KT 1/2SM -RADZ FG OVC002
     FM111000 15006KT 1SM -SHRA BR OVC004
     FM111500 20010G17KT 2SM -SHRA BR OVC007
     FM111800 24011G18KT 4SM -SHRA BR BKN025 PROB30 1118/1121 2SM
      TSRA BR BKN010CB
     FM112100 28012G20KT P6SM BKN050=
KROW 102329Z 1100/1124 29015KT P6SM FEW150
     FM110200 28010KT P6SM SKC
     FM111500 16005KT P6SM SKC=
KSAF 102329Z 1100/1124 30017G27KT P6SM SKC
     FM110200 31011KT P6SM FEW150
     FM110900 35012KT P6SM SCT250
     FM111900 27009KT P6SM SCT250=
KTCC 102329Z 1100/1124 29015KT P6SM FEW150
     FM110700 26007KT P6SM SCT250
     FM111900 22011KT P6SM SKC=

0000098200
596
FTUS53 KWBC 102330 RRA
TAF
KLAF 102328Z 1100/1124 16008KT 4SM -RA BR SCT006 OVC015
     FM110100 18008KT 3SM -RA BR OVC006
      TEMPO 1102/1104 BKN003
     FM110800 23010KT 3SM -RA BR OVC006
     FM111500 27012KT 4SM BR OVC010
     FM111800 27013G23KT P6SM OVC015 AMD LTD TO CLD VIS AND WIND
      1102/1114=
KLND 102327Z 1100/1124 27011KT P6SM SCT100
     FM110300 25009KT P6SM SCT100 BKN200
     FM110700 VRB06KT P6SM BKN120
     FM112000 16009KT P6SM BKN250=
KRIW 102327Z 1100/1124 29020G30KT P6SM SCT200
     FM110300 29011KT P6SM SCT150
     FM110900 VRB04KT P6SM BKN070
     FM111800 19015KT P6SM SCT100
     FM112100 18020G30KT P6SM SCT250=
KRKS 102327Z 1100/1124 28022G34KT P6SM BKN030
     FM110600 27020G30KT P6SM SCT050
     FM111200 25015KT P6SM VCSH SCT080
     FM111800 VRB06KT P6SM SCT080=
KWRL 102327Z 1100/1124 15008KT P6SM BKN100
     FM110200 VRB05KT P6SM SCT100
     FM111800 15008KT P6SM BKN150=

0000144900
597
FTUS80 KWBC 102330
TAF
KABQ 102329Z 1100/1124 30018G30KT P6SM FEW100
     FM110300 33011KT P6SM FEW120
     FM110600 34004KT P6SM SCT250
     FM112000 28006KT P6SM FEW250=
KACK 102327Z 1100/1124 19008KT P6SM OVC020
     FM110400 19008KT 3SM BR OVC012
     FM111100 17013G24KT 2SM -RA BR OVC008
     FM111700 18024G37KT 1SM -RA OVC005 WS020/20060KT
     FM112100 18027G42KT 3/4SM -RA OVC005 WS020/19060KT=
KAHN 102326Z 1100/1124 06005KT 1SM -DZ BR OVC003
     FM110300 09004KT 1/2SM -RADZ FG OVC002
     FM111200 15006KT 1SM -SHRA BR OVC004
     FM111500 20009KT 2SM -SHRA BR OVC007
     FM111900 27010G18KT P6SM BKN025
     FM112200 29012G20KT P6SM SCT040=
KAPA 102328Z 1100/1124 31015G25KT P6SM FEW090 SCT140 BKN200
     FM110200 25010KT P6SM SCT140 BKN200
     FM110900 19008KT P6SM FEW090 BKN200
     FM111500 24012KT P6SM FEW090 SCT120 BKN180
     FM111800 29014G22KT P6SM FEW090 SCT120=
KATL 102326Z 1100/1206 09008KT 1SM -DZ BR OVC002
     FM110200 12007KT 1/2SM -RADZ FG OVC002
     FM111000 16009KT 1SM -SHRA BR OVC004
     FM111400 21010G18KT 2SM -SHRA BR OVC007
     FM111900 27013G22KT P6SM BKN025
     FM112100 29014G23KT P6SM SCT040
     FM120000 28011KT P6SM SCT250=
KBAF 102327Z 1100/1124 00000KT 4SM BR OVC020
     FM110600 00000KT 1SM -FZRA BR OVC010
     FM111200 14004KT 1/2SM -RA FG OVC008
     FM111600 18011G22KT 1/2SM RA FG OVC003 WS020/19050KT=

0000123000
598
FTUS80 KWBC 102330 RRA
TAF
KBDL 102327Z 1100/1206 VRB03KT 3SM BR OVC020
     FM110600 00000KT 1SM -RA BR OVC010
     FM111200 17006KT 1/2SM -RA FG OVC008
     FM111600 18010G25KT 1/2SM -RA FG OVC003 WS020/19050KT
     FM120300 20009KT 3/4SM -RA BR OVC008
     FM120500 24008KT 5SM BR SCT008 OVC080=
KBED 102327Z 1100/1124 VRB03KT 6SM BR OVC012
     FM110600 00000KT 2SM BR OVC010
     FM111000 16004KT 1SM -RA BR OVC008
     FM111500 18013G25KT 1SM -RA BR OVC005 WS020/20050KT
     FM112100 19018G33KT 1SM -RA OVC008 WS020/20050KT=
KBFI 102327Z 1100/1124 17010KT P6SM SCT022 BKN050 OVC080
      TEMPO 1100/1102 -RA BKN022 OVC050
     FM110200 18012G18KT P6SM -RA BKN022 OVC035
      TEMPO 1102/1104 4SM RA BR OVC012
     FM110600 18015G28KT 6SM -RA BR OVC018
     FM110800 18020G33KT 6SM -RA BR OVC018
     FM111400 20016G28KT P6SM -RA OVC028
     FM111900 20022G35KT P6SM -SHRA OVC020=
KBJC 102328Z 1100/1124 28014G22KT P6SM FEW090 BKN200
     FM110500 27020G40KT P6SM FEW090 SCT120 BKN200
      TEMPO 1116/1120 27040G55KT=
KBLI 102327Z 1100/1124 14010KT 5SM -RA BKN025 OVC060
      TEMPO 1104/1108 2SM +RA BR OVC012
     FM110800 17025G35KT 5SM -RA BR OVC015=

0000139000
599
FTUS80 KWBC 102330 RRB
TAF
KBOS 102327Z 1100/1206 21005KT 4SM BR OVC012
     FM110600 17005KT 2SM BR OVC008
     FM111000 17006KT 3/4SM -RA BR OVC005
     FM111400 18011G25KT 1/2SM -RA FG OVC003 WS020/19050KT
     FM112000 19022G40KT 1SM -RA OVC005 WS020/20060KT
     FM120400 20018G32KT 3/4SM RA BR OVC003=
KCDS 102320Z 1100/1124 33007KT P6SM SKC
     FM111800 22010KT P6SM SKC=
KCLM 102327Z 1100/1124 VRB03KT P6SM -RA BKN011 OVC018
      TEMPO 1104/1108 2SM RA OVC008
     FM111200 29012KT P6SM -RA OVC018
     FM111600 26006KT P6SM -RA OVC025
     FM112100 26008KT 5SM -SHRA OVC015=
KCMX 102327Z 1100/1124 14007KT P6SM BKN015
     FM110400 16005KT 2SM -SN BR BKN008
     FM111400 28010KT P6SM BKN015=
KCOD 102327Z 1100/1124 25020G30KT P6SM SCT120
     FM110700 25020G30KT P6SM BKN070
     FM111500 16015KT P6SM BKN150 AMD LTD TO CLD VIS AND WIND=
KCPR 102327Z 1100/1124 26017KT P6SM FEW120
     FM110800 23020G30KT P6SM SCT200
     FM111400 22025G40KT P6SM FEW120
     FM111700 22030G45KT P6SM FEW100=
KCSG 102326Z 1100/1124 09005KT 1SM -DZ BR OVC003
     FM110200 12004KT 1/2SM -RADZ FG OVC002
     FM110900 15006KT 1SM -SHRA BR OVC004
     FM111500 22010G17KT 2SM -SHRA BR OVC007
     FM111800 25011G18KT 4SM -SHRA BR BKN025 PROB30 1118/1121 2SM
      TSRA BR BKN010CB
     FM112100 28012G20KT P6SM BKN050=

0000058900
600
FTMG20 FMMI 102300
TAF FMNM 102300Z 1100/1124 VRB03KT 9999 FEW020CB SCT040
PROB30 TEMPO 1100/1104 4000 TSRA BECMG 1107/1109 32010KT BECMG
1116/1118 26004KT=
TAF FMMT 102300Z 1100/1124 00000KT 9999 FEW017 SCT033  BECMG
1104/1106 06010KT BECMG 1110/1112 FEW017CB SCT033 PROB30 TEMPO
1115/1121 TSRA BECMG 1116/1118 00000KT BECMG 1121/1123 FEW017 SCT033=
TAF FMCH NIL=
TAF FJDG NIL=
TAF FIMR NIL=
TAF FSIA 102133Z 1100/1124 33010KT 9999 FEW015CB SCT018 TEMPO
    1100/1112 5000 SHRA/-TSRA FEW013CB BKN015 TEMPO 1115/1121 8000
    -SHRA FEW014CB BKN016=

0000028500
601
SANZ31 NZKL 102330
METAR NZAA 102330Z AUTO 23011KT 9999 FEW033/// OVC044/// 21/13 Q1019
          NOSIG=
METAR NZWN 102330Z AUTO 32013KT 300V360 9999 NCD 20/11 Q1017 NOSIG=
METAR NZCH 102330Z AUTO 07011KT 9999 BKN020/// OVC027/// 17/12 Q1016
          NOSIG=

0000010500
602
FTSP35 LEMM 102300 RRA
TAF LEVD 102300Z 1100/1124 14005KT CAVOK TX11/1115Z TN01/1108Z=

0000144100
603
FTUS51 KWBC 102336
TAF
KBKW 102334Z 1100/1124 15009KT P6SM OVC006
      TEMPO 1100/1103 OVC035
     FM111100 17015G22KT 4SM SHRA OVC010
     FM111600 22012G18KT 3SM SHRA OVC010
     FM111900 25011G16KT 3SM SHRA OVC010
     FM112100 26012G19KT 3SM SHRA OVC020
     FM112300 27013G20KT P6SM OVC015=
KCKB 102334Z 1100/1124 11004KT P6SM OVC040
     FM110600 18008KT P6SM BKN035
     FM111100 17010G15KT 6SM SHRA OVC035
     FM111500 18012G19KT 3SM SHRA OVC015
     FM111700 20011G17KT 3SM SHRA OVC008
     FM112000 23012G18KT 3SM SHRA OVC015
     FM112300 25014G20KT P6SM OVC015=
KECG 102334Z 1100/1124 11007KT P6SM -RA OVC080
      TEMPO 1100/1103 2SM -RA BR OVC025
     FM110300 18008KT 4SM -DZ BR SCT010 OVC035
     FM111400 18015G22KT 4SM BR BKN010
     FM111700 19015G25KT P6SM -SHRA BKN035 BKN100=
KEKN 102334Z 1100/1124 15005KT P6SM OVC035
     FM110500 18011G17KT P6SM OVC035
     FM110800 18011G17KT P6SM OVC030
     FM111100 18013G19KT 4SM SHRA OVC030
     FM111700 21013G19KT 3SM SHRA OVC010
     FM111800 23011G16KT 3SM SHRA OVC003
     FM112000 24012G19KT 3SM SHRA OVC015=
KPKB 102334Z 1100/1124 12005KT P6SM OVC035
     FM110400 15008KT P6SM OVC020
     FM110800 17010G15KT P6SM OVC015
     FM111000 18012G18KT 3SM SHRA OVC008
     FM111500 21012G18KT 3SM SHRA OVC010
     FM112000 24013G19KT 6SM SHRA OVC015
     FM112100 24013G20KT P6SM OVC015=

0000031800
604
FTUS51 KWBC 102336 RRA
TAF
KSBY 102334Z 1100/1124 12005KT 2SM -RA BR SCT006 OVC035
      TEMPO 1100/1102 1SM -RA BR OVC006
     FM110200 13007KT 3SM -DZ OVC006
     FM110400 14005KT 1SM -DZ BR OVC005
     FM111200 18014G20KT 4SM -RA BR OVC010
     FM111900 17022KT 4SM -RA SCT012 BKN040=

0000051500
605
FTUS53 KWBC 102336
TAF
KALS 102332Z 1100/1124 VRB06KT P6SM FEW120 SCT200=
KBWG 102333Z 1100/1124 17008KT P6SM VCSH OVC025
     FM110230 19012G20KT 4SM -SHRA BR OVC015
     FM110600 18014G24KT 4SM -SHRA BR OVC007
     FM111100 24012G18KT P6SM SCT010 BKN050=
KSDF 102333Z 1100/1206 16008KT P6SM VCSH OVC015
     FM110300 18011G21KT 5SM -SHRA BR OVC010
     FM110700 18014G24KT 4SM -SHRA BR OVC007
     FM111200 25015G22KT P6SM SCT010 BKN035
     FM112000 26013G18KT P6SM BKN025=

00000000