0000021100
666
FTRO31 LROM 102300 AAA
TAF AMD LRTR 110208Z 1102/1124 VRB03KT 3000 BR BKN045 TEMPO 1102/1106
1500 BR BECMG 1106/1108 9999 NSW BECMG 1116/1118 3000 BR BKN010 TEMPO
1120/1124 0800 FG BKN002=

0000008800
667
SPCN51 CWAO 110213
SPECI CWCA 110213Z 23010G18KT 15SM OVC040 RMK SC8=

0000066100
668
SAVN20 SVMR 110200
METAR SVCR 110200Z /////KT CAVOK 29/24 Q1016 =
METAR SVMC 110200Z NIL=
METAR SVBM 110200Z 09006KT 9999 FEW016 22/18 Q1017 =
METAR SVBS 110200Z NIL=
METAR SVMI 110200Z 07001KT 9999 FEW016 24/21 Q1014 NOSIG=
METAR SVFM 110200Z NIL=
METAR SVBC 110200Z 00000KT 9999 FEW010 26/20 Q1012 =
METAR SVCU 110200Z 07011KT 9999 FEW013 25/18 Q1015 =
METAR SVMG 110200Z NIL=
METAR SVAC 110200Z NIL=
METAR SVMT 110200Z 02007KT CAVOK 25/23 Q1011 =
METAR SVBI 110200Z 02002KT CAVOK 26/16 Q1011 =
METAR SVCB 110200Z 07006KT CAVOK 25/00 Q1012 =
METAR SVVA 110200Z 05005KT CAVOK 24/18 Q1015 =
METAR SVSO 110200Z NIL=

0000017100
669
SAUS75 KWBC 110200 RRB
METAR
PAEI 110155Z 00000KT 10SM FEW150 M27/M30 A2957=
PHNY 110210Z AUTO 17008KT 10SM SCT023 BKN028 BKN037 25/18
     A2994=

0000028900
670
SAXX69 EGRR 110200 RRA
METAR KQIR 110158Z 11009KT 9999 -RA OVC065 18/17 A3008 RMK AO2A WND
      DATA ESTMD SLP188 P0003 T01760171 VISNO RWY16 CHINO RWY16 $=
METAR KQSA 110155Z 00000KT 9000 HZ CLR M06/M11 A3032 RMK AO2A SLP359
      WND DATA ESTMD ALSTG/SLP ESTMD=

0000009500
671
SAAB31 LATI 110220
METAR LATI 110220Z 00000KT 7000 BKN053 10/08 Q1022 NOSIG=

0000042000
672
SALY31 HLMC 110200
METAR HLLM 110150Z 18006KT 6000 NSC 14/06 Q1023=
METAR HLLT 110150Z 18006KT CAVOK 10/05 Q1022=
METAR HLGD 110200Z NIL=
METAR HLGT 110200Z NIL=
METAR HLJA 110200Z NIL=
METAR HLKF 110200Z NIL=
METAR HLKM 110200Z NIL=
METAR HLLB 110200Z NIL=
METAR HLLS 110200Z NIL=
METAR HLMI 110200Z NIL=
METAR HLNT 110200Z NIL=
METAR HLON 110200Z NIL=
METAR HLTD 110200Z NIL=

0000010900
673
SAAP32 FAPR 110200 RRB
METAR FQMA 110200Z 19011KT 5000 DZ SCT010 BKN020 24/23 Q1013 NOSIG=

0000019100
674
FTDN33 EKCH 102300 AAA
TAF AMD EKSP 110215Z 1102/1124 24010KT 9999 BKN020 TEMPO 1102/1112 
3000 RADZ BKN004 BECMG 1112/1115 29012KT TEMPO 1115/1124 5000 SHRA 
BKN020CB=

0000009800
675
SPUS41 KWBC 110216
SPECI
KBDL 110212Z 00000KT 2 1/2SM BR OVC007 01/M01 A3030=

0000009000
676
SPUS42 KWBC 110216
SPECI
KHSV 110212Z 13004KT 8SM OVC008 11/09 A2995=

0000011000
677
SPUS43 KWBC 110216
SPECI
KTOL 110212Z 00000KT 3SM RA BR FEW002 BKN011 OVC033 03/03 A2982=

0000008700
678
SASA31 KWBC 110200 RRC
METAR
SVMC 110200Z NIL=
SVMG 110200Z NIL=

0000010900
679
SAVN42 KWBC 110200 RRA
METAR
SVSO 110200Z NIL=
SVVA 110200Z 05005KT CAVOK 24/18 Q1015=

0000011100
680
SPAU32 YBBN 110217
SPECI YPGV 110216Z 12009KT 5000 +SHRA FEW012 BKN016 BKN150 26/25
Q1007=

0000011100
681
SPAU32 AMMC 110217
SPECI YPGV 110216Z 12009KT 5000 +SHRA FEW012 BKN016 BKN150 26/25
Q1007=

0000050000
682
FCRS32 RUMS 110200
TAF URML 110148Z 1103/1112 13005G10MPS 9999 SCT017 SCT100 530001
TEMPO 1103/1107 3000 BR BECMG 1110/1112 32009G14MPS=
TAF URMN 110200Z 1103/1112 22004MPS 9999 BKN020=
TAF URMO 110200Z NIL=
TAF URMT 110159Z 1103/1112 26005G10MPS 9999 SCT007 BKN015 TEMPO
1103/1109 2000 BR BKN007 BKN015 TEMPO 1109/1112 3000 -SHRA
BKN010CB=
TAF URWA  1103/1112 23006G12MPS 9999 BKN012 BKN100 520002
TEMPO 1103/1109 2100 -RA BR BKN005 OVC100=
TAF URWI 110200Z NIL=

0000093800
683
FTRS36 RUMS 110200
TAF ULAA 110200Z 1103/1203 06007G13MPS 2000 SN DRSN OVC005 650050
530001 TEMPO 1103/1118 08010G16MPS 0600 +SN BLSN BKN003 TEMPO
1118/1203 01008G14MPS 0900 +SHSN BLSN BKN004 BKN007CB=
TAF ULMM 110200Z 1103/1203 VRB02MPS 9999 SCT004 BKN012 TEMPO
1103/1107 0300 FZFG VV002 TEMPO 1107/1115 07004G09MPS 2100 -SHSN BR
BKN005 BKN011CB TEMPO 1115/1203 1300 -SHSN BR BKN003 BKN010CB=
TAF UMKK 110200Z 1103/1203 27007MPS 9999 BKN010 BKN015CB TEMPO
1103/1106 30005G10MPS 2000 SHRA BKN007 BKN020CB TEMPO 1106/1112
27007G12MPS 3000 -SHRA BKN007 BKN020CB BECMG 1112/1114 24005G10MPS
5000 -RA BR BKN007 TEMPO 1112/1203 23008G13MPS 2000 SHRA SCT004
BKN010CB=
TAF UUYY 110200Z 1103/1203 03006G12MPS 2000 SHSN BR BKN007 BKN010CB
BKN070 530009 TEMPO 1103/1109 0700 +SHSN BKN004 BKN007CB BECMG
1107/1109 15006G14MPS TEMPO 1109/1203 0500 +SHSN BLSN BKN003
BKN007CB TEMPO 1109/1203 FZRA 640000=

0000045800
684
FTRA32 RUMS 110200
TAF UHHH 110148Z 1103/1209 25008G13MPS CAVOK 530002 TEMPO 1103/1112
27010G15MPS=
TAF UHMA 110145Z 1103/1203 36010G15MPS 5000 -BLSN SCT030 SCT080
650309 530003 550309 TEMPO 1103/1203 06022G27MPS 0500 +BLSN VV002=
TAF UHMM 110150Z 1103/1209 04006G12MPS 9999 DRSN SCT030 BKN100 530009
530906=
TAF UHPP 110140Z 1103/1209 30006MPS 9999 BKN025CB OVC100 650250
550009 TEMPO 1103/1110 04005G10MPS 2000 SHSN BKN006=

0000012900
685
FTRA31 RUMS 110200
TAF UEEE 110200Z 1103/1209 VRB02MPS 1000 BR NSC TM44/1103Z TEMPO
1103/1121 0300 FG VV003=

00000000