0000035100
466
SASW31 LSSW 102320
METAR LSZH 102320Z 00000KT 1500 0600N R14/0650N R16/P2000N R28/1100N
    R34/0900D BCFG VV001 01/00 Q1019 BECMG 0400=
METAR LSGG 102320Z 00000KT CAVOK 02/01 Q1019 NOSIG=
METAR LSZB 102320Z AUTO VRB01KT 0250 R14/0900D FZFG VV001 M01/M01
    Q1019=
METAR LSZA 102320Z AUTO 14002KT 9999 OVC041 08/06 Q1022=

0000013200
467
SAPA31 KWBC 102300 RRB
METAR
PKWA 102320Z AUTO 08015KT 10SM SCT034 SCT055 30/20 A2983 RMK AO2
     T03020203=

0000179100
468
SZPS01 AMMC 110954
CREX++
T000103 A001 D01021 D06025++
-0204190 14737360 56130 2014 01 11 09 47 3028 11 07 00 01
00591 0048 00587 0047 00582 0044 00582 0046 00580 0047 00576 0045+
-0669280 15640860 56363 2014 01 11 09 47 //// 11 07 00 01
00363 -0071 00365 -0069 00370 -0064 00370 -0063 00372 -0061 00372 -0061+
-0942890 15995560 56670 2014 01 11 09 47 3043 11 07 00 01
00543 -0039 00544 -0036 00538 -0041 00541 -0037 00539 -0037 00535 -0040+
-1072080 16580190 57131 2014 01 11 09 47 //// 11 07 00 01
02093 1831 01134 0873 02561 2299 01817 1555 01233 0970 00829 0566+
-1551560 16718860 57210 2014 01 11 09 47 //// 11 07 00 01
00331 -0079 00335 -0075 00334 -0077 00327 -0083 00327 -0083 00324 -0087+
-1775690 16830030 57320 2014 01 11 09 47 3017 11 07 00 01
00372 -0097 00370 -0098 00366 -0101 00362 -0104 00360 -0105 00358 -0106+
-4397330 16861610 65180 2014 01 11 09 47 2887 11 07 00 01
02169 0357 02157 0351 02157 0354 02150 0351 02148 0354 02144 0354+
-2120470 -15978530 65980 2014 01 11 09 47 3012 11 07 00 01
00403 -0014 00429 0011 00396 -0022 00416 -0002 00405 -0013 00435 0017+
-2113810 -17518140 66600 2014 01 11 09 47 //// 11 07 00 01
00644 0109 00638 0102 00633 0097 00642 0105 00643 0105 00648 0110+
-1382670 -17176110 66840 2014 01 11 09 47 3013 11 07 00 01
00500 0045 00512 0055 00508 0050 00519 0059 00517 0056 00514 0052+
-1813250 17842750 67050 2014 01 11 09 47 3030 11 07 00 01
00708 0104 00711 0107 00714 0110 00710 0105 00711 0106 00715 0110+
-1760530 17743810 67070 2014 01 11 09 47 3033 11 07 00 01
00672 0033 00674 0034 00676 0035 00676 0035 00676 0035 ///// ////+
-0850250 17919500 67440 2014 01 11 09 47 3028 11 07 00 01
01607 0012 01613 0016 01616 0018 01615 0014 01625 0022 01622 0018++
7777

0000191200
469
SZAU01 AMMC 110954
CREX++
T000103 A001 D01021 D06025++
-1927750 14705860 59260 2014 01 11 09 47 3030 11 07 00 01
02447 0198 02446 0201 02439 0196 02445 0206 02442 0207 02438 0206+
-2316110 15079000 59670 2014 01 11 09 47 3003 11 07 00 01
03363 0220 03345 0207 03348 0214 03335 0207 03341 0218 03333 0215+
-3447330 15091170 60420 2014 01 11 09 47 2950 11 07 00 01
00833 -0022 00838 -0014 00841 -0008 00842 -0005 00843 -0001 00839 -0002+
-4105000 14591500 60910 2014 01 11 09 47 2888 11 07 00 01
03010 -0012 03007 -0015 03022 0000 03015 -0007 03020 -0003 03016 -0007+
-4254640 14793080 61170 2014 01 11 09 47 2895 11 07 00 01
01222 0109 01220 0108 01226 0115 01228 0119 01223 0115 01221 0115+
-3834390 14161360 61410 2014 01 11 09 47 2907 11 07 00 01
00657 0028 00650 0020 00663 0032 00661 0029 00671 0038 00672 0039+
-3214890 13364170 62000 2014 01 11 09 47 2958 11 07 00 01
01250 0146 01247 0144 01242 0140 01240 0139 01235 0135 01233 0134+
-3387080 12189720 62080 2014 01 11 09 47 2950 11 07 00 01
00947 0062 00933 0047 00949 0061 00931 0042 00928 0038 00928 0037+
-3182560 11573860 62237 2014 01 11 09 47 2973 11 07 00 01
01017 0068 01026 0077 01033 0083 01039 0089 01040 0090 01040 0090+
-2422000 11339750 62385 2014 01 11 09 47 //// 11 07 00 01
01454 -0056 01402 -0108 01421 -0089 01460 -0050 01496 -0014 01426 -0084+
-2181670 11419110 62430 2014 01 11 09 47 //// 11 07 00 01
02155 -0082 02166 -0071 02174 -0065 02177 -0063 02167 -0073 02176 -0066+
-1800080 12221830 62650 2014 01 11 09 47 3043 11 07 00 01
06930 0104 06933 0104 06933 0100 06935 0098 06937 0097 06939 0096+
-1247190 13084580 63230 2014 01 11 09 47 3050 11 07 00 01
04447 0150 04440 0147 04434 0145 04430 0146 04425 0146 04419 0143+
-1386000 13641580 63511 2014 01 11 09 47 3043 11 07 00 01
01856 0149 01857 0150 01859 0152 01860 0152 01862 0153 01867 0157++
7777

0000046700
470
SZPA01 AMMC 110954
CREX++
T000103 A001 D01021 D06025++
0136250 17293000 67590 2014 01 11 09 47 3018 11 07 00 01
01339 0021 01342 0023 01346 0025 01352 0028 01356 0030 01363 0036+
0710610 17137250 67680 2014 01 11 09 47 3013 11 07 00 01
00934 0113 00933 0111 00934 0110 00942 0115 00938 0110 00947 0117+
0698060 15820000 67950 2014 01 11 09 47 3023 11 07 00 01
00567 0027 00568 0028 00568 0027 00570 0029 00572 0031 00572 0030++
7777

0000034600
471
SZIO01 AMMC 110954
CREX++
T000103 A001 D01021 D06025++
-1211670 09689190 46280 2014 01 11 09 47 3022 11 07 00 01
01112 0018 01101 0009 01114 0024 01114 0026 01112 0026 01114 0030+
-1042940 10566940 46290 2014 01 11 09 47 //// 11 07 00 01
01362 -0033 01347 -0047 01351 -0042 01388 -0004 01316 -0075 01396 0006++
7777

0000010900
472
SASN31 ESWI 102320 RRA
METAR ESGG 102320Z 24011KT 9999 OVC004 04/04 Q1001 REDZ R21/29//95=

0000054100
473
SADN31 EKCH 102320
METAR EKCH 102320Z 26012KT 9999 FEW016 BKN045 06/03 Q1007 NOSIG=
METAR EKBI 102320Z 24008KT 9999 SCT015 BKN150 05/04 Q1007=
METAR EKYT 102320Z 25012KT 9999 FEW012 SCT015 BKN160 07/05 Q1004=
METAR EKRK 102320Z AUTO 26013KT 9999NDV BKN036/// BKN041///
05/04 Q1007=
METAR EKAH 102320Z AUTO 25012KT 220V280 9999NDV BKN037/// BKN150///
06/04 Q1006=
METAR EKEB 102320Z AUTO 23010KT 9999NDV BKN014/// BKN140///
06/05 Q1008=
METAR EKRN 102320Z AUTO 27023KT 9999NDV DZ  OVC028/// 06/06
Q1008=

0000016500
474
SADN32 EKCH 102320
METAR EKVJ 102323Z NIL=
METAR EKSB 102323Z NIL=
METAR EKSN 102323Z NIL=
METAR EKVD 102323Z NIL=
METAR EKOD 102323Z NIL=

0000051100
475
SADN34 EKCH 102320
METAR EKHN 102320Z AUTO 24007G19KT 180V280 7000NDV BKN012///
///// Q1010=
METAR EKHR 102320Z AUTO 24021KT 9999NDV FEW013/// SCT018///
08/06 Q1008=
METAR EKHA 102320Z AUTO 23023KT 9999NDV 07/06 Q1008=
METAR EKHD 102320Z AUTO 24020KT 9999NDV 07/06 Q1005=
METAR EKTE 102320Z AUTO 22020KT 9999NDV FEW008 SCT011 BKN040 07/06 
Q1007=
METAR EKGC 102320Z AUTO 23019KT 9999NDV 07/06 Q1007=
METAR EKAV 102320Z AUTO 25017KT 9999NDV FEW017/// OVC034///
06/04 Q1005=

0000029100
476
FTAE31 VTBB 102300 RRB
TAF VTSP 102300Z 1100/1206 07008KT 9000 FEW020 SCT300
PROB40 TEMPO 1112/1116 07010G20KT 4000 TSRA FEW016CB SCT020 BKN100=
TAF VTSG 102300Z 1100/1124 08008KT 8000 FEW020 SCT300
PROB40 TEMPO 1110/1114 08010G20KT 4000 TSRA FEW016CB SCT020 BKN100=

0000008800
477
SPCN51 CWAO 102323
SPECI CWOB 102323Z AUTO 04004KT BKN006 M21/ A2917=

0000052300
478
SAUK31 EGGY 102320
METAR EGBB 102320Z 21011KT 180V240 9999 SCT021 BKN031 08/06
    Q1010=
METAR EGCC 102320Z 25008KT 3500 RA SCT002 BKN005 BKN009 07/06
    Q1009 REDZ=
METAR EGKK 102320Z 21007KT 9999 BKN011 08/06 Q1014=
METAR EGLL 102320Z 21008KT 9999 FEW030 SCT038 08/06 Q1013=
METAR EGPF 102320Z 34003KT CAVOK 01/00 Q1008=
METAR EGPH 102320Z 24007KT CAVOK 01/M00 Q1007=
METAR EGPK 102320Z 26007KT 9999 SCT038 05/02 Q1009=
METAR EGSS 102320Z 20010KT 9999 -RA SCT006 BKN010 07/06 Q1012=

0000010600
479
SPUS42 KWBC 102323
SPECI
KGLS 102319Z 16013KT 3/4SM -RA BR BKN004 OVC016 17/17 A2984=

0000152800
480
FTDL32 EDZO 102300
TAF EDDB 102300Z 1100/1124 22009KT 9999 BKN035 BECMG 1116/1118
     24015KT TEMPO 1118/1121 25020G30KT RA BECMG 1121/1123 27015G30KT
     TEMPO 1123/1124 27020G30KT=
TAF EDDC 102300Z 1100/1124 21007KT 9999 SCT030 BECMG 1118/1120
     27015G30KT TEMPO 1121/1123 RA=
TAF EDDG 102300Z 1100/1124 20006KT 9999 BKN015 TEMPO 1100/1109 BKN009
     BECMG 1111/1113 26009KT TEMPO 1115/1119 RA=
TAF EDDN 102300Z 1100/1124 15003KT 9999 SCT040 BECMG 1110/1112
     24005KT TEMPO 1111/1117 RA BKN010 TEMPO 1117/1120 29015G25KT
     BKN008=
TAF EDDP 102300Z 1100/1124 21009KT 9999 SCT045 BECMG 1114/1116
     22015KT BECMG 1116/1119 26015G25KT TEMPO 1118/1120 27020G30KT
     RA=
TAF EDDS 102300Z 1100/1124 VRB03KT 9999 SCT030 PROB30 TEMPO 1106/1110
     4000 MIFG BECMG 1114/1116 27006KT=
TAF EDDT 102300Z 1100/1124 23008KT 9999 BKN035 BECMG 1116/1118
     24015KT TEMPO 1118/1121 25020G30KT RA BECMG 1121/1123 27015G30KT
     TEMPO 1123/1124 27020G30KT=
TAF EDDV 102300Z 1100/1124 25011KT 9999 BKN020 PROB30 TEMPO 1100/1110
     BKN009 BECMG 1112/1115 4000 RA BKN008 TEMPO 1113/1117 27020G35KT
     BECMG 1115/1118 9999 NSW BKN020 PROB30 TEMPO 1118/1121
     30015G30KT 3000 SHRAGS BKN012CB=
TAF EDDW 102300Z 1100/1124 22011KT 9999 BKN020 TEMPO 1100/1108 BKN008
     BECMG 1108/1111 BKN012 BECMG 1111/1114 3500 RA BKN007 TEMPO
     1112/1117 26020G35KT BECMG 1114/1117 28013KT 9999 NSW BKN020
     PROB30 TEMPO 1117/1124 30015G30KT 3000 SHRAGS BKN012CB=

0000075800
481
FTDL33 EDZO 102300
TAF EDDE 102300Z 1100/1124 21007KT CAVOK BECMG 1110/1112 24012KT
     BECMG 1114/1118 27015G27KT BECMG 1121/1124 27012KT=
TAF EDDR 102300Z 1100/1124 VRB03KT 9999 SCT040 BECMG 1103/1105 4000
     BR BKN008 TEMPO 1105/1120 2500 -RA BR BKN003 BECMG 1112/1114
     24007KT BECMG 1120/1122 9999 SCT025=
TAF EDFH 102300Z 1100/1124 20005KT 9999 SCT005 TEMPO 1100/1102 4000
     BR BKN004 BECMG 1102/1104 4000 BR BKN005 TEMPO 1104/1114 0800
     -RA BCFG BKN001 BECMG 1112/1114 27008KT TEMPO 1114/1118 8000
     SCT005 BKN015 BECMG 1118/1120 9999 SCT015=
TAF EDNY 102300Z 1100/1124 03003KT 0800 FG NSC TEMPO 1100/1107 0300
     FZFG VV002 BECMG 1107/1109 24005KT 6000 BECMG 1119/1121 3000
     RADZ BKN007=

0000019300
482
FTDL34 EDZO 102300
TAF EDNY 102300Z 1100/1124 03003KT 0800 FG NSC TEMPO 1100/1107 0300
     FZFG VV002 BECMG 1107/1109 24005KT 6000 BECMG 1119/1121 3000
     RADZ BKN007=

0000010100
483
SPUS43 KWBC 102324
SPECI
KMBS 102320Z 14007KT 2 1/2SM -RA BR OVC007 02/01 A2987=

0000038500
484
SABX31 EBBR 102320
METAR EBAW 102320Z AUTO 21009KT 9999 OVC009/// 05/03 Q1017=
METAR EBBR 102320Z 21008KT 9999 BKN011 04/02 Q1017 NOSIG=
METAR EBCI 102320Z 18007KT 9999 FEW011 03/02 Q1017 NOSIG=
METAR EBLG 102320Z 19011KT CAVOK 03/01 Q1017 NOSIG=
METAR EBOS 102320Z 19009KT 9999 BKN008 04/02 Q1016 NOSIG=
METAR ELLX 102320Z 00000KT CAVOK 02/01 Q1017 NOSIG=

0000049800
485
SAOS31 LOWM 102320
METAR LOWW 102320Z 26004KT CAVOK 04/M01 Q1021 NOSIG=
METAR LOWL 102320Z AUTO VRB01KT 9999 NCD M01/M01 Q1021=
METAR LOWS 102320Z AUTO 31003KT 9999 OVC070 03/02 Q1020=
METAR LOWI 102320Z AUTO VRB02KT 4400 BR FEW002 BKN003 03/03 Q1020
    R88///////=
METAR LOWG 102320Z AUTO VRB01KT 0450 R35/0650N R17/0500N FG OVC002
    03/03 Q1020 R88///////=
METAR LOWK 102320Z AUTO 29003KT 2300 0800E R28/0900N R10/P1500N FG
    OVC002 02/02 Q1021 R88///////=

00000000