0000030200
566
FTSA85 EGRR 110900 RRB
TAF AMD SPQU 110840Z 1108/1206 VRB02KT 7000 SCT010 SCT070 TX19/1119Z
     TN10/1111Z
     TEMPO 1108/1112 4000 BCFG BKN010 SCT070
     FM111400 24006KT 9999 SCT020 SCT100
     FM111800 25011KT 9999 BKN030 SCT080
     FM120000 VRB02KT 8000 BKN012 SCT080=
0000167200
567
SASA85 EGRR 110900 RRB
METAR SADF 110900Z 16007KT CAVOK 19/08 Q1015=
METAR SARI 110900Z 05005KT CAVOK 23/22 Q1013=
METAR SBCF 110900Z 22002KT CAVOK 20/17 Q1018=
METAR SBCY 110900Z 33004KT 9999 FEW020 SCT100 24/21 Q1011=
METAR SBFZ 110900Z 11010KT 9999 SCT020 26/20 Q1011=
METAR SBKP 110900Z 11005KT CAVOK 21/18 Q1017=
METAR SBMO 110900Z 32002KT 9999 FEW020 22/21 Q1014=
METAR SBPL 110900Z 11007KT 9999 SCT020 BKN070 24/19 Q1014=
METAR SBRJ 110900Z 01005KT CAVOK 26/22 Q1012=
METAR SBSV 110900Z 10011KT 9999 SCT017 27/22 Q1014=
METAR SBVT 110900Z 24002KT CAVOK 24/22 Q1016=
METAR SEGU 110900Z 2200KT 9999 FEW012 BKN026 25/20 Q1009 RMK A2980
      NOSIG=
METAR SELT 110900Z 17004KT 4000 BCFG FEW005 BKN020 11/11 Q1027=
METAR SGAS 110900Z 05003KT CAVOK 25/23 Q1009=
METAR SGES 110900Z 17003KT 9999 SCT030 BKN080 24/21 Q1010=
METAR SKBQ 110900Z 07006KT CAVOK 24/23 A2983=
METAR SKCL 110900Z 00000KT 9999 FEW020 BKN090 20/19 A2993=
METAR SKRG 110900Z 00000KT 4000 BCFG BKN008 14/13 A3022 RMK BCFG/S/N=
METAR SPCL 110900Z 03003KT 9999 SCT015 BKN060 25/23 Q1010 RMK PP000=
METAR SPHI 110900Z 18008KT CAVOK 22/20 Q1010 RMK PP000=
METAR SPJR 110900Z VRB02KT 9999 SCT043 09/09 Q1025 RMK PP000=
METAR SPQT 110900Z 19003KT 8000 SCT008 OVC100 24/23 Q1009 NOSIG RMK
      PP000=
METAR SPQU 110900Z 36004KT 9999 FEW010 10/09 Q1023 RMK PP000=
METAR SPRU 110900Z 13005KT 8000 BKN004 OVC035 20/18 Q1010 RMK BR PP000=
METAR SPSO 110900Z /////KT 9999 SCT100 21/18 Q1010 RMK PP000=
METAR SPTN 110900Z 27003KT CAVOK 20/16 Q1009 RMK PP000=
METAR SPZO 110900Z 09004KT 9999 FEW020 SCT040 BKN070 09/07 Q1030 RMK
      PP000=
0000171000
568
SASA85 EGRR 110900 RRC
METAR SABE 110900Z 16017G33KT CAVOK 19/06 Q1015=
METAR SACO 110900Z 16008KT CAVOK 21/13 Q1018=
METAR SAEZ 110900Z 15006KT 120V210 CAVOK 15/08 Q1016=
METAR SAME 110900Z 18008KT CAVOK 23/03 Q1017=
METAR SASA 110900Z 07002KT 9999 FEW025 SCT200 20/17 Q1013=
METAR SAVC 110900Z 00000KT CAVOK 12/08 Q1017=
METAR SAVE 110900Z 25006KT CAVOK 06/04 Q1021=
METAR SBCB 110900Z 08012KT 9999 FEW015 25/24 Q1013=
METAR SBCT 110900Z 03002KT 9999 VCTS FEW020 FEW030CB 18/17 Q1018 RETS=
METAR SBGR 110900Z 08004KT CAVOK 19/17 Q1017=
METAR SBLO 110900Z 22002KT CAVOK 22/20 Q1015=
METAR SBMA 110900Z 30003KT 9999 SCT030 SCT070 22/22 Q1011=
METAR SBSN 110900Z 16003KT 9999 -RA SCT010 BKN100 25/21 Q1010=
METAR SBSP 110900Z 04003KT CAVOK 23/17 Q1017=
METAR SBTE 110900Z 27002KT 9999 FEW010 SCT030 BKN070 24/22 Q1011=
METAR SBUG 110900Z 28003KT 4000 TSRA BR BKN005 BKN012 FEW030CB OVC100
      20/19 Q1012=
METAR SCBA 110900Z AUTO 29008KT CAVOK 07/03 Q1019=
METAR SCCI 110900Z 29015KT 9999 SCT020 OVC100 11/06 Q1006 NOSIG=
METAR SCDA 110900Z 00000KT CAVOK 21/15 Q1011=
METAR SCEL 110900Z 33003KT CAVOK 15/06 Q1012 NOSIG=
METAR SCFA 110900Z 18004KT 9999 FEW015 19/16 Q1011 NOSIG=
METAR SCIE 110900Z 21005KT CAVOK 11/10 Q1013=
METAR SCSE 110900Z 06001KT 9999 FEW010 15/13 Q1011=
METAR SCTE 110900Z 21002KT 9999 FEW007 09/07 Q1022 NOSIG=
METAR SOCA 110900Z AUTO VRB01KT 9999 BKN002 BKN037 BKN072 22/21 Q1011=
METAR SUAA 110900Z 18012G22KT 9999 SCT026 BKN160 20/15 Q1013=
METAR SUDU 110900Z 00000KT 9999 SCT017 BKN200 19/18 Q1011=
METAR SULS 110900Z 17015KT 9999 OVC015 20/18 Q1012=
METAR SVMI 110900Z 00000KT 9999 FEW016 22/17 Q1013 NOSIG=
0000008400
569
SASA85 EGRR 110800 RRI
METAR SBBI 110800Z 21005KT CAVOK 21/18 Q1018=
0000032900
570
SAUK53 EGRR 110900
METAR EGUL 110858Z AUTO 28008KT 9999 CLR 05/05 A2997 RMK AO2 SLP152
      60000 T00470045 52039=
METAR EGUN 110858Z AUTO 29010KT 9999 CLR 05/05 A2998 RMK AO2 SLP156
      60000 T00450045 52037=
METAR EGVA 110858Z AUTO 24006KT 9999 CLR 01/01 A3004 RMK AO2 SLP179
      T00130011 52027=
0000297000
571
SIUK42 EGRR 110900
AAXX 11094
03002 45675 /2819 10059 20012 39973 49991 52013
  333 82/33 83/63 90710 91127=
03008 46/// /3016 10033 20021 39955 40029 53020
  333 90710 91135=
03010 46/// /2722 10061 20009 40051 53017
  333 90710 91131=
03031 47572 /2911 10005 21005 39764 40097 53022 785//
  333 553// 20003 82/27 83/37=
03034 47484 /2208 10027 20013 30081 40095 51026 723//
  333 81/15 86/64=
03037 45669 /1803 10007 20001 30083 40105 51023
  333 84/44=
03039 46/// /2922 11028 21034
  333 90710 91140=
03047 47083 /3103 10000 21013 39812 40122 53023 767//
  333 553// 20000 81/01 85/65=
03062 45684 /2207 10008 21002 30077 40082 51021
  333 553// 20000 84/33=
03065 46/// ///// 11061 21070=
03068 42584 12512 10013 21004 30073 40081 51023 81930
  333 81920 92600=
03072 46/// /2829 11043 21060
  333 90710 91157 91048=
03080 45984 /2709 10016 21032 39912 40086 52018
  333 8//99=
03088 45984 /2508 10004 21032 39921 40088 53021
  333 553// 20000 8//99=
03105 47669 /2714 10047 20027 30123 40140 51030 723//
  333 81/46=
03132 45984 /2811 10032 20017 30136 40150 51030
  333 8//99=
03144 45983 /2609 10017 20000 30071 40114 53020
  333 553// 20000 8//99=
03148 46/// /2816 11018 21022=
03153 45482 /2907 10023 20014 30003 40144 51030
  333 553// 20003 83/10=
03155 46363 /2411 10015 20006 39832 40136 53029
  333 82/09 85/25=
03158 45983 /2513 10025 21005 39973 40112 51021
  333 553// 20002 8//99=
03210 46972 /2915 10039 20023 39996 40150 52027
  333 81/59=
03212 47/81 /2905 10038 20019 30046 40147 52026 723//=
03214 47571 /3216 10038 20023 30134 40153 53028 781//
  333 81/21 86/39=
03220 46880 ///// 10019 20019 30107 40142 53027
  333 81/57=
03224 45071 /2812 10003 20003 39785 40139 53023
  333 82/01=
03225 46481 /2203 10007 21002 39838 40152 52027
  333 553// 20004 82/10=
03226 47483 /2803 10013 20004 39864 40146 53027 723//
  333 84/12 85/56=
03227 46/// /2724 11021 2////
  333 90710 91132=
03230 46980 /2904 10007 21003 39869 40132 52022
  333 81/58 85/60=
03238 45965 /2617 10019 20009 39942 40118 53018
  333 8//99=
03261 46971 /1803 10020 21001 30101 40142 51024
  333 81/62 87/65=
03265 45980 /1703 10003 21012 30111 40142 51026
  333 86/62=
03266 46975 /2508 10028 20007 30123 40140 51025
  333 82/58 86/62=
03275 45975 /2715 10031 20005 39935 40131 53025
  333 85/60=
03281 46/// /2609 10017 21004=
03901 45980 /1706 11002 21005 30073 40164 53020
  333 55300 20000 8//99=
03904 45676 /2202 11008 21014 30102 40164 53021
  333 81/43=
03907 45684 /2011 10022 20013 30147 40154 51022
  333 55300 20000 85/44=
03911 46050 /0000 11002 21007 39882 40164 53018
  333 85/01=
03915 46982 /1705 10003 21001 30076 40156 52024
  333 8//99=
03916 46688 /2504 10013 21007 39959 40154 52025
  333 553// 20000 87/43=
03923 47004 /2008 11005 21005 39963 40165 52023 734//
  333 86/01=
0000400200
572
SIUK43 EGRR 110900
AAXX 11094
03301 46481 /2908 10041 20022 30101 40176 53032
  333 87/15=
03305 45584 /2617 10039 20003 39912 40179 53033
  333 87/21 90710 91129=
03313 46580 /2609 10045 20020 30075 40171 53029
  333 85/23 86/32=
03316 47450 /2921 10053 20036 30149 40160 53028 780//
  333 81/14 83/20 86/25 90710 91128=
03318 46/// /3211 10043 20030=
03321 47583 /2505 10039 20026 30155 40167 52029 723//
  333 55300 20006 82/24 85/39=
03330 47463 /2506 10021 20019 39793 40162 51024 741//
  333 81/12 85/29=
03344 47468 /2706 10023 20011 39826 40150 53028 741//
  333 81/11 84/64=
03346 46/// /2815 10026 20012=
03351 47458 /2710 10036 20027 30118 40162 53029 781//
  333 55300 20004 84/11 84/31=
03373 46981 /2607 10025 20009 30076 40148 51034
  333 85/64=
03379 42680 22613 10031 20014 30076 40155 52037 82530
  333 82640=
03382 45973 /3005 10033 20013 30126 40135 51030
  333 55302 20030 82/64=
03385 46968 /2507 10036 20021 30130 40140 52034
  333 8//99=
03391 42980 22710 10038 20014 30142 40150 52037 82070
  333 81358=
03392 46970 /2809 10038 20027 30142 40146 52040
  333 8//99=
03405 465// /2817 10051 20019 30070 40188 52030
  333 553// 20008 84/20 90710 91126=
03409 46/// /2609 10042 20015 39970 40173 53026
  333 55300 2////=
03410 46581 /2611 10027 21002 39728 40171 53025
  333 553// 20015 81/28=
03469 45982 /2709 10038 20026 30147 40151 52039
  333 553// 20052 8//99=
03488 45783 /2813 10048 20033 30114 40140 53039
  333 81/50=
03503 45584 /3006 10053 20019 30105 40183 53029
  333 82/26 83/31=
03520 46569 /2604 10023 20015 30054 40178 51027
  333 553// 20046 81/23=
03522 45960 /2901 10015 20013 30088 40184 52028
  333 8//99=
03529 45982 /2005 10031 20021 30133 40177 51026
  333 8//99=
03544 45962 /2102 10025 20017 30033 40167 51028
  333 553// 20023 8//99=
03560 45981 /2910 10039 20025 30059 40164 53035
  333 553// 20052 8//99=
03604 46985 /3208 10046 20010 30140 40195 53029
  333 81/61=
03605 46980 /3107 10035 20024 30183 40192 53026
  333 8//99=
03609 46/// /2909 10052 20042 30142 40196 53026=
03628 45967 /2405 10033 20026 30111 40185 51029
  333 55303 20045 8//99=
03647 46971 /3006 10025 20021 39913 40174 53028
  333 553// 20060 8//99=
03658 43980 12503 10040 20030 30107 40178 52035 80001
  333 81070=
03660 45983 /3006 10037 20026 39922 40174 53033
  333 8//99=
03672 41986 13007 10054 20029 30132 40173 53036 70161 80001
  333 81080=
03680 46/// ///// 10043 20030 30011 40170 53034
  333 553// 20062=
03684 45481 /2909 10054 20036 30050 40157 53036
  333 81/13=
03693 45784 /3011 10066 20043 30156 40158 53031
  333 81/50=
03707 45684 /3206 10068 20027 30187 40194 52026
  333 81/32=
03710 46567 /3204 10022 20022 39767 40197 52028
  333 553// 20046 84/27=
03743 46979 /2906 10040 20026 30023 40187 52037
  333 8//99=
03749 46973 /3005 10035 20023 30072 40185 53035
  333 8//99=
03761 42680 12907 10045 20031 30034 40181 53036 81500
  333 55304 20069 81640=
03768 46982 /3005 10050 20035 30098 40179 53036
  333 8//99=
03769 45977 /2805 10058 20038 30089 40172 53035
  333 55302 20048 8//99=
03770 46/// ///// 10067 20035=
03781 45383 /2907 10049 20036 39962 40172 53034
  333 553// 20053 84/08=
03784 46/// /2812 10069 20041 30159 40163 53034=
03797 47680 /2811 10068 20042 30097 40158 53024 723//
  333 55300 20031 82/31 84/45=
03823 45581 /3305 10049 20040 39952 40199 53025
  333 553// 20049 87/26=
03839 46/// ///// 10034 20025
  333 553// 20054=
03857 45975 /3216 10071 20043 30126 40190 51035
  333 8//99=
03862 45972 /3005 10036 20028 30175 40187 53036
  333 55300 20026 8//99=
03866 46/// /3007 10060 20035 30159 40184 52039=
03872 47980 ///// 10058 20043 30174 40179 51036 723//
  333 553// 20063 8//99 91008=
03876 46/// /3410 10065 20042 30171 40174 53035=
03895 41483 13410 10076 20051 40199 52033 70165 81831 333 81818=
0000124100
573
SREW41 EGRR 110900
03002000 03005006 03008010 03017004 03026OTR 03031OTR 03034010
03037000 03047OTR 03062000 03063000 03066000 03068000 03075000
03080000 03088000 03091000 03100000 03105OTR 03111006 03132000
03134OTR 03136012 03144000 03153000 03155002 03158000 03162999
03166000 03171000 03204000 03210000 03212002 03214OTR 03220002
03224000 03225014 03226004 03230000 03238000 03240000 03257000
03261000 03265000 03266000 03275000 03281000 03292000 03301000
03302000 03305000 03313000 03316004 03318012 03321OTR 03330002
03344OTR 03346000 03351010 03354000 03373000 03377000 03379000
03382000 03391000 03392000 03405000 03409000 03410000 03414000
03462000 03469000 03482000 03488000 03502OTR 03503000 03520002
03522000 03529002 03535000 03544000 03560000 03590000 03604000
03605000 03609000 03628000 03647000 03649000 03658000 03660000
03672000 03684000 03693000 03707000 03710000 03716000 03740000
03743000 03746999 03749000 03761000 03768000 03769000 03770000
03772000 03781000 03797006 03803000 03808000 03809000 03823000
03827000 03839002 03840002 03853000 03857000 03862000 03866000
03872OTR 03876000 03882002 03901000 03904000 03907000 03911000
03915000 03916002 03917000 03923000=
0000008600
574
SAAI41 EGRR 110850
METAR FHAW 110850Z 13013KT 9999 FEW018 25/20 Q1014=
0000108500
575
SAUK63 EGRR 110850 RRB
METAR EGDX 110850Z AUTO 10001KT 9999 NCD 03/03 Q1018=
METAR EGDY 110850Z AUTO 20002KT 9999 NCD 04/03 Q1019=
METAR EGOM 110850Z AUTO 28012KT 9999 FEW001/// 00/00 Q1012=
METAR EGOP 110850Z AUTO 31007KT 9999 // NCD 04/02 Q1019=
METAR EGOS 110850Z AUTO 26005KT 9999 NCD 01/00 Q1016=
METAR EGOV 110850Z AUTO 30009KT 9999 FEW017/// 04/02 Q1017=
METAR EGQK 110850Z AUTO 24012KT 9999 NCD 02/M00 Q1008=
METAR EGUO 110850Z 25006KT 9999 FEW000 03/02 Q1019=
METAR EGUW 110850Z AUTO 30011KT 9999 BKN012/// 05/04 Q1014=
METAR EGVP 110850Z AUTO 30005KT 9999 // NCD 04/02 Q1018=
METAR EGXD 110850Z AUTO 18003KT 9999 // FEW120/// BKN150/// 02/M00 Q1014=
METAR EGXE 110850Z AUTO 26005KT 9999 FEW120/// BKN160/// 02/00 Q1013=
METAR EGXP 110850Z AUTO 26007KT 9999 // BKN140/// 03/01 Q1014=
METAR EGXS 110850Z AUTO 25007KT 9999 // NCD 04/02 Q1014=
METAR EGXU 110850Z AUTO 25008KT 9999 // FEW080/// BKN120/// 03/01 Q1013=
METAR EGXZ 110850Z AUTO 17003KT 9999 BKN120/// 00/M01 Q1014=
METAR EGYM 110850Z AUTO 28009KT 9999 NCD 04/04 Q1014=
0000035100
576
FTIN90 VILK 110900
TAF VILK 110900Z 1112/1218 32004KT 1000 BR/HZ FEW020 SCT100 BECMG
1114/1116 0500 MIFG/FG TEMPO 1113/1118 -RA/TSRA FEW030CB BKN090
BECMG 1117/1119 00000KT 0100 FG VV/// BECMG 1205/1207 09005KT 0800
MIFG FEW010 SCT025 BECMG 1207/1209 2500 HZ SCT020 SCT100 BECMG
1212/1214 VRB02KT 1000 BR/MIFG BECMG 1215/1217 0300 FG=

0000017500
577
SIIN90 VOMM 110900
AAXX 11094
43245 32597 30502 10296 20299 30103 40130 82401
  333 58008=
43243 32597 41405 10292 20190 30109 40134 81401
  333 58005=
0000069300
578
FTIN90 VILK 110900
TAF VILK 110900Z 1112/1218 32004KT 1000 BR/HZ FEW020 SCT100
BECMG 1114/1116 0500 MIFG/FG TEMPO 1113/1118 -RA/TSRA FEW030CB 
BKN090 BECMG 1117/1119 00000KT 0100 FG VV/// BECMG 1205/1207 
09005KT 0800 MIFG FEW010 SCT025 BECMG 1207/1209 2500 HZ SCT020 
SCT100 BECMG 1212/1214 VRB02KT 1000 BR/MIFG BECMG 1215/1217 0300 FG=
TAF VIBN 110900Z 1112/1218 32004KT 1000 BR/HZ FEW020 SCT100
BECMG 1114/1116 0500 MIFG/FG TEMPO 1113/1118 -RA/TSRA FEW030CB 
BKN090 BECMG 1117/1119 00000KT 0100 FG VV/// BECMG 1205/1207 
09005KT 0800 MIFG FEW010 SCT025 BECMG 1207/1209 2500 HZ SCT020 
SCT100 BECMG 1212/1214 VRB02KT 1000 BR/MIFG BECMG 1215/1217 0300 FG=

0000012100
579
SXIN90 VISM 110900
AAXX 11094
42000 AMSKNG 31696 11804 10172 20034 39306 40190 70500 81100 333
58015=
0000010400
580
SIIN90 VIJP 110900
AAXX 11094
42452 31994 00903 10180 20083 40172 70544
  333 58034=
0000010400
581
SIIN90 VISM 110900
AAXX 11094
42084 32596 22703 10100 20053 4//// 82100
  333 58019=
0000009300
582
SAIN90 VIDN 110900
METAR VIDN 110900Z 20005KT 6000 SCT030 BKN040 18/07 Q1017=
0000009200
583
SAIN90 VOTR 110910
METAR VOTR 110910Z 08006KT 7000 FEW016 30/19 Q1012 NOSIG=
0000011400
584
SIIN90 VABB 110900 COR
AAXX 11094
43111 32997 12306 10228 20084 38629 48511 80001
  333 59003=
0000075300
585
SIIN90 VAAH 110900
AAXX 11094
42647 31995 00708 10220 20112 40156 70400
  333 58023=
42539 32997 00204 10218 20060 40167
  333 58029=
42748 31996 00210 10244 20099 40140 70400
  333 58015=
42840 32996 00502 10234 20084 40148
  333 58005=
42737 32996 00708 10212 20088 40158
  333 58015=
42838 31995 00208 10196 20125 40154 70400
  333 58018=
42830 32996 00514 10232 20021 40158
  333 58006=
42909 32997 03612 10234 20045 40150
222// 20000
  333 58003=
42731 32996 03609 10222 20043 40173
222// 20000
  333 58011=
42730 32996 00904 10206 20040 40183
222// 20000
  333 58018=
42631 32997 00209 10216 20026 40183
  333 58025=
42634 32996 30211 10204 20043 40168 80001
  333 58021 83075=
00000000