0000017900
966
FTAU31 YBBN 102300
TAF YPAD 102300Z NIL=
TAF YBBN 102300Z NIL=
TAF YPDN 102300Z NIL=
TAF YMML 102300Z NIL=
TAF YPPH 102300Z NIL=
TAF YSSY 102300Z NIL=

0000074500
967
FTAU34 YBBN 102300
TAF YAMB 102221Z 1100/1118
10008KT 9999 SCT040
FM110500 09013KT 9999 SCT035
FM110900 10007KT 9999 FEW030
FM111400 VRB04KT 9999 FEW030
RMK=
TAF AMD YBHM 102256Z 1100/1112
11021KT 9999 SCT025 SCT035
FM110900 12020KT 9999 SCT018 SCT025
INTER 1104/1112 3000 SHRA BKN010
RMK=
TAF YBMA 102237Z 1100/1112
09012KT CAVOK
FM110200 11011KT 9999 -SHRA SCT050
PROB30 TEMPO 1104/1112 VRB20G30KT 2000 TSRA SCT020 SCT060CB
RMK=
TAF YPKU 102232Z 1100/1112
VRB05KT CAVOK
FM110500 10008KT CAVOK
PROB30 INTER 1105/1112 VRB25G45KT 2000 TSRA BKN025 FEW080CB
RMK=
TAF YPGV 102233Z 1100/1112
09014KT 9999 -SHRA FEW014 BKN020 
TEMPO 1100/1112 09025G40KT 1000 TSRA BKN007 SCT018CB
RMK=

0000015500
968
SAUS71 KWBC 102200 RRI
METAR
KMMU 102245Z 00000KT 3/4SM BR OVC005 00/M01 A3034=
KMYR 102245Z 14012KT 10SM BKN020 OVC045 18/16 A3015=

0000046900
969
SACU31 MUHA 102300
METAR
MUHA 102255Z 18004KT 9000 FEW040 26/19 Q1016=
MUVR 102253Z 04008KT 9000 SCT030 25/22 Q1017=
MUSC 102250Z 08008KT 9000 FEW020 25/21 Q1017=
MUCC 102250Z 09009KT 9000 FEW020 26/21 Q1017=
MUCM 102250Z 08012KT 9000 FEW020 24/15 Q1017=
MUHG 102250Z 08012KT 9999 FEW020 26/19 Q1016=
MUCU 102250Z 12014KT 9999 FEW020 27/20 Q1016=
MUCL 102252Z 12007KT CAVOK 26/23 Q1016=
MUCF 102250Z 22007KT 9999 FEW025 27/23 Q1016=

0000085300
970
FTTU31 LTAA 102300
TAF LTAC 102240Z 1100/1124 VRB02KT 4000 BR OVC007 PROB30 1103/1107
 1200 BCFG OVC003 BECMG 1107/1110 8000 SCT040 BECMG 1118/1121 4000 BR
 BKN006=
TAF LTAI 102240Z 1100/1124 VRB02KT 9999 SCT020 BKN200=
TAF LTBA 102240Z 1100/1206 VRB02KT 4000 BR NSC PROB30 1103/1106 1200
 BCFG BECMG 1106/1109 CAVOK BECMG 1122/1202 4000 BR=
TAF LTBJ 102240Z 1100/1124 VRB02KT 3200 BR NSC BECMG 1103/1105 1200
 BCFG PROB30 1105/1107 0700 FG VV001 BECMG 1107/1109 3500 BR BECMG
 1109/1111 7000=
TAF LTBS 102240Z 1100/1124 VRB02KT CAVOK BECMG 1108/1110 FEW030 BECMG
 1115/1117 CAVOK=
TAF LTFE 102240Z 1100/1124 VRB02KT 9999 FEW035 BKN100 PROB40
 1103/1106 3500 BCFG=
TAF COR LTFJ 102240Z 1100/1124 VRB02KT 9999 SCT012 BECMG 1101/1104
 4000 BR PROB40 TEMPO 1103/1106 1200 BCFG BKN004 BECMG 1106/1109
 CAVOK=

0000076500
971
FTTU32 LTAA 102300
TAF LTAF 102240Z 1100/1124 VRB02KT CAVOK BECMG 1103/1105 5000 BR
 BECMG 1106/1108 CAVOK BECMG 1115/1117 5000 HZ SCT035=
TAF LTAJ 102240Z 1100/1124 VRB02KT CAVOK=
TAF LTAZ 102240Z 1100/1124 VRB02KT 6000 BKN009 TEMPO 1100/1104 1500
 BCFG VV002 TEMPO 1104/1107 1500 BCFG VV002=
TAF LTBU 102240Z 1100/1124 VRB02KT 4000 BR SCT012 PROB40 1103/1106
 0700 FG BKN006 BECMG 1106/1110 CAVOK BECMG 1118/1121 3600 BR=
TAF LTCG 102240Z 1100/1124 21007KT CAVOK BECMG 1107/1110 28012KT
 FEW035 BKN180 BECMG 1113/1116 VRB02KT SCT015 BKN030 PROB30 1116/1120
 2500 -SHRA BR PROB30 1120/1124 3500 BR=
TAF LTCS 102240Z 1100/1124 VRB02KT CAVOK=
TAF LTFC 102240Z 1100/1124 VRB02KT 0300 FZFG VV002 BECMG 1112/1115
 4000 BR NSC=

0000075100
972
FTTU33 LTAA 102300
TAF LTAG 102240Z 1100/1124 03006KT CAVOK BECMG 1111/1113 SCT035=
TAF LTAP 102240Z 1100/1124 VRB02KT CAVOK PROB40 TEMPO 1104/1108 4000
 BR=
TAF LTAT 102240Z 1100/1124 VRB02KT CAVOK=
TAF LTAU 102240Z 1100/1124 VRB02KT 2900 BR BKN002 TEMPO 1100/1104
 0800 FZFG TEMPO 1104/1107 0800 FZFG BECMG 1107/1109 4500 SCT010
 BKN200 BECMG 1109/1111 8000 NSC BECMG 1117/1120 2500 BCFG BKN004=
TAF LTCC 102240Z 1100/1124 VRB02KT CAVOK PROB30 TEMPO 1103/1106 4000
 BR=
TAF LTCE 102240Z 1100/1124 VRB02KT 1200 BCFG NSC BECMG 1100/1102 0400
 FZFG VV002 BECMG 1105/1107 1600 BR BECMG 1109/1111 4000 SCT030 BECMG
 1112/1113 7000 NSC=
TAF LTCJ 102240Z 1100/1124 VRB02KT CAVOK PROB30 TEMPO 1103/1107 2500
 BR=

0000014300
973
FTCU31 MUHA 102300
TAF
MUVR 102300Z 1100/1124 04013KT 9000 SCT020 BECMG 1103/1105 
     08003KT BECMG 1113/1115 07013KT=

0000004600
974
FTTU34 LTAA 102300
TAF NIL=

0000009800
975
SAUS74 KWBC 102200 RRE
METAR
KSBD 102249Z 00000KT 6SM HZ FEW250 23/M01 A3003=

0000009700
976
SAUS75 KWBC 102200 RRE
METAR
PADL 102245Z 36007KT 10SM BKN015 M03/M03 A2947=

0000014300
977
FTCU31 MUHA 102300
TAF
MUCM 102300Z 1100/1124 08014KT 9000 SCT020 BECMG 1103/1105 
     07004KT BECMG 1113/1115 09014KT=

0000067000
978
SAGR31 LGAT 102250
METAR LGAD 102250Z NIL=
METAR LGAV 102250Z 00000KT CAVOK 10/07 Q1019 NOSIG=
METAR LGIR 102250Z 17007KT CAVOK 11/09 Q1021 NOSIG=
METAR LGKL 102250Z AUTO 30004KT //// // ////// 10/08 Q1022
     RE//=
METAR LGKO 102250Z 12005KT 9999 BKN025 10/08 Q1021=
METAR LGKR 102250Z 00000KT 9999 FEW014 SCT018 BKN070 11/10 Q1022
 NOSIG=
METAR LGLM 102250Z AUTO VRB02KT //// // ////// 11/09 Q1020
     RE//=
METAR LGRP 102250Z 00000KT 9999 FEW018 12/08 Q1021 NOSIG=
METAR LGSA 102250Z 27014KT 9999 FEW020 14/10 Q1020=
METAR LGSM 102250Z NIL=
METAR LGTS 102250Z VRB03KT 7000 FEW010 SCT025 BKN180 06/04 Q1020
      NOSIG=

0000025600
979
SACZ31 LKPW 102300
METAR LKKV 102300Z 28004KT CAVOK 00/M01 Q1017=
METAR LKMT 102300Z 21009KT CAVOK 02/M02 Q1018 NOSIG=
METAR LKPR 102300Z 22012KT CAVOK 03/00 Q1018 NOSIG=
METAR LKTB 102300Z 18004KT 140V230 CAVOK 02/M01 Q1019 NOSIG=

0000033800
980
SAIL31 BICC 102300
METAR BIAR 102300Z 15008KT 110V190 9999 -SN BKN029 OVC049 02/M02
    Q0996=
METAR BIEG 102300Z 06017KT 7000 -SN SCT012 OVC020 01/M01 Q0997 RMK
R04/790140
RWY SANDED=
METAR BIKF 102300Z 27015KT 9999 FEW044 BKN055 BKN070 02/M04 Q0992=
METAR BIRK 102300Z 27010KT 1500 -SN VV006 00/M01 Q0992=

0000008900
981
SAJM31 MKJS 102300
METAR MKJS 102300Z 10008KT 9999 FEW022 27/25 Q1014=

0000050700
982
SAYG31 LYBM 102300
METAR LYBE 102300Z 16005KT 8000 NSC 07/04 Q1023 NOSIG=
METAR LYBT 102300Z VRB02KT 0500 FG NSC 04/04 Q1023 NOSIG=
METAR LYKV 102300Z 01001KT 9999 SCT040 04/01 Q1023 NOSIG=
METAR LYNI 102300Z VRB01KT CAVOK 02/00 Q1023=
METAR LYPG 102300Z VRB02KT 6000 FEW100 07/06 Q1023 TEMPO 3000=
METAR LYPR 102300Z NIL=
METAR LYTV 102300Z VRB01KT CAVOK 07/06 Q1022=
METAR LYUZ 102300Z VRB02KT 8000 BKN020 04/04 Q1021=
METAR LYVR 102300Z VRB02KT CAVOK 04/01 Q1023 NOSIG=

0000023300
983
FTUS31 KWBC 102303 AAA
TAF AMD
KBNA 102302Z 1023/1118 17012G20KT P6SM BKN015 OVC025
     FM110500 19015G25KT 3SM -SHRA BR OVC009
      TEMPO 1107/1111 2SM TSRA OVC007CB
     FM111400 26010G20KT P6SM OVC040=

0000026500
984
FTUS44 KWBC 102303 AAA
TAF AMD
KCTB 102300Z 1023/1118 27015KT P6SM BKN120
     FM111100 22025G35KT P6SM BKN120=
KGTF 102300Z 1023/1118 24015G22KT P6SM SCT050 BKN120
     FM110300 22015KT P6SM BKN100
     FM111100 20020G30KT P6SM BKN100=

0000023300
985
FTUS72 KWBC 102303 AAA
TAF AMD
KBNA 102302Z 1023/1118 17012G20KT P6SM BKN015 OVC025
     FM110500 19015G25KT 3SM -SHRA BR OVC009
      TEMPO 1107/1111 2SM TSRA OVC007CB
     FM111400 26010G20KT P6SM OVC040=

00000000