0000015700
454
SSVX13 LFPW 110800
ZZYY 62714 11014 0800/ 734335 021723 6113/ 11119 40141 57002 22219
 00192 444 20130 11014 0757/ 50101 80100 80000 9/015=
0000069400
455
SNVD19 KWNB 110800 RRA
BBXX
46126 11081 99540 71666 46/// /0000 10042 49814 90736 22200 00047
1//00 70001 333 91201 555 11004 22005=
46126 11081 99540 71666 46/// /0000 10042 49814 90740 22200 00047
1//00 70001 333 91201 555 11004 22005=
46126 11081 99540 71666 46/// /2102 10042 49814 90742 22200 00047
1//00 70001 333 91203 555 11017 22019=
46126 11081 99540 71666 46/// /2102 10041 49812 90745 22200 00046
1//00 70001 333 91203 555 11017 22019=
46078 11081 99560 71526 46/// /2308 10037 20023 49952 58010 90750
22200 00044 11105 20703 322// 41104 70023 333 91210 555 11088
22093 30748 42310 60749 233084 234084 233083 232081 228083 233082
82309 90741=
0000022600
456
SNVD20 KWNB 110800 RRE
BBXX
44013 11081 99423 70707 46/// /1303 10042 20042 40233 58021 90750
22200 00046 10301 70003 333 91203 555 11028 22029 30715 41504
60749 134027 138025 148029 151028 152029 153026=
0000023800
457
SAJD20 OJAI 110800
METAR COR OJAI 110800Z 30004KT 2000 BR SCT010 BKN020 09/08 Q1024
NOSIG=
METAR OJAM 110800Z 00000KT 1000 FG BKN025 08/06 Q1024 NOSIG=
METAR OJAQ 110800Z 00000KT 9999 SCT030 SCT035 14/08 Q1025 NOSIG=
0000023800
458
SAJD20 OJAM 110800
METAR COR OJAI 110800Z 30004KT 2000 BR SCT010 BKN020 09/08 Q1024
NOSIG=
METAR OJAM 110800Z 00000KT 1000 FG BKN025 08/06 Q1024 NOSIG=
METAR OJAQ 110800Z 00000KT 9999 SCT030 SCT035 14/08 Q1025 NOSIG=
0000049500
459
SNVF11 BIRK 110800
BBXX
TFBKF 11084 99635 70202 46/// ///// 22200 10704 70021=
TFGRS 11084 99663 70182 46/// ///// 22200 10705 70026=
TFGRV 11084 99638 70225 46/// ///// 22200 10805 70026=
TFGSK 11084 99641 70229 46/// ///// 22200 10807 70033=
TFHFN 11084 99642 70152 46/// ///// 22200 10806 70032=
TFKGR 11084 99657 70136 46/// ///// 22200 10810 70049=
TFSRT 11084 99633 70203 46/// ///// 22200 10907 70035=
TFSTD 11084 99664 70234 46/// ///// 22200 10707 70034=
0000040300
460
SNVE15 KWNB 110800 RRA
BBXX
51004 11081 99175 71524 46/// /1008 10248 40141 51015 90750 22200
00249 10905 20703 309// 40904 70024 333 91209 555 11083 22089
30657 42710 60749 105078 277076 277067 276070 278073 278080=
51100 11081 99236 71539 46/// /0810 10235 40164 52008 90750 22200
00244 333 91212 555 11107 22113 30700 41016 60749 083100 080102
078100 079095 083101 082097=
0000042700
461
SNVD22 KWNB 110800 RRF
BBXX
46069 11081 99337 71202 46/// /3406 10147 40193 51013 90750 22200
00140 11405 20502 3//// 41405 70025 333 91207 555 11064 22070
30658 43309 60749 336059 334059 331060 328062 330066 326070=
46088 11081 99483 71232 46/// /1512 10094 20074 49940 56076 90750
22200 00074 10602 20602 70012 333 91215 555 11134 22146 30704
41418 60749 146125 145125 143122 142126 145131 146128=
0000015700
462
SNVD03 CWAO 110800
BBXX
CFL24 11084 99438 70606 47499 42518 10032 21002 40281 58003 7//// 81/// 222// 0//// 10603 70016 333 81/14 83/36=

0000011100
463
UANT99 KDDL 110803
ARP UAL938 5058N04007W 0803 F350 MS57 319/39 KT
N651UA DDL XXW 110803 F12A
0000011000
464
UANT99 KDDL 110803
ARP ETD130 5743N02350W 0803 F330 MS60 240/73 KT
A6EHJ QXT AOE 110803 J52A
0000011000
465
UANT99 KDDL 110803
ARP UAE216 6102N02811W 0803 F350 MS55 218/33 KT
A6EEP DDL XXH 110803 J21A
0000011000
466
UANT99 KDDL 110803
ARP KLM758 4607N01944W 0803 F340 MS59 221/69 KT
PHBVB QXT EUA 110803 F75A
0000011100
467
UANT99 KDDL 110804
ARP NAX7002 6010N01842W 0804 F410 MS50 352/38 KT
EILNC QXS REK 110804 L26A
0000011100
468
UANT99 KDDL 110804
ARP RCH570 5102N01813W 0804 F350 MS64 233/70 KT
44132A DDL XXN 110804 F56A
0000028800
469
SXHW11 KWAL 110805
B15017A0 011080503"
1,140111,07:00:00,10.8,79,14.6,11.5,1015.2,6.03,12.9,
1,140111,07:15:00,9.6,80,14.2,11.5,1015.4,6.03,12.9,
1,140111,07:30:00,9.0,76,12.6,11.5,1015.5,6.03,12.9,
1,140111,07:45:00,9.4,79,13.7,11.5,1015.3,6.03,12.9, 41+0NN 210W
0000037900
470
SNVD15 KWNB 110800 RRE
BBXX
41043 11081 99211 70650 46/// ///11 1//// 40191 56012 90750 22200
00264 10906 20906 301// 41402 70032 333 91213 555 11118 22126
8//16 90716=
41036 11081 99342 70769 46/// /1911 10218 20195 40177 58016 90750
22200 00210 10805 20805 70026 333 91213 555 11114 22123 30708
41915 60749 188106 187113 193116 193113 191123 187115=
0000013500
471
SNVD02 CWAO 110800
BBXX
SHIP 11084 99482 70473 46/// /2821 11014 21060 40162 53007 7//// 8//// 22221 0//// 2//// =

0000013500
472
SNVD02 CWAO 110800
BBXX
SHIP 11084 99433 70798 46/// /0402 10017 20018 40063 58051 7//// 8//// 22200 0//// 2//// =

0000013500
473
SNVD02 CWAO 110800
BBXX
SHIP 11084 99539 10074 46/// /2610 10078 20077 40091 56006 7//// 8//// 22223 00070 2//// =

00000000