0000034100
786
SANO34 ENMI 102150
METAR ENBN 102150Z NIL=
METAR ENBV 102150Z 23006KT 9999 VCSH FEW013 SCT039 BKN061 M06/M07
           Q1016=
METAR ENFG 102150Z NIL=
METAR ENHF 102150Z 00000KT CAVOK M11/M13 Q1016 RMK WIND 1254FT
           VRB02KT=
METAR ENRA 102150Z 12010G20KT CAVOK M10/M20 Q1010=
METAR ENSH 102150Z NIL=

0000009800
787
SAPM31 MPTO 102200
METAR 
MPTO 102200Z 03004KT 9999 FEW020 31/19 Q1007 NOSIG=

0000009800
788
SABZ20 SBTT 102200
METAR SBTT 102200Z 04006KT 9999 FEW016 SCT100 27/23
Q1007=

0000011200
789
SABW31 VGHS 102150
METAR VGHS 102150Z 00000KT 0500 FG BKN005 14/13 Q1013 TEMPO S/VIS
0300M=

0000012400
790
SANO38 ENMI 102150 RRA
METAR ENEK 102150Z 25023KT 9999 -RA FEW010 BKN020 07/07 Q1004
           W08/S4=

0000069800
791
SAGR31 LGAT 102150
METAR LGAD 102150Z 00000KT 9999 BKN020 12/09 Q1022=
METAR LGAV 102150Z 36002KT CAVOK 10/07 Q1019 NOSIG=
METAR LGIR 102150Z 17010KT CAVOK 12/09 Q1021 NOSIG=
METAR LGKL 102150Z AUTO 32004KT //// // ////// 10/08 Q1022
     RE//=
METAR LGKO 102150Z 13006KT 9999 BKN025 10/08 Q1021=
METAR LGKR 102150Z 00000KT 9999 FEW014 SCT018 BKN070 11/10 Q1022
 NOSIG=
METAR LGLM 102150Z AUTO VRB03KT //// // ////// 12/09 Q1020
     RE//=
METAR LGRP 102150Z 00000KT 9999 FEW018 13/08 Q1021 NOSIG=
METAR LGSA 102150Z 27015KT 9999 FEW020 14/10 Q1021=
METAR LGSM 102150Z NIL=
METAR LGTS 102150Z 32004KT 8000 FEW010 SCT025 BKN180 08/06 Q1020
      NOSIG=

0000104000
792
SAMX43 MMMZ 102200
METAR MMCL 102141Z 00000KT 10SM  SCT100 OVC230 25/16 A2992 
      RMK 8/038 BINOVC=
METAR MMCN 102142Z 26008KT 10SM  FEW200 26/01 A2990 RMK 8/005 HZY=
METAR MMDO 102140Z 20014KT 14SM  BKN250 20/M12 A3009 
      RMK 8/004 ISOL CU 2QUAD=
METAR MMGM 102143Z 18007KT 10SM  SKC 24/07 A2989 RMK HZY=
METAR MMHO 102152Z 00000KT 10SM  SKC 26/M03 A2997 RMK HZY=
METAR MMLM 102145Z 31010KT 10SM  FEW100 BKN220 22/08 A2994 
      RMK 8/058 HZY=
METAR MMLP 102142Z 36017KT 10SM  FEW120 SCT200 22/11 A2997 
      RMK 8/038 ISOL SC=
METAR MMLT 102141Z 04015KT 8SM  FEW100 FEW200 20/12 A2995 RMK 8/036=
METAR MMML 102144Z 00000KT 10SM  SKC 24/M03 A3003 RMK HZY CI W=
METAR MMMZ 102140Z 26009KT 15SM  BKN220 25/12 A2987 RMK 8/004 ISOL
CC=
METAR MMSD 102150Z 14005KT 15SM  FEW040 BKN120 BKN250 23/12 A2993 
      RMK 8/138=
METAR MMSL 102141Z 00000KT 12SM  SCT025 BKN100 BKN120 22/16 A2990 
      RMK 8/570 ISOL CI=
METAR MMTJ 102143Z 28010KT 5SM  FEW210 21/06 A3007 RMK 8/009 HZY=

0000040800
793
SAFI34 EFHK 102150
EFET 102150Z AUTO 05002KT 9999 -SHSN FEW009 M27/M29 Q1013=
EFIV 102150Z AUTO 25001KT 9000 OVC004 M31/M34 Q1016=
EFKE 102150Z AUTO 03014KT 360V060 8000 -SG OVC046 M13/M16 Q1007=
EFKI 102150Z AUTO 05013KT 030V090 9999 -SG FEW017 BKN052 M10/M13
Q1000=
EFKS 102150Z AUTO 04006KT 360V090 CAVOK M17/M20 Q1006=
EFKT 102150Z AUTO 03006KT 350V070 CAVOK M19/M22 Q1013=

0000028100
794
FTUS72 KWBC 102157 AAA
TAF AMD
KMLB 102154Z 1022/1118 13008KT P6SM VCSH SCT020 SCT035 BKN200
      TEMPO 1022/1024 5SM SHRA BKN020 BKN025
     FM110000 14006KT P6SM OVC120
     FM110800 16005KT 5SM BR BKN010
     FM111400 19010G15KT P6SM SCT015 BKN150=

0000026100
795
FTUS73 KWBC 102157 AAA
TAF AMD
KAXN 102156Z 1022/1118 18009KT 1/2SM FZFG OVC002
     FM102300 20007KT 2SM BR BKN006 OVC015
     FM110300 27006KT P6SM SCT200
     FM110800 31010KT P6SM SCT025 BKN040
     FM111600 30010KT P6SM SCT250=

0000010100
796
SABZ24 SBCR 102200
METAR SBCR 102200Z 02014KT 9999 SCT030 FEW035TCU
28/22 Q1007=

0000011500
797
SABZ19 SBBE 102200
METAR SBBE 102200Z 01005KT 9999 -RA SCT020
FEW025TCU BKN100 24/22 Q10
09=

0000008900
798
SABZ21 SBAR 102200
METAR SBAR 102200Z 11013KT 9999 SCT015 27/22 Q1012=

0000010000
799
SAUS71 KWBC 102100 RRI
METAR
KMTN 102145Z 00000KT 1SM BR FG OVC003 03/03 A3033=

0000008900
800
SABZ21 SBFZ 102200
METAR SBFZ 102200Z 07010KT 9999 FEW020 27/21 Q1010=

0000013100
801
SABZ24 SBPA 102200
METAR SBPA 102200Z 03005KT 6000 -TSRA FEW017 SCT040
FEW048CB OVC090 2
3/21
 Q1013 RERA=

0000009700
802
SAUS75 KWBC 102100 RRF
METAR
PADL 102145Z 02007KT 10SM BKN015 M03/M03 A2948=

0000012100
803
SAUK36 EGGY 102150 RRA
METAR EGVN 102150Z 20006KT 9999 -RA BKN040 08/06 Q1012 TEMPO 7000
    SCT022=

0000013200
804
FTBR31 TBPB 102155
TAF TBPB 102200Z 1100/1124 06018KT 9999 SCT018 TEMPO
     1100/1112 8000 SHRA BKN014 BKN035=

0000009500
805
SPCN52 CWAO 102145
SPECI CZFN 102145Z 00000KT 20SM SCT040 BKN080 RMK SC2AC3=

00000000