0000012900
946
SACN62 CYDB 102200
METAR CYDB 102200Z 29005KT 30SM FEW005 SCT025 BKN140 M17/M19 A2929
 RMK ST2SC2AC2 SLP993=

0000011900
947
SACN62 CYGP 102200
METAR CYGP 102200Z 00000KT 15SM FEW035 BKN120 M08/M13 A3014 RMK
 SC2AC5 SLP209=

0000013000
948
SACN62 CYEV 102200
METAR CYEV 102200Z 28009G15KT 3SM -SN DRSN SCT014 OVC048 M25/M28
 A2973 RMK SC4SC4 SLP076=

0000013400
949
SACN61 CYDQ 102200
METAR CYDQ 102200Z AUTO 25013G21KT 9SM CLR M01/M09 A2948 RMK MAX WND
 26020KT AT 2145Z SLP025=

0000010700
950
SACN62 CYGK 102200
METAR CYGK 102200Z 16009KT 5SM BR OVC017 00/M01 A3019 RMK ST8 SLP229=

0000057600
951
SASP31 LEMM 102200
METAR LEMD 102200Z 21003KT 170V270 CAVOK 11/04 Q1016 NOSIG=
METAR LEBL 102200Z 33007KT 5000 BR SCT025 10/06 Q1019 NOSIG=
METAR LEPA 102200Z VRB01KT CAVOK 11/10 Q1018 NOSIG=
METAR LEZL 102200Z 03002KT CAVOK 10/09 Q1014 NOSIG=
METAR LEMG 102200Z 30005KT 9999 FEW020 12/10 Q1016 NOSIG=
METAR LEVC 102200Z VRB02KT 6000 OVC020 11/08 Q1018 NOSIG=
METAR LEAL 102200Z VRB02KT 8000 FEW015 11/09 Q1017 NOSIG=
METAR LEIB 102200Z 00000KT 9000 BKN015 13/11 Q1017 NOSIG=
METAR LEVX 102200Z 02004KT 6000 FEW024 08/08 Q1016 TEMPO 3000 BR=

0000066300
952
SASP32 LEMM 102200
METAR LEAS 102200Z 29005KT 4000 -DZ FEW002 SCT014 BKN022 10/10
Q1017 TEMPO 2000 DZ BKN010=
METAR LEBB 102200Z VRB01KT 9000 SCT014 BKN022 11/09 Q1017 TEMPO
3000 DZ BKN012=
METAR LECO 102200Z 19003KT 6000 VCFG NSC 08/07 Q1017=
METAR LEGE 102200Z 00000KT 6000 OVC017 09/07 Q1018=
METAR LEST 102200Z VRB02KT 5000 BR FEW004 07/07 Q1017 TEMPO 3000
BR=
METAR LEZG 102200Z 09004KT 2000 BR OVC004 06/06 Q1018=
METAR LESO 102200Z NIL=
METAR LEVT 102200Z 00000KT 7000 NSC 04/03 Q1016=
METAR LERS 102200Z NIL=
METAR LEMH 102200Z NIL=
METAR LEAM 102200Z NIL=
METAR LEGR 102200Z VRB02KT 9999 FEW100 08/06 Q1015=

0000013500
953
SASP33 LEMM 102200
METAR LEVD 102200Z NIL=
METAR LEVS 102200Z NIL=
METAR LESA 102200Z 00000KT CAVOK 02/01 Q1015=

0000024300
954
SASP34 LEMM 102200
METAR LEDA 102200Z NIL=
METAR LEJR 102200Z 00000KT 8000 NSC 11/10 Q1014=
METAR LELL 102200Z NIL=
METAR LEPP 102200Z 09003KT 9000 NSC 06/05 Q1017=
METAR LEXJ 102200Z 23003KT 9999 BKN033 11/09 Q1017=

0000035800
955
SACR31 LEMM 102200
METAR GCLP 102200Z 36008KT 9999 FEW023 18/10 Q1016 NOSIG=
METAR GCXO 102200Z 30010KT 270V330 CAVOK 11/09 Q1017 NOSIG=
METAR GCTS 102200Z 36005KT 9999 FEW030 SCT090 16/12 Q1016 NOSIG=
METAR GCRR 102200Z 36006KT 9999 FEW020 15/10 Q1016=
METAR GCFV 102200Z 34006KT 9999 FEW020 15/11 Q1016=
METAR GCLA 102200Z NIL=

0000022700
956
SASP35 LEMM 102200
METAR LEAB 102200Z 16004KT 9999 FEW013 07/06 Q1016 NOSIG=
METAR LEBZ 102200Z NIL=
METAR LELC 102200Z NIL=
METAR LELN 102200Z NIL=
METAR LETO 102200Z 22004KT CAVOK 09/05 Q1016 NOSIG=

0000019000
957
FTCA31 TTPP 101600 RRB
TAF
TLPL 102100Z 1100/1200 08018G28KT 9999 SCT023 
      TEMPO 1100/1112 SHRA BKN020 SCT040 
      PROB30 TEMPO 1104/1109 5000 SHRA FEW018TCU=

0000008800
958
SASP39 LEMM 102200
METAR LETL 102200Z AUTO 15003KT CAVOK 05/02 Q1017=

0000004200
959
SACR32 LEMM 102200
NIL=

0000009200
960
SARO33 LROM 102200 CCA
METAR COR LRSV 102200Z 28012KT CAVOK 04/M03 Q1014=

0000010600
961
SACN61 CYHU 102200
METAR CYHU 102200Z AUTO 03004KT 7SM OVC020 M07/M09 A3027 RMK SLP253=

0000010700
962
SACN62 CYHM 102200
METAR CYHM 102200Z 18008KT 1/2SM FG VV002 02/01 A3007 RMK FG8 SLP194=

0000010600
963
SACN62 CYHK 102200
METAR CYHK 102200Z 25012KT 15SM BKN032 M33/M37 A2945 RMK SC5 SLP981=

0000010600
964
SACN62 CYHZ 102200
METAR CYHZ 102200Z 21012KT 15SM OVC023 M02/M06 A3035 RMK SC8 SLP288=

0000011500
965
SACN62 CYIO 102200
METAR CYIO 102200Z 20008KT 2SM -SN OVC030 M22/M24 A2914 RMK SN2SC6
 SLP876=

00000000