0000025300
866
SNAA19 LFVW 111000 RRA
AAXX 11104
89659 46/// /3006 11194 29073 37747 4//// 5////=
89666 46/// /1407 11026 29076 39805 4//// 5////=
89661 46/// /0902 11040 29086 39347 4//// 5////=
89648 46/// /1802 11207 29072 37233 4//// 5////=
0000737000
867
SSVX11 LFVW 110950 RRB
ZZYY 52086 11014 03004 305034 156024 6113/
11119 03216 10264 40065
22219 00304
33311 88872 20000 33036 20002 33036 43476 20025 33040 43478
20050 33036 20075 32975 43515 20100 32958 20125 32806 43571
20150 32656 43602 20200 32323 43602 20250 31687 43537
20300 31232 43493 20500 30734 43452 20750 30574 43451
444 20130 11014 0253/ 522// 60381=
ZZYY 52086 10014 21004 305042 156032 6111/
11119 03010 10279 40073
22219 00304
33311 88872 20000 33040 20002 33040 43465 20025 33043 43480
20050 33041 20075 32971 43514 20100 32947 20125 32826 43567
20150 32615 43606 20200 32184 43588 20250 31505 43517
20300 31159 43486 20500 30750 43454 20750 30558 43450
444 20110 10014 2114/ 522// 60381=
ZZYY 52086 10014 23004 305031 156019 6113/
11119 02812 10270 40079
22219 00304
33311 88872 20000 33041 20002 33041 43476 20025 33043 43479
20050 33041 20075 32971 43515 20100 32941 20125 32757 43580
20150 32590 43609 20200 32180 43591 20250 31582 43527
20300 31151 43487 20500 30754 43453 20750 30568 43450
444 20130 10014 2244/ 522// 60381=
ZZYY 52086 11014 06004 305029 156030 6113/
11119 03214 10277 40054
22219 00304
33311 88872 20000 33036 20002 33036 43477 20025 33038 43478
20050 33034 20075 32965 43514 20100 32954 20125 32804 43573
20150 32681 43595 20200 32233 43598 20250 31462 43513
20300 31037 43477 20500 30728 43452 20750 30564 43451
444 20130 11014 0626/ 522// 60381=
ZZYY 52083 11014 01004 107969 156028 6113/
11119 00715 10284 29078 40093
22219 00290
33311 88872 20000 32904 20002 32904 43380 20025 32904 43396
20050 32904 43395 20075 32903 43395 20100 32826 43467
20125 32518 43498 20150 32148 43507 20200 31344 43456
20250 31068 43455 20300 30978 43459 20750 30589 43454
444 20130 10014 2337/ 522// 60381=
ZZYY 52083 10014 23004 107966 156028 6112/
11119 00815 10290 29072 40101
22219 00290
33311 88872 20000 32902 20002 32902 43380 20025 32902 43396
20050 32903 43396 20075 32903 43395 20100 32729 43474
20125 32404 43498 20150 32067 43500 20200 31405 43455
20250 31071 43454 20300 30975 43459 20750 30582 43453
444 20120 10014 2243/ 522// 60381=
ZZYY 52083 10014 21004 107970 156033 6112/
11119 00614 10286 29074 40093
22219 00290
33311 88872 20000 32901 20002 32901 43380 20025 32902 43396
20050 32903 43396 20075 32903 43396 20100 32703 43479
20125 32339 43505 20150 31754 43485 20200 31281 43455
20250 31025 43457 20300 30967 43461 20750 30000
444 20120 10014 2147/ 522// 60381=
ZZYY 52083 11014 06004 107962 156038 6111/
11119 00717 10289 29070 40063
22219 00291
33311 88872 20000 32907 20125 32383 43498 20150 31935 43492
20200 31376 43455 20250 31066 43454
444 20110 11014 0627/ 522// 60381=
ZZYY 52083 11014 02004 107964 156027 6113/
11119 00717 10288 29074 40085
22219 00291
33311 88872 20000 32906 20002 32906 43380 20025 32904 43396
20050 32904 43395 20075 32903 43395 20100 32796 43467
20125 32478 43500 20150 32053 43502 20200 31347 43455
20250 31067 43456 20300 30972 43459 20750 30588 43453
444 20130 11014 0303/ 522// 60381=
ZZYY 52083 11014 00004 107969 156028 6113/
11119 00716 10289 29073 40099
22219 00290
33311 88872 20000 32903 20002 32903 43380 20025 32903 43396
20050 32904 43395 20075 32903 43395 20100 32788 43468
20125 32477 43500 20150 32134 43504 20200 31395 43456
20250 31087 43454 20300 30985 43460 20750 30584 43453
444 20130 10014 2337/ 522// 60381=
ZZYY 52083 10014 22004 107970 156028 6112/
11119 00716 10290 29071 40099
22219 00290
33311 88872 20000 32901 20002 32901 43380 20025 32902 43396
20050 32903 43396 20075 32902 43398 20100 32699 43478
20125 32406 43498 20150 32006 43498 20200 31330 43455
20250 31031 43457 20300 30965 43460 20750 30000=
ZZYY 52083 10014 20004 107968 156030 6112/
11119 00610 10275 29082 40087
22219 00290
33311 88872 20000 32901 20002 32901 43380 20025 32902 43396
20050 32903 43396 20075 32899 43405 20100 32662 43476
20125 32234 43501 20150 31761 43480 20200 31304 43453
20250 31046 43455 20300 30967 43460 20750 30586 43453
444 20120 10014 1946/ 522// 60381=
ZZYY 52077 11014 0000/ 102082 146984 6113/
33311 88872 20025 33003 20050 32996 20075 32986 43512
20100 32882 43528 20125 32629 43522 20150 32448 43522 20200 31664
20250 31159 20300 31040 43472 20500 30828 43460 20750 30614 43453
444 20130 10014 2338/ 522//=
ZZYY 52077 10014 2000/ 102082 146982 6113/
33311 88872 20025 33000 20050 33000 20075 32926 43526
20100 32741 43515 20125 32580 43526 20150 32368 43510 20200 31649
20250 31151 20300 31043 43474 20500 30830 43459 20750 30614 43453
444 20130 10014 1946/ 522//=
ZZYY 52077 11014 0600/ 102080 146982 6113/
33311 88872 20025 32999 20050 32993 20075 32919 43525
20100 32718 43516 20125 32631 43522 20150 32481 43522 20200 31675
20250 31131 20300 31018 43471 20500 30805 43459 20750 30608 43453
444 20130 11014 0626/ 522//=
ZZYY 52077 11014 0800/ 102081 146980 6113/
33311 88872 20025 33000 20050 32993 20075 32916 43527
20100 32707 43518 20125 32583 43525 20150 32437 43520 20200 31663
20250 31142 20300 31016 43471 20500 30809 43458 20750 30601 43452
444 20130 11014 0805/ 522//=
ZZYY 52077 11014 0200/ 102079 146982 6113/
33311 88872 20025 33001 20050 32995 20075 32978 43520
20100 32892 43529 20125 32679 43519 20150 32520 43522 20200 31689
20250 31140 20300 31019 43472 20500 30802 43457 20750 30600 43453
444 20130 11014 0255/ 522//=
ZZYY 52077 11014 0400/ 102077 146984 6113/
33311 88872 20025 32999 20050 32995 20075 32932 43526
20100 32719 43519 20125 32626 43524 20150 32485 43522 20200 31812
20250 31200 20300 31036 43473 20500 30790 43458 20750 30599 43453
444 20130 11014 0436/ 522//=
ZZYY 52077 10014 2200/ 102080 146985 6112/
33311 88872 20025 32999 20050 32997 20075 32967 43523
20100 32848 43522 20125 32623 43522 20150 32433 43519 20200 31668
20250 31167 20300 31048 43473 20500 30830 43460 20750 30624 43453
444 20120 10014 2203/ 522//=
ZZYY 52077 11014 0500/ 102082 146983 6113/
33311 88872 20025 32999 20050 32995 20075 32868 43522
20100 32676 43518 20125 32590 43525 20150 32437 43520 20200 31719
20250 31189 20300 31048 43474 20500 30810 43458 20750 30611 43453
444 20130 11014 0449/ 522//=
ZZYY 52077 11014 0700/ 102080 146980 6113/
33311 88872 20025 33000 20050 32995 20075 32942 43527
20100 32709 43516 20125 32592 43524 20150 32443 43521 20200 31666
20250 31114 20300 30995 43470 20500 30799 43458 20750 30602 43452
444 20130 11014 0651/ 522//=
ZZYY 52077 11014 0100/ 102082 146984 6113/
33311 88872 20025 32999 20050 32996 20075 32971 43524
20100 32828 43527 20125 32649 43521 20150 32500 43520 20200 31678
20250 31150 20300 31039 43472 20500 30818 43459 20750 30613 43453
444 20130 11014 0022/ 522//=
ZZYY 52077 10014 2100/ 102082 146982 6112/
33311 88872 20025 33002 20050 32998 20075 32955 43526
20100 32821 43519 20125 32600 43523 20150 32408 43518 20200 31641
20250 31142 20300 31050 43473 20500 30839 43459 20750 30617 43453
444 20120 10014 2115/ 522//=
ZZYY 52077 10014 2300/ 102081 146982 6113/
33311 88872 20025 32999 20050 32996 20075 32975 43519
20100 32898 43531 20125 32657 43521 20150 32457 43523 20200 31678
20250 31151 20300 31039 43473 20500 30830 43460 20750 30626 43452
444 20130 10014 2243/ 522//=
0000026300
868
UAPA01 KWBC 110948
ARP UAL1724 2714N 14713W 0937 F330 MS44 254/054KT=
ARP DAL1840 2517N 14531W 0935 F350 MS42 254/067KT TB SMTH=
ARP ASA871 2512N 15625W 0937 F350 MS52 213/058KT TB LGT CHOP=
ARP DAL2116 2221N 15153W 0942 F370 MS49 232/083KT=
0000138800
869
SSVX08 KARS 110946
ZZYY 15002 10014 1200/ 700000 009870 6112/
33311 88872 20001 32733 20020 32727 43504 20040 32398 43592
20060 32021 20080 31765 20100 31648 20120 31578 43568 20140 31503
20180 31397 20300 31050 20500 30705
444 20120 10014 1325/ 521//=
ZZYY 15006 10014 1200/ 506029 009995 6111/
33311 88872 20001 32576 20040 32525 43611 20060 32303 20080 32018
20100 31635 20120 31471 43551 20140 31354 20180 31179 20300 30988
20500 30742
444 20110 10014 1323/ 521//=
ZZYY 15006 11014 09004 506031 009998 6111/
11119 01314 10252 29081
22219 00257=
ZZYY 15001 10014 1200/ 509907 009976 6111/
33311 88872 20001 32493 43630 20020 32481 43642 20060 32196 43629
20080 31996 20100 31736 20120 31443 20140 31315 20300 30993
20500 30771
444 20110 10014 1322/ 521//=
ZZYY 31006 10014 1200/ 704046 022978 6112/
33311 88872 20020 32744 43552 20040 32744 43571 20060 32327 43631
20080 31725 20100 31599 20120 31538 20140 31497 20180 31438
20300 31160 20500 30741
444 20120 10014 1148/ 521//=
ZZYY 13002 10014 1200/ 720444 023132 6112/
33311 88872 20001 32153 43671 20020 32152 20040 32148 43670
20080 32043 20100 31854 20120 31779 20140 31775 20180 31731
20300 31467 20500 31069
444 20120 10014 1140/ 521//=
ZZYY 13002 11014 09004 720457 023147 6111/
11119 00605 10195 29079
22219 00215
444 20110 11014 0935/ 521// 60401=
0000198800
870
SSVX11 LFVW 110951
ZZYY 52087 10014 2300/ 107655 136696 6113/
22219 00292
33311 88872 20000 32915 20002 32915 43382 20025 32917 43378
20050 32922 43440 20075 32746 43468 20100 32516 43507
20125 32091 43491 20150 31797 43477 20200 31253 43453
20250 31007 43448 20300 30899 43452 20500 30741 43450
20750 30617 43451
444 20130 10014 2326/ 522//=
ZZYY 52087 11014 0800/ 107654 136696 6113/
33311 88872 20125 32019 43488 20150 31616 43470 20200 31193 43453
20250 30969 43448 20500 30752 43449
444 20130 11014 0805/ 522//=
ZZYY 52073 10014 22004 104947 137314 6111/
11119 01012 10282 29082 40084
22219 00295
33311 88872 20000 32954 20002 32954 43367 20025 32970
20050 32849 43427 20075 32741 43444 20100 32526 43463
20125 32429 43488 20150 32326 43497 20200 31423 43455 20250 31018
20300 30920 43458 20500 30761 43455 20750 30626 43452
444 20110 10014 2130/ 522// 60381=
ZZYY 52073 11014 07004 104947 137304 6113/
11119 01013 10291 29081 40060
22219 00296
33311 88872 20000 32960 20002 32960 43388 20025 32956
20050 32818 43432 20075 32723 43447 20100 32567 43486
20300 30972 43454 20750 30619 43451
444 20130 11014 0651/ 522// 60381=
ZZYY 52073 11014 09004 104949 137305 6113/
11119 01012 10289 29083 40069
22219 00296
444 20130 11014 0832/ 522// 60381=
ZZYY 52080 11014 0000/ 102046 138172 6113/
22219 00296
33311 88872 20000 32962 20002 32962 43403 20025 32974 43410
20050 35300 20075 32787 43479 20100 32659 43472 20125 32553 43494
20150 32455 43514 20200 31767 43486 20250 31108 43446
20300 30996 43471 20500 30846 43460 20750 30609 43454
444 20130 10014 2339/ 522//=
ZZYY 52080 10014 2200/ 102045 138173 6111/
22219 00296
33311 88872 20000 32960 20002 32960 43401 20025 33037 43458
20050 35300 20075 32777 43503 20100 32536 43463 20125 32494 43517
20150 32261 43508 20200 31668 43482 20250 31101 43448
20300 30997 43471 20500 30850 43461 20750 30608 43453
444 20110 10014 2130/ 522//=
0000010800
871
UANT99 KDDL 110950
ARP THY6 5703N02825W 0950 F350 MS60 218/61 KT
TCJND QXT AOE 110950 J42A
0000011000
872
UANT99 KDDL 110950
ARP AFR022 5102N01916W 0950 F360 MS64 222/68 KT
FGSPC QXT AOE 110950 F13A
0000011100
873
UANT99 KDDL 110950
ARP AAL136 5528N04624W 0950 F350 MS59 283/67 KT
N719AN DDL XXW 110950 F53A
0000014300
874
FTCU31 MUHA 102300
TAF
MUCU 102300Z 1100/1124 14015KT 9000 SCT020 BECMG 1101/1103 
     36006KT BECMG 1115/1117 16012KT=

0000011400
875
SAMX41 MMMX 102300
METAR MMCB 102300Z 00000KT 10SM SCT030 SCT080 26/11 A3000
      RMK 8/170=

0000016700
876
SAVN27 SVBM 102300
METAR SVBM 102300Z 09005KT 9999 FEW016 26/19 Q1015=
METAR SVBI 102300Z NIL=
METAR SVSO 102300Z NIL=
METAR SVVL 102300Z NIL=

0000008900
877
SABZ19 SBMQ 102300
METAR SBMQ 102300Z 04004KT 9999 FEW017 26/23 Q1009=

0000008300
878
SABZ18 SBGR 102300
METAR SBGR 102300Z 13002KT CAVOK 22/18 Q1016=

0000025800
879
FTCU31 MUHA 102300
TAF
MUCL  NIL=
MUCM 102300Z 1100/1124 08014KT 9000 SCT020 BECMG 1103/1105 
     07004KT BECMG 1113/1115 09014KT=
MUCC 102300Z 1100/1124 09013KT 9000 SCT020 BECMG 1103/1105 
     07003KT BECMG 1113/1115 09014KT=

0000008700
880
SARH32 LDZM 102300
METAR LDLO 102300Z NIL=
METAR LDSB 102300Z NIL=

0000047300
881
SARH31 LDZM 102300
METAR LDSP 102300Z 31004KT 280V340 9999 FEW022 BKN040 12/10 Q1022 =
METAR LDPL 102300Z VRB02KT 9999 FEW017 BKN058 10/09 Q1021 NOSIG =
METAR LDDU 102300Z 01007KT 340V060 CAVOK 11/07 Q1022 =
METAR LDZA 102300Z 04003KT 0600 R05/0450V1000N R23/0800V1900D FG
FEW003 SCT048 04/04 Q1021 TEMPO 0200 =
METAR LDZD 102300Z 12005KT 9999 OVC060 09/08 Q1022 =
METAR LDRI 102300Z NIL=
METAR LDOS 102300Z 11006KT 0500 FG NSC 03/03 Q1022=

0000016800
882
FTPA31 KWBC 102300
TAF
TAF PTRO 102253Z 1023/1118 08015G22KT P6SM VCSH BKN015CB OVC120
     FM110000 08013G24KT P6SM VCSH SCT016CB BKN050 BKN120=

0000016800
883
FTPQ31 KWBC 102300
TAF
TAF PTRO 102253Z 1023/1118 08015G22KT P6SM VCSH BKN015CB OVC120
     FM110000 08013G24KT P6SM VCSH SCT016CB BKN050 BKN120=

0000016800
884
FTUS80 KWBC 102300
TAF
TAF PTRO 102253Z 1023/1118 08015G22KT P6SM VCSH BKN015CB OVC120
     FM110000 08013G24KT P6SM VCSH SCT016CB BKN050 BKN120=

0000052400
885
SPUS70 KWBC 102300
SPECI
KEST 102258Z AUTO 25004KT 1 1/4SM BR OVC004 M01/M02 A2953 RMK AO2
     T10111017=
KUNO 102256Z AUTO 15008KT 1 1/2SM -RA BR OVC003 07/06 A2968 RMK
     AO2 VIS 1/2V5 P0000 T00670061=
KHFF 102249Z 03004KT 10SM -RA SCT003 BKN016 BKN019 09/09 A3019 RMK
     AO2 SLP222=
KLLQ 102257Z AUTO 15010G17KT 2SM -RA BR SCT005 BKN008 OVC018 13/12
     A2978 RMK AO2 P0000=
KMEB 102257Z AUTO 35006KT 1/2SM +RA FG SCT004 SCT010 OVC015 13/13
     A3017 RMK AO2 P0018 T01330133=

00000000