0000085100
706
UDAS02 BABJ 110902
AMDAR 1109
LVR CNFPYL 2925N 11539E 110851 F246 MS256 265/083 TB/ S//1=
LVR CNFPYL 2905N 11544E 110854 F246 MS250 263/089 TB/ S//1=
LVR CNFPYL 2846N 11548E 110857 F246 MS243 261/094 TB/ S//1=
LVR CNFPYL 2827N 11552E 110900 F246 MS235 261/095 TB/ S//1=
LVR CNFNXQ 4202N 10014E 110851 F321 MS585 285/042 TB/ S//1=
ASC CNFNXM 2533N 10345E 110852 F293 MS310 263/104 TB/ S//1=
LVR CNFNXM 2547N 10409E 110855 F311 MS333 255/106 TB/ S//1=
ASC CNFNXM 2602N 10435E 110858 F333 MS390 255/109 TB/ S//1=
LVR CNFNXM 2617N 10500E 110901 F351 MS440 254/113 TB/ S//1=
DES CNFPTK 3131N 12035E 110858 F118 MS070 265/045 TB/ S//1=
DES CNFPTK 3129N 12039E 110859 F118 MS073 265/042 TB/ S//1=
DES CNFPTK 3127N 12046E 110900 F113 MS060 262/039 TB/ S//1=
DES CNFPTK 3125N 12052E 110901 F105 MS058 263/031 TB/ S//1=
0000023100
707
UDAS02 BABJ 110904
AMDAR 1109
LVR CNFLWT 3340N 11841E 110858 F291 MS423 260/092 TB/ S//1=
DES CNFLWT 3319N 11837E 110901 F273 MS383 268/078 TB/ S//1=
DES CNFLWT 3310N 11836E 110903 F250 MS343 280/066 TB/ S//1=
0000161900
708
SISB20 VCCC 110900
AAXX 11094
43400 NIL=
43404 22470 60206 10274 20230 30114 40126 84105 333 58011 60007 
84818 86280=
43410 NIL=
43413 22470 23606 10279 20237 30111 40115 82200 333 58007 60007
82818=
43415 22470 53603 10299 20226 30011 40119 85200 333 58003 60007
85818=
43418 22470 53601 10278 20237 3//// 4//// 84302 333 5//// 60007 
83818 81920 83080=
43421 22470 43601 10294 20220 30007 40109 84100 333 58005 60007
84818=
43422 22470 50504 10296 20226 39976 40106 85200 333 58008 60007
85818=
43424 22478 63206 10288 20237 30097 40100 86200 333 58011 60007
86818=
43436 22470 63606 10276 20241 30108 40110 84106 333 58008 60007 
84818 86280=
43441 22470 50000 10317 20210 39959 40088 85200 333 58006 60007
85818=
43444 22470 51403 10295 20207 39566 40096 84231 333 58007 60007 
84818 84080=
43450 22466 13208 10312 20221 30087 40096 81200 333 58013 60007
81816=
43466 22470 23202 10298 20234 30081 40093 81101 333 58012 60007
81818=
43467 22470 13209 10296 20236 30092 40097 81100 333 58010 60007
81816=
43473 22470 50902 10190 20139 38127 48489 85101 333 58005 60007
85818=
43475 22470 30504 10296 20232 30094 40103 81101 333 58004 60007 
81818 83080=
43476 22470 52703 10227 20163 38770 48517 84101 333 58003 60007
84812=
43479 22470 60202 10245 20200 39262 83206 333 58005 60007 83816
85078=
43486 22460 50000 10325 20217 39994 40088 85201 333 58006 60007
85816=
43495 22470 33205 10282 20245 30079 40095 81101 333 58006 60007
81818=
43497 22476 50505 10304 20250 30075 40092 81106 333 58006 60007 
81818 85278=
0000011000
709
UANT01 CWAO 110911
ARP DAL10 4801N03525W 0911 F350 MS50 278/19 KT
N174DN QXT AOE 110911 F57A
0000072000
710
SSVX08 KARS 110910
ZZYY 52004 10014 0000/ 305008 165171 6111/
33311 88870 20001 33066 20025 33001 20075 33033 20100 32928
20150 32662 20200 32047 20250 31393 20300 31040 20500 30819
444 20110 10014 0128/ 521//=
ZZYY 52004 11014 08004 305009 165173 6112/
11119 02506 10299 29076
22219 00309
444 20120 11014 0256/ 521// 60401=
ZZYY 52007 10014 1200/ 308031 164802 6112/
33311 88872 20001 33060 43420 20025 32988 43453 20050 32895 43493
20075 32764 20100 32729 20125 32589 20150 32479 20200 32075
20250 31633 20300 31285 20500 30764
444 20120 10014 1053/ 521//=
ZZYY 52007 11014 08004 308042 164796 6111/
11119 02304 10300 29074
22219 00311
444 20110 11014 0437/ 521// 60401=
0000039100
711
SISV01 FDMS 110900
AAXX 11094
68384 46/// ///// 10275 20147 39797 48616 53001
      333 10277 20199 555 20002 91020=
68394 46/// /2204 10280 20168 38923 4//// 54000
      333 10288 20214 91007 555=
68399 46/// /0000 10315 20184 3//// 4//// 5////
      333 10318 20230 91001 555=
68383 46/// ///// 10286 20167 39883 48567 51000
      333 10286 20224 555 91012=
0000035800
712
SICR20 GCLP 110900
AAXX 11094
60020 22575 22803 10160 20101 30141 40186 52022 81501
  333 60007 92408=
60030 22575 13406 10165 20122 30127 40183 53020 81101
  333 60007 92407=
60040 22980 20000 10149 20113 30169 40194 53022 81031
  333 60007 92418=
60338 42362 82505 10146 20108 30120 40186 52018 82717
 333 50034 82707 92427=
0000016600
713
SSVX13 LFVW 110911
ZZYY 55583 11014 0800/ 344514 175198 6112/
11119 30112 40112 57008
22219 00138
444 20120 11014 0428/ 50101 80110 80059 9/015=
0000014400
714
UAPA01 KWBC 110912
ARP UAL825 2714N 14713W 0904 F370 MS46 240/075KT=
ARP ASA864 3003N 14905W 0906 F350 MS50 258/055KT TB SMTH=
0000011000
715
UANT01 CWAO 110912
ARP TAY010 5330N04208W 0912 F340 MS59 299/52 KT
OOTSC QXT EUA 110912 F24A
0000012600
716
SIMD20 LPMG 110900 RRA
AAXX 11091
08524 41470 21502 10145 20139 30083 40182 52015  720// 81101
333  81814=
0000058500
717
SIDN21 EKMI 110900
AAXX 11094
06030 21156 82504 10061 20054 30004 40020 57005 76166 885//
  333 60027 82703 87629 =
06060 21258 82212 10068 20061 39965 40029 57011 75866 887//
  333 60027 81706 87710 =
06070 27/71 /2308 10066 20041 30011 40041 57008 75265
  333 69987 =
06120 37460 72314 10070 20067 30032 40058 57007 752//
  333 81/11 83/14 85/30 87/38 =
06180 21359 82314 10064 20053 30057 40063 57005 71022 886//
  333 6///7 82709 86711 =
06193 27356 82321 10057 20047 30063 40074 57002 71010
  333 55300 20040 6///7 83/07 85/09 88/11 91130 =
0000014400
718
SIVF51 EGRR 110900
BBXX
62304 11094 99512 10018 46/98 /2723 10092 20075 40153 53013 22200
00101 10501 70004 333 90710 91137=
0000012800
719
SIVF51 EGRR 110900
BBXX
62103 11094 99499 70029 46/99 /3214 10090 20045 40201 51034 22200
00112 10702 70012=
0000014400
720
SIVF51 EGRR 110900
BBXX
62305 11094 99504 70000 46/// /3122 10094 20048 40181 53029 22200
00109 10602 70008 333 90710 91130=
0000012200
721
SIVF51 EGRR 110900
BBXX
62081 11094 99521 70105 46/// /1210 10072 20035 40173 52007 22200
10907 70034=
0000011200
722
SIVF51 EGRR 110900
BBXX
64046 11094 99605 70042 46/// /3022 10070 20021 40009 333 90710 91130=
0000011600
723
SIVF51 EGRR 110900
BBXX
62050 11094 99500 70044 46/// /3513 10091 20048 40203 22200 10502
70011=
0000011600
724
SIVF51 EGRR 110900
BBXX
62303 11094 99516 70051 46/// /3317 10081 20016 40197 22200 10504
70018=
0000012800
725
SIVF51 EGRR 110900
BBXX
62095 11094 99529 70156 46/// /1514 10090 20034 40131 57004 22200
00098 10906 70030=
00000000