0000009400
406
SAAG41 SAWG 110300
METAR SAWG 110300Z  29007KT 9999  OVC045  08/07
Q1012=

0000012400
407
SACN62 CYKA 110300
METAR CYKA 110300Z 10011KT 30SM BKN050 OVC090 01/M01 A2976 RMK SC5AC3
 VIRGA SLP094=

0000011200
408
SACN62 CYHZ 110300
METAR CYHZ 110300Z 22013G19KT 15SM OVC006 M00/M02 A3031 RMK ST8
 SLP272=

0000011200
409
SACN62 CYKY 110300
METAR CYKY 110300Z 30010G15KT 15SM SCT240 M09/M10 A2958 RMK CI3
 SLP062=

0000008400
410
SAAG41 SABE 110300
METAR SABE 110300Z  29009KT CAVOK 25/18 Q1011=

0000012200
411
SACN61 CYKL 110300
METAR CYKL 110300Z AUTO /////KT 5SM -SN OVC029 M09/M12 A2963 RMK WND
 MISG SLP080=

0000010600
412
SACN62 CYMA 110300
METAR CYMA 110300Z 29005KT 20SM BKN045 M19/M23 A2938 RMK SC7 SLP002=

0000011200
413
SAPR82 SPIM 110300 RRA
METAR SPQU 110300Z 13004KT 9999 SCT040 SCT050 13/10 Q1025
RMK PP000=

0000008900
414
SABZ21 SBSV 110300
METAR SBSV 110300Z 10011KT 9999 SCT017 27/23 Q1013=

0000020700
415
FTRS33 RUMS 110200 CCA
TAF COR UUEE 110150Z 1103/1203 20005MPS 6000 BKN007 TEMPO 1103/1112
2000 RASN BKN005 SCT010CB BECMG 1110/1112 27005MPS TEMPO 1112/1206
1500 SHSN BKN005 SCT010CB=

0000011300
416
SACN61 CYNA 110300
METAR CYNA 110300Z AUTO 30006KT 9SM -SN OVC012 M07/M08 A3005 RMK
 SLP178=

0000010600
417
SACN61 CYNE 110300
METAR CYNE 110300Z AUTO 00000KT 9SM OVC024 M09/M10 A2943 RMK SLP987=

0000011900
418
SACN61 CYMO 110300
METAR CYMO 110300Z AUTO 20009G17KT 9SM BKN019 OVC030 M01/M03 A2974
 RMK SLP071=

0000010600
419
SACN61 CYMM 110300
METAR CYMM 110300Z AUTO 24005KT 9SM BKN041 M13/M15 A2954 RMK SLP037=

0000011600
420
SACN61 CYNM 110300
METAR CYNM 110300Z AUTO 19008KT 7SM OVC007 M03/M05 A2986 RMK PRESFR
 SLP131=

0000009500
421
SABR31 TBPB 110300
METAR TBPB 110300Z 05016KT 9999 BKN016 25/21 Q1015 NOSIG=

0000022900
422
SALJ31 LJLJ 110300
METAR LJLJ 110300Z 28002KT 9999 FEW030 BKN040 06/05 Q1020 NOSIG=
METAR LJMB 110300Z AUTO 00000KT 6000 OVC006/// 03/02 Q1020=
METAR LJPZ 110300Z AUTO 00000KT 3100 BR OVC050/// 09/09 Q1021=

0000009600
423
SALJ32 LJLJ 110300
METAR LJCE 110300Z AUTO 00000KT 0250 FG VV001 03/03 Q1020=

0000010200
424
SAPA31 KWBC 110200 RRE
METAR
PTPN 110156Z 05013KT 15SM SCT017 BKN300 32/27 A2973=

0000026000
425
SAFR21 LFPW 110300
METAR LFOA 110300Z AUTO 15004KT 120V180 9999 NSC 07/05 Q1015=
METAR LFPC 110300Z AUTO 00000KT 0800 R25/1800N FG VV/// 05/04 Q1016=
METAR LFPV 110300Z AUTO VRB02KT 1400 1300 R27///// R09///// -RA BR
VV/// 05/05 Q1016=

00000000