0000237200
866
ULUS50 KWBC 110000
TTCC 69990 NIL=
TTCC 69992 NIL=
TTCC 72201 NIL=
TTCC 72202 NIL=
TTCC 72206 NIL=
TTCC 72208 NIL=
TTCC 72210 NIL=
TTCC 72213 NIL=
TTCC 72214 NIL=
TTCC 72215 NIL=
TTCC 72221 NIL=
TTCC 72229 NIL=
TTCC 72230 NIL=
TTCC 72232 NIL=
TTCC 72233 NIL=
TTCC 72235 NIL=
TTCC 72240 NIL=
TTCC 72247 NIL=
TTCC 72248 NIL=
TTCC 72249 NIL=
TTCC 72250 NIL=
TTCC 72251 NIL=
TTCC 72255 NIL=
TTCC 72260 NIL=
TTCC 72261 NIL=
TTCC 72265 NIL=
TTCC 72274 NIL=
TTCC 72278 NIL=
TTCC 72280 NIL=
TTCC 72291 NIL=
TTCC 72293 NIL=
TTCC 72304 NIL=
TTCC 72305 NIL=
TTCC 72311 NIL=
TTCC 72317 NIL=
TTCC 72318 NIL=
TTCC 72327 NIL=
TTCC 72340 NIL=
TTCC 72349 NIL=
TTCC 72353 NIL=
TTCC 72355 NIL=
TTCC 72357 NIL=
TTCC 72363 NIL=
TTCC 72364 NIL=
TTCC 61007 72365 70840 60981 33019 88999 77999 31313 58208
82301=
TTCC 72374 NIL=
TTCC 72376 NIL=
TTCC 72381 NIL=
TTCC 72387 NIL=
TTCC 72388 NIL=
TTCC 72393 NIL=
TTCC 72402 NIL=
TTCC 72403 NIL=
TTCC 72407 NIL=
TTCC 72425 NIL=
TTCC 72426 NIL=
TTCC 72429 NIL=
TTCC 72435 NIL=
TTCC 72440 NIL=
TTCC 72451 NIL=
TTCC 72456 NIL=
TTCC 72469 NIL=
TTCC 72476 NIL=
TTCC 72486 NIL=
TTCC 72489 NIL=
TTCC 72493 NIL=
TTCC 72501 NIL=
TTCC 72518 NIL=
TTCC 72520 NIL=
TTCC 72528 NIL=
TTCC 72532 NIL=
TTCC 72553 NIL=
TTCC 72558 NIL=
TTCC 72562 NIL=
TTCC 72572 NIL=
TTCC 72576 NIL=
TTCC 72582 NIL=
TTCC 72583 NIL=
TTCC 72586 NIL=
TTCC 72597 NIL=
TTCC 72606 NIL=
TTCC 72632 NIL=
TTCC 72634 NIL=
TTCC 72637 NIL=
TTCC 72645 NIL=
TTCC 72649 NIL=
TTCC 72654 NIL=
TTCC 72655 NIL=
TTCC 72659 NIL=
TTCC 72662 NIL=
TTCC 72672 NIL=
TTCC 72681 NIL=
TTCC 72694 NIL=
TTCC 72712 NIL=
TTCC 72734 NIL=
TTCC 72747 NIL=
TTCC 72764 NIL=
TTCC 72768 NIL=
TTCC 72775 NIL=
TTCC 6100/ 72776 88999 77999 31313 45208 82326=
TTCC 72785 NIL=
TTCC 6100/ 72786 70822 60568 88999 77999 31313 58208 82306=
TTCC 72793 NIL=
TTCC 72797 NIL=
TTCC 74001 NIL=
TTCC 74002 NIL=
TTCC 74004 NIL=
TTCC 74389 NIL=
TTCC 61007 74455 70816 66367 27559 88999 77999 31313 58208
82301=
TTCC 74494 NIL=
TTCC 74547 NIL=
TTCC 74560 NIL=
TTCC 74606 NIL=
TTCC 74626 NIL=
TTCC 74641 NIL=
TTCC 74646 NIL=
TTCC 74651 NIL=
TTCC 74800 NIL=
TTCC 78073 NIL=
TTCC 78526 NIL=
0000243200
867
UEUS50 KWBC 110000
TTDD 69990 NIL=
TTDD 69992 NIL=
TTDD 72201 NIL=
TTDD 72202 NIL=
TTDD 72206 NIL=
TTDD 72208 NIL=
TTDD 72210 NIL=
TTDD 72213 NIL=
TTDD 72214 NIL=
TTDD 72215 NIL=
TTDD 72221 NIL=
TTDD 72229 NIL=
TTDD 72230 NIL=
TTDD 72232 NIL=
TTDD 72233 NIL=
TTDD 72235 NIL=
TTDD 72240 NIL=
TTDD 72247 NIL=
TTDD 72248 NIL=
TTDD 72249 NIL=
TTDD 72250 NIL=
TTDD 72251 NIL=
TTDD 72255 NIL=
TTDD 72260 NIL=
TTDD 72261 NIL=
TTDD 72265 NIL=
TTDD 72274 NIL=
TTDD 72278 NIL=
TTDD 72280 NIL=
TTDD 72291 NIL=
TTDD 72293 NIL=
TTDD 72304 NIL=
TTDD 72305 NIL=
TTDD 72311 NIL=
TTDD 72317 NIL=
TTDD 72318 NIL=
TTDD 72327 NIL=
TTDD 72340 NIL=
TTDD 72349 NIL=
TTDD 72353 NIL=
TTDD 72355 NIL=
TTDD 72357 NIL=
TTDD 72363 NIL=
TTDD 72364 NIL=
TTDD 6100/ 72365 11950 64980 22886 64580 33867 61581 44794 60981
55746 56982 31313 58208 82301 51515 10159=
TTDD 72374 NIL=
TTDD 72376 NIL=
TTDD 72381 NIL=
TTDD 72387 NIL=
TTDD 72388 NIL=
TTDD 72393 NIL=
TTDD 72402 NIL=
TTDD 72403 NIL=
TTDD 72407 NIL=
TTDD 72425 NIL=
TTDD 72426 NIL=
TTDD 72429 NIL=
TTDD 72435 NIL=
TTDD 72440 NIL=
TTDD 72451 NIL=
TTDD 72456 NIL=
TTDD 72469 NIL=
TTDD 72476 NIL=
TTDD 72486 NIL=
TTDD 72489 NIL=
TTDD 72493 NIL=
TTDD 72501 NIL=
TTDD 72518 NIL=
TTDD 72520 NIL=
TTDD 72528 NIL=
TTDD 72532 NIL=
TTDD 72553 NIL=
TTDD 72558 NIL=
TTDD 72562 NIL=
TTDD 72572 NIL=
TTDD 72576 NIL=
TTDD 72582 NIL=
TTDD 72583 NIL=
TTDD 72586 NIL=
TTDD 72597 NIL=
TTDD 72606 NIL=
TTDD 72632 NIL=
TTDD 72634 NIL=
TTDD 72637 NIL=
TTDD 72645 NIL=
TTDD 72649 NIL=
TTDD 72654 NIL=
TTDD 72655 NIL=
TTDD 72659 NIL=
TTDD 72662 NIL=
TTDD 72672 NIL=
TTDD 72681 NIL=
TTDD 72694 NIL=
TTDD 72712 NIL=
TTDD 72734 NIL=
TTDD 72747 NIL=
TTDD 72764 NIL=
TTDD 72768 NIL=
TTDD 72775 NIL=
TTDD 6100/ 72776 31313 45208 82326 51515 10159=
TTDD 72785 NIL=
TTDD 6100/ 72786 11964 59169 22871 60368 33800 63367 31313 58208
82306 51515 10159=
TTDD 72793 NIL=
TTDD 72797 NIL=
TTDD 74001 NIL=
TTDD 74002 NIL=
TTDD 74004 NIL=
TTDD 74389 NIL=
TTDD 6100/ 74455 11817 65767 31313 58208 82301 51515 10159=
TTDD 74494 NIL=
TTDD 74547 NIL=
TTDD 74560 NIL=
TTDD 74606 NIL=
TTDD 74626 NIL=
TTDD 74641 NIL=
TTDD 74646 NIL=
TTDD 74651 NIL=
TTDD 74800 NIL=
TTDD 78073 NIL=
TTDD 78526 NIL=
0000195300
868
SMRA10 RUNW 110000
AAXX 11001
23914 41/93 91201 11088 21095 39817 40082 57003 74774=
23921 41997 83602 11109 21125 30005 40128 52001 77187 8803/=
23955 11784 72701 11091 21098 30126 40190 52016 69932 70282 87300 333
21093 47038 55004 86656=
23966 11496 80000 11113 21026 30067 40198 52012 69952 78582 889// 333
21146 47077 55000 73003 7002/=
28138 41595 81901 11043 21045 39518 40092 57002 78582 883// 333
93662=
28224 41598 81702 11056 21063 39868 40085 57003 70271 885//=
28255 42/// /1801 11037 21045 39982 40112 57002=
28440 41496 81502 11034 21041 39749 40101 58001 71072 886//=
28541 42598 80000 11058 21065 39607 40107 54000 8657/=
28645 41597 81801 11083 21092 39822 40122 54001 70282 885//=
28661 41997 81604 11076 21094 30056 40161 58001 77173 8802/=
28722 81597 81601 11018 21033 39952 40083 54001 70272 885//=
28748 41997 81503 11063 21080 39885 40129 57004 70273 8807/=
28838 41996 81701 11069 21078 39638 40122 57002 70272 8807/=
29149 11496 81501 11088 21099 30095 40232 52004 69972 77172 8802/ 333
21113 47072 55000 88519=
29203 11496 81901 11058 21062 30086 40190 51005 69942 77172 8802/ 333
21086 47033 55000 88513=
29231 11396 82201 11050 21053 30113 40211 52006 69952 78582 889// 333
21098 47046 55000 86706=
29313 11396 81803 11041 21053 30096 40219 51016 69922 77187 8802/ 333
21088 47030 55000 88509=
29332 11496 82105 11058 21067 30084 40230 52013 60002 78582 883// 333
21099 48038=
29612 11498 81905 11077 21094 30104 40261 51006 69962 70232 883// 333
21082 48025 55000 88913=
29638 11596 82003 11075 21092 30124 40298 52006 60032 78583 889// 333
21080 47028 91110=
29838 11596 81903 11086 21110 30091 40334 52004 60012 77173 8802/ 333
21087 48017 55000=
29846 11597 81805 11075 21097 39936 40336 52005 69942 78583 8595/ 333
21078 47004 85928 91112=
36061 11596 80000 11084 21099 39926 40352 57003 69922 77172 8802/ 333
21095 47038 55017=
0000214700
869
SMRS17 RUMS 110000
AAXX 11001
34357 41497 81805 10037 20030 39880 40034 56033 76162 8872/ 333
91113=
34363 42497 81907 10007 21001 39916 40068 58027 886// 333 91110=
34461 42497 81905 10035 20029 30007 40062 58034 885//=
34545 41498 82005 10054 20045 39949 40059 56029 75152 886// 333
91111=
34579 42998 71803 10017 21005 30077 40120 57020 8705/=
34772 42997 71904 10032 20006 30128 40131 57020 87070=
34838 42997 81503 10027 20001 39997 40093 57026 8801/=
34868 42498 61503 10020 20007 39992 40133 57025 86500=
34871 41496 81804 10026 20011 30146 40136 57020 71022 886//=
34927 42997 61904 10093 20028 30068 40105 57019 80008 333 91111=
34949 42998 51702 10006 21025 39572 40123 57021 80004=
34954 42998 51102 10016 20008 39953 40128 57021 80001=
34958 42998 01003 10024 21002 39934 40134 58022=
34975 41996 21903 11003 21012 30149 40143 57017 71012 82050=
34984 41996 21502 11009 21014 30185 40157 57017 71011 80002=
37001 42597 72011 10097 20074 30074 40115 57017 87500 333 91016
91120=
37021 42998 61401 10017 21016 39843 40113 56021 80002=
37031 42997 21404 10012 21012 39916 40113 57021 80001=
37036 42998 00000 11038 21045 39707 40135 57022=
37058 42998 01602 10000 21034 39776 40132 57026=
37061 41956 41501 11010 21012 39971 40141 56022 71011 80001=
37085 42996 01406 10021 21001 30174 40146 58026=
37107 42970 00802 11004 21038 39498 40190 56011=
37126 42999 81702 11004 21195 37885 48455 57014 85031=
37144 41996 22301 11034 21041 39895 40148 57020 71011 80001=
37163 42997 20805 10020 20005 30153 40148 57023 82030=
37171 419// /0704 10037 21019 30148 40162 57008=
37193 42898 72003 10065 21147 38618 48443 57021 87300 333 91011
91111=
37212 42998 21903 10028 21065 39623 40139 57021 80001=
37218 82997 01702 11008 21069 39352 40117 57016=
37228 42997 01201 11031 21078 39307 40163 56015=
37235 42997 01501 11022 21025 39831 40152 56019=
37244 41996 02601 10004 21012 30051 40146 56022 71000=
37463 32997 02701 11020 21157 38558 57010=
37470 42996 41504 10045 20011 30182 40159 58027 84030=
37663 42997 02703 10019 21111 38987 48463 57021=
0000079200
870
USAA01 NZCM 110000
TTAA 61001 89664
99997 00056 18501 00512 ///// ///// 92601 07158 18518
85255 11341 17017 70716 21114 15006 50514 33959 24513
40666 44759 24520 30855 51765 24023 25975 45585 24514
20124 43786 24513 15318 43586 26009 10592 41586 23504
88320 52361 23026
77999
31313 48008 82219=

0000069700
87361=
0000011200
87368
0000009600
87371
0000035800
87378
0000037300
87381
0000039400
87385
0000039400
87407
0000041500
87411
0000014600
87417=
0000041700
87480
0000060300
87494
0000052100
87511
0000058300
87573
0000050100
87608
0000056300
87640
0000066700
87775
0000062600
87963
0000062600
88156
0000064700
88414
0000066800
88658
0000064800
89018=
0000062900
93019
0000010200
871
SMRS20 RUMS 110000
AAXX 11001
28909 42499 81802 11010 21025 39910 40097 52003 8472/=
0000245500
872
SMRA12 RUNW 110000
AAXX 11001
28049 41997 80902 11051 21057 39940 40107 57003 77172 8802/=
28144 41396 83601 11041 21045 39940 40099 57002 77175 8872/ 333 87709
93402=
28319 41498 81401 11042 21054 39912 40078 58006 70272 885// 333
88614=
28321 42598 81301 11055 21066 39871 40078 58006 8553/=
28334 41996 81101 11055 21061 39787 40095 58002 77072 8807/=
28434 42598 80301 11048 21056 39836 40095 53001 885//=
28552 41996 81704 11066 21085 30020 40135 54000 77172 8801/=
28666 41596 81804 11081 21103 39998 40178 57005 77173 8802/ 333 91110
92980=
28825 41497 81702 11016 21032 39923 40095 52004 72272 8672/=
29111 11598 82002 11074 21083 30115 40206 52013 69972 70282 889// 333
21091 47034 55000=
29209 NIL=
29551 11497 82204 11067 21109 30096 40284 52008 69962 78583 883// 333
21082 47007 91110=
29602 12498 82103 11070 21087 30104 40249 51003 69922 885// 333 21079
48019 88618=
29636 11496 82203 11074 21105 30066 40291 52007 60022 77173 8872/ 333
21087 47022=
29654 11396 81807 11086 21105 39672 40310 52003 60022 78583 889// 333
21101 40131 86708 91011 91111=
29712 11998 82105 11082 21096 30123 40271 52006 69922 73632 8802/ 333
21084=
29724 11596 82107 11083 21099 30082 40293 52004 60012 78583 8537/ 333
21086 48007=
29726 11598 82204 11075 21097 30127 40301 52007 60022 73673 885// 333
21077 48017 88632 91110=
29814 11497 82105 11083 21099 30140 40291 50004 69902 78583 889// 333
21087 48008 88911=
29827 11697 82105 11077 21103 30157 40317 52006 69952 73632 889// 333
21077 47014 91110=
29923 11596 81706 11087 21115 30043 40330 52003 69972 77173 8802/ 333
21092 43011 55000 91110=
29939 11495 82503 11074 21093 30058 40352 52004 60022 77373 8802/ 333
21087 47021 88510=
35026 41/93 91402 11039 21043 39466 40108 52001 74942=
36021 11596 82004 11084 21101 30139 40327 52004 60012 78582 889// 333
21084 47009=
36022 11997 81905 11102 21122 30070 40345 52002 60022 77172 8802/ 333
21102 47016=
36038 11599 81904 11064 21154 39908 40367 56003 60002 70232 885// 333
21074 48011 55000 88624 91111=
36058 12699 81002 11010 21128 39837 40367 54000 60002 8251/ 333 21010
43001 55001=
36064 12999 80703 11022 21081 39742 40347 53001 60002 8802/ 333 21026
47007 55027=
36229 12699 70000 11148 21161 39181 40429 57002 60002 82534 333 21162
47004 55043=
36259 12999 40000 11320 21344 38315 48609 58008 60002 80002 333 21330
47008 55067=
0000227700
873
SMRA11 RUNW 110000
AAXX 11001
23909 41296 81103 11099 21105 39816 40072 57007 71072 886//=
24918 NIL=
28044 41497 83602 11067 21077 39944 40112 54000 70272 887//=
28116 42499 81402 11025 21034 39831 40064 58003 885//=
28240 41598 82101 11049 21055 39771 40099 55000 70272 885//=
28522 419// 81703 11033 21044 39825 40085 58002 70272 8801/=
28621 42497 81302 11032 21041 39848 40082 54001 889//=
28719 41/92 92302 11028 21032 39652 40093 52004 74542=
29023 NIL=
29122 11499 72103 11096 21102 30127 40201 52013 69972 70282 86530 333
21101 47044 86612=
29328 11497 82005 11068 21085 30097 40240 52015 69922 78583 889// 333
21085 47033 55000=
29348 11596 81904 11056 21080 30104 40252 52010 60022 78587 8392/ 333
21097 47042=
29393 NIL=
29405 11497 82003 11062 21079 30080 40230 51009 69922 70282 883// 333
21062 47029 55000 88913=
29418 11498 82105 11071 21100 30076 40240 52007 60002 70283 889// 333
21071 47019 55002=
29430 11398 81901 11065 21073 30079 40260 52009 69972 78582 889// 333
21101 47060 85709=
29524 NIL=
29578 NIL=
29580 NIL=
29587 119// 72401 11148 21157 39989 40327 57002 69932 77172 80007 333
21260 48034=
29605 12598 82104 11066 21083 30099 40246 50003 69902 885// 333 21075
47028 55000=
29631 11496 82105 11074 21091 30092 40285 52008 69992 78583 889// 333
21078 47029 91111=
29645 11596 81803 11069 21085 30109 40302 52004 60022 78582 889// 333
21088 47034 55000 88920=
29664 NIL=
29706 11597 82206 11083 21097 30123 40274 52008 69962 78583 883// 333
21083 48021 55000=
29736 11496 82205 11082 21104 30055 40316 53004 60012 78583 883// 333
21085 48029=
29768 NIL=
29771 NIL=
29772 NIL=
29874 NIL=
29876 NIL=
29937 11596 81905 11085 21107 30116 40347 50001 69982 78583 889// 333
21086 47007 91112=
29974 NIL=
30127 NIL=
30165 NIL=
30323 NIL=
30526 NIL=
30637 NIL=
30714 NIL=
35037 41997 82101 11034 21041 39684 40109 54000 70272 8802/=
36034 11497 81905 11099 21133 30068 40358 54001 69922 78583 889// 333
21100 47006 86916 91111=
36073 NIL=
36078 NIL=
36083 NIL=
36090 NIL=
36091 NIL=
36092 NIL=
36096 11995 83601 11243 21270 39639 40505 57002 69902 77372 8807/ 333
21273 47016 55049 95090=
36104 NIL=
36278 NIL=
0000068900
874
USAA01 NZCM 110000
TTAA 61001 89664
99997 00056 18501 00512 ///// ///// 92601 07158 18518
85255 11341 17017 70716 21114 15006 50514 33959 24513
40666 44759 24520 30855 51765 24023 25975 45585 24514
20124 43786 24513 15318 43586 26009 10592 41586 23504
88320 52361 23026
77999
31313 48008 82219=

0000069700
87361=
0000011200
87368=
0000015000
87382
0000012800
87386=
0000045700
87427
0000045800
87444=
0000048000
87537
0000058300
87569
0000050100
87626
0000052200
87673
0000054300
87808
0000056400
87995
0000060600
88173
0000064700
88420
0000062700
88643
0000068900
88994=
0000071100
92975
0000073000
875
USAA01 NZCM 110000
TTAA 61001 89664
99997 00056 18501 00512 ///// ///// 92601 07158 18518
85255 11341 17017 70716 21114 15006 50514 33959 24513
40666 44759 24520 30855 51765 24023 25975 45585 24514
20124 43786 24513 15318 43586 26009 10592 41586 23504
88320 52361 23026
77999
31313 48008 82219=

0000069700
87361=
0000011200
87368
0000009600
87371
0000035800
87378
0000037300
87381
0000039400
87385
0000039400
87407
0000041500
87411
0000014600
87417
0000045700
87421
0000049900
87440
0000052000
87462
0000050000
87472=
0000058400
87593
0000060500
87638=
0000056700
88260
0000054400
88534
0000075100
88974=
0000064900
92969
0000066800
876
USAA01 NZCM 110000
TTAA 61001 89664
99997 00056 18501 00512 ///// ///// 92601 07158 18518
85255 11341 17017 70716 21114 15006 50514 33959 24513
40666 44759 24520 30855 51765 24023 25975 45585 24514
20124 43786 24513 15318 43586 26009 10592 41586 23504
88320 52361 23026
77999
31313 48008 82219=

0000069700
87361=
0000011200
87368
0000009600
87371
0000035800
87378
0000037300
87381
0000039400
87385=
0000043700
87428
0000047800
87442=
0000052100
87533
0000058300
87555
0000060400
87612
0000058400
87657
0000064600
87769
0000066700
87957=
0000068900
88973=
0000064900
93009
0000068900
877
USAA01 NZCM 110000
TTAA 61001 89664
99997 00056 18501 00512 ///// ///// 92601 07158 18518
85255 11341 17017 70716 21114 15006 50514 33959 24513
40666 44759 24520 30855 51765 24023 25975 45585 24514
20124 43786 24513 15318 43586 26009 10592 41586 23504
88320 52361 23026
77999
31313 48008 82219=

0000069700
87361=
0000011200
87368
0000009600
87371
0000035800
87378
0000037300
87381=
0000039500
87413
0000041600
87422
0000043700
87443
0000045800
87466=
0000054200
87540
0000048000
87567
0000050100
87610
0000056300
87645
0000060500
87781
0000058500
87966=
0000058600
88987=
0000071100
93016
0000073000
878
USAA01 NZCM 110000
TTAA 61001 89664
99997 00056 18501 00512 ///// ///// 92601 07158 18518
85255 11341 17017 70716 21114 15006 50514 33959 24513
40666 44759 24520 30855 51765 24023 25975 45585 24514
20124 43786 24513 15318 43586 26009 10592 41586 23504
88320 52361 23026
77999
31313 48008 82219=

0000069700
87361=
0000011200
87368
0000009600
87371
0000035800
87378
0000037300
87381
0000039400
87385
0000039400
87407
0000041500
87411
0000014600
87417
0000045700
87421
0000049900
87440
0000052000
87462=
0000050100
87574
0000050100
87625
0000054300
87671
0000060500
87795
0000056400
87969=
0000066800
88996=
0000062900
93017
0000071000
879
USAA01 NZCM 110000
TTAA 61001 89664
99997 00056 18501 00512 ///// ///// 92601 07158 18518
85255 11341 17017 70716 21114 15006 50514 33959 24513
40666 44759 24520 30855 51765 24023 25975 45585 24514
20124 43786 24513 15318 43586 26009 10592 41586 23504
88320 52361 23026
77999
31313 48008 82219=

0000069700
87361=
0000011200
87368=
0000015000
87382
0000012800
87386
0000045600
87406=
0000047800
87429
0000015700
87445
0000049900
87465
0000054100
87473
0000050000
87488
0000052100
87521
0000054200
87549
0000056300
87594
0000062500
87639
0000070800
87764
0000072900
87952=
0000056500
88951=
0000013400
92967
0000068900
880
USAA01 NZCM 110000
TTAA 61001 89664
99997 00056 18501 00512 ///// ///// 92601 07158 18518
85255 11341 17017 70716 21114 15006 50514 33959 24513
40666 44759 24520 30855 51765 24023 25975 45585 24514
20124 43786 24513 15318 43586 26009 10592 41586 23504
88320 52361 23026
77999
31313 48008 82219=

0000069700
87361=
0000011200
87368=
0000015000
87382
0000012800
87386
0000045600
87406
0000047700
87410
0000049800
87416
0000051900
87420
0000047800
87441
0000045800
87463
0000047900
87474
0000054100
87493=
0000052200
87702
0000058400
87777
0000066700
87968=
0000058600
89008=
0000062900
92972
0000062700
881
USAA01 NZCM 110000
TTAA 61001 89664
99997 00056 18501 00512 ///// ///// 92601 07158 18518
85255 11341 17017 70716 21114 15006 50514 33959 24513
40666 44759 24520 30855 51765 24023 25975 45585 24514
20124 43786 24513 15318 43586 26009 10592 41586 23504
88320 52361 23026
77999
31313 48008 82219=

0000069700
87361=
0000011200
87368=
0000015000
87382
0000012800
87386=
0000045700
87427
0000045800
87444
0000047900
87464
0000052000
87476
0000050000
87490=
0000046000
87708=
0000054400
88292
0000050300
88552
0000062700
88990=
0000071100
92984
0000060600
882
USAA01 NZCM 110000
TTAA 61001 89664
99997 00056 18501 00512 ///// ///// 92601 07158 18518
85255 11341 17017 70716 21114 15006 50514 33959 24513
40666 44759 24520 30855 51765 24023 25975 45585 24514
20124 43786 24513 15318 43586 26009 10592 41586 23504
88320 52361 23026
77999
31313 48008 82219=

0000069700
87361=
0000011200
87368
0000009600
87371
0000035800
87378
0000037300
87381=
0000039500
87413=
0000052000
87479
0000056200
87492=
0000046000
87710
0000056400
87802
0000060500
87978=
0000064800
89000=
0000067000
92974
0000064800
883
USAA01 NZCM 110000
TTAA 61001 89664
99997 00056 18501 00512 ///// ///// 92601 07158 18518
85255 11341 17017 70716 21114 15006 50514 33959 24513
40666 44759 24520 30855 51765 24023 25975 45585 24514
20124 43786 24513 15318 43586 26009 10592 41586 23504
88320 52361 23026
77999
31313 48008 82219=

0000069700
87361=
0000011200
87368=
0000015000
87382
0000012800
87386
0000045600
87406=
0000047800
87429
0000015700
87445
0000049900
87465
0000054100
87473=
0000050100
87586
0000062500
87637=
0000052300
88281
0000060600
88547
0000071000
89016=
0000060800
93020
0000064800
884
USAA01 NZCM 110000
TTAA 61001 89664
99997 00056 18501 00512 ///// ///// 92601 07158 18518
85255 11341 17017 70716 21114 15006 50514 33959 24513
40666 44759 24520 30855 51765 24023 25975 45585 24514
20124 43786 24513 15318 43586 26009 10592 41586 23504
88320 52361 23026
77999
31313 48008 82219=

0000069700
87361=
0000011200
87368=
0000015000
87382
0000012800
87386
0000045600
87406=
0000047800
87429
0000015700
87445=
0000050000
87538
0000054200
87552
0000066600
87599
0000058400
87652
0000058400
87779
0000056400
87980=
0000058600
88989=
0000058700
92973
0000079200
885
USAA01 NZCM 110000
TTAA 61001 89664
99997 00056 18501 00512 ///// ///// 92601 07158 18518
85255 11341 17017 70716 21114 15006 50514 33959 24513
40666 44759 24520 30855 51765 24023 25975 45585 24514
20124 43786 24513 15318 43586 26009 10592 41586 23504
88320 52361 23026
77999
31313 48008 82219=

0000069700
87361=
0000011200
87368
0000009600
87371
0000035800
87378
0000037300
87381
0000039400
87385
0000039400
87407
0000041500
87411
0000014600
87417
0000045700
87421
0000049900
87440
0000052000
87462
0000050000
87472
0000005900
87495
0000058300
87519
0000056300
87548
0000056300
87600
0000062500
87655
0000054300
87765
0000062600
87953=
0000058600
88975=
0000104800
92960
00000000