0000011100
054
UANT99 KDDL 110756
ARP NAX7006 5822N02826W 0756 F410 MS54 341/43 KT
EILNB QXT AOE 110757 L61A
0000012200
055
SNRE15 FMEE 110800
AAXX 11084
61997 26/// /3323 10083 20082 39826 40001 58041
  333 60075 90710 91134=
0000103700
056
UDAS02 BABJ 110748
AMDAR 1107
DES CNFOZL 3039N 11401E 110743 F018 MS004 179/011 TB/ S//1=
DES CNFOZL 3040N 11404E 110744 F018 MS003 002/009 TB/ S//1=
DES CNFOZL 3041N 11407E 110745 F019 MS005 010/009 TB/ S//1=
DES CNFOZL 3043N 11408E 110746 F011 PS015 348/007 TB/ S//1=
ASC CNFNXQ 3822N 10616E 110745 F175 MS273 283/047 TB/ S//1=
ASC CNFNXQ 3824N 10615E 110745 F185 MS290 275/051 TB/ S//1=
ASC CNFNXQ 3825N 10614E 110745 F188 MS294 274/057 TB/ S//1=
ASC CNFNXQ 3826N 10611E 110746 F203 MS313 272/061 TB/ S//1=
LVR CNFLWT 4010N 12307E 110745 F236 MS415 269/081 TB/ S//1=
LVR CNFLWT 4007N 12305E 110745 F236 MS415 269/080 TB/ S//1=
LVR CNFLWT 4004N 12302E 110746 F236 MS415 269/080 TB/ S//1=
LVR CNFLWT 4000N 12300E 110747 F236 MS413 268/079 TB/ S//1=
ASC CNFPQK 3210N 12043E 110738 F297 MS398 256/103 TB/ S//1=
LVR CNFPQK 3212N 12023E 110741 F301 MS403 262/104 TB/ S//1=
LVR CNFPQK 3213N 12004E 110744 F301 MS405 262/103 TB/ S//1=
LVR CNFPQK 3216N 11945E 110747 F301 MS410 258/097 TB/ S//1=
0000009200
057
SAPK31 OPPS 110755
METAR OPPS 110800Z 13004KT 5000 HZ FEW200 17/M03 Q1021.5=
0000006200
058
SDTH20 VTBB 110700 RRD
FFBB 1108/ 48456 00000=
0000038100
059
SAPK31 OPKC 110800
METAR OPGD 110800Z NIL=
METAR OPKC 110800Z NIL=
METAR OPLA 110755Z 30006KT 5000 HZ NSC 17/03 Q1019 NOSIG=
METAR OPNH 110800Z 36004KTS 4000M FU NSC 19/02 Q.1022=
METAR OPPS 110800Z 13004KT 5000 HZ FEW200 17/M03 Q1021.5=
METAR OPRN 110800Z 27012KT 6000 SKC 17/M02 Q1020.0/30.12=
METAR OPSK 110800Z 36006KTS 6000 HZ FEW200  20/08 QNH.1021 RH.47 PC=

0000008900
060
SAIN90 VOMD 110800
METAR VOMD 110800Z 11009KT 5000 HZ FEW020 30/19 Q1013=
0000024100
061
SOAT10 KWAL 110758
FA8005BC 011075837 OT12 ID:KN-BASS-01 DT:2014 01 11 07 56
:RD -3133 -3120 -3095 -3111 -3126 -3105 -3126 -3125 -3122 -3153
:PR 0630 0534 0568 0582 0570 0535 0537 0594 0610 0549
:B 13.7V
 46+1NN 219E
0000010200
062
SAYE20 OYSN 110800
METAR OYSN 110800Z 19010KT 160V230 9999 SCT030 SCT180 22/M08 Q1026=
0000024600
063
SASA85 EGRR 110800
METAR SBBV 110800Z 07004KT CAVOK 23/18 Q1011=
METAR SBCG 110800Z 35007KT CAVOK 22/18 Q1013=
METAR SBSL 110800Z 14002KT 9999 SCT017 25/21 Q1010=
METAR SBSV 110800Z 09009KT 9999 SCT017 FEW020TCU 25/23 Q1013=
0000008400
064
SASA85 EGRR 110500 RRJ
METAR SAVE 110500Z 36007KT CAVOK 09/04 Q1020=
0000008400
065
SPSA85 EGRR 110754 RRB
SPECI SBPK 110750Z 23005KT CAVOK 20/19 Q1010=
0000011100
066
UANT99 KDDL 110757
ARP AAL206 4557N01053W 0757 F380 MS64 276/45 KT
N391AA DDL SCQ 110757 F15A
0000010800
067
UANT99 KDDL 110757
ARP ANZ2 5605N03305W 0757 F330 MS59 210/46 KT
ZKOKQ QXT AME 110757 F31A
0000011000
068
UANT99 KDDL 110757
ARP AFR969 4556N01507W 0757 F370 MS63 265/68 KT
FGITF QXT AOW 110757 F58A
0000011100
069
UANT99 KDDL 110757
ARP AWE796 5001N01659W 0757 F380 MS58 245/72 KT
N281AY DDL XXN 110757 J65A
0000011000
070
UANT99 KDDL 110757
ARP AAL50 5401N01539W 0757 F340 MS60 247/54 KT
N726AN DDL BLY 110758 F66A
0000011000
071
UANT99 KDDL 110757
ARP KLM644 5142N03657W 0757 F350 MS55 273/14 KT
PHBFY QXT AOW 110758 F86A
0000010000
072
SNVC25 LFPW 110800
BBXX
BAREU08 11084 99307 50723 46/// ///// 40110 57008
22244=
0000011000
073
UANT01 CWAO 110757
ARP AFL152 6011N03632W 0757 F380 MS58 216/31 KT
VQBBG QXT AOE 110757 J78A
00000000