0000047900
874
SNVD19 KWNB 110800 RRD
BBXX
46126 11081 99540 71666 46/// /1802 10043 49814 90806 22200 00046
1//00 70001 333 91204 555 11016 22018=
46126 11081 99540 71666 46/// /1802 10043 49814 90810 22200 00046
1//00 70001 333 91204 555 11016 22018=
46126 11081 99540 71666 46/// /2001 10043 49814 90812 22200 00046
1//00 70001 333 91203 555 11014 22015=
46126 11081 99540 71666 46/// /2001 10043 49816 90815 22200 00047
1//00 70001 333 91203 555 11014 22015=
0000039100
875
SNVD22 KWNB 110800 RRP
BBXX
46087 11081 99485 71247 46/// /2016 10090 20090 49923 90820 22200
00076 333 91219 555 11170 22184 30745 42021 60819 200159 202159
201162 203165 201165 201173=
46088 11081 99483 71232 46/// /1511 10097 20075 49932 90820 22200
00074 10603 20603 70013 333 91214 555 11124 22135 30734 41416
60819 146116 143120 145121 146125 145125 143122=
0000023100
876
SNVD20 KWNB 110800 RRS
BBXX
44022 11081 99409 70737 46/// /0505 10018 20014 90815 333 91206
555 11051 22051=
44040 11081 99410 70736 46/// /0604 10021 20021 90815 22200 1//00
70001 333 91205 555 11046 22057=
0000053100
877
SABY31 UMMN 110830
METAR UMBB 110830Z 27008G13MPS 9999 SCT030 SCT100 05/00 Q1012
R29/290050 NOSIG=
METAR UMGG 110830Z 28012G16MPS 9999 BKN032 BKN100 04/M01 Q1003
R28/290050 NOSIG=
METAR UMII 110830Z NIL=
METAR UMMG 110830Z 27004G07MPS 9000 -SHRA BKN009CB OVC066 04/02
Q1008 R35/290060 NOSIG=
METAR UMMM 110830Z 29007G10MPS 9999 -SHRASN OVC015CB 01/M02
Q1004 R30/190060 NOSIG RMK QFE734 =
METAR UMMS 110830Z 29005G09MPS 240V310 9999 BKN017 01/M02
Q1004 R31/290060 NOSIG=
METAR UMOO 110830Z NIL=
0000013600
878
SNVD17 CWVR 110800
BBXX
46181 11081 99538 71288 46/// /0509 1//// 49809 57062
22200 00047 10301 70006 333 91211 =

0000013600
879
SNVD17 CWVR 110800
BBXX
46184 11081 99539 71389 46/// /0113 10059 49849 52009
22200 00072 11009 70045 333 91216 =

0000010800
880
UANT99 KDDL 110834
ARP ANZ2 5606N02348W 0833 F330 MS58 233/81 KT
ZKOKQ QXT EUA 110834 F38A
0000013500
881
SNVD17 CWVR 110800
BBXX
46183 11081 99536 71311 46/// /0511 10031 49769 57047
22200 00073 1//// 70/// 333 912//=

0000032800
882
SNVD22 KWNB 110800 RRQ
BBXX
46244 11081 99409 71244 46/// ///// 1//// 90821 22200 00109 11508
21003 330// 41507 70038=
46240 11081 99366 71219 46/// ///// 1//// 90821 22200 00127 11303
21001 335// 41303 70014=
46236 11081 99368 71219 46/// ///// 1//// 90822 22200 00124 11404
21002 329// 41403 70019=
0000051800
883
SNVD22 KWNB 110800 RRR
BBXX
46229 11081 99438 71246 46/// ///// 1//// 90819 22200 00092 11410
20807 329// 41407 70048=
46213 11081 99403 71247 46/// ///// 1//// 90824 22200 00118 11508
21003 330// 41508 70042=
46231 11081 99327 71174 46/// ///// 1//// 90814 22200 00154 11302
21002 328// 41302 70011=
46218 11081 99345 71208 46/// ///// 1//// 90829 22200 00134 11406
20904 330// 41404 70028=
46224 11081 99332 71175 46/// ///// 1//// 90812 22200 00154 11301
20501 325// 41301 70005=
0000010200
884
SAIN90 VEMN 110830
METAR VEMN 110830Z 07004KT 5000 HZ FEW025 SCT100 25/11 Q1015 NOSIG=
0000020600
885
SIIN64 VOMM 110300 RRB
AAXX 11034
43125 32997 03202 10190 20140 39376 40127 70500 333 10300
20140 58004 555 10000=
43260 32995 13204 10224 20198 39895 48515 8//// 333 20155
59002 555 10000=

0000073000
886
SAAE31 VTBB 110830
METAR VTBS 110830Z 07009KT 010V120 9999 FEW025 SCT300 32/14 Q1012 
NOSIG=
METAR VTBD 110830Z 03006KT 350V070 9999 FEW020 SCT300 31/18 Q1012 
NOSIG=
METAR VTCC 110830Z 18004KT 9999 FEW040 30/10 Q1016 A3001 NOSIG=
METAR VTBU 110830Z 23008KT 7000 FEW025 SCT300 32/19 Q1011 A2987=
METAR VTSS 110830Z 08014KT 9999 FEW020 SCT120 BKN300 30/21 Q1010
           A2985 NOSIG=
METAR VTSP 110830Z 09010KT 9999 FEW025 SCT300 32/21 Q1010 A2982
           NOSIG=
METAR VLVT 110830Z 12002KT 7000 SCT020 28/17 Q1014 NOSIG=
METAR VYMD 110830Z 36003KT 8000 NSC 29/16 Q1015 NOSIG=
METAR VYYY 110830Z NIL=
METAR VDPP 110830Z 31007KT 9999 FEW020 31/18 Q1010=
METAR VDSR 110830Z 31004KT 9000 FEW020 31/17 Q1010 NOSIG=

0000009400
887
SAIN90 VIAR 110830
METAR VIAR 110830Z 29005KT 240V320 4000 HZ NSC 16/11 Q1019=
0000008400
888
SAIN90 VABO 110800
METAR VABO 110800Z 05006 4000 FU NSC 24/09 Q1015=
0000018800
889
SNVE20 NZKL 110900
BBXX
ZMFR   11084 99441 51750 43/// /2322 10143 20088 40114 52020 22251 
00168=
ZMENA  11084 99431 31733 46/// ///20 10175 20117 40122 57019 22252=
0000011000
890
UANT01 CWAO 110834
ARP DAL40 5655N03104W 0834 F330 MS60 214/52 KT
N827MH QXT AOW 110834 F26A
0000011000
891
UANT01 CWAO 110834
ARP DAL84 4855N03025W 0834 F350 MS50 188/46 KT
N841MH QXT AOW 110834 F56A
0000011000
892
UANT01 CWAO 110835
ARP DAL10 4637N04212W 0834 F350 MS60 328/71 KT
N174DN QXT AOW 110835 F48A
0000050200
893
SSVX08 KARS 110834
ZZYY 15006 10014 1200/ 506029 009995 6111/
33311 88872 20001 32576 20040 32525 43611 20060 32303 20080 32018
20100 31635 20120 31471 43551 20140 31354 20180 31179 20300 30988
20500 30742
444 20110 10014 1323/ 521//=
ZZYY 13010 10014 1200/ 700000 000013 6112/
33311 88872 20001 32811 20020 32797 43447 20040 32284 43606
20060 31816 20080 31727 20100 31603 20120 31543 43564 20140 31505
20180 31441 20300 31039 20500 30713
444 20120 10014 1324/ 521//=
00000000