0000012100
026
SAGD31 TGPY 111100
METAR TGPY 111100Z 11005KT 9999 FEW018TCU 23/22 Q1015 NOSIG TCU-NE,
SSE ADJ SHRA-SW=
0000015700
027
SSVX13 LFPW 111100
ZZYY 64667 11014 1100/ 763126 029216 6113/ 11119 49997 52021 22219
 00064 444 20130 11014 1100/ 50101 80154 80000 9/015=
0000015700
028
SSVX13 LFPW 111100
ZZYY 41969 11014 1100/ 741194 042439 6113/ 11119 40235 52017 22219
 00162 444 20130 11014 1100/ 50101 80118 80010 9/015=
0000009800
029
SNVF25 LFPW 111100
BBXX
12050 11114 99336 10319 46/// ///// 40232 57018
22271=
0000011200
030
SNVF25 LFPW 111100
BBXX
BATFR03 11114 99503 70007 46/// /3419 10087 20035 40213 53026
22274=
0000011200
031
SNVF25 LFPW 111100
BBXX
BATFR20 11114 99377 10095 46/// /0613 10152 20132 40189 50001
22234=
0000011800
032
SNVF25 LFPW 111100
BBXX
BATFR09 11114 99395 70101 46/// /0403 10149 20069 40191 51017
22242 04159=
0000011800
033
SNVF25 LFPW 111100
BBXX
BATFR44 11114 99478 70039 46/// /1306 10082 20069 40216 51018
22232 04084=
0000011000
034
UANT01 CWAO 111101
ARP UAL24 5307N02640W 1101 F340 MS63 195/64 KT
N13113 DDL IG1 111101 F96A
0000015700
035
SSVX13 LFPW 111100
ZZYY 44612 11014 1100/ 745769 045293 6113/ 11119 40221 52005 22219
 00042 444 20130 11014 1100/ 50101 80154 80000 9/015=
0000015700
036
SSVX13 LFPW 111100
ZZYY 16593 11014 1100/ 338669 079061 6113/ 11119 40204 57003 22219
 00148 444 20130 11014 1059/ 50101 80120 80011 9/015=
0000011500
037
SNVF25 LFPW 111100
BBXX
FVNM 11114 99477 70034 46/// /1004 10064 20057 40208 51022
22200 04085=
0000011800
038
SNVF25 LFPW 111100
BBXX
BATFR62 11114 99497 70006 46/// /3413 10092 20042 40213 51038
22221 04124=
0000246700
039
SNDL21 EDZW 111100
AAXX 11111
10004 NIL=
10015 41241 82311 10063 20054 30062 40072 58015 75866 887//
  333 55300 20077 30077 88704 91116 91211 96010=
10020 47156 72310 10067 20063 30016 40048 58018 76266
  333 55300 20036 30036 87/02 91114=
10035 41240 82307 10055 20047 30013 40072 58012 76366 877//
  333 55300 20082 30082 41222 87706 91114=
10055 41330 82207 10059 20053 30069 40079 58011 76165 885//
  333 55300 20096 30096 85707 88628=
10147 41358 82207 10049 20037 30084 40103 58011 76162 877//
  333 55300 20152 30141 41229 87708=
10162 47450 82205 10051 20038 30024 40097 58012 76165
  333 55300 20084 30084 88/10=
10184 41350 82205 10055 20043 30092 40100 58008 76066 877//
  333 55300 20106 30106 87709=
10200 47244 82108 10052 20046 30094 40092 58013 75165
  333 55300 20124 30124 88/04 91113=
10224 41463 72206 10054 20033 30106 40112 58009 76062 8551/
  333 55300 20311 30305 85614 87459=
10270 46660 72203 10068 20027 30077 40132 58008
  222// 06041
  333 55304 82/33 85/40 87/58=
10338 42681 52306 10061 20020 30059 40132 58009 84530
  333 55305 20568 30318 82640 84656=
10361 42983 22303 10068 20017 30035 40139 58010 81044
  333 55310 20808 30147 81361=
10393 42981 12205 10058 20019 30013 40141 58007 81030
  333 55310 20876 30166 81363=
10400 42481 32105 10069 20039 30109 40159 50001 81181
  333 55309 20824 30308 81812 83074=
10469 42984 62107 10050 20017 39988 40155 57011 86051
  333 55305 86360=
10488 42984 32103 10071 20010 39879 40161 58007 81082
  333 55307 20682 30223 40919 81366 83080=
10506 41381 72405 10048 20031 39589 40177 53010 72122 868//
  333 55300 20296 30294 81807 83636 85656=
10548 41015 81602 10006 20005 39630 40185 55002 72844 886//
  333 55300 20132 30132 88701=
10637 41162 72302 10027 20021 30046 40187 51004 72166 8353/
  333 55300 81703 83640 87358=
10685 42880 72103 10038 21003 39488 40169 58004 8457/
  333 55301 20393 30353 84657 87360=
10738 41456 70401 10011 20010 39716 40198 53007 76166 875//
  333 55300 82710 87640=
10763 41565 71801 10028 20016 39796 40186 55001 76122 875//
  333 55300 20313 30312 81631 87656=
10788 47759 61004 10022 20013 39756 40198 58007 72365
  333 55303 20649 30501 81/50 83/59 86/63=
10852 47758 71101 10028 20018 39613 40192 58004 72365
  333 55301 20506 30471 82/50 87/59 87/68=
10946 45982 82102 10072 20044 39350 40179 51003
  333 55303 20664 30479 88/59=
0000246300
040
SNDL22 EDZW 111100
AAXX 11111
10007 NIL=
10044 46/// /2212 10060 20046 30039 40071 58013
222// 00055
  333 55300 91115 91213=
10046 47357 82205 10060 20052 30044 40078 58013 76166
  333 55300 83/08 87/11 88/28=
10091 41357 82411 10054 20045 30033 40084 58008 72022 876//
  222// 06053
  333 55300 20135 30133 87707 91114 91211=
10113 41335 82209 10059 20051 30066 40085 58012 76162 886//
  333 55300 20090 30090 88707 91115 96010=
10124 46/// ///// 10053 20052 30032 40071 58017
222// 0////
  333 553//=
10131 41356 82107 10054 20043 30070 40085 58015 76166 877//
  333 55300 20123 30123 87707=
10170 41456 82106 10059 20043 30077 40093 58011 76066 886//
  333 55300 20112 30112 88710=
10264 47467 72204 10056 20028 30004 40111 58009 70060
  333 55302 20555 30489 83/16 87/58 87/60=
10291 42775 72205 10056 20025 30058 40126 57009 8657/
  333 55300 20286 30286 86650 87463=
10315 42770 72105 10053 20029 30075 40140 57006 8657/
  333 55300 20339 30331 81650 86657 85462=
10379 42782 12304 10064 20020 30014 40136 58008 81581
  333 55310 20916 30214 40950 81656=
10381 42883 12304 10072 20018 30037 40135 58008 81530
  333 55310 81657=
10382 42681 12205 10071 20013 30090 40135 58009 81530
  333 55309 20758 30214 81642=
10384 NIL=
10427 41/00 92507 10004 20004 39138 48436 50000 74744
  333 55300 20156 30156=
10430 45981 52103 10061 20024 39954 40147 58005
  333 55308 20575 30321 83/58 85/63 85/66=
10439 NIL=
10453 41/88 62316 11029 21029 38787 48415 58008 74132 84632
  333 55309 847// 91120 91217 96036=
10496 42983 02405 10070 20015 30068 40153 58007
  333 55310 20874 30224=
10499 42983 52206 10053 20009 39872 40165 58006 82048
  333 55310 20895 30194 82361 85270=
10505 42584 52307 10073 20049 39881 40163 50008 84801
  333 55304 20522 30376 81830 84640=
10513 42583 61703 10061 20036 30041 40163 51004 81571
  333 55300 20273 30273 81628 85358=
10532 47001 82102 10004 20002 39926 40182 51003 73033
  333 55300 20344 30343 88/00=
10544 41083 82308 10004 20004 39077 48449 53001 72222 878//
  333 55300 81800 84803 86624 96278
  444 16064=
10554 42781 72404 10042 20016 39772 40165 58002 8157/
  333 55300 20395 30393 81656 87359=
10567 41889 72005 10041 20015 39786 40167 57007 71422 8707/
  333 55302 20506 30438 87357=
10578 42280 62410 11015 21022 38756 48450 58003 81272
  333 55307 20679 30477 81804 85350 91117 91214=
0000220300
041
SNDL23 EDZW 111100
AAXX 11111
10609 41345 82302 10025 20025 39858 40195 53016 71022 875//
  333 55300 20263 30258 81709 87650=
10616 42082 73002 10041 20030 39576 40183 53009 878//
  333 55300 81800 87656=
10641 47656 72202 10025 20018 30035 40185 52004 72365
  333 55300 86/41 87/50 87/58=
10655 41660 81602 10007 20004 39849 40187 53002 76022 875//
  333 55300 20166 30160 85644 87650=
10675 47757 81803 10013 20010 39889 40188 50002 71000
  333 55300 20255 30254 88/56=
10688 47950 02601 10013 20011 39660 40195 55007 71000
  333 55303 20515 30420=
10708 41157 72302 10032 20025 39799 40192 53007 76366 8177/
  333 55300 20153 30148 81803 85540 87358 96040=
10729 47660 71702 10033 20022 30066 40191 51008 72365
  333 55300 20229 30229 87/42 87/50 87/58=
10731 41562 81902 10029 20025 30041 40188 50006 72162 885//
  333 55300 20187 30187 88631=
10742 45659 82401 10022 20009 39854 40193 51011
  333 55300 20282 30281 87/49 88/57=
10776 47238 51602 10007 20004 39744 40200 58006 76265
  333 55300 20219 30219 85/04 85/50=
10791 41589 72411 11013 21013 38520 48465 58004 71422 8357/
  333 55300 83633 85359 91113 91212=
10805 41670 81901 10044 20040 30005 40199 51014 72162 8357/
  333 55300 20198 30198 83635 83358 87159=
10815 47569 72605 10056 20052 39243 48481 51011 76165
  333 55300 20099 30099 82/25 87/50 87/62=
10836 41/03 92805 10011 20007 39313 40200 53008 76364
  333 55300 20232 30229 89/03 96041=
10870 41859 70301 10024 20016 39653 40198 56002 71422 85072
  333 55307 82358 84362 87075=
10895 41056 80502 10002 21001 39617 40203 58008 71022 8167/
  333 55301 20531 30444 81701 87358 95122=
10908 42581 72311 10025 20002 38497 48493 51014 8257/
  333 55302 20666 30572 82630 86357 91116 91211 98489=
10929 41/02 92803 10020 20020 39668 40212 53012 74544
  333 55300 20437 30428=
10948 45785 82102 10067 20061 39236 48485 58003
  333 55302 20554 30460 81/50 88/58=
10961 42489 72607 11049 21071 37085 47055 50004 83542
  333 55302 20732 40957 83610 83320 91116 91211 95152
  444 16130=
10962 42789 72002 10087 20022 39034 48487 52001 83532
  333 55307 20932 30548 83656 83362 85075=
0000130800
042
SNDL44 EDZW 111100
AAXX 11111
10022 47243 72209 10061 20055 30051 40061 58014 76266
  333 55300 20070 30070 87/06 91114=
10028 41245 82211 10058 20052 30060 40074 58014 76366 877//
  333 55300 20123 30123 87706 91116 91212 98045=
10033 NIL=
10037 NIL=
10038 NIL=
10042 47360 72308 10061 20049 30069 40073 58012 76166
  333 55300 87/09 91113=
10067 NIL=
10093 47350 82306 10052 20038 30043 40093 58008 72365
  333 55300 88/06=
10097 47423 82310 10051 20039 30083 40097 58005 76265
  222// 06045
  333 55300 88/11 91113=
10126 NIL=
10129 47360 72109 10050 20043 30085 40098 58013 76165
  333 55300 20155 30155 87/09 87/33 87/41 91113=
10130 47350 82110 10056 20049 30078 40084 58013 76166
  333 55300 87/07 88/31 91113 91211=
10136 NIL=
10139 47456 82306 10049 20041 30093 40107 58009 76166
  333 55300 20177 30177 86/12 88/17=
10142 46347 82306 10054 20047 30058 40089 58012
  333 55300 88/07 88/11=
10146 47338 82205 10051 20043 30085 40102 57011 76166
  333 55300 87/08 88/13=
10150 47344 72206 10054 20047 30056 40090 58011 76266
  333 55300 20068 30068 87/07=
10152 47350 72307 10061 20049 30087 40089 58011 75165
  333 55300 87/09 87/14=
10156 47450 82103 10053 20041 30079 40100 58011 75165
  333 55300 20121 30121 88/11=
0000151100
043
SNDL45 EDZW 111100
AAXX 11111
10161 47350 82108 10056 20043 30075 40095 58010 72365
  333 55300 20088 30088 88/07=
10168 47356 72205 10054 20041 30031 40104 58010 71000
  333 55300 87/09=
10172 NIL=
10180 47450 82206 10058 20046 30086 40091 58010 76165
  333 55300 88/10=
10193 NIL=
10210 47356 72107 10048 20037 30102 40111 58011 75165
  333 55300 20233 30232 82/09 84/26 87/31=
10235 45981 82205 10054 20018 30026 40121 58012
  333 55300 20363 30359 83/58 88/61=
10238 NIL=
10246 NIL=
10249 47464 82105 10052 20026 30053 40110 58011 72365
  333 55300 20199 30199 81/15 83/45 88/59=
10253 45980 82306 10061 20026 30098 40120 58012
  333 55305 87/59 88/61=
10261 42981 42403 10070 20023 30098 40127 56010 84050
  333 55309 20771 30308 84360=
10267 45672 72307 10069 20032 30076 40125 58010
  333 55305 82/41 86/56 87/58=
10268 46/// /2205 10050 20031 30022 40109 58010
  333 55300=
10281 464// 82306 10050 20034 30000 40114 58008
  333 55300 20115 30115 88/11=
10282 47465 82206 10049 20030 39974 40117 57012 72365
  333 55300 20219 30219 83/13 87/50 88/62=
10289 47263 82206 10049 20031 30049 40119 56012 72365
  333 55300 81/06 88/46=
10304 NIL=
10305 41358 72205 10043 20024 30095 40127 58008 76066 877//
  333 55300 87709=
10306 NIL=
10309 47356 72106 10042 20031 30081 40139 58004 72365
  333 55300 20281 30281 87/07 87/50=
10312 45671 72205 10048 20024 30003 40131 58009
  333 55300 20399 30395 82/38 87/50 87/57=
0000176900
044
SNDL46 EDZW 111100
AAXX 11111
10321 42562 72206 10050 20028 30070 40123 58006 8257/
  333 55301 20360 30343 82632 87360=
10325 45481 82004 10053 20024 39974 40142 58005
  333 55301 87/15 87/57 88/58=
10334 NIL=
10335 NIL=
10343 NIL=
10348 45980 22405 10053 20010 30030 40138 58007
  333 55310 20835 30161 40903 82/60=
10356 45970 02406 10051 20008 39940 40140 58009
  333 55310=
10359 45961 42406 10067 20019 30075 40134 58012
  333 55310 20910 30250 84/60=
10365 45984 82102 10069 20015 30096 40143 58009
  333 55310 20690 30110 88/71=
10368 42980 12104 10053 20014 39910 40140 58008 80004
  333 55310 20910 30213 81076=
10376 45970 52406 10065 20018 30074 40142 58007
  333 55310 85/67 85/69=
10385 42983 12206 10064 20020 30077 40139 58009 81030
  333 55310 20881 30210 81363=
10396 45880 42203 10051 20025 30122 40138 58010
  333 55305 81/56 84/62=
10404 NIL=
10410 45475 62304 10064 20034 39975 40158 50003
  333 55304 85/11 86/15=
10418 45471 82406 10043 20027 39688 40160 53001
  333 55300 20343 30341 88/12 88/21=
10424 45482 72307 10073 20041 30045 40151 57003
  333 55308 20699 30349 84/18 86/61 87/68=
10433 45977 82203 10030 20008 39826 40144 58006
  333 55307 20656 30401 85/58 87/60 88/66=
10435 45969 82104 10033 20015 39865 40156 58006
  333 55307 88/61=
10441 45258 82701 10024 20015 39778 40168 57002
  333 55300 88/05=
10442 45975 51104 10040 20010 39967 40146 57009
  333 55308 20696 30278 85/61=
10444 42472 52105 10046 20021 39952 40159 58003 82141
  333 55310 20687 30273 81811 85075=
10449 45364 82304 10031 20019 39730 40161 58005
  333 55301 20252 30219 88/08=
10452 45272 72105 10007 21002 39421 40156 58007
  333 55302 20477 30408 87/06=
0000162100
045
SNDL47 EDZW 111100
AAXX 11111
10454 45981 01703 10072 21018 39852 40143 56008
  333 55309=
10458 45973 72307 10018 20004 39656 40151 58009
  333 55303 20482 30301 84/60 86/73 87/75=
10460 42581 62404 10038 20017 39959 40163 58007 81536
  333 55303 20499 30388 81623 83360 85278=
10466 46/61 /2103 10051 20016 30035 40153 56012
  333 55301 20488 30418=
10471 45981 82104 10057 20019 39989 40159 58007
  333 55306 20694 30375 40995 88/62 88/65=
10474 45972 02404 10061 20015 30018 40148 58009
  333 55310 20814 30189=
10476 NIL=
10480 45980 72306 10059 20020 39969 40153 56007
  333 55307 20706 30234 82/61 86/66 87/80=
10490 45972 02204 10067 20017 30031 40151 58010
  333 55310 20903 30191=
10495 47981 02305 10070 20011 30013 40155 58008 700//
  333 55310=
10500 NIL=
10502 NIL=
10516 NIL=
10519 45680 72004 10063 20032 39973 40169 53007
  333 55300 86/43 87/57=
10520 47664 72601 10030 20024 30085 40180 52006 75165
  333 553// 86/45 87/50=
10526 45578 82304 10037 20024 39514 40171 52006
  333 55300 20480 30473 87/22 88/56 88/58=
10534 47000 22204 10006 20006 39286 40179 52003 73033
  333 55300 82/00=
10537 47021 81707 10015 20015 39746 40179 53002 71000
  333 55300 88/00=
10540 45771 82504 10037 20015 39785 40169 58001
  333 55300 20340 30339 82/56 88/58=
10542 47657 82101 10035 20027 39839 40171 57001 71000
  333 55300 20249 30249 85/36 86/43 88/58=
10552 47002 72207 11004 21004 39056 48443 58002 77173
  333 55300 87/00=
10557 42175 72306 10006 20002 39159 48447 55004 878//
  333 55300 20291 30291 82803 87633=
00000000