0000014800
246
WSMS31 WMKK 111053
WBFC SIGMET A03 VALID 111100/111500 WBKK-
WBFC KOTA KINABALU FIR EMBD TS OBS BTN N03 AND N05 W OF E115 STNR NC=
0000023700
247
SAUS71 KWBC 110000 RRD
METAR
KWRI 102358Z AUTO 02003KT 1 1/2SM R06/2800FT -RA BR OVC005 02/02
     A3030=
KYNG 102351Z 13011KT 5SM BR FEW002 BKN060 04/03 A3003=
KZZV 102353Z AUTO 12005KT 8SM BKN022 07/05 A2999=

0000012900
248
SACN62 CYXY 110000
METAR CYXY 110000Z 24002KT 30SM FEW025 SCT060 BKN190 M13/M15 A2926
 RMK SC1SC3AC2 SLP966=

0000011900
249
SACN62 CYXH 110000
METAR CYXH 110000Z 33004KT 30SM SCT100 BKN270 M03/M08 A2960 RMK
 AC4CI3 SLP056=

0000169000
250
SAUS72 KWBC 110000
METAR
KABI 102352Z 29012KT 6SM HZ BLDU CLR 18/M09 A2974=
KABQ 102352Z 32010G20KT 10SM FEW140 FEW250 12/M13 A2991=
KABY 102353Z 00000KT 5SM BR OVC004 14/14 A3009=
KACT 102351Z 20008KT 10SM CLR 17/15 A2972=
KAEX 102353Z 15004KT 7SM -RA BKN015 OVC020 18/17 A2983=
KAFW 102353Z 21006KT 10SM FEW035 SCT220 15/09 A2969=
KAHN 102351Z 08006KT 1 1/4SM BR OVC003 08/07 A3011=
KALI 102353Z AUTO 30005KT 10SM CLR 22/14 A2983=
KAMA 102353Z 29004KT 10SM FEW120 09/M12 A2976=
KANB 102353Z AUTO 05007KT 8SM OVC011 11/09 A3003=
KAPF 102353Z 13003KT 10SM CLR 24/21 A3007=
KATL 102352Z 10006KT 1/4SM R09R/5500FT -DZ BR OVC002 09/08
     A3009=
KAUS 102353Z 19008KT 10SM FEW090 BKN150 BKN200 19/16 A2979=
KBFM 102353Z 00000KT 10SM OVC006 15/14 A3000=
KBHM 102353Z 13007KT 7SM BKN009 OVC034 11/09 A3002=
KBNA 102353Z 19013G21KT 10SM BKN017 OVC023 12/09 A2994=
KBPT 102353Z 17011KT 9SM BKN006 BKN016 OVC021 18/17 A2983=
KBQK 102355Z AUTO 12003KT 10SM SCT003 OVC011 18/18 A3012=
KBRO 102353Z 18010KT 10SM CLR 23/18 A2985=
KBTR 102353Z COR 12006KT 10SM BKN012 BKN026 OVC035 16/14 A2991=
KBTR 102353Z 12006KT 10SM BKN016 BKN026 OVC035 16/14 A2991=
KCEW 102353Z AUTO 00000KT 1/4SM FG VV002 16/15 A3004=
KCHA 102353Z 00000KT 3/4SM -DZ BKN004 OVC007 07/07 A3005=
KCLL 102353Z 23006KT 10SM SCT021 19/18 A2978=
KCNM 102353Z AUTO 25016G26KT 10SM CLR 17/M11 A2983=
KCRP 102351Z 16007KT 10SM FEW042 SCT250 21/19 A2982=
KCSG 102351Z 10005KT 1/2SM FG VV002 11/11 A3006=
KCSV 102353Z AUTO 17004KT 8SM OVC004 09/09 A2998=
KDAB 102353Z 00000KT 10SM FEW250 20/18 A3010=
KDAL 102353Z 22004KT 10SM FEW045 SCT170 SCT220 19/14 A2969=

0000011300
251
SACN62 CYWK 110000
METAR CYWK 110000Z 21006KT 12SM -SN OVC045 M13/M16 A2975 RMK SC8
 SLP126=

0000013600
252
SACN62 CYYF 110000
METAR CYYF 110000Z 20005KT 170V240 15SM FEW040 BKN080 BKN120 02/M01
 A2988 RMK SC1AC5AC1 SLP132=

0000170700
253
SAUS72 KWBC 110000 RRA
METAR
KDFW 102353Z 23010KT 10SM FEW035 SCT200 SCT250 19/10 A2969=
KDHN 102353Z 11005KT 1/2SM FG VV002 14/14 A3008=
KDLF 102358Z AUTO 18005KT 10SM CLR 17/10 A2983=
KDMN 102353Z AUTO 27017G22KT 10SM CLR 14/M09 A2999=
KELP 102351Z 26018KT 10SM CLR 16/M10 A2994=
KESF 102353Z AUTO 19007KT 5SM -RA BR OVC008 19/17 A2985=
KEYW 102353Z 11008KT 10SM CLR 23/22 A3005=
KFLL 102353Z 12009KT 10SM SCT017 SCT200 24/22 A3008=
KFSM 102353Z 06005KT 4SM BR FEW002 BKN029 09/09 A2962=
KFTW 102353Z 22006KT 10SM CLR 17/09 A2969=
KFTY 102353Z 10003KT 2SM BR OVC003 09/09 A3009=
KGGG 102353Z 18008KT 10SM BKN006 OVC033 17/16 A2972=
KGLS 102352Z 18013KT 2SM +RA BR FEW004 BKN011 OVC023 19/19
     A2985=
KGNV 102353Z 00000KT 10SM BKN031 OVC042 21/20 A3009=
KGPT 102353Z 13009KT 3/4SM BR OVC002 14/14 A2996=
KGUP 102353Z AUTO 27010KT 10SM CLR 08/M11 A3004=
KGWO 102353Z AUTO 17014KT 10SM BKN055 15/11 A2984=
KHOT 102353Z AUTO 08005KT 6SM BR SCT016 BKN070 OVC100 13/12
     A2971=
KHOU 102353Z 19008KT 10SM BKN016 BKN022 OVC070 21/18 A2982=
KHRL 102352Z 18010KT 10SM CLR 23/18 A2984=
KHRO 102353Z AUTO 16009KT 9SM SCT060 09/08 A2961=
KHSV 102353Z 13005KT 10SM BKN026 OVC033 11/08 A2998=
KHSV 102353Z COR 13005KT 10SM BKN026 OVC033 11/08 A2998=
KIAH 102353Z 19006KT 10SM BKN011 OVC020 21/18 A2981=
KINK 102353Z AUTO 26013KT 10SM -RA CLR 18/M11 A2981=
KJAN 102354Z 14014KT 10SM OVC047 15/12 A2989=
KJAX 102356Z 06007KT 10SM FEW025 FEW050 19/18 A3009=
KJBR 102353Z AUTO 16006KT 3SM +RA BR OVC021 09/08 A2973=
KLBB 102353Z 29010KT 10SM FEW250 13/M09 A2974=
KLCH 102353Z 17009KT 4SM -RA BR BKN005 BKN015 OVC034 18/17
     A2986=

0000019900
254
SAJP32 RJTD 110000 RRA
METAR RJOT 110000Z 25008KT 9999 FEW025 SCT050 04/M03 Q1029=
METAR RJFO 110000Z 27003KT 220V320 9999 -SHRASN FEW030 SCT040 BKN060
           04/M02 Q1031=

0000169600
255
SAUS72 KWBC 110000 RRB
METAR
KLFT 102353Z AUTO 18008KT 9SM -RA OVC006 19/18 A2989=
KLIT 102353Z 32007KT 3SM RA BR OVC007 12/11 A2977=
KLRD 102356Z 00000KT 10SM CLR 22/13 A2986=
KLRU 102355Z AUTO 25017G23KT 10SM CLR 14/M09 A2998=
KMAF 102353Z AUTO 24014KT 10SM CLR 18/M08 A2978=
KMCN 102353Z 07003KT 1SM BR VV002 11/11 A3010=
KMCO 102353Z 13004KT 10SM FEW050 SCT200 22/19 A3009=
KMEI 102358Z 00000KT 9SM OVC006 13/12 A2995=
KMEM 102354Z 16015G18KT 10SM SCT036 BKN047 OVC120 12/08 A2976=
KMFE 102353Z 28004KT 10SM CLR 25/16 A2984=
KMGM 102353Z 08005KT 1SM -RA BR VV002 12/11 A3003=
KMIA 102353Z 12007KT 10SM FEW018 BKN190 BKN300 25/22 A3009=
KMKL 102353Z 16012G22KT 10SM OVC010 11/08 A2980=
KMLB 102353Z 11003KT 10SM SCT036 OVC049 23/22 A3010=
KMLC 102353Z AUTO VRB03KT 10SM VCTS SCT039 BKN046 OVC070 11/08
     A2968=
KMLU 102353Z 17010G15KT 8SM BKN007 OVC075 17/16 A2981=
KMOB 102356Z 12007KT 9SM OVC006 15/15 A2999=
KMSL 102353Z AUTO 14006KT 10SM OVC040 12/08 A2996=
KMSY 102353Z 13003KT 1/2SM BR OVC002 16/16 A2994=
KNEW 102353Z AUTO 12007KT 1/2SM FG VV002 13/13 A2995=
KNGP 102356Z 17010KT 10SM SCT035 SCT250 19/17 A2982=
KOKC 102352Z 29005KT 10SM FEW250 09/M03 A2972=
KPBI 102353Z 14008KT 10SM FEW021 BKN200 25/21 A3009=
KPDK 102353Z 00000KT 1 1/4SM BR OVC003 08/07 A3009=
KPFN NIL=
KPIE 102353Z 19003KT 10SM SCT023 SCT029 23/19 A3008=
KPNS 102353Z AUTO 09005KT 3/4SM R17/3500V4500FT -RA BR VV003 17/16
     A3001=
KROW 102351Z 28009KT 10SM CLR 17/M12 A2982=
KRSW 102353Z 02003KT 10SM FEW075 BKN100 22/21 A3008=
KSAT 102351Z 22007KT 10SM BKN170 OVC250 21/14 A2983=
KSFB 102353Z 13004KT 10SM CLR 22/19 A3009=

0000135700
256
SAUS72 KWBC 110000 RRC
METAR
KSHV 102356Z 18009KT 3SM -RA BR OVC012 17/15 A2974=
KSJT 102351Z 25010KT 10SM CLR 20/M07 A2978=
KSRQ 102353Z 18003KT 10SM CLR 23/19 A3006=
KSSI 102353Z AUTO 12008KT 10SM BKN012 17/17 A3011=
KTCC 102353Z AUTO 32007KT 10SM FEW110 11/M12 A2975=
KTCL 102353Z 09003KT 8SM OVC013 13/11 A2998=
KTCS 102353Z AUTO 23003KT 10SM CLR 16/M11 A2993=
KTLH 102353Z 16006KT 1 1/2SM BR OVC003 19/18 A3008=
KTPA 102353Z 20003KT 10SM BKN050 22/19 A3009=
KTRI 102353Z 09004KT 10SM BKN250 07/06 A3004=
KTUL 102353Z 29009KT 10SM FEW050 FEW180 09/00 A2966=
KTUP 102353Z 18008G18KT 10SM OVC005 11/ A2990=
KTXK 102353Z 17006KT 7SM BKN028 OVC034 15/14 A2971=
KTYR 102353Z 19012KT 10SM BKN007 OVC013 17/16 A2973=
KTYS 102353Z 00000KT 10SM FEW037 BKN055 OVC250 09/06 A3001=
KVCT 102351Z 17003KT 10SM SCT021 22/19 A2982=
KVLD 102353Z 00000KT 8SM FEW031 SCT043 OVC050 21/18 A3009=
KVRB 102353Z AUTO 16005KT 10SM CLR 23/21 A3010=
TIST 102353Z AUTO 08012G22KT 10SM CLR 25/17 A3007=
TISX 102353Z 06006KT 10SM FEW070 24/17 A3007=
TJBQ 102350Z 10011KT 10SM SCT030 27/ A3009=
TJMZ NIL=
TJPS 102350Z 00000KT 8SM FEW030 SCT050 26/19 A3003=
TJSJ 102356Z 08007KT 10SM SCT026 SCT045 25/21 A3008=
TKPK 110000Z 08015KT 9999 SCT021 25/19 Q1017=
TNCM 110000Z 08013KT 9999 FEW019 26/17 Q1018 A3007 NOSIG=

0000003900
257
SIVB22 RJTD 110900
NIL=
0000069200
258
SAJP41 KWBC 110000
METAR
RJAF 110000Z 00000KT 9999 VCSH FEW050 M07/M11 Q1023=
RJAI NIL=
RJAK NIL=
RJAM NIL=
RJAO NIL=
RJAT NIL=
RJAW NIL=
RJBD 110000Z 34010KT 9999 FEW025 05/M03 Q1029=
RJCA NIL=
RJCB 110000Z VRB02KT 9999 FEW040 BKN050 M11/M18 Q1015=
RJCJ NIL=
RJCK 110000Z 22006KT 9999 FEW001 M08/M17 Q1015=
RJCM 110000Z 18005KT 5000 -SHSN FEW010 SCT020 BKN030 M12/M14
     Q1015=
RJCN 110000Z 26006KT 9999 FEW035 BKN050 M11/M15 Q1015=
RJCO NIL=
RJCR NIL=
RJCT NIL=
RJCW 110000Z 29019KT 5000 -SHSN BLSN FEW006 SCT020 BKN035 M09/M19
     Q1014=
RJDB NIL=
RJDC 110000Z 25004KT 200V290 9999 FEW020 SCT030 BKN040 05/M03
     Q1031=

0000072100
259
SAJP42 KWBC 110000
METAR
RJDK NIL=
RJDM NIL=
RJDO NIL=
RJDT 110000Z 02005KT 280V080 9999 SCT035 03/M06 Q1032=
RJEB 110000Z VRB01KT 8000 -SHSN FEW008 SCT040 BKN050 M11/M14
     Q1015=
RJEC 110000Z 19005KT 8000 -SHSN FEW007 SCT030 BKN050 M10/M13
     Q1014=
RJEO NIL=
RJER NIL=
RJFA NIL=
RJFC NIL=
RJFE NIL=
RJFG 110000Z VRB02KT 9999 FEW025 08/01 Q1030=
RJFM 110000Z 29007KT 9999 FEW030 SCT180 03/M04 Q1031=
RJFN NIL=
RJFO 110000Z 27003KT 220V320 9999 -SHRASN FEW030 SCT040 BKN060
     04/M02 Q1031=
RJFR 110000Z 06003KT 310V120 9999 FEW020 BKN030 BKN060 05/M01
     Q1031=
RJFY NIL=
RJFZ NIL=
RJKA 110000Z 36005KT 9999 FEW035 SCT045 14/04 Q1029=
RJKB NIL=

0000064200
260
SAJP43 KWBC 110000
METAR
RJKI NIL=
RJKN NIL=
RJNF NIL=
RJNG NIL=
RJNH NIL=
RJNO NIL=
RJNT 110000Z 18005KT 9999 -SHSN FEW005 BKN020 01/M01 Q1027=
RJNY NIL=
RJOA 110000Z 30006KT 9999 FEW020 SCT030 00/M05 Q1029=
RJOB 110000Z 28007KT 9999 FEW020 01/M03 Q1029=
RJOC 110000Z 28009KT 9999 FEW030 BKN050 04/M02 Q1029=
RJOE NIL=
RJOF NIL=
RJOI 102355Z 27006KT 9999 FEW030 03/M02 A3042 RMK SLP302 T00331017
     10033 20011 53012=
RJOK 110000Z 32004KT 9999 FEW040 01/M02 Q1030=
RJOM 110000Z 13007KT 9999 FEW020 03/M02 Q1031=
RJOP NIL=
RJOR 110000Z 18009KT 9999 FEW020 SCT035 BKN050 02/M01 Q1029=

0000062200
261
SAJP44 KWBC 110000
METAR
RJOS NIL=
RJOT 110000Z 25008KT 9999 FEW025 SCT050 04/M03 Q1029=
RJOY 110000Z 12005KT 9999 FEW015 03/M00 Q1029=
RJOZ NIL=
RJSA 110000Z 24011G21KT 210V270 5000 -SHSN FEW003 SCT012 BKN020
     M06/M08 Q1020=
RJSC 110000Z 18003KT 150V210 3000 -SHSN FEW003 SCT015 BKN025
     M04/M05 Q1024=
RJSD NIL=
RJSH NIL=
RJSI 110000Z 00000KT 8000 -SHSN FEW008 SCT015 BKN030 M07/M07
     Q1022=
RJSO NIL=
RJST NIL=
RJSU NIL=
RJTA NIL=
RJTC NIL=
RJTE NIL=
RJTF 110000Z VRB02KT 9999 FEW030 01/M07 Q1025=
RJTH NIL=
RJTI 110000Z VRB03KT CAVOK 03/M08 Q1025=

0000028500
262
SAJP45 KWBC 110000
METAR
RJTJ NIL=
RJTK NIL=
RJTL NIL=
RJTO 110000Z 19008KT 160V230 9999 FEW030 07/M01 Q1024=
RJTQ NIL=
RJTR NIL=
RJTU NIL=
RJTX NIL=
RJTY 102358Z AUTO VRB02KT 10SM CLR 03/M07 A3030 RMK AO2 SLP272
     T00251073 10025 21046 52008=

0000032900
263
SASA41 KWBC 110000
METAR
SEMT 110000Z 20011KT 9999 BKN023 25/22 Q1009=
SEPA NIL=
SKBG 110000Z 29004KT 9999 SCT015 22/19 A2991=
SKMD NIL=
SKPE 110000Z VRB02KT 9999 FEW017 SCT200 21/18 A3003=
SKSM 110000Z 02003KT 9999 NSC 29/18 A2974=
SKVG NIL=
SMJP 110000Z 07003KT 9999 SCT025 24/23 Q1012 NOSIG=

0000024800
264
SASA42 KWBC 110000
METAR
SCAC NIL=
SCHA NIL=
SCSE 110000Z 28005KT CAVOK 17/14 Q1011=
SCTC NIL=
SCTI NIL=
SCVD NIL=
SELT 110000Z 31002KT 9999 SCT030 SCT100 13/11 Q1026=
SUAG NIL=
SUDU NIL=
SUPU NIL=
SUTB NIL=

0000028500
265
SAVN42 KWBC 110000
METAR
SVPC NIL=
SVPM NIL=
SVPR NIL=
SVSA NIL=
SVSE NIL=
SVSO NIL=
SVSP NIL=
SVSR 110000Z /////KT CAVOK 27/XX Q1012=
SVST NIL=
SVSZ NIL=
SVTM NIL=
SVVA 110000Z 36007KT 9999 FEW016 25/17 Q1013=
SVVL 110000Z NIL=
SVVP NIL=

00000000