0000012200
826
SAEU31 BKPR 110230
BKPR 110230Z 00000KT 0100 R17/0150 FZFG BKN002 M00/M01 Q1023 NOSIG
 RMK 17010095 =

0000009500
827
SPCN44 CWAO 110222
SPECI CYOD 110222Z 28008KT 15SM BKN016 OVC080 RMK SC6AC1=

0000011700
828
SAEG31 HECA 110230
METAR HECA 110230Z 00000KT 1500 R05C/1500 R23C/1500 BR NSC 11/08
Q1023 NOSIG=

0000004600
829
FCDL33 EDZO 110200
TAF NIL=

0000026100
830
FCBX31 EBBR 110200
TAF EBAW 110220Z 1103/1112 22010KT 9999 BKN008
    BECMG 1107/1110 SCT012 
    TEMPO 1110/1113 BKN012 =
TAF EBCI 110220Z 1103/1112 21009KT 9999 BKN006
    PROB30 TEMPO 1103/1108 BKN004
    BECMG 1109/1111 BKN012 =

0000040400
831
SABX31 EBBR 110220
METAR EBAW 110220Z AUTO 22005KT 9999 OVC008/// 04/02 Q1016=
METAR EBBR 110220Z 22006KT 9999 BKN011 04/02 Q1015 NOSIG=
METAR EBCI 110220Z 20008KT 9000 BKN005 04/03 Q1016 NOSIG=
METAR EBLG 110220Z 18009KT CAVOK 03/01 Q1016 NOSIG=
METAR EBOS 110220Z 20010KT 6000 SCT004 BKN006 04/02 Q1015 TEMPO
     BKN004=
METAR ELLX 110220Z AUTO VRB02KT //// 01/01 Q1016=

0000049500
832
SAOS31 LOWM 110220
METAR LOWW 110220Z 18005KT CAVOK M02/M03 Q1021 NOSIG=
METAR LOWL 110220Z AUTO VRB01KT 0900 R26/0600V1000N FZFG FEW240
    M02/M02 Q1020=
METAR LOWS 110220Z AUTO VRB02KT 9999 BKN070 03/02 Q1019=
METAR LOWI 110220Z AUTO 25004KT 1700 R08/1000V1500U FZFG OVC003
    02/02 Q1020 R88///////=
METAR LOWG 110220Z AUTO 01005KT 9999 FEW001 OVC008 03/02 Q1020
    R88///////=
METAR LOWK 110220Z AUTO 34003KT 3400 BR OVC002 01/01 Q1021
    R88///////=

0000006100
833
SAOS32 LOWM 110220
METAR LOXZ 110220Z NIL=

0000023400
834
FTAG31 KWBC 110224
TAF
TAF AMD SAEZ 110200Z 1102/1124 19010KT CAVOK TX26/1118Z TN15/1109Z
      BECMG 1104/1107 16010G20KT 9999 SCT030
      BECMG 1112/1115 16015KT 9999 SCT040
      BECMG 1121/1124 11010KT=

0000058800
835
FTUS80 KWBC 110224 AAA
TAF AMD
KGSO 110221Z 1102/1124 04004KT 5SM -DZ BR BKN005 OVC010
      WS010/19035KT
     FM110400 VRB05KT 1/2SM -DZ FG VV002 WS010/19036KT
     FM111500 19013G20KT P6SM OVC006
     FM111800 21016G23KT 5SM -SHRA BR BKN007 OVC015
     FM112200 25016G23KT P6SM FEW025 BKN100=
KINT 110220Z 1102/1124 04004KT 5SM -DZ BR OVC003 WS010/19035KT
     FM110400 VRB05KT 1/2SM -DZ FG VV002 WS010/19036KT
     FM111500 19013G20KT P6SM OVC006
     FM111800 21016G23KT 5SM -SHRA BR BKN007 OVC015
     FM112200 25016G23KT P6SM FEW025 BKN100=

0000022300
836
FTUS80 KWBC 110224
TAF
TAF KEVW 110214Z 1102/1124 25011KT P6SM VCSH SCT025 BKN060
      TEMPO 1102/1103 BKN025
     FM110300 25011KT P6SM SCT030 BKN080
     FM111700 22018G27KT P6SM SCT050 BKN120=

0000100400
837
FTSP32 LEMM 110200
TAF LEAS 110200Z 1103/1203 VRB03KT 8000 SCT015 BKN025 TX13/1114Z
TN08/1106Z PROB40 TEMPO 1103/1106 3000 -RA BR BKN010 PROB40
TEMPO 1103/1106 1500 DZ BCFG BKN006 BECMG 1109/1111 09010KT
PROB40 TEMPO 1115/1118 09015G25KT BECMG 1118/1122 15005KT=
TAF COR LECO 110205Z 1103/1203 VRB03KT 9999 FEW020 TX13/1115Z
TN06/1106Z PROB40 TEMPO 1103/1109 BKN012 TEMPO 1103/1109
0350 BCFG VV001 BECMG 1121/1123 19010KT PROB40 TEMPO 1200/1203
19015G25KT=
TAF LEGR 110200Z 1103/1203 VRB03KT 9999 FEW020 SCT080 TX16/1115Z
TN04/1106Z TEMPO 1103/1118 SCT020 BKN080 PROB30 TEMPO 1103/1118
RA BKN025=
TAF LEPP 110200Z 1103/1203 VRB03KT 8000 SCT015 TX10/1115Z
TN00/1106Z PROB40 TEMPO 1103/1112 3000 BR BKN012 PROB40
TEMPO 1103/1109 0700 BCFG BKN005 PROB40 TEMPO 1200/1203
3000 BR BKN012=
TAF LEXJ 110200Z 1103/1203 25005KT 9999 SCT015 BKN025 TX14/1113Z
TN08/1107Z PROB40 TEMPO 1103/1109 3000 -RADZ BR BKN012 BECMG
1109/1111 06010KT BECMG 1200/1203 19010KT=

0000065800
838
FTSP36 LEMM 110200
TAF LEAM 110200Z 1103/1203 02012KT 9999 FEW020 SCT080 TX16/1115Z
TN11/1106Z TEMPO 1105/1120 SCT020 BKN080 BECMG 1110/1112
22012KT PROB30 TEMPO 1106/1116 RA BKN020=
TAF LEIB 110200Z 1103/1203 05006KT 9999 FEW012 TX17/1113Z
TN08/1106Z TEMPO 1103/1109 BKN010 PROB30 TEMPO 1104/1109
4000 BR BKN008=
TAF LEMH 110200Z 1103/1203 08005KT 9999 FEW016 TX16/1113Z
TN09/1106Z PROB30 TEMPO 1103/1108 4000 BR BKN006=
TAF LERS 110200Z 1103/1203 35005KT 8000 SCT016 TX16/1114Z
TN07/1107Z PROB30 TEMPO 1103/1109 3000 BR BKN006 TEMPO 1111/1117
12007KT=
TAF LEZL 110200Z 1103/1203 VRB02KT CAVOK TX17/1115Z TN09/1108Z=

0000038600
839
FTCR31 LEMM 110200
TAF GCLP 110200Z 1103/1203 34007KT 9999 FEW020 TX22/1112Z
TN13/1107Z=
TAF GCRR 110200Z 1103/1203 VRB04KT 9999 FEW020 TX21/1112Z
TN12/1107Z=
TAF GCTS 110200Z 1103/1203 VRB05KT 9999 FEW035 TX21/1112Z
TN13/1107Z PROB30 TEMPO 1103/1107 36010KT=
TAF GCXO 110200Z 1103/1203 29010KT 9999 FEW014 TX16/1112Z
TN09/1107Z BECMG 1106/1109 12007KT=

0000182200
840
SPUS70 KWBC 110224
SPECI
KAOH 110220Z AUTO 18010KT 3SM -RA BR OVC002 06/05 A2981 RMK AO2
     PNO $=
KAXN 110220Z AUTO 24008KT 2SM BR OVC004 M02/M02 A2948 RMK AO2=
KCMX 110221Z AUTO 17005KT 1 3/4SM -SN BR SCT025 OVC033 M03/M05
     A2956 RMK AO2 SNB04 P0000=
KFAY 110220Z AUTO 00000KT 1 1/4SM -RA BR BKN015 OVC022 17/16 A3012
     RMK AO2 P0015=
KHBG 110220Z AUTO 15009KT 3SM BR OVC002 17/16 A2993 RMK AO2
     T01670161=
KHIE 110220Z AUTO 00000KT 7SM BKN028 OVC065 M06/M07 A3024 RMK AO2
     T10561072=
KHUF 110220Z 18010KT 4SM -RA OVC006 06/ A2971 RMK AO2 CIG 003V008
     P0003 $=
KIND 110220Z 15011KT 1/4SM R05L/1600V2000FT -RA FG VV002 04/04
     A2972 RMK AO2 P0001=
KMFI 110220Z AUTO 07004KT 1 1/4SM -SN BR BKN017 OVC037 M02/M03
     A2949 RMK AO2 P0001 T10171028=
KRDG 110220Z AUTO 33003KT 1/2SM -RA FG VV003 01/M01 A3025 RMK AO2
     P0001 TSNO RVRNO=
KBGM 110221Z 16006KT 6SM BR OVC004 01/M01 A3015 RMK AO2=
KDAY 110221Z 15009KT 6SM -RA BR FEW007 SCT013 OVC022 07/06 A2982
     RMK AO2 RAB18 P0000=
KFVE 110221Z AUTO 19008KT 10SM BKN016 M08/M14 A3015 RMK AO2
     T10831139=
KISW 110221Z AUTO 09003KT 1SM -SN BR SCT005 OVC015 00/M01 A2951
     RMK AO2 P0003 T00001006=
KLWV 110221Z AUTO 19014KT 2 1/2SM RA SCT010 BKN017 OVC070 08/
     A2972 RMK AO2 P0006 T0078 $=
KPAH 110221Z 28011KT 3SM RA BR BKN005 BKN016 OVC029 09/08 A2979
     RMK AO2 WSHFT 0205 P0010 T00940083=
KRUE 110221Z AUTO 29003KT 3/4SM -RA BR SCT014 BKN045 OVC065 09/09
     A2967 RMK AO2 P0010=
KBFD 110221Z AUTO 13007KT 2 1/2SM BR OVC002 02/02 A3002 RMK AO2
     T00220017 TSNO=
KTOP 110221Z AUTO 27006KT 5SM BR FEW009 BKN030 OVC034 03/01 A2962
     RMK AO2 T00280011=
KYIP 110221Z AUTO 14007KT 1 1/2SM BR OVC002 04/02 A2982 RMK AO2
     P0003 TSNO=

0000011700
841
SPUS31 KWBC 110224
SPECI
KIND 110220Z 15011KT 1/4SM R05L/1600V2000FT -RA FG VV002 04/04
A2972=

0000010000
842
SPUS41 KWBC 110224
SPECI
KCAK 110220Z 17006KT 4SM BR FEW006 OVC060 06/06 A2990=

0000009300
843
SPUS42 KWBC 110224
SPECI
KSAV 110220Z 00000KT 6SM BR BKN005 17/16 A3011=

0000011700
844
SPUS43 KWBC 110224
SPECI
KCMX 110221Z AUTO 17005KT 1 3/4SM -SN BR SCT025 OVC033 M03/M05
A2956=

0000021700
845
SANO35 ENMI 110220
METAR ENMS 110220Z NIL=
METAR ENRM 110220Z NIL=
METAR ENRS 110220Z NIL=
METAR ENSK 110220Z NIL=
METAR ENSO 110220Z NIL=
METAR ENST 110220Z NIL=
METAR ENVD 110220Z NIL=

00000000