0000065500
526
SNAU44 AMMC 110700 RRA
AAXX 11074
94474 45/// /1213 10371 21064 39332 40097 56017 90730=
94476 45/// /1013 10401 20095 39961 40092 56017 90730=
94655 45/// /1908 10399 20039 39991 40132 56018 90730=
94656 41980 01615 10205 20151 30187 40197 57010 70200 90730=
94662 45/// /1416 10230 20129 39985 40189 57006 90730=
94666 45/// /2117 90730=
94674 45/// /1911 10391 20096 39823 40115 56015 90730=
94675 45/// /1711 10282 20067 30117 40174 58005 90730=
94677 45/// /1818 10194 20140 30193 40206 55002 90730=
94683 45/// /1414 10189 20122 39756 40176 56004 90730=
94685 45/// /1716 10301 20061 30123 40172 56003 90730=

0000113500
527
SNAU45 AMMC 110700 RRA
AAXX 11074
94814 45/// /1917 10199 20122 30134 40203 56001 90730=
94817 45/// /1811 10237 20107 30128 40196 55000 90730=
94820 45/// /1917 10255 20113 30131 40190 55000 90730=
95654 45/// /1315 10331 20056 30064 40165 56009 90730=
95658 45/// /1811 10407 21039 30002 40116 56015 90730=
95659 45/// /1724 10238 20128 30148 40187 58005 90730=
95661 45/// /1517 10220 20144 30193 40203 57006 90730=
95662 45/// /1918 10323 20092 39979 40170 56009 90730=
95663 45/// /1516 10252 20095 30122 40193 57004 90730=
95664 45/// /1922 10273 20113 30152 40160 58007 90730=
95667 45/// /2008 10295 20080 39715 40167 56005 90730=
95670 45/// /1916 10275 20107 30041 40168 56007 90730=
95671 45/// /1913 10327 20045 30083 40159 56012 90730=
95676 45/// /1511 10315 20018 30144 40164 56009 90730=
95677 45/// /1213 10308 20073 30156 40168 56005 90730=
95687 45/// /2013 10355 20018 30111 40148 56011 90730=
95805 45/// /1616 10201 20127 30020 40206 56007 90730=
95807 45/// /1518 10209 20143 30201 40208 56005 90730=
95818 45/// /2018 10223 20118 30143 40197 55003 90730=

0000008700
528
SNAU46 AMMC 110700
AAXX 11074
95823 45/// /2013 10262 20115 90730=

0000039500
529
SNVD15 KWNB 110700 RRQ
BBXX
42360 11071 99267 70905 46/// /1906 10225 40147 54000 90700 22200
00227 10702 70009 333 91207 555 11059 22064=
41051 11071 99183 70650 46/// /0806 10256 90730 333 91208 555
11071 22078=
41051 11071 99183 70650 46/// /0807 10256 90720 333 91209 555
11075 22081=
41051 11071 99183 70650 46/// /0807 10256 90710 333 91209 555
11076 22082=
0000217000
530
SZNZ01 NZKL 110745
CREX++
T000103 A001 D01021 D06025++
-3683144 17478654 AUCT  2014 01 11 07 37 //// 11 07 00 01
04552 3193 04545 3194 04537 3194 04523 3187 04515 3187 04508 3188+
-4402404 -17636748 CHIT  2014 01 11 07 37 //// 11 07 00 01
04280 1921 04291 1932 04285 1925 04286 1926 04298 1936 04292 1930+
-4089929 17623168 CPIT  2014 01 11 07 37 //// 11 07 00 01
03196 2265 03212 2282 03192 2262 03196 2266 03202 2273 03183 2255+
-3618905 17548887 GBIT  2014 01 11 07 37 //// 11 07 00 01
05298 -0007 05297 -0003 05290 -0006 05283 -0008 05283 -0003 05285 0003+
-3867541 17802288 GIST  2014 01 11 07 37 //// 11 07 00 01
03376 2744 03355 2725 03369 2740 03361 2735 03350 2725 03359 2737+
-4241288 17370277 KAIT  2014 01 11 07 37 //// 11 07 00 01
02633 2209 02646 2222 02645 2220 02634 2209 02651 2225 02658 2231+
-3755040 17815904 LOTT  2014 01 11 07 37 //// 11 07 00 01
02902 0189 02889 0180 02892 0187 02900 0198 02893 0194 02894 0200+
-3704657 17451175 MNKT  2014 01 11 07 37 //// 11 07 00 01
03351 -0132 03342 -0138 03337 -0139 03316 -0156 03323 -0146 03319 -0145+
-3947566 17692007 NAPT  2014 01 11 07 37 //// 11 07 00 01
02326 2036 02308 2019 02297 2010 02314 2028 02308 2023 02317 2033+
-3441483 17304870 NCPT  2014 01 11 07 37 //// 11 07 00 01
-01472 -5622 -01494 -5639 -01632 -5771 -01707 -5841 -01498 -5626 -01481 -5603+
-4581435 17062939 OTAT  2014 01 11 07 37 //// 11 07 00 01
03897 3421 03901 3421 03905 3422 03909 3421 03912 3421 03917 3421+
-2928002 -17789440 RBCT  2014 01 11 07 37 //// 11 07 00 01
05691 2029 05674 2014 05685 2029 05685 2032 05676 2026 05682 2036+
-2925114 -17790384 RFRT  2014 01 11 07 37 //// 11 07 00 01
02606 0221 02608 0227 02601 0223 02592 0217 02603 0231 02594 0226+
-4357010 17277383 SUMT  2014 01 11 07 37 //// 11 07 00 01
01136 1857 01136 1856 01127 1845 01148 1864 01154 1869 01176 1889+
-3764109 17618118 TAUT  2014 01 11 07 38 //// 11 07 00 01
04629 3988 04624 3988 04620 3989 04615 3989 04608 3987 04602 3985+
-4128448 17477985 WLGT  2014 01 11 07 37 //// 11 07 00 01
02569 2014 02559 2004 02564 2008 02563 2006 02560 2002 02564 2006++
7777
0000010900
531
UANT01 CWAO 110743
ARP BAW98 5352N03134W 0743 F390 MS55 345/47 KT
GZBJC QXT AOW 110743 L70A
0000011000
532
UANT01 CWAO 110743
ARP XLF057 4418N04402W 0743 F390 MS55 304/53 KT
FGRSQ DDL XXN 110743 J70A
0000011000
533
UANT01 CWAO 110744
ARP DAL18 5633N03526W 0744 F360 MS58 235/29 KT
N842MH QXT AOW 110744 F50A
0000010900
534
UANT01 CWAO 110744
ARP THY12 5301N04529W 0744 F330 MS61 302/83 KT
TCJJO QXT AOW 110744 F12A
0000011000
535
UANT01 CWAO 110744
ARP UAL90 4913N03431W 0744 F350 MS51 231/24 KT
N77012 DDL XXW 110744 F36A
0000011000
536
UANT01 CWAO 110744
ARP ETH500 5602N02948W 0744 F320 MS59 217/86 KT
ETAPX QXT AOE 110744 F25A
0000247500
537
SMPH01 KWBC 110600
AAXX 11061
98132 31465 10906 10231 20183 40236 5/024 70544 81130 333 56299
81815=
98133 31567 20905 10248 20186 40184 5//// 70544 82202 222// 20703
333 56299 82820=
98222 31575 50902 10295 20204 40140 57025 70544 81206 333 56999
81820 84078=
98233 31570 63601 10260 20217 40179 57021 70544 83570 333 56999
83620 86358=
98324 31462 73404 10297 20255 40128 57024 70544 81258 333 56999
81816 84358 86280=
98327 31665 70806 10267 20149 39975 40152 57034 70544 84270 333
56/// 84842 87360=
98334 11468 80000 10216 20203 39974 40178 58022 69921 71582 8387/
333 56999 83816 88356=
98425 31562 62503 10292 20177 40132 58036 70544 83260 333 56999
83820 86358=
98426 31570 60905 10287 20224 40131 57026 70544 81108 333 56999
81830 86280=
98427 32472 60208 10262 20206 39955 40135 57025 83270 333 56999
83818 86357=
98428 3146A 50904 10303 20187 40128 57025 70544 82461 333 56///
82618 83359=
98432 31568 50404 10282 20198 40149 58022 70544 82272 333 56199
82820=
98433 31462 50407 10215 20172 39421 40150 57024 71544 84830 333
56999 84612=
98434 31468 80605 10260 20233 30154 40162 57024 70544 82277 333
56199 82818 85359 88275=
98435 32472 70605 10268 20229 40165 57015 83270 333 561// 83818
85458=
98446 32470 80203 10252 20213 30102 40148 57022 84207 333 56199
84818 88270=
98538 31464 83607 10256 20217 30136 40141 57019 71544 83267 333
56119 83811 84357 88272=
98546 11460 80408 10258 20245 30112 40120 57026 60031 71582 83907
333 56199 83915 88275=
98548 11478 80303 10270 20225 30113 40119 58024 69951 85807 333
56299 85816 88272 98323=
98553 11462 80404 10265 20240 30105 40109 53005 60171 71586 8497/
333 56199 84915 88358=
98558 11458 80616 10258 20257 30032 40102 57037 60051 76186 8452/
222// 20608 333 56199 84615 88457=
98642 11458 81806 10248 20237 30088 40097 57025 60141 76366 8552/
333 56199 85615 88457=
98644 11462 80202 10255 30067 30242 40096 58029 60262 8552/ 333
56199 85616 88457=
98648 11440 80402 10222 20220 30020 40102 57030 60291 76086 8592/
333 56199 85912 88457=
98746 11458 82502 10268 20226 40077 58020 60031 78084 8597/ 333
56999 85918 88358=
98751 11470 80901 10230 20209 39395 40070 57033 60011 70564 8497/
333 56999 84915 88356=
98752 11430 80301 10242 20241 40098 57034 60181 76166 8492/ 333
56999 84915 88457=
98851 11468 83604 10258 20236 39915 40065 57033 69901 78088 8351/
333 56999 83618 88458=
0000011000
538
UANT99 KDDL 110742
ARP KLM767 4732N01616W 0742 F360 MS64 250/79 KT
PHAKB QXT EUA 110742 J80A
0000011000
539
UANT99 KDDL 110742
ARP AZA65F 4942N03138W 0742 F390 MS52 210/46 KT
EIEJG QXT AOE 110742 J47A
0000011000
540
UANT99 KDDL 110742
ARP UAE212 6014N01811W 0742 F330 MS51 241/36 KT
A6ECV QXS REK 110742 F46A
0000011000
541
UANT99 KDDL 110742
ARP ETH500 5602N02932W 0742 F320 MS59 217/93 KT
ETAPX QXT AOE 110743 F24A
0000011000
542
UANT99 KDDL 110743
ARP AAL62 4634N02145W 0743 F360 MS60 210/80 KT
N39356 DDL XXW 110743 F41A
0000066100
543
UDAF01 FAPR 110740
AMDAR 1107
LVR AFZA26 2657N 03808W 110645 F360 MS508 254/062 TB0 S031 333 F/// VG013=
LVR AFZA26 2724N 03854W 110653 F360 MS505 256/069 TB0 S031 333 F/// VG013=
LVR AFZA26 2750N 03939W 110660 F360 MS517 264/075 TB0 S031 333 F/// VG013=
LVR AFZA26 2815N 04025W 110707 F360 MS522 271/075 TB0 S031 333 F/// VG013=
LVR AFZA26 2838N 04110W 110714 F360 MS517 266/082 TB0 S031 333 F/// VG013=
LVR AFZA26 2900N 04155W 110721 F360 MS543 282/089 TB0 S031 333 F/// VG013=
LVR AFZA26 2921N 04239W 110728 F360 MS553 282/094 TB0 S031 333 F/// VG013=
LVR AFZA26 2941N 04321W 110735 F360 MS577 279/101 TB0 S031 333 F/// VG013=
0000066100
544
UDAF01 FAPR 110743
AMDAR 1107
LVR AFZA06 2003N 07612E 110654 F370 MS517 269/054 TB0 S031 333 F/// VG000=
LVR AFZA06 2027N 07712E 110701 F370 MS517 271/057 TB0 S031 333 F/// VG000=
LVR AFZA06 2046N 07815E 110708 F370 MS517 266/059 TB0 S031 333 F/// VG000=
LVR AFZA06 2105N 07918E 110715 F370 MS515 263/061 TB0 S031 333 F/// VG000=
LVR AFZA06 2124N 08022E 110722 F370 MS507 269/068 TB0 S031 333 F/// VG000=
LVR AFZA06 2142N 08127E 110729 F370 MS510 276/070 TB0 S031 333 F/// VG000=
LVR AFZA06 2159N 08233E 110736 F370 MS505 275/085 TB0 S031 333 F/// VG000=
LVR AFZA06 2215N 08341E 110743 F370 MS508 280/097 TB0 S031 333 F/// VG000=
0000046700
545
SZPA01 AMMC 110745
CREX++
T000103 A001 D01021 D06025++
0136250 17293000 67590 2014 01 11 07 38 3017 11 07 00 01
01352 0070 01335 0055 01341 0062 01346 0069 01343 0067 01344 0070+
0710610 17137250 67680 2014 01 11 07 38 3013 11 07 00 01
00831 0103 00829 0102 00829 0102 00833 0107 00837 0111 00835 0110+
0698060 15820000 67950 2014 01 11 07 38 3023 11 07 00 01
00650 0050 00649 0050 00647 0049 00646 0050 00646 0051 00644 0050++
7777

00000000