0000009600
626
SAIN32 VIDP 111030 RRA
METAR VIJP 111030Z VRB06KT 5000 HZ NSC 19/01 Q1018 NOSIG=
0000015500
627
FCNO35 ENMI 102300
TAF ENRM 102300Z NIL=
TAF ENSO 102300Z NIL=
TAF ENVD 102300Z NIL=
TAF ENNO 102300Z NIL=
TAF ENSN 102300Z NIL=

0000032900
628
FCNO38 ENMI 102300
TAF ENEK 102300Z 1100/1109 25022KT 9999 FEW010 SCT030 PROB30
         1100/1102 -RA BKN009 BECMG 1101/1104 33022KT=
TAF ENSL 102300Z NIL=
TAF ENNE 102300Z NIL=
TAF ENHM 102300Z NIL=
TAF ENHE 102300Z 1100/1109 08030KT 9999 FEW009 BKN020 TEMPO 1100/1109
         1500 -SHSN BKN009=

0000013100
629
FCNO32 ENMI 102300
TAF ENAL 102300Z NIL=
TAF ENCN 102300Z NIL=
TAF ENHD 102300Z NIL=
TAF ENRO 102300Z NIL=

0000010000
630
SAUK37 EGGY 102320 RRA
METAR EGPI 102320Z AUTO 27012KT 9999 NCD 05/03 Q1008 RERA=

0000009500
631
SAUK38 EGGY 102320 RRB
METAR EGPU 102320Z AUTO 24009KT 9999 NCD 03/01 Q1006=

0000004200
632
SASP36 LEMM 102330
NIL=

0000019900
633
FCNO34 ENMI 102300
TAF ENBN 102300Z NIL=
TAF ENBV 102300Z NIL=
TAF ENFG 102300Z NIL=
TAF ENHF 102300Z 1100/1109 VRB05KT CAVOK=
TAF ENRA 102300Z NIL=
TAF ENSH 102300Z NIL=

0000009800
634
SPUS31 KWBC 102335
SPECI
KIAH 102331Z 19008KT 10SM BKN012 OVC020 21/18 A2981=

0000011600
635
SPUS41 KWBC 102335
SPECI
KDOV 102333Z AUTO 09003KT 3/4SM R01/3500FT -DZ BR VV001 03/03
A3029=

0000010100
636
SPUS43 KWBC 102335
SPECI
KOMA 102331Z 32004KT 3SM BR BKN015 OVC023 01/M01 A2957=

0000011100
637
SPUS44 KWBC 102335
SPECI
KHQM 102331Z AUTO 16008KT 2 1/2SM -RA BKN015 BKN021 OVC041 A2995=

0000020500
638
SAAY31 RUMS 102330
METAR UDYZ 102330Z 00000MPS 2300 BR BKN010 M09/M11 Q1027 R09/000070
NOSIG=
METAR UDSG 102330Z 00000MPS M0075 R02/0225N FZFG VV001 M21/M23 Q1021
R02/CLRD70 NOSIG=

0000083600
639
SAKZ31 RUMS 102330
METAR UAAA 102330Z 17003MPS 1100 R23R/P2000N R23L/P2000U BR FU SCT200
M16/M19 Q1027 8891//60 NOSIG=
METAR UACC 102330Z 19007MPS 9999 -SN DRSN OVC023 M09/M11 Q1024
R22/8/0050 NOSIG RMK QFE736/0982=
METAR UAKK 102330Z 17009MPS 9999 BKN024 OVC200 M13/M16 Q1026
R23/850555 NOSIG RMK QFE722/0963=
METAR UAOO 102330Z NIL=
METAR UARR 102330Z NIL=
METAR UATE 102330Z 11004MPS 0150 R12/0550N FZFG VV001 M03/M03 Q1019
R12/0///70 NOSIG RMK QBB040 QFE762/1016=
METAR UATG 102330Z 18003MPS 5000 BR OVC022 01/01 Q1016 R14/19//65
NOSIG RMK QFE764/1019=
METAR UATT 102330Z 26004MPS 0900 R13/2000 FZFG VV002 M00/M00 Q1010
R13/491040 NOSIG RMK QBB060 QFE738/0984=
METAR UAUU 102330Z 17007MPS 4600 -SHSN BLSN OVC030CB M07/M09 Q1013
TEMPO 19012MPS 1000 SHSN BLSN BKN005CB RMK QFE744/0992=

0000019200
640
SAKY31 RUMS 102330
METAR UCFM 102330Z 14001MPS 1900 R08/P2000 FU SKC M11/M17 Q1025
R08/CLRD70 NOSIG=
METAR UCFO 102330Z 15003MPS 9999 NSC M07/M12 Q1026 R12/CLRD70 NOSIG=

0000024400
641
SATA31 RUMS 102330
METAR UTDD 102330Z 00000MPS M0050 R09/M0050N FZFG VV001 M08/M10 Q1027
09CLRD70 NOSIG RMK QBB030 QFE702/0936=
METAR UTDL 102330Z 07006G09MPS 2800 BR SCT230 M04/M07 Q1027 NOSIG RMK
QFE731/0975 8819//65=

0000033800
642
FTMG20 FMMI 102300
TAF FMMI 102300Z 1100/1206 VRB04KT 9999 FEW017 BKN020 BECMG 1102/1104
06010KT BECMG 1108/1110 34010KT SCT020CB SCT023 PROB40 TEMPO
1111/1114 4000 TSRA BECMG 1114/1116 12010KT PROB30 TEMPO 1115/1120
4000 TSRA BECMG 1120/1122 VRB03KT FEW017 BKN020=
TAF FIMP NIL=
TAF FMEE NIL=
TAF FMCH NIL=

0000024700
643
SALJ31 LJLJ 102330
METAR LJLJ 102330Z 00000KT 9999 SCT030 BKN050 07/05 Q1021 NOSIG=
METAR LJMB 102330Z AUTO 23006KT 5000 VV003 03/02 Q1021=
METAR LJPZ 102330Z AUTO 00000KT 3900 BR FEW007/// BKN014///
BKN020/// 10/09 Q1022=

0000009600
644
SALJ32 LJLJ 102330
METAR LJCE 102330Z AUTO 00000KT 0500 FG VV001 03/03 Q1021=

0000080000
645
FTSA32 KWBC 102333
TAF
TAF SCAR 102230Z 1100/1124 21004KT CAVOK TN20/1110Z TX25/1118Z
      BECMG 1106/1108 31004KT
      BECMG 1118/1120 21011KT=
TAF SCCF 102230Z 1100/1124 26019KT CAVOK TN05/1110Z TX24/1118Z
      BECMG 1106/1108 09010KT
      BECMG 1118/1120 26021KT=
TAF SCDA 102230Z 1100/1124 20010KT CAVOK TN20/1110Z TX25/1118Z
      BECMG 1106/1108 04005KT
      BECMG 1112/1114 14005KT
      BECMG 1118/1120 21014KT=
TAF SCFA 102230Z 1100/1124 19010KT 9999 SCT020 TN19/1110Z
      TX24/1118Z
      BECMG 1106/1108 34005KT
      BECMG 1112/1114 FEW015
      BECMG 1118/1120 21014KT=
TAF SCIE 102202Z 1100/1124 21010KT CAVOK TX25/1118Z TN10/1110Z
      BECMG 1101/1103 18008KT
      BECMG 1106/1108 VRB02KT
      BECMG 1113/1115 21010KT=

00000000