0000078200
406
SISG20 GOOY 110900 RRA
AAXX 11094
61600 42960 40404 10160 20160 30153 40158 80002
  333 58004 84073=
61612 42960 03604 10150 20123 30150 40158
  333 58006=
61627 42960 40804 10160 20124 3//// 4//// 80009
 333  5//// 84173=
61630 42960 03204 10181 20094 30137 40157
  333 58011=
61666 42960 63602 10156 20127 30147 40156 80002
  333 58012 86073=
61679 42960 40406 10170 20138 30154 40162 80002
  333 58025 84073=
61687 42960 10206 10215 20090 30087 40144 81031
  333 58014 81363=
61695 42962 00206 10175 20102 30123 40150
  333 58005=
61697 42960 00212 10185 20110 30135 40150
  333 58012=
61698 42960 30402 10194 20099 30136 40147 83030
  333 58026 83363=
61699 42960 30404 10230 20146 39928 40118 80002
  333 58009 83073=
0000020400
407
SZSR01 WSSS 110928
CREX++
T000103 A001 D01021 D06025++
0126166 10385160 00044 2014 01 11 08 48 //// 11 07 00 06
01455 0045 01471 0031 01494 0034 01510 0030 01526 0016 01549 0009++
7777
0000013600
408
SIVD17 CWVR 110900
BBXX
46131 11091 99499 71250 46/// /1611 10080 49874 57074
22200 00079 10704 70022 333 91213 =

0000029100
409
SXHW11 KWAL 110927
15DEF7B8 011092753"
1,140111,08:15:02,16.2,114,22.1,19.9,965.7,0.00,13.0,
1,140111,08:30:02,16.9,114,23.4,19.9,965.6,0.00,13.0,
1,140111,08:45:02,15.3,114,22.2,19.9,965.5,0.00,13.0,
1,140111,09:00:02,16.6,116,23.8,20.0,965.5,0.00,13.0, 43-0NN  30W
0000023100
410
SAPK31 OPKC 110930
METAR OPGD 110930Z NIL=
METAR OPKC 110930Z NIL=
METAR OPLA 110925Z 28007KT 5000 HZ NSC 18/03 Q1020=
METAR OPNH 110930Z NIL=
METAR OPPS 110930Z NIL=
METAR OPRN 110930Z NIL=
METAR OPSK 110930Z NIL=

0000009200
411
SAIN90 VOML 110900
METAR VOML 110900Z 27010KT 8000 FEW020 31/21 Q1010 NOSIG=
0000010400
412
SPIN90 VEPT 110920
SPECI VEPT 110920Z 13007KT 1500 FU  FEW020  SCT100 17/14 Q1014 NOSIG=
0000016300
413
SIIN90 VECC 110900
AAXX 11094
42503 31593 83201 10172 20133 40173 74444 8552/
  333 58019=
42806 32996 00000 10264 20160 40145
  333 58001=
0000064200
414
SIIN90 VECC 110900
AAXX 11094
42807 31995 03402 10254 20131 40141 70500
  333 59011=
42706 31995 20703 10244 20125 40144 70500 80001
  333 58004 82075=
42708 31996 02706 10228 20127 40156 70500
  333 58005=
42811 32696 20201 10268 20157 40148 82200
  333 58002=
42812 32996 03601 10252 20157 40149
  333 58002=
43333 31495 60708 10290 20232 40114 70511 84401
  333 56309 58010 82618 83820 85070=
42901 32996 01104 10250 20173 40141
  333 59001=
42299 21396 80000 10074 20032 38205 48517 70252 8763/
  333 58012 6990/ 82709 85617=
42503 31593 83201 10172 20133 40173 74444 8552/
  333 58019=
0000016700
415
SIGB20 GBYD 110900 RRA
AAXX 11093
61705 42960 03605 10182 20135 4//// 80000
  333 5////=
61707 42960 03605 10190 20108 4//// 80000
  333 5////=
0000011000
416
UANT99 KDDL 110926
ARP DAL10 4835N03225W 0926 F350 MS48 210/30 KT
N174DN QXT AOE 110926 F58A
0000011000
417
UANT99 KDDL 110926
ARP AFR943 4744N01032W 0927 F340 MS56 274/51 KT
FGZNO DDL BYT 110927 F90A
0000165100
418
SICI27 BABJ 110900
AAXX 11091
50434 32980 03204 11292 21349 40403 52026=
50527 32975 02901 11313 21347 40401 52020=
50603 32980 03203 11240 21328 40407 52023=
50632 32980 02906 11269 21340 40340 52028=
50727 31965 03205 11251 21290 40356 52025 70070=
50915 42679 23403 11155 21201 40378 52021 82///=
51716 32963 02201 11013 21123 40426 57021 333 00300=
51765 32980 02502 11016 21151 40453 57009 333 00400=
51777 32970 00000 11015 21172 40458 57005 333 00401=
51811 32965 00702 11008 21137 40422 57019 333 00302=
51828 32965 70702 11018 21124 40418 57013 87/// 333 00401=
52267 42980 02703 11027 21215 40419 57005 333 00501=
52323 32980 02906 11042 21250 38324 57003 333 00502=
52495 42980 02908 11049 21224 40416 52007 333 00501=
53149 42980 03203 11092 21248 40395 52023 333 00452=
53192 32973 02904 11128 21230 40400 52020=
53231 42980 02202 11112 21236 38580 52009 333 00552=
53336 32980 03206 11082 21235 40409 52013 333 00400=
53391 42960 72905 11118 21236 40376 52022 87/// 333 00152=
53529 42968 92905 11044 21229 40379 52016 333 00400 91117
91529=
53543 42980 03203 11064 21223 40372 52014=
53723 32966 22904 11015 21234 40379 52008 82/// 333 00401=
54012 42980 13204 11150 21214 40356 52015 81///=
54026 32961 02903 11084 21215 40297 52021=
54027 32980 03203 11086 21213 40316 52026=
54208 42980 72903 11096 21222 40360 52014 87///=
54776 41946 31401 10020 21066 40299 57008 70500 83///=
56004 32980 73204 11107 21235 35783 57010 87/// 333 00253=
56033 32680 72501 11101 21200 35992 57001 87/// 333 00353=
56046 32580 40701 11051 21157 36226 57007 84/// 333 00351=
0000146600
419
SICI32 BABJ 110900
AAXX 11091
56193 NIL=
56196 32970 03402 10097 20003 40292 57003 333 00503=
56287 31857 80901 10088 20008 40288 54000 70500 88/// 333
00503=
56684 32565 00404 10105 21019 37809 57010 333 00355=
56751 32774 13404 10149 21039 38019 57006 81/// 333 00252
91117 91525=
56786 32580 02505 10180 21046 38091 57010 333 00251=
56977 32980 02501 10226 20101 40151 57020 333 00100=
57259 41462 80000 10039 20021 40322 57002 72277 88///=
57279 31957 83201 10074 21044 40306 57008 70500 88///=
57348 32762 80000 10091 20013 40286 52001 88///=
57399 31958 82201 10046 20031 40301 52002 71000 88///=
57554 31857 80000 10050 20015 40308 54000 70500 88///=
57793 41320 82902 10059 20053 40286 52003 76066 88///=
58345 41427 80702 10048 20036 40300 52007 76066 88///=
58506 41/01 90401 11005 21005 40297 52005 76864=
58813 31955 80202 10090 20056 40259 54000 70500 88///=
58834 32964 70702 10152 20084 40241 57008 87///=
58926 32980 02501 10189 20083 40221 57015=
58944 32565 23603 10136 20089 40244 57001 82///=
59096 32970 02701 10178 20104 40208 57008=
59102 32964 40201 10186 20107 40215 57006 84///=
59278 32960 00701 10199 20098 40206 57014=
59456 32866 72902 10213 20137 40200 57008 87///=
59493 32964 00202 10194 20112 40209 57006=
59658 31450 60905 10176 20131 40202 57008 70500 86///=
59673 32570 21103 10180 20137 40208 57004 82///=
59845 32575 21104 10244 20161 40183 57005 82///=
0000013600
420
SIAL22 DAMM 110900 RRA
AAXX 11094
60452 42565 72204 10172 20089 40186 53020 84202 222// 20000 333 84826
85073 91826=
0000252900
421
SIRA26 RUHB 110900
AAXX 11091
25703 11998 83604 11243 21275 39942 40232 52005 69902 77072 84037 333
11230=
25745 11698 30206 11160 21199 30071 40125 52009 60002 73631 83500 333
11160 91116=
25913 12699 11204 11186 21289 39959 40116 52008 60002 81500 333
11158=
25956 12598 70407 11101 21174 30002 40008 58002 60002 87500 333
11101=
31088 12999 30103 11194 21227 30111 40119 52013 69902 83050 333
11138=
31873 12997 42902 11185 21217 30113 40258 52010 60002 80001 333
11154=
31909 12998 03104 11133 21239 30128 40211 52012 60002 333 11105
91114=
31960 62998 03102 11075 21202 30004 40248 52007 60002 333 11057=
31961 12598 30701 11118 21200 30203 40250 52003 60002 83500 333
11063=
32053 12997 62404 11209 21249 30050 40102 52010 60002 80002 333 11187
91007 91110=
32061 11550 52805 11196 21237 30090 40132 52006 69922 78582 85900 333
11191 91006 91108=
32098 12598 13402 11220 21269 30120 40131 52012 60002 81900 333 11188
91003 91104=
32150 11594 73501 11149 21162 30097 40128 53011 69962 78682 87900 333
11126 91004 91104=
32165 11596 83302 11078 21100 30091 40154 53016 69922 78583 85905 333
11056 91003 91113=
32215 11595 83406 11020 21048 39939 49968 51012 60142 78583 889// 333
11018 91010 91117=
32389 11496 82804 11100 21119 39976 40014 52013 69922 78582 889// 333
11089 84712=
32477 12998 80602 11149 21162 39951 49984 52015 60002 80001 333
11085=
32583 12598 70103 11050 21099 39942 49972 52013 69902 82531 333
11024=
32618 11598 60313 11029 21043 39890 49912 57004 69942 73632 86500 333
11022 91018 91119=
24856 42998 22202 11409 21431 30219 40401 53005 80001=
24871 12997 72101 11444 21476 30181 40398 52010 60002 80001 333
11438=
24928 42999 00000 11438 21463 39997 40450 57006=
24933 42999 30000 11405 21433 30015 40389 53014 80001=
25017 12999 00101 11345 21356 30262 40286 52002 60002 333 11314=
25121 12998 00000 11410 21438 30260 40278 52007 60002 333 11390=
30173 42999 00000 11473 21494 30174 40483 53002=
30198 42999 00000 11454 21472 39871 40504 53004=
31005 41992 00000 11482 21511 30036 40476 54000 74840=
31011 42999 00000 11410 21444 30023 40440 54000=
31016 42999 10000 11466 21490 30099 40456 53004 80001=
31026 41997 82603 11349 21377 30128 40419 53006 77172 84077=
31041 11997 82402 11367 21388 30126 40393 52004 69902 77172 86037 333
11367=
31062 11698 82504 11382 21416 39770 40323 52013 60012 77177 85507 333
11381 91111=
31102 42999 00000 11429 21456 38795 48440 52008=
0000016200
422
SMCG01 FCBB 110600 RRD
AAXX 11063
64456 32459 81404 10235 20226 39/// 40/// 889//
  333 0//00 20/// 50214 55/// 5//// 85613 81926 94943 95833=
0000016200
423
SMCG01 FCBB 110600 RRC
AAXX 11063
64456 32459 81404 10235 20226 39/// 40/// 889//
  333 0//00 20/// 50214 55/// 5//// 85613 81926 94943 95833=
0000024100
424
SOAT10 KWAL 110928
FA8005BC 011092837 OT12 ID:KN-BASS-01 DT:2014 01 11 09 26
:RD -3081 -3089 -3101 -3104 -3113 -3117 -3106 -3104 -3097 -3062
:PR 0613 0604 0591 0611 0499 0648 0555 0567 0553 0570
:B 13.7V
 46+1NN 219E
0000013600
425
SIVD17 CWVR 110900
BBXX
46204 11091 99514 71288 46/// /2308 10080 49837 52019
22200 0//// 10707 70034 333 91210 =

00000000