0000217100
646
SZNZ01 NZKL 110912
CREX++
T000103 A001 D01021 D06025++
-3683144 17478654 AUCT  2014 01 11 09 04 //// 11 07 00 01
04037 3186 04034 3186 04028 3183 04026 3185 04022 3184 04020 3184+
-4402404 -17636748 CHIT  2014 01 11 09 04 //// 11 07 00 01
04455 1937 04462 1941 04466 1942 04472 1944 04469 1939 04480 1946+
-4089929 17623168 CPIT  2014 01 11 09 04 //// 11 07 00 01
03334 2292 03325 2280 03341 2293 03334 2283 03342 2287 03346 2288+
-3618905 17548887 GBIT  2014 01 11 09 04 //// 11 07 00 01
04999 -0035 05012 -0020 05023 -0008 05020 -0010 05011 -0018 05002 -0026+
-3867541 17802288 GIST  2014 01 11 09 04 //// 11 07 00 01
03340 2736 03347 2741 03328 2720 03333 2724 03328 2718 03340 2728+
-4241288 17370277 KAIT  2014 01 11 09 04 //// 11 07 00 01
02834 2203 02845 2209 02857 2218 02861 2217 02859 2211 02862 2209+
-3755040 17815904 LOTT  2014 01 11 09 04 //// 11 07 00 01
02732 0191 02730 0188 02749 0208 02728 0186 02725 0183 02734 0192+
-3704657 17451175 MNKT  2014 01 11 09 04 //// 11 07 00 01
02878 -0138 02899 -0110 02867 -0136 02873 -0123 02864 -0125 02858 -0125+
-3947566 17692007 NAPT  2014 01 11 09 04 //// 11 07 00 01
02420 2077 02400 2054 02395 2046 02405 2054 02410 2056 02416 2059+
-3441483 17304870 NCPT  2014 01 11 09 04 //// 11 07 00 01
-03224 -6949 -03265 -6988 -03242 -6961 -03462 -7178 -03559 -7271 -03579 -7288+
-4581435 17062939 OTAT  2014 01 11 09 04 //// 11 07 00 01
04348 3414 04355 3415 04363 3416 04368 3415 04374 3415 04381 3415+
-2928002 -17789440 RBCT  2014 01 11 09 04 //// 11 07 00 01
05498 2022 05509 2034 05513 2039 05493 2019 05494 2022 05496 2024+
-2925114 -17790384 RFRT  2014 01 11 09 04 //// 11 07 00 01
02404 0209 02403 0209 02418 0225 02401 0209 02393 0201 02406 0215+
-4357010 17277383 SUMT  2014 01 11 09 04 //// 11 07 00 01
01500 1898 01490 1882 01500 1886 01521 1901 01515 1889 01518 1886+
-3764109 17618118 TAUT  2014 01 11 09 04 //// 11 07 00 01
04334 3978 04323 3968 04323 3970 04327 3975 04324 3973 04323 3974+
-4128448 17477985 WLGT  2014 01 11 09 04 //// 11 07 00 01
02783 2051 02784 2049 02796 2057 02799 2057 02800 2054 02807 2057++
7777
0000012800
647
SIUG20 HUEN 110900
AAXX 11094
63705 32557 32406 10262 20222 38868 48525 83900 333 59002 83823 81925 555 10232=
0000003800
648
SIAA21 EFKL 110900
NIL
0000143400
649
SIRO47 YRBK 110900
AAXX 11091
15296 22698 50000 10012 21011 39530 42837 51007 85500 333 60007
95000=
15297 26/// /3202 10016 21059 38682 48519 51009 333 55307 0//// 20666
3////
60007 91107 555 60000=
15319 26/// /1700 10009 21059 39545 42825 51010 333 55300 0//// 20141
3////
60007 91103 555 60000=
15320 22598 73501 11012 21055 38468 48519 52016 87500 333 60007 91005
91107 555
60000=
15340 22998 21701 10023 21026 39989 40245 52012 80001 333 60007 91003
91103 555
60000=
15341 22998 00000 10018 21010 39933 40258 53020 333 60007=
15344 22997 11902 10056 21045 39594 42830 52014 80001 333 55310 0////
20741
3//// 60007 91004 91104 555 60000=
15369 22997 02001 10071 21033 39912 40238 52012 333 55310 0//// 20676
3////
60007 91003 91104 555 60000=
15395 22997 32600 10065 21014 39896 40242 51015 81041 333 60007 91001
91102 555
60000=
15412 26/// /2404 10066 20007 39857 40243 52010 333 55310 0//// 20697
3////
60007 91105 555 60000=
15434 22997 00101 10039 21008 30028 40245 52012 333 60007 91003 91104
555 60000=
15465 22997 20000 10054 20014 30180 40253 51016 81041 333 60007=
15469 22997 20701 10063 20026 30105 40238 52007 80001 333 60007 91006
91108 555
60000=
15482 22997 22801 10086 20017 30166 40243 52005 81041 333 60007 91002
91104 555
60000=
15494 22997 43003 10069 20006 30200 40246 52008 84070 333 60007 91004
91104 555
60000=
0000221400
650
SIRO48 YRBK 110900
AAXX 11091
15107 22597 73302 10016 21019 39405 42821 52012 87300 333 60007 91005
91107
95070 555 60000=
15123 23/// /1702 10020 21001 39754 40251 52009 333 55300 0//// 20259
3////
6///7 91003 91106 555 6////=
15124 21596 71100 10013 20010 39695 40253 51010 71022 82270 333 60007
91001
91101 555 60000=
15127 22598 72404 10013 21033 39334 42824 51011 87300 333 55300 0////
20206
3//// 60007 91007 91109 95000 555 60000=
15145 21996 70702 10016 20012 39863 40252 51008 71022 87070 333 60007
555 60000=
15148 21/92 92302 11039 21042 38740 48503 52013 74944 333 60007
92712=
15162 22597 62202 10023 20001 39504 42831 51010 86800 333 60007 91003
91104 555
60000=
15165 22698 72405 10025 20000 39598 42822 51010 83570 333 60007 91007
91108 555
60000=
15168 26/// /0901 10024 20000 39603 42826 51008 333 6///7 91002 91102
555 6////=
15184 21/92 92204 11020 21020 38842 48510 51013 74944 333 60007 91006
91107
92712 555 60000=
15189 22998 60700 10010 20002 39849 40248 52009 86070 333 60007 91001
91101 555
60000=
15208 22997 51801 10022 21003 39951 40267 51011 85070 333 60007=
15209 26/// /2104 10024 21002 39826 40248 51010 333 55306 0//// 20516
3////
6///7 555 6////=
15215 22998 72001 10014 21023 39624 42828 50009 87070 333 55302 0////
20433
3//// 60007 91001 91102 555 60000=
15217 22598 61705 10023 21023 39548 42824 50004 83542 333 60007 91006
91106 555
60000=
15231 22998 73103 10029 20004 39913 40247 51006 85071 333 60007 91004
91106 555
60000=
15235 22998 50702 10011 21017 39720 40255 52008 85070 333 55304 60007
91002
91102 555 60000=
15238 22998 60300 10028 21022 39607 42829 51007 81046 333 60007 91001
91102 555
60000=
15254 22997 22501 11002 21058 38561 48511 52009 81071 333 60007 91006
91106 555
60000=
15262 21/90 92910 11065 21065 38172 48475 52009 74944 333 60007 91016
92722=
15277 26/// /0802 10065 21043 39611 42832 52004 333 55307 60007 91003
91104 555
60000=
15279 22497 80205 11073 21077 37931 48502 52008 885// 333 60007 91010
91111 555
60000=
15300 22999 33402 10034 21021 39591 42828 51005 83040 333 60007 91002
91102 555
60000=
0000240000
651
SIRO49 YRBK 110900
AAXX 11091
15042 NIL=
15080 22597 71806 10049 20025 30062 40233 52003 84570 333 60007 91009
91109 555
32000 42000 50000 60000 70000=
15095 22998 70902 10019 20002 39827 40243 51009 87070 333 55301 0////
20338
3//// 60007 91003 91103 555 60000=
15117 22997 70000 10018 20018 30037 40241 52009 87070 333 60007=
15118 22497 72301 11008 21027 38936 48507 52010 87500 333 60007 91004
91105 555
60000=
15136 22598 71202 10029 20021 30115 40238 50004 87500 333 55300 60007
91003
91103 555 60000=
15138 22998 72003 10038 21011 39530 42832 53011 87070 333 60007=
15160 22598 71803 10039 20019 39895 40241 52010 85570 333 60007 91005
91106 555
60000=
15179 26/// /1806 10044 20009 39659 40239 52005 333 55300 0//// 20218
3////
6///7 555 6////=
15182 22997 72201 10019 20016 30023 40248 51005 87070 333 60007 91002
91103 555
60000=
15199 21596 81402 10048 20048 30111 40219 50002 71022 885// 333 55300
60007
91003 91105 555 60000=
15204 26/// /2601 10038 20037 30058 40255 50003 333 55303 0//// 20426
3////
6///7 555 6////=
15206 26/// /1101 10022 20016 39910 40253 51005 333 55300 0//// 20296
3////
6///7 555 6////=
15245 26/// /1203 10064 20051 30136 40237 50002 333 55305 0//// 20452
3////
6///7 555 6////=
15247 21596 51201 10041 20040 30128 40237 50002 71022 82530 333 55305
00195
20488 30353 60007 91003 91103 555 32000 42000 50010 60000 71010=
15270 22597 41304 10045 20024 30089 40245 50004 81101 333 55306 60007
91007
91107 555 60000=
15289 22597 51504 10060 20040 30137 40242 50002 83501 333 55310 0////
20638
3//// 60007 91005 91106 555 60000=
15314 22598 31701 10042 20019 39894 40241 50000 82501 333 60007 91002
91103 555
60000=
15315 22998 33203 11001 21001 38601 48528 51010 82031 333 60007 91008
91109 555
60000=
15316 22499 73602 10005 21043 38586 48531 51007 87500 333 60007
95100=
15317 22198 73612 11064 21073 37800 48533 52008 87500 333 60007 91018
95100=
15338 22998 20801 10073 20005 39862 40242 50004 80001 333 60007 91001
91103
95000 555 60000=
15364 21/92 91200 11002 21002 39944 40269 50008 74742 333 60007 91001
91101
92600 555 60000=
15366 22997 30400 10012 20001 30003 40244 51009 80001 333 60007 91001
91101
95000 555 60000=
15388 22597 33300 10059 20045 30141 40245 50004 83500 333 60007 91001
91102 555
60000=
0000267300
652
SIRO50 YRBK 110900
AAXX 11091
15261 22997 51101 10024 21030 39408 42845 52004 81044 333 55310 0////
20714
3//// 60007 91001 91102 95000 555 60000=
15284 22399 43116 11056 21058 38337 48481 57003 82141 333 60007 91021
91123 555
60000=
15285 22998 33106 10032 21082 39206 42812 51013 80002 333 55310 0////
20747
3//// 60007 91010 91110 555 60000=
15301 22598 80505 11004 21052 38651 48524 52009 81107 333 60007 92600
95000=
15302 22998 63002 10012 21068 38956 48505 51011 86050 333 55304 0////
20577
3//// 60007 91006 91106 95000 555 60000=
15307 22998 20000 10064 21027 30035 40226 52008 82040 333 60007=
15324 22999 20000 10033 21062 39421 42828 52010 80001 333 60007=
15325 22997 30202 11005 21064 38486 48498 52010 80001 333 60007 91006
91106
95000 555 60000=
15328 22997 33202 10070 21057 39880 40227 50002 83070 333 60007=
15333 21995 61704 10003 20003 30209 40229 51013 72842 86070 333 60007
91004
91104 92600 96010 555 60000=
15345 22999 33202 10061 21043 39580 42834 52015 80001 333 60007=
15347 22599 22703 10095 21086 39677 40213 52004 81201 333 60007=
15349 22998 12501 10072 21075 39663 40222 51012 80001 333 55310 0////
20801
3//// 60007 91005 91106 555 60000=
15373 22999 30302 10031 21041 39834 40227 51008 81041 333 60007 91003
91104 555
60000=
15375 22997 23403 10061 21021 39863 40228 51010 81041 333 60007 91005
91105 555
60000=
15377 22999 32702 10062 20000 30008 40229 52011 82041 333 60007 91002
91102
99606 555 32000 42000 50000 60000 70000=
15402 22997 02502 10034 21011 30153 40230 51011 333 55310 0//// 20739
3////
60007 91004 91104 555 60000=
15405 21996 22701 10010 21013 30169 40234 52012 71000 80002 333
60007=
15416 22997 22602 10053 21009 39980 40240 51012 82040 333 60007 91003
91104 555
60000=
15419 22997 23401 10044 21025 30042 40242 51013 80001 333 60007 91002
91102 555
60000=
15421 22997 32601 10051 21016 30131 40245 51011 80001 333 55310 0////
20927
3//// 60007 555 60000=
15422 22997 02302 10033 21007 30135 40241 52013 333 55301 60007 91003
91103 555
60000=
15425 22997 02404 10009 21020 30166 40233 51009 333 60007 91006 91106
555 32000
42000 50010 60000 71010=
15444 22997 22503 10033 21002 30166 40243 51013 80001 333 60007=
15455 22997 02701 10032 20006 30099 40233 5//// 333 60007=
15475 22997 02702 10056 20024 30205 40225 53008 333 60007=
15489 NIL=
15490 22997 12501 10076 20011 30207 40246 52007 80001 333 60007=
15491 22997 02101 10053 20020 30214 40245 52014 333 60007 91002 91104
555 60000=
15498 22997 02504 10083 20022 30195 40238 51005 333 60007 91006 91106
555 60000=
0000071300
653
SIPL20 SOWR 110900
AAXX 11091
12120 42570 82610 10055 20037 30088 40092 51005 882//=
12160 41458 72307 10033 20033 39876 40104 51009 78022 872//
  333 91112=
12205 42462 72204 10045 20028 30117 40125 58003 85508=
12250 42479 82403 10049 20023 30045 40134 52006 888//
  333 84815 91008 91108=
12295 41474 62705 10044 20026 39924 40109 52016 70182 84530
  333 84615 91111=
12330 42565 72304 10034 20013 30042 40152 50003 8257/=
12375 42470 72605 10048 20013 30017 40149 51015 85502
  333 85616 91010 91112=
12424 42999 42003 10051 20008 30021 40175 50003 83031=
12465 42567 72506 10043 20013 39937 40161 52006 82138=
12566 42780 72505 10045 20003 39896 40194 52005 875//=
0000009200
654
SAIN90 VAAH 110910
METAR VAAH 110910Z 05008KT 3000 FU NSC 22/11 Q1015 NOSIG=
0000120500
655
SAAU32 YBBN 110900
METAR YAMB 110900Z AUTO 07012KT 9999 // NCD 25/15 Q1015=
METAR YMAV 110900Z AUTO 17014KT 9999 // OVC018 18/12 Q1020=
METAR YBRM 110900Z 27013KT 9999 FEW022 SCT400 31/25 Q1006=
METAR YCIN 110900Z AUTO 29009KT //// // NCD 37/22 Q1004=
METAR YSDU 110900Z AUTO 21004KT 9999 // NCD 29/12 Q1015=
METAR YFRT 110900Z AUTO 13017KT //// // ////// 29/09 Q1018=
METAR YGEL 110900Z AUTO 16014KT 9999 // NCD 36/11 Q1006=
METAR YPGV 110900Z AUTO 11011KT 9999 // SCT020 SCT027 28/24 Q1005=
METAR YBHM 110900Z AUTO 11023KT 9999 // ////// 27/21 Q1012=
METAR YMHB 110900Z 29019KT 9999 FEW030 23/02 Q1011=
METAR YPKG 110900Z AUTO 11009KT 9999 // NCD 37/02 Q1015=
METAR YMLT 110900Z AUTO 27012KT 9999 // NCD 25/05 Q1012=
METAR YBMA 110900Z AUTO 09011KT 9999 // NCD 32/13 Q1009=
METAR YSNF 110900Z AUTO 11009KT 9999 // SCT029 SCT036 19/12 Q1017=
METAR YPEA 110900Z AUTO 14007KT 9999 // NCD 43/04 Q1008=
METAR YPPD 110900Z AUTO 31017KT 9999 // NCD 33/27 Q1006=
METAR YSRI 110900Z AUTO 09004KT 9999 // SCT115 20/07 Q1014=
METAR YBRK 110900Z AUTO 08006KT 9999 // NCD 26/17 Q1013=
METAR YWLM 110900Z AUTO 06008KT 9999 // NCD 25/18 Q1015=
METAR YPWR 110900Z AUTO 14011KT 9999 // NCD 38/M01 Q1013=

0000009900
656
SAIN34 VOMM 110900 RRA
METAR VOCI 110900Z 35007KT 5000 HZ FEW020 32/17 Q1009 NOSIG=
0000080900
657
SIPL30 SOWR 110900
AAXX 11091
12105 42471 82104 10050 20029 30068 40110 50001 885//=
12195 41461 82706 10029 20028 39862 40091 52015 78082 889//=
12235 41460 72306 10037 20028 39906 40118 50002 70182 875//
  333 91111=
12270 42463 72606 10042 20027 39947 40131 52013 875//
  333 87612=
12280 41470 72605 10042 20033 39948 40106 51015 72582 875//
  333 91110=
12300 42482 72402 10035 20022 30050 40141 58002 875//
  333 87616=
12400 42680 52203 10034 20016 39920 40159 57001 83541=
12435 42668 72404 10038 20017 39989 40163 50003 81538=
12495 42682 72404 10038 21002 39867 40163 51015 875//=
12530 42965 31903 10039 20006 39983 40187 51006 81032=
12570 41566 82404 10035 20000 39856 40179 51006 72522 885//=
12580 42780 72504 10052 21004 39927 40189 51009 85501=
0000014400
658
SNDL21 EDZW 110800 CCB
AAXX 11081
10055 41356 72207 10059 20053 30080 40090 56005 72055 877//
  333 55300 20000 30000 87707=
0000003800
659
SIVA10 EHDB 110900
NIL
0000014600
660
SIVD10 EHDB 110900
BBXX
A8IN7 11094 99181 70757 41/98 20816 10270 20225 40160 54000 70200
8//// 22214 20402 312// 40802 80239=
0000025700
661
SIVF10 EHDB 110900
BBXX
PGRQ 11094 99367 70304 41/98 33223 10139 2//// 40125 52015 7//00
83200 22222 0//// 21007 333// 41206=
PJKV 11093 99472 70162 41298 81515 10110 20043 40102 55007 70322
86778 22224 04100 20803 329// 40603 80080=
0000003800
662
SIVC10 EHDB 110900
NIL
0000009400
663
SNNO21 ENMI 110800 RRD
AAXX 11081
01300 46/// /0405 10021 21015 39892 49991=
0000009400
664
SNNO22 ENMI 110800 RRE
AAXX 11081
01400 46/// /2810 10067 20002 30001 40062=
0000021500
665
SMMT01 GQNN 110600 RRA
AAXX 11064
61461 32960 03604 10115 20100 30069 40158
  333 0//00 20115 5//// 55/// 59001=
61489 32958 03604 10143 20106 30136 40143
  333 0//00 20135 5//// 55/// 58015=
00000000