0000141400
986
SAUS72 KWBC 102200 RRC
METAR
KSFB 102153Z 19006KT 10SM SCT035 26/19 A3008=
KSHV 102156Z 18016KT 10SM FEW023 BKN070 OVC090 19/14 A2976=
KSJT 102151Z 26024G30KT 10SM CLR 23/M03 A2976=
KSRQ 102153Z 19006KT 10SM CLR 26/19 A3006=
KSSI 102153Z AUTO 12006KT 10SM FEW005 19/18 A3010=
KTCC 102153Z AUTO 30015KT 10SM CLR 16/M11 A2970=
KTCL 102153Z 12004KT 10SM BKN017 OVC032 14/10 A3001=
KTCS 102153Z AUTO 19007KT 10SM CLR 15/M12 A2991=
KTLH 102153Z 16003KT 3/4SM -DZ BR OVC003 20/19 A3007=
KTPA 102153Z 15005KT 10SM FEW035 SCT210 26/19 A3007=
KTRI 102153Z 00000KT 10SM FEW050 BKN200 13/08 A3006=
KTUL 102153Z 28015G18KT 10SM FEW025 SCT050 SCT180 15/07 A2959=
KTUP 102153Z 18006KT 9SM OVC005 11/ A2995=
KTXK 102153Z 17005KT 2 1/2SM -RA BR SCT021 BKN027 OVC050 16/14
     A2972=
KTYR 102153Z 19010KT 10SM -RA FEW004 OVC016 17/16 A2975=
KTYS 102153Z 00000KT 10SM BKN039 BKN046 OVC250 11/07 A3005=
KVCT 102151Z 19011KT 10SM FEW017 SCT026 BKN050 23/19 A2981=
KVLD 102153Z 00000KT 10SM SCT034 BKN042 OVC049 22/19 A3008=
KVRB 102153Z AUTO 15003KT 10SM CLR 24/22 A3009=
TIST 102153Z AUTO 07013KT 10SM CLR 26/19 A3004=
TISX 102153Z 09008KT 10SM OVC050 23/21 A3004=
TJBQ 102150Z 10012G21KT 10SM SCT030 SCT050 28/ A3006=
TJMZ NIL=
TJPS NIL=
TJSJ 102156Z 09014G18KT 10SM FEW025 SCT046 SCT065 27/22 A3005=
TKPK 102200Z 07010KT 9999 FEW022 25/20 Q1016=
TNCM NIL=

0000167700
987
SAUS73 KWBC 102200
METAR
KABR 102153Z AUTO 25006KT 10SM CLR 01/M05 A2951=
KALN 102150Z 17015G20KT 7SM -RA OVC007 06/06 A2970=
KALO 102154Z AUTO 09005KT 1 1/4SM R12/5000V5500FT BR OVC005 00/00
     A2956=
KAPN 102154Z AUTO 18010KT 8SM OVC012 M01/M03 A2993=
KASE 102153Z 35007KT 2 1/2SM -SN BR BKN021 BKN034 OVC044 M06/M08
     A2985=
KATY 102153Z AUTO 23005KT 8SM BKN090 M02/M04 A2950=
KAXN 102153Z AUTO 17006KT 1/4SM FZFG VV002 M02/M02 A2950=
KAZO 102153Z 16008KT 1 1/2SM -RA BR OVC004 03/01 A2984=
KBDE 102153Z AUTO 17008KT 4SM BR SCT012 OVC019 M04/M06 A2944=
KBFF 102153Z AUTO 31021G27KT 10SM CLR 06/M09 A2963=
KBIS 102152Z 24010KT 10SM CLR 01/M06 A2947=
KBJC NIL=
KBKF 102155Z 31016G24KT 70SM FEW100 FEW200 04/M10 A2969=
KBRL 102153Z AUTO 19013KT 9SM -RA OVC004 03/03 A2956=
KBTL 102153Z 15010KT 3SM -RA BR OVC006 03/01 A2985=
KCGI 102153Z 14016KT 5SM -RA BR OVC070 07/06 A2979=
KCID 102152Z 14007KT 1 1/2SM BR OVC002 01/00 A2954=
KCIU 102155Z AUTO 13010KT 4SM OVC008 M02/M02 A2985=
KCMI 102153Z 16020G27KT 1 3/4SM -RA BR OVC003 04/03 A2976=
KCMX 102153Z AUTO 16006KT 8SM SCT020 OVC030 M03/M07 A2966=
KCOS 102154Z 32018G24KT 10SM SCT090 04/M14 A2969=
KCOU 102154Z 17011KT 10SM OVC007 07/06 A2958=
KCPR 102153Z 25007KT 10SM CLR 00/M08 A2967=
KCYS 102153Z 30024G40KT 10SM CLR 02/M11 A2966=
KDDC 102152Z AUTO 30030G37KT 10SM FEW070 07/M04 A2962=
KDEC 102154Z 17017G22KT 5SM -RA BR OVC005 04/04 A2974=
KDEN 102153Z 30018G24KT 10SM FEW070 SCT150 SCT220 05/M09 A2968=
KDET 102153Z 17007KT 6SM BR OVC005 03/01 A2998=
KDLH 102155Z 17006KT 3/4SM R09/6000VP6000FT -FZDZSN BR OVC002
     M04/M06 A2955=

0000011300
988
SAIN90 VILK 111030
METAR VILK 111030Z 09004KT 1200 R27/1300 BR BKN020 BKN100 18/14
Q1016 NOSIG=
0000011300
989
SAVN23 SVBC 102200
METAR SVBC 102200Z NIL=
METAR SVMT 102200Z NIL=
METAR SVHG 102200Z NIL=

0000171000
990
SAUS73 KWBC 102200 RRA
METAR
KDSM 102154Z 10004KT 1SM R31/P6000FT -DZ BR OVC002 01/00 A2954=
KDTW 102153Z 14008KT 5SM BR OVC006 02/01 A2998=
KEAU 102156Z 14007KT 3SM BR OVC006 M02/M03 A2961=
KEGE 102150Z 27011G18KT 5SM -SN BR BKN040 OVC050 M02/M06 A2990=
KELO 102153Z AUTO 18004KT 10SM OVC009 M05/M06 A2953=
KEVV 102154Z 15005KT 5SM BR OVC010 08/07 A2990=
KFAR 102153Z 19008KT 6SM HZ CLR M02/M05 A2947=
KFNT 102153Z 17011KT 4SM BR OVC008 03/01 A2992=
KFSD 102156Z 28003KT 5SM BR OVC009 01/M02 A2953=
KFWA 102154Z 15008KT 2SM BR OVC007 03/02 A2990=
KGCK 102154Z 33019G29KT 10SM BKN060 06/M02 A2965=
KGFK NIL=
KGJT 102153Z 09004KT 10SM BKN075 OVC085 M01/M05 A2996=
KGRB 102153Z AUTO 14008KT 4SM BR OVC006 00/M01 A2972=
KGRI 102153Z 32010KT 10SM OVC055 04/M02 A2954=
KGRR 102153Z COR 12007KT 1SM R26L/6000VP6000FT -RA BR OVC006 02/01
     A2984=
KGRR 102153Z 12007KT 1SM R26L/6000VP6000FT UP BR OVC006 02/01
     A2984=
KGYY NIL=
KHIB NIL=
KHON 102155Z AUTO 31010KT 10SM CLR 02/M03 A2954=
KHUF 102153Z 16011KT 3SM -RA BR BKN016 OVC044 05/04 A2985=
KHUT 102152Z 32015KT 10SM FEW036 08/M01 A2957=
KICT 102153Z 29010KT 10SM FEW030 SCT180 SCT250 08/01 A2959=
KIKK 102155Z AUTO 16011G17KT 3SM RA 04/03 A2976=
KIND 102154Z 15011KT 1 3/4SM -RA BR OVC005 03/03 A2988=
KINL 102155Z AUTO 17006KT 2SM BR OVC004 M05/M07 A2948=
KIRK 102155Z AUTO 18004KT 1/4SM FG VV002 02/02 A2954=
KJAC 102151Z 17013KT 10SM VCSH BKN030 M01/M05 A2985=
KJLN 102153Z 21011KT 10SM BKN014 BKN019 OVC090 12/10 A2958=
KJMS 102156Z AUTO 28008KT 10SM CLR 01/M04 A2943=
KJXN 102156Z 15010KT 2SM BR OVC004 02/01 A2990=
KLAN 102153Z 15012KT 2SM BR OVC004 02/01 A2988=

0000167900
991
SAUS73 KWBC 102200 RRB
METAR
KLAR 102153Z AUTO 28025G30KT 10SM CLR M03/M08 A2967=
KLBF 102153Z AUTO 31004KT 10SM BKN041 OVC060 03/01 A2959=
KLBL 102155Z AUTO 31020G26KT 10SM CLR 11/M11 A2969=
KLEX 102154Z 15007KT 10SM BKN015 12/08 A2997=
KLNK 102154Z 28004KT 4SM -SN BR OVC011 01/M01 A2956=
KLOU 102153Z 14007KT 10SM OVC015 11/08 A2993=
KLOZ 102153Z AUTO 14004KT 10SM FEW021 13/08 A2999=
KLSE 102153Z 00000KT 1SM -SN BR SCT009 OVC013 00/M02 A2961=
KMBS 102153Z 13006KT 6SM BR OVC007 02/00 A2991=
KMCI 102153Z 23007KT 2SM -DZ BR OVC004 05/04 A2953=
KMDW 102151Z 15011KT 1 3/4SM RA BR BKN006 BKN017 OVC026 03/03
     A2973=
KMHK 102152Z 28005KT 6SM BR BKN007 BKN026 OVC034 03/02 A2956=
KMKC 102154Z 27004KT 6SM BR OVC006 06/04 A2954=
KMKE 102152Z COR 15011KT 1/2SM R01L/5500V6000FT FG OVC002 01/01
     A2973=
KMKE 102152Z 15011KT 1/2SM R01L/5500V6000FT FG OVC002 01/01
     A2973=
KMKG 102155Z 12009KT 1SM R32/6000VP6000FT -RA BR OVC004 02/00
     A2980=
KMLI 102152Z 15008KT 4SM -RA BR OVC008 02/01 A2959=
KMOT NIL=
KMSN 102153Z 13009KT 1 3/4SM -RA BR OVC003 01/00 A2965=
KMSP 102153Z 16008KT 5SM BR OVC006 M01/M02 A2959=
KOFF 102158Z 28003KT 6SM OVC007 02/02 A2955=
KOMA 102152Z 00000KT 2 1/2SM BR BKN006 BKN012 OVC021 02/00
     A2956=
KORD 102151Z 16012KT 3SM -RA BR OVC006 02/00 A2971=
KOSH 102153Z 14009KT 1 1/2SM BR OVC005 00/M02 A2970=
KOTM 102153Z AUTO 16006KT 1SM BR OVC003 02/01 A2953=
KOWB 102156Z 16006KT 7SM OVC012 08/08 A2990=
KPAH 102153Z 14009KT 9SM BKN019 OVC100 09/07 A2986=
KPIA 102154Z 17009KT 2SM RA BR OVC003 03/03 A2967=
KPIR 102153Z AUTO 27008KT 10SM CLR 02/M05 A2955=

0000140000
992
SAUS73 KWBC 102200 RRC
METAR
KPLN 102154Z AUTO 15008KT 5SM HZ OVC011 M01/M04 A2989=
KPTK 102153Z 15008KT 3/4SM R09R/5000V6000FT BR OVC002 01/01
     A2994=
KPUB 102153Z AUTO 31026G38KT 10SM CLR 09/M15 A2970=
KRAP 102152Z 00000KT 10SM CLR 06/M08 A2956=
KRFD 102154Z 14017G23KT 2SM +RA BR BKN006 BKN027 OVC043 01/01
     A2967=
KRKS 102154Z AUTO 29023G39KT 10SM SCT026 00/M06 A2985=
KRST 102154Z 11005KT 1/2SM R31/4000V4500FT FZDZ BR OVC002 M01/M02
     A2956=
KSAW NIL=
KSBN 102154Z 24005KT 1SM RA BR OVC008 03/02 A2984=
KSDF 102156Z 15007KT 10SM OVC017 11/08 A2992=
KSDM 102153Z 29007KT 9SM CLR 20/08 A3005=
KSGF 102152Z 16013KT 10SM SCT008 SCT049 BKN120 09/08 A2959=
KSLN 102153Z 00000KT 8SM OVC024 04/01 A2957=
KSPI 102152Z 16017G26KT 9SM -RA OVC006 04/04 A2966=
KSTC 102153Z 17007KT 1 3/4SM BR OVC005 M03/M03 A2955=
KSTJ 102153Z 26004KT 7SM OVC006 03/02 A2954=
KSTL 102151Z 18005KT 3SM -RA BR OVC005 07/06 A2971=
KSTP 102153Z AUTO 16007KT 5SM BR OVC006 M01/M02 A2960=
KSUS 102154Z 18006KT 3SM -RA BR BKN017 BKN055 OVC070 08/07
     A2968=
KSUX 102152Z 16003KT 1 1/4SM BR OVC008 01/M01 A2956=
KTVC 102153Z VRB04KT 4SM HZ OVC011 00/M03 A2983=
KUIN 102154Z AUTO 17016KT 10SM -RA SCT007 BKN060 OVC075 06/04
     A2956=
KWRL 102153Z AUTO 13009KT 10SM CLR 01/M06 A2968=
KYIP 102153Z AUTO 14008KT 2 1/2SM BR OVC006 03/01 A2996=

0000012900
993
SACN62 CYWG 102200
METAR CYWG 102200Z 18009KT 10SM FEW020 SCT080 BKN230 M05/M07 A2938
 RMK SC2AC2CI1 SLP965=

0000012700
994
SACN62 CYYD 102200
METAR CYYD 102200Z 15005KT 150V210 25SM FEW065 BKN210 M04/M05 A2964
 RMK SC2CI5 SLP059=

0000012900
995
SACN62 CYXE 102200
METAR CYXE 102200Z 22008KT 15SM SCT040 BKN120 OVC250 M07/M08 A2945
 RMK SC3AC3CI2 SLP008=

0000012300
996
SACN62 CYXY 102200
METAR CYXY 102200Z 11002KT 20SM -SN FEW020 BKN060 M11/M12 A2929 RMK
 SF2SC5 SLP975=

0000166600
997
SAUS74 KWBC 102200
METAR
KACV 102153Z AUTO 00000KT 1 1/2SM R32/5500VP6000FT BR OVC002 10/09
     A3022=
KALW 102153Z 20013KT 10SM OVC100 09/01 A3002=
KBFI 102153Z 19010G15KT 10SM SCT019 OVC095 10/06 A3001=
KBFL 102154Z 00000KT 9SM CLR 16/05 A3020=
KBIL 102153Z 28022G31KT 10SM BKN080 BKN090 06/M04 A2959=
KBKE 102153Z AUTO 06009KT 10SM OVC070 04/M01 A3004=
KBLI 102153Z 17006KT 10SM OVC036 09/04 A2998=
KBOI 102153Z 32007KT 10SM OVC075 06/M01 A3010=
KBTM 102153Z AUTO 27014G25KT 10SM BKN065 02/M08 A2976=
KBUR 102153Z 18005KT 8SM CLR 24/06 A3002=
KBYI 102153Z AUTO 27018G33KT 10SM CLR 06/M02 A2998=
KBZN 102156Z 28018G27KT 10SM BKN080 04/M07 A2973=
KCDC 102153Z AUTO 00000KT 10SM CLR 09/M05 A3008=
KCEC 102156Z AUTO 16007KT 10SM OVC003 10/09 A3023=
KCLM 102153Z AUTO 00000KT 10SM -RA OVC017 08/05 A2997=
KCTB 102156Z AUTO 25017KT 10SM CLR 02/M03 A2957=
KCXL NIL=
KEKO 102156Z AUTO 23014KT 10SM OVC070 07/M03 A3013=
KEUG 102154Z 20007KT 10SM SCT050 BKN075 OVC100 12/08 A3013=
KFAT 102153Z 07003KT 4SM HZ FEW200 16/06 A3021=
KFLG 102157Z 10SM CLR 10/M07 A3011=
KGCN 102154Z 31008KT 10SM CLR 09/M06 A3010=
KGEG 102153Z 23020KT 10SM FEW023 SCT110 BKN160 04/M01 A2987=
KGGW 102153Z AUTO 31004KT 10SM CLR M02/M07 A2949=
KGTF 102153Z 26018G26KT 10SM CLR 04/M04 A2961=
KHLN 102153Z 27018G24KT 10SM FEW060 06/M04 A2971=
KHQM 102153Z AUTO 17008KT 1 1/2SM -RA SCT011 BKN016 OVC023
     A3000=
KIDA 102153Z 22018KT 10SM CLR 02/M01 A2990=
KIWA NIL=
KLAS 102156Z 14003KT 10SM SCT250 16/M04 A3003=
KLAX 102153Z 26010KT 8SM FEW160 SCT250 18/09 A3004=
KLGB 102153Z 19006KT 4SM HZ CLR 19/10 A3003=

0000011800
998
SACN62 CYXH 102200
METAR CYXH 102200Z 29012KT 30SM FEW095 BKN270 01/M05 A2951 RMK AC2CI5
 SLP018=

0000011800
999
SACN62 CYYF 102200
METAR CYYF 102200Z VRB03KT 15SM BKN080 BKN120 03/M00 A2985 RMK AC5AC2
 SLP122=

0000120700
000
SAAK31 KWBC 102200
METAR
PABR 102153Z 31011KT 10SM SCT007 M24/M28 A2991=
PACD 102153Z 16015KT 10SM FEW040 03/M01 A2934=
PAED 102158Z 36001KT 10SM OVC003 M04/M04 A2941=
PAEI 102158Z 00000KT 10SM SCT085 M19/M22 A2957=
PAEN 102153Z 00000KT 3/4SM BR OVC006 M03/M04 A2943=
PAFA 102153Z 00000KT 10SM FEW080 M23/M27 A2958=
PAFR NIL=
PAFS 102156Z AUTO 04003KT 10SM OVC027 M14/M18 A2956=
PAFY NIL=
PAJN 102153Z 11006KT 10SM SCT011 BKN033 OVC055 03/01 A2951=
PAKN 102154Z 36005KT 10SM FEW004 BKN025 M02/M03 A2945=
PAKT 102153Z 17004KT 10SM SCT016 BKN030 OVC055 04/02 A2964=
PANC 102153Z 34004KT 6SM -SN BR SCT005 OVC013 M03/M04 A2941=
PAOM 102153Z 02004KT 10SM SCT090 BKN200 M11/M19 A2966=
PAOR 102153Z 00000KT 9SM -SN FEW022 BKN027 BKN090 M16/M18
     A2939=
PAOT 102153Z 02007KT 10SM CLR M18/M24 A2981=
PARY 102156Z AUTO 00000KT 10SM CLR M22/M24 A2961=
PASC 102153Z 24013KT 9SM OVC060 M29/M32 A2988=
PASG NIL=
PASI 102153Z 14009KT 10SM SCT015 BKN025 OVC039 03/01 A2954=
PATQ 102156Z AUTO 25008KT 10SM OVC006 M29/M33 A2994=
PAVD 102156Z 10SM FEW005 FEW020 BKN100 M03/M06 A2938=
PAWG 102156Z 11011KT 10SM FEW012 BKN030 OVC080 03/00 A2962=
PFYU NIL=

0000169500
001
SAUS74 KWBC 102200 RRA
METAR
KLMT 102153Z 07003KT 10SM OVC041 07/M02 A3018=
KLVM 102153Z AUTO 25026G35KT 10SM CLR 05/M08 A2965=
KMFR 102153Z 00000KT 8SM BKN009 OVC060 07/04 A3020=
KMLS 102153Z AUTO 28010KT 10SM OVC075 03/M02 A2954=
KMRY 102154Z 32003KT 10SM CLR 14/09 A3019=
KMSO 102153Z AUTO 04005KT 10SM BKN060 OVC075 03/00 A2987=
KMYV 102153Z AUTO 00000KT 10SM CLR 16/06 A3020=
KNTD 102154Z 19009KT 7SM SCT220 20/12 A3003=
KOAK 102153Z 25005KT 9SM SCT250 13/08 A3021=
KOGD 102153Z 22008KT 10SM OVC100 05/M03 A3004=
KOLM 102154Z 19005KT 6SM -RA BR FEW010 BKN050 OVC070 08/07
     A3003=
KONT 102153Z 25004KT 7SM FEW250 22/03 A3003=
KOTH 102155Z 20007KT 10SM OVC018 12/10 A3016=
KPAE 102153Z 19013KT 10SM BKN014 OVC016 08/04 A2999=
KPDX 102153Z 18008KT 9SM BKN020 OVC075 11/08 A3008=
KPHX 102151Z VRB04KT 10SM FEW250 18/M04 A3003=
KPIH 102153Z 23024G33KT 10SM SCT033 04/M01 A2995=
KPMD 102153Z 35005KT 10SM CLR 21/M01 A3008=
KPRB 102153Z AUTO VRB04KT 10SM CLR 19/03 A3016=
KPRC 102153Z 32007KT 10SM CLR 14/M07 A3007=
KPSP 102153Z 08008KT 10SM CLR 23/M03 A3004=
KRBL 102154Z AUTO 35005KT 10SM CLR 17/03 A3022=
KRDD 102153Z 00000KT 10SM CLR 17/04 A3021=
KRDM 102156Z 29011KT 10SM BKN055 OVC070 08/M03 A3008=
KRNO 102155Z 00000KT 10SM FEW150 BKN200 OVC250 13/M01 A3022=
KRNT 102153Z 17009KT 10SM BKN021 OVC090 09/06 A3001=
KSAC 102153Z VRB04KT 10SM CLR 16/06 A3020=
KSAN 102151Z 30006KT 8SM FEW250 19/08 A3006=
KSBA 102153Z 15010KT 5SM HZ CLR 18/13 A3002=
KSBD NIL=
KSBP 102156Z 33017KT 10SM CLR 23/03 A3010=
KSCK 102155Z 28003KT 9SM CLR 16/07 A3019=
KSEA 102153Z 21012KT 10SM BKN014 BKN032 OVC095 09/06 A3002=

0000009900
002
SAGQ21 FGSL 102200 RRA
METAR FGBT 102200Z 15004KT 9999 FEW010 26/25 Q1011 NOSIG=

0000089300
003
SAUS74 KWBC 102200 RRB
METAR
KSFF 102153Z 24011KT 10SM FEW030 SCT120 07/00 A2990=
KSFO 102156Z 00000KT 10SM BKN200 14/08 A3020=
KSHR 102153Z AUTO 32019KT 10SM OVC085 04/M05 A2959=
KSJC 102153Z 00000KT 10SM SCT160 BKN250 15/07 A3020=
KSLC 102153Z 12005KT 10SM BKN075 BKN110 BKN150 06/M03 A3006=
KSMF 102153Z 29003KT 10SM SCT250 16/06 A3020=
KSMX 102151Z 30015G19KT 10SM CLR 22/07 A3008=
KSNA 102153Z COR 21005KT 5SM HZ BKN250 21/09 A3003=
KSNA 102153Z 21005KT 5SM HZ CLR 21/09 A3003=
KSNS 102153Z 26008KT 10SM CLR 19/06 A3017=
KTIW 102153Z 19008KT 10SM FEW015 BKN024 OVC031 08/06 A3002=
KTUS 102153Z 25005KT 10SM CLR 18/M07 A3006=
KTVL 102153Z AUTO 04006KT 10SM CLR 12/M04 A3024=
KTWF 102153Z 27022G29KT 10SM BKN080 07/M03 A3004=
KUKI 102156Z AUTO 00000KT 10SM CLR 17/04 A3020=
KYKM 102153Z 27011KT 10SM BKN060 BKN085 12/M01 A2992=
KYUM NIL=

0000167600
004
SAUS75 KWBC 102200
METAR
PABA 102201Z AUTO 27022KT -SN M26/M28 A2986=
PABE 102153Z 03011KT 10SM SCT006 BKN045 M11/M12 A2947=
PABI 102153Z 27003KT 4SM -SN SCT041 SCT060 OVC090 M17/M20
     A2950=
PABR 102153Z 31011KT 10SM SCT007 M24/M28 A2991=
PABT 102153Z 00000KT 10SM FEW045 SCT130 M31/M34 A2967=
PACV 102153Z 05003KT 3/4SM R27/3500VP6000FT -SN BR FEW007 BKN011
     OVC014 01/M01 A2937=
PACZ 102155Z AUTO 19008G17KT 010V250 10SM SCT015 M05/M08 A2944=
PADK 102156Z AUTO 21016KT 10SM FEW034 SCT039 BKN070 04/00
     A2894=
PADL NIL=
PADU 102156Z 13013KT 6SM -RA BR SCT006 BKN015 OVC020 03/00
     A2924=
PAEH 102155Z AUTO 12018KT 9SM -SHRA FEW002 BKN017 BKN095 00/00
     A2936=
PAEI 102158Z 00000KT 10SM SCT085 M19/M22 A2957=
PAEN 102153Z 00000KT 3/4SM BR OVC006 M03/M04 A2943=
PAFA 102153Z 00000KT 10SM FEW080 M23/M27 A2958=
PAFB 102155Z 00000KT 13SM FEW080 M24/M27 A2959=
PAGA 102158Z AUTO 00000KT 2 1/2SM HZ CLR M24/M27 A2970=
PAGK 102153Z AUTO 00000KT 2 1/2SM BR OVC080 M09/M11 A2934=
PAGS 102156Z AUTO 13005KT 10SM BKN017 OVC027 02/01 A2949=
PAGY 102153Z AUTO 20016G27KT 10SM OVC080 04/00 A2942=
PAHO 102153Z 00000KT 10SM CLR M01/M03 A2942=
PAIL 102153Z 00000KT 10SM OVC016 M03/M03 A2948=
PAJN 102153Z 11006KT 10SM SCT011 BKN033 OVC055 03/01 A2951=
PAKN 102154Z 36005KT 10SM FEW004 BKN025 M02/M03 A2945=
PAKT 102153Z 17004KT 10SM SCT016 BKN030 OVC055 04/02 A2964=
PALU 102155Z AUTO 11006KT 10SM OVC010 M19/M20 A3003=
PAMC 102153Z 00000KT 10SM BKN023 M16/M19 A2958=
PANC 102153Z 34004KT 6SM -SN BR SCT005 OVC013 M03/M04 A2941=
PANT 102153Z 18005KT 10SM SCT018 BKN025 OVC031 04/02 A2963=

0000150200
005
SAUS75 KWBC 102200 RRA
METAR
PAOM 102153Z 02004KT 10SM SCT090 BKN200 M11/M19 A2966=
PAOR 102153Z 00000KT 9SM -SN FEW022 BKN027 BKN090 M16/M18
     A2939=
PAOT 102153Z 02007KT 10SM CLR M18/M24 A2981=
PAPG 102155Z 13006KT 10SM SCT018 SCT028 BKN050 04/00 A2958=
PASC 102153Z 24013KT 9SM OVC060 M29/M32 A2988=
PASI 102153Z 14009KT 10SM SCT015 BKN025 OVC039 03/01 A2954=
PASN 102153Z 18004KT 10SM BKN016 01/M01 A2918=
PATA 102152Z 00000KT 10SM CLR M31/M34 A2966=
PATC 102155Z AUTO 03023KT 1/2SM -SHSN FZFG VV002 M18/M20 A2976=
PATK 102153Z 00000KT 10SM OVC014 M07/M09 A2941=
PAUN 102156Z AUTO 08018KT 10SM CLR M14/M21 A2960=
PAVD 102156Z 10SM FEW005 FEW020 BKN100 M03/M06 A2938=
PAYA 102153Z 05003KT 10SM SCT006 BKN013 BKN026 01/01 A2942=
PGRO 102150Z 07013KT 7SM SCT023 BKN120 26/23 A2995=
PGUA 102158Z AUTO 06013G20KT 10SM SCT019 27/23 A2994=
PGUM 102154Z 06010KT 10SM CLR 27/23 A2994=
PHJH 102150Z 02012KT 15SM FEW015 FEW030 26/20 A2997=
PHLI 102153Z COR 04015KT 10SM SCT021 26/20 A3002=
PHLI 102153Z 04015KT 10SM SCT021 26/20 A3005=
PHMK 102201Z 02009G15KT 10SM FEW020 24/21 A2997=
PHMK 102154Z 02009KT 10SM BKN020 24/20 A2998=
PHNL 102153Z 04011G19KT 330V090 10SM FEW026 SCT037 SCT044 27/17
     A2997=
PHNY 102156Z AUTO 04012G17KT 10SM CLR 26/17 A3000=
PHOG 102154Z 02010KT 10SM FEW016 SCT030 26/20 A2997=
PHTO 102153Z 36007KT 10SM FEW030 FEW070 25/19 A2997=
PMDY 102156Z AUTO 09018G27KT 6SM HZ BKN055 21/16 A3026=
PWAK NIL=

00000000