0000035500
426
SMSM01 SMJP 110000
AAXX 11004
81225 11565 70703 10243 20231 40120 60011 82186 8543/
  333 10308 56129 59008 70007 84625 87358=
81200 12470 70000 10264 20216 40121 60001 84852
  333 56399 59009 70000 81812 83625 85358
81202 12470 30712 10262 10221 40125 60001 83802
  333 10286 56209 59003 70020 83815=
81209 NIL=
81251 NIL=
0000013800
427
SMJM01 MKJP 100600
AAXX 10064
78397 11570 13308 10256 20207 30164 40166 60001 70500 81801
333 10314 20237 58006 81824=
0000185300
428
SMJP01 RJTD 110000
AAXX 11004
47401 11/65 72808 11090 21164 30135 40150 53003 60012 78582 872//
  333 21098 4/028 70030=
47412 11/30 72306 11068 21113 30153 40187 51005 69902 78582 873//
  333 21081 4/047 79999=
47420 15/70 /2507 11070 21136 30130 40165 51008 60002
  333 21088=
47426 17/68 /3112 11056 21136 30136 40186 51007 69902 77170
  333 21075=
47582 11/30 73512 11023 21038 30210 40238 52005 60032 78598 873//
  333 21039 4/017 70040=
47590 12/70 12815 10009 21081 30180 40236 50003 60002 81300
  333 21038 79999=
47600 17/70 /1806 10006 21015 30264 40273 53009 60022 76776
  333 21001=
47648 12/80 52604 10019 21048 30219 40255 53011 60002 83230
  333 21003 70000=
47662 12/84 13504 10019 21085 30211 40257 53012 60002 81100
  333 20007 70000=
47678 17/70 /2709 10078 20005 30077 40269 51014 69902 72360
  333 20055=
47740 17/69 /3206 10016 20006 30256 40292 53020 69952 76760
  333 21003=
47778 15/70 /3414 10051 21044 30208 40295 53013 60002
  333 20022=
47807 11/65 71403 10037 21031 30302 40321 51014 69902 70282 86230
  333 20023 79999=
47827 12/75 63404 10025 21020 30281 40321 53011 60002 83830
  333 20005 70000=
47843 17/60 /3508 10069 20010 30285 40319 53012 69902 70060
  333 20047=
47893 12/80 12803 10018 21029 30302 40308 53009 60002 81100
  333 21013 70000=
47909 12/70 11603 10108 20049 30292 40302 51011 69902 81100
  333 20089 79999=
47918 12/81 20910 10199 20109 30242 40260 51017 69902 82100
  333 20163 79999=
47936 12/84 20308 10152 20070 30224 40284 53013 60002 81170
  333 20131 79999=
47945 11/65 30406 10160 20078 30259 40284 51023 69902 70261 83800
  333 20138 79999=
47971 12/70 73506 10156 20044 30252 40262 51017 69902 878//
  333 20147 70005=
47991 16/// /3613 10226 20147 30182 40192 51016 69952
  333 20215=
0000260700
429
SMJP02 RJTD 110000
AAXX 11004
47407 11/56 72307 11082 21113 39992 40174 52007 60082 78582 872//
  333 21096 4/068 70140=
47409 11/50 72306 11090 21124 30106 40163 51007 69902 78581 872//
  333 21136 4/019 70005=
47418 11/20 12906 11124 21171 30124 40177 51008 60002 74100 81200
  333 21163 70000=
47421 17/06 /3109 11063 21092 30151 40197 50003 60022 77177
  333 21075=
47430 11/56 73004 11060 21094 30152 40209 51009 60052 78588 873//
  333 21086 4/034 70070=
47570 17/58 /2003 11012 21044 39992 40262 53008 69902 77177
  333 21036=
47575 11/20 82612 11042 21065 30220 40225 51010 60022 78582 883//
  333 21057 4/038 70065=
47584 11/65 61605 11048 21092 30035 40235 51009 69902 70281 86200
  333 21096 4/013 79999=
47604 11/75 72706 10022 21052 30257 40264 52006 69902 70282 8723/
  333 20007 79999=
47605 11/58 72006 10023 20004 30233 40276 53005 60042 78582 872//
  333 20008 4/003 70145=
47610 11/65 71702 11035 21066 39753 40282 53012 69902 72681 8727/
  333 21058 4/001 79999=
47624 12/80 33106 10013 21077 30114 40258 53010 60002 83800
  333 21032 70000=
47629 12/80 13402 11003 21063 30216 40256 53008 60002 81100
  333 21056 70000=
47636 11/65 20104 10023 21011 30216 40287 51015 69902 70281 82800
  333 20007 79999=
47651 12/80 12810 10037 21052 30268 40291 52013 60002 81100
  333 20006 79999=
47655 15/70 /2811 10042 21031 30210 40269 51010 60002
  333 20014=
47675 15/70 /1505 10063 21002 30160 40254 51015 60002
  333 20005=
47741 11/75 62611 10041 21019 30270 40298 53015 69902 72682 86200
  333 20010 4/005 70010=
47746 11/60 61307 10013 21014 30278 40298 51013 69902 78582 86200
  333 20001 4/004 70030=
47750 15/70 /2102 11006 21019 30268 40297 51010 69902
  333 21024=
47765 12/70 20203 10023 21018 30248 40317 53015 60002 82100
  333 20006 79999=
47772 12/70 12907 10046 21041 30196 40300 53008 60002 81100
  333 20003 79999=
47800 15/66 /3404 10030 21051 30323 40328 51015 60002
  333 21006=
47815 12/70 41903 10036 21032 30302 40319 53011 60002 81140
  333 21003 70000=
47817 11/65 80801 10051 21009 30276 40321 53012 69902 70282 8627/
  333 20027 79999=
47830 12/70 43008 10012 21035 30301 40320 51011 60002 83801
  333 21017 70000=
47887 12/65 11504 10024 21017 30272 40316 53011 60002 81200
  333 20006 70005=
47891 12/65 42504 10038 21024 30290 40308 51013 60002 82831
  333 20003 70000=
47895 12/75 13006 10040 21028 30295 40303 51007 60002 81200
  333 20006 70000=
47927 12/75 20707 10183 20102 30218 40268 53012 69902 82200
  333 20152 79999=
0000066800
430
USAA01 NZCM 110000
TTAA 61001 89664
99997 00056 18501 00512 ///// ///// 92601 07158 18518
85255 11341 17017 70716 21114 15006 50514 33959 24513
40666 44759 24520 30855 51765 24023 25975 45585 24514
20124 43786 24513 15318 43586 26009 10592 41586 23504
88320 52361 23026
77999
31313 48008 82219=

0000069700
87361=
0000011200
87368=
0000015000
87382
0000012800
87386=
0000045700
87427
0000045800
87444
0000047900
87464
0000052000
87476=
0000050100
87588
0000062500
87676
0000054300
87809
0000066700
87996
0000064700
88184=
0000064800
89987
0000062800
90863
0000062800
92129
0000066800
431
USAA01 NZCM 110000
TTAA 61001 89664
99997 00056 18501 00512 ///// ///// 92601 07158 18518
85255 11341 17017 70716 21114 15006 50514 33959 24513
40666 44759 24520 30855 51765 24023 25975 45585 24514
20124 43786 24513 15318 43586 26009 10592 41586 23504
88320 52361 23026
77999
31313 48008 82219=

0000069700
87361=
0000011200
87368
0000009600
87371
0000035800
87378
0000037300
87381=
0000039500
87413
0000041600
87422
0000043700
87443
0000045800
87466
0000054100
87469=
0000050100
87581
0000046000
87641=
0000054400
88252
0000056500
88523
0000064800
88790=
0000069000
92126
0000079200
432
USAA01 NZCM 110000
TTAA 61001 89664
99997 00056 18501 00512 ///// ///// 92601 07158 18518
85255 11341 17017 70716 21114 15006 50514 33959 24513
40666 44759 24520 30855 51765 24023 25975 45585 24514
20124 43786 24513 15318 43586 26009 10592 41586 23504
88320 52361 23026
77999
31313 48008 82219=

0000069700
87361=
0000011200
87368
0000009600
87371
0000035800
87378
0000037300
87381
0000039400
87385
0000039400
87407
0000041500
87411
0000014600
87417
0000045700
87421
0000049900
87440
0000052000
87462
0000050000
87472
0000005900
87495
0000058300
87519=
0000056400
87727
0000054300
87830=
0000056500
88861
0000064800
89335
0000050400
89911
0000062800
90837
0000064900
92131
0000079200
433
USAA01 NZCM 110000
TTAA 61001 89664
99997 00056 18501 00512 ///// ///// 92601 07158 18518
85255 11341 17017 70716 21114 15006 50514 33959 24513
40666 44759 24520 30855 51765 24023 25975 45585 24514
20124 43786 24513 15318 43586 26009 10592 41586 23504
88320 52361 23026
77999
31313 48008 82219=

0000069700
87361=
0000011200
87368
0000009600
87371
0000035800
87378
0000037300
87381
0000039400
87385
0000039400
87407=
0000012000
87430
0000054000
87439
0000049900
87460
0000047900
87470
0000052100
87487
0000054200
87520
0000052100
87554
0000050100
87606
0000058400
87669
0000060500
87776
0000066700
87962
0000062600
88147=
0000058600
89993
0000064900
90873
0000058700
92133
0000066800
434
USAA01 NZCM 110000
TTAA 61001 89664
99997 00056 18501 00512 ///// ///// 92601 07158 18518
85255 11341 17017 70716 21114 15006 50514 33959 24513
40666 44759 24520 30855 51765 24023 25975 45585 24514
20124 43786 24513 15318 43586 26009 10592 41586 23504
88320 52361 23026
77999
31313 48008 82219=

0000069700
87361=
0000011200
87368=
0000015000
87382
0000012800
87386
0000045600
87406
0000047700
87410
0000049800
87416
0000051900
87420
0000047800
87441
0000045800
87463
0000047900
87474
0000054100
87493
0000052100
87509=
0000048100
87737=
0000050300
88793=
0000077300
92132
0000060600
435
USAA01 NZCM 110000
TTAA 61001 89664
99997 00056 18501 00512 ///// ///// 92601 07158 18518
85255 11341 17017 70716 21114 15006 50514 33959 24513
40666 44759 24520 30855 51765 24023 25975 45585 24514
20124 43786 24513 15318 43586 26009 10592 41586 23504
88320 52361 23026
77999
31313 48008 82219=

0000069700
87361=
0000011200
87368=
0000015000
87382=
0000030600
87414=
0000011000
87481
0000054100
87485
0000050000
87516
0000054200
87558
0000060400
87607
0000056300
87649
0000062600
87766=
0000062700
88815=
0000064900
92134
0000066800
436
USAA01 NZCM 110000
TTAA 61001 89664
99997 00056 18501 00512 ///// ///// 92601 07158 18518
85255 11341 17017 70716 21114 15006 50514 33959 24513
40666 44759 24520 30855 51765 24023 25975 45585 24514
20124 43786 24513 15318 43586 26009 10592 41586 23504
88320 52361 23026
77999
31313 48008 82219=

0000069700
87361=
0000011200
87368
0000009600
87371
0000035800
87378
0000037300
87381=
0000039500
87413
0000041600
87422
0000043700
87443=
0000052100
87539
0000048000
87564
0000056300
87614
0000046200
87684=
0000058500
88248
0000060600
88517
0000064800
88786=
0000062800
92147
0000056500
437
USAA01 NZCM 110000
TTAA 61001 89664
99997 00056 18501 00512 ///// ///// 92601 07158 18518
85255 11341 17017 70716 21114 15006 50514 33959 24513
40666 44759 24520 30855 51765 24023 25975 45585 24514
20124 43786 24513 15318 43586 26009 10592 41586 23504
88320 52361 23026
77999
31313 48008 82219=

0000069700
87361=
0000011200
87368=
0000015000
87382
0000012800
87386
0000045600
87406=
0000047800
87429=
0000005900
87506
0000058300
87508=
0000054300
87745=
0000050300
88808=
0000060800
92151
0000064700
438
USAA01 NZCM 110000
TTAA 61001 89664
99997 00056 18501 00512 ///// ///// 92601 07158 18518
85255 11341 17017 70716 21114 15006 50514 33959 24513
40666 44759 24520 30855 51765 24023 25975 45585 24514
20124 43786 24513 15318 43586 26009 10592 41586 23504
88320 52361 23026
77999
31313 48008 82219=

0000069700
87361=
0000011200
87368
0000009600
87371
0000035800
87378
0000037300
87381=
0000039500
87413
0000041600
87422
0000043700
87443
0000045800
87466
0000054100
87469
0000050000
87483
0000045900
87525=
0000058400
87752=
0000050300
88804=
0000069000
92138
0000066800
439
USAA01 NZCM 110000
TTAA 61001 89664
99997 00056 18501 00512 ///// ///// 92601 07158 18518
85255 11341 17017 70716 21114 15006 50514 33959 24513
40666 44759 24520 30855 51765 24023 25975 45585 24514
20124 43786 24513 15318 43586 26009 10592 41586 23504
88320 52361 23026
77999
31313 48008 82219=

0000069700
87361=
0000011200
87368
0000009600
87371
0000035800
87378
0000037300
87381=
0000039500
87413
0000041600
87422
0000043700
87443=
0000052100
87539
0000048000
87564=
0000056400
87880=
0000062700
88916
0000054500
89384
0000060700
90009
0000069000
90882
0000069000
92135
0000064700
440
USAA01 NZCM 110000
TTAA 61001 89664
99997 00056 18501 00512 ///// ///// 92601 07158 18518
85255 11341 17017 70716 21114 15006 50514 33959 24513
40666 44759 24520 30855 51765 24023 25975 45585 24514
20124 43786 24513 15318 43586 26009 10592 41586 23504
88320 52361 23026
77999
31313 48008 82219=

0000069700
87361=
0000011200
87368
0000009600
87371
0000035800
87378
0000037300
87381
0000039400
87385=
0000043700
87428=
0000047900
87503=
0000056300
87717
0000060500
87837
0000052300
88011
0000058500
88196=
0000064800
90015
0000062800
90909
0000062800
92148
0000064700
441
USAA01 NZCM 110000
TTAA 61001 89664
99997 00056 18501 00512 ///// ///// 92601 07158 18518
85255 11341 17017 70716 21114 15006 50514 33959 24513
40666 44759 24520 30855 51765 24023 25975 45585 24514
20124 43786 24513 15318 43586 26009 10592 41586 23504
88320 52361 23026
77999
31313 48008 82219=

0000069700
87361=
0000011200
87368
0000009600
87371
0000035800
87378
0000037300
87381
0000039400
87385
0000039400
87407
0000041500
87411
0000014600
87417
0000045700
87421
0000049900
87440=
0000052100
87535=
0000052200
87749=
0000056500
88806=
0000067000
92167
0000068900
442
USAA01 NZCM 110000
TTAA 61001 89664
99997 00056 18501 00512 ///// ///// 92601 07158 18518
85255 11341 17017 70716 21114 15006 50514 33959 24513
40666 44759 24520 30855 51765 24023 25975 45585 24514
20124 43786 24513 15318 43586 26009 10592 41586 23504
88320 52361 23026
77999
31313 48008 82219=

0000069700
87361=
0000011200
87368=
0000015000
87382
0000012800
87386=
0000045700
87427
0000045800
87444
0000047900
87464
0000052000
87476
0000050000
87490
0000045900
87515
0000054200
87561=
0000056400
87894=
0000062700
88919
0000062700
89369
0000058600
89991
0000060700
90874
0000067000
92168
0000068900
443
USAA01 NZCM 110000
TTAA 61001 89664
99997 00056 18501 00512 ///// ///// 92601 07158 18518
85255 11341 17017 70716 21114 15006 50514 33959 24513
40666 44759 24520 30855 51765 24023 25975 45585 24514
20124 43786 24513 15318 43586 26009 10592 41586 23504
88320 52361 23026
77999
31313 48008 82219=

0000069700
87361=
0000011200
87368=
0000015000
87382
0000012800
87386
0000045600
87406=
0000047800
87429
0000015700
87445
0000049900
87465
0000054100
87473
0000050000
87488
0000052100
87521
0000054200
87549
0000056300
87594
0000062500
87639
0000070800
87764=
0000073000
88813=
0000075200
92175
0000068900
444
USAA01 NZCM 110000
TTAA 61001 89664
99997 00056 18501 00512 ///// ///// 92601 07158 18518
85255 11341 17017 70716 21114 15006 50514 33959 24513
40666 44759 24520 30855 51765 24023 25975 45585 24514
20124 43786 24513 15318 43586 26009 10592 41586 23504
88320 52361 23026
77999
31313 48008 82219=

0000069700
87361=
0000011200
87368
0000009600
87371
0000035800
87378
0000037300
87381
0000039400
87385
0000039400
87407=
0000012000
87430
0000054000
87439=
0000056200
87534=
0000060500
87732
0000056400
87842=
0000052400
88900
0000062800
89351
0000064800
89963
0000062800
90870
0000054600
92150
0000066800
445
USAA01 NZCM 110000
TTAA 61001 89664
99997 00056 18501 00512 ///// ///// 92601 07158 18518
85255 11341 17017 70716 21114 15006 50514 33959 24513
40666 44759 24520 30855 51765 24023 25975 45585 24514
20124 43786 24513 15318 43586 26009 10592 41586 23504
88320 52361 23026
77999
31313 48008 82219=

0000069700
87361=
0000011200
87368=
0000015000
87382=
0000030600
87414
0000014800
87423
0000049900
87438
0000052000
87459
0000058200
87471
0000050000
87489
0000052100
87522
0000058300
87546
0000054200
87595
0000058400
87662
0000064600
87772=
0000066800
88821=
0000062800
92159
00000000