0000020800
186
SICI22 BABJ 110900 RRH
AAXX 11091
58040 31931 01401 10036 21012 40310 57003 70500=
58362 41758 80704 10045 20020 40310 52007 76065 88///=
58847 32665 71601 10152 20089 40245 57008 87///=
0000016100
187
SICI23 BABJ 110900 RRH
AAXX 11091
51133 32980 41602 11011 21150 40325 57025 84/// 333 05905=
54094 42756 71101 11134 21188 40256 57011 87///=
0000020000
188
SICI21 BABJ 110900 RRG
AAXX 11091
50468 32970 02902 11276 21337 40296 52014=
51076 32980 00901 11071 21184 40437 57014 333 05209=
54471 42960 30201 11025 21045 40276 57005 83///=
0000020800
189
SICI22 BABJ 110900 RRI
AAXX 11091
58238 41416 80903 10047 20034 40307 52002 76066 88///=
58251 31948 70902 10054 21004 40309 57003 70500 87///=
59117 32970 00901 10211 20094 40210 57011=
0000022000
190
SICI23 BABJ 110900 RRI
AAXX 11091
50136 32970 32903 11267 21320 40380 52019 83///=
50745 41964 60901 11207 21289 40295 52012 70070 86/// 333
92502=
50788 32970 23202 11237 21278 40252 52007 82///=
0000011000
191
SICI23 BABJ 110900 CCA
AAXX 11091
51431 32980 50901 10009 21136 40307 57030 85/// 333 06003=
0000217100
192
SZNZ01 NZKL 110921
CREX++
T000103 A001 D01021 D06025++
-3683144 17478654 AUCT  2014 01 11 09 13 //// 11 07 00 01
04011 3187 04008 3187 04007 3188 04003 3186 04002 3188 04000 3188+
-4402404 -17636748 CHIT  2014 01 11 09 13 //// 11 07 00 01
04494 1947 04501 1952 04506 1953 04492 1936 04504 1945 04510 1948+
-4089929 17623168 CPIT  2014 01 11 09 13 //// 11 07 00 01
03359 2288 03353 2278 03369 2291 03364 2282 03375 2290 03374 2285+
-3618905 17548887 GBIT  2014 01 11 09 13 //// 11 07 00 01
05014 -0010 05005 -0018 04997 -0026 04998 -0023 05003 -0018 05012 -0008+
-3867541 17802288 GIST  2014 01 11 09 13 //// 11 07 00 01
03325 2705 03323 2701 03325 2701 03321 2695 03312 2684 03329 2699+
-4241288 17370277 KAIT  2014 01 11 09 13 //// 11 07 00 01
02853 2184 02880 2207 02867 2189 02877 2195 02886 2199 02896 2205+
-3755040 17815904 LOTT  2014 01 11 09 13 //// 11 07 00 01
02724 0181 02727 0184 02730 0187 02726 0182 02732 0187 02741 0196+
-3704657 17451175 MNKT  2014 01 11 09 13 //// 11 07 00 01
02824 -0131 02803 -0145 02801 -0140 02782 -0153 02789 -0139 02772 -0149+
-3947566 17692007 NAPT  2014 01 11 09 13 //// 11 07 00 01
02459 2091 02457 2086 02471 2097 02456 2079 02444 2064 02443 2060+
-3441483 17304870 NCPT  2014 01 11 09 13 //// 11 07 00 01
-03707 -7402 -03824 -7516 -03649 -7338 -03538 -7224 -03582 -7264 -03661 -7340+
-4581435 17062939 OTAT  2014 01 11 09 13 //// 11 07 00 01
04398 3407 04406 3408 04416 3412 04422 3411 04426 3408 04433 3409+
-2928002 -17789440 RBCT  2014 01 11 09 13 //// 11 07 00 01
05484 2015 05482 2013 05494 2025 05497 2029 05493 2025 05492 2025+
-2925114 -17790384 RFRT  2014 01 11 09 13 //// 11 07 00 01
02372 0184 02387 0199 02395 0207 02394 0207 02393 0206 02400 0214+
-4357010 17277383 SUMT  2014 01 11 09 13 //// 11 07 00 01
01543 1888 01560 1900 01530 1863 01548 1875 01545 1866 01587 1902+
-3764109 17618118 TAUT  2014 01 11 09 13 //// 11 07 00 01
04316 3972 04313 3970 04338 3996 04265 3925 04293 3953 04308 3969+
-4128448 17477985 WLGT  2014 01 11 09 13 //// 11 07 00 01
02821 2057 02833 2065 02831 2060 02823 2048 02821 2043 02824 2041++
7777
0000009300
193
SAYE20 OYRN 110900
METAR OYRN 110900Z 15009KT 9999 FEW018 BKN040 26/14 Q1016=
0000056100
194
SIVZ11 SBBR 110900 RRE
BBXX
SHIP 11091 99/// 1//// 36/// /3201 10186 20183 30010 40137 52///
  333 10187 20182 553// 00024 91102=
SHIP 11091 99/// 1//// 36/// /0602 10219 20181 39551 49942 52///
  333 10225 20214 553// 00006 91111=
SHIP 11091 99/// 1//// 36/// /0304 10220 20187 39821 40103
  333 10220 20214 553// 00008 91107=
SHIP 11091 99/// 1//// 36/// /1500 10210 20199 39980 40127
  333 10213 20208 553// 00013 91103=
SHIP 11091 99/// 1//// 36/// /0302 10233 20219 30065 40133 52///
  333 10245 20224 553// 00022 91105=
0000017000
195
SOVI10 KWAL 110921
B110070A 011092101"P9751095 B\P~W@@R0ekI1@mj???C`Cd>@mb3@GC?@M4Ch5C}6bE9Ko<BM2?????@"??? nTIRKBmBqBiBcB_Bd:AMPTEMP 26.22C  45+0NN 219E
0000118400
196
SSVX08 KARS 110918
ZZYY 32322 10014 12004 501979 095188 6112/
11119 01810 10237 29087
22219 00237
33311 88872 20000 32366 20001 32383 43474 20020 32334 20040 32268
20060 32002 20080 31522 20100 31416 20120 31396 20140 31380
20500 30816
444 20120 10014 1253/ 521// 60401=
ZZYY 32322 11014 09004 501984 095186 6111/
11119 01809 10238 29088
22219 00239
444 20110 11014 0854/ 521// 60401=
ZZYY 41139 10014 12004 720011 037854 6111/
11119 00712 10215 29077 40201
22219 00240
33311 88872 20000 32402 20001 32404 43696 20020 32402 43706
20040 32402 43702 20060 32404 43704 20080 32410 20100 32351
20120 32230 20140 32151 20180 31985 20300 31610 20500 31215
444 20110 10014 1145/ 521// 60401=
ZZYY 41139 11014 09004 720013 037853 6112/
11119 00510 10224 29075 40177
22219 00240
444 20120 11014 0534/ 521// 60401=
ZZYY 41026 10014 1200/ 711497 037983 6112/
33311 88872 20001 32570 43597 20060 32563 20080 32137 20100 31693
20120 31445 43565 20140 31329 20180 31230 20300 31062 20500 30906
444 20120 10014 1148/ 521//=
ZZYY 41026 11014 0900/ 711503 037985 6111/
11119 10247 29076
22219 00256
444 20110 11014 0527/ 521//=
0000011100
197
UANT01 CWAO 110919
ARP UAL126 5133N03738W 0919 F370 MS55 284/19 KT
N17139 DDL IG1 110919 F86A
0000020500
198
SIZW21 FVHA 110900
AAXX 11094
67867 42580 51308 10276 20184 38599 48530 85132 333 58026 85820=
67965 NIL=
67969 NIL=
67991 42680 51502 10306 20216 39601 48520 85130 333 58043 85840=
0000281000
199
SIRS26 RUMS 110900
AAXX 11091
34240 41498 72406 10042 20016 39852 49986 50006 70282 86230 333 91010
91112=
34253 41498 82406 10020 20014 39817 49980 53013 72162 8802/ 333
91112=
34254 41598 82404 10040 20022 39872 49991 51013 70288 889// 333
91110=
34262 41497 82705 10017 20010 39841 49984 53008 76162 8872/ 333 91011
91112=
34267 41597 82505 10023 20014 39869 49995 53015 78086 883// 333
91114=
34321 42582 72805 10056 20010 39879 40015 52007 83930 333 91112=
34344 42598 72506 10048 20021 39930 40017 51012 87500 333 91011
91111=
34356 41597 72506 10037 20023 39864 40010 53020 70262 87500 333 91010
91114=
34373 41497 81706 10021 20020 39957 40001 56028 76126 88020 333 91012
91114=
34438 41497 82406 10040 20020 39860 40049 51012 70282 883// 333 91011
91112=
34445 41598 62407 10049 20021 39922 40035 51015 70362 86500 333 91012
91114=
34476 41497 81909 10033 20021 30023 40031 56022 78082 889// 333 91013
91118=
34535 42598 82606 10056 20014 39999 40070 52014 889// 333 91011
91114=
34555 41598 62510 10060 20021 39969 40059 51024 70181 86200 333 91017
91118=
34560 41597 72711 10038 20018 39876 40040 52016 70282 87300 333 87926
91014 91116=
34578 41497 82008 10050 20028 30052 40059 56019 78082 883// 333 91013
91116=
34644 42597 62704 10061 20022 30017 40093 52018 86800 333 91113=
34646 41598 62406 10059 20012 30000 40081 50022 70282 86500 333 86623
91012 91115=
34655 41597 82508 10059 20020 30022 40082 51025 70262 885// 333 91012
91118=
34662 41498 72508 10062 20028 30050 40061 53004 70288 87500 333 87619
91012 91114=
34720 42597 82405 10027 20014 30077 40117 51017 88600 333 91012
91112=
34727 42997 72205 10044 20025 30130 40134 51015 80030 333 91011
91112=
34730 42597 72509 10046 20026 30017 40109 52017 85530 333 85621 91013
91113=
34740 41598 52506 10068 20029 30020 40116 53022 70282 85900 333 91013
91113=
34743 42597 62506 10065 20019 3//// 4//// 5//// 84579 333 91012
91114=
34759 42497 62606 10062 20036 39975 40104 52011 86901 333 91011
91113=
34785 42998 82004 10042 20017 30136 40114 57008 8802/=
34824 42997 02604 10059 20021 30146 40151 51015 333 91110=
34845 31598 62704 10065 20034 30013 40119 52021 70182 85530=
34858 41596 82604 10075 20047 30010 40116 50003 71082 8337/ 333 91010
91110=
34861 41996 02508 10048 20028 39864 40104 56022 72582 333 91012
91114=
34866 82998 82405 10071 20021 30115 40107 58006 8000/ 333 91011=
34880 42597 81703 10060 20029 30143 40117 57009 8672/ 333 91110=
34887 42598 82003 10062 20031 30151 40132 53008 885//=
37018 41698 72604 10091 20048 30108 40183 52019 70182 86902 333 91010
91111=
37054 42798 82901 10050 21012 39759 40143 50019 885//=
37472 42997 41104 10064 20025 30120 40098 57019 83071=
0000010000
200
SIAG01 SABM 110900 RRA
AAXX 11093
87007 42970 01402 10068 21010 36730 47128 53003=
0000122000
201
SIAG01 SABM 110900
AAXX 11094
87022 42960 40000 10234 20207 39551 40040
53009 82076 333 56056 82360=
87046 42562 40000 10236 20197 39066 48470 52016 82570 333
56090 82630 84360=
87047 42565 40702 10204 20166 38751 48475 52013 81105 333 56006
81825 83270=
87097 42970 60505 10226 20223 39800 40104 53017 83036 333 56066
83360 83270=
87121 41662 81808 10232 20214 39586 40079 53016 71322 889// 333
56699 87640 81945=
87129 41330 81611 10213 20208 39866 40098 53049 79596 889// 333
56399 57900 86707 84945=
87148 41670 80905 10268 20229 39962 40066 52021 71322 8197/ 333
56559 57950 81935 88360=
87155 41760 81402 10263 20244 30033 40092 52035 71322 8197/ 333
56459 57944 81956 88360 96004=
87162 42570 63402 10263 20228 30020 40086 52027 86500 333 56800 86620=
87166 41660 80000 10275 20236 30024 40094 52040 71322 8397/ 333
56559 57955 82635 81950 88360=
87178 NIL=
87217 NIL=
87222 41550 81604 10221 20217 39578 40078 52021 76269 886// 333
85720 87735=
87257 NIL=
87270 NIL=
87289 NIL=
87311 42965 41614 10230 20099 39466 40126 52024 84070 333 56000
84360=
87320 NIL=
87328 42980 11405 10160 20113 39486 40113 52032 81070 333 56080 81360 95000=
0000021100
202
SIZW21 FVHA 110900 RRA
AAXX 11094
67965 42675 50509 10284 20157 38706 48534 81131 333 58024 81845
      84360=
67969 42875 61501 10309 20211 3//// 48/// 84202 333 5//// 84857
      83080=
0000130800
203
SIAL20 DAMM 110900
AAXX 11094
60360 42965 62305 10119 20082 40186 52013 81032 333 81360 86073 95900
=
60390 42980 52005 10168 20113 40204 51028 84031 333 84361 83070 95900
=
60402 42965 72612 10157 20060 40195 53012 83032 333 83359 85073 95900
=
60419 42960 40000 10093 20043 40219 51010 82032 333 82360 84073 95900
=
60475 42975 31404 10070 20011 39260 48517 51006 80002 333 83073 95900
=
60490 42570 82002 10149 20108 40184 52025 83532 333 83630 84073 95900
=
60525 42660 6//// 10115 20062 40216 53013 82232 333 82840 85360 95900
=
60531 41458 82216 10139 20081 40189 52028 76162 8427/ 333 84826 86460
95970=
60566 42660 60000 10107 20056 40239 52016 83230 333 83846 83360=
60571 42550 80914 10124 20073 39244 48506 55000 8527/ 333 85833 84460
95900=
60580 NIL=
60590 42660 6//// 10118 20060 40225 53013 83230 333 83830 83360=
60611 42860 61312 10137 20023 40229 52014 83034 333 83358 85073=
60620 41656 71520 10174 21037 40165 52015 70722 8523/ 333 85846 83365
=
60630 42770 41008 10168 21017 40198 53015 83530 333 83856=
60656 42960 23510 10113 20034 40173 53021 80002 333 82073=
60670 42980 63304 10111 20012 39137 48570 52015 84052 333 84360 95900
=
60680 42970 60808 10157 21023 38691 48566 53017 82032 333 82362 85073
95900=
0000119800
204
SIAL21 DAMM 110900
AAXX 11094
60351 NIL=
60355 42960 32206 10151 20041 40189 53015 80002 333 83073 95900=
60445 42565 72606 10087 20037 39060 48535 53016 82232 333 82830 85073
95900=
60468 42970 5//// 10065 20036 39251 48514 56011 83032 333 83360 83070
95900=
60507 42660 81410 10145 20083 40195 53020 8657/ 333 86633 84360 95900
=
60511 41560 71804 10080 20072 39089 48526 51016 72162 83272 333 83826
85359 95900=
60535 42565 7//// 10060 20038 38870 48531 50017 8322/ 333 83830 86460
95900=
60536 41960 80000 10115 20050 39334 48527 53015 72162 8807/ 333 88460
95900=
60549 42658 70000 10081 20049 38935 48536 53008 8327/ 333 83830 85460
95900=
60550 42570 70000 10090 20013 38687 48527 53002 83532 333 83630 83360
85073 95900=
60555 42665 60000 10086 20077 40238 53015 83230 333 83840 84360=
60559 42958 4//// 10107 20078 40230 51013 81034 333 81360 84073=
60581 42960 30000 10127 20072 40223 53013 83030 333 83360=
60602 42658 41009 10140 20035 40152 53014 82230 333 82843 83360 95900
=
60607 42660 81010 10140 20050 40176 52010 8582/ 333 85846 84462=
60640 42960 70000 10176 20019 40221 53013 82034 333 82360 86073=
60690 NIL=
0000100400
205
SIAL22 DAMM 110900
AAXX 11094
60395 42965 5//// 10141 20075 40200 53033 83032 333 83360 83073 95900
=
60421 42960 52004 10065 20031 39179 48520 52011 80002 333 85070 95900
=
60423 42670 4//// 10120 20020 39219 48496 51012 81232 333 81840 83073
95900=
60430 42970 72802 10130 20046 40217 52019 8703/ 333 87360 95900=
60437 42560 62004 10100 20059 39004 48511 51020 82532 333 82630 83070
95900=
60444 42660 60000 10074 20039 39123 48534 53017 84202 333 84833 84073
95900=
60452 NIL=
60457 42660 71401 10157 20098 40185 53015 81582 333 81626 83360 85073
95900=
60514 11460 80000 10067 20052 39310 48547 54000 8277/ 333 82720 88460
95900=
60518 42560 82406 10158 20114 40170 51030 84232 222// 20000 333 84820
83360 91806 95900=
60520 42565 71806 10138 20051 40186 53019 8488/ 333 84626 95900=
60540 42558 80000 10089 20066 39030 48500 58011 8557/ 333 85633 86460
95900=
60560 42665 70206 10096 20033 38972 48523 53019 82282 333 82840 85360
95900=
00000000