0000015700
246
SSVX13 LFPW 110900
ZZYY 16642 11014 0900/ 343860 053667 6113/ 11119 40053 57050 22219
 00106 444 20130 11014 0900/ 50101 80150 80015 9/015=
0000015700
247
SSVX13 LFPW 110900
ZZYY 64609 11014 0900/ 768945 004400 6113/ 11119 40116 52006 22219
 00048 444 20130 11014 0900/ 50101 80140 80027 9/015=
0000015700
248
SSVX13 LFPW 110900
ZZYY 33953 11014 0900/ 544213 043531 6113/ 11119 40028 52002 22219
 00122 444 20130 11014 0900/ 50101 80142 80018 9/015=
0000015700
249
SSVX13 LFPW 110900
ZZYY 16531 11014 0900/ 322326 104843 6113/ 11119 40113 57017 22219
 00249 444 20130 11014 0900/ 50101 80108 80002 9/015=
0000015700
250
SSVX13 LFPW 110900
ZZYY 16541 11014 0900/ 350702 064173 6113/ 11119 40074 52001 22219
 00045 444 20130 11014 0900/ 50101 80144 80021 9/015=
0000015700
251
SSVX13 LFPW 110900
ZZYY 64622 11014 0900/ 766564 009539 6113/ 11119 40051 52006 22219
 00020 444 20130 11014 0900/ 50101 80142 80010 9/015=
0000015700
252
SSVX13 LFPW 110900
ZZYY 31734 11014 0900/ 525075 030164 6113/ 11119 40213 52011 22219
 00264 444 20130 11014 0900/ 50101 80142 80021 9/015=
0000015700
253
SSVX13 LFPW 110900
ZZYY 64526 11014 0900/ 766046 008434 6113/ 11119 40040 52006 22219
 00023 444 20130 11014 0900/ 50101 80142 80005 9/015=
0000015700
254
SSVX13 LFPW 110900
ZZYY 16617 11014 0900/ 335995 078202 6113/ 11119 40236 57003 22219
 00166 444 20130 11014 0900/ 50101 80148 80010 9/015=
0000015700
255
SSVX13 LFPW 110900
ZZYY 33955 11014 0900/ 542466 041745 6113/ 11119 40052 52012 22219
 00134 444 20130 11014 0900/ 50101 80142 80005 9/015=
0000018400
256
SSVX13 LFPW 110900
ZZYY 62504 11014 0900/ 756172 018679 6110/ 11119 40098 52001 22219
 00101 33300 88872 20000 43535 444 20100 11014 0900/ 50101 80134
 80000 9/015=
0000014500
257
SSVX13 LFPW 110900
ZZYY 44550 11014 0900/ 752878 014886 6113/ 11119 40139 52001 444
 20130 11014 0900/ 50101 80138 80002 9/015=
0000015700
258
SSVX13 LFPW 110900
ZZYY 44765 11014 0900/ 746747 035465 6113/ 11119 40023 52032 22219
 00110 444 20130 11014 0900/ 50101 80138 8//// 9/015=
0000015100
259
SSVX13 LFPW 110900
ZZYY 54936 11014 0900/ 534786 171005 6113/ 11119 54000 22219 00231
 444 20130 11014 0900/ 50101 80132 80005 9/015=
0000015700
260
SSVX13 LFPW 110900
ZZYY 64516 11014 0900/ 172835 012536 6113/ 11119 40161 52003 22219
 00062 444 20130 11014 0900/ 50101 80130 80016 9/015=
0000013900
261
SSVX13 LFPW 110901
ZZYY 41738 11014 0901/ 726608 077016 6113/ 22219 00230 444 20130
 11014 0901/ 50101 80050 80000 9/015=
0000015700
262
SSVX13 LFPW 110900
ZZYY 64665 11014 0900/ 765533 008594 6113/ 11119 40028 52008 22219
 00024 444 20130 11014 0900/ 50101 80148 80023 9/015=
0000015700
263
SSVX13 LFPW 110900
ZZYY 44724 11014 0900/ 756287 021691 6113/ 11119 40059 57003 22219
 00103 444 20130 11014 0900/ 50101 80130 80019 9/015=
0000014500
264
SSVX13 LFPW 110900
ZZYY 32693 11014 0900/ 517132 143058 6113/ 11119 40141 52001 444
 20130 11014 0900/ 50101 80124 80002 9/015=
0000211800
265
SIIY20 LIIB 110900
AAXX 11094
16008 42560 81803 10014 21018 38550 48508 51002 887// 333 88720
      92865=
16084 41108 81201 10080 20077 30063 40232 53012 74244 886// 333 55300
      84702 85710=
16088 41625 80000 10072 20069 30106 40226 51003 71022 8623/ 333
      86645=
16110 41395 80000 10090 20078 30221 40226 53006 72842 886// 333 55300
      83709 88720 555 0000/=
16134 42784 72723 10042 21022 37852 48525 52005 82019 333 55304 82450
      92845 95187 444 76164=
16153 42598 73608 10118 20063 39951 40216 51010 81530 333 55300 81626
      86357 555 0213/=
16158 42665 71105 10090 20073 30223 40231 52011 82550 333 55300 82640
      86358=
16206 42980 50304 10076 20058 30220 40229 52009 80000 333 85870=
16219 42965 53005 10030 21006 38160 48544 51003 80001 333 55308
      95140=
16252 42862 70000 10078 20044 39285 42838 51008 82035 333 55310
      82358=
16280 42597 80303 10118 20101 30000 40223 51010 885// 333 55300 88630
      555 0100/=
16310 42898 70304 10122 20103 30000 40223 52009 87070 333 55300 84357
      83458 555 0100/=
16320 42560 73003 10100 20097 30226 40239 52012 82231 333 55301 82820
      85357 555 0217/=
16325 41596 73305 10104 20104 30219 40233 52014 71022 85530 333 85625
      83359 98040 555 0100/=
16360 42597 40305 10128 20114 30093 40228 52009 84200 333 55308 84820
      555 0000/=
16400 42498 61308 10132 20093 39934 40225 53006 84130 333 55304 84819
      84358 555 0213/=
16420 42998 62307 10138 20091 30158 40224 52013 83036 333 55302 83359
      555 0200/=
16429 42970 51314 10166 20131 30201 40212 52011 83034 333 55302
      83360=
16470 42975 12015 10166 20144 39974 40208 53014 80009 333 55308 22///
      95000=
16480 42997 80702 10158 20148 30168 40229 52016 85076 333 55300 83359
      84460 555 0100/=
16522 42898 70000 10132 20083 39962 40206 53012 82038 333 55300 82358
      555 0200/=
16539 42897 71410 10120 20099 30088 40203 52014 81035 333 81358 555
      0399/=
16550 42598 71802 10130 20096 30048 40229 52018 87500 333 55300 87620
      555 0200/=
00000000