0000009900
366
SAQB31 LQBK 110130 RRA
METAR LQBK 110130Z 15002KT 0800 FG NSC 05/05 Q1021 NOSIG=

0000012100
367
FCLT34 EYVI 110200
TAF EYSA 110200Z 1103/1112 27014KT 9000 BKN012 TEMPO 1108/1112 5000
RA BR OVC006=

0000009200
368
SPCN31 CWAO 110151
SPECI CYQG 110151Z 16006KT 1/2SM -RA FG VV001 RMK FG8=

0000035800
369
SAGL31 BGSF 110150
METAR BGSF 110150Z AUTO 06008KT 9999NDV  BKN230/// M15/M22 Q0996=
METAR BGBW 110153Z NIL=
METAR BGGH 110150Z AUTO 14008KT 9999NDV  FEW055/// BKN200/// 
M08/M15 Q0993=
METAR BGJN 110150Z AUTO 08005KT 9999NDV  BKN170/// M08/M21 Q0995=
METAR BGKK 110150Z AUTO /////KT 3000NDV  -FZRA BR BKN012/// M03/M08 
Q0989=

0000058400
370
SAUK31 EGGY 110150
METAR EGBB 110150Z AUTO 22008KT 4600 -RA SCT005/// BKN008///
    BKN013/// 08/07 Q1010 REDZ=
METAR EGCC 110150Z 27006KT 9999 -RA BKN010 BKN018 BKN028 06/05
    Q1010=
METAR EGKK 110150Z 20007KT 9000 -RA BKN008 08/07 Q1013=
METAR EGLL 110150Z AUTO 19007KT 9999 -RA SCT004 SCT006 BKN041
    07/07 Q1013 REDZ=
METAR EGPF 110150Z 28004KT CAVOK 01/01 Q1008=
METAR EGPH 110150Z 26005KT CAVOK 01/00 Q1008=
METAR EGPK 110150Z 00000KT 9999 FEW028 03/01 Q1009=
METAR EGSS 110150Z 21011KT 9999 -RA FEW007 SCT020 BKN047 07/06
    Q1012=

0000014100
371
SAVN23 SVBC 110200
METAR SVBC 110200Z 00000KT 9999 FEW010 26/20 Q1012=
METAR SVMT 110200Z NIL=
METAR SVHG 110200Z NIL=

0000054900
372
SAUK32 EGGY 110150
METAR EGAA 110150Z 20005KT 8000 NSC 01/01 Q1010=
METAR EGAC 110150Z NIL=
METAR EGFF 110150Z 28010KT 9999 RA SCT002 SCT017 BKN022 07/06
    Q1012 REDZ=
METAR EGGW 110150Z 20009KT 170V230 9999 -DZ BKN005 07/06 Q1011=
METAR EGLC 110150Z AUTO 21007KT 9999 -RA FEW024/// OVC030///
    08/07 Q1013 RERA=
METAR EGNM 110150Z 28007KT 9999 FEW008 BKN018 05/05 Q1008=
METAR EGNX 110150Z 24012KT 9999 -RA SCT008 BKN014 BKN032 07/07
    Q1009 RERA=
METAR EGPD 110150Z AUTO 22006KT 9999 NCD M01/M03 Q1005=

0000033700
373
SAUK33 EGGY 110150
METAR EGGD 110150Z 26012KT 2000 DZ BR BKN003 07/06 Q1012=
METAR EGGP 110150Z 27008KT 9999 SCT033 06/04 Q1010=
METAR EGHI 110150Z NIL=
METAR EGNS 110150Z NIL=
METAR EGNT 110150Z 27007KT 9999 FEW030 02/02 Q1008=
METAR EGNV 110150Z NIL=
METAR EGPB 110150Z AUTO 26019KT 9999 NCD 06/03 Q0999=

0000026100
374
SAUK34 EGGY 110150
METAR EGHE 110150Z NIL=
METAR EGHK 110150Z NIL=
METAR EGHQ 110150Z NIL=
METAR EGJA 110150Z NIL=
METAR EGJB 110150Z NIL=
METAR EGJJ 110150Z NIL=
METAR COR EGTE 110150Z 28008KT 240V320 9999 -DZ BKN010 08/07 Q1013=

0000028200
375
SAUK35 EGGY 110150
METAR EGHH 110150Z NIL=
METAR EGKA 110150Z NIL=
METAR EGKB 110150Z NIL=
METAR EGLF 110150Z NIL=
METAR EGMC 110150Z 21008KT 9999 -RA FEW013 SCT027 08/06 Q1013=
METAR EGMD 110150Z NIL=
METAR EGMH 110150Z NIL=
METAR EGTC 110150Z NIL=

0000036200
376
SAUK36 EGGY 110150
METAR EGBE 110150Z 20005KT 5000 -RADZ SCT007 SCT014 BKN028 08/06
    Q1010=
METAR EGBJ 110150Z NIL=
METAR EGCN 110150Z NIL=
METAR EGSC 110150Z NIL=
METAR EGSD 110150Z NIL=
METAR EGSH 110150Z AUTO 21010KT 9000 RA FEW006/// SCT034///
    BKN044/// 07/07 Q1011=
METAR EGVN 110150Z NIL=
METAR EGWU 110150Z NIL=

0000030000
377
SAUK37 EGGY 110150
METAR EGAE 110150Z NIL=
METAR EGNC 110150Z NIL=
METAR EGNH 110150Z NIL=
METAR EGNJ 110150Z NIL=
METAR EGNO 110150Z NIL=
METAR EGNR 110150Z NIL=
METAR EGPE 110150Z AUTO 22009KT 9999 NCD 01/M01 Q1005=
METAR EGPI 110150Z NIL=
METAR EGPN 110150Z NIL=

0000043800
378
SAUK38 EGGY 110150
METAR EGEC 110150Z NIL=
METAR EGEO 110150Z NIL=
METAR EGPA 110150Z AUTO 26014KT 9999 FEW022/// 05/02 Q1002=
METAR EGPC 110150Z AUTO 24010KT 9999 NCD 02/M00 Q1003=
METAR EGPL 110150Z AUTO 27011KT 9999 // SCT019/// SCT033/// 05/02
    Q1005=
METAR EGPM 110150Z AUTO 26015KT 9999 FEW029/// 06/02 Q0997=
METAR EGPO 110150Z AUTO 23009KT 9999 FEW033/// 02/M00 Q1004=
METAR EGPU 110150Z NIL=

0000009600
379
SAQB31 LQSM 110200
METAR LQSA 110200Z VRB01KT 6000 FEW050 SCT060 05/04 Q1022=

0000036000
380
SASW32 LSSW 110150
METAR LSGC 110150Z AUTO 00000KT 9999 NCD 00/00 Q1017=
METAR LSGS 110150Z NIL=
METAR LSZG 110150Z AUTO 09001KT 0450 FG VV002 02/02 Q1019=
METAR LSZR 110150Z AUTO 25002KT 0100 R10/0500N BR NCD 03/02 Q1019=
METAR LSZS 110150Z NIL=
METAR LSZC 110150Z AUTO VRB02KT 0100 FG VV001 01/01 Q1019=
METAR LSZL 110150Z NIL=

0000067200
381
SAMX44 MMMD 110153
METAR MMCE 110149Z 01006KT 7SM SKC 24/22 A2990=
METAR MMCM 110144Z 09006KT 7SM SCT010  BKN090 24/21 A2996
      RMK 8/520 =
METAR MMCP 110040Z 00000KT 6SM  SKC 25/23 A2989 RMK HZY=
METAR MMCZ 110148Z 00000KT 7SM  SCT015 20/20 A3000 RMK 8/100=
METAR MMMD 110143Z 11006KT 7SM  FEW070 24/21 A2995 RMK 8/070=
METAR MMMT 110046Z 00000KT 8SM  OVC050 23/20 A2987 RMK 8/5//=
METAR MMTG 110147Z 30006KT 12SM  SKC 23/18 A2990=
METAR MMTP 110142Z 00000KT 10SM  SCT250 27/22 A2985 RMK 8/002=
METAR MMUN 110143Z 12006KT 7SM  SCT015 25/22 A3000 RMK 8/500 ISOL
TCU=
METAR MMVA 110142Z 00000KT 7SM  FEW080 20/18 A2992 RMK 8/030=

0000078900
382
SASN32 ESWI 110150
METAR ESKN 110150Z 11005KT 9999 FEW038 BKN049 M03/M04 Q1001
R26/710195=
METAR ESOE 110150Z AUTO 13006KT 7000NDV -SN OVC007/// M02/M03
Q0999 REFZDZ REPL=
METAR ESOK 110150Z AUTO 05003KT 7000 BR BKN006/// OVC009/// 00/00
Q0997=
METAR ESOW 110150Z AUTO 08007KT 8000NDV -SN FEW000/// SCT036///
M04/M05 Q1001=
METAR COR ESSA 110150Z 32005KT 9999 SG SCT008 BKN022 M04/M06 Q1001
R01L/19//71 R08/19//58 R01R/19//68 NOSIG=
METAR ESSB 110150Z AUTO 30004KT 9999NDV OVC008/// M03/M05 Q1002=
METAR ESSD 110150Z AUTO 08004KT 040V120 0800 R32/P1500N SN VV002
M07/M08 Q1001=
METAR ESSP 110150Z AUTO 12005KT 7000NDV SG SCT013/// BKN018///
OVC024/// M02/M02 Q1001 RESN REPL=
METAR ESSV 110150Z AUTO 29007KT 9999NDV OVC012/// M00/M02 Q1003=

0000071700
383
SASN33 ESWI 110150
METAR ESNG 110150Z AUTO 01008KT 330V040 9999 NCD M16/M19 Q1012=
METAR ESNK 110150Z AUTO 33012KT 4200 SG FEW016/// SCT030/// M10/M13
Q1005=
METAR ESNN 110150Z AUTO 33011KT 9999NDV -SN SCT021/// M10/M12
Q1004 R16/49/79=
METAR ESNO 110150Z AUTO 36011KT 310V030 9999 -SN OVC022/// M11/M15
Q1003=
METAR ESNQ 110150Z AUTO 06004KT 9999NDV -SN FEW003/// M19/M21
Q1012=
METAR ESNS 110150Z AUTO 35013KT //// VV006 M13/M14 Q1006=
METAR ESNU 110150Z 34016KT 4300 -SN FEW020 OVC035 M11/M15 Q1005
R14/49//50=
METAR ESNZ 110150Z AUTO 04003KT 9999NDV -SN FEW043/// M14/M16
Q1003=
METAR ESUT 110150Z AUTO VRB07G32KT 010V220 9999 IC SCT029///
OVC070/// M13/M18 Q1005=

0000055500
384
SASN34 ESWI 110150
METAR ESCF 110150Z AUTO 16005KT 9999NDV OVC015/// M01/M01 Q1000=
METAR ESDF 110150Z AUTO 24006KT 9999NDV FEW010/// BKN020/// 
BKN024/// OVC030/// 05/04 Q1005=
METAR ESIB 110150Z AUTO 25014KT 9999NDV BKN017/// OVC025/// 05/04 
Q0999=
METAR ESMV 110150Z NIL=
METAR ESPA 110150Z AUTO 03010G22KT 350V060 9999NDV -SG FEW048/// 
M14/M17 Q1009=
METAR ESPE 110150Z AUTO 35006KT 310V020 9999NDV OVC043/// M15/M19 
Q1010=
METAR ESSL 110150Z AUTO 15006KT 110V180 9999NDV OVC015/// M01/M02
Q1000 R29/19//95=

0000027200
385
FTUS31 KWBC 110154 AAA
TAF AMD
KBNA 110151Z 1102/1124 19010G20KT P6SM SCT015 OVC025
     FM110400 19015G25KT 3SM -SHRA BR OVC008
      TEMPO 1109/1113 2SM TSRA OVC005CB
     FM111300 26012G25KT P6SM OVC025
     FM111600 27010G20KT P6SM BKN050=

00000000