0000141800
906
FTUS54 KWBC 102348
TAF
KAST 102345Z 1100/1124 18020G30KT 3SM -RA BR OVC015 WS015/22055KT
     FM110400 19027G42KT 2SM RA BR BKN007 OVC015 WS015/22060KT
     FM110800 20025G45KT 2SM -RA BR SCT008 OVC018
     FM111400 24020G35KT 5SM -SHRA BR SCT012 OVC028
     FM111900 24020G35KT P6SM -SHRA SCT012 BKN025 OVC045=
KEUG 102345Z 1100/1124 18012G22KT P6SM -RA SCT025 OVC060
     FM110500 19020G30KT 6SM -RA BR SCT015 OVC040
     FM111400 21020G30KT 4SM RA BR BKN015 OVC025
     FM111900 21017G27KT P6SM -SHRA SCT015 BKN025 OVC045=
KHIO 102345Z 1100/1124 18014G22KT 6SM -RA BR SCT018 OVC045
     FM110500 19018G30KT 3SM -RA BR BKN015 OVC035
     FM111300 22018G30KT 3SM RA BR SCT008 OVC015
     FM111800 20018G28KT P6SM -SHRA SCT015 BKN025 OVC045=
KLMT 102344Z 1100/1124 22010G18KT P6SM BKN050 BKN150
     FM110400 18006KT P6SM BKN050 BKN080
     FM111200 20020G30KT P6SM VCSH BKN035 OVC050
     FM111700 24024G35KT P6SM -RA OVC035=
KSLE 102345Z 1100/1124 18014G22KT P6SM -RA SCT020 OVC050
     FM110600 19020G30KT 6SM -RA BR SCT015 OVC035
     FM111400 22020G30KT 4SM RA BR BKN015 OVC030
     FM111900 22020G30KT P6SM -SHRA SCT015 BKN028 OVC045=
KTTD 102345Z 1100/1124 19010KT P6SM -RA BKN022 OVC045
     FM110500 19018G28KT P6SM -RA SCT015 OVC035
     FM111400 22020G30KT 4SM RA BR BKN015 OVC030
     FM112000 22020G30KT P6SM -SHRA SCT015 BKN025 OVC045=

0000021600
907
FTUS54 KWBC 102348 AAA
TAF AMD
KLWT 102344Z 1100/1124 27016G22KT P6SM BKN100
     FM110200 26015KT P6SM SCT100 BKN250
     FM110800 22010KT P6SM BKN080
     FM111600 22028G35KT P6SM BKN250=

0000057500
908
FTUS80 KWBC 102348 RRD
TAF
KSYR 102345Z 1100/1124 12006KT P6SM FEW018 OVC040
      TEMPO 1103/1107 OVC018
     FM110700 13010KT P6SM OVC018 WS020/21050KT
      TEMPO 1107/1111 3SM -SHRA SCT009 OVC012
     FM111100 14014KT P6SM -SHRA SCT009 OVC012
     FM111600 18010KT 3SM SHRA OVC012
     FM112100 21009KT P6SM -SHRA OVC009=
KTTD 102345Z 1100/1124 19010KT P6SM -RA BKN022 OVC045
     FM110500 19018G28KT P6SM -RA SCT015 OVC035
     FM111400 22020G30KT 4SM RA BR BKN015 OVC030
     FM112000 22020G30KT P6SM -SHRA SCT015 BKN025 OVC045=

0000134400
909
FTUS80 KWBC 102348
TAF
KAST 102345Z 1100/1124 18020G30KT 3SM -RA BR OVC015 WS015/22055KT
     FM110400 19027G42KT 2SM RA BR BKN007 OVC015 WS015/22060KT
     FM110800 20025G45KT 2SM -RA BR SCT008 OVC018
     FM111400 24020G35KT 5SM -SHRA BR SCT012 OVC028
     FM111900 24020G35KT P6SM -SHRA SCT012 BKN025 OVC045=
KAVP 102345Z 1100/1124 19005KT P6SM BKN015
      TEMPO 1100/1104 4SM BR SCT015
     FM110400 17004KT 4SM BR OVC012
      TEMPO 1104/1107 2SM BR OVC009
     FM110700 16007KT 3SM -SHRA BR OVC009 WS020/20055KT
     FM111400 19008KT P6SM -SHRA OVC012
     FM112000 21007KT 3SM SHRA BR OVC009=
KBFF 102346Z 1100/1124 32012G22KT P6SM BKN090
     FM110300 30012KT P6SM SCT090
     FM110800 29014KT P6SM SCT090
     FM111600 30018G30KT P6SM SCT090=
KBGM 102345Z 1100/1124 17006KT P6SM OVC012
      TEMPO 1100/1104 OVC009
     FM110400 17008KT P6SM OVC009
     FM110700 17009KT 4SM BR OVC007 WS020/21050KT
      TEMPO 1108/1112 2SM -SHRA BR OVC005
     FM111200 17012KT P6SM -SHRA OVC005
     FM112000 20011KT 3SM SHRA BR OVC007=
KBMI 102346Z 1100/1124 17016G26KT 2SM RA BR OVC003
     FM110300 18014G22KT 2SM BR OVC003
     FM110600 24012KT 3SM BR OVC004
     FM111400 26012G18KT P6SM OVC015
     FM111800 28014G22KT P6SM BKN025
     FM112200 27012KT P6SM SCT250=

0000046300
910
FTUS80 KWBC 102348 AAA
TAF AMD
KLWT 102344Z 1100/1124 27016G22KT P6SM BKN100
     FM110200 26015KT P6SM SCT100 BKN250
     FM110800 22010KT P6SM BKN080
     FM111600 22028G35KT P6SM BKN250=
KTRI 102344Z 1100/1124 00000KT P6SM SCT040 OVC120
     FM110400 00000KT 6SM BR SCT020 OVC035
     FM110900 VRB04KT 4SM BR VCSH SCT012 OVC026
     FM111200 23008KT 3SM RA BR SCT004 OVC008
     FM112200 22012G24KT P6SM VCSH SCT015 OVC025=

0000148000
911
FTUS80 KWBC 102348 RRB
TAF
KHIO 102345Z 1100/1124 18014G22KT 6SM -RA BR SCT018 OVC045
     FM110500 19018G30KT 3SM -RA BR BKN015 OVC035
     FM111300 22018G30KT 3SM RA BR SCT008 OVC015
     FM111800 20018G28KT P6SM -SHRA SCT015 BKN025 OVC045=
KITH 102345Z 1100/1124 16006KT P6SM SCT015 BKN035
      TEMPO 1101/1105 OVC015
     FM110700 17009KT 4SM BR OVC010 WS020/21050KT
      TEMPO 1108/1112 2SM -SHRA BR OVC007
     FM111200 17012KT P6SM -SHRA OVC007
     FM111800 17011KT 3SM SHRA BR OVC012
     FM112200 21010KT P6SM OVC009 AMD NOT SKED=
KLAR 102346Z 1100/1124 28025G38KT P6SM BKN090
     FM110600 27029G44KT P6SM SCT090
     FM111900 24027G40KT P6SM SCT090=
KLMT 102344Z 1100/1124 22010G18KT P6SM BKN050 BKN150
     FM110400 18006KT P6SM BKN050 BKN080
     FM111200 20020G30KT P6SM VCSH BKN035 OVC050
     FM111700 24024G35KT P6SM -RA OVC035=
KONP 102345Z 1100/1124 19022G35KT 3SM -RA BR BKN015 OVC035
     FM110200 19025G40KT 4SM -RA BR SCT015 OVC025 WS015/21055KT
     FM110600 19030G45KT 2SM -RA BR SCT007 OVC015 WS015/21060KT
     FM111200 20030G45KT 1 1/2SM RA BR OVC007
     FM111600 24025G40KT 3SM SHRA BR BKN007 OVC015
     FM112000 24022G37KT 6SM -SHRA SCT012 BKN028 OVC045=
KPDX 102345Z 1100/1124 19014G24KT 6SM -RA BR SCT020 OVC050
     FM110700 19018G30KT 5SM -RA BR SCT015 OVC035
     FM111400 22020G35KT 4SM RA BR BKN015 OVC030
     FM111900 22020G30KT P6SM -SHRA SCT015 BKN035 OVC045=

0000142100
912
FTUS80 KWBC 102348 RRA
TAF
KCDR 102346Z 1100/1124 27009KT P6SM BKN070
     FM110400 28012KT P6SM SCT070
     FM110700 28015G25KT P6SM SCT070
     FM111600 26010KT P6SM SCT070
     FM111900 26013G24KT P6SM SCT070=
KCMI 102346Z 1100/1124 16017G27KT 4SM -RA BR OVC003
     FM110400 19012G18KT 2SM BR OVC004
     FM110600 24012KT 3SM BR OVC004
     FM111400 26012G18KT P6SM OVC015
     FM111800 27014G22KT P6SM BKN025
     FM112200 27014KT P6SM SCT250=
KCYS 102346Z 1100/1124 30024G37KT P6SM SCT120
     FM110200 29022G31KT P6SM SCT120
     FM110600 29030G41KT P6SM SCT120
     FM111600 27026G38KT P6SM SCT120=
KDEC 102346Z 1100/1124 16015G25KT 6SM -RA OVC005
     FM110300 18012G20KT 5SM BR OVC004
     FM110600 24012KT 3SM BR OVC004
     FM111400 26012G18KT P6SM OVC015
     FM111800 27014G22KT P6SM BKN025
     FM112200 27014KT P6SM SCT250=
KELM 102345Z 1100/1124 12006KT P6SM OVC015
     FM110400 14008KT P6SM FEW009 OVC012
      TEMPO 1104/1108 OVC009
     FM110800 17010KT 3SM -SHRA OVC009 WS020/21050KT
     FM111200 18011KT P6SM -SHRA SCT009 OVC012
     FM111800 23010KT P6SM -SHRA OVC009
      TEMPO 1119/1123 3SM SHRA=
KEUG 102345Z 1100/1124 18012G22KT P6SM -RA SCT025 OVC060
     FM110500 19020G30KT 6SM -RA BR SCT015 OVC040
     FM111400 21020G30KT 4SM RA BR BKN015 OVC025
     FM111900 21017G27KT P6SM -SHRA SCT015 BKN025 OVC045=

0000143900
913
FTUS80 KWBC 102348 RRC
TAF
KPIA 102346Z 1100/1124 17015KT 4SM -RA BR OVC004
     FM110200 19014KT 4SM BR OVC004
     FM110600 24012KT 3SM BR OVC004
     FM111400 26012G18KT 4SM BR OVC015
     FM111700 28013G22KT P6SM BKN025
     FM112100 27012KT P6SM SCT250=
KRME 102345Z 1100/1124 11006KT P6SM FEW015 OVC035
      TEMPO 1103/1107 OVC015
     FM110700 12010KT P6SM OVC012 WS020/20050KT
      TEMPO 1107/1111 4SM -SHRA OVC009
     FM111100 12014KT P6SM -SHRA SCT009 OVC012
     FM111700 16010KT 3SM SHRA OVC012
     FM112200 19009KT P6SM -SHRA OVC009=
KRWL 102346Z 1100/1124 27027G42KT P6SM BKN080
     FM110200 26031G45KT P6SM OVC050
      TEMPO 1102/1106 2SM -SN OVC025
     FM110600 25030G42KT 2SM -SN OVC015
     FM111100 25028G40KT 1SM -SN BR OVC009
     FM111500 24028G44KT P6SM BKN040=
KSLE 102345Z 1100/1124 18014G22KT P6SM -RA SCT020 OVC050
     FM110600 19020G30KT 6SM -RA BR SCT015 OVC035
     FM111400 22020G30KT 4SM RA BR BKN015 OVC030
     FM111900 22020G30KT P6SM -SHRA SCT015 BKN028 OVC045=
KSNY 102346Z 1100/1124 32015G27KT P6SM SCT080
     FM110300 30016KT P6SM SCT080
     FM111600 29018G30KT P6SM SCT080=
KSPI 102346Z 1100/1124 17013G23KT 6SM -RA OVC006
     FM110200 18014G22KT 6SM BR OVC005
     FM110600 24012KT 3SM BR OVC004
     FM111400 26012G18KT P6SM OVC015
     FM111700 27014G22KT P6SM BKN025
     FM112100 27014KT P6SM SCT250=

0000011000
914
SPUS41 KWBC 102348
SPECI
KORH 102345Z 21006KT 1/2SM R11/2400V5500FT FG VV002 00/00 A3031=

0000010400
915
SPUS42 KWBC 102348
SPECI
KSHV 102345Z 19008KT 5SM -RA BR BKN014 OVC020 17/15 A2974=

0000009300
916
SPUS43 KWBC 102348
SPECI
KMOT 102346Z 28011KT 10SM BKN015 M02/M06 A2943=

0000011700
917
SPCN42 CWAO 102348
SPECI CYCQ 102348Z 20007KT 15SM FEW035 FEW090 SCT110 BKN200 RMK
SC1AC2AS1CI2=

0000012300
918
FTBE31 TXKF 102345
TAF TXKF 102345Z 1100/1124 08012KT 9999 SCT025 BKN040
     BECMG 1116/1120 13015KT=

0000011200
919
SANK31 MNMG 110000
METAR  
MNMG 110000Z 06004KT 9999 FEW023 28/20 Q1009 A2982 2AC070 NOSIG=

0000010700
920
SPUS41 KWBC 102349
SPECI
KCEF 102346Z AUTO 00000KT 5SM BR BKN005 OVC080 M01/M01 A3032=

0000010500
921
SPUS42 KWBC 102350
SPECI
KHOU 102346Z 20008KT 10SM BKN016 BKN022 OVC070 21/18 A2982=

0000009100
922
SPUS42 KWBC 102350
SPECI
KHSV 102346Z 13006KT 10SM OVC030 11/08 A2998=

0000010500
923
SPUS42 KWBC 102350
SPECI
KPIE 102346Z 19003KT 10SM BKN023 BKN032 BKN048 23/19 A3008=

0000010100
924
SPUS44 KWBC 102350
SPECI
KBLI 102346Z 15005KT 8SM -RA BKN017 OVC045 08/06 A2993=

0000041900
925
SADR31 MDSD 110000
METAR MDPP 110000Z 12005KT 9999 SCT018 24/22 Q1018=
METAR MDST 110000Z 11011KT 9999 FEW016 23/21 Q1018=
METAR MDPC 110000Z 10012KT 9999 FEW022 26/21 Q1018 NOSIG=
METAR MDBH 110000Z 13010KT 9999 FEW018 26/22 Q1016=
METAR MDSD 110000Z 06006KT 9999 FEW018 25/21 Q1017=
METAR MDLR 110000Z 05010KT 9999 FEW018 24/22 Q1017=
METAR MDCY 110000Z 06010KT 9999 SCT018 25/23 Q1018=

00000000