0000044800
646
WSUS32 KKCI 111055
SIGC
?MKCC WST 111055
CONVECTIVE SIGMET 27C
VALID UNTIL 1255Z
GA TN AL MS LA AND MS LA CSTL WTRS
FROM 30NNW GQO-50S GQO-70SW LEV-100WSW LEV-30NNW GQO
AREA EMBD TS MOV FROM 23045KT. TOPS TO FL380.

OUTLOOK VALID 111255-111655
FROM 40WNW MGM-170S CEW-70SSW LEV-40WNW MGM
WST ISSUANCES EXPD. REFER TO MOST RECENT ACUS01 KWNS FROM STORM
PREDICTION CENTER FOR SYNOPSIS AND METEOROLOGICAL DETAILS.
0000178400
647
SPUS70 KWBC 110308
SPECI
KTDR 110303Z AUTO 14009G16KT 1 7/8SM BR OVC002 17/ A3006 RMK AO2
     VIS 1 7/8V7 $=
KAOO 110304Z AUTO 13004KT 2 1/2SM BR OVC005 01/00 A3012 RMK AO2
     T00060000=
KCUB 110304Z AUTO 00000KT 8SM OVC005 11/11 A3012 RMK AO2 T01060106
     TSNO=
KFCI 110305Z AUTO 00000KT 1SM OVC003 04/M01 A3019 RMK AO1=
KFMY 110304Z 00000KT 10SM BKN024 22/21 A3010 RMK AO2=
KGLS 110304Z AUTO 20011KT 1SM BR VV002 16/16 A2986 RMK AO2=
KGZH 110304Z AUTO 13004KT 1 1/4SM -RA BR OVC002 15/14 A2999 RMK
     AO2 LTG DSNT SW AND W RAB02 P0000 T01500139=
KLNK 110304Z 00000KT 2 1/2SM BR FEW060 BKN075 M02/M02 A2962 RMK
     AO2 T10171022=
KRUE 110304Z AUTO 28004KT 6SM VCTS -RA BR FEW009 OVC065 11/10
     A2969 RMK AO2 LTG DSNT E TSB0258RAB0257 P0001=
KSBY 110304Z 12005KT 2SM BR SCT100 09/07 A3022 RMK AO2=
KTXK 110304Z AUTO 20009KT 9SM FEW008 BKN011 OVC021 16/15 A2973 RMK
     AO2 LTG DSNT NE=
KUNO 110304Z AUTO 21003KT 6SM -RA BR SCT004 BKN055 OVC070 08/08
     A2965 RMK AO2 P0001 T00830078=
PACM 110304Z AUTO 00000KT 10SM BKN031 BKN046 M12/M14 A2951 RMK AO2
     TSNO BKN V SCT $=
PACM 110304Z AUTO 00000KT 10SM BKN031 BKN046 M12/M14 A2951 RMK AO2
     TSNO BKN V SCT $=
KAGS 110305Z 00000KT 1 1/4SM BR OVC004 10/09 A3010 RMK AO2 LTG
     DSNT NE=
KCEU 110305Z AUTO 08004KT 3/4SM -RA BR VV002 09/07 A3011 RMK AO2
     RAB0257 P0001=
KMLI 110305Z 20007KT 10SM SCT006 OVC017 04/03 A2951 RMK AO2=
KPSF 110305Z AUTO 00000KT 2 1/2SM BR OVC006 M01/M02 A3023 RMK
     AO2=
KSRC 110305Z AUTO 18007KT 2SM BR OVC001 09/09 A2969 RMK AO2
     TSNO=
KNSE 110305Z 16012KT 3SM BR OVC002 19/18 A2999 RMK AO2 T01890183
     $=
PANW 110302Z AUTO 03003KT 2SM BR OVC001 M07/M08 A2945 RMK AO2 TSNO
     $=

0000010100
648
SPUS41 KWBC 110308
SPECI
KGSO 110304Z 02004KT 1 1/2SM -DZ BR OVC003 03/03 A3014=

0000031800
649
FCUK53 EGRR 111100
TAF EGOW 111030Z 1112/1118 29012KT 9999 FEW025=
TAF EGQL 111015Z 1112/1121 25010KT 9999 FEW035=
TAF EGUB 111050Z 1112/1118 29007KT 9999 FEW015 PROB30 TEMPO
    1112/1115 SCT015=
TAF EGUO 111030Z 1112/1118 25010KT 9999 FEW020=
TAF EGUY 111030Z 1112/1118 27010KT 9999 FEW035=
0000021900
650
FCUK54 EGRR 111100
TAF EGWC 111030Z 1112/1118 25005KT 9999 FEW025=
TAF EGXC 111034Z 1112/1121 27008KT 9999 FEW018 BECMG 1118/1121 5000
    HZ=
TAF EGYD 111021Z 1112/1118 26012KT 9999 FEW020 SCT035=
0000013200
651
FCUK55 EGRR 111100
TAF EGDM 111045Z 1112/1118 30006KT 9999 FEW012=
TAF EGDX 111030Z 1112/1118 25010KT 9999 FEW020=
0000057600
652
FTUK51 EGRR 111100
TAF EGQS 111010Z 1112/1206 25015KT 9999 FEW040 PROB40 TEMPO
    1112/1116 26015G25KT SCT020CB=
TAF EGVN 111042Z 1112/1212 27005KT 9999 FEW030 BECMG 1120/1123 5000
    BR PROB40 1123/1207 3000 PROB30 1201/1205 0700 FZFG BKN000 BECMG
    1206/1209 9999 NSW BKN010=
TAF EGWU 111018Z 1112/1206 30010KT 9999 FEW020 PROB40 TEMPO
    1122/1206 6000 MIFG PROB30 TEMPO 1201/1206 3000 BR=
TAF EGXW 111029Z 1112/1206 26009KT 9999 FEW035 BECMG 1117/1120 7000
    HZ BECMG 1121/1124 14005KT 3000 BR PROB40 1200/1206 0400 FZFG
    VV///=
0000003800
653
FTUK52 EGRR 111100
NIL
0000243700
654
FAUK11 EGRR 111100
AIRMET AREA FORECAST, UK-SIG-WEATHER,
VALID JAN  11/1200Z TO  11/1800Z.

MET-SITUATION: AT 12Z: AN OCCLUDED FRONT LIES N4500
W00500 TO LORIENT TO RENNES TO ROUEN AND IS GEN SLOW
MOVING BUT MOVING NE AT 15KT IN THE W. AT THE SAME TIME,
THE REGION LIES IN A MOD NW AIRFLOW.

STRONG WIND WRNG: SCOTTISH REGION: WDSPR GUSTS 20KT SEA
COT, WITH FRQ MEAN 20KT GUSTS 30KT SEA COT MAINLY N AND
E. ISOL GUSTS 40KT SEA COT FAR N.
NORTHERN REGION: OCNL SEA COT NE, BECMG ISOL FM 16Z, MEAN
20KT WITH GUST 30KT.
SOUTHERN REGION: NIL.

WINDS:

1000FT: 50N 00E    : 340/015KT PS05
        GATWICK    : 310/015KT PS03
        PLYMOUTH   : 050/005KT PS05
        DERBY      : 290/020KT PS02
        RONALDSWAY : 270/015KT PS04
        GLASGOW    : 270/020KT PS02
        KIRKWALL   : 290/030KT PS04

3000FT: 50N 00E    : 300/015KT PS02
        GATWICK    : 320/025KT PS01
        PLYMOUTH   : 330/005KT PS02
        DERBY      : 310/025KT MS02
        RONALDSWAY : 290/015KT MS01
        GLASGOW    : 280/025KT MS03
        KIRKWALL   : 290/030KT MS02

6000FT: 50N 00E    : 310/020KT ZERO
        GATWICK    : 310/030KT MS03
        PLYMOUTH   : 250/010KT MS02
        DERBY      : 310/025KT MS06
        RONALDSWAY : 290/015KT MS07
        GLASGOW    : 280/030KT MS10
        KIRKWALL   : 290/030KT MS09

FREEZING LEVEL: 1500FT N, 5000FT S.

WEATHER-CONDITIONS: 2 ZONES AT 12Z:

ZONE 1: S OF A LINE FM DONEGAL TO PRESTWICK TO ABERDEEN.
THIS LINE SLOW MOVING IN THE E, BUT MOVING N AT 15KT IN
THE W.

GEN 30KM, WITH 1-5/8CUSC 3000FT/4000-6000.
ISOL N, MAINLY SEA COT, TL 12Z, 5000M IN SHRA OR SHRAGS,
WITH 6/8CB 2000FT/13000.
ISOL LAN FM 17Z, 3000M IN BR, WITH 0-2/8SC 4000FT/5000.

WRNG: HILL FG. MOD ICE AND MOD TURB IN CLD. SEV ICE AND
SEV TURB IN CB. ISOL MOD TURB BLW 6000FT FAR N. SN MON
ABOVE 1500FT.


ZONE 2: REST OF REGION.

GEN 40KM, WITH 1-4/8CUSC 3000FT/7000.
ISOL, BUT OCNL SEA COT, 5000M IN SHRA OR SHRAGS, WITH 5-
7/8CB 2000FT/13000.
ISOL, 2000M IN HVY SHRASN OR TSGS, WITH 3/8ST 700FT/1500
AND 7/8CB 1500FT/18000.

WRNG: HILL FG. MOD ICE AND MOD TURB IN CLD. TS. SEV ICE
AND SEV TURB IN CB. OCNL MOD TURB BLW 6000FT N. ISOL SEV
TURB BLW 6000FT SHETLAND FM 18Z. SN MON ABOVE 800FT.


OUTLOOK: UNTIL JAN  11/2400Z:

FG TO FORM LAN ZONE 2, OTHERWISE SIMILAR.
0000179600
655
SZPS01 AMMC 111100
CREX++
T000103 A001 D01021 D06025++
-0204190 14737360 56130 2014 01 11 10 53 3028 11 07 00 01
00483 0074 00478 0071 00476 0070 00473 0069 00468 0066 00466 0065+
-0669280 15640860 56363 2014 01 11 10 53 //// 11 07 00 01
00382 -0064 00381 -0065 00387 -0060 00391 -0056 00394 -0054 00394 -0055+
-0942890 15995560 56670 2014 01 11 10 53 3043 11 07 00 01
00457 -0052 00456 -0052 00456 -0051 00454 -0052 00451 -0055 00452 -0053+
-1072080 16580190 57131 2014 01 11 10 53 //// 11 07 00 01
00250 -0071 00559 0236 00432 0108 00251 -0074 00251 -0076 00250 -0079+
-1551560 16718860 57210 2014 01 11 10 53 //// 11 07 00 01
00354 -0128 00348 -0136 00368 -0119 00357 -0131 00376 -0115 00379 -0114+
-1775690 16830030 57320 2014 01 11 10 53 3017 11 07 00 01
00357 -0103 00358 -0103 00360 -0102 00362 -0100 00363 -0101 00363 -0101+
-4397330 16861610 65180 2014 01 11 10 53 2887 11 07 00 01
01876 0384 01862 0374 01854 0371 01840 0363 01845 0373 01839 0372+
-2120470 -15978530 65980 2014 01 11 10 53 3010 11 07 00 01
00429 -0026 00450 -0006 00438 -0019 00452 -0006 00444 -0015 00465 0006+
-2113810 -17518140 66600 2014 01 11 10 53 //// 11 07 00 01
00741 0105 00739 0101 00742 0102 00752 0109 00746 0100 00750 0101+
-1382670 -17176110 66840 2014 01 11 10 53 3012 11 07 00 01
00620 0034 00623 0034 00630 0039 00624 0030 00647 0051 00639 0040+
-1813250 17842750 67050 2014 01 11 10 53 3030 11 07 00 01
00812 0116 00811 0113 00815 0114 00818 0114 00819 0113 00825 0116+
-1760530 17743810 67070 2014 01 11 10 53 3032 11 07 00 01
00785 0037 00787 0036 00790 0037 00793 0037 00795 0036 ///// ////+
-0850250 17919500 67440 2014 01 11 10 53 3027 11 07 00 01
01808 0032 01808 0029 01813 0030 01816 0030 01821 0032 01828 0035++
7777

0000046700
656
SZPA01 AMMC 111100
CREX++
T000103 A001 D01021 D06025++
0136250 17293000 67590 2014 01 11 10 53 3015 11 07 00 01
01532 0034 01526 0025 01535 0031 01542 0035 01544 0034 01554 0040+
0710610 17137250 67680 2014 01 11 10 53 3013 11 07 00 01
01051 0073 01058 0077 01055 0071 01057 0071 01061 0073 01066 0075+
0698060 15820000 67950 2014 01 11 10 53 3023 11 07 00 01
00607 0034 00610 0036 00610 0035 00610 0035 00613 0037 00613 0037++
7777

0000190900
657
SZAU01 AMMC 111100
CREX++
T000103 A001 D01021 D06025++
-1927750 14705860 59260 2014 01 11 10 53 3023 11 07 00 01
02122 0191 02122 0198 02112 0194 02108 0197 02102 0197 02093 0194+
-2316110 15079000 59670 2014 01 11 10 53 3002 11 07 00 01
02956 0262 02942 0256 02938 0261 02926 0257 02918 0257 02906 0255+
-3447330 15091170 60420 2014 01 11 10 53 2955 11 07 00 01
00624 -0055 00627 -0050 00633 -0041 00632 -0040 00633 -0036 00631 -0036+
-4105000 14591500 60910 2014 01 11 10 53 2888 11 07 00 01
02877 0003 02878 0009 02862 -0001 02869 0010 02856 0003 02854 0006+
-4254640 14793080 61170 2014 01 11 10 53 2895 11 07 00 01
01143 0117 01141 0116 01147 0124 01143 0121 01144 0123 01137 0117+
-3834390 14161360 61410 2014 01 11 10 53 2908 11 07 00 01
00687 0008 00720 0040 00706 0026 00694 0013 00721 0039 00677 -0005+
-3214890 13364170 62000 2014 01 11 10 53 2960 11 07 00 01
01088 0033 01087 0032 01083 0028 01079 0024 01076 0021 01077 0023+
-3387080 12189720 62080 2014 01 11 10 53 2950 11 07 00 01
01003 0044 01014 0054 01002 0041 01020 0058 01030 0067 01030 0066+
-3182560 11573860 62237 2014 01 11 10 53 2973 11 07 00 01
01016 0063 01013 0060 01016 0063 01014 0061 01024 0071 01024 0072+
-2422000 11339750 62385 2014 01 11 10 53 //// 11 07 00 01
01448 -0033 01426 -0054 01388 -0091 01428 -0050 01384 -0093 01474 -0002+
-2181670 11419110 62430 2014 01 11 10 53 //// 11 07 00 01
02187 -0072 02194 -0065 02184 -0074 02193 -0065 02199 -0058 02192 -0065+
-1800080 12221830 62650 2014 01 11 10 53 3043 11 07 00 01
06901 0007 06904 0013 06907 0017 06908 0019 06908 0022 06908 0023+
-1247190 13084580 63230 2014 01 11 10 53 3050 11 07 00 01
04245 0139 04244 0138 04242 0138 04239 0135 04237 0135 04235 0135+
-1386000 13641580 63511 2014 01 11 10 53 3043 11 07 00 01
01866 0121 01868 0122 01869 0122 01870 0123 01873 0125 01877 0128++
7777

0000034500
658
SZIO01 AMMC 111100
CREX++
T000103 A001 D01021 D06025++
-1211670 09689190 46280 2014 01 11 10 53 3020 11 07 00 01
00977 0032 00976 0034 00980 0040 00976 0038 00977 0042 00969 0036+
-1042940 10566940 46290 2014 01 11 10 53 //// 11 07 00 01
01267 -0032 01245 -0052 01283 -0012 01245 -0048 ///// //// ///// ////++
7777

0000008600
659
SAYE20 OYIB 111100
METAR OYIB 111100Z 12004KT 9999 SCT025 24/07 Q1020=
0000041600
660
UAPF01 NTAA 111100
AIREP
ANZ7    0044S 14826W 1004 F340 MS41 294/035=
ANZ3    0122S 15017W 1005 F340 MS42 278/023=
ANZ7    0222S 14925W 1018 F340 MS42 267/019=
ANZ3    0249S 15124W 1019 F340 MS42 243/017=
ANZ7    0358S 15022W 1032 F339 MS42 230/023=
ANZ3    0415S 15229W 1033 F340 MS42 198/019=
ANZ7    0530S 15123W 1046 F340 MS43 188/019=
ANZ3    0542S 15336W 1046 F340 MS42 185/020=
0000010000
661
SNVD25 LFPW 111100
BBXX
BAREU12 11114 99405 70738 46/// ///// 40143 57045
22272=
0000039800
662
SWIO40 RJTD 111100
:PRS 1 #1 1707 1717 1710 1714 1706 1693 1696 1675 1688 1687 1678 1671
1689 1669 1671 1671 1693 1686 1689 1657 1674 1657 1678 1673 1688 1681
1671 1684 1682 1671 :RAD 1 #3 6087 6077 6070 6063 6060 6061 6057 6067
6067 6067 :ENC 5 #5 5063 5055 5051 5050 5055 5054 5052 5059 5060 5056
5060 5066 :SW1 60 #60 60 :SW2 30 #60 60 :BAT 14 #15 13.1 :NAME 
0650018E=
0000010800
663
SPUR30 UKMS 111049
SPECI UKLL 111049Z 27007G12MPS 9999 BKN034 05/M02 Q1016
31CLRD80 NOSIG=
0000010300
664
SAUZ31 UTTW 111030 RRA
METAR UTSB 111030Z 17006MPS CAVOK 11/M08 Q1020 R01/CLRD70 NOSIG=
0000064300
665
FCUR31 UKMS 111000
TAF UKLI 111031Z 1112/1121 26007G12MPS 9999 BKN020
         TEMPO 1112/1121  24010G15MPS 3000 -RA BKN015
         TX09/1112Z TN01/1121Z=
TAF UKON 111035Z 1112/1121 29010G16MPS 9999 BKN020CB
         TX09/1112Z  TN03/1121Z=
TAF UKCM 111040Z 1112/1121 27008G15MPS 9999 SCT010
         BKN020CB TEMPO  1112/1121 3100 BR BKN008
         TX06/1112Z TN01/1121Z=
TAF UKLU 111040Z 1112/1121 14005MPS 6000 OVC008 TEMPO
         1112/1118  16006MPS 1100 BR OVC003
         TX04/1112Z TN01/1121Z=
TAF UKLN 111032Z 1112/1121 32006G11MPS 9999 BKN030
         TX08/1112Z TN03/1121Z=
TAF UKKE NIL=
00000000