0000009100
086
SAFG20 SOCA 110000
METAR SOCA 110000Z AUTO 00000KT 9999 NSC 23/21 Q1012=

0000010600
087
SACN61 CYFC 110000
METAR CYFC 110000Z AUTO 24004KT 9SM OVC140 M08/M11 A3030 RMK SLP264=

0000010600
088
SACN62 CYLL 110000
METAR CYLL 110000Z 27013KT 15SM FEW250 M07/M08 A2947 RMK CI2 SLP022=

0000011400
089
SACN61 CYHD 110000
METAR CYHD 110000Z AUTO 17008KT 3SM BR M06/M07 A2944 RMK CLD MISG
 SLP999=

0000018300
090
SACN62 CYIO 110000
METAR CYIO 110000Z 17006KT 4SM -SN SCT033 BKN050 M23/M26 A2919 RMK
 SC4SC1 -21.2/-24.2/1.2/18 MEDIUM PACK LAST STFD OBS/NEXT 111600Z
 SLP894=

0000012000
091
SACN61 CYMM 110000
METAR CYMM 110000Z AUTO 27008KT 9SM -SN BKN019 OVC027 M12/M14 A2952
 RMK SLP029=

0000011400
092
SACN61 CYLW 110000
METAR CYLW 110000Z AUTO 09004KT 9SM FEW024 OVC065 02/01 A2987 RMK
 SLP131=

0000009500
093
SAPF20 NTAA 110000
METAR NTAA 110000Z 22008KT 9999 FEW020 31/21 Q1011 NOSIG=

0000009500
094
SADO31 TDPD 110000
METAR TDCF 110000Z 10004KT 9999 -SHRA BKN015 25/19 Q1015=

0000180500
095
FTAG05 SABM 110000
TAF SAAR 102300Z 1100/1124 14010KT 9999 FEW040CB BKN090 TX29/1118Z
TN16/1110Z TEMPO 1100/1102 6000 SHRA OVC040 BECMG 1103/1106
     14010KT
9999 SCT030 BKN090=
TAF SABE 102300Z 1100/1124 20005KT 9999 SCT030 BKN090 TX27/1100Z
TN17/1110Z BECMG 1104/1107 16015G25KT 9999 BKN020 BECMG 1114/1116
11015KT=
TAF SACO 102300Z 1100/1124 14015KT 9999 BKN030
TX30/1118Z TN19/1110Z BECMG 1112/1114 14010KT
CAVOK=
TAF SADF 102300Z 1100/1124 20005KT 9999 SCT030 BKN090 TX27/1100Z
TN17/1110Z BECMG 1104/1107 16015KT 9999 BKN020 BECMG 1114/1116
11010KT=
TAF SAEZ 102300Z 1100/1124 18010KT 9999 FEW050TCU TX26/1118Z
TN15/1109Z TEMPO 1100/1106 15010G20KT 9000 -SHRA BKN030 FEW050CB
BECMG 1109/1112 15015KT 9999 SCT040 BECMG 1121/1124 11010KT=
TAF SAME 102300Z 1100/1124 14005KT 9999 FEW040 TN18/1110Z
     TX32/1120Z=
TAF SANT 102300Z 1100/1124 20010KT 3000 TS SHRA
BKN020 SCT030CB TX25/1118Z TN20/1110Z BECMG
1106/1108 20020KT 2000 TS SHRA BKN010 SCT020CB
TEMPO 1215 20015KT 8000 VCTS SHRA BKN015 FEW030CB=
TAF SAOC 110000Z NIL=
TAF SARC 110000Z NIL=
TAF SARE 102300Z 1100/1124 02010KT 9999 SCT030TCU
TX28/1119Z TN24/1109Z
BECMG 1105/1107 8000 TSRA SCT025 FEW040CB SCT090
BECMG 1118/1120 18010KT 9999 FEW030=
TAF SARF 102300Z 1100/1124 02015KT CAVOK TX29/1119Z TN24/1109Z
BECMG 1113/1115 8000 TSRA SCT025 FEW040CB SCT090
BECMG 1118/1120 18010KT BECMG 1122/1124 9999 FEW030 SCT090=
TAF SARI 102300Z 1100/1124 02010KT CAVOK TX30/1118Z TN20/1109Z
BECMG 1117/1119 18010KT 8000 TSRA BKN020 BKN035 FEW040CB BKN090=
TAF SARL 110000Z NIL=
TAF SARP 102300Z 1100/1124 36010KT 9999 SCT035TCU
TX28/1119Z TN22/1109Z
BECMG 1114/1116 8000 TSRA SCT020 FEW040CB SCT090
BECMG 1118/1120 18010KT BECMG 1122/1124 9999 FEW030 SCT090=

0000011200
096
SACN61 CYQA 110000
METAR CYQA 110000Z AUTO 14008KT 3SM BR OVC005 M01/M01 A3002 RMK
 SLP182=

0000011600
097
SACN61 CYMO 110000
METAR CYMO 110000Z AUTO 19008KT 9SM BKN023 OVC029 M02/M03 A2976 RMK
 SLP079=

0000016200
098
SACN62 CYPW 110000
METAR CYPW 110000Z 09009KT 5SM -RA BR FEW003 FEW007 BKN040 OVC070
 05/04 A2984 RMK SF1SF1SC6AS2 SF TR SF TR PRESFR SLP108=

0000011000
099
SAAG41 SASA 110000
METAR SASA 110000Z  32001KT 9999  FEW020 FEW045CB
BKN200  25/16 Q1011=

0000012200
100
SATU31 LTAA 102350 RRA
METAR LTFC 102350Z 00000KT 0300 R05/0400U R23/0450N FZFG VV001
 M05/M05 Q1023=

0000012400
101
SALI20 GLRB 110000
METAR GLRB 110000Z 00000KT 9000 SCT014  FEW024 CB BKN100 27/25
Q1012 RMK CB-S, BRVC=

0000011200
102
SACN61 CYQW 110000
METAR CYQW 110000Z AUTO 24002KT 6SM BR FEW180 M10/M11 A2949 RMK
 SLP025=

0000011200
103
SACN62 CYRA 110000
METAR CYRA 110000Z 34003KT 15SM IC BKN080 M27/M29 A2955 RMK AC6
 SLP040=

0000010500
104
SASQ41 LZIB 110000 RRA
METAR LZPP 110000Z AUTO 20006KT 9999 // FEW092/// 01/M02 Q1020=

0000008900
105
SASG20 GOOY 110000
METAR GOOY 110000Z 36009KT CAVOK 19/14 Q1014 NOSIG=

00000000