0000044000
494
SNDL44 EDZW 110800 RRA
AAXX 11081
10033 41345 82309 10069 20058 30035 40076 57006 76162 877//
  333 87707 91016 91116=
10037 46/32 /2309 10063 20050 30056 40087 5/008
  333 91113=
10038 41360 82307 10064 20047 30070 40092 57008 75122 886//
  333 87709=
10126 41345 82106 10051 20043 30091 40107 57006 75966 877//
  333 87707=
10136 41235 82406 10053 20044 30066 40106 55004 76166 887//
  333 86706 88709=
0000037600
495
SNDL45 EDZW 110800 RRA
AAXX 11081
10172 41356 82305 10050 20037 30040 40113 56003 71022 876//
  333 87709=
10238 42460 42003 10037 20021 30041 40137 55001 83531
  333 81614 83640=
10246 42460 82406 10045 20032 30027 40136 55001 875//
  333 87611=
10304 46/58 /2105 10039 20018 30076 40127 5/005=
10306 46/// ///// 1//// 2//// 3//// 4//// 5////=
0000024200
496
SNDL46 EDZW 110800 RRA
AAXX 11081
10334 46/66 /2205 10036 20006 30052 40138 5/006=
10335 42780 22005 10035 20002 30049 40142 55003 82531
  333 82650=
10343 42765 31702 10032 20010 30075 40141 55000 81531
  333 81650=
0000028600
497
SNDL47 EDZW 110800 RRA
AAXX 11081
10476 42975 42103 10021 20004 30032 40159 58004 84030
  333 84364=
10502 42575 71603 10030 20019 39993 40159 56003 8157/
  333 81630 87358=
10516 41159 79901 10019 20013 30055 40177 53001 76162 8557/
  333 81702 85656 87358=
0000024800
498
SNDL48 EDZW 110800 RRA
AAXX 11081
10613 46/50 /2404 10018 20016 39585 40176 5/000=
10618 41620 89901 11002 21004 39720 40187 55000 75175 885//
  333 88640=
10743 42980 41503 10005 21012 39607 40187 56003 83071
  333 83360=
0000049800
499
SNDL49 EDZW 110800 RRA
AAXX 11081
10771 41115 81202 11014 21015 39690 40211 52003 71022 886//
  333 88702=
10837 41/02 90000 11008 21009 39527 40201 55003 74944
  333 89/00=
10853 41/04 99901 11018 21021 39727 40210 55000 74344
  333 89/01=
10856 46/61 /1701 11025 21029 39515 40208 5/002=
10857 42989 71501 10007 20000 39441 40199 55003 8707/
  333 83359 86468=
10860 46/56 /9901 11026 21027 39752 40209 5/001=
10954 46/// /2402 10005 20004 39291 48465 5/002=
0000095700
500
SAYE20 OYSC 110800
METAR OYAA 110800Z NIL=
METAR OYAM 110800Z NIL=
METAR OYAR 110800Z 00000KT CAVOK 19/06 Q////=
METAR OYAS 110800Z NIL=
METAR OYAT 110800Z 14017KT CAVOK 21/06 Q1021=
METAR OYDM 110800Z 12005KT CAVOK 18/M01 Q////=
METAR OYGD 110800Z 09018KT 9999 SCT025 BKN060 26/18 Q1017=
METAR OYHD 110800Z 19020KT 8000 FEW030 28/22 Q1015=
METAR OYHJ 110800Z 24004KT CAVOK 17/09 Q////=
METAR OYIB 110800Z 03004KT CAVOK 22/06 Q1022=
METAR OYKD 110800Z NIL=
METAR OYMB 110800Z 18010KT CAVOK 25/08 Q1017=
METAR OYMK 110800Z 18014KT CAVOK 27/21 Q////=
METAR OYMT 110800Z VRB02KT CAVOK 20/09 Q////=
METAR OYRN 110800Z NIL=
METAR OYSD 110800Z 18004KT CAVOK 21/M12 Q////=
METAR OYSH 110800Z 18010KT 8000 SCT030 21/08 Q////=
METAR OYSN 110800Z 19010KT 160V230 9999 SCT030 SCT180 22/M08 Q1026=
METAR OYSQ 110800Z NIL=
METAR OYSY 110800Z 04006KT CAVOK 23/10 Q1019=
METAR OYTZ 110800Z 14004KT CAVOK 21/11 Q1022=
0000401300
501
SAIR31 OIII 110800
METAR OIAA 110800Z 24010KT 2500 BR FEW035CB SCT090 13/11 Q1018=
METAR OIAG 110800Z 12012KT 9999 SCT030CB BKN035 14/10 Q1020=
 METAR OIAH 110800Z 15008KT 4000 RA FEW035CB SCT040 OVC070 09/07
 Q1019=
 METAR OIAI 110800Z 14004KT 9999 SCT030CB SCT035 OVC070 10/08
 Q1018=
 METAR OIAM 110800Z 12016KT 8000 -RA SCT010 SCT030CB OVC090 13/11
 Q1019=
 METAR OIAW 110800Z 10006KT 7000 -SHRA FEW025CB SCT030 OVC080 13/10
 Q1018=
 METAR OIBA 110800Z 12014KT 5000 SA FEW025CB FEW030 OVC100 21/12
 Q1019=
 METAR OIBB 110800Z 13006KT 9999 -RA FEW030CB SCT035 OVC090 14/10
 Q1019 A3009=
 METAR OIBK 110800Z 07010KT 8000 -RA FEW030CB FEW025 OVC080 14/12
 Q1021=
METAR OIBL 110800Z 05008KT 4000 HZ SCT025 OVC080 14/11 Q1022=
METAR OIBS 110800Z 08024KT 9999 SCT035 OVC100 20/15 Q1020=
 METAR OICC 110800Z 12008KT 4000 -SN FEW035CB SCT040 OVC070 M00/M02
 Q1020 A3013 TEMPO SN=
 METAR OICI 110800Z 14004KT 4000 -RA FEW015 FEW025CB SCT035 OVC080
 02/02 Q1018 A3006=
 METAR OICJ 110750Z 12004KT 5000 BR FEW035CB SCT040 BKN080 00/M02
 Q1020=
 METAR OICK 110750Z 29008KT 8000 -SHRA FEW035CB SCT040 OVC080 04/02
 Q1019=
 METAR OICS 110800Z 00000KT 3500 BR FEW025 FEW035CB SCT035 BKN080
 M01/M03 Q1020=
METAR OIFK 110800Z 30010KT 4000 -SN SCT030 OVC090 02/00 Q1025=
 METAR OIFM 110800Z 00000KT 1800 BR SCT040 BKN100 01/M01 Q1020
 A3012=
 METAR OIFS 110800Z 00000KT 1000 -SN BR FEW030CB SCT035 OVC080
 M04/M05 Q1020=
METAR OIGG 110800Z 00000KT 3000 BR SCT025 BKN090 09/07
Q1016=
METAR OIGK 110750Z 00000KT 9999 FEW035 BKN150 M04/M10 Q1019=
METAR OIHH 110800Z 00000KT 2500 BR BKN040 SCT090 M06/M09
Q1019=
METAR OIHM 110800Z 00000KT 2000 BR SCT035 BKN090 M01/M02 Q1019=
 METAR OIIE 110800Z 19004KT 6000 FEW040 FEW045CB OVC100 03/M05
 Q1022 A3020 NOSIG=
 METAR OIII 110800Z 19004KT 5000 HZ FEW040 OVC100 03/M06 Q1022
 A3018 TEMPO FEW035CB SCT030 BKN100 TEMPO FEW035CB SCT030 BKN100=
 METAR OIIK 110800Z 14010KT 5000 HZ FEW035CB SCT040 OVC090 01/M04
 Q1022=
 METAR OIIP 110800Z 26006KT 1200 -SN BR SCT030CB SCT035 OVC080
 M03/M04 Q1021=
METAR OIIS 110800Z 00000KT 9999 FEW035 BKN200 06/M06 Q1021=
 METAR OIKB 110750Z 35004KT 8000 -RA FEW025CB SCT030 OVC090 15/08
 Q1022 A3019 NOSIG=
METAR OIKK 110750Z 00000KT 9999 FEW035 OVC100 03/M03 Q1021 A3016=
METAR OIKO 110750Z 27004KT 8000 FEW030 OVC090 18/01 Q1022=
 METAR OIKQ 110800Z 02014KT 8000 -RA FEW025CB SCT030 SCT090 15/07
 Q1021=
METAR OIMB 110800Z 08010KT 9999 FEW040 SCT090 OVC190 06/M14 Q1021=
METAR OIMC 110800Z 18008KT CAVOK 15/M06 Q1021=
METAR OIMD 110800Z 00000KT CAVOK 06/M04 Q1018=
METAR OIMM 110800Z 08006KT CAVOK 07/M09 Q1020 A3013=
METAR OINB 110800Z VRB02KT CAVOK 11/07 Q1016=
 METAR OING 110800Z 36004KT 5000 HZ FEW025 SCT090 BKN190 11/07
 Q1017=
METAR OINK 110800Z 00000KT 1500 BR SCT015 BKN030 08/07 Q1016=
METAR OINN 110800Z VRB02KT CAVOK 12/08 Q1017=
METAR OINR 110800Z 00000KT 9999 SCT040 BKN170 11/07 Q1016=
METAR OISA 110750Z 00000KT 9999 FEW040TCU 05/M04 Q1019=
 METAR OISF 110750Z 16006KT 7000 -SHRA FEW030CB SCT035 OVC090 07/01
 Q1021=
 METAR OISL 110800Z 00000KT 5000 -RA FEW030CB SCT035 OVC080 08/04
 Q1022=
 METAR OISS 110800Z 00000KT 2500 BR FEW030CB SCT035 OVC080 03/00
 Q1022 A3020=
 METAR OISY 110800Z 12004KT 1000 BR FEW030CB SCT035 OVC080 02/01
 Q1021 REDZ=
 METAR OITL 110750Z 23021KT 9999 FEW030 SCT080 BKN180 M03/M09
 Q1016=
 METAR OITR 110800Z 03004KT 2000 HZ SCT035 BKN170 M06/M10 Q1021
 NOSIG=
METAR OITT 110800Z 00000KT 7000 FEW035 BKN180 M05/M11 Q1022 A3020=
METAR OITU 110750Z 00000KT 3000 BR SKC M14/M14 Q1021=
METAR OIYY 110800Z 00000KT 6000 FEW035 SCT100 06/M01 Q1021=
METAR OIZB 110800Z 08004KT CAVOK 10/00 Q1025=
METAR OIZC 110750Z 05006KT CAVOK 20/M06
Q1022 A3020=
 METAR OIZH 110800Z 13010KT 9999 FEW035 SCT090 BKN190 06/M06 Q1022
 A3019 NOSIG=
METAR OIZI 110800Z 03004KT CAVOK 15/M04 Q1024=
METAR OIZJ 110800Z 00000KT CAVOK 19/08 Q1022=
0000423900
502
SAIR77 OIII 110800
METAR AZUH 110800Z 00000KT 1000 BR OVC020 M10/M10 Q1025=
METAR KHME 110750Z AUTO 12006KT //// // ////// 05/M08 Q1019=
METAR OIAA 110800Z 24010KT 2500 BR FEW035CB SCT090 13/11 Q1018=
METAR OIAG 110800Z 12012KT 9999 SCT030CB BKN035 14/10 Q1020=
 METAR OIAH 110800Z 15008KT 4000 RA FEW035CB SCT040 OVC070 09/07
 Q1019=
 METAR OIAI 110800Z 14004KT 9999 SCT030CB SCT035 OVC070 10/08
 Q1018=
 METAR OIAM 110800Z 12016KT 8000 -RA SCT010 SCT030CB OVC090 13/11
 Q1019=
 METAR OIAW 110800Z 10006KT 7000 -SHRA FEW025CB SCT030 OVC080 13/10
 Q1018=
 METAR OIBA 110800Z 12014KT 5000 SA FEW025CB FEW030 OVC100 21/12
 Q1019=
 METAR OIBB 110800Z 13006KT 9999 -RA FEW030CB SCT035 OVC090 14/10
 Q1019 A3009=
 METAR OIBK 110800Z 07010KT 8000 -RA FEW030CB FEW025 OVC080 14/12
 Q1021=
METAR OIBL 110800Z 05008KT 4000 HZ SCT025 OVC080 14/11 Q1022=
METAR OIBS 110800Z 08024KT 9999 SCT035 OVC100 20/15 Q1020=
 METAR OICC 110800Z 12008KT 4000 -SN FEW035CB SCT040 OVC070 M00/M02
 Q1020 A3013 TEMPO SN=
 METAR OICI 110800Z 14004KT 4000 -RA FEW015 FEW025CB SCT035 OVC080
 02/02 Q1018 A3006=
 METAR OICJ 110750Z 12004KT 5000 BR FEW035CB SCT040 BKN080 00/M02
 Q1020=
 METAR OICK 110750Z 29008KT 8000 -SHRA FEW035CB SCT040 OVC080 04/02
 Q1019=
 METAR OICS 110800Z 00000KT 3500 BR FEW025 FEW035CB SCT035 BKN080
 M01/M03 Q1020=
METAR OIFK 110800Z 30010KT 4000 -SN SCT030 OVC090 02/00 Q1025=
 METAR OIFM 110800Z 00000KT 1800 BR SCT040 BKN100 01/M01 Q1020
 A3012=
 METAR OIFS 110800Z 00000KT 1000 -SN BR FEW030CB SCT035 OVC080
 M04/M05 Q1020=
METAR OIGG 110800Z 00000KT 3000 BR SCT025 BKN090 09/07
Q1016=
METAR OIGK 110750Z 00000KT 9999 FEW035 BKN150 M04/M10 Q1019=
METAR OIHM 110800Z 00000KT 2000 BR SCT035 BKN090 M01/M02 Q1019=
 METAR OIIE 110800Z 19004KT 6000 FEW040 FEW045CB OVC100 03/M05
 Q1022 A3020 NOSIG=
 METAR OIII 110800Z 19004KT 5000 HZ FEW040 OVC100 03/M06 Q1022
 A3018 TEMPO FEW035CB SCT030 BKN100 TEMPO FEW035CB SCT030 BKN100=
 METAR OIIK 110800Z 14010KT 5000 HZ FEW035CB SCT040 OVC090 01/M04
 Q1022=
 METAR OIIP 110800Z 26006KT 1200 -SN BR SCT030CB SCT035 OVC080
 M03/M04 Q1021=
METAR OIIS 110800Z 00000KT 9999 FEW035 BKN200 06/M06 Q1021=
 METAR OIKB 110750Z 35004KT 8000 -RA FEW025CB SCT030 OVC090 15/08
 Q1022 A3019 NOSIG=
METAR OIKK 110750Z 00000KT 9999 FEW035 OVC100 03/M03 Q1021 A3016=
METAR OIKO 110750Z 27004KT 8000 FEW030 OVC090 18/01 Q1022=
 METAR OIKQ 110800Z 02014KT 8000 -RA FEW025CB SCT030 SCT090 15/07
 Q1021=
METAR OIMB 110800Z 08010KT 9999 FEW040 SCT090 OVC190 06/M14 Q1021=
METAR OIMC 110800Z 18008KT CAVOK 15/M06 Q1021=
METAR OIMD 110800Z 00000KT CAVOK 06/M04 Q1018=
METAR OIMM 110800Z 08006KT CAVOK 07/M09 Q1020 A3013=
METAR OIMN 110800Z 03004KT CAVOK 04/M09 Q1019 A3010=
METAR OINB 110800Z VRB02KT CAVOK 11/07 Q1016=
 METAR OING 110800Z 36004KT 5000 HZ FEW025 SCT090 BKN190 11/07
 Q1017=
METAR OINK 110800Z 00000KT 1500 BR SCT015 BKN030 08/07 Q1016=
METAR OINN 110800Z VRB02KT CAVOK 12/08 Q1017=
METAR OINR 110800Z 00000KT 9999 SCT040 BKN170 11/07 Q1016=
METAR OISA 110750Z 00000KT 9999 FEW040TCU 05/M04 Q1019=
 METAR OISF 110750Z 16006KT 7000 -SHRA FEW030CB SCT035 OVC090 07/01
 Q1021=
 METAR OISL 110800Z 00000KT 5000 -RA FEW030CB SCT035 OVC080 08/04
 Q1022=
 METAR OISS 110800Z 00000KT 2500 BR FEW030CB SCT035 OVC080 03/00
 Q1022 A3020=
 METAR OISY 110800Z 12004KT 1000 BR FEW030CB SCT035 OVC080 02/01
 Q1021 REDZ=
 METAR OITL 110750Z 23021KT 9999 FEW030 SCT080 BKN180 M03/M09
 Q1016=
 METAR OITR 110800Z 03004KT 2000 HZ SCT035 BKN170 M06/M10 Q1021
 NOSIG=
METAR OITT 110800Z 00000KT 7000 FEW035 BKN180 M05/M11 Q1022 A3020=
METAR OITU 110750Z 00000KT 3000 BR SKC M14/M14 Q1021=
METAR OIYY 110800Z 00000KT 6000 FEW035 SCT100 06/M01 Q1021=
METAR OIZB 110800Z 08004KT CAVOK 10/00 Q1025=
METAR OIZC 110750Z 05006KT CAVOK 20/M06
Q1022 A3020=
 METAR OIZH 110800Z 13010KT 9999 FEW035 SCT090 BKN190 06/M06 Q1022
 A3019 NOSIG=
METAR OIZI 110800Z 03004KT CAVOK 15/M04 Q1024=
METAR OIZJ 110800Z 00000KT CAVOK 19/08 Q1022=
METAR SESG 110800Z 24010KT 9999 SCT035 OVC090 06/M03 Q1023=
METAR YAYT 110750Z 24004KT 9999 FEW040 08/M03 Q1022=
0000009600
503
SAIN90 VOVZ 110800
METAR VOVZ 110800Z 12008KT 4500 HZ SCT018 28/19 Q1015 NOSIG=

0000402400
504
SAIR78 OIII 110800
METAR AZUH 110800Z 00000KT 1000 BR OVC020 M10/M10 Q1025=
METAR KHME 110750Z AUTO 12006KT //// // ////// 05/M08 Q1019=
METAR OIAA 110800Z 24010KT 2500 BR FEW035CB SCT090 13/11 Q1018=
METAR OIAG 110800Z 12012KT 9999 SCT030CB BKN035 14/10 Q1020=
 METAR OIAH 110800Z 15008KT 4000 RA FEW035CB SCT040 OVC070 09/07
 Q1019=
 METAR OIAI 110800Z 14004KT 9999 SCT030CB SCT035 OVC070 10/08
 Q1018=
 METAR OIAM 110800Z 12016KT 8000 -RA SCT010 SCT030CB OVC090 13/11
 Q1019=
 METAR OIAW 110800Z 10006KT 7000 -SHRA FEW025CB SCT030 OVC080 13/10
 Q1018=
 METAR OIBA 110800Z 12014KT 5000 SA FEW025CB FEW030 OVC100 21/12
 Q1019=
 METAR OIBB 110800Z 13006KT 9999 -RA FEW030CB SCT035 OVC090 14/10
 Q1019 A3009=
 METAR OIBK 110800Z 07010KT 8000 -RA FEW030CB FEW025 OVC080 14/12
 Q1021=
METAR OIBL 110800Z 05008KT 4000 HZ SCT025 OVC080 14/11 Q1022=
METAR OIBS 110800Z 08024KT 9999 SCT035 OVC100 20/15 Q1020=
 METAR OICC 110800Z 12008KT 4000 -SN FEW035CB SCT040 OVC070 M00/M02
 Q1020 A3013 TEMPO SN=
 METAR OICI 110800Z 14004KT 4000 -RA FEW015 FEW025CB SCT035 OVC080
 02/02 Q1018 A3006=
 METAR OICJ 110750Z 12004KT 5000 BR FEW035CB SCT040 BKN080 00/M02
 Q1020=
 METAR OICK 110750Z 29008KT 8000 -SHRA FEW035CB SCT040 OVC080 04/02
 Q1019=
 METAR OICS 110800Z 00000KT 3500 BR FEW025 FEW035CB SCT035 BKN080
 M01/M03 Q1020=
METAR OIFK 110800Z 30010KT 4000 -SN SCT030 OVC090 02/00 Q1025=
 METAR OIFM 110800Z 00000KT 1800 BR SCT040 BKN100 01/M01 Q1020
 A3012=
 METAR OIFS 110800Z 00000KT 1000 -SN BR FEW030CB SCT035 OVC080
 M04/M05 Q1020=
METAR OIGG 110800Z 00000KT 3000 BR SCT025 BKN090 09/07
Q1016=
METAR OIGK 110750Z 00000KT 9999 FEW035 BKN150 M04/M10 Q1019=
METAR OIHH 110800Z 00000KT 2500 BR BKN040 SCT090 M06/M09
Q1019=
METAR OIHM 110800Z 00000KT 2000 BR SCT035 BKN090 M01/M02 Q1019=
 METAR OIIE 110800Z 19004KT 6000 FEW040 FEW045CB OVC100 03/M05
 Q1022 A3020 NOSIG=
 METAR OIII 110800Z 19004KT 5000 HZ FEW040 OVC100 03/M06 Q1022
 A3018 TEMPO FEW035CB SCT030 BKN100 TEMPO FEW035CB SCT030 BKN100=
 METAR OIIK 110800Z 14010KT 5000 HZ FEW035CB SCT040 OVC090 01/M04
 Q1022=
METAR OIIS 110800Z 00000KT 9999 FEW035 BKN200 06/M06 Q1021=
 METAR OIKB 110750Z 35004KT 8000 -RA FEW025CB SCT030 OVC090 15/08
 Q1022 A3019 NOSIG=
METAR OIKK 110750Z 00000KT 9999 FEW035 OVC100 03/M03 Q1021 A3016=
METAR OIKO 110750Z 27004KT 8000 FEW030 OVC090 18/01 Q1022=
 METAR OIKQ 110800Z 02014KT 8000 -RA FEW025CB SCT030 SCT090 15/07
 Q1021=
METAR OIMB 110800Z 08010KT 9999 FEW040 SCT090 OVC190 06/M14 Q1021=
METAR OIMC 110800Z 18008KT CAVOK 15/M06 Q1021=
METAR OIMD 110800Z 00000KT CAVOK 06/M04 Q1018=
METAR OIMM 110800Z 08006KT CAVOK 07/M09 Q1020 A3013=
METAR OIMN 110800Z 03004KT CAVOK 04/M09 Q1019 A3010=
METAR OINB 110800Z VRB02KT CAVOK 11/07 Q1016=
 METAR OING 110800Z 36004KT 5000 HZ FEW025 SCT090 BKN190 11/07
 Q1017=
METAR OINN 110800Z VRB02KT CAVOK 12/08 Q1017=
METAR OINR 110800Z 00000KT 9999 SCT040 BKN170 11/07 Q1016=
METAR OISA 110750Z 00000KT 9999 FEW040TCU 05/M04 Q1019=
 METAR OISF 110750Z 16006KT 7000 -SHRA FEW030CB SCT035 OVC090 07/01
 Q1021=
 METAR OISL 110800Z 00000KT 5000 -RA FEW030CB SCT035 OVC080 08/04
 Q1022=
 METAR OISS 110800Z 00000KT 2500 BR FEW030CB SCT035 OVC080 03/00
 Q1022 A3020=
 METAR OISY 110800Z 12004KT 1000 BR FEW030CB SCT035 OVC080 02/01
 Q1021 REDZ=
 METAR OITR 110800Z 03004KT 2000 HZ SCT035 BKN170 M06/M10 Q1021
 NOSIG=
METAR OITT 110800Z 00000KT 7000 FEW035 BKN180 M05/M11 Q1022 A3020=
METAR OITU 110750Z 00000KT 3000 BR SKC M14/M14 Q1021=
METAR OIYY 110800Z 00000KT 6000 FEW035 SCT100 06/M01 Q1021=
METAR OIZB 110800Z 08004KT CAVOK 10/00 Q1025=
METAR OIZC 110750Z 05006KT CAVOK 20/M06
Q1022 A3020=
 METAR OIZH 110800Z 13010KT 9999 FEW035 SCT090 BKN190 06/M06 Q1022
 A3019 NOSIG=
METAR OIZI 110800Z 03004KT CAVOK 15/M04 Q1024=
METAR OIZJ 110800Z 00000KT CAVOK 19/08 Q1022=
METAR YAYT 110750Z 24004KT 9999 FEW040 08/M03 Q1022=
0000015100
505
SNST41 EGRR 110700 RRA
AAXX 11074
88900 45/// /3604 10022 20019 39919 49922 55009=
88903 42/// /2402 10007 21001 39921 49921 55007=
0000021900
506
SNST41 EGRR 110800
AAXX 11084
61901 469// /1310 10188 20172 39674 40179 52021 333 8//99 555
 7/090=
88889 41476 82221 10034 21020 39976 40062 53020 76062 885//
 333 81716 87629 91028 90710 91130=
0000351300
507
SNUK41 EGRR 110800
AAXX 11084
03005 41462 73114 10043 20017 39902 40002 53013 78782 879//
  333 55300 20000 81916 85626 90710 91128=
03017 47789 /2711 10028 20014 30008 40040 53012 723//
  333 55300 20000 81/56 84/65 90710 91127=
03026 47984 /2407 10016 21004 30057 40075 51022 723//
  333 55300 20000 83/64=
03063 45984 /2205 10003 21020 39809 40092 52018
  333 55300 20000 8//99=
03066 47884 /2413 10017 20001 30071 40078 51018 723//
  333 55300 20000 83/57=
03075 45978 /2511 10009 21009 30007 40052 51015
  333 84/64=
03091 45981 /3007 10021 21020 39994 40075 53019
  333 55300 20000 83/61=
03100 47677 /3114 10044 20008 30097 40113 53019 723//
  333 55300 20000 81/46 90710 91130=
03111 46476 /2514 10027 20012 30125 40138 53032
  333 81/13 83/56 90710 91135=
03134 47785 /2907 10021 20003 30047 40121 53022 723//
  333 55300 20000 83/56=
03136 47478 /2513 10051 20026 30093 40126 53021 781//
  333 55300 20000 82/17 83/57 90710 91127=
03162 47450 /2303 11001 21008 39839 40134 53021 785//
  333 55300 20000 81/14 83/65=
03166 45883 /2509 10018 21002 30041 40113 53020
  333 55300 20000 81/57=
03171 42681 12514 10011 21006 30080 40093 53011 81500
  333 55300 20000 81645 92600=
03204 41465 42913 10044 20026 30128 40148 52025 72165 84900
  333 55300 20000 81915 83818=
03240 45983 /2805 10038 21005 30077 40105 52016
  333 55300 20000 81/62 84/68=
03257 45969 /2407 10019 21004 30090 40131 53022
  333 55300 20000 82/66=
03292 469// /3009 10034 20006 30098 40117 51027
  333 8//99=
03302 45571 /3012 10048 20020 30148 40162 53025
  333 55300 20000 87/20=
03354 45968 /2306 10029 20016 30006 40152 52033
  333 55300 20000 81/62=
03377 42680 12706 10038 20018 30055 40141 53035 81530
  333 55300 20000 81640=
03414 45778 /2606 10005 21010 30071 40162 53025
  333 55300 20000 81/50=
03462 45983 /2709 10025 20009 30055 40147 52037
  333 55300 20000 8//99=
03482 45969 /2911 10052 20043 30111 40137 53034
  333 8//99=
03502 45584 /2917 10057 20009 30011 40175 53022
  333 55300 20000 81/23 90710 91125=
03535 45967 /2804 10028 20019 30041 40161 52036
  333 553// 20000 8//99=
03590 45484 /2812 10060 20045 30025 40136 53022
  333 55300 20000 82/14 83/19=
03649 42682 12802 10042 20024 30065 40167 52035 81500
  333 55300 2//// 81630=
03680 46/// ///// 10051 20035 39999 40157 52033
  333 553// 20000=
03716 45971 /3006 10043 20036 30117 40178 53028
  333 55300 20000 8//99=
03740 469// /2606 10034 20028 39995 40175 51034
  333 55300 2//// 8//99=
03746 42681 13006 10035 20028 30016 40173 53029 81500
  333 81640=
03772 45581 /3011 10068 20043 30128 40159 53032
  333 55300 20000 83/23=
03796 46/// /2417 10082 20076 30001 40144 53007=
03803 45984 /3408 10071 20031 30157 40195 53016
  333 8//99=
03808 42580 53508 10071 20021 30084 40191 51019 85800
  333 55300 20000 81820 85627=
03809 42675 10105 10041 20017 30097 40192 52019 81500
  333 81645=
03827 45965 /0203 10036 20028 30127 40190 52025
  333 8//99=
03840 45978 /3006 10033 20025 39874 40186 53029
  333 8//99=
03853 45481 /2303 10042 20030 30155 40179 53030
  333 55300 20000 85/12=
03874 46/// /3111 10058 20042 30158 40169 52038=
03882 47683 /3006 10082 20067 30091 40155 53017 723//
  333 55300 20000 82/32 86/48=
03894 41582 13310 10073 20037 40191 53030 72161 81500
  333 81620=
03917 47484 /2605 10014 20011 30077 40156 51031 721//
  333 55300 20000 84/11=
0000013800
508
SAUK63 EGRR 110750 RRA
METAR EGDR 110750Z 01005KT 9999 FEW045 04/02 Q1018=
METAR EGUO 110750Z 27005KT CAVOK 03/03 Q1018=
0000014700
509
SNNC22 NWBB 110800
AAXX 11084
91570 46/// /1114 10269 20210 30090 40095 53013=
91574 46/// /1116 10262 20212 30105 40110 53006=
0000032800
510
SNVD22 KWNB 110800 RRH
BBXX
46244 11081 99409 71244 46/// ///// 1//// 90751 22200 00109 11509
21003 330// 41508 70044=
46240 11081 99366 71219 46/// ///// 1//// 90751 22200 00127 11403
21001 336// 41402 70013=
46236 11081 99368 71219 46/// ///// 1//// 90752 22200 00124 11304
21002 328// 41303 70019=
0000013800
511
SNVD22 KWNB 110800 RRI
BBXX
46237 11081 99378 71226 46/// ///// 1//// 90801 22200 00109 11404
21002 328// 41404 70020=
0000028700
512
SXHW11 KWAL 110805
B150314C 011080523"
1,140111,07:00:00,3.1,168,6.0,21.5,1015.6,0.00,13.7,
1,140111,07:15:00,3.4,154,7.4,21.6,1015.6,0.00,13.7,
1,140111,07:30:00,4.0,149,8.3,22.2,1015.5,0.00,13.7,
1,140111,07:45:00,4.5,132,9.8,22.5,1015.5,0.01,13.7, 48+0NN 210W
0000013500
513
SNVD02 CWAO 110800
BBXX
SHIP 11084 99474 70619 46/// /2403 11034 21035 40233 51006 7//// 8//// 22200 0//// 2//// =

00000000