0000075200
286
SAHK31 VHHH 102200
METAR VHHH 102200Z 04005KT 9000 FEW025 15/11 Q1024 NOSIG=
METAR RCTP 102200Z VRB01KT 9999 FEW020 16/12 Q1024 NOSIG RMK A3024
=
METAR RCKH 102200Z 03005KT 6000 FEW015 SCT030 16/13 Q1023 NOSIG
RMK A3022=
METAR RCSS 102200Z 12005KT 9999 FEW025 15/12 Q1024 NOSIG RMK A3026
=
METAR VMMC 102200Z 03009KT 350V060 7000 SCT025 15/11 Q1023 NOSIG=
METAR RPLL 102200Z VRB01KT 9000 FEW023 22/19 Q1016 NOSIG RMK A3001=
METAR RPVM 102200Z 02016KT 9999 FEW020 OVC090 26/22 Q1012 A2990=
METAR RPMD 102200Z
36006KT 8KM SCT016 BKN090 OVC290 23/23 Q1010=
METAR RPLB 102200Z 07008KT 9999 FEW030 23/17 Q1015 NOSIG=
METAR RPLI 102200Z
04002KT 9999 FEW019 17/16 Q1016 NOSIG RMK A3000=
METAR RPMZ 102200Z NIL=

0000011000
287
SPUS41 KWBC 102211
SPECI
KCAE 102207Z 00000KT 2SM RA BR SCT003 BKN012 OVC018 10/10 A3014=

0000025900
288
FTCN34 CWAO 102200 AAA
TAF AMD CYIV 102212Z 1022/1107 VRB03KT 6SM -SN OVC003 TEMPO 1022/1101
     21/2SM -SN BR SCT003 OVC008
    FM110100 VRB03KT 3SM -SN OVC010 TEMPO 1101/1107 11/2SM -SN BR
     OVC006
    RMK NXT FCST BY 110100Z=

0000034200
289
FTBZ42 KWBC 102212
TAF
TAF SBSP 102200Z 1100/1124 12004KT CAVOK TN20/1108Z TX34/1117Z
      BECMG 1104/1106 05005KT
      BECMG 1111/1113 35008KT 9999 SCT035
      BECMG 1115/1117 30005KT 9999 SCT035 FEW045TCU PROB40
      1118/1121 27010KT 8000 TSRA SCT030 FEW040CB
      BECMG 1121/1123 13005KT CAVOK RMK PGL=

0000029700
290
FTBZ43 KWBC 102212
TAF
TAF SBRP 102200Z 1100/1124 11003KT CAVOK TN20/1108Z TX35/1117Z
      BECMG 1112/1114 33008KT 9999 SCT035
      BECMG 1115/1117 SCT035 FEW045TCU PROB40 1118/1121 30010KT
      8000 TSRA SCT030 FEW040CB
      BECMG 1121/1123 08005KT CAVOK RMK PGL=

0000027000
291
FTCA35 KWBC 102212
TAF
TAF MRPV 102200Z 1100/1124 07012KT 9999 FEW040 TX26/1120Z
      TN19/1112Z
      BECMG 1100/1102 07012G22KT CAVOK
      BECMG 1117/1119 07010KT 9999 SCT035 PROB40
      TEMPO 1121/1124 07006KT 9999 RA FEW020TCU SCT030=

0000050400
292
FTUS51 KWBC 102212 AAA
TAF AMD
KCON 102208Z 1022/1118 00000KT P6SM OVC080
     FM110000 00000KT 4SM BR OVC007
     FM110600 00000KT 2SM -FZDZ BR OVC007
     FM111000 VRB03KT 1 1/2SM -FZRA BR OVC004
     FM111400 34002KT 1 1/2SM -RA BR OVC004=
KITH 102210Z 1022/1118 17008KT P6SM SCT015 BKN035
      TEMPO 1100/1102 OVC015
     FM110200 16008KT P6SM OVC012
      TEMPO 1104/1107 BKN009
     FM110700 16015KT 4SM -SHRA OVC008
     FM111500 16018KT 5SM -SHRA OVC008=

0000019600
293
FTUS52 KWBC 102212 AAA
TAF AMD
KROW 102209Z 1022/1118 29015KT P6SM FEW150
      TEMPO 1022/1101 29015G25KT
     FM110100 28010KT P6SM SKC
     FM111500 17005KT P6SM SKC=

0000192400
294
SPUS70 KWBC 102212
SPECI
PABA 102208Z AUTO 27020KT 3/4SM -SN M26/M28 A2986 RMK AO2 P0000
     FZRANO=
KAND 102208Z AUTO 06003KT 5SM BR OVC004 08/08 A3015 RMK AO2 RAE07
     CIG 003V008 P0000=
KBIV 102208Z AUTO 14008KT 1 1/4SM RA BR OVC004 02/02 A2982 RMK AO2
     P0005 T00220017=
KCDW 102208Z 00000KT 1SM BR OVC003 00/M01 A3035 RMK AO2=
KDFI 102208Z AUTO 14004KT 4SM BR FEW007 SCT028 OVC038 04/02 A2992
     RMK AO2=
KHVN 102208Z 00000KT 2 1/2SM BR OVC004 02/01 A3036 RMK AO2=
KLWV 102208Z AUTO 16011KT 1SM -RA BR FEW008 BKN026 OVC046 05/05
     A2987 RMK AO2 RAE2156B05 P0000 T00500050=
KTCC 102208Z AUTO 28013KT 10SM CLR 15/M12 A2971 RMK AO2 WSHFT 2148
     T01501117 TSNO=
KTOI 102208Z AUTO 09004KT 1 1/2SM -RA BR OVC002 13/12 A3005 RMK
     AO2 RAB03 P0000 T01330122=
KCXY 102209Z 08003KT 3SM BR OVC009 01/M01 A3031 RMK AO2=
KGGG 102209Z 21008KT 2 1/2SM -RA BR FEW028 BKN038 OVC048 17/16
     A2975 RMK AO2 VIS 2V3 P0002=
KGMU 102209Z 05008KT 2SM BR OVC004 08/07 A3016 RMK AO2=
KHKY 102209Z AUTO 04004KT 4SM BR OVC003 07/06 A3018 RMK AO2
     TSNO=
KLBX 102209Z AUTO 18014G20KT 10SM BKN013 BKN020 OVC028 21/18 A2983
     RMK AO2=
KMFR 102209Z 00000KT 9SM BKN010 BKN060 08/05 A3019 RMK AO2 CIG
     009V012 T00780050=
KOFP 102209Z AUTO 07003KT 2 1/2SM BR OVC003 04/03 A3029 RMK AO2
     RAE07 P0001 T00390033=
KPHF 102209Z AUTO 05003KT 2 1/2SM -RA BR FEW005 OVC039 07/04 A3029
     RMK AO2 P0001 TSNO=
KRKS 102210Z AUTO 29025G37KT 10SM BKN026 M01/M06 A2985 RMK AO2 PK
     WND 28037/2203 T10061061=
KROG 102209Z 19013KT 10SM SCT020 BKN024 OVC030 12/09 A2962 RMK
     AO2=
KRXE 102209Z AUTO 24003KT 10SM SCT017 M01/M03 A2991 RMK AO2
     T10061033=
PABA 102208Z AUTO 27020KT 3/4SM -SN M26/M28 A2986 RMK AO2 P0000
     FZRANO=
PAJZ 102213Z AUTO 00000KT 1 1/4SM BR OVC002 M07/M08 A2954 RMK AO2
     PWINO TSNO CIG 001V006 $=

0000010500
295
SPUS31 KWBC 102212
SPECI
KSEA 102208Z 22011KT 10SM SCT014 BKN032 OVC095 09/06 A3002=

0000011300
296
SPUS41 KWBC 102212
SPECI
KDOV 102208Z AUTO 03002KT 2SM R01/4000FT -RA BR OVC004 03/03 A3030=

0000009700
297
SPUS41 KWBC 102212
SPECI
KHVN 102208Z 00000KT 2 1/2SM BR OVC004 02/01 A3036=

0000027300
298
SAAG31 KWBC 102200 RRA
METAR
SAAR 102200Z 18009KT 9999 FEW036TCU SCT100 30/20 Q1007=
SARC 102200Z 05005KT 9999 FEW050CB 34/23 Q1005=
SARE 102200Z 02004KT 9999 FEW035TCU SCT200 34/24 Q1005=
SARF 102200Z NIL=
SASJ 102200Z NIL=
SAZM 102200Z NIL=

0000023700
299
SAAG41 KWBC 102200 RRA
METAR
SANT 102200Z 20006KT 9999 FEW040 FEW045CB BKN200 32/22 Q1003=
SARL 102200Z 09010KT 9999 FEW018 FEW045CB SCT100 BKN200 25/21
     Q1007 RETS=
SAZN 102200Z 27004KT CAVOK 27/M03 Q1011=

0000089400
300
SABZ41 KWBC 102200 RRA
METAR
SBAF 102200Z 10005KT 9999 FEW025 31/21 Q1010=
SBBH 102200Z 09009KT 9999 FEW030 25/18 Q1016=
SBBI 102200Z 29003KT 9999 FEW005 SCT025 FEW030TCU 29/16 Q1016 R
     ETS=
SBBI 102200Z 29003KT 9999 FEW005 SCT025 FEW030TCU 29/16 Q1016
     RETS=
SBBU 102200Z 16004KT 9999 TS VCSH FEW045 FEW050CB SCT070 30/22
     Q1013=
SBCO 102200Z 07003KT 6000 -TSRA BKN047 FEW050CB OVC100 23/// Q1
     013=
SBCO 102200Z 07003KT 6000 -TSRA BKN047 FEW050CB OVC100 23///
     Q1013=
SBDN 102200Z 10006KT CAVOK 30/18 Q1009=
SBGW 102200Z 01001KT 9999 FEW030 SCT100 25/17 Q1014=
SBHT 102200Z 07001KT 9999 FEW017 SCT100 24/23 Q1009=
SBIH 102200Z 00000KT 9999 FEW020 SCT100 27/22 Q1008=
SBIL 102200Z 25002KT 8000 VCSH SCT015 FEW025TCU BKN090 25/23 Q1
     014=
SBIL 102200Z 25002KT 8000 VCSH SCT015 FEW025TCU BKN090 25/23
     Q1014=

0000079300
301
SABZ42 KWBC 102200 RRB
METAR
SBJR 102200Z 24004KT 9999 FEW025 27/23 Q1010=
SBME 102200Z 08010KT CAVOK 25/23 Q1013=
SBMN 102200Z 10007KT 3000 RA BKN025 FEW030TCU BKN100 23/22
     Q1009=
SBMT 102200Z 00000KT CAVOK 24/20 Q1014 RETS=
SBSC 102200Z 23004KT CAVOK 29/21 Q1010=
SBSM 102200Z 35005KT 4000 TSRA SCT007 BKN030 FEW040CB BKN100 22
     /21 Q1013=
SBSM 102200Z 35005KT 4000 TSRA SCT007 BKN030 FEW040CB BKN100 22/21
     Q1013=
SBST 102200Z 19003KT 9999 SCT023 SCT070 28/24 Q1010=
SBTE 102200Z 11005KT 9999 -TSRA BKN030 FEW040CB BKN070 27/22
     Q1009=
SBUR 102200Z 11008KT 9000 -RA SCT035 OVC100 22/16 Q1015 RETS=
SBVH 102200Z 01004KT 9999 -RA SCT015 BKN090 22/21 Q1010 RETS=
SBYS 102200Z 12003KT 9999 FEW040 FEW045TCU SCT080 27/18 Q1013=

0000088900
302
SABZ43 KWBC 102200 RRA
METAR
SBAN 102200Z 07003KT 6000 -TSRA SCT030 FEW040CB SCT090 21/16 Q1
     016=
SBAN 102200Z 07003KT 6000 -TSRA SCT030 FEW040CB SCT090 21/16
     Q1016=
SBBQ 102200Z 07007KT CAVOK 23/16 Q1020=
SBBW 102200Z 00000KT 9999 FEW020 SCT100 24/20 Q1011=
SBES 102200Z 06015KT CAVOK 25/22 Q1013=
SBIZ 102200Z 00000KT 9999 -RA FEW015 FEW025TCU SCT030 27/24
     Q1009=
SBIZ 102200Z 00000KT 9999 -RA FEW015 FEW025TCU SCT030 27/24 Q10
     09=
SBMK 102200Z 09005KT 9999 VCTS FEW045 FEW050CB 25/16 Q1014=
SBMS 102200Z 04010KT 9999 FEW025 28/23 Q1009=
SBPJ 102200Z 36003KT 9999 FEW020 SCT040 BKN090 24/20 Q1010=
SBQV 102200Z 10008KT 9999 FEW008 SCT070 21/19 Q1018=
SBTK 102200Z 33003KT 9999 FEW025 FEW030TCU 28/24 Q1007=
SBUF 102200Z 11012KT 9999 FEW020 31/19 Q1012=
SBUL 102200Z 11008KT 9999 VCTS FEW045CB BKN090 23/17 Q1016=

0000020600
303
SACA35 KWBC 102200 RRA
METAR
MPBO 102200Z 35006KT 290V030 9000 SCT018 BKN090 Q1012=
MPDA 102200Z 22006KT 9999 SCT020 31/23 Q1007=
MPMG 102200Z 33007KT 9999 FEW020 29/23 Q1009 NOSIG=

0000010000
304
SAHA31 KWBC 102200 RRA
METAR
MTPP 102200Z 08010KT 9999 FEW027 31 Q1014.7 A2996=

0000013000
305
SASA41 KWBC 102200 RRB
METAR
SKMD 102200Z 26005KT 9999 TSRA BKN030 SCT035CB 19/16 A2997 RMK
     CB/E/W/NW=

00000000