0000016300
646
SACY31 LCLK 102230
METAR LCLK 102230Z 34004KT CAVOK 09/03 Q1021 NOSIG=
METAR LCPH 102230Z 02007KT CAVOK 10/05 Q1022=
METAR LCNC 102230Z NIL=

0000064700
647
FTCA35 KWBC 102233
TAF
TAF MHLC 102225Z 1100/1124 00000KT 9999 SCT022 SCT080 TX29/1119Z
      TN19/1112Z
      BECMG 1112/1114 19004KT 9999 FEW024 SCT090
      BECMG 1117/1119 02008KT SCT026TCU=
TAF MHLM 102225Z 1100/1124 00000KT 9999 SCT028 SCT090 TX31/1120Z
      TN19/1112Z
      BECMG 1110/1112 21004KT FEW024 SCT080
      BECMG 1115/1117 03008KT SCT028=
TAF MHTG 102225Z 1100/1124 06005KT 9999 SCT025 TX27/1120Z
      TN14/1112Z
      BECMG 1103/1105 FEW012 BKN022
      BECMG 1108/1110 36005KT 7000 FEW008
      BECMG 1114/1116 9999 FEW016 SCT024
      BECMG 1120/1122 07006KT 8000 VCSH BKN026=

0000009100
648
FTPA31 KWBC 102233
TAF
TAF PTPN 102229Z 1022/1118 05014KT P6SM SCT018=

0000009100
649
FTPQ31 KWBC 102233
TAF
TAF PTPN 102229Z 1022/1118 05014KT P6SM SCT018=

0000055700
650
FTSA32 KWBC 102233
TAF
SUAA 102230Z 1100/1124 16005KT 9999 FEW023 TX22/1118Z TN18/1109Z
      TEMPO 1100/1108 5000 TSRA SCT030 FEW040CB SCT100
      BECMG 1106/1108 17015G25KT 9999 BKN015=
SULS 102230Z 1100/1124 16005KT 9999 FEW023 TX22/1118Z TN18/1109Z
      TEMPO 1100/1108 5000 TSRA SCT030 FEW040CB SCT100
      BECMG 1106/1108 17015G25KT 9999 BKN015=
SUMU 102230Z 1100/1124 16005KT 9999 FEW023 TX22/1118Z TN18/1109Z
      TEMPO 1100/1108 5000 TSRA SCT030 FEW040CB SCT100
      BECMG 1106/1108 17015G25KT 9999 BKN015=

0000051000
651
FTUS51 KWBC 102233 AAA
TAF AMD
KHYA 102231Z 1023/1118 19007KT P6SM OVC005
     FM110400 20005KT P6SM OVC020
     FM111100 18010G19KT P6SM OVC040
     FM111500 18017G32KT 1/2SM -RA FG OVC003 WS020/36045KT=
KMHT 102231Z 1023/1118 00000KT P6SM FEW019 BKN090
     FM110600 00000KT 4SM BR OVC020
     FM111200 VRB03KT 2SM -FZRA BR OVC008
     FM111300 15004KT 1SM -RA BR OVC008
     FM111500 18005KT 3/4SM -RA BR OVC003
     FM111700 18009KT 3/4SM -RA BR OVC003 WS020/20045KT=

0000077100
652
FTUS52 KWBC 102233 AAA
TAF AMD
KELD 102232Z 1023/1118 18012KT P6SM BKN008 OVC015
      TEMPO 1023/1101 4SM SHRA BR OVC005
     FM110100 17012KT P6SM VCTS OVC005CB
      TEMPO 1101/1105 23010G20KT 3SM -TSRA BR
     FM110500 25011KT 2SM -TSRA BR OVC005CB
     FM110900 28009KT P6SM SCT005 OVC250
     FM111200 28006KT P6SM SCT250=
KFMH 102232Z 1023/1118 17006KT 3SM BR OVC004
     FM110500 19005KT P6SM OVC025
     FM111200 17011G22KT P6SM OVC008
     FM111500 18017G31KT 1SM -RA BR OVC003=
KTXK 102229Z 1022/1118 17005KT 3SM SHRA BR SCT015 OVC035
      TEMPO 1022/1102 1/2SM TSRA FG BKN007 OVC015CB
     FM110200 24010KT 5SM -RA BR VCTS OVC015CB
     FM110600 28008G16KT P6SM SCT015 SCT250
     FM110900 27008KT P6SM SKC=

0000142300
653
FTUS80 KWBC 102233 AAA
TAF AMD
KBAF 102231Z 1023/1118 00000KT 3SM BR OVC015
     FM110300 00000KT P6SM OVC015
     FM110600 00000KT P6SM OVC010
     FM111100 VRB03KT 2SM -RA BR OVC003
     FM111200 14004KT 2SM -RA OVC008 WS020/36040KT
     FM111500 18007KT 1/2SM -RA FG OVC003 WS020/19045KT=
KBED 102231Z 1023/1118 00000KT P6SM BKN015 BKN060
     FM110500 00000KT P6SM OVC025
     FM110800 VRB03KT P6SM OVC020
     FM111100 16005KT P6SM OVC010
     FM111300 17007KT 2SM -RA OVC008
     FM111600 18011G26KT 1SM -RA BR OVC003 WS020/19045KT=
KBOS 102231Z 1023/1124 19004KT 5SM BR BKN012 OVC020
     FM110400 20005KT P6SM OVC012
     FM111300 17010G18KT 2SM -RA OVC008
     FM111500 18012G25KT 1/2SM -RA FG OVC003=
KELD 102232Z 1023/1118 18012KT P6SM BKN008 OVC015
      TEMPO 1023/1101 4SM SHRA BR OVC005
     FM110100 17012KT P6SM VCTS OVC005CB
      TEMPO 1101/1105 23010G20KT 3SM -TSRA BR
     FM110500 25011KT 2SM -TSRA BR OVC005CB
     FM110900 28009KT P6SM SCT005 OVC250
     FM111200 28006KT P6SM SCT250=
KFMH 102232Z 1023/1118 17006KT 3SM BR OVC004
     FM110500 19005KT P6SM OVC025
     FM111200 17011G22KT P6SM OVC008
     FM111500 18017G31KT 1SM -RA BR OVC003=
KHYA 102231Z 1023/1118 19007KT P6SM OVC005
     FM110400 20005KT P6SM OVC020
     FM111100 18010G19KT P6SM OVC040
     FM111500 18017G32KT 1/2SM -RA FG OVC003 WS020/36045KT=

0000009100
654
FTUS80 KWBC 102233
TAF
TAF PTPN 102229Z 1022/1118 05014KT P6SM SCT018=

0000072400
655
FTUS80 KWBC 102233 AAB
TAF AMD
KMHT 102231Z 1023/1118 00000KT P6SM FEW019 BKN090
     FM110600 00000KT 4SM BR OVC020
     FM111200 VRB03KT 2SM -FZRA BR OVC008
     FM111300 15004KT 1SM -RA BR OVC008
     FM111500 18005KT 3/4SM -RA BR OVC003
     FM111700 18009KT 3/4SM -RA BR OVC003 WS020/20045KT=
KTXK 102229Z 1022/1118 17005KT 3SM SHRA BR SCT015 OVC035
      TEMPO 1022/1102 1/2SM TSRA FG BKN007 OVC015CB
     FM110200 24010KT 5SM -RA BR VCTS OVC015CB
     FM110600 28008G16KT P6SM SCT015 SCT250
     FM110900 27008KT P6SM SKC=
PASC 102232Z 1023/1118 25013KT 4SM BR SCT025 BKN040
      TEMPO 1023/1102 3SM -SN BR BKN025
     FM110200 25018KT 3SM BR BLSN FEW015 BKN025 OVC035=

0000011700
656
SPUS31 KWBC 102233
SPECI
KIAD 102229Z 00000KT 1SM R01R/4000VP6000FT -RA BR OVC005 01/01
A3029=

0000024400
657
SALJ31 LJLJ 102230
METAR LJLJ 102230Z 30004KT 9999 SCT030 BKN050 06/05 Q1021 NOSIG=
METAR LJMB 102230Z AUTO 21002KT 3000 BR OVC002/// 03/03 Q1021=
METAR LJPZ 102230Z AUTO 11002KT 3800 BR SCT011/// OVC015///
09/09 Q1022=

0000011200
658
SALJ32 LJLJ 102230
METAR LJCE 102230Z AUTO 00000KT 0500 FG SCT040/// BKN047///
03/02 Q1021=

0000021500
659
FTNO38 ENMI 102000 AAA
TAF AMD ENOA 102230Z 1022/1121 09008KT 9999 -RA SCT009 BKN015 TEMPO
             1022/1121 4000 RADZ BKN008 BECMG 1100/1103 29025KT BECMG
             1115/1118 30040KT=

0000011000
660
SANT31 KWBC 102200 RRC
METAR
BIKF 102230Z 27016KT 9999 FEW039 BKN050 BKN065 02/M03 Q0991=

0000033300
661
SARO31 LROM 102230
METAR LRBS 102230Z AUTO VRB02KT NCD 03/02 Q1018 NOSIG=
METAR LRCK 102230Z 27006KT 2000 BR NSC 02/02 Q1017=
METAR LROP 102230Z 31004KT 280V340 CAVOK 01/01 Q1018 8819//95 NOSIG=
METAR LRSB 102230Z NIL=
METAR LRTR 102230Z 08005KT 060V120 0250 R11/0300N FZFG BKN000
M00/M01 Q1023 11190095=

0000025000
662
SAFR21 LFPW 102230
METAR LFOA 102230Z AUTO 10007KT 9999 NSC 06/04 Q1015=
METAR LFPC 102230Z AUTO 16004KT 120V200 2000 BR OVC003 04/03 Q1017=
METAR LFPV 102230Z AUTO VRB03KT 0700 0600 R27/1600D R09/1800N FG
OVC002 05/05 Q1017=

0000004100
663
SARO32 LROM 102230
NIL

0000004100
664
SARO33 LROM 102230
NIL

0000045900
665
SAFR22 LFPW 102230
METAR LFBC 102230Z AUTO 00000KT 0200 R24/1000U FG NSC 03/02 Q1015=
METAR LFBG 102230Z AUTO 06002KT 5000 BR NSC 08/07 Q1015=
METAR LFBM 102230Z AUTO 29003KT 1900 BR NSC 05/05 Q1015=
METAR LFKS 102230Z AUTO 28003KT 240V320 9999 OVC026 13/08 Q1021=
METAR LFMO 102230Z AUTO 34001KT 6000 OVC025 08/07 Q1020=
METAR LFMY 102230Z AUTO 12002KT 7000 OVC026 10/08 Q1020=
METAR LFBY 102230Z NIL=
METAR LFMC 102230Z NIL=

00000000