0000044500
046
SXXX32 EUMS 110913
32BD7124
:PRS 1 /1 2290 2287 2285 2282 2278 2276 2276 2276 2277 2275 2274 2272 2273 2276 2275 2276 2278 2277 2281 2284 2285 2289 2289 2294 2297 2297 2296 2292 2290 2295 :RAD 3 /3 8071 8065 8061 8058 8063 8068 8071 8077 8079 8081 8076 8081 8081 8091 8095 8099 8101 8102 8102 8101 :ENC 3 /5 5070 5063 5064 5068 5077 5084 5082 5086 5096 5102 5105 5102 :SW1 14 /60 0 :SW2 44 /60 0 :BAT 14 /15 13.5 :NAME 32BD7124
0000070300
047
SXXX32 EUMS 110913 RRA
223412A2
OT12 ID:IND-SADENG DT:2014 01 11 09 12
:PRS /1 02091 02223 02160 02170 02052 02073 02150 02198 02133 02146 02170 02108 02116 02074 02219 02184 02157 02153 02178 02066 02121 02193 02130 02155 02089 02093 02107 02070 02162 02208
:ENC /1 -12723 -12629 -12693 -12683 -12773 -12756 -12686 -12639 -12689 -12679 -12689 -12726 -12716 -12769 -12686 -12636 -12679 -12709 -12703 -12766 -12749 -12666 -12693 -12663 -12736 -12746 -12756 -12739 -12703 -12666
:RAD /1 11831 11910 11878 11860 11817 11809 11882 11921 11866 11898 11856 11860 11898 11812 11872 11882 11914 11939 11864 11814 11782 11874 11929 11939 11901 11887 11813 11867 11876 11864
:BA898 11856
0000040700
048
SXXX32 EUMS 110915
262D700E
:PRS 1 /1 1888 1911 1932 1880 1938 1950 1935 1890 1888 1871 1865 1881 1901 1901 1912 1911 1911 1890 1854 1846 1895 1877 1859 1887 1896 1927 1880 1914 1875 1863 :RAD 1 /3 4357 4344 4333 4341 4340 4327 4327 4333 4324 4322 4336 4340 4325 4327 4346 :ENC 5 /5 4447 4436 4442 4428 4435 4422 4454 4405 4468 4410 4464 4446 :SW1 15 /60 60 :BAT 14 /15 13.5 :NAME 262D700E
0000044900
049
SXXX32 EUMS 110915 RRA
16289262
:PRS 1 /1 2179 2181 2180 2185 2190 2187 2188 2195 2192 2201 2193 2173 2194 2190 2213 2196 2192 2208 2210 2205 2216 2203 2198 2200 2201 2214 2213 2207 2217 2205 :RAD 1 /3 7648 7651 7654 7652 7656 7659 7664 7662 7668 7668 7667 7673 7674 7679 7682 7687 7687 7692 7695 7696 :ENC 5 /5 5016 5017 5034 5031 5031 5031 5041 5038 5044 5054 5064 5069 :SW1 15 /60 0 :SW2 45 /60 0 :BAT 14 /15 13.1 :NAME 16289262
0000045500
050
SXXX32 EUMS 110915 RRB
324DF524
:PRS 1 /1 2893 2899 2906 2912 2917 2924 2931 2938 2944 2951 2958 2964 2971 2978 2984 2990 2996 3003 3010 3017 3024 3031 3038 3045 3052 3059 3067 3074 3081 3089 :RAD 1 /3 2943 2964 2985 3006 3027 3046 3067 3088 3110 3131 3155 3177 3201 3223 3245 3267 3291 3313 3336 3358 :ENC 5 /5 1887 1922 1956 1989 2026 2063 2100 2137 2174 2209 2244 2280 :SW1 15 /60 0 0 :SW2 45 /60 60 60 :BAT 14 /15 12.6 :NAME 324DF524
0000041700
051
SXXX32 EUMS 110916
26CB10AC
:PRS 1 /1 -1337 -1337 -1337 -1337 -1337 -1337 -1337 -1337 -1337 -1337 -1337 -1337 -1337 -1338 -1337 -1337 -1337 -1337 -1337 -1337 -1337 -1337 -1337 -1338 -1337 -1337 -1337 -1337 -1338 -1337 :RAD 3 /3 5757 5751 5749 5752 5752 5755 5753 5753 5754 5753 :RA2 3 /3 5729 5718 5712 5715 5710 5715 5720 5713 5722 5716 :SW1 17 /60 60 :SW2 47 /60 60 :BAT 14 /15 13.0 :NAME 26CB10AC
0000009900
052
SAIN90 VOHY 110910
METAR VOHY 110910Z 09003KT 6000 FEW020 SCT025 31/15 Q1015 NOSIG=
0000013300
053
SAME31 OLBA 110900 RRA
METAR OSDI 110900Z 00000KT 4000 BR 07/05 Q1024=
METAR OSLK 110900Z 20004KT CAVOK 18/02 Q1023=

0000045000
054
SXXX32 EUMS 110916 RRA
1227146C
:PRS 1 /1 3229 3223 3216 3211 3207 3203 3197 3190 3186 3180 3176 3170 3166 3162 3159 3155 3149 3145 3141 3136 3131 3124 3121 3116 3113 3111 3106 3102 3099 3095 :RAD 3 /3 3206 3178 3165 3164 3139 3153 3136 3100 3093 3086 3080 3035 3027 3032 3021 3010 2990 2986 2964 2972 :ENC 1 /5 3961 3933 3909 3887 3863 3845 3827 3806 3785 3765 3744 3726 :SW1 17 /60 0 :SW2 47 /60 60 :BAT 14 /15 13.2 :NAME 1227146C
0000011100
055
UANT99 KDDL 110916
ARP NAX7032 5909N01847W 0916 F350 MS54 237/57 KT
EILNA QXT AOE 110917 L25A
0000011000
056
UANT99 KDDL 110917
ARP BAW18A 5401N01604W 0917 F330 MS61 260/75 KT
GYMMN QXT AOW 110917 F25A
0000011000
057
UANT99 KDDL 110917
ARP CRL941 4437N01426W 0917 F390 MS60 262/41 KT
FHBIL QXT AOW 110917 J79A
0000042900
058
UDNT02 EGRR 110921
AMDAR 1108
LVR EU0230   5658N 05026W 110840 F350 MS592 281/068 TB/ S031=
LVR EU0230   5719N 04843W 110847 F350 MS577 267/050 TB/ S031=
LVR EU0230   5742N 04700W 110854 F350 MS580 265/046 TB/ S031=
LVR EU0230   5804N 04517W 110901 F350 MS582 263/042 TB/ S031=
LVR EU0230   5824N 04332W 110908 F350 MS577 251/034 TB/ S031=
LVR EU0230   5843N 04145W 110915 F350 MS580 240/031 TB/ S031=
0000068500
059
UDEU02 EGRR 110921
AMDAR 1109
ASC EU0016   5854N 00539E 110913 F004 PS048 253/006 TB/ S031=
ASC EU0016   5854N 00539E 110913 F005 PS048 255/013 TB/ S031=
ASC EU0016   5854N 00539E 110913 F008 PS045 264/018 TB/ S031=
ASC EU0016   5854N 00539E 110913 F011 PS039 262/019 TB/ S031=
ASC EU0016   5855N 00539E 110914 F014 PS031 271/021 TB/ S031=
ASC EU0016   5855N 00539E 110914 F016 PS025 270/023 TB/ S031=
ASC EU0016   5855N 00539E 110914 F017 PS020 270/023 TB/ S031=
ASC EU0016   5856N 00539E 110914 F017 PS020 268/023 TB/ S031=
ASC EU0016   5856N 00539E 110914 F019 PS015 274/021 TB/ S031=
ASC EU0016   5856N 00539E 110914 F020 PS015 268/023 TB/ S031=
0000023200
060
SAWD01 OEJD 110900 RRA
METAR OSDI 110900Z 00000KT 4000 BR 07/05 Q1024=
METAR UUEE 110900Z 24005MPS 9999 -RA OVC006 02/01 Q0985 25290151
75290151 NOSIG=
METAR VCBI 110910Z 32008KT 9999 SCT016 31/22  Q1009 NOSIG=
0000017800
061
SIOM20 OOMS 110900 RRD
AAXX 11094
41252 36/// /2704 10221 20084 39820 40185
333 0E016 58001 =
41257 36/// /0404 10211 20015 39719 40213
333 0E011 59012  =
0000013400
062
SAME31 OEJD 110900 RRA
METAR OSDI 110900Z 00000KT 4000 BR 07/05 Q1024=
METAR OSLK 110900Z 20004KT CAVOK 18/02 Q1023=
0000066700
063
SICI23 BABJ 110900
AAXX 11091
50136 NIL=
50745 NIL=
50774 NIL=
50788 NIL=
51133 NIL=
51431 NIL=
51747 NIL=
52203 NIL=
52418 32980 01401 11026 21203 40452 57008 333 00551=
52681 32980 13206 11017 21217 40423 52008 81/// 333 00602=
53564 NIL=
53614 NIL=
53646 NIL=
53798 NIL=
53845 NIL=
53959 31956 72202 10055 21129 40318 57009 70500 87///=
54094 NIL=
54102 NIL=
54161 NIL=
54292 NIL=
54374 NIL=
54423 NIL=
54618 NIL=
54843 41943 01401 10038 21059 40294 57009 70500=
54909 41957 31802 10067 21063 40291 57010 70500 83///=
56029 33/// 92201 11027 21151 36424 57020 333 00353=
57127 NIL=
57131 NIL=
0000190500
064
UDEU02 EGRR 110921 RRA
AMDAR 1109
ASC EU7011   5008N 01948E 110901 F017 PS025 253/020 TB/ S031=
ASC EU7011   5008N 01946E 110901 F025 PS005 247/023 TB/ S031=
ASC EU7011   5008N 01943E 110901 F030 MS010 247/027 TB/ S031=
ASC EU7011   5008N 01941E 110901 F036 MS017 270/024 TB/ S031=
ASC EU7011   5008N 01939E 110901 F043 MS035 260/023 TB/ S031=
ASC EU7011   5009N 01937E 110901 F052 MS055 262/019 TB/ S031=
ASC EU7011   5009N 01935E 110901 F063 MS077 281/016 TB/ S031=
ASC EU7011   5009N 01933E 110901 F076 MS102 304/020 TB/ S031=
ASC EU7011   5009N 01931E 110901 F087 MS090 311/024 TB/ S031=
ASC EU7011   5010N 01928E 110901 F107 MS080 299/027 TB/ S031=
ASC EU7011   5011N 01923E 110902 F119 MS105 293/034 TB/ S031=
ASC EU7011   5012N 01918E 110902 F139 MS130 294/035 TB/ S031=
ASC EU7011   5013N 01913E 110902 F153 MS145 293/031 TB/ S031=
ASC EU7011   5014N 01908E 110903 F174 MS190 277/041 TB/ S031=
ASC EU7011   5015N 01903E 110903 F190 MS232 271/044 TB/ S031=
ASC EU7011   5016N 01857E 110903 F205 MS267 270/045 TB/ S031=
ASC EU7011   5017N 01852E 110904 F218 MS300 271/042 TB/ S031=
ASC EU7011   5018N 01846E 110904 F230 MS330 269/041 TB/ S031=
ASC EU7011   5019N 01840E 110904 F243 MS362 276/041 TB/ S031=
ASC EU7011   5021N 01834E 110905 F256 MS390 280/045 TB/ S031=
ASC EU7011   5023N 01829E 110905 F270 MS422 289/053 TB/ S031=
ASC EU7011   5025N 01823E 110905 F279 MS445 283/052 TB/ S031=
ASC EU7011   5027N 01817E 110906 F288 MS470 284/050 TB/ S031=
ASC EU7011   5029N 01811E 110906 F297 MS490 284/052 TB/ S031=
ASC EU7011   5031N 01805E 110906 F304 MS507 284/047 TB/ S031=
ASC EU7011   5033N 01759E 110907 F311 MS522 278/045 TB/ S031=
ASC EU7011   5035N 01753E 110907 F319 MS542 274/049 TB/ S031=
ASC EU7011   5037N 01747E 110907 F330 MS567 272/052 TB/ S031=
ASC EU7011   5039N 01741E 110908 F336 MS580 267/045 TB/ S031=
0000097500
065
UDAS02 BABJ 110907
AMDAR 1109
ASC CNFLWM 2633N 10648E 110904 F035 PS020 049/001 TB/ S//1=
ASC CNFLWR 3050N 12019E 110856 F295 MS343 261/123 TB/ S//1=
ASC CNFLWR 3036N 12010E 110859 F326 MS373 260/144 TB/ S//1=
LVR CNFLWR 3021N 11959E 110902 F341 MS398 261/150 TB/ S//1=
LVR CNFLWR 3006N 11949E 110905 F341 MS395 264/147 TB/ S//1=
ASC CNFLWM 2634N 10648E 110904 F048 PS005 030/008 TB/ S//1=
ASC CNFLWM 2634N 10648E 110905 F049 PS000 041/008 TB/ S//1=
ASC CNFLWM 2635N 10649E 110905 F052 MS008 061/009 TB/ S//1=
ASC CNFOZN 3615N 12023E 110905 F000 PS020 174/000 TB/ S//1=
ASC CNFOZN 3614N 12023E 110905 F009 MS006 233/004 TB/ S//1=
ASC CNFOZN 3613N 12023E 110905 F012 MS014 239/005 TB/ S//1=
DES CNFLWT 3303N 11835E 110904 F230 MS300 277/057 TB/ S//1=
DES CNFLWT 3258N 11834E 110904 F217 MS266 267/052 TB/ S//1=
DES CNFLWT 3257N 11834E 110905 F212 MS250 266/053 TB/ S//1=
DES CNFLWT 3250N 11833E 110906 F201 MS220 272/050 TB/ S//1=
00000000