0000025900
426
SALJ31 LJLJ 110000
METAR LJLJ 110000Z 27002KT 9999 SCT030 BKN050 06/05 Q1020 NOSIG=
METAR LJMB 110000Z AUTO 24004KT 3800 R32/1900 BR VV004 03/03 Q1021=
METAR LJPZ 110000Z AUTO 00000KT 3700 BR FEW004/// BKN018///
OVC050/// 09/09 Q1022=

0000012900
427
SACN62 CYEG 110000
METAR CYEG 110000Z 31009KT 15SM FEW051 SCT150 BKN260 M03/M08 A2957
 RMK SC1AC2CI3 SLP059=

0000009600
428
SALJ32 LJLJ 110000
METAR LJCE 110000Z AUTO 00000KT 0250 FG VV001 03/03 Q1021=

0000012000
429
SACN61 CYDN 110000
METAR CYDN 110000Z AUTO 29010KT 9SM -SN FEW022 OVC048 M06/M08 A2944
 RMK SLP993=

0000010300
430
SACN61 CYDQ 110000
METAR CYDQ 110000Z AUTO 26007KT 9SM CLR M03/M09 A2952 RMK SLP040=

0000010600
431
SACN62 CYGP 110000
METAR CYGP 110000Z 27008KT 15SM BKN230 M07/M14 A3013 RMK CS5 SLP207=

0000022800
432
SAFR21 LFPW 110000
METAR LFOA 110000Z AUTO 09007KT 9999 NSC 06/04 Q1015=
METAR LFPC 110000Z AUTO 00000KT 0300 R25/1600D FG VV/// 04/03 Q1017=
METAR LFPV 110000Z AUTO VRB02KT 2700 -DZ BR OVC002 05/05 Q1017=

0000052800
433
SAFR22 LFPW 110000
METAR LFBC 110000Z AUTO 25002KT 5000 BR BKN014 07/07 Q1015=
METAR LFBG 110000Z AUTO 12003KT 4000 BR NSC 08/07 Q1015=
METAR LFBM 110000Z AUTO 29003KT 0300 R27/1200U FG BKN010 05/05
Q1016=
METAR LFBY 110000Z AUTO 27008KT 220V300 9999 // OVC015/// 11/10
Q1016=
METAR LFKS 110000Z AUTO 26003KT 230V300 9999 BKN023 OVC030 13/08
Q1021=
METAR LFMO 110000Z AUTO VRB01KT 3900 BR OVC027 08/07 Q1020=
METAR LFMY 110000Z AUTO 15002KT 9999 OVC026 11/08 Q1020=
METAR LFMC 110000Z NIL=

0000039200
434
SAFR23 LFPW 110000
METAR LFOC 110000Z AUTO 05004KT 010V080 0300 R28/2000U FG OVC002
06/05 Q1016=
METAR LFOE 110000Z AUTO 12003KT 3300 BR OVC003/// ///TCU 05/05
Q1016=
METAR LFOJ 110000Z AUTO 07004KT 2900 BR NSC 05/05 Q1016=
METAR LFRJ 110000Z AUTO 20005KT 4700 BR NSC 07/06 Q1015=
METAR LFRL 110000Z AUTO 18005KT 0450 R23/1800N R05/1300U // VV///
08/07 Q1015=

0000024000
435
FTUS80 KWBC 110006 AAA
TAF AMD
KABI 110004Z 1100/1124 28006KT P6SM SKC
     FM111900 24006KT P6SM SKC=
KRVS 110004Z 1100/1124 28003KT P6SM SCT250
     FM110200 26007KT P6SM SCT250
     FM111800 30008KT P6SM SKC=

0000020000
436
FTUS80 KWBC 110006
TAF
TAF AMD PASC 102359Z 1100/1124 25013KT 4SM -SN BR SCT020 BKN030
      TEMPO 1100/1102 2SM -SN BR BKN017
     FM110200 25018KT 3SM BR BLSN BKN017 OVC035=

0000052500
437
SAMS31 WMKK 110030
METAR WBGG 110030Z 17002KT 7000 FEW001 SCT018 BKN150 23/23 Q1012
NOSIG=
METAR WBKK 110030Z 11004KT 9999 FEW015 SCT140 BKN270 26/23 Q1012
NOSIG=
METAR WBSB 110030Z 22003KT 9999 FEW015 FEW016CB BKN280 26/25 Q1013
NOSIG=
METAR WMKK 110030Z 05004KT 020V080 9999 FEW017CB BKN280 25/23 Q1012
NOSIG=
METAR WMKP 110030Z 03007KT 8000 FEW020 SCT024 BKN140 25/23 Q1012
NOSIG=
METAR WSSL 110030Z NIL=
METAR WSSS 110030Z VRB03KT 9999 FEW018 FEW020TCU BKN300 26/23 Q1012
NOSIG=

0000011100
438
SPCN41 CWAO 110036
SPECI CZMT 110036Z 11003KT 15SM -RA BKN009 BKN024 OVC030 RMK
SC4SC2SC1=

0000064500
439
SARA32 RUMS 110030
METAR UHBB 110030Z 25002MPS CAVOK M32/M35 Q1023 NOSIG RMK QFE749/0999
36410160=
METAR UHHH 110030Z 25009G12MPS 9999 DRSN SKC M25/M31 Q1019 NOSIG RMK
QFE758/1010 23090060=
METAR UHMA 110030Z NIL=
METAR UHMD 110030Z NIL=
METAR UHMM 110030Z 03006MPS 9999 DRSN FEW066 M17/M28 Q1007 NOSIG RMK
QFE741 88820555=
METAR UHPP 110030Z 31005MPS 9999 BKN030 BKN100 M04/M14 Q0994 NOSIG
RMK MT OBSC QFE742/0989 SC05 055 055=
METAR UHSS 110030Z 01002MPS 5000 FU SCT040 M20/M22 Q1013 NOSIG RMK
QFE759/1012 01810366=
METAR UHWW 110030Z VRB01MPS 9999 SKC M21/M24 Q1027 NOSIG RMK
QFE769/1026 25CLRD70=

0000097800
440
SARA34 RUMS 110030
METAR UNAA 110030Z VRB02MPS 9999 SCT040 OVC093 M04/M08 Q1030 NOSIG
RMK QFE750 20090040=
METAR UNBB 110030Z 21005MPS 9999 -SN BKN031 M09/M11 Q1030 NOSIG RMK
QFE750/1000 24452045=
METAR UNEE 110030Z 20006MPS 1800 SN OVC007 M07/M08 Q1027 NOSIG RMK
QFE747 23452045=
METAR UNKL 110030Z 21003G06MPS 190V280 9000 -SHSN SCT033CB OVC083
M07/M11 Q1026 NOSIG RMK QFE744 29////50=
METAR UNNT 110030Z 21005MPS 9000 DRSN BKN018 OVC047CB M07/M10 Q1028
25390139 16390136 NOSIG RMK QFE761/1014=
METAR UNOO 110030Z 19004MPS 6000 -SHSN BKN033CB M07/M09 Q1022
25390137 NOSIG RMK QFE758=
METAR UNTT 110030Z 22007MPS 2700 -SHSN SCT006 SCT018CB OVC066 M07/M09
Q1024 NOSIG RMK QFE753 21390032=
METAR USTR 110030Z 18005G08MPS 9999 -SHSN SCT011CB OVC030 M05/M06
Q1012 TEMPO 1500 SHSN BKN005 RMK QFE749/0999 21390050 12750029=
METAR USHH 110030Z 02003MPS 9999 -SN BKN007 OVC080 M22/M25 Q1016
TEMPO 2000 SN BKN005 RMK QFE758 06////50=

0000012300
441
SARA31 RUMS 110030
METAR UEEE 110030Z 24002MPS 3200 BR OVC200 M44/M48 Q1035 NOSIG RMK
QFE767 23490145=

0000080200
442
SARS35 RUMS 110030
METAR USPP 110030Z 18002MPS 9999 BKN008 M05/M06 Q1007 21350139 NOSIG
RMK QFE745/0993=
METAR UWKD 110030Z 17009G12MPS 2700 BR OVC002 M00/M00 Q1001
R11/2/0050 TEMPO 1500 OVC002 RMK QBB080 QFE741/0988=
METAR UWKE 110030Z 18003MPS 5000 BR OVC003 M05/M05 Q1005 NOSIG RMK
 QBB100 QFE737/0982 21420542=
METAR UWKS 110030Z 15008MPS 6000 -SHSN OVC004CB M00/M01 Q0997 NOSIG
RMK QBB120 QFE734 24590534=
METAR UWLW 110030Z NIL=
METAR UWOR 110030Z NIL=
METAR UWOO 110030Z 18002MPS 0350 R08/0900N FZFG VV002 M01/M01 Q1009
08590332 NOSIG RMK QBB060 QFE746/0995=
METAR UWSS 110030Z 18007G10MPS 0300 R12/0800 FG 00/00 Q1004 1219//55
NOSIG RMK FE741=
METAR UWWW 110030Z 19005MPS 9999 OVC005 M00/M01 Q1005 23520540
33//99// TEMPO OVC004 RMK QFE743/0990=

0000024400
443
SARS31 RUMS 110030
METAR ULWC 110030Z NIL=
METAR UUBP 110030Z NIL=
METAR UUOB 110030Z NIL=
METAR UUOK 110030Z NIL=
METAR UWGG 110030Z 17006MPS 4800 -SN OVC007 01/01 Q0990 TEMPO 1000
SHSNRA VV004 18690540 RMK QFE736=

0000079600
444
SARS32 RUMS 110030
METAR URKA 110030Z NIL=
METAR URKK 110030Z 21005G08MPS CAVOK 08/01 Q1009 TEMPO 22010G15MPS
RMK QFE754 SC065=
METAR URML 110030Z NIL=
METAR URMM 110030Z 32002MPS 7000 SCT160 M05/M05 Q1011 30CLRD70 NOSIG
RMK QFE730/0973=
METAR URMN 110030Z NIL=
METAR URMO 110030Z NIL=
METAR URMT 110030Z 20003MPS CAVOK 01/M02 Q1009 NOSIG RMK QFE718
SC0.60=
METAR URRR 110030Z 22008G12MPS 9999 -SHRA BKN011 SCT026CB OVC100
06/05 Q1006 22290045 NOSIG=
METAR URSS 110030Z 05005MPS 9999 BKN230 04/M02 Q1016 NOSIG RMK
R06/08003MPS QFE760 02000070 06//////=
METAR URWA 110030Z 20003MPS 9999 OVC036 01/M01 Q1014 NOSIG RMK
QFE763/1017 SC055=
METAR URWI 110030Z NIL=
METAR URWW 110030Z 20008MPS 9999 -RA BKN020 OVC100 03/02 Q1006 NOSIG
RMK 29290060=

0000048900
445
SARS33 RUMS 110030
METAR ULLI 110030Z 33007G12MPS 9999 -SN BKN016 OVC066 M02/M04 Q0987
28550540 78////// NOSIG=
METAR UUBW 110030Z 21005MPS 9999 OVC012 04/02 Q0987 NOSIG=
METAR UUDD 110030Z 23004MPS 200V260 9999 OVC018 03/02 Q0987 64290195
NOSIG=
METAR UUDL 110030Z NIL=
METAR UUEE 110030Z 19004MPS 9999 OVC009 03/02 Q0985 75290151 25290151
NOSIG=
METAR UUWW 110030Z 21004MPS 9999 -RA BKN011 OVC020 02/02 Q0986
24290045 NOSIG=
METAR UUMO 110030Z NIL=

00000000