0000018500
866
SACY31 LCLK 110900
METAR LCLK 110900Z 20008KT 170V240 9999 FEW025 18/06 Q1023 NOSIG=
METAR LCPH 110900Z 20003KT 160V250 9999 BKN029 17/10 Q1023=
METAR LCNC 110900Z NIL=

0000009800
867
SIIN90 VICH 110900
AAXX 11094
42101 32996 03203 10182 20071 40182
  333 58025=
0000012200
868
SIIN90 VOMP 110900
AAXX 11094
43185 32597 51606 10278 20192 30128 40131 83531
  333 58005 83620 84360=
0000018700
869
SIIN90 VECC 110900
AAXX 11094
42812 32996 03601 10252 20157 40149
  333 58002=
43333 31495 60708 10290 20232 40114 70511 84401
  333 56309 58010 82618 83820 85070=
0000018100
870
UAPF01 NTAA 110900
AIREP
THT482  2425S 15757W 0829 F380 MS48 142/017=
THT482  2310S 15623W 0842 F379 MS48 149/019=
THT482  2156S 15451W 0856 F380 MS48 135/025=
0000011100
871
UANT99 KDDL 110901
ARP UPS218 5106N02553W 0900 F300 MS53 191/79 KT
N360UP QXT IGW 110901 F24A
0000031600
872
SISM20 SMJP 110900
AAXX 11094
81225 41370 60904 1022820219 40122 72522 83832
  333 56199 58006 81808 83645 85358=
81200 42470 70000 10234 20228 40120 84852
  333 56299 58003 82812 83625 85358=
81202 42470 30710 10256 20227 40127 83802
  333 56209 58008 83815=
81209 NIL=
81251 NIL=

0000012700
873
SICS01 MROC 110900
AAXX 11094
78762 32970 00905 10194 20137 39114 40094 57013 
333   30/// 58004=



0000011600
874
SICS01 MROC 110900
AAXX 11094
78762 32970 00905 10194 20137 39114 40094 57013
333   30/// 58004=
0000128500
875
UDAS02 BABJ 110852
AMDAR 1108
ASC CNFNXP 2255N 11413E 110848 F118 PS030 268/024 TB/ S//1=
ASC CNFNXP 2258N 11416E 110849 F118 PS030 262/022 TB/ S//1=
ASC CNFNXP 2301N 11418E 110849 F130 PS010 267/023 TB/ S//1=
ASC CNFNXP 2303N 11421E 110850 F146 MS014 263/035 TB/ S//1=
ASC CNFPQL 3646N 11840E 110849 F206 MS304 276/063 TB/ S//1=
ASC CNFPQL 3646N 11845E 110849 F212 MS315 276/066 TB/ S//1=
ASC CNFPQL 3646N 11850E 110850 F218 MS333 275/067 TB/ S//1=
ASC CNFPQL 3646N 11856E 110850 F224 MS348 276/071 TB/ S//1=
LVR CNFLWQ 2502N 11003E 110842 F291 MS290 263/094 TB/ S//1=
LVR CNFLWQ 2447N 11026E 110845 F291 MS290 255/088 TB/ S//1=
LVR CNFLWQ 2432N 11048E 110848 F291 MS295 257/082 TB/ S//1=
LVR CNFLWQ 2416N 11108E 110851 F291 MS298 259/079 TB/ S//1=
DES CNFPQK 3730N 12128E 110849 F018 MS018 242/007 TB/ S//1=
DES CNFPQK 3728N 12126E 110850 F010 PS003 237/011 TB/ S//1=
DES CNFPQK 3727N 12125E 110850 F008 PS008 229/012 TB/ S//1=
DES CNFPQK 3726N 12124E 110851 F002 PS020 217/012 TB/ S//1=
ASC CNFLWR 3100N 12051E 110850 F186 MS168 275/046 TB/ S//1=
ASC CNFLWR 3059N 12048E 110850 F199 MS203 283/043 TB/ S//1=
ASC CNFLWR 3059N 12046E 110851 F204 MS218 285/044 TB/ S//1=
ASC CNFLWR 3058N 12044E 110851 F210 MS229 294/047 TB/ S//1=
0000217100
876
SZNZ01 NZKL 110903
CREX++
T000103 A001 D01021 D06025++
-3683144 17478654 AUCT  2014 01 11 08 55 //// 11 07 00 01
04074 3191 04070 3191 04067 3192 04067 3195 04059 3191 04055 3190+
-4402404 -17636748 CHIT  2014 01 11 08 55 //// 11 07 00 01
04449 1957 04452 1957 04450 1952 04435 1934 04432 1928 04440 1933+
-4089929 17623168 CPIT  2014 01 11 08 55 //// 11 07 00 01
03323 2307 03328 2309 03330 2308 03325 2301 03326 2299 03327 2297+
-3618905 17548887 GBIT  2014 01 11 08 55 //// 11 07 00 01
05032 -0015 05025 -0021 05015 -0029 05012 -0031 05014 -0027 05015 -0024+
-3867541 17802288 GIST  2014 01 11 08 55 //// 11 07 00 01
03338 2746 03344 2751 03347 2753 03358 2762 03351 2754 03349 2750+
-4241288 17370277 KAIT  2014 01 11 08 55 //// 11 07 00 01
02798 2202 02808 2208 02803 2199 02820 2212 02815 2204 02834 2218+
-3755040 17815904 LOTT  2014 01 11 08 55 //// 11 07 00 01
02723 0179 02732 0188 02715 0172 02731 0188 02716 0173 02720 0177+
-3704657 17451175 MNKT  2014 01 11 08 55 //// 11 07 00 01
02937 -0139 02946 -0123 02929 -0134 02928 -0129 02935 -0115 02915 -0128+
-3947566 17692007 NAPT  2014 01 11 08 55 //// 11 07 00 01
02370 2048 02366 2042 02387 2061 02376 2047 02391 2060 02412 2079+
-3441483 17304870 NCPT  2014 01 11 08 55 //// 11 07 00 01
-03097 -6856 -03165 -6921 -03202 -6954 -03134 -6882 -03195 -6939 -03035 -6775+
-4581435 17062939 OTAT  2014 01 11 08 55 //// 11 07 00 01
04289 3412 04293 3410 04297 3408 04306 3410 04311 3409 04317 3409+
-2928002 -17789440 RBCT  2014 01 11 08 55 //// 11 07 00 01
05532 2047 05517 2033 05488 2005 05511 2029 05522 2041 05524 2045+
-2925114 -17790384 RFRT  2014 01 11 08 55 //// 11 07 00 01
02426 0222 02397 0194 02390 0189 02415 0215 02401 0202 02419 0221+
-4357010 17277383 SUMT  2014 01 11 08 55 //// 11 07 00 01
01415 1862 01434 1876 01428 1864 01452 1883 01458 1883 01451 1870+
-3764109 17618118 TAUT  2014 01 11 08 55 //// 11 07 00 01
04343 3971 04348 3978 04347 3979 04339 3973 04342 3977 04342 3979+
-4128448 17477985 WLGT  2014 01 11 08 55 //// 11 07 00 01
02762 2060 02756 2050 02758 2049 02756 2044 02765 2050 02765 2046++
7777
0000010400
877
SMKN01 HKNC 110600 RRJ
AAXX 11064
63714 32980 00000 10162 20098 48531 333 20089 58012=
0000034300
878
SAUK39 EGRR 110850 RRA
METAR EGDR 110850Z 35003KT 9999 FEW024 05/03 Q1019 BLU NOSIG=
METAR EGOW 110850Z 29016KT 9999 SHRA SCT015 BKN020 05/04 Q1015 WHT=
METAR EGQM 110850Z AUTO 26008KT 9999 FEW140/// 04/M01 Q1011=
METAR EGUY 110850Z 27012KT CAVOK 04/02 Q1016 BLU=
METAR EGWC 110850Z 00000KT 9999 FEW020 02/01 Q1016 BLU=
0000028900
879
SXHW11 KWAL 110902
B15997E8 011090233"
1,140111,08:00:02,10.0,45,19.0,22.9,1014.2,0.02,13.2,
1,140111,08:15:02,10.7,44,20.5,22.6,1014.0,0.02,13.2,
1,140111,08:30:02,9.5,44,17.4,22.7,1014.1,0.02,13.2,
1,140111,08:45:02,8.8,43,18.3,22.7,1014.0,0.02,13.2, 46+0NN  30W
0000029100
880
SXHW11 KWAL 110902
B159A272 011090243"
1,140111,07:59:52,10.9,71,16.5,22.6,1015.3,0.00,13.4,
1,140111,08:14:52,10.8,68,16.2,22.9,1015.1,0.00,13.3,
1,140111,08:29:52,10.5,75,15.3,22.7,1015.2,0.00,13.3,
1,140111,08:44:52,10.9,71,14.4,22.5,1015.1,0.00,13.3, 46+0NN  30W
0000136500
881
UDIO01 AMMC 110900
AMDAR 1109
LVR AU0078 3624S 07314E 110811 F360 MS486 199/070 TB0 S031
  333 F360 VG010=
LVR AU0078 3603S 07209E 110818 F360 MS480 203/064 TB0 S031
  333 F360 VG002=
LVR AU0078 3542S 07104E 110825 F360 MS482 199/070 TB0 S031
  333 F360 VG003=
LVR AU0078 3520S 06959E 110832 F360 MS487 194/076 TB0 S031
  333 F360 VG006=
LVR AU0078 3458S 06854E 110839 F360 MS485 191/066 TB0 S031
  333 F360 VG007=
LVR AU0078 3754S 07839E 110736 F340 MS468 218/086 TB0 S031
  333 F340 VG004=
LVR AU0078 3738S 07735E 110743 F340 MS465 213/084 TB0 S031
  333 F340 VG004=
LVR AU0078 3721S 07630E 110750 F340 MS458 207/080 TB0 S031
  333 F340 VG005=
LVR AU0078 3703S 07524E 110757 F340 MS454 202/078 TB0 S031
  333 F340 VG002=
LVR AU0078 3644S 07419E 110804 F340 MS445 203/077 TB0 S031
  333 F340 VG001=
LVR SG0016 0006S 10514E 110805 F300 MS308 038/018 TB0 S031
  333 F300 VG000=
LVR AU1014 0305S 10922E 110801 F320 MS352 098/004 TB0 S031
  333 F320 VG000=
LVR AU1014 0229S 10840E 110808 F320 MS360 091/013 TB0 S031
  333 F320 VG000=
LVR AU1014 0153S 10758E 110815 F320 MS356 068/005 TB0 S031
  333 F320 VG000=
LVR AU0058 0036S 10831E 110712 F340 MS403 052/005 TB0 S031
  333 F340 VG004=
LVR AU0058 0004S 10743E 110719 F340 MS402 044/007 TB0 S031
  333 F340 VG004=

0000045500
04538
0000009500
882
SIAA21 ENMI 110900
AAXX 11091
89504 43/// /0306 11024 21162 38458 49911 53005=
0000010200
883
SIRM20 LUKK 110900
AAXX 11091
33815 42997 62805 10079 21033 39984 40192 52009 84031=
0000027600
884
SSVX08 KARS 110901
ZZYY 13010 10014 1200/ 700000 000013 6112/
33311 88872 20001 32811 20020 32797 43447 20040 32284 43606
20060 31816 20080 31727 20100 31603 20120 31543 43564 20140 31505
20180 31441 20300 31039 20500 30713
444 20120 10014 1324/ 521//=
0000010800
885
UANT01 CWAO 110902
ARP THY6 5659N04011W 0902 F350 MS58 250/33 KT
TCJND QXT AOW 110902 J30A
00000000