0000011600
606
SPUS41 KWBC 110145
SPECI
KDOV 110140Z AUTO 01002KT 3/4SM R01/5000FT -DZ BR VV001 03/03
A3025=

0000010900
607
SPUS41 KWBC 110145
SPECI
KWRI 110135Z AUTO 03002KT 2SM R06/3000FT BR OVC003 02/02 A3027=

0000010500
608
SPUS42 KWBC 110145
SPECI
KSSI 110142Z AUTO 13008KT 3SM BR BKN003 OVC012 17/17 A3011=

0000009700
609
SPUS43 KWBC 110145
SPECI
KDET 110142Z 16005KT 4SM -RA BR OVC003 03/02 A2986=

0000156800
610
SPUS70 KWBC 110146
SPECI
KAEX 110142Z 16007KT 10SM OVC012 18/17 A2981 RMK AO2 RAB06E24
     P0000=
KAFN 110141Z AUTO 19004KT 7SM OVC004 00/M02 A3027 RMK AO2
     T00001017=
KBFD 110142Z AUTO 14008KT 1SM BR VV002 02/01 A3005 RMK AO2
     T00220011 TSNO=
KDET 110142Z 16005KT 4SM -RA BR OVC003 03/02 A2986 RMK AO2 RAB27
     P0001=
KGFL 110142Z AUTO 00000KT 6SM BR BKN018 BKN029 OVC037 M02/M04
     A3027 RMK AO2=
KIMT 110142Z AUTO 00000KT 1SM -SN BR VV015 M03/M03 A2958 RMK AO2
     P0001=
KJFK 110142Z 02004KT 1/2SM R04R/3000VP6000FT -RA BR SCT005 OVC010
     03/02 A3032 RMK AO2 SFC VIS 1 1/2 CIG 003 W P0002 $=
KOFP 110142Z AUTO 00000KT 2SM BR OVC003 04/03 A3023 RMK AO2 RAE11
     P0002 T00390033=
KSPB 110142Z AUTO 16007KT 10SM BKN029 BKN045 OVC090 10/08 A2996
     RMK AO2 RAB22E32 P0000 T01000078=
KSSI 110142Z AUTO 13008KT 3SM BR BKN003 OVC012 17/17 A3011 RMK AO2
     T01720172=
PAOH 110143Z AUTO 00000KT 2 1/2SM BR FEW004 BKN037 BKN047 00/00
     A2942 RMK AO2 TSNO BKN V SCT UPE22 P0000 $=
KADG 110143Z AUTO 18006KT 2SM -RA BR OVC002 02/02 A2982 RMK AO2
     P0003 TSNO=
KAVL 110143Z 20005KT 3SM BR OVC003 07/07 A3011 RMK AO2 RAB34E43
     P0000=
KDMO 110143Z AUTO 25008KT 10SM FEW007 BKN016 OVC029 09/08 A2956
     RMK AO2 T00890078=
KGKJ 110143Z AUTO VRB04KT 3/4SM BR VV002 04/03 A2996 RMK AO2
     PRESFR TSNO=
KGPT 110143Z 14008KT 1/4SM FG VV002 14/14 A2997 RMK AO2 T01440139
     RVRNO=
KLPR 110143Z AUTO 17010KT 5SM BR SCT007 BKN017 OVC090 06/04 A2988
     RMK AO2=

0000011800
611
SPCN31 CWAO 110144
SPECI CYHZ 110144Z 21013G19KT 15SM -SHSN OVC008 M01/M02 A3033 RMK SC8
 SLP279=

0000051600
612
SAYG31 LYBM 110200
METAR LYBE 110200Z 14007KT CAVOK 05/02 Q1023 NOSIG=
METAR LYBT 110200Z 16003KT 3000 BR NSC 02/02 Q1023 NOSIG=
METAR LYKV 110200Z 30002KT 9999 SCT040 04/01 Q1023 NOSIG=
METAR LYNI 110200Z 08003KT CAVOK 01/00 Q1024=
METAR LYPG 110200Z 32004KT 9999 FEW040 BKN100 08/07 Q1022 NOSIG=
METAR LYPR 110200Z NIL=
METAR LYTV 110200Z 00000KT 9999 FEW050 09/08 Q1022=
METAR LYUZ 110200Z 10004KT 9999 BKN020 04/03 Q1021=
METAR LYVR 110200Z VRB01KT 8000 NSC 02/M01 Q1023 NOSIG=

0000011200
613
SNVF25 LFPW 111100
BBXX
BAREU51 11114 99422 10100 46/// ///// 10150 29080 40229 52002
22276=
0000023200
614
SSVX08 KARS 111056
ZZYY 52004 10014 0000/ 305008 165171 6111/
33311 88870 20001 33066 20025 33001 20075 33033 20100 32928
20150 32662 20200 32047 20250 31393 20300 31040 20500 30819
444 20110 10014 0128/ 521//=
0000016000
615
SSVX12 KARS 111056
ZZYY 73634 11014 0930/ 365952 144470 6112/
11119 11010 49872 52006
22219 01019
444 20120 11014 0810/ 501// 80140 80000=
0000010900
616
UANT01 CWAO 111056
ARP BAW6B 5706N04531W 1056 F370 MS56 276/39 KT
GCIVS QXS UAK 111056 F47A
0000019600
617
SNAA19 LFVW 111100 RRA
AAXX 11114
89646 46/// /1305 11160 29080 37663 4//// 5////=
89659 46/// /3007 11208 29074 4//// 5////=
89666 46/// /1707 11025 29074 39805 4//// 5////=
0000096000
618
SSVX11 LFVW 111056
ZZYY 52082 11014 0800/ 102036 156019 6113/
33311 88872 20002 32963 43441 20025 32961 43444 20050 32975 43478
20075 32989 43522 20100 32948 43530 20300 31122 43479
444 20130 11014 0805/ 522//=
ZZYY 52088 11014 00004 302019 155959 6113/
11119 02909 10286 29078 40088
22219 00301
33311 88872 20000 33013 20002 33013 43508 20025 33015 43518
20050 33006 43543 20075 32986 20100 32943 43562 20125 32867 43563
20150 32776 43569 20200 31828 43544 20250 31137 43484
20300 31074 43477 20500 30826 43462 20750 30555 43452
444 20130 10014 2338/ 522// 60381=
ZZYY 52086 11014 04004 305036 156023 6113/
11119 02914 10267 40059
22219 00304
33311 88872 20000 33037 20002 33037 43478 20025 33039 43480
20050 33038 20075 32975 43514 20100 32961 20125 32805 43572
20150 32688 43595 20200 32363 43606 20250 31611 43531
20300 31149 43488 20500 30731 43453 20750 30573 43451
444 20130 11014 0436/ 522// 60381=
0000043300
619
UDEU02 EGRR 111059 RRB
AMDAR 1110
LVR EU0514   5127N 00920E 111016 F410 MS546 263/032 TB/ S031=
LVR EU0514   5037N 00859E 111023 F410 MS555 264/025 TB/ S031=
LVR EU0514   4948N 00838E 111030 F410 MS543 263/024 TB/ S031=
LVR EU0514   4859N 00818E 111037 F410 MS565 263/029 TB/ S031=
LVR EU0514   4811N 00756E 111044 F330 MS558 279/033 TB/ S031=
DES EU0514   4724N 00730E 111051 F309 MS511 263/028 TB/ S031=
0000068900
620
UDNT02 EGRR 111059 RRA
AMDAR 1109
LVR EU0332   5722N 03253W 110927 F330 MS597 211/054 TB0 S031=
LVR EU0332   5710N 03116W 110934 F330 MS615 212/059 TB0 S031=
LVR EU0332   5659N 02940W 110941 F330 MS632 220/078 TB0 S031=
LVR EU0332   5652N 02757W 110948 F330 MS617 220/077 TB0 S031=
LVR EU0332   5644N 02614W 110955 F330 MS607 225/086 TB0 S031=
LVR EU0332   5634N 02431W 111002 F330 MS602 226/088 TB0 S031=
LVR EU0332   5622N 02249W 111009 F330 MS610 229/093 TB0 S031=
LVR EU0332   5609N 02108W 111016 F330 MS622 231/093 TB0 S031=
LVR EU0332   5554N 01928W 111023 F330 MS622 237/089 TB0 S031=
LVR EU0332   5535N 01750W 111030 F330 MS620 245/083 TB0 S031=
0000003800
621
SAER50 OMAE 111050
NIL
0000043300
622
UDEU02 EGRR 111059 RRC
AMDAR 1110
LVR EU0056   4256N 00542W 111018 F390 MS605 306/015 TB/ S031=
LVR EU0056   4209N 00618W 111025 F390 MS602 320/015 TB/ S031=
LVR EU0056   4120N 00651W 111032 F390 MS595 328/019 TB/ S031=
LVR EU0056   4030N 00723W 111039 F390 MS577 335/014 TB/ S031=
LVR EU0056   3941N 00754W 111046 F390 MS575 331/020 TB/ S031=
LVR EU0056   3850N 00824W 111053 F390 MS552 325/025 TB/ S031=
0000021000
623
SZSR01 WSSS 111058
CREX++
T000103 A001 D01021 D06025++
0126166 10385160 00044 2014 01 11 10 18 //// 11 07 00 06
01775 -0025 01796 -0034 01812 -0048 01833 -0047 01866 -0044 01894 -0036++
7777
0000069700
624
UDEU02 EGRR 111059 RRD
AMDAR 1110
ASC EU0105   5212N 00447E 111041 F064 MS040 265/042 TB0 S031
333 F064 VG006=
ASC EU0105   5211N 00451E 111042 F078 MS070 259/049 TB0 S031
333 F078 VG007=
ASC EU0105   5211N 00455E 111042 F096 MS112 257/037 TB0 S031
333 F096 VG007=
ASC EU0105   5210N 00502E 111043 F114 MS127 255/045 TB0 S031
333 F114 VG013=
ASC EU0105   5209N 00508E 111044 F137 MS157 260/047 TB0 S031
333 F137 VG010=
ASC EU0105   5208N 00517E 111045 F157 MS205 259/049 TB0 S031
333 F157 VG002=
LVR EU0105   5203N 00600E 111048 F260 MS424 247/066 TB0 S031
333 F260 VG001=
LVR EU0105   5152N 00729E 111055 F381 MS535 249/050 TB0 S031
333 F381 VG003=
0000008000
625
SAYE20 OYAT 111100
METAR OYAT 111100Z 12022KT CAVOK 24/05 Q1018=
00000000