0000011100
346
UANT01 CWAO 111104
ARP AAL291 5505N02311W 1103 F360 MS58 226/68 KT
N190AA DDL XXN 111104 F56A
0000010900
347
UANT01 CWAO 111103
ARP DHK964 6127N05143W 1103 F320 MS56 265/8 KT
GDHLH DDL UAK 111103 F60A
0000011000
348
UANT01 CWAO 111104
ARP BAW117 5306N02326W 1103 F360 MS62 208/71 KT
GBNLN QXT AOE 111104 F67A
0000011000
349
UANT01 CWAO 111104
ARP BAW242 5606N03503W 1104 F370 MS55 214/28 KT
GCIVK QXT AOW 111104 F20A
0000072000
350
SSVX08 KARS 111104
ZZYY 52007 10014 1200/ 308031 164802 6112/
33311 88872 20001 33060 43420 20025 32988 43453 20050 32895 43493
20075 32764 20100 32729 20125 32589 20150 32479 20200 32075
20250 31633 20300 31285 20500 30764
444 20120 10014 1053/ 521//=
ZZYY 52007 11014 10004 308028 164800 6111/
11119 02203 10295 29077
22219 00308
444 20110 11014 0945/ 521// 60401=
ZZYY 52004 10014 0000/ 305008 165171 6111/
33311 88870 20001 33066 20025 33001 20075 33033 20100 32928
20150 32662 20200 32047 20250 31393 20300 31040 20500 30819
444 20110 10014 0128/ 521//=
ZZYY 52004 11014 10004 305006 165167 6112/
11119 02706 10299 29074
22219 00306
444 20120 11014 0945/ 521// 60401=
0000011100
351
UANT01 CWAO 111104
ARP BER7000 5001N01950W 1104 F360 MS62 210/87 KT
DABXB QXT AOE 111104 J20A
0000015700
352
SSVX13 LFPW 111100
ZZYY 44747 11014 1100/ 758627 045340 6113/ 11119 49950 57008 22219
 00046 444 20130 11014 0958/ 50101 80154 80000 9/015=
0000014000
353
SNDL21 EDZW 111100 RRA
AAXX 11111
10004 46/59 /3110 10072 20058 30077 40077 53004
222// 00080
  333 55300 91117 91211=
0000013200
354
SNDL22 EDZW 111100 RRA
AAXX 11111
10439 42458 71902 10035 20024 39944 40168 57002 84831
  333 83810 84640 86360=
0000043400
355
SNDL44 EDZW 111100 RRA
AAXX 11111
10033 41345 82308 10063 20053 30022 40063 57013 75866 877//
  333 87707 91117=
10037 46/47 /2310 10058 20046 30043 40074 5/013
  333 91113=
10038 41350 82206 10057 20043 30057 40079 57012 75866 886//
  333 87709=
10126 41245 82107 10052 20043 30078 40094 58013 75966 877//
  333 87706=
10136 41250 82208 10049 20041 30050 40090 58016 76166 887//
  333 87706 88710=
0000030500
356
SNDL45 EDZW 111100 RRA
AAXX 11111
10172 41356 82304 10053 20040 30028 40101 58012 72162 877//
  333 87708=
10238 42760 71904 10059 20016 30028 40123 58013 8153/
  333 81650 87361=
10304 46/56 /2106 10041 20024 30069 40120 5/007=
10306 46/// ///// 1//// 2//// 3//// 4//// 5////=
0000026000
357
SNDL46 EDZW 111100 RRA
AAXX 11111
10334 46/72 /2306 10056 20014 30046 40131 5/006=
10335 42780 72207 10059 20016 30041 40134 58008 82532
  333 82650 85360 86070=
10343 42975 52306 10067 20009 30064 40129 57011 84031
  333 84362 83074=
0000028000
358
SNDL47 EDZW 111100 RRA
AAXX 11111
10476 42780 42305 10065 20012 30023 40147 58009 82530
  333 82650 83363=
10502 42682 32505 10085 20037 30000 40163 51007 81531
  333 81640 83360=
10516 42465 81202 10035 20021 30061 40182 52006 878//
  333 82815 87635=
0000025400
359
SNDL48 EDZW 111100 RRA
AAXX 11111
10613 46/59 /2604 10038 20030 39598 40185 5/013=
10618 41662 72202 10030 20028 39728 40189 52008 72055 875//
  333 87645=
10743 41670 82302 10023 20007 39614 40190 52007 76066 885//
  333 88640=
0000051000
360
SNDL49 EDZW 111100 RRA
AAXX 11111
10771 41230 70502 11002 21003 39682 40200 57008 71022 876//
  333 87704=
10837 42958 72702 10033 20021 39534 40198 53007 86031
  333 86359 83072=
10853 41117 72002 11004 21005 39725 40205 57002 74022 876//
  333 87702=
10856 46/68 /2202 10053 20020 39516 40189 5/001=
10857 42989 62601 10068 20031 39443 40184 53002 84038
  333 84359 85271=
10860 46/56 /9901 10009 20007 39748 40199 5/004=
10954 46/// /9901 10050 20038 39291 48477 5/000=
0000154600
361
SNIY20 LIIB 111100
AAXX 11114
16008 42560 71404 10022 21020 38552 48510 53002 87700 333 87720
      92865=
16088 41425 82701 10082 20071 30108 40227 50002 71022 8723/ 333 82715
      85645=
16110 41396 81601 10092 20075 30223 40227 51003 71022 8468/ 333 55300
      84709 86356 555 0000/=
16134 42684 72724 10042 21022 37853 48526 50003 87070 333 55300 83440
      84350 92845 95180 444 46165=
16153 42598 80105 10128 20077 39952 40216 53001 8653/ 333 55300 86630
      555 0213/=
16206 42980 50405 10116 20069 30225 40234 51005 80001=
16219 42765 63005 10044 20000 38166 48548 51007 86030 333 55305 86356
      95140=
16280 42597 80102 10124 20106 30001 40224 51008 885// 333 55300 88630
      555 0100/=
16310 42897 70302 10144 20121 30002 40223 51011 87070 333 55301 82357
      85458 555 0100/=
16360 42597 61105 10144 20110 30092 40226 58001 83231 333 55309 83820
      84357 555 0100/=
16400 42998 51209 10146 20112 39936 40225 50007 80009 333 55304 555
      0213/=
16420 42698 62209 10150 20094 30156 40222 50004 81536 333 55303 81633
      555 0215/=
16429 42972 31518 10182 20141 30200 40212 50003 82031 333 55310
      82360=
16470 42975 02017 10180 20137 39976 40209 51006 333 55310 22///
      95000=
16480 42597 51302 10192 20159 30167 40228 50007 82502 333 55310 82620
      555 0100/=
16522 42898 70103 10146 20086 39967 40210 51011 82038 333 55303 82358
      555 0200/=
16550 42598 81403 10146 20104 30051 40230 51010 8622/ 333 55300 86820
      84458 555 0200/=
0000016300
362
SSVX13 LFPW 111100
ZZYY 13593 11014 1100/ 738172 018524 6113/ 22219 00169 33300 88872
 20000 43624 444 20130 11014 1056/ 50101 80118 80027 9/015=
0000029400
363
SNQB50 LQSM 111100
AAXX 11111
14543 NIL=
14549 46/// /0000 10136 2//// 39810 40217 70000=
14554 41850 41103 10146 20062 39945 40218 71044 83041 333 83357=
14650 42660 52703 10080 20040 39131 48564 83206 333 83836 85282=
14657 46/// /1301 10119 21008 30219 40219 54005=
0000217100
364
SZNZ01 NZKL 111106
CREX++
T000103 A001 D01021 D06025++
-3683144 17478654 AUCT  2014 01 11 10 58 //// 11 07 00 01
04165 3228 04171 3229 04175 3229 04182 3230 04184 3228 04189 3228+
-4402404 -17636748 CHIT  2014 01 11 10 58 //// 11 07 00 01
04939 2000 04949 2006 04952 2005 04940 1990 04944 1989 04963 2005+
-4089929 17623168 CPIT  2014 01 11 10 58 //// 11 07 00 01
03901 2334 03884 2312 03886 2309 03900 2318 03901 2313 03914 2321+
-3618905 17548887 GBIT  2014 01 11 10 58 //// 11 07 00 01
05171 -0017 05179 -0013 05194 -0001 05198 -0001 05195 -0008 05193 -0014+
-3867541 17802288 GIST  2014 01 11 10 58 //// 11 07 00 01
03738 2731 03731 2719 03759 2742 03759 2737 03763 2735 03762 2730+
-4241288 17370277 KAIT  2014 01 11 10 58 //// 11 07 00 01
03463 2244 03463 2239 03484 2254 03495 2260 03497 2256 03512 2266+
-3755040 17815904 LOTT  2014 01 11 10 58 //// 11 07 00 01
03010 0208 03029 0223 03021 0210 03021 0206 03037 0218 03023 0199+
-3704657 17451175 MNKT  2014 01 11 10 58 //// 11 07 00 01
02088 -0163 02089 -0157 02068 -0172 02087 -0148 02068 -0161 02059 -0164+
-3947566 17692007 NAPT  2014 01 11 10 58 //// 11 07 00 01
02875 2033 02903 2056 02894 2042 02916 2058 02924 2061 02926 2058+
-3441483 17304870 NCPT  2014 01 11 10 58 //// 11 07 00 01
-04204 -7812 -04230 -7840 -04334 -7945 -04291 -7904 -04376 -7991 -04379 -7995+
-4581435 17062939 OTAT  2014 01 11 10 58 //// 11 07 00 01
05052 3419 05058 3420 05063 3420 05068 3420 05075 3422 05080 3422+
-2928002 -17789440 RBCT  2014 01 11 10 58 //// 11 07 00 01
05577 1995 05572 1987 05577 1990 05580 1990 05568 1976 05582 1986+
-2925114 -17790384 RFRT  2014 01 11 10 58 //// 11 07 00 01
02489 0176 02509 0193 02504 0185 02493 0171 02518 0194 02505 0178+
-4357010 17277383 SUMT  2014 01 11 10 58 //// 11 07 00 01
02261 1895 02275 1903 02290 1912 02280 1895 02291 1899 02304 1905+
-3764109 17618118 TAUT  2014 01 11 10 58 //// 11 07 00 01
04510 4037 04513 4037 04514 4035 04517 4034 04521 4034 04526 4037+
-4128448 17477985 WLGT  2014 01 11 10 58 //// 11 07 00 01
03294 2075 03290 2067 03286 2058 03287 2055 03293 2056 03299 2058++
7777
0000029100
365
SXHW11 KWAL 111105
B150314C 011110523"
1,140111,10:00:00,5.7,137,12.0,22.3,1015.3,0.07,13.7,
1,140111,10:15:00,5.5,133,10.8,22.6,1015.3,0.07,13.7,
1,140111,10:30:00,5.5,142,12.0,22.7,1015.1,0.07,13.7,
1,140111,10:45:00,4.8,140,10.8,22.7,1014.9,0.07,13.7, 47+0NN 210W
00000000