0000013600
854
SNVD17 CWVR 110800
BBXX
46205 11081 99542 71343 46/// /0716 10042 49782 57033
22200 00074 10808 70038 333 91221 =

0000013600
855
SNVD17 CWVR 110800
BBXX
46132 11081 99497 71279 46/// /2410 10090 49877 57003
22200 00078 10807 70037 333 91213 =

0000013600
856
SNVD17 CWVR 110800
BBXX
46206 11081 99488 71260 46/// /2510 10093 49910 57025
22200 00078 10809 70044 333 91212 =

0000011000
857
UANT99 KDDL 110833
ARP ACA854 6231N03703W 0833 F350 MS59 190/29 KT
CGHKW DDL KUS 110833 J83A
0000011000
858
UANT99 KDDL 110833
ARP DAL89 5511N01549W 0833 F330 MS60 266/55 KT
N172DZ QXT AOE 110833 F78A
0000011100
859
UANT99 KDDL 110833
ARP NAX7006 6010N01841W 0833 F410 MS49 355/40 KT
EILNB QXS REK 110833 L65A
0000222300
860
USKO01 RKSL 110600
TTAA  61061 47090 99024 04470 23002 00218 01478 23011 92837
04770 30506 85495 09968 27516 70986 13972 29535 50547 29166
28062 40703 37550 27092 30897 49167 27122 25016 51382 26637
20162 48183 27117 15349 52782 26620 10609 55981 27073 88289
50367 27124 88146 53981 26617 77247 26638 41417 31313 45708
80526=
TTAA  61061 47102 99010 00021 14005 00237 01132 13508 92854
05311 24009 85513 09320 26009 70993 14178 28534 50548 28956
27553 40705 37350 27081 30898 48983 26610 25017 50582 26130
20163 48983 27112 15351 51382 26605 10610 56581 26575 88284
51582 27117 88125 56381 26600 77244 26635 41918 31313 45708
80531=
TTAA  61061 47122 99024 01468 20502 00244 01163 23503 92859
06762 30511 85514 10903 29523 70006 12568 29026 50551 27156
27545 40710 34357 27080 30905 48742 26599 25026 49163 26628
20173 49166 26634 15361 52966 26624 10624 56165 26597 88299
48941 26600 77194 26639 41916 31313 52106 80509=
TTAA  61061 47138 99028 05465 25007 00230 01865 25511 92851
04159 28013 85512 08366 30521 70007 12986 30031 50552 23336
27063 40713 32356 26582 30909 43972 26124 25031 47983 26635
20178 48983 26658 15363 57580 26638 10617 58380 26582 88321
44957 26097 88250 48183 26635 88127 60979 26629 77206 26658
42409 31313 45708 80523=
TTAA  61061 47158 99029 05260 14004 00245 01659 31504 92866
04157 32011 85525 08958 32020 70034 10778 27519 50556 20757
26554 40717 31956 27071 30915 41372 26627 25037 46974 26631
20184 47180 26657 15370 59378 27154 10621 59378 27087 88240
48973 26628 88132 63376 26129 77156 26661 40234 31313 52108
80505=
TTAA  61061 47169 99020 04860 34003 00246 02263 34009 92868
03357 27006 85530 07561 30513 70035 10596 28018 50557 20558
27051 40718 31957 27068 30917 41585 27122 25039 45584 26130
20187 47983 26151 15373 58980 27156 10623 62779 26596 88125
63379 26619 77178 26166 41908 31313 45708 80606=
TTAA  61061 47185 99021 05459 36010 00241 01657 00514 92866
02345 33014 85537 04368 27022 70047 09187 26521 50560 21334
26560 40723 29362 27061 30924 38786 26612 25048 43585 26146
20196 49583 26151 15381 60180 27143 10628 67177 27101 88118
66378 27119 77220 26169 42818 31313 45708 80530=
0000066000
861
SAIR31 OIII 110830
METAR OIAW 110830Z 10006KT 7000 FEW025CB SCT030 OVC080 13/10
Q1018=
METAR OIFM 110830Z 25004KT 2000 BR SCT040 OVC100 01/M02 Q1019
      A3010=
METAR OIII 110830Z 00000KT 5000 HZ FEW040 OVC100 03/M06 Q1021
 A3015 TEMPO 4000 SN FEW035CB SCT030 BKN100=
METAR OIKB 110830Z 36006KT 6000 -RA FEW025CB SCT030 OVC080 15/08
Q1021 A3017=
METAR OIKK 110830Z NIL=
METAR OIMM 110830Z NIL=
METAR OISS 110830Z 00000KT 1500 BR FEW030CB SCT035 OVC080 02/00
Q1021 A3017 RESN=
METAR OITT 110830Z VRB02KT 6000 FEW035 BKN180 M05/M11 Q1022 A3019=
METAR OIZH 110830Z 13010KT 9999 FEW035 SCT090 BKN190 07/M07 Q1021
A3015=
0000044500
862
SAIR32 OIII 110830
METAR OIAA 110830Z NIL=
METAR OIBK 110830Z NIL=
METAR OICC 110830Z 12004KT 2000 SN FEW035CB SCT040 OVC070
 M01/M02 Q1020 A3012 TEMPO SN=
METAR OIGG 110830Z 00000KT 3000 BR SCT025 BKN090 09/07
Q1016=
METAR OIIE 110830Z NIL=
METAR OITR 110830Z 03004KT 2000 HZ SCT035 BKN170 M06/M09 Q1021=
METAR OIYY 110830Z 13004KT 5000 HZ FEW035 07/M02 Q1020=
METAR OAKN 110830Z NIL=
METAR OAKB 110830Z NIL=
0000011200
863
SAYE20 OYAA 110830
METAR OYAA 110800Z 13016KT 9999 SCT020 27/17 Q1017=
METAR OYSQ 110800Z NIL=
0000009200
864
SAIN90 VIGG 110830
METAR VIGG 110830Z 24004KT 5000 HZ FEW035 16/02 Q1019=

0000009300
865
SAIN90 VIDN 110830
METAR VIDN 110830Z 25006KT 6000 SCT030 BKN040 18/07 Q1017=
0000506200
866
SMIN55 VIDP 110600
AAXX 11063
38388 32998 00000 10016 21009 30151 40223 53004
  333 21058=
38392 32998 29901 11003 21036 30124 40230 52006 82030
  333 21070=
38507 32698 41304 10044 21023 30096 40200 57003 82501
  333 20020=
38511 32998 71301 10036 20018 30066 40209 58005 87030
  333 21038=
38545 32998 21302 10016 21058 30062 40241 53012 82080
  333 21042=
38647 32997 71104 10017 21008 30157 40200 57004 80006
  333 21025=
38656 32998 20000 10015 21047 30119 40231 52006 80002
  333 21048=
38687 32997 71806 10065 21066 30003 40240 53002 80001
  333 20000=
38763 32998 30802 11010 21026 30108 40217 57003 80001
  333 21036=
38774 32998 41101 10062 21038 30035 40233 53008 80001
  333 21005=
38799 32997 71805 10030 21031 30004 40240 52005 80003
  333 20007=
38806 32997 71607 10052 21049 39987 40251 53001 80002
  333 21009=
38880 32997 60702 10078 21060 39971 40228 51005 80001
  333 21009=
38886 32997 60000 10085 21060 30002 40231 53007 80008
  333 21004=
38895 32996 62103 10036 21034 39956 40252 52015 80006
  333 21028=
38911 32997 31609 10058 21022 39957 40256 53004 80001
  333 20005=
38915 32997 41009 10081 21094 39933 40260 53009 80001
  333 20018=
38974 32998 61602 10106 20002 39899 40232 53003 80002
  333 20023=
38987 32996 52502 10022 21038 39512 40274 52003 83072
  333 21030=
48001 32450 50000 10140 20124 40182 83520
  333 56110 58005=
48010 32058 00000 10230 20163 40178 70144
  333 58009=
48020 32258 30403 10245 20167 70122 83400
  333 56500=
48035 31958 02702 10242 20095 40137 70500
  333 58005=
48048 32958 00401 10246 20167 40170
  333 58010=
48071 31960 00503 10260 20203 40161 70500
  333 58005=
48080 32562 33103 10301 20223 40154 81836
  333 56999 58002=
48097 32957 21303 10310 20189 40153 70211 80006
  333 56009 58014=
48108 32996 50503 10330 20172 40145 80005
  333 56009 58010=
48110 31996 31304 10330 20206 40137 70511 80006
  333 56009 58010=
48112 32597 80403 10305 20230 40129 83876
  333 56199 58010=
48310 31558 12703 10271 20174 39696 40148 56033 70540 81100
  333 58003=
48325 31558 30000 10240 20176 39921 40166 57022 71042 82505
  333 58016=
48352 31559 11105 10280 20164 39962 40162 57034 70500 81101
  333 58000=
48380 31640 10701 10298 20187 30064 40158 57026 70500 81100
  333 58004=
48403 31958 60904 10291 20160 39957 40166 57019 70522 80006
  333 58020=
48430 31956 20805 10328 20191 30134 40141 57029 70500 80005
  333 58003=
48450 31956 00000 10320 20181 30112 40145 52002 70500
  333 58002=
48459 31958 10706 10326 20183 30125 40127 57033 70500 80001
  333 59002=
48465 31956 20710 10300 20193 30139 40143 57024 70500 80005
  333 58009=
51716 32963 01401 11041 21118 39067 40455 57004
  333 00551 21144=
51811 32962 01102 11030 21133 38935 40445 57001
  333 00551 21133=
51818 32965 02001 11020 21132 38773 40431 57002
  333 00500 21135=
55299 32880 72003 11068 21266 35823 57019 87///
  333 00154 21184=
55472 32780 72705 11068 21324 35707 57010 87///
  333 00054 21135=
55578 32780 71102 10008 21245 36357 57011 87///
  333 00053 21107=
55591 32667 72706 10034 21216 36495 57018 87///
  333 00153 21061=
56079 11780 83602 11051 21082 36667 57018 69951 77070 88///
  333 00555 21107=
56106 32780 82904 11026 21312 36189 57017 88///
  333 00255 21119=
56116 32680 83202 11012 21174 36317 57022 88///
  333 00252 21118=
56137 32680 73401 10068 21207 36770 57030 87///
  333 00251 21090=
56144 32780 51101 10057 21175 36828 57033 85///
  333 00251 21070=
56152 32680 62705 11003 21158 36276 57022 86///
  333 00353 21164=
56172 32680 12904 10099 21097 37294 57050 81///
  333 00301 21068=
56247 32967 00901 10117 21168 37388 57056
  333 00251 21019=
56257 32680 03403 10030 21228 36252 57019
  333 00251 21093=
56374 11580 30907 11001 21095 37415 57036 69911 70080 83///
  333 00502 21061=
56462 32680 01803 10118 21201 37099 57044
  333 00351 21060=
56651 32680 22504 10133 21074 37640 57025 82///
  333 00201 20049=
56691 11463 83201 11013 21021 37790 57027 69901 72466 88///
  333 00660 21036 93427=
56739 32580 12503 10169 20005 38335 57025 81///
  333 00101 20014=
56748 32973 02504 10179 21009 38372 57029
  333 00100 20026=
56768 32680 02507 10172 21041 38187 57028
  333 00200 20035=
56951 32980 03203 10216 21010 38522 57034
  333 00101 20048=
56954 32577 12202 10225 20086 40180 57039 81///
  333 00100 20052=
56985 32575 03404 10222 21032 38714 40132 57035
  333 00005 20113=
57832 31764 83602 10026 20007 40301 57028 70060 88///
  333 20014=
57853 11440 80401 10047 20038 40296 57029 69941 76066 88///
  333 20040=
57902 32570 80903 10035 20006 38672 40256 57032 88///
  333 00656 20022=
57916 32563 81101 10099 20045 40259 57036 88///
  333 20073=
57922 32568 83603 10037 20013 39075 40279 57029 88///
  333 20011=
57932 11358 80000 10066 20044 39931 40285 57033 69911 76060 88///
  333 20052=
0000016300
867
SSVX13 LFPW 110830
ZZYY 13593 11014 0830/ 738166 018515 6113/ 22219 00169 33300 88872
 20000 43624 444 20130 11014 0828/ 50101 80118 80023 9/015=
0000011100
868
UANT01 CWAO 110833
ARP RCH944 4513N04435W 0833 F330 MS58 319/48 KT
00221A DDL XXW 110833 F52A
0000011000
869
UANT01 CWAO 110833
ARP AFL152 5732N04254W 0833 F380 MS58 262/35 KT
VQBBG QXT AME 110833 J81A
0000066100
870
UDAF01 FAPR 110832
AMDAR 1108
LVR AFZA26 3001N 04404W 110741 F360 MS580 271/104 TB0 S031 333 F/// VG013=
LVR AFZA26 3021N 04447W 110749 F360 MS575 268/110 TB0 S031 333 F/// VG013=
LVR AFZA26 3040N 04531W 110756 F360 MS570 272/104 TB0 S031 333 F/// VG013=
LVR AFZA26 3100N 04615W 110803 F360 MS560 275/103 TB0 S031 333 F/// VG012=
LVR AFZA26 3119N 04659W 110810 F360 MS587 277/099 TB0 S031 333 F/// VG012=
LVR AFZA26 3137N 04744W 110817 F360 MS590 279/094 TB0 S031 333 F/// VG012=
LVR AFZA26 3156N 04829W 110824 F360 MS604 288/098 TB0 S031 333 F/// VG012=
LVR AFZA26 3214N 04913W 110831 F360 MS607 288/106 TB0 S031 333 F/// VG012=
0000066100
871
UDAF01 FAPR 110831
AMDAR 1108
LVR AFZA62 2506S 02633E 110815 F354 MS435 294/044 TB0 S031 333 F/// VG000=
LVR AFZA62 2540S 02720E 110822 F213 MS120 290/018 TB0 S031 333 F/// VG000=
DES AFZA62 2549S 02735E 110825 F184 MS070 307/012 TB0 S031 333 F/// VG000=
DES AFZA62 2554S 02744E 110826 F160 MS032 239/008 TB0 S031 333 F/// VG000=
DES AFZA62 2558S 02749E 110827 F139 MS011 278/022 TB0 S031 333 F/// VG000=
DES AFZA62 2602S 02753E 110828 F119 PS047 278/023 TB0 S031 333 F/// VG000=
DES AFZA62 2607S 02758E 110829 F104 PS092 283/013 TB0 S031 333 F/// VG000=
DES AFZA62 2609S 02800E 110830 F099 PS105 302/013 TB0 S031 333 F/// VG000=
0000066100
872
UDAF01 FAPR 110832
AMDAR 1108
ASC AFZA70 2604S 02816E 110829 F075 PS157 125/007 TB1 S031 333 F/// VG022=
ASC AFZA70 2603S 02817E 110830 F079 PS152 015/005 TB1 S031 333 F/// VG020=
ASC AFZA70 2602S 02818E 110830 F082 PS147 042/004 TB0 S031 333 F/// VG018=
ASC AFZA70 2602S 02818E 110830 F082 PS145 046/004 TB1 S031 333 F/// VG025=
ASC AFZA70 2601S 02820E 110830 F085 PS137 028/004 TB0 S031 333 F/// VG016=
ASC AFZA70 2600S 02822E 110831 F094 PS117 294/007 TB0 S031 333 F/// VG015=
ASC AFZA70 2557S 02828E 110832 F112 PS070 261/019 TB0 S031 333 F/// VG014=
ASC AFZA70 2554S 02831E 110833 F132 PS012 267/020 TB0 S031 333 F/// VG013=
0000028300
873
SNVD15 KWNB 110800 RRN
BBXX
41009 11081 99285 70802 46/// /1807 10241 20217 40183 90820 22200
00241 333 91208 555 11070 22075 30811 41708 60819 175066 174064
172061 173053 173055 169055=
42365 11081 99282 70891 46/// /2308 10224 20211 90830 555 11064
22068=
00000000