0000011300
394
SPIN90 VEGY 110730
METAR VEGY 110730Z 09007KT 1000 BR FEW010 BKN018 OVC080 17/16 Q1016 NOSIG =

0000010200
395
SAIN90 VARP 110800
METAR VARP 110800Z 26010KT 4000 HZ FEW030 SCT100 27/17 Q1015 NOSIG=
0000008400
396
SASA85 EGRR 110600 RRH
METAR SAVE 110600Z 23005KT CAVOK 09/04 Q1020=
0000166300
397
SASA85 EGRR 110800 RRB
METAR SADF 110800Z 16016G29KT CAVOK 19/11 Q1013=
METAR SBCB 110800Z 06009KT 9999 FEW015 SCT080 24/24 Q1013=
METAR SBFI 110800Z 10006KT CAVOK 24/22 Q1010=
METAR SBFZ 110800Z 10011KT 9999 SCT020 26/19 Q1011=
METAR SBGR 110800Z 00000KT CAVOK 19/17 Q1017=
METAR SBKP 110800Z 13006KT CAVOK 21/18 Q1016=
METAR SBMA 110800Z 29002KT CAVOK 22/22 Q1010=
METAR SBMO 110800Z 34003KT 9999 FEW020 21/20 Q1013=
METAR SBMQ 110800Z 03003KT 9999 FEW013 BKN080 24/23 Q1010=
METAR SBPL 110800Z 12008KT 9999 SCT020 24/19 Q1013=
METAR SBSN 110800Z 00000KT 9999 FEW017 BKN100 25/21 Q1010=
METAR SBTE 110800Z 32002KT 9999 SCT035 SCT070 24/23 Q1010=
METAR SBVT 110800Z 30001KT 9999 FEW015 23/21 Q1015=
METAR SEGU 110800Z 22008KT 9999 FEW012 BKN026 25/20 Q1009 RMK A2981
      NOSIG=
METAR SELT 110800Z 16003KT 3000 BCFG FEW005 BKN020 10/10 Q1027=
METAR SPCL 110800Z VRB02KT 9999 SCT020 BKN060 25/23 Q1010 RMK PP000=
METAR SPHI 110800Z 17007KT CAVOK 22/21 Q1010 RMK PP000=
METAR SPIM 110800Z 16009KT CAVOK 21/19 Q1010 NOSIG RMK BKN 17000FT
      PP000=
METAR SPQT 110800Z 22003KT 8000 FEW004 SCT040 OVC100 24/23 Q1009 NOSIG
      RMK PP000=
METAR SPQU 110800Z 05002KT 4000 BCFG SCT010 10/10 Q1023 RMK PP000=
METAR SPRU 110800Z 13004KT 7000 FEW010 20/18 Q1010 RMK BR PP000=
METAR SPSO 110800Z /////KT 9999 SCT100 21/19 Q1010 RMK PP000=
METAR SPTN 110800Z VRB01KT CAVOK 20/16 Q1009 RMK PP000=
METAR SPZO 110800Z 11003KT 9999 FEW020 SCT043 BKN070 09/07 Q1029 RMK
      PP000=
METAR SULS 110800Z 18016G26KT 9999 SCT013 OVC070 21/19 Q1010=
METAR SVMI 110800Z 00000KT 9999 FEW016 22/18 Q1013 NOSIG=
0000024100
398
SOAT10 KWAL 110803
FA8005BC 011080337 OT12 ID:KN-BASS-01 DT:2014 01 11 08 01
:RD -3105 -3126 -3125 -3122 -3153 -3125 -3118 -3127 -3127 -3143
:PR 0535 0537 0594 0610 0549 0523 0542 0578 0544 0518
:B 13.7V
 46+1NN 219E
0000018500
399
SNSQ51 LZIB 110800 CCA
AAXX 11081
11903 42775 40000 11006 21014 39835 40228 83501
  333 83650=
11993 41357 80000 10009 20003 30001 40224 71022 886//
  333 88707=
0000037900
400
SXXX32 EUMS 110754 RRX
12FD90D0
:PRS 1 /1 1353 1345 1355 1344 1365 1350 1358 1338 1351 1347 1356 1345 :RAD 1 /3 5918 5916 5914 5924 5943 /952 5950 5927 5909 5899 :ENC 3 /6 5649 5649 5692 5682 5650 5622 5598 5627 5596 5571 :RA2 3 /6 4802 4802 4846 4829 4800 4765 4739 4755 4714 4686 :SW1 54 /60 60 :SW2 24 /60 60 :BAT 5 /6 13.3 :WTP 5 /6 28.4 28.4 :NAME 12FD90D0
0000045300
401
SXXX32 EUMS 110754 RRX
224AD678
:PRS 2 /1 2011 2009 2007 2005 2003 1998 1989 1985 1986 1990 1987 1985 1974 1971 1969 1969 1967 1966 1964 1960 1950 1947 1948 1952 1952 1954 1951 1947 1944 1942 :RAD 4 /3 4811 4802 4797 4789 4781 4778 4771 4767 4762 4758 4758 4753 4746 4742 4740 4738 4734 4729 4721 4716 :ENC 4 /5 8350 8334 8321 8312 8299 8294 8289 8284 8273 8266 8265 8253 :SW1 54 /60 60 :SW2 24 /60 60 :BAT 14 /15 13.4 :NAME 224AD678 /
0000069900
402
SXXX32 EUMS 110754 RRX
229C0324
OT12 ID:MZ-NIH2-01 DT::014 01 11 07 44
:RID /1 06119 061:2 06132 06128 06133 06135 06147 06950 06152 86158 06168 06169 06178 06178 06196(06192 06198 06197 06205 06208 06209 06218 06221 06225 06228 06234 06235 06248 0/246 86256/
:PR9 /1 '////(///// ///// ///// ///// ///// ///// ///// //'// ///// '//// ////' ///// //'// ///// ///// ////' ///// ///// ///// '//// ///// ///'/ //'// ///// ///// ///// ///'/ ///// /'///
:PR2(/1 /'/// ///// ///// ///'/ ///// ///// ///// ///// ///'/ ///// ///// '//// ////' ///// ///// ///// '//// ///// ///// ///// /'/// ///// ///// ///// ///// ///// ///// ///// ///// //'//
:TM1 /15 /// //' /// ///
:BAT 13.7/
0000067100
403
SXXX32 EUMS 110755 RRX
366C76AC
OT12 ID:IR-CHAB-07 DT:2014 01 11 07 54
:RAD /1 00601 00601 00610 00611 00609 00613 00607 00599 00596 00600 00603 00602 00591 00594 00592 00571 00575 00573 00561 00560 00562 00555 00558 00552 00546 00540 00541 00534 00535 00535
:PR1 /1 01043 01044 01041 01046 01036 01029 01034 01031 01017 01031 01027 01022 01026 01027 01024 01003 01003 01012 00994 00990 01001 00991 00987 00989 00982 00986 00981 00990 00984 00997
:PR2 /1 00949 00948 00946 00950 00950 00953 00955 00957 00959 00958 00959 00956 00958 00958 00959 00960 00960 00962 00961 00961 00962 00960 00959 00960 00960 00959 00961 00959 00962 00959
:BAT 13.5V
0000011000
404
UANT99 KDDL 110802
ARP UAE212 6045N01309W 0801 F330 MS49 229/23 KT
A6ECV DDL XXW 110802 F47A
0000039700
405
SXXX32 EUMS 110757 RRX
16590056
:PRS 1 /1 2632 2634 2636 2643 2643 2649 2651 2659 2659 2664 2666 2667 :RAD 1 /1 6943 6943 6947 6954 6954 6958 6963 6971 6971 6974 6978 6979 6984 6990 6995 6984 6993 6991 :ENC 6 /6 5188 5205 5208 5205 5218 5221 5238 5241 5228 5236 :ENB 6 /6 5186 5203 5204 5204 5216 5218 5234 5237 5225 5232 :SW1 57 /60 0 :SW2 24 /60 0 :BAT 5 /6 13.1 :NAME 16590056
0000037000
406
SXXX32 EUMS 110757 RRX
22E595B6
:PRS 1 /1 M 3897 3929 3870 3910 3914 3932 3937 3944 3917 3942 3917 3943 3923 3950 3931 3946 3/05 3922 3913 3896 3903 3873 3869 3883 3858 3848 3834 3827 3853 :RAD 1 /3 7101 7111 7112 7108 7099 7076 7048 7024 7005 7001 :ENC 2 /5 5216 5236 5237 5209 5168 5135 :SW1 57 /60 12 :SW2 27 /60 60 :BAT 14 /15 13.0 :NAME 22E595B6 /
0000070000
407
SAIR31 OIII 110800
METAR OIAW 110800Z 10006KT 7000 -SHRA FEW025CB SCT030 OVC080
13/10 Q1018=
METAR OIFM 110800Z 00000KT 1800 BR SCT040 BKN100 01/M01 Q1020
      A3012=
METAR OIII 110800Z 19004KT 5000 HZ FEW040 OVC100 03/M06 Q1022
 A3018 TEMPO FEW035CB SCT030 BKN100=
METAR OIKB 110800Z 35004KT 8000 -RA FEW025CB SCT030 OVC090 15/08
Q1022 A3019 NOSIG=
METAR OIKK 110800Z NIL=
METAR OIMM 110800Z 08006KT CAVOK 07/M09 Q1020 A3013=
METAR OISS 110800Z 00000KT 2500 BR FEW030CB SCT035 OVC080 03/00
Q1022 A3020=
METAR OITT 110800Z 00000KT 7000 FEW035 BKN180 M05/M11 Q1022 A3020=
METAR OIZH 110800Z 13010KT 9999 FEW035 SCT090 BKN190 06/M06 Q1022
      A3019 NOSIG=
0000065100
408
SXXX32 EUMS 110757 RRX
16AF741C
OT12 ID:SA-MAIS-07 DT:2014 01 11 07 47
:RAD /1 08862 08906 08792 08852 08792 08751 08800 08777 08790 08857 08783 08935 08790 08768 08909 08667 08915 08804 08793 08784 08785 08741 08817 08735 08810 08704 08735 08812 08815 08845 08786 08889 08741 08659 08825 08808 08841 08936 08796 08697 08965 08761 08688 08807 08791 08838 08793 08825 08816 08808 08813 08828 08779 08766 08846 08785 08812 08773 08802 08884 08781 08752 08850 08826 08992 08799 08848 08867 08811 08938 08896 08795 08825 08880 08773 08821 08812 08893 08869 08851 08970 08924 08862 08782 08853 08830 08962 08847 08843 /////
:BAT 13.0V
0000012200
409
SNLY40 EUMS 110800
AAXX 11074
62140 46/// /0000 10084 20030 3//// 4//// 5////=
62210 NIL=
62271 NIL=
0000067100
410
SXXX32 EUMS 110758 RRX
16F152DA
OT12 ID:IR-JASK-09 DT:2014 01 11 07 48
:RAD /1 02276 02265 02257 02250 02246 02243 02231 02242 02225 02225 02222 02217 02210 02215 02217 02210 02205 02195 02197 02186(02182 02177 02169 02165 02156 02152 02151 02154 02153 02144
:PR1 /1 -0134 -0132 -0134 -0132 -0135 -0132 -0136 -0132 -0121 -0129 -0131 -0132 -0133 -0134 -0133 -0115 -0122 -0126 -0125 -0128 -0130 -0129 -0129 -0128 -0129 -0130 -0128 -0130 -0128 -0127
:PR2 /1 01093 01086 01087 01076 01067 01064 01060 01049 01046 01045 01048 01039 01039 01036 01037 01032 01032 01024 01015 01005 00998 01001 00991 00986 00980 00974 00964 00973 00967 00973
:BAT 13.4V
0000070200
411
SXXX32 EUMS 110758 RRX
223412A2
OT12 ID:IND-SADENG DT:2014 01 11 07 57
:PRS /1 02023 01933 01897 02041 02079 02068 02064 02030 01984 02043 02031 02046 01981 01950 02051 02075 02037 02098 02037 02043 02015 02028 02071 02114 02114 02050 02051 02000 02077 01993
:ENC /1 -12919 -13003 -13013 -12896 -12846 -12853 -12879 -12906 -12946 -12883 -12856 -12836 -12896 -12929 -12866 -12823 -12859 -12806 -12846 -12843 -12859 -12843 -12773 -12739 -12726 -12779 -12809 -12836 -12776 -12823
:RAD /1 11737 11663 11650 11758 11831 11815 11792 11796 11751 11727 11761 11823 11800 11717 11713 11855 11823 11826 11792 11781 11735 11734 11762 11854 11843 11839 11774 11735 11789 11809
:BAT 12.4V/
0000037500
412
SXXX32 EUMS 110800
12FD90D0
:PRS 1 /1 1404 1392 1380 1359 1348 1346 1353 1345 1355 1344 1365 1350 :RAD 1 /3 5929 5918 5918 5916 5914 /924 5943 5952 5950 5927 :ENC 3 /6 5654 5649 5649 5692 5682 5650 5622 5598 5627 5596 :RA2 3 /6 4809 4802 4802 4846 4829 4800 4765 4739 4755 4714 :SW1 60 /60 60 :SW2 30 /60 60 :BAT 5 /6 13.2 :WTP 5 /6 28.5 28.4 :NAME 12FD90D0
0000041300
413
SXXX32 EUMS 110800 RRA
262D700E
:PRS 1 /1 1884 1906 1946 1963 1945 1904 1956 1975 1992 1910 1915 1928 1990 1998 1985 1931 1972 1982 1928 1946 1956 1982 2002 2011 2066 2045 2025 1996 2024 1989 :RAD 1 /3 4390 4398 4402 4411 4414 4417 4437 4458 4452 4449 4462 4484 4491 4497 4512 :ENC 5 /5 4497 4505 4502 4532 4558 4535 4586 4578 4613 4628 4633 4660 :SW1 60 /60 60 :BAT 14 /15 13.9 :NAME 262D700E /
00000000