0000086800
426
SIVB21 RJTD 110900
BBXX
SHIP    11094 99182 11184
41797 30827 10260 20203 40152 55013 70100 834//
22253 00250 307// 40706 80220=
SHIP    11094 99326 11341
41498 33508 10120 20062 40271 57008 70200 82440 9////
22214 00200 1//// 20201 327// 40303 5//// 6//// 80090 /////NNNN=
SHIP    11094 99252 11269
41598 50816 10200 20153 40241 55001 70222 85201
22253 00210 20302 302// 40904 5//// 80170=
SHIP    11094 99113 11424
41/98 /0822 10281 20231 40102 52013 70222 8//// 9////
22200 06286 6//// 80245=
SHIP    11094 99085 11507
41598 60321 10260 20232 40096 52011 70222 8536/
22233 00323 80240=
H9XE    11094 99378 11412
41697 80318 10020 21034 40230 57020 70222 87835
22243 00110 20202 30605 40102 50202 80000=
SHIP    11094 99123 11502
41696 50515 10280 20224 40141 52015 85343
22273 00320 20303 301// 40303 80240=
0000003900
427
SIVD21 RJTD 110900
NIL=
0000034300
428
SNVD15 KWNB 110700 RRX
BBXX
42369 11071 99272 70903 46/// /1803 1//// 90720=
42375 11071 99285 70883 46/// /1508 1//// 90720 22200 10401 70007
555 11065 22071=
42392 11071 99272 70900 46/// ///// 1//// 90720 22200 10501 70007=
42887 11071 99282 70885 46/// /1909 10225 20202 90720 22200 10502
70009 555 11074 22080=
0000003900
429
SIVE21 RJTD 110900
NIL=
0000105400
430
SIIN20 DEMS 110900
AAXX 11094
42027 31596 41401 10062 21027 38474 48560 70521 83430
  333 58054=
42101 32996 03203 10182 20071 40182
  333 58025=
42111 32596 63202 10160 20072 39384 40161 86800
  333 58016 83625 83830=
42131 32996 03203 10184 20041 40188
  333 58026=
42165 31995 60000 10200 20017 40184 70522 80001
  333 58034 86070=
42182 31995 02908 10180 20097 40179 70500
  333 58027=
42189 31595 60000 10162 20126 40159 71022 84520
  333 58001 84625 86460=
42328 32696 20503 10182 21025 40197 83030
  333 58041 83360=
42348 31996 03406 10190 20013 40172 70500
  333 58030=
42361 31994 23204 10200 20076 40169 71000 80001
  333 58029 82075=
42369 31594 70203 10160 20131 40163 71142 85530
  333 58012 85620 87360=
42379 21595 70903 10176 20130 40153 72096 85510
  333 56590 58004 6003/ 85625 87458=
42452 31994 00903 10180 20083 40172 70544
  333 58034=
42475 31494 89902 10180 20170 4//// 71022 8762/
  333 56290 58/// 82710 86620 88458=
42071 NIL=
42260 NIL=
42339 NIL=
0000017500
431
SIIN20 DEMS 110900
AAXX 11093
42071 31996 02907 10168 20109 40190 70500
  333 58017=
42339 31995 40502 10200 21005 40180 70500 80002
  333 58047 84070=
0000132700
432
SIIN21 DEMS 110900
AAXX 11094
42309 31596 40502 10240 20125 40138 70520 81430
  333 58003=
42314 31596 60000 10244 20122 40147 70522 81131
  333 58007 81825 84360=
42410 31595 70000 10216 20151 40162 70522 83530
  333 59041 83620 87360=
42415 32596 63602 10228 20118 40167 82530
  333 58007 82620 85360=
42492 21494 70905 10160 20143 40150 76066 84530
  333 59008 6002/ 84615 87360=
42587 21994 80000 10182 20162 40148 70552 85520
  333 58007 6003/ 85615 88456=
42591 21494 80703 10164 20154 40153 72996 8672/
  333 58003 6006/ 85618 88458=
42623 31596 12302 10244 20097 39261 40116 70500 81500
  333 58007 81620=
42701 31494 80508 10166 20125 39408 40147 70444 8452/
  333 58010 84615 88459=
42706 31995 20703 10244 20125 40144 70500 80001
  333 58004 82075=
42724 31995 03603 10250 20107 40147 70500
  333 59003=
42798 31994 40506 10246 20125 40131 70422 84030
  333 58003 84360=
42809 31995 03602 10260 20143 40146 70500
  333 58002=
42886 31996 31802 10280 20157 40122 70500 82031
  333 59002 82360 81075=
42895 31995 01402 10254 20148 40138 70500
  333 58002=
42971 31995 01808 10306 20162 40134 70500
  333 59002=
43333 31495 60708 10290 20232 40114 70511 84401
  333 56309 58010 82618 83820 85070=
42398 NIL=
42977 NIL=
43368 NIL=
0000074300
433
SIIN22 DEMS 110900
AAXX 11094
42559 32996 03602 10184 20106 40153
  333 58030=
42571 31594 83203 10152 20141 40148 71044 8653/
  333 58014=
42667 31595 10508 10188 20119 39554 40150 70500 81500
  333 58027 81620=
42675 31493 83604 10166 20145 40155 74644 886//
  333 58030 88710=
42754 31594 50508 10168 20115 39501 40149 70522 83530
  333 83620 83360=
42779 32596 52305 10234 20158 39424 40116 83530
  333 59001 83620 85360=
42867 31596 22306 10274 20153 40115 70500 82500
  333 58005 82620=
42874 32596 42704 10264 20164 40122 82530
  333 58007 82625 83360=
42933 32997 32902 10274 20076 40118 80001
  333 58019 83075=
43041 32596 22302 10292 20112 39508 40109 82200
  333 59002 82830=
0000077300
434
SIIN23 DEMS 110900
AAXX 11094
42634 32996 30211 10204 20043 40168 80001
  333 58021 83075=
42647 31995 00708 10220 20112 40156 70400
  333 58023=
42737 32996 00708 10212 20088 40158
  333 58015=
42840 32996 00502 10234 20084 40148
  333 58005=
42909 32997 03612 10234 20045 40150
222// 20000
  333 58003=
42921 32996 59902 10254 20005 40113 80001
  333 58003 85075=
43003 31995 03206 10250 20048 40126 70400
  333 58000=
43014 32996 02303 10266 20071 39468 40104
  333 58010=
43063 32997 22502 10298 20070 39482 40091 80001
  333 59003 82072=
43110 31996 03204 10266 20097 40129 70544
  333 58008=
43117 32997 00000 10318 20114 40093
  333 58001=
43192 31996 42708 10298 20187 40120 70511 80001
  333 58011=
0000138300
435
SIIN24 DEMS 110900
AAXX 11094
43086 32597 32303 10284 20162 39950 40126 83500
  333 58011=
43128 31496 59903 10284 20163 39517 40113 70511 84401
  333 56309 58007 83615=
43150 31596 10000 10274 20201 30065 40140 70500 81500
  333 58005 81620=
43185 32597 51606 10278 20192 30128 40131 83531
  333 58005 83620 84360=
43189 32597 29901 10298 20198 30130 40139 81502
  333 58006=
43213 32597 40902 10314 20135 39797 40107 81438
  333 59001=
43237 32997 31103 10316 20147 39718 40102 82032
  333 58004 82360 83075=
43245 32597 30502 10296 20299 30103 40130 82401
  333 58008=
43279 32497 20704 10288 20193 30116 40134 82400
  333 58010 82618=
43311 32597 50505 10320 20255 40109 85401
  333 58005 84620 83075=
43314 32997 02702 10332 20234 40107
  333 58006=
43321 31496 00705 10292 20168 39672 40112 70521 81530
  333 58010 81615=
43329 32597 30702 10294 20236 30110 40124 82501
  333 58010=
43344 31496 40706 10300 20186 30022 40121 70511 84800
  333 58010 83616=
43346 32597 30511 10276 20240 30113 40120 82501
  333 58008 82620=
43353 31996 32910 10308 20223 40106 70500 82011
  333 56099 58007 82359=
43369 32497 40903 10308 20248 40108 83401
  333 58010 83618=
43371 32997 09903 10320 20217 30028 40099
  333 58004=
43198 NIL=
43201 NIL=
43226 NIL=
43233 NIL=
43284 NIL=
43295 NIL=
0000083100
436
SIIN44 DEMS 110900
AAXX 11094
43081 32597 30902 10302 20173 39686 40105 82801
  333 58006=
43105 32597 31806 10290 20206 30132 40139 82501
  333 58005=
43181 31596 31402 10300 20174 30101 40128 70500 83500
  333 58007=
43221 32597 11802 10296 20188 30113 40126 81500
  333 58011=
43311 32597 50505 10320 20255 40109 85401
  333 58005 84620 83075=
43347 32597 33402 10276 20223 30107 40118 82501
  333 58008=
43352 32597 32704 10316 20242 40099 81101
  333 58008=
43363 32597 20211 10280 20224 30110 40123 82800
  333 58011=
43087 NIL=
43121 NIL=
43125 NIL=
43136 NIL=
43161 NIL=
43169 NIL=
43177 NIL=
43205 NIL=
43225 NIL=
43226 NIL=
43241 NIL=
43271 NIL=
43287 NIL=
43291 NIL=
43303 NIL=
43317 NIL=
43325 NIL=
43326 NIL=
43360 NIL=
43376 NIL=
0000044100
437
SIIN52 DEMS 110900
AAXX 11094
42081 32696 10000 10118 20048 38935 48511 81500
  333 58025 81635=
42083 32697 20000 10062 20009 4//// 82800
  333 58012 81835=
42101 32996 03203 10182 20071 40182
  333 58025=
42131 32996 03203 10184 20041 40188
  333 58026=
42475 31494 89902 10180 20170 4//// 71022 8762/
  333 56290 58/// 82710 86620 88458=
42071 NIL=
42112 NIL=
42367 NIL=
42479 NIL=
42542 NIL=
0000010400
438
SIIN52 DEMS 110900
AAXX 11093
42071 31996 02907 10168 20109 40190 70500
  333 58017=
0000003900
439
SIVX21 RJTD 110900
NIL=
0000011100
440
SIVF21 ESWI 110900 RRA
BBXX
SMLQ 11091 99656 10222 46/// /0207 11159 40125 52008 22201 0////=
0000011000
441
UANT99 KDDL 110927
ARP ACA854 5955N02400W 0927 F350 MS57 226/55 KT
CGHKW DDL KEF 110927 J03A
0000075400
442
SNAA01 KARS 110800 RRC
AAXX 1108/
89869 46/// ///// 11035 39922 4//// 5////=
89866 46/// ///// 11034 39880 4//// 5////=
89866 46/// ///// 11035 39879 4//// 5//// 90810=
89329 46/// ///// 11120 38821 4//// 5////=
89329 46/// ///// 11121 38820 4//// 5////=
89329 46/// ///// 11121 38820 4//// 5//// 90810=
89799 46/// ///// 11223 4//// 5////=
89828 46/// ///// 11191 36549 4//// 5////=
89828 46/// ///// 11183 36549 4//// 5//// 90810=
89108 46/// ///// 11204 37008 4//// 5////=
89108 46/// ///// 11204 35568 4//// 5//// 90810=
89879 46/// ///// 10016 39897 4//// 5////=
89879 46/// ///// 10016 39897 4//// 5//// 90810=
89314 46/// ///// 11103 38295 4//// 5////=
89314 46/// ///// 11105 38296 4//// 5//// 90810=
0000011600
443
SIME20 OEJD 110900 RRA
AAXX 11091
40100 43/// /2404 10181 20085 30205 40237 58002 909// 333 92416=
0000004100
444
SING21 AMMC 110900
NIL

0000016400
445
SIVE21 AMMC 110900 RRA
BBXX
JPAT 11094 99325 31145 41898 11719 10244 20196 40106 57103 70200
81035 22253 00230 10707 20402 31916 40505 50403=

00000000