0000010700
066
SAAG41 SAEZ 102300
METAR SAEZ 102300Z 20005KT 150V240 9999 FEW050TCU SCT100 28/16 Q1008=

0000010300
067
SACN61 CYDQ 102300
METAR CYDQ 102300Z AUTO 23006KT 9SM CLR M02/M09 A2951 RMK SLP035=

0000010600
068
SACN61 CYGV 102300
METAR CYGV 102300Z AUTO 28009KT 9SM OVC018 M09/M11 A3007 RMK SLP187=

0000012700
069
SACN62 CYEV 102300
METAR CYEV 102300Z 29007KT 3SM -SN DRSN BKN030 OVC064 M25/M28 A2973
 RMK SC5SC3 SLP078=

0000014000
070
SACN62 CYDF 102300
METAR CYDF 102300Z 23023G29KT 8SM -SN DRSN FEW018 BKN027 BKN070
 M06/M09 A3008 RMK SC1SC4AC2 SLP189=

0000010200
071
SACN62 CYGR 102300
METAR CYGR 102300Z 24016G25KT 15SM SKC M04/M08 A3025 RMK SLP245=

0000011800
072
SACN62 CYGL 102300
METAR CYGL 102300Z 21007KT 4SM -FZDZ -SN OVC003 M06/M07 A2972 RMK ST8
 SLP081=

0000013400
073
SACN61 CYDN 102300
METAR CYDN 102300Z AUTO 27005KT 8SM -SN SCT034 BKN043 BKN055 OVC074
 M07/M08 A2942 RMK SLP988=

0000015500
074
FTAE33 VTBB 102300
TAF VLLB 102300Z NIL=
TAF VLLN 102300Z NIL=
TAF VLPS 102300Z NIL=
TAF VLSK 102300Z NIL=
TAF VLVT 102300Z NIL=

0000243400
075
SPUS70 KWBC 102304
SPECI
KASE 102300Z 35009KT 3SM -SN BR SCT017 BKN034 M06/M08 A2987 RMK
     AO2 P0000 T10611078=
KFLO 102300Z 12005KT 7SM -RA BKN008 OVC016 18/17 A3013 RMK AO2 CIG
     006V012 P0001=
KGGG 102300Z 19011KT 5SM -RA BR SCT010 BKN060 OVC090 17/16 A2974
     RMK AO2 P0000=
KGLR 102300Z AUTO 15010G16KT 1SM BR OVC002 M03/M03 A2980 RMK AO2
     T10281033=
KHBG 102300Z AUTO 12003KT 2SM -RA BR OVC010 15/14 A2997 RMK AO2
     P0000 T01500139=
KHZY 102300Z AUTO 16008KT 7SM FEW008 SCT019 OVC060 04/02 A3005 RMK
     AO2 TSNO=
KIXD 102300Z 25005KT 3SM BR SCT002 OVC021 04/04 A2955 RMK AO2
     T00440039=
KLLQ 102300Z AUTO 15010G17KT 1 3/4SM -RA BR BKN005 BKN011 OVC018
     13/12 A2978 RMK AO2 P0000=
KMKC 102300Z 24004KT 10SM FEW008 BKN029 OVC035 06/04 A2954 RMK AO2
     T00560039=
KRAC 102300Z AUTO 15013KT 2 1/2SM RA BR OVC003 01/01 A2970 RMK AO2
     PRESFR P0001 T00110006=
KRSL 102300Z AUTO 30014KT 10SM -RA SCT014 OVC026 03/01 A2959 RMK
     AO2 P0000 T00280006=
KSLN 102300Z 30004KT 8SM FEW025 OVC032 03/01 A2959 RMK AO2
     T00330006=
KTTD 102300Z 19004KT 10SM -RA OVC070 12/07 A3004 RMK AO2 RAB2257
     P0000 T01170072=
PACV 102300Z 04004KT 9SM FEW012 BKN018 BKN037 01/M01 A2935 RMK AO2
     SNE2259 P0000 $=
PAKN 102301Z A2944 RMK AO2 PNO $=
KAMG 102301Z AUTO 00000KT 1 3/4SM BR SCT030 SCT035 OVC050 20/18
     A3009 RMK AO2 VIS 3/4V3 T02000183=
KAVL 102301Z 19004KT 5SM BR OVC003 08/07 A3013 RMK AO2=
KBVY 102301Z 00000KT 5SM BR BKN014 01/M01 A3035 RMK AO2
     T00111006=
KCEU 102301Z AUTO 07005KT 3SM -RA BR OVC003 10/08 A3014 RMK AO2
     RAB2255 P0000=
KCLM 102301Z AUTO 00000KT 10SM -RA BKN011 OVC018 07/06 A2994 RMK
     AO2 P0000 T00720056=
KCRE 102301Z 11003KT 10SM SCT021 BKN027 18/16 A3016 RMK AO2=
KDSV 102301Z AUTO 14008KT 10SM SCT021 OVC050 05/01 A3015 RMK
     AO2=
KENW 102301Z 13008KT 1 3/4SM RA BR SCT005 BKN038 OVC050 02/01
     A2967 RMK AO2 P0001 T00170006=
KERI 102301Z 17013G21KT 10SM BKN010 OVC055 05/03 A3005 RMK AO2=
KGRB 102301Z 14010KT 2SM UP BR OVC005 01/00 A2968 RMK AO2 UPB2255
     P0000 T00060000=
KHYR 102301Z AUTO 19005KT 4SM BR OVC004 M03/M04 A2958 RMK AO2=
KMCI 102301Z 25004KT 2SM -DZ BR BKN003 OVC008 04/04 A2954 RMK AO2
     SFC VIS 3 P0000 T00440039=
KORD 102301Z 17013KT 5SM -RA BR BKN007 OVC012 03/01 A2966 RMK AO2
     RAB2257 P0001 T00280011 $=

0000010500
076
SPUS43 KWBC 102304
SPECI
KMKC 102300Z 24004KT 10SM FEW008 BKN029 OVC035 06/04 A2954=

0000009500
077
SAHK31 VHHH 102300
METAR VHHH 102300Z 06009KT 7000 FEW028 14/11 Q1024 NOSIG=

0000012400
078
SACN61 CYKL 102300
METAR CYKL 102300Z AUTO /////KT 3/4SM -SN OVC034 M10/M13 A2955 RMK
 WND MISG SLP055=

0000010600
079
SACN62 CYHK 102300
METAR CYHK 102300Z 24012KT 15SM BKN028 M32/M35 A2945 RMK SC6 SLP982=

0000011900
080
SACN62 CYLL 102300
METAR CYLL 102300Z 27011KT 15SM BKN050 BKN250 M04/M06 A2945 RMK
 SC6CI1 SLP011=

0000011900
081
SACN62 CYKY 102300
METAR CYKY 102300Z 29008KT 15SM FEW030 BKN070 M08/M10 A2949 RMK
 SC2AC5 SLP028=

0000014700
082
SACN62 CYHM 102300
METAR CYHM 102300Z 16004KT 3/4SM BR BKN002 OVC010 01/01 A3004 RMK
 FG4SF2SC2 VIS VRB 1/2 - 1 PRESFR SLP184=

0000080100
083
FTAE32 VTBB 102300
TAF VDPP 102300Z 1100/1118 03009KT 9999 FEW017
    TEMPO 1108/1112 35006KT=
TAF VDSR 102300Z 1100/1118 04009KT 9999 FEW017
    TEMPO 1105/1108 VRB04KT
    TEMPO 1110/1113 34006KT=
TAF VYYY 102300Z 1100/1124 05005KT 8000 NSC
         FM 1100 0900M FG 
         BECMG 1101/1103 4000M BR 
         BECMG 1104/1106 03006KT 7000 FEW016=
TAF VYMD 102300Z NIL=
TAF VGHS 102300Z 1100/1206 00000KT 0500 FG BKN005 BECMG
                1104/1105 30006KT 0800 FG SCT010 BECMG
                1106/1107 32008KT 1500 BR SCT015 BECMG
                1108/1110 32008KT 2500 HZ NSC BECMG
                1116/1118 00000KT 1200 BR SCT012 BECMG
                1200/1202 00000KT 0500 FG BKN005 BECMG
                1204/1205 32006KT 1200 BR SCT012=

0000010600
084
SACN62 CYHZ 102300
METAR CYHZ 102300Z 20010KT 15SM OVC019 M01/M05 A3035 RMK SC8 SLP288=

0000009200
085
SARO33 LROM 102300 CCA
METAR COR LRSV 102300Z 27010KT CAVOK 02/M03 Q1015=

00000000