0000097400
406
FCTU33 LTAA 110200
TAF LTAL 110140Z 1103/1112 VRB02KT CAVOK=
TAF LTAS 110140Z 1103/1112 VRB02KT 8000 SCT040 BKN100 TEMPO 1105/1108
 4000 BR=
TAF LTAW 110140Z 1103/1112 VRB02KT 4000 BR NSC PROB40 TEMPO 1106/1108
 0500 FZFG VV002 BECMG 1108/1111 CAVOK=
TAF LTBD 110140Z 1103/1112 VRB02KT CAVOK=
TAF LTBH 110140Z 1103/1112 VRB02KT CAVOK BECMG 1103/1106 FEW035
 BKN200=
TAF LTBO 110140Z 1103/1112 VRB02KT CAVOK BECMG 1103/1106 3200 BR
 BECMG 1109/1112 CAVOK=
TAF LTBZ 110200Z NIL=
TAF LTCT 110140Z 1103/1112 VRB02KT 0400 FZFG VV002 BECMG 1106/1109
 2000 BR NSC BECMG 1109/1111 4000=
TAF LTCU 110140Z 1103/1112 VRB02KT CAVOK=
TAF LTCV 110140Z 1103/1112 31015KT CAVOK BECMG 1107/1109 VRB02KT=
TAF LTFD 110140Z 1103/1112 VRB02KT 6000 NSC BECMG 1105/1107 CAVOK=
TAF LTFG 110140Z 1103/1112 VRB02KT 4000 BR SCT020 BECMG 1107/1109
 9999 NSW BKN025 BKN200=
TAF LTFK 110140Z 1103/1112 VRB02KT CAVOK BECMG 1103/1106 FEW035
 BKN200=

0000047100
407
FCTU34 LTAA 110200
TAF LTCK 110140Z 1103/1112 VRB02KT 0800 FZFG OVC010 TEMPO 1103/1106
 0200 BECMG 1107/1109 2000 BR SCT010=
TAF LTCL 110140Z 1103/1112 VRB02KT CAVOK=
TAF LTCM 110140Z 1103/1112 VRB02KT CAVOK=
TAF LTCN 110140Z 1103/1112 VRB02KT CAVOK=
TAF LTCO 110140Z 1103/1112 VRB02KT 0400 FZFG VV002 BECMG 1106/1109
 2000 BR NSC BECMG 1109/1111 4000=
TAF LTCP 110140Z 1103/1112 VRB02KT CAVOK=
TAF LTCR 110140Z 1103/1112 33009KT CAVOK=

0000041400
408
FTLJ31 LJLJ 110200
TAF LJLJ 110200Z 1103/1203 28003KT 9999 SCT030 BKN040 TEMPO
1103/1109 7000 BKN015 OVC030 PROB40 TEMPO 1103/1108 3500 BCFG BR
SCT001 BECMG 1109/1112 25005KT SCT030 BKN200 TEMPO 1118/1203
3500 BCFG BR SCT001 PROB40 1121/1203 0500 FG VV002=
TAF LJMB 110200Z 1103/1203 36004KT 3500 BR OVC003 TEMPO
1103/1111 0500 FG VV002 BECMG 1111/1114 CAVOK TEMPO 1112/1118
20005KT=

0000008700
409
SARH32 LDZM 110200
METAR LDLO 110200Z NIL=
METAR LDSB 110200Z NIL=

0000073500
410
SATU31 LTAA 110150
METAR LTAC 110150Z 30005KT 4800 BR OVC007 M04/M04 Q1022 NOSIG=
METAR LTAF 110150Z VRB02KT CAVOK 05/M01 Q1021 NOSIG=
METAR LTAI 110150Z 36006KT 9999 SCT020 BKN200 06/04 Q1022 NOSIG=
METAR LTAJ 110150Z 00000KT CAVOK M02/M05 Q1020 NOSIG=
METAR LTAZ 110150Z NIL=
METAR LTBA 110150Z 26006KT 4000 BR NSC 09/05 Q1021 NOSIG=
METAR LTBJ 110150Z 12003KT 3500 BR NSC 04/03 Q1021 NOSIG=
METAR LTBS 110150Z 05007KT CAVOK 06/05 Q1022 NOSIG=
METAR LTCG 110150Z 00000KT CAVOK 06/M00 Q1016 NOSIG=
METAR LTCS 110150Z 02005KT CAVOK 04/M07 Q1020=
METAR LTFC 110150Z NIL=
METAR LTFE 110150Z 15002KT 6000 FEW035 BKN100 09/07 Q1022 NOSIG=
METAR LTFJ 110150Z VRB02KT 9999 SCT014 07/01 Q1021 NOSIG=

0000074300
411
SATU32 LTAA 110150
METAR LTAG 110150Z 01002KT CAVOK 03/M03 Q1020 NOSIG=
METAR LTAN 110150Z 00000KT 2000 BR OVC003 M02/M03 Q1021 NOSIG=
METAR COR LTAP 110150Z VRB01KT CAVOK M05/M06 Q1021 NOSIG=
METAR LTAT 110150Z 21004KT CAVOK M10/M11 Q1021 NOSIG=
METAR LTAU 110150Z VRB02KT 2600 BR OVC002 M04/M05 Q1022 TEMPO 0800
 FZFG=
METAR LTBF 110150Z 36001KT 0300 R36/0600U R18/0600U FG VV003 00/00
 Q1022 BECMG FZFG=
METAR LTBU 110150Z 02004KT 0300 R05/0200D R23/0300D BCFG NSC 03/03
 Q1021=
METAR LTCC 110150Z 23002KT CAVOK M03/M06 Q1019 NOSIG=
METAR LTCE 110150Z 36002KT 0400 R26L/0200U R08R/0225U R26R/0225U
 R08L/0225U FZFG VV002 M26/M28 Q1021 NOSIG=
METAR LTCJ 110150Z 18004KT 4000 BR NSC M04/M04 Q1020=

0000057600
412
SATU33 LTAA 110150
METAR LTAR 110150Z 16005KT CAVOK M07/M11 Q1019=
METAR LTAY 110150Z 00000KT CAVOK M05/M06 Q1022=
METAR LTBR 110150Z 29003KT CAVOK M04/M06 Q1024 NOSIG=
METAR LTBY 110150Z 05005KT 7000 OVC009 M01/M03 Q1023=
METAR LTCA 110150Z 29004KT CAVOK M07/M09 Q1022 NOSIG=
METAR LTCD 110150Z 00000KT CAVOK M14/M16 Q1023 NOSIG=
METAR LTCF 110150Z 00000KT CAVOK M23/M25 Q1020=
METAR LTCI 110150Z 07003KT 6000 SCT040 M10/M11 Q1019 NOSIG=
METAR LTDA 110150Z VRB01KT CAVOK M01/M01 Q1022=
METAR LTFH 110150Z VRB04KT CAVOK 05/M05 Q1017 NOSIG=

0000052700
413
SATU34 LTAA 110150
METAR LTAL 110150Z NIL=
METAR LTAS 110150Z NIL=
METAR LTAW 110150Z NIL=
METAR LTBD 110150Z NIL=
METAR LTBH 110150Z NIL=
METAR LTBO 110150Z NIL=
METAR LTCK 110150Z NIL=
METAR LTCL 110150Z NIL=
METAR LTCM 110150Z NIL=
METAR LTCN 110150Z NIL=
METAR LTCO 110150Z NIL=
METAR LTCP 110150Z NIL=
METAR LTCR 110150Z NIL=
METAR LTCT 110150Z NIL=
METAR LTCU 110150Z 36002KT CAVOK M10/M12 Q1023=
METAR LTCV 110150Z NIL=
METAR LTFD 110150Z NIL=
METAR LTFG 110150Z NIL=

0000008900
414
SATU35 LTAA 110150
METAR LCEN 110150Z 28010KT CAVOK 08/05 Q1021 NOSIG=

0000059000
415
SAPR82 SPIM 110200
METAR SPHI 110200Z 17010KT CAVOK 23/21 Q1011 RMK PP000=
METAR SPIM 110200Z 15013KT CAVOK 22/19 Q1012 NOSIG RMK SCT170 PP000=
METAR SPQT 110200Z 00000KT 9999 FEW020 SCT100 25/23 Q1010
NOSIG RMK PP000=
METAR SPQU 110200Z 11006KT 9999 SCT020 SCT040 13/10 Q1026
RMK PP000=
METAR SPRU 110200Z 15007KT 9000 OVC027 22/20 Q1011 RMK BR PP000=
METAR SPSO 110200Z /////KT 9999 FEW100 21/19 Q1012 RMK PP000=
METAR SPTN 110200Z VRB02KT CAVOK 20/16 Q1012 RMK PP000=
METAR SPZO 110200Z 10008KT 9999 SCT043 BKN080 12/07 Q1030 
RMK RA QUAD NE PP000=

0000035500
416
FCSQ41 LZIB 110200
TAF LZPP 110300Z NIL=
TAF LZSL 110200Z 1103/1112 VRB02KT 9999 SCT050
    PROB40 TEMPO 1103/1107 3000 BCFG SCT002
    BECMG 1107/1109 21004KT SCT015=
TAF LZZI 110200Z 1103/1112 VRB02KT 9999 BKN035
    TEMPO 1103/1108 4000 BR BKN003
    PROB40 TEMPO 1103/1106 1100 BCFG BKN001
    BECMG 1107/1109 25004KT=

0000036400
417
SAPR76 SPIM 110200
METAR SPCL 110200Z 06003KT 030V100 9999 FEW017 SCT100 26/24 Q1010
RMK PP000=
METAR SPJL 110200Z VRB01KT 9999 SCT020 10/07 Q1035 RMK PP000=
METAR SPME 110200Z VRB02KT 9999 FEW012 BKN027 25/24 Q1011
RMK BIRD HAZARD RWY 32/14 PP000=
METAR SPST 110200Z 01006KT 9999 SCT020 25/20 Q1009 
RMK BIRD HAZARD RWY 17/35 PP000=

0000032300
418
SAEQ01 SEQU 110200
METAR SEQM 110200Z 04003KT 5000 BCFG FEW005 BKN020 BKN080 13/12 Q1025
    RMK A3027 TEMPO 4000=
METAR SEGU 110200Z 21011KT 9999 BKN020 BKN090 27/22 Q1010 RMK 
A2983 NOSIG=
METAR SEMT 110200Z 22008KT 9999 SCT023 25/22 Q1011=
METAR SELT 110200Z 04004KT 9999 BKN030 11/11 Q1027=

0000028400
419
FTCA33 KWBC 110200
TAF
TAF TNCA 110400Z 1106/1206 08014KT 9999 SCT020
      TEMPO 1104/1116 BKN015=
TAF TNCB 110400Z 1106/1206 08012KT 9999 SCT020
      TEMPO 1104/1116 BKN015=
TAF TNCC 110400Z 1106/1206 09011KT 9999 SCT020
      TEMPO 1104/1116 BKN015=

0000041500
420
SAMX31 KWBC 110145 RRD
METAR
MMAA 110145Z 25003KT 8SM SKC 28/22 A2986=
MMGL 110152Z 26005KT 10SM BKN040 17/03 A3013 RMK 8/500=
MMMX 110144Z 20004KT 12SM SCT025 16/05 A3026 NOSIG RMK 8/400
     AC=
MMPR 110146Z 14007KT 15SM FEW150 23/18 A2991 RMK 8/080=
MMTM 110143Z 14010KT 5SM SCT010 BKN060 BKN200 21/18 A2987 RMK
     8/538 HZY=
MMVR 110145Z 12005KT 7SM SKC 22/18 A2989 RMK HZY=

0000009500
421
SAAT31 TAPA 110159
METAR TAPA 110200Z 08011KT 9999 SCT019 25/20 Q1018 NOSIG=

0000022500
422
FTUS71 KWBC 110200 AAA
TAF AMD
KJST 110159Z 1102/1124 15008KT 3SM BR OVC004
     FM110500 17010KT 4SM -RA BR BKN007 OVC015 WS019/21040KT
     FM111100 17016G32KT 2SM RA BR BKN009 OVC016 WS012/19049KT=

0000022100
423
FTUS73 KWBC 110200 AAA
TAF AMD
KMSN 110159Z 1102/1124 18006KT 3SM -RA BR OVC004
     FM110300 19005KT 2SM -DZ BR OVC004
     FM111000 28006KT 3SM -SN OVC006
     FM111600 30009G18KT P6SM BKN012=

0000018900
424
FTUS75 KWBC 110200 AAA
TAF AMD
PANC 110159Z 1102/1206 VRB03KT 5SM -SN BR SCT005 OVC015
     FM111200 VRB03KT 1SM BR BKN005 OVC012
     FM112200 VRB03KT P6SM BKN040=

0000045300
425
SACU31 MUHA 110200
METAR
MUHA 110155Z VRB02KT 9000 FEW040 20/19 Q1018=
MUVR 110150Z 07006KT 040V100 8000 FEW020 24/22 Q1019=
MUSC 110150Z 09004KT 9000 SKC 22/21 Q1018=
MUCC 110154Z 10007KT 9000 FEW020 25/21 Q1018=
MUCM 110151Z 08008KT 9000 FEW020 21/18 Q1019=
MUHG 110150Z 09011KT 070V130 9000 FEW020 24/20 Q1018=
MUCU 110151Z 36003KT 9000 FEW020 23/20 Q1018=
MUCL 110151Z 11003KT 9000 FEW018 25/22 Q1017=
MUCF  NIL=

00000000