0000012400
614
SMRA13 RUNW 110600 CCA
AAXX 11061
28698 41566 81803 11080 21107 30081 40242 53003 70272 8355/ 333
21080=
0000072500
615
SNNO48 ENMI 110700 RRA
AAXX 11071
01124 26/// ///// 11122 21177 333 60005=
01158 26/// ///// 11082 21213 30126 40136 53006 333 60005=
01239 26/// /1102 11142 21157 333 4/019 69915=
01315 26/// /2701 10002 21002 333 69925=
01326 46/// ///// 10002 21004=
01346 26/// /3005 11041 21046 333 60005=
01356 46/// ///// 11102 2//// 49930 51013=
01365 26/// /0902 11079 21091 333 4/073 69915=
01414 46/// /2911 10055 2////=
01417 26/// ///// 10032 20026 333 69995=
01418 46/// ///// 10054 2////=
01426 46/// /2811 10060 2////=
01444 26/// /1402 10003 21006 333 60005=
01449 26/// /2501 11019 21022 333 60005=
01453 26/// /1903 11015 21016 333 4/146 60005=
01478 46/// ///// 10051 2////=
0000038100
616
SNNO48 ENMI 110800 RRB
AAXX 11081
01124 26/// ///// 11118 21177 333 60005=
01356 46/// ///// 11104 2//// 49930 55000=
01365 26/// /1003 11087 21099 333 4/075 69935=
01414 46/// /2710 10060 2////=
01417 26/// ///// 10044 20030 333 60025=
01444 26/// /1701 10002 21010 333 60005=
01453 26/// /0501 11020 21022 333 60005=
01478 46/// ///// 10048 2////=
0000010900
617
UANT01 CWAO 110856
ARP THY12 5510N02844W 0856 F330 MS57 209/83 KT
TCJJO QXT AOE 110856 F25A
0000011000
618
UANT01 CWAO 110856
ARP ETH500 5348N04436W 0856 F340 MS61 299/82 KT
ETAPX QXT AME 110856 F37A
0000011000
619
UANT01 CWAO 110856
ARP KLM256 5222N03345W 0856 F370 MS54 207/28 KT
PHAOD QXT AOW 110856 J01A
0000015800
620
UAPA01 KWBC 110857
ARP UAL1724 2347N 15322W 0851 F330 MS45 239/062KT TB LGT CHOP=
ARP DAL1840 2221N 15153W 0852 F350 MS45 236/071KT TB SMTH=
0000011100
621
UANT01 CWAO 110857
ARP UAL982 4850N03052W 0856 F350 MS49 198/42 KT
N229UA DDL XXW 110857 F43A
0000032100
622
SAGU31 MGGT 110900
METAR
METAR MGMM 110900Z 00000KT CAVOK 19/18 Q1015 A2997=
METAR MGHT 110900Z 00000KT CAVOK 07/06 QFE 816.4=
METAR MGPB 110900Z 00000KT CAVOK 22/21 Q1013 A2991 SCT090=
METAR MGGT 110900Z 36010KT 9999 SCT014 14/13 Q1025 A3027=
METAR MGSJ 110900Z 00000KT CAVOK 21/21 Q1012 A2988=
0000013700
623
SIML20 LMMM 110900
AAXX 11094
16597 32980 61906 10167 20131 30131 40240 53012 80002
  333
 60007 86070 91115 91211=
0000019800
624
SNNO49 ENMI 110700 RRC
AAXX 11071
01220 46/// /2001 11146 21160 333 4/115=
01358 46/// ///// 11080 21088 39239 49979 50001=
01362 46/// /2517 11099 21110 49929 50000 333 4/054=
0000010400
625
SNNO49 ENMI 110800 RRC
AAXX 11081
01362 46/// /2414 11101 21112 49932 57001 333 4/051=
0000010900
626
UANT01 CWAO 110857
ARP THY34 5516N04757W 0857 F350 MS60 288/77 KT
TCJJH QXT AOW 110857 F21A
0000010600
627
SMTA10 UTDD 110600 CCB
AAXX 11061
38838 42998 30000 10042 21026 39599 40283 57021 80001=
0000036100
628
SAPK31 OPKC 110900
METAR OPGD 110900Z NIL=
METAR OPKC 110855Z 07010KT 9000 SCT200 22/M07 Q10200 NOSIG=
METAR OPLA 110900Z 30007KT 5000 HZ NSC 18/03 Q1019 NOSIG=
METAR OPNH 110900Z NIL=
METAR OPPS 110900Z SE-4KT 5000 HZ FEW200 19/00 Q1020.4=
METAR OPRN 110900Z NIL=
METAR OPSK 110900Z 36010KTS 6000 HZ SCT200  21/05 QNH.1020 RH.34 PC=
0000074000
629
SAUK39 EGRR 110850
METAR EGDM 110850Z 30007KT 9999 FEW010 04/03 Q1018 BLU=
METAR EGQL 110850Z 27012KT 9999 FEW020 02/M02 Q1010 BLU NOSIG=
METAR EGQS 110850Z 25012KT 9999 FEW020CB 01/M00 Q1008 BLU=
METAR EGUB 110850Z 25003KT CAVOK 04/03 Q1017 BLU NOSIG=
METAR EGVN 110850Z 22003KT 9999 FEW040 04/02 Q1017 BLU NOSIG=
METAR EGVO 110850Z 29007KT 9999 FEW040 05/03 Q1017 BLU=
METAR EGWU 110850Z 30007KT CAVOK 05/03 Q1017 BLU NOSIG=
METAR EGXC 110850Z 27010KT CAVOK 04/01 Q1014 BLU=
METAR EGXT 110850Z AUTO 26009KT 9999 NCD 03/02 Q1015=
METAR EGXV 110850Z AUTO 30005KT 9999 FEW140/// 03/01 Q1013=
METAR EGXW 110850Z 25008KT CAVOK 04/01 Q1014 BLU=
METAR EGYD 110850Z 26013KT 9999 FEW040 03/01 Q1015 BLU NOSIG=
0000009000
630
SASA85 EGRR 110800 RRH
METAR SBBQ 110800Z 07004KT 9999 SCT020 19/18 Q1022=
0000024300
631
SASA85 EGRR 110900
METAR SBBV 110900Z 07006KT CAVOK 23/19 Q1011=
METAR SBCG 110900Z 33006KT CAVOK 22/17 Q1013=
METAR SBPA 110900Z 09003KT 9999 FEW010 SCT100 21/20 Q1011=
METAR SBSL 110900Z 10002KT 9999 FEW017 25/21 Q1010=
0000012800
632
SIGI21 EGRR 110900
AAXX 11094
08495 42460 71002 10144 20124 30183 40189 53020 85532
  333 82712 84623 85360=
0000190100
633
UDEU02 EGRR 110900
AMDAR 1108
ASC EU7008   5228N 00145W 110839 F013 PS030 287/020 TB/ S031=
ASC EU7008   5229N 00146W 110839 F020 PS020 295/022 TB/ S031=
ASC EU7008   5230N 00148W 110839 F027 PS002 291/024 TB/ S031=
ASC EU7008   5231N 00149W 110839 F035 MS017 285/028 TB/ S031=
ASC EU7008   5233N 00151W 110839 F044 MS040 288/029 TB/ S031=
ASC EU7008   5234N 00152W 110839 F053 MS050 286/031 TB/ S031=
ASC EU7008   5235N 00154W 110839 F062 MS072 281/028 TB/ S031=
ASC EU7008   5236N 00155W 110839 F075 MS092 279/027 TB/ S031=
ASC EU7008   5237N 00157W 110839 F089 MS122 279/030 TB/ S031=
ASC EU7008   5239N 00159W 110839 F117 MS172 278/044 TB/ S031=
ASC EU7008   5241N 00203W 110840 F151 MS230 286/074 TB/ S031=
ASC EU7008   5243N 00206W 110840 F173 MS275 293/086 TB/ S031=
ASC EU7008   5245N 00210W 110840 F193 MS317 295/086 TB/ S031=
ASC EU7008   5248N 00214W 110841 F209 MS350 294/084 TB/ S031=
ASC EU7008   5250N 00218W 110841 F228 MS382 291/094 TB/ S031=
ASC EU7008   5253N 00222W 110841 F249 MS427 290/095 TB/ S031=
ASC EU7008   5255N 00225W 110842 F262 MS450 289/080 TB/ S031=
ASC EU7008   5259N 00228W 110842 F272 MS455 281/067 TB/ S031=
ASC EU7008   5302N 00231W 110842 F280 MS477 275/060 TB/ S031=
ASC EU7008   5305N 00234W 110843 F280 MS477 281/062 TB/ S031=
ASC EU7008   5309N 00237W 110843 F280 MS470 277/061 TB/ S031=
ASC EU7008   5312N 00240W 110843 F280 MS472 276/061 TB/ S031=
ASC EU7008   5315N 00243W 110844 F280 MS472 277/061 TB/ S031=
ASC EU7008   5318N 00246W 110844 F281 MS477 281/064 TB/ S031=
ASC EU7008   5322N 00249W 110844 F280 MS477 284/065 TB/ S031=
ASC EU7008   5325N 00252W 110845 F280 MS477 287/065 TB/ S031=
ASC EU7008   5328N 00255W 110845 F280 MS475 285/062 TB/ S031=
ASC EU7008   5331N 00258W 110845 F280 MS472 284/059 TB/ S031=
ASC EU7008   5335N 00301W 110846 F279 MS472 286/058 TB/ S031=
00000000