0000057700
206
SANO31 ENMI 110250
METAR ENAN 110250Z 11011KT CAVOK M06/M14 Q1016=
METAR ENBR 110250Z 16005KT 9999 -RA FEW008 SCT023 BKN030 03/02 Q0997
           RMK WIND 1200FT 22013KT=
METAR ENBO 110250Z 11017KT 070V160 CAVOK M07/M17 Q1011=
METAR ENDU 110250Z 23001KT CAVOK M26/M28 Q1017=
METAR ENGM 110250Z 02003KT 330V050 9000 SCT006 BKN012 M03/M03 Q0997=
METAR ENOL 110250Z 08012KT CAVOK M09/M13 Q1001=
METAR ENVA 110250Z 08008KT CAVOK M11/M17 Q1003 RMK WIND 670FT
           12009KT=
METAR ENZV 110250Z 26008KT 9999 FEW020 SCT050 BKN100 07/05 Q1000=

0000011000
207
SAUK31 EGGY 110250 CCA
METAR COR EGLL 110250Z 21007KT 9000 FEW034 BKN040 08/07 Q1012 NOSIG=

0000028100
208
FTUS53 KWBC 110254
TAF
TAF KRFD 110246Z 1103/1124 18010G18KT 3SM -RA BR OVC004
     FM110400 18012KT 1 1/2SM -DZ BR VCSH OVC004
      TEMPO 1104/1107 1/2SM FG OVC002
     FM110900 26012G18KT P6SM VCSH BKN007 OVC012
     FM111700 27013G21KT P6SM SCT015=

0000029400
209
FTUS54 KWBC 110254 AAA
TAF AMD
KACV 110250Z 1103/1124 12004KT P6SM OVC045
     FM110400 13005KT 4SM BR OVC005
     FM110700 15010KT 4SM BR OVC004
     FM111000 18015G25KT 2SM RA BR OVC004
     FM112100 21009KT 2SM RA BR OVC020
     FM112300 24009KT 3SM BR OVC020=

0000020600
210
FTUS53 KWBC 110254 AAA
TAF AMD
KBWG 110251Z 1103/1124 19012G20KT 4SM -SHRA BR OVC015
     FM110600 18014G24KT 4SM -SHRA BR VCTS OVC007CB
     FM111100 24012G18KT P6SM SCT010 BKN050=

0000028100
211
FTUS80 KWBC 110254
TAF
TAF KRFD 110246Z 1103/1124 18010G18KT 3SM -RA BR OVC004
     FM110400 18012KT 1 1/2SM -DZ BR VCSH OVC004
      TEMPO 1104/1107 1/2SM FG OVC002
     FM110900 26012G18KT P6SM VCSH BKN007 OVC012
     FM111700 27013G21KT P6SM SCT015=

0000049700
212
FTUS80 KWBC 110254 AAA
TAF AMD
KACV 110250Z 1103/1124 12004KT P6SM OVC045
     FM110400 13005KT 4SM BR OVC005
     FM110700 15010KT 4SM BR OVC004
     FM111000 18015G25KT 2SM RA BR OVC004
     FM112100 21009KT 2SM RA BR OVC020
     FM112300 24009KT 3SM BR OVC020=
KBWG 110251Z 1103/1124 19012G20KT 4SM -SHRA BR OVC015
     FM110600 18014G24KT 4SM -SHRA BR VCTS OVC007CB
     FM111100 24012G18KT P6SM SCT010 BKN050=
KLAS 110251Z 1103/1124 VRB06KT P6SM BKN250=

0000140000
213
SPUS70 KWBC 110254
SPECI
KAGS 110250Z 00000KT 2 1/2SM BR OVC004 10/09 A3010 RMK AO2 LTG
     DSNT NE TSE02RAE40 P0002=
KAOO 110250Z AUTO 12003KT 3SM BR OVC005 01/00 A3012 RMK AO2=
KBRL 110250Z AUTO 22005KT 1/4SM FG VV006 03/03 A2953 RMK AO2 RAE32
     P0000=
KJEF 110250Z 19003KT 10SM SCT012 BKN020 OVC028 08/07 A2957 RMK
     AO2=
KLBT 110250Z AUTO 20006KT 2 1/2SM BR OVC005 18/18 A3012 RMK AO2
     RAE10 P0000=
KMEM 110250Z 32016G19KT 1SM R36L/P6000FT +TSRA BR FEW006 OVC019CB
     12/11 A2975 RMK AO2 TSB48RAB17 OCNL LTGIC W TS W MOV NE
     P0009=
KMGJ 110250Z AUTO 00000KT 2SM BR OVC007 00/M01 A3026 RMK AO2 CIG
     004V008 TSNO=
KABY 110251Z 13004KT 1/2SM FG VV002 16/16 A3008 RMK AO2=
KBFD 110251Z AUTO 14011KT 7SM SCT002 SCT050 02/01 A3000 RMK AO2
     TSNO=
KEVV 110251Z 20005KT 3SM RA BR BKN010 OVC015 09/08 A2974 RMK AO2
     P0021=
KEYE 110251Z AUTO 16007KT 1/2SM -RA FG VV002 06/06 A2971 RMK AO2
     P0002=
KGEZ 110251Z AUTO 18010KT 1SM -RA BR BKN003 OVC013 07/06 A2975 RMK
     AO2 RAB04 P0001=
KGON 110251Z 00000KT 1SM R05/6000VP6000FT BR OVC004 03/02 A3030
     RMK AO2=
KIGX 110251Z AUTO 00000KT 1 1/2SM -RA BR OVC002 06/06 A3015 RMK
     AO2 RAB12 P0001=
KLLQ 110251Z AUTO 26005KT 2SM +RA BR FEW005 BKN010 OVC028 16/14
     A2974 RMK AO2 P0024=
KOJC 110251Z 28006KT 2SM BR OVC002 02/02 A2960 RMK AO2=

0000012600
214
SPUS31 KWBC 110254
SPECI
KMEM 110250Z 32016G19KT 1SM R36L/P6000FT +TSRA BR FEW006 OVC019CB
12/11 A2975=

0000010100
215
SPUS42 KWBC 110254
SPECI
KCHA 110250Z 17005KT 1SM -DZ BKN004 OVC007 09/08 A3002=

0000010100
216
SAFK41 EGYP 110250
METAR EGYP 110250Z 19028KT 9999 FEW018 BKN038 03/M00 Q1002 BLU=

0000062100
217
SANO32 ENMI 110250
METAR ENAL 110250Z NIL=
METAR ENCN 110250Z AUTO 24006KT 9999NDV OVC019/// 05/04 Q1000=
METAR ENHD 110250Z AUTO 26017KT 9999NDV NCD 07/04 Q0999=
METAR ENRO 110250Z AUTO 09009KT 6000NDV -SN BKN006/// OVC017///
           M15/M18 Q0998=
METAR ENRY 110250Z AUTO 21008KT 9999NDV FEW110/// SCT130/// 01/M00
           Q0998=
METAR ENSB 110250Z 25007KT 9999 FEW018 BKN025 M01/M05 Q1008 RMK WIND
           1400FT 22019KT=
METAR ENTC 110250Z 15003KT CAVOK M12/M14 Q1017 RMK WIND 2600FT
           10009KT=
METAR ENTO 110250Z AUTO 26004KT 9999NDV BKN120/// 01/M00 Q0997=

0000079900
218
SAIY31 LIIB 110250
METAR LIEA 110250Z VRB01KT 8000 0500W BCFG NSC 06/06 Q1020=
METAR LIEE 110250Z 33005KT 9000 MIFG NSC 06/06 Q1019=
METAR LIEO 110250Z 00000KT 1200 R05/0900VP1500D BR NSC 05/04 Q1021=
METAR LIMC 110250Z 00000KT 6000 BKN040 07/06 Q1021 NOSIG=
METAR LIME 110250Z NIL=
METAR LIMF 110250Z 00000KT 7000 BKN030 07/05 Q1022=
METAR LIMJ 110250Z VRB01KT 9999 FEW018 BKN040 12/10 Q1021=
METAR LIML 110250Z 08002KT 5000 -DZ BR SCT005 BKN030 08/07 Q1022
NOSIG=
METAR LIRA 110245Z 03001KT 9999 SCT030 SCT070 07/06 Q1021=
METAR LIRF 110250Z 06003KT 5000 BR NSC 06/06 Q1022 NOSIG=
METAR LIRN 110250Z 31003KT 5000 BR NSC 07/05 Q1022=
METAR LIRP 110245Z 11003KT 9999 BKN050 08/07 Q1021 NOSIG=
METAR LIRQ 110250Z 00000KT 5000 BR FEW020 BKN040 11/11 Q1021=

0000009200
219
SAMT20 GQPP 110300
METAR GQPP 110300Z 30004KT 7000 NSC 17/15 Q1015 NOSIG=

0000064400
220
SAIY32 LIIB 110250
METAR LIBD 110250Z 23007KT 7000 NSC 06/06 Q1022=
METAR LIBR 110245Z 25002KT 8000 NSC 06/05 Q1022 NOSIG=
METAR LICC 110250Z NIL=
METAR LICJ 110250Z 06005KT CAVOK 12/09 Q1021=
METAR LIPB 110250Z NIL=
METAR LIPE 110250Z VRB01KT 1700 0800W R12/1300V1500N PRFG SCT001
BKN050 07/07 Q1022=
METAR LIPH 110250Z NIL=
METAR LIPK 110250Z NIL=
METAR LIPQ 110250Z VRB01KT 0200 R09/0300 FG OVC003 07/04 Q1021=
METAR LIPR 110245Z /////KT 6000 BKN050 08/08 Q1022=
METAR LIPX 110245Z 00000KT 1000 R04/P1500N BR FEW010 BKN045 08/06
      Q1022=
METAR LIPZ 110250Z VRB01KT 3500 BR BKN050 08/07 Q1021=

0000025200
221
SANO34 ENMI 110250
METAR ENBN 110250Z NIL=
METAR ENBV 110250Z NIL=
METAR ENFG 110250Z NIL=
METAR ENHF 110250Z VRB01KT CAVOK M10/M12 Q1016 RMK WIND 1254FT
           19004KT=
METAR ENRA 110250Z NIL=
METAR ENSH 110250Z NIL=

0000012200
222
SAEU31 BKPR 110300
BKPR 110300Z 00000KT 0100 R17/0175 FZFG OVC002 M01/M02 Q1023 NOSIG
 RMK 17010095 =

0000008700
223
SAIY32 LIIB 110250 RRA
METAR LICC 110250Z 24008KT CAVOK 07/04 Q1021=

0000074500
224
SANO39 ENMI 110250
METAR ENNE 110250Z NIL=
METAR ENQR 110250Z AUTO VRB10G22KT 9999NDV -RA SCT017/// BKN040///
           02/M01 Q0997 W///S/=
METAR ENSE 110250Z AUTO 08022KT 9999NDV FEW016/// SCT023/// BKN039///
           02/M01 Q0997 W///S5=
METAR ENQC 110250Z AUTO 06010KT 9999NDV OVC014/// 03/00 Q0996
           W///S4=
METAR ENQA 110250Z AUTO 07012KT 9999NDV FEW031/// SCT057/// BKN077///
           03/02 Q0997 W04/S4=
METAR ENHM 110250Z AUTO 28031KT 9999NDV -SHRA FEW018/// SCT031///
           BKN038/// 06/02 Q0998 W08/S5=
METAR ENVH 110250Z AUTO 30017KT 9999NDV -RA BKN009/// 07/06 Q1003
           W///S4=
METAR ENLA 110250Z AUTO 30022KT 9999NDV BKN074/// 07/03 Q1003
           W///S4=

0000066300
225
SAGR31 LGAT 110250
METAR LGAD 110250Z 14004KT 9999 SCT020 12/09 Q1022=
METAR LGAV 110250Z 24003KT CAVOK 07/05 Q1020 NOSIG=
METAR LGIR 110250Z 17006KT 9999 FEW025 11/09 Q1021 NOSIG=
METAR LGKL 110250Z 00000KT 9999 SCT080 10/08 Q1022=
METAR LGKO 110250Z NIL=
METAR LGKR 110250Z 00000KT 9999 FEW014 SCT018 BKN070 11/10 Q1022
 NOSIG=
METAR LGLM 110250Z AUTO 33004KT //// // ////// 11/10 Q1020
     RE//=
METAR LGRP 110250Z 00000KT 9999 FEW018 11/07 Q1021 NOSIG=
METAR LGSA 110250Z 26014KT 9999 FEW020 14/09 Q1020=
METAR LGSM 110250Z NIL=
METAR LGTS 110250Z 09004KT 0100 R16/0250 R34/0400 FG OVC001 05/04
      Q1022 NOSIG=

00000000