0000021000
326
SAUS73 KWBC 102300 RRF
METAR
KCIU 102315Z AUTO 13010KT 5SM OVC006 M02/M02 A2983=
KELO 102313Z AUTO 18006KT 3SM -SN OVC009 M05/M06 A2951=
KLBL 102315Z AUTO 33011KT 10SM CLR 08/M12 A2971=

0000009500
327
SAUS74 KWBC 102300 RRD
METAR
KOTH 102315Z 19008KT 10SM OVC030 12/10 A3012=

0000018800
328
FTCN31 CWAO 102300 AAA
TAF AMD CYCG 102318Z 1023/1101 VRB03KT P6SM SCT020 BKN050 TEMPO
     1023/1101 5SM -SHRA BR BKN020
    RMK NXT FCST WILL BE ISSUED AT 111545Z=

0000164400
329
SPUS70 KWBC 102318
SPECI
KAUW 102314Z AUTO 12006KT 1 1/4SM -SN BR OVC007 M03/M03 A2960 RMK
     AO2 CIG 004V011 P0001 T10281033=
KPSX 102314Z AUTO 20005KT 1 3/4SM BR FEW002 BKN013 18/17 A2983 RMK
     AO2 T01780167=
KGRB 102314Z 15009KT 4SM UP BR OVC005 01/00 A2967 RMK AO2 UPB2255
     P0000 T00110000=
KIOW 102314Z AUTO 13004KT 1 1/2SM BR OVC004 01/01 A2955 RMK AO2
     UPE2256 P0000=
KLNR 102314Z AUTO 07005KT 4SM -RA BR OVC008 01/M01 A2959 RMK AO2
     PRESFR P0000 T00061006=
KENW 102314Z 13008KT 2SM -RA BR BKN004 OVC041 02/01 A2966 RMK AO2
     P0003 T00170006=
KFLD 102314Z AUTO 15009KT 4SM RA BR OVC005 01/M01 A2963 RMK AO2
     P0002 T00061006=
PAWI 102314Z AUTO 31006KT 10SM FEW007 OVC095 A2994 RMK AO2 TSNO
     $=
KHFF 102305Z 04006KT 8SM -RA FEW003 BKN013 09/09 A3017 RMK AO2
     SLP221=
KDCA 102315Z 06003KT 3/4SM R01/2800VP6000FT -RA BR OVC008 03/02
     A3031 RMK AO2 VIS E 1 1/2 P0001=
KFRG 102315Z 00000KT 1SM BR SCT006 OVC012 02/02 A3034 RMK AO2=
KFTY 102315Z 00000KT 2SM BR OVC003 09/09 A3008 RMK AO2=
KGRD 102315Z AUTO 04004KT 1 3/4SM BR OVC003 08/07 A3016 RMK
     AO2=
KHWO 102315Z 11005KT 10SM SCT020 24/22 A3009 RMK AO2=
KINT 102315Z 03005KT 2SM BR OVC003 03/03 A3020 RMK AO2=
KISW 102315Z AUTO 11006KT 4SM -FZRA BR OVC006 M01/M02 A2961 RMK
     AO2 UPB2257E09FZRAB09SNE2257 P0002 I1001 T10061017=
KMRB 102315Z 09003KT 2 1/2SM BR OVC004 02/00 A3026 RMK AO2
     T00170000=
KTQE 102315Z AUTO 00000KT 5SM BR SCT008 OVC015 02/00 A2956 RMK AO2
     T00220000=
PAKN 102315Z 36004KT 10SM FEW004 BKN025 M02/M02 A2943 RMK AO2 PNO
     $=

0000009600
330
SPUS43 KWBC 102318
SPECI
KGRB 102314Z 15009KT 4SM UP BR OVC005 01/00 A2967=

0000012600
331
SAZS31 NSTU 102256
METAR NSTU 102153Z 35014KT 12SM SCT015 SCT040 BKN100 29/25 A2970 RMK
SLP058 T02940247=

0000014100
332
SAZS31 NSTU 102256
METAR NSTU 102255Z 33007KT 7SM VCSH SCT013 BKN037 OVC080 29/25 A2970
RMK VCSH NE-SE SLP059 T02920245=

0000010100
333
SAMX31 KWBC 102305
METAR MNMG 102300Z 04008KT 9999 FEW025 29/20 Q1008 A2979 NOSIG=

0000009600
334
SABA31 MYNN 102300
METAR MYNN 102300Z 12007KT 9999 FEW018 BKN040 25/22 A3010=

0000034600
335
FTCN36 CWAO 102300 AAA
TAF AMD CYUL 102319Z 1023/1118 VRB03KT P6SM OVC025 TEMPO 1023/1111
     6SM BR OVC020
    FM111100 10008KT 5SM -FZDZ BR SCT003 OVC020 PROB40 1111/1113 2SM
     -FZRA BR OVC003
    FM111300 12015KT 11/2SM -RA BR OVC005
    FM111500 16018KT 3SM -RA BR SCT009 OVC012
    RMK NXT FCST BY 110000Z=

0000021500
336
FTCN31 CWAO 102300 AAA
TAF AMD CYBL 102319Z 1023/1105 09010KT 2SM -RA BR BKN004 OVC012 TEMPO
     1023/1105 6SM -RA SCT004 OVC012
     BECMG 1100/1102 13015G30KT
    RMK NXT FCST BY 110100Z=

0000012200
337
SAEO31 EETN 102320
METAR EETN 102320Z 34011KT 310V010 1900 SN OVC005 M00/M01 Q0993 RESN 
R08/290195 =

0000063600
338
WWCN02 CYTR 111048
WEATHER BULLETIN FOR CFB TRENTON PREPARED BY THE JOINT METEOROLOGICAL
CENTRE AT 5:48 AM EST SATURDAY 11 JANUARY 2014.
LOCATION: CFB TRENTON (CYTR)
TYPE: WHITE WIND WARNING IN EFFECT
DESCRIPTION: SURFACE WINDS GREATER THAN OR EQUAL TO 25 KNOTS
VALID: 12/0100Z TO 12/2200Z (11/2000 EST TO 12/1700 EST)
COMMENTS: STRONG SOUTHWEST WINDS ARE EXPECTED TO DEVELOP THIS
EVENING AHEAD OF AN APPROACHING COLD FRONT. BEHIND THE FRONT, STRONG
WESTERLY WINDS ARE EXPECTED FOR TONIGHT AND INTO LATE SUNDAY
AFTERNOON.
NEXT UPDATE: THIS BULLETIN WILL BE UPDATED BY 11/1700Z (11/1200 EST)
END/JMC
0000036800
339
FTRA35 RUMS 102300
TAF UHBB 102250Z 1100/1124 30003MPS CAVOK=
TAF UHSS 102300Z 1100/1206 36003MPS 5000 FU BKN025CB 530007 BECMG
1101/1102 28006MPS 9999 NSW TEMPO 1102/1206 2100 SHSN BKN007
BKN020CB=
TAF UHWW 102255Z 1100/1124 VRB02MPS 5000 FU SCT100 BECMG 1102/1104
25004MPS BECMG 1108/1110 34004MPS 3000 -SHSN HZ SCT020CB BKN100
530107=

0000081000
340
FTRS36 RUMS 102300
TAF ULAA 102300Z 1100/1124 05006G12MPS 2000 SN DRSN OVC005 650050
530001 TEMPO 1100/1124 08009G16MPS 0600 +SN BLSN BKN003=
TAF ULMM 102300Z 1100/1124 VRB02MPS 9999 BKN004 BKN012 TEMPO
1100/1107 0300 FZFG VV002 TEMPO 1107/1115 07004G09MPS 2100 -SHSN BR
BKN011CB TEMPO 1115/1124 1300 -SHSN BR BKN003 BKN010CB=
TAF UMKK 102300Z 1100/1124 27007MPS 9999 BKN010 BKN100 TEMPO
1100/1106 30005G10MPS 3000 -SHRA BKN007 BKN015CB TEMPO 1106/1112
27007G12MPS 3000 -SHRA BKN007 BKN015CB BECMG 1112/1114 24006G11MPS
5000 -RA BR BKN007 TEMPO 1112/1124 23008G13MPS 2000 SHRA SCT004
BKN010CB=
TAF UUYY 102300Z 1100/1124 06006G12MPS 2000 SHSN BR BKN007 BKN010CB
BKN070 650070 TEMPO 1100/1109 0700 +SHSN BKN004 BKN007CB TEMPO
1109/1124 0500 +SHSN BLSN BKN003 BKN007CB=

0000044800
341
FTRA32 RUMS 102300
TAF UHHH 102250Z 1100/1206 25010MPS CAVOK 530002 TEMPO 1100/1108
25010G15MPS=
TAF UHMA 102255Z 1100/1124 36012G17MPS 5000 -BLSN SCT030 650309
530003 550309 TEMPO 1100/1124 06022G27MPS 0500 +BLSN VV002=
TAF UHMM 102250Z 1100/1206 05006G12MPS 9999 DRSN SCT030 BKN100 530009
530906=
TAF UHPP 102250Z 1100/1206 10006MPS 9999 BKN020CB OVC100 650200
550009 TEMPO 1100/1110 04005G10MPS 2000 SHSN BKN006=

0000042200
342
FTRS31 RUMS 102300
TAF ULLI 102307Z 1100/1124 34007G13MPS 3000 -SHSN BLSN BKN006
BKN012CB 530003 TEMPO 1100/1109 33010G15MPS 0700 +SHSN BLSN BKN003
BKN015CB TEMPO 1109/1115 33009G15MPS 1600 SHSN BLSN=
TAF UWGG 102259Z 1100/1124 20005G10MPS 2100 -SHSNRA OVC007 SCT012CB
650070 530003 TEMPO 1100/1115 17007G14MPS 1000 SHSNRA VV004
FM111500 24006G14MPS 2100 -SHSNRA BKN009 SCT012CB 650090 530003=

0000013600
343
FTRA31 RUMS 102300
TAF UEEE 102300Z 1100/1206 VRB02MPS 1000 -SN BR OVC070 TM44/1100Z
TEMPO 1100/1115 0300 FG VV003=

0000081900
344
FTRA34 RUMS 102300
TAF UNAA 102249Z 1100/1124 24005MPS 9999 SCT030CB BKN100 530009 TEMPO
1100/1112 21008G13MPS 1000 SHSN BLSN SCT004 BKN020CB OVC100 640005=
TAF UNBB 102300Z 1100/1124 20008G14MPS 3000 -SHSN DRSN BKN010CB
530005 TEMPO 1100/1112 0500 +SHSN BLSN SCT002 BKN004 650040 TEMPO
1112/1124 1200 SHSN BKN005=
TAF UNKL 102250Z 1100/1124 20006MPS 5000 -SHSN BKN020CB OVC100 TEMPO
1100/1103 23007G12MPS 0800 +SHSN BLSN TEMPO 1103/1115 23009G14MPS
0500 +SHSN BLSN SCT005 BKN015CB OVC100 530009=
TAF UNNT 102255Z 1100/1124 20008G15MPS 3000 -SHSN DRSN BKN010CB
530005 TEMPO 1100/1103 0500 +SHSN BLSN SCT002 BKN004 650040 TEMPO
1103/1124 1200 SHSN BKN005=
TAF UNOO 102251Z 1100/1124 20010MPS 2000 SHSN BLSN BKN020CB 650200
530002 TEMPO 1100/1112 1000 SHSN BLSN BKN007 BKN020CB=

0000059300
345
FTRA37 RUMS 102300
TAF USTR 102300Z 1100/1124 17006G11MPS 2000 SHSN BR BKN007 BKN015CB
650070 TEMPO 1100/1106 0400 +SHSN FZRA FZFG VV002 640000 TEMPO
1106/1124 1500 SHSN=
TAF USHH 102253Z 1100/1124 05005MPS 4000 -SN BKN010 OVC070 620100
TEMPO 1100/1106 2000 SN BR BKN005 OVC070 620050=
TAF USRR 102242Z 1100/1124 06003MPS 4000 -SN BR SCT007 BKN066 TEMPO
1100/1104 1000 BR BKN003 TEMPO 1104/1112 2000 SN BKN005=
TAF USSS 102300Z 1100/1124 14004MPS 2000 SHSN BKN007 BKN020CB 650070
TEMPO 1100/1103 0800 +SHSN VV003 BECMG 1103/1105 5000 -SHSN BKN010
SCT020CB=

00000000