0000022800
466
FTAG41 SAEZ 102300
TAF SAEZ 102300Z 1100/1124 18010KT 9999 FEW050TCU TX26/1118Z
TN15/1109Z TEMPO 1100/1106 15010G20KT 9000 -SHRA BKN030 FEW050CB
BECMG 1109/1112 15015KT 9999 SCT040 BECMG 1121/1124 11010KT=

0000009200
467
SPCN43 CWAO 102224
SPECI CYEN 102224Z 31009KT 3SM BR DRSN OVC012 RMK SC8=

0000103600
468
FTBZ31 KWBC 102227
TAF
TAF SBBR 102300Z 1100/1124 06005KT 9999 SCT030 TN19/1108Z
      TX30/1118Z
      BECMG 1101/1103 CAVOK
      BECMG 1110/1112 06008KT FEW030
      BECMG 1114/1116 SCT035 FEW040TCU PROB30 1118/1123 TS
      FEW030CB
      RMK PDC=
TAF SBCG 102210Z 1106/1206 30008KT 9999 FEW045 TN20/1108Z
      TX33/1117Z
      BECMG 1113/1115 SCT040 FEW045TCU PROB40
      TEMPO 1118/1124 8000 TSRA BKN045 F EW050CB
      BECMG 1200/1202 FEW040 RMK PEL=
TAF SBFI 102210Z 1106/1206 30008KT 9999 FEW025 TN22/1108Z
      TX32/1117Z
      BECMG 1113/1115 SCT030 FEW035TCU PROB40
      TEMPO 1118/1124 8000 TSRA BKN030 F EW035CB
      BECMG 1200/1202 20006KT SCT030 PROB30 1202/1206 5000 BR
      BKN008 RMK P EL=
TAF SBPA 102210Z 1106/1206 20008KT 9999 SCT045 TN24/1108Z
      TX27/1116Z PROB30 1106/1109 SCT010 SCT040
      BECMG 1113/1115 15006KT SCT040 FEW045TCU PRO B40
      TEMPO 1115/1124 4000 TSRA BR SCT008 BKN030 FEW045CB
      BECMG 1200/1202 SCT025 RMK PEL=

0000063900
469
FTCA32 KWBC 102227
TAF
TAF MDLR 102200Z 1100/1124 00000KT 9999 SCT020 PROB30 1106/1112
      7000 -SHRA BKN018
      BECMG 1114/1115 10010KT=
TAF MDPC 102200Z 1100/1124 10008KT 9999 SCT020 PROB30 1106/1112
      8000 -SH BKN016 SCT070=
TAF MDPP 102200Z 1100/1124 00000KT 9999 SCT020 PROB30 1106/1112
      7000 -SHRA BKN018
      BECMG 1113/1115 12010KT=
TAF MDSD 102200Z 1100/1124 02006KT 9999 SCT020 PROB30 1100/1106
      7000 -SHRA BKN018
      BECMG 1114/1116 15012KT=
TAF MDST 102200Z 1100/1124 00000KT 9999 SCT020 PROB30 1106/1112
      7000 -SHRA BKN018
      BECMG 1113/1115 13010KT=

0000032300
470
SANL31 EHDB 102225
METAR EHAM 102225Z 21014KT 9000 FEW008 SCT010 06/05 Q1014 TEMPO 7000
BKN010=
METAR EHBK 102225Z AUTO 20010KT 9999 NSC 04/02 Q1017=
METAR EHGG 102225Z AUTO 22013KT 190V250 5000 BR BKN008 OVC009 06/05
Q1013=
METAR EHRD 102225Z AUTO 21014KT 8000 BKN009 OVC010 06/04 Q1015 NOSIG=

0000026000
471
FTUS43 KWBC 102227 AAA
TAF AMD
KFOD 102225Z 1022/1118 15003KT 3SM -SN BR OVC003
      TEMPO 1022/1101 1SM -SN BR OVC002
     FM110200 21004KT 5SM BR OVC012
     FM110900 27005KT P6SM SCT012 BKN080
     FM111400 30011KT P6SM OVC100=

0000021300
472
FTUS74 KWBC 102227 AAA
TAF AMD
KACV 102225Z 1022/1118 26005KT 3/4SM BR OVC002
      TEMPO 1022/1101 2SM BR
     FM110100 VRB04KT 2SM BR OVC002
     FM110700 16012G22KT 4SM -RA BR OVC015=

0000010400
473
SATH33 VTBB 102200 RRB
METAR VTUU 102200Z 04002KT 7000 NSC 18/17 Q1013 A3000
NOSIG=

0000056000
474
FTEG31 HECA 102200
TAF HEAX 102300Z 1100/1206 31010KT 9999 SCT025 TEMPO 1100/1106
VRB03KT 3000BR NSC=
TAF HECA 102300Z 1100/1206 30010KT 9999 FEW025 TEMPO 1100/1107
VRB03KT 2000BR NSC=
TAF HELX 102300Z 1100/1206 VRB03KT CAVOK=
TAF HESN 102300Z 1100/1206 36008KT CAVOK=
TAF HEBL 102300Z 1100/1206 36008KT CAVOK=
TAF HEAT 102300Z 1100/1206 36010KT CAVOK=
TAF HESG 102300Z 1100/1206 35010KT CAVOK=
TAF HETB 102300Z 1100/1206 25008KT 7000 SCT020 TEMPO 1100/1107
VRB03KT 2000 BR=
TAF HEMA 102300Z 1100/1206 28012G22KT CAVOK=

0000133600
475
SPUS70 KWBC 102226
SPECI
K9F2 102215Z 11006KT 1SM VV001 18/18 A2992 RMK LAST=
KAMW 102222Z AUTO 08003KT 1 3/4SM BR BKN003 OVC013 00/00 A2954 RMK
     AO2 T00000000=
KFIG 102222Z AUTO 03006KT 9SM SCT011 OVC046 01/00 A3018 RMK AO2
     T00110000=
KLNR 102222Z AUTO 09010KT 1 3/4SM BR OVC006 01/00 A2959 RMK AO2
     RAE16 CIG 002V009 P0001 T00060000=
KMIE 102222Z 18011KT 1 3/4SM BR OVC004 05/04 A2987 RMK AO2
     T00500039=
KSBM 102222Z AUTO 16010KT 3/4SM -RA BR OVC002 01/01 A2972 RMK AO2
     RAB19 P0000 T00110011=
KTAN 102221Z AUTO 00000KT 1 1/4SM BR OVC004 02/00 A3037 RMK AO2
     T00220000=
KAKH 102223Z AUTO 04006KT 1 1/2SM -RA BR OVC002 07/06 A3017 RMK
     AO2 P0000=
KBFD 102223Z AUTO 14006KT 1/2SM FG VV002 01/01 A3011 RMK AO2
     T00110006 TSNO=
KGON 102223Z AUTO 00000KT 1SM R05/6000VP6000FT -RA BR OVC006 02/02
     A3036 RMK AO2 UPB2158E07RAB23 P0000 FZRANO TSNO=
KMKE 102223Z 16014KT 1 1/2SM FZRA BR OVC002 01/01 A2971 RMK AO2
     RAB00E20FZRAB20 P0004 I1000 T00110006=
KSGR 102223Z 19014G19KT 10SM SCT017 BKN024 OVC070 21/18 A2981 RMK
     AO2=
PAGK 102223Z AUTO 33003KT 3SM BR OVC080 M09/M11 A2933 RMK AO2
     SNB2154E03 P0000 T10891106 TSNO=
PAHC 102223Z AUTO 36010KT 7SM FEW042 BKN050 OVC065 M16/M19 A2957
     RMK AO2 TSNO BLSNB2159E23 $=

0000010100
476
SACA33 KWBC 102200 RRD
METAR
TFFR 102224Z 08007KT 9999 SCT034 25/19 Q1016 NOSIG=

0000009900
477
SAIY32 LIIB 102220 RRB
METAR LIBR 102215Z 00000KT 7000 FEW020 08/07 Q1021 NOSIG=

0000009900
478
SPPR00 SPIM 102230
SPECI SPJR 102230Z 15006KT 9999 SCT023 OVC037 16/11 Q1024 WS=

0000011300
479
SPCN45 CWAO 102225
SPECI CYLK 102225Z 10002KT 2SM -SN OVC060 RMK SC8 VIS VRBL 1 1/2 - 2
1/2=

0000013100
480
FTUS52 KWBC 102224 AAA
TAF AMD
KSJT 102223Z 1022/1118 28016G26KT P6SM FEW250
     FM110100 28008KT P6SM SKC=

0000035800
481
FTUS80 KWBC 102224 AAA
TAF AMD
KSJT 102223Z 1022/1118 28016G26KT P6SM FEW250
     FM110100 28008KT P6SM SKC=
KSSI 102221Z 1022/1118 13010KT 5SM BR BKN004
      TEMPO 1100/1102 2SM BR OVC003
     FM110200 14005KT 3SM BR BKN005 OVC010
     FM110600 15005KT 1SM BR BKN003 OVC006
     FM111400 19010G15KT P6SM VCSH BKN010 OVC020=

0000012700
482
SPCN52 CWAO 102224
SPECI CWFD 102224Z AUTO 20014KT 3/4SM CLR M20/ A2887 RMK VSBY VRBL
0.2V9.+ ICG PAST HR=

0000009900
483
SPCN31 CWAO 102223
SPECI CYQQ 102223Z 11006KT 20SM -RA FEW006 OVC035 RMK SF1SC7=

0000104700
484
SPUS70 KWBC 102224
SPECI
KAVL 102220Z 20004KT 1/2SM -RA FG OVC003 08/08 A3014 RMK AO2 RAB16
     P0001 RVRNO=
KFLO 102220Z 13006KT 7SM -RA FEW008 BKN080 OVC095 19/17 A3013 RMK
     AO2 P0002=
KMPO 102220Z AUTO 19005KT 1 3/4SM BR OVC002 01/00 A3023 RMK AO2
     T00110000=
PAMB 102220Z AUTO 04007KT 10SM BKN006 OVC015 M04/M04 A2943 RMK AO2
     TSNO $=
PANW 102217Z AUTO 36004KT 1SM BR OVC001 M07/M08 A2950 RMK AO2 TSNO
     $=
PAEN 102221Z 00000KT 2SM BR OVC006 M03/M04 A2942 RMK AO2=
KAOH 102221Z AUTO 15013KT 1/2SM FG OVC003 04/03 A2993 RMK AO2 PNO
     $=
KARA 102221Z AUTO 16013KT 10SM OVC009 20/17 A2992 RMK AO2 CIG
     009V014 TSNO=
KDPA 102221Z 16011KT 3SM -RA BR OVC004 02/02 A2968 RMK AO2 CIG
     004V008 P0010=
KGGG 102221Z 19010KT 3SM -RA BR FEW008 OVC015 17/16 A2974 RMK AO2
     P0004=
KTOI 102221Z AUTO 09004KT 3SM BR OVC002 13/12 A3005 RMK AO2
     RAB03E14 P0000 T01330122=
KVAY 102221Z AUTO 00000KT 1SM UP BR OVC003 01/01 A3033 RMK AO2
     UPB14 P0000 T00110011=

0000010800
485
SPUS41 KWBC 102224
SPECI
KWRI 102222Z AUTO 04004KT 1SM R06/2200FT BR VV003 02/02 A3031=

00000000