0000034200
046
SAIY35 LIIB 102200
METAR LIQN 102200Z NIL=
METAR LIQW 102200Z NIL=
METAR LIRG 102200Z NIL=
METAR LIRH 102200Z NIL=
METAR LIRL 102200Z NIL=
METAR LIRM 102155Z 01003KT 4000 BR SCT015 BKN060 11/10 Q1021=
METAR LIRS 102155Z /////KT 9999 FEW020 SCT040 11/08 Q1022=
METAR LIRU 102200Z NIL=
METAR LIRV 102200Z NIL=

0000027300
047
SAIY36 LIIB 102200
METAR LIBC 102200Z NIL=
METAR LIBF 102200Z NIL=
METAR LIBG 102200Z NIL=
METAR LIBP 102150Z 20004KT 4000 BR NSC 05/03 Q1022=
METAR LIRI 102200Z NIL=
METAR LIRJ 102200Z NIL=
METAR LIRZ 102150Z VRB01KT 9000 BKN045 08/08 Q1022=

0000025900
048
SAIY37 LIIB 102200
METAR LICA 102150Z 09006KT 9999 FEW025 06/06 Q1022=
METAR LICD 102150Z 20012KT CAVOK 16/13 Q1022=
METAR LICG 102200Z NIL=
METAR LICR 102150Z 01006KT CAVOK 11/01 Q1020=
METAR LICT 102155Z 00000KT CAVOK 12/10 Q1021=

0000015100
049
SATD31 TTPP 102200
METAR
TTPP 102200Z 10008KT 9999 FEW018 27/21 Q1012 NOSIG=
TTCP 102200Z 08006KT 9999 SCT015 26/20 Q1013 NOSIG=

0000009300
050
SPUS31 KWBC 102205
SPECI
KLIT 102201Z 16005KT 2SM BR OVC003 11/10 A2975=

0000009800
051
SPUS31 KWBC 102205
SPECI
KTEB 102201Z 00000KT 1 1/2SM BR OVC007 02/M01 A3035=

0000009700
052
SPUS41 KWBC 102205
SPECI
KCMH 102201Z 13010KT 9SM BKN007 OVC120 07/05 A3001=

0000011900
053
SPUS41 KWBC 102205
SPECI
KDOV 102203Z AUTO 05002KT 1 1/4SM R01/5000FT -RA BR OVC004 03/03
A3030=

0000011000
054
SPUS42 KWBC 102205
SPECI
KPNS 102201Z 00000KT 1/4SM R17/2400V2600FT FG VV003 16/15 A3001=

0000010700
055
SPUS43 KWBC 102205
SPECI
KBDE 102201Z AUTO 18008KT 4SM BR BKN012 OVC019 M04/M06 A2944=

0000010000
056
SPUS43 KWBC 102205
SPECI
KPIA 102201Z 17009KT 1 1/2SM RA BR OVC003 03/03 A2966=

0000087000
057
FTVN20 SVMI 101600
TAF SVMI 101600Z 1018/1118 05005KT 9999 SCT016 TX32/18Z TN22/10Z
BECMG 1020/1023 02004KT 9000 -DZ BKN016 BECMG 1103/1105 00000KT
9999 FEW016=
TAF SVMC 101600Z 1018/1118 34006KT 9999 FEW013 BKN090 TX32/18Z
TN22/09Z BECMG 1020/1023 VRB06KT SCT016 SCT080=
TAF SVBC 101600Z 1018/1118 09010KT 9999 FEW010 BKN270 TX32/18Z
TN22/09Z BECMG 1020/1023 36006KT 9000 DZ ST013 BKN080 BECMG 1103/1106
00000KT 9999 FEW013 SCT090=
TAF SVMG 101600Z 1018/1118 07010KT 9999 SCT010 SCT080 BKN270 TX29/16Z
TN24/09Z BECMG 1018/1021 02006KT 9000 DZ BKN016 BECMG 1109/1112
20005KT BKN013=
TAF SVSA 101600Z 1018/1118 34006KT 9000 VCFG SCT020 SCT090 TX29/19
TN20/08Z BECMG 1020/0923 18005KT 8000 VCDZ BKN020=
TAF SVJC 101600Z 1018/1118 09015G20KT 9999 FEW013 SCT080 TX33/28
TN25/10Z BECMG 1020/1023 07008KT 9000 VCDZ SCT016 BKN060=

0000090800
058
FTEQ01 SEQU 102205
TAF
SEQM 102150Z 1100/1124 08003KT 4000 BCFG SCT005
BKN020
     FM110600 00000KT 2000 DZ BR SCT003 BKN020 BKN100
FM111400 VRB03KT 9999 SCT023 SCT100
     FM111800 04005KT 9999 SCT023
BKN100 TX21/1119Z TN11/1111Z=
SELT 102150Z 1100/1124 17008KT 9999
BKN023 SCT100
     FM110600 VRB03KT 6000 -RA BCFG FEW010 BKN020 BKN100
    FM111200 17005KT 9999 BKN023 SCT100
     FM111800 20010KT 9999
SCT023 BKN100 TX20/1119Z TN11/1110Z=
SEMT 102150Z 1100/1124 20006KT
9999 OVC020
     FM111200 18005KT 9999 SCT020 TX29/1120Z
TN24/1110Z=
SEGU 102150Z 1100/1124 21007KT 9999 FEW010 BKN020 BKN090
TEMPO 1100/1103 8000 -RA
     FM110600 24005KT 9999 SCT010 BKN016
OVC080 TEMPO 1109/1112 8000 -RA
     FM111300 VRB03KT 9999 FEW010
SCT020 BKN090
     FM111800 06005KT 9999 SCT023 SCT100 TEMPO 1122/1124
6000 -RA BKN020 TX31/1119Z TX24/1110Z=

0000009900
059
SPCN46 CWAO 102205
SPECI CYBN 102205Z AUTO 14007KT 2 1/4SM OVC003 M01/M01 A3006=

0000010000
060
SAAG41 SAVC 102200
METAR SAVC 102200Z  05009KT 9999  FEW030 SCT200
19/01 Q1012=

0000015600
061
FTPL31 EPWA 101700 AAB
TAF AMD EPRZ 102201Z 1022/1118 27022G32KT 9999 BKN040
    BECMG 1101/1103 27012KT
    BECMG 1112/1114 21007KT=

0000049500
062
FTUS31 KWBC 102206 AAA
TAF AMD
KCVG 102205Z 1022/1124 16008KT 6SM BR OVC050
     FM110000 15010KT 4SM BR VCSH OVC015
     FM110600 17011KT 4SM -SHRA BR OVC008
     FM111200 22011G20KT P6SM VCSH OVC012
     FM111600 25016G25KT P6SM OVC022
     FM112300 26014KT P6SM BKN025=
KJAX 102203Z 1022/1118 14010KT P6SM VCSH SCT035
     FM110200 14005KT 5SM BR BKN010 BKN020
     FM110600 15005KT 2SM BR BKN005 OVC010
     FM111400 19012G18KT P6SM VCSH BKN015 OVC025=

0000070200
063
FTUS41 KWBC 102206 AAA
TAF AMD
KCAK 102203Z 1022/1118 17008KT 1/2SM FG OVC003
      TEMPO 1022/1102 1/4SM FG VV001
     FM110500 16012KT 2SM -RA BR OVC005 WS015/19045KT
     FM111700 22009KT 2SM BR OVC004=
KDAY 102204Z 1022/1118 15010KT 1/2SM FG OVC002
      TEMPO 1022/1024 1/4SM FG
     FM110000 15012KT 4SM BR VCSH OVC011
     FM110500 17015G23KT 4SM -RA BR OVC007
     FM111200 22015G25KT P6SM VCSH OVC013
     FM111500 24016G26KT P6SM OVC018=
KSYR 102205Z 1022/1118 12006KT P6SM SCT025 OVC050
      TEMPO 1023/1101 OVC025
     FM110100 18006KT P6SM SCT015 OVC022
     FM110700 18010KT 4SM -SHRA OVC012
     FM111200 13014KT 6SM -SHRA SCT008 OVC011=

0000009800
064
SANL33 EHDB 102155 RRA
METAR EHJR 102155Z AUTO 21029G33KT  09/08 Q1011 W10/H19=

0000011700
065
SACN62 CYVR 102200
METAR CYVR 102200Z 07007KT 15SM FEW035 OVC090 08/05 A2997 RMK SC2AS6
 SLP147=

00000000