0000199900
606
SPUS70 KWBC 102236
SPECI
KBMG 102232Z AUTO 15009KT 4SM -RA BR SCT009 BKN043 OVC075 07/06
     A2986 RMK AO2 P0002 T00670056=
KCLT 102232Z 02005KT 4SM -RA BR OVC003 06/06 A3018 RMK AO2
     P0007=
KDAY 102232Z 13010KT 1/4SM R06L/1800V2200FT FG VV002 05/04 A2992
     RMK AO2 PRESFR=
KHKS 102232Z 16010KT 10SM BKN017 OVC045 17/13 A2991 RMK AO2=
KIOW 102232Z AUTO 14004KT 2SM BR OVC002 01/01 A2957 RMK AO2
     RAB11E20 P0001=
KLCH 102232Z 17008KT 10SM FEW006 BKN037 OVC050 18/17 A2988 RMK AO2
     T01830172=
KLEB 102232Z 00000KT 10SM SCT025 OVC033 M03/M06 A3028 RMK AO2
     T10281061=
KLNR 102232Z AUTO 10008KT 2 1/2SM BR OVC007 01/00 A2959 RMK AO2
     RAE16 CIG 004V009 P0001 T00060000=
KLWV 102232Z AUTO 17011KT 1 1/4SM -RA BR BKN008 OVC027 06/06 A2987
     RMK AO2 RAE2156B05 P0002 T00560056=
KROG 102232Z 18010KT 10SM FEW020 OVC031 12/09 A2961 RMK AO2=
PATQ 102232Z AUTO 29005KT 2 1/2SM -SN OVC004 M28/M31 A2994 RMK AO2
     TSNO SNB2159 P0000=
KOJC 102232Z 26006KT 1SM BR OVC003 04/04 A2954 RMK AO2
     T00440044=
PATQ 102232Z AUTO 29005KT 2 1/2SM -SN OVC004 M28/M31 A2994 RMK AO2
     TSNO SNB2159 P0000=
KAMW 102233Z AUTO 00000KT 1 3/4SM BR FEW003 OVC013 00/00 A2954 RMK
     AO2 T00000000=
KAND 102233Z AUTO 05005KT 2SM -RA BR OVC004 08/08 A3015 RMK AO2
     P0000=
KAOH 102233Z AUTO 15012KT 3/4SM BR VV002 04/03 A2991 RMK AO2 PNO
     $=
KESF 102233Z AUTO 22004KT 1 1/2SM RA BR BKN010 BKN015 OVC023 18/17
     A2987 RMK AO2 RAB16 P0001=
KFLD 102233Z AUTO 14011KT 4SM BR OVC004 00/M01 A2966 RMK AO2
     T00001011=
KMEI 102233Z 12004KT 8SM OVC008 13/12 A2997 RMK AO2=
KMIW 102233Z AUTO 00000KT 1 3/4SM BR OVC003 00/00 A2953 RMK AO2
     T00000000 TSNO=
KOSH 102233Z 13009KT 4SM BR OVC004 00/M01 A2966 RMK AO2 I1001
     T00001011=
KUUU 102233Z AUTO 19003KT 1SM BR VV002 04/03 A3035 RMK AO2
     T00390033=
PANW 102230Z AUTO 36004KT 1 1/2SM BR OVC001 M08/M08 A2950 RMK AO2
     TSNO $=

0000009700
607
SPUS31 KWBC 102236
SPECI
KCLT 102232Z 02005KT 4SM -RA BR OVC003 06/06 A3018=

0000011100
608
SPUS41 KWBC 102236
SPECI
KDAY 102232Z 13010KT 1/4SM R06L/1800V2200FT FG VV002 05/04 A2992=

0000010200
609
SPUS42 KWBC 102236
SPECI
KHSV 102230Z COR 16008KT 10SM BKN013 OVC026 12/08 A3000=

0000010500
610
SPUS42 KWBC 102236
SPECI
KLCH 102232Z 17008KT 10SM FEW006 BKN037 OVC050 18/17 A2988=

0000019100
611
SACA33 KWBC 102200 RRE
METAR
TFFF 102230Z AUTO 06008KT 9999 SCT030/// BKN038/// BKN048///
     ///TCU 24/20 Q1015=
TFFR 102230Z 08007KT 9999 SCT023 25/19 Q1016 NOSIG=

0000004200
612
SAHA31 KWBC 102230
NIL=

0000004200
613
SAJP31 KWBC 102230
NIL=

0000004200
614
SAJP41 KWBC 102230
NIL=

0000004200
615
SAJP42 KWBC 102230
NIL=

0000004200
616
SAJP43 KWBC 102230
NIL=

0000004200
617
SAJP44 KWBC 102230
NIL=

0000004200
618
SAJP45 KWBC 102230
NIL=

0000073300
619
SACI31 ZBBB 102230
METAR ZBAA 102230Z 36004MPS 8000 NSC M12/M21 Q1031 NOSIG=
ZBSJ NIL=
METAR ZBTJ 102230Z 00000MPS 0600 R16R/1900N FZFG NSC M08/M09
Q1032
BECMG TL2300
0500 FZFG=
METAR ZBYN 102230Z 11001MPS 8000 NSC M09/M18 Q1028 NOSIG=
METAR ZGGG 102230Z 09002MPS 5000 BR NSC 12/08 Q1024 NOSIG=
METAR ZSHC 102230Z 08001MPS 5000 -RA BR BKN033 05/03 Q1031
NOSIG=
METAR ZSPD 102230Z 06004MPS 020V080 CAVOK 06/01 Q1032 NOSIG=
METAR ZSSS 102230Z 07003MPS CAVOK 07/00 Q1031 NOSIG=
ZWSH NIL=
METAR ZWWW 102230Z 05001MPS 0500 R25/0500D FZFG SCT008 M22/M24 Q1037
NOSIG=
METAR ZYTL 102230Z 27001MPS 3000 BR SCT033 M07/M09 Q1031 NOSIG=
METAR ZYTX 102230Z VRB01MPS 6000 NSC M17/M21 Q1030 NOSIG=

0000010100
620
SAFR31 LFPW 102230 RRA
METAR LFRS 102234Z 05003KT 020V080 CAVOK 09/07 Q1015 NOSIG=

0000008800
621
SAAL31 DAAA 102230 RRA
METAR DAAT 102230Z 09015KT CAVOK 14/M02 Q1022=

0000020300
622
FTUS80 KWBC 102236
TAF
TAF AMD PASC 102232Z 1023/1118 25013KT 4SM BR SCT025 BKN040
      TEMPO 1023/1102 3SM -SN BR BKN025
     FM110200 25018KT 3SM BR BLSN FEW015 BKN025 OVC035=

0000090100
623
FTUS80 KWBC 102236 AAA
TAF AMD
KBFD 102235Z 1023/1118 14007KT 1/4SM FG VV002
     FM110400 16009KT 4SM -RA BR BKN006 OVC009 WS019/21048KT
     FM111100 17014G27KT 2SM RA BR OVC009 WS012/19049KT=
KLCK 102234Z 1023/1118 17009KT P6SM BKN010
     FM110300 17010KT 5SM BR VCSH OVC015
     FM110700 17012KT 4SM -RA BR OVC008
     FM111400 23014G23KT P6SM VCSH OVC012=
KMSS 102234Z 1023/1118 07005KT P6SM OVC018
     FM110300 08005KT 5SM BR OVC018
     FM110800 08008KT 5SM BR VCSH OVC022
     FM111200 07007KT 6SM -RA BR OVC025 WS020/20040KT=
KSLK 102232Z 1023/1118 23006KT P6SM OVC011
      TEMPO 1023/1103 6SM BR OVC009
     FM110300 18004KT 6SM BR SCT007 OVC015
     FM110800 18005KT 6SM BR VCSH BKN015 OVC025
     FM111200 18010G18KT 5SM -RA BR OVC015 WS020/20045KT=
PAGA 102233Z 1023/1118 VRB03KT 6SM BR FEW001
      TEMPO 1023/1101 2SM BR SCT001=

0000020500
624
FTUY01 SUMU 102230
TAF
SUSO 102230Z 1100/1124 16005KT 9999 SCT023 BKN080 TX26/1118Z
TN20/1109Z TEMPO 1100/1112 23020G30KT 5000 TSRA BKN015 
FEW040CB OVC060 BECMG 1112/1114 22010KT=

0000059800
625
SASP31 LEMM 102230
METAR LEMD 102230Z 02002KT CAVOK 08/04 Q1016 NOSIG=
METAR LEBL 102230Z 33007KT 5000 BR SCT025 09/06 Q1019 NOSIG=
METAR LEPA 102230Z 00000KT CAVOK 11/10 Q1018 NOSIG=
METAR LEZL 102230Z VRB01KT CAVOK 10/09 Q1014 NOSIG=
METAR LEMG 102230Z 30005KT 9999 SCT020 12/10 Q1016 NOSIG=
METAR LEVC 102230Z VRB01KT 6000 BKN020 11/08 Q1018 NOSIG=
METAR LEAL 102230Z VRB01KT 8000 FEW015 11/10 Q1017 NOSIG=
METAR LEIB 102230Z 00000KT 9000 BKN015 13/11 Q1017 NOSIG=
METAR LEVX 102230Z 04003KT 010V070 3000 1000N BCFG FEW001 SCT015
08/08 Q1016 TEMPO 0800 BCFG=

00000000