0000023000
694
FCIN90 VOBL 110900
TAF VOBL 110900Z 1112/1121 09005KT 6000 FEW015=

TAF VOBG 110900Z 1112/1121 09005KT 6000 FEW015=

TAF VOML 110900Z 1112/1121 29005KT 6000 FEW015=

TAF VOHB 110900Z 1112/1121 14005KT 6000 FEW015=

0000326400
695
FQIN01 DEMS 110900
SHIPPING BULLETIN FOR MET. AREA VIII (N),NORTH OF EQUATOR
VALID FOR 24/48 HOURS FROM 0900 UTC 11 JANUARY 2014
--------------------------------------------------------------
PART I:- NO STORM WARNING (.)
         PART II :-(.)
            A TROUGH OF LOW AT MEAN SEA LEVEL NOW LIES OVER SOUTH
            EAST BAY OF BENGAL AND ADJOINING EQUATORIAL INDIAN
OCEAN(.)

            WEATHER SEASONAL OVER MET AREA (VIII)(.)

            ARB: A1 ARABIAN SEA EQUATOR TO 10 DEG. N AND W OF 80
DEG.E (.)
            A1-FORECAST FOR 24 HOUR
            I)WINDSPEED AND DIRECTION:-
             NE-LY 05/10 KTS BEC N-LY CLOSE TO THE EQUATOR(.)
            II)WEATHER:-ISOLATED RA/TS(.)
            III)VISIBILITY:8-6 NM(.)
            IV)WAVE HEIGHT:-0.5-1 M(.)

            A1-FORECAST FOR 48 HOUR
            I)WINDSPEED AND DIRECTION:-
             NE-LY 05/10 KTS BEC N-LY CLOSE TO THE EQUATOR(.)
            II)WEATHER:-ISOLATED RA/TS(.)
            III)VISIBILITY:8-6 NM(.)
            IV)WAVE HEIGHT:-0.5-1 M(.)

            A2 ARABIAN SEA :-23 DEG 45 MIN N 68 DEG E TO 12 DEG N 63
DEG E
            TO CAPE GARDAFUI TO N OF 10 DEG N (.)
            A2-FORECAST FOR 24 HOURS
            I)WINDSPEED AND DIRECTION:-N/NE-LY 10/15 KTS(.)
            II)WEATHER:-FAIR/FOG TO THE W OF 70 DEG E (.)
            III)VISIBILITY:10-8 NM/IT MAY REDUCE TO <1 KM IN FOG (.)
            IV)WAVE HEIGHT:-1-2 M (.)

            A2-FORECAST FOR 48 HOURS
            I)WINDSPEED AND DIRECTION:-N/NE-LY 10/15 KTS(.)
            II)WEATHER:-FAIR/FOG TO THE W OF 70 DEG E (.)
            III)VISIBILITY:10-8 NM/IT MAY REDUCE TO <1 KM IN FOG (.)
            IV)WAVE HEIGHT:-1-2 M (.)

            A3-FORECAST FOR 24 HOURS(.)
            I)WINDSPEED AND DIRECTION:-
            1)W OF 90 DEG E:NE/N-LY 10/15 KTS BEC CYCLONIC TO THE
              S OF 06 DEG N(.)
            2)E OF 90 DEG E:NW/N-LY 05/10 KTS BEC NW-LY CLOSE TO
EQUATOR(.)
            II)WEATHER:-FAIRLY WIDESPREAD RA/TS(.)
            III)VISIBILITY:-4-3 NM (.)
            IV)WAVE HEIGHT:1)1-2 M  2)0.5-1 M(.)

            A3-FORECAST FOR 48 HOURS(.)
            I)WINDSPEED AND DIRECTION:-
            1)W OF 90 DEG E:NE/N-LY 10/15 KTS BEC CYCLONIC TO THE
              S OF 06 DEG N(.)
            2)E OF 90 DEG E:NW/N-LY 05/10 KTS BEC NW-LY CLOSE TO
EQUATOR(.)
            II)WEATHER:-FAIRLY WIDESPREAD RA/TS(.)
            III)VISIBILITY:-4-3 NM (.)
            IV)WAVE HEIGHT:1)1-2 M  2)0.5-1 M(.)

            BOB: A4:- BAY OF BENGAL N OF 10 DEG N AND E OF 80 DEG E
(.)
            A4-FORECAST FOR 24 HOURS (.)
            I)WINDSPEED AND DIRECTION:-
             1)S OF 15 DEG N:ENE-LY 10/15 KTS(.)
             2)N OF 15 DEG N:ANTICYCLONIC 05/10 KTS(.)
            II)WEATHER:- FAIR(.)
            III)VISIBILITY:-10-8 NM(.)
            IV)WAVE HEIGHT:-1)1-2 M  2)0.5-1 (.)

            A4-FORECAST FOR 48 HOURS(.)
             I)WINDSPEED AND DIRECTION:-N/NE-LY 10/15 KTS(.)
            II)WEATHER:- FAIR(.)
            III)VISIBILITY:-10-8 NM(.)
            IV)WAVE HEIGHT:-1-2 (.)
ISSUED BY INDIA METEOROLOGICAL DEPARTMENT=
0000018000
696
SNVD01 PANC 110800 RRH
BBXX
VRED4 11083 99341 30078
415// 81409 10180 2009/ 40230 56200 7//22 8813/
22223 0//// 2//// 3//// 40402 5//// 6//// 80130 ICE /////=
0000070000
697
SAUK63 EGRR 110850
METAR EGDM 110850Z 30007KT 9999 FEW010 04/03 Q1018=
METAR EGQL 110850Z 27012KT 9999 FEW020 02/M02 Q1010 NOSIG=
METAR EGQS 110850Z 25012KT 9999 FEW020CB 01/M00 Q1008=
METAR EGUB 110850Z 25003KT CAVOK 04/03 Q1017 NOSIG=
METAR EGVN 110850Z 22003KT 9999 FEW040 04/02 Q1017 NOSIG=
METAR EGVO 110850Z 29007KT 9999 FEW040 05/03 Q1017=
METAR EGWU 110850Z 30007KT CAVOK 05/03 Q1017 NOSIG=
METAR EGXC 110850Z 27010KT CAVOK 04/01 Q1014=
METAR EGXT 110850Z AUTO 26009KT 9999 NCD 03/02 Q1015=
METAR EGXV 110850Z AUTO 30005KT 9999 FEW140/// 03/01 Q1013=
METAR EGXW 110850Z 25008KT CAVOK 04/01 Q1014=
METAR EGYD 110850Z 26013KT 9999 FEW040 03/01 Q1015 NOSIG=
0000006100
698
AAUK99 EGRR 110900
Socket stay alive message.
0000008900
699
FCUK54 EGRR 110800 RRA
TAF EGWC 110852Z 1109/1118 25005KT 9999 FEW018TCU=
0000012000
700
SIBD20 WBSB 110900
AAXX 11094
96315 41459 72608 10286 20252 40098 71522 84968
333 83815 81916 85278=
0000015200
701
FPSR01 WSSS 110857

FORECAST ISSUED AT 1800 ON 20140111
3 DAY FORECAST

SINGAPORE

12 24/32 Showers
13 24/33 Fair
14 24/33 Fair=
0000015600
702
SMVE01 KWBC 110600 RRJ
BBXX
SHIP 11064 99001 11191 41698 80918 10280 20239 40087 58002 72055
 882// 22213 00270 20202 303// 40203 80250=
0000019700
703
SNVF01 KWBC 110500 RRH
BBXX
DBFX 11051 99539 10087 46/// /2207 10062 20060 40107 57012 22220
 00071=
DBFC 11051 99544 10136 46/// /2509 10048 20029 40101 57005 22200
 00054=
0000017900
704
SNVA01 KWBC 110800 RRC
BBXX
VRED4 11083 99341 30078 415// 81409 10180 2009/ 40230 56200 7//22
 8813/ 22223 0//// 2//// 3//// 40402 5//// 6//// 80130 ICE /////=
0000014400
705
SNVB01 KWBC 110800 RRE
BBXX
DMMC 11084 99084 11060 41397 30621 10254 20216 40114 57016 70500
 81108 22213 00257 20305 80227=
0000016500
706
SNVC01 KWBC 110800 RRD
BBXX
TBWUK38 11083 99443 50803 41298 80710 10135 20116 40220 57010
 75852 887// 22243 00130 299// 3//// 40905 5//// 80125=
0000107100
707
SNVD01 KWBC 110800 RRN
BBXX
44039 11081 99411 70727 46/// /1003 10045 20044 90830 333 91204
 555 11041 22046=
44060 11081 99413 70721 46/// /1203 10065 20063 40224 90830 22200
 00041 333 91203 555 11031 22036=
46222 11081 99336 71183 46/// ///// 1//// 90803 22200 00158 11402
 20801 327// 41402 70010=
46225 11081 99329 71174 46/// ///// 1//// 90812 22200 00156 11302
 20901 328// 41301 70009=
46216 11081 99343 71198 46/// ///// 1//// 90812 22200 00151 11302
 20802 326// 41302 70012=
46126 11081 99540 71666 46/// /1701 10043 49814 90800 22200 00046
 1//00 70000 333 91202 555 11013 22014=
46126 11081 99540 71666 46/// /2302 10043 49816 90824 22200 00047
 1//00 70000 333 91203 555 11017 22019=
46126 11081 99540 71666 46/// /2502 10043 49816 90820 22200 00047
 1//00 70001 333 91203 555 11021 22022=
46126 11081 99540 71666 46/// /2502 10043 49816 90818 22200 00047
 1//00 70001 333 91203 555 11021 22022=
46126 11081 99540 71666 46/// /2403 10044 49816 90830 22200 00047
 1//00 70000 333 91204 555 11027 22030=
0000108200
708
SNVF01 KWBC 110800 RRF
BBXX
MINUK01 1108/ 99571 70021 46/// ///// 10023 40085 52041=
MINUK03 1108/ 99525 10046 46/// ///// 10058 40118 57004=
DBBI 11081 99535 10099 46/// /2405 10057 20052 40110 57009 22240
 00049=
DBBT 11081 99439 10308 46/// /2605 10085 20055 40234 52018 22230
 00092=
DBBU 11081 99546 10137 46/// /2309 10054 20050 40095 57002 22231
 00065=
DBKV 11081 99543 10102 46/// /2304 10062 20053 40093 57006 22270
 00065=
DCQN 11083 99534 10069 41/95 /1722 10060 20050 40090 58010 761//
 22233 80055=
DBJM 11081 99541 10080 46/// /2215 10063 40080 57020 22272 00071=
DBFR 11081 99519 10033 46/// /2114 10075 20062 40127 52005 22222
 00088=
DBFH 11081 99539 10087 46/// /2206 10057 20052 40102 57008 22250
 00058=
DBEA 11081 99540 10083 46/// /2213 10059 20053 40088 57007 22221
 00067=
DBEB 11081 99539 10079 41/// /2113 10057 20049 40089 57018 22271
 00064=
DBBC 11081 99536 10086 46/// /2105 10051 20043 40108 57005 22200
 00062=
DBBA 11081 99541 10521 46/// ///// 10057 20041 40108 57003 22210
 00067=
0000013500
709
SIVB30 KWBC 110900
BBXX
46070 11091 99551 11753 46/// ///// 10026 21001 49785 51011 90850
 22200 00038 11107 70036=
0000009800
710
SIVC30 KWBC 110900
BBXX
BAREU08 11094 99310 50722 46/// ///// 40112 52001 22244=
0000358200
711
SIVD30 KWBC 110900
BBXX
44042 11091 99380 70763 46/// /1815 10124 40131 90850 333 91221
 555 11177 22192=
44041 11091 99372 70768 46/// /1404 10127 90850 333 91205 555
 11047 22051=
44063 11091 99390 70764 46/// /0601 10020 40145 90850 333 91202
 555 11014 22015=
42002 11091 99258 70937 46/// /2006 10232 20231 40137 56011 90850
 22200 00232 10702 20501 310// 40702 70011 333 91207 555 11059
 22063 30846 42007 60849 195059 196057 199056 201057 201056
 206055=
44062 11091 99386 70764 46/// /1001 10048 40157 90850 333 91202
 555 11013 22014=
44064 11091 99370 70760 46/// /1506 10115 40169 90850 333 91207
 555 11070 22077=
41041 11091 99143 70461 46/// /0709 10247 20244 40146 54000 90850
 22200 00258 11406 20704 336// 41404 70029 333 91211 555 11096
 22101 30836 40711 60849 073090 070093 065091 065089 070085 072082
 80710 90828=
42040 11091 99292 70882 46/// /1709 10217 40126 58022 90850 22200
 00206 333 91210 555 11085 22093 30849 41610 50125 60849 167085
 169081 169070 170070 173070 175073 70850 81709 90849=
42058 11091 99149 70749 46/// /0812 10270 20238 40121 55008 90850
 22200 00274 10907 20705 310// 40904 70033 333 91215 555 11133
 22142 30817 41016 60849 083123 091120 092128 094130 089129 090129
 81014 90815=
42019 11091 99279 70954 46/// /2406 10211 40127 52004 90850 22200
 00205 10703 20502 316// 40702 70015 333 91207 555 11061 22067
 30800 42307 60849 236056 233057 236055 232054 232056 223059=
41049 11091 99275 70629 46/// /0610 10228 40258 57004 90850 22200
 00250 10705 20705 309// 41602 70025 333 91212 555 11107 22113
 30826 40612 60849 056100 057095 055096 057097 059095 055093 80611
 90845=
42059 11091 99151 70675 46/// /0910 10264 40153 56005 90850 22200
 00269 10805 20805 70024 333 91211 555 11104 22110 30824 41012
 60849 089097 094099 092096 089093 089095 090090 81011 90840=
42012 11091 99301 70876 46/// /1708 10194 20194 40122 58024 90850
 22200 00177 10502 20502 70009 333 91209 555 11087 22097 30847
 41709 60849 170080 173073 174071 176068 174070 173070=
42036 11091 99285 70845 46/// /1605 10210 20205 40163 56005 90850
 22200 00206 10301 20301 70005 333 91206 555 11055 22060 30820
 41607 60849 158052 158056 161060 160062 159060 156055=
42056 11091 99198 70849 46/// /1208 10271 20223 40151 58007 90850
 22200 00274 10603 20603 312// 40802 70016 333 91209 555 11080
 22085 30753 41210 60849 123074 126073 128076 124078 123082 122082
 81209 90756=
42035 11091 99292 70944 46/// /2307 10141 20141 40114 52003 90850
 22200 00116 10602 20602 314// 40801 70009 333 91208 555 11074
 22084 30838 42408 60849 231067 235068 236064 242062 242057
 245049=
42020 11091 99270 70967 46/// /2406 10188 20188 40132 53010 90850
 22200 00206 10602 20501 312// 40602 70011 333 91207 555 11065
 22068 30757 42308 60849 240062 235057 240059 241060 229060
 229065=
41012 11091 99300 70805 46/// /1705 10191 20191 40177 56013 90850
 22200 00170 10903 20401 307// 40903 70016 333 91205 555 11052
 22061 30759 41607 60849 169045 166047 164048 159053 158056
 161059=
41044 11091 99216 70586 46/// /0709 10244 40202 56006 90850 22200
 00257 10905 20804 300// 40903 70026 333 91211 555 11098 22103
 30755 40613 60849 067093 061090 059092 060097 064100 063102 80611
 90755=
BAREU13 11094 99519 70379 46/// ///// 4//// 22264=
46014 11091 99394 71240 46/// /1803 10097 40218 58012 90850 22200
 00112 11608 20401 3//// 41608 70041 333 91204 555 11028 22029
 30819 41405 60849 182027 179026 173027 166026 163023 160020=
0000254700
712
SIVD30 KWBC 110900 RRA
BBXX
46011 11091 99350 71210 46/// /3307 10140 40214 50000 90850 22200
 00141 11405 20602 332// 41405 70026 333 91208 555 11075 22079
 30756 43310 60849 334070 333071 329072 330074 327079 327078=
46215 11091 99352 71209 46/// ///// 1//// 90835 22200 00128 11404
 21002 327// 41403 70019=
46219 11091 99332 71199 46/// ///// 1//// 90840 22200 00142 11305
 20804 329// 41304 70025=
46114 11091 99367 71223 46/// ///// 1//// 90838 22200 00124 11406
 21003 330// 41405 70030=
46002 11091 99426 71305 46/// /2614 10121 40082 51007 90850 22200
 00121 11109 20606 3//// 41107 70046 333 91217 555 11146 22156
 30808 42619 60849 262136 266142 260138 261146 254141 247118=
46084 11091 99566 71361 46/// /0108 10044 20009 49863 56038 90850
 22200 00074 11304 20702 300// 41304 70022 333 91209 555 11083
 22087 30750 40109 60849 006079 008078 009074 012073 010072 007068
 83608 90850=
51206 11091 99198 71550 46/// ///// 1//// 90833 22200 00249 11005
 21004 310// 41103 70024=
41113 11091 99284 70805 46/// ///// 1//// 90840 22200 00181 10802
 20802 70011=
41115 11091 99184 70673 46/// ///// 1//// 90841 22200 10902 20902
 336// 41401 70009=
44100 11091 99363 70756 46/// ///// 1//// 90834 22200 00089 10703
 20703 308// 41401 70017=
41002 11091 99319 70748 46/// ///// 10229 40212 56012 90850 22200
 00240=
44099 11091 99369 70757 46/// ///// 1//// 90848 22200 00065 10502
 20502 70010=
44096 11091 99370 70758 46/// ///// 1//// 90847 22200 00070 10502
 20501 309// 41401 70008=
46217 11091 99342 71194 46/// ///// 1//// 90839 22200 00152 11303
 21002 328// 41302 70014=
46251 11091 99338 71196 46/// ///// 1//// 90839 22200 00157 11402
 20702 326// 41402 70012=
46243 11091 99462 71241 46/// ///// 1//// 90846 22200 00086 10810
 20809 326// 41205 70050=
46232 11091 99325 71174 46/// ///// 1//// 90833 22200 00161 11403
 20802 328// 41402 70013=
44059 11091 99368 70763 46/// /1604 10163 40161 90840 333 91205
 555 11044 22048=
44058 11091 99376 70763 46/// /1507 10100 40162 90840 333 91209
 555 11079 22085=
44062 11091 99386 70764 46/// /1503 10044 40158 90840 333 91204
 555 11035 22038=
44041 11091 99372 70768 46/// /1504 10129 90840 333 91204 555
 11042 22045=
44063 11091 99390 70764 46/// /0602 10020 40148 90840 333 91202
 555 11017 22019=
44064 11091 99370 70760 46/// /1507 10127 40170 90840 333 91208
 555 11080 22087=
44042 11091 99380 70763 46/// /1813 10123 40133 90840 333 91217
 555 11150 22163=
0000027700
713
SIVF30 KWBC 110900
BBXX
61002 11094 99421 10047 46/// /0907 10132 20052 40204 52014 22200
 00129 10401 70005=
BAREU71 11094 99383 70136 46/// /1612 10152 29079 40187 52004
 22263=
BAREU51 11094 99416 10106 46/// ///// 10144 29082 40233 52013
 22275=
00000000