0000078900
626
UDAS02 BABJ 111048
AMDAR 1110
DES CNFNXP 3622N 11702E 111043 F124 MS161 287/025 TB/ S//1=
DES CNFNXP 3626N 11702E 111044 F112 MS135 303/029 TB/ S//1=
DES CNFNXP 3631N 11702E 111045 F099 MS115 306/024 TB/ S//1=
DES CNFNXP 3635N 11702E 111046 F094 MS104 300/022 TB/ S//1=
ASC CNFOZM 3649N 11643E 111044 F123 MS161 290/030 TB/ S//1=
ASC CNFOZM 3649N 11640E 111044 F140 MS203 283/033 TB/ S//1=
ASC CNFOZM 3649N 11636E 111045 F156 MS215 282/031 TB/ S//1=
ASC CNFOZM 3649N 11633E 111046 F173 MS245 278/040 TB/ S//1=
ASC CNFPTK 3131N 12105E 111045 F114 MS063 266/037 TB/ S//1=
ASC CNFPTK 3134N 12103E 111046 F133 MS093 258/052 TB/ S//1=
ASC CNFPTK 3135N 12103E 111046 F140 MS111 256/050 TB/ S//1=
ASC CNFPTK 3136N 12102E 111047 F150 MS138 257/046 TB/ S//1=
0000054100
627
UDAS02 BABJ 111047
AMDAR 1110
ASC CNFPTK 3123N 12111E 111043 F079 MS040 256/027 TB/ S//1=
ASC CNFPTK 3124N 12109E 111044 F084 MS043 263/027 TB/ S//1=
ASC CNFPTK 3126N 12108E 111044 F086 MS040 266/030 TB/ S//1=
ASC CNFPTK 3129N 12106E 111045 F099 MS054 254/029 TB/ S//1=
DES CNFNXM 2748N 12029E 111043 F067 PS010 272/021 TB/ S//1=
DES CNFNXM 2747N 12032E 111043 F055 PS038 246/015 TB/ S//1=
DES CNFNXM 2745N 12037E 111044 F042 PS061 201/014 TB/ S//1=
DES CNFNXM 2744N 12042E 111045 F036 PS053 169/009 TB/ S//1=
0000010700
628
UANT99 KDDL 111055
ARP AAL241 63N010W 1056 F340 MS48 187/16 KT
N347AN DDL FAE 111055 F27A
0000011000
629
UANT99 KDDL 111056
ARP UAL71 5406N02230W 1056 F360 MS64 212/81 KT
N18119 DDL IG1 111056 F32A
0000068900
630
UDEU02 EGRR 111059 RRE
AMDAR 1110
DES EU3080   3800N 00443W 111047 F247 MS390 029/010 TB/ S031=
DES EU3080   3756N 00444W 111048 F234 MS352 030/008 TB/ S031=
DES EU3080   3752N 00445W 111048 F222 MS317 020/009 TB/ S031=
DES EU3080   3748N 00445W 111049 F209 MS290 342/010 TB/ S031=
DES EU3080   3744N 00446W 111050 F197 MS255 358/009 TB/ S031=
DES EU3080   3740N 00447W 111050 F184 MS225 009/010 TB/ S031=
DES EU3080   3736N 00448W 111051 F172 MS195 025/011 TB/ S031=
DES EU3080   3732N 00448W 111052 F159 MS167 076/004 TB/ S031=
DES EU3080   3728N 00449W 111052 F147 MS142 064/006 TB/ S031=
DES EU3080   3725N 00450W 111053 F136 MS117 058/012 TB/ S031=
0000043300
631
UDEU02 EGRR 111059 RRF
AMDAR 1110
LVR EU1321   6403N 01047W 111021 F360 MS502 149/019 TB/ S031=
LVR EU1321   6406N 01255W 111028 F360 MS515 147/023 TB/ S031=
LVR EU1321   6407N 01503W 111035 F360 MS522 145/033 TB/ S031=
LVR EU1321   6406N 01711W 111042 F360 MS530 152/036 TB/ S031=
LVR EU1321   6403N 01917W 111049 F360 MS527 160/034 TB/ S031=
LVR EU1321   6356N 02121W 111056 F360 MS530 178/035 TB/ S031=
0000037700
632
SAPL31 EPWA 110200
METAR EPGD 110200Z 28014KT 9999 BKN011 05/04 Q1007 =
METAR EPKK 110200Z 25010KT 9999 BKN046 04/M01 Q1017 =
METAR EPLL 110200Z 27013KT CAVOK 05/00 Q1014 =
METAR EPPO 110200Z 25009KT 9999 BKN046 05/01 Q1014
    R10/19//95 =
METAR EPRZ 110200Z 26016KT CAVOK 05/M02 Q1016 =
METAR EPWA 110200Z 26017KT 9999 BKN030 05/01 Q1011 NOSIG=

0000024100
633
SASA42 KWBC 110200
METAR
SCAC NIL=
SCHA NIL=
SCSE 110200Z 28005KT CAVOK 16/14 Q1011=
SCTC NIL=
SCTI NIL=
SCVD NIL=
SELT 110200Z 04004KT 9999 BKN030 11/11 Q1027=
SUAG NIL=
SUDU NIL=
SUPU NIL=
SUTB NIL=

0000004200
634
SAVN42 KWBC 110200
NIL=

0000120300
635
SASA32 KWBC 110200
METAR SCAR 110200Z 11002KT CAVOK 23/17 Q1013=
METAR SCAR 110200Z 11002KT CAVOK 23/17 Q1013=
METAR SCBA 110200Z AUTO 30018KT CAVOK 09/03 Q1019=
METAR SCCF 110200Z 26010KT CAVOK 15/06 Q1025=
METAR SCCH NIL=
METAR SCCI 110200Z 25011KT 9999 SCT030 OVC100 08/04 Q1010 NOSIG=
METAR SCDA 110200Z 15003KT CAVOK 23/17 Q1012=
METAR SCEL 110200Z 15007KT CAVOK 22/07 Q1014 NOSIG=
METAR SCFA 110200Z 18008KT 9999 BKN014 21/17 Q1012 NOSIG=
METAR SCGE NIL=
METAR SCIE 110200Z 23008KT CAVOK 16/10 Q1016=
METAR SCIP 110200Z 08009KT 9999 SCT020 SCT040 23/18 Q1020 NOSIG=
METAR SCIP 110200Z NIL=
METAR SCTE 110200Z 20005KT CAVOK 11/08 Q1024 NOSIG=
METAR SGAS 110200Z 07004KT CAVOK 28/22 Q1008=
METAR SGES 110200Z 10005KT CAVOK 28/21 Q1010=
METAR SLCB 110200Z 17004KT 9999 FEW027 20/07 Q1023=
METAR SLCZ NIL=
METAR SLLP 110200Z 11004KT 9999 FEW015 SCT200 09/06 Q1035=
METAR SLTJ NIL=
METAR SLTR NIL=
METAR SLVR 110200Z 36005KT 9999 FEW070 24/23 Q1010=
METAR SUAA NIL=
METAR SUCA NIL=
METAR SULS 110200Z 00000KT CAVOK 22/20 Q1010=
METAR SUMU 110200Z 34002KT CAVOK 23/19 Q1010 NOSIG=
METAR SUPE NIL=
METAR SURV NIL=
METAR SUSO NIL=

0000168700
636
SAUS71 KWBC 110200 RRB
METAR
KHKY 110153Z 00000KT 1/2SM FG VV002 06/05 A3015=
KHPN 110156Z 00000KT 1/2SM R16/3000V5000FT -DZ FG VV002 01/00
     A3027=
KHTS 110151Z 10003KT 10SM CLR 09/08 A2991=
KHVN 110153Z 00000KT 1 1/4SM BR OVC004 02/01 A3031=
KHYA 110156Z 00000KT 5SM -RA BR FEW008 OVC015 04/03 A3034=
KIAD 110152Z 00000KT 3/4SM -DZ BR OVC003 01/01 A3023=
KIAG 110153Z 15005KT 10SM OVC140 03/01 A2999=
KILG 110151Z AUTO 05004KT 3/4SM R01/P6000FT -RA BR OVC003 03/02
     A3028=
KILM 110153Z AUTO 14008KT 10SM SCT008 BKN015 OVC022 21/18
     A3016=
KINT 110154Z 02004KT 3SM -RA BR OVC003 04/03 A3018=
KIPT 110154Z 00000KT 6SM HZ OVC012 01/M02 A3022=
KISP 110156Z 00000KT 1/4SM R06/4500V5500FT -RA FG OVC004 03/02
     A3029=
KJFK 110151Z 36003KT 1/2SM R04R/1800V6000FT -RA BR OVC004 03/02
     A3031=
KJST 110154Z AUTO 15008KT 4SM BR OVC004 02/01 A3006=
KLBE 110150Z 18006KT 10SM``` BKN130 08/06 A3002=
KLCK 110155Z AUTO 17004KT 10SM BKN037 OVC110 08/06 A2987=
KLEB 110153Z 00000KT 10SM OVC060 M03/M06 A3027=
KLGA 110151Z 06007KT 1SM -DZ BR OVC003 01/00 A3030=
KLUK 110153Z 18006KT 10SM OVC029 09/07 A2987=
KLWM 110154Z 20004KT 7SM OVC013 02/M01 A3034=
KLYH 110154Z 02004KT 2SM UP BR OVC005 02/02 A3021=
KMDT 110156Z 00000KT 3/4SM -DZ BR OVC003 01/M01 A3025=
KMFD 110152Z 15014KT 2SM BR OVC002 06/06 A2986=
KMGW 110153Z 15008KT 10SM SCT060 11/07 A2999=
KMHT 110153Z 00000KT 5SM BR SCT014 BKN075 M03/M04 A3030=
KMIV 110154Z AUTO 00000KT 1/2SM FG BKN002 OVC039 05/05 A3027=
KMMU NIL=
KMRB 110153Z 00000KT 1SM -RA BR OVC003 02/01 A3021=
KMSS 110153Z AUTO 06003KT 9SM OVC024 M03/M06 A3018=
KMTN NIL=

0000029200
637
FCFR22 LFPW 110200
TAF LFBM 110200Z 1103/1112 27005KT 3000 BR BKN010 BECMG 1103/1105
 0400
 FG VV///=
TAF LFBC 110200Z NIL=
TAF LFBG 110200Z NIL=
TAF LFBY 110200Z NIL=
TAF LFKS 110200Z NIL=
TAF LFMC 110200Z NIL=
TAF LFMO 110200Z NIL=
TAF LFMY 110200Z NIL=

0000037600
638
FTFR31 LFPW 102300 AAD
TAF AMD LFPG 110207Z 1102/1206 VRB03KT 2000 BR -RA BKN003 PROB40
TEMPO 1102/1111 0500 FG VV/// PROB30 TEMPO 1102/1111 0200 FG VV///
BECMG 1107/1109 22005KTBECMG 1111/1113 1200 BCFG BKN005 BECMG
1113/1115 8000 NSW BKN008 BECMG 1116/1118 CAVOK BECMG 1122/1124 3000
BR BKN005 BECMG 1200/1202 0900 FG BKN002 TX08/1113Z TN01/1124Z=

0000015500
639
FCFR23 LFPW 110200
TAF LFOC 110200Z NIL=
TAF LFOE 110200Z NIL=
TAF LFOJ 110200Z NIL=
TAF LFRJ 110200Z NIL=
TAF LFRL 110200Z NIL=

0000019200
640
FCFR24 LFPW 110200
TAF LFSO 110200Z 1103/1112 VRB02KT CAVOK
TEMPO 1103/1112 5000 -RA BKN040 OVC070=
TAF LFSI 110200Z NIL=
TAF LFSX 110200Z NIL=
TAF LFYR 110200Z NIL=

0000020300
641
FCFR31 LFPW 110200
TAF LFBA 110200Z NIL=
TAF LFBE 110200Z NIL=
TAF LFCK 110200Z NIL=
TAF LFPN 110200Z NIL=
TAF LFRC 110200Z NIL=
TAF LFRG 110200Z NIL=
TAF LFRK 110200Z NIL=

0000013100
642
FCFR32 LFPW 110200
TAF LFGJ 110200Z NIL=
TAF LFJR 110200Z NIL=
TAF LFMD 110200Z NIL=
TAF LFOT 110200Z NIL=

0000013100
643
FCFR33 LFPW 110200
TAF LFAQ 110200Z NIL=
TAF LFRH 110200Z NIL=
TAF LFRQ 110200Z NIL=
TAF LFSL 110200Z NIL=

0000013100
644
FCFR34 LFPW 110200
TAF LFAT 110200Z NIL=
TAF LFLN 110200Z NIL=
TAF LFPM 110200Z NIL=
TAF LFRT 110200Z NIL=

0000011800
645
SPUS42 KWBC 110213
SPECI
KGLS 110209Z AUTO 19010KT 1 3/4SM BR BKN003 BKN030 OVC045 17/17
A2986=

00000000