0000009500
186
SACA31 KWBC 102300 RRA
METAR
MYGF 102300Z 14005KT 9999 BKN014 25/23 A3009=

0000010900
187
SACA33 KWBC 102300 RRA
METAR
TNCC 102300Z 09008KT 050V110 9999 FEW014 26/23 Q1013 NOSIG=

0000010100
188
SACA41 KWBC 102300 RRA
METAR
TDCF 102300Z 18002KT 9999 -SHRA BKN017 25/18 Q1014=

0000012900
189
SACN62 CYWL 102300
METAR CYWL 102300Z 10007KT 15SM FEW070 BKN120 BKN220 M03/M05 A2973
 RMK AC1AC5CI1 SLP108=

0000010600
190
SACN62 CYSJ 102300
METAR CYSJ 102300Z 23010KT 15SM OVC022 M01/M05 A3031 RMK SC8 SLP272=

0000007300
191
FTFP20 LFVP 102300
TAF AMD LFVP 102210Z 1022/1106 CNL=

0000017500
192
FTUS52 KWBC 102309 AAA
TAF AMD
KFSM 102307Z 1023/1118 04005KT 3SM BR BKN005
      TEMPO 1023/1103 2SM TSRA BKN030CB
     FM110300 24011KT P6SM SCT100=

0000013400
193
FTUS53 KWBC 102309 AAA
TAF AMD
KBFF 102306Z 1023/1118 33015G25KT P6SM BKN090
     FM110200 30010KT P6SM SCT090=

0000026000
194
FTUS80 KWBC 102309 AAA
TAF AMD
KBFF 102306Z 1023/1118 33015G25KT P6SM BKN090
     FM110200 30010KT P6SM SCT090=
KFSM 102307Z 1023/1118 04005KT 3SM BR BKN005
      TEMPO 1023/1103 2SM TSRA BKN030CB
     FM110300 24011KT P6SM SCT100=

0000009900
195
SPUS31 KWBC 102308
SPECI
KRDU 102304Z 35003KT 1/4SM -RA BR OVC003 07/06 A3022=

0000010400
196
SPUS41 KWBC 102309
SPECI
KBUF 102305Z 16006KT 9SM SCT019 SCT025 OVC049 03/02 A3008=

0000010800
197
SPUS44 KWBC 102309
SPECI
KBLI 102305Z 13008KT 5SM -RA SCT027 BKN050 OVC065 08/05 A2994=

0000006700
198
SAJP44 KWBC 102300 RRA
METAR
RJSA 102300Z NIL=

0000009700
199
SASA42 KWBC 102300 RRA
METAR
SCTC 102300Z 25009KT 220V280 CAVOK 20/08 Q1018=

0000012100
200
SAUK36 EGGY 102250 RRB
METAR EGWU 102250Z AUTO 23008KT 9999 // FEW032/// BKN050/// 08/06
     Q1013=

0000140100
201
SAAG05 SABM 102300
METAR SAAR 102300Z  14007KT 9999  FEW038CB BKN100
29/20 Q1007=
METAR SABE 102300Z  32008KT 9999  SCT035 FEW045CB
28/21 Q1008=
METAR SACO 102300Z  14011KT 9999  FEW030TCU SCT100
 27/18 Q1012=
METAR SADF 102300Z  36011KT 9999 TS FEW045 SCT050
28/20 Q1008=
METAR SAEZ 102300Z 20005KT 150V240 9999 FEW050TCU SCT100 28/16 Q1008=
METAR SAME 102300Z 14004KT CAVOK 30/06 Q1010=
METAR SANT 102300Z  27002KT 5000 HZ FEW040
FEW045CB BKN100  32/22 Q1003=
METAR SAOC 102300Z  18002KT 8000 TSSHRA FEW035
SCT040 BKN050  24/17 Q1011=
METAR SARC 102300Z  05002KT 9999  FEW040 FEW050CB
SCT200  33/24 Q1005=
METAR SARE 102300Z 05002KT 8000 FEW045CB BKN200 32/25 Q1005=
METAR SARF 102300Z NIL=
METAR SARI 102300Z  05003KT 9999  FEW030 SCT200
28/24 Q1011=
METAR SARL 102300Z NIL=
METAR SARP 102300Z  00000KT 9999  BKN030CB  33/22
Q1009=
METAR SASA 102300Z  05001KT 9999  SCT020 BKN200
27/15 Q1010=
METAR SASJ 102300Z  32006KT CAVOK 30/16 Q1007=
METAR SAVC 102300Z  05009KT 9999  FEW030 SCT200
19/01 Q1012=
METAR SAWE 102300Z NIL=
METAR SAWG 102300Z  27019KT 9999 -RA SCT035 BKN050
 11/03 Q1011=
METAR SAWH 102300Z 23018KT 9999 VCSH SCT025 OVC035 07/02 Q1007=
METAR SAZM 102300Z  00000KT 9999  FEW002 SCT100
20/11 Q1010=
METAR SAZN 102300Z  18004KT CAVOK 27/M00 Q1012=
METAR SAZS 102300Z  32016KT CAVOK 17/05 Q1018=

0000040600
202
SAAM31 FCBB 102300
METAR FCBB 102300Z 25003KT 220V320 7000 BKN016 24/22 Q1012 NOSIG=
METAR FCPP NIL=
METAR FKKD 102300Z 00000KT 7000 -SH RA BKN013 FEW016CB BKN300 26/25
      Q1012 NOSIG=
METAR FKYS 102300Z 00000KT 6000 NSC 19/18 Q1015 BECMG 4000 BR=
METAR FKKR NIL=
METAR FKKL NIL=
METAR FKKN NIL=
METAR FEFF 102300Z 00000KT 7000 NSC 21/19 Q1012 NOSIG=
METAR FEFT NIL=

0000017300
203
SAIN31 EGGY 102300
METAR VOBL 102300Z NIL=
METAR VOCB 102300Z NIL=
METAR VOCI 102300Z 09002KT 4000 HZ FEW020 22/20 Q1012 NOSIG=
METAR VOCL 102300Z NIL=
0000011000
204
SAMS33 WMKK 102300 RRA
METAR WMKN 102300Z 24002KT 9000 RA FEW008 SCT022 OVC180 23/23 Q1012=

0000059400
205
FCGR31 LGAT 102300
TAF LGAD 102300Z 1100/1109 VRB03KT 9999 SCT020 PROB30 TEMPO 1100/1106
5000 BR SCT010 BKN020=
TAF LGIO 102300Z 1100/1109 VRB03KT 7000 FEW010 SCT030 PROB40 TEMPO
1100/1109 3000 BR SCT008 PROB40 TEMPO 1100/1108 0200 FG BKN004=
TAF LGKC 102300Z 1100/1109 28015KT 9999 SCT012=
TAF LGKF 102300Z 1100/1109 VRB03KT 9999 SCT018 SCT025 PROB30 TEMPO
1100/1106 5000 BR SCT008=
TAF LGKL 102300Z 1100/1109 35010KT 9999 FEW030 PROB30 TEMPO 1100/1107
5000 BR SCT008=
TAF LGZA 102300Z 1100/1109 VRB03KT 9999 SCT018 PROB30 TEMPO 1100/1107
5000 BR SCT008=

00000000