0000011000
246
SPCN44 CWAO 102309
SPECI CYSM 102309Z 00000KT 8SM -SN FEW025 BKN050 BKN070 RMK
SC2SC3AC2=

0000071900
247
SAEA20 HKNC 102300
METAR HKJK 102300Z 03006KT 9999 SCT022 18/12 Q1022 NOSIG=
METAR HKEL 102300Z NIL=
METAR HKEM 102300Z NIL=
METAR HKGA 102300Z NIL=
METAR HKKG 102300Z NIL=
METAR HKKI 102300Z NIL=
METAR HKKR 102300Z NIL=
METAR HKKS 102300Z NIL=
METAR HKKT 102300Z NIL=
METAR HKLO 102300Z NIL=
METAR HKLU 102300Z NIL=
METAR HKMA 102300Z NIL=
METAR HKMB 102300Z NIL=
METAR HKME 102300Z NIL=
METAR HKML 102300Z NIL=
METAR HKMO 102300Z NIL=
METAR HKMU 102300Z NIL=
METAR HKMY 102300Z NIL=
METAR HKNC 102300Z NIL=
METAR HKNI 102300Z NIL=
METAR HKNK 102300Z NIL=
METAR HKNO 102300Z NIL=
METAR HKNW 102300Z NIL=
METAR HKVO 102300Z NIL=
METAR HKWJ 102300Z NIL=

0000026100
248
FTCY31 LCLK 102330
TAF LCLK 102330Z 1100/1124 32007KT 9999 FEW030 BECMG 1108/1110
 21012KT BECMG 1116/1118 32007KT=
TAF LCPH 102330Z 1100/1124 03007KT 9999 FEW025 BECMG 1106/1109
 28011KT BECMG 1117/1119 03007KT=
TAF LCNC 102330Z NIL=

0000042000
249
SAID31 WIII 102300
METAR WIII 102300Z 20004KT 6000 FEW020 26/23 Q1010 NOSIG= 
METAR WIMM 102300Z 26003KT 4000 HZ FEW016CB BKN017 24/24 Q1011= 
METAR WADD 102300Z 36004KT 320V020 9999 FEW015CB FEW015 26/23 Q1010
NOSIG= 
METAR WAAA 102300Z 11002KT 7000 -RA FEW018CB SCT019 24/24 Q1012= 
METAR WIDD 102300Z 30004KT 9999 FEW014 25/24 Q1010= 
METAR WIHH NIL=
METAR WABB NIL=
METAR WARR NIL=

0000010600
250
SACN62 CYYQ 102300
METAR CYYQ 102300Z 29006KT 15SM OVC270 M28/M32 A2973 RMK CI8 SLP071=

0000012300
251
SACN62 CYVO 102300
METAR CYVO 102300Z 18011KT 10SM -SN BKN010 OVC028 M05/M06 A2997 RMK
 ST7SC1 SLP177=

0000013500
252
SACN62 CYUX 102300
METAR CYUX 102300Z 32017KT 6SM IC DRSN BKN140 OVC220 M31/M34 A2931
 RMK AS6CS2 WND ESTD SLP928=

0000011500
253
SACN62 CYXL 102300
METAR CYXL 102300Z 17006KT 3SM -SN BR OVC007 M07/M08 A2948 RMK ST8
 SLP011=

0000098400
254
FTIL31 BICC 102300
TAF BIKF 102308Z 1100/1124 26016KT 9999 FEW020 BKN035 BKN050
         PROB40 TEMPO 1100/1109 3000 SHSN BKN012
         BECMG 1111/1114 18010KT
         BECMG 1118/1121 14010KT
         PROB30 TEMPO 1119/1124 3000 SHSN BKN015=
TAF BIRK 102308Z 1100/1124 27012KT 3000 SNRA BKN007 OVC015
         TEMPO 1100/1104 1200 SN VV005
         BECMG 1103/1106 25012KT 9999 NSW FEW020 BKN030 BKN050
         PROB40 TEMPO 1104/1109 3000 SHSN BKN012
         BECMG 1109/1112 VRB02KT
         BECMG 1121/1124 10010KT=
TAF BIAR 102308Z 1100/1124 15012KT 9999 BKN035 OVC050
         TEMPO 1100/1109 16020G35KT
         PROB40 1100/1112 5000 SHSN BKN015
         BECMG 1112/1115 22008KT 9999 FEW025 SCT035=
TAF BIEG 102308Z 1100/1124 06020G30KT 7000 SNRA SCT012 OVC020
         TEMPO 1100/1109 2000 SN BKN008 OVC012
         BECMG 1109/1112 27010KT 9999 NSW SCT020 BKN035
         PROB40 TEMPO 1109/1115 5000 SHSN BKN015 OVC025=

0000069100
255
FTSR32 WSSS 102300
TAF WMKJ 102300Z 1100/1124 35005KT 9999 FEW017CB SCT130 BKN280
TEMPO 1107/1111 4000 TSRA FEW010 FEW015CB SCT018=
TAF WMKK 102300Z 1100/1206 02005KT 9999 FEW017CB SCT140 BKN280
TEMPO 1107/1111 4000 TSRA FEW010 FEW015CB SCT018=
TAF WMKP 102300Z 1100/1124 22005KT 9000 FEW020 SCT140 BKN270=
TAF WMSA 102300Z 1100/1124 30005KT 9999 FEW017CB SCT140 BKN280
TEMPO 1107/1111 4000 TSRA FEW010 FEW015CB SCT018=
TAF WMKL 102300Z 1100/1124 05005KT 9999 FEW017CB SCT140 BKN280
PROB30 TEMPO 1107/1111 4000 TSRA FEW010 FEW015CB SCT018=
TAF WMKM 102300Z 1100/1124 03005KT 9999 FEW017CB SCT140 BKN280
TEMPO 1107/1111 4000 TSRA FEW010 FEW015CB SCT018=

0000010500
256
SPUS42 KWBC 102307
SPECI
KSHV 102303Z 18009KT 10SM FEW017 BKN024 OVC049 17/14 A2975=

0000010000
257
SPUS43 KWBC 102307
SPECI
KINL 102303Z AUTO 15005KT 4SM BR OVC004 M05/M06 A2948=

0000010500
258
SPUS43 KWBC 102307
SPECI
KMKE 102303Z 16014KT 3SM FZRA BR BKN005 OVC041 02/01 A2967=

0000031600
259
SATH31 VTBB 102300
METAR VTCH 102300Z NIL=
METAR VTCL 102300Z 13002KT 0500 R36/0500 FG VV005 15/15 Q1017 A3003=
METAR VTCN 102300Z NIL=
METAR VTCP 102300Z NIL=
METAR VTCT 102300Z NIL=
METAR VTPH 102300Z NIL=
METAR VTPO 102300Z 35002KT 3000 BR NSC 20/19 Q1015=
METAR VTPP 102300Z NIL=

0000029300
260
SANZ31 NZKL 102300
METAR NZAA 102300Z AUTO 23011KT 9999 FEW030/// OVC043/// 20/13 Q1019
          NOSIG=
METAR NZWN 102300Z AUTO 34010KT 300V020 9999 NCD 20/11 Q1017 NOSIG=
METAR NZCH 102300Z AUTO 07011KT 030V100 9999 SCT020/// OVC028///
          17/12 Q1016 NOSIG=

0000028900
261
FTAU31 YBBN 102300 AAA
TAF AMD YMML 102307Z 1100/1206
18010KT 9999 SCT015 BKN020
BECMG 1101/1103 18014KT CAVOK
BECMG 1110/1112 19009KT 9999 -DZ BKN008
BECMG 1122/1124 19010KT 9999 SCT015 BKN020
BECMG 1200/1202 18012KT CAVOK
TEMPO 1100/1102 9999 BKN015
RMK=

0000040800
262
SATH32 VTBB 102300
METAR VTSB 102300Z 00000KT 4000 BR FEW020 23/23 Q1013
A2990 INFO R / RWY 22=
METAR VTSC 102300Z NIL=
METAR VTSF 102300Z 00000KT 8000 FEW018 SCT022 BKN300
24/23 Q1012 A2990 INFO Q / RWY 19=
METAR VTSG 102300Z NIL=
METAR VTSH 102300Z NIL=
METAR VTSM 102300Z 00000KT 9000 FEW020 BKN300 27/24 
Q1013 A2993=
METAR VTSR 102300Z NIL=
METAR VTST 102300Z NIL=

0000081400
263
SACI31 ZBBB 102300
METAR ZBAA 102300Z 36003MPS 8000 NSC M11/M20 Q1031 NOSIG=
METAR ZBSJ 102300Z 23001MPS 2300 FU NSC M07/M13 Q1031 NOSIG=
METAR ZBTJ 102300Z 17001MPS 0500 R16R/1800N FZFG NSC M07/M09 Q1032
NOSIG=
METAR ZBYN 102300Z 07001MPS 8000 NSC M09/M18 Q1028 NOSIG=
METAR ZGGG 102300Z 09002MPS 5000 BR NSC 12/08 Q1024 NOSIG=
METAR ZSHC 102300Z 10001MPS 5000 -RA BR BKN026 05/03 Q1031
NOSIG=
METAR ZSPD 102300Z 06004MPS 9999 -RA NSC 06/02 Q1032 NOSIG=
METAR ZSSS 102300Z 08004MPS CAVOK 07/M00 Q1031 NOSIG=
METAR ZWSH 102300Z 33004MPS 4500 FU NSC M09/M13 Q1033 NOSIG=
METAR ZWWW 102300Z 35001MPS 0400 R07/0900N FZFG BKN005 M22/M24 Q1037
NOSIG=
METAR ZYTL 102300Z 00000MPS 4000 BR SCT033 M07/M10 Q1032 NOSIG=
METAR ZYTX 102300Z 14002MPS 6000 NSC M17/M21 Q1030 NOSIG=

0000013900
264
SAAE32 VTBB 102300
METAR VLLB 102300Z NIL=
METAR VLLN 102300Z NIL=
METAR VLPS 102300Z NIL=
METAR VLSK 102300Z NIL=

0000071700
265
SARA32 RUMS 102300
METAR UHBB 102300Z 24001MPS CAVOK M34/M36 Q1022 NOSIG RMK QFE749/0999
36410160=
METAR UHHH 102300Z 24008G11MPS CAVOK M26/M32 Q1019 NOSIG RMK
QFE757/1010 23090060=
METAR UHMA 102300Z 08025G30MPS 0400 R01/0450 +BLSN SCT080 M13/M17
Q1009 NOSIG RMK QFE753/1004=
METAR UHMD 102300Z NIL=
METAR UHMM 102300Z 04006MPS 9999 SCT066 BKN200 M18/M28 Q1008 NOSIG
RMK QFE741 88820555=
METAR UHPP 102300Z 05002MPS 9999 FEW016 BKN033CB M05/M13 Q0994 NOSIG
RMK MT OBSC QFE742/0989 SC05 055 055=
METAR UHSS 102300Z 00000MPS 5000 FU SCT040 M23/M25 Q1014 NOSIG RMK
QFE759/1012 01810366=
METAR UHWW 102300Z 00000MPS 9999 SCT200 M26/M29 Q1028 NOSIG RMK
QFE769/1026 25CLRD70=

00000000