0000011100
666
UANT99 KDDL 111058
ARP BER7000 5002N01854W 1058 F360 MS63 219/90 KT
DABXB QXT AOE 111059 J19A
0000011000
667
UANT99 KDDL 111059
ARP UAL80 5401N01904W 1058 F340 MS63 227/86 KT
N14120 DDL IG1 111059 F53A
0000009700
668
SPUS42 KWBC 110308
SPECI
KGLS 110304Z AUTO 20011KT 1SM BR VV002 16/16 A2986=

0000010100
669
SPUS42 KWBC 110309
SPECI
KMOB 110305Z 13004KT 1 3/4SM -RA BR OVC004 15/15 A2996=

0000009800
670
SPUS43 KWBC 110309
SPECI
KMLI 110305Z 20007KT 10SM SCT006 OVC017 04/03 A2951=

0000009500
671
SABZ43 KWBC 110300 RRA
METAR
SBJP 110300Z 13002KT 9999 SCT020 24/21 Q1013=

0000019700
672
SACA33 KWBC 110300 RRA
METAR
TNCA 110300Z 08016KT 9999 SCT018 26/22 Q1014 A2994=
TTCP 110300Z 00000KT 9999 FEW015 24/19 Q1015=
TTPP 110300Z 00000KT 9999 FEW016 23/21 Q1014=

0000006700
673
SAJP44 KWBC 110300 RRA
METAR
RJSA 110300Z NIL=

0000014700
674
SAJP41 KWBC 110300 RRA
METAR
RJAW 110300Z 05011KT 9999 FEW020 BKN030 BKN050 19/07 Q1021 RMK
     1CU020 5CU030 7SC050 A3018=

0000047400
675
SAJP31 KWBC 110300 RRA
METAR
RJAA 110300Z 32009KT 9999 FEW030 06/M08 Q1023 NOSIG RMK 1CU030
     A3021=
RJCC 110300Z 35005KT 9999 -SHSN FEW020 SCT040 BKN070 M06/M12 Q1017
     RMK 1CU020 4CU040 6AC070 A3004=
RJFK 110300Z 36009KT 9999 FEW035 SCT/// 08/M03 Q1028 RMK 1CU035
     A3036=
RJOO 110300Z 30009KT 250V330 9999 FEW030 08/M05 Q1027 RMK 1CU030
     A3034=
RJTT 110300Z 09005KT 9999 FEW030 06/M05 Q1023 NOSIG RMK 1CU030
     A3021=

0000008900
676
SASA42 KWBC 110300 RRA
METAR
SCTC 110300Z 00000KT CAVOK 10/07 Q1020=

0000184600
677
SPUS70 KWBC 110310
SPECI
KARA 110306Z AUTO 18015KT 10SM BKN005 BKN014 OVC042 19/18 A2989
     RMK AO2 LTG DSNT W-N RAE02 P0000 $=
KASH 110306Z AUTO 00000KT 7SM BKN022 BKN027 OVC043 M01/M01 A3031
     RMK AO2=
KHZY 110306Z AUTO 15011G20KT 6SM -RA BR SCT004 SCT022 OVC075 05/03
     A2989 RMK AO2 P0001 TSNO=
KISW 110306Z AUTO 00000KT 5SM BR SCT005 OVC014 00/M01 A2949 RMK
     AO2 SNE0259 P0000 T00001011=
KLWV 110306Z AUTO 18011KT 2 1/2SM -RA SCT010 BKN023 OVC042 07/
     A2972 RMK AO2 P0002 T0067 $=
KMCB 110306Z AUTO 17013KT 1SM BR VV002 17/17 A2990 RMK AO2
     T01670167=
KMEM 110306Z 34008KT 1 1/2SM R36L/3000VP6000FT +TSRA BR SCT006
     OVC017CB 12/11 A2975 RMK AO2 WSHFT 0247 OCNL LTGIC OHD TS OHD
     MOV NE P0026=
KMRB 110306Z 33003KT 3/4SM -RA BR OVC002 02/01 A3018 RMK AO2
     RAB0257 P0002 T00220006=
KSEG 110306Z AUTO 00000KT 3/4SM UP BR OVC005 00/M01 A3020 RMK AO2
     P0001 T00001006=
KTDR 110305Z AUTO 14010KT 2SM BR OVC002 17/ A3006 RMK AO2 VIS 1
     7/8V5 $=
KDTN 110307Z AUTO 22008KT 10SM SCT010 BKN015 OVC022 17/16 A2977
     RMK AO2 RAB0256E05 P0000=
KHAO 110307Z AUTO VRB06KT 10SM OVC029 10/08 A2980 RMK AO2
     T01000083=
KLBT 110307Z AUTO 20004KT 2 1/2SM BR OVC004 18/18 A3012 RMK AO2
     T01830178=
KLNR 110307Z AUTO 00000KT 3/4SM BR OVC007 01/00 A2949 RMK AO2
     T00060000=
KMCW 110307Z AUTO 27005KT 3SM BR FEW033 OVC048 M02/M02 A2952 RMK
     AO2 SNE02 P0000 T10171022 TSNO=
KRDG 110307Z AUTO 00000KT 1SM -RA BR VV002 01/00 A3023 RMK AO2
     P0002 TSNO RVRNO=
KRME 110307Z AUTO 10006KT 10SM OVC014 01/M03 A3018 RMK AO2
     T00061028=
KVIH 110307Z AUTO 18010KT 10SM FEW008 BKN039 OVC075 07/06 A2955
     RMK AO2 RAE0256 P0000 T00670061 $=
KNSE 110305Z 16012KT 3SM BR OVC002 19/18 A2999 RMK AO2 T01890183
     $=

0000013200
678
SPUS31 KWBC 110310
SPECI
KMEM 110306Z 34008KT 1 1/2SM R36L/3000VP6000FT +TSRA BR SCT006
OVC017CB 12/11 A2975=

0000010900
679
SPUS41 KWBC 110310
SPECI
KDOV 110306Z AUTO 08003KT 2SM R01/3000FT BR SCT055 04/04 A3021=

0000009700
680
SPUS42 KWBC 110310
SPECI
KHSV 110307Z 16008KT 4SM -RA BR OVC008 11/10 A2993=

0000078300
681
SAAG31 KWBC 110300
METAR
SAAG NIL=
SAAP NIL=
SAAR 110300Z 18007KT 9999 FEW035 BKN100 23/22 Q1010 RETS=
SABE 110300Z 29009KT CAVOK 25/18 Q1011=
SACO 110300Z 16012KT 9999 FEW028 BKN100 24/20 Q1015=
SADD NIL=
SAEZ 110300Z 19010KT 160V240 CAVOK 22/13 Q1012=
SAME 110300Z 18006KT CAVOK 27/04 Q1015=
SARC 110300Z 09003KT 9999 FEW050CB BKN200 29/23 Q1007=
SARE 110300Z 09003KT 8000 NSC 28/25 Q1007=
SARF 110300Z 02009KT CAVOK 30/22 Q1007=
SARI 110300Z 05005KT CAVOK 26/23 Q1013=
SARP 110300Z 09004KT CAVOK 26/22 Q1011=
SASA 110300Z NIL=
SASJ 110300Z 27005KT 9999 SCT030 OVC100 26/19 Q1010=
SAWE 110300Z NIL=
SAWG 110300Z 29007KT 9999 OVC045 08/07 Q1012=
SAZM 110300Z 20006KT CAVOK 16/11 Q1014=
SAZS 110300Z 27004KT CAVOK 13/05 Q1021=

0000029100
682
SAAG41 KWBC 110300
METAR
SAAC NIL=
SAAV NIL=
SAGS NIL=
SANE NIL=
SANT 110300Z 36010KT 9999 BKN040 FEW045CB 29/21 Q1007=
SANU NIL=
SAOR NIL=
SARL 110300Z NIL=
SATM NIL=
SAVC 110300Z 25009KT CAVOK 16/M04 Q1014=
SAVT NIL=
SAZB NIL=
SAZN 110300Z NIL=

0000031700
683
SACA33 KWBC 110300 RRB
METAR
TFFF 110300Z AUTO 07009KT 030V090 9999 FEW024 SCT056 24/21 Q101
     6=
TLPL 110300Z 07018KT 9999 VCSH SCT019 24/21 Q1016 NOSIG=
TNCC 110300Z 09012KT 9999 SCT014 26/23 Q1015 NOSIG=
TNCM 110300Z 06010KT 9999 SCT017TCU 25/20 Q1019 A3009 TCU/SHRA E
     TO NE=

0000063700
684
SAPR41 KWBC 110300
METAR
SPCL 110300Z VRB02KT 9999 FEW020 BKN080 26/24 Q1011 RMK PP000=
SPEC NIL=
SPEI NIL=
SPEO NIL=
SPGM NIL=
SPHI 110300Z 17011KT CAVOK 23/21 Q1012 RMK PP000=
SPHO NIL=
SPHY NIL=
SPJA NIL=
SPJI NIL=
SPJL 110300Z 04003KT 9999 SCT020 10/06 Q1036 RMK PP000=
SPJN NIL=
SPJR NIL=
SPME 110300Z VRB02KT 9999 FEW012 BKN027 25/24 Q1011 RMK BIRD
     HAZARD RWY 32/14 PP000=
SPMS NIL=
SPNC NIL=
SPPY NIL=
SPRU 110300Z 15006KT 9999 FEW045 22/19 Q1012 RMK PP000=
SPST 110300Z 36004KT 9999 SCT020 24/20 Q1010 RMK BIRD HAZARD RWY
     17/35 PP000=
SPTU NIL=
SPUR NIL=

0000188600
685
SPUS70 KWBC 110312
SPECI
KFFC 110308Z AUTO 12003KT 2 1/2SM BR OVC004 09/09 A3006 RMK AO2
     T00890089=
KJST 110308Z AUTO 18009KT 1/4SM FG VV002 02/02 A3002 RMK AO2
     T00220017=
KLEB 110308Z AUTO 00000KT 9SM BKN008 BKN055 M04/M07 A3027 RMK AO2
     CIG 007V012 T10391067=
KLLQ 110308Z AUTO 26007KT 1 3/4SM +RA BR BKN015 BKN021 OVC028
     16/14 A2974 RMK AO2 LTG DSNT N P0009=
KOWB 110308Z 22005KT 1SM +RA BR BKN006 OVC014 08/08 A2975 RMK AO2
     P0019=
KRKS 110308Z AUTO 25019KT 10SM SCT028 OVC036 M02/M07 A2998 RMK AO2
     T10221067=
KRWF 110308Z AUTO 27006KT 3SM BR CLR M03/M04 A2950 RMK AO2=
PABR 110308Z 29013KT 1SM R07/2200VP6000FT BR VV003 M22/M24 A2984
     RMK AO2 T12221244=
PAWI 110308Z AUTO 30008KT 4SM HZ OVC003 A2989 RMK AO2 TSNO $=
KADF 110308Z AUTO 23017KT 4SM -RA BR SCT006 BKN026 OVC065 14/12
     A2972 RMK AO2 CIG 021V037 TSE08 P0001=
KBAF 110310Z 01003KT 3SM BR FEW006 OVC011 M01/M02 A3029 RMK AO2
     T10061017=
KBOK 110309Z AUTO 14006KT 9SM OVC014 11/09 A3015 RMK AO2 $=
KEWB 110309Z AUTO 12003KT 1SM R05/2400V5000FT BR OVC003 04/04
     A3030 RMK AO2 T00440039=
KFAY 110309Z AUTO 00000KT 4SM -RA BR FEW002 BKN009 OVC014 16/16
     A3012 RMK AO2 P0003=
KHGR 110309Z AUTO 33005KT 1/2SM FG OVC004 01/01 A3017 RMK AO2
     RAE0255 P0000 T00060006=
KILG 110309Z AUTO 06004KT 2SM -RA BR OVC004 03/03 A3024 RMK AO2
     P0001=
KIMT 110309Z AUTO 10005KT 3/4SM -SN BR FEW006 OVC011 M02/M03 A2951
     RMK AO2 PRESFR P0001=
KIND 110309Z 14008KT 1/4SM R05L/1600V2000FT -RA FG VV002 04/04
     A2968 RMK AO2 PRESFR P0001=
KNSE 110305Z 16012KT 3SM BR OVC002 19/18 A2999 RMK AO2 T01890183
     $=
KOTM 110309Z AUTO 26006KT 5SM BR OVC002 01/01 A2953 RMK AO2
     T00110011 TSNO=
KPQL 110309Z AUTO 15005KT 1 3/4SM -RA BR OVC003 17/16 A2996 RMK
     AO2 P0000 T01670161 TSNO=

00000000