0000047600
126
FTUS72 KWBC 110003 AAA
TAF AMD
KMLC 110002Z 1100/1124 VRB03KT P6SM SCT040 BKN045 OVC070
     FM110200 28008KT P6SM SCT250
     FM111800 30015G23KT P6SM SKC=
KMLU 110001Z 1100/1124 19007KT P6SM SCT007 OVC025
      TEMPO 1100/1102 2SM -DZ BR OVC005
     FM110300 19012G18KT P6SM OVC010
      TEMPO 1104/1108 VRB15G30KT 2SM TSRA BR OVC005CB
     FM110800 23008KT P6SM BKN015
     FM111200 26010KT P6SM SKC
     FM111800 28015G25KT P6SM SKC=

0000015000
127
FTUS75 KWBC 110003 AAA
TAF AMD
PAOR 110000Z 1100/1124 33004KT 6SM -SN BR BKN035 BKN070
     FM110800 00000KT 6SM -SN BR BKN025=

0000035700
128
SAIL31 BICC 110000
METAR BIAR 110000Z 15007KT 100V200 9999 -SG FEW040 OVC047 02/M03
    Q0996=
METAR BIEG 110000Z 07018G30KT 7000 -SN SCT012 OVC022 01/M01 Q0997 RMK
R04/790195
  RWY SANDED=
METAR BIKF 110000Z 27015KT 9999 FEW038 BKN065 02/M03 Q0992=
METAR BIRK 110000Z 28011KT 3000 -SN FEW010 BKN017 OVC025 00/M01
    Q0992=

0000008900
129
SATU34 LTAA 102350 RRA
METAR LTCU 102350Z 21003KT CAVOK M09/M11 Q1024=

0000048100
130
SAYG31 LYBM 110000
METAR LYBE 110000Z 16006KT 8000 NSC 05/03 Q1023 NOSIG=
METAR LYBT 110000Z VRB01KT 0500 FG NSC 01/01 Q1023 NOSIG=
METAR LYKV 110000Z VRB01KT 9999 SCT040 04/02 Q1023 NOSIG=
METAR LYNI 110000Z 19003KT 170V240 CAVOK 01/M00 Q1023=
METAR LYPG 110000Z NIL=
METAR LYPR 110000Z NIL=
METAR LYTV 110000Z VRB01KT CAVOK 08/07 Q1022=
METAR LYUZ 110000Z VRB01KT 8000 BKN020 04/03 Q1021=
METAR LYVR 110000Z VRB01KT 7000 NSC 01/M01 Q1023 NOSIG=

0000013400
131
FCTA31 RUMS 102300 RRA
TAF UTDD 102355Z 1101/1113 VRB03MPS 0200 FZFG VV002 BECMG 1105/1107
1500 BR SCT010 BKN040=

0000025600
132
SACZ31 LKPW 110000
METAR LKKV 110000Z VRB01KT CAVOK M01/M02 Q1017=
METAR LKMT 110000Z 23009KT 9999 FEW039 M00/M02 Q1018 NOSIG=
METAR LKPR 110000Z 23014KT CAVOK 03/00 Q1017 NOSIG=
METAR LKTB 110000Z 16005KT CAVOK 01/M02 Q1019 NOSIG=

0000009900
133
SAPR01 SPIM 110000
METAR SPIM 110000Z 16012KT CAVOK 22/19 Q1011 NOSIG RMK PP000=

0000072300
134
SAMX31 KWBC 102345 RRC
METAR
MMAA 102345Z 26003KT 10SM SKC 29/20 A2983 RMK SLP102 57006 962=
MMGL 102346Z 26010KT 10SM BKN040 20/02 A3009 RMK SLP133 52006 900
     8/400 AC TCU E=
MMMX 102344Z 18009KT 12SM SCT025TCU BKN080 19/04 A3020 NOSIG RMK
     SLP095 52003 960 8/230=
MMMY 102344Z 11005KT 10SM SCT250 22/16 A2987 RMK SLP115 50014 988
     8/002=
MMMZ 102345Z 26008KT 15SM SCT220 23/11 A2988 RMK SLP121 54000 902
     8/004=
MMPR 102349Z 20005KT 15SM BKN140 25/18 A2988 RMK SLP112 57006 967
     8/080=
MMTM 102341Z 13006KT 5SM SCT015 BKN060 BKN200 21/17 A2983 RMK
     SLP087 57074 993 8/538 HZY=
MMVR 102343Z 11006KT 7SM SKC 24/17 A2984 RMK SLP091 57007 992
     HZY=

0000009000
135
SAVN26 SVMC 110000
METAR SVMC 110000Z /////KT 9999 FEW0136 26/21 Q1011=

0000040200
136
SAMX34 MMMD 110000
METAR MMMD 102344Z 13005KT 7SM  FEW025 27/20 A2990 
      RMK SLP128 56006 990 8/400=
METAR MMUN 102343Z 12005KT 7SM  SCT015TCU 26/22 A2997 
      RMK SLP141 54000 981 8/200=
METAR MMCZ 102343Z 11005KT 8SM  SCT015TCU 22/21 A2996 
      RMK SLP138 57015 984 8/200=
METAR MMTP 102344Z 00000KT 10SM  SCT250 28/22 A2985 
      RMK SLP095 57024 960 8/002=

0000010300
137
SABZ24 SBFL 110000
METAR SBFL 110000Z 01007KT 9999 TS SCT030 FEW035CB
27/24 Q1011=

0000023200
138
SPUS70 KWBC 102358
SPECI
KIGX 102353Z AUTO VRB03KT 1 3/4SM +RA BR OVC003 06/05 A3020 RMK
     AO2 RAB07 P0008=
KROG 102353Z 25008KT 7SM +TSRA OVC015 11/09 A2960 RMK AO2 LTG DSNT
     SW-N TSB51RAB09 P0018=

0000087500
139
SANL33 EHDB 102355
METAR EHAK 102355Z AUTO 23025KT 9999 FEW025/// BKN028/// OVC032///
08/06 Q1006=
METAR EHDV 102355Z AUTO 24019KT 9999 NSC 08/06 Q1008=
METAR EHFD 102355Z AUTO 24023KT 9999 FEW007/// SCT008/// BKN010///
08/07 Q1007=
METAR EHFZ 102355Z AUTO 22022KT //// // ///////// 08/07 Q1010 RE//=
METAR EHJA 102355Z AUTO 22025KT 9999 NSC 08/06 Q1009=
METAR EHJR 102355Z NIL=
METAR EHKV 102355Z AUTO 24027KT 9999 SCT010/// BKN012/// BKN046///
09/07 Q1011=
METAR EHMA 102355Z AUTO 21021KT 6000 -UP SCT006/// BKN007///
OVC009/// 07/06 Q1012=
METAR EHMG 102355Z AUTO 23027KT 9999 FEW011/// SCT040/// 09/07 Q1010=
METAR EHPG 102355Z AUTO ///30KT 9999 FEW008/// SCT010/// BKN023///
09/07 Q1012=
METAR EHQE 102355Z AUTO 22029KT 9999 SCT005/// BKN007/// BKN009///
09/07 Q////=
METAR EHSA 102355Z NIL=
METAR EHSC 102355Z NIL=

0000008900
140
SABZ21 SBFZ 110000
METAR SBFZ 110000Z 07012KT 9999 SCT018 27/21 Q1012=

0000008500
141
SAFJ31 NFNA 111000
METAR NFNA 111000Z 18005KT 9999 SCT020 26/23 Q1007
0000009600
142
SPUS41 KWBC 110006
SPECI
KABE 110002Z 00000KT 3/4SM BR OVC003 00/M01 A3030=

0000009700
143
SPUS42 KWBC 110006
SPECI
KFTY 110002Z 09004KT 1 1/2SM BR OVC003 09/09 A3008=

0000010000
144
SPUS42 KWBC 110006
SPECI
KSAV 110002Z 13008KT 2SM BR BKN006 OVC011 18/17 A3013=

0000009500
145
SPUS43 KWBC 110006
SPECI
KSTP 110002Z 15006KT 2SM BR OVC004 M01/M02 A2957=

00000000