0000034600
926
SAIQ01 ORBI 110900
METAR ORBI 110900Z 13007KT 2100 OVC030 10/08 Q1017 NOSIG=
METAR ORNI 110900Z 26018KT 8000 OVC025 11/08 Q1017 NOSIG=
METAR ORMM 110900Z 26010KT 4000 BR FEW040 OVC100 12/11 Q1018 NOSIG=
METAR ORBM 110900Z VRB03KT 6000 NSC 11/03 Q1020 NOSIG=
METAR ORER 110900Z VRB02KT 7000 SCT030 OVC080 09/06 Q1018 NOSIG=
0000024100
927
SOAT10 KWAL 110903
FA8005BC 011090337 OT12 ID:KN-BASS-01 DT:2014 01 11 09 01
:RD -3124 -3117 -3107 -3094 -3119 -3114 -3100 -3109 -3119 -3097
:PR 0607 0590 0565 0558 0516 0557 0499 0554 0574 0542
:B 13.7V
 46+1NN 219E
0000010400
928
SMKN20 HKNC 110600 RRA
AAXX 11063
63720 32482 10903 10196 20129 81100 333 20128 81819=
0000009200
929
SAIQ01 ORBI 110900
METAR ORBI 110900Z 13007KT 2100 OVC030 10/08 Q1017 NOSIG=
0000042900
930
UDAS02 EGRR 110906
AMDAR 1108
LVR EU2200   6254N 12450E 110824 F360 MS552 095/015 TB/ S031=
LVR EU2200   6339N 12335E 110831 F360 MS557 083/006 TB/ S031=
LVR EU2200   6422N 12218E 110838 F360 MS562 084/007 TB/ S031=
LVR EU2200   6505N 12055E 110845 F360 MS567 093/010 TB/ S031=
LVR EU2200   6547N 11928E 110852 F360 MS580 111/012 TB/ S031=
LVR EU2200   6628N 11756E 110859 F360 MS592 113/008 TB/ S031=
0000046700
931
SIVD17 KWNB 110900 RRC
BBXX
46066 11091 99528 71550 46/// /1713 10036 49945 58033 90850 22200
00054 11106 20704 324// 41105 70031 333 91215 555 11137 22145
30842 41715 60849 167126 166123 169121 170115 173111 173108 81713
90842=
46078 11091 99560 71526 46/// /2206 10033 20022 49946 58014 90850
22200 00044 11105 20502 323// 41105 70025 333 91208 555 11067
22070 30806 42311 60849 223064 223063 227065 231071 227087 229084
82310 90807=
0000172500
932
SIVD15 KWNB 110900 RRC
BBXX
42003 11091 99260 70856 46/// /1707 10255 40158 57007 90850 22200
00249 10602 20602 312// 40701 70011 333 91208 555 11071 22078
30833 41708 60849 169066 168069 169064 169063 167064 169069 81707
90752=
42057 11091 99170 70815 46/// /0808 10272 20230 40141 56010 90850
22200 00275 10904 20703 310// 40903 70022 333 91210 555 11085
22091 30847 40810 60849 082080 082080 089073 077073 073069 077074
80809 90847=
41047 11091 99275 70715 46/// /1109 10242 20229 40233 56006 90850
22200 00255 10804 20803 312// 40903 70022 333 91210 555 11091
22096 30750 41211 60849 112087 111083 113076 112082 114084 113088
81110 90759=
42055 11091 99222 70940 46/// /1803 10228 40140 50000 90850 22200
00228 10802 20401 307// 40802 70011 333 91204 555 11029 22030
30849 41704 60849 176027 178023 192024 203024 215022 216022 81703
90849=
41048 11091 99320 70695 46/// /1309 10205 20157 40263 58013 90850
22200 00213 10803 20803 313// 40902 70017 333 91211 555 11099
22105 30842 41311 60849 132093 136091 134092 135085 137089 131092
81410 90759=
44066 11091 99396 70726 46/// /1508 10128 20121 40199 56034 90850
22200 00112 10902 20501 316// 40901 70008 333 91209 555 11082
22091 60849 147074 148072 150074 149076 146071 143066=
42039 11091 99288 70860 46/// /1606 10215 20215 40153 58011 90850
22200 00211 10402 20402 3//// 40801 70008 333 91208 555 11064
22069 30842 41608 60849 163059 166058 165058 164063 161064 157062
81607 90801=
41040 11091 99145 70530 46/// /0608 10246 20204 40148 55000 90850
22200 00262 11306 20604 301// 41305 70029 333 91210 555 11087
22091 30816 40613 60849 057082 054086 054100 061109 073090 074085
80611 90818=
0000010600
933
SIMJ01 LWOH 110900
AAXX 11091
13579 31/04 93001 10028 20019 39421 52007 74444 333 89/01=
0000069300
934
UDEU02 EGRR 110906
AMDAR 1108
ASC EU0029   5215N 00430E 110837 F078 MS062 254/028 TB0 S031
333 F078 VG003=
ASC EU0029   5217N 00429E 110838 F096 MS100 260/033 TB0 S031
333 F096 VG003=
ASC EU0029   5219N 00426E 110838 F115 MS135 249/032 TB0 S031
333 F115 VG005=
ASC EU0029   5222N 00423E 110839 F137 MS155 267/044 TB0 S031
333 F137 VG001=
ASC EU0029   5226N 00419E 110840 F158 MS207 272/045 TB0 S031
333 F158 VG001=
LVR EU0029   5249N 00353E 110844 F257 MS425 236/061 TB0 S031
333 F257 VG001=
LVR EU0029   5325N 00257E 110851 F365 MS517 240/045 TB0 S031
333 F365 VG000=
LVR EU0029   5351N 00146E 110858 F370 MS490 250/052 TB0 S031
333 F370 VG002=
0000012200
935
SIAA21 LFPW 110900
AAXX 11094
89642 42875 50905 10027 21050 39862 49915 51009 82539
  333 82656 83363=
0000067100
936
SAIR31 OIII 110900
METAR OIAW 110900Z 10008KT 7000 FEW025CB SCT030 OVC080 13/10 Q1017=
METAR OIFM 110900Z 25004KT 1800 HZ SCT040 OVC100 01/M03 Q1018
      A3009=
METAR OIII 110900Z 00000KT 5000 HZ SCT040 OVC100 04/M06 Q1020
 A3013 TEMPO 4000 SN FEW035CB SCT030 BKN100=
METAR OIKB 110900Z 35006KT 7000 -RA FEW025CB SCT030 OVC090 15/09
Q1020 A3015 NOSIG=
METAR OIKK 110900Z NIL=
METAR OIMM 110900Z 11008KT 9999 FEW040 SCT110 BKN170 07/M10 Q1019
A3010=
METAR OISS 110900Z 00000KT 1500 BR FEW030CB SCT035 OVC080 02/02
Q1021 A3016 RESHSN=
METAR OITT 110900Z 22004KT 5000 HZ FEW035 BKN180 M05/M11 Q1022
A3018=
METAR OIZH 110900Z NIL=
0000043300
937
UDEU02 EGRR 110906 RRA
AMDAR 1108
LVR EU0037   5111N 00453E 110826 F320 MS527 244/065 TB/ S031=
LVR EU0037   5034N 00411E 110833 F324 MS535 245/067 TB/ S031=
LVR EU0037   5002N 00322E 110840 F330 MS547 245/070 TB/ S031=
LVR EU0037   4933N 00231E 110847 F330 MS550 244/072 TB/ S031=
LVR EU0037   4908N 00136E 110854 F330 MS555 243/074 TB/ S031=
LVR EU0037   4837N 00047E 110901 F330 MS560 242/064 TB/ S031=
0000009000
938
SIQT20 OTBD 110900
AAXX 11094
41174 46/// /1708 10151 20130 30142 40204=
0000011000
939
UANT99 KDDL 110902
ARP DAL40 5742N02346W 0902 F330 MS61 244/79 KT
N827MH QXT AOE 110902 F34A
0000010900
940
UANT99 KDDL 110902
ARP THY34 5526N04634W 0902 F350 MS59 283/69 KT
TCJJH QXT AOW 110902 F26A
0000011000
941
UANT99 KDDL 110902
ARP UAE202 5759N02008W 0902 F360 MS56 236/67 KT
A6EEL DDL XXF 110902 J93A
0000011000
942
UANT99 KDDL 110903
ARP BAW204 4634N03228W 0903 F370 MS46 229/36 KT
GVIID QXT AOW 110903 F53A
0000008500
943
UAPA01 KWBC 110903
ARP DAL1104 2347N 15322W 0854 F350 MS48 221/066KT=
0000054000
944
SIHU41 HABP 110900
AAXX 11091
12812 41326 81702 10041 20034 39967 40218 50002 71022 886//
  333 88708=
12851 41484 42704 10000 21044 39018 42812 51011 70300 83832
  333 82810 82616=
12860 42660 80000 10043 20010 30117 40228 50004 885// 333 88645=
12892 46/// /2305 10011 21002 30048 40227 51013=
12935 41568 82603 10047 20035 30086 40222 50002 70322 8252/
  333 82623=
12950 41668 71802 10070 20034 30096 40217 58002 70122 83572
  333 83633=
12992 41958 81803 10032 20017 30127 40238 52006 70222 8807/=
0000012600
945
SIDL22 EDZW 110900 RRA
AAXX 11091
10439 41350 79901 10009 20005 39945 40171 57002 71022 876//
  333 87707=
00000000