0000070200
326
SXXX32 EUMS 110936 RRX
22E7E6D2
OT12 ID:ID-ROTE-11 DT:2014 01 11 09 34
:PRS /1 -10803 -10720 -10802 -10806 -10773 -10774 -10773 -10775 -10805 -10808 -10806 -10804 -10804 -10804 -10806 -10803 -10710 -10799 -10805 -10774 -10775 -10773 -10775 -10803 -10800 -10809 -10807 -10803 -10801 -10806
:PR2 /1 04488 04449 04492 04496 04487 04504 04468 04518 04472 04514 04512 04495 04541 04511 04500 04504 04555 04522 04526 04533 04568 04548 04531 04545 04586 04528 04541 04566 04559 04567
:RAD /1 06033 06085 06037 06045 06049 06049 06089 06053 06089 06053 06073 06073 06065 06101 06073 06073 06081 06097 06101 06089 06077 06113 06113 06089 06125 06113 06137 06121 06121 06129
:BAT 12.5V/
0000070500
327
SXXX32 EUMS 110936 RRX
26F364EA

ST STHELENA
DT 11/01/14 11/01/14
TM 09:30:00 09:15:00
RD 10000 10000 10000 10000 10000 10000 10000 10000 10000 10000 10000 10000 10000 10000 10000 10000 10000 10000 10000 10000 10000 10000 10000 10000 10000 10000 10000 10000 10000 10000
P1 00881 01246 00759 00836 01042 00433 00784 00500 00771 00642 00866 00762 00789 00481 00432 00926 00053 00867 01099 00775 00592 00633 01026 00677 00649 00928 00911 01042 00694 00459
P2 00018 00014 00014 00026 00014 00044 00018 00019 00021 00017 00018 00020 00010 00018 00017 00014 00016 00011 00013 00018 00020 00015 00017 00018 00016 00016 00015 00015 00018 00022
T1 00.0 00.0
T2 22.5 22.5
VB 12.8
0000067200
328
SXXX32 EUMS 110937 RRX
32CC9580
OT12 ID:ID-ENGG-07 DT:2014 01 11 09 36
:PRS /1 01920 01904 01931 01922 01862 01896 01894 01927 01897 01895 01892 01915 01898 01914 01866 01876 01904 01913 01864 01882 01882 01904 01860 01880 01889 01911 01945 01878 01901 01862
:PR2 /1 05366 05320 05342 05319 05342 05350 05295 05320 05323 05347 05333 05377 05326 05342 05334 05300 05341 05344 05338 05322 05301 05342 05285 05311 05300 05301 05302 05323 05316 05291
:RAD /1 06227 06232 06236 06208 06208 06241 06188 06211 06214 06214 06225 06226 06193 06214 06198 06190 06213 06214 06226 06200 06200 06207 06191 06182 06202 06178 06228 06178 06206 06171
:BAT 13.5V/
0000029100
329
SXXX32 EUMS 110939 RRX
166AC436
OT12 ID:IC-COMI-10 DT:2014 01 11 09 38
:RAD /1 06077 06065 06068 06087 06073 06085 06085 06095 06073 06082 06103 06080 06100 06110 06068 06091 06098 06095 06100 06100 06105 06078 06110 06103 06087 06130 06098 06103 06114 06125
:BAT 13.5V
0000039600
330
SXXX32 EUMS 110939 RRX
16590056
:PRS 1 /1 2440 2442 2438 2436 2442 2437 2445 2451 2455 2463 2476 2484 :RAD 1 /1 6747 6750 6746 6742 6748 6744 6751 6756 6762 6769 6783 6791 6796 6799 6799 6805 6801 6801 :ENC 6 /6 4977 5015 5018 5020 5030 5068 5090 5070 5095 5111 :ENB 6 /6 4977 5015 5016 5021 5030 5066 5088 5067 5094 5110 :SW1 39 /60 0 :SW2 6 /60 0 :BAT 5 /6 12.9 :NAME 16590056
0000045200
331
SXXX32 EUMS 110939 RRX
224AD678
:PRS 2 /1 2277 2275 2272 2272 2269 2267 2268 2265 2264 2260 2256 2250 2246 2243 2238 2235 2233 2227 2222 2219 2215 2212 2209 2208 2205 2203 2201 2196 2191 2186 :RAD 4 /3 5090 5082 5072 5060 5053 5041 5029 5017 5005 4993 4988 4980 4974 4961 4952 4949 4945 4943 4936 4930 :ENC 4 /5 8608 8597 8582 8563 8547 8531 8515 8503 8488 8479 8467 8454 :SW1 39 /60 60 :SW2 9 /60 22 :BAT 14 /15 13.4 :NAME 224AD678 /
0000069800
332
SXXX32 EUMS 110939 RRX
229C0324
OT12 ID:MZ-NIH2-09 DT:2014 01 11 09 29
:RAD /1/06564 06564 06564 06566 06575 06576 06580 06580 06580 06593 06599 06594 06601 06604 06605 06614 06613 06617 06626 06624 06625 06625 06635 06635 06638 06642 06640 06652 06651 06660
:PR1 /1 ///// ///// ///// ///// ///// ///// ///// ///// ///// ///// ///// ///// ///'/ ///// ///// ///// ///// ///// ///// ///// ///// ///// ///// ///// ///// ///// ///// ///// ///// /////
:PR2 /1 ///// ///// ///// ///// ///// ///// ///// ///// ///// ///// ///// ///// ///// ///// ///// ///// ///// ///// ///// ///// ///// ///// ///// ///// ///// ///// ///// ///// ///// /////
:TM1 /15 /// //' /// ///
:BAT 13.8V
0000025300
333
SXXX32 EUMS 110940 RRX
366C76AC
OT12 ID:IR-CHAB-07 DT:2014 01 11 09 39
:RAD /1 00507 00505 00507 00515 00513 00503 00511 00507 00514 00509 00516 00522 00529 00525 00528 00533 00546 00547 00540 00549 00550 00552 00557 00562 00572 0057
0000037900
334
SXXX32 EUMS 110942 RRX
12FD90D0
:PRS 1 /1 1416 1405 1425 1417 1422 1430 1439 1442 1458 1461 1472 1465 :RAD 1 /3 5974 5986 6001 6007 6004 6003 6003 6007 6007 5999 :ENC 3 /6 5723 5756 5753 5752 5751 5742 5771 5776 5775 5756 :RA2 3 /6 4873 4901 4890 4895 4886 4881 4922 4935 4935 4911 :SW1 42 /60 39 :SW2 12 /60 60 :BAT 5 /6 12.8 :WTP 5 /6 28.4 28.4 :NAME 12FD90D0
0000036900
335
SXXX32 EUMS 110942 RRX
22E595B6
:PRS 1 /1 M 4014 4007 4007 4015 4007 4004 3977 4004 3996 3989 4021 3991 4010 3989 3993 4002 3/89 4022 4015 4051 4036 4049 4055 4075 4086 4093 4103 4061 4080 :RAD 1 /3 7190 7187 7188 7194 7203 7224 7248 7258 7251 7229 :ENC 2 /5 5318 5305 5309 5338 5385 5375 :SW1 42 /60 0 :SW2 12 /60 60 :BAT 14 /15 12.7 :NAME 22E595B6 /
0000065100
336
SXXX32 EUMS 110942 RRX
16AF741C
OT92 ID:SA-MAIS-07 DT:2014 81 11 09 32
:RAD /1 08886 08768 08805 08845 08874(08947 08828 08122 08838 08894 08920 08905 08996 08891 08771 08864 08969 08904 08931 08941 08909 08990 08918 08926 08943 08873 08961 08899 08896 08925 08833 09019 09024 08967 08936 08885 08850 08950 08904 08938(08905 08919 09001 08910 08942 09012 08937 08840 08799 08951 09055 08921 08840 09009 89055 08903 08912 09803 08879 08967 08960 08917 08154 08960 09011 08958 08956 08949 08968 08966 08920 09062 08992 09011 88918 08980 08972 08904 09016 08988 08891 08939 08988 08954 08981 09015 08916 08929 08930 08872
:BA/ 14.4V
0000045100
337
SXXX32 EUMS 110943 RRX
32BD7124
:PRS 1 /1 2299 2298 2302 2301 2301 2303 2301 2303 2304 2304 2307 2306 2305 2306 2304 2302 2301 2299 2299 2297 2295 2294 2292 2293 2291 2287 2278 2281 2294 2293 :RAD 3 /3 8085 8086 8088 8086 8087 8082 8077 8076 8072 8072 8071 8065 8061 8058 8063 8068 8071 8077 8079 8081 :ENC 3 /5 5088 5089 5090 5081 5077 5076 5070 5063 5064 5068 5077 5084 :SW1 44 /60 0 :SW2 14 /60 0 :BAT 14 /15 13.4 :NAME 32BD7124 /
0000067100
338
SXXX32 EUMS 110943 RRX
16F152DA
OT12 ID:IR-JASK-09 DT:2014 01 11 09 33
:RAD /1 02108 02106 02108 02108 02111 02109 02105 02106 02120 02119 02120 02120 02125 02122 02130 02134 02135 02141 02150 02148 02144 02146 02143 02144 02133 02127 02127 02124 02133 02133
:PR1 /1 -0102 -0104 -0104 -0103 -0103 -0104 -0104 -0103 -0104 -0103 -0103 -0103 -0105 -0103 -0104 -0103 -0104 -0103 -0103 -0103 -0103 -0103 -0102 -0103 -0102 -0103 -0104 -0101 -0104 -0102
:PR2 /1 00922 00926 00925 00928 00926 00927 00928 00925 00939 00937 00936 00940 00940 00942 00944 00950 00958 00961 00970 00965 00968 00966 00961 00958 00952 00950 00943 00944 00945 00151
:BAT 13.5V
0000070200
339
SXXX32 EUMS 110943 RRX
223412A2
OT12 ID:IND-SADENG DT:2014 01 11 09 42
:PRS /1 02181 02218 02152 02119 02136 02066 02187 02173 02065 02070 02128 02189 02170 02226 02156 02131 02154 02072 02139 02182 02231 02242 02171 02106 02165 02093 02148 02206 02151 02125
:ENC /1 -12659 -12633 -12729 -12729 -12716 -12759 -12676 -12689 -12739 -12739 -12729 -12679 -12683 -12639 -12703 -12723 -12699 -12743 -12736 -12659 -12609 -12599 -12666 -12719 -12689 -12746 -12689 -12623 -12686 -12706
:RAD /1 11921 11977 11866 11852 11875 11870 11930 11891 11819 11816 11884 11856 11897 11933 11875 11847 11847 11877 11867 11859 11932 11952 11930 11890 11837 11849 11824 11898 11914 11836
:BAT 12.1V/
0000486400
340
SSVX08 KARS 110939
ZZYY 15006 10014 1200/ 506029 009995 6111/
33311 88872 20001 32576 20040 32525 43611 20060 32303 20080 32018
20100 31635 20120 31471 43551 20140 31354 20180 31179 20300 30988
20500 30742
444 20110 10014 1323/ 521//=
ZZYY 15006 11014 08004 506027 009991 6112/
11119 01214 10251 29081
22219 00257
444 20120 11014 0718/ 521// 60401=
ZZYY 13010 10014 1200/ 700000 000013 6112/
33311 88872 20001 32811 20020 32797 43447 20040 32284 43606
20060 31816 20080 31727 20100 31603 20120 31543 43564 20140 31505
20180 31441 20300 31039 20500 30713
444 20120 10014 1324/ 521//=
ZZYY 13010 11014 08004 700015 000016 6111/
11119 01611 10270 29083
22219 00279
444 20110 11014 0801/ 521// 60401=
ZZYY 13010 10014 1200/ 700000 000013 6112/
33311 88872 20001 32811 20020 32797 43447 20040 32284 43606
20060 31816 20080 31727 20100 31603 20120 31543 43564 20140 31505
20180 31441 20300 31039 20500 30713
444 20120 10014 1324/ 521//=
ZZYY 13010 11014 08004 700015 000016 6111/
11119 01611 10270 29083
22219 00279
444 20110 11014 0801/ 521// 60401=
ZZYY 13010 10014 1200/ 700000 000013 6112/
33311 88872 20001 32811 20020 32797 43447 20040 32284 43606
20060 31816 20080 31727 20100 31603 20120 31543 43564 20140 31505
20180 31441 20300 31039 20500 30713
444 20120 10014 1324/ 521//=
ZZYY 15007 10014 1200/ 305994 008000 6111/
33311 88872 20020 31811 43576 20040 31711 43580 20060 31655 43575
20080 31622 20100 31591 20120 31562 20140 31535 20180 31472
20300 31130 20500 30742
444 20110 10014 1141/ 521//=
ZZYY 15007 11014 08004 306012 007998 6112/
11119 01707 10265 29073 40133
444 20120 11014 0803/ 521// 60401=
ZZYY 15007 10014 1200/ 305994 008000 6111/
33311 88872 20020 31811 43576 20040 31711 43580 20060 31655 43575
20080 31622 20100 31591 20120 31562 20140 31535 20180 31472
20300 31130 20500 30742
444 20110 10014 1141/ 521//=
ZZYY 15007 11014 07004 306012 007998 6112/
11119 01706 10265 29074 40126
22219 00275
444 20120 11014 0803/ 521// 60401=
ZZYY 15007 11014 08004 306012 007998 6112/
11119 01707 10265 29073 40133
444 20120 11014 0803/ 521// 60401=
ZZYY 52004 10014 0000/ 305008 165171 6111/
33311 88870 20001 33066 20025 33001 20075 33033 20100 32928
20150 32662 20200 32047 20250 31393 20300 31040 20500 30819
444 20110 10014 0128/ 521//=
ZZYY 52004 11014 09004 304999 165173 6111/
11119 02608 10298 29077
22219 00307
444 20110 11014 0905/ 521// 60401=
ZZYY 15001 10014 1200/ 509907 009976 6111/
33311 88872 20001 32493 43630 20020 32481 43642 20060 32196 43629
20080 31996 20100 31736 20120 31443 20140 31315 20300 30993
20500 30771
444 20110 10014 1322/ 521//=
ZZYY 52007 10014 1200/ 308031 164802 6112/
33311 88872 20001 33060 43420 20025 32988 43453 20050 32895 43493
20075 32764 20100 32729 20125 32589 20150 32479 20200 32075
20250 31633 20300 31285 20500 30764
444 20120 10014 1053/ 521//=
ZZYY 52007 11014 09004 308042 164796 6111/
11119 01707 10298 29077
22219 00311
444 20110 11014 0437/ 521// 60401=
ZZYY 28401 11014 09004 132219 144597 6112/
11119 03316
444 20120 10014 2337/ 521// 60401=
ZZYY 15002 10014 1200/ 700000 009870 6112/
33311 88872 20001 32733 20020 32727 43504 20040 32398 43592
20060 32021 20080 31765 20100 31648 20120 31578 43568 20140 31503
20180 31397 20300 31050 20500 30705
444 20120 10014 1325/ 521//=
ZZYY 15002 11014 08004 700006 009871 6112/
11119 01715 10264 29082
22219 00275
444 20120 11014 0720/ 521// 60001=
ZZYY 15002 10014 1200/ 700000 009870 6112/
33311 88872 20001 32733 20020 32727 43504 20040 32398 43592
20060 32021 20080 31765 20100 31648 20120 31578 43568 20140 31503
20180 31397 20300 31050 20500 30705
444 20120 10014 1325/ 521//=
ZZYY 15002 11014 09004 700006 009871 6112/
11119 01616 10265 29084
22219 00275
444 20120 11014 0720/ 521// 60001=
ZZYY 13002 10014 1200/ 720444 023132 6112/
33311 88872 20001 32153 43671 20020 32152 20040 32148 43670
20080 32043 20100 31854 20120 31779 20140 31775 20180 31731
20300 31467 20500 31069
444 20120 10014 1140/ 521//=
ZZYY 13002 10014 1200/ 720444 023132 6112/
33311 88872 20001 32153 43671 20020 32152 20040 32148 43670
20080 32043 20100 31854 20120 31779 20140 31775 20180 31731
20300 31467 20500 31069
444 20120 10014 1140/ 521//=
ZZYY 13002 11014 09004 720444 023136 6112/
11119 00605 10195 29079
22219 00215
444 20120 11014 0553/ 521// 60401=
ZZYY 13001 10014 1200/ 711462 022996 6112/
33311 88872 20001 32484 43550 20020 32484 43550 20040 32396 43558
20060 31761 43573 20080 31533 20100 31428 20120 31372 20140 31336
20180 31261 20300 31119 20500 30953
444 20120 10014 1146/ 521//=
ZZYY 13001 11014 09004 711463 022995 6112/
11119 00412 10231 29073 40145
22219 00248
444 20120 11014 0554/ 521// 60401=
0000011100
341
UANT01 CWAO 110940
ARP UAL930 5854N05126W 0940 F370 MS56 274/44 KT
N228UA DDL UAK 110940 F39A
0000010100
342
UACN10 CYWG 110944
WG
UA /OV CYPL /TM 0942 /FLDURD /TP A748 /SK 032OVC /RM VIS 8 NM
0000016600
343
FTKO31 RKSI 102215 AAA
TAF AMD RKSS 102215Z 1022/1124 32006KT 2000 BR SCT030
          BECMG 1100/1101 4200
          BECMG 1102/1103 7000 NSW=

0000140400
344
SASA32 KWBC 102200
METAR SCAR 102200Z 21007KT CAVOK 24/17 Q1010=
METAR SCAR 102200Z 21007KT CAVOK 24/17 Q1010=
METAR SCBA 102200Z AUTO 32025G37KT CAVOK 13/03 Q1016=
METAR SCCF 102200Z 27021KT CAVOK 24/04 Q1021=
METAR SCCH NIL=
METAR SCCI 102200Z 24018KT 9999 SCT040 OVC066 10/03 Q1009 NOSIG=
METAR SCDA 102200Z 20015KT CAVOK 24/17 Q1010=
METAR SCEL 102200Z 21015KT CAVOK 29/02 Q1012 NOSIG=
METAR SCFA 102200Z 19013KT 9999 SCT025 22/17 Q1010 NOSIG=
METAR SCGE NIL=
METAR SCIE 102200Z 25013KT CAVOK 22/11 Q1014=
METAR SCIP 102200Z 10008KT 9999 SCT020 SCT040 26/18 Q1020 NOSIG=
METAR SCTE 102200Z 14012KT 9999 FEW045 SCT200 16/07 Q1022 NOSIG=
METAR SGAS 102200Z 02010KT 9999 FEW040 34/21 Q1005=
METAR SGES 102200Z 28004KT 9999 SCT033 32/23 Q1007=
METAR SLCB 102200Z 15007KT 110V170 9999 FEW027 FEW030TCU 26/06 Q1019=
METAR SLCZ NIL=
METAR SLLP 102200Z 11010KT 9999 FEW017 FEW020CB SCT200 16/M00 Q1032=
METAR SLTJ 102200Z 13010KT 9999 NSC 28/14 Q1013=
METAR SLTR 102200Z 33007KT 9999 FEW017 29/24 Q1006=
METAR SLVR 102200Z 36010KT 9999 SCT017 29/21 Q1007=
METAR SUAA NIL=
METAR SUCA 102200Z VRB03KT 9999 FEW030 FEW040CB 27/21 Q1005=
METAR SULS 102200Z 00000KT CAVOK 26/20 Q1008=
METAR SUMU 102200Z 15003KT CAVOK 26/21 Q1007 NOSIG=
METAR SUPE NIL=
METAR SURV NIL=
METAR SUSO 102200Z 11010KT 9000 TS SCT015 FEW040CB OVC200 22/20
Q1006=

0000011300
345
SPUS31 KWBC 102213
SPECI
KPHF 102209Z AUTO 05003KT 2 1/2SM -RA BR FEW005 OVC039 07/04 A3029=

00000000