0000009700
186
SACS31 MROC 110300
METAR
MROC 110300Z 11012KT 9999 FEW030 20/13 A3002 NOSIG=

0000012900
187
FCFR32 LFPW 110200 RRA
TAF LFOT 110200Z 1103/1112  05005KT 4000 BR SCT040 TEMPO 1103/1112
2500 -DZRA BKN012=

0000008900
188
SAQB31 LQSM 110300
METAR LQSA 110300Z VRB01KT 6000 BKN060 04/04 Q1022=

0000008900
189
SAMP31 LMMM 110300 RRA
METAR HLLT 110250Z
17004KT CAVOK 09/05 Q1022=

0000044400
190
SABX31 EBBR 110250
METAR EBAW 110250Z AUTO 22005KT 200V270 9000 OVC007/// 04/02 Q1016=
METAR EBBR 110250Z 20004KT 9999 BKN011 03/02 Q1016 NOSIG=
METAR EBCI 110250Z 20008KT 9000 BKN005 04/03 Q1015 NOSIG=
METAR EBLG 110250Z 19010KT CAVOK 04/02 Q1016 NOSIG=
METAR EBOS 110250Z 21009KT 6000 SCT004 BKN006 04/02 Q1015 TEMPO
     BKN004=
METAR ELLX 110250Z 08003KT 0800 R24/0400V0550N FG FEW002 01/01
    Q1016 NOSIG=

0000049400
191
SAOS31 LOWM 110250
METAR LOWW 110250Z 17006KT CAVOK M02/M03 Q1020 NOSIG=
METAR LOWL 110250Z 00000KT 0700 R26/0750V1500N FZBCFG BKN240 M02/M02
Q1020 TEMPO 1200 FZBR=
METAR LOWS 110250Z 33003KT 290V080 9999 BKN080 02/01 Q1019 NOSIG=
METAR LOWI 110250Z 26003KT 2000 BR SCT002 BKN004 02/02 Q1020
R08/29//75 NOSIG=
METAR LOWG 110250Z 01003KT 8000 OVC008 03/02 Q1020 R17/29//95 TEMPO
3000 BR BKN002=
METAR LOWK 110250Z 32004KT 1600 BR OVC003 01/01 Q1021 R88///////=

0000006100
192
SAOS32 LOWM 110250
METAR LOXZ 110250Z NIL=

0000034600
193
FTNO38 ENMI 110200
TAF ENGC 110200Z 1103/1203 08015KT 9999 -SHRA FEW015 BKN025 PROB40
         TEMPO 1103/1124 4000 RADZ BKN008 BECMG 1112/1115 VRB07KT
         BECMG 1118/1121 32030KT=
TAF ENOA 110200Z 1103/1203 27020KT 9999 -SHRA FEW010 BKN015 PROB40
         TEMPO 1103/1203 4000 RADZ BKN008 BECMG 1115/1118 30040KT=

0000032600
194
FTNO33 ENMI 110200
TAF ENNA 110200Z 1103/1203 18005KT 9999 BKN010 TEMPO 1103/1115 0800
         FG BKN001 BECMG 1112/1115 SCT015=
TAF ENSB 110200Z 1103/1203 24010KT 9999 -SN FEW010 BKN020 TEMPO
         1103/1106 VRB05KT PROB30 TEMPO 1103/1124 FZDZRA=
TAF ENTC 110200Z 1103/1203 06005KT 9999 FEW020=

0000021700
195
SANO35 ENMI 110250
METAR ENMS 110250Z NIL=
METAR ENRM 110250Z NIL=
METAR ENRS 110250Z NIL=
METAR ENSK 110250Z NIL=
METAR ENSO 110250Z NIL=
METAR ENST 110250Z NIL=
METAR ENVD 110250Z NIL=

0000021700
196
SANO36 ENMI 110250
METAR ENBS 110250Z NIL=
METAR ENHK 110250Z NIL=
METAR ENHV 110250Z NIL=
METAR ENLK 110250Z NIL=
METAR ENMH 110250Z NIL=
METAR ENNK 110250Z NIL=
METAR ENNM 110250Z NIL=

0000027600
197
SAEO32 EETN 110250
METAR EEKA 110250Z NIL=
METAR EEKE 110250Z AUTO 32007KT 280V350 7000NDV -SN FEW007 SCT009 
OVC014 01/01 Q0999=
METAR EETU 110250Z AUTO 31011KT 2500NDV -SN SCT006/// BKN009///
OVC013/// M00/M02 Q0994 RESG=
METAR EEPU 110250Z NIL=

0000019800
198
SADL33 EDZO 110250
METAR EDFE 110250Z NIL=
METAR EDFH 110250Z 18005KT 9999 BCFG FEW010 00/00 Q1016=
METAR EDFM 110250Z NIL=
METAR EDLV 110250Z NIL=
METAR EDVK 110250Z NIL=

0000016300
199
SADL34 EDZO 110250
METAR EDLP 110250Z 19008KT CAVOK 03/M01 Q1015=
METAR EDQM 110250Z AUTO 22008KT 180V240 6000NDV BR OVC003///
01/M00 Q1017=

0000045800
200
SAFI33 EFHK 110250
EFJO 110250Z AUTO 01012KT 330V070 9999 BKN016 BKN025 M08/M10 Q0995=
EFLP 110250Z AUTO 35010KT 320V040 5000 -SG FEW011 BKN015 OVC040
M06/M08 Q0993=
EFMI 110250Z AUTO VRB05KT 8000 -SN OVC014 M07/M08 Q0996=
EFSA 110250Z AUTO 35009KT 300V030 9999 -SN OVC016 M07/M09 Q0995=
EFUT 110250Z AUTO 35010KT 320V020 9999 -SHSN FEW012 SCT016 OVC020
M06/M07 Q0995=
EFVR 110250Z AUTO 02012KT 2500 -SN OVC018 M07/M10 Q0996=

0000069200
201
SANO33 ENMI 110250
METAR ENAT 110250Z AUTO 22006KT 9999NDV SG OVC001/// M15/M17 Q1019
           RMK WIND 700FT 19006KT=
METAR ENBL 110250Z NIL=
METAR ENEV 110250Z AUTO 15003G13KT 9999NDV NCD M08/M16 Q1015 RMK WIND
           1400FT 07021KT=
METAR ENFL 110250Z NIL=
METAR ENKB 110250Z AUTO 10004KT 060V150 9999NDV SG FEW012///
           BKN016/// OVC023/// M05/M07 Q0999=
METAR ENKR 110250Z AUTO 16009KT 2000NDV -SN SCT001/// BKN008///
           BKN017/// M20/M22 Q1016 SEASMOKE NORTH OF THE FIELD RMK
           WIND 775FT 23007KT=
METAR ENML 110250Z NIL=
METAR ENNA 110250Z 17003KT 9999 OVC003 M17/M19 Q1018 RMK WIND 1800FT
           06006KT=

0000064100
202
SANO38 ENMI 110250
METAR ENDR 110250Z AUTO 07026KT M04/M09 Q1001=
METAR ENEK 110250Z 31016KT 9999 -RADZ FEW008 BKN035 07/07 Q1004
           W08/S4=
METAR ENGC 110250Z 08021KT 9999 BKN016 02/M01 Q0997 W06/S5=
METAR ENHE 110250Z 11026KT 9999 BKN031 M03/M04 Q1003 W///S5=
METAR ENOA 110250Z 30010KT 9999 FEW020 BKN030 05/03 Q0996 W///S4=
METAR ENSL 110250Z AUTO 29028KT 9999NDV FEW026/// SCT030/// 07/00
           Q1001 W05/S4=
METAR ENFB 110250Z AUTO 08021KT 9999NDV -SHRA OVC012/// 03/01 Q0997
           W///S5=
METAR ENSF 110250Z AUTO 09020KT 9999NDV -SHRA OVC013/// 03/00 Q0997
           W///S5=

0000045400
203
FTNO31 ENMI 110200
TAF ENBR 110200Z 1103/1203 VRB05KT 9999 -RA FEW005 SCT015 BKN025
         TEMPO 1103/1203 28012KT 4000 RADZ BKN007=
TAF ENGM 110200Z 1103/1203 04005KT 9999 SCT008 BKN030 PROB40 TEMPO
         1103/1124 2000 -SN BR BKN004=
TAF ENVA 110200Z 1103/1203 09008KT 9999 FEW010 SCT040=
TAF ENZV 110200Z 1103/1203 25012KT 9999 FEW015 BKN040 PROB30 TEMPO
         1103/1203 4000 SHRA BKN012 BECMG 1112/1115 31020KT=

0000021700
204
SANO37 ENMI 110250
METAR ENNO 110250Z NIL=
METAR ENOV 110250Z NIL=
METAR ENSD 110250Z NIL=
METAR ENSG 110250Z NIL=
METAR ENSN 110250Z NIL=
METAR ENSR 110250Z NIL=
METAR ENSS 110250Z NIL=

0000023000
205
FTNO32 ENMI 110200
TAF ENAN 110200Z 1103/1203 10015KT CAVOK=
TAF ENBO 110200Z 1103/1203 09015KT CAVOK=
TAF ENDU 110200Z 1103/1203 VRB05KT 9999 FEW040=
TAF ENOL 110200Z 1103/1203 08015KT 9999 FEW010 SCT050=

00000000