0000004100
206
SACZ41 LKPW 102300
NIL

0000063300
207
SAEE31 LOWM 102300
METAR UACK 102300Z 20007MPS 9999 DRSN OVC037CB M07/M10 Q1020
R20/450342 NOSIG RMK QFE741/0988=
METAR UACP 102300Z NIL=
METAR UAII 102300Z 14002MPS 8000 BKN100 M07/M11 Q1025
R10/0///70 NOSIG RMK QFE733/0977=
METAR UADD 102300Z 15003MPS 9999 NSC M09/M14 Q1024 NOSIG RMK
QFE711/0948=
METAR UASK 102300Z 13005MPS 9999 FEW050 BKN110 M08/M15 Q1035
R12/820350 NOSIG RMK QFE750/1001=
METAR UASP 102300Z 22005MPS 9999 BKN033CB M08/M12 Q1030
R21/451045 NOSIG RMK QFE761/1015=
METAR UAOO 102300Z 17007MPS 3300 BR BKN160 M05/M06 Q1024
NOSIG RMK QFE756/1008=
METAR UAKD 102300Z NIL=

0000038200
208
FCMC32 GMMC 102300
TAF GMFF 102300Z 1101/1110 20004KT 9999 SCT030 BKN100 BECMG 1108/1110
30010KT RA BKN030 BKN100=
TAF GMFO 102300Z 1101/1110 20018KT 9999 SCT023 SCT100 TEMPO 1105/1108
24008KT -RA BKN023 BKN100=
TAF GMML 102300Z 1101/1110 04005KT 9999 BKN023=
TAF GMFB 102300Z NIL=
TAF GMMW 102300Z NIL=
TAF GMMZ 102300Z NIL=
TAF GMTA 102300Z NIL=

0000071800
209
SANM40 FYWW 102300
METAR FYGB 102300Z AUTO 09004KT //// // ////// 22/04 Q1019=
METAR FYGF 102300Z AUTO 29004KT //// // ////// 20/01 Q1019=
METAR FYGO 102300Z AUTO 01005KT //// // ////// 20/13 Q1014=
METAR FYKT 102300Z AUTO 17009KT //// // ////// 24/06 Q1017=
METAR FYLZ 102300Z AUTO 17017KT //// // ////// 17/05 Q1012=
METAR FYOA 102300Z AUTO 27004KT //// // ////// 24/01 Q1014=
METAR FYOO 102300Z AUTO 23003KT //// // ////// ///// Q1015=
METAR FYOW 102300Z AUTO 24003KT //// // ////// 20/03 Q1017=
METAR FYWB 102300Z AUTO 05005KT //// // ////// 16/14 Q1013=
METAR FYWH 102300Z AUTO 28003KT //// // ////// 13/M00 Q1021=
METAR FYWW 102300Z AUTO 19003KT //// // ////// 20/04 Q1020=

0000011600
210
FTAU32 YBBN 102300 RRA
TAF YBAS 102309Z 1100/1124
13014KT CAVOK
FM111000 10008KT CAVOK
RMK=

0000044600
211
FTAU33 YBBN 102300 RRA
TAF YPCC 102309Z 1100/1118
14012KT 9999 -SHRA FEW012 SCT025
RMK=
TAF YMHB 102303Z 1100/1118
15010KT 9999 FEW030
BECMG 1112/1114 VRB04KT 8000 HZ FEW015 BKN020
RMK=
TAF YMLT 102302Z 1100/1118
31010KT 9999 FEW045
BECMG 1110/1112 VRB05KT 9999 FEW015 SCT020
RMK=
TAF YSTW 102301Z 1100/1118
VRB03KT CAVOK
BECMG 1100/1101 13005KT 9999 -SHRA SCT060
FM111200 14005KT 9999 FEW045
RMK=

0000072800
212
SAIN33 VIDP 111030
METAR VEBD 111030Z 01003KT 3000 BR SCT025 BKN080 17/15 Q1016 TEMPO
     2000=
METAR VEGK 111030Z VRB02KT 1500 BR TSRA FEW018 FEW025CB BKN090 17/16
     Q1016 NOSIG=
METAR VIAG 111030Z 29010KT 5000 HZ SCT250 18/08 Q1018 NOSIG=
METAR VIAL 111030Z 31006KT 1000 RABR SCT010 SCT015 FEW025TCU BKN090
     16/16 Q1016 NOSIG=
METAR VICG 111030Z 28007KT 6000 SKC 18/06 Q1019 NOSIG=
METAR VIGR 111030Z 31008KT 6000 SCT250 19/06 Q1018 NOSIG=
METAR VIJU 111030Z 23007KT 6000 FEW250 19/16 Q1018 NOSIG=
METAR VILH 111030Z VRB01KT 6000 FEW060 XX/M16 Q1025 NOSIG=
METAR VISR 111030Z 06001KT 6000 SCT025 04/M05 Q1025 NOSIG=
METAR VITX 111030Z VRB02KT 6000 SCT060 M04/M19 Q1027 NOSIG=

0000009200
213
SAIN90 VIJP 111030
METAR VIJP 111030Z VRB06KT 5000 HZ NSC 19/01 Q1018 NOSIG=
0000129300
214
SAAU31 YBBN 102300
METAR YPAD 102300Z 20007KT CAVOK 23/12 Q1020
NOSIG=
METAR YBAS 102300Z 15008KT CAVOK 32/02 Q1016=
METAR YBBN 102300Z 17005KT 9999 FEW028 SCT035 BKN063 27/16 Q1018=
METAR YBCS 102300Z 18011KT 9000 -SHRA FEW005 SCT025 BKN060 27/23
Q1011=
METAR YSCB 102300Z 32005KT CAVOK 25/14 Q1020
RMK 1SC080 5CI240=
METAR YPXM 102300Z NIL=
METAR YPCC 102300Z 16009KT 9999 FEW026 BKN037 26/21 Q1011=
METAR YCFS 102300Z AUTO 03009KT 9999 // SCT034 25/17 Q1019=
METAR YPDN 102300Z 24006KT 9999 FEW020 SCT140 BKN350 27/23 Q1009=
METAR YBCG 102300Z AUTO 18006KT 9999 // NCD 25/18 Q1019=
METAR YHID 102300Z AUTO 35011KT //// // ////// 27/24 Q1008=
METAR YPJT 102300Z AUTO 13004KT 9999 // NCD 26/12 Q1017=
METAR YPKU 102300Z AUTO 36001KT 9999 // NCD 30/25 Q1009=
METAR YPLM 102300Z AUTO 21006KT 9999 // NCD 27/21 Q1008=
METAR YMML 102300Z 17008KT 9999 OVC013 18/14 Q1020
FM0000 18012KT 9999 SCT015 BKN020
TEMPO 0000/0100 BKN015=
METAR YPPH 102300Z 07015KT CAVOK 25/11 Q1016=
METAR YSSY 102300Z 01005KT CAVOK 27/16 Q1018
FM0100 05012KT CAVOK=
METAR YSTW 102300Z AUTO 02003KT 9999 // NCD 25/14 Q1020=
METAR YPTN 102300Z AUTO 13005KT 9999 // NCD 29/22 Q1010=
METAR YBTL 102300Z 15006KT 9999 VCSH FEW014 SCT023 BKN063 26/23
Q1013=

0000125000
215
SAAU32 YBBN 102300
METAR YAMB 102300Z AUTO 21002KT 9999 // NCD 26/16 Q1019=
METAR YMAV 102300Z AUTO 20007KT 9999 // OVC013 17/13 Q1020=
METAR YBRM 102300Z 27007KT 9999 FEW020 SCT150 30/24 Q1009=
METAR YCIN 102300Z AUTO 28006KT //// // BKN025 29/25 Q1010=
METAR YSDU 102300Z AUTO 08005KT 9999 // NCD 27/17 Q1020=
METAR YFRT 102300Z AUTO 11014KT //// // ////// 21/15 Q1022=
METAR YGEL 102300Z 16006KT CAVOK 23/18 Q1010
RMK HZ=
METAR YPGV 102300Z 12010KT 9999 4000SE SHRA BKN013 SCT060 OVC180
27/25 Q1008=
METAR YBHM 102300Z AUTO 11018KT 9999 // ////// 28/22 Q1014=
METAR YMHB 102300Z 31005KT 270V030 9999 FEW025 BKN220 20/13 Q1014=
METAR YPKG 102300Z AUTO 09010KT 9999 // NCD 21/10 Q1021=
METAR YMLT 102300Z AUTO 14005KT 9999 // NCD 21/14 Q1014=
METAR YBMA 102300Z AUTO 13011KT 9999 // NCD 33/17 Q1012=
METAR YSNF 102300Z 14010KT 9999 FEW035 22/08 Q1019=
METAR YPEA 102300Z AUTO 10011KT 9999 // NCD 26/10 Q1015=
METAR YPPD 102300Z AUTO 30008KT //// // NCD 30/27 Q1008=
METAR YSRI 102300Z AUTO 05005KT 9999 // NCD 24/17 Q1018=
METAR YBRK 102300Z 14012KT 9999 BKN026 27/21 Q1016=
METAR YWLM 102300Z AUTO 02005KT 9999 // NCD 26/17 Q1018=
METAR YPWR 102300Z AUTO 15010KT 9999 // NCD 29/10 Q1017=

0000030600
216
SANG31 YBBN 102300
METAR AYPY 102300Z VRB02KT 9999 FEW017 BKN040 28/25 Q1008=
METAR AYWK 102300Z NIL=
METAR AYVN 102300Z NIL=
METAR AYNZ 102300Z NIL=
METAR AYMH 102300Z NIL=
METAR AYGN 102300Z NIL=
METAR AYMO 102300Z NIL=
METAR AGGH 102300Z 05006KT 9999 FEW020 30/25 Q1008=

0000036300
217
FTAU31 YBBN 102300 RRA
TAF YPPH 102309Z 1100/1206
09013KT CAVOK
FM112300 04018G30KT CAVOK
FM120300 30014KT CAVOK
RMK
FM111500 MOD TURB BLW 3000FT TILL112400=
TAF YSSY 102304Z 1100/1206
34008KT CAVOK
FM110100 05015KT CAVOK
FM111200 01008KT 9999 FEW025
FM111800 16008KT 9999 SCT010 SCT025
FM120200 16015KT 9999 SCT025
RMK=

0000009500
218
SAFR32 LFPW 102300 RRA
METAR LFCK 102300Z AUTO 13020KT 9999 NSC 11/06 Q1016=

0000010600
219
SAAF05 LFPW 102300 RRA
METAR DBBB 102300Z 19006KT 6000 SCT012 BKN200 28/26 Q1010 NOSIG=

0000015000
220
SAAF08 LFPW 102300 RRA
METAR DFFD 102300Z 06006KT 8000 NSC 25/03 Q1014 NOSIG=
METAR GABS 102300Z 03004KT CAVOK 23/05 Q1014 NOSIG=

0000019500
221
SAAF11 LFPW 102300 RRA
METAR FKKD 102300Z 00000KT 7000 -SH RA BKN013 FEW016CB BKN300 26/25
      Q1012 NOSIG=
METAR FKYS 102300Z 00000KT 6000 NSC 19/18 Q1015 BECMG 4000 BR=

0000023100
222
SAAF13 LFPW 102300 RRA
METAR GOGG 102300Z 34004KT CAVOK 21/17 Q1014=
METAR GOGS 102300Z 36004KT CAVOK 20/17 Q1012=
METAR GOSS 102300Z 02006KT CAVOK 17/15 Q1015=
METAR GOTT 102300Z 36004KT CAVOK 25/10 Q1012=

0000015700
223
SAAF14 LFPW 102300 RRA
METAR DRRN 102300Z 04005KT 4500 DU NSC 21/M01 Q1015 NOSIG=
METAR FEFF 102300Z 00000KT 7000 NSC 21/19 Q1012 NOSIG=

0000016400
224
SAAF27 LFPW 102300 RRA
METAR DGAA 102300Z 22008KT 200V260 9999 BKN012 28/25 Q1012 NOSIG=
METAR GUCY 102300Z 32004KT 8000 NSC 26/24 Q1012 NOSIG=

0000063100
225
FTXX69 EGRR 102200 RRA
TAF KQIR 1023/1205 VRB06KT 8000 -SHRA SCT030 BKN050 OVC100 QNH3003INS
     TEMPO 1102/1112 13010G15KT -TSRA SCT020CB BKN030 OVC050
     BECMG 1111/1112 28012G18KT 9999 NSW BKN050 QNH3008INS
     BECMG 1123/1124 33010G15KT 9999 SCT050 QNH3008INS T20/1111Z
     T13/1203Z=
TAF KQSA 1023/1205 VRB06KT 9000 HZ SKC QNH3029INS
     BECMG 1102/1103 VRB06KT 6000 HZ SKC QNH3028INS
     BECMG 1106/1107 26009KT 9999 NSW SKC QNH3026INS
     BECMG 1115/1116 VRB06KT 6000 HZ SCT100 QNH3027INS
     BECMG 1117/1118 VRB06KT 9000 HZ SCT100 BKN140 QNH3021INS
     T07/1110Z TM07/1102Z=

00000000