0000011900
906
SALT32 EYVI 110120
METAR EYKA 110120Z AUTO 28012KT 250V310 9999 OVC017/// 02/M01 Q1002
R08/290095=

0000012400
907
SALV31 EVRA 110120
METAR EVRA 110120Z 29010KT 250V340 9999 BKN009 OVC015 03/01 Q0998 
R36/290158 NOSIG=

0000021600
908
FTMX64 MMMX 110119 AMD
TAF AMD MMMT 110119Z 1101/1118 00000KT 6SM HZ OVC050 
         FM110600 00000KT 5SM HZ BKN020 
         TEMPO 1112/1115 3SM BR 
         FM111800 14010KT 6SM HZ BKN020=

0000021500
909
FTXX69 EGRR 110100
TAF EQBH 102230Z 1100/1124 VRB03KT 9999 FEW250
     BECMG 1100/1103 08012KT
     PROB30 1100/1104 0500 FG BKN000
     BECMG 1104/1107 SCT020
     BECMG 1108/1110 SCT120=

0000010700
910
SAEO31 EETN 110120
METAR EETN 110120Z 34009KT 7000 -SN OVC008 M01/M01 Q0995 R08/290195 =

0000008100
911
SAEA20 HKNC 110100 RRA
METAR HKKS 110100Z 00000KT CAVOK 16/13=

0000014400
912
FTRA33 RUMS 102300 AAB
TAF AMD UIBB 110120Z 1101/1124 08003MPS 3000 -SHSN BR BKN014CB BKN100
TEMPO 1101/1103 0300 FG VV003=

0000010600
913
SALT33 EYVI 110120
METAR EYPA 110120Z AUTO 30006KT 220V020 9999 BKN015/// 02/M00 Q1004=

0000043500
914
FTUS41 KWBC 110121 AAA
TAF AMD
KABE 110120Z 1101/1124 VRB03KT 2SM BR BKN007 OVC012
      TEMPO 1101/1103 3/4SM -RA BR OVC002
     FM110300 14005KT 1SM -RA BR BKN007 OVC015
     FM110600 16005KT 2SM -RA BR BKN004 OVC010 WS020/20050KT
     FM111500 19013KT 1SM RA BR BKN003 OVC010 WS020/21050KT
     FM112100 22012G22KT 1SM RA BR BKN003 OVC012 WS020/18050KT
     FM112300 26009KT 2SM RA BR BKN004 OVC025=

0000081400
915
FTUS71 KWBC 110121 AAA
TAF AMD
KABE 110120Z 1101/1124 VRB03KT 2SM BR BKN007 OVC012
      TEMPO 1101/1103 3/4SM -RA BR OVC002
     FM110300 14005KT 1SM -RA BR BKN007 OVC015
     FM110600 16005KT 2SM -RA BR BKN004 OVC010 WS020/20050KT
     FM111500 19013KT 1SM RA BR BKN003 OVC010 WS020/21050KT
     FM112100 22012G22KT 1SM RA BR BKN003 OVC012 WS020/18050KT
     FM112300 26009KT 2SM RA BR BKN004 OVC025=
KRDG 110119Z 1101/1124 00000KT 2SM BR BKN006
      TEMPO 1101/1103 3/4SM -RA BR OVC003
     FM110300 13004KT 1SM -RA BR BKN005 OVC015
     FM110600 16005KT 2SM -RA BR BKN004 OVC010 WS020/20050KT
     FM111500 18010KT 1SM RA BR BKN003 OVC010 WS020/21050KT
     FM112100 21010G20KT 1SM RA BR BKN003 OVC012 WS020/18050KT
     FM112300 26009KT 2SM RA BR BKN004 OVC025=

0000021600
916
FTUS75 KWBC 110121 AAA
TAF AMD
PHNY 110120Z 1101/1124 15007KT P6SM SCT025
      TEMPO 1101/1103 BKN025
     FM110400 04010KT P6SM SCT025
     FM112100 23006KT P6SM VCSH BKN025 AMD NOT SKED=

0000015400
917
SAUS72 KWBC 110100 RRF
METAR
KBQK 110115Z AUTO 10004KT 10SM BKN011 18/17 A3013=
KLRU 110115Z AUTO 26016G20KT 10SM CLR 11/M09 A2999=

0000010600
918
SAUS73 KWBC 110100 RRE
METAR
KIKK 110115Z AUTO 15015G20KT 7SM -RA OVC004 04/04 A2962=

0000027900
919
SAUS75 KWBC 110100 RRC
METAR
PAEI 110055Z 00000KT 10SM FEW120 M24/M27 A2956=
PAGS 110116Z AUTO 12003KT 10SM BKN016 BKN020 OVC026 02/01
     A2942=
PAUN 110116Z AUTO 10009KT 10SM CLR M16/M22 A2959=
PAVD 110116Z 10SM FEW015 FEW090 BKN120 M07/M08 A2934=

0000008900
920
SABA31 MYGF 110056
METAR MYGF 110100Z 15005KT 9999 SCT014 25/23 A3012=

0000009100
921
SPCN31 CWAO 110120
SPECI CYQG 110120Z 16005KT 2 1/2SM BR OVC003 RMK SF8=

0000010700
922
SALT31 EYVI 110120
METAR EYVI 110120Z 29016KT 8000 OVC015 02/M00 Q1000 R20/2/0295 NOSIG=

0000017000
923
SAMP31 LMMM 110130
METAR HLLT NIL=
METAR HLLB 110115Z
00000KT 9999 SCT020 BKN080 13/11 Q1025 =
METAR LMML 110115Z AUTO 23007KT CAVOK 15/13 Q1022=

0000022400
924
FTCN32 CWAO 110100 AAA
TAF AMD CYQL 110121Z 1101/1112 30010KT P6SM BKN080
    FM110700 23008KT P6SM BKN060
    FM111000 20010KT P6SM BKN030 TEMPO 1110/1112 5SM -SN BKN020
    RMK NXT FCST BY 110600Z=

0000065300
925
FKPQ30 RJTD 110000
TC ADVISORY
DTG:                 20140111/0000Z
TCAC:                TOKYO
TC:                  NN
NR:                  3
PSN:                 N0420 E13055
MOV:                 WNW 07KT
C:                   1008HPA
MAX WIND:            30KT
FCST PSN +6HR:       11/0600Z N0435 E13010
FCST MAX WIND +6HR:  35KT
FCST PSN +12HR:      11/1200Z N0455 E12935
FCST MAX WIND +12HR: 35KT
FCST PSN +18HR:      11/1800Z N0510 E12855
FCST MAX WIND +18HR: 35KT
FCST PSN +24HR:      12/0000Z N0530 E12810
FCST MAX WIND +24HR: 35KT
RMK:                 NIL
NXT MSG:             20140111/0600Z =

00000000