0000024900
174
SNHK22 VHHH 110800
AAXX 11081
45032 36/// /0804 10192 20107 30190 40207 52001=
45035 36/// /2502 10194 20127 30166 40208 54000=
45039 36/// /1003 10184 20102 30196 40211 54000=
45044 36/// /1109 10176 20120 30115 40208 54000=
0000006200
175
SDTH20 VTBB 110800 RRA
FFBB 1108/ 48417 00000=
0000012400
176
SMRS15 RUMS 091800 CCA
AAXX 09181
22438 46456 80914 11082 21092 30017 40040 54001 8872/ 333 91020
91120=
0000338400
177
SAWD01 OEJD 110800
METAR DAAG 110800Z VRB02KT CAVOK 13/08 Q1019=
METAR DTTA 110800Z VRB02KT 8000 FEW020 SCT100 11/08 Q1019 NOSIG=
METAR EBBR 110750Z 23010KT 9999 BKN009 05/03 Q1015 BECMG BKN012=
METAR EDDH 110750Z 23013KT 5000 -RA BR BKN008 06/04 Q1011 TEMPO 4000=
METAR EFHK 110750Z 35008KT 320V020 9999 OVC008 M04/M06 Q0998 NOSIG=
METAR EGLL 110750Z 30009KT 9999 SCT018 07/05 Q1016 NOSIG=
METAR EHAM 110755Z 21014KT 4000 BR FEW006 SCT007 BKN008 05/04 Q1012
NOSIG=
METAR EIDW 110800Z 26009KT 9999 SCT004 BKN005 01/01 Q1017 BECMG
     SCT010=
METAR EKCH 110750Z 24014KT 9999 BKN013 BKN080 06/05 Q1006 BECMG
BKN007=
METAR ELLX 110750Z VRB02KT 3000 R24/0800VP1500U BR BKN037 02/02
    Q1016 NOSIG=
METAR ENFB 110750Z AUTO 06018KT 9999NDV -SHRA BKN012/// 02/00 Q0998
           W///S5=
METAR EPWA 110800Z 26009KT 9999 FEW023 04/01 Q1014 NOSIG=
METAR ESSA 110750Z 35004KT 9999 FEW008 OVC036 M04/M05 Q1001
R01L/520258 R08/520164 R01R/////// TEMPO 2000=
METAR ETBS 110800Z NIL=
METAR GMME 110800Z 18004KT 5000 SCT020 BKN100 14/10 Q1017 NOSIG=
METAR GQNN 110800Z 02007KT 6000 NSC 14/13 Q1016 NOSIG=
METAR HAAS 110800Z NIL=
METAR HCMM 110800Z NIL=
METAR HECA 110800Z 00000KT 3000 HZ NSC 16/09 Q1026 NOSIG=
METAR HLLT 110750Z
18006KT CAVOK 14/07 Q1024=
METAR HSSS 110700Z 02012KT CAVOK 16/00 Q1020 NOSIG=
METAR KBOS 110754Z 07003KT 1/4SM R04R/2200V2800FT -RA FG VV004 02/01
     A3021=
METAR KIAD 110752Z 00000KT 3/4SM R01R/P6000FT BR BKN004 BKN007 OVC018
     02/02 A3002=
METAR KJFH 110800Z NIL=
METAR KWBS 110800Z NIL=
METAR LEMD 110800Z 33003KT CAVOK 05/05 Q1018 NOSIG=
METAR LFPO 110800Z 19003KT 4000 BR FEW003 SCT064 BKN230 05/05
Q1017 TEMPO BKN003=
METAR LGAV 110750Z VRB01KT 9999 FEW010 12/10 Q1023 NOSIG=
METAR LIRF 110750Z 08004KT 8000 FEW030 06/06 Q1023 NOSIG=
METAR LOWW 110750Z 16004KT 9999 FEW035 01/M01 Q1020 NOSIG=
METAR LSGG 110750Z 28005KT 8000 MIFG NSC 02/02 Q1019 NOSIG=
METAR LTAC 110750Z 28004KT 8000 OVC008 M03/M04 Q1025 NOSIG=
METAR OAKB 110750Z 20003KT 8000 NSC 03/M16 Q1026 NOSIG RMK BLU+ BLU+=
METAR OBBI 110800Z 19006KT 9999 -RA FEW020 17/14 Q1020 NOSIG=
METAR OJAM 110800Z 00000KT 1000 FG BKN025 08/06 Q1024 NOSIG=
METAR OKBK 110800Z 30009KT 4000 -RA SCT040 OVC080 13/11 Q1018 NOSIG=
METAR OLBA 110800Z 21004KT 8000 FEW026 16/05 Q1025 NOSIG=
METAR OMAA 110800Z 17005KT 120V210 9999 SCT045 21/11 Q1020 A3013
                   NOSIG=
METAR OOMS 110750Z 08008KT 030V140 9999 FEW020 BKN200 21/07 Q1022
NOSIG=
METAR OPKC 110755Z 06011KT 7000 SCT200 21/M07 Q1022 NOSIG=
METAR OPRN 110800Z 27012KT 6000 SKC 17/M02 Q1020.0/30.12=
METAR ORBB 110800Z NIL=
METAR OSDI 110800Z 00000KT 1500 BR 04/03 Q1025=
METAR OTBD 110800Z 22005KT 170V250 7000 -RA SCT015 OVC120 16/13 Q1021
NOSIG=
METAR OYAA 110800Z NIL=
METAR OYSN 110800Z 19010KT 160V230 9999 SCT030 SCT180 22/M08 Q1026=
METAR RKSS 110800Z 28005KT 9999 SCT030 BKN150 01/M18 Q1030 NOSIG=
METAR UUEE 110800Z NIL=
METAR VCBI 110810Z 30009KT 9999 SCT016 31/22 Q1010 NOSIG=
METAR VGZR 110800Z NIL=
METAR VHHH 110800Z NIL=
METAR VIDP 110800Z 33011KT 2700 HZ NSC 17/08 Q1017 BECMG 3000=
METAR WIIH 110800Z NIL=
METAR WMKK 110800Z 23005KT 180V270 9999 SCT018 BKN280 31/25 Q1008
NOSIG=
METAR WSSS 110800Z 03006KT 310V060 8000 -SHRA FEW015CB SCT017TCU
27/25 Q1008 RESHRA NOSIG=
0000009200
178
SAIN90 VOTR 110810
METAR VOTR 110810Z 07008KT 6000 SCT016 30/18 Q1013 NOSIG=
0000009600
179
SAIN31 VOMM 110810 RRA
METAR VOTR 110810Z 07008KT 6000 SCT016 30/18 Q1013 NOSIG=
0000009200
180
SAIN90 VEBS 111030
METAR VEBS 111030Z 17009KT 2500 HZ NSC 28/16 Q1013 NOSIG=
0000008600
181
SAIN90 VIAR 111030
METAR VIAR 111030Z 26007KT 4000 HZ NSC 16/11 Q1019=
0000113200
182
SAAR20 OEJD 110800
METAR OBBI 110800Z 19006KT 9999 -RA FEW020 17/14 Q1020 NOSIG=
METAR OKBK 110800Z 30009KT 4000 -RA SCT040 OVC080 13/11 Q1018 NOSIG=
METAR OMAA 110800Z 17005KT 120V210 9999 SCT045 21/11 Q1020 A3013
                   NOSIG=
METAR OMAD 110800Z 14007KT 110V190 9999 FEW045 20/11 Q1020 A3014
                   NOSI G=
METAR OMAL 110800Z 18011KT CAVOK 20/09 Q1022 A3018 BECMG 27008KT=
METAR OMDB 110800Z 15007KT CAVOK 21/10 Q1021 NOSIG=
METAR OMFJ 110800Z 15006KT 110V200 9999 SCT020 BKN100 21/09 Q1021
                   A3017=
METAR OMRK 110800Z 15015KT CAVOK 21/11 Q1021 A3016=
METAR OMSJ 110800Z 15009KT 9999 FEW040 20/11 Q1021=
METAR OOBR 110800Z NIL=
METAR OOKB 110800Z NIL=
METAR OOMS 110750Z 08008KT 030V140 9999 FEW020 BKN200 21/07 Q1022
NOSIG=
METAR OOSA 110751Z 11015KT 080V150 9999 SCT025 26/14
Q1017 NOSIG  RH49 RMK01=
METAR OOSH 110800Z NIL=
METAR OOSQ 110800Z NIL=
METAR OOSR 110800Z NIL=
METAR OOTH 110800Z NIL=
METAR OOYB 110800Z NIL=
METAR OTBD 110800Z 22005KT 170V250 7000 -RA SCT015 OVC120 16/13 Q1021
NOSIG=
METAR OYAA 110800Z NIL=
0000010600
183
SAAR20 OEJD 110800 RRA
METAR OYSN 110800Z 19010KT 160V230 9999 SCT030 SCT180 22/M08 Q1026=
0000027500
184
SNAU02 AMMC 110800
AAXX 11084
94120 NIL=
94122 NIL=
94131 NIL=
94132 NIL=
94147 NIL=
94150 NIL=
94151 NIL=
94238 NIL=
94248 NIL=
94326 46/// /1114 10378 20025 39467 40064=
94327 NIL=
94462 NIL=
95111 NIL=
95214 NIL=
95322 NIL=

0000041800
185
SAME31 OEJD 110800
METAR OJAI 110800Z 30004KT 2000 BR SCT010 BKN020 09/08 Q1024
NOSIG=
METAR OJAM 110800Z 00000KT 1000 FG BKN025 08/06 Q1024 NOSIG=
METAR OJAQ 110800Z 00000KT 9999 SCT030 SCT035 14/08 Q1025 NOSIG=
METAR OLBA 110800Z 21004KT 8000 FEW026 16/05 Q1025 NOSIG=
METAR OSAP 110800Z NIL=
METAR OSDI 110800Z 00000KT 1500 BR 04/03 Q1025=
METAR OSLK 110800Z 12004KT CAVOK 17/03 Q1024=
0000027500
186
SNAU03 AMMC 110800
AAXX 11084
94461 NIL=
94477 NIL=
94651 NIL=
94653 46/// /1822 10212 20139 30162 40180=
94659 NIL=
94672 NIL=
94804 NIL=
94821 NIL=
95458 NIL=
95480 NIL=
95481 NIL=
95666 NIL=
95826 46/// /2010 10174 30209 40211=

0000129000
187
SNAU04 AMMC 110800
AAXX 11084
94170 478// 10706 10277 20240 30028 40049 55001 7//44=
94255 45/// /1513 10372 20132 39792 40048 56011=
94268 47/// /1008 10246 20234 30053 40065 53005 7//44=
94287 415// 31806 10271 20233 30082 40091 55003=
94290 NIL=
94294 41570 50916 10292 20213 30091 40101 53006 70522 81239=
94296 NIL=
94298 46/// /1220 10275 30095 40101 53003=
94299 41465 71121 10281 20239 30072 40083 53007 71588 878//=
94332 459// 11119 10331 20156 39686 40061 53008=
94333 NIL=
94341 45/// /0608 10353 20161 39826 40056 56005=
94346 45/// /1412 10350 20138 39868 40082 55010=
94363 45/// /0609 10300 20157 39900 40114 55005=
94366 NIL=
94367 455// 11112 10267 20213 30078 40119 55001=
94374 41682 20909 10273 20174 30114 40131 53001 70200 81139=
94388 45/// /1116 10261 20193 30137 40142 53002=
94393 46/// /1319 10266 30100 40112 53005=
94394 46/// /0917 10256 30123 40131 53004=
94488 NIL=
94500 NIL=
94510 45/// /0605 10277 20178 39780 40118 51008=
94515 459// 32202 10305 20142 39777 40116 55007=
94552 458// 21116 10276 20124 39681 40139 53004=
94578 41680 10712 10250 20175 30148 40159 53003 70100 81800=
94584 45/// /1018 10235 20175 30040 40148 55000=
95482 45/// /1217 10398 20073 30025 40078 56012=

0000045600
188
SNAU05 AMMC 110800
AAXX 11084
94691 NIL=
94693 46/// /2208 10369 20042 30073 40134=
94700 NIL=
94703 NIL=
94710 NIL=
94729 NIL=
94750 NIL=
94767 46/// /0415 10262 20172 30141 40147=
94776 NIL=
94791 NIL=
94842 NIL=
94865 NIL=
94875 NIL=
94893 NIL=
94907 NIL=
94910 46/// /2106 10348 20075 39882 40125=
94926 NIL=
94935 NIL=
94995 NIL=
95485 NIL=
95527 NIL=
95719 NIL=
95762 NIL=
95839 NIL=

0000020300
189
SNAU06 AMMC 110800
AAXX 11084
94850 NIL=
94951 46/// /0514 10178 20141 30099 40114=
94954 NIL=
94956 NIL=
94975 46/// /1606 10247 20042 30079 40111=
94983 NIL=
94998 NIL=

0000004100
190
SNNG21 AMMC 110800
NIL

0000004100
191
SNNG22 AMMC 110800
NIL

0000021900
192
SNVE21 AMMC 110800
BBXX
VNSZ 11084 99412 31464 46/// /3219 10223 20083 30103 40129 52004
22200 04181 85143=
C6FS9 11084 99238 31512 46/// /1018 10257 20194 30109 40145 54000
22200 04280 85213=

0000004100
193
SNPS02 AMMC 110800
NIL

00000000