0000013600
826
SASP33 LEMM 110100
METAR LEVD 110100Z NIL=
METAR LEVS 110100Z NIL=
METAR LESA 110100Z 00000KT CAVOK 00/M00 Q1015=

0000020000
827
SASP34 LEMM 110100
METAR LEDA 110100Z NIL=
METAR LEJR 110100Z NIL=
METAR LELL 110100Z NIL=
METAR LEPP 110100Z NIL=
METAR LEXJ 110100Z VRB01KT 9999 SCT023 BKN027 11/09 Q1017=

0000028700
828
SACR31 LEMM 110100
METAR GCLP 110100Z 33009KT 9999 FEW020 15/10 Q1016 NOSIG=
METAR GCXO 110100Z NIL=
METAR GCTS 110100Z 36009KT 9999 FEW035 16/09 Q1016 NOSIG=
METAR GCRR 110100Z 01009KT 9999 FEW020 14/10 Q1016=
METAR GCFV 110100Z NIL=
METAR GCLA 110100Z NIL=

0000022700
829
SASP35 LEMM 110100
METAR LEAB 110100Z 14004KT 7000 BKN010 07/06 Q1016 NOSIG=
METAR LEBZ 110100Z NIL=
METAR LELC 110100Z NIL=
METAR LELN 110100Z NIL=
METAR LETO 110100Z VRB02KT CAVOK 06/05 Q1016 NOSIG=

0000009400
830
SASP39 LEMM 110100
METAR LETL 110100Z AUTO 16005KT 8000  VV/// 04/02 Q1017=

0000004200
831
SACR32 LEMM 110100
NIL=

0000010200
832
SACG20 FCBB 110100
METAR FCBB 110100Z 26002KT 8000 FEW010 SCT016 23/22 Q1012 NOSIG=

0000012300
833
SACN62 CYVQ 110100
METAR CYVQ 110100Z 30002KT 20SM -SN BKN080 BKN270 M26/M29 A2976 RMK
 AC5CI2 SLP089=

0000011200
834
SACN62 CYVO 110100
METAR CYVO 110100Z 18010G16KT 12SM OVC011 M04/M05 A2996 RMK ST8
 SLP170=

0000013700
835
SACN62 CYVR 110100
METAR CYVR 110100Z 10009KT 8SM -RA SCT005 BKN015 OVC035 06/06 A2986
 RMK ST4SC2NS2 PRESFR SLP111=

0000014100
836
SACN62 CYVT 110100
METAR CYVT 110100Z 31014G20KT 10SM -SN DRSN BKN010 OVC015 M11/M14
 A2946 RMK SC6SC2 OCNL BLSN SLP010=

0000017200
837
FTCN38 CWAO 110100 AAA
TAF AMD CYDF 110106Z 1101/1108 24015G25KT P6SM -SHSN BKN025 TEMPO
     1101/1108 4SM -SHSN OVC015
    RMK NXT FCST BY 110200Z=

0000039600
838
SAJP31 RJTD 110100
METAR RJAA 110100Z 32005KT 9999 FEW030 04/M07 Q1024 NOSIG=
METAR RJBB 110100Z 29009KT 9999 FEW025 06/M04 Q1029 NOSIG=
METAR RJTT 110100Z 36006KT 9999 FEW030 05/M07 Q1025 NOSIG=
METAR RJOO 110100Z VRB01KT 9999 FEW030 05/M04 Q1029=
METAR ROAH 110100Z 05007KT 010V080 9999 FEW025 17/08 Q1028=
METAR RJGG 110100Z 28018KT 9999 FEW020 05/M02 Q1028 NOSIG=

0000096500
839
SANT31 KWBC 110100
METAR
BGBW 110055Z NIL=
BGCO 110050Z AUTO 36003KT //// OVC030/// M08/M10 Q1010=
BGGH 110050Z AUTO 14008KT 9999NDV FEW065/// SCT200/// M08/M15
     Q0993=
BGJN 110050Z AUTO 10013KT 9999NDV BKN200/// M09/M19 Q0995=
BGKK 110050Z AUTO /////KT 0250NDV +SN BKN008/// M02/M03 Q0986=
BGSF 110050Z AUTO 05009KT 9999NDV BKN230/// M14/M21 Q0996=
BGTL 110058Z AUTO 10013KT 9999 CLR M11/M15 A2924 RMK AO2 SLP890
     T11051150=
BIAR 110100Z 18005KT 110V240 9999 -SN FEW034 OVC061 01/M03
     Q0996=
BIEG 110100Z 05015G25KT 2500 -SN VV008 01/M01 Q0997 RMK R04/790138
     RWY SANDED=
BIKF 110100Z 26013KT 9999 FEW034 BKN070 02/M04 Q0993=
BIRK 110100Z 29010KT 9999 -SN SCT012 BKN020 OVC030 01/M01
     Q0993=
GVAC 110100Z 03008KT 9999 BKN014 BKN200 20/14 Q1016 NOSIG=
GVPR NIL=
LPBJ NIL=
LPLA 110100Z 25012KT 9999 FEW016 SCT038 14/11 Q1005=
TXKF 110055Z 07011KT 9999 SCT026 BKN042 BKN300 18/12 Q1032=

0000073100
840
SAJP32 RJTD 110100
METAR RJFF 110100Z 15003KT 100V190 9999 FEW040 SCT050 06/M03 Q1032=
METAR RJCC 110100Z 19003KT 160V230 4500 -SHSN FEW015 SCT030 BKN040
           M07/M12 Q1018=
METAR RJFK 110100Z VRB03KT 9999 FEW035 BKN/// 04/M05 Q1030=
METAR RJSN 110100Z 28012KT 9999 -SHSN FEW015 BKN030 BKN040 03/M05
           Q1025=
METAR RJFT 110100Z VRB02KT 9999 FEW040 05/M03 Q1031=
METAR RJFU 110100Z 15008KT 9999 FEW030 SCT040 BKN070 06/01 Q1031=
METAR RJCH 110100Z 30010KT 3200 -SHSN FEW004 BKN015 BKN025 M06/M08
           Q1020=
METAR RJSS 110100Z 29017KT 9999 FEW020 03/M07 Q1023=
METAR RJOA 110100Z 28005KT 250V340 9999 FEW025 02/M05 Q1029=
METAR RJOB 110100Z 29009KT CAVOK 03/M03 Q1029=

0000017000
841
SAJP32 RJTD 110100 RRA
METAR RJOT 110100Z 26010KT 9999 FEW025 SCT050 05/M02 Q1029=
METAR RJFO 110100Z 31008KT 260V330 9999 FEW030 BKN040 05/00 Q1031=

0000011900
842
SACN62 CYQK 110100
METAR CYQK 110100Z 18009KT 1 1/2SM -SN BR OVC003 M05/M06 A2940 RMK
 SC8 SLP980=

0000011900
843
SACN62 CYQU 110100
METAR CYQU 110100Z 26010KT 25SM FEW120 BKN220 M04/M10 A2954 RMK
 AC2CI4 SLP042=

0000010600
844
SACN62 CYLL 110100
METAR CYLL 110100Z 28013KT 15SM FEW250 M06/M08 A2950 RMK CI2 SLP031=

0000014000
845
SACN62 CYCD 110100
METAR CYCD 110100Z 11008KT 6SM -RA BR SCT008 BKN030 OVC080 06/06
 A2981 RMK SF4SC3AC1 PRESFR SLP096=

00000000