0000055700
034
SNVD20 KWNB 110800 RRT
BBXX
44056 11081 99362 70757 46/// ///// 1//// 90823 22200 00088 10702
20702 308// 41301 70012=
44098 11081 99428 70702 46/// ///// 1//// 90821 22200 00058 10601
20601 70007=
44097 11081 99410 70711 46/// ///// 1//// 90825 22200 00068 10502
20502 70009=
44099 11081 99369 70757 46/// ///// 1//// 90818 22200 00065 10502
20502 70009=
44059 11081 99368 70763 46/// /1604 10166 40163 90830 333 91205
555 11040 22044=
44058 11081 99376 70763 46/// /1605 10102 40169 90830 333 91206
555 11057 22062=
0000045400
035
SIVD01 PANC 110900
BBXX
WYM9567 11094 99605 71457
41998 19900 11011 2//// 49903 57016 70200 80///
22200 0//// 20000 3//// 40000 50000 6//// 8//// ICE /////=
C6SE7 11094 99336 31517
41697 50522 10220 2//// 40150 54/// 70211 85188
22214 04220 20102 309// 40604 50102 6//// 8//// ICE /////=
9HA2583 11094 99235 70725
41798 50922 10251 20251 40230 54/// 70222 85184
22274 04274 20504 309// 4//// 5//// 6//// 80251 ICE /////=
0000018000
036
SNVD01 PANC 110800 RRF
BBXX
9HJD9 11084 99458 50643
41797 61111 10128 20028 40180 52/// 70311 868//
22244 04127 2//// 3//// 4//// 5//// 6//// 85080 ICE 0/0//=
0000023300
037
SNVE15 KWNB 110800 RRE
BBXX
51204 11081 99213 71581 46/// ///// 1//// 90821 22200 00248 11302
20901 332// 41301 70009=
51201 11081 99217 71581 46/// ///// 1//// 90822 22200 00246 11305
21004 331// 41303 70023=
0000023300
038
SNVD22 KWNB 110800 RRT
BBXX
46214 11081 99379 71235 46/// ///// 1//// 90826 22200 00112 11307
20903 332// 41306 70033=
46221 11081 99339 71186 46/// ///// 1//// 90825 22200 00155 11302
20701 327// 41301 70009=
0000010600
039
SAER41 OMAM 110827 RRF
METAR OMAM 110830Z 19009KT 9999NDV FEW040 BKN100 21/11 Q1019 A3009=
0000010300
040
SAER41 OMAM 110828 RRF
METAR OMAM 110830Z 19009KT 9999 FEW040 BKN100 21/11 Q1015 A2997=
0000010900
041
UANT01 CWAO 110838
ARP THY12 5446N03305W 0838 F330 MS58 204/49 KT
TCJJO QXT AOW 110838 F20A
0000011000
042
UANT01 CWAO 110838
ARP ETH500 5443N04113W 0838 F340 MS58 292/32 KT
ETAPX QXT AME 110838 F36A
0000011000
043
UANT01 CWAO 110838
ARP KLM256 5135N03732W 0838 F370 MS54 274/18 KT
PHAOD QXT AOW 110838 J97A
0000011100
044
UANT01 CWAO 110838
ARP UAL982 4810N03437W 0838 F350 MS48 237/21 KT
N229UA DDL XXW 110838 F40A
0000010900
045
UANT01 CWAO 110839
ARP THY34 5428N05224W 0838 F350 MS63 289/88 KT
TCJJH QXS YAY 110839 F19A
0000009300
046
SASB31 VCBI 110840
METAR VCBI 110840Z 32009KT 9999 SCT016 31/22 Q1009 NOSIG=

0000015400
047
SAIN34 VOMM 110830
METAR VOBL 110830Z 08004KT 020V120 CAVOK 31/14 Q1016 NOSIG=
METAR VOCI 110830Z 35005KT 5000 HZ NSC 32/17 Q1010 NOSIG=
0000024100
048
SAIN32 VIDP 110830
METAR VILK 110830Z VRB02KT 1200 R27/1300 MIFG BKN015 BKN090 16/13
    Q1016 NOSIG=
METAR VIAR 110830Z 29005KT 240V320 4000 HZ NSC 16/11 Q1019=
METAR VIJP 110830Z VRB05KT 5000 HZ NSC 19/01 Q1019 NOSIG=
0000010200
049
SAIN32 VECC 110830
METAR VEGT 110830Z 04004KT 2500 HZ SCT020 BKN100 22/15 Q1015 NOSIG=
0000009600
050
SNVB01 KWBC 110800 RRC
BBXX
MINFR09 1108/ 99344 11245 46/// ///// 40317 57001=
0000017900
051
SNVC01 KWBC 110800 RRC
BBXX
9HJD9 11084 99458 50643 41797 61111 10128 20028 40180 52/// 70311
 868// 22244 04127 2//// 3//// 4//// 5//// 6//// 85080 ICE 0/0//=
0000367600
052
SNVD01 KWBC 110800 RRJ
BBXX
46036 11081 99484 71339 46/// /2015 10084 49792 57064 22200 00093
 11009 70047 333 91221=
44258 11081 99445 70634 46/// /2406 10024 40265 57003 22200 00018
 10603 70013 333 91208=
46146 11081 99493 71237 46/// /0913 10074 49931 57069 22200 00071
 10402 70011 333 91216=
46004 11081 99509 71361 46/// /2210 10073 49767 57014 22200 00080
 10907 70035 333 91212=
46242 11081 99332 71174 46/// ///// 1//// 90757 22200 00152 11401
 20601 324// 41401 70005=
46231 11081 99327 71174 46/// ///// 1//// 90814 22200 00154 11302
 21002 328// 41302 70011=
46224 11081 99332 71175 46/// ///// 1//// 90812 22200 00154 11301
 20501 325// 41301 70005=
46213 11081 99403 71247 46/// ///// 1//// 90824 22200 00118 11508
 21003 330// 41508 70042=
46218 11081 99345 71208 46/// ///// 1//// 90829 22200 00134 11406
 20904 330// 41404 70028=
46229 11081 99438 71246 46/// ///// 1//// 90819 22200 00092 11410
 20807 329// 41407 70048=
46236 11081 99368 71219 46/// ///// 1//// 90822 22200 00124 11404
 21002 329// 41403 70019=
46240 11081 99366 71219 46/// ///// 1//// 90821 22200 00127 11303
 21001 335// 41303 70014=
46244 11081 99409 71244 46/// ///// 1//// 90821 22200 00109 11508
 21003 330// 41507 70038=
46183 11081 99536 71311 46/// /0511 10031 49769 57047 22200 00073
 1//// 70/// 333 912//=
46184 11081 99539 71389 46/// /0113 10059 49849 52009 22200 00072
 11009 70045 333 91216=
46181 11081 99538 71288 46/// /0509 1//// 49809 57062 22200 00047
 10301 70006 333 91211=
44022 11081 99409 70737 46/// /0505 10018 20014 90815 333 91206
 555 11051 22051=
46087 11081 99485 71247 46/// /2016 10090 20090 49923 90820 22200
 00076 333 91219 555 11170 22184 30745 42021 60819 200159 202159
 201162 203165 201165 201173=
44040 11081 99410 70736 46/// /0604 10021 20021 90815 22200 1//00
 70001 333 91205 555 11046 22057=
46088 11081 99483 71232 46/// /1511 10097 20075 49932 90820 22200
 00074 10603 20603 70013 333 91214 555 11124 22135 30734 41416
 60819 146116 143120 145121 146125 145125 143122=
46126 11081 99540 71666 46/// /2001 10043 49816 90815 22200 00047
 1//00 70001 333 91203 555 11014 22015=
46126 11081 99540 71666 46/// /2001 10043 49814 90812 22200 00046
 1//00 70001 333 91203 555 11014 22015=
46126 11081 99540 71666 46/// /1802 10043 49814 90806 22200 00046
 1//00 70001 333 91204 555 11016 22018=
46126 11081 99540 71666 46/// /1802 10043 49814 90810 22200 00046
 1//00 70001 333 91204 555 11016 22018=
41009 11081 99285 70802 46/// /1807 10241 20217 40183 90820 22200
 00241 333 91208 555 11070 22075 30811 41708 60819 175066 174064
 172061 173053 173055 169055=
42365 11081 99282 70891 46/// /2308 10224 20211 90830 555 11064
 22068=
46206 11081 99488 71260 46/// /2510 10093 49910 57025 22200 00078
 10809 70044 333 91212=
46132 11081 99497 71279 46/// /2410 10090 49877 57003 22200 00078
 10807 70037 333 91213=
46205 11081 99542 71343 46/// /0716 10042 49782 57033 22200 00074
 10808 70038 333 91221=
44058 11081 99376 70763 46/// /1605 10097 40174 90820 333 91206
 555 11055 22060=
44059 11081 99368 70763 46/// /1704 10168 40164 90820 333 91205
 555 11043 22046=
46185 11081 99524 71298 46/// /2311 10078 49793 57006 22200 00074
 1//// 70/// 333 91215=
44041 11081 99372 70768 46/// /2004 10129 90820 333 91205 555
 11045 22049=
44042 11081 99380 70763 46/// /1911 10117 40149 90820 333 91214
 555 11128 22139=
44064 11081 99370 70760 46/// /1608 10139 40170 90820 333 91211
 555 11096 22104=
44062 11081 99386 70764 46/// /0802 10029 40165 90820 333 91203
 555 11027 22029=
0000026500
053
SNVD01 KWBC 110800 RRK
BBXX
44063 11081 99390 70764 46/// /0501 10020 40152 90820 333 91202
 555 11015 22016=
C6SE4 11083 99347 70750 41/// /1830 10180 2//// 40219 51/// 7////
 8//// 222// 0//// 2//// 3//// 4//// 5//// 6//// 8//// ICE /////=
00000000