0000004200
986
SAJP41 KWBC 110230
NIL=

0000004200
987
SAJP43 KWBC 110230
NIL=

0000004200
988
SAJP44 KWBC 110230
NIL=

0000004200
989
SAJP45 KWBC 110230
NIL=

0000008100
990
SAEA20 HKNC 110200 RRB
METAR HKMY 110200Z 05003KT CAVOK 20/11=

0000022900
991
SALJ31 LJLJ 110230
METAR LJLJ 110230Z 00000KT 9999 SCT030 BKN040 06/05 Q1020 NOSIG=
METAR LJMB 110230Z AUTO VRB02KT 7000 OVC006/// 03/02 Q1020=
METAR LJPZ 110230Z AUTO 00000KT 3400 BR OVC050/// 09/09 Q1021=

0000009600
992
SALJ32 LJLJ 110230
METAR LJCE 110230Z AUTO 00000KT 0400 FG VV001 03/03 Q1021=

0000010300
993
SANT31 KWBC 110200 RRC
METAR
BIKF 110230Z 26013KT 9999 FEW041 BKN090 02/M04 Q0994=

0000024600
994
SAFR21 LFPW 110230
METAR LFOA 110230Z AUTO 13004KT 9999 NSC 07/05 Q1015=
METAR LFPC 110230Z AUTO 14003KT 0350 R25/1800U FG VV/// ///TCU
05/04 Q1016=
METAR LFPV 110230Z AUTO VRB02KT 2500 -RA BR BKN002 OVC056 05/05
Q1015=

0000045800
995
SAFR22 LFPW 110230
METAR LFBC 110230Z AUTO 00000KT 9999 FEW014 10/09 Q1016=
METAR LFBG 110230Z AUTO 15004KT 5000 BR NSC 07/07 Q1016=
METAR LFBM 110230Z AUTO 26002KT 9000 OVC019 10/09 Q1017=
METAR LFKS 110230Z AUTO VRB02KT 9999 BKN024 OVC031 12/08 Q1021=
METAR LFMO 110230Z AUTO 00000KT 4600 BR BKN024 OVC030 08/07 Q1020=
METAR LFMY 110230Z AUTO 08003KT 9999 OVC030 10/07 Q1020=
METAR LFBY 110230Z NIL=
METAR LFMC 110230Z NIL=

0000038400
996
SAFR23 LFPW 110230
METAR LFOC 110230Z AUTO 02003KT 3600 BR OVC002/// ///TCU 06/05
Q1016=
METAR LFOE 110230Z AUTO 00000KT 2100 BR VV/// 05/05 Q1016=
METAR LFOJ 110230Z AUTO 06007KT 0700 R25///// FG VV/// 05/05 Q1015=
METAR LFRJ 110230Z AUTO 19009KT 8000 FEW031 SCT060 07/06 Q1015=
METAR LFRL 110230Z AUTO 18005KT 4900 // FEW012 BKN032 BKN040 07/07
Q1015=

0000032100
997
SARO31 LROM 110230
METAR LRBS 110230Z 27003KT CAVOK 01/M01 Q1020 NOSIG=
METAR LRCK 110230Z AUTO VRB09KT 0600 R18/1800N NCD 02/02 Q1019
NOSIG=
METAR LROP 110230Z 22007KT CAVOK 00/M01 Q1019 8819//95 NOSIG=
METAR LRSB 110230Z NIL=
METAR LRTR 110230Z 10005KT 3000 BR BKN047 00/M00 Q1023 11190095=

0000025900
998
SAFR24 LFPW 110230
METAR LFSI 110230Z AUTO 08005KT 9999 NSC 04/03 Q1016=
METAR LFSO 110230Z AUTO 13003KT 9999 NSC 03/02 Q1016=
METAR LFSX 110230Z AUTO 06005KT 9999 NSC 03/01 Q1016=
METAR LFYR 110230Z AUTO 01002KT 7000 NSC 04/03 Q1015=

0000022900
999
SARO32 LROM 110230
METAR LRAR 110230Z NIL=
METAR LRBM 110230Z AUTO 05002KT 3600 BR SCT019 M01/M01 Q1021=
METAR LRCL 110230Z NIL=
METAR LROD 110230Z NIL=
METAR LRSM 110230Z NIL=
METAR LRTM 110230Z NIL=

0000022700
000
SARO33 LROM 110230
METAR LRBC 110230Z NIL=
METAR LRCV 110230Z AUTO 26010KT 9999 NCD 02/M01 Q1021=
METAR LRIA 110230Z NIL=
METAR LRSV 110230Z AUTO 28008KT 9999 NCD 02/M03 Q1016=
METAR LRTC 110230Z NIL=

0000057700
001
SAFR31 LFPW 110230
METAR LFLL 110230Z 11006KT 9999 SCT019 BKN150 10/06 Q1017 NOSIG=
METAR LFMN 110230Z 33008KT 9999 OVC033 10/05 Q1021 NOSIG=
METAR LFPG 110230Z 10005KT 4000 -RA BR FEW001 BKN002 BKN016 05/04
Q1016 TEMPO 0500 FG VV///=
METAR LFPO 110230Z 12003KT 1500 -RA BR OVC003 06/05 Q1016 TEMPO
BKN002=
METAR LFQQ 110230Z AUTO 19009KT 6000 OVC005 04/03 Q1016=
METAR LFRB 110230Z 18006KT 4000 BR FEW006 SCT025 BKN066 07/06
Q1015 NOSIG=
METAR LFRS 110230Z AUTO VRB01KT 1400 0350 R03/1100D R21///// BCFG
SCT014 SCT024 BKN054 07/06 Q1015=

0000074600
002
SAFR32 LFPW 110230
METAR LFBD 110230Z AUTO 23004KT 2700 BR BKN014 08/08 Q1016=
METAR LFBH 110230Z AUTO 21001KT 3800 BR NSC 08/07 Q1015=
METAR LFBI 110230Z AUTO 27002KT 7000 NSC 07/06 Q1015=
METAR LFBL 110230Z AUTO 19005KT 9999 NSC 07/05 Q1016=
METAR LFBO 110230Z AUTO 17006KT 9999 FEW019 BKN180 OVC240 09/07
Q1017=
METAR LFBP 110230Z AUTO 24004KT 5000 BR OVC022 09/08 Q1017=
METAR LFBT 110230Z AUTO 24004KT 210V270 7000 OVC016 09/07 Q1017=
METAR LFBZ 110230Z AUTO 28006KT 9999 BKN020 OVC027 12/09 Q1017=
METAR LFLB 110230Z AUTO 00000KT 5000 BR NSC 02/02 Q1018=
METAR LFLX 110230Z AUTO 17003KT 130V190 7000 NSC 06/05 Q1015=
METAR LFML 110230Z AUTO 08006KT 9999 OVC027 12/07 Q1020=
METAR LFCK 110230Z NIL=

0000049200
003
SAFR33 LFPW 110230
METAR LFKB 110230Z 18002KT 9999 OVC030 12/08 Q1021 NOSIG=
METAR LFKF 110230Z AUTO 06008KT 010V100 9999 BKN029/// 13/08 Q1020=
METAR LFKJ 110230Z AUTO 05008KT 9999 FEW020/// BKN220/// 06/05
Q1020=
METAR LFLC 110230Z AUTO VRB02KT 7000 NSC 03/02 Q1015=
METAR LFMP 110230Z AUTO 32006KT 8000 NSC 09/07 Q1018=
METAR LFMV 110230Z AUTO 00000KT 9999 OVC031 09/07 Q1020=
METAR LFSL 110230Z AUTO 00000KT 9000 NSC 05/04 Q1016=
METAR LFKC 110230Z NIL=

0000009600
004
SAKO31 RKSI 110230
METAR RKSI 110230Z 11002KT 9999 SCT040 00/M13 Q1033 NOSIG=

0000103100
005
SAFR34 LFPW 110230
METAR LFCR 110230Z AUTO 12009KT 9999 NSC 07/04 Q1017=
METAR LFJL 110230Z AUTO VRB05KT 6000 NSC 01/01 Q1017=
METAR LFLP 110230Z AUTO 00000KT 4400 BR NSC 02/01 Q1018=
METAR LFLS 110230Z AUTO VRB02KT 9999 OVC013 08/06 Q1018=
METAR LFLY 110230Z AUTO 16008KT 6000 NSC 06/05 Q1017=
METAR LFMT 110230Z AUTO 03006KT 8000 FEW031 OVC038 11/08 Q1019=
METAR LFMU 110230Z AUTO 04008KT 9999 OVC039 11/08 Q1019=
METAR LFOB 110230Z AUTO 12004KT 2300 BR OVC002 05/04 Q1016=
METAR LFOH 110230Z AUTO 17006KT 150V210 5000 -RA BR FEW007 OVC058
06/05 Q1015=
METAR LFOK 110230Z AUTO 01005KT 3200 BR FEW001 BKN086 OVC110 01/01
Q1016=
METAR LFOP 110230Z AUTO 18004KT 150V220 0400 R22/1300U FG VV///
05/05 Q1016=
METAR LFPB 110230Z AUTO 09004KT 2700 -RA BR BKN004 OVC064 05/05
Q1016=
METAR LFQA 110230Z AUTO VRB02KT 5000 -RA BR ///TCU 02/02 Q1016=
METAR LFQB 110230Z AUTO 15001KT 6000 -RA ///TCU 03/03 Q1016=
METAR LFSN 110230Z AUTO 16002KT 0150 R03/0600U FZFG VV/// M00/M00
Q1017=

00000000