0000009800
906
SIIN90 VECC 110900
AAXX 11094
42901 32996 01104 10250 20173 40141
  333 59001=
0000009800
907
SIIN90 VIHS 110900
AAXX 11094
42131 32996 03203 10184 20041 40188
  333 58026=
0000080200
908
SAHK31 VHHH 110900
METAR VHHH 110900Z 10011KT 7000 FEW035 19/13 Q1020 NOSIG=
METAR RCTP 110900Z 30004KT 9999 FEW025 21/14 Q1021 NOSIG RMK A3015
=
METAR RCKH 110900Z 28008KT 9000 FEW018 21/16 Q1021 NOSIG RMK A3016
=
METAR RCSS 110900Z 10011KT 9999 FEW025 20/12 Q1021 NOSIG RMK A3017
=
METAR VMMC 110900Z 12010KT 7000 NSC 17/13 Q1021 NOSIG=
METAR RPLL 110900Z 08012KT 050V110 9999 FEW025 BKN300 27/17 Q1014
NOSIG RMK A2995=
METAR RPVM 110900Z 35015KT 8000 -RA SCT020 OVC090 24/23 Q1011 A2985=
METAR RPMD 110900Z
36004KT 4000 RA SCT016 BKN090 OVC290 23/22 Q1008  MODRA CONTUS=
METAR RPLB 110900Z 09008G20KT 9999 FEW030 BKN300 27/21 Q1012 NOSIG=
METAR RPLI 110900Z
09012KT 9999 FEW019 BKN290 30/18 Q1013 NOSIG RMK A2991=
METAR RPMZ 110900Z 00000KT 8000 -RA FEW018 OVC100 26/24 Q1009 A2980=

0000037000
909
SIIN90 VOMM 110900
AAXX 11094
43105 32597 31806 10290 20206 30132 40139 82501
  333 58005=
43189 32597 29901 10298 20198 30130 40139 81502
  333 58006=
43086 32597 32303 10284 20162 39950 40126 83500
  333 58011=
43347 32597 33402 10276 20223 30107 40118 82501
  333 58008=
43363 32597 20211 10280 20224 30110 40123 82800
  333 58011=
0000011000
910
SIIN90 VOMM 110900
AAXX 11094
43377 31996 00210 10300 20196 30061 40102 70500
  333 58006=
0000038800
911
SIIN90 VOMM 110900
AAXX 11094
43081 32597 30902 10302 20173 39686 40105 82801
  333 58006=
43181 31596 31402 10300 20174 30101 40128 70500 83500
  333 58007=
43237 32997 31103 10316 20147 39718 40102 82032
  333 58004 82360 83075=
43221 32597 11802 10296 20188 30113 40126 81500
  333 58011=
43275 31596 40206 10306 20170 30000 40117 82502
  333 58007=
0000051800
912
SAKO31 RKSI 110900
METAR RKSI 110900Z 21004KT 9999 SCT040 BKN180 01/M12 Q1030 NOSIG=
METAR RKSS 110900Z 29002KT 9999 SCT030 BKN150 00/M17 Q1030 NOSIG =
METAR RKPC 110900Z 13001KT 9999 FEW030 SCT160 05/M06 Q1031 NOSIG =
METAR RKPK 110900Z 28001KT CAVOK 04/M08 Q1029 NOSIG =
METAR RKTU 110900Z 30003KT 9999 SCT040 BKN230 01/M12 Q1030 NOSIG =
METAR RKTN 110900Z 30007KT CAVOK 03/M09 Q1029 NOSIG =
METAR RKJB 110900Z 36004KT CAVOK 01/M06 Q1031 NOSIG =
METAR RKNY 110900Z 26010KT CAVOK 02/M19 Q1026 NOSIG =

0000009600
913
SAIN90 VOVZ 110900
METAR VOVZ 110900Z 12008KT 4000 HZ SCT018 28/19 Q1013 NOSIG=

0000008600
914
SAIN90 VOTP 110900
METAR VOTP 110900Z 02006KT 6000 FEW020 31/17 Q1012=
0000009400
915
SPIN90 VEAT 110900
SPECI VEAT 110900Z 32005KT 3000 HZ NSC 25/11
Q1013 NOSIG=
0000011700
916
FTIN90 VEBS 110900
TAF VEBS 110900Z 1112/1121 18006KT 2000 HZ NSC BECMG 1115/1117 08004KT 1500 BR=

0000009400
917
SAIN90 VIAR 110900
METAR VIAR 110900Z 28007KT 250V310 4000 HZ NSC 17/11 Q1019=
0000008900
918
SPIN90 VANP 110900
SPECI VIGR 110900Z 32004KT 1500 BR FEW250 20/08 Q1017=
0000179200
919
SZPS01 AMMC 110903
CREX++
T000103 A001 D01021 D06025++
-0204190 14737360 56130 2014 01 11 08 56 3027 11 07 00 01
00825 0157 00826 0161 00824 0161 00818 0158 00820 0162 00816 0161+
-0669280 15640860 56363 2014 01 11 08 56 //// 11 07 00 01
00409 -0062 00402 -0069 00399 -0070 00397 -0071 00395 -0072 00389 -0077+
-0942890 15995560 56670 2014 01 11 08 56 3043 11 07 00 01
00624 -0029 00620 -0031 00622 -0028 00618 -0031 00617 -0030 00616 -0030+
-1072080 16580190 57131 2014 01 11 08 56 //// 11 07 00 01
01935 1654 01812 1532 01910 1631 02851 2573 01138 0861 01818 1542+
-1551560 16718860 57210 2014 01 11 08 56 //// 11 07 00 01
00371 -0077 00381 -0066 00367 -0078 00365 -0079 00374 -0068 00384 -0057+
-1775690 16830030 57320 2014 01 11 08 56 3017 11 07 00 01
00456 -0090 00451 -0093 00447 -0095 00444 -0096 00441 -0097 00437 -0099+
-4397330 16861610 65180 2014 01 11 08 56 2887 11 07 00 01
02352 0372 02344 0366 02341 0365 02328 0355 02326 0355 02350 0382+
-2120470 -15978530 65980 2014 01 11 08 56 3013 11 07 00 01
00397 -0033 00403 -0026 00422 -0007 00446 0018 00400 -0027 00398 -0029+
-2113810 -17518140 66600 2014 01 11 08 56 //// 11 07 00 01
00645 0090 00640 0086 00648 0096 00641 0090 00635 0085 00630 0081+
-1382670 -17176110 66840 2014 01 11 08 56 3012 11 07 00 01
00466 0050 00473 0057 00474 0058 00473 0056 00479 0062 00477 0059+
-1813250 17842750 67050 2014 01 11 08 56 3030 11 07 00 01
00748 0105 00747 0105 00742 0102 00739 0101 00740 0103 00738 0103+
-1760530 17743810 67070 2014 01 11 08 56 3033 11 07 00 01
00695 0016 00693 0015 00691 0015 00691 0017 00690 0018 ///// ////+
-0850250 17919500 67440 2014 01 11 08 56 3028 11 07 00 01
01571 0030 01573 0032 01574 0032 01570 0028 01576 0034 01572 0029++
7777

0000191300
920
SZAU01 AMMC 110903
CREX++
T000103 A001 D01021 D06025++
-1927750 14705860 59260 2014 01 11 08 56 3030 11 07 00 01
02518 0169 02518 0171 02520 0173 02520 0174 02521 0176 02517 0172+
-2316110 15079000 59670 2014 01 11 08 56 3003 11 07 00 01
03528 0179 03519 0172 03521 0178 03525 0184 03526 0187 03535 0200+
-3447330 15091170 60420 2014 01 11 08 56 2950 11 07 00 01
00946 -0036 00946 -0033 00945 -0032 00945 -0030 00957 -0015 00960 -0011+
-4105000 14591500 60910 2014 01 11 08 56 2888 11 07 00 01
02859 -0022 02870 -0016 02876 -0015 02878 -0017 02872 -0028 02888 -0016+
-4254640 14793080 61170 2014 01 11 08 56 2893 11 07 00 01
01323 0146 01326 0150 01320 0145 01318 0144 01313 0140 01308 0136+
-3834390 14161360 61410 2014 01 11 08 56 2905 11 07 00 01
00630 0050 00604 0023 00613 0031 00604 0021 00599 0015 00598 0013+
-3214890 13364170 62000 2014 01 11 08 56 2963 11 07 00 01
01321 0172 01326 0177 01326 0178 01327 0179 01325 0178 01325 0179+
-3387080 12189720 62080 2014 01 11 08 56 2948 11 07 00 01
00915 0093 00934 0111 00921 0097 00911 0086 00913 0087 00933 0106+
-3182560 11573860 62237 2014 01 11 08 56 2973 11 07 00 01
01002 0079 01003 0080 00997 0073 00996 0071 00991 0066 00984 0058+
-2422000 11339750 62385 2014 01 11 08 56 //// 11 07 00 01
01384 -0099 01407 -0077 01422 -0063 01384 -0102 01358 -0129 01352 -0136+
-2181670 11419110 62430 2014 01 11 08 56 //// 11 07 00 01
02094 -0064 02114 -0046 02092 -0070 02102 -0062 02108 -0058 02104 -0064+
-1800080 12221830 62650 2014 01 11 08 56 3043 11 07 00 01
06644 0086 06652 0086 06659 0087 06666 0088 06673 0087 06680 0088+
-1247190 13084580 63230 2014 01 11 08 56 3050 11 07 00 01
04759 0200 04751 0199 04744 0197 04737 0197 04730 0195 04723 0193+
-1386000 13641580 63511 2014 01 11 08 56 3043 11 07 00 01
01828 0156 01832 0160 01837 0164 01842 0168 01845 0170 01848 0173++
7777

0000047300
921
SZPA01 AMMC 110903
CREX++
T000103 A001 D01021 D06025++
0136250 17293000 67590 2014 01 11 08 56 3017 11 07 00 01
01220 -0024 01212 -0032 01225 -0020 01209 -0037 01222 -0025 01221 -0027+
0710610 17137250 67680 2014 01 11 08 56 3013 11 07 00 01
00812 0070 00809 0066 00812 0067 00818 0073 00814 0068 00817 0069+
0698060 15820000 67950 2014 01 11 08 56 3023 11 07 00 01
00598 0059 00598 0059 00597 0058 00596 0058 00596 0058 00598 0060++
7777

0000034500
922
SZIO01 AMMC 110903
CREX++
T000103 A001 D01021 D06025++
-1211670 09689190 46280 2014 01 11 08 56 3022 11 07 00 01
01202 0015 01199 0013 01195 0011 01195 0012 01195 0014 01190 0010+
-1042940 10566940 46290 2014 01 11 08 56 //// 11 07 00 01
01379 -0039 ///// //// ///// //// 01401 -0017 01390 -0028 01408 -0010++
7777

0000011000
923
UANT99 KDDL 110902
ARP KLM256 5234N03239W 0902 F370 MS56 194/34 KT
PHAOD QXT AOW 110902 J02A
0000011000
924
UANT99 KDDL 110902
ARP XLF057 4710N02843W 0902 F400 MS50 214/68 KT
FGRSQ DDL XXN 110902 J02A
0000013300
925
SIKB20 NGTT 110900
AAXX 11094
91610 41498 81017 10258 20244 40066 51021 70362 843/7 333 562/9 82915
83640 88280 =
00000000