0000024500
186
SAIY36 LIIB 110000
METAR LIBC 110000Z NIL=
METAR LIBF 110000Z NIL=
METAR LIBG 110000Z NIL=
METAR LIBP 102350Z VRB02KT 4000 BR NSC 04/02 Q1022=
METAR LIRI 110000Z NIL=
METAR LIRJ 110000Z NIL=
METAR LIRZ 110000Z NIL=

0000023700
187
SAIY37 LIIB 110000
METAR LICA 102350Z 09005KT 9999 FEW025 06/05 Q1022=
METAR LICD 102350Z 20013KT CAVOK 16/14 Q1022=
METAR LICG 110000Z NIL=
METAR LICR 110000Z NIL=
METAR LICT 102355Z 13009KT CAVOK 12/11 Q1020=

0000012100
188
SAUK37 EGGY 102350 RRA
METAR EGPI 102350Z AUTO 28010KT 250V310 3500 SHRA SCT020/// 04/02
     Q1008=

0000010900
189
SAUK38 EGGY 102350 RRA
METAR EGPU 102350Z AUTO 25011KT 220V280 9999 FEW038/// 04/01 Q1006=

0000011300
190
SASN31 ESWI 102350 CCA
METAR COR ESGJ 102350Z 22008KT 9999 FEW004 SCT007 BKN009 01/01
Q1001=

0000012600
191
SACN62 CYYB 110000
METAR CYYB 110000Z 15006KT 12SM -SN OVC005 M03/M04 A2998 RMK ST8 PCPN
 VRY LGT SLP174=

0000009800
192
SANL33 EHDB 102355 RRA
METAR EHJR 102355Z AUTO 22026G30KT  09/07 Q1011 W10/H18=

0000010600
193
SACN62 CYYG 110000
METAR CYYG 110000Z 20007KT 15SM OVC030 M04/M06 A3030 RMK SC8 SLP264=

0000010200
194
SANL33 EHDB 102355 RRB
METAR EHSC 102355Z AUTO 22025G28KT 9999 06/06 Q1014 W08/H16=

0000010200
195
SANL33 EHDB 102355 RRC
METAR EHSA 102355Z AUTO 22027G29KT 9999 08/06 Q1014 W09/H20=

0000010300
196
SACN61 CYXS 110000
METAR CYXS 110000Z AUTO 17008KT 9SM CLR M02/M04 A2968 RMK SLP083=

0000011500
197
SACN62 CYXL 110000
METAR CYXL 110000Z 17005KT 3SM -SN BR OVC007 M07/M08 A2947 RMK ST8
 SLP005=

0000010200
198
SAAG41 SAME 110000
METAR SAME 110000Z  18003KT 9999  FEW045 FEW050CB
28/07 Q1012=

0000010400
199
SAAG41 SAWG 110000
METAR SAWG 110000Z  25011KT 9999 -RA FEW035 BKN050
 09/06 Q1011=

0000012600
200
SACN61 CYKL 110000
METAR CYKL 110000Z AUTO /////KT 1 1/4SM -SN OVC075 M10/M13 A2957 RMK
 WND MISG SLP060=

0000010600
201
SACN61 CYGV 110000
METAR CYGV 110000Z AUTO 29008KT 9SM OVC020 M09/M11 A3007 RMK SLP185=

0000010600
202
SACN62 CYHK 110000
METAR CYHK 110000Z 25013KT 15SM BKN028 M31/M35 A2946 RMK SC5 SLP986=

0000010200
203
SACN62 CYGR 110000
METAR CYGR 110000Z 23013G19KT 15SM SKC M04/M06 A3025 RMK SLP243=

0000056300
204
SAKO31 RKSI 110000
METAR RKSI 110000Z 13001KT CAVOK M03/M06 Q1033 NOSIG=
METAR RKSS 110000Z 22001KT 4000 BR NSC M06/M08 Q1033 BECMG 6000 
           NSW =
METAR RKPC 110000Z 06008KT 9999 SCT035 04/M05 Q1033 NOSIG =
METAR RKPK 110000Z 24003KT CAVOK M02/M07 Q1033 NOSIG =
METAR RKTU 110000Z 07002KT 3600 BR BKN040 M07/M08 Q1033 NOSIG =
METAR RKTN 110000Z 00000KT 9999 FEW050 SCT200 M04/M08 Q1033 NOSIG =
METAR RKJB 110000Z 08004KT 6000 SCT030 M03/M05 Q1034 NOSIG =
METAR RKNY 110000Z 26014KT CAVOK M01/M12 Q1029 WS ALL RWY NOSIG =

0000010200
205
SAAG41 SADF 110000
METAR SADF 110000Z  00000KT 9999  FEW040CB SCT100
24/16 Q1008=

00000000