0000033200
626
SSVX03 LFVW 110930
ZZYY 31052 11014 07001 508149 034558 6113/
11119 01905 11100 21100 40108
22219 10603 20063 21013
33311 66699 20030 05///
444 20130 11014 0719/ 518// 60371=
ZZYY 31260 11014 07001 522886 043130 6113/
11119 00701 10255 40124
33311 66699 20030 05///
444 20130 11014 0749/ 518// 60371=
0000067200
627
SSVX02 LFVW 110930
ZZYY 41647 11014 0739/ 724140 048672 6113/
22219 00244
33311 88872 20000 32442 43668
444 2013/ 11014 0733/ 50101 9/015=
ZZYY 41653 11014 0740/ 722213 048622 6113/
22219 00246
33311 88872 20000 32460 43733
444 2013/ 11014 0734/ 50101 9/015=
ZZYY 41649 11014 0734/ 733898 031693 6111/
22219 00200
33311 88872 20000 31996 43633
444 2011/ 11014 0731/ 50101 9/015=
ZZYY 41645 11014 0739/ 727988 040104 6112/
22219 00226
33311 88872 20000 32258 43719
444 2012/ 11014 0733/ 50101 9/015=
ZZYY 41650 11014 0739/ 723306 049606 6112/
22219 00247
33311 88872 20000 32467 43746
444 2012/ 11014 0733/ 50101 9/015=
0000016600
628
SSVX13 LFVW 110930
ZZYY 55585 11014 0800/ 345991 166452 6113/
11119 30082 40082 57028
22219 00127
444 20130 11014 0816/ 50101 80110 80000 9/015=
0000011000
629
UANT01 CWAO 110930
ARP KLM686 5322N05648W 0930 F370 MS63 287/72 KT
PHBFC QXS YAY 110930 F68A
0000012400
630
SIAG02 SABM 110900 RRC
AAXX 11094
87497 42965 81820 10197 20152 30106 40133 52035 8807/ 333 56069
88360=
0000226100
631
SIRA25 RUNW 110900
AAXX 11091
23074 NIL=
23078 41896 71907 11253 21293 30093 40183 52021 77173 87020 333 91010
91118=
23274 42997 71603 11326 21348 30174 40215 52013 82031=
23383 42998 80000 11408 21438 39893 40306 52011 81087=
23472 42998 13001 11318 21355 30180 40234 52018 80001=
23578 41997 81701 11233 21258 30179 40222 52021 77172 82047=
23589 419// 71102 11266 21290 30120 4//// 53008 70272 86071=
23678 42598 30801 11140 21160 30164 40225 52015 82509=
23788 41898 81801 11179 21205 30171 40272 52011 70272 8807/=
23884 41670 80000 11159 21172 30172 40250 52015 70272 8652/=
23891 41697 80000 11267 21299 39964 53004 77177 85536=
24507 419// 80903 11366 21394 30053 40334 53004 77172 8807/=
24817 41996 50000 11413 21438 39980 40402 57005 74022 82041=
24908 41971 80000 11314 21350 39977 40350 57002 77172 83037=
29068 41896 81402 11090 21106 30171 40257 51002 77187 8807/=
29263 41596 82103 11062 21074 30167 40270 52008 78583 8595/=
29274 41956 71802 11064 21080 30164 40281 53006 77177 8707/=
29282 41997 82701 11218 21243 30133 40319 53005 77072 80007=
29363 43/// /2303 11069 21079 30054 40289 52012=
29379 41998 82303 11077 21099 30087 40306 52009 70282 80002=
29456 83/// /2203 11066 21105 30044 40310 52013=
29464 41996 82104 11064 21092 30009 40309 52010 77173 8802/=
29477 42699 72201 11054 21086 30098 40311 53008 84570=
29563 41899 52504 11070 21103 39701 40311 52007 70272 85020=
29570 41599 72702 11042 21106 39955 40309 53008 70282 86930=
29576 42598 82302 11054 21096 39832 40311 52004 82935=
29662 43/// /2502 11046 21101 39911 40323 53006=
29698 41996 80000 11137 21157 39811 40354 53008 77172 86072=
30028 42997 20000 11375 21405 39899 40416 56005 82040=
30157 42998 20000 11408 21444 30167 40508 56002 80001=
30230 41694 80000 11408 21438 30060 40449 57007 77174 82531=
30252 419// 70000 11413 21432 30156 40530 54000 71022 80001=
30309 41997 80000 11168 21181 39787 40343 54000 77172 83011=
30328 41997 80000 11280 21312 39949 40428 57008 77172 83027=
30521 41597 80000 11240 21259 39840 40419 56004 78582 83931=
30710 41996 83201 11125 21146 39755 40370 54000 71022 80002=
30815 42999 70000 11131 21174 38598 48531 53001 80006=
36103 NIL=
0000012400
632
SIRA25 RUNW 110900 RRA
AAXX 11091
36103 41898 83201 11149 21176 39247 40430 57003 77072 8802/ 333
95050=
0000018400
633
SSVX13 LFPW 110930
ZZYY 41736 11014 0930/ 711987 040307 6113/ 11119 40149 52009 22219
 00256 33300 88872 20000 43603 444 20130 11014 0929/ 50101 80112
 80024 9/015=
0000011200
634
SINL54 EHDB 110900 RRJ
AAXX 11091
06311 46/// /2106
333 91008 91109 91206
555 51108 51206=
0000027400
635
SXHW11 KWAL 110932
15D142A4 011093202":PRS 1 #1 1543 1546 1535 1534 1527 1538 1553 1535 1534 1541 :RAD 1 #1 7129 7128 7126 7124 7126 7128 7132 7122 7122 7126 :ENC 2 #5 5025 5030 5015 5005 :SW1 32 #60 0 :SW2 2 #60 0 :BAT 4 #5 13.0 :NAME 15D142A4  34+0NN 216W
0000013600
636
SIMG20 FMMD 110900
AAXX 11094
67020 NIL=
67022 NIL=
67023 NIL=
67037 NIL=
67067 NIL=
67107 NIL=
67131 NIL=
0000013600
637
SIMG21 FMMD 110900
AAXX 11094
67020 NIL=
67022 NIL=
67023 NIL=
67037 NIL=
67067 NIL=
67107 NIL=
67131 NIL=
0000011000
638
UANT99 KDDL 110930
ARP SAS944 5916N03750W 0930 F350 MS56 230/31 KT
OYKBA DDL XXW 110930 J88A
0000011000
639
UANT99 KDDL 110931
ARP SAS936 5903N02811W 0931 F330 MS58 220/57 KT
LNRKF DDL XXW 110931 J57A
0000011000
640
UANT99 KDDL 110931
ARP ETD150 6014N01817W 0931 F310 MS54 247/55 KT
A6ETQ QXS REK 110931 F50A
0000011000
641
UANT99 KDDL 110931
ARP AFR439 5428N04619W 0931 F370 MS61 288/61 KT
FGITJ QXT AOW 110931 F06A
0000011000
642
UANT99 KDDL 110931
ARP DLH435 5400N01957W 0931 F370 MS56 238/64 KT
DAIKR QXT EUA 110931 J92A
0000075100
643
SMAA01 KARS 110600 RRF
AAXX 1106/
89869 46/// ///// 11026 39924 4//// 5//// 90620=
89866 46/// ///// 11031 39882 4//// 5//// 90620=
89866 46/// ///// 11031 39881 4//// 5//// 90630=
89329 46/// ///// 11118 38830 4//// 5//// 90610=
89329 46/// ///// 11113 38829 4//// 5//// 90620=
89799 46/// ///// 11229 4//// 5//// 90620=
89799 46/// ///// 11229 4//// 5//// 90630=
89314 46/// ///// 11089 38299 4//// 5//// 90610=
89314 46/// ///// 11086 38298 4//// 5//// 90620=
89828 46/// ///// 11204 36551 4//// 5//// 90620=
89828 46/// ///// 11209 36551 4//// 5//// 90630=
89108 46/// ///// 11200 37007 4//// 5//// 90620=
89879 46/// ///// 10019 39896 4//// 5//// 90620=
89879 46/// ///// 10019 39896 4//// 5//// 90630=
0000064800
644
SIIN90 VABP 110900
AAXX 11094
42675 31493 83604 10166 20145 40155 74644 886//
  333 58030 88710=
42361 31994 23204 10200 20076 40169 71000 80001
  333 58029 82075=
42567 31593 73206 10180 20134 40159 71040 85430
  333 58023=
42763 32596 70000 10190 20156 39796 40146 83530
  333 58020=
42671 32996 00501 10194 20118 39522 40146
  333 58031=
42571 31594 83203 10152 20141 40148 71044 8653/
  333 58014=
42667 31595 10508 10188 20119 39554 40150 70500 81500
  333 58027 81620=
42754 31594 50508 10168 20115 39501 40149 70522 83530
  333 83620 83360=
42559 32996 03602 10184 20106 40153
  333 58030=
0000027500
645
SAIN90 VABP 110900
METAR VAJB 110900Z 36004KT 800 FG  OVC010 17/15 Q1016=
METAR VAKJ 110900Z 32006KT 0800 BR BKN020 BKN100 18/13 Q1016=
METAR VABP 110900Z 05008KT 2500 HZ FEW020 19/12 Q1016 NO SIG=
METAR VAID 110900Z 05008KT 1500 HZ SCT020 SCT100 Q1016=
00000000