0000031700
306
SAJP31 KWBC 101800 RRA
METAR
RJAA 101800Z 32001KT 9999 FEW025 M05/M08 Q1022 NOSIG RMK 1CU025
     A3021=
RJCC 101800Z 23009KT 200V260 9999 -SHSN FEW010 BKN040 BKN070
     M09/M12 Q1017 RMK 1ST010 5CU040 7AC070 A3004=
RJTT 101800Z 29005KT 240V310 CAVOK 00/M06 Q1023 NOSIG RMK
     A3021=

0000013300
307
SAJP41 KWBC 101800 RRA
METAR
RJAW 101800Z 04012KT 9999 FEW020 SCT030 18/11 Q1020 RMK 1CU020
     4CU030 A3014=

0000008900
308
SASA42 KWBC 101800 RRA
METAR
SCTC 101800Z VRB07KT CAVOK 22/07 Q1018=

0000011200
309
SAHW31 KWBC 101800 RRA
METAR
PHLI 101805Z 05012G19KT 10SM SCT021 SCT027 SCT039 23/19 A3004=

0000008500
310
SPCN44 CWAO 101802
SPECI CYUS 101802Z AUTO 26006KT CLR M36/ A2938=

0000009900
311
SPCN51 CWAO 101803
SPECI CWUW 101803Z AUTO 13009KT 9SM BKN006 BKN084 M29/ A2893=

0000017600
312
SAUS72 KWBC 101800 RRD
METAR
TKPK 101800Z 06018KT 9999 FEW016 BKN042 26/21 Q1016=
TNCM 101800Z 07014KT 9999 FEW019 SCT040 28/18 Q1017 A3003
     NOSIG=

0000011200
313
SAUS75 KWBC 101800 RRB
METAR
PHLI 101805Z 05012G19KT 10SM SCT021 SCT027 SCT039 23/19 A3004=

0000009300
314
SATH33 VTBB 101800 RRA
METAR VTUK 101800Z 08004KT CAVOK 21/18 Q1017 A3004=

0000009500
315
SACA31 KWBC 110100 RRB
METAR
MKJS 110100Z 10009KT 9999 FEW022 26/21 Q1015=

0000008900
316
SAMP31 LMMM 110200 RRA
METAR HLLT 110150Z
18006KT CAVOK 10/05 Q1022=

0000016900
317
SALV32 EVRA 110150
METAR EVLA 110150Z AUTO 28007KT 250V330 9999 OVC013 02/M00 Q1003=
METAR EVVA 110150Z AUTO 29010KT 9999 FEW019 OVC026 02/00 Q1001=

0000015000
318
SADN33 EKCH 110150
METAR EKKA 110150Z 23010KT 9999 FEW012 BKN024 07/06 Q1005=
METAR EKSP 110150Z 23011KT 8000 BKN007 06/05 Q1008=

0000235300
319
SPUS70 KWBC 110122
SPECI
KAUW 110118Z AUTO 07004KT 2SM -SN BR OVC008 M02/M03 A2952 RMK AO2
     UPE01SNB01 P0001 I1000 T10221028=
KBEH 110118Z AUTO 15009KT 4SM -RA BR FEW007 BKN011 OVC050 03/03
     A2968 RMK AO2 P0004=
KBGM 110118Z 16008KT 7SM OVC008 01/M01 A3017 RMK AO2=
KBOK 110118Z AUTO 12004KT 4SM BR FEW009 OVC020 09/09 A3018 RMK AO2
     $=
KBRL 110118Z AUTO 20008KT 2SM BR OVC002 04/04 A2952 RMK AO2
     T00440044=
KEAU 110118Z 02003KT 2 1/2SM -SN BR FEW007 BKN017 OVC030 M02/M03
     A2954 RMK AO2 P0000 T10171028=
KLSE 110118Z 29005KT 2 1/2SM BR BKN003 OVC019 M01/M02 A2953 RMK
     AO2 T10061017 $=
KM19 110118Z AUTO 12011KT 3/4SM -RA BR BKN110 07/07 A2972 RMK AO2
     P0007=
KMEM 110118Z 16011KT 10SM FEW018 OVC027 12/10 A2975 RMK AO2=
KOTM 110118Z AUTO 27004KT 1/4SM FG VV003 01/01 A2953 RMK AO2
     T00110006 TSNO=
KRSL 110118Z AUTO 29009KT 10SM SCT023 BKN032 OVC075 02/01 A2964
     RMK AO2 RAE09UPB09E12 P0001 T00220011=
KSHN 110118Z AUTO 13004KT 4SM RA BR FEW005 BKN025 OVC029 07/07
     A2987 RMK AO2 P0005 T00720067 TSNO=
KTOI 110118Z AUTO 12004KT 2SM BR OVC003 14/13 A3003 RMK AO2
     T01390133=
KUTS 110118Z AUTO 21009G17KT 10SM FEW010 SCT027 19/17 A2980 RMK
     AO2=
PAHC 110118Z AUTO 36012KT 4SM -SN FEW035 BKN047 OVC070 M16/M20
     A2955 RMK AO2 TSNO BKN V SCT BLSNB0058E18 P0000 $=
PAIG 110119Z AUTO 04004KT 10SM UP SCT010 OVC014 M04/M05 A2945 RMK
     AO2 TSNO UPB10 P0000 $=
PAOO 110119Z AUTO 05024KT 3SM -SN BR FEW016 OVC027 M06/M08 A2935
     RMK AO2 TSNO P0000 PK WND 05029/0109 $=
KASE 110119Z 00000KT 1 3/4SM -SN BR SCT013 OVC023 M06/M07 A2994
     RMK AO2 P0000 T10611067=
KBLF 110119Z AUTO VRB06G15KT 10SM OVC004 10/07 A3008 RMK AO2=
KCHO 110119Z 00000KT 3/4SM -RA BR BKN004 02/01 A3023 RMK AO2 P0001
     T00170011=
KFFC 110119Z AUTO 12006KT 3/4SM -RA BR OVC002 09/09 A3008 RMK AO2
     LTG DSNT NW P0000 T00890089=
KHPN 110119Z 00000KT 1/2SM R16/4000V6000FT -DZ BR OVC002 01/00
     A3029 RMK AO2 P0000=
KLBT 110119Z AUTO 25003KT 2 1/2SM -RA BR OVC005 17/17 A3013 RMK
     AO2 VIS 1V5 P0002 T01670167=
KMTO 110119Z AUTO 21012G21KT 2SM +RA OVC003 05/M01 A2971 RMK AO2
     PRESRR P0009 T00501006 TSNO=
KVAY 110119Z AUTO 00000KT 3/4SM UP BR VV004 02/01 A3030 RMK AO2
     RAE10UPB10 P0000 T00170011=

0000009800
320
SPUS31 KWBC 110122
SPECI
KMEM 110118Z 16011KT 10SM FEW018 OVC027 12/10 A2975=

0000031600
321
FTUS52 KWBC 110124 AAA
TAF AMD
KHIE 110121Z 1101/1124 00000KT 6SM BR BKN030
     FM110600 00000KT 3SM -FZDZ BR OVC015
     FM111000 00000KT 1SM -FZRA BR OVC005 WS020/19045KT
     FM111300 14008G18KT 2SM -RA BR OVC008 WS020/19045KT
     FM111600 18008G18KT 3SM RA BR OVC010 WS020/19055KT=

0000031600
322
FTUS80 KWBC 110124 AAA
TAF AMD
KHIE 110121Z 1101/1124 00000KT 6SM BR BKN030
     FM110600 00000KT 3SM -FZDZ BR OVC015
     FM111000 00000KT 1SM -FZRA BR OVC005 WS020/19045KT
     FM111300 14008G18KT 2SM -RA BR OVC008 WS020/19045KT
     FM111600 18008G18KT 3SM RA BR OVC010 WS020/19055KT=

0000011700
323
SPCN31 CWAO 110118
SPECI CYWG 110118Z 30009KT 2SM -FZDZ BR OVC004 M07/M08 A2942 RMK ST8
 SLP978=

0000011200
324
SPUS41 KWBC 110123
SPECI
KDOV 110120Z AUTO 05002KT 3/4SM R01/4500FT -RA BR CLR 04/04 A3025=

0000011700
325
SPUS41 KWBC 110123
SPECI
KHPN 110119Z 00000KT 1/2SM R16/4000V6000FT -DZ BR OVC002 01/00
A3029=

00000000