0000080500
746
SARS35 RUMS 102330
METAR USPP 102330Z 19003MPS 9999 SCT008 BKN086 M05/M06 Q1007 21350139
NOSIG RMK QFE745/0993=
METAR UWKD 102330Z 16008G11MPS 5000 BR OVC003 M00/M00 Q1002
R11/2/0050 TEMPO OVC003 RMK QFE741/0989=
METAR UWKE 102330Z 19004MPS 0300 R21/0800D FZFG VV001 M04/M05 Q1005
NOSIG RMK  QBB050 QFE737/0983 21420542=
METAR UWKS 102330Z 15007MPS 2700 BR OVC002 M00/M01 Q0998 NOSIG RMK
QBB080 QFE735 24290250=
METAR UWLW 102330Z NIL=
METAR UWOR 102330Z NIL=
METAR UWOO 102330Z 21002MPS 0350 R08/0900N FZFG VV002 M01/M02 Q1009
08590332 NOSIG RMK QBB070 QFE746/0995=
METAR UWSS 102330Z 18006MPS 0300 R12/0800 VV002 00/M00 Q1005 1219//55
NOSIG RMK QFE743=
METAR UWWW 102330Z 19004MPS 9999 OVC004 M00/M01 Q1006 23520540
33//99// NOSIG RMK QBB130 QFE743/0991=

0000042600
747
SARA33 RUMS 102330
METAR UIAA 102330Z 05004MPS 9999 FEW100 SCT200 M26/M31 Q1025 NOSIG
RMK QFE710 29CLRD70=
METAR UIBB 102330Z 06001MPS 5000 BR SCT006 M24/M26 Q1028 NOSIG RMK
QFE727/0970 30490240=
METAR UIII 102330Z 06002MPS 010V080 9999 SCT020 BKN200 M21/M24 Q1032
NOSIG RMK QFE728/0971 30490340=
METAR UIUU 102330Z 18002MPS 5000 -SN SCT033 OVC100 M14/M15 Q1029
NOSIG RMK QFE727/0969 26450545=

0000097700
748
SARA34 RUMS 102330
METAR UNAA 102330Z 23003MPS CAVOK M04/M09 Q1030 NOSIG RMK QFE749
20090040=
METAR UNBB 102330Z 21005MPS 9999 -SN BKN014 M09/M11 Q1030 NOSIG RMK
QFE750/1000 24400545=
METAR UNEE 102330Z 19006MPS 2200 SN OVC008 M08/M09 Q1026 NOSIG RMK
QFE747 23452045=
METAR UNKL 102330Z 22003G06MPS 9999 -SHSN SCT033CB OVC083 M07/M11
Q1026 NOSIG RMK QFE744 29////50=
METAR UNNT 102330Z 21006MPS 9000 DRSN BKN022 OVC047CB M07/M10 Q1027
25390139 16390136 NOSIG RMK QFE761/1014=
METAR UNOO 102330Z 20004MPS 4500 -SHSN BKN033CB M07/M09 Q1022
25390137 NOSIG RMK QFE758=
METAR UNTT 102330Z 22007MPS 1900 SHSN SCT004 BKN016CB OVC066 M07/M08
Q1024 TEMPO SCT002 RMK QBB120 QFE753 21390032=
METAR USTR 102330Z 17004MPS 130V200 9999 -SHSN BKN010CB OVC050
M04/M05 Q1012 TEMPO 1500 SHSN BKN005 RMK QFE749/0999 21390050
12750029=
METAR USHH 102330Z 04003MPS 9999 -SN BKN010 OVC080 M21/M24 Q1016
TEMPO 2000 SN BKN005 RMK QFE759 06////37=

0000047800
749
SARS33 RUMS 102330
METAR ULLI 102330Z 34007MPS 320V020 9999 OVC015 M02/M04 Q0986
28550540 78////// NOSIG=
METAR UUBW 102330Z 21005MPS 9999 OVC012 04/02 Q0987 NOSIG=
METAR UUDD 102330Z 24003MPS 9999 BKN008 OVC026 04/03 Q0987 64290195
NOSIG=
METAR UUDL 102330Z NIL=
METAR UUEE 102330Z 19004MPS 9999 OVC010 03/02 Q0986 75290151 25290151
NOSIG=
METAR UUWW 102330Z 19004MPS 9999 BKN020 OVC100 03/02 Q0986 24290045
NOSIG=
METAR UUMO 102330Z NIL=

0000013900
750
SARA35 RUMS 102330
METAR USCM 102330Z VRB01MPS 5000 BR OVC021 M07/M08 Q1008 TEMPO 0300
FZFG VV002 19490532 RMK QFE719=

0000012300
751
SARA31 RUMS 102330
METAR UEEE 102330Z 22001MPS 2400 BR OVC200 M44/M49 Q1035 NOSIG RMK
QFE767 23490145=

0000019800
752
FTCN31 CWAO 102300
TAF CYWH 102338Z 1100/1105 13010KT P6SM -RA SCT006 OVC025 TEMPO
     1100/1105 2SM -SHRA BR FEW003 BKN006 OVC015
    RMK NXT FCST WILL BE ISSUED AT 111515Z=

0000022200
753
FTCN31 CWAO 102300
TAF CYCD 102338Z 1100/1105 12003KT P6SM -RA SCT006 OVC025 TEMPO
     1100/1105 2SM -SHRA BR SCT004 OVC006
     BECMG 1100/1102 13008KT
    RMK NXT FCST WILL BE ISSUED AT 111545Z=

0000037800
754
FTCN31 CWAO 102300
TAF CYYJ 102338Z 1100/1124 14010KT P6SM SCT020 BKN050 TEMPO 1100/1101
     5SM -RA BR BKN020
    FM110100 14010KT 6SM -RA SCT007 OVC025 TEMPO 1101/1110 2SM -RA BR
     BKN007 OVC020
     BECMG 1105/1107 15010G20KT
    FM111000 23015G25KT P6SM SCT012 BKN030 TEMPO 1110/1124 5SM -SHRA
     BR OVC012
    RMK NXT FCST BY 110600Z=

0000049400
755
FTCN31 CWAO 102300
TAF CYVR 102338Z 1100/1206 07008KT P6SM SCT015 OVC040 TEMPO 1100/1101
     5SM -RA BR BKN015 OVC040
    FM110100 09012KT 6SM -RA BR SCT007 OVC015 TEMPO 1101/1110 2SM -RA
     BR BKN007 OVC015
     BECMG 1101/1103 10015G25KT
    FM111000 19012G22KT P6SM SCT015 BKN040 TEMPO 1110/1203 5SM -SHRA
     BR BKN015
     BECMG 1117/1119 19020G30KT
    FM120300 30015G30KT P6SM FEW050
     BECMG 1203/1205 30030G40KT
    RMK NXT FCST BY 110300Z=

0000039800
756
FTCN31 CWAO 102300
TAF CYXX 102338Z 1100/1124 18008KT P6SM -SHRA SCT006 OVC025 TEMPO
     1100/1109 2SM -RA BR BKN006 OVC015
     BECMG 1102/1104 08007KT
    FM110900 20015G25KT 6SM -RA SCT006 OVC015 TEMPO 1109/1114 2SM -RA
     BR BKN006 OVC015
    FM111400 20015G25KT P6SM SCT012 BKN050 TEMPO 1114/1124 5SM -SHRA
     BR BKN012 OVC030
    RMK NXT FCST BY 110600Z=

0000024400
757
SARS31 RUMS 102330
METAR ULWC 102330Z NIL=
METAR UUBP 102330Z NIL=
METAR UUOB 102330Z NIL=
METAR UUOK 102330Z NIL=
METAR UWGG 102330Z 17006MPS 4800 -SN OVC007 01/00 Q0991 TEMPO 1000
SHSNRA VV004 18690540 RMK QFE736=

0000091600
758
FTCA32 KWBC 102339
TAF
TIST 102336Z 1100/1124 08010KT P6SM FEW030
     FM111230 08015G23KT P6SM FEW035
     FM112100 09013KT P6SM FEW030=
TISX 102336Z 1100/1124 06007KT P6SM VCSH FEW030
     FM111230 09016G23KT P6SM SCT025
     FM112200 08012KT P6SM SCT025=
TJBQ 102336Z 1100/1124 10008KT P6SM FEW030
     FM111400 08020G27KT P6SM SCT020
     FM112200 09014KT P6SM SCT020 AMD NOT SKED 1102/1111=
TJMZ 102336Z 1100/1124 07007KT P6SM FEW040
     FM111530 08008KT P6SM SCT030 AMD NOT SKED TIL 111600=
TJPS 102336Z 1100/1124 06005KT P6SM FEW030
     FM111500 13010KT P6SM SCT030
     FM112230 09007KT P6SM FEW030 AMD NOT SKED TIL 110300=
TJSJ 102336Z 1100/1124 08008KT P6SM FEW025
     FM110400 VRB04KT P6SM VCSH FEW025
     FM111330 07016G25KT P6SM SCT025=
TKPK 102336Z 1100/1124 06012KT P6SM VCSH FEW020
     FM111300 06016KT P6SM SCT020 AMD NOT SKED 1102/1111=

0000012800
759
FTCA33 KWBC 102339
TAF
TNCM 102336Z 1100/1124 07011KT P6SM VCSH FEW020
     FM111300 09014KT P6SM SCT020=

0000080500
760
SARS32 RUMS 102330
METAR URKA 102330Z NIL=
METAR URKK 102330Z 22008G11MPS CAVOK 08/01 Q1010 TEMPO 22010G15MPS
RMK QFE754 SC065=
METAR URML 102330Z NIL=
METAR URMM 102330Z 30002MPS 6000 SCT160 M04/M05 Q1011 30CLRD70 NOSIG
RMK QFE730/0974=
METAR URMN 102330Z NIL=
METAR URMO 102330Z NIL=
METAR URMT 102330Z 19002MPS CAVOK M01/M03 Q1010 NOSIG RMK QFE719
SC0.60=
METAR URRR 102330Z 23009G13MPS 9999 OVC014 07/05 Q1007 22290045 TEMPO
24010G15MPS=
METAR URSS 102330Z 05004G07MPS 9999 SCT230 03/M02 Q1016 NOSIG RMK
R06/08005MPS QFE760 02000070 06//////=
METAR URWA 102330Z 20003MPS 9999 OVC033 02/M01 Q1015 NOSIG RMK
QFE763/1018 SC055=
METAR URWI 102330Z NIL=
METAR URWW 102330Z 20007MPS 4000 -RA BR BKN016 OVC100 02/02 Q1008
TEMPO 1000 OVC004 RMK 29290060=

0000053600
761
SARS36 RUMS 102330
METAR ULAA 102330Z 07008G11MPS 8000 -SN DRSN OVC012 M17/M20 Q1001
TEMPO 0600 SN BLSN OVC005 RMK QFE750/1000 SC050=
METAR ULMM 102330Z 00000MPS 9000 BKN002 M33/M37 Q1017 NOSIG RMK
QBB080 OBST OBSC QFE755 31450239=
METAR ULOO 102330Z NIL=
METAR ULPB 102330Z NIL=
METAR UMKK 102330Z NIL=
METAR UUOO 102330Z 23005G08MPS 7000 -RA OVC004 02/01 Q0995 NOSIG RMK
12290250=
METAR UUYY 102330Z 02004MPS 2300 -SHSN BR BKN015CB OVC066 M15/M16
Q1004 TEMPO 0700 +SHSN 0145//33 RMK QFE743/0991=

0000025400
762
FTUS31 KWBC 102339 RRA
TAF
KPIT 102337Z 1100/1206 15005KT P6SM BKN009 OVC025
     FM110500 13006KT P6SM BKN015 OVC025 WS020/22045KT
     FM111000 18010KT 4SM -RA OVC009 WS020/22050KT
     FM112100 23012G24KT P6SM BKN015 OVC025=

0000131800
763
FTUS31 KWBC 102339
TAF
KBHM 102337Z 1100/1124 12005KT P6SM BKN007 BKN030 OVC045
     FM110400 18013G18KT 3SM -DZ BR OVC003
      TEMPO 1111/1115 2SM -TSRA BR OVC003CB
     FM111500 26015G21KT P6SM BKN100=
KCLE 102336Z 1100/1206 16012KT 6SM BR OVC006
     FM110400 18012KT 4SM -RA BR OVC006
     FM111800 22010G20KT 4SM -RA BR OVC007
     FM112000 24010G20KT 4SM -RA BR OVC015
     FM120300 24010G20KT 5SM -RASN OVC015=
KIAH 102338Z 1100/1206 18009KT P6SM BKN015 OVC030
     FM110200 19007KT 5SM BR SCT007 BKN015
     FM110600 24005KT P6SM SCT005 BKN012
     FM110900 27004KT P6SM SCT010
     FM111200 33010KT P6SM SKC=
KMSY 102337Z 1100/1124 12008KT 3SM BR OVC002
      TEMPO 1105/1109 2SM TSRA OVC006CB
     FM110900 21012KT 3SM -RA OVC008
     FM111300 25012KT 5SM BR OVC015
     FM111600 30010KT P6SM SCT250=
KMTH 102335Z 1100/1124 12006KT P6SM FEW020 FEW060
     FM110600 13006KT P6SM FEW020 SCT150
     FM111800 19006KT P6SM FEW025=
KORD 102338Z 1100/1206 16012G19KT 4SM -RA BR OVC007
      TEMPO 1100/1102 2SM RA BR OVC005
     FM110400 19012G18KT 1SM -DZ BR VCSH OVC004
     FM110800 22012KT 3SM BR VCSH OVC004
     FM111200 26012G18KT P6SM VCSH BKN007 OVC012
     FM111500 28014G22KT P6SM BKN018
     FM112100 27014G22KT P6SM SCT020=

0000143800
764
FTUS41 KWBC 102339
TAF
KAGC 102337Z 1100/1124 12005KT P6SM BKN015 OVC025
     FM110600 13006KT P6SM BKN015 OVC025 WS020/22045KT
     FM111100 18010KT 4SM -RA OVC009 WS020/22050KT
     FM112200 23012G24KT P6SM BKN015 OVC025=
KART 102337Z 1100/1124 14003KT P6SM OVC021
     FM110900 15011KT P6SM OVC015 WS020/19040KT
     FM111100 16015KT 3SM -RA BR OVC015 WS020/19045KT
     FM111500 17018G25KT 1SM -RA BR OVC003 WS020/20045KT
     FM111900 21017KT 1SM RA BR OVC008 WS020/20045KT=
KBUF 102337Z 1100/1124 16006KT P6SM SCT025 OVC050
     FM110800 17014G23KT 5SM -RA BR OVC020 WS020/20045KT
     FM111300 19015KT 3SM -RA BR OVC015
     FM112000 21015KT 5SM -RA BR BKN035 OVC050=
KCAK 102336Z 1100/1124 17006KT 1/4SM FG VV004
     FM110700 18012KT 1/4SM -DZ FG VV001
     FM111000 19012KT 1/2SM -RA FG OVC001
     FM111200 20012KT 4SM -RA BR OVC003
     FM111800 23012KT 4SM -DZ BR OVC003
     FM112000 24015G25KT 6SM BR OVC015=
KERI 102336Z 1100/1124 16011KT P6SM OVC050
     FM110100 16015G25KT P6SM OVC025
     FM110600 17015G25KT 6SM -RA BR OVC015
     FM110800 18010G20KT 4SM -RA BR OVC015
     FM111400 18011KT 4SM -RA BR OVC003
     FM111900 21010G20KT 4SM -RA BR OVC003=
KIAG 102337Z 1100/1124 18006KT P6SM OVC015
     FM110800 16012G20KT 5SM -RA BR OVC015 WS020/20040KT
     FM111300 19014KT 3SM -RA BR OVC007
     FM112000 21015KT 5SM -RA BR BKN035 OVC050=

0000029500
765
FTUS41 KWBC 102339 RRA
TAF
KROC 102337Z 1100/1124 14004KT P6SM BKN024 OVC029
     FM110600 16010KT P6SM OVC015 WS020/19040KT
     FM110900 16012KT 3SM -RA OVC007 WS020/20045KT
     FM111400 19014G21KT 2SM -RA BR OVC003
     FM111900 22015KT 5SM -RA BR BKN035 OVC050=

00000000