0000066400
014
FCUR31 UKMS 110700
TAF UKLI 110731Z 1109/1118 26007G12MPS 9999 BKN020
         TEMPO 1109/1118  24010G15MPS 2100 -RA BKN012
         TX08/1112Z TN04/1118Z=
TAF UKON 110735Z 1109/1118 28009G15MPS 9999 BKN010
         BKN020CB=
TAF UKCM 110745Z 1109/1118 27008G15MPS 9999 SCT010
         TEMPO 1109/1118  3100 BR BKN008 TX05/1112Z
         TN02/1118Z=
TAF UKLU 110743Z 1109/1118 14004MPS 6000 SCT006
         BKN015 TEMPO  1109/1115 16006MPS 2000 BR OVC004
         TX04/1112Z TN02/1118Z=
TAF UKLN 110732Z 1109/1118 26006G11MPS 9999 BKN030
         TEMPO 1109/0918 32011G16MPS TX08/1112Z
         TN04/1118Z=
TAF UKKE NIL=
0000009300
015
SAYE20 OYGD 110800
METAR OYGD 110800Z 09018KT 9999 SCT025 BKN060 26/18 Q1017=
0000070200
016
SXXX32 EUMS 111028 RRX
223412A2
OT12 ID:IND-SADENG DT:2014 01 11 10 27
:PRS /1 02095 02079 02138 02161 02206 02109 02130 02018 02140 02211 02161 02141 02157 02103 02138 02082 02068 02129 02088 02107 02184 02145 02085 02114 02184 02006 02138 02148 02129 02088
:ENC /1 -12716 -12716 -12679 -12643 -12619 -12696 -12696 -12763 -12679 -12636 -12639 -12683 -12673 -12696 -12676 -12729 -12733 -12693 -12719 -12696 -12633 -12673 -12713 -12693 -12649 -12749 -12699 -12673 -12689 -12699
:RAD /1 11843 11844 11785 11883 11942 11868 11836 11794 11821 11872 11852 11930 11863 11836 11898 11800 11798 11846 11851 11822 11876 11906 11848 11840 11837 11805 11847 11855 11871 11830
:BAT 12.1V/
0000037900
017
SXXX32 EUMS 111030 RRX
12FD90D0
:PRS 1 /1 1431 1431 1426 1429 1427 1435 1426 1431 1444 1447 1444 1441 :RAD 1 /3 5980 5981 5989 5997 6003 /014 6011 6011 6012 6018 :ENC 3 /6 5723 5740 5759 5760 5770 5771 5725 5712 5723 5756 :RA2 3 /6 4882 4900 4918 4917 4929 4923 4879 4863 4873 4901 :SW1 30 /60 40 :SW2 60 /60 60 :BAT 5 /6 12.8 :WTP 5 /6 28.4 28.5 :NAME 12FD90D0
0000041300
018
SXXX32 EUMS 111030 RRX
262D700E
:PRS 1 /1 2126 2137 2124 2096 2041 2065 2077 2036 2088 2080 2101 2098 2133 2078 2075 2072 2056 2083 2038 2048 2049 2027 2020 2044 2030 2045 2030 2002 1994 1996 :RAD 1 /3 4525 4517 4524 4517 4496 4483 4479 4467 4450 4442 4443 4437 4418 4410 4414 :ENC 5 /5 4616 4644 4591 4587 4565 4540 4552 4504 4531 4489 4498 4463 :SW1 30 /60 60 :BAT 14 /15 13.5 :NAME 262D700E /
0000045700
019
SXXX32 EUMS 111030 RRX
324DF524
:PRS 1 /1 2471 2476 2481 2486 2492 2497 2502 2508 2513 2518 2523 2529 2534 2539 2544 2550 2555 2560 2565 2571 2575 2581 2586 2592 2597 2602 2608 2613 2619 2624 :RAD 1 /3 2497 2513 2529 2545 2564 2580 2596 2613 2630 2647 2662 2678 2695 2712 2733 2752 2773 2792 2808 2827 :ENC 5 /5 1457 1483 1508 1535 1562 1588 1615 1644 1671 1700 1730 1761 :SW1 30 /60 0 0 :SW2 60 /60 60 60 :BAT 14 /15 12.5 :NAME 324DF524 /
0000045100
020
SXXX32 EUMS 111030 RRX
16289262
:PRS 1 /1 2176 2185 2178 2190 2175 2184 2168 2177 2175 2164 2165 2192 2162 2189 2176 2179 2178 2171 2180 2187 2168 2179 2178 2183 2185 2173 2163 2182 2180 2170 :RAD 1 /3 7632 7633 7632 7635 7639 7636 7633 7635 7632 7633 7634 7636 7636 7637 7638 7634 7633 7633 7636 7636 :ENC 5 /5 5003 4997 5001 4993 4998 5001 4997 5002 5005 5000 4996 5005 :SW1 30 /60 0 :SW2 60 /60 0 :BAT 14 /15 13.0 :NAME 16289262 /
0000050500
021
SXXX32 EUMS 111030 RRX
22BF90A6
:PRS 1 /1 104/ 1451 1057 1046 1054 105/ 1448 1055 1053 1065 1057 1456 1047 1049 1051 :RA/ 1 /3 4240 4242 4243 4239 4640 4650 466/ 4263 4262 426/ :SW1 30 /60 60 :SW2 64 /60 60 :WTP 15 /15/2/.9/:BAT 13 /15/14/2 :WAV 10//10 6.5 6.7 6.4 :DAV 10 /10 112 105 109/:WMX 10 /50 8.2 8.2/7.9 :TPA 15 /15 28.0 :TMN /30 /720 27.1 :TMX 630 /7/0 28.1 :H/M 55 /15 79.4 :PRE 15 /15 1014.2 :RAC 29 /60 0.0 :RDU 29 /60 0 :RIN 29 /60 0.0 :DAC 629 //440 0.4 :DDR 6/9 /1440 330
0000045100
022
SXXX32 EUMS 111031 RRX
1227146C
:PRS 1 /1 3544 3538 3533 3533 3527 3524 3521 3517 3512 3508 3505 3504 3497 3493 3490 3486 3479 3475 3472 3467 3461 3455 3450 3446 3442 3437 3434 3429 3425 3423 :RAD 3 /3 3517 3507 3478 3460 3460 3456 3427 3426 3395 3401 3400 3382 3363 3367 3366 3324 3305 3304 3293 3274 :ENC 1 /5 4285 4267 4248 4224 4198 4178 4160 4139 4117 4093 4065 4044 :SW1 32 /60 0 :SW2 2 /60 60 :BAT 14 /15 12.9 :NAME 1227146C /
0000042200
023
SXXX32 EUMS 111031 RRX
26CB10AC
:PRS 1 /1 -1336 -1336 -1336 -1336 -1336 -1337 -1336 -1337 -1337 -1336 -1336 -1337 -1337 -1338 -1337 -1337 -1337 -1337 -1337 -1337 -1337 -1337 -1337 -1337 -1337 -1337 -1336 -1337 -1338 -1337 :RAD 3 /3 5796 5795 5791 5791 5787 5789 5787 5790 5787 5787 :RA2 3 /3 5772 5773 5763 5767 5758 5763 5752 5768 5752 5760 :SW1 32 /60 60 :SW2 2 /60 60 :BAT 14 /15 12.9 :NAME 26CB10AC /
0000053700
024
SXXX32 EUMS 111031 RRX
3246B586
:PRS 1 /1 13273 13714 13714 13269 13714 13714 13714 13714 13714 13714 13714 13714 13698 13268 13714 :RAD 3 /3 7305 7312 7303 7302 7301 7308 7317 7322 7329 7336 :ENC 10 /15 5280 5280 :SW1 32 /60 0 :SW2 2 /60 0 :WTP 1 /15 -4.7 :BAT 13 /15 13.9 :WAV 1 /10 10.2 9.5 9.5 :DAV 1 /10 30 35 37 :WMX 1 /10 17.1 17.3 16.4 :TPA 1 /15 29.1 :TMN 631 /720 25.9 :TMX 631 /720 27.6 :HUM 1 /15 72.8 :PRA 1 /15 1009.2 :RAC 31 /60 0.0 :RDU 31 /60 40 :RIN 31 /60 0.0 :DAC 631 /1440 10.9 :DDR 631 /1440 16460
0000010900
025
UANT99 KDDL 111031
ARP SIA26 5400N01945W 1031 F390 MS55 247/53 KT
9VSKS QXT EUA 111031 J79A
0000011000
026
UANT99 KDDL 111031
ARP DAL39 5302N01600W 1031 F310 MS55 245/70 KT
N845MH QXT AOE 111031 F94A
0000011000
027
UANT99 KDDL 111031
ARP UAL56 5103N01553W 1031 F320 MS56 240/73 KT
N66051 DDL BYT 111031 F05A
0000011000
028
UANT99 KDDL 111031
ARP KLM686 5454N04142W 1031 F370 MS58 282/34 KT
PHBFC QXT AOW 111031 F81A
0000011000
029
UANT99 KDDL 111031
ARP UAL22 5302N01912W 1032 F350 MS66 231/76 KT
N17126 DDL IG1 111032 F38A
0000011000
030
UANT99 KDDL 111032
ARP DLH499 5505N03248W 1031 F350 MS59 195/49 KT
DABYG QXT AME 111032 F09A
0000009400
031
UABZ24 SBCW 111033
ARP TAM8003 3204S 05350W 1025 F290 MS25 280/80 TURB MOD=

0000013600
032
SNVD17 CWVR 111000
BBXX
46206 11101 99488 71260 46/// /2309 10086 49913 52002
22200 00078 10909 70044 333 91212 =

0000013600
033
SNVD17 CWVR 111000
BBXX
46205 11101 99542 71343 46/// /0514 10033 49790 52005
22200 00074 10808 70040 333 91217 =

00000000