0000024500
566
SAUK34 EGGY 110050
METAR EGHE 110050Z NIL=
METAR EGHK 110050Z NIL=
METAR EGHQ 110050Z NIL=
METAR EGJA 110050Z NIL=
METAR EGJB 110050Z NIL=
METAR EGJJ 110050Z NIL=
METAR EGTE 110050Z 21009KT 9999 SCT030 08/07 Q1012=

0000028200
567
SAUK35 EGGY 110050
METAR EGHH 110050Z NIL=
METAR EGKA 110050Z NIL=
METAR EGKB 110050Z NIL=
METAR EGLF 110050Z NIL=
METAR EGMC 110050Z 21009KT 9999 -RA SCT016 BKN048 08/06 Q1013=
METAR EGMD 110050Z NIL=
METAR EGMH 110050Z NIL=
METAR EGTC 110050Z NIL=

0000037100
568
SAUK36 EGGY 110050
METAR EGBE 110050Z 21010KT 9999 FEW015 SCT022 BKN032 08/06 Q1010=
METAR EGBJ 110050Z NIL=
METAR EGCN 110050Z 22012KT 9999 FEW035 08/06 Q1009=
METAR EGSC 110050Z NIL=
METAR EGSD 110050Z NIL=
METAR EGSH 110050Z AUTO 21009KT 180V240 9999 RA FEW039/// 08/06
    Q1011 REDZ=
METAR EGVN 110050Z NIL=
METAR EGWU 110050Z NIL=

0000030000
569
SAUK37 EGGY 110050
METAR EGAE 110050Z NIL=
METAR EGNC 110050Z NIL=
METAR EGNH 110050Z NIL=
METAR EGNJ 110050Z NIL=
METAR EGNO 110050Z NIL=
METAR EGNR 110050Z NIL=
METAR EGPE 110050Z AUTO 21014KT 9999 NCD 02/M01 Q1005=
METAR EGPI 110050Z NIL=
METAR EGPN 110050Z NIL=

0000047000
570
SAUK38 EGGY 110050
METAR EGEC 110050Z NIL=
METAR EGEO 110050Z NIL=
METAR EGPA 110050Z AUTO 25013KT 9999 SCT026/// SCT043/// 05/02
    Q1001=
METAR EGPC 110050Z AUTO 22005KT 170V240 9999 NCD 02/M01 Q1003=
METAR EGPL 110050Z AUTO 24016KT 9999 // FEW027/// 04/02 Q1005=
METAR EGPM 110050Z AUTO 29017G27KT 9999 SCT020/// BKN035/// 06/02
    Q0997 RERA=
METAR EGPO 110050Z AUTO 23006KT 9999 FEW037/// 02/M00 Q1004=
METAR EGPU 110050Z NIL=

0000008800
571
SPCN51 CWAO 110053
SPECI CWOB 110053Z AUTO 05007KT BKN001 M22/ A2920=

0000042400
572
SASW32 LSSW 110050
METAR LSGC 110050Z AUTO 28001KT CAVOK 01/01 Q1017=
METAR LSGS 110050Z NIL=
METAR LSZG 110050Z AUTO 03003KT 0150 FG VV002 02/02 Q1019=
METAR LSZR 110050Z AUTO 22002KT 0100 R10/0400N FG VV000 02/01 Q1019=
METAR LSZS 110050Z NIL=
METAR LSZC 110050Z AUTO 26002KT 0200 FG VV002 01/01 Q1019=
METAR LSZL 110050Z AUTO 07003KT 040V100 9999NDV OVC047 06/05 Q1022
           RMK WHT=

0000041300
573
FTUS71 KWBC 110054 AAA
TAF AMD
KCMH 110051Z 1101/1124 14009KT P6SM SCT025 BKN080
     FM110500 16010KT 5SM BR VCSH OVC015
     FM110800 17012KT 4SM -RA BR OVC008
     FM111400 23014G23KT P6SM VCSH OVC012=
KLCK 110051Z 1101/1124 14009KT P6SM SCT025 BKN100
     FM110500 16010KT 5SM BR VCSH OVC015
     FM110800 17012KT 4SM -RA BR OVC008
     FM111400 23014G23KT P6SM VCSH OVC012=

0000023100
574
FTUS41 KWBC 110054 AAA
TAF AMD
KCMH 110051Z 1101/1124 14009KT P6SM SCT025 BKN080
     FM110500 16010KT 5SM BR VCSH OVC015
     FM110800 17012KT 4SM -RA BR OVC008
     FM111400 23014G23KT P6SM VCSH OVC012=

0000080700
575
SASN32 ESWI 110050
METAR ESKN 110050Z VRB02KT 9999 SCT014 BKN019 M03/M05 Q1002
R26/710195=
METAR ESOE 110050Z AUTO 12007KT 4900NDV -PL FEW008/// SCT009///
OVC011/// M02/M03 Q1000 RESG RESN=
METAR ESOK 110050Z AUTO 09004KT 9999 FEW004/// OVC006/// 00/00
Q0997=
METAR ESOW 110050Z AUTO 07004KT 4600NDV -SN FEW008/// SCT013///
BKN020/// M04/M06 Q1002 RESG=
METAR ESSA 110050Z 32007KT 9999 BKN008 M04/M05 Q1001 R01L/19//71
R08/19//58 R01R/19//68 TEMPO BKN018=
METAR ESSB 110050Z AUTO 28008KT 9999NDV BKN008/// OVC018///
M03/M05 Q1002=
METAR ESSD 110050Z AUTO 08006KT 0900 R32/P1500N SN VV002 M06/M08
Q1000=
METAR ESSP 110050Z AUTO 14006KT 5000NDV -SN FEW012/// SCT016///
BKN028/// M02/M02 Q1002=
METAR ESSV 110050Z AUTO 29011KT 9999NDV OVC011/// M00/M02 Q1003=

0000072000
576
SASN33 ESWI 110050
METAR ESNG 110050Z AUTO 34005KT 300V020 9999 NCD M17/M19 Q1012=
METAR ESNK 110050Z AUTO 33011KT 2500 -SN FEW006/// SCT014/// M10/M13
Q1005=
METAR ESNN 110050Z AUTO 33010KT 6000NDV -SN FEW025/// SCT032///
M10/M12 Q1004 R16/49/79=
METAR ESNO 110050Z AUTO 36011KT 9999 -SN OVC019/// M11/M15 Q1003=
METAR ESNQ 110050Z AUTO 02006KT 9999NDV -SN SCT002/// OVC008///
M16/M17 Q1012=
METAR ESNS 110050Z AUTO 36013KT //// VV007 M13/M14 Q1006=
METAR ESNU 110050Z 34014KT 4200 -SN FEW028 OVC036 M11/M14 Q1004
R14/49//50=
METAR ESNZ 110050Z AUTO VRB02KT 9999NDV -SN BKN046/// M14/M16
Q1002 RESG=
METAR ESUT 110050Z AUTO VRB08G20KT 110V330 9999 BKN064/// M13/M19
Q1005=

0000009000
577
SACY41 EGRR 111050
METAR LCRA 111050Z 26011KT 9999 SCT048 18/08 Q1022 BLU=
0000012800
578
SNCY40 EGRR 111100
AAXX 11114
17601 42682 32611 10178 20082 30188 40219 58022 83500
  333 55304 2//// 83648=
0000253500
579
UDFR01 LFPW 111054
AMDAR 1110
ASC EU3670 4326N 00513E 111037 F001 PS120 /// 004/003 TB1 S031
333 F001 VG021=
ASC EU3670 4325N 00513E 111038 F009 PS102 /// 122/003 TB1 S031
333 F009 VG040=
UNS EU3670 4325N 00514E 111038 F018 PS082 /// 129/005 TB0 S031
333 F018 VG011=
UNS EU3670 4326N 00517E 111039 F028 PS055 /// 208/007 TB1 S031
333 F028 VG022=
UNS EU3670 4327N 00517E 111039 F036 PS040 /// 213/008 TB2 S031
333 F036 VG037=
UNS EU3670 4328N 00516E 111039 F050 PS032 /// 211/012 TB2 S031
333 F050 VG048=
UNS EU3670 4330N 00516E 111040 F061 PS050 /// 214/018 TB0 S031
333 F061 VG004=
ASC EU3670 4331N 00515E 111040 F074 PS027 /// 221/017 TB1 S031
333 F074 VG011=
ASC EU3670 4333N 00514E 111040 F088 MS010 /// 269/004 TB2 S031
333 F088 VG051=
ASC EU3670 4336N 00513E 111041 F112 MS060 /// 248/018 TB0 S031
333 F112 VG007=
ASC EU3670 4338N 00512E 111041 F117 MS075 /// 243/023 TB2 S031
333 F117 VG031=
ASC EU3670 4340N 00511E 111042 F128 MS097 /// 247/028 TB1 S031
333 F128 VG011=
ASC EU3670 4341N 00511E 111042 F144 MS135 /// 235/036 TB1 S031
333 F144 VG014=
ASC EU3670 4343N 00510E 111042 F161 MS160 /// 253/021 TB0 S031
333 F161 VG002=
ASC EU3670 4344N 00509E 111043 F178 MS192 /// 255/020 TB0 S031
333 F178 VG000=
ASC EU3670 4347N 00508E 111043 F201 MS247 /// 247/022 TB0 S031
333 F201 VG002=
ASC EU3670 4349N 00507E 111044 F209 MS267 /// 245/022 TB2 S031
333 F209 VG030=
ASC EU3670 4350N 00506E 111044 F213 MS282 /// 241/025 TB0 S031
333 F213 VG001=
ASC EU3670 4354N 00505E 111045 F220 MS297 /// 239/026 TB0 S031
333 F220 VG002=
ASC EU3670 4356N 00505E 111045 F223 MS307 /// 240/028 TB0 S031
333 F223 VG000=
ASC EU3670 4401N 00504E 111046 F232 MS325 /// 232/031 TB0 S031
333 F232 VG003=
ASC EU3670 4402N 00503E 111046 F239 MS340 /// 233/035 TB0 S031
333 F239 VG001=
ASC EU3670 4405N 00502E 111046 F247 MS360 /// 235/036 TB0 S031
333 F247 VG005=
ASC EU3670 4412N 00501E 111047 F266 MS412 /// 227/039 TB0 S031
333 F266 VG004=
ASC EU3670 4417N 00459E 111048 F278 MS445 /// 229/042 TB0 S031
333 F278 VG000=
ASC EU3670 4419N 00459E 111048 F285 MS465 /// 229/040 TB0 S031
333 F285 VG003=
ASC EU3670 4422N 00458E 111049 F292 MS480 /// 234/037 TB0 S031
333 F292 VG002=
ASC EU3670 4427N 00457E 111049 F307 MS502 /// 240/040 TB1 S031
333 F307 VG016=
ASC EU3670 4429N 00456E 111050 F309 MS510 /// 240/043 TB0 S031
333 F309 VG001=
ASC EU3670 4434N 00455E 111050 F310 MS512 /// 237/040 TB0 S031
333 F310 VG005=
0000044500
580
SXXX32 EUMS 111048
22856700
:PRS 1 /1 4021 4021 4017 4021 4028 4021 4017 4029 4031 4034 4028 4023 4036 4027 4014 4015 4021 4014 4011 4011 4015 4019 4022 4016 4015 4019 4016 4014 4019 4020 :RAD 1 /3 7525 7528 7530 7526 7522 7520 7519 7521 7520 7521 7518 7516 7512 7509 7509 7508 7507 7504 7505 7505 :ENC 3 /5 5719 5727 5721 5711 5716 5717 5713 5706 5703 5703 5699 5702 :SW1 48 /60 0 :SW2 18 /60 0 :BAT 14 /15 12.6 :NAME 22856700
0000045100
581
SXXX32 EUMS 111048 RRA
32D8A2BE
:PRS 1 /1 1676 1676 1674 1677 1682 1680 1685 1682 1687 1683 1692 1688 1688 1693 1690 1692 1694 1697 1695 1697 1698 1706 1697 1700 1707 1700 1706 1706 1716 1703 :RAD 1 /3 7257 7262 7267 7272 7274 7277 7279 7280 7284 7289 7292 7302 7302 7306 7312 7318 7325 7333 7338 7347 :ENC 3 /5 4690 4698 4705 4710 4714 4718 4724 4730 4738 4750 4761 4773 :SW1 48 /60 60 :SW2 18 /60 60 :BAT 14 /15 13.1 :NAME 32D8A2BE
0000047700
582
SXXX32 EUMS 111049
262AD2C2
OT12 ID:PK-ORMA-10 DT:2014 01 11 10 48
:PRS /1 06758 06767 06785 06782 06781 06798 06801 06797 06809 06811 06817 06826 06827 06846 06835 06843 06841 06848 06849 06857 06872 06867 06884 06891 06904 06912 06911 06922 06925 06921
:RAD /1 ///// ///// ///// ///// ///// ///// ///// ///// ///// ///// ///// ///// ///// ///// ///// ///// ///// ///// ///// ///// ///// ///// ///// ///// ///// ///// ///// ///// ///// /////
:BAT 13.1V
0000036200
583
SXXX32 EUMS 111051
12FFB3C8
:PRS 1 /1 M 3341 3336 3338 3333 3346 3335 3345 3342 3360 3368 3385 3392 3392 3388 3395 3399 3397 3405 3405 3410 3421 3434 3434 3436 3438 3439 3437 3425 3426 :RAD 1 /3 6281 6289 6310 6333 6341 6352 6367 6373 6368 6358 :ENC 1 /5 -144 -144 -144 -144 -144 -144 :SW1 51 /60 0 :SW2 21 /60 0 :BAT 14 /15 13.9 :NAME 12FFB3C8
0000070100
584
SXXX32 EUMS 111051 RRA
22E7E6D2
OT12 ID:ID-ROTE-11 DT:2014 01 11 10 49
:PRS /1 -10802 -10325 -10798 -10804 -10771 -10771 -10773 -10774 -10805 -10798 -10803 -10806 -10803 -10801 -10804 -10802 -10332 -10797 -10799 -10769 -10770 -10772 -10770 -10803 -10805 -10806 -10803 -10801 -10803 -10801
:PR2 /1 04655 04660 04681 04680 04680 04695 04686 04702 04679 04681 04707 04680 04696 04701 04730 04691 04702 04716 04661 04714 04684 04706 04697 04725 04719 04730 04725 04741 04693 04718
:RAD /1 06294 06230 06226 06209 06254 06270 06237 06278 06258 06238 06201 06234 06221 06242 06266 06218 06270 06266 06225 06278 06242 06246 06262 06286 06262 06282 06262 06278 06306 06286
:BAT 12.4V
0000066700
585
SXXX32 EUMS 111052
32CC9580
OT12 ID:ID-ENGG-07 DT:2014 01 11 10 51
:PRS /1 01798 01829 01777 01809 01712 01765 01737 01753 01778 01838 01829 01775 01786 01778 01755 01763 01732 01773 01762 01789 01764 01736 01765 01738 01727 01741 01720 01799 01748 01762
:PR2 /1 05243 05236 05216 05212 05216 05229 05202 05225 05215 05194 05247 05239 05206 05233 05215 05219 05184 05190 05212 05206 05209 05196 05202 05192 05158 05176 05145 05199 05151 05173
:RAD /1 06117 06136 06095 06119 06096 06087 06081 06080 06092 06079 06122 06113 06098 06098 06088 06105 06063 06099 06079 06073 06102 06079 06104 06072 06079 06051 06051 06078 06050 06064
:BAT 12.5V
00000000