0000011700
106
SACN62 CYBL 102200
METAR CYBL 102200Z 11006KT 10SM FEW013 OVC038 06/05 A2989 RMK SF2SC6
 SLP125=

0000011500
107
SACN62 CZBF 102200
METAR CZBF 102200Z 25002KT 15SM FEW220 M16/M18 A3021 RMK CI1 CI TR
 SLP238=

0000069300
108
SAVN21 SVMR 102200
METAR SVJC 102200Z NIL=
METAR SVLO 102200Z NIL=
METAR SVGI 102200Z NIL=
METAR SVMN 102200Z NIL=
METAR SVVL 102200Z NIL=
METAR SVGU 102200Z 07008KT CAVOK 32/16 Q1010=
METAR SVJM 102200Z /////KT 9999 FEW020 32/01 Q1010=
METAR SVCZ 102200Z NIL=
METAR SVVP 102200Z NIL=
METAR SVVG 102200Z 02004KT 9999 SCT013 SCT100 30/20 Q1008=
METAR SVMD 102200Z 16008KT 9000 VCBR SCT023 21/18 Q1018=
METAR SVCL 102200Z NIL=
METAR SVSA 102200Z /////KT 9999 FEW020 29/18 Q1012=
METAR SVGD 102200Z 07004KT CAVOK 33/17 Q////=
METAR SVSR 102200Z /////KT CAVOK 30/// Q1010=
METAR SVTM 102200Z NIL=
METAR SVPA 102200Z NIL=
METAR SVSE 102200Z NIL=

0000016600
109
FCUK36 EGGY 102000 AAA
TAF AMD EGPB 102205Z 1022/1106 26025G37KT 9999 FEW030 BECMG
    1022/1024 27018KT PROB30 TEMPO 1022/1106 6000 SHRA BKN010=

0000170100
110
SAUS71 KWBC 102200
METAR
KABE 102151Z 00000KT 4SM BR OVC013 01/M02 A3033=
KACK 102153Z 16008KT 10SM OVC023 04/02 A3040=
KACY 102154Z 00000KT 1/4SM -RA FG VV003 05/05 A3033=
KAGC 102153Z 14005KT 10SM SCT008 BKN039 08/06 A3011=
KAGS 102153Z 35005KT 2SM -RA BR OVC005 09/09 A3014=
KAKR 102154Z AUTO VRB04KT 1/4SM FG VV002 04/03 A3005=
KALB 102151Z 18004KT 10SM FEW045 OVC070 01/M03 A3030=
KAND 102156Z AUTO 06006KT 2SM -RA BR OVC004 09/08 A3015=
KAOO 102153Z AUTO 00000KT 6SM HZ CLR 01/M02 A3020=
KAPG NIL=
KART 102156Z AUTO 16004KT 10SM OVC023 02/M02 A3020=
KAVL 102154Z 20004KT 2SM BR OVC003 08/08 A3014=
KAVP 102154Z 20006KT 6SM HZ FEW016 01/M02 A3026=
KBAF 102153Z 00000KT 3SM BR OVC018 M01/M03 A3034=
KBDL 102151Z 13003KT 3SM BR FEW013 SCT028 OVC085 M01/M02 A3034=
KBDR 102152Z 00000KT 1 1/2SM UP BR OVC003 01/01 A3036=
KBED 102156Z AUTO 00000KT 6SM BR SCT019 BKN060 01/M01 A3034=
KBFD 102153Z AUTO 14007KT 1/4SM FG VV002 01/01 A3014=
KBGM 102153Z 18005KT 9SM OVC010 01/M01 A3020=
KBGR 102153Z 00000KT 10SM FEW065 BKN100 M04/M08 A3034=
KBKL 102153Z 15009KT 6SM BR BKN007 OVC060 04/03 A3002=
KBKW 102151Z AUTO 15008KT 10SM BKN007 BKN049 07/05 A3009=
KBOS 102154Z 20005KT 4SM BR FEW009 BKN018 OVC040 01/M01 A3036=
KBTV 102154Z 18007KT 10SM FEW044 OVC065 00/M04 A3027=
KBUF 102154Z 18005KT 9SM OVC017 04/01 A3012=
KBVY 102153Z 17003KT 6SM BR BKN022 OVC080 01/M01 A3035=
KBWI 102154Z 09003KT 3/4SM R10/3500V6000FT -RA BR OVC003 02/01
     A3030=
KCAE 102156Z 29004KT 1/2SM +RA FG SCT003 BKN010 OVC017 10/09
     A3014=
KCAK 102151Z 17006KT 1/8SM FG VV003 05/05 A3006=
KCAR 102154Z AUTO 17005KT 10SM FEW030 M11/M17 A3022=

0000167400
111
SAUS71 KWBC 102200 RRA
METAR
KCEF 102158Z AUTO 00000KT 9SM OVC019 M01/M01 A3034=
KCHO 102153Z 00000KT 1SM BR BKN003 OVC007 02/01 A3027=
KCHS 102156Z 16008KT 10SM SCT010 BKN020 BKN250 21/17 A3014=
KCKB 102153Z 00000KT 10SM BKN100 09/07 A3009=
KCLE 102151Z 15010KT 6SM BR SCT008 BKN060 05/03 A3005=
KCLT 102152Z 02007KT 2SM R18C/5000VP6000FT +RA BR OVC003 06/06
     A3018=
KCMH 102151Z 14010KT 10SM FEW010 SCT070 BKN120 07/05 A3002=
KCRW 102154Z 09004KT 10SM FEW075 SCT230 BKN300 12/08 A3005=
KCVG 102152Z 14009KT 10SM FEW010 SCT070 BKN120 OVC180 08/07
     A2994=
KDAN 102153Z AUTO 00000KT 2 1/2SM -RA BR SCT005 OVC014 04/03
     A3025=
KDAY 102156Z 13009KT 1/4SM R06L/2600V5000FT FG VV002 05/04
     A2996=
KDCA 102152Z COR 05005KT 1SM R01/6000FT -RA BR OVC006 03/02
     A3031=
KDCA 102152Z 05005KT 1SM R01/6000VP6000FT -RA BR OVC006 03/02
     A3031=
KDUJ 102156Z AUTO 12005KT 1/2SM FG OVC003 03/01 A3013=
KECG 102154Z 11007KT 10SM OVC075 12/10 A3028=
KEKN 102151Z AUTO 13004KT 10SM CLR 10/06 A3012=
KELM 102153Z 00000KT 9SM FEW020 OVC050 03/M01 A3020=
KERI 102151Z 18010KT 10SM OVC049 05/02 A3008=
KEWB 102153Z 22003KT 1 1/2SM BR BKN006 OVC012 03/03 A3036=
KEWN 102154Z 11005KT 10SM BKN110 19/13 A3024=
KEWR 102151Z 04003KT 1SM R04R/P6000FT -DZ BR OVC004 01/01
     A3035=
KFAY 102153Z AUTO 02004KT 1 3/4SM BR BKN038 BKN049 OVC060 13/12
     A3017=
KFLO 102153Z 13007KT 10SM -RA FEW024 BKN030 OVC100 19/17 A3014=
KFRG 102153Z 00000KT 1 1/4SM BR BKN004 OVC020 02/02 A3035=
KFVE 102153Z AUTO 19006KT 10SM FEW030 M07/M15 A3017=
KGFL 102153Z AUTO 00000KT 7SM SCT028 OVC036 M02/M04 A3030=

0000166300
112
SAUS71 KWBC 102200 RRB
METAR
KGON 102156Z AUTO 00000KT 1/2SM R05/2800VP6000FT FG BKN006 OVC012
     02/02 A3036=
KGSO 102154Z 02004KT 5SM BR BKN004 OVC010 04/03 A3020=
KGSP 102153Z 05006KT 1 1/4SM BR OVC004 08/08 A3015=
KHFD 102153Z 00000KT 4SM BR BKN011 OVC025 01/M01 A3036=
KHKY 102153Z AUTO 05004KT 2SM BR OVC003 07/06 A3017=
KHPN 102156Z 00000KT 1 1/4SM -DZ BR OVC005 01/M01 A3033=
KHTS 102151Z 09003KT 10SM OVC037 09/07 A3003=
KHVN 102153Z 00000KT 2 1/2SM BR OVC004 02/01 A3036=
KHYA 102156Z 19007KT 7SM OVC005 03/02 A3037=
KIAD 102152Z 00000KT 1SM R01R/P6000FT -RA BR OVC005 02/01
     A3030=
KIAG 102153Z 18004KT 10SM OVC013 03/00 A3011=
KILG 102151Z AUTO 05004KT 1SM R01/P6000FT -RA BR OVC003 03/02
     A3033=
KILM 102153Z AUTO 14006KT 10SM SCT029 BKN042 21/16 A3020=
KINT 102154Z 03004KT 8SM OVC003 04/03 A3021=
KIPT 102154Z 08003KT 6SM HZ SCT016 OVC028 01/M02 A3028=
KISP 102156Z 00000KT 1 1/4SM -RA BR FEW015 OVC019 03/02 A3034=
KJFK 102151Z 02003KT 1SM -DZ BR FEW003 OVC012 03/02 A3036=
KJST 102154Z AUTO 12004KT 4SM BR OVC009 03/02 A3013=
KLBE 102150Z VRB05KT 15SM BKN016 BKN040 08/06 A3014=
KLCK 102155Z AUTO 13006KT 10SM BKN010 07/05 A3001=
KLEB 102153Z 00000KT 10SM OVC026 M02/M06 A3030=
KLGA 102151Z 05005KT 1 1/2SM -RA BR BKN007 OVC017 01/M01 A3035=
KLUK 102153Z 13004KT 10SM BKN014 OVC075 09/07 A2997=
KLWM 102154Z 00000KT 7SM SCT018 BKN090 00/M03 A3036=
KLYH 102154Z 02005KT 1 3/4SM -RA BR BKN003 OVC007 02/02 A3025=
KMDT 102156Z 00000KT 2 1/2SM BR OVC008 01/M01 A3031=
KMFD 102152Z 15009KT 1/2SM FG VV002 03/03 A3001=
KMGW 102153Z 00000KT 10SM CLR 09/06 A3011=

0000006200
113
SDTH20 VTBB 111000 CCA
FFBB 1110/ 48417 00000=
0000312600
114
SSVX11 LFVW 111046
ZZYY 52082 11014 0800/ 102036 156019 6113/
33311 88872 20002 32963 43441 20025 32961 43444 20050 32975 43478
20075 32989 43522 20100 32948 43530 20300 31122 43479
444 20130 11014 0805/ 522//=
ZZYY 52079 11014 01004 100060 147013 6111/
11119 02911 10278 40084
22219 00297
33311 88872 20000 32972 20002 32972 43388 20025 32974 43397
20050 32972 43422 20075 32957 20100 32734 43549 20125 32402 43520
20150 32252 43537 20200 31884 43537 20250 31488 43510
20300 31162 43483 20500 30853 43461 20750 30615 43453
444 20110 11014 0112/ 522// 60381=
ZZYY 52085 11014 06004 100013 156048 6113/
11119 03008 10274 40052
22219 00301
33311 88872 20000 33007 20002 33007 43396 20025 33032 43436
20050 33026 20075 33021 20100 32987 20125 32603 43540
20150 32267 43539 20200 31832 43529 20250 31350 43492
20300 31165 43484 20500 30805 43459 20750 30589 43451
444 20130 11014 0626/ 522// 60381=
ZZYY 52085 11014 04004 100014 156042 6112/
11119 02606 10276 40059
22219 00301
33311 88872 20000 33008 20002 33008 43387 20025 33033 43437
20050 33026 20075 33021 20100 33003 20125 32646 43542
20150 32291 43540 20200 31837 43531 20250 31382 43496
20300 31172 43483 20500 30804 43460 20750 30589 43453
444 20120 11014 0437/ 522// 60381=
ZZYY 52088 11014 04004 302023 155958 6112/
11119 03113 10292 29071 40054
22219 00302
33311 88872 20000 33018 20002 33018 43508 20025 33013 43520
20050 33000 43543 20075 32950 20100 32933 43561 20125 32859 43563
20150 32670 43579 20200 31734 43541 20250 31130 43481
20300 31075 43477 20500 30881 43465 20750 30573 43451
444 20120 11014 0436/ 522// 60381=
ZZYY 52088 11014 00004 302019 155959 6113/
11119 02909 10286 29078 40088
22219 00301
33311 88872 20000 33013 20002 33013 43508 20025 33015 43518
20050 33006 43543 20075 32986 20100 32943 43562 20125 32867 43563
20150 32776 43569 20200 31828 43544 20250 31137 43484
20300 31074 43477 20500 30826 43462 20750 30555 43452
444 20130 10014 2338/ 522// 60381=
ZZYY 52088 11014 02004 302021 155959 6113/
11119 03009 10289 29073 40074
22219 00302
33311 88872 20000 33017 20002 33017 43507 20025 33014 43520
20050 33001 43542 20075 32952 20100 32937 43560 20125 32837 43565
20150 32549 43584 20200 31820 43546 20250 31153 43485
20300 31091 43478 20500 30864 43464 20750 30560 43452
444 20130 11014 0253/ 522// 60381=
ZZYY 52086 11014 00004 305031 156024 6113/
11119 03010 10274 40083
22219 00304
33311 88872 20000 33042 20002 33042 43475 20025 33044 43479
20050 33040 20075 32972 43514 20100 32934 20125 32749 43579
20150 32595 43608 20200 32224 43594 20250 31694 43537
20300 31228 43493 20500 30758 43454 20750 30572 43449
444 20130 10014 2339/ 522// 60381=
ZZYY 52086 11014 02004 305034 156024 6113/
11119 03222 10265 40074
22219 00303
33311 88872 20000 33033 20002 33033 43470 20025 33042 43479
20050 33031 20075 32963 43513 20100 32936 20125 32773 43577
20150 32613 43606 20200 32276 43599 20250 31687 43537
20300 31216 43492 20500 30735 43453 20750 30569 43450
444 20130 11014 0253/ 522// 60381=
0000030000
115
SSVX13 LFVW 111046
ZZYY 55585 11014 1000/ 345993 166448 6113/
11119 30046 40046 57052
22219 00126
444 20130 11014 1035/ 50101 80110 80000 9/015=
ZZYY 55583 11014 1000/ 344495 175171 6112/
11119 30111 40111 57006
22219 00136
444 20120 11014 0633/ 50101 80110 80057 9/015=
0000011000
116
UANT01 CWAO 111047
ARP AFR022 5059N03034W 1047 F360 MS53 178/43 KT
FGSPC QXT AOE 111047 F25A
0000179700
117
SZPS01 AMMC 111048
CREX++
T000103 A001 D01021 D06025++
-0204190 14737360 56130 2014 01 11 10 41 3028 11 07 00 01
00528 0098 00526 0098 00521 0095 00515 0091 00513 0090 00510 0089+
-0669280 15640860 56363 2014 01 11 10 41 //// 11 07 00 01
00387 -0051 00392 -0047 00390 -0049 00389 -0051 00389 -0051 00388 -0053+
-0942890 15995560 56670 2014 01 11 10 41 3043 11 07 00 01
00466 -0054 00461 -0058 00464 -0054 00463 -0054 00460 -0056 00459 -0056+
-1072080 16580190 57131 2014 01 11 10 41 //// 11 07 00 01
00237 -0067 00242 -0063 00226 -0081 00538 0230 00373 0064 00273 -0038+
-1551560 16718860 57210 2014 01 11 10 41 //// 11 07 00 01
00357 -0103 00338 -0124 00336 -0127 00335 -0131 00318 -0149 00323 -0146+
-1775690 16830030 57320 2014 01 11 10 41 3017 11 07 00 01
00345 -0109 00346 -0108 00346 -0109 00348 -0107 00347 -0109 00347 -0109+
-4397330 16861610 65180 2014 01 11 10 41 2887 11 07 00 01
01947 0391 01946 0396 01943 0398 01916 0376 01900 0366 01898 0368+
-2120470 -15978530 65980 2014 01 11 10 41 3010 11 07 00 01
00431 -0013 00407 -0038 00439 -0007 00427 -0020 00423 -0025 00426 -0022+
-2113810 -17518140 66600 2014 01 11 10 41 //// 11 07 00 01
00716 0109 00703 0093 00719 0107 00713 0099 00724 0107 00723 0104+
-1382670 -17176110 66840 2014 01 11 10 41 3010 11 07 00 01
00610 0053 00606 0046 00612 0050 00620 0056 00608 0041 00622 0053+
-1813250 17842750 67050 2014 01 11 10 41 3030 11 07 00 01
00777 0109 00777 0107 00781 0109 00787 0113 00788 0111 00792 0113+
-1760530 17743810 67070 2014 01 11 10 41 3032 11 07 00 01
00752 0036 00755 0036 00758 0037 00760 0037 00760 0034 ///// ////+
-0850250 17919500 67440 2014 01 11 10 41 3027 11 07 00 01
01758 0023 01764 0025 01770 0028 01769 0023 01772 0023 01774 0022++
7777

0000046700
118
SZPA01 AMMC 111048
CREX++
T000103 A001 D01021 D06025++
0136250 17293000 67590 2014 01 11 10 41 3015 11 07 00 01
01511 0052 01501 0038 01490 0024 01505 0036 01492 0020 01504 0029+
0710610 17137250 67680 2014 01 11 10 41 3013 11 07 00 01
01007 0061 01008 0059 01015 0063 01018 0064 01017 0060 01026 0066+
0698060 15820000 67950 2014 01 11 10 41 3023 11 07 00 01
00600 0034 00598 0032 00604 0038 00598 0031 00603 0035 00599 0030++
7777

0000190900
119
SZAU01 AMMC 111048
CREX++
T000103 A001 D01021 D06025++
-1927750 14705860 59260 2014 01 11 10 41 3023 11 07 00 01
02183 0181 02180 0183 02171 0181 02167 0182 02167 0188 02161 0188+
-2316110 15079000 59670 2014 01 11 10 41 3002 11 07 00 01
03044 0251 03036 0253 03028 0252 03010 0243 03006 0246 02989 0236+
-3447330 15091170 60420 2014 01 11 10 41 2953 11 07 00 01
00681 -0029 00684 -0023 00685 -0019 00674 -0028 00680 -0020 00675 -0022+
-4105000 14591500 60910 2014 01 11 10 41 2888 11 07 00 01
02933 0006 02928 0005 02923 0003 02918 0003 02904 -0007 02901 -0005+
-4254640 14793080 61170 2014 01 11 10 41 2895 11 07 00 01
01161 0120 01158 0118 01154 0115 01160 0123 01162 0126 01165 0130+
-3834390 14161360 61410 2014 01 11 10 41 2908 11 07 00 01
00752 0081 00720 0048 00716 0044 00720 0047 00703 0029 00736 0062+
-3214890 13364170 62000 2014 01 11 10 41 2962 11 07 00 01
01116 0057 01116 0057 01115 0056 01116 0058 01107 0050 01102 0045+
-3387080 12189720 62080 2014 01 11 10 41 2950 11 07 00 01
01001 0054 00982 0034 00983 0034 00991 0041 00988 0037 00997 0045+
-3182560 11573860 62237 2014 01 11 10 41 2973 11 07 00 01
01024 0069 01016 0061 01021 0066 01022 0067 01029 0074 01023 0069+
-2422000 11339750 62385 2014 01 11 10 41 //// 11 07 00 01
01325 -0166 01439 -0052 01422 -0068 01462 -0027 01404 -0084 01390 -0097+
-2181670 11419110 62430 2014 01 11 10 41 //// 11 07 00 01
02193 -0069 02207 -0055 02181 -0081 02199 -0063 02186 -0076 02190 -0071+
-1800080 12221830 62650 2014 01 11 10 41 3043 11 07 00 01
06918 0012 06916 0010 06919 0014 06921 0017 06920 0017 06919 0017+
-1247190 13084580 63230 2014 01 11 10 41 3050 11 07 00 01
04266 0140 04264 0140 04262 0139 04260 0139 04257 0138 04254 0137+
-1386000 13641580 63511 2014 01 11 10 41 3043 11 07 00 01
01871 0134 01871 0133 01870 0131 01870 0131 01868 0128 01867 0127++
7777

0000034700
120
SZIO01 AMMC 111048
CREX++
T000103 A001 D01021 D06025++
-1211670 09689190 46280 2014 01 11 10 41 3020 11 07 00 01
01013 0040 01010 0040 01003 0035 01010 0045 01010 0047 01007 0046+
-1042940 10566940 46290 2014 01 11 10 41 //// 11 07 00 01
01261 -0061 01296 -0024 01274 -0044 01306 -0010 01265 -0049 01268 -0045++
7777

0000039600
121
SXXX32 EUMS 111039 RRX
16590056
:PRS 1 /1 2309 2307 2311 2316 2320 2326 2331 2334 2339 2344 2348 2346 :RAD 1 /1 6614 6612 6617 6619 6625 6632 6638 6640 6644 6647 6654 6653 6645 6644 6642 6642 6634 6636 :ENC 6 /6 4859 4862 4854 4892 4920 4916 4929 4960 4970 4965 :ENB 6 /6 4858 4859 4853 4892 4919 4915 4928 4960 4970 4966 :SW1 39 /60 0 :SW2 6 /60 0 :BAT 5 /6 12.9 :NAME 16590056
0000045100
122
SXXX32 EUMS 111039 RRX
224AD678
:PRS 2 /1 2414 2402 2401 2402 2402 2403 2402 2396 2391 2382 2384 2385 2387 2388 2384 2378 2371 2371 2374 2376 2374 2371 2360 2357 2353 2352 2353 2354 2353 2354 :RAD 4 /3 5221 5214 5204 5201 5195 5189 5186 5178 5173 5168 5162 5154 5145 5140 5136 5128 5125 5118 5109 5100 :ENC 4 /5 8731 8724 8713 8702 8695 8686 8677 8665 8657 8643 8637 8627 :SW1 39 /60 17 :SW2 9 /60 0 :BAT 14 /15 13.0 :NAME 224AD678 /
0000069900
123
SXXX32 EUMS 111039 RRX
229C0324
OT12 ID:MZ-NIH2-09 DT::014 01 11 10 29
:RAD /1(06767 06770 06771 06774 06774 06782 06774 06?76 0/786 86782 06789 06794 06?93 0/791 06796 06800 06805 06798 06809 06810 06816 06893 06822 06817 86820(06822 06828 06831 06831 86824/
:PR9 /1 ///// ///// ///'/ ///// ///// '//// ///// ///// ///// /'/// ///// ///// ///// ///// ///// ///// ///// ///// //'// ///// ///// ///// ///// ///// ///// ///// ///// ///// ///// /////
:PR2(/1 ///// ///// ///// ///'/ ///// ///// /////(///// ///'/ ///// ///// ///// ////' ///// ///// /'/// '//// ///// ///// ///// ///// ///// ///// ///// //'// ///// ///// ///// ///// /////
:TM1 /15 /// /// /// ///
:BAT 13.7V
0000067100
124
SXXX32 EUMS 111040 RRX
366C76AC
OT12 ID:IR-CHAB-07 DT:2014 01 11 10 39
:RAD /1 00679 00676 00691 00690 00705 00716 00723 00731 00739 00741 00752 00753 00759 00761 00758 00767 00776 00773 00782 00788 00791 00799 00796 00799 00806 00808 00806 00815 00809 00812
:PR1 /1 01139 01121 01133 01141 01138 01160 01172 01183 01186 01187 01188 01205 01204 01209 01220 01209 01221 01221 01241 01241 01245 01247 01260 01256 01264 01272 01272 01274 01276 01274
:PR2 /1 00955 00964 00959 00958 00954 00962 00959 00954 00966 00963 00961 00959 00954 00963 00957 00956 00965 00960 00959 00956 00964 00962 00957 00955 00968 00963 00961 00955 00966 00962
:BAT 13.3V
0000037900
125
SXXX32 EUMS 111042 RRX
12FD90D0
:PRS 1 /1 1423 1422 1418 1435 1423 1418 1424 1437 1435 1439 1430 1433 :RAD 1 /3 5977 5978 5981 5981 5980 5981 5989 5997 6003 6014 :ENC 3 /6 5722 5728 5723 5740 5759 5760 5770 5771 5725 5712 :RA2 3 /6 4883 4882 4882 4900 4918 4917 4929 4923 4879 4863 :SW1 42 /60 40 :SW2 12 /60 60 :BAT 5 /6 12.8 :WTP 5 /6 28.4 28.4 :NAME 12FD90D0
00000000