0000034600
346
SZIO01 AMMC 110957
CREX++
T000103 A001 D01021 D06025++
-1211670 09689190 46280 2014 01 11 09 50 3022 11 07 00 01
01114 0026 01112 0026 01114 0030 01109 0027 01100 0021 01100 0023+
-1042940 10566940 46290 2014 01 11 09 50 //// 11 07 00 01
01388 -0004 01316 -0075 01396 0006 01307 -0082 01368 -0020 01350 -0037++
7777

0000046700
347
SZPA01 AMMC 110957
CREX++
T000103 A001 D01021 D06025++
0136250 17293000 67590 2014 01 11 09 50 3018 11 07 00 01
01352 0028 01356 0030 01363 0036 01361 0031 01372 0040 01373 0039+
0710610 17137250 67680 2014 01 11 09 50 3013 11 07 00 01
00942 0115 00938 0110 00947 0117 00943 0110 00950 0115 00952 0116+
0698060 15820000 67950 2014 01 11 09 50 3023 11 07 00 01
00570 0029 00572 0031 00572 0030 00572 0030 00569 0027 00568 0025++
7777

0000179200
348
SZPS01 AMMC 110957
CREX++
T000103 A001 D01021 D06025++
-0204190 14737360 56130 2014 01 11 09 50 3028 11 07 00 01
00582 0046 00580 0047 00576 0045 00575 0046 00579 0052 00572 0048+
-0669280 15640860 56363 2014 01 11 09 50 //// 11 07 00 01
00370 -0063 00372 -0061 00372 -0061 00370 -0062 00364 -0068 00364 -0068+
-0942890 15995560 56670 2014 01 11 09 50 3043 11 07 00 01
00541 -0037 00539 -0037 00535 -0040 00538 -0036 00533 -0039 00531 -0040+
-1072080 16580190 57131 2014 01 11 09 50 //// 11 07 00 01
01817 1555 01233 0970 00829 0566 01550 1287 01022 0758 00764 0500+
-1551560 16718860 57210 2014 01 11 09 50 //// 11 07 00 01
00327 -0083 00327 -0083 00324 -0087 00340 -0071 00331 -0080 00322 -0090+
-1775690 16830030 57320 2014 01 11 09 50 3017 11 07 00 01
00362 -0104 00360 -0105 00358 -0106 00354 -0109 00352 -0111 00351 -0111+
-4397330 16861610 65180 2014 01 11 09 50 2888 11 07 00 01
02150 0351 02148 0354 02144 0354 02153 0368 02182 0401 02166 0389+
-2120470 -15978530 65980 2014 01 11 09 50 3012 11 07 00 01
00416 -0002 00405 -0013 00435 0017 00408 -0010 00395 -0024 00401 -0018+
-2113810 -17518140 66600 2014 01 11 09 50 //// 11 07 00 01
00642 0105 00643 0105 00648 0110 00638 0099 00644 0104 00636 0096+
-1382670 -17176110 66840 2014 01 11 09 50 3013 11 07 00 01
00519 0059 00517 0056 00514 0052 00523 0059 00527 0062 00535 0068+
-1813250 17842750 67050 2014 01 11 09 50 3030 11 07 00 01
00710 0105 00711 0106 00715 0110 00714 0108 00714 0108 00716 0110+
-1760530 17743810 67070 2014 01 11 09 50 3033 11 07 00 01
00676 0035 00676 0035 00677 0035 00676 0033 00677 0034 ///// ////+
-0850250 17919500 67440 2014 01 11 09 50 3028 11 07 00 01
01615 0014 01625 0022 01622 0018 01620 0013 01624 0015 01627 0016++
7777

0000032600
349
FTUS73 KWBC 110306 AAB
TAF AMD
KORD 110305Z 1103/1206 18012G18KT 6SM -RA BR OVC006
     FM110500 19012G18KT 1SM -DZ BR VCSH OVC004
     FM110800 22012KT 3SM BR VCSH OVC004
     FM111200 26012G18KT P6SM VCSH BKN007 OVC012
     FM111500 28014G22KT P6SM BKN018
     FM112100 27014G22KT P6SM SCT020=

0000073800
350
FTUS75 KWBC 110306 AAA
TAF AMD
PACD 110303Z 1103/1124 15015G22KT P6SM VCSH SCT025 OVC040
     FM110600 14018G26KT 5SM -RA BKN028 OVC060
     FM110800 19015KT P6SM -SHRA BKN030
     FM111200 22017KT P6SM VCSH BKN040=
PADL 110304Z 1103/1124 01008KT P6SM VCSH BKN015
     FM110600 36011KT P6SM FEW015 BKN100
     FM111500 35015KT P6SM OVC060
     FM112300 35017KT 6SM -SN OVC030=
PADU 110303Z 1103/1124 19008KT P6SM -SHRA SCT015 BKN035 OVC050
     FM110600 21013G21KT P6SM BKN035
     FM111300 21018G27KT P6SM -SHRA BKN035
     FM112100 22021G33KT P6SM -SHRA SCT035 BKN045=
PAHO 110305Z 1103/1124 VRB03KT P6SM OVC025
     FM110600 VRB03KT P6SM BKN010
     FM112000 05005KT P6SM SCT010 BKN200=

0000051300
351
FTUS74 KWBC 110306 AAA
TAF AMD
KSAN 110303Z 1103/1206 VRB04KT P6SM FEW250
     FM110700 VRB03KT P6SM SCT005
      TEMPO 1110/1114 6SM BR
     FM111800 27007KT P6SM FEW250
     FM120200 VRB04KT P6SM BKN010=
KSEA 110305Z 1103/1206 19012G18KT P6SM -RA SCT017 OVC035
      TEMPO 1104/1107 2SM RA BR OVC017
     FM110700 19018G30KT 5SM -RA BR OVC015
     FM110900 20025G40KT 5SM -RA BR OVC015
     FM111400 20018G32KT P6SM -RA OVC025
     FM111900 20024G38KT P6SM -SHRA OVC017=

0000100900
352
SANT31 KWBC 110300
METAR
BGBW 110255Z NIL=
BGCO 110250Z AUTO 35001KT //// BKN020/// BKN038/// BKN065///
     M09/M10 Q1010=
BGGH 110250Z AUTO 11006KT 9999NDV FEW044/// BKN190/// M08/M16
     Q0993=
BGJN 110250Z AUTO 10013KT 9999NDV SCT160/// BKN220/// M09/M20
     Q0995=
BGKK 110250Z AUTO 12009G22KT 060V180 9999NDV -SN FEW036/// M03/M09
     Q0991 REFZRA=
BGSF 110250Z AUTO 08010KT 9999NDV BKN200/// M16/M22 Q0996=
BGTL 110258Z AUTO 10013KT 9999 FEW180 M14/M17 A2928 RMK AO2 SLP904
     T11351168 52024=
BIAR 110300Z VRB06KT 9999 -SN SCT035 BKN040 OVC053 01/M03
     Q0996=
BIEG 110300Z 05012G23KT 4000 -SN VV012 00/M00 Q0997 RMK
     R04///99//=
BIKF 110300Z 26014KT 9999 FEW041 BKN090 02/M04 Q0994=
BIRK 110300Z 25006KT 9999 FEW010 SCT025 BKN045 02/M02 Q0994=
GVAC NIL=
GVPR NIL=
LPBJ 110300Z VRB02KT CAVOK 08/07 Q1015=
LPLA 110300Z 24012KT 180V270 9999 FEW017 SCT036 15/11 Q1003=
TXKF 110255Z 07012KT 9999 FEW026 SCT042 SCT300 17/12 Q1032=

0000035700
353
SAAL31 DAAA 110300
METAR DAAG 110300Z 00000KT 9999 FEW030 SCT090 10/07 Q1017=
METAR DAAT 110300Z NIL=
METAR DABB 110300Z 20003KT CAVOK 07/06 Q1016=
METAR DABC 110300Z 24008KT CAVOK 05/01 Q1020=
METAR DAON 110300Z NIL=
METAR DAOO 110300Z 14002KT 9999 -RA FEW026 BKN100 12/08 Q1016=
METAR DAUH 110300Z 00000KT CAVOK 09/07 Q1020=

0000023300
354
SAIE32 EIDB 110300
METAR EICM 110300Z NIL=
METAR EIDL 110300Z NIL=
METAR EIKY 110300Z NIL=
METAR EIME 110300Z 21010KT 9999 FEW020 SCT025 BKN045 03/02 Q1012=
METAR EISG 110300Z NIL=
METAR EIWF 110300Z NIL=

0000013600
355
SACN62 CYBL 110300
METAR CYBL 110300Z 13021G33KT 3SM -RA BR FEW008 SCT011 OVC019 04/04
 A2960 RMK SF2ST2SC4 SLP027=

0000011700
356
SACN62 CYBW 110300
METAR CYBW 110300Z 26003KT 180V260 15SM FEW120 M08/M09 A2963 RMK AC2
 SLP091=

0000013200
357
SACN62 CYDF 110300
METAR CYDF 110300Z 25015G22KT 15SM SCT023 BKN036 BKN090 M05/M08 A3009
 RMK SC3SC2AC2 SLP192=

0000008700
358
FCRO33 LROM 110200 AAA
TAF AMD LRBC 110300Z 1103/1112 26008KT CAVOK=

0000035200
359
FTJP32 RJTD 102300 AAA
TAF AMD RJNK 110305Z 1103/1206 28006KT 8000 -SHSNRA FEW010 BKN020
         TEMPO 1103/1106 1200 -SHSNRAGS OVC006 FEW020CB TEMPO
         1106/1109 2000 -SHSNRA FEW005 BKN008 TEMPO 1109/1112 4000
         -SHRASN FEW005 BKN008 BECMG 1121/1124 20010KT TEMPO
         1121/1203 2000 -SHSNRA FEW005 BKN008=

0000166700
360
SAUS71 KWBC 110300
METAR
KABE 110251Z 00000KT 1/2SM -RA BR OVC004 01/M01 A3025=
KACK 110253Z AUTO 15006KT 9SM BKN048 03/02 A3034=
KACY 110254Z 13003KT 1 1/2SM -RA BR OVC041 06/06 A3026=
KAGC 110253Z 11006KT 10SM FEW110 07/05 A2995=
KAGS 110253Z 00000KT 2 1/2SM BR OVC004 10/09 A3010=
KAKR 110254Z AUTO VRB06KT 8SM FEW060 BKN095 BKN120 07/06 A2987=
KALB 110251Z 17006KT 10SM FEW037 BKN220 00/M03 A3026=
KAND 110256Z AUTO 08007KT 1 3/4SM BR OVC004 08/08 A3010=
KAOO 110253Z AUTO 12003KT 3SM BR OVC005 01/00 A3012=
KAPG NIL=
KART 110256Z AUTO 15008KT 10SM CLR 04/01 A3008=
KAVL 110254Z 19005KT 4SM -RA BR OVC003 07/07 A3010=
KAVP 110254Z AUTO VRB04KT 7SM OVC008 02/M01 A3020=
KBAF 110253Z 01003KT 4SM BR OVC012 M01/M02 A3030=
KBDL 110251Z 00000KT 2SM BR BKN005 OVC008 01/00 A3030=
KBDR 110252Z AUTO 02003KT 1 1/4SM BR OVC005 02/01 A3030=
KBED 110256Z 00000KT 3SM BR OVC012 02/01 A3030=
KBFD 110253Z AUTO 15012KT 8SM FEW002 SCT050 02/01 A3000=
KBGM 110253Z 15007KT 6SM BR OVC006 01/M01 A3014=
KBGR 110253Z 00000KT 10SM OVC095 M07/M09 A3032=
KBKL 110253Z 15012G18KT 10SM SCT080 SCT090 OVC110 06/04 A2982=
KBKW 110251Z AUTO 16011G18KT 10SM OVC006 15/07 A3003=
KBOS 110254Z 13004KT 2SM BR BKN008 OVC014 01/00 A3032=
KBTV 110254Z 19006KT 10SM OVC060 01/M03 A3022=
KBUF 110254Z 14005KT 10SM FEW050 SCT110 OVC190 03/02 A2996=
KBVY 110253Z AUTO 00000KT 5SM BR OVC013 02/01 A3031=
KBWI 110254Z 04003KT 1SM R10/P6000FT -RA BR OVC003 02/02 A3021=
KCAE 110256Z 00000KT 3SM BR OVC004 10/09 A3010=
KCAK 110251Z 15006KT 5SM BR FEW005 OVC060 07/07 A2988=
KCAR 110254Z AUTO 16003KT 10SM OVC020 M09/M15 A3020=

0000167400
361
SAUS71 KWBC 110300 RRA
METAR
KCEF 110258Z AUTO 29004KT 6SM BR SCT004 OVC009 00/00 A3030=
KCHO 110253Z 00000KT 2SM -RA BR BKN003 OVC008 02/02 A3020=
KCHS 110256Z 14006KT 10SM FEW020 SCT040 SCT100 17/16 A3013=
KCKB 110253Z 00000KT 10SM CLR 09/06 A2996=
KCLE 110251Z 16016G23KT 10SM OVC100 07/04 A2985=
KCLT 110252Z 35005KT 1/4SM R18C/3500FT BR VV002 06/06 A3014=
KCMH 110251Z 14008KT 10SM OVC035 08/06 A2984=
KCRW 110254Z 14006KT 10SM BKN180 12/08 A2993=
KCVG 110252Z 16011KT 10SM OVC025 10/08 A2980=
KDAN 110253Z AUTO 35003KT 5SM -RA BR BKN005 OVC016 04/03 A3017=
KDAY 110256Z 15011KT 6SM -RA BR OVC022 08/07 A2979=
KDCA 110252Z 04005KT 5SM BR OVC008 03/02 A3021=
KDUJ 110256Z AUTO 12011KT 7SM OVC008 02/01 A3001=
KECG 110254Z 14008KT 10SM -RA OVC110 16/13 A3022=
KEKN 110251Z AUTO 16008KT 10SM FEW026 11/07 A3003=
KELM 110253Z 14006KT 7SM OVC013 02/M01 A3013=
KERI 110251Z 15016G25KT 10SM CLR 06/03 A2989=
KEWB 110253Z AUTO 12003KT 1/2SM R05/2200VP6000FT FG OVC003 04/04
     A3031=
KEWN 110254Z 13006KT 10SM BKN015 BKN021 OVC041 18/17 A3017=
KEWR 110251Z 03005KT 3/4SM -DZ BR SCT003 OVC005 01/01 A3029=
KFAY 110253Z AUTO 28006KT 1SM +RA BR BKN009 OVC013 17/16 A3013=
KFLO 110253Z 00000KT 10SM OVC004 14/13 A3013=
KFRG 110253Z 00000KT 1 1/4SM BR OVC003 03/03 A3029=
KFVE 110253Z AUTO 20006KT 10SM OVC015 M08/M13 A3015=
KGFL 110253Z AUTO 00000KT 6SM BR OVC029 M02/M04 A3027=
KGON 110256Z 00000KT 1SM R05/P6000FT -RA BR OVC004 03/02 A3030=
KGSO 110254Z 02004KT 1 1/2SM -DZ BR OVC005 03/03 A3014=
KGSP 110253Z 03005KT 1 1/4SM BR OVC002 08/07 A3010=
KHFD 110253Z 00000KT 1/2SM FG OVC005 02/01 A3031=

0000008500
362
SAAG41 SAVC 110300
METAR SAVC 110300Z  25009KT CAVOK 16/M04 Q1014=

0000017900
363
FTSP35 LEMM 102300 AAA
TAF AMD LEVD 110305Z 1103/1124 14005KT CAVOK TX11/1115Z
TN01/1108Z TEMPO 1103/1110 4000 BR NSC PROB40 TEMPO 1104/1110
0600 FG BKN001=

0000166200
364
SAUS71 KWBC 110300 RRB
METAR
KHKY 110253Z AUTO 36003KT 1 1/2SM -RA BR OVC002 06/06 A3013=
KHPN 110256Z 00000KT 1/2SM R16/2800V5500FT -DZ FG VV004 01/00
     A3026=
KHTS 110251Z 11003KT 10SM SCT047 08/07 A2988=
KHVN 110253Z 00000KT 1 1/4SM BR OVC004 02/01 A3029=
KHYA 110256Z 00000KT 9SM FEW008 OVC015 04/03 A3032=
KIAD 110252Z 01003KT 1 1/4SM -RA BR OVC009 02/01 A3020=
KIAG 110253Z 12003KT 10SM OVC160 02/01 A2996=
KILG 110251Z AUTO 07004KT 1 1/2SM -RA BR OVC004 03/03 A3025=
KILM 110253Z AUTO 15006KT 10SM BKN006 OVC014 20/19 A3014=
KINT 110254Z 03003KT 2 1/2SM BR OVC003 04/03 A3016=
KIPT 110254Z 07009KT 4SM BR OVC010 01/M01 A3019=
KISP 110256Z 12003KT 1/2SM R06/3500V5500FT -RA FG OVC003 04/03
     A3027=
KJFK 110251Z 36003KT 1/2SM R04R/1800V2800FT -RA BR OVC003 03/02
     A3030=
KJST 110254Z AUTO 18009KT 3/4SM BR VV002 02/02 A3003=
KLBE 110250Z 00000KT 10SM BKN130 08/06 A3000=
KLCK 110255Z AUTO 16003KT 10SM OVC037 09/06 A2984=
KLEB 110253Z AUTO 00000KT 9SM FEW012 SCT030 BKN055 M04/M06
     A3027=
KLGA 110251Z 05005KT 1 1/2SM -DZ BR OVC003 01/00 A3029=
KLUK 110253Z 18008KT 10SM OVC032 10/08 A2982=
KLWM 110254Z 00000KT 7SM SCT010 OVC014 03/00 A3033=
KLYH 110254Z 02006KT 2SM -RA BR OVC005 03/02 A3017=
KMDT 110256Z 00000KT 3/4SM -RA BR OVC003 01/M01 A3022=
KMFD 110252Z 15011KT 5SM BR OVC002 06/06 A2983=
KMGW 110253Z 15012KT 10SM CLR 12/07 A2996=
KMHT 110253Z 32003KT 4SM BR SCT014 OVC040 M02/M03 A3030=
KMIV 110254Z AUTO 00000KT 1/2SM -RA FG OVC037 05/05 A3025=
KMMU 110255Z AUTO 00000KT 1/2SM UP OVC003 01/00 A3028=
KMRB 110253Z 00000KT 1SM BR OVC002 02/01 A3018=

0000167800
365
SAUS71 KWBC 110300 RRC
METAR
KMSS 110253Z AUTO 06003KT 9SM OVC030 M03/M06 A3015=
KMTN NIL=
KMYR 110253Z 18005KT 1/2SM FG OVC002 16/16 A3015=
KNKT 110254Z 13012KT 8SM -RA SCT012 BKN019 OVC030 19/17 A3017=
KOQU 110250Z 35003KT 1/4SM FG VV002 01/01 A3032=
KORF 110251Z AUTO 15006KT 10SM -RA OVC100 12/10 A3020=
KORH 110254Z AUTO 24006KT 1/4SM R11/2400V3000FT FG VV002 01/01
     A3027=
KPHF 110254Z AUTO 14011KT 10SM SCT100 BKN120 14/10 A3018=
KPHL 110254Z 08003KT 1 1/2SM BR OVC004 02/01 A3026=
KPIT 110251Z 09005KT 10SM BKN150 OVC220 06/04 A2994=
KPKB 110253Z 14005KT 10SM OVC060 09/07 A2994=
KPLB NIL=
KPOU 110253Z 00000KT 4SM BR OVC007 01/M01 A3029=
KPQI 110255Z AUTO 00000KT 10SM OVC024 M08/M15 A3023=
KPSM 110258Z 35002KT 4SM BR FEW012 BKN050 OVC075 M02/M02 A3030=
KPVD 110251Z 00000KT 1/4SM R05/1600V2200FT -DZ FG VV003 01/01
     A3032=
KPWM 110251Z 22003KT 8SM OVC075 M02/M03 A3032=
KRDG 110254Z AUTO 36003KT 3/4SM -RA BR OVC003 01/00 A3024=
KRDU 110251Z 07004KT 1/4SM -RA BR OVC002 06/05 A3013=
KRIC 110254Z 36003KT 3/4SM R34/P6000FT BR BKN003 OVC065 05/04
     A3019=
KROA 110254Z 00000KT 1SM BR BKN003 OVC010 03/03 A3019=
KROC 110254Z 16007KT 10SM BKN130 04/02 A3002=
KRWI 110253Z AUTO VRB03KT 8SM -RA OVC100 14/14 A3016=
KSAV 110253Z 00000KT 1/4SM R01/1400V1800FT FG VV002 18/17
     A3010=
KSBY 110254Z 11006KT 4SM BR BKN100 BKN120 09/08 A3022=
KSCH NIL=
KSLK 110251Z AUTO 00000KT 8SM OVC022 M02/M03 A3011=
KSWF NIL=
KSYR 110254Z COR 10006KT 10SM BKN050 OVC230 02/00 A3012=
KSYR 110254Z 10006KT 10SM BKN050 OVC230 02/00 A3012=
KTEB 110251Z 01004KT 1 1/4SM BR OVC003 02/00 A3029=

00000000