0000114600
014
SNCN19 CWAO 110738
OOXX
FJP26 11051 99178 31775 ///// 00311
     26/// /1607 10290 29065 30021 90530 333 60000=
FJP26 11051 99178 31775 ///// 00311
     26/// /1606 10289 29066 30021 90540 333 60000=
FJP26 11051 99178 31775 ///// 00311
     26/// /1606 10285 29066 30022 90550 333 60000=
FJP26 11061 99178 31775 ///// 00311
     26/// /1606 10284 29067 30023 90600 333 60000=
FJP26 11061 99178 31775 ///// 00311
     26/// /1505 10282 29068 30025 90610 333 60000=
FJP26 11061 99178 31775 ///// 00311
     26/// /1605 10279 29069 30027 90620 333 60000=
FJP26 11061 99178 31775 ///// 00311
     26/// /1504 10277 29070 30029 90630 333 60000=
FJP26 11061 99178 31775 ///// 00311
     26/// /1504 10273 29071 30029 90640 333 60000=
FJP26 11061 99178 31775 ///// 00311
     26/// /1503 10270 29072 30031 90650 333 60000=
FJP26 11071 99178 31775 ///// 00311
     26/// /1504 10269 29073 30031 90700 333 60000=
FJP26 11071 99178 31775 ///// 00311
     26/// /1504 10267 29073 30033 90710 333 60000=
FJP26 11071 99178 31775 ///// 00311
     26/// /1504 10265 29073 30035 90720 333 60000=

0000114600
015
SNCN19 CWAO 110758
OOXX
AUP07 11051 99545 31589 ///// 00121
     26/// ///// 1//// 29/// 3//// 90555 333 6///0=
AUP07 11061 99545 31589 ///// 00121
     26/// ///// 1//// 29/// 3//// 90605 333 6///0=
AUP07 11061 99545 31589 ///// 00121
     26/// ///// 1//// 29/// 3//// 90615 333 6///0=
AUP07 11061 99545 31589 ///// 00121
     26/// ///// 1//// 29/// 3//// 90625 333 6///0=
AUP07 11061 99545 31589 ///// 00121
     26/// ///// 1//// 29/// 3//// 90635 333 6///0=
AUP07 11061 99545 31589 ///// 00121
     26/// ///// 1//// 29/// 3//// 90645 333 6///0=
AUP07 11061 99545 31589 ///// 00121
     26/// ///// 1//// 29/// 3//// 90655 333 6///0=
AUP07 11071 99545 31589 ///// 00121
     26/// ///// 1//// 29/// 3//// 90705 333 6///0=
AUP07 11071 99545 31589 ///// 00121
     26/// ///// 1//// 29/// 3//// 90715 333 6///0=
AUP07 11071 99545 31589 ///// 00121
     26/// ///// 1//// 29/// 3//// 90725 333 6///0=
AUP07 11071 99545 31589 ///// 00121
     26/// ///// 1//// 29/// 3//// 90735 333 6///0=
AUP07 11071 99545 31589 ///// 00121
     26/// ///// 1//// 29/// 3//// 90745 333 6///0=

0000114600
016
SNCN19 CWAO 110759
OOXX
CAP14 11061 99487 71234 ///// 00431
     26/// /1404 10070 29091 39930 90600 333 69980=
CAP14 11061 99487 71234 ///// 00431
     26/// /1602 10070 29091 39922 90610 333 60010=
CAP14 11061 99487 71234 ///// 00431
     26/// /1405 10070 29091 39914 90620 333 69960=
CAP14 11061 99487 71234 ///// 00431
     26/// /1504 10071 29092 39914 90630 333 69940=
CAP14 11061 99487 71234 ///// 00431
     26/// /1702 10072 29092 39911 90640 333 69960=
CAP14 11061 99487 71234 ///// 00431
     26/// /1602 10073 29092 39908 90650 333 69920=
CAP14 11071 99487 71234 ///// 00431
     26/// /1503 10074 29091 39904 90700 333 69920=
CAP14 11071 99487 71234 ///// 00431
     26/// /1404 10076 29091 39898 90710 333 69960=
CAP14 11071 99487 71234 ///// 00431
     26/// /1504 10077 29091 39896 90720 333 69940=
CAP14 11071 99487 71234 ///// 00431
     26/// /1602 10079 29091 39894 90730 333 69940=
CAP14 11071 99487 71234 ///// 00431
     26/// /1502 10079 29090 39889 90740 333 69960=
CAP14 11071 99487 71234 ///// 00431
     26/// /2702 10076 29090 39891 90750 333 69940=

0000096200
017
SNCN19 CWAO 110728
OOXX
PHP52 11051 99146 11214 ///// 06421
     26/// /0000 10233 29062 39428 90530 333 60000=
PHP52 11051 99146 11214 ///// 06421
     26/// /0000 10227 29063 39423 90540 333 60000=
PHP52 11051 99146 11214 ///// 06421
     26/// /0000 10225 29064 39422 90550 333 60000=
PHP52 11061 99146 11214 ///// 06421
     26/// /0000 10229 29062 39422 90600 333 60000=
PHP52 11061 99146 11214 ///// 06421
     26/// /0000 10227 29064 39423 90610 333 60000=
PHP52 11061 99146 11214 ///// 06421
     26/// /0000 10222 29068 39422 90630 333 60000=
PHP52 11061 99146 11214 ///// 06421
     26/// /0000 10225 29065 39420 90640 333 60000=
PHP52 11061 99146 11214 ///// 06421
     26/// /0000 10231 29064 39421 90650 333 60000=
PHP52 11071 99146 11214 ///// 06421
     26/// /0000 10221 29068 39419 90700 333 60000=
PHP52 11071 99146 11214 ///// 06421
     26/// /0000 10222 29065 39421 90710 333 60000=

0000114600
018
SNCN19 CWAO 110722
OOXX
TZP64 11051 99068 30392 ///// 01041
     26/// /1003 10274 29074 30036 90520 333 60000=
TZP64 11051 99068 30392 ///// 01041
     26/// /1102 10276 29070 30035 90530 333 60000=
TZP64 11051 99068 30392 ///// 01041
     26/// /1003 10274 29071 30036 90540 333 60000=
TZP64 11051 99068 30392 ///// 01041
     26/// /1102 10282 29070 30036 90550 333 60000=
TZP64 11061 99068 30392 ///// 01041
     26/// /1102 10284 29065 30037 90600 333 60000=
TZP64 11061 99068 30392 ///// 01041
     26/// /1103 10281 29068 30036 90610 333 60000=
TZP64 11061 99068 30392 ///// 01041
     26/// /1102 10284 29065 30036 90620 333 60000=
TZP64 11061 99068 30392 ///// 01041
     26/// /1003 10282 29066 30037 90630 333 60000=
TZP64 11061 99068 30392 ///// 01041
     26/// /1102 10284 29066 30035 90640 333 60000=
TZP64 11061 99068 30392 ///// 01041
     26/// /1102 10290 29064 30034 90650 333 60000=
TZP64 11071 99068 30392 ///// 01041
     26/// /1103 10292 29064 30032 90700 333 60000=
TZP64 11071 99068 30392 ///// 01041
     26/// /1102 10293 29065 30032 90710 333 60000=

0000114600
019
SNCN19 CWAO 110724
OOXX
PAP50 11051 99090 70795 ///// 00901
     26/// /3403 10243 29000 30006 90520 333 60000=
PAP50 11051 99090 70795 ///// 00901
     26/// /3503 10244 29000 30006 90530 333 60000=
PAP50 11051 99090 70795 ///// 00901
     26/// /3502 10244 29000 30004 90540 333 60000=
PAP50 11051 99090 70795 ///// 00901
     26/// /3503 10245 29000 30004 90550 333 60000=
PAP50 11061 99090 70795 ///// 00901
     26/// /3403 10244 29000 30003 90600 333 60000=
PAP50 11061 99090 70795 ///// 00901
     26/// /3403 10244 29000 30001 90610 333 60000=
PAP50 11061 99090 70795 ///// 00901
     26/// /3503 10245 29000 30001 90620 333 60000=
PAP50 11061 99090 70795 ///// 00901
     26/// /3403 10244 29000 30000 90630 333 60000=
PAP50 11061 99090 70795 ///// 00901
     26/// /3403 10244 29000 30000 90640 333 60000=
PAP50 11061 99090 70795 ///// 00901
     26/// /3403 10244 29000 39999 90650 333 60000=
PAP50 11071 99090 70795 ///// 00901
     26/// /3402 10244 29000 30000 90700 333 60000=
PAP50 11071 99090 70795 ///// 00901
     26/// /3303 10243 29000 39998 90710 333 60000=

0000009700
020
SAIQ01 ORBI 110800
METAR ORNI 110800Z 25012KT 8000 OVC025 11/08 Q1018 TEMPO-SHRA=
0000056900
021
SNVF21 ENMI 110800
BBXX
LDGJ 11081 99603 10053 43/// /1100 10053 20028 49973 5//// 222/0
      04078 1//// 3//// 4//// 5////=
LF4H 11084 99596 10022 46/98 12819 10059 20020 49988 52002 8////
      90802 22200 06077 10706 70031=
LGWS 11081 99229 30145 43/// /3203 10183 20172 40131 5//// 222/0
      04160 1//// 3//// 4//// 5////=
LJIT 11081 99583 10043 43/// /2912 10066 20016 40018 5//// 222/0
      04070 1//// 3//// 4//// 5////=
LMEL 11081 99603 10053 43/// /0200 10052 20039 49968 5//// 222/0
      04078 1//// 3//// 4//// 5////=
0000031200
022
SAUK53 EGRR 110800
METAR EGUL 110758Z AUTO 29010KT 9999 BKN020 BKN025 06/06 A2993 RMK
      AO2 SLP139 T00620056=
METAR EGUN 110758Z AUTO 29010KT 9999 OVC019 06/06 A2994 RMK AO2 SLP142
      T00610061=
METAR EGVA 110758Z AUTO 24004KT 9999 CLR 02/02 A3001 RMK AO2 SLP169
      T00220021=
0000315700
023
SNUK42 EGRR 110800
AAXX 11084
03002 47982 /2915 10045 20006 39969 49987 52014 723//
  333 82/59 90710 91132=
03008 46/// /3019 10037 20018 39949 40023 53017
  333 90710 91132=
03010 46/// /2821 10060 20012 40043 52017
  333 90710 91136=
03031 47431 /2713 10009 21007 39754 40086 52015 785//
  333 553// 20000 82/16=
03034 47683 /2512 10040 20009 30071 40085 51023 723//
  333 81/37=
03037 47674 /2003 10027 20006 30080 40102 53025 723//
  333 82/35 86/44=
03039 46/// /2821 11027 21032
  333 90710 91132 91032=
03044 47576 /2711 10016 20002 39967 40068 53019 782//
  333 553// 20000 85/20 83/27=
03047 47384 /3003 10009 21013 39803 40112 53020 741//
  333 553// 20000 81/07 85/23=
03062 47779 /2109 10009 20002 30073 40078 53019 724//
  333 553// 20000 85/50 84/65=
03065 46/// ///// 11061 21070=
03068 42484 22410 10013 20001 30067 40076 53019 82930
  333 82713 81920=
03072 46/// /2935 11041 21060
  333 90710 91154 91048=
03080 45984 /2706 10006 21031 39907 40082 53018
  333 8//99=
03088 45984 /2809 10016 21026 39913 40080 53016
  333 553// 20000 8//99 90710 91125=
03105 47967 /2707 10025 20006 30115 40132 52026 723//
  333 8//99=
03132 45783 /2612 10035 20019 30127 40141 53025
  333 86/50 84/61=
03144 45984 /2311 10020 20000 30061 40105 53017
  333 553// 20000 8//99=
03148 46/// /2817 11016 21019
  333 90710 91127=
03153 45382 /3006 10020 20015 39996 40137 53025
  333 553// 20000 86/08 85/60=
03155 46684 /2311 10011 20001 39820 40124 53020
  333 81/46 83/64=
03158 45984 /2407 10014 21006 39967 40106 53016
  333 553// 20000 81/63=
03210 46673 /2816 10039 20018 39988 40142 53023
  333 81/32 86/43 90710 91127=
03212 47/68 /2807 10038 20021 30039 40140 53023 781//=
03214 47483 /3115 10040 20021 30125 40143 53026 781//
  333 81/16 85/32 86/50=
03220 46776 ///// 10019 20019 30098 40133 53022
  333 85/56 83/66=
03224 47058 /2714 10003 20003 39774 40128 53016 722//
  333 88/01=
03225 46567 /2606 10021 20000 39829 40141 53023
  333 553// 20000 84/26 86/64=
03226 45782 /3502 10011 20003 39852 40134 53020
  333 82/50 87/58=
03227 46/// /2721 11023 2////
  333 90710 91126=
03230 46978 /3403 11002 21009 39861 40125 53018
  333 81/62=
03238 45966 /2615 10020 20009 39932 40109 53010
  333 8//99=
03261 46966 /2605 10016 21008 30092 40134 52023
  333 8//99=
03265 45981 /3302 11009 21044 30102 40134 53023
  333 8//99=
03266 46980 /2607 10022 20007 30115 40132 52026
  333 81/65=
03275 45974 /2614 10028 20005 39923 40119 51021
  333 8//99=
03281 46/// /2607 10014 21003=
03901 45984 /1706 10004 20000 30064 40154 51020
  333 55300 20000 8//99=
03904 45980 /2302 11002 21008 30091 40153 51021
  333 8//99=
03907 47382 /2111 10017 20009 30139 40146 50022 723//
  333 55300 20000 83/07 84/57=
03911 46070 /2906 10002 21004 39873 40154 51023
  333 81/01=
03915 46682 /0301 10006 21001 30068 40148 51028
  333 83/32=
03916 46987 /2805 10010 21006 39950 40145 51030
  333 553// 20000 81/60 83/64=
03923 47360 /1703 11005 21008 39957 40160 53028 710//
  333 81/07=
0000405600
024
SNUK43 EGRR 110800
AAXX 11084
03301 46581 /2910 10044 20024 30088 40163 53023
  333 86/21=
03305 47584 /2618 10042 20007 39895 40161 53020 723//
  333 85/22 83/50 90710 91131=
03313 46580 /2707 10039 20023 30061 40157 53022
  333 81/24 83/36=
03316 47450 /2623 10044 20030 30140 40151 53027 780//
  333 81/12 85/19 90710 91135=
03318 46/// /2909 10045 20027=
03321 47566 /2411 10045 20024 30147 40159 53026 782//
  333 55300 20000 82/27 83/37 86/50=
03330 47477 /2507 10017 20013 39788 40157 53026 721//
  333 86/10 85/61=
03344 45964 /2706 10026 20018 39813 40136 53018
  333 87/64=
03346 46/// /2714 10024 20013=
03351 47574 /2205 10041 20033 30105 40149 53023 723//
  333 55300 20000 81/24 84/57=
03373 46981 /2809 10025 20010 30066 40137 53033
  333 8//99=
03379 42680 12709 10032 20017 30065 40143 53035 81530
  333 81640=
03382 45979 /2707 10035 20014 30118 40127 53029
  333 55300 20000 8//99=
03385 46973 /2711 10039 20022 30119 40129 52037
  333 81/62=
03391 42980 12808 10042 20025 30129 40137 52037 81030
  333 81358=
03392 46980 /2911 10045 20029 30130 40134 53034
  333 81/58=
03405 464// /2216 10051 20023 30058 40176 53025
  333 553// 20000 86/18 90710 91128=
03409 46/// /2510 10044 20022 39957 40160 53019
  333 55300 2////=
03410 46581 /2612 10028 20006 39719 40161 53021
  333 553// 20000 83/23 84/48=
03469 45963 /2807 10040 20032 30134 40138 53035
  333 553// 20000 8//99=
03488 47470 /3014 10057 20045 30098 40124 53028 723//
  333 82/12 86/42 90710 91127=
03503 45584 /3007 10058 20024 30093 40171 53024
  333 82/25 83/45=
03520 46770 /3007 10036 20033 30046 40170 53027
  333 553// 20000 81/50=
03522 45966 /2903 10019 20014 30080 40175 53028
  333 8//99=
03529 45980 /2504 10024 20015 30127 40171 51033
  333 8//99=
03544 45970 /2607 10036 20025 30027 40161 51038
  333 553// 20000 8//99=
03560 45980 /3010 10040 20025 30046 40152 53033
  333 553// 20000 8//99=
03604 46585 /3108 10049 20023 30128 40183 53024
  333 81/26 83/60=
03605 46980 /3111 10046 20031 30173 40182 53025
  333 8//99=
03609 46/// /2809 10055 20048 30133 40187 52026=
03628 45972 /2503 10036 20028 30100 40174 51030
  333 55300 20000 8//99=
03647 46972 /3110 10023 20016 39903 40164 51034
  333 553// 20000 8//99=
03658 43480 12703 10045 20033 30097 40168 53035 81600
  333 81712=
03660 45484 /3007 10041 20030 39910 40162 53033
  333 81/11=
03672 42584 13010 10063 20032 30117 40158 52032 81500
  333 81620=
03680 46/// ///// 10051 20035 39999 40157 52033
  333 553// 20000=
03684 47483 /2810 10058 20039 30037 40144 53027 723//
  333 81/17=
03693 47684 /2910 10071 20047 30143 40146 53021 723//
  333 81/30 87/40=
03707 45583 /3108 10067 20034 30178 40186 53026
  333 83/28 84/36=
03710 46963 /3106 10014 20013 39758 40189 53026
  333 553// 20000 8//99=
03743 46975 /2606 10034 20025 30010 40174 53032
  333 8//99=
03749 46977 /3006 10040 20027 30059 40171 52030
  333 8//99=
03761 42280 12707 10049 20036 30019 40165 53031 81600
  333 55300 20000 81705=
03768 46981 /3006 10055 20041 30084 40164 53033
  333 8//99=
03769 45978 /2805 10060 20043 30075 40158 53027
  333 55300 20000 8//99=
03770 46/// ///// 10079 20047=
03781 45384 /3012 10061 20046 39950 40159 53028
  333 553// 20000 87/09=
03784 46/// /2814 10073 20046 30146 40150 53027=
03797 47456 /2513 10080 20065 30086 40146 53013 761//
  333 55300 20000 86/15=
03823 45568 /3504 10027 20023 39942 40191 52024
  333 553// 20000 83/21 85/25=
03839 46/// ///// 10029 20022
  333 553// 20000=
03857 45981 /3216 10069 20041 30115 40179 52035
  333 8//99=
03862 45983 /3008 10044 20031 30162 40174 53032
  333 55300 20000 8//99=
03866 46/// /3010 10065 20039 30146 40171 53035=
03872 45982 ///// 10060 20049 30161 40166 53033
  333 553// 20000 8//99 91009=
03876 46/// /3308 10067 20047 30158 40161 53023=
03895 41480 73310 10083 20066 40186 53025 72165 8687/ 333 81818 86635=
0000125000
025
SREW41 EGRR 110800
03002016 03005012 03008002 03017006 03026OTR 03031OTR 03034OTR
03037002 03044004 03047OTR 03062004 03063000 03066OTR 03068000
03075000 03080000 03088000 03091000 03100002 03105OTR 03111018
03132000 03134002 03136OTR 03144000 03153000 03155000 03158000
03162OTR 03166000 03171000 03204002 03210000 03212012 03214004
03220000 03224OTR 03225000 03226000 03230000 03238000 03240000
03257000 03261000 03265000 03266000 03275000 03281000 03292000
03301000 03302000 03305OTR 03313008 03316020 03318002 03321002
03330OTR 03344000 03346000 03351006 03354000 03373000 03377000
03379000 03382000 03391000 03392000 03405000 03409000 03410002
03414000 03462000 03469000 03482000 03488OTR 03502000 03503000
03520000 03522000 03529000 03535000 03544000 03560000 03590000
03604000 03605000 03609000 03628000 03647000 03649000 03658000
03660000 03672000 03684OTR 03693OTR 03707000 03710000 03716000
03740000 03743000 03746000 03749000 03761000 03768000 03769000
03770000 03772000 03781000 03797004 03803000 03808000 03809000
03823000 03827000 03839000 03840000 03853000 03857000 03862000
03866000 03872000 03876000 03882002 03901000 03904000 03907022
03911000 03915000 03916000 03917002 03923000=
0000073800
026
SDTH20 VTBB 110800
FFBB 1108/ 48300 NIL=
FFBB 1108/ 48303 00000=
FFBB  1108/ 48327 00000=
FFBB  1108/ 48356 00000=
FFBB  1108/ 48378 00000=
FFBB 1108/ 48381 00000=
FFBB 1108/ 48407 00000=
FFBB 1108/ 48413 NIL=
FFBB 1108/ 48417 NIL=
FFBB 1108/ 48432 0/0/0=
FFBB 1108/ 48456 NIL=
FFBB 1108/ 48475 NIL=
FFBB 1108/ 48478 00000=
FFBB 1108/ 48517 NIL=
FFBB  1108/ 48551 0/0/0=
FFBB 1108/ 48565 00000=
FFBB 1108/ 48567 NIL=
FFBB 1108/ 48568 146/5 155/3 165/3 234/5 245/5 255/3 265/3 335/5
345/5 357/5 365/3 435/5 445/5 456/5 644/3 665/5 675/5 755/5 765/5
775/5 855/5 865/5 61616 14234 15134 161 234 24123 25134 2634 3324
34134 3612 432 4412 451 644 6624 6713 75134=
FFBB 1108/ 48583 NIL=
0000023800
027
SAJD31 OJAI 110800
METAR COR OJAI 110800Z 30004KT 2000 BR SCT010 BKN020 09/08 Q1024
NOSIG=
METAR OJAM 110800Z 00000KT 1000 FG BKN025 08/06 Q1024 NOSIG=
METAR OJAQ 110800Z 00000KT 9999 SCT030 SCT035 14/08 Q1025 NOSIG=
0000037100
028
SATR31 UTAA 110800
METAR UTAA 110800Z 09003MPS 060V120 9999 BKN210 10/M08 Q1018
12CLRD70 NOSIG=
METAR UTAK 110800Z 14007MPS 9999 FEW016 BKN100  08/M02 Q1017 NOSIG=
METAR UTAV 110800Z 18008MPS CAVOK 10/M07 Q1022 NOSIG=
METAR UTAM 110800Z 19004MPS CAVOK 09/M06 Q1022 NOSIG  RMK  SC07=
METAR UTAT 110800Z VRB02MPS CAVOK 05/M02 Q1022 99CLRD70 NOSIG=
0000081400
029
SAUR31 UKMS 110800
METAR UKLR 110800Z 27010MPS 9999 SCT030 BKN100 04/00
         Q1013 NOSIG=
METAR UKLI 110800Z 27006MPS 240V300 CAVOK 06/M03
         Q1018  28090070 NOSIG=
METAR UKON 110800Z 29010MPS CAVOK 06/M03 Q1016 NOSIG=
METAR UKCM 110800Z 26009MPS CAVOK 05/02 Q1011
         19290060 NOSIG=
METAR UKCW 110800Z 25011MPS 9999 SCT013 SCT022CB
         04/01  Q1006 2719//65 BECMG 25012G20MPS=
METAR UKLU 110800Z 14003MPS 9999 OVC005 01/01 Q1021
         NOSIG=
METAR UKKK 110800Z 28009MPS 9999 BKN016 OVC038 04/02
         Q1008  26250255 TEMPO 27012G18MPS=
METAR UKKM 110800Z 28008G13MPS 9999 BKN025 05/01
         Q1008  33210250 TEMPO 28012G17MPS=
METAR UKKE NIL=
METAR UKLN 110800Z 27003MPS 200V330 CAVOK 06/M05
         Q1018 3309//70 TEMPO 32011G16MPS=
0000027000
030
SXHW11 KWAL 110810
B159741A 011081053 
DY DH PC VB
14/01/11 08:00 25.46
14/01/11 07:45 25.46
14/01/11 07:30 25.46
14/01/11 07:15 25.46
14/01/11 07:00 25.46
14/01/11 06:45 25.46
14/01/11 06:30 25.46
14/01/11 06:15 25.46 12.3 40-0NN  16W
0000017000
031
SOVI10 KWAL 110811
B110070A 011081101"P9751095 B\P~W@@F0ekH1@nK???CiCk>@nT3@DD@@I4Cr5C}6bC9Jl<BH2?????@"??? iTHHKCHCFCJCSCRCQ:AMPTEMP 26.22C  45+0NN 219E
0000122500
032
SAAU31 YBBN 110800
METAR YPAD 110800Z 16018KT CAVOK 25/09 Q1017
FM0900 14012KT CAVOK
FM1000 MOD TURB BLW 3000FT=
METAR YBAS 110800Z 11014G24KT CAVOK 38/03 Q1010=
METAR YBBN 110800Z 07012KT 9999 FEW040 25/18 Q1015=
METAR YBCS 110800Z 18006KT 9999 VCSH SCT020 BKN120 27/23 Q1009=
METAR YSCB 110800Z AUTO 06006KT 9999 // SCT099 SCT120 30/09 Q1016=
METAR YPXM 110800Z AUTO 17004KT 9999 // BKN022 BKN029 28/21 Q////=
METAR YPCC 110800Z 14012KT 9999 FEW026 29/22 Q1008=
METAR YCFS 110800Z AUTO 03013KT 9999 // NCD 24/17 Q1016=
METAR YPDN 110800Z 31009KT 9999 FEW032 SCT045 BKN350 29/25 Q1004=
METAR YBCG 110800Z AUTO 08007KT 9999 // NCD 25/17 Q1016=
METAR YHID 110800Z AUTO 26002KT 9999 // ////// 29/24 Q1005=
METAR YPJT 110800Z AUTO 20007KT 9999 // NCD 43/04 Q1010=
METAR YPKU 110800Z NIL=
METAR YPLM 110800Z AUTO 03011KT 9999 // NCD 37/20 Q1006=
METAR YMML 110800Z 18014KT 9999 FEW024 19/12 Q1020
NOSIG=
METAR YPPH 110800Z 12013KT CAVOK 43/05 Q1009=
METAR YSSY 110800Z 04015KT CAVOK 26/17 Q1014
RMK 1CU090 6AC120 6CI280
NOSIG=
METAR YSTW 110800Z AUTO 10008KT 9999 // SCT105 31/08 Q1014=
METAR YPTN 110800Z AUTO 04011KT 9999 // SCT065 SCT077 31/22 Q1004=
METAR YBTL 110800Z 09016KT 9999 FEW025 SCT230 29/21 Q1010=

0000009200
033
SAIN90 VEAT 110800
METAR VEAT 110800Z 32006KT 3500 HZ NSC 26/12 Q1014 NOSIG=
00000000