0000135900
686
FTUS80 KWBC 102151 AAA
TAF AMD
KATL 102149Z 1022/1124 09008KT 1SM -DZ BR OVC002
     FM110100 11008KT 1/2SM -RADZ FG OVC002
     FM110900 16009KT 1SM -RADZ BR OVC003
     FM111400 20009G18KT 2SM -SHRA OVC006
     FM111900 27013G22KT P6SM BKN025
     FM112100 27014G23KT P6SM SCT035=
KCHA 102148Z 1022/1118 00000KT 2SM BR OVC010
      TEMPO 1022/1102 3/4SM BR OVC004
     FM110200 17006KT 3SM BR OVC010
     FM110500 18008KT 3SM BR VCSH SCT008 OVC010
     FM111000 20010KT 3SM RA BR SCT005 OVC010
     FM111500 23010KT 3SM RA BR SCT005 OVC010=
KEVV 102148Z 1022/1118 15007KT P6SM VCSH OVC009
      TEMPO 1022/1024 5SM -SHRA BR
     FM110000 16011KT 5SM SHRA BR SCT008 OVC012
     FM110900 24010KT P6SM BKN015=
KSBA 102149Z 1022/1118 13009KT 5SM HZ SKC
     FM110100 17005KT P6SM SKC
     FM110400 VRB03KT P6SM SKC=
KSBP 102148Z 1022/1118 34012G18KT P6SM SKC
     FM110200 33010KT P6SM SKC
     FM110400 VRB03KT P6SM SKC
     FM111200 09003KT P6SM FEW250=
KTRI 102149Z 1022/1118 07003KT P6SM SCT050 BKN250
      TEMPO 1022/1102 BKN050
     FM110200 00000KT P6SM OVC030
     FM110900 14003KT 5SM BR VCSH OVC030
     FM111500 21010KT 3SM RA BR OVC015=
KTYS 102148Z 1022/1118 05004KT P6SM FEW020 BKN040
     FM110800 21012KT 5SM BR VCSH OVC025
     FM111300 23015KT 3SM RA BR OVC015=

0000009900
687
SPCN46 CWAO 102151
SPECI CYBN 102151Z AUTO 14007KT 2 1/2SM OVC004 M00/M01 A3006=

0000009900
688
SPUS41 KWBC 102151
SPECI
KAKR 102147Z AUTO VRB04KT 1/4SM FG VV002 04/03 A3006=

0000034800
689
SASW31 LSSW 102150
METAR LSZH 102150Z 00000KT 1500 0400N R14/1100U R16/0700N R28/P2000N
    R34/0900U PRFG SCT002 00/M00 Q1019 BECMG 0400 VV001=
METAR LSGG 102150Z 00000KT CAVOK 03/02 Q1019 NOSIG=
METAR LSZB 102150Z AUTO VRB01KT 2600 FZFG NCD M01/M01 Q1019=
METAR LSZA 102150Z AUTO VRB03KT 9999 BKN042 SCT047 08/06 Q1022=

0000031700
690
SASW39 LSSW 102150
METAR LSMA 102150Z NIL=
METAR LSMD 102150Z NIL=
METAR LSME 102150Z NIL=
METAR LSMM 102150Z AUTO 00000KT 0800NDV R10/1000VP2000D R28/P2000N
           BR NCD 00/M00 Q1019 RMK RED=
METAR LSMP 102150Z NIL=
METAR LSMS 102150Z AUTO 00000KT 8000NDV NCD 03/01 Q1020 RMK BLU=

0000017300
691
SAVN24 SVMG 102200
METAR SVMG 102200Z /////KT 9999 SCT010 27/22 Q1012 NOSIG=
METAR SVCU 102200Z NIL=
METAR SVCP 102200Z NIL=
METAR SVGI 102200Z NIL=

0000010600
692
SPCN45 CWAO 102149
SPECI CYCO 102149Z 27014G19KT 3SM -SN DRSN BKN020 BKN080 RMK SC5AC2=

0000018800
693
SALV32 EVRA 102150
METAR EVLA 102150Z AUTO 29011KT 9999 FEW015 BKN020 OVC030 03/M00 
Q1000=
METAR EVVA 102150Z AUTO 31017KT 9999 SCT014 BKN019 OVC034 03/02 
Q0998=

0000052900
694
SADR31 MDSD 102200
METAR
METAR MDPP 102200Z 09010KT 9999 SCT020 27/22 Q1017=
METAR MDST 102200Z 13005KT 9999 SCT018 25/22 Q1018=
METAR MDPC 102200Z 10010KT 9999 FEW022 25/21 Q1017=
METAR MDBH 102200Z 13012KT 9999 FEW020 28/23 Q1015=
METAR MDJB 102200Z 04006KT 9999 FEW020 28/21 Q1017=
METAR MDSD 102200Z 06012KT 9999 FEW022 29/23 Q1016=
METAR MDLR 102200Z 09015KT 9999 FEW020 26/21 Q1016=
METAR MDCY 102200Z 09010KT 9999 SCT018 26/23 Q1017=
METAR MDAB 102200Z 09005KT 9999 BKN020 27/24 Q1017=

0000015700
695
SADN33 EKCH 102150
METAR EKKA 102150Z 24011KT 9999 FEW012 BKN035 06/05 Q1006=
METAR EKSP 102150Z 25011KT 9999 FEW018 SCT035 05/04 Q1009=

0000159100
696
SPUS70 KWBC 102152
SPECI
KEWB 102148Z 22003KT 1SM R05/P6000FT BR BKN006 OVC010 03/03 A3036
     RMK AO2 CIG 003V007=
KGZH 102148Z AUTO 12005KT 10SM OVC005 16/13 A3003 RMK AO2=
KHIE 102148Z AUTO 00000KT 10SM SCT025 OVC050 M05/M08 A3026 RMK
     AO2=
KIJD 102148Z AUTO 00000KT 3SM BR OVC006 00/M02 A3036 RMK AO2=
KOWD 102148Z 18004KT 4SM BR OVC013 01/01 A3036 RMK AO2=
KTRL 102148Z AUTO 20012G18KT 10SM SCT015 19/18 A2969 RMK AO2=
KXNA 102148Z 19009KT 10SM SCT014 BKN027 BKN075 12/10 A2960 RMK
     AO2=
PACV 102148Z 06003KT 1 1/4SM -SN BR FEW007 BKN013 OVC023 01/00
     A2937 RMK AO2 SNB25 P0000 $=
PANW 102145Z AUTO 36004KT 3/4SM BR OVC001 M07/M08 A2950 RMK AO2
     TSNO $=
KAKH 102149Z AUTO 03008KT 2SM -RA BR OVC004 07/06 A3017 RMK AO2
     RAB43 P0000=
KBEH 102149Z AUTO 13009KT 1 1/4SM RA BR BKN006 OVC012 02/02 A2981
     RMK AO2 UPB08E13RAB13 P0013=
KBVY 102149Z 17004KT 6SM BR BKN022 BKN033 OVC080 01/M01 A3035 RMK
     AO2=
KCUB 102149Z AUTO 02007KT 340V050 1SM +RA BR SCT019 BKN029 OVC041
     10/09 A3012 RMK AO2 P0053 TSNO=
KFOE 102149Z 26006KT 8SM SCT013 OVC029 04/03 A2954 RMK AO2=
KLCH 102149Z 18007KT 10SM SCT006 OVC033 18/16 A2988 RMK AO2=
KLVK 102149Z 09004KT 10SM CLR 18/06 A3019 RMK AO2=
KMIE 102149Z 17011KT 4SM BR OVC004 05/04 A2988 RMK AO2=
KMIV 102149Z AUTO 00000KT 1/2SM RA FG VV003 04/04 A3032 RMK AO2
     P0002=
KMPO 102149Z AUTO 16003KT 5SM BR OVC009 01/M01 A3023 RMK AO2 CIG
     004V010=
KRDU 102149Z 04005KT 1 1/2SM -RA BR OVC004 07/06 A3021 RMK AO2 SFC
     VIS 2 1/2 P0011=

0000011200
697
SPUS41 KWBC 102152
SPECI
KEWB 102148Z 22003KT 1SM R05/P6000FT BR BKN006 OVC010 03/03 A3036=

0000012200
698
SAMO31 ZMUB 102200
METAR ZMUB 102200Z VRB01MPS 5000NW FU NSC M34/M38 Q1025 NOSIG RMK
 QFE661.0 65 NT=

0000014100
699
SAEO32 EETN 102150
METAR EETU 102150Z AUTO 33012KT 9999NDV -DZ SCT005/// BKN007///
OVC009/// 01/00 Q0988 RESG REUP RERA=

0000010400
700
SACV20 GVNP 102200
METAR GVNP 102200Z /////KT 9999 BKN020 BKN200 XX/XX Q////
NOSIG=

0000015000
701
FTNO31 ENMI 102000 AAA
TAF AMD ENGM 102147Z 1021/1121 18005KT 9999 SCT012 BKN020 TEMPO
             1021/1121 2000 -SN BR BKN004=

0000011300
702
SPCN45 CWAO 102147
SPECI CYLK 102147Z 10002KT 1 1/4SM -SN OVC060 RMK SC8 VIS VRBL 1 - 1
1/2=

0000056000
703
FTEG31 HECA 102300
TAF HEAX 102300Z 1100/1206 31010KT 9999 SCT025 TEMPO 1100/1106
VRB03KT 3000BR NSC=
TAF HECA 102300Z 1100/1206 30010KT 9999 FEW025 TEMPO 1100/1107
VRB03KT 2000BR NSC=
TAF HELX 102300Z 1100/1206 VRB03KT CAVOK=
TAF HESN 102300Z 1100/1206 36008KT CAVOK=
TAF HEBL 102300Z 1100/1206 36008KT CAVOK=
TAF HEAT 102300Z 1100/1206 36010KT CAVOK=
TAF HESG 102300Z 1100/1206 35010KT CAVOK=
TAF HETB 102300Z 1100/1206 25008KT 7000 SCT020 TEMPO 1100/1107
VRB03KT 2000 BR=
TAF HEMA 102300Z 1100/1206 28012G22KT CAVOK=

0000015500
704
FTAG41 SAZM 102300
TAF SAZM 102300Z 1100/1124 16015KT 9999 SCT025 TX21/1118Z TN14/1110Z
BECMG 1115/1118 18015G25KT 9999 SCT025 FEW045=

0000016500
705
SAIS31 LLBG 102150
METAR LLET 102150Z NIL=
METAR LLHA 102150Z NIL=
METAR LLIB 102150Z NIL=
METAR LLOV 102150Z NIL=
METAR LLSD 102150Z NIL=

00000000