0000011000
886
SAAG41 SASA 110100
METAR SASA 110100Z  29003KT 9999  SCT025 FEW045CB
BKN100  24/16 Q1011=

0000008400
887
SAAG41 SABE 110100
METAR SABE 110100Z  02004KT CAVOK 26/17 Q1009=

0000008400
888
SAAG41 SAVC 110100
METAR SAVC 110100Z  05005KT CAVOK 14/07 Q1014=

0000031200
889
FTBZ18 SBGR 110600
TAF SBSP 110100Z 1106/1206 05005KT CAVOK TN20/1108Z
TX34/1117Z
BECMG 1111/1113 35008KT 9999 SCT035
BECMG 1115/1117 30005KT
9999 SCT035 FEW045TCU
PROB40 1118/1121 27010KT 8000 TSRA SCT030
FEW040CB
BECMG 1121/1123 13005KT CAVOK
BECMG 1203/1205 04005KT RMK PGL=

0000029900
890
FTBZ18 SBGR 110600
TAF SBRP 110100Z 1106/1206 11003KT CAVOK TN20/1108Z
TX35/1117Z
BECMG 1112/1114 33008KT 9999 SCT035
BECMG 1115/1117 SCT035
FEW045TCU
PROB40 1118/1121 30010KT 8000 TSRA SCT030 FEW040CB
BECMG
1121/1123 08005KT CAVOK
BECMG 1200/1202 00000KT RMK PGL=

0000025400
891
FTBZ18 SBGR 110600
TAF SBCF 110100Z 1106/1206 12005KT 9999 SCT020
TN19/1109Z TX30/1117Z
BECMG 1108/1111 05008KT
BECMG 1114/1116 11005KT
9999 SCT030 FEW045TCU
BECMG 1122/1124 14005KT SCT025
BECMG 1203/1205
11005KT RMK PGL=

0000029400
892
FTBZ18 SBGR 110600
TAF SBGR 110100Z 1106/1212 09004KT CAVOK TN20/1108Z
TX33/1117Z
BECMG 1111/1113 33008KT SCT040
BECMG 1115/1117 SCT035
FEW045TCU
PROB40 1118/1122 30008KT 9000 TSRA SCT030 FEW045CB
BECMG
1122/1124 10005KT CAVOK
BECMG 1204/1206 07005KT RMK PGL=

0000030200
893
FTBZ18 SBGR 110600
TAF SBKP 110100Z 1106/1206 12005KT CAVOK TN21/1108Z
TX33/1117Z
BECMG 1110/1112 04005KT
BECMG 1113/1115 01005KT FEW030
BECMG
1115/1117 33008KT SCT040 FEW045TCU
PROB40 1118/1124 20008KT 8000 TSRA
SCT035 FEW040CB
BECMG 1200/1202 14005KT CAVOK RMK PGL=

0000015200
894
SAZA31 FAPR 110100 RRA
METAR FABL 110100Z AUTO 24002KT 9999 ////// 15/10 Q1018=
METAR FAOR 110100Z VRB02KT CAVOK 16/09 Q1021 NOSIG=

0000130100
895
SAAG05 SABM 110100
METAR SAAR 110100Z  09008KT 9000 -TSRA BKN032
FEW045CB OVC050  26/22 Q1010=
METAR SABE 110100Z  02004KT CAVOK 26/17 Q1009=
METAR SACO 110100Z  16010KT 9999  FEW040CB SCT100
26/20 Q1014=
METAR SADF 110100Z  32004KT CAVOK 24/16 Q1009=
METAR SAEZ 110100Z 24004KT 190V270 CAVOK 24/16 Q1010=
METAR SAME 110100Z  00000KT 9999 VCTSRA FEW045
FEW050CB  27/08 Q1013=
METAR SANT 110100Z  23008KT 6000 TS FEW030
SCT050CB BKN100  30/23 Q1005=
METAR SAOC 110100Z  00000KT CAVOK 21/15 Q1013=
METAR SARC 110100Z  05005KT 9999  FEW050CB SCT200
30/24 Q1006=
METAR SARE 110100Z 07004KT 6000 NSC 29/25 Q1005=
METAR SARF 110100Z 02007KT CAVOK 31/23 Q1007=
METAR SARI 110100Z  09003KT CAVOK 27/24 Q1012=
METAR SARL 110100Z 09008KT 9999 TS SCT025 FEW045CB OVC100 24/20
Q1010=
METAR SARP 110100Z NIL=
METAR SASA 110100Z  29003KT 9999  SCT025 FEW045CB
BKN100  24/16 Q1011=
METAR SASJ 110100Z NIL=
METAR SAVC 110100Z  05005KT CAVOK 14/07 Q1014=
METAR SAWE 110100Z  25013KT 9999  FEW020 SCT060
10/04 Q1007=
METAR SAWG 110100Z  25006KT 9999 -RA OVC045  09/06
Q1012=
METAR SAWH 110100Z NIL=
METAR SAZM 110100Z  23010KT CAVOK 19/14 Q1013=
METAR SAZN 110100Z 00000KT CAVOK 19/08 Q1013=
METAR SAZS 110100Z  32013KT CAVOK 15/05 Q1020=

0000021400
896
SAAP32 FAPR 110100 RRA
METAR FABL 110100Z AUTO 24002KT 9999 ////// 15/10 Q1018=
METAR FAOR 110100Z VRB02KT CAVOK 16/09 Q1021 NOSIG=
METAR FYWH 110100Z AUTO 05002KT //// // ////// 09/01 Q1021=

0000008300
897
SAFI01 MBPV 110100
MBPV 110100Z 06007KT 9999 SCT012 24/22 Q1020=

0000019400
898
FTCN34 CWAO 110100 AAA
TAF AMD CYYL 110114Z 1101/1113 05008KT 6SM -SN SCT015 OVC030 TEMPO
     1101/1113 1SM -SN VV015
    RMK FCST BASED ON AUTO OBS. NXT FCST BY 110700Z=

0000024700
899
FTUS44 KWBC 110115 AAA
TAF AMD
KHVR 110113Z 1101/1124 28010KT P6SM BKN100
     FM110400 23010KT P6SM BKN100
     FM110900 21008KT P6SM VCSH BKN090
     FM111700 22016KT P6SM BKN250
     FM112200 26025G35KT P6SM BKN250=

0000036400
900
FTUS74 KWBC 110115 AAA
TAF AMD
KBYI 110113Z 1101/1124 25010KT P6SM OVC050
     FM110500 24010KT P6SM VCSH SCT025 OVC040
     FM111000 22012G18KT P6SM SCT040
     FM111900 20018G28KT P6SM BKN040=
KIDA 110112Z 1101/1124 26009KT P6SM SCT050 OVC200
     FM110800 21012KT 6SM -SN OVC008
     FM111500 21020G30KT P6SM VCSH SCT015 BKN050=

0000037500
901
FTUS75 KWBC 110115 AAA
TAF AMD
PAYA 110112Z 1101/1124 08004KT P6SM -SHSN BCFG SCT010 BKN025
      OVC040
      TEMPO 1101/1103 2SM -SN BR BKN003 OVC025
     FM110900 VRB04KT P6SM BCFG VCSH FEW003 OVC025
     FM111500 00000KT P6SM VCSH FEW010 BKN050
     FM112100 08003KT P6SM FEW010 OVC035 AMD LTD TO CLD VIS
      AND
      WIND 1101/1110=

0000012500
902
SAMO31 ZMUB 110100
METAR ZMUB 110100Z VRB01MPS 3000NW FU NSC M36/M40 Q1027 NOSIG RMK
 QFE662.3 64 NW MO=

0000064500
903
SAUK20 EGGY 110120
METAR EGRE 110120Z AUTO 09017KT 9999 -SN BKN009/// 03/M01 Q0997 RERA
     W///S5=
METAR EGRK 110120Z AUTO 27031KT 9999 SCT013/// SCT018/// 06/03 Q0998
     RESN RERA W///S5=
METAR EGRM 110120Z AUTO 26029KT 9999 NCD 06/02 Q1001 W///S5=
METAR EGRO 110120Z AUTO 30026KT //// // ///////// 06/02 Q1003 W///S4=
METAR EGRP 110120Z AUTO 29016KT 9999 NCD ///// Q1003 W///S4=
METAR EGRS 110120Z AUTO 31023KT 9999 FEW029/// 07/01 Q1003 W///S4=
METAR EGRV 110120Z AUTO 23026KT 9999 RA BKN007/// BKN015/// 07/06
     Q1007 W///S4=
METAR EGRW 110120Z AUTO 21024KT 9999 RA OVC019/// 07/06 Q1009 W///S4=

0000049700
904
SAUK21 EGGY 110120
METAR EGRF 110120Z AUTO 27024KT 9999 FEW029/// 06/00 Q0997 W///S5=
METAR EGRG 110120Z AUTO 12020KT 9999 FEW010/// SCT020/// 04/02 Q0996
     W///S5=
METAR EGRI 110120Z AUTO 26024KT 9999 FEW023/// 07/02 Q0998 RERA=
METAR EGRL 110120Z AUTO 27024G37KT 150V350 9999 RA NCD 06/02 Q0999
     W///S5=
METAR EGRN 110120Z AUTO 31020KT 9999 FEW015/// BKN037/// 07/05 Q1004=
METAR EGRT 110120Z AUTO /////KT 9999 RA BKN006/// 07/06 Q1008 RERA
     W///S4=

0000018100
905
SAFA31 EKCH 110120
METAR EKVG 110120Z AUTO 25010G20KT 9999NDV FEW023/// BKN160///
05/01 Q0995 RMK SCT024/// SCT052/// BKN160/// WIND 850FT 28013G27KT
220V310=

00000000