0000015700
734
SSVX13 LFPW 110900
ZZYY 41971 11014 0900/ 736036 058682 6113/ 11119 40317 57001 22219
 00205 444 20130 11014 0900/ 50101 80120 80005 9/015=
0000016300
735
SSVX13 LFPW 110900
ZZYY 13595 11014 0900/ 730276 019468 6113/ 22219 00199 33300 88872
 20000 43682 444 20130 11014 0900/ 50101 80108 80024 9/015=
0000018400
736
SSVX13 LFPW 110900
ZZYY 41736 11014 0900/ 711985 040305 6113/ 11119 40145 52005 22219
 00256 33300 88872 20000 43602 444 20130 11014 0900/ 50101 80112
 80032 9/015=
0000016300
737
SSVX13 LFPW 110900
ZZYY 13592 11014 0900/ 728914 053556 6113/ 22219 00235 33300 88872
 20000 43656 444 20130 11014 0900/ 50101 80112 80008 9/015=
0000041300
738
FCIN90 VOTV 110900
TAF VOTV 110900Z 1112/1121 14005KT 5000 HZ FEW015 SCT100
TEMPO 1112/1115 2000 TSRA/RA SCT008 SCT012 FEW025CB OVC090
BECMG 1117/1118 00000KT 4000 HZ=
TAF VOCI 110900Z 1112/1121 22005KT 5000 HZ FEW015 SCT100
TEMPO 1112/1115 FEW025CB BECMG 1117/1118 00000KT 4000 HZ=
TAF VOCL 110900Z 1112/1121 22005KT 5000 HZ FEW015 SCT100
TEMPO 1112/1115 FEW025CB BECMG 1117/1118 0000KT 4000 HZ=

0000009500
739
SAIN90 VEIM 110900
METAR VEIM 110900Z 19004KT 5000 HZ FEW020 24/10 Q1015 NOSIG=
0000015700
740
SSVX13 LFPW 110900
ZZYY 44773 11014 0900/ 742165 028986 6113/ 11119 40036 52022 22219
 00148 444 20130 11014 0900/ 50101 80118 80006 9/015=
0000015700
741
SSVX13 LFPW 110900
ZZYY 62684 11014 0900/ 174685 004784 6113/ 11119 40162 52009 22219
 00010 444 20130 11014 0900/ 50101 80076 80003 9/015=
0000015700
742
SSVX13 LFPW 110900
ZZYY 16593 11014 0900/ 338662 079051 6113/ 11119 40205 57001 22219
 00148 444 20130 11014 0900/ 50101 80120 80013 9/015=
0000016300
743
SSVX13 LFPW 110900
ZZYY 13591 11014 0900/ 722909 066435 6113/ 22219 00262 33300 88872
 20000 43604 444 20130 11014 0900/ 50101 80106 80013 9/015=
0000015700
744
SSVX13 LFPW 110900
ZZYY 14920 11014 0900/ 328512 067382 6113/ 11119 40237 57014 22219
 00227 444 20130 11014 0900/ 50101 80122 80015 9/015=
0000015700
745
SSVX13 LFPW 110900
ZZYY 44874 11014 0900/ 745780 020828 6113/ 11119 49974 57067 22219
 00130 444 20130 11014 0900/ 50101 80118 80008 9/015=
0000015700
746
SSVX13 LFPW 110900
ZZYY 44740 11014 0900/ 730695 030613 6113/ 11119 40154 52014 22219
 00202 444 20130 11014 0900/ 50101 80118 80023 9/015=
0000015700
747
SSVX13 LFPW 110900
ZZYY 41970 11014 0900/ 730902 058802 6113/ 11119 40299 52005 22219
 00216 444 20130 11014 0900/ 50101 80118 80052 9/015=
0000015700
748
SSVX13 LFPW 110900
ZZYY 41972 11014 0900/ 734560 040345 6113/ 11119 40238 52012 22219
 00195 444 20130 11014 0900/ 50101 80120 80098 9/015=
0000015700
749
SSVX13 LFPW 110900
ZZYY 44863 11014 0900/ 739027 038274 6113/ 11119 40193 52019 22219
 00161 444 20130 11014 0900/ 50101 80118 80100 9/015=
0000018400
750
SSVX13 LFPW 110900
ZZYY 41734 11014 0900/ 705279 039130 6113/ 11119 40117 52011 22219
 00264 33300 88872 20000 43603 444 20130 11014 0900/ 50101 80118
 80019 9/015=
0000012000
751
SIYE70 OYSN 110900
AAXX 11094
41404 42560 72312 10228 21080 37872 48528 83509 333 58004 83630
84168=
0000009400
752
SAYE20 OYSN 110900
METAR OYSN 110900Z 23012KT 9999 SCT030 SCT180 23/M08 Q1025=
0000024600
753
FAAJ31 UBBB 110800
UBBA GAMET VALID 111200/111500
UBBB BAKU FIR BLT R 2,12,13
         1014 HPA SECTOR 1,7,8,9,10
         1015 HPA SECTOR 3,6
         1017 HPA SECTOR 4,5
         1025 HPA SECTOR 11
SEA: T09 HGL 3.0 M
00000000