0000009500
686
SAIO31 KWBC 110200 RRC
METAR
FMMT 110200Z 00000KT 9999 FEW017 25/24 Q1011=

0000082200
687
FTRA34 RUMS 110200
TAF UNAA 110153Z 1103/1203 24005MPS 9999 SCT030CB BKN100 530009 TEMPO
1103/1115 21008G13MPS 1000 SHSN BLSN 640006=
TAF UNBB 110200Z 1103/1203 20008G14MPS 3000 -SHSN DRSN BKN010CB
530005 TEMPO 1103/1112 1200 SHSN BLSN SCT002 BKN005 650050 TEMPO
1112/1124 1200 SHSN BR SCT002 BKN005=
TAF UNKL 110148Z 1103/1203 21006MPS 5000 -SHSN BKN020CB OVC100 TEMPO
1103/1112 24007G12MPS 0800 +SHSN BLSN SCT005 BKN015CB OVC100
530009=
TAF UNNT 110150Z 1103/1203 20008G14MPS 3000 -SHSN DRSN BKN010CB
530005 TEMPO 1103/1116 0500 +SHSN BLSN SCT001 BKN004 650040 BECMG
1116/1117 9999 NSW SCT015CB TEMPO 1117/1203 VRB02MPS 1200 BR
SCT002=
TAF UNOO 110153Z 1103/1203 19007MPS 2000 SHSN BLSN BKN010 BKN020CB
650100 530002 TEMPO 1103/1112 19012MPS 1000 SHSN BLSN BKN005
BKN020CB=

0000047500
688
FTRA37 RUMS 110200
TAF USTR 110157Z 1103/1203 17006G11MPS 2000 SHSN BR BKN007 BKN015CB
650070 TEMPO 1103/1203 0800 +SHSN FZRA VV004 640000=
TAF USHH 110153Z 1103/1203 05005MPS 4000 -SN BKN007 OVC070 620070
TEMPO 1103/1106 2000 SN BR BKN004 OVC070 620040=
TAF USRR 110136Z 1103/1203 08003MPS 4000 -SN SCT007 BKN066 TEMPO
1103/1112 2000 SN BKN004=
TAF USSS 110157Z 1103/1203 14004MPS 2000 SHSN BKN007 BKN020CB 650070
BECMG 1105/1106 5000 -SHSN=

0000042800
689
FTRS35 RUMS 110200
TAF UWLW 110145Z 1103/1203 19009MPS 2100 -SNRA BR OVC007 650070 TEMPO
1103/1115 16013MPS 0700 +SNRA VV003 530001=
TAF UWOO 110200Z 1103/1203 24005MPS 0300 FZFG VV002 640000 TEMPO
1103/1105 VRB03MPS 1000 FZDZ BR OVC003 BECMG 1105/1107 2000 SNRA BR
OVC005=
TAF UWWW 110200Z 1103/1203 18009MPS 1500 SNRA BR OVC005 650050 TEMPO
1103/1124 21015MPS 0600 +SHSNRA VV003 SCT010CB 530003=

0000069100
690
FTRS33 RUMS 110200
TAF UUBW 110150Z 1103/1203 22006MPS 8000 BKN010 TEMPO 1103/1106 -SHRA
BKN007 SCT010CB TEMPO 1106/1114 2200 -SHSNRA BKN006 SCT010CB BECMG
1110/1112 29007G12MPS=
TAF UUDD 110155Z 1103/1209 22008MPS 6000 OVC007 TEMPO 1103/1106 2100
-SHRASN BKN004 BKN012CB TEMPO 1106/1120 0800 +SHSNRA SCT004
BKN012CB BECMG 1109/1111 28008G13MPS=
TAF UUDL 110200Z NIL=
TAF UUEE 110150Z 1103/1203 20005MPS 6000 BKN007 TEMPO 1103/1212 2000
RASN BKN005 SCT010CB BECMG 1110/1112 27005MPS TEMPO 1112/11203 1500
SHSN BKN005 SCT010CB=
TAF UUWW 110155Z 1103/1203 21006G11MPS 6000 BKN009 TEMPO 1103/1121
1200 SHRASN BKN004 BKN012CB BECMG 1108/1110 27007G12MPS=

0000035800
691
FTRA35 RUMS 110200
TAF UHBB 110150Z 1103/1203 32005MPS CAVOK=
TAF UHSS 110200Z 1103/1209 36003MPS 9999 BKN025CB OVC100 530007 TEMPO
1103/1209 2100 SHSN BKN007 BKN025CB=
TAF UHWW 110155Z 1103/1203 VRB02MPS 9999 SCT100 BECMG 1104/1106
25003MPS BECMG 1108/1110 34004MPS 5000 -SHSN HZ SCT020CB BKN100
TEMPO 1110/1203 35011MPS 530007=

0000056200
692
FTRA36 RUMS 110200
TAF UWUU 110159Z 1103/1203 18005G10MPS 2500 -SNRA BR OVC008 SCT015CB
650080 530003 TEMPO 1103/1106 VRB02MPS 0300 FZDZ FZFG VV002 640000=
TAF UNEE 110145Z 1103/1203 22008G14MPS 3000 -SHSN DRSN BKN010CB
OVC070 650040 530004 TEMPO 1103/1106 0600 +SHSN BLSN BKN002 TEMPO
1106/1124 1200 SHSN BKN004=
TAF USCC 110200Z 1103/1203 VRB02MPS 5000 BR FU BKN007CB OVC070 530005
TEMPO 1103/1109 17006MPS 2000 SHSN BKN005=
TAF USNN 110200Z 1103/1203 03003MPS 4000 -SN BR BKN012 OVC066 620120
TEMPO 1103/1109 2000 BR BKN007=

0000057400
693
FTRS34 RUMS 110200
TAF USPP 110157Z 1103/1203 16006MPS 6000 BKN007 OVC100 650070 TEMPO
1103/1124 16011MPS 1100 FZDZ SN OVC002 640000=
TAF UWKD 110155Z 1103/1203 17009G15MPS 2000 SNRA OVC004 SCT015CB
650040 530001 TEMPO 1103/1106 0600 +SHSNRA FZRA VV002 BKN010CB
640000 TEMPO 1106/1115 0800 +SHSNRA VV003 BKN010CB BECMG 1115/1117
19006G12MPS OVC007=
TAF UWKE 110145Z 1103/1203 16012MPS 2000 BR OVC005 650050 530001
TEMPO 1103/1109 18008MPS 0500 SN FZRA FZFG OVC002 640000 TEMPO
1109/1121 18016MPS 1000 SHSN FZRA BLSN BKN003 BKN010CB 640000=

0000038800
694
FTRS31 RUMS 110200
TAF ULLI 110204Z 1103/1203 34008G13MPS 4000 -SN BLSN BKN008 530003
TEMPO 1103/1112 32010G15MPS 1600 SHSN BLSN BKN006 BKN015CB TEMPO
1112/1124 2100=
TAF UWGG 110150Z 1103/1203 20005G10MPS 2100 -SHSNRA OVC007 SCT012CB
650070 530003 TEMPO 1103/1118 17007G14MPS 1000 SHSNRA VV004
FM111800 24005G13MPS 2100 -SHSNRA BKN007 SCT012CB 650090 530003=

0000037500
695
FTRA33 RUMS 110200
TAF UIAA 110145Z 1103/1203 03004MPS 9999 BKN100 530009=
TAF UIBB 110150Z 1103/1203 08003MPS 3000 -SHSN BR BKN014CB BKN100
TEMPO 1103/1109 0300 FG=
TAF UIII 110144Z 1103/1203 16004MPS 9999 SCT020CB TEMPO 1103/1115
30004MPS 2000 -SHSN FU=
TAF UIUU 110152Z 1103/1203 28006MPS 4000 -SHSN SCT020CB BKN100 BECMG
1109/1111 VRB02MPS=

0000006900
696
FCIY31 LIIB 110200
TAF LIMP 110200Z 1103/1112 NIL=

0000039200
697
FCIY32 LIIB 110200
TAF LIBR 110200Z 1103/1112 NIL=
TAF LIPB 110200Z 1103/1112 NIL=
TAF LIPH 110200Z 1103/1112 VRB03KT 1500 BR BKN030 TEMPO 1103/1107
0500 FG BKN002=
TAF LIPR 110200Z 1103/1112 VRB03KT 5000 BR BKN040 TEMPO 1103/1107
0500 FG BKN002=
TAF LIPX 110200Z 1103/1112 VRB03KT 1000 BR SCT010 BKN040 TEMPO
1103/1107 0500 FG BKN002 BECMG 1107/1110 3000 BR=

0000017100
698
FCIY33 LIIB 110200
TAF LIMG 110200Z 1103/1112 NIL=
TAF LIMS 110200Z 1103/1112 NIL=
TAF LIMW 110200Z 1103/1112 NIL=
TAF LIMZ 110200Z 1103/1112 NIL=

0000011600
699
SAEO31 EETN 110220
METAR EETN 110220Z 35009KT 3000 SN BKN007 OVC015 M01/M01 Q0996 
R08/290195 =

0000015500
700
FCIY34 LIIB 110200
TAF LIPC 110200Z 1103/1112 VRB03KT 0500 FG BKN002 BECMG 1108/1110
2000 BR BKN030=
TAF LIPF 110200Z 1103/1112 NIL=

0000041800
701
FCIY35 LIIB 110200
TAF LIRG 110200Z 1103/1112 NIL=
TAF LIRH 110200Z 1103/1112 NIL=
TAF LIRL 110200Z 1103/1112 NIL=
TAF LIRM 110200Z 1103/1112 04004KT 4000 BR SCT015 SCT025 TEMPO ?
1103/1106 0800 FG SCT005 BKN020=
TAF LIRS 110200Z 1103/1112 05004KT 9999 SCT020 BKN030 TEMPO 1103/1106
5000 BR BECMG 1108/1110 9999 SCT020=
TAF LIRU 110200Z 1103/1112 NIL=
TAF LIRV 110200Z 1103/1112 NIL=

0000017100
702
FCIY36 LIIB 110200
TAF LIBC 110200Z 1103/1112 NIL=
TAF LIBF 110200Z 1103/1112 NIL=
TAF LIBG 110200Z 1103/1112 NIL=
TAF LIRZ 110200Z 1103/1112 NIL=

0000018700
703
FCIY37 LIIB 110200
TAF LICD 110200Z 1103/1112 NIL=
TAF LICG 110200Z 1103/1112 NIL=
TAF LICR 110200Z 1103/1112 NIL=
TAF LICT 110200Z 1103/1112 14013KT 9999 FEW020=

0000021500
704
FTAG41 SAEZ 110200
TAF AMD SAEZ 110200Z 1102/1124 19010KT CAVOK TX26/1118Z TN15/1109Z
BECMG 1104/1107 16010G20KT 9999 SCT030 BECMG 1112/1115
     16015KT 9999
SCT040 BECMG 1121/1124 11010KT=

0000033100
705
FTXX69 EGRR 110200
TAF AMD KQIR 1102/1205 VRB06KT 8000 -SHRA SCT030 BKN050 OVC100 QNH3003INS
     TEMPO 1106/1112 13010G15KT -TSRA SCT020CB BKN030 OVC050
     BECMG 1111/1112 28012G18KT 9999 NSW BKN050 QNH3008INS
     BECMG 1123/1124 33010G15KT 9999 SCT050 QNH3008INS T20/1111Z
     T13/1203Z AMD 110205=

00000000