0000069900
386
SXXX32 EUMS 110734 RRX
26A63714
OT12 ID:CO-P/TN-06 DT:2014 01 11 07 24
/RAD /1 0078/ 00786 00780 00793 00815 00795 00809 00831 00822 00813 00843 00849 00816 00836 00869 00857 00845 10862/00877 00840 00847 00846 00860 00857 00838000856 00834 00(33 0 879 00852/
:PR1 /1 ///// ///// ///// .//// /?/// ///// ///// ///// ///// ///// ///// ///// ///// ///// ///// ///// ///// ///// //?// ///// ///// ////? ///// ///// ///// ///// ///// ///// ///// /////
:PR2 /1////// ///// ///// ///// /////////// ///// ////? ///?/ ///// ////. ///// ////? /./// ///// /?/// ///// ///// ///// ///// /?//. ?//// ///// ///// ///// ///// ///// ///// ///?/ /////
:TM1 /15 /// /// ///0///
:BAT 12.0V
0000037800
387
SXXX32 EUMS 110736 RRX
12FD90D0
:PRS 1 /1 1415 1416 1406 1402 1385 1380 1383 1370 1367 1353 1360 1348 :RAD 1 /3 5950 5927 5909 5899 5890 5873 5862 5870 5877 5874 :ENC 3 /6 5682 5650 5622 5598 5627 5596 5571 5556 5539 5553 :RA2 3 /6 4829 4800 4765 4739 4755 4714 4686 4668 4651 4658 :SW1 36 /60 60 :SW2 6 /60 60 :BAT 5 /6 13.2 :WTP 5 /6 28.4 28.4 :NAME 12FD90D0
0000036700
388
SXXX32 EUMS 110736 RRX
12FFB3C8
:PRS 1 /1 M 3522 3539 3534 3523 3537 3520 3512 3502 3491 3487 3487 3492 3500 3510 3512 3531 3518 3519 3509 3497 3496 3478 3481 3493 3484 3504 3501 3493 3490 :RAD 1 /3 6466 6452 6436 6438 6449 6443 6432 6428 6431 6422 :ENC 1 /5 -144 -144 -144 -144 -144 -144 :SW1 36 /60 0 :SW2 6 /60 0 :BAT 14 /15 13.7 :NAME 12FFB3C8 /
0000070500
389
SXXX32 EUMS 110736 RRX
26F364EA

ST STHELENA
DT 11/01/14 11/01/14
TM 07:30:00 07:15:00
RD 10000 10000 10000 10000 10000 10000 10000 10000 10000 10000 10000 10000 10000 10000 10000 10000 10000 10000 10000 10000 10000 10000 10000 10000 10000 10000 10000 10000 10000 10000
P1 00651 00592 00871 00500 00681 00400 00605 00806 00798 00619 00386 00759 00751 00327 00898 00819 00223 00497 00658 00798 00942 00705 00943 00883 00559 00897 00221 00188 00686 00969
P2 00018 00015 00016 00017 00016 00019 00017 00017 00016 00018 00017 00017 00015 00017 00016 00017 00017 00016 00016 00016 00016 00016 00015 00015 00018 00016 00017 00016 00015 00016
T1 00.0 00.0
T2 22.4 22.4
VB 12.7
0000069800
390
SXXX32 EUMS 110736 RRX
3601E29A
OT12 ID:DJ-BOUT-08 DT:2014 01 11 07 26
:RAD /1 01285 01282 01282 01281 01278 01276 01277 01274 01268 01264 01263 01262 01253 01248 01249 01247 01243 01247 01236 01240 01239 01238 01236 01231 01230 01228 01227 01225 01224 01222
:PR1 /1 01582 01581 01577 01570 01571 01564 01561 01563 01566 01555 01557 01555 01514 01511 01554 01565 01540 01540 01531 01535 01533 01533 01522 01529 01521 01518 01522 01519 01526 01520
:PR2 /1 00003 00003 00003 00003 00003 00002 00003 00002 00002 00003 00003 00003 00003 00003 00003 00003 00003 00003 00002 00002 00004 00003 00003 00002 00002 00002 00003 00003 00003 00003
:TM1 /15 257 258 258 257
:BAT 13.5V
0000011000
391
UANT99 KDDL 110738
ARP SWR53P 5102N01709W 0738 F370 MS63 243/77 KT
HBJHE QXT AOE 110739 J25A
0000070200
392
SXXX32 EUMS 110736 RRX
22E7E6D2
OT12 ID:ID-ROTE-11 DT:2014 01 11 07 35
:PRS /1 -10833 -10765 -10790 -10765 -10765 -10766 -10767 -10798 -10794 -10793 -10795 -10795 -10792 -10792 -10797 -10835 -10762 -10790 -10762 -10765 -10768 -10765 -10794 -10789 -10800 -10799 -10796 -10803 -10798 -10794
:PR2 /1 04062 04065 04066 04097 04085 04098 04103 04084 04098 04115 04097 04093 04136 04117 04130 04117 04146 04095 04125 04139 04118 04142 04147 04143 04153 04132 04158 04151 04177 04153
:RAD /1 05644 05644 05648 05656 05664 05640 05664 05692 05680 05680 05696 05656 05676 05712 05668 05707 05704 05696 05676 05709 05708 05716 05716 05716 05728 05729 05724 05745 05728 05736
:BAT 13.6V/
0000009400
393
SAIN90 VEAT 110730
METAR VEAT 110730Z 31006KT 3500 HZ NSC 26/12 Q1014
NOSIG=
0000009200
394
SAIN90 VOCI 110730
METAR VOCI 110730Z 36003KT 5000 HZ NSC 32/20 Q1011 NOSIG=
0000009200
395
SPIN90 VAAH 110740
SPECI VAAH 110740Z 05010KT 3000 FU NSC 21/11 Q1016 NOSIG=
0000009200
396
SAIN90 VEAT 111030
METAR VEAT 111030Z 31004KT 3000 HZ NSC 25/13 Q1014 NOSIG=
0000010400
397
SAIN90 VERC 110730
METAR VERC 110730Z 03006KT 1200 MIFG SCT015 OVC090 17/13 Q1017 NOSIG=
0000010200
398
SAIN32 VECC 110730 RRA
METAR VEAT 110730Z 31006KT 3500 HZ NSC 26/12 Q1014
    NOSIG=
0000067200
399
SXXX32 EUMS 110737 RRX
32CC9580
OT12 ID:ID-ENGG-07 DT:2014 01 11 07 36
:PRS /1 01884 01875 01859 01858 01903 01843 01867 01838 01899 01924 01890 01896 01902 01907 01858 01875 01886 01897 01909 01885 01937 01895 01954 01894 01879 01885 01910 01890 01914 01923
:PR2 /1 05282 05292 05288 05302 05250 05283 05281 05298 05337 05302 05305 05317 05305 05328 05258 05325 05301 05321 05327 05327 05328 05317 05316 05294 05312 05329 05341 05348 05373 05308
:RAD /1 06191 06173 06189 06195 06191 06147 06189 06178 06217 06187 06199 06214 06197 06216 06162 06206 06184 06182 06239 06199 06233 06209 06214 06207 06207 06203 06235 06215 06232 06195
:BAT 13.5V/
0000011100
400
UANT99 KDDL 110739
ARP AAL206 4540N01424W 0739 F380 MS61 272/44 KT
N391AA DDL XXW 110739 F13A
0000010800
401
UANT99 KDDL 110739
ARP ANZ2 5605N03731W 0739 F330 MS57 237/21 KT
ZKOKQ QXT AME 110739 F27A
0000011100
402
UANT99 KDDL 110739
ARP AWE796 4955N02104W 0739 F380 MS61 225/72 KT
N281AY DDL XXN 110739 J58A
0000013600
403
SNVD17 CWHX 110700
BBXX
44137 11071 99423 70620 46/// /3302 10044 40305 57004
22200 00077 10602 70010 333 91203 =

0000011000
404
UANT99 KDDL 110739
ARP AFR969 4437N01831W 0739 F370 MS64 246/71 KT
FGITF QXT AOW 110739 F53A
0000011000
405
UANT99 KDDL 110739
ARP KLM644 5052N04047W 0739 F350 MS60 323/39 KT
PHBFY QXT AOW 110739 F83A
00000000