0000014500
166
SAUK39 EGGY 102300
METAR EGUN 102258Z AUTO 23010KT 9999 -DZ FEW021 08/07 A2988 RMK AO2
      RAB2240 SLP122 P0000 T00820068=

0000033100
167
FTNT31 KWBC 102312
TAF
TAF LPLA 102309Z 1100/1124 24015KT 9999 SCT015 BKN030
      TEMPO 1100/1104 24018G30KT 8000 SHRA FEW010 BKN014
      BECMG 1103/1105 30018G28KT SCT018 SCT030
      TEMPO 1104/1115 30028G45KT 6000 SHRA SCT014 FEW018TCU
      TEMPO 1115/1124 30025G40KT 3000 SHRAGS BKN014 FEW020CB=

0000022800
168
FTFG31 SOCA 102300
TAF SOCA 102300Z 1100/1124 VRB03KT 9999 FEW010 SCT018 BKN060 TEMPO
1100/1124 3000 RA SCT005 BKN015 OVC050 PROB30 TEMPO 1112/1124 2000
+RA BECMG 1112/1115 07010KT BECMG 1121/1124 VRB03KT=

0000016100
169
FTMF31 TFFR 102300
TAF TFFR 102300Z 1100/1124 VRB02KT 9999 FEW022 SCT050 PROB30 TEMPO
1100/1124 3000 SHRA FEW015TCU BECMG 1112/1114 08012KT=

0000010300
170
SATH31 VTBB 102300 RRA
METAR VTPP 102300Z 00000KT 3000 BR FEW028 SCT300 19/18 Q1015=

0000014100
171
FTMR31 TFFF 102300
TAF TFFF 102300Z 1100/1124 06015KT 9999 SCT035 BKN048 TEMPO 1100/1114
05016G28KT 3000 SHRA SCT020TCU=

0000009900
172
SAUS73 KWBC 102300 RRD
METAR
KSAW 102255Z 18009KT 3SM BR OVC005 M03/M04 A2968=

0000013500
173
SACN62 CYLJ 102300
METAR CYLJ 102300Z 26014KT 15SM FEW030 BKN070 BKN240 M05/M08 A2940
 RMK SC1AC5CI1 TR CI SLP988=

0000025300
174
SAPM31 MPTO 102300
METAR
MPBO 102300Z 30004KT 250V350 9000 FEW018 SCT090 Q1012=
MPDA 102300Z 30004KT 250V350 9000 FEW018 SCT090 Q1012=
MPMG 102300Z 32003KT 9999 FEW020 26/23 Q1008 NOSIG=
MPPA 102300Z 35009KT 9999 SCT030 Q1009=

0000157700
175
FTID31 WABB 102300
TAF WABB 102300Z 1100/1206 23010KT 8000 SCT018
TEMPO 1104/1108 7000 -SHRA FEW017CB
BECMG 1111/1113 33006KT
TEMPO 1115/1119 FEW017CB=
TAF WAJJ 102300Z 1100/1124 28007KT 9999 SCT016
TEMPO 1100/1104 7000 -RA FEW014CB
BECMG 1110/1112 00000KT 4000 HZ
TEMPO 1114/1118 FEW014CB=
TAF WASR 102300Z 1100/1124 22008KT 9999 SCT015 
TEMPO 1102/1106 FEW014CB
BECMG 1110/1112 000000KT=
TAF WABP 102300Z 1100/1124 30008KT 8000 SCT012
TEMPO 1102/1106 FEW010CB
BECMG 1110/1112 00000KT 4000 HZ
TEMPO 1114/1118 FEW010CB=
TAF WAKK 102300Z 1100/1124 35008KT 8000 SCT018
TEMPO 1104/1108 FEW017CB
BECMG 1110/1112 00000KT
TEMPO 1114/1118 FEW017CB=
TAF WABI 102300Z 1100/1124 24008KT 9999 SCT016 
TEMPO 1100/1104 6000 RA FEW014CB
BECMG 1110/1112 18005KT=
TAF WABO 102300Z 1100/1124 25010KT 9999 SCT015
TEMPO 1103/1109 RA FEW013CB
BECMG 1110/1112 26008KT=
TAF WASF 102300Z 1100/1124 30010KT 9999 SCT012
TEMPO 1100/1104 6000 RA FEW010CB
BECMG 1110/1112 00000KT=
TAF WASK 102300Z 1100/1124 28008KT 9999 SCT014
TEMPO 1100/1104 FEW012CB
BECMG 1110/1112 29005KT=
TAF WAJW 102300Z 1100/1124 19008KT 9999 SCT012 
TEMPO 1100/1104 6000 SHRA FEW011CB
BECMG 1012/1014 00000KT 5000 HZ=
TAF WAJI 102300Z 1100/1124 27008KT 9999 SCT015
TEMPO 1100/1104 8000 SHRA FEW013CB
BECMG 1110/1112 28004KT=
TAF WABT 102300Z 1100/1124 24008KT 9000 SCT014
TEMPO 1100/1104 FEW012CB
BECMG 1110/1112 00000KT=
TAF WAKT 102300Z 1100/1124 32008KT 9000 SCT016
TEMPO 1100/1104 7000 RA FEW014CB
BECMG 1109/1111 00000KT=

0000084400
176
SACI41 ZBBB 102300
METAR ZBHH 102300Z 06002MPS 8000 NSC M20/M26 Q1027 NOSIG=
METAR ZGHA 102300Z 34004MPS 2500 -RA BR SCT004 BKN007 OVC033
05/04
Q1029 NOSIG=
METAR ZHCC 102300Z 27001MPS 1200 R12/1300V1400N BR NSC
M03/M04
Q1032 NOSIG=
METAR ZHHH 102300Z 04001MPS 3100 -RA BR SCT015 03/02 Q1031 NOSIG=
METAR ZJHK 102300Z 10002MPS 6000 NSC 18/17 Q1020 NOSIG=
METAR ZJSY 102300Z 08005MPS 9999 SCT066 20/16 Q1020 NOSIG=
METAR ZLLL 102300Z 35002MPS CAVOK M18/M25 Q1027 NOSIG=
METAR ZSNJ 102300Z 07005MPS 2000 BR NSC 04/00 Q1031 BECMG TL0030
3000=
METAR ZSOF 102300Z 09003MPS 2500 BR NSC 03/00 Q1031 BECMG AT0100
3000=
METAR ZUCK 102300Z 00000MPS 4000 -RA BR SCT030 06/04 Q1027 NOSIG=
METAR ZYCC 102300Z 21005MPS CAVOK M19/M25 Q1027 NOSIG=
METAR ZYHB 102300Z 26003MPS 8000 NSC M21/M24 Q1025
NOSIG=

0000009500
177
SAUS71 KWBC 102300 RRE
METAR
KIAG 102253Z 18006KT 10SM OVC015 03/01 A3008=

0000012700
178
SAUS72 KWBC 102300 RRD
METAR
KATL 102252Z COR 09007KT 1/4SM R09R/P6000FT -DZ BR OVC002 09/08
     A3008=

0000037700
179
SASG21 GOOY 102300
METAR GOSS 102300Z 02006KT CAVOK 17/15 Q1015=
METAR GOOG 102300Z 00000KT 8000 NSC 20/09 Q////=
METAR GOSM 102300Z 30004KT CAVOK 22/11 Q1014=
METAR GOOK 102300Z 36006KT 8000 NSC 22/11 Q1015=
METAR GOTT 102300Z 36004KT CAVOK 25/10 Q1012=
METAR GOGG 102300Z 34004KT CAVOK 21/17 Q1014=
METAR GOGS 102300Z 36004KT CAVOK 20/17 Q1012=

0000010000
180
SAUS74 KWBC 102300 RRC
METAR
KRDM 102256Z COR 11005KT 10SM BKN049 07/M04 A3007=

0000116300
181
FTSR33 WSSS 102300
TAF WBSB 102250Z 1100/1206 20003KT 9999 FEW015 FEW016CB
BECMG 1103/1105 34010KT SCT016 FEW017CB
TEMPO 1103/1106 5000 SHRA=
TAF WBGG 102300Z 1100/1124 06005KT 9999 FEW020 SCT150 BKN300
TEMPO 1107/1111 3000 TSRA FEW015CB SCT018 BKN150=
TAF WBKK 102300Z 1100/1124 30005KT 9999 FEW015 FEW017CB SCT140
BKN280 TEMPO 1107/1110 4000 TSRA FEW012 FEW016CB SCT035 BKN260
BECMG 1108/1110 12005KT=
TAF WBGB 102300Z 1100/1124 12005KT 9999 SCT016 BKN300
TEMPO 1100/1103 5000 RA SCT014 BKN150
TEMPO 1109/1112 4000 TSRA SCT014 FEW015CB BKN150=
TAF WBGR 102300Z 1100/1124 10005KT 9999 FEW016 SCT150 BKN300
TEMPO 1100/1103 4000 RA SCT014 BKN150=
TAF WBGS 102300Z 1100/1124 03005KT 9999 SCT018 BKN300
TEMPO 1109/1112 4000 TSRA FEW015CB SCT016 BKN150=
TAF WBKL 102300Z 1100/1124 22006KT 9999 FEW012 FEW016CB SCT140
BKN290 PROB30 TEMPO 1100/1104 4000 TSRA FEW010 FEW015CB SCT040=
TAF WBKS 102300Z 1100/1124 07010KT 9999 FEW012 FEW017CB SCT140
BKN270 TEMPO 1100/1105 06010G20KT 2500 TSRA FEW010 FEW015CB SCT030
BECMG 1116/1118 27010KT=
TAF WBKW 102300Z 1100/1124 27005KT 9999 FEW016 FEW017CB SCT140
BKN300=

0000014600
182
FTID32 WIBB 102300
TAF WIBB 102300Z 1100/1200 000000KT 7000 SCT015
BECMG 1104/1106 9999 SCT012
BECMG 1117/1119 8000 SCT017=

0000015400
183
SAMX41 MMMX 102309
METAR MMIT 102300Z 05007KT 7SM SKC 30/16 A2984 RMK =
METAR MMTB 102245Z 00000KT 7SM SKC 31/18 A2981 RMK SC W STN =

0000147700
184
SPUS70 KWBC 102308
SPECI
KADF 102303Z AUTO VRB04KT 1 1/2SM RA BR BKN002 BKN005 OVC011 13/13
     A2975 RMK AO2 LTG DSNT SE AND S P0003=
KDUJ 102304Z AUTO 12009KT 2 1/2SM BR BKN002 03/01 A3011 RMK
     AO2=
KEAU 102304Z 12005KT 3SM BR OVC005 M02/M03 A2960 RMK AO2
     T10221028=
KLNK 102304Z 26003KT 6SM BR OVC016 01/M01 A2957 RMK AO2
     T00061006=
KLSE 102303Z 00000KT 3SM -FZRA BR OVC011 00/M02 A2958 RMK AO2
     P0000 I1000 T00001017=
KLVJ 102304Z AUTO 18010KT 9SM -RA OVC014 21/18 A2984 RMK AO2 RAB04
     P0000 T02060178=
KRDU 102304Z 35003KT 1/4SM -RA BR OVC003 07/06 A3022 RMK AO2 SFC
     VIS 2 1/2 P0002=
PATQ 102304Z AUTO 31007KT 1/2SM SN OVC004 M27/M29 A2994 RMK AO2
     TSNO P0000=
PAJZ 102308Z AUTO 31003KT 3/4SM BR OVC002 M07/M07 A2952 RMK AO2
     PWINO TSNO $=
PATQ 102304Z AUTO 31007KT 1/2SM SN OVC004 M27/M29 A2994 RMK AO2
     TSNO P0000=
KBLI 102305Z 13008KT 5SM -RA SCT027 BKN050 OVC065 08/05 A2994 RMK
     AO2 P0001=
KCXO 102305Z 23005KT 1 3/4SM RA BR BKN008 BKN015 OVC021 18/18
     A2981 RMK AO2 CIG 007V010 P0003=
KRST 102305Z 12005KT 3/4SM R31/5000VP6000FT -SN SCT002 OVC010
     M01/M02 A2956 RMK AO2 P0001 T10111022=
KSBM 102305Z AUTO 14007KT 3SM -RA BR OVC002 01/01 A2968 RMK AO2
     P0000 T00110011=
KTDZ 102305Z AUTO 14010KT 2 1/2SM BR OVC003 03/02 A2993 RMK AO2
     TSNO=
KY50 102305Z AUTO 09007KT 2 1/2SM FZRA OVC002 M01/ A2963 RMK AO2
     TSNO P0000 $=

0000046100
185
SABO41 KWBC 102300 RRA
METAR
SLCA 102300Z 00000KT 9999 FEW036 30/20 Q1009=
SLMG 102300Z 00000KT 7000 -TSRA FEW017 FEW023CB 26/25 Q1008=
SLOR 102300Z 10013KT 9999 FEW017 16/03 Q1032=
SLRB 102300Z 00000KT 9999 NSC 29/24 Q1010=
SLRI 102300Z 33006KT 9999 FEW017 FEW020CB BKN200 29/23 Q1007=
SLSA 102300Z 36005KT 8000 VCSH SCT020 26/25 Q1007=
SLSI 102300Z 00000KT 9999 FEW017 28/23 Q1008=
SLYA 102300Z 36004KT 9999 NSC 31/24 Q1005=

00000000