0000062200
106
SAGR31 LGAT 102350
METAR LGAD 102350Z NIL=
METAR LGAV 102350Z VRB01KT CAVOK 08/05 Q1019 NOSIG=
METAR LGIR 102350Z 17009KT CAVOK 11/09 Q1021 NOSIG=
METAR LGKL 102350Z AUTO VRB03KT //// // ////// 10/08 Q1022
     RE//=
METAR LGKO 102350Z 12007KT 9999 BKN025 10/08 Q1021=
METAR LGKR 102350Z 00000KT 9999 FEW014 SCT018 BKN070 11/10 Q1021
 NOSIG=
METAR LGLM 102350Z 01004KT 9999 BKN016 10/09 Q1018=
METAR LGRP 102350Z 00000KT 9999 FEW018 12/08 Q1021 NOSIG=
METAR LGSA 102350Z NIL=
METAR LGSM 102350Z NIL=
METAR LGTS 102350Z 00000KT 7000 FEW010 SCT025 BKN180 05/04 Q1021
      NOSIG=

0000009500
107
SAEG31 HECA 110000
METAR HECA 110000Z 24003KT 2000 BR NSC 13/09 Q1023 NOSIG=

0000008700
108
SARH32 LDZM 110000
METAR LDLO 110000Z NIL=
METAR LDSB 110000Z NIL=

0000031800
109
SAEQ01 SEQU 110000
METAR SEQM 110000Z 36006KT 9999 -RA BKN023 OVC080 14/13 Q1023 RMK 
    A3023 NOSIG=
METAR SEGU 110000Z 22007KT 9999 BKN020 BKN090 28/22 Q1008 RMK 
A2977 NOSIG=
METAR SEMT 110000Z 20011KT 9999 BKN023 25/22 Q1009=
METAR SELT 110000Z 31002KT 9999 SCT030 SCT100 13/11 Q1026=

0000020000
110
FTUS75 KWBC 110000 AAA
TAF AMD
PASC 102359Z 1100/1124 25013KT 4SM -SN BR SCT020 BKN030
      TEMPO 1100/1102 2SM -SN BR BKN017
     FM110200 25018KT 3SM BR BLSN BKN017 OVC035=

0000072000
111
SATU31 LTAA 102350
METAR LTAC 102350Z 31006KT 4900 BR OVC007 M04/M04 Q1022 NOSIG=
METAR LTAF 102350Z 05004KT CAVOK 04/M01 Q1021 NOSIG=
METAR LTAI 102350Z 35007KT 9999 SCT020 SCT200 06/04 Q1022 NOSIG=
METAR LTAJ 102350Z 00000KT CAVOK M02/M05 Q1021 NOSIG=
METAR LTAZ 102350Z NIL=
METAR LTBA 102350Z 21006KT 190V250 4000 BR NSC 10/06 Q1021 NOSIG=
METAR LTBJ 102350Z 09004KT 4000 BR NSC 05/04 Q1021 NOSIG=
METAR LTBS 102350Z 06005KT CAVOK 06/05 Q1022 NOSIG=
METAR LTCG 102350Z 18003KT CAVOK 06/M01 Q1016 NOSIG=
METAR LTCS 102350Z NIL=
METAR LTFC 102350Z NIL=
METAR LTFE 102350Z 14004KT 6000 FEW035 BKN100 08/07 Q1022 NOSIG=
METAR LTFJ 102350Z 20004KT 9999 SCT012 08/01 Q1021 NOSIG=

0000038900
112
SAXX69 EGRR 110000
METAR EQBH 102350Z 06005KT 9999 SKC M00/M02 Q1026 BLU TEMPO 6000 HZ
      WHT RMK A3030 PA2564 DA1386=
METAR KQSA 102355Z 19006KT 9000 HZ CLR M05/M10 A3030 RMK AO2A SLP335
      WND DATA ESTMD ALSTG/SLP ESTMD 50002=
METAR KQTZ 102355Z 13011G18KT 6000 BR FEW010 SCT015 OVC030 10/09 A2999
      RMK SLP156 WND DATA ESTMD ALSTG/SLP ESTMD 56012=

0000013600
113
SAUK36 EGGY 102350 RRA
METAR EGVN 102350Z 21004KT 9999 FEW015 BKN050 BKN090 08/06 Q1011
     TEMPO 7000 -RA SCT014=

0000076400
114
SATU32 LTAA 102350
METAR LTAG 102350Z 03006KT CAVOK 01/M02 Q1021 NOSIG=
METAR LTAN 102350Z VRB01KT 2800 BR OVC004 M02/M03 Q1022 NOSIG=
METAR LTAP 102350Z VRB01KT CAVOK M05/M06 Q1022 NOSIG=
METAR LTAT 102350Z 22003KT CAVOK M08/M09 Q1022 NOSIG=
METAR LTAU 102350Z 00000KT 2900 BR OVC002 M04/M04 Q1023 TEMPO 0800
 FZFG=
METAR LTBF 102350Z 00000KT 0800 R36/0800U R18/0900U FG NSC 00/00
 Q1022 BECMG 0300 FZFG VV003=
METAR LTBU 102350Z VRB01KT 0100 R05/0100N R23/0200D FG NSC 05/05
 Q1021=
METAR LTCC 102350Z VRB01KT CAVOK M03/M06 Q1020 NOSIG=
METAR LTCE 102350Z 14002KT 1400 0600E R26L/0300N R08R/0250U
 R26R/0800D R08L/P1500N BCFG NSC M28/M30 Q1021 BECMG 0400 FZFG VV002=
METAR LTCJ 102350Z 19004KT 6000 NSC M03/M03 Q1021=

0000011300
115
SACN61 CYTL 110000
METAR CYTL 110000Z AUTO 09002KT 9SM -SN OVC012 M08/M09 A2953 RMK
 SLP018=

0000012700
116
SACI44 ZSJN 110000
METAR ZSJN 110000Z VRB01MPS 1300 R19/1300N BR NSC M07/M08 Q1033
BECMG
TL0100 1700 BR=

0000011700
117
SACN61 CYYL 110000
METAR CYYL 110000Z AUTO 06007KT 1 1/2SM -SN OVC024 M19/M22 A2947 RMK
 SLP017=

0000011500
118
SACN62 CYXU 110000
METAR CYXU 110000Z 15013G18KT 2SM BR OVC002 02/01 A2998 RMK FG1ST7
 SLP164=

0000007700
119
FTFR37 LFPW 101700 AAC
TAF AMD LFOH 110001Z 1100/1118 CNL=

0000133800
120
FTCH10 SCSC 110000
TAF SCAR 102230Z 1100/1124 21004KT CAVOK TN20/1110Z TX25/1118Z BECMG 
1106/1108 31004KT BECMG 1118/1120 21011KT=
TAF SCDA 102230Z 1100/1124 20010KT CAVOK TN20/1110Z TX25/1118Z BECMG 
1106/1108 04005KT BECMG 1112/1114 14005KT BECMG 1118/1120 21014KT=
TAF SCFA 102230Z 1100/1124 19010KT 9999 SCT020 TN19/1110Z TX24/1118Z 
BECMG 1106/1108 34005KT BECMG 1112/1114 FEW015 BECMG 1118/1120 
21014KT=
TAF SCAT 102230Z 1100/1124 22008KT 9999 SCT020 TN17/1110Z TX24/1118Z 
BECMG 1106/1108 35005KT OVC012 BECMG 1118/1120 29010KT CAVOK BECMG 
1122/1124 17007KT SCT020=
TAF SCCF 102230Z 1100/1124 26019KT CAVOK TN05/1110Z TX24/1118Z BECMG 
1106/1108 09010KT BECMG 1118/1120 26021KT=
TAF SCSE 102200Z 1100/1124 28010KT CAVOK TX22/1118Z TN14/1110Z BECMG
         1101/1103 29004KT BECMG 1103/1105 BKN010 TEMPO 1108/1112
         03004KT 3000 BR OVC008 BECMG 1114/1116 SCT013 BECMG
         1116/1118 28010KT CAVOK=
TAF SCIP 102228Z 1100/1200 10008KT 9999 SCT020 SCT040 TN20/1110Z TX26
/1120Z BECMG 1100/1102 BKN020 SCT030 TEMPO 1103/1113 07010KT 7000 -
SHRA SCT017 BKN025 BECMG 1114/1116 SCT020=
TAF SCEL 102202Z 1100/1124 20013KT CAVOK TX33/1119Z TN14/1110Z BECMG
         1101/1103 15005KT BECMG 1108/1110 VRB02KT BECMG 1114/1116
         17004KT BECMG 1116/1118 19013KT=

0000069500
121
SPUS70 KWBC 110002
SPECI
KFLD 102358Z AUTO 14011KT 6SM -RA BR BKN007 BKN014 OVC036 01/M01
     A2958 RMK AO2 PRESFR P0000 T00111006=
KLBT 102358Z AUTO VRB04KT 1 3/4SM RA BR FEW008 BKN015 OVC021 18/17
     A3014 RMK AO2 VIS 3/4V5 P0002 T01780172=
KIXD 102358Z 25006KT 8SM FEW009 BKN013 OVC036 04/03 A2957 RMK AO2
     T00390033=
KLXT 110000Z AUTO 25005KT 4SM BR OVC020 05/04 A2955 RMK AO2
     T00500039=
KORE 102359Z AUTO 18003KT 7SM FEW006 OVC013 M01/M01 A3032 RMK AO2
     T10061011=
KTOI 102359Z AUTO 09003KT 3/4SM BR OVC002 13/12 A3004 RMK AO2
     T01330122=
PAJZ 110003Z AUTO 01004KT 1 1/2SM BR OVC002 M07/M08 A2952 RMK AO2
     PWINO TSNO $=

0000007700
122
FTFR37 LFPW 101700 AAD
TAF AMD LFOP 110001Z 1100/1118 CNL=

0000008400
123
SAAG41 SARI 110000
METAR SARI 110000Z  00000KT CAVOK 28/24 Q1012=

0000011000
124
SAAG41 SACO 110000
METAR SACO 110000Z  16008KT 9999  FEW040CB  FEW100 SCT200
27/18 Q1013=

0000010000
125
SAAG41 SAWE 110000
METAR SAWE 110000Z  23013KT 9999  FEW020 SCT060
11/06 Q1007=

00000000