0000009600
986
SAIN90 VABP 110900
METAR VABP 110900Z 05008KT 2500 HZ FEW020 19/12 Q1016 NO SIG=
0000008300
987
SAIN90 VOBG 110900
METAR VOBG 110900Z 08004KT 8000 NSC 27/13 Q1015=
0000017500
988
SIIN90 VANP 110900
AAXX 11094
42867 31596 22306 10274 20153 40115 70500
  333 58005 82620=
42933 32997 32902 10274 20076 40118 80001
  333 58019 83075=
0000010200
989
SAIN90 VEGT 110900
METAR VEGT 110900Z 34004KT 3000 HZ SCT020 BKN100 21/15 Q1015 NOSIG=
0000012200
990
SIIN90 VOMM 110900
AAXX 11094
43353 31996 32910 10308 20223 40106 70500 82011
  333 56099 58007 82359=
0000024400
991
SIVD15 KWNB 110900 RRD
BBXX
41009 11091 99285 70802 46/// /1706 10241 20218 40182 57016 90850
22200 00241 10903 20501 306// 40903 70016 333 91207 555 11060
22063 30811 41708 60849 173057 170058 172062 175066 174064 172061=
0000024400
992
SIVD17 KWNB 110900 RRD
BBXX
51101 11091 99243 71621 46/// /0713 10219 20191 40158 50000 90850
22200 00237 11109 20808 305// 41105 70046 333 91218 555 11141
22150 30841 40719 60849 071136 064122 059128 060118 058119 064127=
0000021800
993
SAJD20 OJAM 110900
METAR OJAI 110900Z 29005KT 5000 BR SCT025 10/08 Q1024 NOSIG=
METAR OJAM 110900Z 00000KT 2500 BR SCT025 09/07 Q1023 NOSIG=
METAR OJAQ 110900Z 00000KT 9999 FEW030 15/10 Q1025 NOSIG=
0000037500
994
SABN31 OBBI 110900
METAR OBBI 110900Z 18008KT 9999 FEW020 17/14 Q1019 NOSIG=
METAR OEDF 110900Z 18013KT 9999 SCT030 BKN100 17/12 Q1019 NOSIG=
METAR OEDR 110900Z 18014KT 9999 SCT040 OVC080  18/14 Q1017 NOSIG=
METAR OTBD 110900Z 20004KT 160V250 7000 -RA FEW018 OVC100 16/14 Q1020
NOSIG=
METAR OKBK 110900Z 31011KT 8000 FEW040 BKN100 13/10 Q1017 NOSIG=
0000010600
995
SAER41 OMAM 110857 RRF
METAR OMAM 110900Z 20008KT 9999NDV FEW040 BKN100 22/11 Q1018 A3007=
0000012400
996
SIQT20 OTBD 110900
AAXX 11094 41170 41457 82004 10160 20144 30191 40204 76166 8257/ 333
59008 82618 88460=
0000008900
997
SAIQ01 ORBI 110900
METAR ORBM 110900Z VRB03KT 6000 NSC 11/03 Q1020 NOSIG=
0000012900
998
SIMD20 LPMG 110900
AAXX 11091
08521 42460 22602 10151 20115 30112 40182 53015 81105
333   81815=
08524 NIL=
0000240700
999
SIMX01 MXBA 110900
AAXX 11091
76220 31920 00000 11036 2//// 38174 40222 53004 70002 90840 
333   35/// 58038 96126=
76305 32970 03302 10168 20048 30165 40173 51001 90845 333   
30/// 58///=
76342 31840 71803 10149 20056 39445 40151 52001 70222 87070 
90850 333   30/// 56050 58015 87458=
76382 32460 31401 10114 20093 38915 40172 54000 83500 90845 
333   30/// 56500 58058 83614=
76390 31950 02305 10071 21031 38239 40174 57001 70544 90848 
333   30/// 58039=
76393 31920 03201 10144 20091 39571 40142 52002 70400 90849 
333   30/// 58026 91102 91401=
76548 32860 51501 10186 20183 30136 40146 57004 85030 90845 
333   30/// 56050 59028 85358=
76556 32960 01604 10128 20070 39114 40118 57008 90845 333   
30/// 58009=
76577 32560 50000 10118 20105 38052 40138 56003 85500 90840 
333   30/// 56500 58008 85621=
76593 32950 01403 10214 20211 30148 40150 57004 90850 333   
30/// 59006=
76634 31970 01501 10098 20076 37853 40154 57006 70511 90850 
333   30/// 58010=
76654 31956 00000 10228 20193 30136 40140 57006 70544 90850 
333   30/// 58024=
76675 32760 22501 10027 20013 37383 40171 57007 82060 90845 
333   34/// 56090 58009=
76680 31568 00000 10112 20086 37758 40105 57004 70540 90850 
333   30/// 58012=
76685 32950 00000 10104 20062 37869 40116 52001 90845 333   
30/// 59005=
76695 32956 00000 10196 20193 30131 40137 57005 90850 333   
30/// 59009=
76726 32968 03501 10122 20045 38392 40136 55004 90845 333   
30/// 59008=
76743 31940 00101 10215 20177 30122 40130 57004 7000 90850 3
33   30/// 59016=
76750 32558 10000 10220 20210 30130 40140 57008 81100 90845 
333   30/// 56300 58/// 81820=
76762 32504 21003 10155 20119 38765 40135 57011 82200 90850 
333   30/// 56300 58005 82815=
SIMX01 MXBA 110900 
AAXX 11091
76775 32960 00501 10142 20094 38522 40137 57003 90845 333   
30/// 58001=
76840 32910 00000 10210 20192 30067 40125 5//// 90845 333   
30/// 58017=
76848 32950 00000 10113 20084 38378 40097 56005 90850 333   
30/// 58002 96722=
76525 32960 02206 10081 21041 37475 40146 57004 90850 333   
30/// 58029=
76632 31930 02301 10090 20062 37706 40134 57003 70500 90840 
333   30/// 58007 98130=
76647 32865 70901 10223 20222 30125 40156 56007 8707/ 90850 
333   30/// 560// 59010 87358=
76843 32965 00000 10196 20170 39479 40114 56004 90845 333   
30/// 59011=
0000028700
000
SXHW11 KWAL 110905
B15017A0 011090503"
1,140111,08:00:00,9.3,85,13.1,11.5,1015.2,6.03,12.9,
1,140111,08:15:00,8.7,84,14.5,11.4,1015.2,6.03,12.9,
1,140111,08:30:00,7.7,79,10.6,11.5,1015.3,6.03,12.9,
1,140111,08:45:00,7.1,82,10.3,11.4,1015.2,6.03,12.9, 42+0NN 210W
0000253500
001
UDFR01 LFPW 110904
AMDAR 1108
DES EU0551 4450N 00143E 110849 F246 MS367 /// 246/031 TB1 S031
333 F246 VG016=
DES EU0551 4447N 00141E 110849 F234 MS340 /// 240/032 TB0 S031
333 F234 VG003=
DES EU0551 4446N 00140E 110849 F223 MS312 /// 240/031 TB2 S031
333 F223 VG027=
DES EU0551 4443N 00139E 110850 F212 MS292 /// 233/030 TB1 S031
333 F212 VG010=
DES EU0551 4441N 00138E 110850 F203 MS265 /// 229/031 TB2 S031
333 F203 VG042=
DES EU0551 4439N 00137E 110850 F199 MS250 /// 226/030 TB0 S031
333 F199 VG001=
DES EU0551 4437N 00136E 110851 F195 MS242 /// 226/029 TB0 S031
333 F195 VG003=
DES EU0551 4435N 00135E 110851 F190 MS235 /// 230/029 TB1 S031
333 F190 VG010=
DES EU0551 4433N 00134E 110851 F179 MS212 /// 233/025 TB1 S031
333 F179 VG016=
DES EU0551 4431N 00133E 110852 F163 MS180 /// 258/018 TB1 S031
333 F163 VG015=
DES EU0551 4429N 00132E 110852 F149 MS150 /// 261/016 TB1 S031
333 F149 VG016=
DES EU0551 4427N 00131E 110852 F138 MS120 /// 251/014 TB0 S031
333 F138 VG003=
DES EU0551 4425N 00129E 110853 F129 MS102 /// 261/008 TB0 S031
333 F129 VG004=
DES EU0551 4423N 00129E 110853 F121 MS092 /// 232/007 TB1 S031
333 F121 VG011=
DES EU0551 4420N 00128E 110853 F117 MS090 /// 228/007 TB0 S031
333 F117 VG001=
DES EU0551 4419N 00126E 110854 F114 MS080 /// 237/006 TB0 S031
333 F114 VG000=
DES EU0551 4417N 00126E 110854 F111 MS072 /// 234/006 TB0 S031
333 F111 VG000=
DES EU0551 4415N 00125E 110854 F108 MS067 /// 222/005 TB0 S031
333 F108 VG001=
DES EU0551 4414N 00124E 110855 F105 MS060 /// 245/004 TB0 S031
333 F105 VG001=
DES EU0551 4412N 00123E 110855 F102 MS052 /// 233/004 TB0 S031
333 F102 VG000=
DES EU0551 4410N 00122E 110855 F100 MS047 /// 238/005 TB0 S031
333 F100 VG008=
DES EU0551 4409N 00122E 110856 F095 MS037 /// 230/005 TB0 S031
333 F095 VG001=
DES EU0551 4408N 00121E 110856 F089 MS025 /// 228/006 TB0 S031
333 F089 VG002=
DES EU0551 4406N 00120E 110856 F084 MS010 /// 235/004 TB0 S031
333 F084 VG001=
DES EU0551 4405N 00119E 110857 F079 PS002 /// 254/004 TB0 S031
333 F079 VG004=
DES EU0551 4403N 00119E 110857 F073 PS015 /// 155/003 TB0 S031
333 F073 VG001=
DES EU0551 4402N 00118E 110857 F068 PS025 /// 081/008 TB0 S031
333 F068 VG000=
DES EU0551 4400N 00117E 110858 F062 PS032 /// 034/006 TB0 S031
333 F062 VG002=
DES EU0551 4359N 00116E 110858 F057 PS037 /// 022/008 TB0 S031
333 F057 VG005=
DES EU0551 4357N 00116E 110858 F052 PS045 /// 350/010 TB0 S031
333 F052 VG001=
0000058300
002
SIER20 OMAE 110900
AAXX 11094
41184 42960 71410 10213 20107 40199 83034 333 59011 83358 87070=
41194 42960 81709 10220 20097 30196 40201 88020 333 59004 85365
      88466=
41196 42660 61509 10211 20110 30162 40202 81530 333 59007 81640
      86362=
41198 42560 71507 10205 20089 40202 83530 333 59018 83620 85360=
41200 42960 61709 10210 20100 30157 40208 8603/ 333 58002 86366=
41216 42660 71906 10208 20116 30191 40195 8253/ 333 58004 82645
      86366=
41217 42660 61706 10214 20109 30165 40194 8253/ 333 58006 82645
      85366=
41218 NIL=
0000015400
003
SIVB30 LFPW 110900
BBXX
DFWV2 11094 99290 11237 41598 80818 10125 20078 40250 53000 70222
8587/
22213 06150 20904 304// 41604 80100=
0000009000
004
SIQT20 OTBD 110900
AAXX 11094
41178 46/// /1703 10157 20149 30188 40196=
0000011000
005
UANT99 KDDL 110903
ARP VIR10K 5400N01549W 0903 F390 MS55 248/58 KT
GVKSS DDL XXF 110903 J29A
00000000