0000024000
306
SPUS70 KWBC 110258
SPECI
KALO 110253Z 28003KT 1SM R12/4000VP6000FT -SN BR VV004 00/00 A2950
     RMK AO2 P0000 T00000000=
KCHO 110255Z 00000KT 1 3/4SM -RA BR BKN011 OVC018 02/02 A3019 RMK
     AO2 P0000 T00170017=

0000009800
307
SPUS42 KWBC 110258
SPECI
KSHV 110254Z 23005KT 10SM BKN012 OVC019 17/16 A2977=

0000806700
308
UDOC01 AMMC 111100
AMDAR 1111
DES AU1015 2727S 15304E 111041 F018 PS183 080/010 TB0 S031
  333 F/// VG000=
DES AU1015 2727S 15304E 111041 F015 PS192 076/010 TB0 S031
  333 F/// VG002=
DES AU1015 2726S 15305E 111042 F013 PS200 079/010 TB0 S031
  333 F/// VG002=
DES AU1015 2725S 15305E 111042 F009 PS207 073/010 TB0 S031
  333 F/// VG002=
DES AU1015 2724S 15306E 111043 F007 PS216 072/010 TB0 S031
  333 F/// VG001=
DES AU1015 2724S 15306E 111043 F004 PS222 062/011 TB0 S031
  333 F/// VG001=
DES AU1015 2723S 15307E 111043 F001 PS231 081/010 TB0 S031
  333 F/// VG003=
LVR AU0178 2326S 15053E 111038 F380 MS498 264/086 TB0 S031
  333 F380 VG000=
ASC AU0178 2320S 15049E 111039 F380 MS492 264/083 TB0 S031
  333 F380 VG000=
ASC AU0178 2308S 15041E 111041 F380 MS494 265/082 TB0 S031
  333 F380 VG000=
ASC AU0178 2302S 15037E 111042 F380 MS495 264/082 TB0 S031
  333 F380 VG000=
ASC AU0178 2256S 15033E 111043 F380 MS495 264/082 TB0 S031
  333 F380 VG000=
ASC AU0178 2245S 15026E 111045 F380 MS492 263/079 TB0 S031
  333 F380 VG000=
ASC AU0178 2233S 15018E 111047 F380 MS492 264/076 TB0 S031
  333 F380 VG000=
ASC AU0178 2227S 15014E 111048 F380 MS492 264/076 TB0 S031
  333 F380 VG000=
DES AU1015 2728S 15304E 111041 F021 PS175 078/010 TB0 S031
  333 F/// VG000=
ASC AU0177 2826S 13239E 111043 F350 MS467 088/028 TB0 S031
  333 F350 VG000=
ASC AU0177 2822S 13255E 111045 F350 MS470 092/027 TB0 S031
  333 F350 VG001=
ASC AU0177 2820S 13302E 111046 F350 MS470 089/026 TB0 S031
  333 F350 VG000=
ASC AU0177 2818S 13310E 111047 F350 MS474 088/026 TB0 S031
  333 F350 VG001=
ASC AU0177 2816S 13318E 111048 F350 MS472 093/024 TB0 S031
  333 F350 VG001=
ASC AU0177 2812S 13334E 111050 F350 MS470 094/027 TB0 S031
  333 F350 VG001=
ASC AU0177 2808S 13350E 111052 F350 MS467 093/028 TB0 S031
  333 F350 VG001=
ASC AU0177 2806S 13358E 111053 F350 MS466 093/027 TB0 S031
  333 F350 VG001=
ASC AU0176 3406S 12750E 111045 F310 MS380 036/013 TB0 S031
  333 F310 VG000=
ASC AU0176 3407S 12759E 111046 F310 MS375 045/013 TB0 S031
  333 F310 VG000=
ASC AU0176 3408S 12808E 111047 F310 MS375 049/012 TB0 S031
  333 F310 VG000=
ASC AU0176 3409S 12818E 111048 F310 MS375 053/010 TB0 S031
  333 F310 VG000=
ASC AU0176 3410S 12827E 111049 F310 MS376 057/012 TB0 S031
  333 F310 VG000=
ASC AU0176 3413S 12854E 111052 F310 MS380 058/012 TB0 S031
  333 F310 VG000=
ASC AU0176 3415S 12904E 111053 F310 MS380 057/012 TB0 S031
  333 F310 VG000=
ASC AU0176 3416S 12913E 111054 F310 MS380 063/013 TB0 S031
  333 F310 VG000=
DES AU1009 2804S 15331E 111026 F021 PS175 078/009 TB0 S031
  333 F/// VG002=
DES AU1009 2805S 15330E 111026 F018 PS182 075/009 TB0 S031
  333 F/// VG001=
DES AU1009 2805S 15329E 111026 F016 PS191 071/007 TB0 S031
  333 F/// VG002=
DES AU1009 2806S 15329E 111027 F013 PS201 072/006 TB0 S031
  333 F/// VG001=
DES AU1009 2806S 15329E 111027 F010 PS210 077/005 TB0 S031
  333 F/// VG001=
DES AU1009 2807S 15329E 111027 F007 PS217 078/004 TB0 S031
  333 F/// VG001=
DES AU1009 2808S 15329E 111028 F004 PS225 072/005 TB0 S031
  333 F/// VG001=
DES AU1009 2809S 15330E 111028 F001 PS232 065/004 TB0 S031
  333 F/// VG006=
DES AU1009 2808S 15329E 111028 F004 PS225 072/005 TB0 S031
  333 F/// VG001=
DES AU1043 3722S 14431E 111020 F098 PS100 194/009 TB0 S031
  333 F/// VG000=
DES AU1043 3729S 14430E 111022 F081 PS127 166/018 TB0 S031
  333 F/// VG000=
DES AU1043 3734S 14429E 111023 F065 PS137 178/015 TB0 S031
  333 F/// VG000=
DES AU1043 3739S 14428E 111024 F048 PS140 180/014 TB0 S031
  333 F/// VG000=
DES AU1043 3747S 14427E 111026 F032 PS122 214/013 TB0 S031
  333 F/// VG000=
DES AU1043 3752S 14426E 111028 F018 PS112 178/013 TB0 S031
  333 F/// VG000=
DES AU1043 3757S 14425E 111030 F004 PS147 183/012 TB0 S031
  333 F/// VG001=
ASC AU0176 3334S 12409E 111021 F310 MS387 006/012 TB0 S031
  333 F310 VG000=
ASC AU0176 3336S 12418E 111022 F310 MS387 003/011 TB0 S031
  333 F310 VG000=
ASC AU0176 3338S 12436E 111024 F310 MS382 006/015 TB0 S031
  333 F310 VG000=
ASC AU0176 3340S 12446E 111025 F310 MS382 004/016 TB0 S031
  333 F310 VG000=
ASC AU0176 3343S 12504E 111027 F310 MS382 009/017 TB0 S031
  333 F310 VG000=
ASC AU0176 3345S 12523E 111029 F310 MS380 011/019 TB0 S031
  333 F310 VG000=
ASC AU0176 3348S 12541E 111031 F310 MS382 017/017 TB0 S031
  333 F310 VG000=
ASC AU0176 3349S 12550E 111032 F310 MS382 015/017 TB0 S031
  333 F310 VG000=
LVR AU0178 2429S 15135E 111027 F380 MS505 273/090 TB0 S031
  333 F380 VG000=
ASC AU0178 2423S 15131E 111028 F380 MS507 272/091 TB0 S031
  333 F380 VG001=
ASC AU0178 2418S 15128E 111029 F380 MS507 270/093 TB0 S031
  333 F380 VG001=
ASC AU0178 2412S 15124E 111030 F380 MS510 269/093 TB0 S031
  333 F380 VG000=
ASC AU0178 2407S 15120E 111031 F380 MS507 270/095 TB0 S031
  333 F380 VG000=
ASC AU0178 2355S 15112E 111033 F380 MS505 268/093 TB0 S031
  333 F380 VG000=
ASC AU0178 2349S 15109E 111034 F380 MS505 266/092 TB0 S031
  333 F380 VG000=
ASC AU0178 2338S 15101E 111036 F380 MS498 261/086 TB0 S031
  333 F380 VG000=
ASC AU0177 2852S 13056E 111030 F350 MS467 090/028 TB0 S031
  333 F350 VG001=
ASC AU0177 2850S 13104E 111031 F350 MS467 089/028 TB0 S031
  333 F350 VG001=
ASC AU0177 2846S 13120E 111033 F350 MS465 087/028 TB0 S031
  333 F350 VG001=
ASC AU0177 2842S 13135E 111035 F350 MS465 089/029 TB0 S031
  333 F350 VG001=
ASC AU0177 2840S 13143E 111036 F350 MS465 091/029 TB0 S031
  333 F350 VG000=
ASC AU0177 2836S 13159E 111038 F350 MS465 089/028 TB0 S031
  333 F350 VG001=
ASC AU0177 2832S 13215E 111040 F350 MS467 090/027 TB0 S031
  333 F350 VG001=
ASC AU0177 2830S 13223E 111041 F350 MS467 087/028 TB0 S031
  333 F350 VG001=
ASC AU0174 2723S 15313E 111027 F080 PS090 168/022 TB0 S031
  333 F/// VG006=
ASC AU0174 2724S 15313E 111027 F083 PS084 168/021 TB0 S031
  333 F/// VG007=
ASC AU0174 2728S 15311E 111028 F098 PS056 181/022 TB0 S031
  333 F/// VG005=
ASC AU0174 2731S 15309E 111029 F116 PS015 175/021 TB0 S031
  333 F/// VG001=
ASC AU0174 2735S 15306E 111030 F136 MS019 169/019 TB0 S031
  333 F/// VG001=
ASC AU0174 2739S 15303E 111031 F158 MS052 166/021 TB0 S031
  333 F/// VG002=
LVR AU0174 2753S 15241E 111034 F237 MS226 167/025 TB0 S031
  333 F/// VG000=
LVR AU0174 2813S 15146E 111041 F339 MS455 182/031 TB0 S031
  333 F339 VG002=
LVR AU0161 3516S 13346E 110928 F340 MS442 090/016 TB0 S031
  333 F340 VG000=
LVR AU0161 3507S 13213E 110937 F326 MS415 058/009 TB0 S031
  333 F326 VG000=
LVR AU0161 3458S 13045E 110947 F320 MS405 066/009 TB0 S031
  333 F320 VG000=
LVR AU0161 3448S 12917E 110956 F320 MS400 049/005 TB0 S031
  333 F320 VG000=
LVR AU0161 3436S 12739E 111006 F320 MS395 030/008 TB0 S031
  333 F320 VG000=
LVR AU0161 3421S 12556E 111017 F320 MS392 011/018 TB0 S031
  333 F320 VG000=
LVR AU0161 3403S 12402E 111030 F320 MS402 005/022 TB0 S031
  333 F320 VG001=
LVR AU0161 3350S 12243E 111038 F320 MS402 349/018 TB0 S031
  333 F320 VG001=
ASC AU0159 3809S 14857E 110834 F350 MS480 236/011 TB0 S031
  333 F350 VG001=
ASC AU0159 3810S 14907E 110835 F350 MS480 232/013 TB0 S031
  333 F350 VG001=
ASC AU0159 3810S 14917E 110836 F350 MS482 232/017 TB0 S031
  333 F350 VG000=
ASC AU0159 3812S 14947E 110839 F350 MS485 213/023 TB0 S031
  333 F350 VG001=
ASC AU0159 3816S 15036E 110844 F370 MS540 216/027 TB0 S031
  333 F370 VG000=
ASC AU0159 3828S 15213E 110854 F370 MS532 217/042 TB0 S031
  333 F370 VG000=
ASC AU0159 3830S 15232E 110856 F370 MS535 218/041 TB0 S031
  333 F370 VG000=
ASC AU0159 3831S 15242E 110857 F370 MS535 218/039 TB0 S031
  333 F370 VG000=
ASC AU0159 3832S 15252E 110858 F370 MS535 219/036 TB0 S031
  333 F370 VG000=
ASC AU0159 3833S 15302E 110859 F370 MS537 222/035 TB0 S031
  333 F370 VG000=
ASC AU0159 3837S 15332E 110902 F370 MS540 217/036 TB0 S031
  333 F370 VG000=

0000008400
309
SAAG41 SARI 110300
METAR SARI 110300Z  05005KT CAVOK 26/23 Q1013=

0000010600
310
SASP41 LEMM 110200 RRA
METAR LELO 110200Z VRB01KT 0500 R29/1100N FG OVC002 04/04 Q1018=

0000009900
311
SAUS71 KWBC 110200 RRH
METAR
KMMU 110245Z 00000KT 1/2SM BR OVC003 00/00 A3029=

0000010300
312
SARM31 LUKK 110300
METAR LUKK 110300Z 27010KT CAVOK 04/M02 Q1016 R26/CLRD65
NOSIG=

0000009600
313
SAUS73 KWBC 110200 RRI
METAR
KBJC 110245Z 00000KT 30SM SCT080 01/M11 A2979=

0000009200
314
SAUS74 KWBC 110200 RRF
METAR
KSBD 110249Z 00000KT 10SM SKC 15/02 A3008=

0000045600
315
SARH31 LDZM 110300
METAR LDSP 110300Z VRB03KT 9999 BKN045 OVC064 11/09 Q1022 NOSIG =
METAR LDPL 110300Z 00000KT 9000 BKN058 09/09 Q1021 NOSIG =
METAR LDDU 110300Z 06007KT CAVOK 09/05 Q1022 NOSIG =
METAR LDZA 110300Z 03004KT 010V070 0100 R05/0300N R23/0375N FG VV002
03/03 Q1021 NOSIG =
METAR LDZD 110300Z 07003KT 040V110 9999 BKN027 OVC050 10/09 Q1022 =
METAR LDRI 110300Z NIL=
METAR LDOS 110300Z 14005KT CAVOK 04/03 Q1022=

0000013300
316
SASR31 WSSL 110300
METAR WSSL 110300Z 34007KT 310V010 9999 SCT018 FEW020TCU BKN300 29/25
Q1012 RMK 0230Z Q1012 =

0000027300
317
SAXX69 EGRR 110300
METAR EQBH 110250Z 01003KT 7000 HZ FEW180 M01/M02 Q1028 WHT NOSIG RMK
      A3036 PA2530 DA1265=
METAR KQTZ 110255Z 15008KT 5000 -RA BR BKN008 BKN015 OVC020 10/08 A2999
      RMK SLP157 WND DATA ESTMD ALSTG/SLP ESTMD 60000 55001=

0000011100
318
SAMR20 TFFF 110300
METAR TFFF 110300Z AUTO 07009KT 030V090 9999 FEW024 SCT056 24/21
Q1016=

0000009700
319
SACI44 ZSJN 110300
METAR ZSJN 110300Z VRB01MPS 1800 HZ NSC 03/M04 Q1032 NOSIG=

0000009200
320
SARM31 LUKK 110300
METAR LUBL 110300Z AUTO 26014KT 9999 NCD 02/M03 Q1015=

0000008300
321
SABZ19 SBMQ 110300
METAR SBMQ 110300Z 01005KT CAVOK 25/23 Q1011=

0000008300
322
SABZ18 SBKP 110300
METAR SBKP 110300Z 10005KT CAVOK 23/18 Q1016=

0000009300
323
SAEA20 HKNC 110200 RRD
METAR HKML 110200Z 06005KT 9999 FEW018 25/22 Q1012=

0000020900
324
SASQ31 LZIB 110300
METAR LZIB 110300Z 20004KT CAVOK 01/00 Q1020=
METAR LZKZ 110300Z 01002KT 0100 R01/0400N FZFG OVC001 M01/M01 Q1019=
METAR LZTT 110300Z 28007KT 9999 FEW046 00/M06 Q1016=

0000017200
325
SASQ41 LZIB 110300
METAR LZPP 110300Z NIL=
METAR LZSL 110300Z VRB01KT 9999 SCT034 M01/M03 Q1019=
METAR LZZI 110300Z VRB01KT 9999 BKN055 01/M01 Q1019=

00000000