0000016100
006
SAUS75 KWBC 102100 RRG
METAR
PAHO 102132Z 00000KT 10SM SCT010 SCT080 M01/M03 A2942=
PAHO 102103Z 03003KT 10SM BKN010 OVC075 M01/M03 A2943=

0000010000
007
SALC31 TLPL 102200
METAR TLPL 102200Z 08017KT 9999 SCT020 24/22 Q1014 RESH NOSIG=

0000007700
008
FCFR33 LFPW 102200 AAC
TAF AMD LFSL 102200Z 1022/1024 CNL=

0000023900
009
FTCS31 MROC 102200
TAF 
MRPV 102200Z 1100/1124 07012KT 9999 FEW040 TX26/1120Z TN19/1112Z
BECMG 1100/1102 07012G22KT CAVOK BECMG 1117/1119 07010KT 9999 SCT035
PROB40 TEMPO 1121/1124 07006KT 9999 RA FEW020TCU SCT030=

0000082000
010
SACI31 ZBBB 102200
METAR ZBAA 102200Z 01001MPS 7000 NSC M12/M20 Q1031 NOSIG=
METAR ZBSJ 102200Z 00000MPS 2500 FU NSC M08/M16 Q1031 NOSIG=
METAR ZBTJ 102200Z 11001MPS 0700 R16R/P2000D FZFG NSC M08/M09 Q1032
NOSIG=
METAR ZBYN 102200Z 00000MPS CAVOK M09/M19 Q1028 NOSIG=
METAR ZGGG 102200Z 08002MPS 050V110 5000 BR NSC 12/08 Q1024 NOSIG=
METAR ZSHC 102200Z 00000MPS 5000 -RA BR BKN033 05/03 Q1031
NOSIG=
METAR ZSPD 102200Z 08003MPS 360V090 CAVOK 06/00 Q1032 NOSIG=
METAR ZSSS 102200Z 09004MPS CAVOK 07/00 Q1031 NOSIG=
METAR ZWSH 102200Z 33004MPS 4000 FU NSC M09/M13 Q1033 NOSIG=
METAR ZWWW 102200Z VRB01MPS 0700 R25/1000N FZFG FEW008 M20/M23 Q1037
NOSIG=
METAR ZYTL 102200Z VRB01MPS 3000 BR SCT033 M08/M10 Q1031 NOSIG=
METAR ZYTX 102200Z 14001MPS 6000 NSC M17/M21 Q1030 NOSIG=

0000008800
011
SABZ18 SBGR 102200
METAR SBGR 102200Z 00000KT CAVOK 22/17 Q1015 RETS=

0000017400
012
FTCA35 KWBC 102206
TAF
TAF MPTO 102200Z 1100/1124 02008KT 9999 SCT018
      BECMG 1103/1106 03006KT FEW018
      BECMG 1106/1110 00000KT 9999 SCT017=

0000043400
013
FTAG41 SAVC 102300
TAF SAVC 102300Z 1100/1124 05015KT 9999 SCT030 FEW090 TRX28/1119Z
TN12/1119Z BECMG 1106/1109 29010KT BECMG 1115/1110Z 02015KT=
TAF SAWG 102300Z 1100/1124 27025G35KT 9999 -SHRA BKN030 BKN090
TX25/1118Z TN08/1112Z=
TAF SAWE 102300Z 1100/1124 25020KT 99999 -SHRA BKN010 BKN090
TX18/1118Z TN05/1112Z=
TAF SAWH 102300Z 1100/1124 25020G30KT 9999 -SHRA BKN020 BKN080
TX20/1118Z TN04/1112Z=

0000168300
014
SPUS70 KWBC 102206
SPECI
KAOH 102202Z AUTO 15012G19KT 1 3/4SM BR OVC003 04/03 A2993 RMK AO2
     PNO $=
KBUY 102202Z AUTO 01003KT 10SM OVC007 03/02 A3022 RMK AO2 CIG
     004V010 T00330022=
KDMO 102202Z AUTO 19011KT 9SM -RA BKN010 OVC017 09/08 A2956 RMK
     AO2 CIG 007V012 P0000 T00940078=
KHOU 102202Z 19006KT 7SM -RA FEW015 BKN022 OVC030 19/18 A2982 RMK
     AO2 P0000=
KIAD 102202Z 23005KT 1/4SM R01R/6000VP6000FT -RA BR OVC005 02/01
     A3030 RMK AO2 SFC VIS 1 P0000=
KTAN 102202Z AUTO 00000KT 1 1/4SM BR OVC005 02/00 A3037 RMK AO2
     CIG 004V007 T00220000=
KTYR 102202Z 19011G19KT 10SM FEW008 OVC012 17/16 A2974 RMK AO2
     RAE2159 P0000=
KUIN 102202Z AUTO 17016G23KT 10SM SCT005 BKN009 OVC075 06/04 A2956
     RMK AO2 RAE2157 P0000 T00560044=
KAEX 102203Z 18007KT 10SM SCT013 SCT023 OVC032 18/17 A2985 RMK AO2
     RAE2154=
KASD 102203Z AUTO 13005KT 1 1/2SM BR OVC003 16/15 A2996 RMK AO2
     T01610150 TSNO=
KDYL 102203Z AUTO 04003KT 2 1/2SM BR OVC003 00/00 A3031 RMK AO2
     UPE2159 P0000 T00000000=
KGVL 102203Z AUTO 11007KT 1SM BR OVC003 09/08 A3013 RMK AO2=
KIGX 102203Z AUTO 02006KT 6SM BR OVC005 06/05 A3022 RMK AO2 RAE00
     CIG 003V008 P0000 T00560050=
KLWM 102203Z 00000KT 7SM BKN018 BKN095 00/M03 A3036 RMK AO2
     T00001028=
KMPO 102203Z AUTO 19007KT 6SM BR BKN004 OVC008 01/00 A3023 RMK AO2
     CIG 003V007 T00110000=
KTHV 102203Z AUTO 05003KT 2 1/2SM BR OVC006 02/00 A3030 RMK AO2
     T00170000=
KTOI 102203Z AUTO 09004KT 1SM -RA BR OVC002 13/12 A3005 RMK AO2
     RAB03 P0000 T01330122=
KVAY 102203Z AUTO 00000KT 1SM BR OVC003 01/01 A3033 RMK AO2
     T00110006=

0000011900
015
SPUS31 KWBC 102206
SPECI
KIAD 102202Z 23005KT 1/4SM R01R/6000VP6000FT -RA BR OVC005 02/01
A3030=

0000093000
016
SABO41 KWBC 102200
METAR
SLCA 102200Z 12007KT 9999 FEW036 32/19 Q1008=
SLCN NIL=
SLCO 102200Z 31006KT 9999 FEW017 BKN200 29/22 Q1007=
SLCP 102200Z 00000KT 9999 SCT017 26/23 Q1011=
SLJE 102200Z 00000KT 9999 FEW017 31/23 Q1007=
SLJO 102200Z 00000KT 9999 FEW017 29/24 Q1006=
SLMG 102200Z 00000KT 9999 SCT017 FEW023CB 29/24 Q1008=
SLOR 102200Z NIL=
SLPO 102200Z 07012KT 9999 FEW020 16/02 Q1034=
SLPS 102200Z 36015G25KT 8000 VCSH SCT020 FEW025CB 29/24 Q1006=
SLRB 102200Z 33006KT 9999 FEW020 30/25 Q1009=
SLRI 102200Z 33006KT 9999 FEW017 FEW020CB BKN200 32/23 Q1007=
SLRQ 102200Z 36006KT 9999 SCT017 30/26 Q1005=
SLRY 102200Z 34004KT 9999 FEW017 30/24 Q1007=
SLSA 102200Z 27005KT 8000 VCSH SCT020 29/23 Q1006=
SLSI 102200Z 00000KT 9999 FEW017 29/23 Q1008=
SLSU 102200Z 04011KT 9999 FEW023 22/10 Q1024=
SLVG NIL=
SLVM NIL=
SLYA 102200Z 36005KT 9999 NSC 32/24 Q1004=
SLZO NIL=

0000012100
017
SABZ41 KWBC 102200 CCA
METAR
SBCY 102200Z 29008KT 9000 TSRA SCT020 FEW025CB 27/21 Q1008
     RERA=

0000020200
018
FTCN38 CWAO 102200 AAA
TAF AMD CYYT 102207Z 1022/1118 27012KT P6SM SCT020 BKN080 TEMPO
     1022/1112 5SM -SN BKN020
     BECMG 1110/1112 28015G25KT
    RMK NXT FCST BY 110000Z=

0000049400
019
SAMS31 WMKK 102200
METAR WBGG 102200Z 14002KT 6000 FEW000 SCT020 BKN150 22/22 Q1011
NOSIG=
METAR WBKK 102200Z 11003KT 9999 FEW014 BKN140 BKN270 24/22 Q1011
NOSIG=
METAR WBSB 102200Z 17005KT 9999 FEW005 BKN280 24/24 Q1011 NOSIG=
METAR WMKK 102200Z 34003KT 8000 FEW030 SCT140 BKN280 24/23 Q1010
NOSIG=
METAR WMKP 102200Z NIL=
METAR WSSL 102200Z 36004KT 9999 FEW020 BKN350 25/24 Q1010=
METAR WSSS 102200Z 35004KT 300V040 9999 FEW018 BKN300 24/23 Q1010
NOSIG=

0000041100
020
SAMS32 WMKK 102200
METAR WBGG 102200Z 14002KT 6000 FEW000 SCT020 BKN150 22/22 Q1011
NOSIG=
METAR WBKK 102200Z 11003KT 9999 FEW014 BKN140 BKN270 24/22 Q1011
NOSIG=
METAR WMKJ 102200Z 36001KT 9999 FEW022 BKN300 23/22 Q1011=
METAR WMKK 102200Z 34003KT 8000 FEW030 SCT140 BKN280 24/23 Q1010
NOSIG=
METAR WMKP 102200Z NIL=
METAR WMSA 102200Z 31002KT 8000 FEW008 BKN270 24/22 Q1010=

0000078700
021
SAMS33 WMKK 102200
METAR WMAU 102200Z 27003KT 8000 FEW000 BKN140 BKN270 24/23 Q////
QFF1010=
METAR WMBA 102200Z 04002KT 9000 FEW008 SCT140 BKN269 23/23 Q1010=
METAR WMKA 102200Z 33002KT 9999 FEW030 SCT140 BKN280 24/23 Q1011=
METAR WMKB 102200Z 08002KT 8000 FEW025 SCT140 BKN270 24/23 Q1011
NOSIG=
METAR WMKC 102200Z 07016KT 040V110 9000 FEW010 SCT020 OVC220 26/23
Q1012=
METAR WMKD 102200Z 02003KT 9999 FEW012 FEW017CB SCT160 BKN260 23/22
Q1011 NOSIG=
METAR WMKE 102200Z NIL=
METAR WMKI 102200Z 04005KT 9000 -RA FEW005 SCT028 BKN260 23/23 Q1011=
METAR WMKL 102200Z 04003KT 9999 FEW025 SCT140 BKN270 27/22 Q1011=
METAR WMKM 102200Z 03004KT 9999 FEW012 BKN140 24/23 Q1011=
METAR WMKN 102200Z 03002KT 7000 -RA FEW005 SCT022 OVC190 23/23 Q1012=

0000054800
022
SAMS34 WMKK 102200
METAR WBGB 102200Z 24004KT 9999 SCT016 BKN150 24/24 Q1011=
METAR WBGR 102200Z 04003KT 9999 SCT014 SCT150 BKN300 24/23 Q1011=
METAR WBGS 102200Z 00000KT 9999 SCT018 BKN150 23/22 Q1012=
METAR WBGY 102200Z 19001KT 9999 -RA FEW005 SCT020 OVC160 23/23 Q1012=
METAR WBKL 102200Z 18001KT 9999 FEW010 BKN290 25/24 Q1011=
METAR WBKS 102200Z 06010KT 9999 SCT015 OVC260 27/25 Q1010=
METAR WBKT 102200Z 07006KT 9999 FEW007 SCT033 BKN260 27/24 Q1011=
METAR WBKW 102200Z 26001KT 9999 FEW017 BKN140 24/22 Q1010=

0000008300
023
SAFI01 MBPV 102200
MBPV 102200Z 07009KT 9999 SCT012 27/21 Q1018=

0000008900
024
SAJM31 MKJS 102200
METAR MKJS 102200Z 09011KT 9999 FEW022 28/24 Q1014=

0000012900
025
SACN62 CYQU 102200
METAR CYQU 102200Z 26016KT 25SM FEW060 FEW120 BKN210 M02/M09 A2951
 RMK SC1AC1CI4 SLP031=

00000000