0000012700
606
SAUK31 EGGY 110050 CCB
METAR COR EGCC 110050Z 28005KT 9999 RA FEW008 BKN032 BKN038 06/05
     Q1009 NOSIG=

0000008800
607
SPCN51 CWAO 110057
SPECI CWOB 110057Z AUTO 05006KT FEW001 M22/ A2920=

0000009500
608
SAUK33 EGGY 110050 RRA
METAR EGNS 110050Z 29006KT 260V340 CAVOK 06/02 Q1010=

0000017000
609
SANL32 EHDB 110055
METAR EHEH 110055Z AUTO 20006KT 9999 OVC010 05/03 Q1016 
GRN=
METAR EHKD 110055Z AUTO 22018KT 8000 BR OVC007 07/06 Q1012 
GRN=

0000012000
610
SADL34 EDZO 110050 RRA
METAR EDNY 110050Z AUTO 07002KT 0250 0200/ R24/0650D FG BKN000 01/M00
Q1019=

0000022800
611
SAMX31 KWBC 110045 RRB
METAR
MMGL 110051Z 23008KT 10SM BKN040 19/02 A3011 RMK 8/400=
MMMZ 110047Z 27009KT 14SM FEW160 SCT220 19/11 A2989 RMK 8/039=
MMPR 110049Z 20005KT 15SM BKN140 23/18 A2990 RMK 8/080=

0000009500
612
SAAT31 TAPA 110057
METAR TAPA 110100Z 08010KT 9999 SCT019 25/20 Q1018 NOSIG=

0000010600
613
SAPR01 SPIM 110100
METAR SPIM 110100Z 16013KT CAVOK 22/19 Q1011 NOSIG RMK BKN170 PP000=

0000009500
614
SAID31 WIII 110100
METAR WIII 110100Z 21006KT 9999 FEW020 29/24 Q1011 NOSIG=

0000008300
615
SAVN31 SVVA 110100
METAR SVVA 110100Z 05006KT CAVOK 24/17 Q1014=

0000011400
616
SAPH41 RPLC 110100
METAR RPLC 110100Z
04008KT 9999 FEW042 SCT300 24/17 Q1018 A3008 RMK NOSIG=

0000067000
617
SAGR31 LGAT 110050
METAR LGAD 110050Z NIL=
METAR LGAV 110050Z 24002KT CAVOK 08/05 Q1020 NOSIG=
METAR LGIR 110050Z 17008KT CAVOK 11/09 Q1021 NOSIG=
METAR LGKL 110050Z AUTO VRB03KT //// // ////// 10/08 Q1022
     RE//=
METAR LGKO 110050Z 13009KT 9999 BKN025 10/08 Q1020=
METAR LGKR 110050Z 00000KT 9999 FEW014 SCT018 BKN070 11/10 Q1021
 NOSIG=
METAR LGLM 110050Z AUTO 33004KT //// // ////// 11/10 Q1020
     RE//=
METAR LGRP 110050Z 00000KT 9999 FEW018 11/09 Q1021 NOSIG=
METAR LGSA 110050Z 26014KT 9999 FEW020 14/09 Q1020=
METAR LGSM 110050Z NIL=
METAR LGTS 110050Z 00000KT 7000 FEW010 SCT025 BKN180 05/04 Q1021
      NOSIG=

0000114900
618
SPUS70 KWBC 110022
SPECI
KLHQ 110018Z AUTO 13006KT 8SM SCT008 SCT026 07/05 A2995 RMK
     AO2=
KMAI 110018Z AUTO 00000KT 1SM BR VV002 16/16 A3005 RMK AO2=
PAGK 110018Z AUTO 34004KT 1 1/4SM -SN BR OVC029 M09/M11 A2931 RMK
     AO2 SNB05 P0000 T10891106 TSNO=
PASO 110019Z AUTO VRB03KT 1 1/4SM -SN BR BKN015 OVC023 M01/M01
     A2939 RMK AO2 P0001 TSNO=
KALO 110019Z 00000KT 1 3/4SM BR OVC003 00/M01 A2952 RMK AO2
     T00001006=
KGVL 110019Z AUTO 10007KT 1 3/4SM BR OVC002 08/08 A3011 RMK
     AO2=
KHBG 110019Z AUTO 14006KT 4SM BR OVC004 16/14 A2996 RMK AO2
     T01560144=
KPHF 110019Z AUTO 08004KT 2 1/2SM BR FEW100 07/04 A3025 RMK AO2
     RAE2355 TSNO=
KRAC 110019Z AUTO 17012KT 1 3/4SM -RA BR OVC002 02/01 A2964 RMK
     AO2 P0004 T00170011=
KRUE 110019Z AUTO 13003KT 1 3/4SM BR OVC002 09/09 A2966 RMK
     AO2=
KSGF 110019Z 16010KT 5SM -TSRA BR FEW006 BKN025 OVC041 09/08 A2955
     RMK AO2 P0011 T00890083=
KSTJ 110019Z AUTO 30008KT 5SM BR SCT004 SCT009 OVC032 02/01 A2957
     RMK AO2 T00220011=
KTOI 110019Z AUTO 11004KT 1/2SM FG VV003 13/12 A3004 RMK AO2
     T01330122=

0000009700
619
SPUS41 KWBC 110022
SPECI
KGSO 110018Z 01004KT 4SM -RA BR OVC002 03/03 A3018=

0000010700
620
SASA31 KWBC 110000 RRB
METAR
SVBC 110000Z NIL=
SVMC 110000Z NIL=
SVMG 110000Z NIL=

0000013600
621
SALT34 EYVI 110050
METAR EYSA 110050Z AUTO 27017KT 9999NDV BKN013 OVC021 01/00 Q1000 
RERA R14L/2/0295 R14R/2/0295=

0000009500
622
SAEG31 HECA 110100
METAR HECA 110100Z 00000KT 2000 BR NSC 12/09 Q1023 NOSIG=

0000016500
623
SAIS31 LLBG 110050
METAR LLET 110050Z NIL=
METAR LLHA 110050Z NIL=
METAR LLIB 110050Z NIL=
METAR LLOV 110050Z NIL=
METAR LLSD 110050Z NIL=

0000011000
624
SPCN46 CWAO 110053
SPECI CYKZ 110053Z 12005KT 2 1/2SM -DZ BR OVC004 RMK ST8 PCPN VRY
LGT=

0000006100
625
SAOS32 LOWM 110050
METAR LOXZ 110050Z NIL=

00000000