0000013000
486
SPUS42 KWBC 102224
SPECI
KSAV 102220Z 14004KT 2SM R01/4500VP6000FT -RA BR BKN006 BKN011
OVC018 19/18 A3013=

0000011000
487
SAAG31 KWBC 102200 RRB
METAR
SABE 102220Z 34006KT 9999 -SHRA BKN030 FEW045CB 29/21 Q1007=

0000011800
488
SPCN31 CWAO 102220
SPECI CYGL 102220Z 22009KT 3SM -FZDZ -SN OVC004 M06/M07 A2972 RMK ST8
 SLP080=

0000010700
489
SAUK31 EGGY 102220 CCA
METAR COR EGLL 102220Z 20010KT 9999 -RA BKN043 08/07 Q1013 NOSIG=

0000039300
490
SABX31 EBBR 102220
METAR EBAW 102220Z AUTO 23009KT 190V250 9999 OVC010/// 05/03 Q1017=
METAR EBBR 102220Z 22010KT 9999 BKN011 04/02 Q1017 NOSIG=
METAR EBCI 102220Z 20007KT 9999 FEW010 04/02 Q1017 NOSIG=
METAR EBLG 102220Z 18009KT CAVOK 04/02 Q1017 NOSIG=
METAR EBOS 102220Z 20010KT 9999 FEW012 04/02 Q1016 NOSIG=
METAR ELLX 102220Z 00000KT CAVOK 02/01 Q1017 NOSIG=

0000072400
491
FTNV01 NVVV 110000
TAF NVSC 102220Z 1100/1124 14005KT 9999 FEW010 SCT018 OVC110
INTER 1100/1106 8000 -TSRA FEW008 SCT015 FEW022CB OVC100=
TAF NVSS 102220Z 1100/1124 09010KT 9999 BKN020
INTER 1100/1106 9000 -SHRA BKN018 FEW025CB=
TAF NVSG 102220Z 1100/1124 12010KT 9999 BKN020 OVC040
INTER 1100/1106 9000 SHRA BKN018 FEW025CB OVC035=
TAF NVSL 102220Z 1100/1124 13010KT 9999 FEW028
PROB30 INTER 1100/1106 9000 -SHRA FEW020=
TAF NVVV 102220Z 1100/1124 11009KT 9999 BKN020
INTER 1100/1106 9000 SHRA BKN018=
TAF NVVW 102220Z 1100/1124 14005KT 9999 FEW022
PROB30 INTER 1100/1106 9000 -SHRA FEW018=
TAF NVVA 102220Z 1100/1124 17008KT 9999 BKN025
PROB40 INTER 1100/1106 9000 SHRA BKN018=

0000006100
492
SAOS32 LOWM 102220
METAR LOXZ 102220Z NIL=

0000011200
493
SABW31 VGHS 102220
METAR VGHS 102220Z 00000KT 0500 FG BKN005 14/13 Q1013 TEMPO S/VIS
0300M=

0000050200
494
SAOS31 LOWM 102220
METAR LOWW 102220Z 25004KT CAVOK 04/M00 Q1021 NOSIG=
METAR LOWL 102220Z AUTO VRB01KT 9999 NCD 01/01 Q1021=
METAR LOWS 102220Z VRB01KT 9999 SCT035 BKN080 03/02 Q1020 NOSIG=
METAR LOWI 102220Z AUTO 00000KT 6000 BR BKN003 03/03 Q1020
    R88///////=
METAR LOWG 102220Z VRB01KT 1400 R17/P1500N R35/P1500N BCFG SCT002
OVC006 03/03 Q1021 R17/29//95 BECMG BKN002=
METAR LOWK 102220Z VRB02KT 0700 R10/1000U R28/0800N FG VV002 02/02
Q1021 R10L/19//95 NOSIG=

0000044600
495
SAFI33 EFHK 102220
EFJO 102220Z AUTO 02014G24KT 350V060 9999 -SG SCT013 OVC065 M08/M10
Q0993=
EFLP 102220Z AUTO 35013KT 320V030 5000 -SG BKN012 OVC017 M06/M08
Q0990=
EFMI 102220Z AUTO VRB05KT 6000 -SN BKN013 M07/M07 Q0993=
EFSA 102220Z AUTO 35009KT 290V030 9999 -SN BKN016 M08/M09 Q0992=
EFUT 102220Z AUTO 36011KT 320V030 9999 OVC009 M05/M06 Q0991=
EFVR 102220Z AUTO 01011KT 340V050 0500 +SN BKN016 M07/M09 Q0994=

0000058200
496
SANO33 ENMI 102220
METAR ENAT 102220Z NIL=
METAR ENBL 102220Z VRB02KT 9999 FEW/// SCT060 M03/M04 Q0996=
METAR ENEV 102220Z NIL=
METAR ENFL 102220Z 04003KT 9999 FEW050 M00/M03 Q0998 =
METAR ENKB 102220Z AUTO VRB02KT 9999NDV BKN022/// OVC030/// M04/M08
           Q1000=
METAR ENKR 102220Z 17010KT 1100 SG FEW002 SCT049 BKN072 M21/M23 Q1016
           SEASMOKE NORTH OF THE FIELD RMK WIND 775FT 25008KT=
METAR ENML 102220Z 01005KT CAVOK M04/M07 Q1000=
METAR ENNA 102220Z 20003KT 9999 VCFG BKN005 M14/M15 Q1018 RMK WIND
           1800FT 01005KT=

0000021700
497
SANO35 ENMI 102220
METAR ENMS 102220Z NIL=
METAR ENRM 102220Z NIL=
METAR ENRS 102220Z NIL=
METAR ENSK 102220Z NIL=
METAR ENSO 102220Z NIL=
METAR ENST 102220Z NIL=
METAR ENVD 102220Z NIL=

0000057100
498
SANO38 ENMI 102220
METAR ENDR 102220Z AUTO 06027KT M04/M08 Q1002=
METAR ENEK 102220Z 24022KT 9999 -RA FEW010 BKN020 07/07 Q1004
           W08/S4=
METAR ENGC 102220Z NIL=
METAR ENHE 102220Z 10028KT 9000 BKN015 M02/M05 Q1003 W///S5=
METAR ENOA 102220Z NIL=
METAR ENSL 102220Z AUTO 28022KT 9999NDV FEW044/// BKN110/// 08/05
           Q1001 W06/S4=
METAR ENFB 102220Z AUTO 08020KT 9999NDV BKN025/// BKN079/// 04/M01
           Q0998 W///S5=
METAR ENSF 102220Z AUTO 08021KT 9999NDV BKN026/// BKN056/// 05/M01
           Q0998 W///S5=

0000014500
499
SADL34 EDZO 102220
METAR EDQM 102220Z AUTO 23011KT 9999NDV NCD 01/M01 Q1017=
METAR EDSB 102220Z 10002KT CAVOK M00/M01 Q1019=

0000020000
500
SADL33 EDZO 102220
METAR EDFE 102220Z NIL=
METAR EDFH 102220Z 23005KT 9999 SCT010 BKN270 02/01 Q1017=
METAR EDFM 102220Z NIL=
METAR EDLV 102220Z NIL=
METAR EDVK 102220Z NIL=

0000021700
501
SANO36 ENMI 102220
METAR ENBS 102220Z NIL=
METAR ENHK 102220Z NIL=
METAR ENHV 102220Z NIL=
METAR ENLK 102220Z NIL=
METAR ENMH 102220Z NIL=
METAR ENNK 102220Z NIL=
METAR ENNM 102220Z NIL=

0000021700
502
SANO37 ENMI 102220
METAR ENNO 102220Z NIL=
METAR ENOV 102220Z NIL=
METAR ENSD 102220Z NIL=
METAR ENSG 102220Z NIL=
METAR ENSN 102220Z NIL=
METAR ENSR 102220Z NIL=
METAR ENSS 102220Z NIL=

0000010500
503
SALT32 EYVI 102220 RRA
METAR EYKA 102220Z 27015KT 9999 OVC015 02/M00 Q0999 R08/290095=

0000050700
504
SANO31 ENMI 102220
METAR ENAN 102220Z NIL=
METAR ENBR 102220Z 15004KT 9999 FEW002 SCT017 BKN030 02/02 Q0999 RMK
           WIND 1200FT 13003KT=
METAR ENBO 102220Z 10020KT CAVOK M07/M18 Q1011=
METAR ENDU 102220Z NIL=
METAR ENGM 102220Z 21005KT 170V230 9999 FEW030 BKN100 M01/M02 Q0996=
METAR ENOL 102220Z NIL=
METAR ENVA 102220Z 07007KT 030V090 9999 BKN027 M09/M15 Q1003 RMK WIND
           670FT 12010KT=
METAR ENZV 102220Z 25009KT 9999 FEW015 SCT025 BKN060 07/05 Q1000=

0000079400
505
SAIY31 LIIB 102220
METAR LIEA 102220Z VRB02KT 9000 0400NW R20/1100VP1500U MIFG NSC
08/07 Q1019=
METAR LIEE 102220Z NIL=
METAR LIEO 102220Z 20002KT 6000 NSC 04/04 Q1021=
METAR LIMC 102220Z VRB02KT 9999 BKN040 09/06 Q1022 NOSIG=
METAR LIME 102220Z VRB01KT 2500 BR BKN010 08/07 Q1022=
METAR LIMF 102220Z 31003KT 9999 BKN035 08/05 Q1022=
METAR LIMJ 102220Z 00000KT 9999 SCT018 BKN035 13/10 Q1021=
METAR LIML 102220Z VRB02KT 5000 BR SCT004 BKN035 08/08 Q1022 NOSIG=
METAR LIRA 102215Z 36001KT 8000 SCT025 SCT070 10/09 Q1022=
METAR LIRF 102220Z 04005KT 7000 SCT030 09/08 Q1022 NOSIG=
METAR LIRN 102220Z 32003KT 5000 BR BKN030 10/07 Q1022=
METAR LIRP 102215Z VRB01KT 9999 SCT050 09/08 Q1021 NOSIG=
METAR LIRQ 102220Z VRB01KT 9999 FEW020 BKN040 12/11 Q1022=

00000000