0000046700
486
SZPA01 AMMC 111057
CREX++
T000103 A001 D01021 D06025++
0136250 17293000 67590 2014 01 11 10 50 3015 11 07 00 01
01515 0027 01513 0022 01524 0030 01532 0034 01526 0025 01535 0031+
0710610 17137250 67680 2014 01 11 10 50 3013 11 07 00 01
01040 0070 01041 0068 01046 0071 01051 0073 01058 0077 01055 0071+
0698060 15820000 67950 2014 01 11 10 50 3023 11 07 00 01
00602 0031 00602 0030 00604 0032 00607 0034 00610 0036 00610 0035++
7777

0000011200
487
SNVF25 LFPW 111100
BBXX
BAREU71 11114 99383 70142 46/// /1717 10157 29081 40187 57001
22264=
0000012700
488
SACN62 CYDF 110200
METAR CYDF 110200Z 25015G20KT 15SM DRSN SCT025 BKN140 M05/M09 A3010
 RMK SC4AC3 SLP193=

0000011900
489
SACN62 CYEG 110200
METAR CYEG 110200Z 18008KT 15SM FEW062 SCT260 M09/M10 A2960 RMK
 SC1CI2 SLP072=

0000009900
490
SASR31 WSAP 110200
METAR WSAP 110200Z 03005KT 9999 
FEW018 BKN300 28/23 Q1012=

0000010500
491
SPUS41 KWBC 110141
SPECI
KCMH 110137Z 13010KT 10SM FEW008 BKN037 OVC120 08/06 A2987=

0000009700
492
SPUS42 KWBC 110141
SPECI
KBTR 110137Z 13007KT 8SM BKN006 OVC011 17/16 A2991=

0000011700
493
SPUS43 KWBC 110141
SPECI
KMBS 110137Z 14007KT 2 1/2SM -RA BR SCT010 BKN027 OVC041 02/01
A2978=

0000009700
494
SPUS43 KWBC 110141
SPECI
KMLI 110137Z 19007KT 3SM -RA BR OVC004 04/03 A2952=

0000081600
495
FJIN51 VECC 110955

              INDIA METEOROLOGICAL DEPARTMENT
          R/T VOLMET B/C VECC 0955 UTC 11012014

VIDP SIGMET NIL=

VECC SIGMET NIL=

MET/SPECIAL REPORT

VECC 110950Z 010/07KT VIS 2800M FU NSC T25 DP13 QNH 1013 NOSIG=

VIDP 110930Z 310/11KT VIS 3000M HZ NSC T18 DP07 QNH 1017 NOSIG=

VGHS 110950Z 320/05KT VIS 4000M HZ NSC T27 DP10 QNH 1013 NOSIG=

VYYY 110430Z 080/04KT VIS 8KM NSC T28 DP25 QNH 1016 = 
VNKT 110950Z 250/04KT VIS 6KM SCT2500FT/750M BKN10000FT/3000M T13
     DP04 QNH 1018 NOSIG=

FCST VECC 11/12 000/00KT VIS 1800M FU/BR NSC=

FCST VIDP 11/12 330/05KT VIS 2500M HZ NSC BECMG 11/13 VIS 1500M HZ/FU
          BECMG 11/16 VIS 800M FU/MIFG=

TAF VVTS NIL=



    DUTY ASSISTANT                    DUTY OFFICER

0000014500
496
SPCN31 CWAO 110140
SPECI CYWG 110140Z 31009KT 1SM R31/P6000FT/D R36/P6000FT/D -FZDZ BR
 OVC003 M08/M08 A2942 RMK ST8 SLP979=

0000174800
497
SPUS70 KWBC 110142
SPECI
KPAH 110138Z 18006KT 2 1/2SM RA BR FEW011 BKN031 OVC045 10/09
     A2974 RMK AO2 P0012 T01000089=
KPNS 110138Z AUTO 11007KT 1/2SM R17/1800V2400FT -RA FG VV002 17/17
     A3000 RMK AO2 RAB36 P0001 T01720167=
KWST 110138Z AUTO 00000KT 1/4SM FG VV002 02/02 A3034 RMK AO2
     T00170017=
KBED 110138Z 00000KT 5SM BR OVC008 02/01 A3032 RMK AO2 CIG
     007V010=
KCLT 110138Z 01005KT 2SM BR OVC003 06/06 A3015 RMK AO2 SFC VIS
     3=
KDFW 110138Z 33014KT 10SM FEW250 16/08 A2974 RMK AO2 WSHFT 0122
     FROPA T01610083=
KLFK 110138Z AUTO 19010KT 10SM SCT010 BKN019 OVC032 19/17 A2978
     RMK AO2 RAE0058 P0000 $=
KMGJ 110138Z AUTO 00000KT 6SM HZ OVC008 01/M02 A3028 RMK AO2
     T00061022 TSNO=
KMVY 110138Z AUTO 00000KT 10SM SCT012 BKN030 OVC047 06/04 A3034
     RMK AO2 RAE0058B19E28 P0000 $=
PABA 110136Z AUTO 27020KT 1/2SM -SN FZFG BKN022 OVC030 M24/M27
     A2983 RMK AO2 SNB0026 P0000 FZRANO=
KISW 110138Z AUTO 10004KT 3/4SM -SN BR OVC006 00/M01 A2954 RMK AO2
     FZRAE0057SNB0057 P0006 I1000 T00001006=
KFRG 110139Z 04003KT 3/4SM UP BR OVC004 03/03 A3031 RMK AO2 UPB26
     P0001=
KGLR 110139Z AUTO 15008KT 3SM -FZRA BR BKN005 OVC012 M01/M02 A2969
     RMK AO2 CIG 003V007 PRESFR P0005 I1005 T10111017=
KLBT 110139Z AUTO 14005KT 3SM BR BKN007 OVC010 17/17 A3012 RMK AO2
     RAE37 P0003 T01720167=
KRWF 110139Z AUTO 20004KT 3SM BR SCT010 M02/M02 A2951 RMK AO2=
KTVR 110139Z AUTO 17007KT 10SM BKN028 BKN035 OVC041 17/16 A2985
     RMK AO2 T01670156 TSNO=
KUUU 110139Z AUTO 15004KT 2 1/2SM BR OVC005 05/05 A3033 RMK AO2
     RAB01E31 P0000 T00500050=
KYIP 110139Z AUTO 16006KT 1SM BR OVC002 04/02 A2984 RMK AO2 P0004
     TSNO RVRNO=

0000009300
498
SPUS31 KWBC 110142
SPECI
KCLT 110138Z 01005KT 2SM BR OVC003 06/06 A3015=

0000010200
499
SACG20 FCBB 110200
METAR FCBB 110200Z 00000KT 8000 FEW010 SCT016 23/22 Q1012 NOSIG=

0000011600
500
SACN61 CYGV 110200
METAR CYGV 110200Z AUTO 27009KT 9SM BKN075 OVC140 M08/M11 A3005 RMK
 SLP179=

0000010300
501
SACN61 CYFC 110200
METAR CYFC 110200Z AUTO 22004KT 9SM CLR M10/M11 A3029 RMK SLP257=

0000011100
502
UANT99 KDDL 110954
ARP UAL970 5600N02017W 0954 F370 MS63 226/60 KT
N643UA DDL XXW 110954 F26A
0000018400
503
SIVE20 VHHH 110900 RRA
BBXX
AMOHK02 11074 99013 11038 46/// ///// 40090=
AMOHK02 11084 99013 11038 46/// ///// 40084=
AMOHK02 11094 99013 11038 46/// ///// 40086=
0000054100
504
UDAS02 BABJ 110947
AMDAR 1109
ASC CNFPXL 3300N 11841E 110942 F198 MS215 268/050 TB/ S//1=
ASC CNFPXL 3303N 11842E 110943 F212 MS245 267/051 TB/ S//1=
LVR CNFPXL 3307N 11843E 110943 F217 MS263 266/052 TB/ S//1=
LVR CNFPXL 3308N 11843E 110943 F217 MS263 268/052 TB/ S//1=
LVR CNFPYM 3554N 11723E 110943 F246 MS360 278/088 TB/ S//1=
LVR CNFPYM 3550N 11724E 110943 F246 MS360 276/087 TB/ S//1=
LVR CNFPYM 3547N 11726E 110944 F246 MS358 275/086 TB/ S//1=
LVR CNFPYM 3543N 11727E 110945 F246 MS358 274/086 TB/ S//1=
0000103700
505
UDAS02 BABJ 110945
AMDAR 1109
ASC CNFPYM 3605N 11720E 110941 F231 MS323 283/087 TB/ S//1=
ASC CNFPYM 3601N 11721E 110942 F242 MS353 281/087 TB/ S//1=
LVR CNFPYM 3558N 11722E 110942 F246 MS360 277/089 TB/ S//1=
LVR CNFPYM 3556N 11722E 110942 F246 MS360 277/089 TB/ S//1=
LVR CNFNXP 2825N 11601E 110934 F331 MS380 261/128 TB/ S//1=
LVR CNFNXP 2848N 11601E 110937 F331 MS380 259/123 TB/ S//1=
LVR CNFNXP 2906N 11623E 110940 F341 MS409 259/134 TB/ S//1=
LVR CNFNXP 2925N 11647E 110943 F341 MS408 261/137 TB/ S//1=
DES CNFOZL 2357N 11348E 110940 F157 MS045 253/042 TB/ S//1=
DES CNFOZL 2355N 11345E 110941 F157 MS045 253/042 TB/ S//1=
DES CNFOZL 2351N 11341E 110942 F157 MS045 253/041 TB/ S//1=
DES CNFOZL 2347N 11338E 110943 F157 MS045 253/040 TB/ S//1=
DES CNFPYN 3603N 10435E 110941 F178 MS250 287/026 TB/ S//1=
DES CNFPYN 3604N 10429E 110942 F168 MS225 297/027 TB/ S//1=
DES CNFPYN 3605N 10426E 110942 F164 MS218 301/026 TB/ S//1=
DES CNFPYN 3606N 10423E 110943 F156 MS208 301/018 TB/ S//1=
00000000