0000010900
486
UANT01 CWAO 110927
ARP SWR41 5655N06024W 0927 F350 MS62 288/82 KT
HBJMJ QXS YHO 110927 J29A
0000011000
487
UANT01 CWAO 110928
ARP AFR439 5423N04704W 0928 F370 MS62 283/66 KT
FGITJ QXT AOW 110928 F05A
0000022000
488
SIKZ20 UAAA 110900 RRA
AAXX 11091
35925 42698 82502 10014 20000 40185 58011 885//=
38001 42997 80504 10064 20036 30164 40135 57020 8807/=
38232 41597 81506 10018 20018 30080 40179 58023 70241 886//=
0000011000
489
UANT01 CWAO 110929
ARP DAL10 4840N03153W 0929 F350 MS48 200/33 KT
N174DN QXT AOE 110929 F59A
0000020600
490
SPSA85 EGRR 110918
SPECI SBAT 110915Z 00000KT 8000 -RA FEW004 BKN090 22/22 Q1012=
SPECI SBPB 110915Z 11003KT 9999 FEW017 SCT090 26/23 Q1011=
SPECI SBPC 110915Z 00000KT CAVOK 19/19 Q1021=
0000031600
491
SASA85 EGRR 110900 RRG
METAR SANT 110900Z 18008KT 9999 BKN040 FEW045CB 23/21 Q1012=
METAR SARP 110900Z 09004KT CAVOK 25/21 Q1011=
METAR SBBQ 110900Z 05003KT CAVOK 20/18 Q1022=
METAR SLTR 110900Z 02003KT 9999 SCT080 24/23 Q1010=
METAR SMJP 110900Z 09004KT 9999 FEW008 SCT045 23/22 Q1012 NOSIG=
0000132600
492
FTSA85 EGRR 110922
TAF SBBG 110930Z 1112/1212 25006KT 9999 SCT030 TX25/1118Z TN17/1209Z
     PROB40 TEMPO 1112/1114 5000 RA SCT010 BKN025
     TEMPO 1114/1123 20016KT 5000 T SRA BKN020 FEW040CB
     RMK PCD=
TAF SBCG 110930Z 1112/1212 35006KT 9999 FEW040 TX33/1118Z TN23/1209Z
     TEMPO 1116/1203 35016KT 8000 TSRA SCT030 FEW040CB
     TEMPO 1203/1211 6000 RA BKN010 BKN030
     RMK PCD=
TAF SBCR 110930Z 1112/1212 05006KT 9999 FEW030 TX36/1118Z TN24/1209Z
     TEMPO 1118/1123 8000 TSRA BKN025 FEW030CB
     RMK PCD=
TAF SBCT 110930Z 1112/1212 15006KT 9999 SCT025 TX30/1118Z TN19/1209Z
     PROB30 TEMPO 1112/1113 VCTS SCT025 FEW030CB
     TEMPO 1118/1122 35015KT 6000 TS RA BKN025 FEW040CB
     PROB40 1206/1211 6000 BKN006 BKN010
     RMK PCD=
TAF SBFI 110930Z 1112/1212 11006KT 9999 FEW030 TX35/1118Z TN24/1209Z
     TEMPO 1120/1203 06015KT 6000 TSRA BKN030 FEW035CB
     PROB40 TEMPO 1203/1212 3 000 RA BKN010 BKN020
     RMK PCD=
TAF SBPA 110930Z 1112/1212 01006KT 9999 FEW040 TX28/1118Z TN21/1209Z
     BECMG 1114/1116 SCT035
     TEMPO 1116/1120 35015KT 8000 TSRA BKN030 FEW040CB T=
TAF SBPP 110930Z 1112/1212 35006KT 9999 FEW025 TX32/1118Z TN22/1209Z
     TEMPO 1118/1123 6000 TSRA BKN020 FEW040CB
     PROB40 1206/1211 3000 BR BKN005
     RMK PCD=
0000017900
493
SPSA85 EGRR 110924 RRA
SPECI SBCO 110915Z 00000KT 1000 R30/1600 R12/1600 BR SCT005 22/// Q1011=
SPECI SBIH 110915Z 00000KT 8000 SCT007 SCT080 BKN100 24/23 Q1011=
0000073800
494
FTSA85 EGRR 110928 RRA
TAF SBFL 110930Z 1112/1212 35008KT 9999 SCT040 TX33/1118Z TN23/1209Z
     PROB40 TEMPO 1112/1114 8000 RA BKN040
     TEMPO 1116/1123 01015KT 6000 SHRA BKN 020 FEW030TCU
     PROB40 TEMPO 1206/1212 8000 RA BKN010 BKN020
     RMK PCD=
TAF SBPK 110930Z 1112/1212 22006KT 9999 FEW030 TX28/1118Z TN19/1209Z
     BECMG 1114/1116 SCT025
     TEMPO 1116/1124 35015KT 4000 TSRA BKN020 FEW040CB P ROB40
     1208/1211 3000 BR BKN008 BKN015
     RMK PCD=
TAF SBUG 110930Z 1112/1212 23008KT 9999 BKN015 TX26/1118Z TN18/1209Z
     TEMPO 1112/1114 20015KT 3000 TSRA BKN006 BKN012 FEW030CB
     TEMPO 1114/1122 4 000 TSRA BKN010 BKN015 FEW030CB
     BECMG 1122/1124 SCT030
     RMK PCD=
0000006100
495
AAUK99 EGRR 110930
Socket stay alive message.
0000010800
496
UANT01 EGRR 110900 RRA
ARP SLM994 46N020W 0907 F330 48N015W 0934 NEXT 4850N012W MS58 210/65=
0000043300
497
UDEU02 EGRR 110931 RRE
AMDAR 1108
DES EU0011   3818N 00035W 110834 F132 MS105 189/014 TB/ S031=
DES EU0011   3809N 00035W 110835 F084 MS017 189/006 TB/ S031=
DES EU0011   3800N 00034W 110837 F038 PS077 182/007 TB/ S031=
DES EU0011   3755N 00037W 110838 F032 PS075 124/009 TB/ S031=
DES EU0011   3752N 00042W 110840 F020 PS080 070/017 TB/ S031=
DES EU0011   3749N 00046W 110841 F007 PS107 052/004 TB/ S031=
0000029700
498
SIER20 OMAA 110900
AAXX 11094
41200 42960 61709 10210 20100 30157 40208 8603/ 333 58002 86366=
41202 NIL=
41203 NIL=
41206 NIL=
41207 NIL=
41208 NIL=
41209 NIL=
41210 NIL=
41211 NIL=
41216 42660 71906 10208 20116 30191 40195 8253/ 333 58004 82645
      86366=
0000003900
499
SIER20 OMAA 110900
NIL=
0000012600
500
SITH43 VTBB 110900 RRC
AAXX 11094
48481 31958 20000 10338 20189 30088 40116 57007 70500 82041
  333 58006=
0000034500
501
SNVD01 KWBC 110700 RRT
BBXX
42369 11071 99272 70903 46/// /1803 1//// 90720=
42375 11071 99285 70883 46/// /1508 1//// 90720 22200 10401 70007
 555 11065 22071=
42887 11071 99282 70885 46/// /1909 10225 20202 90720 22200 10502
 70009 555 11074 22080=
42392 11071 99272 70900 46/// ///// 1//// 90720 22200 10501 70007=
0000047300
502
SNVD01 KWBC 110800 RRP
BBXX
41053 11081 99185 70661 46/// /1305 10245 40165 90830 333 91207
 555 11055 22059=
41053 11081 99185 70661 46/// /1106 10251 40164 90810 333 91211
 555 11069 22075=
41053 11081 99185 70661 46/// /1205 10246 40165 90820 333 91207
 555 11059 22064=
42022 11081 99275 70837 46/// /1306 10216 40166 90829 555 11066
 22072=
46223 11081 99335 71178 46/// ///// 1//// 90818 22200 00156 11301
 21001 327// 41301 70007=
0000038700
503
SIVA30 KWBC 110900 RRB
BBXX
VRED4 11093 99342 30080 415// 82205 10180 2009/ 40230 56200 7//22
 8813/ 22223 0//// 2//// 3//// 40402 5//// 6//// 80130 ICE /////=
9HFA5 11090 99281 30364 41798 31406 10280 40140 540007//// 831//
 22223 20203 316// 40406 5////=
DBBH 11091 99180 30117 41998 11508 10181 20161 40152 52014 70100
 80001 22200 04178 20402 320// 41003=
0000198600
504
SIUS21 KWBC 110900
AAXX 11094
72365 32966 23508 10033 21094 38403 40194 51009 90852 555 91109=
72506 17008 91610 10056 20050 30210 40229 58022 69907 730// 90853
555 91109=
72518 11258 80000 10006 21011 30062 40174 58042 69907 761// 90851
333 96010 555 91109=
72363 35966 02507 11017 21122 38910 40153 53023 90853 555 91109=
72513 17448 80000 10050 20039 39797 40146 56035 69937 710// 90854
555 91109=
72509 11104 90905 10017 20011 30209 40214 58030 69937 741// 90854
555 91109=
72570 35666 82307 10000 21061 38115 40218 53008 90853 555 91109=
72314 11104 /3503 10056 20056 39883 40146 56034 69987 751// 90852
333 96010 555 91109=
72605 17228 80000 11039 21044 30089 40218 58025 69987 710// 90851
333 96010 555 91109=
72445 17259 82816 10028 20017 39711 40032 53012 69957 761// 90854
333 91020 96010 555 91109=
72414 32766 23303 10089 20083 39697 40060 58041 90854 555 91109=
72429 11261 81916 10100 20089 39665 40026 58028 60077 761// 90856
333 91022 555 91109=
72405 11020 80000 10039 20022 30140 40161 58038 60037 710// 90852
555 91109=
72451 35966 02812 11011 21072 39200 40121 53018 90852 555 91109=
72565 32966 21508 11050 21100 38296 40125 53005 90853 555 91109=
72376 35966 00906 11039 21106 38333 40230 53012 90853 555 91109=
72425 32966 01508 10156 20111 39734 40031 58059 90851 555 91109=
72302 35966 01707 10194 20172 3//// 40161 58018 90853 555 91109=
72438 11104 /1804 10039 20039 39719 40006 58021 69937 761// 90854
333 96041 555 91109=
72503 11112 80000 10017 20011 30169 40183 58038 60027 710// 90851
555 91109=
72410 17220 80000 10028 20028 39799 40155 56017 60017 761// 90854
333 96010 555 91109=
72446 12361 62709 10011 21006 39674 40054 53016 69907 90853 555
91109=
72475 35966 02009 11022 21050 3//// 40236 51006 90852 555 91109=
72353 32966 22910 10039 21044 39656 40115 53019 90852 555 91109=
72423 11359 81707 10111 20106 39851 40023 58037 60147 761// 90856
555 91109=
0000127900
505
SIVB30 KWBC 110900 RRC
BBXX
SHIP 11094 99252 11269 41598 50816 10200 20153 40241 55001 70222
 85201 22253 00210 20302 302// 40904 5//// 80170=
SHIP 11094 99182 11184 41797 30827 10260 20203 40152 55013 70100
 834// 22253 00250 307// 40706 80220=
SHIP 11094 99123 11502 41696 50515 10280 20224 40141 52015 85343
 22273 00320 20303 301// 40303 80240=
H9XE 11094 99378 11412 41697 80318 10020 21034 40230 57020 70222
 87835 22243 00110 20202 30605 40102 50202 80000=
SHIP 11094 99113 11424 41/98 /0822 10281 20231 40102 52013 70222
 8//// 9//// 22200 06286 6//// 80245=
SHIP 11094 99085 11507 41598 60321 10260 20232 40096 52011 70222
 8536/ 22233 00323 80240=
SHIP 11094 99326 11341 41498 33508 10120 20062 40271 57008 70200
 82440 9//// 22214 00200 1//// 20201 327// 40303 5//// 6//// 80090
 /////NNNN=
JGQH 11094 99309 11370 41/98 73014 10126 20041 40269 53012 70222
 872// 22241 00192 10703 20301 399// 4//02 70015=
JPBN 11094 99250 11294 41/98 50617 10179 20093 40246 53006 70282
 85230 22271 00241 10603 20503 301// 40803 70015=
BATFR10 11094 99240 11231 46/// /1120 10207 20119 40229 53004
 22283 04242=
DFWV2 11094 99290 11237 41598 80818 10125 20078 40250 53000 70222
 8587/ 22213 06150 20904 304// 41604 80100=
00000000