0000196700
066
UDAS02 BABJ 110909
AMDAR 1109
ASC CNFLWM 2635N 10649E 110905 F053 MS013 057/008 TB/ S//1=
ASC CNFLWM 2635N 10651E 110906 F072 MS018 301/005 TB/ S//1=
ASC CNFLWM 2634N 10654E 110906 F077 MS009 233/016 TB/ S//1=
DES CNFPQL 3659N 11951E 110857 F194 MS288 277/055 TB/ S//1=
DES CNFPQL 3714N 12007E 110900 F151 MS218 284/046 TB/ S//1=
DES CNFPQL 3724N 12025E 110903 F128 MS180 285/041 TB/ S//1=
DES CNFPQL 3728N 12045E 110906 F103 MS140 284/032 TB/ S//1=
DES CNFLWQ 2312N 11220E 110903 F147 MS024 261/037 TB/ S//1=
DES CNFLWQ 2309N 11223E 110903 F138 MS011 270/037 TB/ S//1=
DES CNFLWQ 2305N 11229E 110904 F123 PS019 281/026 TB/ S//1=
DES CNFLWQ 2304N 11236E 110905 F109 PS048 268/025 TB/ S//1=
ASC CNFOZN 3613N 12023E 110905 F014 MS018 255/005 TB/ S//1=
ASC CNFOZN 3612N 12024E 110906 F023 MS038 267/009 TB/ S//1=
ASC CNFOZN 3611N 12024E 110906 F027 MS048 274/009 TB/ S//1=
ASC CNFOZN 3609N 12025E 110906 F039 MS050 295/012 TB/ S//1=
DES CNFPTK 3120N 12111E 110904 F065 MS033 249/023 TB/ S//1=
DES CNFPTK 3118N 12113E 110905 F064 MS033 256/024 TB/ S//1=
DES CNFPTK 3114N 12113E 110906 F060 MS029 246/020 TB/ S//1=
DES CNFPTK 3111N 12114E 110907 F054 MS021 230/024 TB/ S//1=
ASC CNFNXP 2349N 11449E 110858 F293 MS283 253/063 TB/ S//1=
LVR CNFNXP 2411N 11454E 110901 F331 MS390 255/065 TB/ S//1=
LVR CNFNXP 2434N 11500E 110904 F331 MS381 253/069 TB/ S//1=
LVR CNFNXP 2457N 11507E 110907 F331 MS380 257/075 TB/ S//1=
DES CNFOZM 3528N 11705E 110904 F191 MS245 265/063 TB/ S//1=
DES CNFOZM 3529N 11705E 110905 F188 MS240 265/064 TB/ S//1=
DES CNFOZM 3535N 11705E 110906 F178 MS213 266/061 TB/ S//1=
LVR CNFOZM 3540N 11706E 110907 F177 MS210 267/060 TB/ S//1=
LVR CNFOZL 2837N 11346E 110858 F276 MS289 255/100 TB/ S//1=
LVR CNFOZL 2817N 11348E 110901 F276 MS288 256/096 TB/ S//1=
LVR CNFOZL 2757N 11349E 110904 F276 MS268 265/100 TB/ S//1=
LVR CNFOZL 2736N 11351E 110907 F276 MS270 264/096 TB/ S//1=
0000068900
067
UDEU02 EGRR 110921 RRB
AMDAR 1109
ASC EU4950   5941N 01803E 110910 F027 MS066 015/016 TB/ S031=
ASC EU4950   5942N 01804E 110911 F044 MS098 318/006 TB/ S031=
ASC EU4950   5944N 01804E 110911 F065 MS110 290/025 TB/ S031=
ASC EU4950   5946N 01802E 110912 F078 MS129 287/032 TB/ S031=
ASC EU4950   5947N 01758E 110912 F104 MS153 293/050 TB/ S031=
ASC EU4950   5946N 01753E 110913 F115 MS178 283/049 TB/ S031=
ASC EU4950   5944N 01749E 110914 F134 MS223 284/049 TB/ S031=
ASC EU4950   5942N 01746E 110914 F149 MS266 286/046 TB/ S031=
ASC EU4950   5940N 01742E 110915 F171 MS305 281/056 TB/ S031=
ASC EU4950   5937N 01738E 110915 F186 MS285 290/074 TB/ S031=
0000066100
068
UDAF01 FAPR 110918
AMDAR 1109
LVR AFZA50 2102S 03324E 110827 F390 MS527 234/008 TB0 S031 333 F/// VG010=
LVR AFZA50 2014S 03347E 110835 F390 MS532 225/010 TB0 S031 333 F/// VG010=
LVR AFZA50 1926S 03410E 110842 F390 MS532 195/006 TB0 S031 333 F/// VG010=
LVR AFZA50 1838S 03432E 110849 F390 MS534 187/012 TB0 S031 333 F/// VG010=
LVR AFZA50 1750S 03455E 110856 F390 MS530 137/005 TB0 S031 333 F/// VG010=
LVR AFZA50 1703S 03517E 110903 F390 MS535 133/008 TB0 S031 333 F/// VG010=
LVR AFZA50 1615S 03538E 110910 F390 MS530 139/024 TB0 S031 333 F/// VG009=
LVR AFZA50 1527S 03600E 110917 F390 MS531 118/027 TB0 S031 333 F/// VG009=
0000080700
069
SIVD01 PANC 110900 RRC
BBXX
PHSG 11094 99061 71334
41/98 71219 10250 20235 40100 57010 70222 87///
22214 00250 20203 323// 40306 80240=
C6WK7 11094 99379 10236
41/98 00301 10177 2//// 40230 54/// 7//// 80///
22200 00170 2//// 3//// 4//// 5//// 6//// 8//// ICE /////=
PHEO 11094 99210 71575
41398 10613 10240 20218 40100 51010 70100 811//
22263 00260 20301 80225=
C6TQ6 11093 99289 70140
416// 51805 10170 2012/ 40190 53001 70111 8524/
22233 00200 20404 32220 40304 50203 6//// 80140 ICE /////=
3ETA8 11094 99233 70872
41797 31913 10250 2021/ 40130 54000 7//10 81100
22275 04268 20201 3//// 40201 50201 6//// 80220 ICE /////=
C6VG7 11094 99222 70852
417// 81515 10260 2//// 40158 53001 79522 889//
22214 00270 2//04 3//// 4//04 5//04 6//// 8//// ICE /////=
0000046200
070
SIVD15 KWNB 110900 RRH
BBXX
44064 11091 99370 70760 46/// /1607 10130 40165 90910 333 91208
555 11077 22084=
44062 11091 99386 70764 46/// /3203 10038 40157 90910 333 91204
555 11036 22039=
44063 11091 99390 70764 46/// /3103 10024 40144 90910 333 91203
555 11029 22031=
44041 11091 99372 70768 46/// /1204 10143 90910 333 91204 555
11040 22044=
44042 11091 99380 70763 46/// /1711 10114 40139 90910 333 91214
555 11128 22139=
0000012800
071
SIVD20 KWNB 110900 RRG
BBXX
44058 11091 99376 70763 46/// /1908 10109 40161 90910 333 91212
555 11088 22095=
0000015800
072
SIVD19 KWNB 110900 RRC
BBXX
46126 11091 99540 71666 46/// /2204 10041 49808 58014 90900 22200
00047 1//00 70000 333 91205 555 11043 22047=
0000068900
073
UDEU02 EGRR 110921 RRC
AMDAR 1109
DES EU1521   4542N 00849E 110911 F091 MS012 244/017 TB/ S031=
DES EU1521   4539N 00851E 110912 F090 MS012 234/013 TB/ S031=
DES EU1521   4536N 00852E 110913 F090 MS015 232/018 TB/ S031=
DES EU1521   4533N 00853E 110913 F090 MS015 238/019 TB/ S031=
DES EU1521   4531N 00854E 110914 F090 MS012 236/018 TB/ S031=
DES EU1521   4528N 00855E 110915 F082 PS000 233/019 TB/ S031=
DES EU1521   4525N 00855E 110915 F079 PS007 224/016 TB/ S031=
DES EU1521   4523N 00855E 110916 F075 PS015 225/013 TB/ S031=
DES EU1521   4520N 00855E 110917 F068 MS007 207/019 TB/ S031=
DES EU1521   4520N 00852E 110917 F061 MS005 203/018 TB/ S031=
0000119900
074
SICI01 KWBC 110900
AAXX 11091
50953 41460 50203 11184 21219 40268 52008 70070 85/// 333 92513=
52533 32980 03205 11018 21236 40424 57002 333 00501=
52652 32980 02002 11031 21218 40464 57003 333 00602=
52866 32961 71802 11051 21192 37751 52001 87/// 333 00553=
53463 42970 33204 11043 21223 40377 52006 83/// 333 00103=
53772 31956 23201 10028 21168 40316 57002 70500 82///=
53915 32780 73203 10001 21220 40367 52004 87/// 333 00651=
54218 32980 93204 11036 21203 40313 52017=
54342 32965 62702 11012 21170 40271 57004 86///=
54823 41956 01803 10045 21061 40296 57006 70500=
56080 32970 73403 11056 21170 37156 52004 87/// 333 00551=
56096 32772 81602 10049 21060 40315 52010 88/// 333 00700=
56187 31659 40203 10091 20000 40287 52001 70500 84/// 333 00502=
56778 32980 02506 10172 21041 38110 57015 333 00200=
57461 31940 82201 10048 20006 40312 52002 70500 88///=
57516 41520 83201 10081 20059 40284 54000 78065 88///=
57687 41462 83402 10047 20022 40306 52002 76066 88///=
57816 31439 80702 10022 20012 40279 57002 76060 88/// 333 00600=
59431 31416 83602 10130 20114 40221 57003 76000 88///=
59644 32560 71104 10204 20156 40200 57007 87///=
0000117300
075
SILA01 KWBC 110900
AAXX 11091
48921 31457 21401 10186 20151 38641 48140 57008 71044 82200 333
58013=
48924 32562 21802 10263 20181 39505 40119 57025 82100 333 58011=
48926 32560 21601 10276 20173 39676 40137 57024 82100 333 58010=
48927 31458 70904 10185 20149 39168 48642 57017 70544 878// 333
58011=
48928 32460 30905 10202 20136 39086 48573 57018 83100 333 58011=
48930 32470 23001 10280 20159 39803 40147 57021 81100 333 58010=
48935 32468 20402 10230 20078 39015 48521 57013 82200 333 58008=
48938 31558 10402 10282 20159 39807 40136 57033 70544 81100 333
58016=
48940 31457 31801 10290 20169 39937 40130 57024 70544 83200 333
58002=
48944 31460 10403 10218 20154 39525 40111 57007 70544 81500 333
59003=
48945 31956 00000 10290 20150 39971 40148 57019 70544 333 58007=
48946 31557 20402 10288 20236 39966 40129 57018 70544 81800 333
59001=
48947 32460 40404 10294 20173 39995 40159 57009 83230 333 58005=
48952 31557 12702 10310 20195 39922 40110 57021 70544 81100 333
58004=
48955 32760 32202 10320 20171 39996 40111 57025 83500 333 58006=
48957 32565 21801 10325 20208 39986 40092 57027 82010 333 59009=
0000024100
076
UDEU02 EGRR 110921 RRD
AMDAR 1109
ASC EU4950   5935N 01734E 110916 F203 MS316 288/076 TB/ S031=
ASC EU4950   5932N 01730E 110917 F222 MS358 288/073 TB/ S031=
ASC EU4950   5930N 01726E 110917 F240 MS398 290/074 TB/ S031=
0000012600
077
SMCN04 KWBC 110600
AAXX 11064
71695 15/// /1903 11080 21092 39653 49989 51005 60001 333 11079
21097 70005=
0000087900
078
SIVS01 KWBC 110900
AAXX 11091
48870 41465 83201 10244 20207 30150 40157 56008 72162 888// 333
58008 83894 88696=
48877 32570 80705 10254 20190 30137 40142 55011 888// 333 58002
83895 88697=
48887 32572 80908 10255 20220 30105 40111 55010 888// 333 58002
82895 88697=
48920 32998 63604 10277 20252 30108 40111 56008 80008 333 58007
86299=
48914 32598 71102 10296 20222 30111 40113 56011 85808 333 58006
81895 85696 87299=
48917 32598 70502 10296 20222 30110 40116 55013 82208 333 59004
82895 87299=
48918 32470 60504 10251 20218 30110 40121 57014 869// 333 58007
82894 84995=
48848 41497 82902 10199 20176 30176 40184 55008 76062 888// 333
58004 85894 88697 96160=
48855 32560 70000 10238 20197 30168 40176 55005 879// 333 58003
81995 83895 87697=
48852 32598 60901 10226 20199 30163 40173 56005 868// 333 58000
82895 86697=
0000009400
079
SIAU40 AMMC 110900 CCB
AAXX 11094
94210 46/// /2513 10299 30056 40062=


0000010000
080
SIAU40 AMMC 110900 CCC
AAXX 11094
94210 46/// /2513 10299 30056 40062 56017=


0000051300
081
SICR60 GCLP 110900
AAXX 11094
60001 22570 12403 10184 20141 30145 40188 52014 81800
  333 60007 92427=
60005 22960 02802 10172 20059 30135 40172 53020
  333 60007 92427=
60007 22660 10000 10167 20112 39932 40190 52023 81801
333 60007=
60010 NIL=
60015 22370 22302 10127 20078 39476 40192 52018 81401
  333 60007=
60025 22580 13607 10160 20116 30097 40188 53020 81800
  333 60007 92428=
60035 22970 22904 10138 20111 30158 40194 52022 80001
  333 60007 92407=
60320 NIL=
0000010800
082
SSVD50 LFPW 110640 RRA
ZZYY 41099 11014 0640/ 714176 060935 22219 00268 10805 20080
21025=
0000314900
083
SIKZ20 UAAA 110900
AAXX 11091
28676 41697 81604 11052 21085 30071 40201 58001 70282 8795/=
28766 41997 61905 11063 21086 39995 40189 52001 73633 83051=
28867 41998 61803 11063 21094 39903 40180 58001 73673 86010=
28879 41997 81806 11063 21090 39919 40214 57002 77177 8802/=
28952 41599 81608 11064 21105 39971 40167 52001 73633 885//=
28966 41598 81408 11061 21092 39907 40197 58012 73673 885//=
29802 42997 81603 11096 21132 30135 40285 58006 86031=
29807 41497 81603 11089 21113 30150 40273 58010 77172 8802/=
34691 42998 61803 10036 20001 30109 40097 57014 86030=
35067 41996 81303 11045 21065 39903 40183 57008 77172 8802/=
35078 41597 81203 11067 21079 39827 40215 57008 77772 886//=
35085 42598 81704 11074 21095 39750 40240 57008 885//=
35108 42597 82006 10007 21007 30023 40069 57022 885//=
35188 41495 81903 11064 21084 39808 40254 57007 77373 8802/=
35217 41498 81908 10004 21007 30067 40108 58013 70272 8802/=
35229 42597 82302 11003 21018 39869 40141 52007 885//=
35302 42598 82008 10009 21017 30060 40079 57024 885//=
35357 41597 81807 11069 21089 39794 40242 57003 73632 885//=
35394 42998 81403 11091 21145 39585 40289 57015 8805/=
35406 42597 81904 10015 20007 30108 40110 57017 885//=
35416 41597 81704 11003 21012 30024 40144 58007 70272 885//=
35426 41495 82503 11014 21025 39867 40159 51007 71022 886//=
35497 42998 81105 11091 21139 39457 40285 57022 8802/=
35532 41/92 92303 11014 21022 39674 40167 52009 74544=
35671 42598 61005 11069 21102 39783 40224 57017 86500=
35700 42598 82004 10031 21003 30164 40140 57012 885//=
35746 41/92 92006 11004 21007 74544=
35796 42998 80505 11100 21159 39855 40310 57025 86011=
35849 41996 82202 11007 21026 30106 40192 58009 71022 8802/=
35925 NIL=
35953 42599 82305 11022 21054 30074 40205 58003 885//=
35969 42999 00000 11058 21106 30055 40233 57017=
36003 42698 71602 11093 21139 30141 40299 57010 82570=
36152 42998 61004 11141 21174 30122 40322 57015 82032=
36177 42997 71904 11063 21134 30085 40339 57015 85031=
36208 42999 50901 11050 21141 39342 40345 57014 80001=
36397 42999 61616 11111 21195 39758 40348 57019 82042 333   91020
91120=
36428 42999 30000 11133 21211 39867 40398 57019 81041 333   95000=
36535 42999 30000 11122 21190 39736 40404 57016 80001=
36639 42999 60000 11072 21178 39690 40314 57026 83031=
36821 42999 70000 11029 21124 39782 40281 57018 80002=
36859 42999 70000 11013 21114 39496 40288 57027 85045=
36864 42999 32301 11018 21116 39365 40271 57007 80001=
36870 42997 80000 11002 21111 39220 40240 57022 80009=
38001 NIL=
38062 42999 22103 10006 21048 30044 40208 57011 82080=
38069 42998 01804 10031 21051=
38196 42998 01101 10027 21126 39250 40229 57015=
38198 42997 00905 11007 21075 39984 40248 57016=
38222 42998 50000 11010 21106 39694 40262 57013 85040=
38232 NIL=
38328 42999 01802 10085 21082 39511 40228 58014=
38334 42998 03602 10048 21098 39278 40235 58012=
38341 42699 31803 10042 21069 39460 40242 57011 83500=
38343 42998 02501 11048 21060 39403 40239 57007=
38439 41996 01404 10030 21021 39902 40242 58015 71001=
0000017200
084
SSVF50 LFPW 110650 RRA
ZZYY 62078 11014 0650/ 747239 002787 22219 00072 10802 20080
21008=
ZZYY 62067 11014 0650/ 746833 002295 22219 10702 20069 21008=
0000010000
085
SSVF50 LFPW 110710 RRA
ZZYY 62068 11014 0710/ 748717 003961 22219 10400 20040 21002=
00000000