0000011000
574
UANT99 KDDL 110804
ARP BAW18A 5232N03240W 0804 F330 MS56 188/41 KT
GYMMN QXT AOW 110804 F14A
0000009200
575
SAIQ01 ORBI 110800
METAR ORBI 110800Z 13006KT 1900 OVC030 10/08 Q1018 NOSIG=
0000011000
576
UANT99 KDDL 110804
ARP QTR722 5801N01803W 0804 F290 MS54 261/95 KT
A7BAB QXT AOE 110804 F35A
0000011100
577
UANT99 KDDL 110804
ARP NAX7032 5537N03719W 0804 F350 MS58 236/30 KT
EILNA QXT AOW 110804 L12A
0000011000
578
UANT99 KDDL 110804
ARP DLH405 5211N02835W 0804 F370 MS56 202/62 KT
DABVN QXT EUA 110805 F10A
0000018400
579
SSVX13 LFPW 110800
ZZYY 62504 11014 0800/ 756181 018822 6110/ 11119 40092 57006 22219
 00101 33300 88872 20000 43535 444 20100 11014 0700/ 50101 80134
 80000 9/015=
0000018400
580
SSVX13 LFPW 110800
ZZYY 62503 11014 0800/ 745981 002461 6113/ 11119 40192 52022 22219
 00134 33300 88872 20000 43543 444 20130 11014 0600/ 50101 80100
 80000 9/015=
0000018400
581
SSVX13 LFPW 110800
ZZYY 41800 11014 0800/ 725934 035839 6110/ 11119 40186 57001 22219
 00230 33300 88872 20000 43748 444 20100 11014 0800/ 50101 80148
 80069 9/015=
0000074800
582
SNNO21 ENMI 110800
AAXX 11081
01001 NIL=
01008 46/// /2609 11001 21052 30058 40091 52007=
01010 41689 11206 11054 21122 30154 40171 52005 70200 81100=
01026 NIL=
01055 46/// /2105 11017 21082 30155 40173 53002=
01062 NIL=
01098 46/// /3505 11031 21066 30143 40161 53008=
01115 NIL=
01152 46/// /1208 11075 21179 30113 40129 51011=
01205 46/// /0906 11006 21052 39938 49984 52002=
01212 NIL=
01271 47/84 01103 11123 21168 30023 40046 52004 700//=
01288 46/// /1004 11158 21186 39269 40063 52008=
01300 NIL=
01317 NIL=
01367 46/// /1102 11052 21072 39542 49993 53006=
01384 46450 /0203 11058 21069 52010=
01403 NIL=
01415 47562 73110 10039 20021 39999 40009 53005 740//=
01482 NIL=
01492 NIL=
0000079000
583
SNNO22 ENMI 110800
AAXX 11081
01003 NIL=
01007 46/// /2402 11008 21059 30074 40083 52007=
01028 NIL=
01047 NIL=
01049 26/// /1902 11162 21181 30197 40201 51005 333 60005=
01078 NIL=
01102 46/// ///// 11061 21110 30048 40068 53006=
01160 NIL=
01218 26/// /0000 11045 21100 39969 49991 50000 333 60005=
01238 46/// /0402 11134 21149 38823 49950 50000=
01241 41488 41009 11080 21127 30008 40020 58000 70121 81772=
01281 46/// /0903 11106 21160 39906 40090 53005=
01338 46/// /3003 10011 21005 39899 49966 55004=
01359 46/// /3101 11017 21031 39046 49958 53004=
01397 46/// /2802 11108 21138 39583 40039 50003=
01400 NIL=
01427 26/// /2909 10060 20028 39994 40010 52005 333 60005=
01447 NIL=
01448 46/// /2806 10055 20037 39997 40007 52005=
0000151500
584
SNIY20 LIIB 110800
AAXX 11084
16008 42560 80000 10014 21012 38550 48508 55000 887// 333 88720
      92865=
16088 41620 80000 10070 20067 30106 40226 53004 71022 8623/ 333
      86645=
16110 41494 80000 10086 20074 30220 40224 53008 74742 886// 333 55300
      88715 555 0000/=
16134 42984 52715 10042 21031 37850 48523 53003 80009 333 55305 92845
      95187 444 76164=
16153 42598 63607 10114 20057 39951 40217 53008 81530 333 55300 81620
      85357 555 0213/=
16206 42980 40406 10050 20032 30220 40229 52008 80001=
16219 42965 52905 10030 21005 38159 48543 53002 80001 333 95140=
16280 42597 80102 10114 20098 39993 40216 51003 885// 333 55300 88630
      555 0100/=
16310 42898 30403 10110 20091 39992 40215 51000 83030 333 55305 83357
      555 0100/=
16360 42597 40506 10108 20097 30092 40229 52013 84200 333 55302 84820
      555 0000/=
16400 42498 61208 10130 20095 39930 40220 54004 84270 333 55302 84819
      84358 555 0213/=
16420 42598 72603 10120 20090 30153 40219 52012 81536 333 55302 81620
      83359 555 0100/=
16429 42970 61309 10138 20122 30197 40209 52015 83034 333 55300
      83360=
16470 42975 22117 10156 20131 39970 40205 52010 80009 333 55301 22///
      95000=
16480 42897 82102 10150 20142 30160 40222 52009 85076 333 55300 83358
      85460 555 0100/=
16522 42997 70000 10124 20083 39957 40201 53006 80008 333 55300 555
      0100/=
16550 42598 81903 10132 20098 30040 40221 51010 885// 333 55300 88630
      555 0200/=
0000014500
585
SSVX13 LFPW 110800
ZZYY 62686 11014 0800/ 165733 004454 6113/ 11119 40046 52002 444
 20130 11014 0600/ 50101 80094 80006 9/015=
0000016900
586
SSVX13 LFPW 110800
ZZYY 41737 11014 0800/ 725761 037010 6113/ 11119 40189 57002 33300
 88872 20000 43753 444 20130 11014 0600/ 50101 80148 80061 9/015=
0000015700
587
SSVX13 LFPW 110800
ZZYY 16543 11014 0800/ 345939 078260 6113/ 11119 40068 52006 22219
 00075 444 20130 11014 0600/ 50101 80142 80019 9/015=
0000015700
588
SSVX13 LFPW 110800
ZZYY 44865 11014 0800/ 735778 016433 6113/ 11119 40169 52003 22219
 00192 444 20130 11014 0600/ 50101 80072 80002 9/015=
0000015700
589
SSVX13 LFPW 110800
ZZYY 63642 11014 0800/ 170860 002861 6113/ 11119 40161 52005 22219
 00064 444 20130 11014 0600/ 50101 80108 80002 9/015=
0000015700
590
SSVX13 LFPW 110800
ZZYY 63635 11014 0800/ 775384 005058 6113/ 11119 40125 52009 22219
 00006 444 20130 11014 0600/ 50101 80132 80003 9/015=
0000015700
591
SSVX13 LFPW 110800
ZZYY 64664 11014 0800/ 767983 016182 6113/ 11119 40048 52006 22219
 00015 444 20130 11014 0600/ 50101 80148 80008 9/015=
0000015700
592
SSVX13 LFPW 110800
ZZYY 13662 11014 0800/ 726790 026049 6113/ 11119 40181 52008 22219
 00215 444 20130 11014 0600/ 50101 80142 80013 9/015=
0000015700
593
SSVX13 LFPW 110800
ZZYY 41708 11014 0800/ 717426 058736 6113/ 11119 40169 57011 22219
 00264 444 20130 11014 0600/ 50101 80144 80021 9/015=
00000000