0000015100
526
SSVB11 RJTD 110900
ZZYY 21706 11014 0900/ 136827 168885
11109 0//// 1//// 2//// 30082 40082 5////
22209 00150 11009 20096 21045=

0000015100
527
SSVB09 RJTD 110900
ZZYY 21709 11014 0900/ 127556 142108
11109 0//// 1//// 2//// 30250 40250 5////
22209 00217 10904 20089 21020=

0000015100
528
SSVB12 RJTD 110900
ZZYY 21708 11014 0900/ 135438 154032
11109 0//// 1//// 2//// 30196 40196 5////
22209 00147 10909 20090 21045=

0000030500
529
UDEU02 EGRR 110911 RRH
AMDAR 1108
LVR EU1521   4848N 00838E 110842 F362 MS580 265/037 TB/ S031=
LVR EU1521   4800N 00830E 110849 F310 MS535 251/058 TB/ S031=
LVR EU1521   4716N 00821E 110856 F310 MS532 255/058 TB/ S031=
LVR EU1521   4630N 00827E 110903 F264 MS402 254/058 TB/ S031=
0000013900
530
SNVD01 KWBC 110800 RRO
BBXX
46242 11081 99332 71174 46/// ///// 1//// 90827 22200 00152 11301
 21001 324// 41301 70005=
0000027200
531
SNVF01 KWBC 110800 RRG
BBXX
V7QN8 11084 99459 70278 41697 72007 10110 2009/ 40190 54000 70222
 8794/ 22213 00140 2//// 3//// 40804 5//// 6//// 80100 ICE /////
 RECEIVED: FROM MPD AT GLOBE WIRELESS; SAT, 11 JAN 2014 09:02 UTC
 MESSAGE ID: 429030110=
0000012600
532
SNVJ01 KWBC 110800 RRA
BBXX
DBLK 11081 99770 50342 41797 /0504 11034 21076 49927 52004 7////
 22261 05018=
0000026900
533
SIVA30 KWBC 110900
BBXX
A8YN6 11094 99194 10631 41698 40616 10220 20134 40150 57050 70222
 83160 22235 04249 20502 304// 40803 80170=
BATFR55 11094 99081 30421 44796 33408 10279 20219 40139 58010
 702// 831// 22262 04294 20602 305// 40802 5////=
0000053900
534
SIVB30 KWBC 110900 RRA
BBXX
DFHA 11093 99055 10849 41497 60518 10285 20237 40090 56020 78122
 84218 22224 00290 20503 305// 41006 80250=
52202 11091 99137 11448 46/// ///// 1//// 90900 22200 00283 10704
 20704 304// 41101 70022=
52211 11091 99153 11457 46/// ///// 1//// 90848 22200 00281 10705
 20705 305// 41101 70027=
SHIP 11094 99365 11409 46/// /0210 10050 21036 40245 53018 7////
 8//// 22242 0//// 2////=
3FZK3 11094 99365 11409 46/// /0210 10050 21036 40245 53018 7////
 8//// 22242 0//// 2////=
0000011200
535
SIVC30 KWBC 110900 RRA
BBXX
32012 11091 99199 50853 46/// ///// 1//// 90850 22200 11704 70022=
0000135600
536
UAPS01 NZKL 110900
AIREP
FJI810 1724S 17730E 0852 F117 PS08 212/11=
ANZ6 2842S 17354W 0808 F290 MS26 314/56=
ANZ8 2748S 17612E 0805 F310 MS38 292/43=
ANZ8 2742S 17612E 0806 F310 MS37 293/44=
ANZ8 2554S 17624E 0819 F310 MS34 295/44=
ANZ8 2448S 17636E 0828 F310 MS32 290/29=
ANZ6 2636S 17136W 0830 F310 MS30 345/33=
ANZ8 2406S 17648E 0833 F310 MS31 288/24=
ANZ8 2212S 17724E 0847 F310 MS31 295/25=
ANZ6 2424S 16930W 0851 F310 MS30 339/19=
ANZ994 3000S 17624E 0827 F320 MS41 288/46=
UAL870 2342S 16112E 0836 F320 MS38 281/48=
UAL870 2200S 16230E 0850 F320 MS36 276/41=
UAL870 2154S 16236E 0851 F320 MS37 280/38=
ANZ84 3118S 17818E 0807 F330 MS44 288/59=
VOZ1 0936S 17936W 0812 F330 MS36 254/23=
VOZ23 0636S 17754W 0818 F330 MS37 307/14=
ANZ84 2842S 17948E 0828 F330 MS39 290/59=
VOZ1 0648S 17712W 0838 F330 MS36 301/12=
ANZ84 2612S 17842W 0849 F330 MS35 316/43=
QFA27 4700S 14024W 0816 F350 MS48 271/149=
QFA27 4706S 13454W 0838 F350 MS47 263/136=
FJI915 2900S 16300E 0805 F360 MS52 286/55=
HAL465 1230S 17000W 0814 F360 MS45 233/12=
FJI923 2030S 17030E 0838 F360 MS44 283/28=
JST166 4224S 16300E 0850 F360 MS53 198/75=
JST1 2654S 16048E 0805 F370 MS52 277/83=
JST1 2530S 16224E 0819 F370 MS52 269/78=
JST1 2406S 16400E 0833 F370 MS49 269/63=
JST3 2654S 16048E 0835 F370 MS52 276/80=
0000026200
537
SANG31 YBBN 110900
METAR AYPY 110900Z NIL=
METAR AYWK 110900Z NIL=
METAR AYVN 110900Z NIL=
METAR AYNZ 110900Z NIL=
METAR AYMH 110900Z NIL=
METAR AYGN 110900Z NIL=
METAR AYMO 110900Z NIL=
METAR AGGH 110900Z 14003KT 9999 SCT017 SCT040 28/25 Q1006=

0000066800
538
UAPS01 NZKL 110900 RRA
AIREP
ANZ930 3212S 16300E 0839 F370 MS55 290/22=
JST1 2242S 16530E 0847 F370 MS48 255/52=
JST3 2530S 16224E 0848 F370 MS51 271/78=
JST3 2524S 16236E 0849 F370 MS51 268/79=
ANZ708 3548S 15806E 0851 F370 MS55 160/78=
CAL052 3548S 16430E 0805 F380 MS57 235/19=
THT482 2554S 15948W 0813 F388 MS51 167/30=
CAL052 3524S 16118E 0826 F380 MS57 198/17=
THT482 2424S 15800W 0829 F380 MS48 142/17=
THT482 2400S 15724W 0834 F380 MS48 136/18=
THT482 2312S 15624W 0842 F379 MS48 149/19=
THT482 2154S 15454W 0856 F380 MS48 135/25=
HAL445 3354S 17518E 0820 F390 MS55 286/43=
SIA281 3100S 16012E 0842 F390 MS52 239/14=
0000147900
539
SINZ20 NZKL 110900
AAXX 11094
93004 46/// /1813 10157 20125 40192 52011=
93023 46/// /2302 10172 20142 40189 52012=
93069 46/// /2411 10183 20128 40184 52009=
93110 47698 /2609 10172 20132 40183 52006=
93186 47/98 /2507 10178 20125 40170 52010=
93196 46/// /2706 10165 20150 40174 52009=
93245 47/98 /2710 10162 20120 40167 52013=
93292 47698 /0000 10179 20122 40172 52006=
93309 47/98 /2407 10154 20132 40174 52003=
93339 46/// /2905 10126 20108 39231 52004=
93373 47698 /0507 10187 20127 40167 57001=
93404 47497 /2803 10146 20129 40170 52010=
93420 47498 /0207 10172 20134 40163 52007=
93439 47598 /0214 10170 20131 40152 52005=
93498 46/// /0208 10155 20121 40151 57004=
93515 47598 /2304 10154 20125 40169 57002=
93527 46/// /2813 10162 20132 40146 57002=
93546 47/98 /1202 10165 20128 40151 57001=
93597 46/// /0122 10159 20141 40129 57008=
93615 47497 /2304 10147 20131 40168 57001=
93678 46/97 /2609 10149 20138 40113 57017=
93709 46/// /2805 10140 20099 40167 54000=
93773 47598 /0101 10125 20113 40098 57015=
93781 47498 /0717 10153 20131 40110 57012=
93800 NIL=
93805 NIL=
93831 47999 /2606 10173 20004 40087 52003=
93845 47998 /0406 10143 20117 40060 57022=
93891 47/98 /3401 10137 20113 40073 57014=
93909 46/// /3440 10132 20097 40022 57033=
93929 46/// /2709 10086 20080 49966 57005=
93947 NIL=
93985 47597 /2310 10132 20089 40133 52014=
93994 46/// /1308 10219 20164 40130 52008=
0000373100
540
SIVD30 KWBC 110900 RRB
BBXX
44056 11091 99362 70757 46/// ///// 1//// 90853 22200 00088 10703
 20703 308// 42001 70014=
44097 11091 99410 70711 46/// ///// 1//// 90855 22200 00068 10402
 20402 70009=
44098 11091 99428 70702 46/// ///// 1//// 90851 22200 00058 10501
 20501 70007=
C6FT7 11093 99234 70855 41796 41109 10300 2//// 40160 54/// 7//11
 8418/ 22283 00270 20201 3//// 4//// 5//// 6//// 8//// ICE /////=
WDD3825 11094 99292 70945 41/// /2609 10150 2015/ 40130 54///
 7//// 8//// 222// 00128 2//// 3//// 4//// 5//// 6//// 80150 ICE
 /////=
51205 11091 99210 71564 46/// ///// 1//// 90851 22200 00249 11005
 21003 332// 41303 70023=
46239 11091 99363 71221 46/// ///// 1//// 90859 22200 00133 11306
 21003 329// 41305 70028=
41108 11091 99337 70780 46/// ///// 1//// 90859 22200 00120 10703
 20703 70015=
41112 11091 99307 70813 46/// ///// 1//// 90852 22200 00114 10803
 20803 70014=
42099 11091 99273 70843 46/// ///// 1//// 90852 22200 00220 10301
 20301 70007=
44095 11091 99358 70753 46/// ///// 1//// 90847 22200 00134 10805
 20805 315// 41101 70027=
41114 11091 99276 70802 46/// ///// 1//// 90855 22200 00234 10803
 20803 306// 41401 70014=
46211 11091 99469 71242 46/// ///// 1//// 90843 22200 00083 10810
 20809 328// 41405 70051=
46221 11091 99339 71186 46/// ///// 1//// 90855 22200 00155 11302
 20701 326// 41301 70009=
46214 11091 99379 71235 46/// ///// 1//// 90856 22200 00112 11307
 21004 331// 41306 70037=
46213 11091 99403 71247 46/// ///// 1//// 90854 22200 00118 11509
 21004 330// 41508 70043=
46229 11091 99438 71246 46/// ///// 1//// 90849 22200 00092 11309
 20807 329// 41306 70047=
46218 11091 99345 71208 46/// ///// 1//// 90859 22200 00134 11505
 21003 330// 41504 70026=
46231 11091 99327 71174 46/// ///// 1//// 90844 22200 00154 11303
 21002 328// 41302 70013=
46224 11091 99332 71175 46/// ///// 1//// 90842 22200 00154 11301
 20601 326// 41301 70006=
46237 11091 99378 71226 46/// ///// 1//// 90901 22200 00109 11404
 21002 328// 41404 70022=
46244 11091 99409 71244 46/// ///// 1//// 90851 22200 00109 11508
 21003 330// 41507 70039=
46240 11091 99366 71219 46/// ///// 1//// 90851 22200 00127 11203
 21001 335// 41202 70013=
46236 11091 99368 71219 46/// ///// 1//// 90852 22200 00124 11304
 21002 329// 41303 70018=
46232 11091 99325 71174 46/// ///// 1//// 90903 22200 00161 11403
 20802 328// 41402 70013=
46089 11091 99459 71258 46/// /2310 10095 40004 55019 90850 22200
 00092 10912 20910 325// 41506 70058 333 91213 555 11107 22115
 30802 41717 60849 227102 195111 190113 190117 187114 187117=
46041 11091 99473 71247 46/// ///16 1//// 49953 58044 90850 22200
 00086 10912 20911 3//// 41504 70058 333 91220 555 11175 22187=
46076 11091 99595 71480 46/// /3003 10025 49897 58011 90850 22200
 00062 11003 20401 3//// 41003 70016 333 91204 555 11031 22032
 30755 43005 60849 302030 300031 296032 299031 299037 303037 83004
 90755=
41043 11091 99211 70650 46/// ///12 1//// 40192 56007 90850 22200
 00264 11006 20805 310// 41003 70029 333 91214 555 11129 22137
 8//15 90823=
41036 11091 99342 70769 46/// /2010 10222 20197 40172 58014 90850
 22200 00210 10805 20805 70024 333 91213 555 11112 22122 30757
 41915 60849 200104 198109 194110 195102 193102 191114=
SHIP 11094 99462 70727 46/// /0609 11066 21066 40177 58045 7////
 8//// 22252 0//// 2////=
VOKJ 11094 99462 70727 46/// /0609 11066 21066 40177 58045 7////
 8//// 22252 0//// 2////=
VXKF 11094 99471 70595 46/// /2718 11012 21023 40006 52008 7////
 8//// 22253 0//// 2////=
VOLG 11094 99446 70623 46/// /2414 10021 20013 40269 50009 7////
 8//// 22224 0//// 2////=
0000060900
541
SIKO20 RKSL 110900
AAXX 11094
47101 32970 52305 10012 21162 30198 40297 56002 80002=
47105 369// /3206 10028 21174 30246 40279 53002=
47108 32664 62506 10005 21163 30193 40302 57006 86500=
47115 32670 61602 10007 21090 39999 40279 51004 82501=
47133 32961 63402 10005 21059 30223 40311 56001 80001=
47138 32964 52302 10033 21090 30291 40294 52005 80001=
47159 32965 23205 10033 21090 30211 40299 53006 80001=
47165 32670 33606 10028 21027 30265 40313 53001 81501=
47168 32970 23410 10042 21082 30218 40299 52005 80001=
47184 32970 22703 10056 21022 30285 40311 53002 81031=
0000366800
542
SIVD30 KWBC 110900 RRC
BBXX
A8AX8 11094 99095 70514 41497 50634 10252 20214 40110 57010 70111
 8217/ 22234 00240 21007 80225=
CGSB 11094 99468 70712 46/// /0505 11049 21066 40202 58028 7////
 8//// 22200 0//// 2////=
CGJK 11094 99489 71235 46/// /1422 10088 20085 49924 58070 7////
 8//// 22200 0//// 2////=
CGTF 11094 99476 70527 46/// /2713 11028 21062 40201 53003 7////
 8//// 22200 0//// 2////=
CGCC 11094 99467 70719 46/// /0413 11052 21073 40188 58021 7////
 8//// 22213 00010 2////=
CGDT 11094 99463 70725 46/// /0105 11056 21073 40180 58034 7////
 8//// 22200 0//// 2////=
C6SI6 11094 99486 71232 46/// /1528 10096 20083 49942 56055 7////
 8//// 22282 0//// 2////=
VAAP 11094 99489 70580 46/// /1207 11046 21084 4//// 50365 7////
 8//// 22200 0//// 2////=
SHIP 11094 99121 70689 46/// /1106 10254 20217 40138 55003 7////
 8//// 22200 0//// 2////=
CGDX 11094 99488 70676 46/// /1606 11054 21087 40204 58005 7////
 8//// 22200 0//// 2////=
CGCX 11094 99497 70556 46/// /2602 11034 21080 40152 50003 7////
 8//// 22261 00017 2////=
SHIP 11094 99463 70725 46/// /0105 11056 21073 40180 58034 7////
 8//// 22200 0//// 2////=
CFN3031 11094 99474 70619 46/// /2303 11035 21036 40235 53004
 7//// 8//// 22200 0//// 2////=
SHIP 11094 99489 71235 46/// /1422 10088 20085 49924 58070 7////
 8//// 22200 0//// 2////=
CG3029 11094 99449 70625 46/// /2604 10023 20017 40265 58005 7////
 8//// 22200 0//// 2////=
SHIP 11094 99449 70625 46/// /2604 10023 20017 40265 58005 7////
 8//// 22200 0//// 2////=
CGBR 11094 99487 71235 46/// /0903 10082 20081 49937 57062 7////
 8//// 22200 0//// 2////=
8PSH 11094 99121 70689 46/// /1106 10254 20217 40138 55003 7////
 8//// 22200 0//// 2////=
SHIP 11094 99446 70623 46/// /2414 10021 20013 40269 50009 7////
 8//// 22224 0//// 2////=
CG2958 11094 99505 71278 46/// /2510 10087 20063 49872 55003 7////
 8//// 22200 0//// 2////=
SHIP 11094 99487 71235 46/// /0903 10082 20081 49937 57062 7////
 8//// 22200 0//// 2////=
SHIP 11094 99474 70619 46/// /2303 11035 21036 40235 53004 7////
 8//// 22200 0//// 2////=
SHIP 11094 99471 70595 46/// /2718 11012 21023 40006 52008 7////
 8//// 22253 0//// 2////=
VCRG 11094 99474 70619 46/// /2209 11038 21080 40241 53004 7////
 8//// 22200 0//// 2////=
SHIP 11094 99489 70580 46/// /1207 11046 21084 4//// 50365 7////
 8//// 22200 0//// 2////=
SHIP 11094 99467 70719 46/// /0413 11052 21073 40188 58021 7////
 8//// 22213 00010 2////=
SHIP 11094 99474 70619 46/// /2209 11038 21080 40241 53004 7////
 8//// 22200 0//// 2////=
SHIP 11094 99476 70527 46/// /2713 11028 21062 40201 53003 7////
 8//// 22200 0//// 2////=
SHIP 11094 99488 70676 46/// /1606 11054 21087 40204 58005 7////
 8//// 22200 0//// 2////=
SHIP 11094 99505 71278 46/// /2510 10087 20063 49872 55003 7////
 8//// 22200 0//// 2////=
SHIP 11094 99468 70712 46/// /0505 11049 21066 40202 58028 7////
 8//// 22200 0//// 2////=
SHIP 11094 99497 70556 46/// /2602 11034 21080 40152 50003 7////
 8//// 22261 00017 2////=
SHIP 11094 99486 71232 46/// /1528 10096 20083 49942 56055 7////
 8//// 22282 0//// 2////=
VOKF 11094 99455 70735 46/// /3607 11051 21061 4//// 5//// 7////
 8//// 22200 0//// 2////=
VCWL 11094 99491 70583 46/// /2517 11027 21081 40200 51010 7////
 8//// 22200 0//// 2////=
VOCJ 11094 99462 70602 46/// /2618 10007 20018 40237 58004 7////
 8//// 22200 0//// 2////=
VCLM 11094 99623 70748 46/// /2007 11190 21243 40069 51024 7////
 8//// 22200 0//// 2////=
SHIP 11094 99462 70602 46/// /2618 10007 20018 40237 58004 7////
 8//// 22200 0//// 2////=
0000081600
543
SDTH20 VTBB 110900
FFBB 1109/ 48300 NIL=
FFBB 1109/ 48303 00000=
FFBB  1109/ 48327 00000=
FFBB  1109/ 48356 00000=
FFBB  1109/ 48378 00000=
FFBB 1109/ 48381 00000=
FFBB 1109/ 48407 00000=
FFBB 1109/ 48413 NIL=
FFBB 1109/ 48417 00000=
FFBB 1109/ 48432 0/0/0=
FFBB 1109/ 48456 00000=
FFBB 1109/ 48475 00000=
FFBB 1109/ 48478 00000=
FFBB 1109/ 48517 644/3 664/3 674/3 765/3 /555/ 76172 61616 644 6634=
FFBB  1109/ 48551 0/0/0=
FFBB 1109/ 48565 00000=
FFBB 1109/ 48567 NIL=
FFBB 1109/ 48568 134/3 145/5 155/3 165/3 235/5 245/5 255/3 265/3
335/3 345/5 357/5 365/3 435/5 446/5 455/5 544/3 665/5 675/5 755/5
765/5 775/5 844/3 855/5 865/5 61616 134 14134 1523 161 2324 2412 254
2634 334 3434 35134 363 4324 4512 541 6624 6734 75124 8424 8612=
FFBB 1109/ 48583 0/0/0=
0000238500
544
SIKO21 RKSL 110900
AAXX 11094
47090 32970 22709 10026 21175 30246 40269 57003 80001=
47095 32970 52304 11014 21180 30103 40299 56002 80001=
47097 329// /2502 11005 21148 30205 40305 57005=
47098 329// /2303 11001 21164 30158 40297 57004=
47099 329// /2303 11010 21135 30267 40305 57005=
47100 32970 32510 11047 21145 39333 40287 53002 80001=
47102 31650 41804 10005 21027 30115 40299 55003 71022 84500=
47104 32970 32507 10018 21194 30175 40275 52002 80001=
47106 329// /2703 10029 21162 30227 40277 52002=
47112 32670 62005 10001 21104 30214 40301 57007 82502=
47114 32962 52302 11010 21129 30113 40302 58003 80001=
47119 32664 62302 10000 21133 30263 40307 57006 83502=
47121 329// /2504 11004 21143 39997 40301 52004=
47127 329// /0001 11011 21127 30161 40308 55004=
47129 32965 61601 11004 21057 30275 40312 57003 80001=
47130 32970 62304 10025 21125 30220 40283 52004 80001=
47131 32662 62502 10013 21082 30236 40309 57004 81501=
47135 329// /2704 11003 21087 39999 40308 52003=
47136 32963 22904 10010 21117 30121 40298 52007 80001=
47137 329// /2505 10009 21115 30182 40304 52005=
47140 31658 50000 10012 21034 30282 40312 51002 71022 81501=
47143 329// /2906 10035 21102 30230 40311 53005=
47145 32968 51802 10000 21117 30275 40302 57005 80001=
47146 31658 62503 10023 21073 30244 40312 52003 70522 81501=
47150 31958 60000 10001 21053 30288 40308 57001 70522 80001=
47152 32964 23204 10034 21096 30253 40297 53006 80001=
47154 329// /2905 10020 21081 30244 40306 53003=
47155 32962 40000 10028 21091 30252 40299 53004 80001=
47156 32668 53203 10029 21070 30221 40312 52004 81501=
47157 32965 22504 11002 21091 30015 40301 52014 80001=
47162 32965 23601 10031 21055 30260 40301 53002 80001=
47169 32670 43207 10037 21050 30217 40313 51004 82501=
47170 32970 63205 10027 21067 30265 40310 52005 80001=
47171 329// /0001 10013 21060 30257 40314 52004=
47172 329// /3602 10029 21050 30239 40307 51004=
47173 329// /3202 10014 21071 30143 40304 52009=
47174 32662 53604 10023 21065 30095 40302 52007 85500=
47175 32968 63408 11010 21059 39717 40311 52008 80001=
47185 32968 63211 10050 21030 30217 40310 53005 82031=
47188 32970 62905 10042 21028 30282 40304 53004 81032=
47189 32968 30503 10075 20002 30237 40298 53004 80001=
47192 32962 40001 10009 21076 30262 40301 52006 80001=
0000372600
545
SIVD30 KWBC 110900 RRE
BBXX
41048 11091 99320 70695 46/// /1309 10205 20157 40263 58013 90850
 22200 00213 10803 20803 313// 40902 70017 333 91211 555 11099
 22105 30842 41311 60849 132093 136091 134092 135085 137089 131092
 81410 90759=
42055 11091 99222 70940 46/// /1803 10228 40140 50000 90850 22200
 00228 10802 20401 307// 40802 70011 333 91204 555 11029 22030
 30849 41704 60849 176027 178023 192024 203024 215022 216022 81703
 90849=
42003 11091 99260 70856 46/// /1707 10255 40158 57007 90850 22200
 00249 10602 20602 312// 40701 70011 333 91208 555 11071 22078
 30833 41708 60849 169066 168069 169064 169063 167064 169069 81707
 90752=
41047 11091 99275 70715 46/// /1109 10242 20229 40233 56006 90850
 22200 00255 10804 20803 312// 40903 70022 333 91210 555 11091
 22096 30750 41211 60849 112087 111083 113076 112082 114084 113088
 81110 90759=
46066 11091 99528 71550 46/// /1713 10036 49945 58033 90850 22200
 00054 11106 20704 324// 41105 70031 333 91215 555 11137 22145
 30842 41715 60849 167126 166123 169121 170115 173111 173108 81713
 90842=
46078 11091 99560 71526 46/// /2206 10033 20022 49946 58014 90850
 22200 00044 11105 20502 323// 41105 70025 333 91208 555 11067
 22070 30806 42311 60849 223064 223063 227065 231071 227087 229084
 82310 90807=
46025 11091 99337 71191 46/// /0902 10148 20124 40191 52004 90850
 22200 00154 11402 323// 41402 70010 333 91202 555 11020 22020
 30835 41103 60849 094019 110019 094016 109014 092013 100014=
46054 11091 99343 71205 46/// /3409 10147 40197 53008 90850 22200
 00138 11405 20703 331// 41404 70025 333 91210 555 11092 22100
 30751 43212 60849 341087 336097 333101 334092 331092 327101=
46026 11091 99378 71228 46/// ///03 10091 90850 22200 11305 20301
 327// 41305 70026 333 91205 555 11032 22034=
46060 11091 99606 71468 46/// /3302 10002 49893 56013 90850 22200
 00050 11101 317// 41101 70007 333 91203 555 11024 22024 30759
 43306 60849 328024 331030 333035 336040 335041 337030 83305
 90759=
46029 11091 99462 71245 46/// /1919 10105 20098 49997 58047 90850
 22200 00092 10911 20607 321// 40909 70056 333 91224 555 11208
 22224 30821 41825 60849 186194 186189 186188 186181 186180
 185180=
BATFR18 11094 99125 70469 46/// /0922 10252 40139 53001 22213
 04264=
BATEU01 11094 99465 70553 46/// /2825 10012 21048 40222 51002
 22264 04004=
BATEU06 11094 99467 70569 46/// /2725 11005 21047 40238 51014
 22224 04022=
BATFR14 11094 99313 70365 44798 305// 10169 20084 40196 53027
 703// 83863 22254 04217 21506 33100 414// 51204=
44040 11091 99410 70736 46/// /0704 10023 20023 90845 22200 11401
 70003 333 91205 555 11051 22057=
44065 11091 99404 70737 46/// /1406 10078 40182 56036 90850 22200
 00056 333 91207 555 11068 22078 30846 41507 60849 143061 145063
 144062 142061 140058 141061=
44022 11091 99409 70737 46/// /0404 10019 20015 90845 333 91205
 555 11041 22041=
44007 11091 99435 70701 46/// /0000 10025 20018 40230 58022 90850
 22200 00045 10601 20401 315// 40601 70007 333 91201 555 11001
 22001 30754 42101 60849 052001 164001 164000 164001 164001
 210004=
BAREU00 11094 99486 70479 46/// ///// 40154 52003 22253=
46001 11091 99563 71479 46/// ///// 1//// 49952 57003 90850 22200
 00048 11104 70020=
46075 11091 99539 71608 46/// /2207 10049 49845 56037 90850 22200
 00049 11105 20703 3//// 41104 70026 333 91209 555 11076 22081
 30751 41909 60849 216071 215074 204073 179071 170069 168074 81708
 90751=
46042 11091 99368 71225 46/// /3205 10107 40228 57005 90850 22200
 00126 11307 20401 332// 41307 70035 333 91206 555 11052 22054
 30807 43407 60849 323050 329050 341048 341048 342051 346050=
00000000