0000010900
266
UANT99 KDDL 110920
ARP THY34 5551N04201W 0920 F350 MS58 271/43 KT
TCJJH QXT AOW 110920 F28A
0000011000
267
UANT99 KDDL 110920
ARP UAE202 5805N01500W 0920 F360 MS53 254/56 KT
A6EEL DDL XXF 110921 J97A
0000039700
268
SXXX32 EUMS 110915 RRX
16590056
:PRS 1 /1 2492 2497 2496 2496 2496 2496 2496 2502 2510 2513 2518 2525 :RAD 1 /1 6800 6805 6805 6805 6805 6804 6804 6809 6818 6820 6827 6833 6843 6845 6856 6863 6873 6875 :ENC 6 /6 5030 5068 5090 5070 5095 5111 5112 5119 5133 5137 :ENB 6 /6 5030 5066 5088 5067 5094 5110 5110 5118 5131 5135 :SW1 15 /60 0 :SW2 42 /60 0 :BAT 5 /6 13.0 :NAME 16590056
0000041300
269
SXXX32 EUMS 110915 RRX
262D700E
:PRS 1 /1 1888 1911 1932 1880 1938 1950 1935 1890 1888 1871 1865 1881 1901 1901 1912 1911 1911 1890 1854 1846 1895 1877 1859 1887 1896 1927 1880 1914 1875 1863 :RAD 1 /3 4357 4344 4333 4341 4340 4327 4327 4333 4324 4322 4336 4340 4325 4327 4346 :ENC 5 /5 4447 4436 4442 4428 4435 4422 4454 4405 4468 4410 4464 4446 :SW1 15 /60 60 :BAT 14 /15 13.5 :NAME 262D700E /
0000045700
270
SXXX32 EUMS 110915 RRX
324DF524
:PRS 1 /1 2893 2899 2906 2912 2917 2924 2931 2938 2944 2951 2958 2964 2971 2978 2984 2990 2996 3003 3010 3017 3024 3031 3038 3045 3052 3059 3067 3074 3081 3089 :RAD 1 /3 2943 2964 2985 3006 3027 3046 3067 3088 3110 3131 3155 3177 3201 3223 3245 3267 3291 3313 3336 3358 :ENC 5 /5 1887 1922 1956 1989 2026 2063 2100 2137 2174 2209 2244 2280 :SW1 15 /60 0 0 :SW2 45 /60 60 60 :BAT 14 /15 12.6 :NAME 324DF524 /
0000045100
271
SXXX32 EUMS 110915 RRX
16289262
:PRS 1 /1 2179 2181 2180 2185 2190 2187 2188 2195 2192 2201 2193 2173 2194 2190 2213 2196 2192 2208 2210 2205 2216 2203 2198 2200 2201 2214 2213 2207 2217 2205 :RAD 1 /3 7648 7651 7654 7652 7656 7659 7664 7662 7668 7668 7667 7673 7674 7679 7682 7687 7687 7692 7695 7696 :ENC 5 /5 5016 5017 5034 5031 5031 5031 5041 5038 5044 5054 5064 5069 :SW1 15 /60 0 :SW2 45 /60 0 :BAT 14 /15 13.1 :NAME 16289262 /
0000050200
272
SXXX32 EUMS 110915 RRX
22BF90A6
:PRS 1 /1 113/ 1137 113/ 1137 1130 1136 1141 1142 1132 1141 114/ 1538 1137 1139 1147 :RAD 1 /3 4322 4324 4724 4326 4328 4327 4329 4333 4337 4339 :SW1 15 /60 60 :SW2 45 /60 60 :WTP 15 /15 29.3 :BAT 13 /15 14.3 :WAV 5 /10 6.5 6.8 6.3 :DAV 5 /10 107 113 111 :WMX 5 /10 8.0 8.4 7.6 :TPA 15 /15 27.8 :TMN 555 /720 27.1 :TMX 555 /720 28.1 :HUM 15 /15 78.6 :PRA 15 /15 1014.6 :RAC 14 /60 0.0 :RDU 14 /60 0 :RIN 14 /60 0.0 :DAC 554 /1440 0.4 :DDR 554 /1440 330
0000042300
273
SXXX32 EUMS 110916 RRX
26CB10AC
:PRS 1 /1 -1337 -1337 -1337 -1337 -1337 -1337 -1337 -1337 -1337 -1337 -1337 -1337 -1337 -1338 -1337 -1337 -1337 -1337 -1337 -1337 -1337 -1337 -1337 -1338 -1337 -1337 -1337 -1337 -1338 -1337 :RAD 3 /3 5757 5751 5749 5752 5752 5755 5753 5753 5754 5753 :RA2 3 /3 5729 5718 5712 5715 5710 5715 5720 5713 5722 5716 :SW1 17 /60 60 :SW2 47 /60 60 :BAT 14 /15 13.0 :NAME 26CB10AC /
0000045200
274
SXXX32 EUMS 110916 RRX
1227146C
:PRS 1 /1 3229 3223 3216 3211 3207 3203 3197 3190 3186 3180 3176 3170 3166 3162 3159 3155 3149 3145 3141 3136 3131 3124 3121 3116 3113 3111 3106 3102 3099 3095 :RAD 3 /3 3206 3178 3165 3164 3139 3153 3136 3100 3093 3086 3080 3035 3027 3032 3021 3010 2990 2986 2964 2972 :ENC 1 /5 3961 3933 3909 3887 3863 3845 3827 3806 3785 3765 3744 3726 :SW1 17 /60 0 :SW2 47 /60 60 :BAT 14 /15 13.2 :NAME 1227146C /
0000053600
275
SXXX32 EUMS 110916 RRX
3246B586
:PRS 1 /1 13270 13714 13714 13714 13714 13714 13714 1/714 13631 13326 13714 13/14 13698 13714 13714 :RAD 3 /3 7356 7348 7338 7333 7344 7358 7367 7365 7364 7361 :ENC 10 /15 5280 5280 :SW1 17 /60 0 :SW2 47 /60 0 :WTP 1 /15 -4.7 :BAT 13 /15 13.9 :WAV 6 /10/8.3 9.6 8.2 :DAV 6 /10 38 43 44 :WMX 6 /10 13.2 13.8 11.8 :TPA 1 /15 28.8 :TMN 556 /720 25.9 :TMX 556 /720 27.6 :HUM 1 /15 74.7 :PRA 1 /15 1010.3 :RAC 16 /60 0.0 :RDU 16 /60 0 :RIN 16 /60 0.0 :DAC 556 /1440 10.9 :DDR 556 /1440 16460
0000029100
276
SXXX32 EUMS 110918 RRX
269375AE
OT12 ID:FI-STAN-07 DT:2014 01 11 09 08
:RAD /1 07558 07546 07539 07534 07531 07524 07519 07517 07510 07513 07509 07511 07511 07513 07509 07507 07507 07503 07501 07500 07490 07484 07478 07467 07454 07447 07444 07426 07422 07415
:BAT 13.4V
0000037900
277
SXXX32 EUMS 110918 RRX
12FD90D0
:PRS 1 /1 1461 1464 1474 1461 1463 1462 1453 1443 1432 1443 1435 1451 :RAD 1 /3 6007 5999 5998 6010 6025 6036 6040 6040 6039 6035 :ENC 3 /6 5751 5742 5771 5776 5775 5756 5723 5730 5729 5754 :RA2 3 /6 4886 4881 4922 4935 4935 4911 4882 4888 4889 4913 :SW1 18 /60 39 :SW2 48 /60 60 :BAT 5 /6 13.0 :WTP 5 /6 28.5 28.5 :NAME 12FD90D0
0000045300
278
SXXX32 EUMS 110918 RRX
32D8A2BE
:PRS 1 /1 1793 1796 1797 1801 1795 1799 1807 1805 1809 1808 1811 1814 1823 1810 1821 1824 1825 1829 1829 1825 1834 1833 1827 1836 1840 1844 1842 1844 1842 1839 :RAD 1 /3 7386 7386 7388 7397 7404 7406 7413 7420 7424 7424 7428 7434 7437 7439 7438 7439 7438 7445 7451 7450 :ENC 3 /5 4808 4821 4831 4838 4848 4851 4855 4860 4862 4867 4871 4876 :SW1 18 /60 59 :SW2 48 /60 60 :BAT 14 /15 13.1 :NAME 32D8A2BE /
0000045100
279
SXXX32 EUMS 110918 RRX
22856700
:PRS 1 /1 3972 3964 3962 3963 3970 3972 3969 3965 3968 3975 3976 3970 3967 3962 3957 3956 3955 3955 3955 3963 3955 3951 3946 3946 3946 3946 3940 3934 3944 3941 :RAD 1 /3 7469 7471 7470 7466 7459 7456 7452 7445 7439 7434 7428 7422 7416 7408 7402 7396 7393 7388 7379 7370 :ENC 3 /5 5665 5668 5658 5653 5644 5636 5625 5615 5605 5594 5593 5575 :SW1 18 /60 0 :SW2 48 /60 0 :BAT 14 /15 12.9 :NAME 22856700 /
0000046500
280
SAIN31 VABB 110910
METAR VAAH 110910Z 05008KT 3000 FU NSC 22/11 Q1015 NOSIG=
METAR VABB 110910Z 30012KT 3500 FU NSC 24/06 Q1013 NOSIG=
METAR VANP 110910Z 22006KT 4000 HZ FEW020 27/16 Q1013 NOSIG=
METAR VOHS 110910Z 18005KT 5000 HZ SCT020 30/11 Q1015 NOSIG=
METAR VOHY 110910Z 09003KT 6000 FEW020 SCT025 31/15 Q1015 NOSIG=
METAR VOMM 110910Z 06006KT 8000 FEW020 28/19 Q1012 NOSIG=
METAR VOTR 110910Z 08006KT 7000 FEW016 30/19 Q1012 NOSIG=
0000009600
281
SAIN34 VOMM 110910 RRA
METAR VOMM 110910Z 06006KT 8000 FEW020 28/19 Q1012 NOSIG=
0000048200
282
SXXX32 EUMS 110919 RRX
262AD2C2
OT12 ID:PK-ORMA-10 DT:2014 01 11 09 18
:PRS /1 06545 06546 06542 06540 06548 06543 06548 06545 06539 06551 06551 06554 06557 06561 06557 06559 06554 06566 06556 06567 06563 06568 06554 06555 06561 06557 06559 06557 06566 06571
:RAD /1 ///// ///// ///// ///// ///// ///// ///// ///// ///// ///// ///// ///// ///// ///// ///// ///// ///// ///// ///// ///// ///// ///// ///// ///// ///// ///// ///// ///// ///// /////
:BAT 13.3V/
0000065100
283
SXXX32 EUMS 110919 RRX
18D74682
OT12 ID:ZA-GOUG-13 DT:2014 01 11 09 18
:RAD /3 21202 21202 21205 21211 20668 20183 09770 21202 14294 21184 21185 20617 21142 21152 21163 12128 21087 21127 21037 21017 21072 20948 20440 21041 21076 17406 04075 21142 21100 21131 21127 21136 21121 21111 21136 21136 21146 21137 21146 21157 21125 21118 21121 28874 21112 21136 21147 21151 21151 28866 21142 28871 21130 21146 21130 21130 28873 21142 28873 21157 21142 21118 28872 28868 28851 21151 21155 21177 02267 21125 28873 21142 19701 21166 28866 28872 28871 28866 21029 21111 21100 21102 21102 21091 21102 21106 21110 21097 21097 21107
:BAT 14.3V
0000069600
284
SXXX32 EUMS 110919 RRX
26A63714
OT12 ID:CO-PNTN-06 DT:2014 01 11 09 09
:RAD /1(01036 01057 01058 01041 01054 01061 01030 01018 01040 01026 01020 01037 01047 09068 01059 01088 01090 01088 01083 01115 01099 01074 01060 01105 01109 0107? 01096 01103 01123 01122
:PR1 /1 ///// ///// ///'/ ///// ///// ///// ///// ///// ///// ///// /////(///// ///// ///// ///// ///// ///// ///// ///// /'/// ///// ///// ///// ///// ///// ///// ////' ///// ///// //////:PR2 /1 ///// ///// ///// ///// ///// ///// ///// ///// ///// ///// ///// ///// ///// ///// ///// ///// ///// ///// ///// ///// ///// ///// ///// ///// ///// ///// ///// ///// ///// //'//
:TM1 /15 /'/ /// /// ///
:BAT 12.4V
0000107200
285
SICI31 BABJ 110900
AAXX 11091
50844 32762 70404 11171 21228 40283 52026 87///=
50854 32760 80204 11190 21220 40280 52013 88///=
50968 31662 83402 11140 21161 40259 57011 77000 88/// 333
92535=
51379 32980 00401 11048 21160 40407 57011 333 05405=
51467 32980 01801 11037 21209 38295 57021 333 00252=
51495 32980 01602 11046 21204 40450 57010 333 00401=
53480 42963 33204 11069 21241 40371 52012 83///=
53673 42961 03402 10011 21235 40318 52005=
53698 31916 71602 10035 21109 40276 57006 70500 87///=
53898 31919 61802 10057 21062 40282 57001 70500 86///=
54308 32972 03407 11030 21207 40317 52009=
54602 31913 71802 10024 21086 40280 52003 70500 87///=
54725 41923 02001 10041 21041 40289 57010 70500=
54751 31918 02505 10016 21035 40292 57011 70500=
54916 41942 21802 10055 21046 40306 57009 70500 82///=
57014 32975 73404 10040 21188 40344 52003 87///=
57025 42965 82203 10038 21144 40341 52003 88///=
57046 42964 62709 11064 21156 37974 52001 86/// 333 00352=
58208 31940 70902 10060 21003 40302 52001 70500 87///=
00000000