0000043300
826
UDEU02 EGRR 110916 RRB
AMDAR 1108
LVR EU1987   4626N 00101E 110834 F330 MS560 234/022 TB/ S031=
LVR EU1987   4541N 00030E 110841 F330 MS560 221/015 TB/ S031=
LVR EU1987   4455N 00000E 110848 F350 MS612 154/008 TB/ S031=
LVR EU1987   4415N 00045W 110855 F350 MS612 156/011 TB/ S031=
LVR EU1987   4336N 00128W 110902 F350 MS612 171/006 TB/ S031=
LVR EU1987   4302N 00220W 110909 F350 MS602 310/004 TB/ S031=
0000068900
827
UDEU02 EGRR 110916 RRC
AMDAR 1109
DES EU1521   4620N 00829E 110905 F234 MS325 253/056 TB/ S031=
DES EU1521   4615N 00829E 110905 F220 MS292 260/054 TB/ S031=
DES EU1521   4611N 00830E 110906 F209 MS282 256/042 TB/ S031=
DES EU1521   4608N 00832E 110907 F200 MS272 256/034 TB/ S031=
DES EU1521   4604N 00835E 110907 F177 MS207 262/032 TB/ S031=
DES EU1521   4600N 00838E 110908 F164 MS175 253/033 TB/ S031=
DES EU1521   4556N 00840E 110909 F150 MS140 257/033 TB/ S031=
DES EU1521   4553N 00842E 110909 F131 MS100 256/025 TB/ S031=
DES EU1521   4549N 00845E 110910 F119 MS080 250/014 TB/ S031=
DES EU1521   4546N 00847E 110911 F104 MS047 240/017 TB/ S031=
0000068900
828
UDEU02 EGRR 110916 RRD
AMDAR 1108
LVR EU1790   5436N 00202E 110807 F340 MS506 234/055 TB/ S031=
LVR EU1790   5351N 00136E 110814 F340 MS524 240/050 TB/ S031=
LVR EU1790   5304N 00111E 110821 F340 MS513 255/052 TB/ S031=
LVR EU1790   5218N 00042E 110828 F340 MS508 264/058 TB/ S031=
LVR EU1790   5144N 00011W 110835 F350 MS505 263/049 TB/ S031=
LVR EU1790   5109N 00104W 110842 F350 MS528 260/060 TB/ S031=
LVR EU1790   5030N 00146W 110849 F350 MS560 259/061 TB/ S031=
LVR EU1790   4948N 00219W 110856 F350 MS573 257/055 TB/ S031=
LVR EU1790   4904N 00251W 110903 F350 MS583 251/048 TB/ S031=
LVR EU1790   4821N 00323W 110910 F350 MS585 253/048 TB/ S031=
0000036100
829
SIVS20 VNNN 110900
AAXX 11091
48870 41465 83201 10244 20207 30150 40157 56008 72162 888// 333 58008 83894 88696=
48920 32998 63604 10277 20252 30108 40111 56008 80008 333 58007 86299=
48877 32570 80705 10254 20190 30137 40142 55011 888// 333 58002 83895 88697=
48887 32572 80908 10255 20220 30105 40111 55010 888// 333 58002 82895 88697=
0000103300
830
SIAU21 AMMC 110900
AAXX 11094
94102 46/// /1329 10248 20230 30070 40079=
94103 46/// /2313 10296 30058 40063=
94120 46/// /2807 10290 20249 30006 40046=
94122 46/// /2005 10298 20240 30039 40047=
94131 46/// /2009 10278 20232 39902 40052=
94132 NIL=
94147 NIL=
94150 46/// /1111 10280 20237 39988 40047=
94151 46/// /1115 10272 20239 30036 4////=
94170 46/// /0505 10267 20239 30036 40058=
94200 NIL=
94203 46/// /2713 10314 20250 30052 40062=
94206 46/// /1905 10420 20100 39899 40026=
94207 46/// /2512 10296 30063 40071 56006=
94211 NIL=
94212 46/// /1206 10385 20047 39571 40032=
94216 46/// /3505 10298 20241 39995 40045=
94236 NIL=
94238 46/// /1208 10388 20083 39622 40034=
94248 46/// /1013 10258 20246 30055 40069=
94255 46/// /1010 10364 20144 39800 40056=
94268 46/// /1109 10254 20236 30062 40074=
94287 46/// /1910 10252 20230 30092 40101=
94290 NIL=
94294 46/// /0912 10283 20209 30102 40112=
94296 NIL=
94298 46/// /1122 10270 30101 40107 53013=

0000034000
831
SIAA21 AMMC 110900
AAXX 11094
89564 41981 20308 10060 21021 39890 49910 51021 6///0 70200 82030=
89570 NIL=
89571 41980 63206 10077 21075 39863 49892 51009 6///1 70311 86080=
89573 NIL=
89610 NIL=
89611 41475 80606 10010 21014 39815 49867 52042 71422 8482/=
89614 NIL=
89615 NIL=
89807 NIL=
89809 NIL=

0000019300
832
SIIN90 VOMM 110900
AAXX 11094
43213 32597 40902 10314 20135 39797 40107 81438
  333 59001=
43128 31496 59903 10284 20163 39517 40113 70511 84401
  333 56309 58007 83615=
0000004100
833
SIPS01 AMMC 110900
NIL

0000004100
834
SISO23 AMMC 110900
NIL

0000104900
835
SIVE21 AMMC 110900
BBXX
ZMGB 11094 99415 31756 41/98 10515 10158 20144 40150 57011 70200
81/// 22253 00170 20202 319// 40903 80150=
MPRZ 11084 99247 31648 41397 71338 10230 20183 40135 51012 70322
872// 22214 00250 20305 310// 40303 80200=
VNSZ 11084 99412 31464 46/// /3219 10223 20083 30103 40129 52004
22200 04181 85143=
C6FS9 11084 99238 31512 46/// /1018 10257 20194 30109 40145 54000
22200 04280 85213=
VNAH 11084 99383 31416 46/// /2010 10179 20122 30190 40214 57002
22200 85145=
VNSZ 11094 99411 31464 46/// /3221 10194 20083 30096 40122 57003
22276 04166 85132=
C6FS9 11094 99238 31512 46/// /1219 10257 20201 30114 40150 52008
22232 04275 85218=
VNAH 11094 99383 31416 46/// /1909 10175 20124 30195 40219 52005
22200 04177 85144=
VNSZ 11074 99412 31464 46/// /3120 10237 20076 30100 40126 57001
22200 04182 85146=
C6FS9 11074 99238 31512 46/// /1021 10259 20185 30107 40143 57012
22200 04281 85208=
VNAH 11074 99383 31416 46/// /2011 10183 20124 30189 40213 57001
22200 85147=

0000134800
836
SIAU01 AMMC 110900
AAXX 11094
94102 46/// /1329 10248 20230 30070 40079=
94103 46/// /2313 10296 30058 40063=
94200 NIL=
94203 46/// /2713 10314 20250 30052 40062=
94206 46/// /1905 10420 20100 39899 40026=
94207 46/// /2512 10296 30063 40071 56006=
94211 NIL=
94212 46/// /1206 10385 20047 39571 40032=
94216 46/// /3505 10298 20241 39995 40045=
94300 46/// /3613 10291 20220 30056 40066=
94302 46/// /2711 10402 20166 30052 40058=
94312 46/// /3117 10328 20266 30051 40060=
94313 NIL=
94317 46/// /1212 10410 21174 39493 40061=
94319 46/// /1013 10426 21049 39722 40042=
94403 46/// /1614 10358 20112 30022 40062=
94429 46/// /3610 10438 20004 39624 40071=
94430 46/// /0306 10417 20171 39508 40072=
94449 46/// /1010 10397 21007 39603 40118=
94451 NIL=
94601 46/// /1418 10237 20191 30131 40148=
94610 46/// /1711 10429 20051 30066 40089=
94637 46/// /1109 10371 20024 39717 40133=
94638 46/// /1217 10230 20157 30150 40182=
94642 NIL=
94643 NIL=
94647 46/// /1412 10203 20151 30093 40202=
94802 46/// /1017 10236 20156 30095 40176=
95205 46/// /3313 10343 20250 30038 40045=
95448 46/// /1510 10413 21034 39541 40087=
95634 46/// /1108 10407 20017 39721 40111=
95637 46/// /1109 10372 21009 39812 40138=
95641 NIL=
95646 46/// /1317 10286 20093 39993 40178=

0000113600
837
SAAR20 OEJD 110900
METAR OBBI 110900Z 18008KT 9999 FEW020 17/14 Q1019 NOSIG=
METAR OKBK 110900Z 31011KT 8000 FEW040 BKN100 13/10 Q1017 NOSIG=
METAR OMAA 110900Z 17006KT 130V230 9999 FEW045 21/11 Q1019 A3010
                   NOSIG=
METAR OMAD 110900Z 19006KT 150V220 9999 FEW045 21/15 Q1019 A3010
                   NOSI G=
METAR OMAL 110900Z 17009KT CAVOK 21/09 Q1020 A3014 27008KT=
METAR OMDB 110900Z 17009KT CAVOK 22/10 Q1020 NOSIG=
METAR OMFJ 110900Z 15007KT 120V190 9999 SCT020 BKN100 21/09 Q1020
                   A3012=
METAR OMRK 110900Z 14010KT CAVOK 21/11 Q1020 A3012=
METAR OMSJ 110900Z 15009KT 9999 FEW040 21/11 Q1020=
METAR OOBR 110900Z NIL=
METAR OOKB 110900Z NIL=
METAR OOMS 110850Z 06011KT 9999 FEW020 SCT200 21/08 Q1021 NOSIG=
METAR OOSA 110850Z 12014KT 080V150 9999 SCT025 26/15
Q1016 NOSIG  RH52 RMK01=
METAR OOSH 110900Z NIL=
METAR OOSQ 110900Z NIL=
METAR OOSR 110900Z NIL=
METAR OOTH 110900Z NIL=
METAR OOYB 110900Z NIL=
METAR OTBD 110900Z 20004KT 160V250 7000 -RA FEW018 OVC100 16/14 Q1020
NOSIG=
METAR OYAA 110900Z 13015KT 9999 SCT020 28/18 Q1016=
0000009800
838
SAAR20 OEJD 110900 RRA
METAR OYSN 110900Z 23012KT 9999 SCT030 SCT180 23/M08 Q1025=
0000036400
839
SAME31 OEJD 110900
METAR OJAI 110900Z 29005KT 5000 BR SCT025 10/08 Q1024 NOSIG=
METAR OJAM 110900Z 00000KT 2500 BR SCT025 09/07 Q1023 NOSIG=
METAR OJAQ 110900Z 00000KT 9999 FEW030 15/10 Q1025 NOSIG=
METAR OLBA 110900Z 24006KT 210V280 8000 FEW026 17/07 Q1025 NOSIG=
METAR OSAP 110900Z NIL=
METAR OSDI 110900Z NIL=
METAR OSLK 110900Z NIL=
0000335900
840
SAWD01 OEJD 110900
METAR DAAG 110900Z 20005KT 170V240 CAVOK 17/11 Q1020=
METAR DTTA 110900Z 17005KT 9999 FEW023 13/09 Q1020 NOSIG=
METAR EBBR 110850Z 24011KT 9999 BKN007 05/03 Q1016 NOSIG=
METAR EDDH 110850Z 22015KT 7000 BKN008 06/04 Q1010 TEMPO 4000=
METAR EFHK 110850Z 33005KT 300V360 9999 OVC008 M04/M05 Q0999 NOSIG=
METAR EGLL 110850Z 29007KT CAVOK 06/04 Q1017=
METAR EHAM 110855Z 20015KT 2500 -DZ BR FEW005 BKN006 BKN010 05/04
Q1012 TEMPO 4000 SCT008=
METAR EIDW 110900Z 24008KT 9999 FEW007 01/01 Q1018 BECMG SCT010=
METAR EKCH 110850Z 23014KT 9999 FEW009 BKN011 06/05 Q1006 BECMG
BKN007=
METAR ELLX 110850Z VRB01KT 3000 BR SCT042 BKN060 03/02 Q1016 NOSIG=
METAR ENFB 110850Z AUTO 07016KT 9999NDV FEW014/// BKN018/// OVC040///
           03/00 Q0998 W///S5=
METAR EPWA 110900Z 26012KT 9999 BKN016 05/02 Q1014 NOSIG=
METAR ESSA 110850Z 01007KT 9999 FEW008 BKN036 M04/M04 Q1001
R01L/520158 R08/520164 R01R/////// NOSIG=
METAR ETBS 110900Z NIL=
METAR GMME 110900Z 20004KT 5000 SCT020 BKN100 14/10 Q1018 NOSIG=
METAR GQNN 110900Z 02009KT 8000 NSC 15/13 Q1016 NOSIG=
METAR HAAS 110900Z NIL=
METAR HCMM 110900Z NIL=
METAR HECA 110900Z 31002KT 3000 HZ NSC 17/07 Q1026 NOSIG=
METAR HLLT 110850Z
19005KT 160V230 CAVOK 17/07 Q1024=
METAR HSSS 110900Z 03014KT 8000M SA 21/00 Q1020 NOSIG=
METAR KBOS 110854Z 09005KT 1/4SM R04R/2000FT FG VV003 02/01 A3017=
METAR KIAD 110852Z 00000KT 1 1/4SM R01R/5500VP6000FT -RA BR BKN004
     OVC007 02/02 A2999=
METAR KJFH 110900Z NIL=
METAR KWBS 110900Z NIL=
METAR LEMD 110900Z VRB02KT CAVOK 06/05 Q1019 NOSIG=
METAR LFPO 110900Z 26002KT 4800 BR FEW004 SCT040 06/05 Q1019 TEMPO
BKN003=
METAR LGAV 110850Z 06006KT 030V100 9999 FEW012 13/09 Q1023 NOSIG=
METAR LIRF 110850Z 07006KT 9000 FEW030 08/08 Q1023 NOSIG=
METAR LOWW 110850Z 15003KT 120V180 9999 FEW035 SCT140 BKN280 02/00
Q1020 NOSIG=
METAR LSGG 110850Z 00000KT 7000 SCT015 BKN190 04/03 Q1020 NOSIG=
METAR LTAC 110850Z VRB03KT 8000 OVC008 M03/M03 Q1024 NOSIG=
METAR OAKB 110850Z 23004KT 8000 NSC 04/M15 Q1025 NOSIG RMK BLU+ BLU+=
METAR OBBI 110900Z 18008KT 9999 FEW020 17/14 Q1019 NOSIG=
METAR OJAM 110900Z 00000KT 2500 BR SCT025 09/07 Q1023 NOSIG=
METAR OKBK 110900Z 31011KT 8000 FEW040 BKN100 13/10 Q1017 NOSIG=
METAR OLBA 110900Z 24006KT 210V280 8000 FEW026 17/07 Q1025 NOSIG=
METAR OMAA 110900Z 17006KT 130V230 9999 FEW045 21/11 Q1019 A3010
                   NOSIG=
METAR OOMS 110850Z 06011KT 9999 FEW020 SCT200 21/08 Q1021 NOSIG=
METAR OPKC 110855Z 07010KT 9000 SCT200 22/M07 Q10200 NOSIG=
METAR OPRN 110900Z NIL=
METAR ORBB 110900Z NIL=
METAR OSDI 110900Z NIL=
METAR OTBD 110900Z 20004KT 160V250 7000 -RA FEW018 OVC100 16/14 Q1020
NOSIG=
METAR OYAA 110900Z 13015KT 9999 SCT020 28/18 Q1016=
METAR OYSN 110900Z 23012KT 9999 SCT030 SCT180 23/M08 Q1025=
METAR RKSS 110900Z 29002KT 9999 SCT030 BKN150 00/M17 Q1030 NOSIG=
METAR UUEE 110900Z NIL=
METAR VCBI 110900Z NIL=
METAR VGZR 110900Z NIL=
METAR VHHH 110900Z 10011KT 7000 FEW035 19/13 Q1020 NOSIG=
METAR VIDP 110900Z 30011KT 3000 HZ NSC 18/07 Q1017 NOSIG=
METAR WIIH 110900Z NIL=
METAR WMKK 110900Z 26007KT 200V310 9999 FEW017CB BKN280 31/24 Q1008
NOSIG=
METAR WSSS 110900Z 01008G18KT 330V060 9999 FEW015CB FEW017TCU SCT170
28/24 Q1008 RETS TEMPO FM0915 TL1015 4000 TSRA=
0000012400
841
SIHK20 VHHH 110900
AAXX  11091
45007 42656 11006 10194 20129 30199 40208 55008 81501
 333  59010 81635 =
0000004100
842
SING22 AMMC 110900
NIL

0000130400
843
SISD20 OEJD 110900
AAXX 11094
40356 42560 63314 10050 20040 39232 48518 84520 333 58068 84630 86460
555 04410 50238=
40357 42560 73117 10077 20080 39557 40210 87600 333 58066 87730=
40360 42960 03206 10110 20020 39638 40244 333 58066=
40361 42560 73216 10094 20000 39434 40220 87600 333 58069 87720=
40362 42660 73616 10088 20040 39665 40192 87470 333 58053 87640 85360=
40373 42660 22810 10133 20090 39761 40187 82500 333 58019 82635=
40375 42660 23011 10130 20020 39339 40232 82200 333 58061 82840=
40377 42960 03320 10147 20130 39708 40195 333 59009=
40394 42660 43024 10106 20030 39059 48527 84500 333 58061 84645 555 04410 50205=
40400 42560 10203 10228 20070 30186 40214 81200 333 58049 81830=
40401 42960 03406 10152 20010 39515 40229 333 58061=
40405 42960 02910 10140 20080 39449 40196 333 58053=
40416 42660 81814 10178 20140 30155 40175 8457/ 333 59021 84640 88358=
40417 42560 71813 10174 20120 30175 40190 83530 333 59021 83630 87360=
40420 42560 71712 10153 20130 39975 40186 84520 333 59017 84630 84460=
40430 41958 01004 10163 20000 39492 40224 70600 333 58063=
40435 42960 03312 10140 20030 39140 40176 333 58069=
40437 42660 52409 10171 20110 39483 40194 85500 333 58016 85640=
40439 42960 00000 10233 20070 30179 40189 333 58038=
0000089000
844
SISD21 OEJD 110900
AAXX 11094
41024 42660 13014 10250 20100 30161 40181 81500 333 58031 81640=
41030 42960 00602 10252 20110 39887 40162 333 58020=
41036 42560 40905 10127 20040 38585 48533 84400 333 58033 84630 555 04410 50168=
41055 41558 43406 10120 20120 38380 48529 71000 84400 333 58019 84630 555 04410 50178=
41061 42960 01208 10210 20110 39451 40155 333 58004=
41084 42560 42610 10184 20080 38879 48530 84400 333 58025 84630 555 04410 50157=
41112 41458 72110 10128 20120 37958 48530 76100 87700 333 58000 84712 83615 555 04410 50186=
41114 41558 82210 10134 20120 37991 48527 76200 884// 333 58009 88620 555 04410 50178=
41128 42560 60704 10240 20040 38808 48516 83460 333 59004 83630 85359 555 04410 50125=
41136 42960 22111 10243 20090 39322 40131 82030 333 59011 82359=
41140 42560 72211 10288 20220 30145 40153 84130 333 58009 84830 84360=
0000114200
845
SIAU22 AMMC 110900
AAXX 11094
94299 46/// /1121 10282 20243 30078 40088=
94300 46/// /3613 10291 20220 30056 40066=
94302 46/// /2711 10402 20166 30052 40058=
94312 46/// /3117 10328 20266 30051 40060=
94313 NIL=
94317 46/// /1212 10410 21174 39493 40061=
94319 46/// /1013 10426 21049 39722 40042=
94324 NIL=
94326 46/// /1415 10377 20018 39470 40068=
94327 46/// /1314 1//// 2//// 39698 40061=
94332 46/// /0911 10324 20134 39687 40062=
94333 NIL=
94341 46/// /1113 10348 20157 39835 40064=
94346 46/// /1016 10316 20152 39877 40092=
94363 46/// /0608 10280 20169 39905 40118=
94366 NIL=
94367 46/// /1111 10254 20221 30085 40126=
94374 46/// /0806 10261 20169 30121 40137=
94388 NIL=
94393 46/// /1301 10263 30104 40116 53011=
94394 46/// /1017 10256 30127 40135 53009=
94403 46/// /1614 10358 20112 30022 40062=
94429 46/// /3610 10438 20004 39624 40071=
94430 46/// /0306 10417 20171 39508 40072=
94449 46/// /1010 10397 21007 39603 40118=
94451 NIL=
94461 46/// /1415 10384 21150 39427 40077=
94462 46/// /1114 10392 21029 39542 40080=
94477 NIL=
94488 NIL=

00000000