0000045100
414
SXXX32 EUMS 110800 RRB
16289262
:PRS 1 /1 2255 2252 2252 2258 2255 2258 2261 2253 2267 2261 2274 2263 2267 2260 2265 2261 2275 2278 2284 2276 2273 2278 2280 2276 2294 2287 2280 2286 2283 2296 :RAD 1 /3 7714 7719 7726 7725 7729 7734 7739 7742 7743 7743 7741 7745 7747 7750 7751 7762 7768 7775 7782 7787 :ENC 5 /5 5089 5093 5094 5105 5109 5115 5122 5125 5131 5136 5147 5157 :SW1 60 /60 0 :SW2 30 /60 0 :BAT 14 /15 13.1 :NAME 16289262 /
0000045700
415
SXXX32 EUMS 110800 RRC
324DF524
:PRS 1 /1 3421 3429 3436 3444 3452 3459 3467 3475 3483 3490 3498 3506 3514 3521 3529 3536 3544 3552 3559 3567 3574 3582 3589 3597 3604 3611 3619 3626 3633 3640 :RAD 1 /3 3493 3521 3544 3566 3590 3613 3636 3657 3678 3697 3716 3734 3751 3770 3791 3812 3832 3851 3872 3896 :ENC 5 /5 2430 2471 2509 2549 2586 2623 2657 2690 2721 2755 2790 2822 :SW1 60 /60 0 0 :SW2 30 /60 60 60 :BAT 14 /15 12.7 :NAME 324DF524 /
0000058300
416
SAIR32 OIII 110800
METAR OIAA 110800Z 24010KT 2500 BR FEW035CB SCT090 13/11 Q1018=
METAR OIBK 110800Z 07010KT 8000 -RA FEW030CB FEW025 OVC080 14/12
Q1021=
METAR OICC 110800Z 12008KT 4000 -SN FEW035CB SCT040 OVC070
 M00/M02 Q1020 A3013 TEMPO SN=
METAR OIGG 110800Z 00000KT 3000 BR SCT025 BKN090 09/07
Q1016=
METAR OIIE 110800Z 19004KT 6000 FEW040 FEW045CB OVC100 03/M05 
Q1022 A3020 NOSIG=
METAR OITR 110800Z 03004KT 2000 HZ SCT035 BKN170 M06/M10 Q1021
NOSIG=
METAR OIYY 110800Z 00000KT 6000 FEW035 SCT100 06/M01 Q1021=
METAR OAKN 110800Z NIL=
METAR OAKB 110800Z NIL=

0000011500
417
SAIN90 VILK 110800
METAR VILK 110800Z VRB02KT 1200 R27/1300 MIFG BKN015 BKN090 16/13
Q1016 NOSIG=
0000047900
418
SAIR33 OIII 110800
METAR OIBB 110800Z 13006KT 9999 -RA FEW030CB SCT035 OVC090 14/10
Q1019 A3009=
METAR OIBP 110800Z 00000KT 7000 5000SE SCT020 SCT030 OVC080 
15/12 Q1020 A3014=
METAR OICK 110800Z NIL=
METAR OICS 110800Z 00000KT 3500 BR FEW025 FEW035CB SCT035 BKN080
M01/M03 Q1020=
METAR OIHH 110800Z 00000KT 2500 BR BKN040 SCT090 M06/M09
Q1019=
METAR OINZ 110800Z 22004KT CAVOK 10/04 Q1016=
METAR OISR 110800Z NIL=
METAR OITL 110800Z NIL=
METAR OIZC 110800Z NIL=

0000064900
419
SAIR34 OIII 110800
METAR OIAG 110800Z 12012KT 9999 SCT030CB BKN035 14/10 Q1020=
METAR OIAM 110800Z  12016KT 8000 -RA SCT010 SCT030CB OVC090 13/11
 Q1019=
METAR OICI 110800Z  14004KT 4000 -RA FEW015 FEW025CB SCT035 OVC080
 02/02 Q1018 A3006=
METAR OIKQ 110800Z  02014KT 8000 -RA FEW025CB SCT030 SCT090 15/07
 Q1021=
METAR OINN 110800Z VRB02KT CAVOK 12/08 Q1017=
METAR OINR 110800Z 00000KT 9999 SCT040 BKN170 11/07 Q1016=
METAR OISL 110800Z  00000KT 5000 -RA FEW030CB SCT035 OVC080 08/04
 Q1022=
METAR OISY 110800Z  12004KT 1000 BR FEW030CB SCT035 OVC080 02/01
 Q1021 REDZ=
METAR OITZ 110800Z 16012KT 9999 BKN035 OVC080 M00/M06 Q1018=

0000046600
420
SAIR35 OIII 110800
METAR OIAD 110800Z NIL=
METAR OIBJ 110800Z 09012KT 9999 BKN035 OVC090 10/08 Q1022=
METAR OIBS 110800Z 08024KT 9999 SCT035 OVC100 20/15 Q1020=
METAR OIHR 110800Z NIL=
METAR OIKM 110800Z NIL=
METAR OIKR 110800Z  00000KT 9999 FEW035CB FEW040 BKN100 05/M05
 Q1022 A3018=
METAR OING 110800Z  36004KT 5000 HZ FEW025 SCT090 BKN190 11/07
 Q1017=
METAR OIZB 110800Z 08004KT CAVOK 10/00 Q1025=
METAR OIZI 110800Z 03004KT CAVOK 15/M04 Q1024=

0000054300
421
SAIR36 OIII 110800
METAR OIBA 110800Z  12014KT 5000 SA FEW025CB FEW030 OVC100 21/12
 Q1019=
METAR OIBV 110800Z 03008KT 6000 -RA SCT030 OVC080 14/13 Q1021=
METAR OIFS 110800Z  00000KT 1000 -SN BR FEW030CB SCT035 OVC080
 M04/M05 Q1020=
METAR OIIP 110800Z  26006KT 1200 -SN BR SCT030CB SCT035 OVC080
 M03/M04 Q1021=
METAR OIMB 110800Z 08010KT 9999 FEW040 SCT090 OVC190 06/M14 Q1021=
METAR OIMN 110800Z 03004KT CAVOK 04/M09 Q1019 A3010=
METAR OIMS 110800Z NIL=
METAR OIMT 110800Z NIL=
METAR OIZJ 110800Z 00000KT CAVOK 19/08 Q1022=

0000050400
422
SAIR37 OIII 110800
METAR OIBL 110800Z NIL=
METAR OIBQ 110800Z  09010KT 3000 +SHRA SCT025CB SCT040 OVC080 14/13
 Q1019 RETS=
METAR OIIK 110800Z  14010KT 5000 HZ FEW035CB SCT040 OVC090 01/M04
 Q1022=
METAR OIMC 110800Z 18008KT CAVOK 15/M06 Q1021=
METAR OIMD 110800Z 00000KT CAVOK 06/M04 Q1018=
METAR OIMQ 110800Z 15012KT 9999 SCT035 08/M06 Q1022=
METAR OINE 110800Z 25006KT 0500 FG SCT020 BKN190 06/06 Q1016=
METAR OITK 110800Z NIL=
METAR OITM 110800Z 00000KT 1100 BR OVC013 M05/M07 Q1022=

0000050500
423
SXXX32 EUMS 110800 RRD
22BF90A6
:PRS 1 /1 1192 1190 1203 1192 1203 1200 1199 1199 1204 1207 1199 1205 1202 1201 1206 :RAD 1 /3 4386 4390 4392 4393 4392 4393 4394 4395 4397 4402 :SW1 60 /60 60 :SW2 30 /60 60 :WTP 15 /15 29.0 :BAT 13 /15 14.2 :WAV 10 /10 5.7 5.7 6.1 :DAV 10 /10 110 113 112/:WMX 10 /10 6.8 7.1 7.3 :TPA 15 /15 27.9 :TMN 480 /720 27.1 :TMX 480 /720 28.1 :HUM 55 /15 78.5 :PRA 15 /15 1414.9 :RAC 59 /60 0.0 :RDU 59 /60 0/:RIN 59 /60 0.4 :DAC 479 /1440 0.4 :DDR 479 /1440 330
0000091500
424
SSVX01 DEMS 111035
ZZYY 23097 11014 09001 114986 068989 111// 03507 10243 40138 222// 00259 1////=
ZZYY 23456 11014 09001 118815 067103 111// 00305 10211 40161 222// 00/// 10503=
ZZYY 23453 11014 09001 108277 073309 111// 000// 10287 40109 222// 00/// 10602=
ZZYY 23454 11014 09001 110325 072184 111// 001// 10283 40112 222// 00/// 1////=
ZZYY 23091 11014 09001 118150 089669 111// 00100 10253 40139 222// 00/// 107//=
ZZYY 23092 11014 09001 117848 089677 111// 00300 10256 40139 222// 00/// 1////=
ZZYY 23093 11014 09001 116500 087995 111// 0//02 10/// 40137 222// 00/// 1////=
ZZYY 23094 11014 09001 113500 084022 111// 0//// 10/// 40132 222// 00/// 106//=
ZZYY 23095 11014 09001 110517 093979 111// 0//06 10280 40108 222// 00/// 1////=
ZZYY 23459 11014 09001 113993 086988 111// 00302 10268 40128 222// 00/// 1////=
ZZYY 23460 11014 09001 107009 087978 111// 00703 10274 40097 222// 00/// 10603=

0000010900
425
UANT99 KDDL 110802
ARP THY12 5347N04119W 0802 F330 MS59 307/45 KT
TCJJO QXT AOW 110802 F15A
0000046700
426
SNVD17 KWNB 110800 RRD
BBXX
46066 11081 99528 71550 46/// /1811 10043 49959 58027 90750 22200
00054 11106 20703 324// 41105 70029 333 91213 555 11116 22123
30713 41814 60749 178109 175107 183107 183105 180106 174099 81812
90723=
46078 11081 99560 71526 46/// /2308 10037 20023 49952 58010 90750
22200 00044 11105 20703 322// 41104 70023 333 91210 555 11088
22093 30748 42310 60749 233084 234084 233083 232081 228083 233082
82309 90741=
0000010000
427
SAIR37 OIII 110800 RRA
METAR OIBL 110800Z 05008KT 4000 HZ SCT025 OVC080 14/11 Q1022=
0000035600
428
SAIQ01 ORBI 110800
METAR ORBI 110800Z 13006KT 1900 OVC030 10/08 Q1018 NOSIG=
METAR ORMM 110800Z 26010KT 4000 BR FEW040 OVC100 12/11 Q1018 NOSIG=
METAR ORBM 110800Z VRB03KT 5000 HZ FEW040 04/03 Q1021 NOSIG=
METAR ORNI 110800Z  25012KT 8000 OVC025 11/08 Q1018 NOSIG=
METAR ORER 110800Z VRB02KT 5000 BR SCT030 OVC080 08/07 Q1019 NOSIG=
0000010300
429
SAER41 OMAM 110754 RRF
METAR OMAM 110800Z 18011KT 9999 FEW040 BKN100 21/10 Q1016 A3000=
0000171100
430
SNVD15 KWNB 110800 RRC
BBXX
42003 11081 99260 70856 46/// /1707 10255 40160 58008 90750 22200
00250 10602 20602 312// 40601 70011 333 91209 555 11070 22076
30748 41609 60749 169063 163063 159063 159061 163060 158061 81707
90749=
42055 11081 99222 70940 46/// /2203 10229 40145 52005 90750 22200
00228 10802 20301 306// 40802 70010 333 91203 555 11028 22030
30700 42104 60749 219027 209028 204029 210032 212036 212037 82104
90700=
41047 11081 99275 70715 46/// /1108 10243 20231 40232 58008 90750
22200 00255 10805 20804 301// 41203 70023 333 91210 555 11089
22094 30741 41110 60749 107085 112082 112078 113079 120078 108070
81109 90741=
42057 11081 99170 70815 46/// /0707 10269 20234 40144 58008 90750
22200 00275 10804 20603 311// 40803 70021 333 91209 555 11079
22083 30653 40810 60749 074075 073074 080075 076070 080074 079079
80808 90653=
41048 11081 99320 70695 46/// /1409 10206 20157 40267 58014 90750
22200 00213 10903 20703 313// 40902 70016 333 91211 555 11096
22102 30745 41311 60749 136088 136088 138089 128087 134088 127085
81410 90745=
44066 11081 99396 70726 46/// /1407 10125 20119 40209 58034 90750
22200 00112 11002 20401 316// 41001 70008 333 91208 555 11073
22081 60749 140068 145071 147071 147065 145068 145067=
42039 11081 99288 70860 46/// /1606 10215 20215 40157 57012 90750
22200 00211 10402 20401 70008 333 91207 555 11066 22071 30712
41608 60749 157061 158061 162062 159066 157064 159061 81607 90712=
41040 11081 99145 70530 46/// /0710 10248 20205 40144 56006 90750
22200 00262 11406 20604 303// 41405 70031 333 91212 555 11104
22110 30746 40712 60749 073097 076091 068086 065088 064093 067087
80810 90739=
0000010600
431
SMCN04 KWBC 110600
AAXX 11064
71245 45/// /0000 11090 21129 6///1 333 11080 21113 7////=
0000024400
432
SNVD15 KWNB 110800 RRD
BBXX
41009 11081 99285 70802 46/// /1705 10242 20218 40187 58011 90750
22200 00241 10803 20501 307// 40803 70017 333 91206 555 11057
22061 30650 41707 60749 173053 173055 169055 168055 163053 164055=
0000024400
433
SNVD17 KWNB 110800 RRE
BBXX
51101 11081 99243 71621 46/// /0714 10213 20192 40161 52004 90750
22200 00237 11109 20707 305// 41106 70045 333 91217 555 11144
22153 30655 40817 60749 065135 066126 069127 067136 062139 067139=
00000000