0000065400
926
FAGR33 LGAT 102300
LGGG GAMET 11000/110600
ATHINAI FIR/3 BLW FL150
SECN I
SFC WSPD    : HAZARDOUS WX NIL
SFC VIS     : LOC 1000-5000M BR OR LESS THAN 1000M FOG
SIGWX       : HAZARDOUS WX NIL
MT OBSC     : LOC MT PASSES
SIG CLD(AGL): LOC BKN ST 0300-1500FT
MTW         : HAZARDOUS WX NIL
TURB        : HAZARDOUS WX NIL
ICE         : HAZARDOUS WX NIL
SIGMET APPLICABLE:
SECN II
PSYS        :
WIND/T(MSL) : 2000FT  27015KT PS10,
              5000FT  28015KT PS08,
              10000FT 27018KT PS01
CLD (AGL)   : FEW/SCT CU 2000-7000FT
FZLVL       : 10500FT
MNM QNH     : 1022HPA
VA          : NIL

0000070900
927
FAGR34 LGAT 102300
LGGG GAMET 11000/110600
ATHINAI FIR/4 BLW FL150
SECN I
SFC WSPD    : HAZARDOUS WX NIL
SFC VIS     : LOC 1000-5000M BR
SIGWX       : HAZARDOUS WX NIL
MT OBSC     : LOC MT PASSES
SIG CLD(AGL): HAZARDOUS WX NIL
MTW         : HAZARDOUS WX NIL
TURB        : HAZARDOUS WX NIL
ICE         : HAZARDOUS WX NIL
SIGMET APPLICABLE:
SECN II
PSYS        :
WIND/T(MSL) : 2000FT  34015KT PS10 (W),
                      27015KT PS11 (E)
              5000FT  30015KT PS08,
              10000FT 30025KT PS02
CLD (AGL)   : LOC SCT CU 1800-7000FT
              LOC SCT ST 0200-1200FT
FZLVL       : 10500FT
MNM QNH     : 1019HPA
VA          : NIL

0000011300
928
SPAU32 YBBN 102300
SPECI YPGV 102256Z AUTO 12010KT 9999 // SCT014 BKN019 OVC035 27/25
Q1008=

0000011700
929
SACN62 CYBK 102300
METAR CYBK 102300Z 15006KT 150V280 15SM FEW020 M31/M35 A2971 RMK SC1
 SLP065=

0000013800
930
SACN62 CYEK 102300
METAR CYEK 102300Z 35010KT 15SM FEW100 M32/M36 A2973 RMK AS1 LAST
 STAFFED OB/NEXT 111500Z SLP068=

0000015100
931
SACN62 CYEG 102300
METAR CYEG 102300Z 27005KT 15SM FEW035 FEW090 FEW150 BKN260 M03/M06
 A2953 RMK SC1AC1AC2CI5 SC TR AC TR SLP044=

0000011000
932
SAFG20 SOCA 102300
METAR SOCA 102300Z AUTO VRB02KT 9999 FEW006 BKN062 OVC072 23/22
Q1011=

0000033600
933
FTMX31 MMMX 102300
TAF MMMX 102301Z 1100/1206 22005KT P6SM SCT025 BKN080 TX21/1122Z
TN08/1112Z
         TEMPO 1100/1104 VC RA BKN025 BKN080 
         FM110600 07005KT P6SM SCT080 
         FM111200 07005KT 4SM HZ SCT020 
         FM111800 22010KT P6SM SCT025 SCT080 
         FM120300 07005KT P6SM SCT080=

0000009500
934
SAPF20 NTAA 102300
METAR NTAA 102300Z VRB06KT 9999 SCT020 31/21 Q1011 NOSIG=

0000010600
935
SACN61 CYFC 102300
METAR CYFC 102300Z AUTO 22003KT 9SM FEW085 M05/M10 A3030 RMK SLP262=

0000011200
936
SACN61 CYHD 102300
METAR CYHD 102300Z AUTO 18011KT 3SM BR OVC006 M06/M07 A2945 RMK
 SLP003=

0000015300
937
SACN61 CYHE 102300
METAR CYHE 102300Z AUTO 29013G22KT 9SM -RA BKN039 BKN050 OVC060 08/05
 A2992 RMK MAX WND 28019KT AT 2227Z SLP134=

0000011200
938
SACN61 CYHU 102300
METAR CYHU 102300Z AUTO 36004KT 6SM BR OVC025 M07/M09 A3026 RMK
 SLP248=

0000011900
939
SACN62 CYGP 102300
METAR CYGP 102300Z 26008KT 15SM BKN120 OVC230 M07/M14 A3014 RMK
 AC5CI3 SLP210=

0000010500
940
SACN62 CYGK 102300
METAR CYGK 102300Z 15008KT 10SM OVC015 01/M01 A3017 RMK ST8 SLP222=

0000012100
941
SAGQ21 FGSL 102300
METAR FGBT 102300Z NIL=
METAR FGSL 102300Z 22007KT 7000 FEW010 24/22 Q1012 NOSIG=

0000014100
942
SAVN27 SVBM 102300
METAR SVBM 102300Z 09005KT 9999 FEW016 26/19 Q1015=
METAR SVBI 102300Z NIL=
METAR SVVL 102300Z NIL=

0000026400
943
SAEQ01 SEQU 102300
METAR SEQM 102300Z 07004KT 9999 -RA BKN023 OVC080 14/12 Q1023 RMK 
    A3020 NOSIG=
METAR SEGU 102300Z NIL=
METAR SEMT 102300Z 20010KT 9999 BKN023 26/22 Q1008=
METAR SELT 102300Z 03005KT 9999 BKN030 BKN100 14/11 Q1025=

0000011600
944
SABZ20 SBEG 102300
METAR SBEG 102300Z 01006KT 1800 +TSRA BKN005
FEW025CB BKN100 23/20 Q1
011=

0000085400
945
SAMX45 MMMY 102259
METAR MMMY 102255Z 08007KT 8SM  SCT160 SCT250 24/14 A2985 
      RMK 8/072 HZY=
METAR MMAN 102240Z 12010KT 7SM  SCT200 27/15 A2987 RMK 8/002 HZY=
METAR MMMA 102240Z 15014KT 7SM  SKC 25/19 A2984 RMK BLDU=
METAR MMIO 102240Z 27006KT 10SM FEW200 23/10 A3003 RMK 8/001=
METAR MMRX 102246Z 19006KT 10SM  SKC 28/14 A2982 RMK HZY FU ST=
METAR MMNL 102240Z 00000KT 10SM  BKN220 25/13 A2984 RMK 8/002=
METAR MMCV 102242Z 17010KT 6SM  SKC 26/15 A2981 RMK HZY ISOL SC=
METAR MMTC 102246Z 36006KT 10SM FEW120 BKN250 22/M03 A2998
      RMK 8/072=
METAR MMMV 102140Z 25015KT 8SM BKN080 27/// A2984 RMK 8/070 HZY=
METAR MMCU 102240Z 00000KT 10SM SKC 21/M02 A3000
      RMK CI SE=
METAR MMPG 102240Z 00000KT 8SM SCT100 BKN200 21/13 A2984
RMK 8/071 HZY=
METAR MMCS 102248Z 24010KT 10SM SKC 18/M06 A2991=

00000000