0000018000
686
SNVD01 PANC 110700 RRF
BBXX
V7YW3 11074 99243 70512
41/98 00919 10220 2017/ 40200 54000 7//00 80000
22273 0//// 20501 30707 40704 50703 6//// 80190 ICE /////=
0000020900
687
SNVD20 KWNB 110800
BBXX
44059 11081 99368 70763 46/// /1604 10160 40168 90740 333 91206
555 11051 22055=
44058 11081 99376 70763 46/// /1910 10101 40178 90740 333 91212
555 11112 22122=
0000058800
688
SNVD19 KWNB 110700 RRE
BBXX
46126 11071 99540 71666 46/// /2601 10039 49817 90700 22200 00046
1//00 70001 333 91202 555 11010 22011=
46126 11071 99540 71666 46/// /0000 10039 49817 90718 22200 00046
1//00 70001 333 91202 555 11005 22006=
46126 11071 99540 71666 46/// /0000 10039 49817 90720 22200 00046
1//00 70001 333 91202 555 11005 22006=
46126 11071 99540 71666 46/// /2901 10039 49817 90724 22200 00046
1//00 70001 333 91201 555 11007 22007=
46126 11071 99540 71666 46/// /0000 10042 49814 90730 22200 00047
1//00 70001 333 91201 555 11002 22002=
0000004200
689
SMVX01 VHHH 110600
NIL=

0000023500
690
SNVB01 KWBC 110700 RRD
BBXX
52211 11071 99153 11457 46/// ///// 1//// 90718 22200 00281 11005
 21004 305// 41101 70023=
52202 11071 99137 11448 46/// ///// 1//// 90730 22200 00283 10704
 20704 305// 41101 70021=
0000015500
691
SAIN34 VOMM 110740
METAR VOHS 110740Z 18006KT 5000 HZ SCT020 29/13 Q1016 NOSIG=
METAR VOMM 110740Z 35004KT 6000 SCT020 29/19 Q1013 NOSIG=
0000026400
692
SMVX01 DEMS 110600 RRA
BBXX
A8NF2 11064 99200 10720 413// 20506 10210 20147 40160 50000
702// 8/62/ 22264 00230 21002 301// 41004 80170=
DJCE2 11064 99059 10838 41597 70516 10303 20240 40124 58008
70022 872// 22264 00286 20302 304// 40504=

0000009200
693
SAIN90 VECC 110750
METAR VECC 110750Z 01006KT 2800 HZ NSC 25/13 Q1014 NOSIG=
0000073500
694
SAIN33 VIDP 110730
METAR VEBD 110730Z VRB01KT 3000 BR SCT025 BKN080 17/13 Q1018 TEMPO
     2000=
METAR VEGK 110730Z VRB02KT 1200 RABR SCT025 FEW025TCU BKN090 17/15
     Q1018 NOSIG=
METAR VIAG 110730Z 27007KT 6000 SKC 19/10 Q1018 NOSIG=
METAR VIAL 110730Z 04003KT 1800 RABR SCT010 SCT015 FEW025TCU BKN090
     18/18 Q1016 TEMPO TS=
METAR VICG 110730Z 28006KT 6000 SKC 18/07 Q1019 NOSIG=
METAR VIGR 110730Z 28009KT 4000 HZ SKC 18/06 Q1018 BECMG 5000=
METAR VIJU 110730Z VRB01KT 6000 SKC 18/16 Q1018 NOSIG=
METAR VILH 110730Z VRB01KT 6000 SCT060 00/M17 Q1026 NOSIG=
METAR VISR 110730Z VRB02KT 5000 HZ SCT025 SCT040 06/M03 Q1027 NOSIG=
METAR VITX 110730Z 23003KT 6000 SCT070 M02/M17 Q1028 NOSIG=

0000372500
695
SNVD01 KWBC 110700 RRL
BBXX
44032 11071 99437 70694 46/30 /2203 10038 40242 90704 22200 00046
 10502 70012 333 91204 555 11038 22041=
44034 11071 99441 70681 46/28 /2402 10028 40253 90704 22200 00065
 10602 70011 333 91203 555 11022 22024=
44033 11071 99441 70690 46/30 /2202 10003 40238 90704 22200 00020
 10601 70006 333 91202 555 11019 22021=
42085 11071 99179 70665 46/// /0406 10249 40161 90710 333 91208
 555 11067 22073=
44029 11071 99425 70706 46/18 /1503 10044 40230 90704 22200 00048
 10501 70005 333 91204 555 11038 22041=
44030 11071 99432 70704 46/30 /1802 10031 40232 90704 22200 00045
 10502 70008 333 91202 555 11020 22022=
42085 11071 99179 70665 46/// /0406 10248 40160 90730 333 91207
 555 11065 22070=
42085 11071 99179 70665 46/// /0406 10248 40161 90720 333 91207
 555 11067 22073=
41052 11071 99183 70648 46/// /0808 10259 40161 90710 333 91209
 555 11084 22091=
41052 11071 99183 70648 46/// /0707 10259 40161 90730 333 91210
 555 11083 22090=
41053 11071 99185 70661 46/// /0710 10244 40165 90720 333 91212
 555 11112 22121=
41052 11071 99183 70648 46/// /0708 10258 40162 90720 333 91209
 555 11086 22093=
41053 11071 99185 70661 46/// /0808 10250 40164 90730 333 91210
 555 11086 22093=
41056 11071 99183 70655 46/// /0706 10253 40163 90720 333 91208
 555 11071 22078=
41056 11071 99183 70655 46/// /0706 10253 40163 90710 333 91208
 555 11070 22076=
41056 11071 99183 70655 46/// /0706 10253 40163 90730 333 91208
 555 11071 22078=
41051 11071 99183 70650 46/// /0807 10256 90720 333 91209 555
 11075 22081=
42360 11071 99267 70905 46/// /1906 10225 40147 54000 90700 22200
 00227 10702 70009 333 91207 555 11059 22064=
41051 11071 99183 70650 46/// /0806 10256 90730 333 91208 555
 11071 22078=
41051 11071 99183 70650 46/// /0807 10256 90710 333 91209 555
 11076 22082=
ZCDN9 11073 99202 70482 41/98 10519 10220 20197 40190 57008 70100
 8/7// 22254 00252 29901 3//// 4//03 5//// 80205=
44141 11071 99430 70580 46/// /2808 10038 40305 57004 22200 00136
 10803 70017 333 91210=
44060 11071 99413 70721 46/// /0603 10046 20044 40237 90715 22200
 00042 333 91203 555 11031 22036=
44022 11071 99409 70737 46/// /0504 10017 20013 90730 333 91205
 555 11036 22036=
44137 11071 99423 70620 46/// /3302 10044 40305 57004 22200 00077
 10602 70010 333 91203=
44097 11071 99410 70711 46/// ///// 1//// 90725 22200 00068 10402
 20402 70009=
44058 11071 99376 70763 46/// /1708 10081 40179 90730 333 91210
 555 11089 22097=
44056 11071 99362 70757 46/// ///// 1//// 90723 22200 00088 10602
 20602 309// 41101 70011=
44098 11071 99428 70702 46/// ///// 1//// 90721 22200 00059 10502
 20502 70008=
46214 11071 99379 71235 46/// ///// 1//// 90726 22200 00112 11506
 20903 331// 41506 70032=
46221 11071 99339 71186 46/// ///// 1//// 90725 22200 00155 11402
 20801 326// 41401 70010=
44059 11071 99368 70763 46/// /1804 10159 40171 90730 333 91205
 555 11043 22046=
46239 11071 99363 71221 46/// ///// 1//// 90729 22200 00132 11406
 21003 329// 41405 70028=
51205 11071 99210 71564 46/// ///// 1//// 90721 22200 00249 11304
 21003 334// 41303 70022=
44063 11071 99390 70764 46/// /1302 10019 40162 90730 333 91204
 555 11017 22019=
44042 11071 99380 70763 46/// /1504 10075 40162 90730 333 91205
 555 11044 22048=
44041 11071 99372 70768 46/// /1304 10142 90730 333 91207 555
 11040 22044=
44062 11071 99386 70764 46/// /0201 10031 40179 90730 333 91202
 555 11013 22014=
44064 11071 99370 70760 46/// /1708 10137 40179 90730 333 91212
 555 11089 22097=
42361 11071 99276 70925 46/// /1712 10217 20217 40125 56010 90730
 555 11101 22108=
0000090100
696
SNVD01 KWBC 110700 RRM
BBXX
42364 11071 99291 70881 46/// /1712 10211 20206 40142 58010 90730=
42390 11071 99261 70949 46/// ///// 10233 20222 40132 56003 90730=
41037 11071 99340 70774 46/// /2010 10195 40184 56016 90700 333
 91213 555 11118 22128=
41036 11071 99342 70769 46/// /1911 10218 20196 40183 90720 22200
 00210 333 91214 555 11123 22132 30627 41917 60719 193113 191123
 187115 187115 188122 188133=
41112 11071 99307 70813 46/// ///// 1//// 90722 22200 00113 10803
 20803 70014=
41114 11071 99276 70802 46/// ///// 1//// 90725 22200 00229 10803
 20803 306// 41101 70014=
42099 11071 99273 70843 46/// ///// 1//// 90722 22200 00221 10301
 20301 70006=
41108 11071 99337 70780 46/// ///// 1//// 90729 22200 00122 10703
 20703 70017=
PHOS 11074 99239 70825 41498 31422 10257 20228 40167 56011 70200
 8/2// 22213 04245 20302 307// 40503 5////=
0000066100
697
UDAF01 FAPR 110749
AMDAR 1107
DES AFZA45 2622S 02818E 110743 F077 PS162 036/003 TB0 S031 333 F/// VG012=
DES AFZA45 2615S 02812E 110745 F074 PS172 025/005 TB0 S031 333 F/// VG012=
DES AFZA45 2614S 02812E 110746 F071 PS172 340/013 TB0 S031 333 F/// VG012=
DES AFZA45 2613S 02812E 110746 F068 PS167 333/012 TB0 S031 333 F/// VG012=
DES AFZA45 2612S 02813E 110746 F065 PS177 330/015 TB0 S031 333 F/// VG012=
DES AFZA45 2611S 02813E 110747 F061 PS190 341/015 TB1 S031 333 F/// VG022=
DES AFZA45 2610S 02813E 110747 F058 PS197 341/013 TB1 S031 333 F/// VG022=
DES AFZA45 2609S 02814E 110748 F054 PS207 350/014 TB1 S031 333 F/// VG022=
0000050700
698
UDAF01 FAPR 110748
AMDAR 1107
UNS AFZA45 2634S 02833E 110739 F139 MS007 276/023 TB0 S031 333 F/// VG011=
DES AFZA45 2631S 02828E 110740 F119 PS050 262/017 TB0 S031 333 F/// VG012=
DES AFZA45 2629S 02826E 110741 F111 PS072 273/012 TB0 S031 333 F/// VG012=
DES AFZA45 2627S 02824E 110741 F100 PS097 296/005 TB0 S031 333 F/// VG011=
DES AFZA45 2623S 02819E 110743 F082 PS148 046/000 TB0 S031 333 F/// VG012=
DES AFZA45 2612S 02813E 110746 F065 PS177 330/015 TB0 S031 333 F/// VG012=
0000045500
699
SNVD01 PANC 110800 RRA
BBXX
WNGW 11084 99586 71394
41498 62910 10039 2//// 49895 57020 7//11 85773
22233 0//// 21003 3//// 4//// 5//// 6//// 8//// ICE 0/0//=
C6FR5 11083 99166 70623
41797 31126 10210 2//// 40160 54/// 7//22 8318/
22273 00270 20404 308// 40803 5//// 6//// 8//// ICE 0/0//=
WYM9567 11084 99605 71457
41998 29900 11011 2//// 49908 57013 70200 80///
22200 0//// 20000 3//// 40000 50000 6//// 8//// ICE /////=
0000012800
700
SSVX07 KARS 110747
ZZYY 48733 11014 0720/ 772964 152377 6113/
11119 11256 40055
444 20130 11014 0644/ 504//=
0000019800
701
SSVX08 KARS 110747
ZZYY 48400 10014 12004 750144 144847 6111/
11119 01126 10064 29092
22219 00091
33311 88872 20000 30912 20001 30906 43226
444 20110 10014 1218/ 521// 60401=
0000011100
702
UANT01 CWAO 110748
ARP UPS210 6025N04327W 0748 F340 MS59 218/29 KT
N359UP QXS UAK 110748 F57A
0000011000
703
UANT01 CWAO 110749
ARP DLH415 5200N02952W 0748 F390 MS55 202/59 KT
DAIKE QXT EUA 110749 J98A
0000028800
704
SSVX02 LFVW 110749
ZZYY 41646 11014 0733/ 729250 061083 6112/
22219 00234
33311 88872 20000 32339 43668
444 2012/ 11014 0713/ 50101 9/015=
ZZYY 41644 11014 0732/ 730949 039741 6112/
22219 00217
33311 88872 20000 32174 43644
444 2012/ 11014 0730/ 50101 9/015=
0000012700
705
SNIY20 LIIB 110700 RRA
AAXX 11074
16219 42965 52807 10028 21007 38157 48541 54000 80001 333 55300
      95140=
00000000