0000073000
686
USAA01 NZCM 110000
TTAA 61001 89664
99997 00056 18501 00512 ///// ///// 92601 07158 18518
85255 11341 17017 70716 21114 15006 50514 33959 24513
40666 44759 24520 30855 51765 24023 25975 45585 24514
20124 43786 24513 15318 43586 26009 10592 41586 23504
88320 52361 23026
77999
31313 48008 82219=

0000069700
87361=
0000011200
87368=
0000015000
87382
0000012800
87386
0000045600
87406
0000047700
87410=
0000049900
87467
0000047900
87475
0000047900
87491
0000056200
87512
0000054200
87550
0000058400
87597
0000062500
87670
0000054300
87796
0000062600
87990=
0000071000
89393
0000071000
90046
0000064900
91055
0000012900
92344
0000068900
687
USAA01 NZCM 110000
TTAA 61001 89664
99997 00056 18501 00512 ///// ///// 92601 07158 18518
85255 11341 17017 70716 21114 15006 50514 33959 24513
40666 44759 24520 30855 51765 24023 25975 45585 24514
20124 43786 24513 15318 43586 26009 10592 41586 23504
88320 52361 23026
77999
31313 48008 82219=

0000069700
87361=
0000011200
87368=
0000015000
87382
0000012800
87386
0000045600
87406=
0000047800
87429=
0000005900
87506
0000058300
87508
0000054200
87566
0000056300
87622
0000052200
87672
0000054300
87803
0000062600
87992=
0000071000
89408
0000054500
90066
0000069000
91098
0000077300
92393
0000073000
688
USAA01 NZCM 110000
TTAA 61001 89664
99997 00056 18501 00512 ///// ///// 92601 07158 18518
85255 11341 17017 70716 21114 15006 50514 33959 24513
40666 44759 24520 30855 51765 24023 25975 45585 24514
20124 43786 24513 15318 43586 26009 10592 41586 23504
88320 52361 23026
77999
31313 48008 82219=

0000069700
87361=
0000011200
87368=
0000015000
87382
0000012800
87386
0000045600
87406
0000047700
87410
0000049800
87416
0000051900
87420=
0000047900
87502
0000013400
87528
0000052100
87563
0000054200
87615
0000064600
87668
0000064600
87793
0000058500
87991
0000064700
88185=
0000060700
90090
0000058700
91099
0000062800
92395
0000068900
689
USAA01 NZCM 110000
TTAA 61001 89664
99997 00056 18501 00512 ///// ///// 92601 07158 18518
85255 11341 17017 70716 21114 15006 50514 33959 24513
40666 44759 24520 30855 51765 24023 25975 45585 24514
20124 43786 24513 15318 43586 26009 10592 41586 23504
88320 52361 23026
77999
31313 48008 82219=

0000069700
87361=
0000011200
87368=
0000015000
87382
0000012800
87386
0000045600
87406=
0000047800
87429
0000015700
87445
0000049900
87465=
0000054200
87575
0000062500
87617
0000062500
87660
0000064600
87787
0000062600
87967
0000058500
88194=
0000071000
90096
0000058700
91104
0000064900
92397
0000062700
690
USAA01 NZCM 110000
TTAA 61001 89664
99997 00056 18501 00512 ///// ///// 92601 07158 18518
85255 11341 17017 70716 21114 15006 50514 33959 24513
40666 44759 24520 30855 51765 24023 25975 45585 24514
20124 43786 24513 15318 43586 26009 10592 41586 23504
88320 52361 23026
77999
31313 48008 82219=

0000069700
87361=
0000011200
87368=
0000015000
87382
0000012800
87386
0000045600
87406=
0000047800
87429=
0000005900
87506=
0000058400
87701
0000056400
87813
0000058500
88012
0000056500
88204=
0000062800
90084
0000064900
91097
0000060800
92383
0000066800
691
USAA01 NZCM 110000
TTAA 61001 89664
99997 00056 18501 00512 ///// ///// 92601 07158 18518
85255 11341 17017 70716 21114 15006 50514 33959 24513
40666 44759 24520 30855 51765 24023 25975 45585 24514
20124 43786 24513 15318 43586 26009 10592 41586 23504
88320 52361 23026
77999
31313 48008 82219=

0000069700
87361=
0000011200
87368=
0000015000
87382=
0000030600
87414
0000014800
87423
0000049900
87438
0000052000
87459
0000058200
87471=
0000050100
87587
0000062500
87647
0000060500
87792
0000056400
87970=
0000058600
89391
0000066900
90039
0000058700
91096
0000077300
92391
0000079200
692
USAA01 NZCM 110000
TTAA 61001 89664
99997 00056 18501 00512 ///// ///// 92601 07158 18518
85255 11341 17017 70716 21114 15006 50514 33959 24513
40666 44759 24520 30855 51765 24023 25975 45585 24514
20124 43786 24513 15318 43586 26009 10592 41586 23504
88320 52361 23026
77999
31313 48008 82219=

0000069700
87361=
0000011200
87368
0000009600
87371
0000035800
87378
0000037300
87381
0000039400
87385
0000039400
87407
0000041500
87411
0000014600
87417
0000045700
87421
0000049900
87440
0000052000
87462
0000050000
87472
0000005900
87495
0000058300
87519
0000056300
87548
0000056300
87600
0000062500
87655=
0000062700
88220=
0000066900
90113
0000064900
91111
0000067000
92392
0000073000
693
USAA01 NZCM 110000
TTAA 61001 89664
99997 00056 18501 00512 ///// ///// 92601 07158 18518
85255 11341 17017 70716 21114 15006 50514 33959 24513
40666 44759 24520 30855 51765 24023 25975 45585 24514
20124 43786 24513 15318 43586 26009 10592 41586 23504
88320 52361 23026
77999
31313 48008 82219=

0000069700
87361=
0000011200
87368
0000009600
87371
0000035800
87378
0000037300
87381
0000039400
87385
0000039400
87407
0000041500
87411
0000014600
87417=
0000041700
87480
0000060300
87494
0000052100
87511
0000058300
87573=
0000050200
87874
0000060500
88033=
0000060700
89435
0000062800
90122
0000064900
91117
0000064900
92400
0000079200
694
USAA01 NZCM 110000
TTAA 61001 89664
99997 00056 18501 00512 ///// ///// 92601 07158 18518
85255 11341 17017 70716 21114 15006 50514 33959 24513
40666 44759 24520 30855 51765 24023 25975 45585 24514
20124 43786 24513 15318 43586 26009 10592 41586 23504
88320 52361 23026
77999
31313 48008 82219=

0000069700
87361=
0000011200
87368=
0000015000
87382
0000012800
87386
0000045600
87406
0000047700
87410
0000049800
87416
0000051900
87420
0000047800
87441
0000045800
87463
0000047900
87474
0000054100
87493
0000052100
87509
0000048000
87557
0000050100
87618
0000052200
87680
0000060500
87820
0000068800
87999
0000058500
88171=
0000073100
90069
0000064900
91119
0000071100
92394
0000064700
695
USAA01 NZCM 110000
TTAA 61001 89664
99997 00056 18501 00512 ///// ///// 92601 07158 18518
85255 11341 17017 70716 21114 15006 50514 33959 24513
40666 44759 24520 30855 51765 24023 25975 45585 24514
20124 43786 24513 15318 43586 26009 10592 41586 23504
88320 52361 23026
77999
31313 48008 82219=

0000069700
87361=
0000011200
87368
0000009600
87371
0000035800
87378
0000037300
87381
0000039400
87385=
0000043700
87428=
0000047900
87503=
0000056300
87717
0000060500
87837
0000052300
88011=
0000060700
89414
0000060700
90080
0000064900
91103
0000067000
92396
0000068900
696
USAA01 NZCM 110000
TTAA 61001 89664
99997 00056 18501 00512 ///// ///// 92601 07158 18518
85255 11341 17017 70716 21114 15006 50514 33959 24513
40666 44759 24520 30855 51765 24023 25975 45585 24514
20124 43786 24513 15318 43586 26009 10592 41586 23504
88320 52361 23026
77999
31313 48008 82219=

0000069700
87361=
0000011200
87368=
0000015000
87382
0000012800
87386
0000045600
87406
0000047700
87410
0000049800
87416
0000051900
87420
0000047800
87441=
0000045900
87536
0000052100
87559=
0000054300
87869
0000068800
88016=
0000058600
89429
0000066900
90121
0000064900
91114
0000071100
92399
0000240400
697
SMRS13 RUMS 110000
AAXX 11001
22271 42998 10704 11272 21299 30161 40168 57007 80001=
22292 NIL=
22365 NIL=
22446 41457 80610 11168 21194 39925 40028 58015 78583 8695/ 333 86911
91118=
22520 41494 80610 11066 21078 30007 40016 57005 77373 8872/ 333 88711
91016 91118=
22550 41563 80705 11173 21207 30010 40021 57008 78587 889// 333 88932
91111=
22551 41495 80709 11169 21191 30022 40026 57012 77173 8872/ 333 91011
91114=
22559 41450 80705 11165 21194 39998 40016 57010 77172 8672/ 333 86711
91011 91111=
22573 41313 80303 11190 21223 39982 40078 57010 77377 8872/ 333
88707=
22583 41330 80801 11203 21224 30011 40099 57009 77377 8872/=
22656 41995 80407 11161 21178 39964 49987 57011 77373 8807/ 333
91111=
22648 41396 80404 11144 21158 39914 49963 57013 77177 8872/ 333
88708=
22686 41496 81004 11194 21227 39960 40068 56005 77173 8552/ 333
85612=
22762 41396 80602 11125 21137 39928 49968 57013 77177 8872/ 333
86708=
22768 41396 80705 11098 21110 39885 49943 57016 77173 8872/ 333
86708=
22778 41496 81004 11114 21127 39903 49973 58015 77172 8872/ 333
86713=
22798 41462 80703 11162 21178 39921 40041 57016 77177 885// 333
88616=
22845 41295 80502 10002 20002 39717 49870 57015 77377 8872/ 333
86706=
22854 41236 80704 11038 21050 39604 49890 57018 77374 8872/ 333 87703
91110=
22887 41330 80803 11074 21087 39906 49977 57018 77377 8672/ 333
86707=
23205 42498 20501 11430 21474 30186 40203 50002 82600=
23219 42998 00000 11480 21511 30096 40224 52001=
23226 41950 01902 11403 21438 39957 40211 52004 70500=
23305 42984 50202 11374 21407 30170 40199 51001 80005=
23418 41920 23402 11387 21413 30094 40181 57002 71011 80001 333
93402=
23518 NIL=
23606 42960 80202 11286 21316 39950 40145 57012 8807/ 333 93400=
23701 41481 80604 11214 21238 39954 40094 56012 70273 8802/ 333
88519=
23711 42998 53501 11293 21323 39947 40138 57006 80001=
23804 41497 80702 11151 21168 39894 40047 57015 77172 885// 333
88610=
27037 41497 81403 10001 20001 39688 49847 57018 77172 8872/ 333
86710=
27199 41398 81404 10002 21009 39811 40006 57023 70272 8672/ 333 91007
91107=
27271 41494 81406 10003 20003 39773 49926 57039 77373 8872/ 333 91010
91112=
27459 41397 81703 10005 21001 39722 49914 57033 77172 8872/ 333 91008
91111=
27730 41496 82103 10008 20005 39718 49909 57016 71072 885//=
0000399300
698
SMKZ01 UAAA 110000
AAXX 11001
28676 415// 81904 11067 21095 30072 40202 58006 78582 889// 555  
1/107=
28766 414// 82104 11074 21095 39994 40189 57006 77173 8802/ 555  
1/108=
28867 41598 81803 11082 21109 39901 40180 57013 70373 885// 555  
1/108=
28879 415// 81804 11081 21099 39930 40227 54000 77172 8653/ 555  
1/109=
28952 419// 81808 11072 21097 39967 40163 57009 77173 8802/ 555  
1/108=
28966 415// 81606 11076 21102 39914 40206 57008 77173 8802/ 555  
1/110=
29802 415// 82004 11087 21111 30131 40281 52007 70272 84501 555  
1/110=
29807 425// 82202 11083 21106 30156 40279 58002 885// 555   1/111=
34691 42998 82701 11010 21032 30155 40142 58011 8807/ 555   1/101=
35067 419// 81905 11076 21102 39923 40207 57008 77173 8802/ 555  
1/107=
35078 416// 81707 11091 21107 39846 40239 57009 77173 8652/ 555  
1/110=
35085 415// 81805 11104 21126 39771 40268 57013 70232 885// 555  
1/111=
35108 425// 82602 10005 21012 30063 40109 58002 885//=
35188 415// 82003 11083 21108 39828 40278 57016 77173 885// 555  
1/109=
35217 414// 82705 10001 21004 30083 40123 52006 70244 8802/ 555  
1/101=
35229 415// 82402 11006 21012 39841 40113 52007 71072 885// 555  
1/101=
35302 425// 82902 10005 21006 30103 40122 54000 885// 555   1/000=
35357 425// 81805 11082 21114 39808 40258 57018 885// 555   1/109=
35394 41997 81602 11119 21145 39611 40324 57013 77172 8802/ 555  
1/111=
35406 425// 82504 10006 21002 30139 40141 52002 885// 555   1/100=
35416 414// 82604 10000 21006 30013 40133 51008 72875 886// 555  
1/000=
35426 415// 82403 11004 21019 39838 40129 58008 70273 885// 555  
1/101=
35497 429// 31102 11169 21200 39488 40345 57014 80002 555   1/124=
35532 41596 82507 11023 21038 39645 40137 53002 77173 8802/ 555  
1/103=
35671 42998 81503 11077 21087 39822 40266 57013 8807/ 555   1/108=
35700 42598 82003 10015 21005 30187 40163 58004 885// 555   11100=
35746 414// 81806 11038 21050 77177 8802/ 555   1/105=
35796 42997 80406 11186 21205 39901 40374 57018 80007 555   1/120=
35849 42998 81903 11050 21071 30110 40198 57011 8807/ 555   1/105=
35925 415// 82702 10008 21005 30077 40189 53006 70252 886// 555  
1/101=
35953 425// 81605 11026 21045 30086 40218 57020 885// 555   1/104=
35969 429// 00901 11147 21181 30107 40293 57008 555   1/116=
36003 41598 82302 11079 21111 30154 40311 52002 70372 889// 555  
1/110=
36152 425// 71503 11123 21149 30143 40342 54000 85502 555   1/114=
36177 429// 71302 11115 21143 30108 40368 58003 85031 555   1/111=
36208 429// 70301 11087 21124 39363 40383 58002 83035 555   1/113=
36397 429// 81612 11136 21197 39783 40380 57008 8807/ 555   1/114=
36428 429// 20000 11227 21241 39899 40452 56005 80001 333   95090
555   1/126=
36535 429// 60000 11227 21248 39762 40461 57009 86030 555   1/125=
36639 429// 20000 11256 21271 39743 40419 57013 80001 555   1/130=
36821 419// 00000 11189 21199 39825 40358 57019 71000 333   91106=
36859 429// 00000 11152 21179 39558 40400 57019 333   91105 555  
1/119 =
36864 429// 00000 11186 21212 39400 40377 57030 555   91102=
36870 429// 00000 11103 21140 39264 40329 57020 333   91103 555  
1/117 =
38001 42997 30503 10020 21014 30210 40180 57011 83030 555   10001=
38062 425// 81803 11037 21055 30071 40238 57018 885// 555   1/106=
38069 429// 01404 11071 21109 555   1/108=
38196 42698 83402 10003 21120 39274 40264 57017 885//=
38198 429// 01502 11101 21121 30010 40284 57019 555   1/113=
38222 42997 00000 11147 21174 39728 40328 57021 555   1/117=
38232 42998 00000 11009 21024 30112 40213 57003 555   14104=
38328 429// 61303 11005 21109 39525 40268 57017 80003 555   1/109=
38334 42997 20803 11034 21124 39294 40283 57017 80001 555   1/110=
38341 42997 71702 11080 21136 39479 40302 57022 80007 555   1/112
91106=
38343 42997 02001 11113 21141 39425 40319 57029=
38439 41996 01203 11055 21073 39922 40275 57015 71011 555   14107=
0000336600
699
SMRS11 RUMS 110000
AAXX 11001
20107 42297 82003 11007 21044 39992 40088 52005 886// 333 85704
91005=
22003 41496 72008 11069 21085 30147 40161 54000 78583 87900 333 91010
91110 91009 91110=
22004 42984 00000 11236 21264 30064 40192 52003 333 93506=
22100 43/// /0000 11388 21432 30038 40208 5////=
22140 41597 60909 11109 21131 30134 40150 58002 70282 86500 333 91012
91113=
22113 42980 71903 11273 21306 30114 40186 54000 80001 333 91004
93549=
22193 42997 01703 11190 21206 30178 40189 54001=
22212 42981 03501 11233 21265 39991 40173 52003 333 91003 93509=
22213 42984 10201 11238 21262 39971 40156 52002 80001 333 91002
93501=
22217 42984 00103 11190 21217 30109 40143 53006 333 91005=
22235 42/// /0502 11198 21215 39930 40143 56005 333 91004=
22249 42/// /0703 11174 21196 39934 40135 57006 333 91007 91111=
22312 42/// /0507 11147 21184 30097 40120 52003 333 91012 91114=
22334 NIL=
22349 41495 70512 11123 21134 30069 40080 58006 78583 87900 333 91016
91118=
22361 NIL=
22383 42997 70902 11261 21300 30146 40165 57002 80008=
22408 41356 80204 11126 21153 39902 40059 52004 77173 8572/ 333 85708
91111=
22429 41496 80608 11083 21101 30006 40015 57006 78583 889// 333 86918
91017 91118=
22456 NIL=
22481 41496 80804 11219 21244 30061 40113 57009 78582 889// 333 88919
91010 91110=
22546 41496 80704 11171 21192 30013 40024 57006 77173 8672/ 333 85710
91111=
22602 41459 70203 11092 21103 39764 49996 52005 77073 87500 333 87614
91111=
22619 41240 80404 11121 21141 39806 49973 53001 77373 8872/ 333 87706
91110=
22638 NIL=
22671 41895 80503 11176 21197 39940 40024 57013 77377 8802/=
22721 41494 83201 11134 21161 39847 49953 54000 77373 8802/ 333 88516
93629=
22749 41396 80504 11091 21100 39780 49907 57014 77172 8872/ 333
88709=
22802 41965 83605 11080 21112 39900 49924 52017 77187 8802/ 333
91110=
22820 41216 83503 11105 21111 39764 49906 53005 77372 8872/ 333 87704
93703=
22869 41497 80805 11001 21001 39765 49911 57032 77172 8872/ 333
86511=
22876 41496 80905 11104 21110 39899 49976 58019 78583 889// 333
88916=
22889 42/// /0804 11066 21067 39904 49992 57023=
22951 41225 81004 11002 21002 39589 49865 57022 77372 8872/ 333
88703=
22983 41465 81102 11025 21028 39874 49979 57022 77172 8802/ 333 91003
91106=
26059 41496 83304 11013 21024 39863 49888 53034 77172 8872/ 333 87518
93701=
26063 41497 73604 11024 21046 39865 49872 52030 72272 87500 333 87618
91111=
26094 41/03 90000 10007 20007 39744 49818 53003 76854 333 96045=
26157 41597 83305 11005 21014 39851 49901 52041 72682 883// 333 91010
91112=
26167 42/// /3304 10004 21002 39747 49857 52028=
26258 41597 83203 10009 20004 39829 49884 52039 78082 889// 333
91110=
26298 41496 82002 10019 20017 39602 49827 57006 71022 886//=
26359 41461 83206 10016 20002 39743 49875 52028 78582 889// 333 91011
91113=
26456 41597 82904 10024 20019 39764 49883 52036 76166 8872/ 333
91110=
26702 41597 72702 10045 20015 30028 40055 52016 70282 87500 333 91006
91107=
26711 42497 72705 10033 21002 30000 40038 52018 87800 333 91010
91110=
26781 41497 82503 10018 20010 39600 49889 57004 70262 8802/ 333
88513=
27208 41294 71902 10022 20020 39663 49835 57007 71076 87600=
27402 42597 71701 10031 20020 39670 49845 57010 87500 333 87623=
0000110400
700
SMTA10 UTDD 110000
AAXX 11001
38598 425// 80910 11034 21051 40317 57020 886//=
38599 41995 40707 11034 21065 39768 40307 57011 71041 80001=
38705 429// 80502 11047 21078 39078 48540 58007 82031=
38713 42984 21402 11066 21137 39071 48510 56009 80001=
38715 429// 01814 11164 21244 36910 47040 57004=
38718 429// 00000 11148 21175 37857 48600 57003=
38719 NIL=
38725 429// 00000 11130 21224 37804 48570 58013=
38734 429// 00901 11170 21230 37498 47070 58008=
38744 429// 00000 11193 21205 38097 48640 58003=
38836 NIL=
38838 425// 80000 11047 21050 39664 40276 52004 889//=
38844 429// 00503 11112 21171 48520 56004=
38846 419// 00505 11116 21121 38549 48510 57006 71000=
38847 NIL=
38851 429// 01207 11071 21146 48600 58002=
38856 429// 00000 11047 21083 38843 48600 51003=
38869 NIL=
38875 NIL=
38878 NIL=
38932 NIL=
38933 429// 00000 11036 21053 39781 40323 57017=
38944 429// 00000 11060 21068 39701 40268 52002=
38947 NIL=
38951 NIL=
38954 429// 00000 11086 21151 38006 48620 52006=
38957 429// 00000 11154 21166 37586 47900 52006=
0000066800
701
USAA01 NZCM 110000
TTAA 61001 89664
99997 00056 18501 00512 ///// ///// 92601 07158 18518
85255 11341 17017 70716 21114 15006 50514 33959 24513
40666 44759 24520 30855 51765 24023 25975 45585 24514
20124 43786 24513 15318 43586 26009 10592 41586 23504
88320 52361 23026
77999
31313 48008 82219=

0000069700
87361=
0000011200
87368
0000009600
87371
0000035800
87378
0000037300
87381
0000039400
87385=
0000043700
87428
0000047800
87442
0000056100
87461=
0000021900
87579=
0000050200
87870
0000054300
88010=
0000056600
89419
0000064800
90091
0000073100
91106
0000064900
92401
0000066800
702
USAA01 NZCM 110000
TTAA 61001 89664
99997 00056 18501 00512 ///// ///// 92601 07158 18518
85255 11341 17017 70716 21114 15006 50514 33959 24513
40666 44759 24520 30855 51765 24023 25975 45585 24514
20124 43786 24513 15318 43586 26009 10592 41586 23504
88320 52361 23026
77999
31313 48008 82219=

0000069700
87361=
0000011200
87368
0000009600
87371
0000035800
87378
0000037300
87381
0000039400
87385=
0000043700
87428
0000047800
87442
0000056100
87461=
0000021900
87579=
0000050200
87870
0000054300
88010
0000064700
88198=
0000060700
90087
0000062800
91094
0000064900
92402
0000013400
703
SMUR10 UKMS 110000 CCC
AAXX 11001
34504 /1497 82705 10032 20027 39880 40059 52009 70182 8336/
333 83918 555 60021=
0000013400
704
SMUR10 UKMS 110000 CCD
AAXX 11001
34504 /1497 82705 10032 20027 39880 40059 52009 70186 8336/
333 83918 555 60021=
0000066800
705
USAA01 NZCM 110000
TTAA 61001 89664
99997 00056 18501 00512 ///// ///// 92601 07158 18518
85255 11341 17017 70716 21114 15006 50514 33959 24513
40666 44759 24520 30855 51765 24023 25975 45585 24514
20124 43786 24513 15318 43586 26009 10592 41586 23504
88320 52361 23026
77999
31313 48008 82219=

0000069700
87361=
0000011200
87368
0000009600
87371
0000035800
87378
0000037300
87381
0000039400
87385=
0000043700
87428=
0000047900
87503
0000056200
87524
0000048000
87543=
0000056400
87862
0000058500
88014
0000058500
88207=
0000056600
90098
0000069000
91085
0000060800
92372
00000000