0000023000
086
FTCN34 CWAO 110100
TAF CYQT 110138Z 1102/1114 10005KT 1SM -SN BR OVC008 TEMPO 1102/1110
     3SM -FZDZ BR OVC010
    FM111000 25005KT P6SM OVC030 TEMPO 1111/1113 5SM -SN OVC015
    RMK NXT FCST BY 110800Z=

0000023800
087
FTCN34 CWAO 110100
TAF CYGQ 110138Z 1102/1114 20012KT 6SM -SN OVC006 TEMPO 1102/1104 5SM
     -SN OVC009
    FM110400 20005KT 2SM -SN BR OVC006 TEMPO 1104/1114 6SM -SN BR
     OVC009
    RMK NXT FCST BY 110800Z=

0000022600
088
FTCN35 CWAO 110100
TAF CYYU 110138Z 1102/1114 16010KT P6SM -SN OVC012 TEMPO 1102/1107
     5SM -SN OVC008
    FM110700 14007KT 3SM -SN OVC008 TEMPO 1107/1114 1SM -SN OVC005
    RMK NXT FCST BY 110800Z=

0000016200
089
SAUS71 KWBC 110100 RRF
METAR
KLCK 110135Z AUTO 13006KT 10SM OVC037 08/06 A2987=
KPQI 110135Z AUTO 00000KT 10SM FEW090 SCT120 M10/M17 A3023=

0000010000
090
SAUS72 KWBC 110100 RRG
METAR
KBQK 110135Z AUTO 00000KT 10SM SCT011 18/17 A3012=

0000027100
091
SAUS73 KWBC 110100 RRF
METAR
KCIU 110135Z AUTO 11010KT 5SM OVC010 M02/M02 A2974=
KELO 110133Z AUTO 18006KT 10SM OVC011 M04/M06 A2947=
KIKK 110135Z AUTO 17019G23KT 1 1/2SM +RA OVC004 04/04 A2964=
KLBL 110135Z AUTO 28008KT 10SM CLR M01/M11 A2977=

0000009500
092
SAUS74 KWBC 110100 RRD
METAR
KOTH 110135Z 16004KT 10SM OVC024 11/11 A3007=

0000030700
093
SAUS75 KWBC 110100 RRD
METAR
PADK 110136Z AUTO 22028G37KT 10SM SCT033 BKN041 BKN060 04/M02
     A2883=
PAGS 110136Z AUTO 00000KT 10SM SCT018 BKN026 OVC042 02/00
     A2940=
PAUN 110136Z AUTO 09011KT 10SM CLR M15/M21 A2959=
PAVD 110136Z 10SM FEW015 FEW090 BKN120 M06/M06 A2933=

0000024500
094
SAAO32 GOOY 110130
METAR GABS 110130Z 04002KT CAVOK 20/08 Q1013 NOSIG=
METAR GAGO 110130Z NIL=
METAR GAKY 110130Z NIL=
METAR GAKL 110130Z NIL=
METAR GAMB 110130Z NIL=
METAR GANR 110130Z NIL=
METAR GATB 110130Z NIL=

0000041800
095
FTCN35 CWAO 110100
TAF CYAM 110140Z 1102/1114 11008KT 6SM BR OVC010 TEMPO 1102/1105 2SM
     -SN BR OVC005 PROB30 1102/1105 1SM -FZDZ BR
    FM110500 10008KT 1SM -SN BR OVC004 TEMPO 1105/1109 3SM -SN BR
     OVC008 PROB30 1105/1109 2SM -FZRA -PL BR
    FM110900 08005KT 1SM -RA BR OVC004 TEMPO 1109/1114 1/2SM -DZ FG
     VV002
     BECMG 1112/1114 24005KT
    RMK NXT FCST BY 110800Z=

0000037100
096
FTCN35 CWAO 110100
TAF CYSB 110140Z 1102/1114 16012KT 1/2SM -FZDZ FZFG VV001 TEMPO
     1102/1104 1SM -SN BR OVC002
    FM110400 16012KT 1SM -SN BR OVC002 TEMPO 1104/1109 1/2SM -SN FZFG
     VV001 PROB30 1106/1109 2SM -FZRA -PL BR
    FM110900 16012KT 1/2SM -RA FZFG VV001 TEMPO 1109/1114 1SM -RA BR
     OVC002
    RMK NXT FCST BY 110800Z=

0000038900
097
FTCN35 CWAO 110100
TAF CYYB 110140Z 1102/1114 16008KT 3SM -SN BR OVC005 TEMPO 1102/1105
     P6SM NSW OVC006 PROB30 1102/1105 2SM -FZDZ BR
    FM110500 14008KT 1SM -SN BR OVC004 TEMPO 1105/1109 3SM -SN OVC006
     PROB40 1105/1109 2SM -FZRA -PL BR
    FM110900 14012KT 11/2SM -RA BR OVC004 TEMPO 1109/1114 1/2SM -RA
     FG VV002
    RMK NXT FCST BY 110800Z=

0000011900
098
SPUS43 KWBC 110037
SPECI
KDSM 110033Z 32004KT 1/2SM R31/2200FT -DZ FG BKN004 OVC013 01/00
A2954=

0000009700
099
SPPR00 SPIM 110140
SPECI SPQU 110140Z 11006KT 9999 SCT020 SCT040 12/11 Q1025 =

0000015400
100
FTCN36 CWAO 110100
TAF CYKL 110141Z 1102/1114 FCST NOT AVBL DUE WND SENSOR INOPV
    RMK FCST BASED ON AUTO OBS. NXT FCST BY 110800Z=

0000027500
101
FTCN36 CWAO 110100
TAF CYBX 110141Z 1102/1114 28010KT P6SM FEW020 SCT070 TEMPO 1102/1104
     4SM -SN BKN070
    FM110400 26012KT P6SM SCT020 OVC040 TEMPO 1104/1111 2SM -SN
     OVC020
    FM111100 25008KT P6SM SCT050
    RMK NXT FCST BY 110800Z=

0000034400
102
FTCN38 CWAO 110100
TAF CYCA 110141Z 1102/1114 ADVISORY OFFSITE 22010G20KT P6SM -SN
     SCT015 OVC040 TEMPO 1102/1104 4SM -SN OVC015
    FM110400 22015KT P6SM FEW020 SCT040 TEMPO 1104/1106 5SM -SN
     BKN040
    FM111100 22012KT P6SM FEW020 SCT040 TEMPO 1111/1114 5SM -SN
     BKN030
    RMK NXT FCST BY 110800Z=

0000015700
103
FTCN36 CWAO 110100
TAF CYWK 110141Z 1102/1114 23010KT P6SM -SN OVC050 TEMPO 1102/1114
     4SM -SN OVC030
    RMK NXT FCST BY 110800Z=

0000031700
104
FTCN38 CWAO 110100
TAF CZUM 110141Z 1102/1114 24010G20KT P6SM BKN030 OVC080 TEMPO
     1102/1111 5SM -SN BKN020
    FM111100 24010G20KT P6SM SCT030 TEMPO 1111/1113 BKN030
    FM111300 24010G20KT P6SM BKN030 TEMPO 1113/1114 5SM -SN BKN020
    RMK FCST BASED ON AUTO OBS. NXT FCST BY 110800Z=

0000019900
105
FTCN38 CWAO 110100
TAF CYMH 110141Z 1102/1104 24010KT P6SM FEW020 OVC160 TEMPO 1102/1104
     4SM -SN OVC060
    RMK FCST BASED ON AUTO OBS. NXT FCST WILL BE ISSUED AT 110945Z=

00000000