0000013200
066
SIVD02 CWAO 110900
BBXX
SHIP 11094 99463 70725 46/// /0105 11056 21073 40180 58034 7//// 8//// 22200 0//// 2//// =
0000013200
067
SIVD02 CWAO 110900
BBXX
SHIP 11094 99121 70689 46/// /1106 10254 20217 40138 55003 7//// 8//// 22200 0//// 2//// =
0000013200
068
SIVD02 CWAO 110900
BBXX
SHIP 11094 99488 70676 46/// /1606 11054 21087 40204 58005 7//// 8//// 22200 0//// 2//// =
0000013200
069
SIVD02 CWAO 110900
BBXX
SHIP 11094 99539 10077 46/// /2610 10082 20080 40087 58007 7//// 8//// 22223 00072 2//// =
0000013200
070
SIVD02 CWAO 110900
BBXX
SHIP 11094 99446 70623 46/// /2414 10021 20013 40269 50009 7//// 8//// 22224 0//// 2//// =
0000013200
071
SIVD02 CWAO 110900
BBXX
SHIP 11094 99489 70580 46/// /1207 11046 21084 4//// 50365 7//// 8//// 22200 0//// 2//// =
0000013200
072
SIVD02 CWAO 110900
BBXX
SHIP 11094 99468 70712 46/// /0505 11049 21066 40202 58028 7//// 8//// 22200 0//// 2//// =
0000020300
073
FTIN90 VABB 110900
TAF VABB 110900Z 1112/1218 32009KT 3000 FU NSC BECMG 1116/1118
02006KT BECMG 1122/1124 33006KT BECMG 1201/1203 00000KT BECMG
1204/1206 33003KT BECMG 1216/1218 02006KT=

0000010400
074
SIIN90 VAAU 110900
AAXX 11094
43014 32996 02303 10266 20071 39468 40104
  333 58010=
0000008300
075
SAIN90 VAAU 110900
METAR VAAU 110900Z 23003KT 6000 NSC 27/07 Q1014=
0000010400
076
SIIN90 VECC 110900
AAXX 11094
42809 31995 03602 10260 20143 40146 70500
  333 58002=
0000996800
077
SNIN01 DEMS 110800
OOXX
  ADI 11084 99104 10794 06509 00062 26/// /1201 10302 2//// 30120 40127 5//// 6//// 7//// 8//// 9////   333 55/// ///// 58006 6000/   555 6//// =
  AGU 11084 99135 10751 06535 06502 26/// /2606 10281 20126 39403 40111 5//// 6//// 7//// 8//// 9////   333 55/// ///// 58000 6000/   555 6//// =
  AHM 11084 99231 10726 10132 00552 26/// /0905 10/// 29000 3//// 4//// 5//// 6//// 7//// 8//// 9////   333 55/// ///// 58/// 6////   555 6//// =
  AMA 11084 99191 10847 06494 00102 26/// /0001 10290 20285 30128 40139 5//// 6//// 7//// 8//// 9////   333 55/// ///// 58004 6000/   555 6//// =
  BNG 11084 99130 10776 06537 09212 26/// /1202 10276 20071 39106 48526 5//// 6//// 7//// 8//// 9////   333 55/// ///// 58004 6000/   555 6//// =
  BPT 11084 99159 10805 06450 00082 26/// /1106 10277 20227 30134 40143 5//// 6//// 7//// 8//// 9////   333 55/// ///// 58007 6000/   555 6//// =
  BHJ 11084 99232 10697 10239 01202 26/// /3408 10200 20200 30043 40184 5//// 6//// 7//// 8//// 9////   333 55/// ///// 58022 6000/   555 6//// =
  BDL 11084 99274 10958 09975 24842 26/// /1605 10078 20451 37556 47110 5//// 6//// 7//// 8//// 9////   333 55/// ///// 58007 6000/   555 6//// =
  BRG 11084 99198 10857 06495 00022 26/// /0001 10296 20245 30155 40158 5//// 6//// 7//// 8//// 9////   333 55/// ///// 58000 6////   555 6//// =
  CAN 11084 99222 10887 10028 00042 26/// /0702 10252 20122 30149 40154 5//// 6//// 7//// 8//// 9////   333 55/// ///// 58/// 6000/   555 6//// =
  CHP 11084 99214 10870 10017 00062 26/// /3602 10464 20425 39959 49965 5//// 6//// 7//// 8//// 9////   333 55/// ///// 58000 6////   555 6//// =
  CHG 11084 99271 10957 09975 05002 26/// /0001 10/// 29050 39655 4//// 5//// 6//// 7//// 8//// 9////   333 55/// ///// 58007 6000/   555 6//// =
  CHN 11084 99131 10802 06430 00092 26/// /0802 10289 20207 30131 40141 5//// 6//// 7//// 8//// 9////   333 55/// ///// 58007 6000/   555 6//// =
  CDM 11084 99114 10797 06519 00052 26/// /0404 10300 20254 30128 40134 5//// 6//// 7//// 8//// 9////   333 55/// ///// 58005 6000/   555 6//// =
  DPZ 11084 99278 10942 09974 03002 26/// /0502 10212 20104 39851 40196 5//// 6//// 7//// 8//// 9////   333 55/// ///// 58008 6000/   555 6//// =
  DRS 11084 99158 10796 06559 01262 26/// /0102 10285 20195 39998 40140 5//// 6//// 7//// 8//// 9////   333 55/// ///// 58006 6000/   555 6//// =
  DVD 11084 99164 10734 06563 00442 26/// /0506 10261 20261 30079 40129 5//// 6//// 7//// 8//// 9////   333 55/// ///// 58009 6000/   555 6//// =
  DMR 11084 99268 10947 09964 01602 26/// /0803 10242 20109 39961 40145 5//// 6//// 7//// 8//// 9////   333 55/// ///// 58003 6000/   555 6//// =
  DWK 11084 99224 10691 10229 00112 26/// ///// 10/// 29/// 3//// 4//// 5//// 6//// 7//// 8//// 9////   333 55/// ///// 58/// 6////   555 6//// =
  GTK 11084 99273 10886 10078 13222 26/// /36// 10310 20286 38767 48599 5//// 6//// 7//// 8//// 9////   333 55/// ///// 58009 6000/   555 6//// =
  GOA 11084 99154 10738 06553 00562 26/// /2904 10289 20179 30061 40124 5//// 6//// 7//// 8//// 9////   333 55/// ///// 58008 6000/   555 6//// =
  GWH 11084 99261 10916 09961 00542 26/// ///// 10/// 29062 39630 4//// 5//// 6//// 7//// 8//// 9////   333 55/// ///// 59036 6000/   555 6//// =
  GWL 11084 99262 10782 10168 02072 26/// /0000 10185 20079 39939 40181 5//// 6//// 7//// 8//// 9////   333 55/// ///// 58021 6000/   555 6//// =
  HNM 11084 99296 10744 10194 01802 26/// ///// 10/// 29/// 3//// 4//// 5//// 6//// 7//// 8//// 9////   333 55/// ///// 58/// 6////   555 6//// =
  HSM 11084 99267 10894 10069 01092 26/// /24// 10187 20134 30050 40178 5//// 6//// 7//// 8//// 9////   333 55/// ///// 58015 6000/   555 6//// =
  IND 11084 99227 10758 10125 05672 26/// /0000 10167 20159 39514 40163 5//// 6//// 7//// 8//// 9////   333 55/// ///// 58027 6000/   555 6//// =
  JDP 11084 99263 10730 10163 02172 26/// /04// 10199 20009 39928 40181 5//// 6//// 7//// 8//// 9////   333 55/// ///// 58047 6000/   555 6//// =
  JTH 11084 99306 10796 13709 18752 26/// ///04 10094 20/// 3//// 40/// 5//// 6//// 7//// 8//// 9////   333 55/// ///// 58/// 6////   555 6//// =
  KLV 11084 99129 10794 06529 01382 26/// /0802 10298 20177 39978 40132 5//// 6//// 7//// 8//// 9////   333 55/// ///// 58008 6000/   555 6//// =
  KPK 11084 99109 10798 06509 00032 26/// ///// 10279 20224 30129 40132 5//// 6//// 7//// 8//// 9////   333 55/// ///// 58006 6000/   555 6//// =
  KVL 11084 99149 10800 06540 00242 26/// /1506 10290 20218 30116 40144 5//// 6//// 7//// 8//// 9////   333 55/// ///// 58007 6000/   555 6//// =
  KHM 11084 99256 10941 09954 14202 26/// /3104 10149 20077 38593 48509 5//// 6//// 7//// 8//// 9////   333 55/// ///// 58009 6000/   555 6//// =
  KOL 11084 99227 10884 10028 00062 26/// /3403 10261 20146 30146 40153 5//// 6//// 7//// 8//// 9////   333 55/// ///// 58002 6000/   555 6//// =
  KTR 11084 99090 10767 02996 00752 26/// /1201 10339 20169 30031 40114 5//// 6//// 7//// 8//// 9////   333 55/// ///// 58006 6000/   555 6//// =
  LKN 11084 99269 10809 10060 01112 26/// /1203 10161 20/// 3//// 4//// 5//// 6//// 7//// 8//// 9////   333 55/// ///// 58/// 6////   555 6//// =
  MBL 11084 99180 10737 06583 13842 26/// /2305 10213 20093 38635 48520 5//// 6//// 7//// 8//// 9////   333 55/// ///// 59002 6000/   555 6//// =
  MHV 11084 99211 10718 10111 00092 26/// /0000 10235 20/// 30129 40139 5//// 6//// 7//// 8//// 9////   333 55/// ///// 58011 6////   555 6//// =
  MLM 11084 99121 10796 06429 00572 26/// /0605 10294 20192 30066 40130 5//// 6//// 7//// 8//// 9////   333 55/// ///// 58009 6000/   555 6//// =
  MTR 11084 99275 10777 10177 01742 26/// ///00 10173 2//// 39986 40191 5//// 6//// 7//// 8//// 9////   333 55/// ///// 58021 6000/   555 6//// =
  MNY 11084 99083 10732 02983 00022 26/// /0501 10313 20259 30130 40132 5//// 6//// 7//// 8//// 9////   333 55/// ///// 58004 6000/   555 6//// =
  COL 11084 99189 10728 06582 00112 26/// /3402 10235 20092 30125 40138 5//// 6//// 7//// 8//// 9////   333 55/// ///// 58005 6000/   555 6//// =
  SCZ 11084 99191 10728 06592 00152 26/// /3005 10255 20077 30121 40138 5//// 6//// 7//// 8//// 9////   333 55/// ///// 58006 6000/   555 6//// =
  MRD 11084 99183 10730 06583 00032 26/// /3003 10256 2//// 30129 40132 5//// 6//// 7//// 8//// 9////   333 55/// ///// 58004 6000/   555 6//// =
  NSR 11084 99164 10817 06461 00042 26/// /2901 10293 20320 30141 40146 5//// 6//// 7//// 8//// 9////   333 55/// ///// 58008 6000/   555 6//// =
  NSK 11084 99200 10737 06503 06042 26/// /3303 10233 20005 39451 40125 5//// 6//// 7//// 8//// 9////   333 55/// ///// 58003 6////   555 6//// =
  NWP 11084 99208 10826 10002 03512 26/// /0601 10303 20179 39732 40121 5//// 6//// 7//// 8//// 9////   333 55/// ///// 59001 6000/   555 6//// =
  NLR 11084 99144 10800 06540 00142 26/// /0706 10280 20280 30125 40141 5//// 6//// 7//// 8//// 9////   333 55/// ///// 58006 6000/   555 6//// =
  NYR 11084 99082 10773 02987 00522 26/// /2403 10299 20237 30058 40116 5//// 6//// 7//// 8//// 9////   333 55/// ///// 58010 6001/   555 6//// =
  NPR 11084 99200 10861 10006 00152 26/// ///// 10380 20/// 3//// 4//// 5//// 6//// 7//// 8//// 9////   333 55/// ///// 58/// 6////   555 6//// =
  PSN 11084 99185 10738 06583 05772 26/// /2407 10294 20056 39471 40099 5//// 6//// 7//// 8//// 9////   333 55/// ///// 58003 6////   555 6//// =
  PDR 11084 99171 10822 06472 00422 26/// /1303 10270 20270 30098 40146 5//// 6//// 7//// 8//// 9////   333 55/// ///// 58005 6000/   555 6//// =
  PNE 11084 99185 10738 06583 05592 26/// /0605 10277 20087 39499 40112 5//// 6//// 7//// 8//// 9////   333 55/// ///// 58002 6000/   555 6//// =
  RHR 11084 99194 10746 06594 05192 26/// /1002 10244 20/// 3//// 4//// 5//// 6//// 7//// 8//// 9////   333 55/// ///// 58/// 6000/   555 6//// =
  RPR 11084 99212 10817 10011 02952 26/// /07// 10259 20201 39823 40156 5//// 6//// 7//// 8//// 9////   333 55/// ///// 58006 6000/   555 6//// =
  RGN 11084 99185 10738 06583 05982 26/// /1703 10312 20107 39453 40100 5//// 6//// 7//// 8//// 9////   333 55/// ///// 58003 6000/   555 6//// =
  RJK 11084 99223 10708 10120 01272 26/// /0001 10207 20074 30046 40194 5//// 6//// 7//// 8//// 9////   333 55/// ///// 58009 6000/   555 6//// =
  SGL 11084 99218 10880 10018 00032 26/// /2303 10241 20157 30144 40147 5//// 6//// 7//// 8//// 9////   333 55/// ///// 58000 6000/   555 6//// =
  SHR 11084 99137 10802 06430 00062 26/// /1104 10296 20224 30137 40144 5//// 6//// 7//// 8//// 9////   333 55/// ///// 58008 6000/   555 6//// =
  TVR 11084 99108 10750 06505 00232 26/// /0202 10261 20143 30078 40104 5//// 6//// 7//// 8//// 9////   333 55/// ///// 58007 6000/   555 6//// =
  TWG 11084 99276 10919 09971 30102 26/// /1104 10027 20038 37192 47224 5//// 6//// 7//// 8//// 9////   333 55/// ///// 58017 6000/   555 6//// =
  TCN 11084 99085 10792 02989 00042 26/// /0001 10278 20223 30122 40127 5//// 6//// 7//// 8//// 9////   333 55/// ///// 58009 6////   555 6//// =
  TRV 11084 99085 10770 06587 00602 26/// /2705 10314 20253 30074 40141 5//// 6//// 7//// 8//// 9////   333 55/// ///// 58008 6000/   555 6//// =
  TRM 11084 99134 10792 06539 08382 26/// /1202 10257 20224 39216 48545 5//// 6//// 7//// 8//// 9////   333 55/// ///// 58004 6000/   555 6//// =
  TPT 11084 99088 10782 02988 00042 26/// /0408 10288 20233 30122 40126 5//// 6//// 7//// 8//// 9////   333 55/// ///// 58008 6000/   555 6//// =
  UKH 11084 99304 10794 13709 12002 26/// ///// 10152 20/// 38882 48572 5//// 6//// 7//// 8//// 9////   333 55/// ///// 58/// 6000/   555 6//// =
  VDS 11084 99101 10790 06509 02122 26/// /0403 10301 20301 39885 40120 5//// 6//// 7//// 8//// 9////   333 55/// ///// 58009 6000/   555 6//// =
  VZM 11084 99181 10834 06583 00382 26/// /0001 10280 20191 30076 40119 5//// 6//// 7//// 8//// 9////   333 55/// ///// 58003 6000/   555 6//// =
  ZRO 11084 99274 10938 09973 16002 26/// /2902 10153 20015 38418 48517 5//// 6//// 7//// 8//// 9////   333 55/// ///// 58009 6001/   555 6//// =

0000076700
078
FCIN90 VAAH 110900
TAF VAAH 110900Z 1112/1121 05008KT 4000 FU/HZ FEW100 BECMG 1112/1114 02006KT
3000=
TAF VABO 110900Z 1112/1121 05008KT 4000 FU/HZ FEW100 BECMG 1112/1114 02006KT
3000=
TAF VASU 110900Z 1112/1121 02006KT 5000 FU/HZ NSC BECMG 1112/1114 34004KT
4000=
TAF VARK 110900Z 1112/1121 05008KT 5000 FU/HZ NSC BECMG 1112/1114 01006KT
4000=
TAF VAJM 110900Z 1112/1121 02006KT 5000 FU/HZ NSC BECMG 1112/1114 34004KT
4000=
TAF VABV 110900Z 1112/1121 02008KT 5000 FU/HZ FEW100 BECMG 1112/1114 35006KT
4000=
TAF VABJ 110900Z 1112/1121 03005KT 5000 FU/HZ NSC BECMG 1112/1114 01003KT
4000=
TAF VADU 110900Z 1112/1121 02008KT 5000 HZ FEW100 BECMG 1112/1114 34006KT
4000=
TAF VAPR 110900Z 1112/1121 07010KT 5000 HZ NSC BECMG 1112/1114 05008KT
4000=
 
 
 

0000013200
079
SIVD02 CWAO 110900
BBXX
SHIP 11094 99487 71235 46/// /0903 10082 20081 49937 57062 7//// 8//// 22200 0//// 2//// =
0000013200
080
SIVD02 CWAO 110900
BBXX
SHIP 11094 99486 71232 46/// /1528 10096 20083 49942 56055 7//// 8//// 22282 0//// 2//// =
0000013200
081
SIVD02 CWAO 110900
BBXX
SHIP 11094 99471 70595 46/// /2718 11012 21023 40006 52008 7//// 8//// 22253 0//// 2//// =
0000013200
082
SIVD02 CWAO 110900
BBXX
SHIP 11094 99497 70556 46/// /2602 11034 21080 40152 50003 7//// 8//// 22261 00017 2//// =
0000028300
083
SXHW11 KWAL 110905
B15054AA 011090543"
1,140111,08:00:00,3.8,33,5.3,23.6,1014.0,0.00,13.0,
1,140111,08:15:00,2.3,43,4.3,23.3,1013.9,0.00,13.0,
1,140111,08:30:00,4.6,20,6.2,23.1,1014.0,0.00,13.0,
1,140111,08:45:00,5.5,25,7.2,23.4,1014.0,0.00,13.0, 44-0NN 210W
0000065400
084
SABY31 UMMN 110900
METAR UMBB 110900Z 26008G13MPS 9999 SCT028 SCT100 05/01 Q1012
R29/290050 NOSIG=
METAR UMGG 110900Z 28012G16MPS 9999 BKN027 BKN100 04/M01 Q1004
R28/290050 NOSIG=
METAR UMII 110900Z 28007G12MPS P6000 OVC009CB 02/00 Q0997 R23/290150
TEMPO 2000 SHSNRA BKN005=
METAR UMMG 110900Z 27004G07MPS 9000 -SHRA BKN009CB OVC066 04/02 Q1008
R35/290060 NOSIG=
METAR UMMM 110900Z 29007G10MPS 9999 OVC017 01/M02 Q1004 R30/190060
NOSIG RMK QFE734 =
METAR UMMS 110900Z 29006G11MPS 260V320 9999 BKN016 01/M01 Q1004
R31/290060 NOSIG=
METAR UMOO 110900Z 29012G17MPS 9999 BKN023 OVC/// 02/M01 Q1002 R31/29
0067 NOSIG=
0000029500
085
SICY20 LCLK 110900
AAXX 11094
17600 42570 62103 10171 20098 30230 40240 50001 85802
  333 85829 92418=
17601 42681 22808 10168 20067 30205 40236 50001 82500
  90850 333 55310 2//// 82635=
17607 NIL=
17609 42570 12008 10182 20058 30234 40238 50001 81802
  333 81825=
00000000