0000028200
166
SAUK35 EGGY 110250
METAR EGHH 110250Z NIL=
METAR EGKA 110250Z NIL=
METAR EGKB 110250Z NIL=
METAR EGLF 110250Z NIL=
METAR EGMC 110250Z 21008KT 9999 -RA FEW013 SCT027 08/06 Q1013=
METAR EGMD 110250Z NIL=
METAR EGMH 110250Z NIL=
METAR EGTC 110250Z NIL=

0000030400
167
SAUK36 EGGY 110250
METAR EGBE 110250Z NIL=
METAR EGBJ 110250Z NIL=
METAR EGCN 110250Z NIL=
METAR EGSC 110250Z NIL=
METAR EGSD 110250Z NIL=
METAR EGSH 110250Z AUTO 21013KT 9000 -RA FEW007/// SCT035///
    08/07 Q1010 RERA=
METAR EGVN 110250Z NIL=
METAR EGWU 110250Z NIL=

0000029800
168
SAUK37 EGGY 110250
METAR EGAE 110250Z NIL=
METAR EGNC 110250Z NIL=
METAR EGNH 110250Z NIL=
METAR EGNJ 110250Z NIL=
METAR EGNO 110250Z NIL=
METAR EGNR 110250Z NIL=
METAR EGPE 110250Z 21013KT 9999 FEW012 02/M00 Q1005=
METAR EGPI 110250Z NIL=
METAR EGPN 110250Z NIL=

0000044800
169
SAUK38 EGGY 110250
METAR EGEC 110250Z NIL=
METAR EGEO 110250Z NIL=
METAR EGPA 110250Z AUTO 24015KT 9999 FEW023/// SCT041/// 05/02
    Q1002=
METAR EGPC 110250Z AUTO 25009KT 9999 NCD 02/M00 Q1003=
METAR EGPL 110250Z AUTO 28020KT 6000 // FEW014/// BKN018/// 03/02
    Q1007=
METAR EGPM 110250Z AUTO 26011KT 9999 SCT027/// 06/03 Q0998=
METAR EGPO 110250Z AUTO 21010KT 9999 NCD 02/M00 Q1004=
METAR EGPU 110250Z NIL=

0000014100
170
SAVN23 SVBC 110300
METAR SVBC 110300Z 00000KT 9999 FEW010 25/21 Q1012=
METAR SVMT 110300Z NIL=
METAR SVHG 110300Z NIL=

0000041000
171
SASW32 LSSW 110250
METAR LSGC 110250Z AUTO 00000KT CAVOK 01/01 Q1016=
METAR LSGS 110250Z NIL=
METAR LSZG 110250Z AUTO 10001KT 0450 FG VV002 02/02 Q1018=
METAR LSZR 110250Z AUTO 22002KT 1100 R10/0800U BR FEW001 03/02
    Q1019=
METAR LSZS 110250Z NIL=
METAR LSZC 110250Z AUTO VRB01KT 0100 FG VV002 01/01 Q1018=
METAR LSZL 110250Z AUTO 12002KT 9999NDV OVC046 06/05 Q1022 RMK WHT=

0000009500
172
FTUS31 KWBC 110254 AAA
TAF AMD
KLAS 110251Z 1103/1124 VRB06KT P6SM BKN250=

0000034000
173
FTUS74 KWBC 110254 AAA
TAF AMD
KACV 110250Z 1103/1124 12004KT P6SM OVC045
     FM110400 13005KT 4SM BR OVC005
     FM110700 15010KT 4SM BR OVC004
     FM111000 18015G25KT 2SM RA BR OVC004
     FM112100 21009KT 2SM RA BR OVC020
     FM112300 24009KT 3SM BR OVC020=
KLAS 110251Z 1103/1124 VRB06KT P6SM BKN250=

0000028100
174
FTUS73 KWBC 110254
TAF
TAF KRFD 110246Z 1103/1124 18010G18KT 3SM -RA BR OVC004
     FM110400 18012KT 1 1/2SM -DZ BR VCSH OVC004
      TEMPO 1104/1107 1/2SM FG OVC002
     FM110900 26012G18KT P6SM VCSH BKN007 OVC012
     FM111700 27013G21KT P6SM SCT015=

0000078000
175
SASN32 ESWI 110250
METAR ESKN 110250Z 14006KT 4500 -SN SCT009 M03/M04 Q1001
R26/710195=
METAR ESOE 110250Z AUTO 07005KT 7000NDV -PL FEW005/// OVC006///
M02/M03 Q0999 RESN=
METAR ESOK 110250Z AUTO 05004KT 6000 BR OVC007/// M00/M00 Q0997=
METAR ESOW 110250Z AUTO 05004KT 2000NDV -SN FEW018/// M04/M05
Q1001=
METAR ESSA 110250Z 28004KT 3000 -SN VV011 M04/M05 Q1001 R01L/19//71
R08/19//58 R01R/19//68 BECMG 4000=
METAR ESSB 110250Z AUTO VRB01KT 9999NDV SCT008/// BKN011///
OVC021/// M03/M05 Q1001=
METAR ESSD 110250Z AUTO 08004KT 040V110 2100 -SN BKN001/// BKN050///
M07/M09 Q1001=
METAR ESSP 110250Z AUTO 12006KT 7000NDV BR BKN007/// OVC009///
M02/M02 Q1000=
METAR ESSV 110250Z AUTO 26004KT 9999NDV SCT011/// OVC017/// 00/M02
Q1003=

0000037200
176
SAMX31 KWBC 110245 RRB
METAR
MMCZ 110241Z 00000KT 7SM SCT015 20/20 A3001 RMK SLP170 52032 980
     8/100 VC TCU=
MMMD 110244Z 12008KT 7SM SKC 24/20 A2996 RMK SLP143 53014 931=
MMTP 110245Z 00000KT 10SM SCT250 27/22 A2985 RMK SLP099 52004 961
     8/002=
MMUN 110242Z 11008KT 7SM SCT015 26/23 A3001 RMK SLP155 52014 990
     8/500 ISOL TCU=

0000071300
177
SASN33 ESWI 110250
METAR ESNG 110250Z AUTO 03008KT 9999 NCD M17/M19 Q1012=
METAR ESNK 110250Z AUTO 33010KT 3300 -SN FEW018/// BKN033/// M10/M13
Q1005=
METAR ESNN 110250Z AUTO 33010KT 9999NDV -SN FEW019/// BKN070///
M10/M12 Q1004 R16/49/79=
METAR ESNO 110250Z AUTO 35011KT 320V030 3000 -SN FEW015/// BKN026///
OVC045/// M12/M14 Q1003=
METAR ESNQ 110250Z AUTO 32001KT 9999NDV NCD M22/M24 Q1012=
METAR ESNS 110250Z AUTO 35012KT //// VV006 M13/M14 Q1006=
METAR ESNU 110250Z 35015KT 5000 -SN OVC036 M11/M14 Q1004 R14/49//50=
METAR ESNZ 110250Z AUTO 04003KT 010V070 2800NDV -SN VV023 M14/M16
Q1003=
METAR ESUT 110250Z AUTO VRB10G23KT 350V210 9999 IC OVC066/// M13/M19
Q1005=

0000054200
178
SASN34 ESWI 110250
METAR ESCF 110250Z AUTO 19008KT 9999NDV OVC011/// 00/M00 Q0999=
METAR ESDF 110250Z AUTO 24005KT 9999NDV SCT012/// BKN017/// 
BKN026/// OVC170/// 05/04 Q1005=
METAR ESIB 110250Z AUTO 25015KT 9999NDV FEW019/// SCT048/// 05/04 
Q0999=
METAR ESMV 110250Z NIL=
METAR ESPA 110250Z AUTO 02008KT 340V060 9999NDV -SG NCD M14/M17 
Q1010=
METAR ESPE 110250Z AUTO 35007KT 320V020 9999NDV OVC046/// M15/M19 
Q1010=
METAR ESSL 110250Z AUTO 18006KT 9999NDV OVC013/// M00/M01 Q0999
RESG R29/19//95=

0000040300
179
SASN35 ESWI 110250
METAR ESGR 110250Z NIL=
METAR ESKM 110250Z NIL=
METAR ESNL 110250Z AUTO 35006KT 300V010 5000NDV -SN BKN027///
M13/M16 Q1006=
METAR ESNX 110250Z AUTO 01012KT 3600NDV -SN VV024 M16/M19 Q1007=
METAR ESNY 110250Z NIL=
METAR ESSF 110250Z NIL=
METAR ESSK 110250Z NIL=
METAR ESUD 110250Z AUTO 36005KT 7000 -SN FEW011/// BKN038///
OVC090/// M14/M17 Q1007=

0000049200
180
SAFI32 EFHK 110250
METAR EFHA 110250Z AUTO 36008KT 9999 OVC011 M06/M07
 Q0997=
EFHF 110250Z AUTO 34012KT 320V020 9999 OVC010 M03/M05 Q0996=
METAR EFKA 110250Z AUTO 04009KT 8000 -SN OVC018 
M08/M10 Q1001=
EFKK 110250Z AUTO 03009KT 5000 -SN VV011 M10/M11 Q1003=
EFMA 110250Z AUTO 34005KT 310V020 9999 BKN021 M01/M01 Q0999=
METAR EFPO 110250Z AUTO 35005KT 9999 OVC008/// M04/M05 Q0999 
R12/29//95=
EFSI 110250Z AUTO 03007KT 360V070 9999 OVC013 M07/M09 Q1000=

0000009700
181
SAUS71 KWBC 110200 RRG
METAR
KSWF 110245Z 00000KT 3SM BR OVC005 00/00 A3029=

0000009900
182
SAUS73 KWBC 110200 RRH
METAR
KGYY 110245Z 20012KT 10SM -RA OVC006 06/05 A2959=

0000010200
183
SAUS75 KWBC 110200 RRE
METAR
PAPG 110246Z 00000KT 10SM FEW027 BKN048 01/00 A2939=

0000009900
184
SAQB31 LQMO 110300
METAR LQMO 110300Z VRB01KT 2500 BR FEW035 BKN060 07/06 Q1022=

0000082900
185
SAMX45 MMMY 110254
METAR MMMY 110243Z 00000KT 12SM  SKC 18/13 A2994 
      RMK SLP148 50029 961 ISOL AC=
METAR MMAN 110240Z 00000KT 12SM  SKC 16/12 A2998 RMK SLP126 52027
982=
METAR MMMA 110240Z 15004KT 8SM  SKC 19/17 A2990 RMK SLP136 52017 991=
METAR MMIO 110240Z 00000KT 10SM SKC 14/08 A3012=
METAR MMRX 110246Z 16005KT 8SM  SKC 19/17 A2990 
      RMK SLP124 52022 990 HZY FU=
METAR MMNL 110140Z 00000KT 8SM  SCT160 BKN200 20/13 A2987 RMK 8/072=
METAR MMCV 110248Z 27005KT 6SM  BKN030 18/15 A2992 
      RMK SLP143 52034 990 8/500 HZY=
METAR MMTC 110242Z 00000KT 10SM BKN250 16/01 A3008
      RMK SLP157 51017 927 8/002=
METAR MMCU 110240Z 00000KT 10SM SKC 08/M05 A3010
      RMK SLP163 52010 913  =
METAR MMCS 110240Z 32006KT 10SM SKC 14/M03 A2998
      RMK SLP101 52014 907=

00000000