0000012000
726
FTCN33 CWAO 102300
TAF CYLT 102338Z 1100/1112 FCST NOT AVBL DUE NO OBS
    RMK NXT FCST BY 110600Z=

0000013300
727
FTCN33 CWAO 102300
TAF CYOC 102338Z 1100/1102 VRB03KT P6SM IC SCT030
    RMK NXT FCST WILL BE ISSUED AT 111545Z=

0000027100
728
FTCN33 CWAO 102300
TAF CYRB 102338Z 1100/1124 25008KT P6SM -SN BKN040 TEMPO 1100/1110
     4SM -SN BKN020 OVC040
    FM111000 18008KT P6SM SCT020 BKN040 TEMPO 1110/1115 5SM IC BKN020
    FM111500 15010KT P6SM FEW020
    RMK NXT FCST BY 110600Z=

0000018100
729
FTCN33 CWAO 102300
TAF CYQH 102338Z 1100/1112 VRB03KT P6SM BKN030
    FM110400 VRB03KT P6SM BKN060 TEMPO 1104/1112 4SM -SN BKN020
    RMK NXT FCST BY 110600Z=

0000021600
730
FTCN33 CWAO 102300
TAF CYZF 102338Z 1100/1124 31005KT 4SM -SN BR BKN050 BKN240 TEMPO
     1100/1103 P6SM -SN SCT050 BKN240
    FM110300 32007KT P6SM FEW050 BKN240
    RMK NXT FCST BY 110600Z=

0000012200
731
FTCN33 CWAO 102300
TAF CYVQ 102338Z 1100/1112 VRB03KT P6SM SCT080 BKN250
    RMK NXT FCST BY 110600Z=

0000020200
732
FTCN33 CWAO 102300
TAF CYXY 102338Z 1100/1112 VRB03KT P6SM SCT020 BKN060 TEMPO 1100/1105
     5SM -SN BKN020
    FM110500 VRB03KT P6SM SCT020 BKN100
    RMK NXT FCST BY 110600Z=

0000016600
733
FTCN33 CWAO 102300
TAF CYYH 102338Z 1100/1112 22008KT P6SM FEW030 SCT080 TEMPO 1100/1112
     5SM IC SCT030 BKN080
    RMK NXT FCST BY 110600Z=

0000021400
734
FTCN33 CWAO 102300
TAF CYSM 102338Z 1100/1112 VRB03KT P6SM -SN FEW025 BKN050 TEMPO
     1100/1104 P6SM NSW FEW050 BKN210
    FM110400 VRB03KT P6SM FEW050 BKN210
    RMK NXT FCST BY 110600Z=

0000014600
735
FTCN33 CWAO 102300
TAF CYRT 102338Z 1100/1112 35012KT P6SM IC SKC
     BECMG 1102/1104 VRB03KT
    RMK NXT FCST BY 110600Z=

0000018000
736
FTCN36 CWAO 102300
TAF CYFB 102338Z 1100/1124 VRB03KT P6SM FEW030
    FM110300 33005KT P6SM FEW020 TEMPO 1103/1115 4SM IC BKN020
    RMK NXT FCST BY 110600Z=

0000156100
737
SPUS70 KWBC 102338
SPECI
KCUB 102334Z AUTO 00000KT 6SM BR BKN004 OVC015 11/10 A3016 RMK AO2
     RAE2254 P0000 T01060100 TSNO=
KVPC 102334Z AUTO VRB03KT 5SM HZ OVC004 18/09 A3007 RMK AO2 RAE04
     P0000=
KTAN 102334Z AUTO 00000KT 1 1/2SM BR OVC002 02/00 A3037 RMK AO2
     T00220000=
PATQ 102334Z AUTO 30006KT 1/4SM +SN OVC004 M26/M29 A2992 RMK AO2
     TSNO P0000=
KBEH 102334Z AUTO 14011G17KT 2 1/2SM RA BR BKN007 BKN017 OVC023
     03/03 A2975 RMK AO2 P0011=
KBTL 102334Z 22005KT 3SM -RA BR OVC004 03/02 A2982 RMK AO2 RAB2259
     P0007 T00330022=
KBUY 102334Z AUTO 36004KT 10SM -RA OVC005 03/02 A3020 RMK AO2
     RAB21 P0000 T00330022=
KDXR 102334Z 00000KT 1 3/4SM BR OVC005 01/M01 A3035 RMK AO2=
KFRG 102334Z 00000KT 1SM BR OVC004 02/02 A3034 RMK AO2=
KOVS 102334Z AUTO 04003KT 1 1/2SM RA BR BKN007 OVC012 01/00 A2957
     RMK AO2 CIG 003V008 P0001 T00110000=
KSGH 102334Z AUTO 13011KT 1/2SM FG OVC001 04/04 A2992 RMK AO2=
PATQ 102334Z AUTO 30006KT 1/4SM +SN OVC004 M26/M29 A2992 RMK AO2
     TSNO P0000=
KAMG 102335Z AUTO 00000KT 3/4SM BR FEW021 BKN035 OVC050 19/18
     A3009 RMK AO2 T01940178=
KRKS 102336Z AUTO 28023G35KT 10SM SCT028 BKN034 M02/M07 A2989 RMK
     AO2 PK WND 29039/2323 T10171067=
KCMH 102335Z 13010KT 10SM BKN023 OVC120 08/06 A2995 RMK AO2=
KELM 102335Z 13003KT 7SM OVC013 03/M01 A3019 RMK AO2=
KMEB 102335Z AUTO 01005KT 3SM RA BR FEW009 BKN014 OVC020 14/14
     A3016 RMK AO2 P0033 T01390139=
KTDR 102335Z AUTO 13006KT 4SM BR OVC003 17/ A3007 RMK AO2 $=

0000010700
738
SPUS41 KWBC 102338
SPECI
KCEF 102334Z AUTO 15002KT 6SM BR BKN006 OVC080 M01/M02 A3033=

0000011000
739
SPUS41 KWBC 102338
SPECI
KDOV 102334Z AUTO 08003KT 3/4SM R01/3000FT BR VV001 03/03 A3029=

0000010200
740
SAJP41 KWBC 102330 RRA
METAR
RJAF 102330Z VRB01KT 9999 VCSH FEW050 M07/M11 Q1023=

0000015300
741
SAJP44 KWBC 102330 RRA
METAR
RJTF 102330Z 00000KT 9999 FEW030 00/M06 Q1025=
RJTI 102330Z 02004KT 330V090 9999 FEW030 02/M08 Q1025=

0000025100
742
SAJP31 KWBC 102330 RRA
METAR
RJAA 102330Z 30003KT 270V330 9999 FEW025 00/M07 Q1024 NOSIG=
RJCC 102330Z 22006KT 200V260 9999 VCSH FEW015 SCT050 BKN070
     M07/M11 Q1018=
RJTT 102330Z 04005KT 360V070 CAVOK 03/M05 Q1024 NOSIG=

0000010400
743
SAJP42 KWBC 102330 RRA
METAR
RJFG 102330Z 36003KT 310V030 9999 FEW025 06/M00 Q1030=

0000055000
744
SARA36 RUMS 102330
METAR UWUU 102330Z 15003MPS 4500 BR OVC010 M02/M03 Q1007 14650440
TEMPO 1000 SN FZRA BKN003 RMK QFE745/0993 FBL ICE INC=
METAR USCC 102330Z 16004MPS 3000 -SHSN BR SCT010CB OVC070 M07/M07
Q1010 09490350 TEMPO 1100 SHSN BKN005 RMK QFE737=
METAR USNN 102330Z 35002MPS 9999 -SN OVC018 M13/M15 Q1018 NOSIG RMK
QFE758 21420332=
METAR USRR 102330Z 04001MPS 7000 SCT050 M27/M30 Q1018 NOSIG RMK
QFE759 07////35=
METAR USSS 102330Z 12002MPS 7000 -SN BKN011 OVC067 M06/M07 Q1008
08590230 NOSIG RMK QFE736=

0000064500
745
SARA32 RUMS 102330
METAR UHBB 102330Z VRB01MPS CAVOK M32/M35 Q1022 NOSIG RMK QFE749/0999
36410160=
METAR UHHH 102330Z 25009G12MPS 9999 DRSN SKC M25/M32 Q1019 NOSIG RMK
QFE757/1010 23090060=
METAR UHMA 102330Z NIL=
METAR UHMD 102330Z NIL=
METAR UHMM 102330Z 03006MPS 9999 SCT066 BKN200 M17/M28 Q1008 NOSIG
RMK QFE741 88820555=
METAR UHPP 102330Z 03002MPS 9999 BKN023CB M04/M13 Q0994 NOSIG RMK MT
OBSC QFE742/0989 SC05 055 055=
METAR UHSS 102330Z 04001MPS 5000 FU SCT040 M22/M24 Q1014 NOSIG RMK
QFE759/1012 01810366=
METAR UHWW 102330Z 00000MPS 9999 SCT200 M24/M27 Q1028 NOSIG RMK
QFE769/1026 25CLRD70=

00000000