0000018500
006
SACN62 CYDB 102300
METAR CYDB 102300Z 30005KT 15SM VCSH SCT005 BKN030 M16/M17 A2929 RMK
 ST4SC3 CLIMAT -15.0/-23.0/TR CM/TR MWE LAST STFD OBS/NXT 111500Z
 SLP989=

0000012800
007
SACN62 CYDC 102300
METAR CYDC 102300Z 19006KT 15SM FEW050 SCT060 BKN070 06/M03 A2984 RMK
 CU1SC3AC3 SLP126=

0000059100
008
SASP31 LEMM 102300
METAR LEMD 102300Z VRB01KT CAVOK 08/04 Q1016 NOSIG=
METAR LEBL 102300Z 32008KT 5000 BR SCT025 09/06 Q1019 NOSIG=
METAR LEPA 102300Z 00000KT CAVOK 10/10 Q1018 NOSIG=
METAR LEZL 102300Z 00000KT CAVOK 10/09 Q1015 NOSIG=
METAR LEMG 102300Z 30003KT 7000 SCT020 12/10 Q1016 NOSIG=
METAR LEVC 102300Z VRB02KT 6000 BKN020 11/09 Q1018 NOSIG=
METAR LEAL 102300Z 24003KT 8000 FEW015 10/09 Q1017 NOSIG=
METAR LEIB 102300Z 04006KT 9000 SCT015 13/11 Q1016 NOSIG=
METAR LEVX 102300Z 02003KT 360V070 3000 1000N BCFG FEW005 08/08
Q1016 TEMPO 0800 BCFG=

0000051300
009
SASP32 LEMM 102300
METAR LEAS 102300Z NIL=
METAR LEBB 102300Z NIL=
METAR LECO 102300Z 00000KT 5000 1000E BCFG NSC 07/07 Q1017=
METAR LEGE 102300Z 00000KT 6000 OVC018 09/07 Q1019=
METAR LEST 102300Z VRB01KT 9000 NSC 07/07 Q1017 TEMPO 3000 BR=
METAR LEZG 102300Z 09002KT 2000 BR BKN002 BKN006 06/06 Q1018=
METAR LESO 102300Z NIL=
METAR LEVT 102300Z 22001KT 6000 NSC 03/02 Q1016=
METAR LERS 102300Z NIL=
METAR LEMH 102300Z NIL=
METAR LEAM 102300Z NIL=
METAR LEGR 102300Z NIL=

0000013500
010
SASP33 LEMM 102300
METAR LEVD 102300Z NIL=
METAR LEVS 102300Z NIL=
METAR LESA 102300Z 00000KT CAVOK 01/01 Q1016=

0000021800
011
SASP34 LEMM 102300
METAR LEDA 102300Z NIL=
METAR LEJR 102300Z NIL=
METAR LELL 102300Z NIL=
METAR LEPP 102300Z 17001KT 8000 NSC 06/05 Q1017=
METAR LEXJ 102300Z VRB02KT 9999 BKN036 11/09 Q1017=

0000035700
012
SACR31 LEMM 102300
METAR GCLP 102300Z 01010KT 9999 FEW023 17/12 Q1017 NOSIG=
METAR GCXO 102300Z 30007KT 260V340 9000 FEW014 12/08 Q1018 NOSIG=
METAR GCTS 102300Z 35007KT 9999 FEW030 16/11 Q1017 NOSIG=
METAR GCRR 102300Z 34004KT 9999 FEW020 14/10 Q1017=
METAR GCFV 102300Z 35006KT 9999 FEW020 15/11 Q1017=
METAR GCLA 102300Z NIL=

0000092600
013
FTAE34 VTBB 102300
TAF VVTS 102300Z 1100/1206 07008KT 9999 SCT017 SCT040 
           BECMG 1121/1122 VRB02KT 4000 BR 
           BECMG 1200/1201 02006KT=
TAF VVNB 102300Z 1100/1124 32006KT 2800 BR FEW017 BKN050
           BECMG 1102/1103 3500 BR BECMG 1105/1106 6000 NSW
           BECMG 1112/1113 3500 BR=
TAF VVDN 102300Z 1100/1124 36007KT 4000 BR SCT013 BKN050
         TEMPO 1100/1102 3000 -RA BR
         BECMG 1103/1104 6000 NSW
         BECMG 1109/1110 4000 BR=
TAF VVPB 102300Z 1100/1124 30008KT 4000 BR SCT013 BKN050
         TEMPO 1100/1103 1500 -RA BR
         TEMPO 1118/1124 2000 -RA BR=
TAF VVCR 102300Z 1100/1124 03013KT 9999 FEW015 SCT060
         BECMG 1115/1116 03008KT=
TAF VVCT 102300Z 1100/1124 08009KT 9999 SCT017 SCT040 
           BECMG 1120/1121 VRB02KT 5000 BR 
           BECMG 1123/1224 03005KT=
TAF VVPQ 102300Z 1100/1124 06012KT 9999 SCT017=

0000022700
014
SASP35 LEMM 102300
METAR LEAB 102300Z 13005KT 9000 FEW010 07/06 Q1016 NOSIG=
METAR LEBZ 102300Z NIL=
METAR LELC 102300Z NIL=
METAR LELN 102300Z NIL=
METAR LETO 102300Z 00000KT CAVOK 08/05 Q1016 NOSIG=

0000095300
015
SAKZ31 RUMS 102300
METAR UAAA 102300Z 19003MPS 1300 R23R/P2000D R23L/P2000N BR FU SCT200
M16/M18 Q1027 8891//60 NOSIG=
METAR UACC 102300Z 19007MPS 9999 -SN DRSN OVC025 M09/M11 Q1024
R22/8/0050 NOSIG RMK QFE737/0982=
METAR UAKK 102300Z 17010MPS 7000 SCT024 OVC190 M14/M16 Q1027
R23/850555 NOSIG RMK QFE723/0964=
METAR UAOO 102300Z 17007MPS 3300 BR BKN160 M05/M06 Q1024 NOSIG RMK
QFE756/1008=
METAR UARR 102300Z 25004MPS 9999 BKN012 OVC026 01/M01 Q1011
R22/650340 NOSIG RMK QFE754/1006=
METAR UATE 102300Z 11004MPS 0150 R12/0500N FZFG VV001 M03/M03 Q1019
R12/0///70 NOSIG RMK QBB040 QFE762/1016=
METAR UATG 102300Z 23002MPS 5000 BR OVC019 01/01 Q1016 R14/19//65
NOSIG RMK QFE764/1019=
METAR UATT 102300Z 25003MPS 9999 OVC004 M00/M00 Q1010 R13/491040
NOSIG RMK QBB140 QFE738/0984=
METAR UAUU 102300Z 17007MPS 4000 -SHSN BLSN OVC260CB M07/M09 Q1014
TEMPO 19012MPS 1000 SHSN BLSN BKN005CB RMK QFE744/0992=

0000020900
016
SAAY31 RUMS 102300
METAR UDYZ 102300Z VRB01MPS 2300 BR BKN010 M09/M11 Q1027 R09/000070
NOSIG=
METAR UDSG 102300Z 00000MPS 0100 R02/0275V0700D FZFG VV001 M20/M22
Q1021 R02/CLRD70 NOSIG=

0000019200
017
SAKY31 RUMS 102300
METAR UCFM 102300Z 13004MPS 1500 R08/P2000 FU SKC M11/M17 Q1025
R08/CLRD70 NOSIG=
METAR UCFO 102300Z 15002MPS 9999 NSC M06/M11 Q1027 R12/CLRD70 NOSIG=

0000004200
018
SASP36 LEMM 102300
NIL=

0000022300
019
SASP40 LEMM 102300
METAR LEGA 102300Z NIL=
METAR LEGT 102300Z NIL=
METAR LEMO 102300Z 18003KT CAVOK 09/08 Q1014
NOSIG=
METAR LERI 102300Z NIL=
METAR LERT 102300Z 09009KT CAVOK 14/10 Q1014 NOSIG=

0000012400
020
FTAE32 VTBB 102300 RRA
TAF VYMD 102300Z 1100/1124 36005KT 8000 NSC
TEMPO 1100/1106 00000KT 4000 BR NSC=

0000026800
021
SATA31 RUMS 102300
METAR UTDD 102300Z 00000MPS M0050 R09/M0050N FZFG VV001 M08/M09 Q1028
09CLRD70 NOSIG RMK QBB030 QFE702/0936=
METAR UTDL 102300Z 07007G10MPS 1700 BR FEW006 SCT220 M05/M06 Q1027
TEMPO 0700 FZFG RMK QFE731/0975 QBB200 8819//65=

0000004200
022
SASP37 LEMM 102300
NIL=

0000020300
023
SASP41 LEMM 102300
METAR LEAO 102300Z NIL=
METAR LEBT 102300Z NIL=
METAR LECV 102300Z NIL=
METAR LEEC 102300Z NIL=
METAR LELO 102300Z VRB02KT 0200 R29/0500N FG NSC 04/04 Q1018=

0000022900
024
SAIY33 LIIB 102300
METAR LIMA 102300Z NIL=
METAR LIMG 102300Z NIL=
METAR LIMP 102250Z VRB03KT 4000 BR FEW030 SCT050 08/07 Q1023=
METAR LIMS 102300Z NIL=
METAR LIMW 102300Z NIL=
METAR LIMZ 102300Z NIL=

0000024300
025
SAIY34 LIIB 102300
METAR LIPC 102255Z /////KT 3000 BR SCT003 BKN010 08/06 Q1022=
METAR LIPF 102300Z NIL=
METAR LIPO 102250Z 07003KT 4000 BR BKN040 08/07 Q1022=
METAR LIPY 102250Z 18003KT 9999 FEW010 BKN045 11/09 Q1022=

00000000