0000011200
566
SACN62 CYUY 110200
METAR CYUY 110200Z 18008KT 8SM -SN OVC006 M04/M05 A2990 RMK SF8
 SLP147=

0000010600
567
SACN62 CYVC 110200
METAR CYVC 110200Z 27004KT 15SM OVC012 M06/M07 A2941 RMK SC8 SLP985=

0000011900
568
SACN62 CYSJ 110200
METAR CYSJ 110200Z 26006KT 12SM BKN012 OVC040 M02/M04 A3028 RMK
 SC6SC2 SLP262=

0000014000
569
SACN62 CYSB 110200
METAR CYSB 110200Z 15009KT 1/2SM R22/3000FT/D -FZDZ FZFG VV001
 M03/M03 A2987 RMK FG8 PRESFR SLP135=

0000013300
570
SACN62 CYQT 110200
METAR CYQT 110200Z 07003KT 3SM -FZDZ -SN BR OVC010 M03/M04 A2957 RMK
 SF8 VIS VRB 2-4 SLP025=

0000014500
571
SACN62 CYUT 110200
METAR CYUT 110200Z 32003KT 230V320 25SM FEW030 FEW200 M32/M36 A2956
 RMK SC1CS2 SC TR CALLOUT OBS SLP012=

0000012600
572
SACN62 CYTS 110200
METAR CYTS 110200Z 17010KT 15SM -SN OVC012 M02/M04 A2980 RMK SC8 PCPN
 VRY LGT SLP109=

0000024700
573
SPUS70 KWBC 110156
SPECI
KISW 110152Z AUTO 10004KT 1 1/4SM -SN BR BKN006 OVC017 00/M01
     A2953 RMK AO2 FZRAE0057SNB0057 P0007 I1000=
PADU 110152Z 16005KT 10SM SCT010 BKN015 BKN022 04/01 A2907 RMK AO2
     RAE07 P0000=

0000011300
574
SACN62 CYVO 110200
METAR CYVO 110200Z 17011KT 12SM -SN OVC009 M04/M05 A2994 RMK ST8
 SLP165=

0000013700
575
SACN62 CYVR 110200
METAR CYVR 110200Z 07012KT 8SM -RA BKN010 BKN021 OVC030 06/05 A2979
 RMK ST6SC1NS1 PRESFR SLP088=

0000011900
576
SACN62 CYXE 110200
METAR CYXE 110200Z 24008KT 15SM SCT030 BKN100 M08/M09 A2953 RMK
 SC3AC3 SLP035=

0000012300
577
SACN62 CYVQ 110200
METAR CYVQ 110200Z 30006KT 20SM -SN BKN080 OVC270 M26/M29 A2975 RMK
 AC6CI2 SLP087=

0000013800
578
SACN62 CYVT 110200
METAR CYVT 110200Z 31018KT 10SM -SN DRSN BKN012 OVC080 M11/M14 A2947
 RMK SC6AC2 OCNL BLSN SLP013=

0000012300
579
SACN62 CYWK 110200
METAR CYWK 110200Z 23010KT 12SM -SN BKN048 OVC073 M11/M15 A2977 RMK
 SC6AC2 SLP129=

0000016400
580
SACN62 CYWG 110200
METAR CYWG 110200Z 30011KT 3/4SM R31/P6000FT/U R36/P6000FT/U -FZDZ BR
 OVC003 M08/M09 A2943 RMK FG2ST6 VIS VRB 1/2-1 SLP982=

0000011300
581
SACN62 CYWL 110200
METAR CYWL 110200Z 12009KT 10SM -SN OVC020 M02/M05 A2964 RMK SC8
 SLP074=

0000012900
582
SACN62 CYXC 110200
METAR CYXC 110200Z 03004KT 20SM FEW030 BKN070 BKN210 M01/M03 A2977
 RMK SC2AC4CI1 SLP122=

0000043300
583
SAJP31 RJTD 110200
METAR RJAA 110200Z 32006KT 270V010 9999 FEW030 05/M08 Q1024 NOSIG=
METAR RJBB 110200Z 29011KT 9999 FEW025 07/M04 Q1029 NOSIG=
METAR RJTT 110200Z 06004KT 030V090 9999 FEW030 05/M05 Q1024 BECMG
           12005KT=
METAR RJOO 110200Z VRB02KT 9999 FEW030 05/M06 Q1029=
METAR ROAH 110200Z 08010KT 040V110 9999 FEW025 18/08 Q1027=
METAR RJGG 110200Z 29011KT 9999 FEW020 06/M02 Q1027 NOSIG=

0000075200
584
SAJP32 RJTD 110200
METAR RJFF 110200Z VRB05KT 9999 FEW040 BKN050 06/M02 Q1031=
METAR RJCC 110200Z 13004KT 110V170 9999 -SHSN FEW020 SCT035 BKN050
           M06/M13 Q1018=
METAR RJFK 110200Z 35009KT 310V020 9999 FEW035 07/M03 Q1029=
METAR RJSN 110200Z 30017KT 9999 VCSH FEW015 SCT030 BKN040 03/M04
           Q1025=
METAR RJFT 110200Z VRB02KT 9999 FEW040 06/M03 Q1030=
METAR RJFU 110200Z 13005KT 9999 FEW035 SCT045 BKN070 06/01 Q1031=
METAR RJCH 110200Z 27015KT 5000 -SHSN FEW005 SCT012 BKN025 M05/M08
           Q1019=
METAR RJSS 110200Z 28014KT 260V320 9999 FEW020 04/M08 Q1023=
METAR RJOA 110200Z 28008KT 240V310 9999 FEW025 SCT030 04/M05 Q1028=
METAR RJOB 110200Z 27008KT 240V330 9999 FEW025 05/M03 Q1028=

0000012700
585
SAJP32 RJTD 110200 RRA
METAR RJOT 110200Z 29013KT 9999 FEW025 SCT035 05/M04 Q1029=
METAR RJFO 110200Z NIL=

00000000