0000016200
686
WSUS33 KKCI 111055
SIGW
?MKCW WST 111055
CONVECTIVE SIGMET...NONE

OUTLOOK VALID 111255-111655
TS ARE NOT EXPD TO REQUIRE WST ISSUANCES.
0000109200
687
WSUS31 KKCI 111055
SIGE
?MKCE WST 111055
CONVECTIVE SIGMET 51E
VALID UNTIL 1255Z
WV OH GA TN KY
FROM 10W HNN-10E LOZ-20W VXV-10W GQO
LINE EMBD TS 30 NM WIDE MOV FROM 27035KT. TOPS TO FL350.

CONVECTIVE SIGMET 52E
VALID UNTIL 1255Z
NC SC GA
FROM 40N CLT-20S SPA-40S ODF
LINE EMBD TS 30 NM WIDE MOV FROM 24040KT. TOPS TO FL400.

CONVECTIVE SIGMET 53E
VALID UNTIL 1255Z
GA
FROM 30N MCN-PZD
DMSHG LINE EMBD TS 25 NM WIDE MOV FROM 26020KT. TOPS TO FL350.

CONVECTIVE SIGMET 54E
VALID UNTIL 1255Z
FL AL AND CSTL WTRS
FROM 30SW MGM-40WSW TLH-160S CEW-60S SJI-30SW MGM
AREA EMBD TS MOV FROM 24025KT. TOPS TO FL400.

CONVECTIVE SIGMET 55E
VALID UNTIL 1255Z
VA NC CSTL WTRS
FROM 60SE SBY-80ESE ECG-120ESE ILM
DMSHG LINE EMBD TS 30 NM WIDE MOV FROM 22030KT. TOPS TO FL380.

OUTLOOK VALID 111255-111655
FROM PSB-HTO-190ESE ECG-140SSE ILM-200ENE TRV-100E OMN-RDU-140W
PIE-170S CEW-40WNW MGM-PSB
WST ISSUANCES EXPD. REFER TO MOST RECENT ACUS01 KWNS FROM STORM
PREDICTION CENTER FOR SYNOPSIS AND METEOROLOGICAL DETAILS.
0000011300
688
WSNZ21 NZKL 111053
NZZC SIGMET 4 VALID 111053/111121 NZKL-
NZZC FIR CNL SIGMET 3 110721/111121=
0000015300
689
WSNZ21 NZKL 111051
NZZC SIGMET 5 VALID 111051/111451 NZKL-
NZZC NEW ZEALAND FIR SEV TURB FCST S OF S4440 E16755 BLW FL100 STNR
INTSF=
0000015300
690
WSNZ21 NZKL 111053
NZZC SIGMET 5 VALID 111051/111451 NZKL-
NZZC NEW ZEALAND FIR SEV TURB FCST S OF S4440 E16755 BLW FL100 STNR
INTSF=
0000016900
691
WSRS31 RURD 111039
URRV SIGMET 3 VALID 111100/111400 URRR-
URRV ROSTOV FIR SEV TURB FCST SW OF LINE N4650 E03730 - N4310 E04140
SFC/FL100 STNR INTSF=
0000026400
692
FTUS51 KWBC 110312 AAA
TAF AMD
KMFD 110309Z 1103/1124 16012KT 4SM BR OVC002
     FM110500 18010G20KT 3SM -RA BR OVC002
     FM111100 19012KT 4SM -RA BR OVC001
     FM111700 21010G20KT 6SM BR OVC003
     FM112300 24015G25KT P6SM OVC007=

0000017300
693
FTUS52 KWBC 110312 AAA
TAF AMD
KCLL 110310Z 1103/1124 22008KT 6SM BR SCT025
     FM110700 26005KT P6SM SCT015 BKN250
     FM111200 33009KT P6SM SKC=

0000025900
694
FTUS53 KWBC 110312 AAA
TAF AMD
KSLN 110310Z 1103/1124 25008KT P6SM SCT025 OVC035
      TEMPO 1103/1104 P6SM -RASN
     FM110400 28008KT P6SM SCT025 BKN050 BKN100
     FM110500 30007KT P6SM SCT250
     FM111600 31015G22KT P6SM SKC=

0000017100
695
FTUS54 KWBC 110312 AAA
TAF AMD
KSBA 110309Z 1103/1124 VRB03KT 4SM BR SCT250
     FM111800 VRB03KT 5SM HZ SCT250
     FM112100 22006KT P6SM SCT250=

0000149800
696
FTUS80 KWBC 110312 AAA
TAF AMD
KBRO 110310Z 1103/1124 18004KT P6SM SCT015
      TEMPO 1103/1106 4SM BR SCT004 OVC015
     FM110600 VRB04KT 4SM BR SCT004 OVC015
     FM110900 VRB03KT 2SM BR BKN004
      TEMPO 1112/1115 1/2SM FG VV001
     FM111800 05010KT P6SM FEW015 SCT030=
KCAK 110311Z 1103/1124 15006KT 4SM BR OVC060
     FM111200 20012KT 4SM -RA BR OVC003
     FM111800 23012KT 4SM -DZ BR OVC003
     FM112000 24015G25KT 6SM BR OVC015=
KCLL 110310Z 1103/1124 22008KT 6SM BR SCT025
     FM110700 26005KT P6SM SCT015 BKN250
     FM111200 33009KT P6SM SKC=
KFST 110309Z 1103/1124 24014KT P6SM SKC
     FM110700 27009KT P6SM SKC=
KMCO 110310Z 1103/1124 13004KT P6SM BKN150
     FM110800 17005KT 5SM BR OVC005
     FM111400 19010G15KT P6SM SCT015 BKN150
     FM111600 20014G22KT P6SM SCT025 BKN080=
KMFD 110309Z 1103/1124 16012KT 4SM BR OVC002
     FM110500 18010G20KT 3SM -RA BR OVC002
     FM111100 19012KT 4SM -RA BR OVC001
     FM111700 21010G20KT 6SM BR OVC003
     FM112300 24015G25KT P6SM OVC007=
KRDU 110311Z 1103/1124 VRB02KT 2SM -RADZ BR OVC003 WS018/19030KT
     FM110500 VRB03KT 1/2SM -DZ FG VV002 WS014/19035KT
     FM111100 18010KT P6SM OVC006
     FM111300 19014G22KT P6SM BKN009 OVC020
     FM111700 20017G28KT 5SM -SHRA BR BKN012 OVC025
     FM112200 25016G23KT P6SM FEW025 BKN100=
KSBA 110309Z 1103/1124 VRB03KT 4SM BR SCT250
     FM111800 VRB03KT 5SM HZ SCT250
     FM112100 22006KT P6SM SCT250=

0000025900
697
FTUS80 KWBC 110312 AAB
TAF AMD
KSLN 110310Z 1103/1124 25008KT P6SM SCT025 OVC035
      TEMPO 1103/1104 P6SM -RASN
     FM110400 28008KT P6SM SCT025 BKN050 BKN100
     FM110500 30007KT P6SM SCT250
     FM111600 31015G22KT P6SM SKC=

0000009200
698
FTBH31 MZBZ 110310
TAF MZBZ 110310Z 1106/1206 11008KT 9999 FEW022 SCT045=

0000009400
699
SPUS42 KWBC 110312
SPECI
KTYS 110308Z 00000KT 8SM -RA OVC008 08/07 A2999=

0000011700
700
SPUS31 KWBC 110313
SPECI
KIND 110309Z 14008KT 1/4SM R05L/1600V2000FT -RA FG VV002 04/04
A2968=

0000009300
701
SPUS31 KWBC 110313
SPECI
KTEB 110309Z 01003KT 2SM BR OVC005 02/00 A3028=

0000010200
702
SPUS41 KWBC 110313
SPECI
KBAF 110310Z 01003KT 3SM BR FEW006 OVC011 M01/M02 A3029=

0000011600
703
SPUS41 KWBC 110313
SPECI
KEWB 110309Z AUTO 12003KT 1SM R05/2400V5000FT BR OVC003 04/04
A3030=

0000010200
704
SPUS41 KWBC 110313
SPECI
KILG 110309Z AUTO 06004KT 2SM -RA BR OVC004 03/03 A3024=

0000009000
705
SAAG41 KWBC 110300 RRA
METAR
SAZN 110300Z 16004KT CAVOK 24/M03 Q1015=

00000000