0000015200
394
SNVD20 KWNB 110800 RRN
BBXX
42085 11081 99179 70665 46/// /0406 10247 40160 90800 22200 00266
10703 70013 333 91207 555 11064 22069=
0000021300
395
SNVD20 KWNB 110800 RRO
BBXX
42085 11081 99179 70665 46/// /0406 10247 40160 90750 333 91207
555 11067 22073=
42085 11081 99179 70665 46/// /0406 10247 40159 90740 333 91207
555 11065 22070=
0000036200
396
SSVX03 LFVW 110817
ZZYY 31053 11014 07001 531581 049875 6113/
11119 00000 10238 21002 40086
22219 00254 10802 20077 21011
33311 66699 20007 17028 20030 02030 20055 16029
444 20130 11014 0728/ 518// 60371=
ZZYY 31260 11014 06001 522884 043139 6113/
11119 00301 10257 40123
33311 66699 20030 05///
444 20130 11014 0400/ 518// 60371=
0000011000
397
UANT01 CWAO 110817
ARP TAY010 5459N03057W 0817 F340 MS61 210/63 KT
OOTSC QXT EUA 110817 F19A
0000008000
398
UAPA01 KWBC 110818
ARP PAL105 38N 140W 0806 F320 MS52 260/060KT=
0000003900
399
SMCG20 FCBB 110600
NIL=
0000011100
400
UANT01 CWAO 110818
ARP UAL924 5002N02937W 0818 F370 MS52 185/49 KT
N778UA DDL XXW 110818 F37A
0000010800
401
SSVD50 LFPW 110640 RRA
ZZYY 41097 11014 0640/ 714548 061097 22219 00268 10301 20030
21004=
0000018000
402
SSVD50 LFPW 110710 RRA
ZZYY 41097 11014 0710/ 714548 061097 22219 00268 10301 20030
21004=
ZZYY 44050 11014 0710/ 746700 056183 22219 00002 10805 20080
21027=
0000010800
403
SSVD50 LFPW 110740 RRA
ZZYY 44050 11014 0740/ 746700 056183 22219 00002 10705 20070
21027=
0000017800
404
SAWD01 OEJD 110800 RRA
METAR UUEE 110800Z 23005MPS 9999 -RA OVC007 02/01 Q0985 75290151
25290151 NOSIG=
METAR VHHH 110800Z 29005KT 6000 NSC 20/12 Q1020 NOSIG=
0000136000
405
SNVD01 PANC 110800 RRD
BBXX
H3VT 11083 99211 70841
41797 31011 10260 2023/ 40160 54000 7//22 83213
22274 00277 20402 3//// 40402 50402 6//// 80240 ICE /////=
3ETA7 11083 99279 70802
414// 21712 10250 2021/ 40180 54000 7//11 828//
22274 00280 20302 3//// 4//// 5//// 6//// 80220 ICE /////=
WACW 11084 99491 71471
41598 33123 10060 2004/ 40077 52062 70100 834//
22243 00110 2//// 326// 41209 5//// 6//// 80050 ICE /////=
C6FR3 11083 99150 70937
414// 23607 10260 2//// 40120 54/// 70200 82//5
22233 00270 20201 3//// 4//// 5//// 6//// 8//// ICE /////=
C6TQ6 11083 99291 70142
415// 52207 10170 2012/ 40188 53008 70111 8592/
22233 00200 20403 31210 40402 50202 6//// 80140 ICE /////=
9HJG9 11083 99173 70691
41597 4//// 10250 2//// 40160 54/// 70300 8/4//
22243 04250 20504 3//// 4//// 5//// 6//// 8//// ICE /////=
PHEO 11084 99210 71573
41498 10911 10248 20218 40100 53010 70200 811//
22263 00260 20301 80228=
9HXC9 11084 99261 70793
41597 61422 10250 20207 40190 54/// 7//11 868//
22264 00270 20703 3//// 4//// 5//// 6//// 80220 ICE /////=
ZCDD6 11083 99203 71559
41598 31317 10235 20225 40141 56014 70222 82///
22265 00250 2//// 3//// 4//// 5//// 80228=
C6WK7 11084 99379 10236
41/98 00704 10136 2//// 40230 54/// 7//// 80///
22200 00170 2//// 3//// 4//// 5//// 6//// 8//// ICE /////=
0000035300
406
UDAF01 FAPR 110819
AMDAR 1108
ASC AFZA08 2607S 02814E 110818 F054 PS208 031/009 TB0 S031 333 F/// VG000=
ASC AFZA08 2607S 02814E 110819 F057 PS200 009/006 TB0 S031 333 F/// VG000=
ASC AFZA08 2606S 02814E 110819 F061 PS192 018/011 TB0 S031 333 F/// VG000=
ASC AFZA08 2606S 02814E 110820 F062 PS189 017/013 TB0 S031 333 F/// VG009=
0000066100
407
UDAF01 FAPR 110815
AMDAR 1108
UNS AFZA41 2603S 02816E 110813 F076 PS145 034/006 TB0 S031 333 F/// VG017=
UNS AFZA41 2602S 02817E 110813 F079 PS149 109/004 TB0 S031 333 F/// VG017=
UNS AFZA41 2602S 02818E 110814 F082 PS145 129/006 TB0 S031 333 F/// VG016=
UNS AFZA41 2602S 02819E 110814 F086 PS135 179/003 TB0 S031 333 F/// VG015=
UNS AFZA41 2602S 02819E 110814 F086 PS135 186/003 TB1 S031 333 F/// VG023=
UNS AFZA41 2604S 02820E 110814 F095 PS114 325/005 TB0 S031 333 F/// VG013=
ASC AFZA41 2607S 02821E 110815 F109 PS077 263/012 TB0 S031 333 F/// VG011=
ASC AFZA41 2608S 02821E 110815 F114 PS063 261/018 TB0 S031 333 F/// VG011=
0000009200
408
SAIN90 VIJP 102330
METAR VIJP 102330Z 06004KT 2000 HZ NSC 10/05 Q1017 NOSIG=
0000021500
409
SAIN34 VOMM 110810
METAR VOHS 110810Z VRB06KT 5000 HZ SCT020 29/12 Q1016 NOSIG=
METAR VOMM 110810Z 09007KT 7000 FEW020 28/19 Q1013 NOSIG=
METAR VOTR 110810Z 07008KT 6000 SCT016 30/18 Q1013 NOSIG=
0000021900
410
SASB31 VCCC 110810
METAR VCBI 110810Z 30009KT 9999 SCT016 31/22 Q1010 NOSIG=
METAR VRMM 110800Z 07012KT 9000 FEW018 31/24 Q1011 NOSIG=
METAR VCRI 110810Z 05008KT 020V080 9000 SCT016   31/21 Q1010 NOSIG=

0000015800
411
SNVD19 KWNB 110800 RRC
BBXX
46126 11081 99540 71666 46/// /1701 10043 49814 58010 90800 22200
00046 1//00 70001 333 91202 555 11013 22014=
0000021300
412
SNVD20 KWNB 110800 RRP
BBXX
44059 11081 99368 70763 46/// /1703 10167 40166 90810 333 91204
555 11035 22038=
44058 11081 99376 70763 46/// /1805 10112 40175 90810 333 91207
555 11062 22068=
0000023200
413
SNVE15 KWNB 110700 RRF
BBXX
51100 11071 99236 71539 46/// /0810 10234 40163 90650 22200 00244
11006 20604 312// 41004 70028 333 91212 555 11101 22107 30645
40912 60649 081095 081096 088096 089098 087096 087097=
00000000