0000011800
314
SNVF25 LFPW 110800
BBXX
BATFR12 11084 99486 70065 46/// /0412 10095 20029 40198 53020
22200 04149=
0000011200
315
SNVF25 LFPW 110800
BBXX
BATFR03 11084 99494 70003 46/// /2311 10067 20062 40187 51035
22284=
0000013500
316
SNAA17 LFVW 110800
AAXX 11084
89577 46/// /2006 11267 35904 4//// 5////=
89578 46/// /0606 11309 36968 4//// 5////=
0000016000
317
SSVX13 LFVW 110800
ZZYY 17572 11014 0800/ 537949 171870 6110/
11119 40158 52013
22219 00206
444 20100 11014 0656/ 50101 80110 80000 9/015=
0000015700
318
SSVX13 LFPW 110800
ZZYY 64667 11014 0800/ 763143 029222 6113/ 11119 49976 52021 22219
 00064 444 20130 11014 0800/ 50101 80154 80000 9/015=
0000243700
319
SNDL21 EDZW 110800
AAXX 11081
10004 NIL=
10015 41134 82310 10064 20055 30077 40087 56007 76366 887//
  333 55300 20000 30000 82703 88705 91115 91211 96010=
10020 47267 82308 10069 20062 30034 40066 56004 76266
  333 55300 20000 30000 84/04 86/26 88/31=
10035 41240 82407 10063 20052 30025 40084 56007 75122 876//
  333 55300 20001 30001 41229 87706 91113=
10055 41356 72207 10059 20053 30080 40090 56005 72055 877//
  333 55300 20000 30000 87607=
10147 41350 82307 10056 20044 30095 40114 55002 72162 877//
  333 55300 20004 30004 41232 87708 96010=
10162 47341 82105 10047 20038 30036 40110 56004 72365
  333 55300 20000 30000 88/09=
10184 41450 82304 10047 20034 30100 40108 56002 71022 8565/
  333 55300 20000 30000 85711 88365=
10200 47250 82106 10053 20045 30107 40105 56005 75165
  333 55300 20000 30000 88/05=
10224 42462 82205 10048 20033 30115 40121 55002 886//
  333 55300 20005 30005 87710=
10270 46460 82103 10040 20023 30085 40141 56004
  222// 06040
  333 55300 81/15 88/65=
10338 42875 22403 10040 20013 30068 40142 55001 82031
  333 55300 20006 30006 81358=
10361 42782 12204 10032 20010 30045 40151 55003 81530
  333 55300 20015 30015 81650=
10393 42575 52203 10032 20013 30020 40149 57001 82550
  333 55301 20049 30042 82626 84366=
10400 42981 71505 10024 20010 30108 40159 55001 85072
  333 55300 20004 30004 83361 85074=
10469 42784 22005 10019 20003 39999 40168 55000 81504
  333 55301 81556=
10488 42783 22205 10035 20004 39886 40172 50000 81501
  333 55305 20072 30041 40886 81650=
10506 42775 72102 10028 20018 39579 40170 55001 82571
  333 55300 20003 30003 82650 85359 85075=
10548 41/01 91803 10001 20001 39632 40188 55001 74744
  333 55300 20000 30000=
10637 41050 72102 10007 20004 30042 40184 55000 72122 8357/
  333 55300 81701 83640 87357 96010=
10685 42970 51601 11003 21016 39492 40184 57002 83071
  333 55300 20019 30019 83360 84080=
10738 41470 83401 11002 21003 39709 40193 55002 76022 8452/
  333 55300 81710 84640 87458=
10763 42970 71103 11013 21015 39797 40193 58004 82032
  333 55300 20041 30039 82360 86076=
10788 47956 71104 11005 21005 39763 40210 58002 71000
  333 55300 20047 30046 87/69=
10852 47956 81602 11005 21005 39617 40204 55001 71000
  333 55300 20024 30024 88/59 88/65 88/68=
10946 45877 61502 10032 20031 39347 40188 56002
  333 55300 20048 30047 83/58 86/73=
0000252900
320
SNDL22 EDZW 110800
AAXX 11081
10007 NIL=
10044 46/// /2211 10063 20051 30053 40085 56007
222// 00053
  333 55300 91114 91212=
10046 47350 82205 10064 20054 30057 40091 56006 71000
  333 55300 88/07=
10091 42360 72411 10050 20041 30041 40092 57002 876//
  222// 06053
  333 55300 20008 30008 87708 91114 91211=
10113 41328 82208 10057 20050 30078 40097 57006 76166 886//
  333 55300 20001 30001 88707 91113 96010=
10124 46/// ///// 10055 20055 30049 40088 56008
222// 0////
  333 553//=
10131 41350 82205 10058 20047 30085 40100 56006 75165 877//
  333 55300 20000 30000 87707 98050=
10170 41450 82206 10059 20041 30088 40104 56003 76022 877//
  333 55300 20005 30005 87710 98050=
10264 47450 82004 10047 20035 30013 40121 58006 72365
  333 55300 20001 30001 87/10 88/40 88/49=
10291 42462 72304 10042 20024 30067 40136 55000 8317/
  333 55300 20016 30016 83813 87465=
10315 42965 31903 10021 20006 30081 40147 55006 81032
  333 55300 20003 30003 81360=
10379 42981 62204 10029 20014 30022 40146 58004 86071
  333 55302 20057 30043 40994 83363 85365=
10381 42980 62304 10034 20012 30045 40144 58002 86050
  333 55302 86362=
10382 42481 62304 10045 20017 30099 40145 55001 81530
  333 55300 20024 30021 81618 86363=
10384 46/// /2203 10037 20015 30081 40142 57002
  333 55300 20026 30025=
10427 41/09 72408 11016 21018 39138 48431 56002 74141 8265/
  333 55300 20008 30008 827// 87358=
10430 45980 11401 11001 21015 39959 40157 55001
  333 55300 20000 30000 81/82=
10439 NIL=
10453 41986 12316 11028 21028 38795 48422 58001 73642 81031
  333 55303 81361 91119 91216 96241
  444 26105=
10496 42775 22203 10029 20007 30075 40162 54000 81501
  333 55300 20039 30036 81650=
10499 42984 32205 10020 21003 39878 40175 50000 81041
  333 55305 20069 30047 81362 83070=
10505 42584 72207 10056 20030 39873 40157 53001 81531
  333 55300 20000 30000 81630 83365 87076=
10513 42670 71203 10030 20017 30037 40161 55004 8357/
  333 55300 20001 30001 83637 87359=
10532 47001 82401 11006 21008 39923 40179 55001 73533
  333 55300 20002 30002 88/00=
10544 42984 42007 11002 21002 39076 48447 55002 83072
  333 55300 83360
  444 26064=
10554 42982 22003 10005 21015 39774 40172 56003 81031
  333 55300 20018 30017 81363=
10567 43960 71906 10008 21003 39793 40179 55000 8////
  333 55300 20011 30010 84/70 87/80=
10578 41075 22413 11032 21034 38759 48452 50002 72840 81642
  333 55306 20053 30051 81701 91115 91213=
0000219300
321
SNDL23 EDZW 110800
AAXX 11081
10609 41/01 91702 10007 20007 39842 40181 55002 75864
  333 55300 20006 30005=
10616 41580 72303 10036 20022 39567 40174 53001 76162 878//
  333 55300 81830 87633=
10641 47756 80401 10001 21003 30031 40183 55001 71000
  333 4/001 55300 83/56 87/57 88/62=
10655 42959 72801 11005 21006 39847 40186 53001 8707/
  333 55300 20021 30018 86359=
10675 47950 81102 11011 21011 39887 40189 58008 71000
  333 55300 20014 30014 87/60 88/73=
10688 47232 71702 10005 20004 39667 40204 53005 71000
  333 55300 20016 30016 87/05=
10708 41658 81502 10009 20006 39792 40188 53007 72166 8552/
  333 55300 20014 30014 81640 85615 88458=
10729 45860 80502 10006 20002 30058 40184 55000
  333 55300 20000 30000 87/56 88/58=
10731 41675 80000 10010 20009 30035 40183 53004 76066 885//
  333 55300 20004 30004 82640 88656=
10742 45858 70402 10002 21005 39843 40184 55006
  333 55300 20009 30009 81/57 87/63 87/67=
10776 47136 61702 11009 21010 39750 40210 55000 72030
  333 55300 20024 30024 86/03=
10791 42889 52209 11028 21029 38524 48468 50002 81046
  333 55301 81458 85272
  444 27125=
10805 41881 82801 10020 20018 39991 40187 53007 76022 8802/
  333 55300 20001 30001 88458=
10815 47685 82503 10034 20025 39232 48466 53002 75150
  333 4/001 55300 20007 30007 85/49 87/56 88/61=
10836 42686 72004 10040 20015 39305 40181 55002 8657/
  333 4/001 55300 20014 30014 86647=
10870 41856 70701 11020 21020 39655 40209 55003 71422 84082
  333 55300 81358 84360 87075 96010=
10895 41903 70603 11037 21037 39625 40220 52001 74844 81026
  333 55300 20083 30071 81465 87281=
10908 42586 72413 10047 21021 38483 48479 53002 81531
  333 55300 20004 30003 81633 85357 91116 91214=
10929 41/01 93301 10016 20016 39656 40200 55000 74544
  333 55300 20021 30020=
10948 47959 71701 10016 20016 39239 48474 53001 72030
  333 55300 20068 30068 86/59 87/67=
10961 41588 72613 11051 21070 37081 47051 52006 71522 85092
  333 55301 20102 40958 85330 84067 91119 91214 95122 98389
  444 17069 17092 16140=
10962 42788 72103 10064 20012 39033 48482 55001 81512
  333 55300 20060 30059 81656 85465=
0000127200
322
SNDL44 EDZW 110800
AAXX 11081
10022 47226 82210 10065 20060 30065 40075 56007 76265
  333 55300 20000 30000 87/06 87/18 88/32 91114=
10028 41335 82311 10062 20056 30074 40088 56005 76365 877//
  333 55300 20000 30000 87707 91116 91212 98035=
10033 NIL=
10037 NIL=
10038 NIL=
10042 47349 72308 10066 20054 30081 40085 56006 71000
  333 55300 87/06 91113=
10067 NIL=
10093 47350 72405 10045 20032 30051 40101 55001 71000
  333 55300 86/08 87/30 87/49=
10097 47556 82310 10049 20034 30088 40102 56004 71000
  222// 06045
  333 55300 86/22 88/27=
10126 NIL=
10129 47358 82209 10054 20048 30098 40111 55006 76265
  333 55300 20000 30000 88/08=
10130 47335 82210 10059 20051 30091 40097 56008 76165
  333 55300 88/07=
10136 NIL=
10139 47348 82306 10053 20045 30102 40116 55005 75165
  333 55300 20000 30000 88/08=
10142 46328 82304 10057 20048 30070 40101 56005
  333 55300 88/07=
10146 47341 82204 10058 20048 30096 40113 55003 75165
  333 55300 88/08=
10150 47347 72306 10059 20049 30067 40101 55004 71000
  333 55300 20000 30000 87/06=
10152 47345 82305 10060 20050 30098 40100 56005 72365
  333 55300 88/08=
10156 47449 82004 10056 20043 30090 40111 56003 72250
  333 55300 20000 30000 88/10=
0000156900
323
SNDL45 EDZW 110800
AAXX 11081
10161 47145 82007 10052 20043 30085 40105 56004 72365
  333 55300 20000 30000 81/02 88/07=
10168 47340 82104 10047 20038 30041 40114 56003 75765
  333 55300 88/09 88/50=
10172 NIL=
10180 47450 82306 10057 20042 30096 40101 57002 71000
  333 55300 88/10=
10193 45459 82205 10052 20032 30116 40119 56003
  333 55300 20001 30001 88/15=
10210 47336 82107 10047 20036 30113 40122 55003 75765
  333 55300 20000 30000 88/07=
10235 47356 72105 10043 20027 30038 40133 55001 71000
  333 55300 20003 30003 87/09 87/59=
10238 NIL=
10246 NIL=
10249 47450 82104 10051 20038 30064 40121 56003 76165
  333 55300 20000 30000 88/10=
10253 45460 82206 10052 20031 30110 40132 55004
  333 55300 86/16 88/50=
10261 42463 72104 10048 20027 30108 40137 55002 8557/
  333 55300 20023 30022 85619 85462=
10267 45663 82305 10043 20028 30086 40135 56004
  333 55300 82/49 86/62 88/65=
10268 46/// /2205 10046 20032 30032 40120 56003
  333 55300=
10281 463// 82305 10046 20031 30008 40122 57003
  333 55300 20008 30008 86/09 87/41 88/63=
10282 47357 82205 10041 20029 39986 40129 55001 71000
  333 55300 20003 30003 88/08 88/33=
10289 47356 82205 10036 20026 30061 40132 55001 71000
  333 55300 85/08 88/65 88/72=
10304 NIL=
10305 42360 72204 10034 20017 30103 40136 56002 876//
  333 55300 87708=
10306 NIL=
10309 47256 82006 10026 20016 30085 40144 57003 71000
  333 55300 20008 30007 88/06 88/61=
10312 45970 02306 10029 20009 30012 40141 55001
  333 55300 20005 30005=
0000172700
324
SNDL46 EDZW 110800
AAXX 11081
10321 42960 42207 10034 20022 30076 40129 56004 84031
  333 55300 20005 30005 84361=
10325 45980 02003 10027 20004 39979 40148 55002
  333 55300=
10334 NIL=
10335 NIL=
10343 NIL=
10348 45979 02404 10031 20008 30037 40146 56002
  333 55301 20021 30015 40898=
10356 45982 02305 10019 20000 39949 40151 55003
  333 55302=
10359 45980 82103 10034 20016 30087 40147 55003
  333 55300 20024 30024 88/63=
10365 45971 72002 10027 20014 30105 40152 55003
  333 55301 20011 30008 85/64 87/71=
10368 42968 22204 10017 20006 39918 40151 50000 82030
  333 55300 20019 30018 82363=
10376 45973 72304 10033 20012 30081 40150 57003
  333 55304 84/62 87/64=
10385 42581 52003 10028 20011 30086 40149 56001 82530
  333 55301 20037 30032 82623 84362=
10396 45578 82303 10043 20023 30132 40148 53003
  333 55300 88/21=
10404 NIL=
10410 45975 81802 10032 20013 39972 40158 56002
  333 55300 87/66 87/69 88/79=
10418 45860 72502 10012 20008 39687 40165 56002
  333 55300 20005 30005 81/57 87/61=
10424 45980 62103 10028 20008 30048 40155 56002
  333 55300 20005 30005 81/62 85/73 86/77=
10433 45966 01703 10005 21003 39832 40154 53002
  333 55301 20006 30003=
10435 45259 22104 10006 21000 39871 40165 53001
  333 55300 81/04=
10441 47228 82501 10004 20001 39780 40173 55000 72030
  333 55300 88/03=
10442 45976 01704 10023 20002 39976 40156 53002
  333 55300 20010 30007=
10444 42472 11504 10015 20003 39955 40165 55001 81131
  333 55300 20010 30010 81813=
10449 45373 82403 10017 20006 39735 40169 53002
  333 55300 20006 30005 88/09=
10452 45265 82402 10002 21002 39428 40165 52001
  333 55300 20015 30015 88/05=
0000159700
325
SNDL47 EDZW 110800
AAXX 11081
10454 45981 12005 10049 21009 39860 40153 55004
  333 55300 81/82=
10458 47957 02304 10003 21001 39665 40163 53001 71000
  333 55300 20013 30012=
10460 42575 22402 10012 21001 39966 40173 53002 81501
  333 55300 20011 30011 81620=
10466 46/61 /1902 10018 20002 30047 40167 53001
  333 55300 20009 30009=
10471 45969 22103 10018 20005 39996 40168 55002
  333 55300 20031 30028 40898 82/80=
10474 45967 02303 10027 20009 30027 40159 55001
  333 55300 20031 30028=
10476 NIL=
10480 45865 72305 10026 20011 39976 40163 56002
  333 55302 20029 30019 81/57 85/78 87/80=
10490 45963 01804 10014 20002 30041 40163 57003
  333 55300 20031 30028=
10495 45982 22203 10034 20002 30021 40165 55001
  333 55305 82/63=
10500 NIL=
10502 NIL=
10516 NIL=
10519 45662 82004 10035 20024 39966 40164 55004
  333 55300 82/37 88/59 88/62=
10520 47258 80401 10010 20010 30079 40175 53001 72360
  333 553// 81/05 88/59=
10526 47004 81902 10007 20007 39508 40172 56002 73030
  333 55300 20010 30010 85/00 87/29 88/63=
10534 47000 11905 10005 20005 39283 40176 56002 73030
  333 55300 81/00=
10537 47001 81806 10012 20012 39744 40177 55001 73033
  333 55300 88/00=
10540 45968 62404 10021 20009 39786 40172 57003
  333 55300 20013 30013 86/64=
10542 47246 82701 10006 20004 39840 40176 54000 71000
  333 55300 20006 30006 88/05=
10552 47000 82306 11005 21005 39058 48445 58003 73533
  333 55300 88/00=
10557 41/08 62405 10000 20000 39163 48449 53001 74142 85230
  333 55300 20019 30019 858// 84360=
0000017700
326
SACY31 LCLK 110800
METAR LCLK 110800Z 22006KT 190V260 9999 FEW025 18/06 Q1024 NOSIG=
METAR LCPH 110800Z VRB02KT 9999 BKN029 17/10 Q1024=
METAR LCNC 110800Z NIL=

0000208300
327
SNDL48 EDZW 110800
AAXX 11081
10564 45962 81902 10012 20001 39569 40181 56003
  333 55302 84/67 86/70 88/80=
10565 45960 62202 10017 21000 39868 40172 55000
  333 55301 81/68 86/70=
10569 47930 32003 10006 21001 39708 40187 56002 71000
  333 55300 20024 30022 83/69=
10574 45172 72404 11007 21012 39117 48456 53001
  333 55300 86/03 87/80=
10577 42775 32306 10019 20003 39666 40179 55000 81504
  333 55300 20041 30036 81656 83076=
10579 45/88 /2204 10008 21028 39412 40187 52002
  333 55300=
10582 42989 42104 11020 21027 39129 48446 53001 80006
  333 55300 20045 30039 84275=
10591 45967 01504 10010 21012 39790 40185 51002
  333 55305=
10613 NIL=
10615 47263 72601 10024 20017 39589 40174 55000 76165
  333 55300 20000 30000 81/05 87/35=
10618 NIL=
10628 47141 70801 11001 21002 30043 40183 51001 74164
  333 55300 85/01 86/47 87/50=
10635 45673 82205 10007 20006 39186 48446 55001
  333 55300 20003 30003 86/34 88/50=
10646 47026 81802 11023 21023 39769 40195 53002 72030
  333 4/001 55300 87/00 88/58 88/61=
10648 45986 82503 10024 20008 39628 40182 53001
  333 55300 20005 30005 88/58=
10658 47001 80502 11005 21005 39839 40190 56002 73533
  333 55300 88/00=
10671 47928 70902 11010 21012 39766 40196 53001 71000
  333 55300 20015 30015 87/61=
10686 45967 52206 10002 21007 39434 40190 53001
  333 55300 81/60 84/68 85/80=
10704 47607 82103 10017 20015 39733 40179 53002 73065
  333 55300 20000 30000 88/47=
10706 47550 70702 10019 20018 39708 40182 53004 75765
  333 55300 81/26 87/48=
10724 47660 72305 10036 20024 39504 40176 53001 72365
  333 55300 20000 30000 87/45=
10733 47629 80401 11009 21009 39886 40186 56004 71000
  333 4/001 55300 20003 30003 81/47 88/58 88/61=
10736 47748 72401 10002 21001 39884 40188 55003 72565
  333 4/001 55300 87/56=
10739 47757 71604 10012 20006 39794 40186 55004 75165
  333 55300 20015 30014 41151 83/50 87/56 87/57=
10743 NIL=
10747 47556 83001 11012 21012 39586 40189 55004 75465
  333 4/001 55300 20004 30004 81/30 88/50=
0000169400
328
SNDL49 EDZW 110800
AAXX 11081
10756 47825 81301 11004 21005 39607 40193 55004 71000
  333 55300 20004 30004 86/57 88/64 88/71=
10761 45861 72502 10003 20001 39674 40196 56005
  333 55300 20039 81/57 86/60 87/62=
10765 46/// /1101 11014 21014 39709 40200 55002=
10771 NIL=
10777 47829 71302 11008 21009 39542 40202 56004 71000
  333 55300 84/57 87/59 87/61=
10782 47939 60601 11028 21028 39591 40211 58002 72030
  333 55300 20031 30030 85/63 86/69 86/80=
10796 47458 60901 11032 21033 39462 40222 52002 72030
  333 4/003 55300 81/16 86/69=
10803 47864 72701 10024 20019 39896 40190 53010 72360
  333 55300 20007 30007 86/57 87/59 87/60=
10818 45886 81803 10059 20025 39043 48479 53002
  333 55300 20017 30015 81/57 88/63 88/68=
10827 46/// /2203 10042 20026 39089 48475 53001
  333 55300 20019 30019=
10837 NIL=
10838 46/34 /2001 11015 21016 39503 40203 55002
  333 55300=
10850 47001 81402 11017 21017 39583 40204 55001 73565
  333 55300 88/00=
10853 NIL=
10856 NIL=
10857 NIL=
10860 NIL=
10863 47932 71002 11004 21005 39615 40204 55003 71000
  333 55300 20082 30077 41050 87/60=
10865 45985 71801 10021 20015 39559 40197 55004
  333 55300 87/60=
10872 47956 71001 11035 21037 39776 40218 54000 71000
  333 55300 84/62 87/73 87/75=
10875 47002 80901 11020 21020 39710 40217 53001 73533
  333 55300 20037 30037 88/00=
10945 47957 71101 11010 21010 39383 40202 56002 71000
  333 55300 83/64 86/69 87/72=
10954 NIL=
10963 47957 82301 10003 20003 39343 40212 56003 71000
  333 4/002 55300 20040 30040 83/59 88/63 88/69=
10982 45965 60702 11001 21005 39531 40207 57001
  333 55300 20042 30040 86/60=
0000011000
329
SIRA23 RUNW 110300 CCB
AAXX 11031
20471 42998 00502 11364 21403 30176 40194 58011 333 93582=
0000011000
330
UANT01 CWAO 110801
ARP XLF057 4454N04035W 0801 F390 MS51 296/49 KT
FGRSQ DDL XXN 110801 J81A
0000011800
331
SNVF25 LFPW 110800
BBXX
BATFR62 11084 99497 70006 46/// /2617 10092 20079 40175 51015
22263 04124=
0000011800
332
SNVF25 LFPW 110800
BBXX
BATFR09 11084 99401 70101 46/// /0607 10122 20067 40174 58007
22242 04157=
0000011200
333
SNVF25 LFPW 110800
BBXX
BATFR20 11084 99384 10089 46/// /0722 10149 20112 40188 53002
22233=
00000000