0000737500
326
SIVF21 EGRR 110900
BBXX
62027 11094 99491 70022 46/// /3114 1//// 2//// 40198
52034 22200 0//// 10803 331// 70013=
62105 11094 99550 70132 46/// /2610 10077 21007 40135 51014 22200
00108 10908 70040=
62163 11094 99475 70084 46/// /0717 10101 20069 40193 53011 22200
00121 10906 70031=
62301 11094 99524 70047 46/// /3016 10073 20020 40189 52032 22200
00097 10503 70016=
62107 11094 99501 70061 46/// /3609 10091 20030 40207 53021 22200
00103 11005 70025=
64045 11094 99591 70117 46/// /2718 10059 20011 40075 52024 22200
00096 10809 70045 333 90710 91126=
62001 11094 99452 70050 46/// /0405 10119 20068 40205 53020 22200
00128 10803 70016=
63115 11094 99616 10013 47498 /0611 10022 21010 49990 51013 700// 22200 10806 70028=
MWYG6 11094 99603 70040 47598 /2921 40019 53014 700// 22200=
64041 11094 99607 70026 47598 /2822 40001 52015 700// 22200 10908 70041=
63056 11094 99597 10016 47498 /2925 10061 20020 49994 52008 700// 22200 10706 70032=
63109 11094 99596 10015 46/// /3028 10058 20021 49995 52007 22200=
63110 11094 99595 10015 47498 /3024 10060 20023 40006 52009 700// 22200 10707 70034=
MQSY9 11094 99593 10015 47598 /2926 10060 20021 52009 700// 22200=
63057 11094 99592 10015 47498 /2824 10056 20016 40006 53008 700// 22200 10706 70031=
62128 11094 99587 10014 47496 /2922 10044 20013 40033 52016 762// 22200 10706 70031=
62129 11094 99584 10003 46/// /2821 10058 20011 40040 52012 22200=
62113 11094 99584 10002 47598 /2822 10057 20010 40046 52012 700// 22200=
ZQSD5 11094 99583 10008 47598 ///// 10062 20024 40033 52009 700// 22200 1//07 70036=
62114 11094 99583 10000 46/// /2824 10058 20020 40041 52014 22200=
62134 11094 99580 10014 46/// /3019 10054 20011 40045 53010 22200 10606 70028=
63114 11094 99613 10017 47499 /0710 10012 21013 49987 51013 700// 22200=
63117 11094 99613 10011 47498 /0811 49991 52017 767// 22200=
62111 11094 99580 70003 46/// /2925 10058 20009 40070 52014 22200 10605 70026=
PJAI 11094 99581 70014 47498 /2720 10060 20002 40055 53015 700// 22200=
62112 11094 99584 70002 47498 /2819 10065 20017 40043 52014 700// 22200=
63055 11094 99606 10016 47397 /3309 10052 20013 49978 53008 700// 22200 10706 70030=
63108 11094 99608 10017 47/97 /0611 10035 20009 49980 52019 762// 22200 10706 70030=
63106 11094 99610 10017 46/// /0613 10029 52018 22200=
63105 11094 99610 10017 47498 /0611 10021 21011 49986 52017 700// 22200=
63113 11094 99610 10017 46/// /0513 10039 20006 49984 52019 22200 10706 70031=
63112 11094 99611 10010 47498 /0812 10032 20012 49981 52018 700// 22200 10706 70029=
63107 11094 99611 10017 46/// /0712 10022 49984 52018 22200=
63101 11094 99612 10009 46/// /0711 10020 21005 49987 52018 22200 10806 70030=
63103 11094 99612 10011 46/// ///// 10023 20006 49977 52017 22200 10706 70029=
63104 11094 99612 10016 47498 /0712 10027 21006 49987 52015 700// 22200 10706 70031=
62165 11094 99540 10011 47998 /2815 10068 20022 40131 52034 700// 22200 10503 70014=
62127 11094 99540 10007 47998 ///// 10065 20008 40131 52031 700// 22200 10503 70014=
62131 11094 99539 10012 46/// /3114 10069 20023 40127 52032 22200=
62149 11094 99537 10011 47998 /3016 10068 20026 40134 52036 700// 22200 10502 70012=
62148 11094 99536 10015 46/// ///// 22200=
62150 11094 99536 10007 47999 /2815 10063 20011 40149 52039 700// 22200 10502 70012=
62121 11094 99535 10027 46/// ///// 10070 20053 40110 53020 22200=
62123 11094 99563 10022 47598 /2920 10067 20004 40072 52011 700// 22200 1//05 70025=
62144 11094 99534 10017 47998 /3016 10070 20021 40130 53031 700// 22200 10402 70012=
62145 11094 99531 10028 47398 /3113 10068 20048 40120 52026 700// 22200 10504 70018=
62142 11094 99530 10021 47997 /3115 10060 20058 40124 52027 761// 22200 10402 70012=
62132 11094 99564 10020 46/// /3118 10065 21004 40081 52015 22200=
62120 11094 99564 10021 47598 /2919 10062 21007 40070 52011 700// 22200=
62154 11094 99564 10022 46/// /2916 10063 21004 40069 52012 22200=
62102 11094 99579 10018 47498 /2923 10058 21002 40039 53007 700// 22200 10605 70027=
62117 11094 99579 10000 47598 /2723 10059 20006 40041 51011 700// 22200 10605 70023=
62143 11094 99577 10018 47598 /3112 10062 20013 40061 52010 700// 22200 10605 70027=
62118 11094 99577 10009 47698 /2723 10061 20013 40048 52009 700// 22200 10605 70027=
62155 11094 99577 10007 47598 /2726 10060 20013 40060 52011 762// 22200 10605 70026=
62116 11094 99576 10011 47598 /2820 10059 20011 40051 52008 700// 22200 10605 70025=
62104 11094 99574 10013 47598 /2820 10067 20004 40055 52009 700// 22200=
62153 11094 99573 10020 47598 /2709 40056 52010 700// 22200 10605 70023=
62122 11094 99573 10016 47598 /2922 10061 21004 40059 51011 700// 22200 10605 70025=
62140 11094 99573 10013 46/// ///21 10060 21004 40059 52010 22200=
62146 11094 99572 10021 47598 /2102 10058 20002 40063 52011 700// 22200 10605 70025=
62164 11094 99572 10008 47598 /2820 10072 20007 40064 52011 700// 22200 00084 10605 70025=
62133 11094 99571 10009 46/// /2920 40065 52011 22200 10505 70023=
62119 11094 99570 10019 47698 /3020 10066 21008 40068 52012 700// 22200 10605 70023=
62152 11094 99570 10018 47698 /2914 10065 21007 40069 52010 700// 22200 10505 70026=
AMOUK05 1109/ 99519 10041 46/// ///// 10047 2//// 40135=
AMOUK06 1109/ 99511 10016 46/// ///// 10091 2//// 40154=
AMOUK43 1109/ 99540 70029 46/// ///// 10043 20019 40159=
AMOUK14 1109/ 99534 70055 46/// ///// 10048 20017 40165=
AMOUK44 1109/ 99546 70059 46/// ///// 1//// 2//// 40165=
AMOUK11 1109/ 99533 70061 46/// ///// 10037 20018=
AMOUK04 1109/ 99533 70062 46/// ///// 10036 20012 40178=
AMOUK28 1109/ 99576 70065 46/// ///// 1//// 2//// 40097=
AMOUK13 1109/ 99512 10014 46/// ///// 10079 20049 40156=
AMOUK03 1109/ 99537 70003 46/// ///// 10078 20048 40137=
AMOUK32 1109/ 99559 70047 46/// ///// 10034 20004 40127=
AMOUK29 1109/ 99508 70076 46/// ///// 1//// 2//// 40199=
AMOUK23 1109/ 99575 70016 46/// ///// 10039 21000 40073=
AMOUK45 11094 99509 70014 46/// /3207 10054 20029 40176 22200   401760103=
AMOUK34 1109/ 99509 10014 46/// ///// 10099 20089 40152=
AMOUK42 1109/ 99506 70025 46/// ///// 10067 20039 40195=
AMOUK26 1109/ 99498 70036 46/// ///// 10089 20043 40197=
AMOUK09 1109/ 99516 10018 46/// ///// 10084 20083 40146=
AMOUK33 1109/ 99555 10084 46/// ///// 10066 20056 40047=
AMOUK02 1109/ 99535 70030 46/// ///// 10057 20031 40164=
62305 11094 99504 70000 46/// /3122 10094 20048 40181 53029 22200
00109 10602 70008 333 90710 91130=
62103 11094 99499 70029 46/99 /3214 10090 20045 40201 51034 22200
00112 10702 70012=
62304 11094 99512 10018 46/98 /2723 10092 20075 40153 53013 22200
00101 10501 70004 333 90710 91137=
62303 11094 99516 70051 46/// /3317 10081 20016 40197 22200 10504
70018=
64046 11094 99605 70042 46/// /3022 10070 20021 40009 333 90710 91130=
62050 11094 99500 70044 46/// /3513 10091 20048 40203 22200 10502
70011=
62081 11094 99521 70105 46/// /1210 10072 20035 40173 52007 22200
10907 70034=
62170 11094 99514 10020 46/98 /2724 10089 20064 40149 52012 22200
00104 10501 70006 333 90710 91138=
62095 11094 99529 70156 46/// /1514 10090 20034 40131 57004 22200
00098 10906 70030=
ZNQO3 11091 99348 10202 41/98 62506 10180 20131 40262 54000 70222
867// 22224 04182 20201 30000 80150=
0000068900
327
UDEU02 EGRR 110926 RRA
AMDAR 1108
LVR EU0592   5159N 00041W 110845 F214 MS347 278/088 TB0 S031=
LVR EU0592   5242N 00107W 110852 F360 MS500 255/049 TB0 S031=
LVR EU0592   5327N 00143W 110859 F359 MS495 257/056 TB0 S031=
UNS EU0592   5412N 00218W 110906 F359 MS505 248/039 TB/ S031=
LVR EU0592   5459N 00242W 110913 F235 MS422 296/061 TB0 S031=
DES EU0592   5510N 00248W 110914 F182 MS367 296/038 TB/ S031=
DES EU0592   5519N 00252W 110916 F159 MS315 291/035 TB/ S031=
DES EU0592   5522N 00254W 110917 F137 MS260 288/030 TB/ S031=
DES EU0592   5528N 00257W 110918 F117 MS210 302/034 TB/ S031=
UNS EU0592   5532N 00259W 110919 F098 MS165 305/031 TB/ S031=
0000068500
328
UDNA02 EGRR 110926
AMDAR 1103
LVR EU0970   3548N 06930W 110354 F329 MS505 290/082 TB0 S031=
LVR EU0970   3626N 06830W 110401 F329 MS507 290/093 TB0 S031=
LVR EU0970   3703N 06729W 110408 F329 MS520 292/093 TB0 S031=
LVR EU0970   3739N 06627W 110415 F329 MS522 292/100 TB0 S031=
LVR EU0970   3815N 06524W 110422 F329 MS542 300/094 TB0 S031=
LVR EU0970   3843N 06416W 110429 F329 MS552 307/108 TB0 S031=
LVR EU0970   3906N 06304W 110436 F329 MS557 307/120 TB0 S031=
LVR EU0970   3928N 06150W 110443 F329 MS550 311/108 TB0 S031=
LVR EU0970   3949N 06037W 110450 F329 MS557 304/077 TB0 S031=
LVR EU0970   4012N 05924W 110457 F329 MS557 309/079 TB0 S031=
0000043300
329
UDEU02 EGRR 110926 RRB
AMDAR 1108
LVR EU3080   5032N 00447E 110844 F350 MS577 245/055 TB/ S031=
LVR EU3080   4957N 00400E 110851 F350 MS582 244/058 TB/ S031=
LVR EU3080   4923N 00314E 110858 F350 MS590 242/059 TB/ S031=
LVR EU3080   4842N 00242E 110905 F350 MS595 245/054 TB/ S031=
LVR EU3080   4756N 00224E 110912 F350 MS602 249/045 TB/ S031=
LVR EU3080   4712N 00156E 110919 F350 MS605 247/035 TB/ S031=
0000024900
330
SNHK22 VHHH 110915
AAXX 11091
45032 36/// /0903 10180 20115 30193 40210 52001=
45035 36/// /0703 10199 20127 30168 40210 54000=
45039 36/// /1202 10175 20112 30199 40213 52001=
45044 36/// /1005 10170 20119 30117 40212 52002=
0000043300
331
UDEU02 EGRR 110926 RRC
AMDAR 1108
LVR EU0030   3514N 01614W 110830 F320 MS500 288/052 TB/ S031=
LVR EU0030   3605N 01612W 110837 F320 MS502 283/056 TB/ S031=
LVR EU0030   3656N 01609W 110844 F320 MS510 284/053 TB/ S031=
LVR EU0030   3747N 01607W 110851 F320 MS510 280/052 TB/ S031=
LVR EU0030   3838N 01604W 110858 F320 MS512 278/055 TB/ S031=
LVR EU0030   3930N 01602W 110905 F320 MS515 272/054 TB/ S031=
0000035300
332
UDAF01 FAPR 110919
AMDAR 1109
DES AFZA41 3249S 02756E 110912 F049 PS103 324/012 TB0 S031 333 F/// VG012=
DES AFZA41 3254S 02758E 110914 F033 PS130 327/005 TB0 S031 333 F/// VG014=
DES AFZA41 3301S 02756E 110917 F018 PS167 235/004 TB0 S031 333 F/// VG015=
DES AFZA41 3302S 02751E 110919 F004 PS185 171/012 TB1 S031 333 F/// VG024=
0000066100
333
UDAF01 FAPR 110920
AMDAR 1109
DES AFZA41 3259S 02759E 110915 F024 PS150 322/003 TB0 S031 333 F/// VG015=
DES AFZA41 3301S 02757E 110917 F021 PS162 262/004 TB0 S031 333 F/// VG015=
DES AFZA41 3301S 02756E 110917 F018 PS167 235/004 TB0 S031 333 F/// VG015=
DES AFZA41 3301S 02755E 110918 F015 PS175 211/004 TB1 S031 333 F/// VG024=
DES AFZA41 3302S 02754E 110918 F013 PS177 208/005 TB1 S031 333 F/// VG024=
DES AFZA41 3302S 02753E 110918 F010 PS167 202/010 TB1 S031 333 F/// VG024=
DES AFZA41 3302S 02752E 110919 F007 PS175 184/010 TB1 S031 333 F/// VG024=
DES AFZA41 3302S 02751E 110919 F004 PS185 171/012 TB1 S031 333 F/// VG024=
0000011800
334
SNVD15 KWNB 110800 RRR
BBXX
42022 11081 99275 70837 46/// /1306 10216 40166 90829 555 11066
22072=
0000374100
335
SICI01 KWBC 110900 RRA
AAXX 11091
54843 41943 01401 10038 21059 40294 57009 70500=
54909 41957 31802 10067 21063 40291 57010 70500 83///=
52418 32980 01401 11026 21203 40452 57008 333 00551=
52681 32980 13206 11017 21217 40423 52008 81/// 333 00602=
53959 31956 72202 10055 21129 40318 57009 70500 87///=
56029 33/// 92201 11027 21151 36424 57020 333 00353=
58238 41416 80903 10047 20034 40307 52002 76066 88///=
50136 32970 32903 11267 21320 40380 52019 83///=
50745 41964 60901 11207 21289 40295 52012 70070 86/// 333 92502=
50774 32960 62504 11208 21314 40268 52007 86///=
50788 32970 23202 11237 21278 40252 52007 82///=
51133 32980 41602 11011 21150 40325 57025 84/// 333 05905=
51243 32965 02502 11166 21210 40449 57013 333 05302=
51288 32980 20202 11081 21188 38413 57009 82/// 333 00005=
51431 32980 50901 10009 21136 40307 57030 85/// 333 06003=
51463 31956 00901 11137 21183 40402 57010 70500 333 05457=
52866 32961 71802 11051 21192 37751 52001 87/// 333 00553=
53614 32962 03203 10003 21213 40379 52009 333 00403=
53646 32975 02905 11005 21233 40352 52001 333 00202=
53845 32968 70405 10000 21222 40360 52002 87/// 333 00301=
54102 32979 03604 11116 21207 40364 52017=
54161 32965 02503 11098 21185 40268 52002=
54218 32980 03204 11036 21203 40313 52017=
54292 32975 02205 11065 21208 40244 57011=
54374 32965 03601 11110 21170 40294 57009=
54471 42960 30201 11025 21045 40276 57005 83///=
57127 32961 82701 10067 20004 40311 57003 88///=
57131 32960 82204 10068 21124 40323 57007 88///=
57265 32962 22202 10059 20014 40311 57005 82///=
58251 31948 70902 10054 21004 40309 57003 70500 87///=
58457 41918 80202 10061 20052 40293 52002 76065 88///=
58606 41440 80202 10050 20040 40287 52003 76060 88///=
59117 32970 00901 10211 20094 40210 57011=
59134 32962 01103 10167 20114 40224 57008=
59287 31965 22501 10212 20112 40207 57011 70500 82///=
59316 32762 50903 10165 20116 40227 57006 85///=
51076 32980 00901 11071 21184 40437 57014 333 05209=
54094 42756 71101 11134 21188 40256 57011 87///=
54337 42959 71101 11018 21094 40274 57003 87///=
54401 31959 23405 11012 21225 40324 52005 70500 82///=
54618 31905 70000 10002 21025 40286 57010 74640 87///=
58752 31756 82901 10108 20058 40270 57003 70500 88///=
59758 32475 20705 10218 20178 40192 57005 82///=
51573 32970 01401 11048 21183 40447 57018 333 00400=
54511 31945 72201 10019 21147 40281 57002 70500 87///=
58040 31931 01401 10036 21012 40310 57003 70500=
58102 32962 01601 10077 21088 40300 57005=
58221 31955 31102 10054 20013 40304 52001 70500 83///=
58847 32665 71601 10152 20089 40245 57008 87///=
50468 32970 02902 11276 21337 40296 52014=
51431 32980 50901 10009 21136 40307 57030 85/// 333 06003=
51709 32970 20401 11020 21115 40415 57023 82/// 333 00300=
51747 32970 02901 11019 21157 40462 57012 333 00403=
52203 32980 01401 11026 21195 40440 57011 333 00403=
52983 32980 83401 11036 21227 38194 52003 88/// 333 00751=
53513 42980 02202 11034 21221 40390 52015 333 00402=
53564 41959 03201 11024 21207 40374 52004 70500 333 00203=
53798 31907 71601 10034 21032 40282 57001 70500 87///=
54423 32956 22201 11017 21192 40293 57005 82///=
57083 31913 70000 10061 21033 40290 57014 70500 87///=
58362 41758 80704 10045 20020 40310 52007 76065 88///=
53588 32980 02709 11104 21254 37791 52004=
54497 41958 01401 11032 21107 40284 57009 71000=
57494 31557 80000 10050 20020 40303 52002 71000 88///=
58150 31948 20903 10032 21003 40309 57002 70500 82///=
50844 32762 70404 11171 21228 40283 52026 87///=
50854 32760 80204 11190 21220 40280 52013 88///=
50968 31662 83402 11140 21161 40259 57011 77000 88/// 333 92535=
0000033200
336
SIVD20 KWNB 110900 RRH
BBXX
44096 11091 99370 70758 46/// ///// 1//// 90917 22200 00070 10502
20501 312// 40901 70009=
44039 11091 99411 70727 46/// /1404 10054 20054 90900 333 91204
555 11046 22051=
44060 11091 99413 70721 46/// /1304 10067 20065 40217 57028 90900
22200 00041 333 91204 555 11046 22051=
0000013800
337
SIVD17 KWNB 110900 RRJ
BBXX
51206 11091 99198 71550 46/// ///// 1//// 90903 22200 00248 11105
21004 310// 41103 70024=
0000090500
338
SICI01 KWBC 110900 RRB
AAXX 11091
51379 32980 00401 11048 21160 40407 57011 333 05405=
51467 32980 01801 11037 21209 38295 57021 333 00252=
51495 32980 01602 11046 21204 40450 57010 333 00401=
53480 42963 33204 11069 21241 40371 52012 83///=
53673 42961 03402 10011 21235 40318 52005=
53698 31916 71602 10035 21109 40276 57006 70500 87///=
53898 31919 61802 10057 21062 40282 57001 70500 86///=
54308 32972 03407 11030 21207 40317 52009=
54602 31913 71802 10024 21086 40280 52003 70500 87///=
54725 41923 02001 10041 21041 40289 57010 70500=
54751 31918 02505 10016 21035 40292 57011 70500=
54916 41942 21802 10055 21046 40306 57009 70500 82///=
57014 32975 73404 10040 21188 40344 52003 87///=
57025 42965 82203 10038 21144 40341 52003 88///=
57046 42964 62709 11064 21156 37974 52001 86/// 333 00352=
58208 31940 70902 10060 21003 40302 52001 70500 87///=
0000024700
339
SILB20 OLBA 110900
AAXX 11094
40100 43/// /2404 10181 20085 30205 40237 58002 909// 333 92416=
40101 42957 01803 10103 20023 39146 48543 58004 909//=
40103 42960 03202 10171 20066 40241 50002 333 92427 555 10179=
40102 NIL=
0000058800
340
SIKZ30 UAAA 110900
AAXX 11091
28978 41997 81702 11079 21097 39713 40221 57004 70272 8807/=
28984 41498 81702 11080 21098 39726 40230 57008 77172 8272/=
34398 41498 81608 10018 21007 30041 40054 57031 76162 887//=
34798 42997 81806 10052 20017 30143 40114 58024 8805/=
35173 41596 81804 11068 21092 39842 40233 57008 77172 885//=
35358 41997 81801 11038 21087 39996 40168 52002 70272 8802/=
35576 42698 81806 11086 21144 39788 40251 58028 885//=
35699 42999 80202 11108 21152 39532 40327 58024 80007=
36686 42998 80905 11092 21142 39864 40315 58041 83034=
0000021500
341
SISV01 FDMS 110900
AAXX 11094
68386 46/// /1504 10258 20173 39747 48676 53004
      333 10259 20203 91007 555 91028=
68298 46/// /0000 1//// 2//// 38934 4//// 53001
      333 1//// 2//// 555=
0000011100
342
UANT01 CWAO 110924
ARP UPS218 5059N03022W 0923 F320 MS52 180/47 KT
N360UP QXT IGW 110924 F37A
0000024700
343
SIAG01 SABM 110900 RRC
AAXX 11094
87257 41465 81606 10225 20211 30014 40116 52029 71392 8692/
333 56669 57980 82710 85635 86550 81957=
87320 41670 70000 10222 20204 39602 40113 53025 71396 87900 333 56200 57924
86634 81938=
0000117300
344
SITR20 UTAA 110900
AAXX 11091
38388 42998 01101 10080 20013 30130 40200 58021=
38392 42998 01003 10062 21006 30110 40214 58014=
38507 42498 51305 10076 21027 30075 40178 57021 82530=
38511 42998 01103 10089 20013 30046 40186 57020=
38545 42998 30000 10074 21009 30066 40243 52004 80003=
38647 42998 61006 10084 21019 30127 40169 57030 80006=
38656 42998 60902 10092 21054 30093 40202 58026 80002=
38687 42997 72006 10103 21060 39982 40216 58021 80001=
38750 42997 60702 10092 20084 30201 40173 58030 86030=
38763 42998 51006 10080 21005 30076 40181 57032 80001=
38774 42998 61302 10107 21022 30001 40194 58034 80008=
38799 42997 62301 10105 21041 39982 40212 58022 80003=
38806 42997 61608 10117 21050 39963 40221 58024 80002=
38880 42997 61105 10106 21074 39937 40190 57034 80001=
38886 42997 60903 10138 21067 39972 40196 58030 80009=
38895 42996 61903 10114 21050 39930 40217 57026 80008=
38911 41996 51414 10115 21030 39939 40231 58018 70522 80001=
38915 42997 41208 10110 21078 39912 40234 58021 80001=
38974 42998 71802 10132 20000 39911 40241 52012 87070=
38987 42996 62105 10120 21078 39483 40216 58029 86070=
0000016200
345
SIDL21 EDZW 110900 CCA
AAXX 11091
10055 21240 72207 10059 20053 30076 40086 58006 71052 876//
  333 20053 3/004 55300 20004 30004 69907 87706=
00000000