0000011300
746
SPUS43 KWBC 110023
SPECI
KSGF 110019Z 16010KT 5SM -TSRA BR FEW006 BKN025 OVC041 09/08 A2955=

0000009500
747
SAPF20 NTAA 110100
METAR NTAA 110100Z 21007KT 9999 SCT020 30/22 Q1010 NOSIG=

0000011600
748
SACN61 CYGV 110100
METAR CYGV 110100Z AUTO 28008KT 9SM FEW022 OVC070 M08/M11 A3006 RMK
 SLP183=

0000014700
749
SACN61 CYHE 110100
METAR CYHE 110100Z AUTO VRB02KT 6SM -RA BR SCT013 BKN029 OVC037 06/05
 A2989 RMK PCPN 1.8MM PAST HR SLP124=

0000011600
750
SACN61 CYHD 110100
METAR CYHD 110100Z AUTO 18009KT 2 1/2SM BR OVC004 M07/M07 A2943 RMK
 SLP994=

0000010600
751
SACN62 CYGP 110100
METAR CYGP 110100Z 29007KT 15SM SCT230 M07/M14 A3013 RMK CS4 SLP207=

0000009900
752
SACN62 CYGR 110100
METAR CYGR 110100Z 23010KT 15SM SKC M04/M06 A3024 RMK SLP241=

0000010600
753
SACN61 CYHU 110100
METAR CYHU 110100Z AUTO 35003KT 7SM OVC027 M07/M09 A3024 RMK SLP241=

0000011700
754
SACN61 CYKF 110100
METAR CYKF 110100Z AUTO 16006KT 1SM BR OVC003 02/02 A2997 RMK PRESFR
 SLP161=

0000010400
755
SACN61 CYLW 110100
METAR CYLW 110100Z AUTO 07003KT 9SM OVC065 02/00 A2987 RMK SLP130=

0000012200
756
SACN61 CYKL 110100
METAR CYKL 110100Z AUTO /////KT 7SM -SN OVC031 M10/M12 A2960 RMK WND
 MISG SLP070=

0000017100
757
SACY31 LCLK 110100
METAR LCLK 110100Z 32006KT CAVOK 11/07 Q1021 NOSIG=
METAR LCPH 110100Z AUTO 02008KT 9999 NCD 10/06 Q1022=
METAR LCNC 110100Z NIL=

0000012200
758
SASR31 WSSL 110100
METAR WSSL 110100Z VRB02KT 9999 FEW020 SCT160 BKN300 26/24 Q1013 RMK
0030Z Q1012 =

0000013800
759
SAUK36 EGGY 110050 RRA
METAR EGVN 110050Z 21005KT 9999 FEW011 BKN035 BKN120 08/06 Q1011
     TEMPO 4000 -RADZ SCT012=

0000020900
760
SASQ31 LZIB 110100
METAR LZIB 110100Z VRB01KT CAVOK M00/M02 Q1020=
METAR LZKZ 110100Z VRB02KT 0200 R01/0450D FG SCT001 M02/M02 Q1018=
METAR LZTT 110100Z 29011KT 9999 FEW046 00/M05 Q1016=

0000020500
761
SASQ41 LZIB 110100
METAR LZPP 110100Z AUTO 00000KT 9999 // NCD 01/M02 Q1020=
METAR LZSL 110100Z VRB03KT 9999 FEW045 02/M03 Q1019=
METAR LZZI 110100Z VRB01KT 9999 BKN056 02/M02 Q1019=

0000021100
762
SABU31 LBSM 110100
METAR LBSF 110100Z VRB02MPS 2000 BR FEW004 M02/M02 Q1022 NOSIG=
METAR LBWN 110100Z 33004MPS CAVOK 04/02 Q1019 NOSIG=
METAR LBBG 110100Z 24003MPS CAVOK 03/02 Q1020 NOSIG=

0000011000
763
SACI44 ZSJN 110100
METAR ZSJN 110100Z VRB01MPS 1600 R19/1300N BR NSC M03/M05 Q1033
NOSIG=

0000014600
764
SABU32 LBSM 110100
METAR LBPD 110100Z 35003MPS CAVOK 07/03 Q1021 NOSIG=
METAR LBGO 110100Z 26003MPS CAVOK 04/M00 Q1022 NOSIG=

0000009100
765
SAHU31 LHBM 110100
METAR LHBP 110100Z VRB01KT CAVOK M00/M02 Q1021 NOSIG=

00000000