0000011000
834
UANT99 KDDL 110806
ARP AFR847 4542N01546W 0806 F350 MS61 263/70 KT
FGSQR QXT AOE 110807 F55A
0000062100
835
UDEU02 EGRR 110810
AMDAR 1107
DES EU0525   5454N 00500W 110754 F158 MS312 287/039 TB/ S031=
DES EU0525   5452N 00513W 110756 F126 MS235 295/031 TB/ S031=
DES EU0525   5450N 00525W 110757 F099 MS170 293/024 TB/ S031=
DES EU0525   5448N 00536W 110759 F067 MS107 298/016 TB/ S031=
DES EU0525   5446N 00547W 110800 F043 MS047 291/023 TB/ S031=
DES EU0525   5444N 00556W 110802 F030 MS015 290/022 TB/ S031=
DES EU0525   5443N 00602W 110803 F025 MS010 297/021 TB/ S031=
DES EU0525   5441N 00607W 110805 F014 PS007 300/018 TB/ S031=
DES EU0525   5440N 00611W 110806 F005 PS015 264/012 TB/ S031=
0000043300
836
UDEU02 EGRR 110810 RRA
AMDAR 1107
LVR EU0056   5811N 01523E 110730 F318 MS542 288/066 TB/ S031=
LVR EU0056   5734N 01416E 110737 F371 MS540 290/044 TB/ S031=
LVR EU0056   5656N 01310E 110744 F380 MS522 293/043 TB/ S031=
LVR EU0056   5617N 01205E 110751 F380 MS525 280/053 TB/ S031=
LVR EU0056   5542N 01101E 110758 F380 MS510 275/054 TB/ S031=
LVR EU0056   5507N 00959E 110805 F380 MS550 257/055 TB/ S031=
0000046400
837
SAMS32 WMKK 110800
METAR WBGG 110800Z 36009KT 310V030 9999 FEW015CB SCT020 BKN150 27/23
Q1009 NOSIG=
METAR WBKK 110800Z 24001KT 9999 FEW014 SCT130 OVC260 28/24 Q1009 
NOSIG=
METAR WMKJ 110800Z 36009KT 9999 FEW017CB BKN280 31/25 Q1008=
METAR WMKK 110800Z 23005KT 180V270 9999 SCT018 BKN280 31/25 Q1008 
NOSIG=
METAR WMKP 110800Z 03012KT 9999 FEW020 BKN140 BKN270 28/22 Q1009 
NOSIG=
METAR WMSA 110800Z 31006KT 9999 SCT019 SCT140 BKN280 32/23 Q1008=

0000010300
838
SASB31 VCRI 110810
METAR VCRI 110810Z 05008KT 020V080 9000 SCT016   31/21 Q1010 NOSIG=

0000010800
839
SAMS38 WMKK 110600 CCA
METAR COR WMKD 110600Z 01005KT 9999 FEW012 BKN160 24/22 Q1012 NOSIG=

0000003900
840
UAIN31 VABB 110755
NIL=
0000009200
841
SAIN90 VIGG 110800
METAR VIGG 110800Z 24003KT 5000 HZ FEW035 16/03 Q1019=

0000059500
842
SAMS38 WMKK 110800
METAR WBGB 110800Z 34006KT 9999 BKN014 BKN150 28/24 Q1009=
METAR WBGR 110800Z 32005KT 9999 SCT014 BKN150 26/23 Q1009=
METAR WBGS 110800Z 35006KT 9999 SCT018 BKN150 30/23 Q1008=
METAR WBKL 110800Z 02007KT 9999 SCT008 SCT140 BKN290 29/26 Q1009=
METAR WBKS 110800Z 03009KT 340V070 7000 -RA FEW010 SCT014 FEW016CB
OVC260 27/25 Q1008=
METAR WBKW 110800Z NIL=
METAR WMKD 110800Z 36005KT 9999 FEW012 BKN160 25/23 Q1010 NOSIG=
METAR WMKL 110800Z 04009KT 9999 FEW022 SCT140 BKN270 31/22 Q1009=
METAR WMKM 110800Z 24005KT 190V290 9999 SCT020 SCT150 BKN280 31/26 
Q1009=

0000015200
843
SMSP01 LEMM 110600
AAXX 11064
08231 11664 82302 10054 20041 39083 48485 53002 69902 70265 8807/
  333 20054 31005 50264 55050 70000=
0000015200
844
SMSP01 LEMM 110600
AAXX 11064
08231 11664 82302 10054 20041 39083 48485 53002 69902 70265 8807/
  333 20054 31005 50264 55050 79999=
0000159100
845
SAFC21 OEJD 110800
METAR
OEAB 110800Z 21008KT 9000  RA BKN012 14/13 Q1025 NOSIG=
OEAH 110800Z 15013KT 9999 RA SCT035 BKN100 15/13 Q1020 NOSIG=
OEAO 110800Z 33010KT CAVOK 14/01 Q1024=
OEBA 110800Z 34007KT 7000 SCT030 12/11 Q1023 NOSIG=
OEBH NIL=
OEDF 110800Z 18011KT 9999 SCT030 OVC090  16/11 Q1019 NOSIG=
OEDM 110800Z 33015KT CAVOK 13/04 Q1021=
OEDR 110800Z 19009KT 9999 SCT040 BKN080 17/13 Q1018 NOSIG=
OEGN 110800Z 19009KT 9999 SCT030 SCT100 28/22 Q1017 NOSIG=
OEGS 110800Z 30012KT CAVOK 13/08 Q1021=
OEGT 110800Z 30004KT 9999 FEW030 10/03 Q1024 NOSIG=
OEHL 110800Z 32020KT 9999 SCT045 09/04 Q1022 NOSIG=
OEJN 110800Z 01014KT 9999 FEW040 24/10 Q1018 NOSIG=
OEKJ 110800Z 15007KT 9000 FEW040 OVC070 14/10 Q1022=
OEKK NIL=
OEKM 110800Z 24010KT 9999 BKN020 14/10 Q1024 NOSIG=
OEMA 110800Z 00000KT 8000 SKC 16/00 Q1024 NOSIG=
OEMK 110800Z 36002KT CAVOK 24/10 Q1018=
OENG 110800Z 00000KT 9999 FEW030 SCT090 23/03 Q1019 NOSIG=
OEPA NIL=
OERF 110800Z 36013KT 9999 BKN040 BKN100 08/04 Q1019=
OERK 110800Z 31003KT 9999 FEW040 SCT090 17/11 Q1020 NOSIG=
OERR 110800Z 32014KT 9999 BKN030 07/07 Q1020 NOSIG=
OERY NIL=
OESH 110800Z 21008KT 9999 FEW040 22/08 Q1017 NOSIG=
OESK 110800Z 33016KT 9999 BKN020 09/02 Q1022=
OETB 110800Z 30009KT 9999 FEW040 12/03 Q1024 NOSIG=
OETF 110800Z 07006KT 9999 BKN030 11/03 Q1023 NOSIG=
OETR 110800Z 32016KT 6000 SCT020 BKN030 OVC100 04/04 Q1022=
OEWD 110800Z 13008KT CAVOK 21/09 Q1018 NOSIG=
OEWJ 110800Z 01010KT 9999 FEW030 22/08 Q1022 NOSIG=
OEYN 110800Z 00000KT CAVOK 22/06 Q1019 NOSIG=
0000180700
846
SASD20 OEJD 110800
METAR OEAB 110800Z 21008KT 9000  RA BKN012 14/13 Q1025 NOSIG=
METAR OEAH 110800Z 15013KT 9999 RA SCT035 BKN100 15/13 Q1020 NOSIG=
METAR OEAO 110800Z 33010KT CAVOK 14/01 Q1024=
METAR OEBA 110800Z 34007KT 7000 SCT030 12/11 Q1023 NOSIG=
METAR OEBH 110800Z NIL=
METAR OEDF 110800Z 18011KT 9999 SCT030 OVC090  16/11 Q1019 NOSIG=
METAR OEDM 110800Z 33015KT CAVOK 13/04 Q1021=
METAR OEDR 110800Z 19009KT 9999 SCT040 BKN080 17/13 Q1018 NOSIG=
METAR OEGN 110800Z 19009KT 9999 SCT030 SCT100 28/22 Q1017 NOSIG=
METAR OEGS 110800Z 30012KT CAVOK 13/08 Q1021=
METAR OEGT 110800Z 30004KT 9999 FEW030 10/03 Q1024 NOSIG=
METAR OEHL 110800Z 32020KT 9999 SCT045 09/04 Q1022 NOSIG=
METAR OEJN 110800Z 01014KT 9999 FEW040 24/10 Q1018 NOSIG=
METAR OEKJ 110800Z 15007KT 9000 FEW040 OVC070 14/10 Q1022=
METAR OEKK 110800Z NIL=
METAR OEKM 110800Z 24010KT 9999 BKN020 14/10 Q1024 NOSIG=
METAR OEMA 110800Z 00000KT 8000 SKC 16/00 Q1024 NOSIG=
METAR OEMK 110800Z 36002KT CAVOK 24/10 Q1018=
METAR OENG 110800Z 00000KT 9999 FEW030 SCT090 23/03 Q1019 NOSIG=
METAR OEPA 110800Z NIL=
METAR OERF 110800Z 36013KT 9999 BKN040 BKN100 08/04 Q1019=
METAR OERK 110800Z 31003KT 9999 FEW040 SCT090 17/11 Q1020 NOSIG=
METAR OERR 110800Z 32014KT 9999 BKN030 07/07 Q1020 NOSIG=
METAR OERY 110800Z NIL=
METAR OESH 110800Z 21008KT 9999 FEW040 22/08 Q1017 NOSIG=
METAR OESK 110800Z 33016KT 9999 BKN020 09/02 Q1022=
METAR OETB 110800Z 30009KT 9999 FEW040 12/03 Q1024 NOSIG=
METAR OETF 110800Z 07006KT 9999 BKN030 11/03 Q1023 NOSIG=
METAR OETR 110800Z 32016KT 6000 SCT020 BKN030 OVC100 04/04 Q1022=
METAR OEWD 110800Z 13008KT CAVOK 21/09 Q1018 NOSIG=
METAR OEWJ 110800Z 01010KT 9999 FEW030 22/08 Q1022 NOSIG=
METAR OEYN 110800Z 00000KT CAVOK 22/06 Q1019 NOSIG=
0000009200
847
SASD32 OEJD 110800
METAR OETF 110800Z 07006KT 9999 BKN030 11/03 Q1023 NOSIG=
0000008700
848
UAAK04 KAWN 110700 RRA
SIT UA /OV JNU-SIT/TM 0751/FL160/TP B737/TB NEG=
0000024100
849
SOAT10 KWAL 110808
FA8005BC 011080837 OT12 ID:KN-BASS-01 DT:2014 01 11 08 06
:RD -3125 -3118 -3127 -3127 -3143 -3130 -3129 -3118 -3116 -3110
:PR 0523 0542 0578 0544 0518 0490 0575 0561 0530 0575
:B 13.7V
 46+1NN 219E
0000034900
850
SMAA01 KARS 110600 RRE
AAXX 1106/
89869 46/// ///// 11029 39924 4//// 5//// 90630=
89329 46/// ///// 11113 38828 4//// 5//// 90630=
89799 46/// ///// 11229 4//// 5//// 90640=
89108 46/// ///// 11201 37007 4//// 5//// 90630=
89108 46/// ///// 11200 37007 4//// 5//// 90640=
89314 46/// ///// 11083 38297 4//// 5//// 90630=
0000217100
851
SZNZ01 NZKL 110809
CREX++
T000103 A001 D01021 D06025++
-3683144 17478654 AUCT  2014 01 11 08 01 //// 11 07 00 01
04369 3189 04359 3186 04354 3187 04347 3188 04342 3189 04334 3187+
-4402404 -17636748 CHIT  2014 01 11 08 01 //// 11 07 00 01
04347 1967 04333 1951 04319 1936 04315 1931 04313 1928 04323 1936+
-4089929 17623168 CPIT  2014 01 11 08 01 //// 11 07 00 01
03205 2276 03197 2268 03220 2291 03210 2280 03219 2288 03210 2279+
-3618905 17548887 GBIT  2014 01 11 08 01 //// 11 07 00 01
05181 -0021 05186 -0012 05191 -0003 05189 -0001 05183 -0003 05166 -0017+
-3867541 17802288 GIST  2014 01 11 08 01 //// 11 07 00 01
03305 2713 03288 2697 03285 2695 03283 2694 03288 2700 03297 2710+
-4241288 17370277 KAIT  2014 01 11 08 01 //// 11 07 00 01
02651 2202 02649 2198 02669 2216 02654 2200 02654 2198 02648 2191+
-3755040 17815904 LOTT  2014 01 11 08 01 //// 11 07 00 01
02834 0200 02821 0189 02811 0182 02811 0185 02798 0175 02819 0198+
-3704657 17451175 MNKT  2014 01 11 08 01 //// 11 07 00 01
03255 -0129 03222 -0157 03235 -0139 03227 -0142 03235 -0129 03214 -0145+
-3947566 17692007 NAPT  2014 01 11 08 01 //// 11 07 00 01
02310 2040 02299 2029 02341 2071 02297 2028 02332 2063 02294 2025+
-3441483 17304870 NCPT  2014 01 11 08 01 //// 11 07 00 01
-01688 -5703 -01631 -5641 -01693 -5698 -01758 -5758 -01888 -5882 -02065 -6054+
-4581435 17062939 OTAT  2014 01 11 08 01 //// 11 07 00 01
03995 3417 04002 3420 04011 3424 04024 3432 04036 3440 04036 3434+
-2928002 -17789440 RBCT  2014 01 11 08 01 //// 11 07 00 01
05604 2013 05618 2030 05621 2035 05621 2038 05624 2044 05605 2028+
-2925114 -17790384 RFRT  2014 01 11 08 01 //// 11 07 00 01
02519 0209 02517 0209 02528 0223 02531 0228 02549 0250 02517 0220+
-4357010 17277383 SUMT  2014 01 11 08 01 //// 11 07 00 01
01192 1861 01199 1866 01193 1857 01202 1864 01204 1862 01208 1863+
-3764109 17618118 TAUT  2014 01 11 08 01 //// 11 07 00 01
04536 3998 04532 3998 04529 3998 04527 4000 04524 4001 04520 4001+
-4128448 17477985 WLGT  2014 01 11 08 02 //// 11 07 00 01
02597 2018 02596 2015 02596 2014 02599 2016 02607 2023 02610 2023++
7777
0000009500
852
SAIQ01 ORBI 110800
METAR ORBM 110800Z VRB03KT 5000 HZ FEW040 04/03 Q1021 NOSIG=
0000009700
853
TWRS10 RUMS 110800
VORTEX
110600 GMT 16.2 S 080.4 E
110600 GMT 20.5 S 173.6 W
00000000