0000049600
626
SAOS31 LOWM 110050
METAR LOWW 110050Z 18005KT CAVOK M02/M04 Q1021 NOSIG=
METAR LOWL 110050Z AUTO 30002KT 9000 1800W R26/P1500N BR NCD M01/M01
    Q1020=
METAR LOWS 110050Z AUTO VRB01KT 9999 FEW050 OVC060 02/02 Q1019=
METAR LOWI 110050Z AUTO VRB02KT 6000 OVC003 03/02 Q1020 R88///////=
METAR LOWG 110050Z AUTO VRB01KT 0600 R35/0700N R17/0700N FG SCT002
    BKN008 03/03 Q1020 R88///////=
METAR LOWK 110050Z AUTO 30004KT 4500 BR OVC002 01/01 Q1021
    R88///////=

0000028700
627
FTAU31 YBBN 110000 AAC
TAF AMD YPDN 110054Z 1100/1206
24010KT 9999 SCT020
FM111400 17005KT 9999 SCT020
FM120200 14010KT 9999 SCT020
PROB30 TEMPO 1105/1118 VRB25G45KT 1000 TSRA BKN010 SCT020CB
PROB30 TEMPO 1205/1206 VRB25G45KT 1000 TSRA BKN010 SCT020CB
RMK=

0000008800
628
SPCN44 CWAO 110054
SPECI CYUS 110054Z AUTO 22012KT OVC030 M34/ A2946=

0000056800
629
SANO38 ENMI 110050
METAR ENDR 110050Z AUTO 06022KT M04/M10 Q1002=
METAR ENEK 110050Z 25021KT 8000 -RA SCT010 07/07 Q1004 W08/S4=
METAR ENGC 110050Z NIL=
METAR ENHE 110050Z 09023KT 1000 -SHSNRA BKN014 M04/M05 Q1004 W///S5=
METAR ENOA 110050Z 17003KT 9999 -SHRA BKN016 05/04 Q0997 W///S4=
METAR ENSL 110050Z AUTO 29029KT 9999NDV FEW022/// 07/02 Q1001
           W05/S4=
METAR ENFB 110050Z AUTO 09019KT 9999NDV BKN013/// 03/00 Q0997
           W///S5=
METAR ENSF 110050Z AUTO 09019KT 9999NDV BKN014/// 03/00 Q0997
           W///S5=

0000038300
630
SABX31 EBBR 110050
METAR EBAW 110050Z AUTO 21011KT 9999 BKN008/// 04/02 Q1016=
METAR EBBR 110050Z 21010KT 9999 BKN011 04/02 Q1016 NOSIG=
METAR EBCI 110050Z 20007KT 9999 FEW008 03/02 Q1016 NOSIG=
METAR EBLG 110050Z 19008KT CAVOK 03/01 Q1016 NOSIG=
METAR EBOS 110050Z 20010KT 9999 BKN008 04/02 Q1015 NOSIG=
METAR ELLX 110050Z AUTO 09002KT //// 02/01 Q1016=

0000065200
631
SANO33 ENMI 110050
METAR ENAT 110050Z AUTO 21006KT 9999NDV -SN OVC001/// M15/M17 Q1019
           RMK WIND 700FT 17008KT=
METAR ENBL 110050Z NIL=
METAR ENEV 110050Z AUTO 08012KT 040V100 9999NDV NCD M07/M15 Q1015 RMK
           WIND 1400FT 07016KT=
METAR ENFL 110050Z NIL=
METAR ENKB 110050Z AUTO VRB02KT 9999NDV BKN012/// OVC025/// M05/M07
           Q0999=
METAR ENKR 110050Z 17011KT 1200 -SN BKN001 OVC039 M21/M23 Q1015
           SEASMOKE NORTH OF THE FIELD RMK WIND 775FT 22009KT=
METAR ENML 110050Z NIL=
METAR ENNA 110050Z 20003KT 3700 BCFG BKN001 OVC003 M16/M18 Q1018 RMK
           WIND 1800FT 33005KT=

0000026300
632
SAEO32 EETN 110050
METAR EEKA 110050Z NIL=
METAR EEKE 110050Z AUTO 31008KT 270V350 9999NDV -RA SCT008 BKN014 
BKN019 01/01 Q0998=
METAR EETU 110050Z AUTO 31009KT 280V340 4400NDV -SN OVC009///
00/M01 Q0992 RESG=
METAR EEPU 110050Z NIL=

0000044300
633
SAFI33 EFHK 110050
EFJO 110050Z AUTO 02014KT 340V060 9999 -SG FEW013 BKN016 M08/M10
Q0995=
EFLP 110050Z AUTO 35013KT 320V030 7000 -SG OVC011 M06/M08 Q0992=
EFMI 110050Z AUTO VRB06KT 8000 -SG OVC014 M07/M08 Q0995=
EFSA 110050Z AUTO 35009KT 310V030 9999 -SN OVC014 M07/M09 Q0994=
EFUT 110050Z AUTO 35011KT 330V040 9999 OVC014 M06/M07 Q0993=
EFVR 110050Z AUTO 01007KT 340V050 4700 -SN BKN015 BKN021 M07/M09
Q0996=

0000028300
634
SANO37 ENMI 110050
METAR ENNO 110050Z NIL=
METAR ENOV 110050Z NIL=
METAR ENSD 110050Z NIL=
METAR ENSG 110050Z NIL=
METAR ENSN 110050Z NIL=
METAR ENSR 110050Z NIL=
METAR ENSS 110050Z 03016KT 9999 BKN050 M02/M12 Q1015 RMK WIND 500FT
           05015KT=

0000019300
635
SADL33 EDZO 110050
METAR EDFE 110050Z NIL=
METAR EDFH 110050Z 22005KT 9999 FEW010 01/01 Q1017=
METAR EDFM 110050Z NIL=
METAR EDLV 110050Z NIL=
METAR EDVK 110050Z NIL=

0000010100
636
SADL34 EDZO 110050
METAR EDQM 110050Z AUTO 22007KT 9999NDV BKN010/// 01/M01 Q1017=

0000021700
637
SANO36 ENMI 110050
METAR ENBS 110050Z NIL=
METAR ENHK 110050Z NIL=
METAR ENHV 110050Z NIL=
METAR ENLK 110050Z NIL=
METAR ENMH 110050Z NIL=
METAR ENNK 110050Z NIL=
METAR ENNM 110050Z NIL=

0000021700
638
SANO35 ENMI 110050
METAR ENMS 110050Z NIL=
METAR ENRM 110050Z NIL=
METAR ENRS 110050Z NIL=
METAR ENSK 110050Z NIL=
METAR ENSO 110050Z NIL=
METAR ENST 110050Z NIL=
METAR ENVD 110050Z NIL=

0000054900
639
SANO31 ENMI 110050
METAR ENAN 110050Z 11012KT CAVOK M07/M14 Q1016=
METAR ENBR 110050Z 13002KT 9999 -RA FEW005 SCT009 BKN016 02/02 Q0998
           RMK WIND 1200FT 15009KT=
METAR ENBO 110050Z 10014KT CAVOK M07/M17 Q1011=
METAR ENDU 110050Z NIL=
METAR ENGM 110050Z 04004KT 9000 FEW004 BKN006 M03/M03 Q0997=
METAR ENOL 110050Z 07008KT 9999 FEW010 SCT200 M08/M12 Q1002=
METAR ENVA 110050Z 08009KT 9999 FEW045 M10/M16 Q1003 RMK WIND 670FT
           12009KT=
METAR ENZV 110050Z 25009KT 9999 FEW015 BKN039 07/05 Q1000=

0000066500
640
SANO32 ENMI 110050
METAR ENAL 110050Z NIL=
METAR ENCN 110050Z AUTO 23006KT 9999NDV FEW098/// BKN130/// 05/04
           Q1000=
METAR ENHD 110050Z AUTO 25016KT 9999NDV BKN014/// BKN057/// OVC110///
           07/05 Q0999=
METAR ENRO 110050Z AUTO 09011KT 9999NDV -SN OVC006/// M15/M18 Q0998=
METAR ENRY 110050Z AUTO 23006KT 9999NDV BKN140/// 02/00 Q0998=
METAR ENSB 110050Z 22011KT 9999 FEW017 BKN025 M01/M05 Q1008 RMK WIND
           1400FT 22021KT=
METAR ENTC 110050Z VRB01KT 9999 FEW015 M12/M14 Q1017 RMK WIND 2600FT
           12009KT=
METAR ENTO 110050Z AUTO 25008KT 9999NDV BKN120/// BKN150/// 01/M01
           Q0997=

0000008900
641
SAQB31 LQSM 110100
METAR LQSA 110100Z VRB01KT 6000 BKN050 05/04 Q1022=

0000010000
642
SAMT20 GQPP 110100
METAR GQPP 110100Z 27004KT 230V300 7000 NSC 17/15 Q1016 NOSIG=

0000025200
643
SANO34 ENMI 110050
METAR ENBN 110050Z NIL=
METAR ENBV 110050Z NIL=
METAR ENFG 110050Z NIL=
METAR ENHF 110050Z 00000KT CAVOK M11/M14 Q1016 RMK WIND 1254FT
           23003KT=
METAR ENRA 110050Z NIL=
METAR ENSH 110050Z NIL=

0000069800
644
SANO39 ENMI 110050
METAR ENNE 110050Z NIL=
METAR ENQR 110050Z AUTO 09008G19KT 5000NDV -SHSN OVC014/// 02/M01
           Q0998 W///S/=
METAR ENSE 110050Z AUTO 09019KT 9999NDV RA NCD 02/M02 Q0998 W///S5=
METAR ENQC 110050Z AUTO 07010KT 9999NDV -RA OVC013/// 04/01 Q0997
           W///S4=
METAR ENQA 110050Z AUTO 07010KT 9999NDV -RA FEW011/// SCT015///
           BKN018/// 03/01 Q0997 W04/S4=
METAR ENHM 110050Z AUTO 26026KT 9999NDV FEW023/// 06/03 Q0998
           W08/S4=
METAR ENVH 110050Z AUTO 25021KT 4700NDV -SHRA BR OVC008/// 07/07
           Q1004 W///S4=
METAR ENLA 110050Z AUTO 29020KT 9999NDV SCT012/// BKN053/// 08/06
           Q1003 W///S4=

0000015500
645
FTCN34 CWAO 110000 AAA
TAF AMD CYMJ 110056Z 1100/1102 FCST CNCLD DUE END OF FLYING PROGRAM
    RMK NXT FCST WILL BE ISSUED AT 121915Z=

00000000