0000021700
346
SADL33 EDZO 110150
METAR EDFE 110150Z NIL=
METAR EDFH 110150Z 17005KT 0500 R21/0700V1100N FZFG FEW010 M01/M02
Q1016=
METAR EDFM 110150Z NIL=
METAR EDLV 110150Z NIL=
METAR EDVK 110150Z NIL=

0000010100
347
SADL34 EDZO 110150
METAR EDQM 110150Z AUTO 21008KT 9999NDV FEW008/// 01/M01 Q1017=

0000062900
348
SANO38 ENMI 110150
METAR ENDR 110150Z AUTO 06024KT M04/M07 Q1001=
METAR ENEK 110150Z 30016KT 8000 -RADZ BKN005 BKN025 07/07 Q1003
           W08/S4=
METAR ENGC 110150Z NIL=
METAR ENHE 110150Z 10026KT 7000 BKN013 M03/M04 Q1003 RESN W///S5=
METAR ENOA 110150Z 23008G20KT 210V270 9999 -SHRA OVC015 05/03 Q0996
           W///S4=
METAR ENSL 110150Z AUTO 29029KT 9999NDV FEW026/// 07/01 Q1001
           W05/S4=
METAR ENFB 110150Z AUTO 08022KT 9999NDV -DZ OVC012/// 03/01 Q0997
           W///S5=
METAR ENSF 110150Z AUTO 09020KT 9999NDV -DZ SCT012/// OVC028/// 03/01
           Q0997 W///S5=

0000083600
349
SAIY31 LIIB 110150
METAR LIEA 110150Z 00000KT 7000 0200W PRFG NSC 06/06 Q1020=
METAR LIEE 110150Z 33003KT 9999 MIFG NSC 07/07 Q1019=
METAR LIEO 110150Z VRB01KT 1200 R05/1000V1400U BR NSC 04/03 Q1021=
METAR LIMC 110150Z VRB01KT 6000 BKN035 07/06 Q1022 NOSIG=
METAR LIME 110150Z 32003KT 3000 BR BKN012 08/07 Q1021=
METAR LIMF 110150Z 00000KT 7000 BKN035 07/05 Q1021=
METAR LIMJ 110150Z 36003KT 330V030 9999 SCT018 BKN035 12/10 Q1021=
METAR LIML 110150Z 04001KT 5000 BR FEW005 BKN035 08/07 Q1022 NOSIG=
METAR LIRA 110145Z 00000KT 8000 SCT030 SCT070 08/07 Q1021=
METAR LIRF 110150Z 05003KT 6000 NSC 06/06 Q1022 NOSIG=
METAR LIRN 110150Z 31004KT 5000 BR NSC 08/06 Q1022=
METAR LIRP 110145Z 11003KT 8000 BKN045 08/07 Q1021 TEMPO 5000 BR=
METAR LIRQ 110150Z VRB01KT 5000 BR FEW020 BKN040 11/10 Q1022=

0000061900
350
SAIY32 LIIB 110150
METAR LIBD 110150Z 22005KT 7000 NSC 06/06 Q1022=
METAR LIBR 110145Z 25003KT 8000 NSC 07/05 Q1022 NOSIG=
METAR LICC 110150Z NIL=
METAR LICJ 110150Z 27001KT CAVOK 12/09 Q1021=
METAR LIPB 110150Z NIL=
METAR LIPE 110150Z VRB02KT 1800 BR SCT001 BKN050 07/07 Q1021=
METAR LIPH 110150Z NIL=
METAR LIPK 110150Z NIL=
METAR LIPQ 110150Z VRB01KT 0150 R09/0300 FG OVC003 07/04 Q1021=
METAR LIPR 110145Z /////KT 6000 BKN050 09/09 Q1021=
METAR LIPX 110145Z 00000KT 1000 R04/P1500U BR FEW010 BKN045 08/06
      Q1022=
METAR LIPZ 110150Z 00000KT 4000 BR BKN050 08/06 Q1021=

0000010200
351
SACV20 GVSV 110200
METAR GVSV 110200Z 07008KT 9999 SCT023 BKN200 20/15 Q1017 NOSIG=

0000008700
352
SAIY32 LIIB 110150 RRA
METAR LICC 110150Z 28008KT CAVOK 11/06 Q1021=

0000063500
353
SAMX45 MMMY 110155
METAR MMMY 110148Z 17004KT 12SM  SKC 16/13 A2991 RMK ISOL AC=
METAR MMAN 110140Z 00000KT 10SM  SKC 18/13 A2995=
METAR MMMA 110140Z 15004KT 8SM  SKC 20/17 A2989 RMK FU N=
METAR MMIO 110040Z 18005KT 10SM SKC 17/08 A3008=
METAR MMRX 110140Z 15005KT 10SM  SKC 20/18 A2988 RMK HZY FU CI=
METAR MMNL 110140Z 00000KT 8SM  SCT160 BKN200 20/13 A2987 RMK 8/072=
METAR MMCV 110140Z 20004KT 6SM  FEW020 20/15 A2989 RMK 8/500 HZY=
METAR MMTC 110140Z 00000KT 10SM BKN250 17/00 A3004 RMK 8/002=
METAR MMCU 110140Z 00000KT 10SM SKC 12/M04 A3007=
METAR MMCS 110140Z 00000KT 10SM SKC 14/M07 A2995=

0000060400
354
SADL31 EDZO 110150
METAR EDDF 110150Z 16002KT 9999 BCFG MIFG FEW001 M01/M01 Q1018
     NOSIG=
METAR EDDH 110150Z 23010KT 9999 BKN011 06/04 Q1012 NOSIG=
METAR EDDK 110150Z VRB01KT CAVOK 02/01 Q1017 NOSIG=
METAR EDDL 110150Z 15006KT CAVOK 02/00 Q1016 NOSIG=
METAR EDDM 110150Z 29001KT 9999 R26R/0900V1800U R26L/P2000N MIFG NSC
     M02/M02 Q1019 NOSIG=
METAR EDDN 110150Z 10003KT CAVOK M00/M00 Q1018=
METAR EDDS 110150Z 03001KT CAVOK M01/M01 Q1018=
METAR EDDT 110150Z 24010KT 9999 FEW025 SCT250 05/02 Q1015=
METAR EDDV 110150Z 25008KT 210V280 9999 BKN013 05/04 Q1015=

0000044300
355
SADL32 EDZO 110150
METAR EDDB 110150Z 23010KT 9999 SCT023 SCT040 03/01 Q1015 NOSIG=
METAR EDDC 110150Z 25007KT CAVOK 04/00 Q1016=
METAR EDDE 110150Z 22012KT CAVOK 03/01 Q1016=
METAR EDDG 110150Z 22008KT 9000 BKN010 05/03 Q1015 NOSIG=
METAR EDDP 110150Z 21007KT 9999 SCT040 SCT100 BKN230 03/01 Q1017
     NOSIG=
METAR EDDR 110150Z 07003KT CAVOK M00/M01 Q1017=
METAR EDDW 110150Z 23010KT 8000 BKN012 06/04 Q1013=

0000067400
356
SAFI31 EFHK 110150
METAR EFHK 110150Z 34010KT 9999 BKN010 M03/M04 Q0995 BECMG BKN008=
METAR EFJY 110150Z AUTO 01008KT 9999 -SN OVC015 
M07/M09 Q0998=
METAR EFKU 110150Z AUTO 01010KT 9999 -SN BKN019 
BKN044 M08/M11 Q0998=
METAR EFOU 110150Z AUTO 05008KT 020V100 9999 -SN FEW018/// BKN033/// 
OVC050/// M13/M15 Q1006 12420581=
METAR EFRO 110150Z AUTO 04013KT CAVOK M16/M20 
Q1009=
METAR EFTP 110150Z AUTO 36007KT 9999 BKN005 OVC007 
M04/M05 Q0997=
METAR EFTU 110150Z AUTO 01005KT 340V040 9999 -SN OVC007/// M02/M03 
Q0997 R08/19//80=
METAR EFVA 110150Z AUTO 02008KT 9999 SG BKN030/// BKN048/// OVC060///
M08/M10 Q1002 R16/49//95=

0000011100
357
SPUS31 KWBC 110125
SPECI
KLIT 110121Z 15007KT 3SM -RA BR SCT011 BKN025 OVC080 12/11 A2972=

0000009300
358
SPUS41 KWBC 110125
SPECI
KBDL 110121Z 17003KT 3SM BR OVC013 01/00 A3032=

0000010400
359
SPUS41 KWBC 110125
SPECI
KDAY 110121Z 14010KT 4SM -RA BR BKN002 OVC020 07/06 A2984=

0000009400
360
SPUS43 KWBC 110125
SPECI
KMKC 110121Z 28006KT 7SM -RA OVC009 04/03 A2958=

0000013800
361
SAMO31 ZMUB 110200
METAR ZMUB 110200Z VRB01MPS 2000NW 3600SE FU NSC M33/M37 Q1028 NOSIG

 RMK QFE662.7 67 NW SE MO=

0000063500
362
SAMX45 MMMY 110153
METAR MMMY 110148Z 17004KT 12SM  SKC 16/13 A2991 RMK ISOL AC=
METAR MMAN 110140Z 00000KT 10SM  SKC 18/13 A2995=
METAR MMMA 110140Z 15004KT 8SM  SKC 20/17 A2989 RMK FU N=
METAR MMIO 110040Z 18005KT 10SM SKC 17/08 A3008=
METAR MMRX 110140Z 15005KT 10SM  SKC 20/18 A2988 RMK HZY FU CI=
METAR MMNL 110140Z 00000KT 8SM  SCT160 BKN200 20/13 A2987 RMK 8/072=
METAR MMCV 110140Z 20004KT 6SM  FEW020 20/15 A2989 RMK 8/500 HZY=
METAR MMTC 110140Z 00000KT 10SM BKN250 17/00 A3004 RMK 8/002=
METAR MMCU 110140Z 00000KT 10SM SKC 12/M04 A3007=
METAR MMCS 110140Z 00000KT 10SM SKC 14/M07 A2995=

0000055000
363
SADN31 EKCH 110150
METAR EKCH 110150Z 24013KT 9999 BKN017 BKN041 05/04 Q1008 NOSIG=
METAR EKBI 110150Z 24010KT 210V270 9999 SCT008 SCT020 BKN150
05/04 Q1007=
METAR EKYT 110150Z 25015KT 9999 FEW012 BKN035 BKN055 07/05 Q1003=
METAR EKRK 110150Z AUTO 25013KT 9999NDV FEW012/// BKN015///
BKN160/// 05/04 Q1007=
METAR EKAH 110150Z AUTO 24008KT 200V280 9999NDV BKN014/// BKN032///
06/03 Q1006=
METAR EKEB 110150Z AUTO 22009KT 9999NDV BKN012/// 07/05 Q1007=
METAR EKRN 110150Z AUTO 26018KT 9999NDV OVC040/// 06/06 Q1009=

0000016500
364
SADN32 EKCH 110150
METAR EKVJ 110153Z NIL=
METAR EKSB 110153Z NIL=
METAR EKSN 110153Z NIL=
METAR EKVD 110153Z NIL=
METAR EKOD 110153Z NIL=

0000054000
365
SADN34 EKCH 110150
METAR EKHN 110150Z AUTO 23008G20KT 160V310 7000NDV BKN012///
BKN120/// ///// Q1009=
METAR EKHR 110150Z AUTO 24018KT 9999NDV FEW011/// BKN016///
BKN019/// 08/06 Q1007=
METAR EKHA 110150Z AUTO 24022KT 9000NDV 07/06 Q1007=
METAR EKHD 110150Z AUTO 26022KT 7000NDV 07/06 Q1004=
METAR EKTE 110150Z AUTO 23019KT 4500NDV -SHRA BR SCT002 BKN005 OVC022
 07/06 Q1006=
METAR EKGC 110150Z AUTO 24022KT 9999NDV 07/06 Q1006=
METAR EKAV 110150Z AUTO 24017KT 9999NDV FEW120/// BKN150///
06/04 Q1005=

00000000