0000038100
666
SAFR23 LFPW 102230
METAR LFOC 102230Z AUTO 07006KT 360V100 0300 R28/1900U FG VV///
06/05 Q1016=
METAR LFOE 102230Z AUTO 16004KT 4800 BR OVC003 05/05 Q1017=
METAR LFOJ 102230Z AUTO 06005KT 2000 BR VV/// 06/05 Q1016=
METAR LFRJ 102230Z AUTO 18006KT 5000 BR NSC 07/06 Q1015=
METAR LFRL 102230Z AUTO 17004KT 0300 R23/0900U R05/1200U // VV///
08/07 Q1015=

0000025900
667
SAFR24 LFPW 102230
METAR LFSI 102230Z AUTO 09004KT 6000 NSC 02/01 Q1018=
METAR LFSO 102230Z AUTO 13005KT 9999 NSC 02/02 Q1018=
METAR LFSX 102230Z AUTO 07005KT 9000 NSC 03/01 Q1018=
METAR LFYR 102230Z AUTO VRB01KT 9999 NSC 05/04 Q1015=

0000023900
668
WSMG31 FMMI 111050
FMMM SIGMET A1 VALID 111100/111500 FMMI-
FMMM ANTANANARIVO FIR/UIR EMBD TS OBS WI
S1000 E04500 - S1000 E05530 - S1648 E05530 - S1524 E04806 -
S1012 E04412 - S1000 E04500 TOP FL410 MOV SW 05KT INTSF=
0000010900
669
UANT01 CWAO 111047
ARP SWR39 5704N03638W 1047 F350 MS57 238/28 KT
HBJMO QXT AOW 111047 J58A
0000013600
670
UAPA01 KWBC 111048
ARP UAL825 3210N 13250W 1037 F370 MS49 250/050KT=
ARP UAL372 2714N 14713W 1040 F350 MS45 245/070KT=
0000011000
671
UANT01 CWAO 111048
ARP SVA061 5254N04208W 1048 F360 MS57 294/59 KT
HZAKI QXT AOW 111048 F67A
0000014300
672
SNIY20 LIIB 111000 CCA
AAXX 11104
16360 42597 50305 10132 20119 30092 40228 51006 83230 333 55307 83820
      84357 555 0000/=
0000058400
673
SAER10 OMAM 111030
METAR OMAD 111030Z NIL=
METAR OMAH 111030Z 20003KT 170V230 7000NDV -RA OVC080 19/12 Q1019 A3010=
METAR OMAM 111000Z 19011KT CAVOK 23/10 Q1017 A3003=
METAR OMDL 111030Z 27005KT 8000NDV -RA OVC080 19/12 Q1017 A3005=
METAR OMDM 111030Z 17008KT CAVOK 22/10 Q1018=
METAR OMLW 111030Z 20008KT CAVOK 22/11 Q1017=
METAR OMMZ 111030Z AUTO 15004KT 120V180 /////NDV //// ///// 22/11 Q1018 A3007=
METAR OMSN 111030Z AUTO 18009KT /////NDV //// ///// 18/14 Q1019 A3010=
METAR OMSW 111030Z NIL=
METAR OMTH 111030Z 15006KT 9999 OVC090 21/09 Q1019=
0000011100
674
UANT99 KDDL 111047
ARP UAL957 5101N01556W 1047 F360 MS63 239/74 KT
N667UA DDL XXW 111047 F15A
0000011100
675
UANT99 KDDL 111047
ARP UAL930 5904N03313W 1047 F370 MS58 214/39 KT
N228UA DDL XXW 111048 F55A
0000011100
676
UANT99 KDDL 111048
ARP SVA021 5103N01922W 1047 F340 MS61 216/73 KT
HZAK20 QXT EUA 111048 F56A
0000017900
677
SMVC01 KWBC 110600 RRF
BBXX
3FJY6 11064 99431 50936 41/96 83231 10160 2014/ 40100 56020 76262
 887// 22273 00160 2//08 329// 4//// 5//// 6//// 80150 ICE /////=
0000066100
678
UDAF01 FAPR 111046
AMDAR 1110
UNS AFZA47 2603S 02816E 111043 F076 PS158 247/002 TB0 S031 333 F/// VG017=
UNS AFZA47 2602S 02817E 111043 F078 PS144 333/005 TB0 S031 333 F/// VG017=
ASC AFZA47 2602S 02818E 111043 F082 PS149 342/009 TB0 S031 333 F/// VG014=
ASC AFZA47 2602S 02819E 111044 F086 PS142 334/008 TB0 S031 333 F/// VG013=
ASC AFZA47 2602S 02820E 111044 F089 PS132 327/009 TB0 S031 333 F/// VG013=
ASC AFZA47 2602S 02822E 111044 F095 PS117 305/011 TB0 S031 333 F/// VG012=
ASC AFZA47 2602S 02828E 111045 F114 PS062 258/017 TB0 S031 333 F/// VG011=
ASC AFZA47 2602S 02834E 111046 F134 PS008 267/020 TB0 S031 333 F/// VG010=
0000042300
679
SNVD17 KWNB 111000 RRI
BBXX
52211 11101 99153 11457 46/// ///// 1//// 91018 22200 00281 10906
20906 305// 41101 70029=
52202 11101 99137 11448 46/// ///// 1//// 91030 22200 00282 10705
20704 304// 41101 70023=
51205 11101 99210 71564 46/// ///// 1//// 91021 22200 00249 11004
21004 304// 41102 70022=
46239 11101 99363 71221 46/// ///// 1//// 91029 22200 00133 11406
21003 330// 41405 70031=
0000045800
680
SNVD15 KWNB 111100
BBXX
44064 11111 99370 70760 46/// /1305 10103 40147 91040 333 91205
555 11055 22060=
44062 11111 99386 70764 46/// /0501 10031 40141 91040 333 91201
555 11010 22011=
44063 11111 99390 70764 46/// /0000 10027 40127 91040 333 91201
555 11003 22004=
44041 11111 99372 70768 46/// /1304 10136 91040 333 91204 555
11044 22048=
44042 11111 99380 70763 46/// /1504 10076 40134 91040 333 91205
555 11050 22054=
0000058800
681
SNVD19 KWNB 111000 RRE
BBXX
46126 11101 99540 71666 46/// /2105 10048 49808 91000 22200 00045
1//00 70002 333 91207 555 11049 22053=
46126 11101 99540 71666 46/// /2206 10045 49809 91018 22200 00045
1//00 70001 333 91208 555 11060 22065=
46126 11101 99540 71666 46/// /2206 10045 49809 91020 22200 00045
1//00 70001 333 91208 555 11060 22065=
46126 11101 99540 71666 46/// /2305 10045 49809 91024 22200 00045
1//00 70002 333 91206 555 11051 22056=
46126 11101 99540 71666 46/// /2204 10045 49805 91030 22200 00046
1//00 70002 333 91205 555 11038 22041=
0000023300
682
SNVD22 KWNB 111000 RRS
BBXX
46214 11101 99379 71235 46/// ///// 1//// 91026 22200 00112 11507
21003 331// 41506 70035=
46221 11101 99339 71186 46/// ///// 1//// 91025 22200 00154 11402
21001 327// 41401 70010=
0000012400
683
SNVD20 KWNB 111100
BBXX
44058 11111 99376 70763 46/// /1906 10087 40144 91040 333 91207
555 11068 22074=
0000034500
684
SIVD30 KWBC 110900 RRS
BBXX
42392 11091 99272 70900 46/// ///// 1//// 90840 22200 10401 70007=
42887 11091 99282 70885 46/// /1809 10225 20199 90840 22200 10502
 70009 555 11073 22079=
42375 11091 99285 70883 46/// /1610 1//// 90840 22200 10401 70007
 555 11084 22092=
42369 11091 99272 70903 46/// /1606 1//// 90840=
0000023500
685
SNVB01 KWBC 111000 RRD
BBXX
52211 11101 99153 11457 46/// ///// 1//// 91018 22200 00281 10906
 20906 305// 41101 70029=
52202 11101 99137 11448 46/// ///// 1//// 91030 22200 00282 10705
 20704 304// 41101 70023=
00000000