0000030600
266
SANL31 EHDB 110255
METAR EHAM 110255Z 21012KT 8000 SCT008 OVC011 06/04 Q1013 BECMG 7000=
METAR EHBK 110255Z AUTO 21010KT 9999 NCD 02/01 Q1016=
METAR EHGG 110255Z AUTO 22012KT 4900 BR FEW008 BKN009 OVC011 06/05
Q1012=
METAR EHRD 110255Z AUTO 21012KT 6000 OVC008 05/04 Q1014 NOSIG=

0000013100
267
FTUS31 KWBC 110257 AAA
TAF AMD
KPHX 110254Z 1103/1124 09004KT P6SM FEW250
     FM112200 26004KT P6SM FEW250=

0000031300
268
FTUS43 KWBC 110257 AAA
TAF AMD
KOAJ 110255Z 1103/1124 14006KT P6SM VCSH SCT015 BKN025
      TEMPO 1103/1105 5SM -RA BKN007
     FM110500 15008KT 5SM BR VCSH BKN009
     FM111300 19015G25KT P6SM BKN050
     FM112100 20016G25KT 5SM -RA VCTS BKN025CB AMD LTD TO CLD VIS
      AND WIND=

0000032500
269
FTUS74 KWBC 110257 AAA
TAF AMD
KCEC 110254Z 1103/1124 16009KT P6SM SCT023 SCT050 OVC060
     FM110700 16015G25KT P6SM OVC004
     FM110900 17025G35KT 2SM RA BR BKN002
     FM111800 19018G25KT 2SM RA BR SCT002 OVC020=
KPHX 110254Z 1103/1124 09004KT P6SM FEW250
     FM112200 26004KT P6SM FEW250=

0000008400
270
SAAG41 SAZM 110300
METAR SAZM 110300Z  20006KT CAVOK 16/11 Q1014=

0000084400
271
SAHK31 VHHH 110300
METAR VHHH 110300Z 08013KT CAVOK 20/09 Q1024 NOSIG=
METAR RCTP 110300Z 32006KT 290V350 9999 FEW020 21/14 Q1023 NOSIG
RMK A3023=
METAR RCKH 110300Z VRB02KT 8000 FEW018 25/15 Q1024 NOSIG RMK A3025
=
METAR RCSS 110300Z 12010KT 9999 FEW025 23/13 Q1024 NOSIG RMK A3025
=
METAR VMMC 110300Z 02005KT 7000 FEW030 17/11 Q1025 NOSIG=
METAR RPLL 110300Z 07012KT 030V110 9000 SCT023 SCT100 28/17 Q1016
NOSIG RMK A3001=
METAR RPVM 110300Z 36016KT 7000 -RA SCT020 OVC080 25/24 Q1013 A2992=
METAR RPMD 110300Z
36008KT 5000 -RA SCT016 OVC090 24/23 Q1011 A2987 LGT RA CONS LOW CLDS
MVNG S=
METAR RPLB 110300Z 08018G27KT 9999 FEW030 BKN300 27/21 Q1015 NOSIG=
METAR RPLI 110300Z
09010KT 9999 FEW019 28/15 Q1017 NOSIG RMK A3003=
METAR RPMZ 110300Z 00000KT 9999 SCT018 OV120 28/25 Q1012 A2990=

0000016900
272
SACY31 LCLK 110300
METAR LCLK 110300Z 30007KT CAVOK 10/06 Q1021 NOSIG=
METAR LCPH 110300Z 02008KT 9999 SCT026 10/06 Q1022=
METAR LCNC 110300Z NIL=

0000008900
273
SPDN33 EKCH 110301
SPECI EKSP 110301Z 24015KT 9999 BKN007 07/05 Q1008=

0000009100
274
SAFG20 SOCA 110300
METAR SOCA 110300Z AUTO 24003KT 9999 NSC 23/22 Q1012=

0000014200
275
SACN62 CYQX 110300
METAR CYQX 110300Z 24016G22KT 20SM FEW020 FEW090 SCT120 BKN140
 M08/M12 A3004 RMK SC1AC1AC2AC1 SLP183=

0000015300
276
SACN62 CYRL 110300
METAR CYRL 110300Z 15004KT 1 1/2SM -SN BR OVC009 M06/M07 A2937 RMK
 SN5SC3 FROIN  LAST OBS/ NEXT 11 1000Z SLP973=

0000011200
277
SASR31 WSSS 110300
METAR WSSS 110300Z 01007KT 310V060 9999 FEW018 BKN300 29/24 Q1012
NOSIG=

0000009500
278
SAGQ20 FGSL 110300
METAR FGSL 110300Z 24005KT 6000 FEW010 23/21 Q1010 NOSIG=

0000012100
279
SAGQ21 FGSL 110300
METAR FGBT 110300Z NIL=
METAR FGSL 110300Z 24005KT 6000 FEW010 23/21 Q1010 NOSIG=

0000011600
280
SACN62 CYXU 110300
METAR CYXU 110300Z 16010KT 2 1/2SM BR OVC003 03/03 A2988 RMK FG1SF7
 SLP127=

0000009900
281
SASR31 WSAP 110300
METAR WSAP 110300Z 36009KT 9999 
FEW018 BKN300 30/24 Q1012=

0000009500
282
SATU33 LTAA 110250 RRA
METAR LTCD 110250Z VRB01KT CAVOK M13/M15 Q1023 NOSIG=

0000039700
283
SAHU41 LHBM 110300
METAR LHKE 110245Z 21001MPS 8000 NSC 00/M01 Q1022 NOSIG RMK BLU=
METAR LHPA 110245Z 00000MPS 8000 BKN040 02/02 Q1021 NOSIG RMK BLU=
METAR LHPP 110245Z 06003KT 9999 BKN040 05/04 Q1021=
METAR LHPR 110245Z 00000KT 9999 FEW030 02/01 Q1021=
METAR LHSN 110245Z 24003MPS CAVOK 02/M00 Q1021 NOSIG RMK BLU=
METAR LHUD 110245Z 17005KT 6000 SCT050 01/00 Q1022=

0000010600
284
SASQ41 LZIB 110300 RRA
METAR LZPP 110300Z AUTO 12003KT 9999 // FEW099/// M00/M02 Q1020=

0000012300
285
SAPF20 NTAA 110300
METAR NTAA 110300Z VRB02KT 9999 VCSH SCT020 SCT050 BKN100 30/21
Q1011 WS R22 NOSIG=

00000000