0000126000
546
SAAU32 YBBN 110300
METAR YAMB 110300Z AUTO 10004KT 9999 // SCT059 SCT081 29/15 Q1016=
METAR YMAV 110300Z AUTO 17013KT 9999 // NCD 23/12 Q1019=
METAR YBRM 110300Z 30008KT 9999 FEW024 32/25 Q1009=
METAR YCIN 110300Z AUTO 26006KT //// // NCD 35/24 Q1009=
METAR YSDU 110300Z AUTO 15002KT 9999 // SCT068 30/14 Q1017=
METAR YFRT 110300Z AUTO 12013KT //// // ////// 30/10 Q1020=
METAR YGEL 110300Z 04014KT CAVOK 44/M01 Q1008
RMK DU=
METAR YPGV 110300Z 11011KT 9999 VCSH FEW012 BKN017 BKN120 28/25 Q1007
RMK SHRA TO WEST=
METAR YBHM 110300Z AUTO 12020KT 9999 // ////// 29/21 Q1013=
METAR YMHB 110300Z 15014KT 9999 FEW050 SCT220 23/09 Q1012=
METAR YPKG 110300Z AUTO 08011KT 9999 // NCD 31/07 Q1020=
METAR YMLT 110300Z AUTO 36009KT 9999 // BKN064 27/10 Q1012=
METAR YBMA 110300Z AUTO 07011KT 9999 // NCD 39/14 Q1010=
METAR YSNF 110300Z 12012KT 9999 FEW033 SCT046 22/13 Q1017=
METAR YPEA 110300Z AUTO 10013G24KT 9999 // NCD 37/08 Q1013=
METAR YPPD 110300Z AUTO 30008KT 9999 // NCD 35/26 Q1009=
METAR YSRI 110300Z AUTO 33005KT 9999 // NCD 32/13 Q1014=
METAR YBRK 110300Z 07010KT CAVOK 30/18 Q1014=
METAR YWLM 110300Z AUTO 12010KT 9999 // NCD 31/16 Q1015=
METAR YPWR 110300Z AUTO 12004KT 9999 // NCD 37/07 Q1016=

0000030900
547
SANG31 YBBN 110300
METAR AYPY 110300Z 26004KT 9999 SCT020 BKN280 31/25 Q1005=
METAR AYWK 110300Z NIL=
METAR AYVN 110300Z NIL=
METAR AYNZ 110300Z NIL=
METAR AYMH 110300Z NIL=
METAR AYGN 110300Z NIL=
METAR AYMO 110300Z NIL=
METAR AGGH 110300Z 36005KT 9999 HZ FEW020 31/24 Q1005=

0000008800
548
SAAG05 SABM 110300 RRA
METAR SAZN 110300Z 16004KT CAVOK 24/M03 Q1015=

0000009500
549
SAFR32 LFPW 110300 RRA
METAR LFCK 110300Z AUTO 13016KT 9999 NSC 10/06 Q1017=

0000012300
550
SAAF05 LFPW 110300 RRA
METAR DBBB 110300Z 24003KT 6000 SCT010 BKN200 27/26 Q1009 TEMPO 4000
BR BKN008=

0000024300
551
SAAF08 LFPW 110300 RRA
METAR DFFD 110300Z 06005KT CAVOK 21/02 Q1013 NOSIG=
METAR GABS 110300Z 14001KT CAVOK 21/07 Q1013 NOSIG=
METAR GAKY 110300Z 00000KT CAVOK 22/08 Q1012=
METAR GAMB 110300Z 04004KT CAVOK 20/05 Q1013=

0000010000
552
SAAF14 LFPW 110300 RRA
METAR DRRN 110300Z 08008KT 4000 DU NSC 21/M01 Q1014 NOSIG=

0000015500
553
SAAF18 LFPW 110300 RRB
METAR FMMT 110300Z 00000KT 9999 SCT017 25/25 Q1013=
METAR FMNM 110300Z 26002KT 9999 FEW020  BKN230 25/24 Q1012=

0000010600
554
SPCN31 CWAO 110310
SPECI CYZX 110310Z 22006KT 10SM -DZ OVC011 RMK SC8 WNDY HILL UNAVBL=

0000009900
555
SAAF27 LFPW 110300 RRA
METAR DGAA 110300Z 26005KT 9999 FEW010 27/25 Q1010 NOSIG=

0000010100
556
SACI41 ZBBB 110300 RRA
METAR ZYHB 110300Z VRB01MPS 6000 NSC M17/M22 Q1025
NOSIG=

0000033100
557
SANM40 FYWW 110300
METAR FYGO 110300Z AUTO 35009KT //// // ////// 16/14 Q1013=
METAR FYOA 110300Z AUTO 21007KT //// // ////// 20/09 Q1013=
METAR FYRN 110300Z 00000KT CAVOK 20/09 Q1015=
METAR FYWB 110300Z AUTO 34010KT //// // ////// 16/14 Q1013=
METAR FYWH 110300Z AUTO 20005KT //// // ////// 13/01 Q1021=

0000014900
558
FTCN32 CWAO 110300 AAA
TAF AMD CYVT 110310Z 1103/1104 32015KT P6SM -SN SCT015 OVC030
    RMK NXT FCST WILL BE ISSUED AT 111345Z=

0000014500
559
SACN62 CYXT 110300
METAR CYXT 110300Z 34013KT 10SM FEW005 SCT025 BKN050 OVC110 01/M00
 A2940 RMK SF1SC2SC2AC3 PRESFR SLP964=

0000028300
560
FTCN36 CWAO 110300 AAA
TAF AMD CYOW 110310Z 1103/1124 06006KT P6SM OVC025 TEMPO 1103/1109
     OVC009
    FM110900 08008KT 3SM -FZRA BR OVC003
    FM111300 10008KT 3/4SM -RA BR OVC002
    FM111800 20012G22KT 2SM -RA BR OVC007
    RMK NXT FCST BY 110600Z=

0000040000
561
SAPO31 LPMG 110300
METAR LPBJ 110300Z VRB02KT CAVOK 08/07 Q1015=
METAR LPFR 110300Z 03007KT CAVOK 12/08 Q1015=
METAR LPMA 110300Z VRB02KT CAVOK 14/06 Q1017 RS24001KT 0529005KT
2329004KT=
METAR LPPR 110300Z VRB01KT 2300 0900N R35/P2000 BR BCFG NSC 07/07
Q1015=
METAR LPPS 110300Z 09003KT 050V130 CAVOK 12/11 Q1016=
METAR LPPT 110300Z 36004KT 330V030 CAVOK 10/09 Q1015=

0000029600
562
SAPO32 LPMG 110300
METAR LPAZ 110300Z 21025KT 9000 -RA FEW010 SCT014 BKN040 15/13 Q1007=
METAR LPFL 110300Z NIL=
METAR LPHR 110300Z NIL=
METAR LPLA 110300Z 24012KT 180V270 9999 FEW017 SCT036 15/11 Q1003=
METAR LPPD 110300Z 24016KT 9999 FEW008 SCT012 BKN045 15/14 Q1005=

0000011500
563
SAKY31 RUMS 110300 RRA
METAR UCFM 110300Z 18003MPS 4000 FU NSC M10/M16 Q1023 R08/CLRD70
NOSIG=

0000006100
564
SAUK39 EGGY 110300
METAR EGUN 110300Z NIL=

0000030900
565
FTCA33 KWBC 110312
TAF
TAF COR TLPC 110300Z 1106/1206 09012G22KT 9999 SCT024
      TEMPO 1106/1206 SHRA BKN022 PROB30
      TEMPO 1106/1112 5000 SHRA=
TAF COR TLPL 110300Z 1106/1206 08018G28KT 9999 SCT024
      TEMPO 1106/1206 SHRA BKN022 PROB30
      TEMPO 1106/1112 5000 SHRA=

00000000