0000015900
306
SAAF27 LFPW 102200 RRB
METAR DGAA 102200Z 21006KT 8000 FEW012 28/25 Q1012 NOSIG=
METAR GUCY 102200Z 27004KT 8000 SCT110 26/23 Q1012 NOSIG=

0000073500
307
SAEA20 HKNC 102200
METAR HKJK 102200Z 03006KT 9999 SCT020 18/12 Q1022 NOSIG=
METAR HKKS 102200Z 00000KT CAVOK 18/13=
METAR HKEL 102200Z NIL=
METAR HKEM 102200Z NIL=
METAR HKGA 102200Z NIL=
METAR HKKG 102200Z NIL=
METAR HKKI 102200Z NIL=
METAR HKKR 102200Z NIL=
METAR HKKT 102200Z NIL=
METAR HKLO 102200Z NIL=
METAR HKLU 102200Z NIL=
METAR HKMA 102200Z NIL=
METAR HKMB 102200Z NIL=
METAR HKME 102200Z NIL=
METAR HKML 102200Z NIL=
METAR HKMO 102200Z NIL=
METAR HKMU 102200Z NIL=
METAR HKMY 102200Z NIL=
METAR HKNC 102200Z NIL=
METAR HKNI 102200Z NIL=
METAR HKNK 102200Z NIL=
METAR HKNO 102200Z NIL=
METAR HKNW 102200Z NIL=
METAR HKVO 102200Z NIL=
METAR HKWJ 102200Z NIL=

0000024400
308
SAPM31 MPTO 102200
METAR
MPBO 102200Z 35006KT 290V030 9000 SCT018 BKN090 Q1012=
MPDA 102200Z 22006KT 9999 SCT020 31/23 Q1007=
MPMG 102200Z 33007KT 9999 FEW020 29/23 Q1009 NOSIG=
MPPA 102200Z 35008KT 9999 SCT030 Q1008=

0000011200
309
SPCN52 CWAO 102210
SPECI CWFD 102210Z AUTO 20016KT 1/8SM BKN048 M20/ A2886 RMK ICG PAST
HR=

0000010100
310
SPUS31 KWBC 102210
SPECI
KIND 102206Z 15010KT 1 3/4SM -RA BR OVC003 04/04 A2987=

0000010500
311
SPUS31 KWBC 102210
SPECI
KORF 102206Z AUTO 02005KT 3SM BR FEW004 OVC055 06/04 A3029=

0000010500
312
SPUS31 KWBC 102210
SPECI
KPIT 102206Z 14006KT 10SM BKN012 BKN065 BKN250 07/05 A3010=

0000009900
313
SPUS31 KWBC 102210
SPECI
KRDU 102206Z 29004KT 1/2SM -RA BR OVC003 07/06 A3023=

0000011000
314
SABZ42 KWBC 102200 RRA
METAR
SBSJ 102200Z 13003KT 9999 FEW025 FEW030TCU 24/14 Q1016 RETS=

0000009500
315
SACA31 KWBC 102200 RRB
METAR
MBPV 102200Z 07009KT 9999 SCT012 27/21 Q1018=

0000041000
316
SAJP31 KWBC 102200 RRA
METAR
RJCC 102200Z 21009KT 8000 -SHSN FEW015 SCT030 BKN050 M09/M12 Q1018
     RMK 1ST015 3CU030 7CU050 A3007=
RJFK 102200Z VRB01KT 9999 FEW030 SCT045 BKN060 M01/M06 Q1029 RMK
     1CU030 3SC045 6SC060 A3040=
RJOO 102200Z 01006KT 9999 FEW025 M00/M06 Q1029 RMK 1CU025
     A3039=
RJTT 102200Z 02008KT 9999 FEW030 02/M04 Q1024 NOSIG RMK 1CU030
     A3024=

0000014500
317
FTFR38 LFPW 101700 AAD
TAF AMD LFST 102210Z 1022/1118 VRB02KT 9999 NSC TEMPO 1022/1103 0200
BCFG TEMPO 1106/1118 -RA BKN040=

0000009100
318
SPUS41 KWBC 102210
SPECI
KHTS 102206Z 20028KT 10SM OVC039 09/07 A3002=

0000010800
319
SPUS41 KWBC 102210
SPECI
KWRI 102207Z AUTO 04003KT 1SM R06/2200FT BR VV003 02/02 A3031=

0000118700
320
SAPR41 KWBC 102200
METAR
SPCL 102200Z 05008KT 9999 SCT030 SCT100 28/24 Q1006 RMK BIRD
     HAZARD RWY 02/20 PP000=
SPEC NIL=
SPEI NIL=
SPEO NIL=
SPGM 102200Z NIL=
SPHI 102200Z 17015KT CAVOK 28/22 Q1008 RMK TMX 30.0 PP000=
SPHO 102200Z 31010KT 9999 VCSH SCT046TCU OVC100 20/12 Q1017 RMK
     TMAX. 23.5 PP000=
SPHY 102200Z NIL=
SPJA NIL=
SPJI 102200Z NIL=
SPJL 102200Z 12008KT 9999 FEW010 SCT080 13/05 Q1032 RMK TMAX.19.4
     PP000=
SPJN NIL=
SPJR 102200Z 13010KT 9999 SCT023 OVC040 16/11 Q1024 WS RMK TMAX/
     21.4 PP000=
SPJR 102200Z 13010KT 9999 SCT023 OVC040 16/11 Q1024 WS RMK TMAX:
     21.4 PP000=
SPME 102200Z 30004KT 9999 FEW013 BKN033 28/22 Q1007 RMK BIRD
     HAZARD RWY 32/14 PP000=
SPMS 102200Z /////KT 9999 VCSH BKN015 BKN100 27/23 Q1008 RMK T.MAX
     31.2 BIRD HAZARD 09/27 PP000=
SPNC NIL=
SPPY NIL=
SPRU 102200Z 17007KT 9999 FEW030 24/19 Q1009 RMK T.MAX.25.0
     PP000=
SPST 102200Z 34006KT 9999 SCT020 SCT100 30/20 Q1005 RMK BIRD
     HAZARD RWY 17/35 T.M.32.2 PP000=
SPTU 102200Z 33005KT 9999 5000W VCSH BKN010 30/25 Q1006 RMK BIRD
     HAZARD RWY 01/19 T.MAX 32.3 PP000=
SPUR NIL=

0000039700
321
SASA31 KWBC 102200 RRB
METAR
SKBO 102200Z NIL=
SKBQ 102200Z 04017KT CAVOK 30/22 A2978=
SKCG 102200Z 01009KT CAVOK 30/21 A2976=
SKCL 102200Z 01006KT 9999 FEW015 BKN100 28/19 A2986=
SKLT 102200Z 02004KT 9999 SCT015 SCT080 27/24 A2973=
SKRG 102200Z 08008KT 9999 VCSH SCT015CB BKN070 18/14 A3017 RETS
     RMK CB VCSH/W=
SKSP 102200Z 09008KT 9999 FEW018 28/24 A2984=

0000030600
322
SASA41 KWBC 102200 RRA
METAR
SKBG 102200Z 32006KT 9999 FEW017 24/17 A2988=
SKMD 102200Z 26005KT 9999 ??TSRA BKN030 SCT035CB 19/16 A2997 RMK
     CB/E/W/NW=
SKPE 102200Z 12004KT 9999 VCSH SCT017 SCT080 22/18 A3001 RMK
     VCSH/S=
SKSM 102200Z 36006KT 9999 FEW020 33/19 A2971=

0000036700
323
SXXX32 EUMS 110936 RRX
12FFB3C8
:PRS 1 /1 M 3497 3500 3509 3514 3512 3519 3516 3520 3538 3529 3541 3558 3552 3557 3563 3559 3555 3567 3570 3572 3564 3567 3572 3555 3574 3559 3542 3546 3539 :RAD 1 /3 6455 6466 6481 6497 6505 6508 6507 6501 6492 6491 :ENC 1 /5 -144 -144 -144 -144 -144 -144 :SW1 36 /60 0 :SW2 6 /60 0 :BAT 14 /15 13.6 :NAME 12FFB3C8 /
0000037800
324
SXXX32 EUMS 110936 RRX
12FD90D0
:PRS 1 /1 1439 1442 1458 1461 1472 1465 1463 1461 1461 1464 1447 1462 :RAD 1 /3 6001 6007 6004 6003 6003 6007 6007 5999 5998 6010 :ENC 3 /6 5756 5753 5752 5751 5742 5771 5776 5775 5756 5723 :RA2 3 /6 4901 4890 4895 4886 4881 4922 4935 4935 4911 4882 :SW1 36 /60 39 :SW2 6 /60 60 :BAT 5 /6 12.9 :WTP 5 /6 28.4 28.4 :NAME 12FD90D0
0000069800
325
SXXX32 EUMS 110936 RRX
3601E29A
OT12 ID:DJ-BOUT-08 DT:2014 01 11 09 26
:RAD /1 01132 01133 01132 01133 01135 01136 01130 01130 01131 01130 01130 01127 01133 01136 01133 01134 01140 01138 01138 01139 01141 01137 01148 01152 01151 01154 01154 01163 01159 01157
:PR1 /1 01415 01407 01420 01408 01425 01437 01425 01416 01408 01423 01428 01406 01419 01417 01419 01429 01428 01431 01425 01436 01438 01437 01439 01439 01441 01448 01444 01424 01452 01446
:PR2 /1 00003 00003 00003 00003 00003 00003 00003 00004 00003 00003 00003 00003 00003 00004 00002 00003 00003 00003 00002 00002 00003 00002 00003 00003 00003 00003 00002 00002 00002 00003
:TM1 /15 258 258 259 259
:BAT 13.5V
00000000