0000016300
434
SSVX13 LFPW 110800
ZZYY 13593 11014 0800/ 738167 018513 6113/ 22219 00169 33300 88872
 20000 43613 444 20130 11014 0757/ 50101 80118 80031 9/015=
0000015700
435
SSVX13 LFPW 110800
ZZYY 61688 11014 0800/ 144057 029452 6113/ 11119 40237 52013 22219
 00088 444 20131 11014 0757/ 50101 80090 80005 9/015=
0000038500
436
SSVX13 LFPW 110800
ZZYY 61690 11014 0800/ 142801 029445 6113/ 11119 40244 52016 22219
 00093 33300 88870 20000 30932 20011 30936 20013 30928 20016 30924
 20021 30928 20026 30940 20030 30934 20035 30940 20040 30944 20045
 30940 20050 30868 20055 30804 20060 30784 20065 30784 20070 30784
 20075 30788 20080 30792 444 20131 11014 0757/ 50101 80102 80018
 9/015=
0000015700
437
SSVX13 LFPW 110800
ZZYY 61687 11014 0800/ 144708 029818 6113/ 11119 40232 52014 22219
 00074 444 20131 11014 0757/ 50101 80090 80008 9/015=
0000009400
438
SAIN90 VIAR 110800
METAR VIAR 110800Z 25004KT 200V300 4000 HZ NSC 16/11 Q1019=
0000012200
439
SAIN90 VEGY 110745
METAR VEGY 110745Z 09007KT 0800 BR FEW010 BKN018 FEW030CB OVC080 17/16 Q1016 NOSIG =

0000387300
440
SNFR30 LFPW 110800
AAXX 11084
07005 22350 81905 10053 20046 30081 40173 53014 885//
  333 60005 85706 87620 90710 91107 93100=
07015 21230 82006 10045 20042 30107 40165 53007 71022 886//
  333 60005 88703 90710 91109 93100=
07020 26/// /3416 10087 20041 30168 40195 53033
  333 60005 90710 91121=
07027 21245 72305 10057 20053 30102 40185 51024 71022 875//
  333 60005 81704 87650 90710 91110 93100=
07037 21/04 92503 10051 20050 39998 40185 53021 74344
  333 60005 90710 91107 93100=
07072 24656 80000 10037 20036 30061 40179 53009 761//
  333 69925 90710 91105=
07110 22575 30205 10066 20062 30080 40197 51029 83500
  333 60005 83631 90710 91107 93100=
07117 26/// /3509 10082 20044 30126 40197 52034
  333 60005 90710 91114=
07130 24125 82801 10057 20056 30143 40196 52032 710//
  333 69905 90710 91106=
07139 24014 80000 10041 20040 30014 40192 53026 710//
  333 69905 90710 91103=
07149 21140 71903 10054 20048 30067 40178 53014 71022 84531
  333 60005 82703 83656 87073 90710 91105 93100=
07168 21757 82601 10038 20038 30036 40182 53017 76066 8457/
  333 69965 84656 87359 90710 91104 93100=
07181 24014 72202 10024 20023 39766 40187 53011 710//
  333 69905 90710 91103=
07190 24637 83603 10020 20019 30001 40189 53009 761//
  333 69965 90710 91106=
07207 26/// /0204 10042 20036 30145 40199 53025
  333 60005 90710 91106=
07222 21235 83304 10077 20074 30162 40194 53030 71022 875//
  333 60005 85705 87623 90710 91109=
07240 24120 /0000 10057 20051 30048 40186 53023 761//
  333 69905 90710 91102=
07255 22458 80000 10068 20057 39984 40187 53023 885//
  333 60005 88615 90710 91104 93100=
07280 24157 81101 10038 20031 39910 40190 53014 700//
  333 60005 90710 91103=
07299 22959 72204 10034 20022 39855 40191 53007 85031
  333 69905 85361 87071 90710 91108 93100=
07314 26/// /3413 10096 20084 30162 40190 53023
  333 60005 90710 91119=
07335 212// 81905 10075 20071 30043 40190 53024 71022 885//
  333 60005 86706 88630 90710 91108 93100=
07434 223// 81910 10076 20062 39712 40196 53017 886//
  333 60005 88707 90710 91117 93100=
07460 22984 60902 10066 20023 39796 40191 52021 8605/
  333 60005 84361 84367 90710 91107 93100=
07471 24968 83502 10025 20007 39225 48811 52019 700//
  333 60005 90710 91107=
07481 22580 71811 10098 20058 39908 40197 53018 81530
  333 60005 81626 86369 90710 91119 93100=
07510 215// 82202 10094 20091 30135 40194 53019 71022 885//
  333 60005 88621 90710 91104=
07535 24465 81303 10077 20063 39887 40204 53014 700//
  333 60005 90710 91105=
07558 24/69 /1205 10066 20057 39364 40205 53009 700//
  333 60005 90710 91109=
07577 22456 82001 10091 20072 30125 40216 51016 875//
  333 60005 81716 87633 90710 91105 93100=
07591 24/// /1701 10019 21007 39198 4//// 53015 700//
  333 60005 90710 91104=
07607 24456 80000 10092 20086 30127 40199 53017 700//
  333 60005 90710 91102=
07621 24456 81603 10074 20065 39765 40204 53012 700//
  333 69905 90710 91105=
07627 24460 82501 10051 20042 39711 40214 53010 700//
  333 60005 90710 91103=
07630 22450 81502 10085 20076 30021 40204 53013 876//
  333 60005 87716 90710 91105 93100=
07643 22558 80304 10104 20082 30202 40212 53013 888//
  333 60005 84820 87633 90710 91106=
07650 22570 70905 10120 20079 30176 40215 53016 878//
  333 60005 81826 87633 90710 91109 93100=
07661 26/// /0607 10113 20085 30054 40216 53012
  333 60005 90710 91111=
07690 24681 83408 10096 20044 30183 40215 50005 700//
  333 60005 90710 91112=
07747 22660 82703 10089 20075 30153 40207 53015 8657/
  333 60005 86633 87365 90710 91106=
07761 22980 70507 10066 20051 30199 40210 51009 85086
  333 60005 85369 86076 90710 91110 93100=
07790 22582 62104 10096 20067 30203 40218 51010 83509
  333 60005 83633 85171 90710 91107 93100=
0000153900
441
SNFR31 LFPW 110800
AAXX 11084
07024 24486 83109 10079 20060 30019 40186 53027 700//
  333 69905 90710 91117=
07031 24118 82505 10060 20057 30010 40186 53022 710//
  333 60005 90710 91110=
07100 26/// /0213 10087 20041 30110 40193 52024
  333 60005 90710 91121=
07103 26/// /0310 10087 20076 30092 40191 53024
  333 60005 90710 91119=
07107 26/// /0112 10095 20043 30175 40197 51030
  333 60005 90710 91118=
07118 24585 83404 10079 20062 30092 40199 53032 700//
  333 60005 90710 91109=
07120 24156 83107 10072 20066 30031 40196 53029 700//
  333 60005 90710 91112=
07125 24463 82405 10054 20048 30119 40191 53024 700//
  333 60005 90710 91107=
07134 24449 80000 10052 20052 30070 40194 53028 710//
  333 60005 90710 91106=
07200 26/// /3608 10096 20084 30168 40191 53022
  333 60005 90710 91116=
07201 24263 80107 10077 20074 30081 40196 53023 700//
  333 69905 90710 91114=
07203 26/// /0302 10062 20059
  333 60005 90710 91110=
07205 24/01 90603 10049 20046 30143 40198 53023 745//
  333 60005 90710 91104=
07217 24959 /3104 10068 20061 30194 40198 53031 700//
  333 60005 90710 91109=
07230 21/02 93303 10059 20059 30133 40192 53026 74744
  333 60005 90710 91109 93100=
07235 21640 73201 10060 20054 30126 40190 53027 76062 875//
  333 69905 85640 90710 91105 93100=
07300 26/// /3408 10083 20072 30157 40196 53028
  333 69925 90710 91113=
07306 21105 83207 10075 20071 30083 40192 53028 74642 86602
  333 60005 84703 85610 86076 90710 91110 93100=
0000121400
442
SNFR32 LFPW 110800
AAXX 11084
07140 24/03 90000 10053 20049 30027 40184 53020 745//
  333 60005 90710 91103=
07143 24126 82902 10054 20050 39995 40186 53023 710//
  333 69905 90710 91104=
07145 21931 72302 10050 20050 39969 40183 53019 71022 84071
  333 69905 83358 83363 87076 90710 91103 93100=
07146 21710 72303 10051 20047 39984 40182 53018 72842 82571
  333 69905 82656 83358 87073 90710 91104 93100=
07150 24224 82302 10054 20051 30119 40180 53013 760//
  333 69925 90710 91103=
07153 24937 /2002 10052 20043 30067 40181 53019 710//
  333 69905 90710 91104=
07156 24/40 /1903 10064 20060 30084 40180 53017 761//
  333 69905 90710 91105=
07157 21140 82002 10055 20049 30043 40181 53014 72162 8762/
  333 69905 84701 83358 85360 90710 91105 93100=
07245 24/18 /0000 10051 20048 30031 40185 53021 710//
  333 60005 90710 91102=
07247 24930 72202 10019 20015 30083 40188 53024 710//
  333 69905 90710 91103=
07249 24/14 90000 10049 20046 30030 40184 52025 710//
  333 69925 90710 91103=
07257 24458 82101 10070 20056 39971 40187 53025 700//
  333 69905 90710 91103=
07354 24466 82409 10091 20072 39994 40185 53023 700//
  333 60005 90710 91113=
0000047800
443
SNFR33 LFPW 110800
AAXX 11084
07093 24626 81102 10017 20011 39866 40185 52009 710//
  333 69905 90710 91108=
07180 21256 70000 10024 20024 39925 40189 53011 76062 875//
  333 69905 82703 87656 90710 91103 93100=
07288 26/// /0000 10036 20029 39814 40194 53016
  333 60005 90710 91102=
07292 24963 81003 10037 20021 39856 40191 53014 700//
  333 60005 90710 91105=
07386 24958 80502 10031 20025 39953 40195 53018 700//
  333 60005 90710 91106=
0000126700
444
SNFR34 LFPW 110800
AAXX 11084
07260 24557 81001 10046 20043 39972 40190 53024 700//
  333 60005 90710 91103=
07266 24958 71603 10043 20037 39994 40183 53015 700//
  333 60005 90710 91104=
07374 24/57 /2201 10031 20024 39889 40199 53022 700//
  333 69905 90710 91105=
07379 24926 71301 10032 20023 39896 40197 52025 710//
  333 60005 90710 91103=
07385 22960 61704 10071 20054 39929 40193 53022 86030
  333 60005 86359 90710 91107 93100=
07475 24983 81707 10082 20026 39713 40195 53026 700//
  333 60005 90710 91115=
07480 24983 82106 10097 20051 39959 40199 53024 700//
  333 60005 90710 91117=
07482 24/70 /1610 10099 20055 39896 40199 53020 700//
  333 60005 90710 91122=
07486 24461 83005 10074 20054 39744 40209 53019 700//
  333 60005 90710 91117=
07487 26/// /0502 10019 20018 39940 40214 53019
  333 60005 90710 91103=
07491 22556 70000 10022 20019 39925 40217 53017 8453/
  333 69905 83623 87368 90710 91103 93100=
07497 22984 53502 10034 21003 39183 48491 51012 84032
  333 60005 84365 83070 90710 91104 93100=
07549 21970 51007 10042 20016 39447 40213 53015 700// 85030
  333 60005 85359 90710 91110 93100=
07570 24/12 /0000 10072 20071 39893 40234 53015 710//
  333 69905 90710 91100=
0000152200
445
SNFR35 LFPW 110800
AAXX 11084
07316 24/07 93507 10085 20079 30167 40189 53024 745//
  333 60005 90710 91112=
07330 21315 81102 10072 20071 30117 40192 53023 71022 885//
  333 60005 85708 88640 90710 91105 93100=
07361 24/70 /1807 10085 20049 39751 40189 53022 700//
  333 60005 90710 91118=
07412 24128 81701 10085 20079 30156 40194 53023 710//
  333 60005 90710 91104=
07438 24/56 /3102 10055 20049 30062 40207 53015 700//
  333 60005 90710 91103=
07500 26/// /2003 10112 20104 30158 40192 53017
  333 60005 90710 91105=
07503 265// 81901 10114 20101 30145 40192 53015
  333 60005 90710 91102=
07524 24450 80804 10077 20074 30112 40197 52015 700//
  333 60005 90710 91106=
07530 24550 81103 10079 20075 30133 40197 53016 700//
  333 60005 90710 91108=
07540 24/36 /1203 10076 20067 30073 40204 52015 761//
  333 69905 90710 91104=
07552 24965 81302 10049 20040 39519 40213 53017 700//
  333 60005 90710 91105=
07600 26/// /1505 10099 20077 30145 40198 53010
  333 60005 90710 91107=
07602 22565 71503 10106 20089 30109 40195 53009 875//
  333 69905 83623 87636 90710 91105 93100=
07603 26/56 /1903 10088 20082 30157 40195 53012
  333 60005 90710 91106=
07610 22459 70903 10070 20063 39978 40202 53013 85501
  333 60005 82615 84635 85070 90710 91103 93100=
07622 22450 71601 10087 20075 30044 40200 52012 86502
  333 60005 82711 86623 87070 90710 91104 93100=
07632 24/58 /0000 10060 20053 39999 40209 51019 700//
  333 60005 90710 91103=
0000192400
446
SNFR36 LFPW 110800
AAXX 11084
07554 24369 81002 10051 20036 39125 4//// 53011 700//
  333 60005 90710 91105=
07560 26/// /1816 10017 20017 38440 4//// 53014
  333 69925 90710 91129=
07563 24681 82302 10104 20071 30158 40217 53013 700//
  333 60005 90710 91104=
07579 24550 82901 10084 20073 30152 40220 53014 700//
  333 60005 90710 91102=
07586 26/// /1203 10111 20058 30088 40217 53013
  333 60005 90710 91108=
07588 24569 80404 10044 20026 39673 40233 53011 700//
  333 60005 90710 91110=
07635 24560 81703 10089 20063 30052 40207 51017 700//
  333 60005 90710 91108=
07638 24465 80305 10107 20085 30189 40209 52013 700//
  333 60005 90710 91108=
07641 26/// /0207 10108 20082 30116 40210 53013
  333 60005 90710 91111=
07646 24461 80803 10101 20053 30087 40215 53015 700//
  333 60005 90710 91105=
07647 24565 80903 10110 20079 30186 40214 53016 700//
  333 60005 90710 91107=
07648 24570 80000 10104 20067 30146 40218 53015 700//
  333 60005 90710 91107=
07666 26/// /3004 10105 20091 30152 40201 53014
  333 60005 90710 91108=
07667 24580 80201 10118 20086 30212 40217 53012 700//
  333 60005 90710 91106=
07675 24/57 /2304 10083 20074 30119 40220 53009 700//
  333 60005 90710 91106=
07684 24676 80204 10103 20072 30208 40213 51004 700//
  333 60005 90710 91107=
07749 26/// /3008 10105 20074 30099 40205 51016
  333 60005 90710 91113=
07754 22575 41804 10066 20054 30138 40210 51007 81128
  333 60005 81820 83467 90710 91107 93100=
07765 24586 82703 10121 20078 30201 40222 52011 700//
  333 60005 90710 91106=
07770 26/// /0610 10130 20112 30075 40215 53013
  333 60005 90710 91118=
07775 26/// /2310 10122 20079 30128 40218 51010
  333 60005 90710 91112=
07780 24586 80707 10130 20098 30189 40217 53012 700//
  333 60005 90710 91115=
07785 26/// /3504 10130 20072 30076 40212 53010
  333 60005 90710 91121=
0000116000
447
SNFR37 LFPW 110800
AAXX 11084
07002 21456 82314 10083 20069 30073 40156 52010 76062 886//
  333 69905 88710 90710 91122=
07003 24359 82310 10078 20064 30139 40164 53009 700//
  333 60005 90710 91117=
07010 26/// /2210 10062 20048 30132 40152 53004
  333 60005 90710 91118=
07028 21440 71803 10068 20064 30052 40180 52021 7102/ 876//
  333 60005 87713 90710 91111=
07038 24/02 92503 10051 20051 30017 40187 53023 745//
  333 60005 90710 91108=
07040 26/// /2108 10065 20058 30123 40172 52018
  333 60005 90710 91115=
07046 24131 82206 10068 20056 30066 40182 52022 710//
  333 60005 90710 91111=
07055 21012 73201 10037 20031 30045 40183 53014 74042 8163/
  333 60005 81701 87366 90710 91103 93100=
07057 24118 72402 10042 20039 30071 40180 53012 710//
  333 60005 90710 91104=
07061 24/03 /1803 10040 20040 30055 40177 53009 745//
  333 60005 90710 91104=
07075 24732 71903 10032 20026 39997 40181 53009 710//
  333 69905 90710 91108=
07169 24771 80902 10050 20041 30007 40177 53012 700//
  333 69905 90710 91106=
07283 24/03 91905 10044 20041 39616 40180 53011 745//
  333 69925 90710 91122=
0000015000
448
SNFR30 LFPW 110800 CCA
AAXX 11084
07690 22680 73408 10096 20044 30183 40215 50005 875//
  333 60005 84641 85369 90710 91112 93100=
0000015700
449
SSVX13 LFPW 110800
ZZYY 44745 11014 0800/ 745759 050372 6113/ 11119 40242 57002 22219
 00015 444 20130 11014 0800/ 50101 80150 80000 9/015=
0000016300
450
SSVX13 LFPW 110800
ZZYY 13595 11014 0800/ 730276 019471 6113/ 22219 00199 33300 88872
 20000 43682 444 20130 11014 0756/ 50101 80108 80026 9/015=
0000015700
451
SSVX13 LFPW 110800
ZZYY 44624 11014 0800/ 746712 020042 6113/ 11119 40027 57050 22219
 00128 444 20130 11014 0757/ 50101 80098 80018 9/015=
0000015700
452
SSVX13 LFPW 110800
ZZYY 62687 11014 0800/ 166069 001438 6113/ 11119 40056 52003 22219
 00075 444 20130 11014 0757/ 50101 80098 80000 9/015=
0000015700
453
SSVX13 LFPW 110800
ZZYY 62713 11014 0800/ 733791 019572 6113/ 11119 40156 54000 22219
 00182 444 20130 11014 0757/ 50101 80098 80000 9/015=
00000000