0000011900
086
SACN62 CYXJ 102200
METAR CYXJ 102200Z 23009KT 15SM FEW080 BKN140 M06/M12 A2946 RMK
 AC1AC5 SLP028=

0000016000
087
SACN62 CYXN 102200
METAR CYXN 102200Z 31007KT 15SM SKC M31/M35 A2971 RMK
 -29.5/-32.0/0.0MM/16.0CM/TRACE LOOSE/LAST OB/NEXT 131400Z SLP064=

0000011500
088
SACN62 CYXL 102200
METAR CYXL 102200Z 18008KT 3SM -SN BR OVC008 M07/M08 A2950 RMK ST8
 SLP016=

0000012300
089
SACN62 CYXP 102200
METAR CYXP 102200Z 00000KT 12SM -SN FEW090 BKN210 M18/M21 A2929 RMK
 AS2CI4 SLP922=

0000013700
090
SACN62 CYXT 102200
METAR CYXT 102200Z 20008KT 10SM FEW005 BKN009 BKN013 OVC060 02/01
 A2969 RMK SF1SF4SC2SC1 SLP063=

0000011600
091
SACN62 CYXU 102200
METAR CYXU 102200Z 15008KT 1 1/2SM BR OVC003 01/01 A3004 RMK FG3ST5
 SLP183=

0000011900
092
SACN62 CYYG 102200
METAR CYYG 102200Z 21009KT 15SM BKN020 OVC035 M05/M08 A3031 RMK
 SC6SC2 SLP267=

0000012500
093
SACN62 CYYB 102200
METAR CYYB 102200Z 13007KT 8SM -SN OVC007 M04/M05 A3000 RMK ST8 PCPN
 VRY LGT SLP183=

0000010600
094
SACN62 CYYQ 102200
METAR CYYQ 102200Z 29005KT 15SM OVC270 M28/M32 A2971 RMK CI8 SLP066=

0000010600
095
SACN62 CYYY 102200
METAR CYYY 102200Z 23006KT 30SM FEW100 M06/M13 A3016 RMK AC2 SLP219=

0000014300
096
SACN62 CYYC 102200
METAR CYYC 102200Z 03005KT 350V060 40SM FEW026 FEW120 BKN230 M03/M08
 A2951 RMK CU1AC2CI5 CU TR SLP041=

0000041200
097
SAJP31 RJTD 102200
METAR RJAA 102200Z 32003KT 9999 FEW025 SCT080 M04/M08 Q1024 NOSIG=
METAR RJBB 102200Z 30008KT 9999 FEW025 04/M04 Q1029 NOSIG=
METAR RJTT 102200Z 02008KT 9999 FEW030 02/M04 Q1024 NOSIG=
METAR RJOO 102200Z 01006KT 9999 FEW025 M00/M06 Q1029=
METAR ROAH 102200Z 04006KT 350V130 9999 FEW045 SCT080 14/06 Q1027=
METAR RJGG 102200Z 27016KT 9999 FEW020 03/M02 Q1027 NOSIG=

0000010400
098
SAMX44 MMMD 102206
METAR MMTP 102202Z RTD 27006KT 10SM  FEW250 29/22 A2985 RMK 8/002=

0000077700
099
SAJP32 RJTD 102200
METAR RJFF 102200Z 15008KT 9999 FEW035 BKN040 BKN050 03/M03 Q1030=
METAR RJCC 102200Z 21009KT 8000 -SHSN FEW015 SCT030 BKN050 M09/M12
           Q1018=
METAR RJFK 102200Z VRB01KT 9999 FEW030 SCT045 BKN060 M01/M06 Q1029=
METAR RJSN 102200Z 32016KT 9999 VCSH FEW015 SCT020 BKN030 02/M03
           Q1025=
METAR RJFT 102200Z 04003KT 310V090 9999 FEW030 BKN060 00/M04 Q1030=
METAR RJFU 102200Z 13007KT 9999 FEW030 BKN040 BKN050 04/00 Q1030=
METAR RJCH 102200Z 30005KT 1200 R12/P1800N -SHSN FEW005 BKN009
           BKN015 M07/M08 Q1019=
METAR RJSS 102200Z 23006KT 9999 FEW030 M02/M08 Q1023=
METAR RJOA 102200Z 33004KT 9999 FEW025 SCT040 BKN060 M01/M05 Q1028=
METAR RJOB 102200Z 28005KT 9999 FEW015 BKN050 M00/M05 Q1028=

0000019500
100
SAJP32 RJTD 102200 RRA
METAR RJOT 102200Z 23006KT 9999 FEW020 SCT050 BKN070 01/M04 Q1028=
METAR RJFO 102200Z 26005KT 9999 VCSH FEW035 SCT045 BKN060 02/M04
           Q1030=

0000014500
101
SACN62 CZFA 102200
METAR CZFA 102200Z 33006KT 30SM SCT044 SCT058 BKN080 BKN140 M14/M15
 A2927 RMK SC3SC1AC1AC1 AC TR SLP970=

0000042900
102
SAAM31 FCBB 102200
METAR FCBB 102200Z 24003KT 7000 NSC 24/23 Q1012 NOSIG=
METAR FCPP 102200Z 15003KT 9999 FEW010 BKN023 27/24 Q1011 NOSIG=
METAR FKKD 102200Z 00000KT 8000 SCT016 BKN300 26/25 Q1012 NOSIG=
METAR FKYS 102200Z 00000KT 6000 NSC 19/18 Q1012 BECMG 4000 BR=
METAR FKKR NIL=
METAR FKKL NIL=
METAR FKKN NIL=
METAR FEFF 102200Z 00000KT 6000 NSC 21/19 Q1012 BECMG 6000 NSW=
METAR FEFT NIL=

0000011900
103
SACN62 CYZF 102200
METAR CYZF 102200Z 31004KT 12SM BKN055 OVC240 M23/M26 A2949 RMK
 SC6CI2 SLP013=

0000012000
104
SACN62 CYYZ 102200
METAR CYYZ 102200Z 13005KT 3SM BR BKN003 OVC011 01/M00 A3010 RMK
 ST5ST3 SLP200=

0000014100
105
SACN62 CYZT 102200
METAR CYZT 102200Z 11019G24KT 10SM -RA FEW010 BKN024 OVC042 05/04
 A2977 RMK SF2SC4SC2 PRESFR SLP083=

00000000