0000047800
146
SAMS32 WMKK 102300
METAR WBGG 102300Z 17002KT 3000 BR SCT000 SCT020 BKN150 22/22 Q1012
BECMG 5000 BR=
METAR WBKK 102300Z 09003KT 9999 FEW014 BKN140 BKN270 24/23 Q1012
NOSIG=
METAR WMKJ 102300Z 34003KT 9999 FEW010 BKN300 23/22 Q1011=
METAR WMKK 102300Z 32002KT 8000 FEW017CB SCT140 BKN280 24/23 Q1011
NOSIG=
METAR WMKP 102300Z 03004KT 8000 -RA FEW010 SCT024 OVC260 25/24 Q1011
NOSIG=
METAR WMSA 102300Z 05001KT 8000 FEW025 BKN260 24/22 Q1010=

0000079900
147
SAMS33 WMKK 102300
METAR WMAU 102300Z 29005KT 8000 FEW000 BKN140 BKN270 24/23 Q////
QFF1011=
METAR WMBA 102300Z 36003KT 8000 -RA FEW004 SCT030 BKN260 23/23 Q1011=
METAR WMKA 102300Z 02002KT 9999 FEW030 SCT140 BKN280 24/23 Q1011=
METAR WMKB 102300Z 07003KT 8000 FEW025 SCT140 BKN270 24/23 Q1011
NOSIG=
METAR WMKC 102300Z 07013KT 9000 FEW010 SCT020 OVC200 26/23 Q1012=
METAR WMKD 102300Z 01004KT 9999 FEW012 FEW017CB SCT024 BKN260 23/22
Q1012 NOSIG=
METAR WMKE 102300Z 35004KT 2000 -TSRA FEW000 FEW016CB BKN020 OVC190
22/22 Q1012=
METAR WMKI 102300Z 03006KT 9999 FEW005 SCT140 BKN280 23/22 Q1011=
METAR WMKL 102300Z 05003KT 9999 FEW025 SCT140 BKN270 26/21 Q1011=
METAR WMKM 102300Z 04004KT 9999 FEW012 FEW017CB BKN140 24/23 Q1011=
METAR WMKN 102300Z NIL=

0000059400
148
SAMS34 WMKK 102300
METAR WBGB 102300Z 22003KT 8000 -TSRA FEW005 FEW015CB SCT016 BKN150
24/24 Q1012=
METAR WBGR 102300Z 00000KT 9999 FEW014 SCT150 BKN300 24/23 Q1012=
METAR WBGS 102300Z 10003KT 9999 SCT018 BKN150 23/22 Q1012=
METAR WBGY 102300Z 18001KT 9999 FEW005 SCT020 BKN150 23/23 Q1012=
METAR WBKL 102300Z 17002KT 9999 FEW010 BKN290 25/24 Q1012=
METAR WBKS 102300Z 06008KT 020V080 9999 FEW015 SCT140 OVC260 27/25
Q1011=
METAR COR WBKT 102300Z 07008KT 8000 RA FEW007 SCT030 BKN260 26/23
Q1012=
METAR WBKW 102300Z 35003KT 9999 FEW017 BKN140 25/22 Q1011=

0000009500
149
SAAF18 LFPW 102300 RRA
METAR FMEE 102300Z AUTO 12010KT 9999 NSC 26/22 Q1014=

0000009800
150
SAAF20 LFPW 102300 RRA
METAR FAGG 102300Z AUTO 30003KT 9999 OVC024 16/14 Q1019=

0000026400
151
SAAF21 LFPW 102300 RRA
METAR FALA 102300Z AUTO 11003KT //// // 21/09 Q1019=
METAR FAMM 102300Z AUTO 23006KT //// // ////// 22/06 Q1017=
METAR FAPE 102300Z 25014KT CAVOK 19/13 Q1017 NOSIG=
METAR FAUP 102300Z 19009KT CAVOK 22/02 Q1016 NOSIG=

0000018200
152
SAIO31 KWBC 102300 RRA
METAR
FMCZ 102300Z NIL=
FMEE 102300Z AUTO 12010KT 9999 NSC 26/22 Q1014=
VYMD 102300Z NIL=
VYYY 102300Z 35003KT 6000 NSC 20/19 Q1014=

0000067200
153
SAMS38 WMKK 102300
METAR WBGB 102300Z 22003KT 8000 -TSRA FEW005 FEW015CB SCT016 BKN150
24/24 Q1012=
METAR WBGR 102300Z 00000KT 9999 FEW014 SCT150 BKN300 24/23 Q1012=
METAR WBGS 102300Z 10003KT 9999 SCT018 BKN150 23/22 Q1012=
METAR WBKL 102300Z 17002KT 9999 FEW010 BKN290 25/24 Q1012=
METAR WBKS 102300Z 06008KT 020V080 9999 FEW015 SCT140 OVC260 27/25
Q1011=
METAR WBKW 102300Z 35003KT 9999 FEW017 BKN140 25/22 Q1011=
METAR WMKD 102300Z 01004KT 9999 FEW012 FEW017CB SCT024 BKN260 23/22
Q1012 NOSIG=
METAR WMKL 102300Z 05003KT 9999 FEW025 SCT140 BKN270 26/21 Q1011=
METAR WMKM 102300Z 04004KT 9999 FEW012 FEW017CB BKN140 24/23 Q1011=

0000012900
154
SACN62 CYXY 102300
METAR CYXY 102300Z 35002KT 30SM FEW025 BKN060 BKN190 M11/M13 A2928
 RMK SC1SC4AC1 SLP970=

0000011900
155
SACN62 CYXJ 102300
METAR CYXJ 102300Z 19006KT 15SM SCT140 BKN230 M07/M13 A2949 RMK
 AC3CI2 SLP038=

0000039100
156
SATH33 VTBB 102300
METAR VTBO 102300Z NIL=
METAR VTUD 102300Z NIL=
METAR VTUI 102300Z NIL=
METAR VTUK 102300Z NIL=
METAR VTUL 102300Z NIL=
METAR VTUO 102300Z NIL=
METAR VTUQ 102300Z NIL=
METAR  VTUU 102300Z 12002KT 7000 NSC 18/16 Q1016 A3001
NOSIG=
METAR VTUV 102300Z 00000KT 6000 NSC 17/15 Q1016 A3001   
      INFO O RWY 36=
METAR VTUW 102300Z NIL=

0000011700
157
SACN62 CYVR 102300
METAR CYVR 102300Z 08006KT 15SM FEW020 OVC050 08/05 A2995 RMK CF1SC7
 SLP140=

0000041900
158
SAID32 WIII 102300
METAR WIBB 102300Z 00000KT 6000 SCT015 24/23 Q1010 NOSIG= 
METAR WIPT 102300Z 03003KT 5000 R33/M0050VP1500U BKN019 24/23 Q1010= 
METAR WIOO 102300Z 10003KT 6000 BKN010 23/23 Q1011 NOSIG= 
METAR WADL 102300Z 00000KT 500 FG SCT016 24/24 Q1011= 
METAR WAOO 102300Z 04004KT 9999 SCT018 24/23 Q1011 NOSIG= 
METAR WAMM NIL=
METAR WIDN NIL=
METAR WIPP NIL=
METAR WALL NIL=

0000055000
159
FTJD20 OJAM 102300
TAF OJAI 102250Z 1100/1206 VRB03KT 2000 BR NSC
       TEMPO 1100/1108 0800 FG SCT010
       PROB40 TEMPO 1102/1107 0200 FG
       BECMG 1107/1109 26008KT 6000 SCT030 SCT035
       TEMPO 1202/1206 VRB03KT 3000 BR SCT025=
TAF OJAM 102250Z 1100/1206 25004KT 4000 BR NSC
       TEMPO 1102/1107 0800 FG SCT010
       BECMG 1106/1108 26010KT 5000 HZ SCT030 SCT035
       TEMPO 1203/1206 VRB03KT 3000 BR SCT025=
TAF OJAQ 102250Z 1100/1206 36005KT 6000 FEW030
       BECMG 1107/1109 35012KT 8000 NSC=

0000013100
160
SPCN31 CWAO 102310
SPECI CYYJ 102310Z 12007KT 20SM -RA FEW034 BKN052 OVC070 08/06 A2993
 RMK SC2SC4AC2 SLP136=

0000102100
161
FTUK31 EGGY 102300
TAF EGCC 102300Z 1100/1206 28010KT 8000 BKN012 BECMG 1100/1102 9999
    SCT025 PROB40 TEMPO 1100/1102 RA BKN009 PROB30 TEMPO 1102/1109
    7000 SHRA BKN014 BECMG 1117/1120 16005KT PROB40 1118/1124 6000
    PROB30 1200/1206 4000 BR=
TAF EGKK 102256Z 1100/1206 22009KT 9999 SCT012 TEMPO 1100/1107 6000
    -RA BKN010 PROB40 TEMPO 1100/1106 4000 RADZ BKN006 BECMG
    1105/1108 31010KT BECMG 1115/1118 17005KT PROB30 1118/1121 8000
    BECMG 1121/1124 5000 BR PROB30 1200/1204 2000 BECMG 1203/1206
    9999 NSW=
TAF EGLL 102256Z 1100/1206 21008KT 9999 SCT020 TEMPO 1100/1106 6000
    RA BKN010 PROB30 TEMPO 1100/1106 4000 RADZ BKN007 BECMG
    1105/1108 30010KT BECMG 1115/1118 VRB04KT PROB40 1203/1206 4000
    BR=
TAF EGSS 102259Z 1100/1206 22010KT 9999 FEW010 BKN030 TEMPO
    1100/1106 8000 -RA BKN010 PROB40 TEMPO 1100/1106 RA BKN006 BECMG
    1105/1108 29010KT BECMG 1116/1119 VRB03KT CAVOK BECMG 1119/1122
    6000 PROB40 1200/1206 2000 BR BKN002=

0000062900
162
FTUK32 EGGY 102300
TAF EGGP 102300Z 1100/1124 29010KT 9999 SCT020 PROB40 TEMPO
    1100/1109 7000 SHRA BKN014 BECMG 1117/1120 17005KT PROB30
    1118/1124 8000=
TAF EGNM 102300Z 1100/1124 27010KT 9999 BKN009 BECMG 1100/1102
    SCT030 TEMPO 1100/1102 8000 RA PROB40 TEMPO 1100/1102 4000 RADZ
    BECMG 1121/1124 20006KT PROB40 1121/1124 6000=
TAF EGNT 102300Z 1100/1124 26010KT 9999 SCT030 PROB30 TEMPO
    1112/1117 26015G25KT=
TAF EGNX 102300Z 1100/1124 21012KT 9999 SCT040 TEMPO 1100/1102 8000
    -RA BKN012 BECMG 1102/1104 29006KT PROB30 1104/1109 5000 BR
    PROB30 1120/1124 5000 BR=

0000086400
163
FTUK33 EGGY 102300
TAF EGBB 102300Z 1100/1124 21010KT 9999 SCT030 TEMPO 1100/1102 8000
    -RA BKN012 BECMG 1102/1104 30007KT PROB30 1104/1109 5000 BR
    PROB30 1120/1124 5000 BR=
TAF EGFF 102300Z 1100/1124 27010KT 9999 SCT020 TEMPO 1100/1102 8000
    -RA BKN012 PROB40 TEMPO 1100/1102 4000 RADZ BKN008 BECMG
    1112/1115 VRB03KT BECMG 1115/1118 12010KT PROB30 1118/1124 7000=
TAF EGGD 102300Z 1100/1124 21010KT 9999 SCT025 TEMPO 1100/1103 7000
    -RA BKN009 PROB40 TEMPO 1100/1102 4000 RADZ BKN004 BECMG
    1102/1105 27010KT BECMG 1112/1115 VRB04KT BECMG 1115/1118
    14010KT PROB30 1118/1124 6000=
TAF EGGW 102259Z 1100/1124 21012KT 9999 FEW008 BKN025 TEMPO
    1100/1105 7000 -RA BKN008 PROB30 TEMPO 1100/1105 4000 RADZ
    BKN004 BECMG 1104/1107 29010KT BECMG 1116/1119 VRB03KT CAVOK
    PROB40 1120/1124 6000=

0000027200
164
FTUK34 EGGY 102300
TAF EGVN 102250Z 1100/1124 21006KT 9999 SCT030 TEMPO 1100/1104
    SCT022 PROB30 TEMPO 1100/1103 4500 -RADZ BKN012 PROB30 TEMPO
    1106/1109 SCT010 BECMG 1120/1123 6000 BR PROB30 1123/1124 2500
    MIFG=
TAF EGWU 102300Z NIL=

0000064100
165
FTUK35 EGGY 102300
TAF EGAA 102300Z 1100/1124 24005KT 9999 FEW035 PROB40 1100/1111 0300
    FG VV/// BECMG 1118/1121 14010KT TEMPO 1120/1124 6000=
TAF EGPD 102303Z 1100/1124 27006KT 9999 FEW030 TEMPO 1111/1115
    29016KT=
TAF EGPF 102310Z 1100/1124 25006KT 9999 SCT025 PROB40 TEMPO
    1103/1109 4000 SHRASN BKN008 PROB30 TEMPO 1109/1118 7000 SHRA
    BKN012 PROB30 1118/1122 BKN014=
TAF EGPH 102303Z 1100/1124 24007KT 9999 FEW020 SCT040 PROB30 TEMPO
    1103/1108 6000 -SHRASN BKN008=
TAF EGPK 102303Z 1100/1124 26007KT 9999 FEW030 PROB30 TEMPO
    1100/1115 7000 SHRA BKN010 PROB30 1115/1118 BKN014=

00000000