0000062500
694
UDEU02 EGRR 110830 RRB
AMDAR 1108
UNS EU0475   5132N 00001W 110814 F060 MS045 289/028 TB/ S031=
UNS EU0475   5130N 00000E 110815 F057 MS035 293/029 TB/ S031=
UNS EU0475   5128N 00000E 110815 F054 MS030 304/031 TB/ S031=
UNS EU0475   5126N 00002W 110816 F050 MS022 308/032 TB/ S031=
DES EU0475   5126N 00005W 110817 F047 MS017 312/033 TB/ S031=
DES EU0475   5126N 00007W 110817 F044 MS007 312/034 TB/ S031=
DES EU0475   5126N 00008W 110818 F041 MS005 315/033 TB/ S031=
DES EU0475   5126N 00010W 110818 F038 PS002 318/033 TB/ S031=
DES EU0475   5126N 00011W 110818 F035 PS010 319/033 TB/ S031=
0000043300
695
UDEU02 EGRR 110830 RRC
AMDAR 1107
LVR EU0030   3016N 01544W 110748 F281 MS390 295/038 TB/ S031=
LVR EU0030   3105N 01557W 110755 F300 MS445 288/041 TB/ S031=
LVR EU0030   3154N 01605W 110802 F320 MS495 285/047 TB/ S031=
LVR EU0030   3245N 01607W 110809 F320 MS497 289/049 TB/ S031=
LVR EU0030   3335N 01609W 110816 F320 MS500 293/049 TB/ S031=
LVR EU0030   3424N 01612W 110823 F320 MS500 290/051 TB/ S031=
0000008400
696
UAPA01 KWBC 110827
ARP UAL825 2347N 15322W 0820 F370 MS50 235/080KT=
0000043300
697
UDEU02 EGRR 110830 RRD
AMDAR 1107
LVR EU0026   5626N 01444E 110751 F300 MS520 281/075 TB/ S031=
LVR EU0026   5554N 01344E 110758 F300 MS512 271/075 TB/ S031=
LVR EU0026   5521N 01248E 110805 F300 MS512 268/064 TB/ S031=
LVR EU0026   5447N 01150E 110812 F300 MS502 267/055 TB/ S031=
LVR EU0026   5411N 01057E 110819 F300 MS495 258/047 TB/ S031=
LVR EU0026   5332N 01008E 110826 F300 MS492 260/044 TB/ S031=
0000009800
698
SAFC21 OEJD 110700 RRD
METAR
OEPA 110700Z 27012KT 9999 FEW035 11/09 Q1019 NOSIG=
0000009600
699
SASD20 OEJD 110700 RRD
METAR OEPA 110700Z 27012KT 9999 FEW035 11/09 Q1019 NOSIG=
0000024100
700
SOAT10 KWAL 110828
FA8005BC 011082837 OT12 ID:KN-BASS-01 DT:2014 01 11 08 26
:RD -3110 -3100 -3126 -3111 -3109 -3110 -3098 -3118 -3145 -3131
:PR 0550 0551 0549 0559 0596 0588 0556 0557 0535 0586
:B 13.7V
 46+1NN 219E
0000011000
701
UANT99 KDDL 110827
ARP AZA611 4959N01634W 0827 F400 MS54 246/55 KT
EIEJJ QXT AOE 110827 J69A
0000008200
702
SNAL51 DAMM 110800 RRD
AAXX 11081
60376 46/// /1603 10146 20075=
0000011000
703
UANT99 KDDL 110827
ARP VIR10K 5339N02429W 0827 F390 MS57 229/64 KT
GVKSS DDL XXF 110827 J17A
0000011100
704
UANT99 KDDL 110827
ARP UAL985 5400N01608W 0827 F360 MS63 240/67 KT
N674UA DDL XXW 110827 F47A
0000013600
705
SNVD17 CWVR 110800
BBXX
46204 11081 99514 71288 46/// /2408 10079 49834 52002
22200 0//// 10808 70040 333 91210 =

0000034300
706
SMVD15 KWNB 110600 RRX
BBXX
42369 11061 99272 70903 46/// /1706 1//// 90620=
42375 11061 99285 70883 46/// /1607 1//// 90620 22200 10401 70007
555 11059 22065=
42392 11061 99272 70900 46/// ///// 1//// 90620 22200 10402 70008=
42887 11061 99282 70885 46/// /1809 10224 20203 90620 22200 10502
70008 555 11071 22077=
0000009400
707
SAIN90 VOBL 110830
METAR VOBL 110830Z 08004KT 020V120 CAVOK 31/14 Q1016 NOSIG=
0000056700
708
FCBY31 UMMN 110800
TAF UMBB 110750Z 1109/1118 26006G11MPS 6000 BKN010 SCT020CB
TEMPO 1109/1115 29008G13MPS 2000 SHRA BKN005=
TAF UMII 110745Z 1109/1118 29010G15MPS 5000 -SHRASN
OVC007 BKN010CB TEMPO 1109/1118 1000 SHRASN BKN003=
TAF UMMG 110740Z 1109/1118 28007G12MPS 9999 BKN010CB BKN020
TEMPO 1109/1118 3000 -SHRA BKN007=
TAF UMMM 110740Z 1109/1118 27010G15MPS 6000 -RASN BKN010 BKN015CB
TEMPO 1109/1115 2000 SHSNRA BKN007=
TAF UMOO 110750Z 1109/1118 28012G17MPS 9999 BKN010 BKN015CB
TEMPO 1109/1118 30015G20MPS 2000 SHSNRA BKN005=
0000012400
709
SAJD31 OJAI 110800 CCA
METAR COR OJAM 110800Z 00000KT 1000 FG BKN025 08/06 Q1024 BECMG FM
0830
3000M HZ=
0000079000
710
SNPO41 LPMG 110800
AAXX 11081
08533 42/// /36// 1//// 2//// 3//// 4//// 5////
555 60005=
08535 NIL=
08541 42/// /1502 10093 20077 30054 40174 52013
555 60005=
08545 NIL=
08548 42/// /1202 10073 20073 39969 40178 52009
555 60005=
08554 42/// /0603 10134 20088 30163 40173 52012
333  91107
555 60005=
08560 42/// /36// 10048 20046 39415 40184 52008
555 60005=
08562 42/// /36// 1//// 2//// 3//// 4//// 5////
555 60005=
08567 42/// /0000 10050 20047 39515 40190 52012
555 60005=
08568 42/// /36// 1//// 2//// 3//// 4//// 5////
555 60005=
08570 42/// /0803 10059 20035 39719 40185 52012
555 60005=
08571 NIL=
08575 42/// /0000 10006 20002 39373 40209 52014
555 60005=
08579 42/// /0802 10087 20083 30045 40172 52007
555 60005=
0000011000
711
UANT01 CWAO 110827
ARP ETD150 5832N03545W 0827 F310 MS61 226/25 KT
A6ETQ QXT AOW 110827 F38A
0000011000
712
UANT01 CWAO 110828
ARP VIR44B 5458N03000W 0828 F370 MS58 212/48 KT
GVGAL DDL XXF 110828 F64A
0000011000
713
UANT01 CWAO 110828
ARP DLH435 5406N03444W 0828 F370 MS57 226/33 KT
DAIKR QXT AME 110828 J80A
00000000