0000027500
694
SXHW11 KWAL 110807
15D142A4 011080702 :PRS 1 #1 1402 1401 1385 1391 1394 1386 1382 1389 1397 1381 :RAD 1 #1 6981 6980 6973 6975 6976 6972 6971 6971 6973 6969 :ENC 2 #5 4882 4874 4871 4859 :SW1 7 #60 0 :SW2 37 #60 23 :BAT 4 #5 13.0 :NAME 15D142A4  34+0NN 216W
0000044000
695
UDOC01 NZKL 110800
AMDAR 1108
DES NZL061 3700S 17448E 110701 F001 PS174 226/014 TB0 S031
333 F/// VG007=
DES NZL061 3700S 17449E 110700 F004 PS164 246/012 TB0 S031
333 F/// VG013=
DES NZL061 3659S 17450E 110700 F006 PS156 231/011 TB0 S031
333 F/// VG015=
LVR NZL020 3835S 15755E 110700 F360 MS522 179/075 TB0 S031
333 F/// VG000=
LVR NZL020 3831S 15542E 110714 F360 MS515 183/059 TB0 S031
333 F/// VG001=
0000336500
696
UDFR01 LFPW 110806
AMDAR 1107
ASC EU4565 3321N 00735W 110750 F008 PS115 /// 225/014 TB3 S031
333 F008 VG111=
ASC EU4565 3320N 00735W 110751 F014 PS115 /// 262/018 TB0 S031
333 F014 VG012=
UNS EU4565 3319N 00734W 110751 F021 PS107 /// 267/014 TB0 S031
333 F021 VG011=
UNS EU4565 3319N 00734W 110751 F028 PS102 /// 269/015 TB1 S031
333 F028 VG018=
UNS EU4565 3319N 00732W 110752 F035 PS087 /// 270/013 TB2 S031
333 F035 VG074=
UNS EU4565 3320N 00732W 110752 F039 PS077 /// 257/013 TB0 S031
333 F039 VG008=
ASC EU4565 3322N 00731W 110752 F043 PS065 /// 229/012 TB0 S031
333 F043 VG006=
ASC EU4565 3323N 00731W 110753 F049 PS050 /// 226/010 TB0 S031
333 F049 VG008=
ASC EU4565 3324N 00730W 110753 F055 PS037 /// 224/012 TB1 S031
333 F055 VG018=
ASC EU4565 3326N 00730W 110753 F065 PS015 /// 240/008 TB0 S031
333 F065 VG007=
ASC EU4565 3327N 00729W 110754 F077 MS012 /// 225/009 TB0 S031
333 F077 VG010=
ASC EU4565 3329N 00729W 110754 F087 MS034 /// 238/008 TB1 S031
333 F087 VG010=
ASC EU4565 3330N 00729W 110754 F098 MS057 /// 278/006 TB0 S031
333 F098 VG009=
ASC EU4565 3332N 00728W 110755 F107 MS077 /// 303/009 TB1 S031
333 F107 VG013=
ASC EU4565 3333N 00728W 110755 F111 MS087 /// 314/006 TB1 S031
333 F111 VG019=
ASC EU4565 3335N 00727W 110755 F117 MS094 /// 331/008 TB1 S031
333 F117 VG026=
ASC EU4565 3337N 00727W 110756 F123 MS112 /// 328/011 TB0 S031
333 F123 VG002=
ASC EU4565 3339N 00726W 110756 F127 MS117 /// 337/013 TB2 S031
333 F127 VG030=
ASC EU4565 3341N 00726W 110756 F137 MS129 /// 340/015 TB2 S031
333 F137 VG034=
ASC EU4565 3343N 00725W 110757 F144 MS137 /// 341/013 TB1 S031
333 F144 VG008=
ASC EU4565 3345N 00725W 110757 F147 MS144 /// 345/012 TB2 S031
333 F147 VG024=
UNS EU4565 3347N 00724W 110757 F154 MS159 /// 341/015 TB1 S031
333 F154 VG014=
ASC EU4565 3349N 00723W 110758 F160 MS172 /// 324/010 TB1 S031
333 F160 VG007=
ASC EU4565 3352N 00722W 110758 F165 MS182 /// 320/009 TB0 S031
333 F165 VG005=
ASC EU4565 3353N 00721W 110758 F172 MS202 /// 303/009 TB0 S031
333 F172 VG001=
ASC EU4565 3356N 00720W 110759 F178 MS219 /// 315/009 TB1 S031
333 F178 VG010=
ASC EU4565 3358N 00719W 110759 F186 MS237 /// 355/009 TB0 S031
333 F186 VG003=
ASC EU4565 3400N 00717W 110759 F195 MS257 /// 350/014 TB0 S031
333 F195 VG004=
ASC EU4565 3402N 00716W 110800 F205 MS284 /// 344/018 TB1 S031
333 F205 VG017=
ASC EU4565 3404N 00715W 110800 F212 MS299 /// 338/019 TB0 S031
333 F212 VG006=
ASC EU4565 3406N 00714W 110800 F217 MS312 /// 337/020 TB1 S031
333 F217 VG016=
ASC EU4565 3408N 00713W 110801 F223 MS322 /// 333/020 TB0 S031
333 F223 VG002=
UNS EU4565 3410N 00711W 110801 F227 MS337 /// 325/021 TB0 S031
333 F227 VG006=
ASC EU4565 3413N 00711W 110801 F232 MS352 /// 327/019 TB0 S031
333 F232 VG000=
ASC EU4565 3415N 00710W 110802 F237 MS367 /// 332/018 TB0 S031
333 F237 VG004=
ASC EU4565 3417N 00709W 110802 F242 MS379 /// 334/017 TB0 S031
333 F242 VG003=
ASC EU4565 3420N 00708W 110802 F247 MS392 /// 340/018 TB0 S031
333 F247 VG003=
ASC EU4565 3422N 00708W 110803 F252 MS407 /// 342/017 TB0 S031
333 F252 VG000=
ASC EU4565 3425N 00707W 110803 F257 MS419 /// 350/017 TB0 S031
333 F257 VG002=
ASC EU4565 3427N 00706W 110803 F261 MS432 /// 349/018 TB0 S031
333 F261 VG001=
0000040700
697
SXXX32 EUMS 110800
262D700E
:PRS 1 /1 1884 1906 1946 1963 1945 1904 1956 1975 1992 1910 1915 1928 1990 1998 1985 1931 1972 1982 1928 1946 1956 1982 2002 2011 2066 2045 2025 1996 2024 1989 :RAD 1 /3 4390 4398 4402 4411 4414 4417 4437 4458 4452 4449 4462 4484 4491 4497 4512 :ENC 5 /5 4497 4505 4502 4532 4558 4535 4586 4578 4613 4628 4633 4660 :SW1 60 /60 60 :BAT 14 /15 13.9 :NAME 262D700E
0000044900
698
SXXX32 EUMS 110800 RRA
16289262
:PRS 1 /1 2255 2252 2252 2258 2255 2258 2261 2253 2267 2261 2274 2263 2267 2260 2265 2261 2275 2278 2284 2276 2273 2278 2280 2276 2294 2287 2280 2286 2283 2296 :RAD 1 /3 7714 7719 7726 7725 7729 7734 7739 7742 7743 7743 7741 7745 7747 7750 7751 7762 7768 7775 7782 7787 :ENC 5 /5 5089 5093 5094 5105 5109 5115 5122 5125 5131 5136 5147 5157 :SW1 60 /60 0 :SW2 30 /60 0 :BAT 14 /15 13.1 :NAME 16289262
0000045500
699
SXXX32 EUMS 110800 RRB
324DF524
:PRS 1 /1 3421 3429 3436 3444 3452 3459 3467 3475 3483 3490 3498 3506 3514 3521 3529 3536 3544 3552 3559 3567 3574 3582 3589 3597 3604 3611 3619 3626 3633 3640 :RAD 1 /3 3493 3521 3544 3566 3590 3613 3636 3657 3678 3697 3716 3734 3751 3770 3791 3812 3832 3851 3872 3896 :ENC 5 /5 2430 2471 2509 2549 2586 2623 2657 2690 2721 2755 2790 2822 :SW1 60 /60 0 0 :SW2 30 /60 60 60 :BAT 14 /15 12.7 :NAME 324DF524
0000041600
700
SXXX32 EUMS 110801
26CB10AC
:PRS 1 /1 -1338 -1338 -1338 -1338 -1338 -1338 -1338 -1338 -1338 -1338 -1338 -1338 -1338 -1339 -1338 -1338 -1338 -1338 -1338 -1337 -1338 -1338 -1338 -1338 -1338 -1338 -1338 -1338 -1339 -1338 :RAD 3 /3 5772 5769 5770 5773 5776 5781 5788 5794 5798 5803 :RA2 3 /3 5740 5736 5732 5736 5737 5742 5753 5750 5758 5764 :SW1 2 /60 60 :SW2 32 /60 60 :BAT 14 /15 13.0 :NAME 26CB10AC
0000044900
701
SXXX32 EUMS 110801 RRA
1227146C
:PRS 1 /1 2911 2905 2903 2900 2896 2892 2887 2882 2879 2875 2872 2868 2865 2861 2857 2852 2851 2846 2843 2838 2835 2831 2826 2824 2821 2817 2814 2812 2810 2806 :RAD 3 /3 2895 2881 2864 2865 2855 2831 2838 2812 2798 2792 2794 2785 2794 2769 2767 2761 2751 2738 2729 2712 :ENC 1 /5 3642 3622 3604 3585 3566 3551 3538 3527 3515 3500 3484 3469 :SW1 2 /60 0 :SW2 32 /60 60 :BAT 14 /15 13.4 :NAME 1227146C
0000044400
702
SXXX32 EUMS 110803
22856700
:PRS 1 /1 3831 3834 3841 3836 3835 3829 3830 3825 3816 3813 3811 3809 3803 3803 3795 3799 3801 3788 3783 3786 3785 3771 3771 3774 3768 3771 3768 3766 3765 3768 :RAD 1 /3 7329 7322 7310 7300 7291 7283 7274 7267 7263 7254 7244 7233 7224 7216 7209 7201 7200 7195 7185 7173 :ENC 3 /5 5534 5515 5500 5485 5471 5464 5444 5431 5417 5404 5401 5388 :SW1 3 /60 0 :SW2 33 /60 0 :BAT 14 /15 13.1 :NAME 22856700
0000045000
703
SXXX32 EUMS 110803 RRA
32D8A2BE
:PRS 1 /1 1895 1896 1893 1894 1894 1891 1906 1894 1901 1907 1899 1899 1905 1902 1907 1904 1901 1912 1904 1901 1917 1909 1909 1911 1909 1906 1920 1918 1914 1910 :RAD 1 /3 7475 7479 7481 7481 7485 7492 7491 7490 7489 7487 7496 7499 7502 7512 7511 7519 7529 7533 7538 7535 :ENC 3 /5 4903 4908 4911 4915 4918 4918 4923 4933 4940 4948 4956 4962 :SW1 3 /60 51 :SW2 33 /60 55 :BAT 14 /15 13.1 :NAME 32D8A2BE
0000047700
704
SXXX32 EUMS 110804
262AD2C2
OT12 ID:PK-ORMA-10 DT:2014 01 11 08 03
:PRS /1 06612 06596 06595 06578 06590 06590 06584 06586 06581 06582 06581 06590 06594 06598 06588 06586 06587 06573 06569 06575 06560 06571 06560 06562 06555 06548 06550 06550 06545 06543
:RAD /1 ///// ///// ///// ///// ///// ///// ///// ///// ///// ///// ///// ///// ///// ///// ///// ///// ///// ///// ///// ///// ///// ///// ///// ///// ///// ///// ///// ///// ///// /////
:BAT 13.4V
0000010200
705
SAIQ01 ORBI 110800
METAR ORMM 110800Z 26010KT 4000 BR FEW040 OVC100 12/11 Q1018 NOSIG=
0000009200
706
SAIN90 VABP 110800
METAR VABP 110800Z 05007KT 2500 HZ NSC 18/12 Q1017 NOSIG=
0000087600
707
SACI41 ZBBB 110800
METAR ZBHH 110800Z 24003MPS 4500 HZ NSC M06/M20 Q1026 BECMG TL0900
31005MPS=
METAR ZGHA 110800Z 33005MPS 2000 -RA BR FEW004 BKN005 OVC040
04/03
Q1029 NOSIG=
METAR ZHCC 110800Z 19003MPS 160V220 4000 HZ NSC 08/M05 Q1028 NOSIG=
METAR ZHHH 110800Z 00000MPS 2500 BR SCT016 05/02 Q1029 NOSIG=
METAR ZJHK 110800Z 06006MPS 9999 FEW023 22/17 Q1019 NOSIG=
METAR ZJSY 110800Z 08008MPS 9999 FEW020 25/15 Q1017 NOSIG=
METAR ZLLL 110800Z 16002MPS 110V190 CAVOK M05/M21 Q1028 NOSIG=
METAR ZSNJ 110800Z 09004MPS 1800 -RA BR SCT009 OVC040 05/03
Q1029
BECMG TL0930 1400 BKN008=
METAR ZSOF 110800Z 36003MPS 2600 BR BKN023 06/02 Q1029 NOSIG=
METAR ZUCK 110800Z 15002MPS 110V170 2200 BR FEW003 SCT010
OVC043
07/05 Q1027
NOSIG=
METAR ZYCC 110800Z 25005MPS CAVOK M08/M18 Q1023 NOSIG=
METAR ZYHB 110800Z 02004MPS 4000 -SN FU FEW033 M16/M18
Q1023
BECMG TL0930 2500=

0000090800
708
SACI32 ZBBB 110800
METAR ZGKL 110800Z 06002MPS 030V100 4000 -DZ BR FEW006
SCT016
OVC036 07/06 Q1025 NOSIG=
METAR ZGNN 110800Z 03004MPS 2500 BR SCT013 OVC026 15/11 Q1021 NOSIG=
METAR ZGOW 110800Z 13005MPS 8000 NSC 19/11 Q1021 NOSIG=
METAR ZGSZ 110800Z 22003MPS 6000 NSC 19/12 Q1020 NOSIG=
METAR ZLXY 110800Z 22005MPS CAVOK 07/M12 Q1029 NOSIG=
METAR ZMUB 110800Z 00000MPS 4000NW FU NSC M21/M25 Q1028 NOSIG
RMK
QFE662.4 67 NW MO=
METAR ZPPP 110800Z 24010MPS 210V270 CAVOK 16/M04 Q1020 NOSIG=
METAR ZSAM 110800Z 11002MPS CAVOK 20/12 Q1022 NOSIG=
METAR ZSFZ 110800Z 02003MPS 330V040 9999 OVC023 15/08 Q1024 NOSIG=
METAR ZSNB 110800Z VRB01MPS 2000 -RA BR SCT003 BKN016 OVC040
07/06
Q1028 NOSIG=
METAR ZSQD 110800Z 20002MPS 2500 FU NSC 04/M05 Q1030 NOSIG=
METAR ZUGY 110800Z 06002MPS 020V090 7000 FEW009 BKN016 OVC033
03/01
Q1024 NOSIG=
METAR ZUUU 110800Z 05002MPS 350V100 CAVOK 10/M00 Q1027 NOSIG=

0000039500
709
SAJP31 RJTD 110800
METAR RJAA 110800Z 17002KT 9999 FEW030 03/M05 Q1023 NOSIG=
METAR RJBB 110800Z 29011KT 9999 FEW025 07/M06 Q1027 BECMG 34008KT=
METAR RJTT 110800Z 12003KT 080V160 9999 FEW025 SCT/// 07/M05 Q1023
           NOSIG=
METAR RJOO 110800Z 36007KT 9999 FEW030 SCT060 06/M04 Q1027=
METAR RJGG 110800Z 32019KT 9999 FEW025 SCT050 07/00 Q1025 NOSIG=
METAR ROAH 110800Z NIL=

0000011000
710
UANT99 KDDL 110805
ARP ACA888 5401N01615W 0805 F360 MS65 240/67 KT
CGLCA DDL BLY 110805 F64A
0000011000
711
UANT99 KDDL 110805
ARP CLX765 4739N01828W 0805 F350 MS62 231/81 KT
LXECV QXT EUA 110805 F80A
0000011100
712
UANT99 KDDL 110805
ARP UAL970 5434N04514W 0805 F370 MS61 285/50 KT
N643UA DDL XXW 110806 F05A
0000106700
713
SMPA01 RJTD 110600
AAXX 11064
91165 32466 80520 10230 20210 30108 90603=
91212 32566 60514 10294 20222 31364 40100 56015 90554=
91285 32966 02103 10206 20194 30131 40144 53017 90553=
91317 32474 60912 10294 20272 30070 40074 5//// 81202=
91334 32474 80312 10290 20256 30063 40066 56015 82171=
91348 32474 80509 10289 20233 30024 40076 55008 81101=
91353 32474 80507 10300 20255 30074 40081 5//// 85208=
91356 32566 80415 10294 20226 30050 50057 5//// 84276=
91376 11474 80413 10280 20230 30056 40059 55002 60021 70282 85808=
91408 11473 80705 10272 20241 30037 40075 57022 60041 70282 84308=
91413 32469 80714 10296 20247 30059 40084 57019 83871=
91425 11474 60401 10300 20283 30074 40075 5//// 60071 70282 86200=
91434 11474 83603 10294 20249 30055 40056 5//// 60031 70282 882//=
91610 11498 71118 10263 20243 40045 53010 60051 72528 833/8=
91155 NIL=
91203 NIL=
91217 NIL=
91232 NIL=
91250 NIL=
91275 NIL=
91324 NIL=
91339 NIL=
91366 NIL=
91367 NIL=
91369 NIL=
91371 NIL=
91378 NIL=
91601 NIL=
00000000