0000025000
566
SAHU41 LHBM 102330
METAR LHKE 102315Z 00000MPS 8000 NSC 00/M01 Q1022 BECMG 5000 BR RMK
     BLU=
METAR LHPA 102315Z 24002MPS 8000 BKN040 01/01 Q1021 NOSIG RMK BLU=
METAR LHSN 102315Z 26004MPS CAVOK 04/M01 Q1021 NOSIG RMK BLU=

0000015000
567
FTID32 WIBB 102300 CCA
TAF WIBB 102300Z 1100/1124 000000KT 7000 SCT015
BECMG 1104/1106 9999 SCT012
BECMG 1117/1119 8000 SCT017=

0000130800
568
SPUS70 KWBC 102332
SPECI
KBDE 102328Z AUTO 17007KT 6SM BR OVC009 M04/M05 A2943 RMK AO2
     T10391050 TSNO=
KERI 102328Z 16011KT 10SM SCT010 OVC060 05/03 A3004 RMK AO2=
KEVV 102328Z 12004KT 6SM BR BKN016 OVC120 08/07 A2984 RMK AO2
     RAE00 P0000 T00830067=
KLBT 102328Z AUTO 00000KT 1 1/2SM RA BR BKN031 BKN075 OVC100 18/17
     A3014 RMK AO2 P0010 T01780167=
KSPB 102328Z AUTO 15006KT 9SM FEW021 BKN048 OVC065 11/08 A3001 RMK
     AO2 RAE07 P0000 T01060083=
KTOI 102328Z AUTO 00000KT 2SM BR OVC003 13/12 A3004 RMK AO2
     T01330122=
PADU 102328Z 13016G21KT 9SM -RA SCT006 OVC017 04/01 A2915 RMK AO2
     P0001=
PABA 102327Z AUTO 27021KT 1/2SM SN FEW006 BKN017 OVC045 M26/M29
     A2985 RMK AO2 PK WND 27026/2320 P0000 FZRANO=
KAOH 102329Z AUTO 16012KT 6SM BR OVC004 04/03 A2988 RMK AO2 PNO
     $=
KGLS 102329Z 16015KT 1 1/4SM -RA BR FEW002 BKN007 OVC016 17/17
     A2984 RMK AO2 P0001=
KMEB 102329Z AUTO 01006KT 2SM +RA BR FEW003 BKN017 OVC024 14/14
     A3016 RMK AO2 P0032 T01440144=
KSRC 102329Z AUTO 31005KT 2 1/2SM +RA BR BKN001 OVC015 08/08 A2978
     RMK AO2 TSNO P0020=
KSTJ 102329Z AUTO 28007KT 1 3/4SM BR OVC002 02/02 A2957 RMK AO2
     T00220017=
PARS 102329Z AUTO 00000KT 10SM BKN029 M13/M17 A2953 RMK AO2 TSNO
     $=

0000009800
569
SPUS41 KWBC 102332
SPECI
KERI 102328Z 16011KT 10SM SCT010 OVC060 05/03 A3004=

0000012700
570
FCIE32 EIDB 102300 RRA
TAF EIWF 102300Z 1100/1109 32005KT 9999 SCT025 TEMPO 1101/1109
     1200 BR BKN002=

0000017400
571
FCIE32 EIDB 102300 RRB
TAF EISG 102300Z 1100/1109 20004KT 9999 SCT025 TEMPO 1100/1103
     SHRASN SHRAGS SCT018CB TEMPO 1103/1109 3000 BR BKN004
     =

0000011300
572
SPAU32 YBBN 102331
SPECI YPGV 102327Z AUTO 12012KT 7000 // SCT014 BKN029 OVC057 27/25
Q1008=

0000012000
573
FCIE32 EIDB 102300 RRC
TAF EIME 102300Z 1100/1109 23008KT 9999 SCT025 TEMPO 1103/1109
     3000 BR=

0000099000
574
FTCH12 SCSC 110000
TAF SCIE 102202Z 1100/1124 21010KT CAVOK TX25/1118Z TN10/1110Z BECMG
         1101/1103 18008KT BECMG 1106/1108 VRB02KT BECMG 1113/1115
         21010KT=
TAF SCTC 102230Z 1100/1200 25010KT CAVOK TN08/1110Z TX30/1120Z BECMG 
1102/1104 20005KT TEMPO 1107/1111 9999 SCT015 BECMG 1118/1120 23010KT
=
TAF SCJO 110000Z NIL=
TAF SCTE 102230Z 1100/1200 15012KT 9999 FEW040 TN08/1110Z TX22/1119Z 
BECMG 1102/1104 18004KT BECMG 1104/1106 SCT030 PROB40 TEMPO 1107/1112
 BKN015 BECMG 1116/1118 15013KT CAVOK=
TAF SCPQ 110000Z NIL=
TAF SCBA 102230Z 1100/1200 31025G37KT 9999 FEW040 TN05/1110Z TX24/
1119Z BECMG 1103/1105 30018KT BECMG 1114/1116 31023G35KT CAVOK=
TAF SCNT 110000Z NIL=
TAF SCCI 102244Z 1100/1200 24020KT 9999 SCT030
TN08/1109Z TX15/1118Z
BECMG 1101/1103 31013G27KT BKN030
BECMG 1104/1106 8000 -SHRA BKN020
BECMG 1110/1112 28025G40KT NSW SCT040
TEMPO 1113/1118 8000 -SHRA BKN022
BECMG 1118/1120 28035KT BKN030=

0000011300
575
SPAU32 AMMC 102332
SPECI YPGV 102327Z AUTO 12012KT 7000 // SCT014 BKN029 OVC057 27/25
Q1008=

0000016900
576
SACY31 LCLK 102330
METAR LCLK 102330Z 33005KT CAVOK 12/06 Q1021 NOSIG=
METAR LCPH 102330Z 02008KT 9999 FEW020 11/06 Q1022=
METAR LCNC 102330Z NIL=

0000009900
577
SAGR31 LGAT 102320 RRA
METAR LGRP 102320Z 00000KT 9999 FEW018 12/08 Q1021 NOSIG=

0000009200
578
SARM31 LUKK 102330
METAR LUBL 102330Z AUTO 23012KT 9999 NCD 02/M02 Q1014=

0000043100
579
FTAU33 YBBN 102300 RRC
TAF YSNF 102326Z 1100/1118
13015KT 9999 -SHRA SCT030 BKN050
INTER 1102/1118 5000 SHRA SCT015
RMK=
TAF YSRI 102327Z 1100/1118
VRB03KT 9999 FEW030
BECMG 1100/1101 09010KT CAVOK
FM111200 VRB05KT 9999 FEW020
RMK=
TAF YWLM 102327Z 1100/1118
VRB03KT 9999 FEW030
BECMG 1100/1101 11010KT 9999 FEW030
BECMG 1105/1107 07012KT 9999 FEW030
FM111200 36005KT 9999 FEW020
RMK=

0000011800
580
SAMR20 TFFF 102330
METAR TFFF 102330Z AUTO 06009KT 030V090 9999 FEW029 SCT038 BKN062
25/20 Q1015=

0000012100
581
SAGR31 LGAT 102320 RRB
METAR LGTS 102320Z 10003KT 7000 FEW010 SCT025 BKN180 05/04 Q1021
      NOSIG=

0000009700
582
SPCN43 CWAO 102328
SPECI CYEN 102328Z 30010G15KT 3/4SM BR DRSN OVC006 RMK ST8=

0000008800
583
SPCN49 CWAO 102329
SPECI CYGW 102329Z 00000KT 5SM -SN OVC009 RMK SC8=

0000025900
584
FTEO31 EETN 102300
TAF EETN  102330Z 1100/1124 33012KT 4000 SN OVC006 TEMPO
     1100/1104 1000 +SHSN BKN003 SCT012CB BECMG 1104/1106 9999 NSW
     OVC010 TEMPO 1109/1119 VRB02KT 2000 SHSN BKN006 SCT013CB BECMG
     1119/1121 07010KT=

0000021100
585
SABU31 LBSM 102330
METAR LBSF 102330Z 35002MPS 1800 BR NSC M01/M01 Q1022 NOSIG=
METAR LBWN 102330Z 30005MPS CAVOK 06/03 Q1018 NOSIG=
METAR LBBG 102330Z 27003MPS 9000 NSC 04/03 Q1019 NOSIG=

00000000