0000211800
926
SNVD15 KWNB 111000 RRN
BBXX
41009 11101 99285 70802 46/// /1805 10240 20219 40182 91020 22200
00241 333 91206 555 11056 22060 30955 41707 61019 180053 173054
174057 171054 171053 168051=
42365 11101 99282 70891 46/// /2511 10225 20209 91030 555 11092
22098=
41036 11101 99342 70769 46/// /2009 10221 20199 40164 91020 22200
00210 333 91210 555 11094 22103 30959 41912 61019 196088 195094
192096 193099 192092 195095=
42361 11101 99276 70925 46/// /2010 10222 20222 40132 53007 91030
555 11080 22086=
42390 11101 99261 70949 46/// ///// 10278 20222 40139 53007 91030=
42364 11101 99291 70881 46/// /1712 10217 20206 40132 56010 91030=
41108 11101 99337 70780 46/// ///// 1//// 91029 22200 00122 10703
20703 70013=
42099 11101 99273 70843 46/// ///// 1//// 91022 22200 00220 10301
20301 70007=
41114 11101 99276 70802 46/// ///// 1//// 91025 22200 00235 10803
20803 305// 41101 70014=
41112 11101 99307 70813 46/// ///// 1//// 91022 22200 00113 10803
20803 70013=
41037 11101 99340 70774 46/// /1910 10199 40158 57026 91000 333
91212 555 11123 22134=
44064 11101 99370 70760 46/// /1305 10112 40148 91030 333 91205
555 11053 22058=
44063 11101 99390 70764 46/// /3001 10026 40130 91030 333 91202
555 11007 22008=
44041 11101 99372 70768 46/// /1304 10140 91030 333 91205 555
11044 22048=
44042 11101 99380 70763 46/// /1605 10082 40138 91030 333 91206
555 11058 22063=
42360 11101 99267 70905 46/// /1906 10223 40142 55005 91000 22200
00225 10602 70008 333 91208 555 11060 22065=
41051 11101 99183 70650 46/// /0807 10246 91030 333 91208 555
11076 22082=
41051 11101 99183 70650 46/// /0807 10246 91020 333 91210 555
11080 22087=
41051 11101 99183 70650 46/// /0808 10249 91010 333 91210 555
11087 22095=
41051 11101 99183 70650 46/// ///// 1//// 91000 22200 10502 70011=
41056 11101 99183 70655 46/// /0506 10253 40169 91030 333 91207
555 11064 22069=
41056 11101 99183 70655 46/// /0606 10253 40168 91020 333 91207
555 11066 22072=
41056 11101 99183 70655 46/// /0606 10253 40167 91010 333 91207
555 11061 22067=
0000068500
927
UDEU02 EGRR 111049
AMDAR 1110
ASC EU7724   6348N 02012E 111036 F023 MS125 056/038 TB/ S031=
ASC EU7724   6347N 02008E 111036 F035 MS148 064/042 TB/ S031=
ASC EU7724   6344N 02007E 111037 F054 MS140 075/034 TB/ S031=
ASC EU7724   6342N 02008E 111038 F077 MS155 117/012 TB/ S031=
ASC EU7724   6339N 02008E 111038 F095 MS179 109/010 TB/ S031=
ASC EU7724   6337N 02007E 111039 F108 MS208 115/008 TB/ S031=
ASC EU7724   6334N 02006E 111039 F126 MS243 152/009 TB/ S031=
ASC EU7724   6331N 02006E 111040 F144 MS280 170/012 TB/ S031=
ASC EU7724   6328N 02005E 111041 F162 MS325 191/015 TB/ S031=
ASC EU7724   6325N 02003E 111041 F178 MS360 171/020 TB/ S031=
0000043300
928
UDEU02 EGRR 111049 RRA
AMDAR 1110
LVR EU0057   3927N 00802W 111009 F410 MS552 319/019 TB/ S031=
LVR EU0057   3837N 00832W 111016 F410 MS567 304/027 TB/ S031=
LVR EU0057   3747N 00901W 111023 F410 MS555 301/029 TB/ S031=
LVR EU0057   3656N 00930W 111030 F410 MS540 301/034 TB/ S031=
LVR EU0057   3606N 00957W 111037 F410 MS550 296/044 TB/ S031=
LVR EU0057   3522N 01035W 111044 F410 MS580 308/035 TB/ S031=
0000014700
929
SNAA19 LFVW 111100
AAXX 11114
89661 46/// /1201 11039 29088 39347 4//// 5////=
89648 46/// /2002 11208 29072 37233 4//// 5////=
0000011000
930
UANT99 KDDL 111046
ARP KLM755 4759N01005W 1046 F370 MS58 282/39 KT
PHBQG QXT AOE 111046 F71A
0000072700
931
UDAS02 BABJ 111039
AMDAR 1110
DES CNFNXP 3530N 11704E 111034 F217 MS281 278/074 TB/ S//1=
DES CNFNXP 3535N 11703E 111035 F209 MS264 279/067 TB/ S//1=
DES CNFNXP 3541N 11702E 111036 F199 MS268 277/056 TB/ S//1=
DES CNFNXP 3547N 11702E 111037 F189 MS245 270/054 TB/ S//1=
DES CNFNXM 2803N 11906E 111031 F198 MS155 265/058 TB/ S//1=
DES CNFNXM 2804N 11911E 111031 F191 MS143 266/055 TB/ S//1=
LVR CNFNXM 2805N 11919E 111032 F187 MS136 266/055 TB/ S//1=
LVR CNFNXM 2805N 11927E 111033 F187 MS135 266/054 TB/ S//1=
LVR CNFNXM 2806N 11930E 111034 F187 MS136 265/053 TB/ S//1=
LVR CNFNXM 2806N 11935E 111034 F187 MS135 262/053 TB/ S//1=
LVR CNFNXM 2803N 11942E 111035 F187 MS138 266/054 TB/ S//1=
0000153300
932
UDAS02 BABJ 111037
AMDAR 1110
ASC CNFNZK 3421N 11432E 111005 F187 MS203 263/045 TB/ S//1=
LVR CNFNZK 3420N 11436E 111006 F187 MS205 263/045 TB/ S//1=
LVR CNFNZK 3419N 11441E 111006 F187 MS201 271/045 TB/ S//1=
LVR CNFNZK 3421N 11445E 111007 F187 MS203 270/047 TB/ S//1=
LVR CNFNZK 3424N 11447E 111008 F187 MS203 267/046 TB/ S//1=
LVR CNFNZK 3425N 11447E 111008 F187 MS203 266/046 TB/ S//1=
LVR CNFNZK 3428N 11448E 111008 F187 MS205 266/044 TB/ S//1=
LVR CNFNZK 3431N 11448E 111009 F187 MS208 266/044 TB/ S//1=
LVR CNFLWN 2606N 10810E 111026 F291 MS296 260/109 TB/ S//1=
LVR CNFLWN 2556N 10837E 111029 F291 MS293 258/105 TB/ S//1=
ASC CNFLWN 2540N 10901E 111032 F322 MS363 259/107 TB/ S//1=
LVR CNFLWN 2525N 10925E 111035 F331 MS394 257/102 TB/ S//1=
ASC CNFNZK 3435N 11448E 111009 F189 MS213 268/045 TB/ S//1=
ASC CNFNZK 3439N 11449E 111010 F204 MS249 272/049 TB/ S//1=
ASC CNFNZK 3442N 11449E 111011 F220 MS291 271/048 TB/ S//1=
ASC CNFNZK 3443N 11449E 111011 F222 MS296 267/051 TB/ S//1=
LVR CNFPQK 3726N 11803E 111026 F236 MS378 271/081 TB/ S//1=
LVR CNFPQK 3724N 11744E 111029 F236 MS370 272/085 TB/ S//1=
LVR CNFPQK 3721N 11725E 111032 F236 MS355 274/091 TB/ S//1=
LVR CNFPQK 3717N 11707E 111035 F236 MS340 275/100 TB/ S//1=
ASC CNFPYM 3108N 11713E 111026 F303 MS388 257/111 TB/ S//1=
LVR CNFPYM 3047N 11711E 111029 F311 MS368 256/123 TB/ S//1=
LVR CNFPYM 3027N 11710E 111032 F311 MS355 259/131 TB/ S//1=
LVR CNFPYM 3007N 11709E 111035 F311 MS350 260/133 TB/ S//1=
0000217000
933
SZNZ01 NZKL 111048
CREX++
T000103 A001 D01021 D06025++
-3683144 17478654 AUCT  2014 01 11 10 40 //// 11 07 00 01
04083 3219 04089 3222 04093 3222 04097 3222 04100 3222 04105 3223+
-4402404 -17636748 CHIT  2014 01 11 10 40 //// 11 07 00 01
04873 2004 04887 2014 04896 2018 04909 2028 04926 2041 04910 2021+
-4089929 17623168 CPIT  2014 01 11 10 40 //// 11 07 00 01
03786 2317 03807 2332 03785 2305 03795 2310 03802 2311 03810 2314+
-3618905 17548887 GBIT  2014 01 11 10 40 //// 11 07 00 01
05119 -0006 05120 -0009 05130 -0002 05142 0007 05136 -0003 05133 -0009+
-3867541 17802288 GIST  2014 01 11 10 40 //// 11 07 00 01
03690 2770 03698 2773 03689 2759 03687 2752 03680 2741 03687 2743+
-4241288 17370277 KAIT  2014 01 11 10 40 //// 11 07 00 01
03374 2255 03379 2253 03384 2253 03384 2247 03397 2256 03384 2236+
-3755040 17815904 LOTT  2014 01 11 10 40 //// 11 07 00 01
02935 0206 02940 0207 02939 0202 02960 0219 02943 0199 02942 0194+
-3704657 17451175 MNKT  2014 01 11 10 40 //// 11 07 00 01
02206 -0154 02209 -0145 02191 -0156 02187 -0153 02190 -0144 02177 -0152+
-3947566 17692007 NAPT  2014 01 11 10 40 //// 11 07 00 01
02806 2062 02809 2060 02830 2075 02844 2085 02848 2083 02864 2093+
-3441483 17304870 NCPT  2014 01 11 10 40 //// 11 07 00 01
-04647 -8233 -04647 -8233 -04666 -8253 -04523 -8111 -04564 -8153 -04628 -8218+
-4581435 17062939 OTAT  2014 01 11 10 40 //// 11 07 00 01
04932 3394 04938 3394 04945 3395 04952 3397 04959 3399 04966 3401+
-2928002 -17789440 RBCT  2014 01 11 10 40 //// 11 07 00 01
05537 1997 05540 1998 05549 2005 05535 1989 05543 1994 05553 2002+
-2925114 -17790384 RFRT  2014 01 11 10 40 //// 11 07 00 01
02461 0193 02461 0191 02466 0193 02480 0205 02475 0198 02460 0180+
-4357010 17277383 SUMT  2014 01 11 10 40 //// 11 07 00 01
02079 1837 02072 1823 02095 1839 02115 1852 02126 1856 02133 1856+
-3764109 17618118 TAUT  2014 01 11 10 40 //// 11 07 00 01
04439 4022 04437 4018 04441 4019 04436 4011 04438 4010 04446 4015+
-4128448 17477985 WLGT  2014 01 11 10 40 //// 11 07 00 01
03168 2030 03176 2034 03188 2042 03193 2042 03192 2037 03204 2044++
7777
0000033300
934
SAEQ01 SEQU 102200
METAR SEQM 102200Z 13006KT  9999 -RA BKN026 BKN080 15/12 Q1022 RMK 
    A3018 TEMPO 8000=
METAR SEGU 102200Z 28004KT 9999 VCSH BKN020 OVC090 28/22 Q1007 RMK 
A2974 NOSIG=
METAR SEMT 102200Z 20009KT 9999 OVC020 27/22 Q1008=
METAR SELT 102200Z 04009KT 9999 -RA BKN030 BKN100 13/11 Q1025=

0000094100
935
SAPR76 SPIM 102200
METAR SPCL 102200Z 05008KT 9999 SCT030 SCT100 28/24 Q1006 
RMK BIRD HAZARD RWY 02/20 PP000=
METAR SPGM 102200Z NIL=
METAR SPHO 102200Z 31010KT 9999 VCSH SCT046TCU OVC100 20/12 Q1017 RMK
TMAX. 23.5 PP000=
METAR SPHY 102200Z NIL=
METAR SPJI 102200Z NIL=
METAR SPJL 102200Z 12008KT 9999 FEW010 SCT080 13/05 Q1032 RMK
TMAX.19.4 PP000=
METAR SPJR 102200Z 13010KT 9999 SCT023 OVC040 16/11 Q1024 WS RMK
TMAX: 21.4 PP000=
METAR SPLO 102200Z NIL=
METAR SPME 102200Z 30004KT 9999 FEW013 BKN033  28/22 Q1007
RMK BIRD HAZARD RWY 32/14 PP000=
METAR SPMS 102200Z /////KT 9999 VCSH BKN015 BKN100 27/23 Q1008 RMK
T.MAX 31.2 BIRD HAZARD 09/27 PP000=
METAR SPST 102200Z 34006KT 9999 SCT020 SCT100 30/20 Q1005 
RMK BIRD HAZARD RWY 17/35 T.M.32.2 PP000=
METAR SPTU 102200Z 33005KT 9999 5000W VCSH BKN010 30/25 Q1006 RMK
BIRD HAZARD RWY 01/19 T.MAX 32.3 PP000=
METAR SPYL 102200Z NIL=

0000018000
936
FTNT31 KWBC 102200
TAF
TAF GVAC 102200Z 1100/1206 05009KT 9999 SCT015 PROB30
      TEMPO 1102/1106 05005KT -DZ BKN015 BKN090
      TEMPO 1112/1118 05013KT=

0000009700
937
SPAU32 AMMC 102159
SPECI YMAV 102200Z AUTO 25007KT 9999 // OVC013 17/13 Q1020=

0000039000
938
SAMX31 KWBC 102145 RRD
METAR
MMAA 102142Z 22006KT 10SM SKC 31/20 A2982=
MMGL 102149Z 27016KT 10SM SCT030TCU BKN080 21/01 A3007 RMK
     8/230=
MMMX 102143Z 18007KT 12SM BKN025TCU 20/04 A3019 NOSIG RMK
     8/200=
MMTM 102142Z 11004KT 5SM SCT070 BKN200 24/17 A2983 RMK 8/038
     HZY=
MMVR 102141Z 10010KT 7SM SKC 26/17 A2984 RMK HZY DSNT CU 4
     QUAD=

0000008300
939
SABZ24 SBFI 102200
METAR SBFI 102200Z 02002KT CAVOK 31/23 Q1009=

0000075400
940
SATU32 LTAA 102150
METAR LTAG 102150Z 05006KT CAVOK 02/M01 Q1021 NOSIG=
METAR LTAN 102150Z 15003KT 110V170 2600 BR OVC004 M02/M02 Q1022
 NOSIG=
METAR LTAP 102150Z 23006KT 190V250 CAVOK M03/M05 Q1021 NOSIG=
METAR LTAT 102150Z 21005KT CAVOK M08/M09 Q1022 NOSIG=
METAR COR LTAU 102150Z 00000KT 3400 BCFG VV002 M03/M04 Q1023 BECMG
 TL2300 0400 FZFG=
METAR LTBF 102150Z 36005KT 1200 R36/1400U R18/1400N BR NSC M00/M00
 Q1022 BECMG TL2300=
METAR LTBU 102150Z 23008KT 4500 BR FEW020 06/06 Q1020=
METAR LTCC 102150Z 27004KT CAVOK M02/M05 Q1021 NOSIG=
METAR LTCE 102150Z 13001KT 1400 0700W R26L/P1500U R08R/P1500U
 R26R/0275U R08L/P1500U BCFG NSC M27/M29 Q1021 NOSIG=
METAR LTCJ 102150Z VRB02KT 8000 NSC M02/M02 Q1021=

0000068600
941
SAPR82 SPIM 102200
METAR SPHI 102200Z 17015KT CAVOK 28/22 Q1008 RMK TMX 30.0 PP000=
METAR SPIM 102200Z 17015KT CAVOK 23/19 Q1010 NOSIG RMK PP000=
METAR SPQT 102200Z 35006KT 9999 SCT040 28/23 Q1006 NOSIG 
RMK PP000=
METAR SPQU 102200Z 26008KT 9999 BKN017 SCT100 14/10 Q1023 NOSIG
RMK TMAX.20.5 PP000=
METAR SPRU 102200Z 
17007KT 9999 FEW030 24/19 Q1009 RMK T.MAX.25.0 PP000=
METAR SPSO 102200Z /////KT 9999 BKN080 SCT230 25/20 Q1009 
RMK T/MAX 27.9 BIRD HAZARD RWY 22/04 PP000=
METAR SPTN 102200Z 21010KT CAVOK 24/16 Q1009 RMK T.MAX 28.7 PP000=
METAR SPZO 102200Z 36008KT 310V070 9999 FEW036 SCT060 BKN100 15/05
Q1025 NOSIG RMK TMAX 15.5 PP000=

0000012600
942
SACN61 CYDN 102200
METAR CYDN 102200Z AUTO 22004KT 5SM BR FEW010 BKN022 OVC100 M08/M09
 A2938 RMK SLP975=

0000013600
943
SACN62 CYDC 102200
METAR CYDC 102200Z 21005KT 140V220 15SM FEW050 SCT060 BKN070 05/M02
 A2983 RMK CU1SC2AC3 SLP122=

0000013000
944
SACN62 CYDF 102200
METAR CYDF 102200Z 23020G25KT 6SM -SN DRSN SCT018 BKN027 M06/M09
 A3010 RMK SC3SC4 SLP194=

0000015100
945
SACN62 CYEG 102200
METAR CYEG 102200Z 26006KT 15SM FEW035 FEW090 FEW150 SCT240 M04/M06
 A2950 RMK SC1AC1AC2CI1 SC TR AC TR SLP035=

00000000