0000011100
946
UANT01 CWAO 111056
ARP AAL136 5600N03004W 1056 F350 MS63 206/67 KT
N719AN DDL XXW 111056 F67A
0000011000
947
UANT01 CWAO 111057
ARP DLH459 5832N06103W 1057 F350 MS59 283/73 KT
DAIHP QXT AME 111057 J05A
0000011000
948
UANT01 CWAO 111057
ARP BAW268 5451N05246W 1057 F390 MS59 288/71 KT
GXLEB QXS YAY 111057 J27A
0000010900
949
UANT01 CWAO 111057
ARP VIR97 4903N01802W 1057 F360 MS65 226/83 KT
GVGEM DDL XXF 111057 J75A
0000016000
950
SSVX13 LFVW 111057
ZZYY 17572 11014 1100/ 537893 171786 6110/
11119 40161 52003
22219 00207
444 20100 11014 1056/ 50101 80110 80000 9/015=
0000012200
951
SNRE15 FMEE 111100
AAXX 11114
61997 26/// /3425 10096 20095 39782 49955 56044
  333 60025 90710 91137=
0000039000
952
SAPK31 OPKC 111100
METAR OPGD 111100Z NIL=
METAR OPKC 111100Z NIL=
METAR OPLA 111055Z 30006KT 5000 HZ NSC 19/04 Q1019 NOSIG=
METAR OPNH 111100Z 36006KTS 4000M FU NSC 22/02 Q.1019=
METAR OPPS 111100Z S--06KT 5000 HZ SCT200 19/M02 Q1019.7=
METAR OPRN 111100Z 31006KT 6000 SKC 17/01 Q1020.1/30.12=
METAR OPSK 111100Z 36004KTS 6000 HZ SCT200 21/05 QNH 1018 RH.34 PC=
0000011100
953
UANT99 KDDL 111056
ARP UAL126 5400N01601W 1056 F370 MS58 250/64 KT
N17139 DDL IG1 111057 F14A
0000024100
954
SOAT10 KWAL 111058
FA8005BC 011105837 OT12 ID:KN-BASS-01 DT:2014 01 11 10 56
:RD -3116 -3080 -3079 -3083 -3049 -3074 -3083 -3122 -3084 -3063
:PR 0564 0547 0558 0616 0576 0559 0600 0621 0644 0560
:B 13.7V
 46+1NN 219E
0000010200
955
SAYE20 OYSN 111100
METAR OYSN 111100Z 21009KT 140V310 9999 FEW030 SCT180 23/M05 Q1024=
0000013500
956
FTCA33 KWBC 110230
TAF
TBPB 110200Z 1106/1206 06015KT 9999 SCT018
      TEMPO 1106/1118 8000 SHRA BKN014 BKN038=

0000023000
957
FTUS71 KWBC 110230 AAA
TAF AMD
KDAY 110227Z 1102/1124 15012KT 5SM BR VCSH OVC025
     FM110400 17015G23KT 4SM -RA BR OVC007
     FM111200 22015G25KT P6SM VCSH OVC011
     FM111500 24016G26KT P6SM OVC015=

0000023000
958
FTUS41 KWBC 110230 AAA
TAF AMD
KDAY 110227Z 1102/1124 15012KT 5SM BR VCSH OVC025
     FM110400 17015G23KT 4SM -RA BR OVC007
     FM111200 22015G25KT P6SM VCSH OVC011
     FM111500 24016G26KT P6SM OVC015=

0000032200
959
FTUS73 KWBC 110230
TAF
TAF AMD KBKF 1102/1207 18009KT 9999 FEW100 QNH2970INS
      BECMG 1111/1112 23012KT 9999 FEW100 SCT150 QNH2985INS
      BECMG 1115/1116 29015G25KT 9999 FEW100 520009 QNH2968INS
      BECMG 1201/1202 27012KT 9999 SCT150 QNH2965INS TX13/1123Z
      TNM02/1113Z AMD 110225=

0000029000
960
FTUS73 KWBC 110230 AAA
TAF AMD
KRST 110229Z 1102/1124 VRB04KT 2SM -SN BR OVC011
      TEMPO 1102/1104 SCT011 OVC025
     FM110500 25007KT 2SM BR OVC002
     FM110900 30011KT 4SM BR OVC006
     FM111500 30014KT P6SM BKN012
     FM111900 30016G22KT P6SM SCT030=

0000024600
961
FTUS74 KWBC 110230 AAA
TAF AMD
KPIH 110227Z 1102/1124 22016G26KT P6SM SCT030 OVC090
     FM110500 21015G23KT P6SM SCT010 BKN050
     FM111400 19020G30KT P6SM VCSH BKN050
     FM111700 19028G38KT P6SM VCSH SCT050 BKN100=

0000011700
962
SALI20 GLRB 110230
METAR GLRB 110230Z 00000KT 9000 BKN013  FEW023 CB 25/23
Q1010 RMK CB-S, BRVC=

0000010300
963
SARM31 LUKK 110230
METAR LUKK 110230Z 27012KT CAVOK 04/M02 Q1016 R26/CLRD65
NOSIG=

0000025300
964
SANZ31 NZKL 110230
METAR NZAA 110230Z AUTO 24011KT 210V270 9999 BKN045/// 21/14 Q1018
          NOSIG=
METAR NZWN 110230Z AUTO 33013KT 9999 NCD 21/11 Q1015 NOSIG=
METAR NZCH 110230Z AUTO 06012KT 9999 OVC020/// 17/11 Q1015 NOSIG=

0000035000
965
FTCN31 CWAO 110200 AAA
TAF AMD CYZP 110237Z 1102/1113 11025G35KT 6SM -RA BR OVC025 TEMPO
     1102/1105 2SM -RA BR BKN009
     BECMG 1102/1104 11035G45KT
    FM110500 11030G40KT 6SM -RA BR OVC025 TEMPO 1105/1113 2SM -RA BR
     BKN009
     BECMG 1105/1107 27012G22KT
    RMK FCST BASED ON AUTO OBS. NXT FCST BY 110700Z=

00000000