0000362600
686
SNVD01 KWBC 111000 RRL
BBXX
42085 11101 99179 70665 46/// /0606 10248 40164 91010 333 91208
 555 11069 22075=
41052 11101 99183 70648 46/// /0809 10253 40166 91010 333 91212
 555 11102 22110=
42085 11101 99179 70665 46/// /0505 10247 40167 91030 333 91207
 555 11058 22063=
42085 11101 99179 70665 46/// /0506 10248 40166 91020 333 91207
 555 11063 22068=
41052 11101 99183 70648 46/// /0808 10255 40168 91020 333 91211
 555 11092 22099=
44037 11101 99435 70679 46/00 /1604 10052 40232 91004 22200 00048
 10602 70011 333 91205 555 11047 22051=
41052 11101 99183 70648 46/// /0810 10248 40170 91030 333 91212
 555 11114 22124=
44034 11101 99441 70681 46/22 /2005 10055 40224 91004 22200 00070
 10602 70010 333 91205 555 11051 22056=
44033 11101 99441 70690 46/16 /0902 10013 40208 91004 22200 00021
 10601 70007 333 91203 555 11027 22029=
41053 11101 99185 70661 46/// /1403 10246 40171 91020 333 91205
 555 11037 22040=
44030 11101 99432 70704 46/30 /1203 10049 40193 91004 22200 00054
 10501 70007 333 91204 555 11035 22038=
44032 11101 99437 70694 46/30 /0903 10044 40210 91004 22200 00046
 10502 70009 333 91203 555 11028 22030=
41053 11101 99185 70661 46/// /1304 10246 40169 91010 333 91205
 555 11044 22047=
44029 11101 99425 70706 46/22 /1305 10053 40191 91004 22200 00048
 10501 70004 333 91206 555 11057 22062=
41053 11101 99185 70661 46/// /1503 10242 40172 91030 333 91204
 555 11028 22030=
41056 11101 99183 70655 46/// /0606 10253 40167 91010 333 91207
 555 11061 22067=
41056 11101 99183 70655 46/// /0506 10253 40169 91030 333 91207
 555 11064 22069=
41056 11101 99183 70655 46/// /0606 10253 40168 91020 333 91207
 555 11066 22072=
41051 11101 99183 70650 46/// ///// 1//// 91000 22200 10502 70011=
41051 11101 99183 70650 46/// /0807 10246 91030 333 91208 555
 11076 22082=
41051 11101 99183 70650 46/// /0807 10246 91020 333 91210 555
 11080 22087=
42360 11101 99267 70905 46/// /1906 10223 40142 55005 91000 22200
 00225 10602 70008 333 91208 555 11060 22065=
41051 11101 99183 70650 46/// /0808 10249 91010 333 91210 555
 11087 22095=
44141 11101 99430 70580 46/// /3007 10040 40301 57004 22200 00128
 10803 70017 333 91209=
44137 11101 99423 70620 46/// /1702 10051 40297 57008 22200 00076
 10502 70009 333 91203=
44058 11101 99376 70763 46/// /1807 10093 40146 91030 333 91208
 555 11080 22087=
44097 11101 99410 70711 46/// ///// 1//// 91025 22200 00068 10502
 20502 70010=
44098 11101 99428 70702 46/// ///// 1//// 91021 22200 00058 10501
 20501 70007=
46214 11101 99379 71235 46/// ///// 1//// 91026 22200 00112 11507
 21003 331// 41506 70035=
46221 11101 99339 71186 46/// ///// 1//// 91025 22200 00154 11402
 21001 327// 41401 70010=
44042 11101 99380 70763 46/// /1605 10082 40138 91030 333 91206
 555 11058 22063=
44041 11101 99372 70768 46/// /1304 10140 91030 333 91205 555
 11044 22048=
44063 11101 99390 70764 46/// /3001 10026 40130 91030 333 91202
 555 11007 22008=
41037 11101 99340 70774 46/// /1910 10199 40158 57026 91000 333
 91212 555 11123 22134=
44064 11101 99370 70760 46/// /1305 10112 40148 91030 333 91205
 555 11053 22058=
42099 11101 99273 70843 46/// ///// 1//// 91022 22200 00220 10301
 20301 70007=
41114 11101 99276 70802 46/// ///// 1//// 91025 22200 00235 10803
 20803 305// 41101 70014=
41112 11101 99307 70813 46/// ///// 1//// 91022 22200 00113 10803
 20803 70013=
42364 11101 99291 70881 46/// /1712 10217 20206 40132 56010 91030=
42390 11101 99261 70949 46/// ///// 10278 20222 40139 53007 91030=
0000057400
687
SNVD01 KWBC 111000 RRM
BBXX
41036 11101 99342 70769 46/// /2009 10221 20199 40164 91020 22200
 00210 333 91210 555 11094 22103 30959 41912 61019 196088 195094
 192096 193099 192092 195095=
42361 11101 99276 70925 46/// /2010 10222 20222 40132 53007 91030
 555 11080 22086=
41108 11101 99337 70780 46/// ///// 1//// 91029 22200 00122 10703
 20703 70013=
51205 11101 99210 71564 46/// ///// 1//// 91021 22200 00249 11004
 21004 304// 41102 70022=
46239 11101 99363 71221 46/// ///// 1//// 91029 22200 00133 11406
 21003 330// 41405 70031=
0000051300
688
SAFR31 LFPW 102230
METAR LFLL 102230Z 14007KT 2000 0900N R36L///// R18R/////
R36R///// R18L///// BCFG BR NSC 06/05 Q1017 NOSIG=
METAR LFPG 102230Z 13003KT 0600 R27L///// R09R///// R26R/////
R08L/1900N R26L///// R08R/1600D R27R/1600D R09L///// FG VV///
05/04 Q1017 NOSIG=
METAR LFPO 102230Z 12004KT 090V150 7000 OVC003 06/05 Q1017 NOSIG=
METAR LFRB 102230Z 19005KT 3000 BR FEW006 BKN100 07/07 Q1015 NOSIG=
METAR LFMN 102230Z NIL=
METAR LFQQ 102230Z NIL=
METAR LFRS 102230Z NIL=

0000073900
689
SAFR32 LFPW 102230
METAR LFBD 102230Z AUTO 24003KT 2700 0400 R23/1600D R05/0650D
R29///// BCFG NSC 07/06 Q1015=
METAR LFBH 102230Z AUTO VRB02KT 9999 NSC 09/07 Q1015=
METAR LFBI 102230Z AUTO 00000KT 9999 NSC 08/06 Q1014=
METAR LFBL 102230Z AUTO VRB01KT 9999 NSC 09/05 Q1014=
METAR LFBO 102230Z AUTO 14013KT 9999 FEW016 OVC190 10/07 Q1015=
METAR LFBP 102230Z AUTO 24003KT 190V270 8000 FEW011 OVC180 05/04
Q1016=
METAR LFBT 102230Z AUTO 20003KT 160V270 9999 NSC 08/04 Q1015=
METAR LFBZ 102230Z AUTO 28012KT 9999 BKN013 OVC019 12/10 Q1016=
METAR LFLB 102230Z AUTO 16001KT 3600 BR NSC 02/01 Q1018=
METAR LFLX 102230Z AUTO 08004KT 9999 NSC 07/06 Q1015=
METAR LFCK 102230Z NIL=
METAR LFML 102230Z NIL=

0000023200
690
FTUS41 KWBC 102236 AAA
TAF AMD
KMSS 102234Z 1023/1118 07005KT P6SM OVC018
     FM110300 08005KT 5SM BR OVC018
     FM110800 08008KT 5SM BR VCSH OVC022
     FM111200 07007KT 6SM -RA BR OVC025 WS020/20040KT=

0000081500
691
FTUS71 KWBC 102236 AAA
TAF AMD
KBFD 102235Z 1023/1118 14007KT 1/4SM FG VV002
     FM110400 16009KT 4SM -RA BR BKN006 OVC009 WS019/21048KT
     FM111100 17014G27KT 2SM RA BR OVC009 WS012/19049KT=
KLCK 102234Z 1023/1118 17009KT P6SM BKN010
     FM110300 17010KT 5SM BR VCSH OVC015
     FM110700 17012KT 4SM -RA BR OVC008
     FM111400 23014G23KT P6SM VCSH OVC012=
KMSS 102234Z 1023/1118 07005KT P6SM OVC018
     FM110300 08005KT 5SM BR OVC018
     FM110800 08008KT 5SM BR VCSH OVC022
     FM111200 07007KT 6SM -RA BR OVC025 WS020/20040KT=
KSLK 102232Z 1023/1118 23006KT P6SM OVC011
      TEMPO 1023/1103 6SM BR OVC009
     FM110300 18004KT 6SM BR SCT007 OVC015
     FM110800 18005KT 6SM BR VCSH BKN015 OVC025
     FM111200 18010G18KT 5SM -RA BR OVC015 WS020/20045KT=

0000020300
692
FTUS75 KWBC 102236
TAF
TAF AMD PASC 102232Z 1023/1118 25013KT 4SM BR SCT025 BKN040
      TEMPO 1023/1102 3SM -SN BR BKN025
     FM110200 25018KT 3SM BR BLSN FEW015 BKN025 OVC035=

0000013500
693
FTUS75 KWBC 102236 AAA
TAF AMD
PAGA 102233Z 1023/1118 VRB03KT 6SM BR FEW001
      TEMPO 1023/1101 2SM BR SCT001=

0000009900
694
SAHW31 KWBC 102200 RRA
METAR
PHOG 102227Z COR 02010KT 10SM SCT035 27/19 A2995=

0000014000
695
SAIO31 KWBC 102200 RRE
METAR
VYMD 102230Z 00000KT 4000 BR NSC 10/10 Q1015=
VYYY 102230Z 34003KT 6000 NSC 20/19 Q1014=

0000009800
696
SANL33 EHDB 102225 RRA
METAR EHJR 102225Z AUTO 21030G33KT  09/07 Q1011 W10/H21=

0000010200
697
SANL33 EHDB 102225 RRB
METAR EHSC 102225Z AUTO 22026G30KT 9999 07/06 Q1014 W08/H16=

0000039700
698
SAAL31 DAAA 102230
METAR DAAG 102230Z 09001KT 9999 FEW030 SCT080 12/07 Q1017=
METAR DAAT 102230Z NIL=
METAR DABB 102230Z 00000KT 8000 NSC 09/08 Q1017=
METAR DABC 102230Z 00000KT CAVOK 07/02 Q1020=
METAR DAON 102230Z 12004KT 9999 FEW030 BKN100 15/05 Q1015=
METAR DAOO 102230Z 34002KT 9999 FEW023 SCT100 13/07 Q1015=
METAR DAUH 102230Z 06007KT 9999 SCT040 14/08 Q1021=

0000010200
699
SANL33 EHDB 102225 RRC
METAR EHSA 102225Z AUTO 21028G31KT 9999 08/06 Q1014 W09/H19=

0000009900
700
SAQB31 LQBK 102230 RRA
METAR LQBK 102230Z 08003KT 0800 FG NSC 05/05 Q1021 NOSIG=

0000019100
701
SAIE32 EIDB 102230
METAR EICM 102230Z NIL=
METAR EIDL 102230Z NIL=
METAR EIKY 102230Z NIL=
METAR EIME 102230Z NIL=
METAR EISG 102230Z NIL=
METAR EIWF 102230Z NIL=

0000010700
702
FTAG59 SAME 102300
TAF SAME 102300Z 1100/1124 14005KT 9999 FEW040 TN18/1110Z TX32/1120Z=

0000015500
703
SAFR32 LFPW 102230 RRA
METAR LFCK 102230Z AUTO 13020KT 9999 NSC 11/07 Q1016=
METAR LFML 102230Z 13004KT 9999 BKN025 12/08 Q1019 NOSIG=

0000009900
704
SPCN46 CWAO 102240
SPECI CYBN 102240Z AUTO 14008KT 1 1/2SM OVC002 M00/M00 A3003=

0000018700
705
FTCN35 CWAO 102200 AAA
TAF AMD CYKF 102240Z 1022/1105 15008KT 1/4SM FG VV002 TEMPO 1022/1105
     3SM BR OVC005
    RMK FCST BASED ON AUTO OBS. NXT FCST BY 110200Z=

00000000