0000014000
802
SAFC21 OEJD 112000 RRA
METAR
OERK 112000Z 31005KT CAVOK 10/06 Q1024 NOSIG=
OEWJ 112000Z 36004KT CAVOK 17/10 Q1022 NOSIG=
0000014400
803
SASD20 OEJD 112000 RRA
METAR OERK 112000Z 31005KT CAVOK 10/06 Q1024 NOSIG=
METAR OEWJ 112000Z 36004KT CAVOK 17/10 Q1022 NOSIG=
0000012200
804
SNVX21 EDZW 112000
BBXX
DBBH 11201 99173 30115 41/97 /1711 10191 20173 40148 52015
7//// 22241 04192 =
0000024900
805
SNHK22 VHHH 112015
AAXX 11201
45032 36/// /0000 10113 20108 30214 40231 54000=
45035 36/// /1102 10135 20118 30192 40236 54000=
45039 36/// /0701 10119 20117 30219 40235 57001=
45044 36/// /0304 10149 20127 30134 40230 54000=
0000216600
806
SZNZ01 NZKL 112024
CREX++
T000103 A001 D01021 D06025++
-3683144 17478654 AUCT  2014 01 11 20 16 //// 11 07 00 01
04682 3233 04675 3232 04668 3232 04661 3233 04656 3234 04651 3235+
-4402404 -17636748 CHIT  2014 01 11 20 16 //// 11 07 00 01
04268 1902 04277 1910 04285 1917 04302 1933 04300 1930 04294 1923+
-4089929 17623168 CPIT  2014 01 11 20 16 //// 11 07 00 01
03297 2330 03296 2328 03298 2331 03289 2322 03290 2324 03289 2323+
-3618905 17548887 GBIT  2014 01 11 20 16 //// 11 07 00 01
05405 0007 05404 0010 05405 0015 05397 0011 05385 0003 05370 -0008+
-3867541 17802288 GIST  2014 01 11 20 16 //// 11 07 00 01
03474 2771 03473 2771 03461 2761 03461 2762 03457 2760 03457 2761+
-4241288 17370277 KAIT  2014 01 11 20 16 //// 11 07 00 01
02718 2244 02724 2249 02731 2255 02731 2255 02722 2245 02725 2246+
-3755040 17815904 LOTT  2014 01 11 20 16 //// 11 07 00 01
03025 0201 03016 0196 03017 0199 03013 0198 03025 0213 03002 0192+
-3704657 17451175 MNKT  2014 01 11 20 16 //// 11 07 00 01
03461 -0061 03431 -0088 03439 -0076 03449 -0063 03423 -0084 03437 -0066+
-3947566 17692007 NAPT  2014 01 11 20 16 //// 11 07 00 01
02415 2078 02397 2061 02399 2064 02412 2078 02410 2076 02424 2091+
-3441483 17304870 NCPT  2014 01 11 20 16 //// 11 07 00 01
-04281 -8525 -04568 -8807 -04601 -8835 -04622 -8851 -04632 -8856 -04630 -8849+
-4581435 17062939 OTAT  2014 01 11 20 16 //// 11 07 00 01
04034 3477 04052 3491 04064 3499 04068 3499 04063 3489 04050 3472+
-2928002 -17789440 RBCT  2014 01 11 20 16 //// 11 07 00 01
05743 2033 05737 2030 05740 2036 05737 2034 05733 2033 05737 2039+
-2925114 -17790384 RFRT  2014 01 11 20 16 //// 11 07 00 01
02630 0143 02638 0154 02629 0147 02637 0157 02663 0185 02617 0141+
-4357010 17277383 SUMT  2014 01 11 20 16 //// 11 07 00 01
01247 1865 01251 1867 01261 1876 01269 1881 01271 1882 01284 1892+
-3764109 17618118 TAUT  2014 01 11 20 16 //// 11 07 00 01
04715 4003 04708 4001 04702 3999 04694 3995 04689 3993 04685 3993+
-4128448 17477985 WLGT  2014 01 11 20 16 //// 11 07 00 01
02595 1996 02600 2000 02602 2001 02606 2004 02601 1999 02596 1992++
7777
0000008200
807
SNAL51 DAMM 112000 RRB
AAXX 11201
60381 46/// /1201 10156 20105=
0000010600
808
UANT99 KDDL 112022
ARP AAL91 58N030W 2022 F340 MS62 185/73 KT
N366AA DDL XXN 112022 F12A
0000011000
809
UANT99 KDDL 112022
ARP BAW187 5353N03210W 2022 F400 MS53 354/24 KT
GZBJB QXT AOE 112022 L28A
0000024100
810
SOAT10 KWAL 112023
FA8005BC 011202337 OT12 ID:KN-BASS-01 DT:2014 01 11 20 21
:RD -3208 -3218 -3161 -3195 -3199 -3187 -3177 -3223 -3203 -3199
:PR 0475 0460 0438 0492 0477 0476 0482 0536 0435 0407
:B 13.7V
 46+1NN 219E
0000152000
811
SASA85 EGRR 112000 RRH
METAR SAOC 112000Z 09013KT CAVOK 27/09 Q1020=
METAR SBAN 112000Z 32007KT 6000 -TSRA BKN003 SCT020 FEW025CB 18/17
      Q1019=
METAR SBBH 112000Z 07009KT 9999 FEW045 30/14 Q1017=
METAR SBBI 112000Z 36005KT 9999 SCT020 SCT100 25/20 Q1017=
METAR SBBW 112000Z 00000KT 9999 TS SCT020 FEW025CB SCT090 30/22 Q1012=
METAR SBCO 112000Z 31003KT 9999 -RA SCT012 BKN040 FEW045TCU OVC100
      25 /// Q1014=
METAR SBDN 112000Z 03012KT 9999 FEW040 32/17 Q1012=
METAR SBGW 112000Z 04004KT 9999 FEW025 FEW030TCU 33/17 Q1013=
METAR SBIZ 112000Z 16003KT 9999 FEW020 FEW025TCU 30/23 Q1008=
METAR SBJF 112000Z 03007KT 9999 FEW020 30/19 Q1018=
METAR SBME 112000Z 10010KT CAVOK 30/22 Q1013=
METAR SBMK 112000Z 11009KT 9999 FEW045 29/16 Q1016=
METAR SBMQ 112000Z 06008KT 9000 -RA BKN017 SCT027TCU BKN090 30/24 Q1009=
METAR SBPC 112000Z 28003KT 9999 FEW020TCU 27/21 Q1019 RETS=
METAR SBRB 112000Z 32004KT 9999 VCSH SCT020 FEW025TCU BKN100 /////
      Q1009=
METAR SBRP 112000Z 06006KT 9999 -RA SCT040 FEW045TCU BKN080 28/20 Q1013
      RETS=
METAR SBSC 112000Z 01008KT 9999 FEW025 37/21 Q1010=
METAR SBTK 112000Z 35006KT 9999 SCT030 30/24 Q1009=
METAR SBTU 112000Z 23003KT 9999 FEW020 SCT070 27/24 Q1010=
METAR SBUL 112000Z 04009KT 9999 SCT045 FEW050TCU 29/14 Q1016=
METAR SBUR 112000Z 24007KT CAVOK 29/17 Q1015=
METAR SBVH 112000Z 10005KT 9999 SCT018 BKN090 24/20 Q1012=
METAR SLYA 112000Z 18018KT 5000 -TSRA BKN023 FEW027CB OVC070 30/24
      Q1011=
0000018300
812
SPSA85 EGRR 112018
SPECI SBBE 112015Z VRB02KT 9999 SCT023 FEW027TCU BKN100 27/24 Q1009
      R ERA=
SPECI SBGW 112015Z 04002KT 9999 TS SCT025 FEW030CB 31/16 Q1013=
0000055700
813
SASA85 EGRR 112000 RRI
METAR SPJR 112000Z 05012KT 8000 TSRA BKN027 SCT033 17/13 Q1024 RMK
      PP010=
METAR SVAC 112000Z 05004KT 9999 SCT020 34/22 Q1012=
METAR SVBI 112000Z 05004KT 9999 SCT023 35/20 Q1012=
METAR SVBS 112000Z 29004KT 9999 SCT013 29/18 Q1014=
METAR SVCU 112000Z 05011KT 9999 SCT013 30/15 Q1011=
METAR SVFM 112000Z /////KT 9999 BKN040 ///// Q1015=
METAR SVGU 112000Z 31003KT 9999 SCT020 33/20 Q1012=
METAR SVJC 112000Z AUTO 09015KT 9999 FEW016 31/20 Q1012=
METAR SVMT 112000Z 05010KT 9999 SCT013 31/14 Q1010=
0000034500
814
SZIO01 AMMC 112024
CREX++
T000103 A001 D01021 D06025++
-1211670 09689190 46280 2014 01 11 20 17 3017 11 07 00 01
00838 0006 00835 0003 00838 0006 00844 0013 00836 0005 00837 0006+
-1042940 10566940 46290 2014 01 11 20 17 //// 11 07 00 01
00851 0000 00798 -0055 00827 -0027 00842 -0013 00793 -0064 00864 0006++
7777

0000193500
815
SZAU01 AMMC 112024
CREX++
T000103 A001 D01021 D06025++
-1927750 14705860 59260 2014 01 11 20 17 3020 11 07 00 01
02910 0153 02915 0153 02918 0150 02922 0149 02928 0150 02932 0148+
-2316110 15079000 59670 2014 01 11 20 17 2997 11 07 00 01
04231 0160 04236 0161 04248 0169 04252 0169 04257 0171 04254 0164+
-3447330 15091170 60420 2014 01 11 20 17 2948 11 07 00 01
01462 -0034 01450 -0045 01437 -0057 01429 -0063 01432 -0059 01425 -0064+
-4105000 14591500 60910 2014 01 11 20 17 2887 11 07 00 01
02706 -0091 02708 -0096 02709 -0102 02717 -0100 02725 -0099 02735 -0095+
-4254640 14793080 61170 2014 01 11 20 17 2903 11 07 00 01
01513 0032 01513 0033 01511 0033 01510 0033 01509 0034 01508 0034+
-3834390 14161360 61410 2014 01 11 20 17 2908 11 07 00 01
00509 -0027 00516 -0018 00514 -0020 00539 0007 00504 -0028 00554 0023+
-3214890 13364170 62000 2014 01 11 20 17 2953 11 07 00 01
00473 -0020 00471 -0021 00469 -0022 00468 -0022 00466 -0023 00464 -0024+
-3387080 12189720 62080 2014 01 11 20 17 2947 11 07 00 01
00478 -0003 00475 -0005 00472 -0006 00471 -0007 00465 -0012 00458 -0018+
-3182560 11573860 62237 2014 01 11 20 17 2970 11 07 00 01
00481 0085 00475 0079 00474 0079 00474 0079 00473 0078 00475 0081+
-2422000 11339750 62385 2014 01 11 20 17 //// 11 07 00 01
00743 -0087 00724 -0108 00685 -0148 00693 -0141 00755 -0080 00732 -0104+
-2181670 11419110 62430 2014 01 11 20 17 //// 11 07 00 01
01301 -0083 01295 -0091 01300 -0088 01302 -0087 01305 -0086 01301 -0092+
-1800080 12221830 62650 2014 01 11 20 17 3043 11 07 00 01
04941 0024 04951 0025 04962 0029 04971 0025 04981 0027 04991 0028+
-1247190 13084580 63230 2014 01 11 20 17 3048 11 07 00 01
04030 -0001 04020 -0003 04010 -0003 03997 -0005 03986 -0006 03976 -0008+
-1386000 13641580 63511 2014 01 11 20 17 3040 11 07 00 01
01364 0142 01365 0144 01361 0140 01362 0142 01359 0139 01355 0135++
7777

0000046700
816
SZPA01 AMMC 112024
CREX++
T000103 A001 D01021 D06025++
0136250 17293000 67590 2014 01 11 20 17 3015 11 07 00 01
01218 0019 01223 0024 01214 0015 01225 0026 01222 0023 01225 0026+
0710610 17137250 67680 2014 01 11 20 17 3013 11 07 00 01
00763 0100 00765 0102 00767 0103 00769 0104 00768 0103 00770 0103+
0698060 15820000 67950 2014 01 11 20 17 3020 11 07 00 01
00662 0077 00663 0077 00660 0073 00661 0073 00663 0074 00668 0079++
7777

0000179300
817
SZPS01 AMMC 112024
CREX++
T000103 A001 D01021 D06025++
-0204190 14737360 56130 2014 01 11 20 17 3025 11 07 00 01
00976 0112 00981 0117 00985 0121 00981 0116 00985 0120 00984 0119+
-0669280 15640860 56363 2014 01 11 20 17 //// 11 07 00 01
00607 -0036 00608 -0036 00609 -0036 00604 -0042 00607 -0040 00606 -0041+
-0942890 15995560 56670 2014 01 11 20 17 3035 11 07 00 01
00878 -0035 00875 -0039 00876 -0038 00881 -0035 00882 -0035 00881 -0037+
-1072080 16580190 57131 2014 01 11 20 17 //// 11 07 00 01
03379 2877 03378 2877 03379 2879 03379 2879 03378 2878 03378 2879+
-1551560 16718860 57210 2014 01 11 20 17 //// 11 07 00 01
00649 -0106 00665 -0088 00659 -0092 00648 -0102 00647 -0101 00649 -0098+
-1775690 16830030 57320 2014 01 11 20 17 3012 11 07 00 01
00823 -0062 00819 -0065 00817 -0065 00817 -0063 00817 -0062 00818 -0060+
-4397330 16861610 65180 2014 01 11 20 17 2878 11 07 00 01
02709 0575 02750 0615 02775 0640 02699 0564 02674 0538 02698 0562+
-2120470 -15978530 65980 2014 01 11 20 17 3008 11 07 00 01
00489 -0016 00480 -0024 00488 -0015 00487 -0015 00476 -0025 00477 -0023+
-2113810 -17518140 66600 2014 01 11 20 17 //// 11 07 00 01
00827 0083 00827 0085 00827 0087 00822 0084 00813 0077 00814 0081+
-1382670 -17176110 66840 2014 01 11 20 17 3010 11 07 00 01
00508 0057 00510 0060 00512 0063 00515 0067 00503 0055 00504 0057+
-1813250 17842750 67050 2014 01 11 20 17 3028 11 07 00 01
00938 0078 00933 0075 00935 0080 00931 0078 00930 0080 00924 0076+
-1760530 17743810 67070 2014 01 11 20 17 3028 11 07 00 01
00986 0048 00984 0048 00981 0048 00977 0047 00974 0047 ///// ////+
-0850250 17919500 67440 2014 01 11 20 17 3027 11 07 00 01
01591 0012 01591 0013 01589 0011 01588 0011 01592 0016 01587 0012++
7777

0000369200
818
SSVX02 KARS 112020
ZZYY 32650 11014 2012/ 517695 140670 6111/
22219 00276
444 20110 11014 1949/ 50101 80102 80023 9/015=
ZZYY 32536 11014 2011/ 517130 157061 6111/
22219 00281
444 20110 11014 1949/ 50101 80097 80018 9/015=
ZZYY 32638 11014 2017/ 522986 163931 6112/
22219 00277
444 20120 11014 2013/ 50101 80092 80009 9/015=
ZZYY 54905 11014 2017/ 321831 176397 6113/
22219 00261
444 20130 11014 2014/ 50101 80099 80007 9/015=
ZZYY 54860 11014 2017/ 326182 179296 6111/
22219 00262
444 20110 11014 2013/ 50101 80102 80009 9/015=
ZZYY 32618 11014 2012/ 711450 177220 6111/
22219 00272
444 20110 11014 1947/ 50101 80094 80008 9/015=
ZZYY 32628 11014 2017/ 312468 174104 6112/
22219 00302
444 20120 11014 2012/ 50101 80058 80008 9/015=
ZZYY 51660 11014 2012/ 710144 159413 6113/
22219 00263
444 20130 11014 1946/ 50101 80116 80019 9/015=
ZZYY 32725 11014 2015/ 515548 165363 6111/
22219 00279
444 20110 11014 1949/ 50101 80097 80007 9/015=
ZZYY 51661 11014 2014/ 705859 170034 6112/
22219 00280
444 20120 11014 1947/ 50101 80118 80022 9/015=
ZZYY 54553 11014 2014/ 517889 139631 6111/
22219 00278
444 20110 11014 1428/ 50101 80110 80041 9/015=
ZZYY 51637 11014 2017/ 513224 178674 6113/
22219 00298
444 20130 11014 2012/ 50101 80133 80018 9/015=
ZZYY 51664 11014 2000/ 510135 156785 6112/
22219 00291
444 20120 11014 2012/ 50101 80121 80006 9/015=
ZZYY 32521 11014 2014/ 512448 138610 6111/
22219 00279
444 20110 11014 2011/ 50101 80102 80018 9/015=
ZZYY 32921 11014 2011/ 510396 160988 6113/
22219 00286
444 50101 80102 80003 9/015=
ZZYY 55908 11014 2016/ 334406 165758 6112/
22219 00201
444 20120 11014 1856/ 50101 80098 80005 9/015=
ZZYY 32686 11014 2017/ 510038 176485 6112/
22219 00292
444 20120 11014 2013/ 50101 80097 80006 9/015=
ZZYY 51657 11014 2011/ 708869 154336 6111/
22219 00274
444 20110 11014 1944/ 50101 80104 80013 9/015=
ZZYY 32667 11014 2012/ 508898 138605 6112/
22219 00277
444 20120 11014 1948/ 50101 80102 80001 9/015=
ZZYY 32676 11014 2014/ 507962 146554 6113/
22219 00281
444 20130 11014 1947/ 50101 80104 80028 9/015=
ZZYY 54921 11014 2000/ 529368 143334 6113/
11119 40234 52002
22219 00231
444 20130 11014 1910/ 50101 80108 80063 9/015=
ZZYY 51652 11014 2010/ 717351 151651 6111/
22219 00248
444 20110 11014 1944/ 50101 80104 80049 9/015=
ZZYY 51665 11014 2017/ 510141 156790 6112/
22219 00291
444 20120 11014 2012/ 50101 80104 80055 9/015=
ZZYY 51666 11014 2016/ 509854 160141 6112/
22219 00291
444 20120 11014 2012/ 50101 80104 80019 9/015=
ZZYY 51899 11014 2017/ 509648 176317 6113/
22219 00293
444 20130 11014 2012/ 50101 80103 80022 9/015=
ZZYY 51613 11014 2000/ 512628 164251 6112/
22219 00290
444 2012/ 11014 1949/ 50101 80090 80018 9/015=
ZZYY 51781 11014 2015/ 521045 178855 6113/
22219 00271
444 20130 11014 1858/ 50101 80112 80010 9/015=
ZZYY 51649 11014 2015/ 523277 167143 6112/
22219 00274
444 20120 11014 2011/ 50101 80075 80012 9/015=
ZZYY 51529 11014 2000/ 511647 164409 6111/
22219 00293
444 2011/ 11014 1948/ 50101 80091 80016 9/015=
ZZYY 54914 11014 1930/ 541777 157936 6112/
444 20120 11014 0837/ 50101 80108 80021 9/015=
ZZYY 51533 11014 2000/ 509093 174743 6111/
22219 00294
444 2011/ 11014 1950/ 50101 80091 80022 9/015=
ZZYY 54551 11014 2014/ 326276 169425 6111/
22219 00251
444 20110 11014 1858/ 50101 80084 80019 9/015=
ZZYY 32913 11014 2014/ 515230 164444 6112/
22219 00279
444 20120 11014 2012/ 50101 80098 80008 9/015=
ZZYY 51619 11014 2000/ 509050 168986 6112/
22219 00295
444 2012/ 11014 1950/ 50101 80090 80014 9/015=
0000017400
819
SAWD01 OEJD 112000 RRA
METAR OSDI 112000Z 26004KT CAVOK 05/02 Q1024=
METAR UUEE 112000Z 28008G13MPS 9999 -SN OVC012 M03/M04 Q0995 75720145
25720145 NOSIG=
0000013800
820
SAME31 OEJD 112000 RRA
METAR OSDI 112000Z 26004KT CAVOK 05/02 Q1024=
METAR OSLK 112000Z 12004KT 9999 SCT030 09/07 Q1024=
0000009000
821
SASD31 OEJD 112000 RRA
METAR OERK 112000Z 31005KT CAVOK 10/06 Q1024 NOSIG=
00000000