0000013900
782
SSVX02 CWAO 112000
ZZYY 64721 11014 2000/ 770383 004483 6113/ 22219 
00051 444 20130 11014 2000/ 50101 80138 80003 9/015=
0000013900
783
SSVX02 CWAO 112000
ZZYY 64735 11014 2000/ 765570 000810 6113/ 22219 
00054 444 20130 11014 2000/ 50101 80140 80008 9/015=
0000013900
784
SSVX02 CWAO 112000
ZZYY 64731 11014 2000/ 764339 012621 6113/ 22219 
00051 444 20130 11014 2000/ 50101 80138 80002 9////=
0000013900
785
SSVX02 CWAO 112000
ZZYY 64738 11014 2000/ 767311 012521 6112/ 22219 
00011 444 20130 11014 2000/ 50101 80148 80018 9/015=
0000016000
786
SSVX02 CWAO 112000
ZZYY 55584 11014 2000/ 341599 154888 6112/ 11119 
40112 52007 22219 00177 444 20130 11014 2000/ 50101 80148 80010 
9/015=
0000013900
787
SSVX02 CWAO 112000
ZZYY 64732 11014 2000/ 765065 003797 6113/ 22219 
00052 444 20130 11014 2000/ 50101 80142 80003 9/015=
0000013900
788
SSVX02 CWAO 112000
ZZYY 64710 11014 2000/ 174760 000165 6113/ 22219 
00004 444 20130 11014 2000/ 50101 80108 80000 9////=
0000013900
789
SSVX02 CWAO 112000
ZZYY 64739 11014 2000/ 765988 013032 6112/ 22219 
00041 444 20130 11014 2000/ 50101 80148 80018 9/015=
0000032800
790
SNVD22 KWNB 112000 RRN
BBXX
46215 11201 99352 71209 46/// ///// 1//// 92005 22200 00144 11505
21003 325// 41504 70023=
46219 11201 99332 71199 46/// ///// 1//// 92010 22200 00143 11405
21002 330// 41404 70025=
46211 11201 99469 71242 46/// ///// 1//// 92013 22200 00087 11011
21009 324// 41106 70055=
0000066700
791
SAER10 OMAM 112000
METAR OMAD 112000Z 35006KT 9999 -RA FEW045 18/15 Q1021 A3016
                       NOSI G=
METAR OMAH 112000Z AUTO 09006KT /////NDV //// ///// 16/14 Q1021 A3017=
METAR OMAM 112000Z 03005KT 9999 SCT090 17/15 Q1020 A3013=
METAR OMDL 112000Z AUTO 10005KT /////NDV //// ///// 19/14 Q1019 A3011=
METAR OMDM 112000Z AUTO VRB02KT /////NDV //// ///// 17/16 Q1021=
METAR OMLW 112000Z 02004KT 9999NDV -RA SCT045 BKN100 16/15 Q1020=
METAR OMMZ 112000Z AUTO 01006KT /////NDV //// ///// 16/14 Q1021 A3017=
METAR OMSN 112000Z NIL=
METAR OMSW 112000Z NIL=
METAR OMTH 112000Z AUTO VRB02KT /////NDV //// ///// 16/15 Q1022 A3019=
0000016700
792
UAAK04 KAWN 112000
PAEN UA /OV ENA/TM 2003/FL038/TP B190/SK OVC017/WX FV10SM/IC MOD
 RIME=
BRW UA /OV BRW/TM 2010/FLUNKN/TP B738/RM RWY 25 BA GOOD=
0000011000
793
UANT01 CWAO 112021
ARP DLH414 4805N04329W 2021 F380 MS59 309/64 KT
DAIHO QXT AME 112021 J02A
0000010800
794
UANT01 CWAO 112022
ARP ANZ1 6305N05518W 2022 F340 MS59 272/17 KT
ZKOKQ QXT AME 112022 F51A
0000100500
795
SNGL61 EKMI 112000
AAXX 11204
04211 47/17 /3208 11099 21111 39849 40012 52024 77177 =
04213 46/// /2603 11065 21117 39888 49999 52021 =
04220 47784 71907 11096 21115 39944 49997 52013 77777
  333 55300 20004 83/57 87/63 =
04221 45684 81017 11089 21199 39960 49998 52015
  333 81/36 88/50 =
04224 47783 81908 11092 21128 39960 49994 52013 72288
  333 81/58 88/61 =
04231 45984 70708 11163 21238 39944 40021 52016
  333 81/59 87/64 =
04234 45/84 /0602 11118 21185 39986 49997 52017 =
04241 45582 10908 11109 21181 39963 40004 52020
  333 81/24 =
04250 45/84 00710 11095 21162 39877 49985 52021
  333 55300 20000 =
04260 45/84 /1001 11111 21205 39929 49978 52023 =
04270 45984 70617 11077 21217 39926 49966 52007
  333 83/61 85/63 87/65 =
04272 45884 83305 11069 21162 39883 49956 52014
  333 88/58 =
04320 45/84 03012 11157 21217 30047 40063 52009
  333 55300 20007 =
04339 NIL =
04360 NIL =
04390 45/84 00217 11064 21112 39875 49970 52014 =
0000023600
796
SSVX02 KARS 112017
ZZYY 44508 11014 2010/ 757527 007695 6113/
22219 00054
444 20130 11014 1938/ 50101 9/050=
ZZYY 61652 11014 2010/ 139194 002515 6112/
22219 00148
444 20120 11014 2002/ 50101 80104 80021 9/015=
0000383800
797
SSVX02 KARS 112018
ZZYY 13581 11014 2010/ 714791 076956 6111/
22219 00280
444 20110 11014 1827/ 50101 80090 80011 9/015=
ZZYY 43522 11014 1900/ 723772 094436 6113/
22219 00236
444 20130 11014 2010/ 50101 80113 80002 9/015=
ZZYY 41933 11014 2000/ 730632 075981 6113/
11119 40153 57033
22219 00235
444 2013/ 11014 1531/ 50101 80113 80001 9/015=
ZZYY 46538 11014 1900/ 732503 122053 6113/
22219 00141
444 2013/ 11014 1414/ 50101 80090 80021 9/015=
ZZYY 46606 11014 1900/ 733595 120145 6112/
22219 00141
444 2012/ 11014 1813/ 50101 80090 80022 9/015=
ZZYY 41913 11014 2013/ 727450 077703 6111/
22219 00247
444 20110 11014 2010/ 50101 80102 80008 9/015=
ZZYY 41612 11014 1930/ 732158 075036 6111/
11119 30155 40155 57040
22219 00225
444 20110 11014 2011/ 50101 80080 80010 9/015=
ZZYY 41911 11014 2014/ 728842 078265 6111/
22219 00237
444 20110 11014 2010/ 50101 80102 80009 9/015=
ZZYY 41854 11014 2013/ 732966 073848 6113/
444 20130 11014 1837/ 50101 80102 80007 9/015=
ZZYY 32670 11014 2010/ 706023 108128 6111/
22219 00276
444 20110 11014 1820/ 50101 80100 80002 9/015=
ZZYY 46620 11014 2000/ 734269 121736 6111/
22219 00138
444 2011/ 11014 1812/ 50101 80091 80029 9/015=
ZZYY 46581 11014 2000/ 731975 117852 6113/
22219 00158
444 2013/ 11014 1812/ 50101 80091 80021 9/015=
ZZYY 46581 11014 1900/ 731975 117852 6113/
22219 00156
444 2013/ 11014 1812/ 50101 80091 80022 9/015=
ZZYY 46580 11014 2000/ 734399 120524 6112/
22219 00145
444 2012/ 11014 1812/ 50101 80091 80021 9/015=
ZZYY 46580 11014 1900/ 734399 120524 6112/
22219 00146
444 2012/ 11014 1812/ 50101 80091 80019 9/015=
ZZYY 46624 11014 2000/ 731928 117611 6112/
22219 00160
444 2012/ 11014 2011/ 50101 80092 80014 9/015=
ZZYY 46624 11014 1900/ 731921 117612 6112/
22219 00159
444 2012/ 11014 1815/ 50101 80092 80016 9/015=
ZZYY 46561 11014 2000/ 730358 118809 6113/
22219 00164
444 2013/ 11014 2011/ 50101 80091 80022 9/015=
ZZYY 46561 11014 1900/ 730350 118822 6113/
22219 00164
444 2013/ 11014 1813/ 50101 80091 80024 9/015=
ZZYY 46608 11014 2000/ 732770 120156 6113/
22219 00143
444 2013/ 11014 1813/ 50101 80091 80018 9/015=
ZZYY 32555 11014 2012/ 712447 110935 6111/
22219 00274
444 20110 11014 1817/ 50101 80102 80037 9/015=
ZZYY 32626 11014 2010/ 705381 108330 6111/
22219 00275
444 20110 11014 1809/ 50101 80104 80026 9/015=
ZZYY 46761 11014 2000/ 748805 126909 6112/
11119 39854 49854 52005
22219 00084
444 20120 11014 1946/ 50101 80108 80001 9/015=
ZZYY 32614 11014 2012/ 712457 110238 6111/
22219 00276
444 20110 11014 1634/ 50101 80104 80037 9/015=
ZZYY 43521 11014 1900/ 726883 092059 6112/
22219 00210
444 20120 11014 1829/ 50101 80111 80004 9/015=
ZZYY 43521 11014 2000/ 726857 092072 6112/
22219 00210
444 20120 11014 2011/ 50101 80111 80004 9/015=
ZZYY 42560 11014 1400/ 709715 080366 6113/
22219 00279=
ZZYY 46517 11014 2000/ 748419 137671 6111/
11119 30105 40105 52052
22219 00097
444 20110 11014 1855/ 50101 80138 80013 9/015=
ZZYY 51513 11014 1900/ 712946 112970 6113/
22219 00272
444 2013/ 11014 1759/ 50101 80089 80018 9/015=
ZZYY 51513 11014 1800/ 712946 112970 6113/
22219 00272
444 50101 80089 80016 9/015=
ZZYY 46559 11014 2000/ 731013 119833 6113/
22219 00148
444 2013/ 11014 2011/ 50101 80092 80027 9/015=
ZZYY 41976 11014 2015/ 737294 073763 6111/
22219 00163
444 20110 11014 2012/ 50101 80104 80037 9/015=
ZZYY 41978 11014 2013/ 737025 072878 6111/
22219 00162
444 50101 80104 80055 9/015=
ZZYY 46767 11014 2020/ 754413 145406 6111/
11119 39924 49924 57020
22219 00062
444 20110 11014 1945/ 50101 80110 80019 9/015=
ZZYY 46621 11014 2000/ 728771 127163 6111/
22219 00183
444 20110 11014 2012/ 50101 80110 80006 9/015=
0000011000
798
UANT01 CWAO 112022
ARP AZA61R 4905N04337W 2022 F390 MS59 306/61 KT
EIEJJ QXT AOW 112022 J49A
0000011100
799
UANT01 CWAO 112022
ARP UAL925 5123N04559W 2022 F370 MS59 301/80 KT
N228UA DDL XXN 112022 F12A
0000009900
800
SAIN34 VOMM 112010 RRA
METAR VOHS 112010Z 12004KT 5000 HZ SCT020 17/14 Q1017 NOSIG=
0000012200
801
SASY31 OSDI 112000
OSDI 112000Z 26004KT CAVOK 05/02 Q1024=
OSLK 112000Z 12004KT 9999 SCT030 09/07 Q1024=
00000000