0000015500
482
WSNO35 ENMI 112002
ENBD SIGMET D05 VALID 112000/112400 ENVN-
ENOR NORWAY FIR OCNL SEV TURB FCST BTN N6500 AND N6700 SFC/FL100
STNR WKN=
0000072300
483
WWCN02 CYTR 111959
WEATHER BULLETIN FOR CFB SUFFIELD DRDC/BATUS AAC AND RANGE SUFFIELD
PREPARED BY THE JOINT METEOROLOGICAL CENTRE AT 12:59 PM MST SATURDAY
11 JANUARY 2014.
LOCATION: CFB SUFFIELD DRDC / BATUS ACC AND RANGE (CYSD)
TYPE: WIND WARNING IN EFFECT
DESCRIPTION: SURFACE WIND GUSTS EQUAL TO OR GREATER THAN 30 KNOTS
VALID: UNTIL 12/1200Z (UNTIL 12/0500 MST)
COMMENTS:  A LOW PRESSURE SYSTEM OVER THE ALBERTA ELBOW TRACKING
SOUTHEAST WILL TIGHTEN THE PRESSURE GRADIENT OVER SOUTHERN ALBERTA
GIVING WIND GUSTS EQUAL TO OR GREATER THAN 30 KNOTS UNTIL SUNDAY
MORNING AS THE PRESSURE GRADIENT SLACKENS.
NEXT UPDATE: THIS BULLETIN WILL BE UPDATED BY 12/0200Z (11/1900 MST)
END/JMC
0000044600
484
WONT54 EGRR 112003
SECURITE




STORM WARNING
AT 1112000UTC, LOW 49 NORTH 29 WEST 975 EXPECTED 56 NORTH
24 WEST 958 BY 121200UTC. WINDS WILL REACH STORM FORCE 10
OR VIOLENT STORM FORCE 11 THROUGHOUT BETWEEN 50 AND 300
MILES OF THE CENTRE IN THE SOUTHERN SEMICIRCLE. WINDS
WILL REACH STORM FORCE 10 OR VIOLENT STORM FORCE 11 AFTER
112200UTC BETWEEN 200 AND 450 MILES OF THE CENTRE IN THE
NORTHERN SEMICIRCLE
0000023300
485
WSSG31 GOOY 112000
GOOO SIGMET A6 VALID 112000/112400 GOOY-
GOOO DAKAR OCEANIC FIR/UIR EMBD TS OBS AT 1950Z
WI N0711 W03227 - N0446 W02448 - N0439 W01235 - N0233 W01021 -
   N0150 W02620 TOP FL450 MOV W 08KT NC=
0000022300
486
WALJ31 LJLJ 112002
LJLA AIRMET 8 VALID 112000/112200 LJLJ-
LJLA LJUBLJANA FIR MOD TURB FCST WI N4525 E01525 - N4545 E01445 -
N4630 E01440 - N4640 E01530 - N4620 E01610 - N4525 E01525
SFC/FL060 STNR NC=
0000019200
487
WSCN02 CWAO 112000
CZEG SIGMET I3 VALID 112000/120000 CWEG-
CZEG EDMONTON FIR SEV TURB OBS WTN 20 NM OF LINE N5250 W11724 - N5047
W11424 -
N4907 W11332 SFC/FL140 QS WKNG=
0000024100
488
WSCN22 CWAO 112000
CZEG SIGMET I3 VALID 112000/120000 CWEG-
CZEG EDMONTON FIR SEV TURB OBS WTN 20 NM OF LINE /N5250 W11724/25 E
CYJA -
/N5047 W11424/25 SW CYYC - /N4907 W11332/45 SW CYQL SFC/FL140 QS WKNG
RMK GFACN32=
0000019400
489
WSLI31 GLRB 112000
GLRB SIGMET A6 VALID 112000/112400 GLRB-
GLRB ROBERTS FIR/UIR FRQ TS OBS AT 1955Z
WI N0736 W00825 - N0527 W00743 - N0458 W01108
TOP FL350 MOV W 05KT WKN=
0000021500
490
SNFR37 LFPW 112000 RRA
AAXX 11204
07038 24908 /0000 10003 20002 30078 40252 53016 744//
  333 60005 90710 91101=
07169 24540 80000 10053 20049 30080 40251 51022 710//
  333 60005 90710 91102=
0000011100
491
UANT01 CWAO 112007
ARP AAL121 5302N03949W 2007 F320 MS56 290/60 KT
N191AN DDL XXN 112007 F40A
0000010000
492
SNNO22 ENMI 112000 RRA
AAXX 11201
01003 46/// /3006 10004 21056 30114 40128 53011=
0000167800
493
SNNO48 ENMI 112000
AAXX 11201
01002 46/// /2008 11035 21067 30066 40077 52009=
01006 46/// /0000 11115 21124 30084 40100 52008=
01009 46/// /2206 11019 2//// 30070 40077 54002=
01011 46/// /0000 11054 21060 30076 40087 51006=
01016 46/// /1804 11090 21098 30071 40087 52006=
01017 46/// /2605 10001 2//// 30122 40130 52015=
01020 46/// /2909 11003 21030 30116 40126 52008=
01024 46/// /3003 11016 21047 30096 40110 52012=
01035 46/// ///// 11144 2//// 333 4/166=
01043 46/// /0000 11044 2////=
01105 46/// /0709 11057 21104=
01124 26/// ///// 11112 21175 333 60005=
01133 26/// /1706 11110 21208 333 4/011 60005=
01146 26/// /0704 11107 21198 333 60005=
01148 26/// /1207 11105 21207 333 4/071 60005=
01158 26/// ///// 11086 21213 30155 40165 53010 333 60005=
01198 26/// ///// 11245 21272 39940 40221 53012 333 60005=
01214 46/// /0702 11033 21047=
01221 46/// ///// 11128 21178=
01224 NIL=
01239 26/// /3002 11207 21225 333 4/025 60005=
01242 46/// ///// 11091 21150=
01287 46/// ///// 11162 21190 333 4/031=
01315 26/// /0000 10000 21009 333 60005=
01326 46/// ///// 11011 21029=
01346 26/// /2609 11070 21082 333 60005=
01352 NIL=
01356 46/// ///// 11114 2//// 49955 51013=
01365 26/// /2301 11129 21144 333 60005=
01414 46/// /3009 10054 2////=
01417 26/// ///// 10006 20001 333 60015=
01418 46/// ///// 10016 2////=
01426 46/// /3107 10029 2////=
01444 26/// /0404 10021 21046 333 60005=
01449 26/// /0401 11005 21008 333 60005=
01453 26/// /1801 11015 21020 333 4/002 60005=
01478 46/// ///// 11013 2////=
01486 26/// ///// 11050 21072 333 60005=
01487 46/// /0504 11058 21069=
0000184700
494
SNNO49 ENMI 112000
AAXX 11201
01027 NIL=
01044 46/// /0000 11054 21073 30183 40192 52009=
01068 46/// /2702 11029 21055 30172 40190 53007=
01074 46/// /1504 11064 21090 30171 40186 52007=
01083 46/// /0205 11022 21043 30165 40181 52004=
01084 NIL=
01086 46/// /1101 11088 21136 39992 40186 52013=
01088 46/// /3502 11087 21093 30133 40183 53011=
01099 46/// /2503 11076 21086 30167 40184 52011=
01112 46/// /0606 11072 21168 30093 40103 53011=
01116 46/// /0406 11073 21198 30093 40115 53010=
01117 NIL=
01139 46/// /1011 11037 21119 30148 40153 53018=
01151 46/// /1402 11117 21208 30059 40151 52008=
01153 NIL=
01161 46/// /1011 11048 21136 30157 40168 53010=
01162 46/// /0803 11056 21143 30169 40174 52014=
01183 46/// /3602 11076 21158 30147 40181 53007=
01193 46/// /0605 11075 21168 30142 40180 53009=
01209 NIL=
01217 46/// /0603 11052 21064 30018 40022 52013=
01220 46/// /2403 11135 21148 333 4/116=
01223 46/// /1002 11061 21074 39945 40024 52014=
01250 46/// ///// 11241 21269=
01270 NIL=
01272 NIL=
01282 46/// /0909 11070 21148 30082 40088 53009=
01290 46/// /0807 11087 21144 30083 40086 52014=
01308 NIL=
01310 46/// /0704 11010 21038 30001 40015 52005=
01320 46/// /1503 11023 21055 39945 40020 52008=
01323 46/// /0000 11047 21058 39620 40014 52005=
01342 NIL=
01347 46/// /2708 11032 21077 39405 40010 51013=
01358 46/// ///// 11076 21087 39275 40016 53015=
01362 46/// /2614 11163 21182 40009 52007 333 4/051=
01368 46/// /0801 11125 21142 39030 40044 52016=
01371 NIL=
01381 NIL=
01382 NIL=
01387 NIL=
01408 46/// /2908 10049 20021 30005 40038 51013=
01413 NIL=
01463 26/// ///// 11045 21049 333 60005=
01464 NIL=
01466 46/// /0304 11060 21066 39894 40031 52019=
01485 NIL=
01489 26/// ///// 11078 2//// 333 60005=
0000011000
495
UANT01 CWAO 112007
ARP BAW297 6105N04555W 2007 F360 MS56 241/20 KT
GCIVY QXS UAK 112007 F23A
0000015700
496
SSVX13 LFPW 112000
ZZYY 14515 11014 2000/ 333172 050085 6113/ 11119 40118 52023 22219
 00204 444 20130 11014 1800/ 50101 80148 80013 9/015=
0000011900
497
SMOM10 OOMS 111800 RRF
AAXX 11184
41252 36/// /0004 10186 20085 39829 40199
333 0E019 10237 59002 =
0000142300
498
SAFC21 OEJD 112000
METAR
OEAB 112000Z 19007KT 9999 SCT015 11/10 Q1027 NOSIG=
OEAH 112000Z 32008KT 9999 SCT050 BKN100 14/11 Q1022 NOSIG=
OEAO 112000Z 03014KT CAVOK 13/02 Q1025=
OEBA 112000Z 06005KT CAVOK 12/09 Q1024 NOSIG=
OEBH 112000Z 00000KT CAVOK 14/07 Q1022 NOSIG=
OEDF 112000Z 30007KT CAVOK 12/08 Q1022 NOSIG=
OEDM NIL=
OEDR 112000Z 29009KT CAVOK 13/09 Q1020 NOSIG=
OEGN 112000Z 00000KT 9999 FEW030 25/21 Q1017 NOSIG=
OEGS 112000Z 34008KT CAVOK 10/07 Q1024=
OEGT 112000Z 24004KT SCT040 08/00 Q1024 NOSIG=
OEHL 112000Z 33012KT 9999 BKN040 07/00 Q1025 NOSIG=
OEJN 112000Z 34008KT CAVOK 20/07 Q1019 NOSIG=
OEKJ 112000Z 04004KT CAVOK 13/10 Q1023=
OEKK NIL=
OEKM 112000Z 20006KT CAVOK 11/11 Q1026 NOSIG=
OEMA 112000Z 02005KT CAVOK 15/M02 Q1024 NOSIG=
OEMK 112000Z 03002KT CAVOK 20/11 Q1018=
OENG 112000Z 01004KT 9999 SCT030 SCT090 16/07 Q1022 NOSIG=
OEPA 112000Z 27006KT CAVOK 08/05 Q1021 NOSIG=
OERF 112000Z 29015KT 8000 BKN040 BKN100 09/05 Q1021=
OERK NIL=
OERR 112000Z 29008KT 9999 SCT030 07/07 Q1024 NOSIG=
OERY NIL=
OESH 112000Z 02010KT 9999 SCT040 SCT090 22/07 Q1018 NOSIG=
OESK 112000Z 31003KT 9999 FEW030 06/01 Q1025 NOSIG=
OETB 112000Z 00000KT CAVOK 09/02 Q1025 NOSIG=
OETF 112000Z 09003KT 9999 FEW030 11/02 Q1024 NOSIG=
OETR 112000Z 22002KT 8000 SKC 03/03 Q1025 NOSIG=
OEWD NIL=
OEWJ NIL=
OEYN 112000Z 06004KT CAVOK 17/08 Q1019 NOSIG=
0000165500
499
SASD20 OEJD 112000
METAR OEAB 112000Z 19007KT 9999 SCT015 11/10 Q1027 NOSIG=
METAR OEAH 112000Z 32008KT 9999 SCT050 BKN100 14/11 Q1022 NOSIG=
METAR OEAO 112000Z 03014KT CAVOK 13/02 Q1025=
METAR OEBA 112000Z 06005KT CAVOK 12/09 Q1024 NOSIG=
METAR OEBH 112000Z 00000KT CAVOK 14/07 Q1022 NOSIG=
METAR OEDF 112000Z 30007KT CAVOK 12/08 Q1022 NOSIG=
METAR OEDM 112000Z NIL=
METAR OEDR 112000Z 29009KT CAVOK 13/09 Q1020 NOSIG=
METAR OEGN 112000Z 00000KT 9999 FEW030 25/21 Q1017 NOSIG=
METAR OEGS 112000Z 34008KT CAVOK 10/07 Q1024=
METAR OEGT 112000Z 24004KT SCT040 08/00 Q1024 NOSIG=
METAR OEHL 112000Z 33012KT 9999 BKN040 07/00 Q1025 NOSIG=
METAR OEJN 112000Z 34008KT CAVOK 20/07 Q1019 NOSIG=
METAR OEKJ 112000Z 04004KT CAVOK 13/10 Q1023=
METAR OEKK 112000Z NIL=
METAR OEKM 112000Z 20006KT CAVOK 11/11 Q1026 NOSIG=
METAR OEMA 112000Z 02005KT CAVOK 15/M02 Q1024 NOSIG=
METAR OEMK 112000Z 03002KT CAVOK 20/11 Q1018=
METAR OENG 112000Z 01004KT 9999 SCT030 SCT090 16/07 Q1022 NOSIG=
METAR OEPA 112000Z 27006KT CAVOK 08/05 Q1021 NOSIG=
METAR OERF 112000Z 29015KT 8000 BKN040 BKN100 09/05 Q1021=
METAR OERK 112000Z NIL=
METAR OERR 112000Z 29008KT 9999 SCT030 07/07 Q1024 NOSIG=
METAR OERY 112000Z NIL=
METAR OESH 112000Z 02010KT 9999 SCT040 SCT090 22/07 Q1018 NOSIG=
METAR OESK 112000Z 31003KT 9999 FEW030 06/01 Q1025 NOSIG=
METAR OETB 112000Z 00000KT CAVOK 09/02 Q1025 NOSIG=
METAR OETF 112000Z 09003KT 9999 FEW030 11/02 Q1024 NOSIG=
METAR OETR 112000Z 22002KT 8000 SKC 03/03 Q1025 NOSIG=
METAR OEWD 112000Z NIL=
METAR OEWJ 112000Z NIL=
METAR OEYN 112000Z 06004KT CAVOK 17/08 Q1019 NOSIG=
0000009200
500
SASD32 OEJD 112000
METAR OETF 112000Z 09003KT 9999 FEW030 11/02 Q1024 NOSIG=
0000011900
501
SMOM66 OOMS 111800 RRF
AAXX 11184
41252 36/// /0004 10186 20085 39829 40199
333 0E019 10237 59002 =
00000000