0000386600
582
SNUK43 EGRR 112000
AAXX 11204
03301 46974 /2004 10008 21003 30147 40223 52010
  333 8//99=
03305 45980 /2608 10008 21002 39958 40230 52009
  333 8//99=
03313 46977 /2107 10023 20004 30126 40223 53006
  333 8//99=
03316 45962 /2007 10046 20017 30209 40220 53009
  333 8//99=
03318 46/// /2304 10014 20003=
03321 45967 /1704 10002 21014 30214 40226 53008
  333 55300 20000 8//99=
03330 45977 /1704 10015 21001 39858 40230 53008
  333 82/73=
03344 45976 /2207 10017 20006 39892 40220 52012
  333 8//99=
03346 46/// /2510 10019 20009=
03351 45965 /2102 10010 20005 30180 40224 53007
  333 55300 20000 83/74=
03373 46973 /2309 10003 21008 30147 40219 52012
  333 8//99=
03379 46969 /2511 10007 21005 30146 40226 51012
  333 8//99=
03382 45980 /2804 10022 20002 30203 40212 51021
  333 55300 20000 8//99=
03385 46964 /2206 10014 21001 30207 40217 51018
  333 8//99=
03391 42970 22405 10005 21008 30215 40222 52017 80001
  333 82075=
03392 46965 /2204 10007 21002 30218 40222 51018
  333 8//99=
03405 469// /1610 10053 20018 30110 40228 52008
  333 553// 20000 8//99=
03409 46/// /2701 11007 21012 30024 40232 53009
  333 55300 2////=
03410 46974 /3202 11005 21011 39782 40233 53007
  333 553// 20000 8//99=
03469 45975 /2305 10010 21001 30224 40228 51021
  333 553// 20000 8//99=
03488 45984 /2309 10024 20009 30193 40220 51017
  333 8//99=
03503 45982 /1202 11017 21019 30146 40227 53004
  333 81/75=
03520 46969 /2702 11021 21026 30108 40235 53006
  333 553// 20000 8//99=
03522 47950 /2302 11012 21015 30139 40236 53004 710//
  333 8//99=
03529 45961 /2501 11009 21022 30191 40236 51006
  333 8//99=
03544 45965 /1401 11001 21013 30096 40232 51009
  333 553// 20000 8//99=
03560 45981 /2604 10010 21012 30128 40235 51017
  333 553// 20000 8//99=
03604 46982 /1106 10048 20022 30165 40220 50000
  333 8//99=
03605 46967 /1106 10022 20017 30216 40224 50001
  333 8//99=
03609 46/// /0406 10043 20032 30182 40236 53005=
03628 47958 /1001 10006 21006 30160 40235 53005 704//
  333 55300 20000 8//99=
03647 46974 /2101 10011 21001 39968 40232 51006
  333 553// 20000 8//99=
03658 46964 /1302 11019 21028 30166 40239 51013
  333 8//99=
03660 45982 /3101 10018 21006 39983 40239 51014
  333 8//99=
03672 42972 12301 10006 21005 30199 40241 51019 80001
  333 81075 92600=
03680 46/// ///// 10001 21007 30078 40241 51018
  333 553// 20000=
03684 45970 /2503 10009 21003 30127 40237 51020
  333 8//99=
03693 45964 /2804 10030 20008 30236 40238 52019
  333 8//99=
03707 45982 /0808 10025 20003 30221 40228 53004
  333 8//99=
03710 46980 /1703 10015 21009 39804 40237 53005
  333 553// 20000 8//99=
03743 46969 /2002 10013 20004 30071 40238 51010
  333 8//99=
03749 46971 /1301 10020 20002 30124 40238 51010
  333 8//99=
03761 42970 21503 11002 21016 30092 40242 51015 80002
  333 55300 20000 82075=
03768 46960 /2002 11010 21014 30158 40241 51014
  333 8//99=
03769 47958 /0601 11013 21022 30157 40243 51020 704//
  333 55300 20000 8//99=
03770 46/// ///// 10045 20008=
03781 45969 /3001 10008 21008 30031 40246 51019
  333 553// 20000 8//99=
03784 46/// /2203 10009 21005 30233 40237 51018=
03797 45967 /2505 10021 21005 30180 40242 53020
  333 55300 20000 8//99=
03823 45975 /1309 10033 20020 39975 40225 53003
  333 553// 20000 8//99=
03839 46/// ///// 11009 21015
  333 553// 20000=
03857 47968 /1204 10059 20021 30172 40237 51009 723//
  333 81/74=
03862 47907 /0601 11008 21011 30225 40238 51011 734//
  333 55300 20000 8//99=
03866 46/// /0206 10058 20006 30209 40234 50011=
03872 45961 ///// 10003 21007 30234 40239 51017
  333 553// 20000 8//99 91003=
03876 46/// /0603 10002 21006 30239 40241 51018=
03895 42983 01009 10038 20028 40233 51006=
0000124100
583
SREW41 EGRR 112000
03005004 03008002 03017OTR 03026000 03031OTR 03034000 03037000
03044002 03047OTR 03062000 03063000 03066000 03068000 03075OTR
03080000 03088000 03091000 03100000 03105000 03111000 03132000
03134OTR 03136000 03144000 03153000 03155000 03158000 03162000
03166000 03171000 03204000 03210000 03212000 03214000 03220000
03224000 03225000 03226000 03230000 03238000 03240000 03257000
03261000 03265000 03266000 03275000 03281000 03292000 03301000
03302000 03305000 03313000 03316000 03318000 03321000 03330000
03344000 03346000 03351000 03354000 03373000 03377000 03379000
03382000 03391000 03392000 03405000 03409000 03410000 03414000
03462000 03469000 03482000 03488000 03502OTR 03503000 03520000
03522000 03529000 03535000 03544000 03560000 03590000 03604000
03605000 03609000 03628000 03647000 03649000 03658000 03660000
03672000 03684000 03693000 03707000 03710000 03716000 03740000
03743000 03746000 03749000 03761000 03768000 03769000 03770000
03772000 03781000 03797000 03803000 03808000 03809000 03823000
03827000 03839000 03840000 03853000 03857OTR 03862000 03866000
03872000 03876000 03882000 03901000 03904000 03907000 03911999
03915000 03916000 03917000 03923000=
0000114900
584
SAUK63 EGRR 111950 RRB
METAR EGDM 111950Z AUTO 19004KT 9999 NCD 02/01 Q1023=
METAR EGDX 111950Z AUTO 03002KT 9999 NCD 02/01 Q1023=
METAR EGDY 111950Z AUTO 13004KT 9999 NCD M00/M01 Q1023=
METAR EGOM 111950Z AUTO 25005KT 0250 FG VV/// 01/01 Q1019=
METAR EGOP 111950Z AUTO 11006KT 9999 // NCD 02/02 Q1022=
METAR EGOS 111950Z AUTO 10001KT 9999 NCD M01/M03 Q1022=
METAR EGOV 111950Z AUTO 19012KT 9999 NCD 06/02 Q1021=
METAR EGQK 111950Z AUTO 24010KT 9999 NCD 03/M00 Q1015=
METAR EGUB 111950Z AUTO 13002KT 9999 // NCD M02/M03 Q1023=
METAR EGUW 111950Z AUTO 23005KT 9999 NCD 01/M00 Q1023=
METAR EGVP 111950Z AUTO 13001KT 9999 // NCD 02/00 Q1023=
METAR EGXD 111950Z AUTO 27008KT 9999 // NCD 02/00 Q1021=
METAR EGXE 111950Z AUTO 26007KT 9999 FEW240/// 03/M00 Q1021=
METAR EGXP 111950Z AUTO 23009KT 9999 // NCD 00/M01 Q1021=
METAR EGXS 111950Z AUTO 22006KT 9999 // NCD 01/M00 Q1021=
METAR EGXU 111950Z AUTO 28007KT 9999 // NCD 02/00 Q1021=
METAR EGXZ 111950Z AUTO 25003KT 9999 NCD 02/M01 Q1021=
METAR EGYD 111950Z AUTO 25011KT 9999 // NCD 01/M00 Q1022=
METAR EGYM 111950Z AUTO 16003KT 9999 NCD 01/M01 Q1022=
0000014000
585
SNFP20 LFVP 112000
AAXX 11204
71805 22482 72520 10003 21011 30209 40218 55003 875//
  333 60005 87610 90710 91127 93100=
0000071400
586
SNNL50 EHDB 112000
AAXX 11201
06206 47/// /2914 10071 20020 30130 40183 52022 7//00
333 91016 91116 91214=
06207 45575 42914 10071 20012 30125 40179 53025 8////
333 82/27 84/32 91016 91118 91215=
06239 45571 62914 10068 20024 30087 40150 51025 8////
333 81/24 84/31 85/37 91016 91117 91214=
06252 46/// /2710 10068 20022 30158 40205 53023 222// 00094 10604
333 91012 91113 91211=
06260 45568 12603 10047 20020 30216 40218 53026 8////
333 81/26 91004 91105 91203
555 53000=
06270 45575 42906 10057 20012 30187 40187 52026 8////
333 83/31 84/36 91008 91111 91207
555 53000=
06290 45667 12404 10032 20018 30160 40201 52027 8////
333 81/36 91005 91105 91204
555 53000=
0000164400
587
SNNL51 EHDB 112000
AAXX 11201
06201 45469 43010 10066 20023 30131 40184 51022 8////
333 81/19 83/22 91013 91113 91211=
06203 45480 4//06 10071 20022 30167 40218 51024 8////
333 83/19 84/21 91008 91111 91208=
06204 45580 73010 10069 20019 30151 40202 51026 8////
333 84/22 87/26 91015 91115 91211=
06205 45569 13213 10067 20012 30087 40147 51027 8////
333 81/28 91016 91116 91214=
06208 45573 42913 10070 20016 30122 40172 52026 8////
333 81/26 84/31 91017 91118 91213=
06211 45580 32811 10069 20006 30136 40192 53023 8////
333 82/29 83/34 91014 91115 91212=
06212 45580 73011 10070 20016 3//// 4//// 5//// 8////
333 85/21 87/25 87/31 91013 91114 91211=
06235 45573 62907 10063 20017 30204 40204 53025 8////
333 83/25 86/35 91010 91111 91208
555 53000=
06240 45574 52905 10056 20025 30219 40214 53023 8////
333 85/22 85/28 91007 91108 91206
555 53000=
06251 41/72 /2910 10063 20012 30182 40183 51023 7//00
333 91014 91116 91211
555 53000=
06258 46/// /2807
333 91008 91109 91207=
06269 45573 52805 10056 20022 30213 40207 53025 8////
333 83/26 85/33 91007 91107 91205
555 53000=
06280 45969 02705 10048 20010 30178 40182 53026
333 91009 91109 91205
555 53000=
06310 45580 33205 10066 20025 30224 40234 53026 8////
333 83/26 83/31 91007 91107 91205
555 53000=
06344 45579 22803 10047 20022 30228 40221 52024 8////
333 81/22 91005 91106 91204
555 53000=
06370 45670 72403 10036 20018 30201 40227 53025 8////
333 83/40 87/45 91004 91105 91203
555 53000=
06380 45569 12503 10030 20015 30096 40239 51028 8////
333 81/29 91005 91105 91203
555 53000=
0000081600
588
SNNL52 EHDB 112000
AAXX 11201
06210 45580 63007 10066 20026 30217 40217 51022 8////
333 83/21 85/25 86/33 91010 91110 91207
555 53000=
06225 46/// /2910
333 91012 91113 91211=
06242 45562 12912 10065 20013 30190 40192 53024 8////
333 81/30 91015 91117 91214=
06257 46/// ///// 10068 20019
555 53000=
06275 45966 02403 10013 20005 30158 40215 53027
333 91004 91104 91203
555 53000=
06330 46/// /3009 10067 20030 30207 40222 51022
333 91010 91112 91210
555 53000=
06340 45573 72502 10031 20014 30212 40231 51025 8////
333 81/30 87/81 91003 91103 91202=
06350 47564 62603 10046 20024 30211 40226 52024 75100 8////
333 81/21 83/29 85/48 91005 91105 91203
555 53000=
06375 45665 12304 10012 20004 30199 40224 53029 8////
333 81/45 91004 91105 91204
555 53000=
0000111900
589
SNNL53 EHDB 112000
AAXX 11201
06248 46/// /2802
333 91003 91106 91203=
06249 45/80 /2906 10050 20018
333 91007 91109 91207
555 53000=
06267 45673 12909 10060 20022 8////
333 81/39 91012 91112 91209
555 53000=
06273 45/69 /2705 10052 20023
333 91007 91108 91205
555 53000=
06277 46/// /2912 10064 20024
333 91015 91117 91213
555 53000=
06278 46/// /2704 10037 20020
333 91006 91106 91204
555 53000=
06279 45569 32605 10042 20021 30171 40191 53024 8////
333 82/31 83/36 91008 91108 91205
555 53000=
06283 46/// /2404 10028 20014
333 91004 91105 91204
555 53000=
06286 46/// /2708 10047 20013
333 91010 91110 91208
555 53000=
06319 41/66 /2504 10037 20016 30233 40235 53022 7//00
333 91005 91105 91204
555 53000=
06348 45/80 /2504 10024 20007 30219 40218 51025
333 91004 91105 91204
555 53000=
06356 466// 72403 10030 20011 30219 40220 53025 8////
333 82/34 87/40 87/45 91003 91104 91203
555 53000=
06377 45967 02504 10037 20018
333 91006 91106 91204
555 53000=
06391 46/// /2403 10033 20025
333 91006 91106 91203
555 53000=
0000040600
590
SNNL54 EHDB 112000
AAXX 11201
06209 NIL=
06285 NIL=
06308 NIL=
06311 NIL=
06312 NIL=
06313 NIL=
06315 NIL=
06316 NIL=
06320 46/83 /3109 10073 20030 30195 40223 51024 222// 00080 10604
333 91011 91112 91211=
06321 46/82 /3007 10071 20023 30201 40225 51023 222// 00086 10603
333 91009 91110 91209=
06324 NIL=
06331 NIL=
06343 46/// /3006
333 91009 91109 91207=
0000014500
591
SSVX13 LFPW 111800
ZZYY 64519 11014 1800/ 163048 007398 6113/ 11119 49999 52007 444
 20130 11014 1800/ 50101 80138 80002 9/015=
0000115800
592
SNEO21 EEMH 112000
AAXX 11201
26038 27053 72202 11005 21004 39939 49981 57006 78587 87///
 333  11003 21016 60007 87/01
 555  1/101 21016 3/101 51008 52102=
26045 27681 81203 11025 21034 39987 49990 58006 77177 88///
 333  11013 21025 69937 88/36
 555  21025 51013=
26058 27559 81002 11043 21053 39964 49999 54001 77177 83///
 333  11027 21045 69967 83/32
 555  21045 51028=
26115 27584 70001 11010 21013 39982 49990 57002 70080 81///
 333  10012 21010 69927 81/24
 555  1/100 21010 3/100 50009=
26135 27156 81800 11007 21011 39910 49985 57009 72476 88///
 333  11005 21012 60007 88/02
 555  1/100 21012 3/101 51005 52101=
26141 27262 81202 11026 21026 39837 49987 57011 78587 88///
 333  11025 21031 60007 88/04
 555  1/102 21031 3/103 51023 52104=
26231 27257 80401 10001 20001 39968 49983 58006 72476 88///
 333  10015 20001 69967 88/04
 555  1/001 20001 3/000 50009=
26242 27427 71001 11003 21005 39899 49986 58013 77187 87///
 333  11001 21011 69957 87/11
 555  1/100 21011 3/101 51002 52102=
26247 27/38 /1801 10003 20003 39906 49985 57014 76286
 333  10011 21001 69977
 555  1/100 21001 3/100 50006=
0000026300
593
SAIN34 VOMM 112000
METAR VOBL 112000Z VRB01KT 6000 NSC 20/18 Q1018 NOSIG=
METAR VOCI 112000Z 00000KT 4000 HZ NSC 23/21 Q1013 NOSIG=
METAR VOCL 112000Z 11003KT 6000 FEW015 25/21 Q1013 NOSIG=
METAR VOMD 112000Z 02006KT 4000 HZ NSC 24/19 Q1014=
0000011100
594
UANT01 CWAO 111845
ARP AFR6724 5656N01619W 1845 F320 MS57 229/67 KT
FGIUA QXT AOE 111845 F17A
0000011000
595
UANT01 CWAO 111845
ARP BAW189 5234N03538W 1845 F400 MS53 259/40 KT
GZBJC QXT AOE 111845 L87A
0000011100
596
UANT01 CWAO 111845
ARP IBE6253 4808N03612W 1845 F350 MS59 311/54 KT
ECLUB QXT EUA 111845 J71A
0000020300
597
SOBR10 KWAL 111846
BAB00078 011184611 :BUB 2 #1       M   0.529   0.499   0.509 :RAD 1 #1   0.406   0.391   0.385   0.407 :PRS 1 #1  -0.805  -0.801  -0.798  -0.792 :BL 11.70  31-0NP 219E
0000003800
598
UKGR01 LGAT 111800
NIL
0000003800
599
USGR01 LGAT 111800
NIL
0000003800
600
UEGR01 LGAT 111800
NIL
0000003800
601
ULGR01 LGAT 111800
NIL
00000000