0000012700
722
SSVX05 CWAO 112000
ZZYY 47550 11014 2000/ 770787 069468 6113/ 444 
20130 11014 2000/ 50101 80132 80001 9////=
0000016000
723
SSVX02 CWAO 112000
ZZYY 56513 11014 2000/ 344512 114429 6112/ 11119 
40101 57019 22219 00115 444 20130 11014 2000/ 50101 80150 80023 
9/015=
0000011000
724
UANT99 KDDL 111847
ARP DLH412 5058N03028W 1847 F380 MS48 238/28 KT
DAIHN QXT EUA 111847 J24A
0000011000
725
UANT99 KDDL 111848
ARP DLH414 5006N02619W 1848 F360 MS45 203/46 KT
DAIHO QXT EUA 111848 J79A
0000014700
726
SMVA01 DEMS 111800 RRA
BBXX
A8PS5 11184 99153 10581 41/97 40314 10240 20240 40170 51010 703//
84762 22264 00250 20604 80240=

0000010000
727
SMTA10 UTDD 111800 RRD
AAXX 11181
38847 429// 70202 10002 21057 40274 58008 80004=
0000100600
728
SMKR11 BABJ 111800
AAXX 11181
47003 42980 00000 11110 21138 30216 40220 57009=
47005 11980 72301 11155 21192 38583 57003 69901 77072 87002=
47022 42975 03209 11124 21176 38823 58004=
47028 42962 41801 11095 21116 30180 40281 52012 80002=
47031 42570 53201 11113 21175 38935 57008 85500=
47037 42970 00000 11107 21135 30153 40285 58019=
47039 42960 00000 11112 21132 30097 40301 57003=
47046 42969 02702 11062 21137 30223 40247 57003=
47050 42965 60000 11076 21106 30228 40263 57010 80002=
47052 42565 50000 11062 21077 39913 40267 57026 85500=
47060 42560 42701 11001 21012 30217 40277 57009 84100=
47061 42980 03203 10009 21071 30213 40258 54000=
47065 41560 80901 11032 21049 30225 40293 58010 71020 885//=
47067 11560 80000 11060 21073 30186 40310 57013 69941 77072
8802/=
47068 12560 80901 11041 21052 30253 40290 53003 69901 82501=
47070 42970 00000 11045 21058 30204 40296 57007=
47075 11580 82304 11045 21068 39962 40414 57006 69901 72272
885//=
0000010000
729
SMRA13 RUNW 111800 RRA
AAXX 11181
20292 42998 01701 11303 21327 30181 40202 57003=
0000628500
730
KSMI03 SBBR 111800 RRA
CREX++
T000113 A000 D07086++
 83 384 ARINOS               1 2014 01 11 18 00 -1590000 -04605000 ///// ///// 09538 10106 //// // 0019 ///// ///// ///// 3300 1840 /// ///// 1000 ///// ///// ///// 050 07 04 0080 32 20 10 0000 0000 // // ///// //// ////// / /// /// ////// /// /// /////// // /// // /// /// ////////// /// /// 508 -0006 10 10  -0024 //// -0001 //// /////  -0001 00000 //// ///// ///// -0012 0000 //// -0012 0000 //// ///// 03 02 -0010 090 0015 //  -0010 /// //// //// /// //// ///// -0024 // ////  -0001 //// //// ///// ///// ///// ///// -0024 //// //// ///// ///// ///// /////+
 83 386 JANUARIA             1 2014 01 11 18 00 -1543000 -04436000 ///// ///// 09579 10102 //// // 0019 ///// ///// ///// 3080 1950 /// ///// 2000 ///// ///// ///// 038 07 02 0045 32 24 12 0000 0000 // // ///// //// ////// / /// /// ////// /// /// /////// // /// // /// /// ////////// /// /// 508 -0006 10 10  -0024 //// -0001 //// /////  -0001 00000 //// ///// ///// -0012 0000 //// -0012 0000 //// ///// 03 02 -0010 090 0021 //  -0010 /// //// //// /// //// ///// -0024 // ////  -0001 //// //// ///// ///// ///// ///// -0024 //// //// ///// ///// ///// /////+
 83 388 MONTE AZUL           1 2014 01 11 18 00 -1508000 -04275000 ///// ///// 09440 10095 //// // 0019 ///// ///// ///// 3140 1770 /// ///// 1000 ///// ///// ///// 075 07 06 0045 32 61 60 0000 0000 // // ///// //// ////// / /// /// ////// /// /// /////// // /// // /// /// ////////// /// /// 508 -0006 10 10  -0024 //// -0001 //// /////  -0001 00000 //// ///// ///// -0012 0000 //// -0012 0000 //// ///// 03 02 -0010 000 0000 //  -0010 /// //// //// /// //// ///// -0024 // ////  -0001 //// //// ///// ///// ///// ///// -0024 //// //// ///// ///// ///// /////+
 83 393 PEDRA AZUL           1 2014 01 11 18 00 -1600000 -04128000 ///// ///// 09423 10140 //// // 0025 ///// ///// ///// 2620 1880 /// ///// 5000 ///// ///// ///// 100 07 04 0080 37 27 10 0000 0000 // // ///// //// ////// / /// /// ////// /// /// /////// // /// // /// /// ////////// /// /// 508 -0006 10 10  -0024 //// -0001 //// /////  -0001 00000 //// ///// ///// -0012 0000 //// -0012 0000 //// ///// 03 02 -0010 140 0005 //  -0010 /// //// //// /// //// ///// -0024 // ////  -0001 //// //// ///// ///// ///// ///// -0024 //// //// ///// ///// ///// /////+
 83 442 ARACUAI              1 2014 01 11 18 00 -1686000 -04206000 ///// ///// 09794 10129 //// // 0024 ///// ///// ///// 3270 1960 /// ///// 1000 ///// ///// ///// 038 07 02 0080 31 20 12 0000 0000 // // ///// //// ////// / /// /// ////// /// /// /////// // /// // /// /// ////////// /// /// 508 -0006 10 10  -0024 //// -0001 //// /////  -0001 00000 //// ///// ///// -0012 0000 //// -0012 0000 //// ///// 03 02 -0010 050 0010 //  -0010 /// //// //// /// //// ///// -0024 // ////  -0001 //// //// ///// ///// ///// ///// -0024 //// //// ///// ///// ///// /////+
 83 479 PARACATU             1 2014 01 11 18 00 -1721000 -04686000 ///// ///// 09330 10118 //// // 0000 ///// ///// ///// 3010 1960 /// ///// 2000 ///// ///// ///// 062 07 05 0080 32 20 10 0000 0000 // // ///// //// ////// / /// /// ////// /// /// /////// // /// // /// /// ////////// /// /// 508 -0006 10 10  -0024 //// -0001 //// /////  -0001 00000 //// ///// ///// -0012 0000 //// -0012 0000 //// ///// 03 02 -0010 090 0031 //  -0010 /// //// //// /// //// ///// -0024 // ////  -0001 //// //// ///// ///// ///// ///// -0024 //// //// ///// ///// ///// /////+
 83 531 PATOS DE MINAS       1 2014 01 11 18 00 -1860000 -04651000 ///// ///// 09102 10118 //// // 0024 ///// ///// ///// 2940 1690 /// ///// 1000 ///// ///// ///// 075 07 06 0080 34 20 10 0000 0000 // // ///// //// ////// / /// /// ////// /// /// /////// // /// // /// /// ////////// /// /// 017 -0006 02 01  -0024 //// -0001 //// /////  -0001 00000 //// ///// ///// -0012 0000 //// -0012 0000 //// ///// 03 02 -0010 140 0010 //  -0010 /// //// //// /// //// ///// -0024 // ////  -0001 //// //// ///// ///// ///// ///// -0024 //// //// ///// ///// ///// /////+
 83 538 DIAMANTINA           1 2014 01 11 18 00 -1823000 -04360000 ///// ///// 08728 ///// //// // -0002 ///// ///// ///// 2630 1430 /// ///// 1000 ///// ///// ///// 075 07 05 0080 32 20 11 0000 0000 // // ///// //// ////// / /// /// ////// /// /// /////// // /// // /// /// ////////// /// /// 508 -0006 10 10  -0024 //// -0001 //// /////  -0001 00000 //// ///// ///// -0012 0000 //// -0012 0000 //// ///// 03 02 -0010 050 0031 //  -0010 /// //// //// /// //// ///// -0024 // ////  -0001 //// //// ///// ///// ///// ///// -0024 //// //// ///// ///// ///// /////+
 83 582 BAMBUI               1 2014 01 11 18 00 -2000000 -04598000 ///// ///// 09362 10120 -0024 08 //// ///// ///// ///// 3040 1820 /// ///// 5000 ///// ///// ///// 038 07 03 0080 31 20 10 0000 0000 // // ///// //// ////// / /// /// ////// /// /// /////// // /// // /// /// ////////// /// /// 508 -0006 10 10  -0024 //// -0001 //// /////  -0001 00000 //// ///// ///// -0012 0000 //// -0012 0000 //// ///// 03 02 -0010 090 0015 //  -0010 /// //// //// /// //// ///// -0024 // ////  -0001 //// //// ///// ///// ///// ///// -0024 //// //// ///// ///// ///// /////+
 83 687 LAVRAS               1 2014 01 11 18 00 -2123000 -04500000 ///// ///// 09124 10116 -0014 08 //// ///// ///// ///// 3040 1880 /// ///// 2000 ///// ///// ///// 062 07 05 0125 32 20 10 0000 0000 // // ///// //// ////// / /// /// ////// /// /// /////// // /// // /// /// ////////// /// /// 029 -0006 09 02  -0024 //// -0001 //// /////  -0001 00000 //// ///// ///// -0012 0000 //// -0012 0000 //// ///// 03 02 -0010 050 0021 //  -0010 /// //// //// /// //// ///// -0024 // ////  -0001 //// //// ///// ///// ///// ///// -0024 //// //// ///// ///// ///// /////+
 83 692 JUIZ DE FORA         1 2014 01 11 18 00 -2176000 -04335000 ///// ///// 09116 10124 -0005 08 //// ///// ///// ///// 2940 1860 /// ///// 5000 ///// ///// ///// 062 07 05 0125 32 20 10 0000 0000 // // ///// //// ////// / /// /// ////// /// /// /////// // /// // /// /// ////////// /// /// 508 -0006 10 10  -0024 //// -0001 //// /////  -0001 00000 //// ///// ///// -0012 0000 //// -0012 0000 //// ///// 03 02 -0010 320 0031 //  -0010 /// //// //// /// //// ///// -0024 // ////  -0001 //// //// ///// ///// ///// ///// -0024 //// //// ///// ///// ///// /////++
7777
0000040500
731
SMBZ33 SBBR 111800 RRB
AAXX 11184
83552 32598 3//// 10354 20240 3//// 4//// 83300 333 5////=
83565 32697 60000 10336 20189 39635 40091 83202 333 58012=
83630 32597 50504 10284 20179 3//// 4//// 57027 82240=
83702 31499 83206 10313 20193 39368 40104 58014 75122 88900=
83704 32698 60504 1//// 2//// 39675 4//// 58020 86200=
83726 32597 80502 10316 20189 39186 40125 58031 86231=
0000062600
732
KSME02 SBBR 111800 RRB
CREX++
T000113 A000 D07080++
 82 795 CAMPINA GRANDE       1 2014 01 11 18 00 -0721000 -03588000 05480 ///// 09506 10124 //// // 0008 ///// ///// ///// 2370 2090 /// ///// 0400 ///// ///// ///// 100 07 08 0080 37 61 60 0000 0000  07 /// 08 /// 09 /// // ///// ///// // ///// ///// // ///// //// 508 -0006 10 10  -0024 //// -0001 //// /////  -0001 00000 //// ///// ///// -0012 0000 //// -0012 0000 //// ///// 03 02 -0010 140 0036 //  -0010 /// //// //// /// //// ///// -0024 // ////  -0001 //// //// ///// ///// ///// ///// -0024 //// //// ///// ///// ///// ///// //// 0000 //++
7777
0000064100
733
KSME02 SBBR 111800 RRB
CREX++
T000113 A000 D07086++
 82 795 CAMPINA GRANDE       1 2014 01 11 18 00 -0721000 -03588000 ///// ///// 09506 10124 //// // 0008 ///// ///// ///// 2370 2090 /// ///// 0400 ///// ///// ///// 100 07 08 0080 37 61 60 0000 0000 // // ///// //// ////// / /// /// ////// /// /// /////// // /// // /// /// ////////// /// /// 508 -0006 10 10  -0024 //// -0001 //// /////  -0001 00000 //// ///// ///// -0012 0000 //// -0012 0000 //// ///// 03 02 -0010 140 0036 //  -0010 /// //// //// /// //// ///// -0024 // ////  -0001 //// //// ///// ///// ///// ///// -0024 //// //// ///// ///// ///// /////++
7777
0000011000
734
SMBZ02 SBBR 111800 RRB
AAXX 11184
82795 32596 81407 10237 20209 39506 40124 887// 333 58008=
0000023800
735
SMBZ05 SBBR 111800 RRB
AAXX 11184
83270 32898 50000 10303 20214 39648 40128 81038 333 58028=
83309 31595 60000 10324 20260 39790 40108 70510 82301 333 58002=
83319 32797 50504 10320 20234 39762 40131 83203 333 58015=
0000072000
736
SMBZ03 SBBR 111800 RRA
AAXX 11184
83384 32597 40903 10330 20184 39538 40106 84200 333 58019=
83386 32498 30904 10308 20195 39579 40102 82242 333 58019=
83388 32497 60000 10314 20177 39440 40095 862// 333 58019=
83393 32599 81401 10262 20188 39423 40140 84770 333 58025=
83442 32597 30502 10327 20196 39794 40129 82102 333 58024=
83479 32598 50906 10301 20196 39330 40118 85200 333 58000=
83531 31597 61402 10294 20169 39102 40118 71721 86400 333 58024=
83538 32597 60506 10263 20143 38728 4//// 85201 333 59002=
83582 32599 30903 10304 20182 39362 40120 58024 83100=
83687 31698 50504 10304 20188 39124 40116 58014 72992 85200=
83692 32699 53206 10294 20186 39116 40124 58005 85200=
0000081000
737
SMBZ04 SBBR 111800 RRA
AAXX 11184
83811 21395 80504 10206 20180 39241 40132 58010 79562 889// 333 60031=
83844 32597 505// 10325 20241 30083 40090 56021 82260=
83887 21597 80502 10250 20203 39100 40108 55003 72996 889// 333 69991=
83907 21497 80505 10218 20203 39869 40151 5//// 72096 8272/ 333 60181=
83914 21596 82311 10220 20205 39371 40134 52009 71096 8372/ 333 60031=
83919 21395 82309 10190 20180 38991 40170 52002 76596 887// 333 60171=
83927 21597 81402 10259 20180 30060 40131 57009 70296 885// 333 60021=
83936 21495 83603 10238 20217 30031 40152 55002 76196 8472/ 333 60111=
83948 21596 80000 10257 20233 30119 40125 53003 72051 8497/ 333 69911=
83964 31596 80000 10217 20190 39658 40144 52010 71022 887//=
83995 32497 82306 10256 20197 30124 40127 54000 886//=
0000020900
738
SNVD20 KWNB 111900
BBXX
44059 11191 99368 70763 46/// /2207 10217 40035 91840 333 91214
555 11081 22088=
44058 11191 99376 70763 46/// /1804 10093 40033 91840 333 91205
555 11050 22054=
0000037300
739
SNVD15 KWNB 111900
BBXX
44064 11191 99370 70760 46/// /2010 1//// 40044 91840 333 91213
555 11110 22119=
44062 11191 99386 70764 46/// /1809 10064 40014 91840 333 91210
555 11098 22107=
44063 11191 99390 70764 46/// /2006 10062 49995 91840 333 91207
555 11070 22077=
44041 11191 99372 70768 46/// /2106 10172 91840 333 91208 555
11067 22073=
0000058800
740
SMVD19 KWNB 111800 RRE
BBXX
46126 11181 99540 71666 46/// /2405 10045 49798 91800 22200 00048
1//00 70002 333 91208 555 11057 22061=
46126 11181 99540 71666 46/// /2407 10048 49800 91818 22200 00048
10301 70004 333 91211 555 11072 22078=
46126 11181 99540 71666 46/// /2407 10048 49800 91820 22200 00048
10301 70004 333 91211 555 11072 22078=
46126 11181 99540 71666 46/// /2306 10048 49800 91824 22200 00048
1//00 70002 333 91211 555 11062 22067=
46126 11181 99540 71666 46/// /2408 10049 49798 91830 22200 00048
1//00 70002 333 91213 555 11084 22091=
0000035600
741
SMCN04 KWBC 111800
AAXX 11184
71048 15/// /1713 10008 21022 60001 333 10008 21123 70000=
71354 15/// /1415 11037 21055 60001 333 11037 21120 70000=
71981 15/// /2516 10061 21022 60001 333 10066 21087 70005=
71982 17/// /2009 10079 21039 69941 7//4/ 333 10079 21083 70004=
71986 15/// /1926 10012 21009 60001 333 10012 21134 70000=
00000000