0000076800
853
SAFR32 LFPW 102300
METAR LFBD 102300Z AUTO 15003KT 3000 0900 R23/1400U R05/1000U
R29///// BCFG NSC 07/06 Q1015=
METAR LFBH 102300Z AUTO 00000KT 9999 NSC 09/07 Q1015=
METAR LFBI 102300Z AUTO VRB02KT 9999 NSC 07/06 Q1015=
METAR LFBL 102300Z AUTO 00000KT 9999 NSC 09/05 Q1014=
METAR LFBO 102300Z AUTO 14012KT 9999 FEW015 BKN190 10/07 Q1016=
METAR LFBP 102300Z AUTO 26004KT 210V290 7000 BKN007 OVC180 07/07
Q1016=
METAR LFBT 102300Z AUTO 26008KT 9999 NSC 11/04 Q1015=
METAR LFBZ 102300Z AUTO 28012KT 9999 OVC021 12/09 Q1016=
METAR LFLB 102300Z AUTO 16002KT 0500 R18/1500D FG NSC 02/02 Q1018=
METAR LFLX 102300Z AUTO 08004KT 8000 NSC 07/06 Q1015=
METAR LFML 102300Z 11003KT 9999 BKN025 12/08 Q1020 NOSIG=
METAR LFCK 102300Z NIL=

0000048100
854
SAFR33 LFPW 102300
METAR LFKB 102300Z AUTO 00000KT 9999 OVC029 12/09 Q1021=
METAR LFKF 102300Z AUTO 07007KT 040V100 9999 OVC026/// 12/09 Q1021=
METAR LFKJ 102300Z 05006KT 9999 FEW013 07/05 Q1020 NOSIG=
METAR LFLC 102300Z VRB03KT 9000 NSC 05/03 Q1015 NOSIG=
METAR LFMP 102300Z AUTO 31004KT 6000 OVC025 10/08 Q1018=
METAR LFMV 102300Z AUTO 00000KT 7000 OVC025 09/07 Q1020=
METAR LFSL 102300Z AUTO 00000KT 9999 NSC 04/03 Q1015=
METAR LFKC 102300Z NIL=

0000101600
855
SAFR34 LFPW 102300
METAR LFCR 102300Z AUTO 12008KT 9999 NSC 07/03 Q1016=
METAR LFJL 102300Z AUTO VRB02KT 5000 BR NSC 01/00 Q1018=
METAR LFLP 102300Z AUTO 01002KT 6000 NSC 02/01 Q1018=
METAR LFLS 102300Z AUTO VRB02KT 4900 BR BKN009 BKN180 03/03 Q1018=
METAR LFLY 102300Z AUTO 00000KT 2100 R34/1200U BR FEW014 04/03
Q1018=
METAR LFMT 102300Z 06005KT 9999 OVC033 11/08 Q1019 NOSIG=
METAR LFMU 102300Z AUTO 10005KT 9999 OVC032 12/08 Q1019=
METAR LFOB 102300Z AUTO 18003KT 150V230 9999 OVC006 05/04 Q1017=
METAR LFOH 102300Z AUTO 13006KT 8000 SCT004 BKN056 OVC088 05/04
Q1016=
METAR LFOK 102300Z AUTO 05005KT 0150 R10/0500D R28/0650D FG VV///
00/00 Q1017=
METAR LFOP 102300Z AUTO 16004KT 4000 BR OVC003 05/04 Q1016=
METAR LFPB 102300Z AUTO 12003KT 6000 OVC005 06/05 Q1017=
METAR LFQA 102300Z AUTO 09003KT 0100 FG VV/// 02/02 Q1017=
METAR LFQB 102300Z AUTO 00000KT 0100 FZFG NSC M01/M01 Q1017=
METAR LFSN 102300Z AUTO VRB02KT 0150 R03/0600N FZFG SCT003 M01/M01
Q1019=

0000092400
856
SAFR35 LFPW 102300
METAR LFMI 102300Z AUTO 21001KT 9999 OVC025 12/08 Q1020=
METAR LFMK 102300Z AUTO 10012KT 9999 OVC026 11/08 Q1017=
METAR LFOV 102300Z AUTO 00000KT 1800 -RA BR BKN035 OVC056 06/06
Q1016=
METAR LFRD 102300Z AUTO 00000KT 0250 R35/0900N FG VV/// 07/06 Q1016=
METAR LFRI 102300Z AUTO 26001KT 9999 NSC 08/07 Q1015=
METAR LFRM 102300Z AUTO 08003KT 050V110 6000 -RADZ BKN005 BKN058
BKN074 07/06 Q1016=
METAR LFRN 102300Z AUTO 12002KT 1600 -RA BR OVC003 07/07 Q1016=
METAR LFRO 102300Z AUTO 16004KT 3100 BR NSC 06/05 Q1015=
METAR LFRV 102300Z AUTO 04005KT 3100 BR SCT003/// BKN015///
OVC020/// ///TCU 07/07 Q1015=
METAR LFRZ 102300Z AUTO 05003KT 3500 BR OVC032 08/08 Q1015=
METAR LFSB 102300Z 19003KT CAVOK 01/00 Q1019 NOSIG=
METAR LFST 102300Z AUTO 33001KT 0550 0500 R23/1400U R05/1500D FG
NSC 01/00 Q1019=
METAR LFTH 102300Z AUTO 00000KT 9999 OVC027 12/08 Q1020=

0000071200
857
SAFR36 LFPW 102300
METAR LFBA 102300Z AUTO 11004KT 9000 NSC 05/05 Q1015=
METAR LFBE 102300Z AUTO 06002KT 5000 BR NSC 04/04 Q1015=
METAR LFGJ 102300Z AUTO 06003KT 7000 NSC 03/02 Q1017=
METAR LFJR 102300Z AUTO 06004KT 030V090 3300 BR NSC 07/06 Q1015=
METAR LFMD 102300Z AUTO VRB02KT 9000 OVC028 10/08 Q1020=
METAR LFMH 102300Z AUTO 15012KT 4800 BR NSC 07/05 Q1016=
METAR LFOT 102300Z 06004KT 9000 NSC 07/06 Q1015 NOSIG=
METAR LFPN 102300Z AUTO 11004KT 1500 BR VV/// 05/05 Q1016=
METAR LFRC 102300Z AUTO 18008KT 3200 BR OVC002 07/06 Q1015=
METAR LFRG 102300Z AUTO 19007KT 8000 SCT004 BKN049 OVC082 05/05
Q1016=
METAR LFRK 102300Z AUTO 15010KT 6000 FEW009 OVC049 06/05 Q1016=

0000011100
858
SACN62 CYAM 102300
METAR CYAM 102300Z 11006KT 3SM BR OVC009 M02/M04 A2986 RMK SF8
 SLP124=

0000072000
859
SAFR37 LFPW 102300
METAR LFAQ 102300Z AUTO 18006KT 7000 OVC007 04/04 Q1017=
METAR LFAT 102300Z AUTO 13005KT 4100 BR NSC 02/02 Q1016=
METAR LFLN 102300Z AUTO 07003KT 040V100 9999 NSC 05/03 Q1016=
METAR LFPM 102300Z AUTO 09006KT 0250 FG VV/// 06/05 Q1017=
METAR LFPT 102300Z AUTO VRB02KT 5000 BR OVC006 05/04 Q1017=
METAR LFRH 102300Z AUTO 08002KT 1500 1100 R25///// R07///// BR
SCT046 BKN060 BKN078 08/07 Q1015=
METAR LFRQ 102300Z AUTO 00000KT 0100 R28/0500N FG VV/// 08/07 Q1015=
METAR LFRT 102300Z AUTO 17003KT 140V200 3600 BR NSC 07/07 Q1015=
METAR LFSD 102300Z AUTO 32004KT 9999 NSC 03/02 Q1018=
METAR LFTW 102300Z AUTO 00000KT 6000 OVC026 10/05 Q1020=
METAR LFBU 102300Z NIL=

0000013300
860
SACN62 CYBL 102300
METAR CYBL 102300Z 11007KT 5SM -RA BR SCT008 BKN013 OVC023 05/05
 A2985 RMK SF3SC4SC1 SLP113=

0000011500
861
SACN62 CYBR 102300
METAR CYBR 102300Z 29015KT 1 1/2SM BR OVC005 M10/M11 A2941 RMK ST8
 SLP994=

0000024500
862
FTBZ42 KWBC 102303
TAF
TAF SBTE 102200Z 1100/1112 35003KT 9999 SCT020 TN26/1106Z
      TX30/1112Z PROB30 1101/1104 03003KT TS FEW030CB
      BECMG 1106/1108 35003KT SCT010
      BECMG 1 109/1111 06003KT BKN015 RMK PDZ=

0000016000
863
FTBZ43 KWBC 102303
TAF
TAF SBTF 102200Z 1100/1112 00000KT 9999 FEW012 TN24/1106Z
      TX26/1112Z
      BECMG 1104/1106 BKN007 RMK PDZ=

0000104700
864
FTCA31 KWBC 102303
TAF
MUCC 102300Z 1100/1124 09013KT 9000 SCT020
      BECMG 1103/1105 07003KT
      BECMG 1113/1115 09014KT=
TAF MUCM 102300Z 1100/1124 08014KT 9000 SCT020
      BECMG 1103/1105 07004KT
      BECMG 1113/1115 09014KT=
MUCM 102300Z 1100/1124 08014KT 9000 SCT020
      BECMG 1103/1105 07004KT
      BECMG 1113/1115 09014KT=
TAF MUCU 102300Z 1100/1124 14015KT 9000 SCT020
      BECMG 1101/1103 36006KT
      BECMG 1115/1117 16012KT=
MUCU 102300Z 1100/1124 14015KT 9000 SCT020
      BECMG 1101/1103 36006KT
      BECMG 1115/1117 16012KT=
TAF MUHA 102300Z 1100/1124 16010KT 9000 SCT020
      BECMG 1103/1105 VRB02KT
      BECMG 1113/1115 14012KT=
MUHA 102300Z 1100/1124 16010KT 9000 SCT020
      BECMG 1103/1105 VRB02KT
      BECMG 1113/1115 14012KT=
TAF MUVR 102300Z 1100/1124 04013KT 9000 SCT020
      BECMG 1103/1105 08003KT
      BECMG 1113/1115 07013KT=
MUVR 102300Z 1100/1124 04013KT 9000 SCT020
      BECMG 1103/1105 08003KT
      BECMG 1113/1115 07013KT=

0000049900
865
FTMX31 KWBC 102303
TAF
TAF MMAA 102301Z 1100/1206 24005KT P6SM SKC TX31/1120Z TN24/1112Z
     FM110600 07005KT P6SM SCT140
     FM111800 24015KT P6SM SKC
     FM120300 24005KT P6SM SCT040=
TAF MMMX 102301Z 1100/1206 22005KT P6SM SCT025 BKN080 TX21/1122Z
      TN08/1112Z
      TEMPO 1100/1104 VC RA BKN025 BKN080
     FM110600 07005KT P6SM SCT080
     FM111200 07005KT 4SM HZ SCT020
     FM111800 22010KT P6SM SCT025 SCT080
     FM120300 07005KT P6SM SCT080=

0000038600
866
FTMX42 KWBC 102303
TAF
TAF MMTO 102301Z 1100/1206 20010KT 6SM HZ VC -RA BKN020 TX17/1121Z
      TN02/1112Z
      TEMPO 1100/1104 5SM -RA BKN020
     FM110600 00000KT P6SM SCT070
     FM111000 00000KT 3SM BR BKN015
      TEMPO 1111/1115 1SM BR OVC010
     FM111600 04005KT 5SM HZ SCT015
     FM112100 14010KT P6SM SCT020
      TEMPO 1122/1202 BKN020=

0000044900
867
FTUS80 KWBC 102303 AAA
TAF AMD
KBNA 102302Z 1023/1118 17012G20KT P6SM BKN015 OVC025
     FM110500 19015G25KT 3SM -SHRA BR OVC009
      TEMPO 1107/1111 2SM TSRA OVC007CB
     FM111400 26010G20KT P6SM OVC040=
KCTB 102300Z 1023/1118 27015KT P6SM BKN120
     FM111100 22025G35KT P6SM BKN120=
KGTF 102300Z 1023/1118 24015G22KT P6SM SCT050 BKN120
     FM110300 22015KT P6SM BKN100
     FM111100 20020G30KT P6SM BKN100=

0000022800
868
FTHV31 DFFD 102300
TAF DFFD 102300Z 1100/1206 08010KT 8000 NSC BECMG 1105/1107 3000 DU
BECMG 1111/1113 6000 NSW TEMPO 1117/1120 4000 DU=
TAF DFOO 102300Z 1100/1124 10010KT 8000 NSC TEMPO 1106/1110 4000 DU=

0000011700
869
SPUS31 KWBC 102303
SPECI
KIAD 102259Z 00000KT 1SM R01R/4500VP6000FT -RA BR OVC005 02/01
A3029=

0000010000
870
SPUS31 KWBC 102303
SPECI
KLIT 102259Z 20006KT 1 1/2SM RA BR OVC005 12/11 A2974=

0000011300
871
SPUS42 KWBC 102303
SPECI
KGLS 102259Z 16011KT 3/4SM -RA BR FEW003 BKN010 OVC014 17/17 A2984=

0000056100
872
SAKO31 RKSI 102300
METAR RKSI 102300Z 08002KT CAVOK M05/M05 Q1033 NOSIG=
METAR RKSS 102300Z 34004KT 2800 1200W BR NSC M07/M10 Q1033 BECMG 
           4200 =
METAR RKPC 102300Z 04007KT 9999 BKN040 04/M06 Q1033 NOSIG =
METAR RKPK 102300Z 26001KT 9000 NSC M02/M07 Q1032 NOSIG =
METAR RKTU 102300Z 02001KT 3200 BR FEW040 M08/M09 Q1033 NOSIG =
METAR RKTN 102300Z 00000KT 9999 SCT050 M05/M09 Q1032 NOSIG =
METAR RKJB 102300Z 20003KT 6000 SCT030 M03/M05 Q1033 NOSIG =
METAR RKNY 102300Z 26015KT CAVOK M02/M12 Q1029 WS ALL RWY NOSIG =

00000000