0000008900
613
SAJM31 MKJP 102300
METAR MKJP 102300Z 13018KT 9999 FEW022 28/20 Q1014=

0000010200
614
SPCN43 CWAO 102301
SPECI CWHN 102301Z AUTO 29007KT 9SM BKN014 OVC077 M06/M08 A2939=

0000020900
615
SAVN26 SVMC 102300
METAR SVMC 102300Z /////KT 9999 FEW016 SCT070 28/20 Q1011=
METAR SVJC 102300Z NIL=
METAR SVVG 102300Z 00000KT 9999 SCT020 BKN100 28/21 Q1009=
METAR SVCR 102300Z NIL=

0000009500
616
SAID33 WALR 102300
METAR WALR 102300Z 31003KT 9000 SCT015 25/24 Q1012 NOSIG=

0000008900
617
SASG20 GOOY 102300
METAR GOOY 102300Z 36008KT CAVOK 19/14 Q1015 NOSIG=

0000009500
618
SAAT31 TAPA 102257
METAR TAPA 102300Z 08011KT 9999 SCT018 25/19 Q1016 NOSIG=

0000013900
619
FCLJ31 LJLJ 102300
TAF LJPZ 102300Z 1100/1109 12005KT 3500 BR FEW005 SCT015 OVC050
TEMPO 1100/1109 5000 SCT007 OVC015=

0000009500
620
SAID31 WIII 102300
METAR WIII 102300Z 20004KT 6000 FEW020 26/23 Q1010 NOSIG=

0000011600
621
SACN61 CYBC 102300
METAR CYBC 102300Z AUTO 26007KT 9SM BKN015 BKN150 M08/M11 A3014 RMK
 SLP207=

0000011400
622
SACN61 CYPQ 102300
METAR CYPQ 102300Z AUTO 15005KT 2 1/2SM BR OVC003 01/00 A3010 RMK
 SLP204=

0000022900
623
FTBW31 VGEG 102300
TAF VGEG 102300Z 1100/1206 04004KT 1500 BR SCT012
        BECMG 1103/1105 34007KT 4000 HZ NSC
        BECMG 1110/1112 33003KT 3500 HZ NSC
        TEMPO 1100/1103 00000KT 0800 FG BKN006=

0000049100
624
FTCA31 TTPP 102200 RRA
TAF
TGPY 102230Z 1100/1124 09010KT 9999 SCT020 
      PROB40 TEMPO 1106/1110 6000 SHRA SCT017 
      BECMG 1110/1112 11014KT FEW020 
      BECMG 1122/1124 08008KT FEW018=
TAF
TBPB 102200Z 1100/1124 06018KT 9999 SCT018 
      TEMPO 1100/1112 8000 SHRA BKN014 BKN035=
TAF 
TNCC 102200Z 1100/1124 09011KT 9999 SCT018 
      TEMPO 1104/1112 BKN014=
TAF 
TNCA 102200Z 1100/1124 08013KT 9999 SCT018 
      TEMPO 1104/1112 BKN014=

0000008900
625
SAVG31 TVSV 102300
METAR TVSV 102300Z 08013KT 9999 SCT018 25/22 Q1015=

0000013400
626
FCLJ32 LJLJ 102300
TAF LJCE 102300Z 1100/1109 25003KT 0400 FG VV001 PROB40 TEMPO
1100/1109 3500 BR SCT015 BKN045=

0000035600
627
FCSQ41 LZIB 102300
TAF LZPP 110000Z NIL=
TAF LZSL 102300Z 1100/1109 26005KT 9999 SCT050
    TEMPO 1100/1107 VRB02KT 3000 BCFG SCT002
    BECMG 1107/1109 20004KT SCT015=
TAF LZZI 102300Z 1100/1109 VRB02KT 9999 BKN035
    TEMPO 1100/1108 4000 BR BKN003
    PROB40 TEMPO 1100/1106 1100 BCFG BKN001
    BECMG 1107/1109 23004KT=

0000057900
628
FTPR77 SPIM 102300
SPCL 102250Z 1100/1124 02009KT 9999 SCT020 SCT100
     TX31/1121Z TN22/1111Z
     TEMPO 1100/1103 8000 RA BKN020 BKN040TCU
     TEMPO 1105/1108 8000 RA BKN015 BKN070
     PROB30 TEMPO 1110/1113 00000KT 3000 BR OVC008=
TAF SPGM 102300Z NIL=
TAF SPJI 102300Z NIL=
TAF SPJR 102300Z NIL=
TAF SPLO 102300Z NIL=
TAF SPMS 102300Z NIL=
SPST 102230Z 1100/1124 35005KT 9999 SCT020 BKN080
     TX32/1120Z TN23/1111Z
     TEMPO 1100/1103 6000 RA BKN012 BKN070
     BECMG 1103/1105 VRB02KT
     TEMPO 1111/1113 2000 BR BKN010=

0000039600
629
FTLJ31 LJLJ 102300
TAF LJLJ 102300Z 1100/1124 28003KT 9999 SCT030 BKN050 TEMPO
1100/1109 7000 BKN015 OVC030 PROB40 TEMPO 1100/1108 3500 BCFG BR
SCT001 BECMG 1109/1112 25005KT SCT030 BKN200 TEMPO 1118/1124
3500 BCFG BR SCT001 PROB40 1121/1124 0500 FG VV002=
TAF LJMB 102300Z 1100/1124 03004KT 0500 FG VV002 TEMPO 1100/1111
3500 BR BKN017 BECMG 1111/1114 20005KT CAVOK=

0000009600
630
SPCN42 CWAO 102259
SPECI CYUA 102259Z AUTO 30022G30KT 1SM -SN CLR M24/ A2977=

0000009700
631
SPAU32 AMMC 102259
SPECI YMAV 102300Z AUTO 20007KT 9999 // OVC013 17/13 Q1020=

0000011600
632
SABZ24 SBPA 102300
METAR SBPA 102300Z 33008KT 9000 -TSRA FEW040
FEW050CB OVC100 23/21 Q1
013=

00000000