0000012200
253
SNRE15 FMEE 110400
AAXX 11044
61996 26/// /2616 10174 20098 30182 40217 51005
  333 60005 90710 91126=
0000066500
254
UDAS02 BABJ 110357
AMDAR 1103
DES CNFPQL 2605N 10334E 110351 F197 MS133 265/053 TB/ S//1=
DES CNFPQL 2603N 10332E 110351 F190 MS120 262/061 TB/ S//1=
DES CNFPQL 2559N 10328E 110352 F183 MS103 262/063 TB/ S//1=
DES CNFPQL 2555N 10324E 110353 F169 MS081 267/063 TB/ S//1=
ASC CNFLWM 2431N 11758E 110352 F227 MS128 256/070 TB/ S//1=
ASC CNFLWM 2429N 11755E 110353 F235 MS129 263/069 TB/ S//1=
LVR CNFLWM 2426N 11753E 110354 F236 MS135 264/069 TB/ S//1=
LVR CNFLWM 2424N 11750E 110354 F236 MS133 264/069 TB/ S//1=
ASC CNFPTK 4051N 11150E 110355 F031 MS103 210/002 TB/ S//1=
ASC CNFPTK 4051N 11149E 110355 F033 MS106 117/004 TB/ S//1=
0000042500
255
SATS32 DTTA 110400
METAR DTKA NIL=
METAR DTMB 110400Z 19006KT CAVOK 11/06 Q1018 NOSIG=
METAR DTNH 110400Z 20002KT CAVOK 06/05 Q1018=
METAR DTTA 110400Z 00000KT 4000 BR SCT010 08/07 Q1018 NOSIG=
METAR DTTF NIL=
METAR DTTG 110400Z 25003KT 8000 NSC 07/04 Q1020 NOSIG=
METAR DTTJ 110400Z 16005KT 7000 NSC 11/09 Q1019 NOSIG=
METAR DTTX NIL=
METAR DTTZ 110400Z 27005KT 9999 FEW030 09/04 Q1020 NOSIG=
0000024200
256
SATS41 DTTA 110400
METAR DTTB NIL=
METAR DTTD NIL=
METAR DTTG 110400Z 25003KT 8000 NSC 07/04 Q1020 NOSIG=
METAR DTTK 110400Z VRB03KT CAVOK 10/05 Q1018=
METAR DTTL NIL=
METAR DTTN 110400Z 00000KT 8000 NSC 04/04 Q1019=
0000009900
257
SATS40 DTTA 110400 RRA
METAR DTTA 110400Z 00000KT 4000 BR SCT010 08/07 Q1018 NOSIG=
0000020300
258
SATS42 DTTA 110400
METAR DTTB NIL=
METAR DTTD NIL=
METAR DTTK 110400Z VRB03KT CAVOK 10/05 Q1018=
METAR DTTL NIL=
METAR DTTN 110400Z 00000KT 8000 NSC 04/04 Q1019=
METAR DTTR NIL=
0000012600
259
SNGI21 EGRR 110400
AAXX 11044
08495 46457 /0304 10141 20130 30163 40169 51009
  333 87/13 85/59 555 7/098=
0000015100
260
SIST21 EGRR 110300 RRB
AAXX 11034
88900 45/// /0504 10035 20028 39935 49937 58003=
88903 42/// /0002 10014 20003 39935 49935 58006=
0000020000
261
SNST41 EGRR 110400
AAXX 11044
88878 46/// /2019 10048 20022 40038 52022 555 1//34=
88889 41576 72123 10033 21005 39952 40038 51025 72582 878//
 333 83822 87640 91030 90710 91135=
0000356700
262
SNUK41 EGRR 110400
AAXX 11044
03005 42475 72517 10050 20014 39882 49982 54000 878//
  333 55300 20000 81818 86631 90710 91127=
03017 474// /2913 10032 20018 39992 40024 52008 723//
  333 55300 20000 81/19 83/39 90710 91131=
03026 47680 /2810 10021 21004 30034 40053 53015 721//
  333 55300 20000 82/32=
03063 47971 /2105 10010 21017 39789 40071 53010 741//
  333 55300 20000 85/59=
03066 45984 /2212 10029 21006 30052 40058 53006
  333 55300 20000 86/61=
03075 45974 /2513 10017 21009 39989 40033 53001
  333 8//99=
03091 45981 /2612 10031 21027 39976 40056 50003
  333 55300 20000 86/63 83/69=
03100 47777 /3016 10044 20001 30068 40085 53015 723//
  333 55300 20000 82/56 90710 91128=
03111 46479 /2616 10051 20020 30089 40101 53012
  333 84/16 85/63=
03134 47785 /1903 10014 20011 30020 40094 50009 723//
  333 55300 20000 84/50 86/61=
03136 45980 /2509 10047 20018 30068 40101 53010
  333 55300 20000 87/63=
03162 45974 /0000 11015 21021 39812 40108 53008
  333 55300 20000 8//99=
03166 45985 /2412 10025 21002 30019 40090 53009
  333 55300 20000 8//99=
03171 42981 12508 10001 21012 30065 40077 52005 81030
  333 55300 20000 81360=
03204 42975 72806 10043 20017 30099 40119 53014 8703/
  333 55300 20000 87363=
03240 45982 /2612 10036 21003 30053 40082 50007
  333 55300 20000 81/61=
03257 45971 /2807 10045 20017 30059 40100 52014
  333 55300 20000 88/60=
03292 466// /3107 10056 20042 30067 40086 53010
  333 81/39 87/46=
03302 45966 /2905 10037 20022 30118 40132 53019
  333 55300 20000 83/64=
03354 47366 /2905 10061 20058 39962 40106 53008 723//
  333 55300 20000 81/06 86/29=
03377 41358 82608 10065 20058 30012 40097 53004 76166 885//
  333 55300 20000 81707 83620 88630=
03414 47580 /3208 10046 20034 30034 40123 53021 781//
  333 55300 20000 81/22 86/27=
03462 47372 /2713 10069 20062 30015 40105 55000 757//
  333 55300 20000 84/08 86/26=
03482 47471 /2012 10071 20063 30076 40102 56009 723//
  333 85/16 84/33=
03502 45582 /3012 10066 20024 39980 40144 53021
  333 55300 20000 81/23 87/27=
03535 47680 /2404 10063 20056 39993 40110 53010 723//
  333 553// 20000 81/39 87/50=
03590 47261 /2110 10067 20062 30004 40115 58011 761//
  333 55300 20000 84/05 85/36=
03649 41357 72507 10074 20066 30022 40123 53005 75865 875//
  333 55300 2//// 81706 84710 87624=
03680 46/// ///// 10072 20067 39962 40118 56007
  333 553// 20000=
03716 47982 /2908 10063 20049 30078 40138 53018 723//
  333 55300 20000 8//99=
03740 461// /2610 10064 20060 39955 40133 53011
  333 55300 2//// 83/02 86/30=
03746 47127 /2407 10073 20072 39979 40133 53003 752//
  333 87/02=
03772 45570 /2111 10083 20071 30094 40124 56009
  333 55300 20000 81/23 87/30=
03796 46/// /2111 10076 20063 39997 40140 56003=
03803 45984 /3311 10076 20027 30133 40171 53019
  333 8//99=
03808 45584 /3210 10072 20028 30056 40163 53017
  333 55300 20000 84/23=
03809 42680 13206 10041 20023 30070 40165 53020 81500
  333 81630=
03827 45781 /2907 10062 20037 30092 40155 52018
  333 81/50=
03840 45678 /2908 10049 20044 39837 40146 53012
  333 84/48=
03853 47680 /2607 10073 20063 30117 40141 53012 722//
  333 55300 20000 82/31 87/36=
03874 46/// /2316 10093 20080 30120 40131 56003=
03882 45361 /2207 10080 20066 30074 40137 58007
  333 55300 20000 85/09 85/56=
03894 42370 72311 10093 20079 40156 53002 875//
  333 82707 84709 86633=
03917 45462 /2207 10015 20013 30045 40124 53017
  333 55300 20000 83/16 86/56=
0000013800
263
FTIQ01 ORBI 110400
TAF ORMM 110400Z 1106/1206 13008KT 3000 -SHRA BR SCT040 BKN080
BECMG
1111/1113 30008KT 6000 SCT080=
0000014700
264
SAJD20 OJAI 110400
METAR OJAI 110400Z NIL=
METAR OJAM 110400Z 09004KT 3000 BR BKN040 07/05 Q1021 NOSIG=
METAR OJAQ 110400Z NIL=
0000014700
265
SAJD20 OJAM 110400
METAR OJAI 110400Z NIL=
METAR OJAM 110400Z 09004KT 3000 BR BKN040 07/05 Q1021 NOSIG=
METAR OJAQ 110400Z NIL=
0000013600
266
SABI20 HBBA 110400

METAR

HBBA 110400Z 34006KT 5000 BR FEW030 BKN300

           20/19 Q1014 NOSIG=
0000010500
267
SABI20 HBBA 110400
METAR
HBBA 110400Z 34006KT 5000 BR FEW030 BKN300  20/19 Q1014 NOSIG=
0000073000
268
UESD10 OEJD 110000 RRA
TTDD 6022/ 40375
11716 69972 22639 69772 33613 66373 44470 61780 55443
64979 66364 63380 77345 56982 88333 56382 99297 53983
11195 55582 22179 50984 33151 49984 44079 50784
21212 11855 29044 22773 28541 33754 27539 44726 26543
55654 29052 66639 29551 77581 29027 88566 28032 99553
29038 11514 29527 22493 29522 33476 26513 44466 24014
55451 23514 66436 27018 77421 29019 88399 27531 99340
31540 11316 34029 22283 34524 33261 33015 44244 34030
55233 32026 66216 31521 77203 31533 88193 33027 99176
32543 11168 31530 22160 33522 33147 32013 44141 32524
55136 31021 66128 33025 77121 31033 88104 32537 99095
28528 11093 28030 22086 28039 33079 30548
31313 48008 82219=
0000019800
269
ULSD10 OEJD 110000 RRA
TTCC 60221 40375
70839 69772 27548 50042 64378 29524 30360 54383 34032
20619 54982 31533 10071 51383 31032
88716 69972 26546
77999
31313 48008 82219=
0000149600
270
SNVD15 KWNB 110400 RRC
BBXX
42003 11041 99260 70856 46/// /1406 10257 40171 51005 90350 22200
00250 10702 20502 312// 40701 70010 333 91208 555 11067 22074
30348 41408 60349 141062 138061 138056 134057 130054 105047 81407
90348=
42055 11041 99222 70940 46/// /1505 10233 40142 53015 90350 22200
00228 10802 20501 306// 40802 70010 333 91206 555 11059 22064
30314 41507 60349 150054 149050 149049 143059 142057 143055 81406
90314=
42057 11041 99170 70815 46/// /1010 10268 20239 40154 51010 90350
22200 00275 10804 20804 70022 333 91212 555 11107 22113 30336
40913 60349 102101 087098 080091 082088 078084 076087 81011 90337=
41048 11041 99320 70695 46/// /1209 10204 20147 40285 58005 90350
22200 00213 10803 20602 311// 40802 70016 333 91210 555 11090
22096 30329 41211 60349 120086 123085 122084 121083 120082 118084
81210 90329=
41040 11041 99145 70530 46/// /0710 10249 20201 40155 58004 90350
22200 00262 11006 20804 306// 41004 70030 333 91213 555 11109
22115 30324 40714 60349 068102 056098 063111 070100 073101 074074
80712 90324=
44066 11041 99396 70726 46/// /1606 10121 20111 40250 58019 90350
22200 00111 10402 20401 316// 40901 70008 333 91207 555 11068
22075 60349 160062 159065 160067 161066 165062 164061=
42039 11041 99288 70860 46/// /1506 10215 20215 40173 54000 90350
22200 00211 10501 20501 3//// 40601 70006 333 91207 555 11065
22070 30336 41508 60349 151061 152064 153060 153063 153059 152063
81507 90337=
0000046700
271
SNVD17 KWNB 110400 RRD
BBXX
46078 11041 99560 71526 46/// /2306 10038 20008 49968 58007 90350
22200 00045 11005 20501 323// 41004 70023 333 91208 555 11062
22065 30303 42408 60349 235058 235058 235058 235061 239062 240058
82307 90349=
46066 11041 99528 71550 46/// /1907 10044 49991 58011 90350 22200
00054 11204 20602 325// 41204 70022 333 91209 555 11073 22077
30347 41909 60349 187070 189073 199068 195068 199068 200067 81908
90330=
0000359800
272
SNFR30 LFPW 110400
AAXX 11044
07005 24/42 /1706 10046 20040 30069 40161 57002 710//
  333 69905 90710 91112=
07015 22256 81908 10038 20032 30100 40158 56009 886//
  333 60005 88703 90710 91114 93100=
07020 26/// /2113 10098 20084 30131 40158 55000
  333 60005 90710 91159=
07027 24556 82401 10055 20049 30079 40162 56001 700//
  333 69905 90710 91106=
07037 24/02 91703 10048 20047 39981 40168 50002 745//
  333 60005 90710 91106=
07072 24758 83502 10022 20022 30053 40172 55006 761//
  333 69925 90710 91103=
07110 21330 71906 10076 20073 30048 40164 53007 71042 878//
  333 60005 81806 83620 87633 90710 91109 93100=
07117 26/// /2210 10087 20065 30088 40159 53004
  333 60005 90710 91116=
07130 24220 82202 10071 20070 30111 40164 53002 710//
  333 69905 90710 91104=
07149 21225 80000 10056 20050 30057 40168 55002 76066 885//
  333 60015 85704 88650 90710 91102 93100=
07168 24920 /3303 10023 20023 30017 40164 58006 710//
  333 60005 90710 91106=
07181 24757 81404 10029 20026 39756 40176 57008 758//
  333 69905 90710 91106=
07190 24958 72201 11003 21006 39997 40187 57009 700//
  333 60005 90710 91105=
07207 26/// /3607 10076 20070 30117 40170 53006
  333 60005 90710 91109=
07222 21110 73602 10064 20060 30130 40162 53009 7102/ 875//
  333 60005 82702 87613 90710 91104=
07240 21640 60903 10058 20051 30021 40159 55000 71022 82530
  333 60005 82643 85360 90710 91109 93100=
07255 24958 81301 10055 20043 39961 40165 53004 700//
  333 60005 90710 91106=
07280 24459 80000 10017 20011 39898 40180 57003 700//
  333 60005 90710 91102=
07299 22962 63401 10036 20018 39848 40183 58010 8605/
  333 60005 86362 90710 91110 93100=
07314 26/// /2104 10111 20102 30136 40164 53009
  333 60005 90710 91105=
07335 24907 71802 10057 20051 30016 40164 53009 744//
  333 60005 90710 91103=
07434 24461 72104 10061 20049 39691 40176 53008 700//
  333 60005 90710 91107=
07460 22962 81207 10052 20027 39770 40166 53004 8805/
  333 60005 88370 90710 91115 93100=
07471 24970 83204 10026 21003 39205 48793 53005 700//
  333 60005 90710 91107=
07481 22562 71306 10092 20061 39888 40177 58001 8453/
  333 60005 84621 86365 90710 91113 93100=
07510 24447 72504 10092 20091 30113 40172 51013 710//
  333 60005 90710 91106=
07535 24970 /1602 10057 20045 39868 40186 51013 700//
  333 60005 90710 91104=
07558 24/70 /1407 10064 20049 39350 40190 52007 700//
  333 60005 90710 91114=
07577 24/58 /1805 10090 20070 30112 40203 53002 700//
  333 60005 90710 91110=
07591 24/// /2502 10049 21013 39184 4//// 55000 700//
  333 60005 90710 91116=
07607 24556 82502 10096 20090 30108 40180 51011 700//
  333 60005 90710 91103=
07621 24350 82504 10087 20073 39751 40187 52011 700//
  333 60005 90710 91106=
07627 24469 80000 10026 20020 39696 40203 51021 700//
  333 60005 90710 91104=
07630 24460 71805 10081 20061 30005 40188 51022 700//
  333 60005 90710 91111=
07643 22660 80405 10108 20078 30187 40197 54001 885//
  333 60005 88640 90710 91108=
07650 24581 80708 10119 20072 30162 40201 51001 700//
  333 60005 90710 91110=
07661 26/// /0510 10111 20081 30042 40204 51001
  333 60005 90710 91114=
07690 22670 83308 10099 20051 30179 40211 58003 885//
  333 60005 88636 90710 91112 93100=
07747 24964 83204 10094 20080 30134 40188 53006 700//
  333 60005 90710 91106=
07761 24985 /0405 10062 20048 30189 40200 58006 700//
  333 60005 90710 91109=
07790 22570 82003 10116 20075 30195 40210 58003 885//
  333 60005 88830 90710 91107 93100=
00000000