0000010000
713
SNVD25 LFPW 110500
BBXX
BAREU12 11054 99405 70730 46/// ///// 40232 57028
22264=
0000010000
714
SNVD25 LFPW 110500
BBXX
BAREU00 11054 99492 70467 46/// ///// 40147 52012
22253=
0000011000
715
UANT99 KDDL 110458
ARP TFL364 4601N02525W 0458 F360 MS57 214/77 KT
PHOYI QXT IGW 110458 F79A
0000011000
716
UANT99 KDDL 110458
ARP DLH439 5602N02827W 0458 F350 MS58 224/63 KT
DAIKK QXT EUA 110458 J78A
0000011000
717
UANT99 KDDL 110458
ARP DLH413 4919N04400W 0458 F390 MS56 310/43 KT
DAIHN QXT AME 110459 J71A
0000011000
718
UANT99 KDDL 110459
ARP UAL50 5132N03243W 0458 F340 MS57 198/52 KT
N68061 DDL XXW 110459 F56A
0000039800
719
SWIO40 RJTD 110500
:PRS 1 #1 1758 1754 1749 1774 1752 1747 1760 1742 1766 1761 1749 1752
1771 1754 1759 1779 1758 1757 1759 1767 1763 1755 1776 1744 1760 1777
1764 1764 1771 1751 :RAD 1 #3 6148 6147 6150 6153 6153 6152 6153 6153
6153 6147 :ENC 5 #5 5128 5134 5137 5136 5135 5129 5121 5120 5117 5113
5102 5112 :SW1 60 #60 59 :SW2 30 #60 59 :BAT 14 #15 13.8 :NAME 
0650018E=
0000011000
720
UANT99 KDDL 110459
ARP KLM602 5546N03311W 0459 F350 MS57 221/42 KT
PHBFS QXT AOW 110459 F44A
0000008900
721
SAPK31 OPPS 110455
METAR OPPS 110500Z SW-04KT 4000 HZ SKC 12/M02 Q1023.2=
0000006100
722
AAUK99 EGRR 110500
Socket stay alive message.
0000016800
723
FCUK53 EGRR 110500
TAF EGQL 110403Z 1106/1115 25012KT 9999 FEW035=
TAF EGUB 110418Z 1106/1115 27009KT 9999 FEW020 PROB30 TEMPO
    1106/1115 SCT020=
0000013100
724
FCUK54 EGRR 110500
TAF EGXC 110446Z 1106/1115 28008KT 9999 FEW020 BKN035 PROB30 TEMPO
    1106/1108 -SHRA SCT015=
0000008200
725
FCUK55 EGRR 110500
TAF EGDX 110440Z 1106/1115 29010KT 9999 FEW020=
0000047300
726
FTUK51 EGRR 110500
TAF EGQS 110423Z 1106/1124 24012KT 9999 FEW040 PROB30 TEMPO
    1106/1116 26016G26KT SCT024CB=
TAF EGVN 110454Z 1106/1206 25005KT 9999 FEW030 PROB30 TEMPO
    1106/1109 SCT010 BECMG 1120/1123 6000 BR PROB30 1123/1206 2500
    MIFG=
TAF EGWU 110439Z 1106/1124 30008KT 9999 BKN022 TEMPO 1106/1107 4000
    -RADZ BKN010 BECMG 1107/1109 FEW022=
TAF EGXW 110447Z 1106/1124 30009KT 9999 BKN035 PROB30 TEMPO
    1106/1108 SCT010=
0000003800
727
FTUK52 EGRR 110500
NIL
0000304300
728
FAUK10 EGRR 110500
AIRMET AREA FORECAST, UK-SIG-WEATHER,
VALID JAN  11/0600Z TO  11/1200Z.

MET-SITUATION: AT 06Z, AN OCCLUDED FRONT LIES N5300
E00200, TO GREAT YARMOUTH, TO COLCHESTER, TO BRIGHTON, TO
MORLAIX MOVING SE AT 20KT NEAR EAST ANGLIA BUT AT 5KT IN
THE ENGLISH CHANNEL.

STRONG WIND WRNG: SCOTTISH REGION: WDSPR GUSTS 20KT SEA
COT, WITH FRQ MEAN 20KT GUSTS 30KT SEA COT MAINLY N AND
E. ISOL GUSTS 40KT SEA COT N.

NORTHERN REGION: ISOL MEAN 20KT WITH GUSTS 25KT SEA COT
NE FM 09Z.

SOUTHERN REGION: ISOL GUST 25KT SEA COT FAR E.

WINDS:

1000FT: 50N 00E    : 300/020KT PS07
        GATWICK    : 310/020KT PS04
        PLYMOUTH   : 340/020KT PS05
        DERBY      : 280/020KT PS03
        RONALDSWAY : 300/020KT PS03
        GLASGOW    : 270/020KT PS02
        KIRKWALL   : 290/025KT PS03

3000FT: 50N 00E    : 300/020KT PS03
        GATWICK    : 320/030KT PS01
        PLYMOUTH   : 330/020KT PS02
        DERBY      : 290/025KT MS02
        RONALDSWAY : 310/020KT MS02
        GLASGOW    : 290/030KT MS03
        KIRKWALL   : 290/025KT MS02

6000FT: 50N 00E    : 290/025KT MS02
        GATWICK    : 290/035KT MS04
        PLYMOUTH   : 290/015KT MS03
        DERBY      : 280/030KT MS08
        RONALDSWAY : 300/025KT MS09
        GLASGOW    : 290/030KT MS10
        KIRKWALL   : 290/025KT MS09

FREEZING LEVEL: SE OF FRONT: 4000FT.  ELSEWHERE: 1500-
2500FT.

WEATHER-CONDITIONS: 3 ZONES AT 06Z:

ZONE 1: SE OF A LINE FROM N5400 E00300 TO NORWICH TO
PORTSMOUTH TO N5000 W00500. THIS LINE MOVING SE AT 15KT
IN THE N, AND SE AT 5KT IN THE S.

GEN 15KM, WITH 1-3/8ST 1000FT/1500 AND 4-7/8CUSC
2500FT/7000 AND 7/8ACAS 9000FT/14000.
OCNL, 6KM IN RA, WITH 4-7/8ST 700FT/1500 AND 8/8SCAS
1500FT/16000.
ISOL, 3000M IN RADZ, WITH 7/8ST 500FT/1500 AND 8/8CUAC
1500FT/16000.

WRNG: HILL FG. MOD ICE AND MOD TURB IN CLD. OCNL MOD TURB
BLW 6000FT N OF N5100.


ZONE 2: NW OF ZONE 1, AND SE OF A LINE FROM DONEGAL TO
DERRY TO BLACKPOOL TO MANCHESTER TO CARLISLE TO STIRLING
TO INVERNESS TO WICK TO N5730 E00000. THIS LINE GEN SLOW-
MOVING, BUT MOVING N AT 10KT IN THE FAR W.

GEN 30KM, WITH 1-5/8CUSC 3000FT/7000.
ISOL N, MAINLY SEA COT, 7KM IN SHRA OR SHRAGS, WITH 7/8CB
2000FT/13000.
ISOL LAN TL 12Z, 3000M IN BR, WITH 0-4/8ST 500FT/1500.
ISOL LAN S OF N5500 TL 11Z, 200M IN FG OR FZFG, WITH
7/8ST SFC/500.

WRNG: HILL FG. MOD ICE AND MOD TURB IN CLD. SE ICE AND
SEV TURB IN CB. ISOL MOD TURB BLW 6000FT FAR N. SN MON
ABOVE 1500FT.


ZONE 3: REST OF REGION.

GEN 40KM, WITH 1-4/8CUSC 3000FT/8000.
OCNL, 5000M IN SHRA OR SHRAGS, WITH 5-7/8CUCB
2000FT/14000.
ISOL, 2000M IN HVY SHRASN OR TSGS, WITH 3/8ST 700FT/1500
AND 7/8CB 1500FT/18000.

WRNG: HILL FG. MOD ICE AND MOD TURB IN CLD. TS. SEV ICE
AND SEV TURB IN CB. ISOL MOD TURB BLW 6000FT. SN MON
ABOVE 800FT.


OUTLOOK: UNTIL JAN  11/2100Z:

ISOL BR FORMING LAN FROM 18Z.  ELSE SIMILAR.
0000065200
729
SAUK63 EGRR 110450
METAR EGDR 110450Z 33007KT 9999 FEW030 05/03 Q1016=
METAR EGQL 110450Z 26012KT 9999 FEW045 02/M01 Q1008=
METAR EGQM 110450Z AUTO 27012KT 9999 NCD 04/M00 Q1008=
METAR EGQS 110450Z 25012KT CAVOK 01/M01 Q1005=
METAR EGVN 110450Z 24003KT 9999 FEW030 07/05 Q1012 NOSIG=
METAR EGVO 110450Z 24011KT 5000 -RA SCT005 BKN015 08/07 Q1012=
METAR EGXC 110450Z 27011KT 9999 FEW010 SCT045 07/06 Q1010=
METAR EGXT 110450Z AUTO 26010KT 9999 FEW037/// BKN047/// 07/06 Q1010 RERA=
METAR EGXV 110450Z AUTO 31005KT 9999 FEW050/// BKN100/// 06/03 Q1009 RERA=
METAR EGXW 110450Z 28008KT 9999 -RA SCT010 BKN040 06/05 Q1010=
0000009300
730
SAPK31 OPKC 110500 RRB
METAR OPPS 110500Z SW-04KT 4000 HZ SKC 12/M02 Q1023.2=
0000012000
731
SAQT31 OTBD 110500
METAR OTBD 110500Z 11006KT 090V160 9999 -RA FEW020 SCT100 OVC120
18/15 Q1021 NOSIG=
0000040000
732
SABN31 OBBI 110500
METAR OBBI 110500Z 20007KT 9999 SCT020 16/14 Q1020  TEMPO 5000
SCT010=
METAR OEDF 110500Z 16010KT 9999 SCT040 BKN090 15/11 Q1019 NOSIG=
METAR OEDR 110500Z 24008KT 9999 BKN040 OVC080  15/12 Q1019 NOSIG=
METAR OTBD 110500Z 11006KT 090V160 9999 -RA FEW020 SCT100 OVC120
18/15 Q1021 NOSIG=
METAR OKBK 110500Z 23005KT 1500 BR FEW040 BKN080 12/11 Q1019 NOSIG=
00000000