0000010800
573
SPUS42 KWBC 102206
SPECI
KHOU 102202Z 19006KT 7SM -RA FEW015 BKN022 OVC030 19/18 A2982=

0000067600
574
SABZ41 KWBC 102200
METAR
SBAA NIL=
SBAF NIL=
SBAR 102200Z 11013KT 9999 SCT015 27/22 Q1012=
SBBG NIL=
SBBH NIL=
SBBI NIL=
SBBU NIL=
SBCJ NIL=
SBCO NIL=
SBCR 102200Z 02014KT 9999 SCT030 FEW035TCU 28/22 Q1007=
SBCT 102200Z 13006KT 9999 SCT030 FEW035TCU BKN060 25/22 Q1016=
SBCV NIL=
SBCY 102200Z 29008KT 7000 TSRA SCT020 FEW025CB 27/21 Q1008
     RERA=
SBCZ 102200Z 35007KT 9999 -RA SCT018 BKN025 26/25 Q1007=
SBDN NIL=
SBFL 102200Z 36008KT 9999 FEW030 27/24 Q1010=
SBFN 102200Z 11012KT 9999 FEW015 25/19 Q1013=
SBGO 102200Z 25003KT 9999 TS VCSH FEW030 FEW035CB 27/16 Q1013=
SBGW NIL=
SBHT NIL=
SBIH NIL=
SBIL NIL=

0000087100
575
SABZ42 KWBC 102200
METAR
SBJR NIL=
SBLO 102200Z 03005KT 9999 FEW040 31/16 Q1012=
SBMA 102200Z 03001KT 9999 FEW020TCU 26/23 Q1009=
SBME NIL=
SBMN 102200Z 10007KT 3000 RA BKN025 FEW030TCU BKN100 23/22 Q100
     9=
SBMO 102200Z 11008KT 9999 SCT020 SCT080 26/22 Q1013=
SBMQ 102200Z 04004KT 9999 FEW017 SCT100 27/23 Q1009=
SBMT NIL=
SBPC NIL=
SBPK 102200Z 30004KT CAVOK 22/20 Q1009=
SBPP NIL=
SBPV 102200Z 35003KT 9999 BKN025 FEW030TCU 29/24 Q1006=
SBRB 102200Z 22001KT 9999 FEW020 ///// Q1007=
SBRJ 102200Z 18010KT 9999 FEW035TCU 28/23 Q1010=
SBSC NIL=
SBSJ NIL=
SBSM NIL=
SBSP 102200Z VRB04KT 6000 NSC 25/21 Q1016 RETS=
SBST NIL=
SBTE 102200Z 11005KT 9999 -TSRA BKN030 FEW040CB BKN070 27/22 Q1
     009=
SBTU NIL=
SBUG NIL=
SBUR NIL=
SBVH NIL=
SBVT 102200Z 06007KT 9999 FEW015 27/23 Q1014=
SBYS NIL=

0000060600
576
SABZ43 KWBC 102200
METAR
SBAN NIL=
SBAT NIL=
SBBA NIL=
SBBQ NIL=
SBBW NIL=
SBCC NIL=
SBER NIL=
SBES NIL=
SBGA NIL=
SBIZ NIL=
SBJF NIL=
SBJP 102200Z 13008KT 9999 FEW025 26/21 Q1012=
SBKG NIL=
SBLB NIL=
SBLP NIL=
SBMK NIL=
SBMS NIL=
SBMZ NIL=
SBPB 102200Z 07009KT 9999 FEW020 28/24 Q1009=
SBPJ NIL=
SBPL 102200Z 00000KT 9999 FEW025 26/19 Q1011=
SBPN NIL=
SBQV NIL=
SBRP 102200Z 21003KT 9999 -TSRA SCT040 FEW045CB BKN080 24/20 Q
     1013 RERA=
SBTF 102200Z 06003KT 9999 FEW018 27/24 Q1008=
SBTK NIL=
SBUF NIL=
SBUI NIL=
SBUL NIL=

0000066500
577
SACA31 KWBC 102200
METAR
MBJT NIL=
MBPV NIL=
MBSC NIL=
MKJP 102200Z 14021KT 9999 FEW022 29/21 Q1013=
MKJS NIL=
MUCM 102150Z 07016KT 9999 FEW020 26/18 Q1017=
MUCU 102151Z 12018KT 9999 FEW020 27/19 Q1015=
MUHA 102155Z 17006KT 140V210 9000 FEW040 28/19 Q1016=
MUVR 102150Z 04009KT 9000 FEW020 27/21 Q1017=
MWCB 102200Z 11008KT 9999 FEW016 28/23 Q1015=
MWCR 102200Z 11008KT 080V140 9999 FEW018 28/24 Q1015 NOSIG=
MYAM NIL=
MYAT NIL=
MYBS NIL=
MYEC NIL=
MYEG NIL=
MYEH NIL=
MYEM NIL=
MYGF 102200Z 14007KT 9999 SCT015 BKN220 25/22 A3009=
MYGW NIL=
MYNN 102200Z 13006KT 9999 FEW018TCU SCT040 BKN080 25/22 A3009=

0000093600
578
SAAK32 KWBC 102200
METAR
PABA 102201Z AUTO 27022KT -SN M26/M28 A2986=
PABI 102153Z 27003KT 4SM -SN SCT041 SCT060 OVC090 M17/M20
     A2950=
PACZ 102155Z AUTO 19008G17KT 010V250 10SM SCT015 M05/M08 A2944=
PADK 102156Z AUTO 21016KT 10SM FEW034 SCT039 BKN070 04/00
     A2894=
PADL NIL=
PADQ 102153Z 00000KT 10SM SCT040 01/M04 A2946=
PAEH 102155Z AUTO 12018KT 9SM -SHRA FEW002 BKN017 BKN095 00/00
     A2936=
PAFB 102155Z 00000KT 13SM FEW080 M24/M27 A2959=
PAGA 102158Z AUTO 00000KT 2 1/2SM HZ CLR M24/M27 A2970=
PAIM 102155Z AUTO VRB04KT 10SM CLR M20/M25 A2959=
PALU 102155Z AUTO 11006KT 10SM OVC010 M19/M20 A3003=
PASV 102155Z AUTO 11001KT 10SM -SHSN OVC018 M13/M13 A2940=
PASY 102156Z AUTO 01027G35KT 4SM -SN BR BKN009 OVC015 00/00
     A2880=
PATC 102155Z AUTO 03023KT 1/2SM -SHSN FZFG VV002 M18/M20 A2976=
PATL 102155Z AUTO 09003KT 10SM BKN015 BKN120 M16/M18 A2954=
PBTI NIL=

0000059600
579
SACA33 KWBC 102200
METAR
TBPB 102200Z 06017KT 9999 FEW018 BKN036 25/21 Q1013 NOSIG=
TDPD 102200Z 09011KT 9999 BKN017 26/20 Q1016=
TDPR NIL=
TFFF 102200Z AUTO 08013KT 050V110 7000 -RA FEW023/// BKN028///
     BKN038/// ///TCU 24/21 Q1014=
TFFG NIL=
TFFJ NIL=
TFFR NIL=
TGPY 102200Z 10007KT 9999 SCT018 25/22 Q1013 NOSIG=
TGPZ NIL=
TLPC 102200Z 10006KT 9999 BKN023 25/22 Q1014 NOSIG=
TLPL NIL=
TNCA NIL=
TNCB NIL=
TNCC NIL=
TNCE NIL=
TNCM NIL=
TTCP NIL=
TTPP NIL=
TVSM NIL=
TVSU NIL=
TVSV 102200Z 07011KT 9999 -SHRA BKN016 25/22 Q1014=

0000097400
580
SACA35 KWBC 102200
METAR
MGGI NIL=
MGPB 102200Z 03008KT 9999 FEW018TCU 27/23 Q1012 A2988 TCU S=
MGSJ 102200Z 23010KT 9000 FEW020 30/22 Q1010 A2983 FU=
MHLC 102200Z 34002KT 9999 SCT020 BKN070 25/22 Q1012 A2991
     NOSIG=
MHLM 102200Z 02011KT 9999 SCT030 28/23 Q1012 A2989NOSIG=
MHTG 102200Z 08006KT 9999 SCT030 25/14 Q1016 A3000 NOSIG=
MNPC 102200Z 09008KT 7000 BKN016 28/24 Q1010 HZ 79/=
MNPC 102200Z 09008KT 7000 BKN016 28/24 Q1010 HZ 79%=
MPBO NIL=
MPCH NIL=
MPDA NIL=
MPMG NIL=
MPSA NIL=
MPTO 102200Z 03004KT 9999 FEW020 31/19 Q1007 NOSIG=
MRLB 102200Z 07013KT CAVOK 32/17 A2975=
MRLM NIL=
MROC 102200Z 09007G17KT 9999 FEW030 27/11 A2993 NOSIG=
MRPV 102200Z 07018KT 9999 FEW045 24/13 A2995 NOSIG=
MSLP 102150Z 22007KT CAVOK 30/18 Q1009 A2979=
MSSS 102150Z 18005KT CAVOK 31/16 Q1012 A2990=
MSSS 102150Z 18005K CAVOK 31/16 Q1012 A2990=
MZBZ 102200Z 06008KT 9999 FEW022 BKN045 26/22 A2992 Q1013
     NOSIG=

0000059100
581
SACA41 KWBC 102200
METAR
MKBK NIL=
MUBA NIL=
MUBY NIL=
MUCA NIL=
MUCL 102153Z 12010KT 060V180 9999 FEW020 27/22 Q1016=
MUCM 102150Z 07016KT 9999 FEW020 26/18 Q1017=
MUCU 102151Z 12018KT 9999 FEW020 27/19 Q1015=
MUGM 102156Z 10012KT 9999 FEW030 28/21 A3001 RMK SLP161
     T02780206=
MUGT NIL=
MUHA 102155Z 17006KT 140V210 9000 FEW040 28/19 Q1016=
MUMO NIL=
MUMZ NIL=
MUNG NIL=
MUVR 102150Z 04009KT 9000 FEW020 27/21 Q1017=
MUVT NIL=
MYEF NIL=
MYSM NIL=
TABS NIL=
TAOA NIL=
TBBI NIL=
TDCF 102200Z 25003KT 9999 FEW019 26/16 Q1013=

0000024100
582
SAHA31 KWBC 102200
METAR
KQHA NIL=
MTCA NIL=
MTCH NIL=
MTEG NIL=
MTJA NIL=
MTJE NIL=
MTPP 2200Z 08010KT 9999 FEW027 31 Q1014/7 A2996=
MTPP 2200Z 08010KT 9999 FEW027 31 Q1014.7 A2996=
MTPX NIL=
MTTP NIL=

0000085700
583
SAJP31 KWBC 102200
METAR
RJAA 102200Z 32003KT 9999 FEW025 SCT080 M04/M08 Q1024 NOSIG RMK
     1CU025 3AC080 A3025=
RJAA 102200Z 32003KT 9999 FEW025 SCT080 M04/M08 Q1024 NOSIG=
RJAH 102200Z 02005KT 9999 FEW020 M06/M10 Q1023=
RJCC 102200Z 21009KT 8000 -SHSN FEW015 SCT030 BKN050 M09/M12
     Q1018=
RJCH 102200Z 30005KT 1200 R12/P1800N -SHSN FEW005 BKN009 BKN015
     M07/M08 Q1019=
RJFK 102200Z VRB01KT 9999 FEW030 SCT045 BKN060 M01/M06 Q1029=
RJFT 102200Z 04003KT 310V090 9999 FEW030 BKN060 00/M04 Q1030=
RJFU 102200Z 13007KT 9999 FEW030 BKN040 BKN050 04/00 Q1030=
RJNN NIL=
RJOO 102200Z 01006KT 9999 FEW025 M00/M06 Q1029=
RJSS 102200Z 23006KT 9999 FEW030 M02/M08 Q1023=
RJTT 102200Z 02008KT 9999 FEW030 02/M04 Q1024 NOSIG=
RODN 102158Z AUTO 06007KT 10SM OVC075 10/07 A3034 RMK AO2 SLP283
     T00970070=

0000037600
584
SAJP41 KWBC 102200
METAR
RJAF NIL=
RJAI NIL=
RJAK NIL=
RJAM NIL=
RJAO NIL=
RJAT NIL=
RJAW NIL=
RJBD NIL=
RJCA NIL=
RJCB NIL=
RJCJ NIL=
RJCK 102200Z 24006KT 9999 PRFG FEW001 M11/M19 Q1015=
RJCM NIL=
RJCN NIL=
RJCO NIL=
RJCR NIL=
RJCT NIL=
RJCW NIL=
RJDB NIL=
RJDC 102200Z 36004KT 9999 -SHRA FEW030 BKN040 03/M01 Q1030=

0000054600
585
SAJP42 KWBC 102200
METAR
RJDK NIL=
RJDM NIL=
RJDO NIL=
RJDT NIL=
RJEB NIL=
RJEC 102200Z 16005KT 3000 -SHSN FEW007 BKN020 BKN030 M11/M13
     Q1014=
RJEO NIL=
RJER NIL=
RJFA NIL=
RJFC NIL=
RJFE NIL=
RJFG NIL=
RJFM 102200Z 31008KT 9999 FEW030 00/M05 Q1030=
RJFN NIL=
RJFO 102200Z 26005KT 9999 VCSH FEW035 SCT045 BKN060 02/M04
     Q1030=
RJFR 102200Z 24009KT 9999 FEW025 BKN050 05/M02 Q1030=
RJFY NIL=
RJFZ NIL=
RJKA 102200Z 36006KT 9999 -RA FEW035 SCT045 BKN060 12/04 Q1029=
RJKB NIL=

0000069000
586
SAJP43 KWBC 102200
METAR
RJKI NIL=
RJKN NIL=
RJNF NIL=
RJNG NIL=
RJNH NIL=
RJNO NIL=
RJNT 102200Z 17005KT 120V190 8000 -SHSN FEW003 SCT020 BKN040
     M00/M01 Q1026=
RJNY NIL=
RJOA 102200Z 33004KT 9999 FEW025 SCT040 BKN060 M01/M05 Q1028=
RJOB 102200Z 28005KT 9999 FEW015 BKN050 M00/M05 Q1028=
RJOC 102200Z 27010KT 9999 -SHRA FEW030 BKN040 04/M02 Q1028=
RJOE NIL=
RJOF NIL=
RJOI 102155Z 29006KT 9999 FEW030 BKN070 01/M02 A3040 RMK SLP293
     T00111022=
RJOK 102200Z 33006KT 9999 FEW040 M02/M03 Q1029=
RJOM 102200Z VRB05KT 9999 FEW025 02/M03 Q1030=
RJOP NIL=
RJOR 102200Z 22010KT 9999 -SHSN FEW015 SCT020 BKN040 02/M02
     Q1028=

0000037500
587
SAJP44 KWBC 102200
METAR
RJOS NIL=
RJOT 102200Z 23006KT 9999 FEW020 SCT050 BKN070 01/M04 Q1028=
RJOY NIL=
RJOZ NIL=
RJSA 102200Z 25014KT 4000 -SHSN FEW005 BKN015 BKN025 M06/M08
     Q1020=
RJSC NIL=
RJSD NIL=
RJSH NIL=
RJSI NIL=
RJSO NIL=
RJST NIL=
RJSU NIL=
RJTA NIL=
RJTC NIL=
RJTE NIL=
RJTF NIL=
RJTH NIL=
RJTI NIL=

0000022300
588
SAJP45 KWBC 102200
METAR
RJTJ NIL=
RJTK NIL=
RJTL NIL=
RJTO NIL=
RJTQ NIL=
RJTR NIL=
RJTU NIL=
RJTX NIL=
RJTY 102158Z AUTO 30001KT 10SM CLR M03/M08 A3028 RMK AO2 SLP267
     T10291078=

0000113800
589
SASA31 KWBC 102200
METAR
SEGU 102200Z 28004KT 9999 VCSH BKN020 OVC090 28/22 Q1007 RMK A2974
     NOSIG=
SEQU NIL=
SKBO NIL=
SKBQ NIL=
SKCG NIL=
SKCL NIL=
SKLT NIL=
SKRG NIL=
SKSP NIL=
SMNI NIL=
SMZO 102200Z 36004KT 9999 FEW015 SCT025 27/22 Q1010 NOSIG=
SMZY NIL=
SOCA 102200Z AUTO 14005KT 110V180 9999 FEW009 BKN015 OVC029 24/22
     Q1010=
SPIM 102200Z 17015KT CAVOK 23/19 Q1010 NOSIG RMK PP000=
SPQT 102200Z 35006KT 9999 SCT040 28/23 Q1006 NOSIG RMK PP000=
SPQU 102200Z 26008KT 9999 BKN017 SCT100 14/10 Q1023 NOSIG RMK
     TMAX.20.5 PP000=
SPSO 102200Z /////KT 9999 BKN080 SCT230 25/20 Q1009 RMK T/MAX 27.9
     BIRD HAZARD RWY 22/04 PP000=
SPTN 102200Z 21010KT CAVOK 24/16 Q1009 RMK T.MAX 28.7 PP000=
SPYL 102200Z NIL=
SPZO 102200Z 36008KT 310V070 9999 FEW036 SCT060 BKN100 15/05 Q1025
     NOSIG RMK TMAX 15.5 PP000=
SVBC NIL=
SVMC 102200Z /////KT 9999 FEW016 SCT080 29/22 Q1011=
SVMG 102200Z /////KT 9999 SCT010 27/22 Q1012 NOSIG=
SVMI 102200Z 07004KT 9999 SCT016 27/21 Q1013 NOSIG=
SYCJ 102200Z 02008KT 9999 SCT018 SCT300 26/23 Q1010 NOSIG=
SYTM NIL=

0000022800
590
SASA41 KWBC 102200
METAR
SEMT 102200Z 20009KT 9999 OVC020 27/22 Q1008=
SEPA NIL=
SKBG NIL=
SKMD NIL=
SKPE NIL=
SKSM NIL=
SKVG NIL=
SMJP 102200Z 09008KT 9999 -RA FEW020 BKN030 25/23 Q1010 NOSIG=

0000029500
591
SASA42 KWBC 102200
METAR
SCAC NIL=
SCHA NIL=
SCSE 102200Z 30009KT CAVOK 19/14 Q1012=
SCTC NIL=
SCTI NIL=
SCVD NIL=
SELT 102200Z 04009KT 9999 -RA BKN030 BKN100 13/11 Q1025=
SUAG NIL=
SUDU 102200Z 02010KT 9999 FEW016 BKN080 24/18 Q1008=
SUPU NIL=
SUTB NIL=

0000041700
592
SAVN42 KWBC 102200
METAR
SVPC 102200Z 10010KT 9999 SCT030 XX/XX Q////=
SVPM 102200Z NIL=
SVPR NIL=
SVSA 102200Z /////KT 9999 FEW020 29/18 Q1012=
SVSE NIL=
SVSO 102200Z NIL=
SVSP 102200Z 06016KT 9999 FEW035 XX/XX Q1012=
SVSR 102200Z /////KT CAVOK 30/XX Q1010=
SVST NIL=
SVSZ 102200Z NIL=
SVTM NIL=
SVVA 102200Z 09007KT 9999 FEW016 30/17 Q1012=
SVVL 102200Z NIL=
SVVP NIL=

00000000