0000133300
513
FTUS80 KWBC 102333 RRB
TAF
KHKS 102331Z 1100/1124 16010KT P6SM BKN017 OVC045
     FM110300 15012KT 4SM -SHRA BR OVC009
     FM110600 18015KT 1SM TSRA BR OVC004CB
     FM111000 26009KT 4SM -DZ BR OVC007
     FM111400 29010KT P6SM SCT020
     FM111600 27013G20KT P6SM SKC=
KHUT 102330Z 1100/1124 32010KT P6SM FEW035
      TEMPO 1101/1105 BKN025
     FM110500 30008KT P6SM SCT025
     FM110600 30007KT P6SM SCT250
     FM111600 31012G20KT P6SM SKC=
KHYR 102331Z 1100/1124 19005KT 4SM -FZDZ BR OVC004
      TEMPO 1100/1104 1SM -FZDZSN BR OVC003
     FM110400 20005KT 2SM -SN BR OVC003
     FM111600 26004KT 3SM BR OVC009=
KICT 102330Z 1100/1124 30010KT P6SM FEW150
     FM110200 30008KT P6SM SCT025 OVC040
     FM110700 30007KT P6SM SCT250
     FM111700 31012G20KT P6SM SKC=
KINL 102331Z 1100/1124 19006KT 2SM BR OVC004
     FM110300 18006KT 1SM -SN BR OVC004
     FM111000 27004KT 3SM BR OVC003
     FM111300 29008KT P6SM OVC006=
KJAN 102331Z 1100/1124 16010KT P6SM SCT015 BKN045
     FM110300 15012KT 4SM -SHRA BR BKN015 OVC040
     FM110600 18015KT 1SM TSRA BR OVC004CB
     FM111000 26009KT 4SM -DZ BR OVC007
     FM111400 29010KT P6SM SCT020
     FM111600 27013G20KT P6SM SKC=
KLAW 102331Z 1100/1124 29006KT P6SM SCT120
     FM111800 30011KT P6SM SKC=

0000144800
514
FTUS80 KWBC 102333 RRC
TAF
KMCW 102332Z 1100/1124 14003KT 1SM BR VV003
     FM110200 22005KT 2SM -SN BR BKN005 OVC008
     FM110500 25006KT 6SM BR SCT004 OVC009
     FM110800 28011KT P6SM SCT011 OVC024
     FM111100 30013KT P6SM BKN035 OVC080
     FM111600 30016G24KT P6SM OVC100=
KMEI 102331Z 1100/1124 14005KT P6SM OVC006
     FM110200 17009KT P6SM BKN015 OVC045
     FM110500 17011KT 4SM -SHRA BR OVC009
     FM110800 18014KT 1SM TSRA BR OVC003CB
     FM111100 25009KT 4SM -DZ BR OVC007
     FM111500 29011KT P6SM SCT250
     FM111700 29014G21KT P6SM SKC=
KMIA 102332Z 1100/1124 12008KT P6SM SCT020 BKN200
     FM111500 16013G19KT P6SM SCT025 BKN250
     FM111900 19013G19KT P6SM SCT035 BKN050=
KOKC 102331Z 1100/1124 28009KT P6SM FEW120
     FM111800 30013KT P6SM SKC=
KPBI 102332Z 1100/1124 13010KT P6SM SCT020 BKN200
     FM111500 16014G21KT P6SM SCT025 BKN250
     FM111900 19013G19KT P6SM SCT035 BKN050=
KPNC 102331Z 1100/1124 27008KT P6SM SCT120=
KRSL 102330Z 1100/1124 31012KT P6SM SCT025 OVC040
      TEMPO 1100/1102 5SM -RASN SCT015 BKN025
     FM110200 29008KT P6SM SCT025 BKN100
     FM110400 29007KT P6SM SCT250
     FM111500 31015G22KT P6SM SKC=
KSAT 102331Z 1100/1206 24007KT P6SM BKN200
     FM110300 24006KT P6SM SCT250
     FM110800 32005KT P6SM SKC
     FM111500 35007KT P6SM SKC
     FM120000 07005KT P6SM SKC
     FM120300 13003KT P6SM SKC=

0000142300
515
FTUS80 KWBC 102333 RRD
TAF
KSLN 102330Z 1100/1124 29011KT P6SM SCT025 OVC035
      TEMPO 1100/1104 5SM -RASN BKN025
     FM110400 30008KT P6SM SCT025 BKN100
     FM110500 30007KT P6SM SCT250
     FM111600 31015G22KT P6SM SKC=
KSPS 102331Z 1100/1124 33015KT P6SM FEW150
     FM110100 29008KT P6SM SCT120=
KSSF 102331Z 1100/1124 24006KT P6SM BKN200
     FM110900 32004KT P6SM SKC
     FM111600 35006KT P6SM SKC
     FM112100 03005KT P6SM SKC=
KTMB 102332Z 1100/1124 12006KT P6SM SCT020 BKN200
     FM111500 16013G19KT P6SM SCT025 BKN250
     FM111900 19013G19KT P6SM SCT035 BKN050=
PAAQ 102331Z 1100/1124 36004KT P6SM VCFG OVC030
     FM111900 02004KT P6SM BKN040 OVC060=
PACV 102331Z 1100/1124 05005KT P6SM -SHSN SCT020 BKN035
      TEMPO 1100/1104 2SM -SHSN BR BKN015
     FM111200 VRB03KT P6SM VCSH BKN035=
PADQ 102331Z 1100/1124 27006KT P6SM SCT040 BKN100
     FM110900 18005KT 6SM -SN BKN025
     FM111700 11011KT 5SM -SN OVC012
     FM112100 09015KT 2SM -RASN BKN005 OVC012=
PAEN 102331Z 1100/1124 VRB03KT P6SM OVC006
      TEMPO 1100/1104 2SM BR SCT006 OVC015
     FM110400 00000KT 1/2SM FZFG BKN003
      TEMPO 1104/1108 4SM BR OVC015
     FM111800 04008KT P6SM BKN015
     FM112100 03008KT P6SM BKN035=
PAGK 102331Z 1100/1124 00000KT 3SM -SHSN BR OVC050
     FM110600 00000KT 2SM BR BKN012 OVC035
     FM112000 00000KT 6SM BR BKN025=

0000069600
516
FTUS80 KWBC 102333 RRE
TAF
PAHO 102331Z 1100/1124 VRB03KT P6SM SCT040 BKN080
     FM110600 VRB03KT P6SM BKN010
     FM112000 05005KT P6SM SCT010 BKN200=
TAF PAKN 102327Z 1100/1124 02006KT P6SM SCT035 BKN100
      TEMPO 1100/1102 BKN025
     FM111400 04008KT P6SM OVC060
     FM112300 06012KT 6SM -SN OVC035=
PANC 102331Z 1100/1206 VRB02KT 6SM -SN BR BKN005 OVC015
      TEMPO 1100/1104 SCT005 OVC015
     FM111200 VRB03KT 1SM BR BKN005 OVC012
     FM112200 VRB03KT P6SM BKN040=
PATK 102331Z 1100/1124 VRB03KT P6SM BKN015
     FM111900 35002KT P6SM SCT025 BKN060=
PAVD 102331Z 1100/1124 00000KT P6SM SCT050 BKN080 AMD LTD TO CLD
      VIS AND WIND=

0000011700
517
SPUS42 KWBC 102333
SPECI
KGLS 102329Z 16015KT 1 1/4SM -RA BR FEW002 BKN007 OVC016 17/17
A2984=

0000010000
518
SPUS42 KWBC 102333
SPECI
KSAV 102329Z 14007KT 4SM BR SCT004 OVC014 18/17 A3012=

0000025200
519
SAFR21 LFPW 102330
METAR LFOA 102330Z AUTO 11006KT 9999 NSC 06/04 Q1015=
METAR LFPC 102330Z AUTO VRB03KT 0350 R25/1500D FG VV/// 04/03 Q1017=
METAR LFPV 102330Z AUTO 12003KT 1000 0900 R27/1700U R09/1500U BCFG
VV/// 05/05 Q1016=

0000046700
520
SAFR22 LFPW 102330
METAR LFBC 102330Z AUTO 18002KT 1900 BR OVC013 07/07 Q1015=
METAR LFBG 102330Z AUTO 10002KT 3900 BR NSC 08/07 Q1015=
METAR LFBM 102330Z AUTO 30003KT 0150 R27/1100D FG VV/// 05/05 Q1016=
METAR LFKS 102330Z AUTO 27003KT 240V310 9999 OVC028 12/08 Q1021=
METAR LFMO 102330Z AUTO 00000KT 5000 BR OVC026 08/07 Q1020=
METAR LFMY 102330Z AUTO VRB03KT 9999 OVC026 11/08 Q1020=
METAR LFBY 102330Z NIL=
METAR LFMC 102330Z NIL=

0000011000
521
SANT31 KWBC 102300 RRB
METAR
BIKF 102330Z 26015KT 9999 FEW037 SCT055 BKN065 02/M04 Q0992=

0000032600
522
SARO31 LROM 102330
METAR LRBS 102330Z 31002KT 8000 NSC 02/01 Q1019 NOSIG=
METAR LRCK 102330Z 26006KT 1500 BR NSC 02/01 Q1018 NOSIG=
METAR LROP 102330Z 28004KT 250V340 5000 BR NSC 01/00 Q1018 8819//95
NOSIG=
METAR LRSB 102330Z NIL=
METAR LRTR 102330Z AUTO 11003KT R11/0325N FG OVC000 M01/M02 Q1022=

0000036900
523
SAFR23 LFPW 102330
METAR LFOC 102330Z AUTO 05005KT 0350 R28///// FG OVC002 06/05 Q1016=
METAR LFOE 102330Z AUTO VRB03KT 3200 BR OVC003 05/05 Q1016=
METAR LFOJ 102330Z AUTO 05005KT 3200 BR NSC 05/05 Q1015=
METAR LFRJ 102330Z AUTO 20006KT 5000 BR NSC 07/06 Q1015=
METAR LFRL 102330Z AUTO 18005KT 0500 R23/1600D R05/1300D // VV///
08/07 Q1015=

0000025900
524
SAFR24 LFPW 102330
METAR LFSI 102330Z AUTO 09005KT 9999 NSC 02/02 Q1017=
METAR LFSO 102330Z AUTO 14005KT 9999 NSC 02/01 Q1017=
METAR LFSX 102330Z AUTO 06005KT 8000 NSC 02/01 Q1018=
METAR LFYR 102330Z AUTO VRB02KT 9999 NSC 05/04 Q1015=

0000004100
525
SARO32 LROM 102330
NIL

0000004100
526
SARO33 LROM 102330
NIL

0000053700
527
SAFR31 LFPW 102330
METAR LFLL 102330Z 16006KT 3000 BR NSC 06/05 Q1017 NOSIG=
METAR LFMN 102330Z 33010KT 9999 OVC025 10/06 Q1021 NOSIG=
METAR LFPG 102330Z 11003KT 090V150 0400 R27L/0900D R09R/////
R26R///// R08L/1200U R26L///// R08R/1300U R27R/0900U R09L/1600D FG
VV/// 05/04 Q1017 NOSIG=
METAR LFPO 102330Z VRB03KT 6000 OVC003 06/05 Q1017 NOSIG=
METAR LFRB 102330Z 18006KT 4500 BR FEW006 BKN051 07/07 Q1015 NOSIG=
METAR LFRS 102330Z VRB03KT 9999 FEW046 BKN065 09/08 Q1015 NOSIG=
METAR LFQQ 102330Z NIL=

0000075900
528
SAFR32 LFPW 102330
METAR LFBD 102330Z AUTO 19002KT 5000 0550 R23///// R05/1000D
R29///// BCFG NSC 07/06 Q1015=
METAR LFBH 102330Z AUTO 00000KT 9999 NSC 09/07 Q1015=
METAR LFBI 102330Z AUTO VRB03KT 9999 NSC 08/06 Q1014=
METAR LFBL 102330Z AUTO 00000KT 9999 NSC 09/05 Q1014=
METAR LFBO 102330Z AUTO 14009KT 9999 SCT015 OVC190 09/07 Q1016=
METAR LFBP 102330Z AUTO 24005KT 4200 BR OVC004 08/08 Q1016=
METAR LFBT 102330Z AUTO 26009KT 9999 NSC 11/05 Q1016=
METAR LFBZ 102330Z AUTO 28010KT 9999 BKN016 BKN023 12/09 Q1016=
METAR LFLB 102330Z AUTO 00000KT 0500 R18/1500D FG NSC 02/01 Q1018=
METAR LFLX 102330Z AUTO 07004KT 7000 NSC 07/06 Q1014=
METAR LFML 102330Z AUTO 00000KT 9999 OVC026 12/08 Q1020=
METAR LFCK 102330Z NIL=

0000009100
529
SAKO31 RKSI 102330
METAR RKSI 102330Z 17003KT CAVOK M04/M06 Q1033 NOSIG=

0000046500
530
SAFR33 LFPW 102330
METAR LFKB 102330Z AUTO 00000KT 9999 OVC028 12/09 Q1021=
METAR LFKF 102330Z AUTO 07007KT 040V100 9999 BKN027/// OVC250///
12/09 Q1020=
METAR LFKJ 102330Z AUTO 06005KT 9999 NCD 06/05 Q1019=
METAR LFMP 102330Z AUTO 31003KT 6000 FEW020 OVC190 09/07 Q1018=
METAR LFMV 102330Z AUTO 00000KT 8000 OVC025 09/07 Q1020=
METAR LFSL 102330Z AUTO 00000KT 9999 NSC 04/04 Q1015=
METAR LFKC 102330Z NIL=
METAR LFLC 102330Z NIL=

0000099200
531
SAFR34 LFPW 102330
METAR LFCR 102330Z AUTO 12010KT 9999 NSC 07/03 Q1016=
METAR LFJL 102330Z AUTO 00000KT 5000 BR NSC 02/01 Q1018=
METAR LFLP 102330Z AUTO 00000KT 8000 NSC 03/02 Q1018=
METAR LFLS 102330Z AUTO 00000KT 4200 BR OVC011 04/04 Q1018=
METAR LFLY 102330Z AUTO 00000KT 2700 BR OVC013 05/04 Q1017=
METAR LFMT 102330Z AUTO 07006KT 9999 OVC032 11/08 Q1019=
METAR LFMU 102330Z AUTO 10005KT 9999 OVC033 12/08 Q1019=
METAR LFOB 102330Z AUTO 17004KT 7000 OVC006 05/04 Q1017=
METAR LFOH 102330Z AUTO 12007KT 7000 SCT003 BKN050 OVC084 05/04
Q1015=
METAR LFOK 102330Z AUTO 09007KT 0300 0150 R10/1100U R28/0600U FG
VV/// 01/01 Q1017=
METAR LFOP 102330Z AUTO 15006KT 2700 BR OVC002 05/04 Q1016=
METAR LFPB 102330Z AUTO 10003KT 6000 OVC004 06/05 Q1017=
METAR LFQA 102330Z AUTO 16002KT 0150 FG VV/// 02/02 Q1017=
METAR LFQB 102330Z AUTO VRB02KT 0650 FZFG NSC M00/M00 Q1017=
METAR LFSN 102330Z AUTO 00000KT 0100 R03/0400N FZFG VV/// M01/M01
Q1018=

0000096100
532
SAFR35 LFPW 102330
METAR LFMI 102330Z AUTO 12002KT 9999 BKN026 OVC031 11/08 Q1020=
METAR LFMK 102330Z AUTO 10012KT 9999 FEW013 OVC025 10/08 Q1017=
METAR LFOV 102330Z AUTO VRB01KT 1800 BR FEW003/// BKN037///
OVC066/// ///TCU 06/06 Q1016=
METAR LFRD 102330Z AUTO 14003KT 0300 R35/0900U FG VV/// 07/06 Q1015=
METAR LFRI 102330Z AUTO 18002KT 9999 -RA NSC 08/07 Q1015=
METAR LFRM 102330Z AUTO VRB02KT 4500 -RA BR BKN005 BKN088 BKN100
07/06 Q1016=
METAR LFRN 102330Z AUTO 08003KT 1600 -RA BR OVC002 07/07 Q1016=
METAR LFRO 102330Z AUTO 16004KT 3500 BR NSC 06/06 Q1015=
METAR LFRV 102330Z AUTO 01005KT 1900 RA BR BKN002/// OVC014///
///TCU 07/07 Q1015=
METAR LFRZ 102330Z AUTO 08003KT 3700 BR BKN031 OVC050 08/08 Q1015=
METAR LFSB 102330Z AUTO 19004KT 9999 NSC 02/01 Q1019=
METAR LFST 102330Z AUTO 35001KT 6000 0450 R23/1300U R05///// BCFG
FEW002 00/M00 Q1019=
METAR LFTH 102330Z AUTO VRB02KT 9999 OVC028 12/08 Q1020=

00000000