0000021100
793
SABU31 LBSM 101930
METAR LBSF 101930Z VRB02MPS 2800 BR NSC M01/M01 Q1021 NOSIG=
METAR LBWN 101930Z 27005MPS CAVOK 09/04 Q1016 NOSIG=
METAR LBBG 101930Z 24005MPS 6000 NSC 05/04 Q1017 NOSIG=

0000008900
794
SAHU31 LHBM 101930
METAR LHBP 101930Z VRB03KT CAVOK 04/01 Q1021 NOSIG=

0000019400
795
FTFR38 LFPW 101700 AAB
TAF AMD LFRD 101930Z 1019/1118 18005KT 1200 BR OVC002 TEMPO 1019/1108
 0400 FG VV/// BECMG 1109/1111 9999 NSW BKN003 BECMG 1112/1115
05006KT BKN015=

0000010200
796
SAPF20 NTAA 101930
METAR NTAA 101930Z 26003KT 9999 FEW020 SCT110 30/23 Q1013 NOSIG=

0000010200
797
SAGQ21 FGSL 101930
METAR FGSL 101930Z 23005KT 6000 FEW012 BKN130 25/23 Q1011 NOSIG=

0000011900
798
SASR31 WSSS 101930
METAR WSSS 101930Z 33003KT 290V020 9999 FEW018 SCT150 BKN300 24/23
Q1010 NOSIG=

0000015700
799
SSVX13 LFPW 111000
ZZYY 41972 11014 1000/ 734563 040340 6113/ 11119 40247 52019 22219
 00195 444 20130 11014 0959/ 50101 80120 80100 9/015=
0000011800
800
SNVF25 LFPW 111000
BBXX
BATFR52 11104 99505 70008 46/// /3112 10077 20035 40211 53053
22244 04094=
0000011800
801
SNVF25 LFPW 111000
BBXX
BATFR12 11104 99486 70065 46/// /0612 10099 20032 40209 51019
22200 04149=
0000011800
802
SNVF25 LFPW 111000
BBXX
BATFR62 11104 99497 70007 46/// /3415 10095 20045 40204 53033
22221 04124=
0000010000
803
SIRA23 RUNW 110900 RRC
AAXX 11091
20667 42998 03405 11292 21319 30167 40175 53016=
0000016000
804
SSVX13 LFVW 111001
ZZYY 17572 11014 1000/ 537896 171831 6110/
11119 40161 52008
22219 00206
444 20100 11014 0856/ 50101 80110 80000 9/015=
0000018400
805
SSVX13 LFPW 111000
ZZYY 41736 11014 1000/ 711990 040308 6113/ 11119 40153 52015 22219
 00256 33300 88872 20000 43602 444 20130 11014 0958/ 50101 80112
 80021 9/015=
0000015700
806
SSVX13 LFPW 111000
ZZYY 16592 11014 1000/ 346213 066524 6113/ 11119 40151 57006 22219
 00060 444 20130 11014 0959/ 50101 80118 80016 9/015=
0000015700
807
SSVX13 LFPW 111000
ZZYY 44745 11014 1000/ 745757 050363 6113/ 11119 40245 54000 22219
 00015 444 20130 11014 1000/ 50101 80150 80000 9/015=
0000010600
808
SNVF25 LFPW 111000
BBXX
BATEU08 11104 99642 70219 46/// /2905 29072 40004 51030
22241=
0000011200
809
SNVF25 LFPW 111000
BBXX
BATFR21 11104 99426 10089 46/// ///// 10144 20099 40219 53010
22221=
0000009500
810
SNAA21 ENMI 111000
AAXX 11101
89504 43/// /0307 11035 21136 38461 49922 52010=
0000010900
811
UANT01 CWAO 111002
ARP BAW6B 5709N06029W 1002 F370 MS60 292/67 KT
GCIVS QXS YHO 111002 F31A
0000011100
812
UANT01 CWAO 111002
ARP UAL123 5406N02305W 1002 F340 MS64 220/86 KT
N58101 DDL IG1 111002 F38A
00000000