0000009300
593
SPCN42 CWAO 110320
SPECI CYUA 110320Z AUTO 29023KT 3SM -SN CLR M24/ A2975=

0000010600
594
SAUS71 KWBC 110300 RRF
METAR
KMTN 110318Z AUTO 00000KT 2 1/2SM DZ OVC003 03/03 A3023=

0000015300
595
SAUS72 KWBC 110300 RRE
METAR
KBQK 110315Z AUTO 16005KT 2SM OVC003 18/17 A3011=
KLRU 110315Z AUTO 27016G20KT 10SM CLR 09/M09 A3005=

0000027100
596
SAUS73 KWBC 110300 RRE
METAR
KALN 110315Z AUTO 19009KT 10SM 06/05 A2960=
KGYY 110315Z AUTO 18008KT 10SM BKN014 OVC019 06/05 A2959=
KIKK 110315Z AUTO 17015G21KT 10SM -DZ OVC006 04/04 A2960=
KSAW 110316Z AUTO 14003KT 2SM -SN OVC009 M02/M02 A2954=

0000009800
597
SAUS74 KWBC 110300 RRD
METAR
KIWA 110315Z AUTO 09006KT 10SM CLR 08/M01 A3012=

0000028500
598
SAUS75 KWBC 110300 RRB
METAR
PADK 110316Z AUTO 21022G37KT 4SM FEW020 BKN028 OVC039 03/M01
     A2879=
PAGS 110316Z AUTO 11007KT 10SM BKN037 OVC046 02/01 A2936=
PAUN 110316Z AUTO 09012KT 10SM CLR M16/M22 A2957=
PAVD 110316Z 10SM FEW025 BKN150 M07/M09 A2931=

0000059600
599
FTUS51 KWBC 110321 AAA
TAF AMD
KJHW 110319Z 1103/1124 17009KT P6SM FEW003
     FM110700 16015KT 4SM -RA BR OVC007 WS020/20045KT
     FM111300 18015KT 2SM -RA BR OVC007 WS020/20055KT
     FM111800 21015KT 4SM -RA BKN015 BKN040 WS020/22045KT AMD LTD
      TO CLD VIS AND WIND=
KPOU 110317Z 1103/1124 VRB03KT P6SM BKN008 OVC015
      TEMPO 1103/1107 3SM -RA BR SCT008 OVC015
     FM110700 16005KT 4SM -RA BR BKN008 OVC015
      TEMPO 1107/1109 1SM -FZRA BR OVC010
     FM110900 16008KT 3SM -RA BR OVC010
     FM111600 18010KT 3SM -RA BR OVC010 WS020/19040KT=

0000032600
600
FTUS52 KWBC 110321 AAA
TAF AMD
KCSG 110317Z 1103/1124 09005KT 2SM -RADZ BR OVC002
     FM110900 15006KT 3SM -SHRA BR OVC004
     FM111500 22010G17KT 4SM -SHRA BR OVC007
     FM111800 25011G18KT 5SM -SHRA BR BKN025 PROB30 1118/1121 2SM
      TSRA BR BKN010CB
     FM112100 28012G20KT P6SM BKN050=

0000027000
601
FTUS53 KWBC 110321 AAA
TAF AMD
KEVV 110320Z 1103/1124 23006KT 5SM -RA BR SCT008 OVC015
      TEMPO 1103/1105 3SM RA BR OVC025
     FM110500 16010KT 4SM -RA BR SCT008 OVC012
     FM110900 23009KT P6SM BKN015
     FM111900 25012KT P6SM SCT025=

0000149100
602
FTUS80 KWBC 110321 AAA
TAF AMD
KART 110319Z 1103/1124 15008KT P6SM SKC
     FM110900 15011KT P6SM OVC015 WS020/19040KT
     FM111100 16015KT 3SM -RA BR OVC015 WS020/19045KT
     FM111500 17018G25KT 1SM -RA BR OVC003 WS020/20045KT
     FM111900 21017KT 1SM RA BR OVC008 WS020/20045KT=
KBOS 110320Z 1103/1206 21005KT 2SM BR OVC007
     FM111000 17006KT 3/4SM -RA BR OVC005
     FM111400 18011G25KT 1/2SM -RA FG OVC003 WS020/19050KT
     FM112000 19022G40KT 1SM -RA OVC005 WS020/20060KT
     FM120400 20018G32KT 3/4SM RA BR OVC003=
KBUF 110319Z 1103/1124 14005KT P6SM FEW050 SCT110 OVC190
     FM110800 17014G23KT 5SM -RA BR OVC020 WS020/20045KT
     FM111300 19015KT 3SM -RA BR OVC015
     FM112000 21015KT 5SM -RA BR BKN035 OVC050=
KCSG 110317Z 1103/1124 09005KT 2SM -RADZ BR OVC002
     FM110900 15006KT 3SM -SHRA BR OVC004
     FM111500 22010G17KT 4SM -SHRA BR OVC007
     FM111800 25011G18KT 5SM -SHRA BR BKN025 PROB30 1118/1121 2SM
      TSRA BR BKN010CB
     FM112100 28012G20KT P6SM BKN050=
KEVV 110320Z 1103/1124 23006KT 5SM -RA BR SCT008 OVC015
      TEMPO 1103/1105 3SM RA BR OVC025
     FM110500 16010KT 4SM -RA BR SCT008 OVC012
     FM110900 23009KT P6SM BKN015
     FM111900 25012KT P6SM SCT025=
KHBG 110320Z 1103/1124 18008KT 3SM -SHRA BR OVC003
     FM110900 18012KT 1/2SM +TSRA FG OVC003CB
     FM111100 25009KT 4SM -DZ BR OVC006
     FM111500 30010KT P6SM SCT250
     FM111800 30013G20KT P6SM SKC=

0000124300
603
FTUS80 KWBC 110321 AAB
TAF AMD
KIAG 110319Z 1103/1124 12003KT P6SM OVC160
     FM110800 16012G20KT 5SM -RA BR OVC015 WS020/20040KT
     FM111300 19014KT 3SM -RA BR OVC007
     FM112000 21015KT 5SM -RA BR BKN035 OVC050=
KJHW 110319Z 1103/1124 17009KT P6SM FEW003
     FM110700 16015KT 4SM -RA BR OVC007 WS020/20045KT
     FM111300 18015KT 2SM -RA BR OVC007 WS020/20055KT
     FM111800 21015KT 4SM -RA BKN015 BKN040 WS020/22045KT AMD LTD
      TO CLD VIS AND WIND=
KLCH 110320Z 1103/1124 19012G18KT P6SM OVC005
      TEMPO 1103/1105 4SM -SHRA BR OVC003
     FM110500 20010KT P6SM VCSH OVC003
     FM110900 27008KT 1SM BR OVC001
     FM111400 34008KT P6SM SCT005=
KPOU 110317Z 1103/1124 VRB03KT P6SM BKN008 OVC015
      TEMPO 1103/1107 3SM -RA BR SCT008 OVC015
     FM110700 16005KT 4SM -RA BR BKN008 OVC015
      TEMPO 1107/1109 1SM -FZRA BR OVC010
     FM110900 16008KT 3SM -RA BR OVC010
     FM111600 18010KT 3SM -RA BR OVC010 WS020/19040KT=
KROC 110319Z 1103/1124 16007KT P6SM BKN130
     FM110600 16010KT P6SM OVC015 WS020/19040KT
     FM110900 16012KT 3SM -RA OVC007 WS020/20045KT
     FM111400 19014G21KT 2SM -RA BR OVC003
     FM111900 22015KT 5SM -RA BR BKN035 OVC050=

0000010600
604
SPUS31 KWBC 110321
SPECI
KMSY 110317Z 16007KT 1/8SM -RA BR SCT002 OVC006 18/18 A2992=

0000009800
605
SPUS41 KWBC 110321
SPECI
KBVY 110317Z AUTO 19003KT 5SM BR OVC009 02/01 A3031=

0000011300
606
SPUS41 KWBC 110321
SPECI
KDOV 110316Z AUTO 07004KT 1 1/2SM R01/2800FT BR SCT055 04/04 A3020=

0000014200
607
SAAK31 KWBC 110300 RRA
METAR
PAVD 110316Z 10SM FEW025 BKN150 M07/M09 A2931=
PAWG 110316Z 13007KT 10SM CLR 02/M01 A2939=

0000012400
608
SAAK32 KWBC 110300 RRA
METAR
PADK 110316Z AUTO 21022G37KT 4SM FEW020 BKN028 OVC039 03/M01
     A2879=

0000012200
609
SAEU31 BKPR 110330
BKPR 110330Z 00000KT 0200 R17/0200 FZFG BKN002 M01/M02 Q1023 NOSIG
 RMK 17010095 =

0000012700
610
SALT31 EYVI 110320
METAR EYVI 110320Z 29012KT 7000 -SNRA BKN013 OVC023 01/M01 Q1002
     R20/2/0295 NOSIG=

0000103600
611
SAFR34 LFPW 110200
METAR LFCR 110200Z AUTO 11008KT 9999 NSC 07/04 Q1016=
METAR LFJL 110200Z AUTO 07003KT 040V100 4500 BR NSC M00/M01 Q1017=
METAR LFLP 110200Z AUTO 00000KT 5000 BR NSC 03/02 Q1018=
METAR LFLS 110200Z AUTO VRB02KT 9999 OVC014 07/06 Q1018=
METAR LFLY 110200Z AUTO 00000KT 3200 BR NSC 06/05 Q1017=
METAR LFMT 110200Z AUTO 04005KT 8000 BKN033 OVC039 11/08 Q1019=
METAR LFMU 110200Z AUTO 04007KT 9999 FEW025 OVC041 11/08 Q1019=
METAR LFOB 110200Z AUTO 13004KT 2500 BR OVC002 05/04 Q1016=
METAR LFOH 110200Z AUTO 15005KT 6000 -RA FEW029/// OVC052///
///TCU 06/04 Q1015=
METAR LFOK 110200Z AUTO 04004KT 3400 BR VV/// 00/00 Q1016=
METAR LFOP 110200Z AUTO 17006KT 0600 R22/1800D FG VV/// 05/05 Q1016=
METAR LFPB 110200Z AUTO 09004KT 2700 DZ BR BKN004 OVC066 06/05
Q1016=
METAR LFQA 110200Z AUTO 00000KT 3900 BR FEW003 BKN074 OVC094 01/01
Q1017=
METAR LFQB 110200Z AUTO 17001KT 4600 BR NSC 03/03 Q1016=
METAR LFSN 110200Z AUTO 00000KT 0100 R03/0450N FZFG VV/// M00/M00
Q1017=

0000092700
612
SAFR35 LFPW 110200
METAR LFMI 110200Z AUTO 09004KT 9999 OVC027 11/08 Q1020=
METAR LFMK 110200Z AUTO 09010KT 9999 BKN013 BKN030 BKN180 10/08
Q1017=
METAR LFOV 110200Z AUTO 03004KT 2000 BR BKN036 06/06 Q1015=
METAR LFRD 110200Z AUTO 18003KT 0400 R35/1100D FG VV/// 07/06 Q1015=
METAR LFRI 110200Z AUTO 00000KT 6000 NSC 08/07 Q1015=
METAR LFRM 110200Z AUTO 05003KT 4600 BR ///TCU 07/06 Q1015=
METAR LFRN 110200Z AUTO 36003KT 3200 -RADZ BR FEW004 BKN009 BKN030
07/07 Q1015=
METAR LFRO 110200Z AUTO 18005KT 9999 SCT048 OVC058 07/06 Q1015=
METAR LFRV 110200Z AUTO 33003KT 1900 BR BKN002 OVC037 07/07 Q1015=
METAR LFRZ 110200Z AUTO 29004KT 220V320 6000 FEW007 BKN016 OVC024
08/08 Q1015=
METAR LFSB 110200Z AUTO 15007KT 9999 NSC 03/02 Q1017=
METAR LFST 110200Z AUTO 00000KT 1500 0550 R23/1200N R05/1200U BCFG
NSC M00/M00 Q1018=
METAR LFTH 110200Z AUTO VRB01KT 9999 OVC031 11/08 Q1020=

00000000