0000025100
113
FTMX52 MMMX 101904 COR
TAF COR MMMM 101904Z 1018/1124 22010KT P6SM BKN025 TX24/1021Z
TN03/1113Z
         FM110200 00000KT P6SM BKN025 
         FM111000 00000KT 4SM HZ BR SCT020 
         FM111600 12008KT P6SM SCT025 BKN200=

0000009600
114
SPAU32 YBBN 101903
SPECI YMHB 101900Z 16004KT 9999 SCT009 BKN016 16/14 Q1014=

0000044700
115
SAKO31 RKSI 101900
METAR RKSI 101900Z 03005KT 9999 FEW030 M02/M05 Q1031 NOSIG=
METAR RKSS 101900Z 15005KT 4500 BR FEW030 M07/M11 Q1031 NOSIG =
METAR RKPC 101900Z 33008KT 9999 BKN030 05/M05 Q1032 NOSIG =
METAR RKPK NIL= 
METAR RKTU 101900Z 05002KT 4000 BR BKN040 M08/M09 Q1032 NOSIG =
METAR RKTN NIL= 
METAR RKJB 101900Z AUTO 05008KT 3000 NCD M01/M04 Q1033 =
METAR RKNY 101900Z AUTO 27014KT 3000 NCD M02/M11 Q1028 =

0000014900
116
SAMX41 MMMX 101903
METAR MMIT 101900Z 36010KT 7SM SKC 30/18 A2991 RMK FU NW=
METAR MMTB 101845Z 00000KT 7SM SKC 28/18 A2988 RMK=

0000012700
117
SAIE31 EIDB 101900 RRA
METAR EINN 101900Z 30001KT 9999 -SHRA FEW009 SCT019CB BKN035 05/04
 Q1011
 NOSIG=

0000009500
118
SAUK37 EGGY 101850 RRA
METAR EGPI 101850Z AUTO 32010KT 9999 NCD 04/02 Q1006=

0000012200
119
SAUK38 EGGY 101850 RRA
METAR EGPU 101850Z AUTO 29012KT 9999 -PL FEW007/// SCT013/// 03/01
     Q1006=

0000009400
120
SPAU32 YBBN 101903
SPECI YAMB 101900Z AUTO /////KT 4300 // NCD 17/16 Q1018=

0000009500
121
SAAF13 LFPW 101900
METAR GLRB 101900Z 20003KT 9999 SCT016 28/25 Q1009 NOSIG=

0000014700
122
SAAF17 LFPW 101900
METAR HLLB 101847Z
00000KT 9999 SCT020 BKN080 15/10 Q1025 =
METAR HLLT 101850Z 10004KT CAVOK 14/07 Q1024=

0000016300
123
SAAF18 LFPW 101900
METAR FIMP 101900Z 11004KT 9999 SCT017 SCT250 27/24 Q1017=
METAR FMMI 101900Z 31002KT 9999 FEW017 BKN230 19/19 Q1021 NOSIG=

0000010300
124
SAAF27 LFPW 101900
METAR FGSL 101900Z 21005KT 6000 FEW013 25/24 Q1011 TEMPO 4000 HZ=

0000059600
125
SASP31 LEMM 101900
METAR LEMD 101900Z 35003KT CAVOK 09/05 Q1015 NOSIG=
METAR LEBL 101900Z 34004KT 310V020 5000 BR FEW013 09/06 Q1018
NOSIG=
METAR LEPA 101900Z 05005KT CAVOK 12/11 Q1017 NOSIG=
METAR LEZL 101900Z 36005KT CAVOK 13/09 Q1013 NOSIG=
METAR LEMG 101900Z 00000KT 9999 FEW020 12/10 Q1015 NOSIG=
METAR LEVC 101900Z VRB01KT 7000 OVC018 11/08 Q1018 NOSIG=
METAR LEAL 101900Z 06008KT 9000 FEW010 14/11 Q1017 NOSIG=
METAR LEIB 101900Z 00000KT 9999 SCT015 BKN020 14/11 Q1017 NOSIG=
METAR LEVX 101900Z VRB02KT 6000 SCT013 FEW015TCU BKN035 10/09
Q1016 NOSIG=

0000073800
126
SASP32 LEMM 101900
METAR LEAS 101900Z 28007KT 4500 -DZ FEW005 SCT007 BKN015 10/10
Q1016 TEMPO BKN007=
METAR LEBB 101900Z 30004KT CAVOK 09/07 Q1015 NOSIG=
METAR LECO 101900Z VRB01KT 9999 FEW024 09/07 Q1017=
METAR LEGE 101900Z 00000KT 8000 BKN017 09/07 Q1018=
METAR LEST 101900Z VRB01KT 9999 FEW008 08/07 Q1016 NOSIG=
METAR LEZG 101900Z VRB01KT 2500 BR BKN002 BKN004 06/06 Q1017=
METAR LESO 101900Z VRB02KT CAVOK 09/08 Q1014=
METAR LEVT 101900Z 24006KT 8000 NSC 06/04 Q1015=
METAR LERS 101900Z VRB01KT 8000 BKN021 10/07 Q1018=
METAR LEMH 101900Z 10004KT 9999 FEW011 11/10 Q1017=
METAR LEAM 101900Z 01004KT 330V040 9999 FEW020 SCT080 15/09 Q1015=
METAR LEGR 101900Z VRB01KT 9999 FEW100 12/05 Q1014=

0000017900
127
SASP33 LEMM 101900
METAR LEVD 101900Z 04003KT CAVOK 03/03 Q1014=
METAR LEVS 101900Z 00000KT CAVOK 11/01 Q1015=
METAR LESA 101900Z VRB01KT CAVOK 05/03 Q1015=

0000037600
128
SACR31 LEMM 101900
METAR GCLP 101900Z 36009KT 9999 FEW028 18/11 Q1014 NOSIG=
METAR GCXO 101900Z 31017KT 9000 NSC 13/08 Q1015 NOSIG=
METAR GCTS 101900Z 00000KT 9999 FEW030 19/11 Q1014 NOSIG=
METAR GCRR 101900Z 03005KT 9999 FEW021 16/12 Q1014=
METAR GCFV 101900Z 05010KT 9999 FEW020 17/13 Q1013=
METAR GCLA 101900Z 33005KT 290V010 CAVOK 20/06 Q1014=

0000008800
129
SASP39 LEMM 101900
METAR LETL 101900Z AUTO 10006KT CAVOK 05/01 Q1016=

0000025200
130
SASP34 LEMM 101900
METAR LEDA 101900Z NIL=
METAR LEJR 101900Z 00000KT CAVOK 13/11 Q1013=
METAR LELL 101900Z NIL=
METAR LEPP 101900Z 12003KT CAVOK 07/05 Q1016=
METAR LEXJ 101900Z 25004KT 220V320 9999 SCT012 BKN023 12/10 Q1016=

0000031400
131
SASP35 LEMM 101900
METAR LEAB 101900Z 17006KT 140V200 9999 FEW014 08/06 Q1016 NOSIG=
METAR LEBZ 101900Z 31002KT CAVOK 12/10 Q1014=
METAR LELC 101900Z 03010KT 9000 OVC016 14/11 Q1017 NOSIG=
METAR LELN 101900Z 00000KT CAVOK 00/M01 Q1015=
METAR LETO 101900Z 04002KT CAVOK 10/05 Q1015 NOSIG=

0000004200
132
SACR32 LEMM 101900
NIL=

00000000