0000011300
633
SACN61 CYTL 110200
METAR CYTL 110200Z AUTO 12005KT 9SM -SN OVC014 M08/M09 A2950 RMK
 SLP008=

0000012300
634
SACN61 CYXS 110200
METAR CYXS 110200Z AUTO 16006KT 9SM BKN130 OVC150 M04/M05 A2959 RMK
 PRESFR SLP053=

0000011000
635
SAGC31 MWCR 110200
METAR MWCR 110200Z 10004KT 9999 SKC 26/23 Q1016 NOSIG=
METAR MWCB NIL=

0000078500
636
FTUS52 KWBC 110151 AAA
TAF AMD
KFMN 110149Z 1102/1124 32011KT P6SM SCT250
     FM111000 10005KT P6SM FEW250
     FM112000 25007KT P6SM SCT200=
KGGG 110149Z 1102/1124 19012KT P6SM SCT008 OVC015
      TEMPO 1102/1105 OVC006
     FM110500 23008KT P6SM SCT025 BKN050
     FM110800 26006KT P6SM SKC
     FM111700 30012G18KT P6SM SKC=
KGUP 110150Z 1102/1124 22007KT P6SM BKN250
     FM111000 VRB05KT P6SM SCT250
     FM111800 22007KT P6SM SCT200=
KLFK 110148Z 1102/1124 19010KT P6SM SCT010 OVC020
      TEMPO 1102/1104 OVC008
     FM110500 23007KT P6SM SCT040
     FM110800 28005KT P6SM SKC
     FM111700 31010KT P6SM SKC=
KSAF 110150Z 1102/1124 31009KT P6SM FEW250
     FM110900 35012KT P6SM SCT250
     FM111900 27009KT P6SM SCT250=

0000147800
637
FTUS80 KWBC 110151 AAA
TAF AMD
KBAF 110149Z 1102/1124 00000KT 4SM BR OVC015
     FM110600 00000KT 1SM -FZRA BR OVC010
     FM111200 14004KT 1/2SM -RA FG OVC008
     FM111600 18011G22KT 1/2SM RA FG OVC003 WS020/19050KT=
KBDL 110149Z 1102/1206 VRB03KT 3SM BR OVC015
     FM110600 00000KT 1SM -RA BR OVC010
     FM111200 17006KT 1/2SM -RA FG OVC008
     FM111600 18010G25KT 1/2SM -RA FG OVC003 WS020/19050KT
     FM120300 20009KT 3/4SM -RA BR OVC008
     FM120500 24008KT 5SM BR SCT008 OVC080=
KFMN 110149Z 1102/1124 32011KT P6SM SCT250
     FM111000 10005KT P6SM FEW250
     FM112000 25007KT P6SM SCT200=
KGGG 110149Z 1102/1124 19012KT P6SM SCT008 OVC015
      TEMPO 1102/1105 OVC006
     FM110500 23008KT P6SM SCT025 BKN050
     FM110800 26006KT P6SM SKC
     FM111700 30012G18KT P6SM SKC=
KGUP 110150Z 1102/1124 22007KT P6SM BKN250
     FM111000 VRB05KT P6SM SCT250
     FM111800 22007KT P6SM SCT200=
KLFK 110148Z 1102/1124 19010KT P6SM SCT010 OVC020
      TEMPO 1102/1104 OVC008
     FM110500 23007KT P6SM SCT040
     FM110800 28005KT P6SM SKC
     FM111700 31010KT P6SM SKC=
KORH 110150Z 1102/1124 22005KT 1/4SM FG OVC002
     FM110700 19008KT 1/2SM -RA FG OVC002
     FM111400 18011G25KT 1/2SM -RA FG OVC001 WS020/19050KT
     FM112000 19018G33KT 1/2SM -RA OVC003 WS020/20055KT=
KSAF 110150Z 1102/1124 31009KT P6SM FEW250
     FM110900 35012KT P6SM SCT250
     FM111900 27009KT P6SM SCT250=

0000188900
638
SPUS70 KWBC 110152
SPECI
PAMB 110148Z AUTO 05009KT 1 1/2SM -SN BR OVC008 M04/M04 A2939 RMK
     AO2 TSNO UPB41E48SNB48 P0000 $=
KAND 110148Z AUTO 06004KT 2SM BR OVC004 08/08 A3012 RMK AO2=
KBIV 110148Z AUTO 16012G21KT 5SM -RA BR SCT009 SCT013 OVC046 04/04
     A2965 RMK AO2 PRESFR P0007=
KBLI 110148Z 12009KT 8SM -RA BKN022 BKN030 OVC036 08/06 A2980 RMK
     AO2 P0004=
KBRL 110148Z AUTO 24008KT 1/2SM -RA FG OVC002 04/03 A2953 RMK AO2
     RAB45 P0000=
KGLS 110148Z AUTO 19010KT 5SM BR BKN003 OVC046 18/18 A2986 RMK
     AO2=
KJEF 110148Z 17005KT 10SM BKN012 BKN028 08/06 A2957 RMK AO2=
KLBT 110148Z AUTO 14006KT 1 3/4SM -RA BR BKN007 OVC014 17/17 A3012
     RMK AO2 LTG DSNT W RAE37B43 P0003=
KMEB 110148Z AUTO 35005KT 1 1/4SM TSRA BR OVC005 14/14 A3014 RMK
     AO2 TSB42 P0027=
KMKE 110148Z 20005KT 5SM -RA BR OVC004 02/02 A2956 RMK AO2
     RAB42FZRAE42 P0004 I1000 $=
KPAH 110148Z 17012G16KT 3SM RA BR FEW011 BKN028 OVC043 10/09 A2973
     RMK AO2 P0016=
KPBF 110148Z AUTO 12005KT 2SM RA BR BKN010 BKN014 OVC080 12/12
     A2973 RMK AO2 LTG DSNT E-S TSB0057E25B33E48 P0015=
KSLN 110148Z 28009KT 5SM -SN BR OVC009 02/00 A2966 RMK AO2
     RAE37SNB37 CIG 007V012 P0006=
KTOI 110148Z AUTO 13004KT 3SM BR OVC003 14/14 A3004 RMK AO2=
KCLM 110149Z AUTO 00000KT 4SM -RA BR OVC010 06/06 A2973 RMK AO2
     CIG 007V014 PRESFR P0005=
KFIG 110149Z AUTO 07008KT 8SM BKN009 00/M01 A3011 RMK AO2=
KFOE 110149Z 28006KT 8SM SCT006 OVC023 02/01 A2961 RMK AO2=
KFOK 110149Z 00000KT 1 3/4SM BR SCT016 OVC028 04/02 A3032 RMK
     AO2=
KJFK 110149Z 01004KT 1/2SM R04R/2200V6000FT -RA BR BKN004 OVC008
     03/02 A3031 RMK AO2 SFC VIS 1 1/2 P0002 $=
KM19 110149Z AUTO 14013KT 10SM RA BKN100 BKN120 08/08 A2971 RMK
     AO2 P0010=
KUZA 110149Z AUTO 00000KT 2SM -RA BR OVC003 06/06 A3014 RMK AO2
     RAB46 P0000=

0000010500
639
SPUS42 KWBC 110152
SPECI
KGLS 110148Z AUTO 19010KT 5SM BR BKN003 OVC046 18/18 A2986=

0000009700
640
SPUS43 KWBC 110152
SPECI
KMKE 110148Z 20005KT 5SM -RA BR OVC004 02/02 A2956=

0000010800
641
SPUS44 KWBC 110152
SPECI
KBLI 110148Z 12009KT 8SM -RA BKN022 BKN030 OVC036 08/06 A2980=

0000039800
642
SAAM31 FCBB 110200
METAR FCBB 110200Z 00000KT 8000 FEW010 SCT016 23/22 Q1012 NOSIG=
METAR FCPP 110200Z VRB02KT 8000 FEW010 26/24 Q1009 NOSIG=
METAR FKKD 110200Z 00000KT 8000 SCT013 FEW016CB BKN300 26/25 Q1010
      BECMG 4000 BR=
METAR FKYS NIL=
METAR FKKR NIL=
METAR FKKL NIL=
METAR FKKN NIL=
METAR FEFF 110200Z VRB02KT CAVOK 20/18 Q1011 NOSIG=
METAR FEFT NIL=

0000011900
643
SACN62 CYYD 110200
METAR CYYD 110200Z VRB03KT 25SM FEW065 OVC130 M05/M05 A2950 RMK
 SC2AC6 SLP012=

0000012500
644
SPUS31 KWBC 110153
SPECI
KJFK 110149Z 01004KT 1/2SM R04R/2200V6000FT -RA BR BKN004 OVC008
03/02 A3031=

0000010200
645
SPUS44 KWBC 110153
SPECI
KCLM 110149Z AUTO 00000KT 4SM -RA BR OVC010 06/06 A2973=

0000013700
646
SPCN31 CWAO 110152
SPECI CYVR 110152Z 07011KT 8SM -RA SCT006 BKN011 OVC030 06/05 A2980
 RMK ST3SC3SC2 PRESFR SLP090=

0000161600
647
SPUS70 KWBC 110154
SPECI
KTDR 110150Z AUTO 13005KT 5SM BR BKN002 16/ A3007 RMK AO2 $=
PANW 110147Z AUTO 00000KT 1/2SM FZFG OVC001 M07/M07 A2946 RMK AO2
     TSNO $=
KDVN 110150Z AUTO 20011KT 2SM BR OVC003 04/03 A2952 RMK AO2
     RAE0059B37E47SNB02E13 P0000=
KFTY 110150Z 10004KT 3SM BR OVC003 09/09 A3007 RMK AO2 RAB32E50
     P0002=
KOSU 110150Z 14010KT 8SM BKN007 OVC032 07/07 A2987 RMK AO2=
KRWF 110150Z AUTO 19004KT 2 1/2SM BR CLR M02/M03 A2950 RMK AO2=
KSNS 110150Z 28008KT 8SM BKN005 11/09 A3018 RMK AO2 $=
KSPB 110150Z AUTO 16007KT 10SM BKN030 BKN045 OVC080 10/08 A2996
     RMK AO2 RAB22E32 P0000=
KSPW 110150Z AUTO 28007KT 3SM BR OVC004 M01/M02 A2954 RMK AO2=
KSSI 110150Z AUTO 14008KT 9SM SCT003 OVC012 17/17 A3012 RMK
     AO2=
KHKS 110151Z 15006KT 3SM -RA BR OVC009 16/13 A2988 RMK AO2 RAB36
     P0000=
KHKY 110151Z 00000KT 1/2SM FG VV002 06/05 A3015 RMK AO2 RAB0055E49
     P0002=
KMKC 110151Z 30007KT 9SM OVC011 04/02 A2958 RMK AO2 RAB21E32
     P0000=
KOWD 110151Z AUTO 00000KT 2SM BR OVC009 02/01 A3035 RMK AO2 CIG
     007V010=
KPBF 110151Z AUTO 12004KT 1 1/4SM RA BR SCT008 BKN012 OVC080 12/12
     A2973 RMK AO2 LTG DSNT E AND S TSB0057E25B33E48 P0016=
KABY 110151Z 00000KT 1 3/4SM BR OVC004 15/14 A3009 RMK AO2=
KALO 110151Z 00000KT 1SM R12/5500VP6000FT BR VV006 00/00 A2951 RMK
     AO2=
KDNL 110151Z AUTO VRB03KT 5SM -RA BR OVC006 09/09 A3011 RMK AO2
     P0005 TSNO=
KPYM 110150Z AUTO VRB03KT 1SM BR VV003 04/03 A3034 RMK AO2=
KLPR 110151Z AUTO 17010KT 5SM BR SCT011 BKN075 OVC090 06/04 A2987
     RMK AO2=

0000009200
648
SAHK31 VHHH 110200
METAR VHHH 110200Z 06010KT 8000 NSC 19/10 Q1025 NOSIG=

0000026900
649
SACZ43 LKPW 110200
METAR LKCV 110200Z 25006KT CAVOK 04/01 Q1018 NOSIG=
METAR LKKB 110200Z 22004KT 190V260 CAVOK 02/M00 Q1018=
METAR LKLN 110200Z NIL=
METAR LKNA 110200Z 24003KT CAVOK 00/M02 Q1018=
METAR LKPD 110200Z 26005KT CAVOK 04/00 Q1018=

0000021200
650
FTCN35 CWAO 110200 AAA
TAF AMD CYZR 110204Z 1102/1103 16013KT 5SM BR BKN008 OVC012 TEMPO
     1102/1103 1SM -RA BR OVC003
    RMK FCST BASED ON AUTO OBS. NXT FCST WILL BE ISSUED AT 111245Z=

0000065100
651
SAZA31 FAPR 110200
METAR FABL 110200Z NIL=
METAR FACT 110200Z 17006KT 9999 FEW030 15/12 Q1016 NOSIG=
METAR FAGG 110200Z AUTO VRB02KT CAVOK 14/12 Q1018=
METAR FALE 110200Z 27007KT 9999 SCT025 BKN035 21/19 Q1015 NOSIG=
METAR FALW 110200Z AUTO 21005KT //// // ////// 13/11 Q1015=
METAR FAMM 110200Z AUTO 14003KT //// // ////// 20/06 Q1017=
METAR FAOR 110200Z 14004KT CAVOK 17/07 Q1021 NOSIG=
METAR FAPE 110200Z 25012KT CAVOK 18/13 Q1017 NOSIG=
METAR FAPN 110200Z AUTO 15001KT //// // ////// 20/08 Q1015=
METAR FAPP 110200Z AUTO 34001KT //// // ////// 19/15 Q1017=
METAR FAUP 110200Z 16001KT CAVOK 19/04 Q1016 NOSIG=

0000012400
652
SACN62 CYXX 110200
METAR CYXX 110200Z 03010KT 6SM -RA OVC025 05/ A2982 RMK SC8 DP 4.6
 VIA CYXC SLP099=

00000000