0000010000
713
SPUS42 KWBC 102354
SPECI
KSAV 102350Z 13007KT 4SM BR BKN006 OVC013 18/17 A3013=

0000010100
714
SADL34 EDZO 102350
METAR EDQM 102350Z AUTO 22007KT 9999NDV SCT010/// 01/M01 Q1017=

0000019300
715
SADL33 EDZO 102350
METAR EDFE 102350Z NIL=
METAR EDFH 102350Z 23005KT 9999 FEW010 02/01 Q1017=
METAR EDFM 102350Z NIL=
METAR EDLV 102350Z NIL=
METAR EDVK 102350Z NIL=

0000050500
716
FTNO31 ENMI 102300
TAF ENBR 102300Z 1100/1124 VRB05KT 9999 -RA FEW005 SCT015 BKN025
         TEMPO 1100/1124 28012KT 4000 RADZ BKN007=
TAF ENGM 102300Z 1100/1124 VRB05KT 9999 FEW005 BKN060 PROB40 TEMPO
         1100/1124 2000 -SN BR BKN004=
TAF ENVA 102300Z 1100/1124 08008KT 9999 FEW015 BKN030 PROB30 TEMPO
         1100/1103 3000 -SN VV012=
TAF ENZV 102300Z 1100/1124 25012KT 9999 FEW012 BKN025 TEMPO 1100/1124
         4000 SHRA BKN009 SCT015CB BECMG 1112/1115 31020KT=

0000011600
717
SABZ20 SBEG 110000
METAR SBEG 110000Z 04003KT 5000 -TSRA SCT005
FEW025CB BKN070 23/20 Q1
012=

0000009000
718
SASU01 HSSS 110000
METAR HSSS 110000Z 35010KT CAVOK 16/M01 Q1017 NOSIG=

0000060800
719
SANO31 ENMI 102350
METAR ENAN 102350Z 11011KT CAVOK M06/M15 Q1016=
METAR ENBR 102350Z VRB02KT 9999 FEW005 BKN023 02/02 Q0998 RMK WIND
           1200FT 13007KT=
METAR ENBO 102350Z 11019KT CAVOK M07/M17 Q1011=
METAR ENDU 102350Z VRB01KT CAVOK M24/M27 Q1017=
METAR ENGM 102350Z VRB02KT 9999 FEW047 SCT085 BKN150 M03/M03 Q0996=
METAR ENOL 102350Z 08013KT 9999 -SN FEW010 SCT018 BKN200 M08/M11
           Q1002=
METAR ENVA 102350Z 07007KT 040V100 9999 FEW030 SCT039 M10/M16 Q1003
           RMK WIND 670FT 11009KT=
METAR ENZV 102350Z 24008KT 9999 SCT011 BKN020 07/06 Q1000=

0000070300
720
SANO39 ENMI 102350
METAR ENNE 102350Z NIL=
METAR ENQR 102350Z AUTO 10009KT 360V150 9999NDV -RA OVC026/// 04/M02
           Q0998 W///S/=
METAR ENSE 102350Z AUTO 09015KT 9999NDV -SHRA FEW034/// OVC039///
           03/M03 Q0998 W///S5=
METAR ENQC 102350Z AUTO 07009KT 9999NDV -DZ OVC034/// 05/M01 Q0997
           W///S4=
METAR ENQA 102350Z AUTO VRB06KT 9999NDV SHRA SCT019/// OVC022///
           04/01 Q0998 W04/S4=
METAR ENHM 102350Z AUTO 26028KT 9999NDV NCD 07/02 Q0998 W08/S5=
METAR ENVH 102350Z AUTO 25021KT 8000NDV -SHRA OVC008/// 07/07 Q1004
           W///S4=
METAR ENLA 102350Z AUTO 27020KT 9999NDV BKN009/// BKN068/// 08/07
           Q1003 W///S4=

0000025200
721
SANO34 ENMI 102350
METAR ENBN 102350Z NIL=
METAR ENBV 102350Z NIL=
METAR ENFG 102350Z NIL=
METAR ENHF 102350Z VRB01KT CAVOK M10/M13 Q1016 RMK WIND 1254FT
           26002KT=
METAR ENRA 102350Z NIL=
METAR ENSH 102350Z NIL=

0000065000
722
SANO32 ENMI 102350
METAR ENAL 102350Z NIL=
METAR ENCN 102350Z AUTO 21006KT 3600NDV BR FEW024/// BKN029///
           BKN086/// 05/03 Q1001=
METAR ENHD 102350Z AUTO 24016KT 9999NDV FEW014/// SCT019/// BKN030///
           07/05 Q0999=
METAR ENRO 102350Z AUTO 09010KT 9999NDV -SN OVC005/// M14/M17 Q0998=
METAR ENRY 102350Z AUTO 21009KT 9999NDV OVC150/// 02/M00 Q0997=
METAR ENSB 102350Z 22009KT 9999 FEW017 BKN025 M01/M05 Q1007 RMK WIND
           1400FT 23021KT=
METAR ENTC 102350Z 15004KT CAVOK M12/M14 Q1017 RMK WIND 2600FT
           11009KT=
METAR ENTO 102350Z AUTO 25005KT 9999NDV OVC140/// 01/M01 Q0997=

0000082300
723
SAIY31 LIIB 102350
METAR LIEA 102350Z 36003KT 9000 0400NW R20/0800VP1500U BCFG NSC
06/06 Q1020=
METAR LIEE 102350Z 00000KT 4000 BCFG MIFG NSC 09/08 Q1019=
METAR LIEO 102350Z 21002KT 8000 NSC 04/03 Q1021=
METAR LIMC 102350Z VRB01KT 9999 BKN040 08/06 Q1022 NOSIG=
METAR LIME 102350Z 28002KT 3000 BR BKN012 08/07 Q1022=
METAR LIMF 102350Z 31003KT 9999 BKN025 08/05 Q1021=
METAR LIMJ 102350Z 04003KT 9999 SCT018 BKN035 13/11 Q1021=
METAR LIML 102350Z 06002KT 5000 BR FEW005 BKN035 08/07 Q1022 NOSIG=
METAR LIRA 102345Z 01001KT 7000 SCT025 SCT060 08/07 Q1022=
METAR LIRF 102350Z 08006KT 6000 BKN030 09/08 Q1022 NOSIG=
METAR LIRN 102350Z 35003KT 6000 NSC 09/07 Q1022=
METAR LIRP 102345Z 07002KT 9999 SCT060 08/07 Q1021 NOSIG=
METAR LIRQ 102350Z 21001KT 9999 FEW020 BKN040 12/11 Q1022=

0000064200
724
SAIY32 LIIB 102350
METAR LIBD 102350Z 26004KT 7000 NSC 06/06 Q1022=
METAR LIBR 102345Z 30003KT 8000 NSC 07/06 Q1021 NOSIG=
METAR LICC 102350Z NIL=
METAR LICJ 102350Z 19003KT 150V210 CAVOK 10/08 Q1021=
METAR LIPB 102350Z NIL=
METAR LIPE 102350Z 05002KT 1600 0900NW R12/0650V2000D BR OVC001
07/07 Q1022=
METAR LIPH 102350Z NIL=
METAR LIPK 102350Z NIL=
METAR LIPQ 102350Z VRB01KT 1500 BR SCT010 BKN020 09/06 Q1021=
METAR LIPR 102345Z /////KT 6000 BKN045 09/09 Q1021=
METAR LIPX 102345Z 28002KT 1000 R04/P1500N BR SCT010 BKN045 08/06
      Q1022=
METAR LIPZ 102350Z VRB03KT 3000 BR BKN040 08/07 Q1022=

0000085800
725
SAMX44 MMMD 102355
METAR MMCE 102340Z 36010KT 6SM SKC 24/22 A2986 RMK SLP113 57003 991=
METAR MMCM 102344Z 09006KT 7SM SCT010  BKN090 25/22 A2993
      RMK SLP137 5//// 973 8/520 CB E =
METAR MMCP 102350Z 00000KT 6SM  SKC 25/23 A2988 
      RMK SLP119 57001 999 HZY=
METAR MMCZ 102343Z 11005KT 8SM  SCT015TCU 22/21 A2996 
      RMK SLP138 57015 984 8/200=
METAR MMMD 102344Z 13005KT 7SM  FEW025 27/20 A2990 
      RMK SLP128 56006 990 8/400=
METAR MMTG 102351Z 00000KT 12SM  SKC 27/16 A2985 RMK SLP082 56005
991=
METAR MMTP 102344Z 00000KT 10SM  SCT250 28/22 A2985 
      RMK SLP095 57024 960 8/002=
METAR MMUN 102343Z 12005KT 7SM  SCT015TCU 26/22 A2997 
      RMK SLP141 54000 981 8/200=
METAR MMVA 102341Z 00000KT 7SM  SCT010 BKN025 22/19 A2989 
      RMK SLP136 57003 991 8/500=
METAR MMMT 102345Z NIL=

0000034600
726
FARH41 LDZM 110000
LDZO GAMET VALID 110100/110700 LDZA-
LDZO ZAGREB FIR BLW FL100
SECN I
SFC VIS:  OCNL 300-1000M  FG N,C
          OCNL 1000-5000M BR W,E
MT OBSC:  ALL MT PASSES C
SIG CLD:  LOC BKN 300/1500FT AGL C,E,N
          LOC BKN 800/2000FT AMSL W
SIGMET APPLICABLE: CHECK AIRMET AND SIGMET INFORMATION=

0000008700
727
SAIY32 LIIB 102350 RRA
METAR LICC 102350Z 27011KT CAVOK 11/07 Q1021=

0000011400
728
SAPH41 RPLC 110000
METAR RPLC 110000Z
03007KT 9999 FEW042 SCT300 22/17 Q1018 A3007 RMK NOSIG=

0000009500
729
SAUK33 EGGY 102350 RRA
METAR EGNS 102350Z 31006KT 270V340 CAVOK 06/03 Q1010=

0000012700
730
SAEU31 BKPR 110000
BKPR 110000Z 00000KT 0200 R17/0175V0300 FZFG BKN002 M01/M02 Q1022
 NOSIG RMK 17010095 =

0000116400
731
SAMX43 MMMZ 110000
METAR MMCL 102341Z 00000KT 10SM  SCT100 BKN230 25/16 A2991 
      RMK SLP127 56007 903 8/034=
METAR MMCN 102345Z 25007KT 10SM  FEW200 24/05 A2992 
      RMK SLP132 8/005 HZY=
METAR MMDO 102344Z 20018KT 14SM  BKN200 17/M09 A3012 
      RMK SLP164 52004 908 8/004 ISOL CU 1-2QUAD=
METAR MMGM 102342Z 20008KT 10SM  SKC 23/10 A2991 RMK HZY=
METAR MMHO 102350Z 25005KT 10SM  SKC 26/M04 A2999 RMK SLP150 52004
900=
METAR MMLM 102342Z 32013KT 10SM  SCT100 BKN220 21/11 A2994 
      RMK SLP139 8/058 HZY=
METAR MMLP 102340Z 36013KT 10SM  FEW020 FEW200 21/11 A2998 
      RMK SLP200 57003 921 8/408 ISOL AC=
METAR MMLT 102352Z 02008KT 8SM  FEW100 FEW200 21/12 A2997 
      RMK SLP149 8/036=
METAR MMML 102350Z 00000KT 10SM  SCT200 24/M05 A3003 
      RMK SLP170 57018 927 8/002=
METAR MMMZ 102345Z 26008KT 15SM  SCT220 23/11 A2988 
      RMK SLP121 54000 902 8/004=
METAR MMSD 102356Z  NIL=
METAR MMSL 102348Z 15009KT 12SM  BKN030 BKN100 BKN120 OVC230 21/17 
      A2991 RMK 8/577 BINOVC MSGTX MMLP=
METAR MMTJ 102341Z 28007KT 6SM  FEW210 19/06 A3007 
      RMK SLP180 57009 908 8/009 HZY=

0000039300
732
SAFI34 EFHK 102350
EFET 102350Z AUTO 36002KT CAVOK M25/M27 Q1014=
EFIV 102350Z AUTO 25002KT 5000 OVC003 M29/M33 Q1016=
EFKE 102350Z AUTO 03014KT 360V070 9999 SCT047 BKN130 M14/M17 Q1008=
EFKI 102350Z AUTO 04013KT 010V070 9999 -SHSN SCT018 BKN051 M11/M14
Q1001=
EFKS 102350Z AUTO 04007KT 310V080 CAVOK M17/M20 Q1006=
EFKT 102350Z AUTO 29002KT CAVOK M19/M22 Q1014=

00000000