0000030300
173
SAAE33 VTBB 101830
METAR VVTS 101830Z 10004KT 9999 FEW017 SCT040 23/21 Q1012 NOSIG =
METAR VVNB 101830Z 30004KT 2800 BR FEW020 BKN050 15/11 Q1021 NOSIG=
METAR VVDN 101830Z NIL=
METAR VVPB 101830Z NIL=
METAR VVCR 101830Z NIL=
METAR VVCT 101830Z NIL=
METAR VVPQ 101830Z NIL=

0000008800
174
SAAG05 SABM 101800 RRD
METAR SAOC 101800Z  14010KT CAVOK 28/13 Q1009=

0000015200
175
SANL32 EHDB 101825 CCA
METAR COR EHEH 101825Z AUTO 22006KT 9999 OVC011 05/04 Q1016 
GRN 23010KT  FEW013 SCT060 BECMG SCT010 BKN050=

0000009900
176
SAAF27 LFPW 101800 RRB
METAR FGBT 101800Z 24007KT 9999 FEW010 29/24 Q1009 NOSIG=

0000070000
177
SACI31 ZBBB 101830
METAR ZBAA 101830Z 36001MPS 6000 NSC M10/M19 Q1032 NOSIG=
ZBSJ NIL=
METAR ZBTJ 101830Z 22002MPS 1300 R16R/P2000N BR NSC M05/M08 Q1032
NOSIG=
METAR ZBYN 101830Z 12001MPS 5000 HZ NSC M09/M20 Q1029 NOSIG=
METAR ZGGG 101830Z 08002MPS 6000 BKN043 13/08 Q1024 NOSIG=
METAR ZSHC 101830Z VRB01MPS 6000 -RA SCT030 05/02 Q1031 NOSIG=
METAR ZSPD 101830Z 09004MPS CAVOK 06/M00 Q1031 NOSIG=
METAR ZSSS 101830Z 09003MPS CAVOK 06/M01 Q1031 NOSIG=
ZWSH NIL=
METAR ZWWW 101830Z VRB01MPS 0600 R25/1100N FZFG NSC M18/M20 Q1038
NOSIG=
METAR ZYTL 101830Z VRB01MPS 4000 BR SCT033 M05/M08 Q1032 NOSIG=
METAR ZYTX 101830Z 15001MPS 6000 NSC M16/M21 Q1031 NOSIG=

0000010400
178
SAEA20 HKNC 101800 RRD
METAR HKEL 101800Z  11004KT  9999 FEW020CB SCT200 16/09 Q1024=

0000025200
179
FTUS53 KWBC 101836 AAA
TAF AMD
KCNU 101833Z 1019/1118 21015KT 5SM BR OVC002
      TEMPO 1019/1020 SCT002 OVC006
     FM102000 23013G22KT 6SM BR OVC010
     FM110000 27009KT P6SM SCT020 OVC100
     FM111000 28011KT P6SM SKC=

0000025200
180
FTUS80 KWBC 101836 AAA
TAF AMD
KCNU 101833Z 1019/1118 21015KT 5SM BR OVC002
      TEMPO 1019/1020 SCT002 OVC006
     FM102000 23013G22KT 6SM BR OVC010
     FM110000 27009KT P6SM SCT020 OVC100
     FM111000 28011KT P6SM SKC=

0000121200
181
SPUS70 KWBC 101836
SPECI
KBUY 101832Z AUTO 01006KT 3SM -RA BR OVC004 03/02 A3026 RMK AO2
     P0002 T00330017=
KFOE 101832Z 16006KT 4SM BR OVC002 04/03 A2957 RMK AO2
     T00390028=
KIGX 101832Z AUTO 02004KT 1 3/4SM -RA BR OVC004 06/05 A3027 RMK
     AO2 RAB27 P0000 T00610050=
KMTO 101832Z AUTO 15012KT 4SM HZ OVC009 03/M01 A2986 RMK AO2
     RAB15E29 P0002 T00331011 TSNO=
KTDZ 101832Z AUTO 17007KT 4SM BR OVC012 02/01 A3007 RMK AO2
     TSNO=
KGPT 101833Z 09005KT 1 3/4SM -RA BR OVC006 16/14 A3004 RMK AO2
     RAB1756E08B28 P0000 T01610144=
KHKY 101833Z 00000KT 1SM RA BR BKN003 BKN009 OVC017 06/05 A3022
     RMK AO2 P0003=
KOXB 101833Z AUTO 02005KT 2 1/2SM BR OVC003 05/04 A3036 RMK AO2
     T00500044 TSNO=
KROG 101833Z 16012KT 10SM RA BKN009 BKN020 OVC060 10/09 A2973 RMK
     AO2 CIG 007V014 P0003=
KASX 101833Z AUTO 19004KT 8SM OVC013 M03/M06 A2971 RMK AO2=
KBRD 101833Z AUTO 18010KT 1 1/2SM HZ OVC004 M02/M05 A2958 RMK
     AO2=
KDEQ 101833Z AUTO 16007KT 1 1/4SM RA BR FEW006 BKN027 OVC047 13/13
     A2978 RMK AO2 PRESFR P0014 T01330128=
KGGG 101833Z 19016G27KT 10SM BKN029 BKN034 BKN085 20/13 A2982 RMK
     AO2 PK WND 19029/1820=

0000010200
182
SPUS41 KWBC 101836
SPECI
KDOV 101833Z AUTO 00000KT 3SM -RA BR OVC003 03/03 A3035=

0000004200
183
SAHA31 KWBC 101830
NIL=

0000004200
184
SAJP31 KWBC 101830
NIL=

0000004200
185
SAJP41 KWBC 101830
NIL=

0000004200
186
SAJP42 KWBC 101830
NIL=

0000004200
187
SAJP43 KWBC 101830
NIL=

0000004200
188
SAJP44 KWBC 101830
NIL=

0000004200
189
SAJP45 KWBC 101830
NIL=

0000010100
190
SPCN52 CWAO 101836
SPECI CWFD 101836Z AUTO 20019KT 3/8SM OVC009 OVC013 M21/ A2878=

0000012400
191
SANL32 EHDB 101825 CCB
METAR COR EHEH 101825Z AUTO 22006KT 9999 OVC011 05/04 Q1016 
GRN 22008KT BKN011=

0000009700
192
SPUS31 KWBC 101837
SPECI
KSFO 101833Z 03004KT 9SM FEW004 BKN200 12/09 A3031=

00000000