0000009200
553
SAAC80 HECA 110400
METAR HECA 110400Z 00000KT 2000 BR NSC 11/08 Q1024 NOSIG=
0000010000
554
SIXX98 HECA 110300 RRA
AAXX 11034
17330 42970 02703 10091 21026 30204 40222 51003=
0000101800
555
FCAL40 DAMM 110100
TAF DAAE 110200Z 1103/1112 17010KT 9999 FEW030 SCT100 PROB30 TEMPO
                 1103/1107 5000 NSC=
TAF DAAJ 110200Z 1103/1112 VRB02KT CAVOK=
TAF DAAP 110200Z 1103/1112 VRB02KT CAVOK=
TAF DAAS 110200Z 1103/1112 19007KT 9999 FEW033 SCT100=
TAF DABT 110200Z 1103/1112 20007KT 9999 FEW033 SCT100=
TAF DAOB 110200Z 1103/1112 16014KT 8000 FEW033 PROB30 TEMPO
                 1103/1106 16024KT 6000=
TAF DAOF 110200Z 1103/1112 06010KT 8000 SCT046 SCT100=
TAF DAOR 110200Z 1103/1112 12012KT 8000 SCT033 SCT100 BECMG
                 1105/1107 06010KT=
TAF DAUA 110200Z 1103/1112 12012KT 8000 FEW046=
TAF DAUB 110200Z 1103/1112 25010KT 9999 FEW040 SCT100=
TAF DAUE 110200Z 1103/1112 06012KT 9999 FEW040=
TAF DAUK 110200Z 1103/1112 04010KT 9999 FEW040=
TAF DAUL 110200Z 1103/1112 VRB02KT 9999 FEW033=
TAF DAUO 110200Z 1103/1112 VRB02KT 9999 FEW040=
TAF DAUT 110200Z 1103/1112 08012KT 9999 FEW046=
TAF DAUU 110200Z 1103/1112 02010KT 9999 SCT046 SCT100=
0000033800
556
FCAL41 DAMM 110100
TAF DAAD 110200Z 1103/1112 CNL=
TAF DAAV 110200Z 1103/1112 21010KT 9999 FEW030 SCT100 PROB30 TEMPO
                 1103/1107 5000 NSC=
TAF DAAY 110100Z NIL=
TAF DAEF 110100Z NIL=
TAF DAEN 110100Z NIL=
TAF DAFH 110200Z 1103/1112 CNL=
TAF DAOY 110100Z NIL=
TAF DATM 110200Z 1103/1112 CNL=
0000008000
557
SAET20 HAAB 110200
METAR HAAB 110200Z 07004KT CAVOK 12/04 Q1026=
0000009400
558
SARW20 HRYR 110200
METAR
HRYR 110200Z 00000KT 9999 SCT026 16/16 Q1019 NOSIG=
0000008700
559
SAMA21 FIMP 110200
METAR FIMR 110200Z  09012KT 9999 BKN018 27/24 Q1017=
0000008900
560
SAPK31 OPPS 110355
METAR OPPS 110400Z 23006KT 3600 HZ SKC 07/M03 Q1022.2=
0000008600
561
SAMA20 FIMP 110200
METAR FIMP 110200Z 10003KT 9999 FEW017 26/23 Q1016=
0000011600
562
SAMG20 FMMI 110200
METAR FMMI 110200Z 31005KT 9999 FEW007 SCT020 BKN230 17/17 Q1021
TEMPO 4000 BR=
0000032100
563
SAMC31 GMMC 110200
METAR GMFF 110200Z 00006KT 9999 FEW030 BKN100 10/04 Q1016 NOSIG=
METAR GMME 110200Z 17003KT 120V190 5000 SCT020 BKN100 14/12 Q1015
NOSIG=
METAR GMMN 110200Z 20008KT 9999 SCT016 BKN100 13/10 Q1016 NOSIG=
METAR GMAD 110200Z NIL=
METAR GMMX 110200Z NIL=
METAR GMTT 110200Z NIL=
0000053900
564
SAMC32 GMMC 110200
METAR GMFF 110200Z 00006KT 9999 FEW030 BKN100 10/04 Q1016 NOSIG=
METAR GMFO 110200Z 22018KT 9999 SCT023 SCT100 15/05 Q1015 NOSIG=
METAR GMMZ 110200Z 26004KT 9999 BKN030 06/04 Q1017=
METAR GMTN 110200Z AUTO 26002KT 1900NDV /// 12/11 Q1015=
METAR GMAG 110200Z NIL=
METAR GMAT 110200Z NIL=
METAR GMFK 110200Z NIL=
METAR GMFM 110200Z NIL=
METAR GMMC 110200Z NIL=
METAR GMMH 110200Z NIL=
METAR GMMI 110200Z NIL=
METAR GMML 110200Z NIL=
METAR GMMW 110200Z NIL=
METAR GMTA 110200Z NIL=
0000049700
565
SATS40 DTTA 110200
METAR DTKA 110200Z 05004KT 9999 FEW020 SCT100 11/08 Q1018 NOSIG=
METAR DTMB 110200Z 16005KT CAVOK 11/07 Q1019 NOSIG=
METAR DTNH 110200Z 18006KT CAVOK 08/06 Q1019=
METAR DTTA 110200Z 00000KT 3000 R19/0800VP2000U R11/0800VP2000U BR
 SCT026 08/07 Q1018 NOSIG=
METAR DTTF 110200Z 34004KT CAVOK 07/04 Q1021 NOSIG=
METAR DTTJ 110200Z 16005KT 8000 NSC 12/09 Q1020 NOSIG=
METAR DTTR NIL=
METAR DTTX NIL=
METAR DTTZ 110200Z 29001KT 9999 FEW030 10/04 Q1021 NOSIG=
0000053900
566
SATS32 DTTA 110200
METAR DTKA 110200Z 05004KT 9999 FEW020 SCT100 11/08 Q1018 NOSIG=
METAR DTMB 110200Z 16005KT CAVOK 11/07 Q1019 NOSIG=
METAR DTNH 110200Z 18006KT CAVOK 08/06 Q1019=
METAR DTTA 110200Z 00000KT 3000 R19/0800VP2000U R11/0800VP2000U BR
 SCT026 08/07 Q1018 NOSIG=
METAR DTTF 110200Z 34004KT CAVOK 07/04 Q1021 NOSIG=
METAR DTTG 110200Z AUTO 28002KT NCD 09/04 Q1021=
METAR DTTJ 110200Z 16005KT 8000 NSC 12/09 Q1020 NOSIG=
METAR DTTX NIL=
METAR DTTZ 110200Z 29001KT 9999 FEW030 10/04 Q1021 NOSIG=
0000028200
567
SATS41 DTTA 110200
METAR DTTB 110200Z 35004KT 9999 FEW020 SCT100 11/08 Q1018=
METAR DTTD NIL=
METAR DTTG 110200Z AUTO 28002KT NCD 09/04 Q1021=
METAR DTTK 110200Z AUTO VRB02KT NCD 11/05 Q1019=
METAR DTTL NIL=
METAR DTTN 110200Z 00000KT 8000 NSC 05/05 Q1019=
0000013400
568
SATS40 DTTA 110200 RRA
METAR DTTA 110200Z 00000KT 3000 R19/0800VP2000U R11/0800VP2000U BR
 SCT026 08/07 Q1018 NOSIG=
0000024900
569
SATS42 DTTA 110200
METAR DTTB 110200Z 35004KT 9999 FEW020 SCT100 11/08 Q1018=
METAR DTTD NIL=
METAR DTTK 110200Z AUTO VRB02KT NCD 11/05 Q1019=
METAR DTTL NIL=
METAR DTTN 110200Z 00000KT 8000 NSC 05/05 Q1019=
METAR DTTR NIL=
0000009000
570
SAMC31 GMMC 110200 RRA
METAR GMAD 110200Z 10005KT 9999 SCT020 11/10 Q1015=
0000011600
571
SABC40 FBSK 110200
METAR FBFT 110200Z /////KT 9999 FEW025 FEW030CB SCT065 21/18 Q1014
     RETSRA=
0000010100
572
SASC20 FSIA 110200
METAR FSIA 110200Z 24002KT 9999 FEW014CB SCT080 24/22 Q1011 NOSIG=
00000000