0000009900
633
SAUK33 EGGY 101920 RRA
METAR EGNS 101920Z VRB03KT 9999 FEW022 07/05 Q1007 NOSIG=

0000052200
634
SAFI32 EFHK 101920
METAR EFHA 101920Z AUTO 36011KT 5000 -SN OVC009 
M05/M06 Q0993=
EFHF 101920Z AUTO 35011KT 310V060 9999 -SN OVC011 M01/M03 Q0990=
METAR EFKA 101920Z AUTO 02010KT 9999 OVC010 M07/M08
 Q0998=
EFKK 101920Z 03010KT 9999 -SHSN FEW017 BKN021 M08/M10 Q1000=
EFMA 101920Z AUTO 34012KT 310V010 3600 -SN BKN007 OVC028 M00/M00
Q0996=
METAR EFPO 101920Z AUTO 02010KT 350V050 9999 OVC008/// M03/M05 Q0995 
R12/29//95=
EFSI 101920Z AUTO 01007KT 320V040 9999 OVC006 M06/M07 Q0997=

0000010300
635
FCZA31 FAPR 101800
TAF FAEL 101800Z 1019/1106 NIL=
TAF FAWK 101800Z 1019/1106 NIL=

0000013700
636
FCZA32 FAPR 101800
TAF FAMM 101800Z 1019/1106 NIL=
TAF FAWB 101800Z 1019/1106 NIL=
TAF FAWK 101800Z 1019/1106 NIL=

0000041100
637
SABX31 EBBR 101920
METAR EBAW 101920Z 21012KT 180V240 9000 OVC009 06/03 Q1017 NOSIG=
METAR EBBR 101920Z 22009KT 9999 OVC011 05/03 Q1017 TEMPO BKN008=
METAR EBCI 101920Z 20012KT 9999 BKN011 05/02 Q1018 NOSIG=
METAR EBLG 101920Z 19009KT 9999 FEW011 04/02 Q1017 NOSIG=
METAR EBOS 101920Z 18009KT 9999 BKN012 05/03 Q1016 TEMPO SCT012=
METAR ELLX 101920Z VRB03KT CAVOK 03/01 Q1018 NOSIG=

0000006100
638
SAOS32 LOWM 101920
METAR LOXZ 101920Z NIL=

0000048200
639
SAOS31 LOWM 101920
METAR LOWW 101920Z 23009KT CAVOK 04/00 Q1020 NOSIG=
METAR LOWL 101920Z 25007KT 9999 FEW050 03/00 Q1021 NOSIG=
METAR LOWS 101920Z 16004KT 9999 FEW025 BKN030 04/03 Q1020 NOSIG=
METAR LOWI 101920Z VRB01KT 8000 FEW003 BKN100 03/03 Q1020 R08/19//74
NOSIG=
METAR LOWG 101920Z 34002KT 6000 FEW001 SCT007 02/02 Q1020 R17/29//95
BECMG 2000 FZBR BKN004=
METAR LOWK 101920Z VRB02KT 0500 R10/0800N R28/0750N FG VV002 03/02
Q1021 TEMPO 0600=

0000025700
640
SANO36 ENMI 101920
METAR ENBS 101920Z NIL=
METAR ENHK 101920Z NIL=
METAR ENHV 101920Z NIL=
METAR ENLK 101920Z NIL=
METAR ENMH 101920Z NIL=
METAR ENNK 101920Z NIL=
METAR ENNM 101920Z 06015G27KT 9999 FEW045 SCT080 M08/M14 Q1004=

0000025900
641
FTUS51 KWBC 101924 AAA
TAF AMD
KBVI 101922Z 1019/1118 15005KT 5SM BR OVC003
     FM102100 14008KT P6SM OVC005
     FM110900 18010KT 4SM -RA OVC015
     FM111300 18012KT 2SM -RA OVC009
     FM111700 21012KT P6SM VCSH BKN015 OVC025=

0000032500
642
FTUS53 KWBC 101924 AAA
TAF AMD
KBRL 101921Z 1019/1118 13010KT 2SM -RA BR VCTS OVC002CB
     FM102000 16009KT 1SM -RA BR OVC002
     FM110100 18003KT 1/2SM -RA FG OVC002
     FM110700 26005KT 1SM -FZRASN BR OVC003
     FM110900 27010KT 2SM -SN BR OVC004
     FM111300 28011KT 4SM BR VCSH OVC006=

0000133600
643
FTUS80 KWBC 101924 AAA
TAF AMD
KBRL 101921Z 1019/1118 13010KT 2SM -RA BR VCTS OVC002CB
     FM102000 16009KT 1SM -RA BR OVC002
     FM110100 18003KT 1/2SM -RA FG OVC002
     FM110700 26005KT 1SM -FZRASN BR OVC003
     FM110900 27010KT 2SM -SN BR OVC004
     FM111300 28011KT 4SM BR VCSH OVC006=
KBVI 101922Z 1019/1118 15005KT 5SM BR OVC003
     FM102100 14008KT P6SM OVC005
     FM110900 18010KT 4SM -RA OVC015
     FM111300 18012KT 2SM -RA OVC009
     FM111700 21012KT P6SM VCSH BKN015 OVC025=
KEWR 101922Z 1019/1124 VRB04KT 2SM BR SCT006 OVC012
      TEMPO 1021/1024 1SM -DZ BKN006 OVC012
     FM110000 VRB03KT 1SM BR BKN006 OVC012
      TEMPO 1102/1105 -RA
     FM110500 15005KT 3/4SM -RA BR BKN005 OVC008
     FM110800 16008KT 1SM -RA BR OVC004 WS020/19050KT
     FM111400 17014KT 1SM -RA BR OVC004 WS015/19050KT
     FM111900 18016G23KT 1SM RA OVC004 WS015/19050KT=
KJFK 101922Z 1019/1124 VRB04KT 3SM BR SCT008 OVC012
      TEMPO 1021/1024 2SM -DZ BR BKN008
     FM110000 VRB04KT 1SM BR FEW005 BKN008 OVC015
      TEMPO 1102/1105 -RA
     FM110500 16008KT 3/4SM -RA BR BKN005 OVC008 WS020/19040KT
     FM110800 15011KT 1SM -RA BR OVC004 WS020/19055KT
     FM111400 17018KT 1SM -RA BR OVC004 WS015/19060KT
     FM111900 18023G30KT 1SM RA OVC004 WS015/19060KT=

0000050900
644
FTUS80 KWBC 101924 AAB
TAF AMD
KLGA 101922Z 1019/1118 06005KT 3SM BR SCT008 OVC012
      TEMPO 1020/1024 2SM -DZ BR BKN008
     FM110000 06005KT 1SM BR FEW005 BKN008 OVC012
      TEMPO 1102/1105 -RA
     FM110500 15007KT 3/4SM -RA BR BKN005 OVC008 WS020/19040KT
     FM110800 15011KT 1SM -RA BR OVC004 WS020/19055KT
     FM111400 17016KT 1SM -RA BR OVC004 WS015/19060KT=
KRIL 101922Z 1019/1118 VRB03KT P6SM VCSH BKN035 OVC050
     FM110200 VRB04KT P6SM VCSH SCT020 BKN050=

0000214800
645
SPUS70 KWBC 101924
SPECI
KAOO 101920Z AUTO 00000KT 8SM SCT013 OVC029 02/M02 A3024 RMK AO2
     T00221022=
KBLF 101920Z AUTO VRB05KT 10SM BKN006 BKN030 OVC055 11/07 A3015
     RMK AO2=
KBRL 101921Z AUTO 14012KT 2 1/2SM -RA BR OVC003 02/01 A2964 RMK
     AO2 LTG DSNT E P0006 I1000 T00170011=
KDTN 101920Z 14013KT 3SM BR BKN002 OVC011 13/13 A2983 RMK AO2
     PRESFR=
KERI 101920Z 17012KT 10SM FEW014 SCT021 OVC049 04/02 A3012 RMK
     AO2=
KEYE 101920Z AUTO 14007KT 4SM BR SCT007 BKN030 OVC043 04/02 A2994
     RMK AO2 T00390022=
KLAR 101920Z AUTO 29032G40KT 2 1/2SM HZ FEW110 M04/M09 A2965 RMK
     AO2 PK WND 29040/1914 VIS 1 1/4V4=
KLNK 101920Z 17006KT 4SM BR BKN005 OVC012 01/00 A2957 RMK AO2 CIG
     003V008 T00110000=
KLXT 101920Z AUTO 17006KT 3SM BR OVC006 04/03 A2955 RMK AO2 CIG
     003V008 T00390028=
KMAI 101920Z AUTO 08003KT 1 3/4SM BR OVC002 15/15 A3007 RMK
     AO2=
PACV 101920Z 00000KT 9SM -SN SCT029 SCT036 OVC050 M02/M02 A2937
     RMK AO2 SNB10 P0000 $=
PALH 101920Z 02003KT 10SM BKN005 OVC014 M03/M05 A2942 RMK AO2=
KACV 101921Z AUTO 25007KT 3/4SM R32/1200VP6000FT BR VV002 11/09
     A3028 RMK AO2 T01110089=
KAEX 101921Z 14010KT 6SM BR OVC006 16/14 A2989 RMK AO2=
KAHN 101921Z 06007KT 1 1/2SM BR OVC005 08/07 A3015 RMK AO2 RAE1858
     P0000=
KAKH 101921Z AUTO 02007KT 1 3/4SM BR OVC004 06/06 A3021 RMK AO2
     RAB1856E05 P0000=
KFCI 101922Z AUTO 05004KT 3SM OVC003 03/M02 A3032 RMK AO1
     P0002=
KHKS 101921Z 15012KT 10SM BKN011 OVC040 15/11 A2997 RMK AO2=
KJEF 101921Z 14009KT 6SM -RA BR FEW008 BKN013 OVC055 07/06 A2967
     RMK AO2 P0001=
KMPV 101921Z AUTO 15010KT 10SM SCT024 OVC055 M03/M07 A3029 RMK
     AO2=
KORD 101921Z 15010KT 2SM BR OVC004 01/M01 A2980 RMK AO2 PRESFR
     T00111006 $=
KSMQ 101921Z AUTO 00000KT 2SM BR OVC010 01/M01 A3035 RMK AO2
     T00061011 TSNO=
KSTP 101921Z 15011KT 3SM BR OVC006 M02/M03 A2964 RMK AO2=
PAOH 101921Z AUTO 00000KT 10SM UP FEW015 BKN036 BKN046 01/01 A2953
     RMK AO2 TSNO P0000 $=
PATO 101921Z AUTO 29005KT 10SM OVC014 M02/M02 A2941 RMK AO2
     T10171022 TSNO=

0000010500
646
SPUS41 KWBC 101924
SPECI
KERI 101920Z 17012KT 10SM FEW014 SCT021 OVC049 04/02 A3012=

0000023100
647
SADL33 EDZO 101920
METAR EDFE 101920Z NIL=
METAR EDFH 101920Z 24008KT CAVOK 03/01 Q1017=
METAR EDFM 101920Z NIL=
METAR EDLV 101920Z 22009KT CAVOK 05/04 Q1016=
METAR EDVK 101920Z 21008KT CAVOK 03/00 Q1016=

0000054300
648
SADL34 EDZO 101920
METAR EDGS 101920Z 22007KT 9999 FEW006 BKN020 02/02 Q1016=
METAR EDHL 101920Z 24009KT 9999 -DZ SCT016 BKN028 06/04 Q1012=
METAR EDLP 101920Z 23009KT 9999 SCT036 04/00 Q1016=
METAR EDLW 101920Z 20008KT CAVOK 05/02 Q1016=
METAR EDMA 101920Z 12004KT CAVOK 01/01 Q1019=
METAR EDNY 101920Z VRB03KT CAVOK 04/02 Q1020=
METAR EDQM 101920Z AUTO 25010KT 9999NDV BKN014/// BKN020///
OVC041/// 03/M00 Q1017=
METAR EDRZ 101920Z 00000KT CAVOK 03/02 Q1019=
METAR EDSB 101920Z 00000KT CAVOK 02/00 Q1019=

0000015100
649
SADL35 EDZO 101920
METAR EDJA 101920Z VRB02KT CAVOK 01/00 Q1019=
METAR EDVE 101920Z 25012KT 9999 FEW035 BKN044 BKN051 06/02 Q1015=

0000037800
650
SANO33 ENMI 101920
METAR ENAT 101920Z NIL=
METAR ENBL 101920Z NIL=
METAR ENEV 101920Z NIL=
METAR ENFL 101920Z NIL=
METAR ENKB 101920Z 34005KT 300V360 9999 BKN020 M04/M08 Q0999=
METAR ENKR 101920Z NIL=
METAR ENML 101920Z 36005KT 9999 FEW025 M02/M07 Q0999=
METAR ENNA 101920Z 19003KT 9999 BKN005 M14/M15 Q1018 RMK WIND 1800FT
           36004KT=

0000012200
651
SAMO31 ZMUB 101930
METAR ZMUB 101930Z VRB01MPS 5000NW FU NSC M32/M36 Q1025 NOSIG RMK
 QFE660.5 66 NT=

0000010200
652
SASA41 KWBC 101900 RRB
METAR
SKMD 101900Z 04006KT 9999 SCT025 SCT200 26/15 A2997=

00000000