0000035600
453
SAPR76 SPIM 110300
METAR SPCL 110300Z VRB02KT 9999 FEW020 BKN080 26/24 Q1011 RMK
PP000=
METAR SPJL 110300Z 04003KT 9999 SCT020 10/06 Q1036 RMK PP000=
METAR SPME 110300Z VRB02KT 9999 FEW012 BKN027 25/24 Q1011
RMK BIRD HAZARD RWY 32/14 PP000=
METAR SPST 110300Z 36004KT 9999 SCT020 24/20 Q1010 
RMK BIRD HAZARD RWY 17/35 PP000=

0000082500
454
SATU31 LTAA 110250
METAR LTAC 110250Z 29004KT 4800 BR OVC007 M04/M05 Q1022 NOSIG=
METAR LTAF 110250Z 04003KT CAVOK 03/M02 Q1021 BECMG 5000 BR=
METAR LTAI 110250Z 35005KT 9999 SCT020 BKN200 05/03 Q1022 NOSIG=
METAR LTAJ 110250Z 00000KT CAVOK M03/M05 Q1020 NOSIG=
METAR LTAZ 110250Z NIL=
METAR LTBA 110250Z 27005KT 8000 NSC 08/05 Q1021 NOSIG=
METAR LTBJ 110250Z 00000KT 4300 BR NSC 04/03 Q1021 BECMG 1200 BCFG=
METAR LTBS 110250Z 05006KT CAVOK 04/04 Q1022 NOSIG=
METAR LTCG 110250Z 00000KT CAVOK 08/M01 Q1017 NOSIG=
METAR LTCS 110250Z 35004KT CAVOK 04/M08 Q1020=
METAR LTFC 110250Z 00000KT 0300 R05/0400U R23/0450D FZFG VV001
 M05/M05 Q1023=
METAR LTFE 110250Z 17005KT 9999 FEW035 BKN100 10/07 Q1021 NOSIG=
METAR LTFJ 110250Z 17001KT 9999 SCT013 06/00 Q1022 BECMG TL0400 4000
 BR=

0000031200
455
SAEQ01 SEQU 110300
METAR SEQM 110300Z 00000KT 8000 VCFG SCT010 SCT080 13/12 Q1026 RMK 
    A3030 NOSIG=
METAR SEGU 110300Z 23010KT 9999 SCT023 BKN100 26/21 Q1010 RMK 
A2986 NOSIG=
METAR SEMT 110300Z 21007KT 9999 SCT023 24/22 Q1011=
METAR SELT 110300Z 33002KT 9999 SCT030 10/10 Q1028=

0000073800
456
SATU32 LTAA 110250
METAR LTAG 110250Z 36002KT CAVOK 04/M02 Q1021 NOSIG=
METAR LTAN 110250Z 00000KT 1800 BR OVC003 M03/M03 Q1022 NOSIG=
METAR LTAP 110250Z 00000KT CAVOK M04/M05 Q1022 NOSIG=
METAR LTAT 110250Z 23006KT CAVOK M10/M11 Q1022 NOSIG=
METAR LTAU 110250Z VRB02KT 2000 BR OVC002 M05/M05 Q1022 TEMPO 0800
 FZFG=
METAR LTBF 110250Z 00000KT 0300 R36/0400U R18/0500U FZFG VV003
 M01/M01 Q1023 NOSIG=
METAR LTBU 110250Z 03004KT 0900 R05/0200D R23/0400D BCFG NSC 03/03
 Q1021=
METAR LTCC 110250Z VRB01KT CAVOK M04/M07 Q1019 NOSIG=
METAR LTCE 110250Z 00000KT 0400 R26L/0175U R08R/0175U R26R/0175U
 R08L/0200U FZFG VV002 M26/M28 Q1020 NOSIG=
METAR LTCJ 110250Z 22004KT 4000 BR NSC M04/M04 Q1020=

0000056200
457
SATU33 LTAA 110250
METAR LTAR 110250Z 16005KT CAVOK M08/M11 Q1019=
METAR LTAY 110250Z 00000KT CAVOK M04/M04 Q1021=
METAR LTBR 110250Z 09002KT CAVOK M05/M06 Q1024 NOSIG=
METAR LTBY 110250Z 10004KT 070V140 7000 OVC009 M01/M03 Q1023=
METAR LTCA 110250Z 22006KT CAVOK M08/M09 Q1021 NOSIG=
METAR LTCD 110250Z NIL=
METAR LTCF 110250Z 00000KT CAVOK M24/M26 Q1020=
METAR LTCI 110250Z 08004KT 6000 SCT040 M11/M12 Q1019 NOSIG=
METAR LTDA 110250Z 13001KT CAVOK M01/M01 Q1022=
METAR LTFH 110250Z 36003KT 300V040 CAVOK 04/M04 Q1018 NOSIG=

0000057500
458
SATU34 LTAA 110250
METAR LTAL 110250Z NIL=
METAR LTAS 110250Z NIL=
METAR LTAW 110250Z NIL=
METAR LTBD 110250Z NIL=
METAR LTBH 110250Z NIL=
METAR LTBO 110250Z NIL=
METAR LTCK 110250Z NIL=
METAR LTCL 110250Z NIL=
METAR LTCM 110250Z NIL=
METAR LTCN 110250Z NIL=
METAR LTCO 110250Z NIL=
METAR LTCP 110250Z 27003KT CAVOK 00/M05 Q1019=
METAR LTCR 110250Z NIL=
METAR LTCT 110250Z NIL=
METAR LTCU 110250Z 30002KT CAVOK M10/M12 Q1023=
METAR LTCV 110250Z NIL=
METAR LTFD 110250Z 10006KT 6000 NSC 06/03 Q1021=
METAR LTFG 110250Z NIL=

0000008900
459
SATU35 LTAA 110250
METAR LCEN 110250Z 28011KT CAVOK 08/05 Q1021 NOSIG=

0000012900
460
SAMX31 KWBC 110245 RRD
METAR
MMGL 110245Z 20004KT 10SM BKN030 16/04 A3016 RMK SLP166 52024 904
     8/500=

0000043100
461
FTUS31 KWBC 110300 AAA
TAF AMD
KMEM 110259Z 1103/1124 27013G20KT 3SM -RA BR VCTS SCT006 OVC015CB
     FM110700 24014KT P6SM BKN012 OVC100
     FM111100 26010KT P6SM SCT020
     FM111500 28012G20KT P6SM SCT025=
KPIT 110259Z 1103/1206 11005KT P6SM OVC100
     FM110500 13006KT P6SM OVC050 WS020/22045KT
     FM111000 18010KT 4SM -RA OVC009 WS020/22050KT
     FM112100 23012G24KT P6SM BKN015 OVC025=

0000025600
462
FTUS41 KWBC 110300 AAA
TAF AMD
KCAE 110259Z 1103/1124 VRB04KT 3SM BR VCSH OVC004
      TEMPO 1103/1104 -RA
     FM111200 19007KT 5SM BR VCSH OVC005
     FM111600 21012G22KT 3SM -SHRA OVC005
     FM112300 25011G19KT P6SM OVC035=

0000063900
463
FTUS71 KWBC 110300 AAA
TAF AMD
KCAE 110259Z 1103/1124 VRB04KT 3SM BR VCSH OVC004
      TEMPO 1103/1104 -RA
     FM111200 19007KT 5SM BR VCSH OVC005
     FM111600 21012G22KT 3SM -SHRA OVC005
     FM112300 25011G19KT P6SM OVC035=
KEWN 110256Z 1103/1124 13005KT P6SM -RA SCT015 BKN025
     FM110600 16008KT 5SM BR VCSH OVC025
     FM111400 19014G23KT P6SM BKN060
     FM112100 20016G25KT 5SM -RA VCTS BKN025CB=
KPIT 110259Z 1103/1206 11005KT P6SM OVC100
     FM110500 13006KT P6SM OVC050 WS020/22045KT
     FM111000 18010KT 4SM -RA OVC009 WS020/22050KT
     FM112100 23012G24KT P6SM BKN015 OVC025=

0000023600
464
FTUS72 KWBC 110300 AAA
TAF AMD
KMEM 110259Z 1103/1124 27013G20KT 3SM -RA BR VCTS SCT006 OVC015CB
     FM110700 24014KT P6SM BKN012 OVC100
     FM111100 26010KT P6SM SCT020
     FM111500 28012G20KT P6SM SCT025=

0000008900
465
SAJM31 MKJP 110300
METAR MKJP 110300Z 10006KT 9999 FEW024 26/20 Q1016=

0000044200
466
SACU31 MUHA 110300
METAR
MUHA 110255Z VRB02KT 9000 SKC 19/18 Q1018=
MUVR 110250Z 08007KT 8000 FEW020 24/22 Q1019=
MUSC 110250Z 09005KT 9000 SKC 22/21 Q1019=
MUCC 110250Z 10006KT 9000 SCT020 25/21 Q1018=
MUCM 110253Z 07008KT 9000 FEW020 20/18 Q1019=
MUHG 110250Z 09010KT 070V130 9000 FEW020 24/20 Q1018=
MUCU 110251Z 35005KT 9000 FEW020 22/20 Q1018=
MUCL 110250Z 11003KT 9000 FEW018 25/22 Q1017=
MUCF  NIL=

0000012200
467
SACN61 CYPR 110300
METAR CYPR 110300Z AUTO 08005KT 030V090 9SM OVC055 04/00 A2930 RMK
 PRESFR SLP922=

0000011900
468
SACN62 CYOW 110300
METAR CYOW 110300Z 06006KT 10SM FEW018 OVC028 M05/M07 A3012 RMK
 SC2SC6 SLP208=

0000012200
469
SACN61 CYKF 110300
METAR CYKF 110300Z AUTO 14008KT 3/8SM -RA FG VV002 02/01 A2990 RMK
 PRESFR SLP139=

0000010500
470
SACN61 CYLW 110300
METAR CYLW 110300Z AUTO 02005KT 9SM OVC050 02/M00 A2980 RMK SLP108=

0000013300
471
SACN61 CYPQ 110300
METAR CYPQ 110300Z AUTO 06002KT 7SM OVC015 02/01 A2999 RMK PRESFR
 PCPN 0.5MM PAST HR SLP165=

0000017100
472
SACN62 CYPW 110300
METAR CYPW 110300Z 10012G21KT 3SM RA BR FEW002 FEW006 OVC020 04/03
 A2964 RMK SF1SF1NS7 SF TR LAST OBS/NEXT111500UTC PRESFR SLP042=

00000000