0000012100
953
SACN61 CYQW 110200
METAR CYQW 110200Z AUTO 30003KT 300V010 8SM CLR M11/M13 A2954 RMK
 PRESRR SLP045=

0000010400
954
SAMF20 TFFR 110200
METAR TFFR 110200Z AUTO 08005KT 9999 FEW024/// ///TCU 24/21 Q1017=

0000009100
955
SAHU31 LHBM 110200
METAR LHBP 110200Z VRB01KT CAVOK M01/M03 Q1021 NOSIG=

0000008900
956
SAID33 WALR 110200
METAR WALR 110200Z 32009KT 9000 SCT016 28/24 Q1012=

0000011700
957
SACN61 CYZE 110200
METAR CYZE 110200Z AUTO 15008KT 2SM BR OVC005 01/00 A2982 RMK PRESFR
 SLP106=

0000009500
958
SAGQ20 FGSL 110200
METAR FGSL 110200Z 23005KT 6000 FEW010 23/21 Q1010 NOSIG=

0000010900
959
SPUS31 KWBC 110140
SPECI
KBWI 110136Z 07006KT 1SM R10/P6000FT -RA BR OVC003 02/02 A3024=

0000010000
960
SPUS41 KWBC 110140
SPECI
KDAY 110136Z 15012KT 6SM BR FEW004 OVC022 07/06 A2984=

0000010000
961
SPUS42 KWBC 110140
SPECI
KSAV 110136Z 00000KT 3SM BR FEW005 BKN070 17/16 A3012=

0000010200
962
SAPF20 NTAA 110200
METAR NTAA 110200Z 31004KT 9999 FEW020 31/22 Q1010 WS R22 NOSIG=

0000010600
963
SACN61 CYHU 110200
METAR CYHU 110200Z AUTO VRB02KT 8SM OVC025 M07/M09 A3022 RMK SLP236=

0000077000
964
SACH10 SCSC 110200
METAR SCFA 110200Z 18008KT 9999 BKN014 21/17 Q1012 NOSIG=
METAR SCAR 110200Z 11002KT CAVOK 23/17 Q1013=
METAR SCBA 110200Z AUTO 30018KT CAVOK 09/03 Q1019=
METAR SCCF 110200Z 26010KT CAVOK 15/06 Q1025=
METAR SCIE 110200Z 23008KT CAVOK 16/10 Q1016=
METAR SCAT 110200Z AUTO 23006KT 200V260 9999 // ///013 17/14 Q1013=
METAR SCDA 110200Z 15003KT CAVOK 23/17 Q1012=
METAR SCSE 110200Z 28005KT CAVOK 16/14 Q1011=
METAR SCJO 110200Z NIL=
METAR SCTE 110200Z 20005KT CAVOK 11/08 Q1024 NOSIG=
METAR SCNT 110200Z NIL=
METAR SCCI 110200Z 25011KT 9999 SCT030 OVC100 08/04 Q1010 NOSIG=
METAR SCEL 110200Z 15007KT CAVOK 22/07 Q1014 NOSIG=
METAR SCIP 110200Z NIL=
METAR SCPQ 110200Z AUTO 15006KT 9999 BKN035 11/07 Q1024=

0000008900
965
SAJM31 MKJP 110200
METAR MKJP 110200Z 07007KT 9999 FEW024 27/20 Q1016=

0000039700
966
SAHU41 LHBM 110200
METAR LHKE 110145Z 23002MPS 7000 NSC 01/M01 Q1022 NOSIG RMK WHT=
METAR LHPA 110145Z 00000MPS 8000 BKN040 02/02 Q1021 NOSIG RMK BLU=
METAR LHPP 110145Z 12005KT 9999 BKN040 05/04 Q1022=
METAR LHPR 110145Z /////KT 9999 FEW033 02/00 Q1021=
METAR LHSN 110145Z 25003MPS CAVOK 02/M01 Q1021 NOSIG RMK BLU=
METAR LHUD 110145Z 14003KT 6000 BKN050 01/00 Q1022=

0000010600
967
SASQ41 LZIB 110200 RRA
METAR LZPP 110200Z AUTO 10004KT 9999 // FEW110/// M00/M02 Q1020=

0000012200
968
SACN61 CYKL 110200
METAR CYKL 110200Z AUTO /////KT 9SM -SN OVC027 M10/M12 A2961 RMK WND
 MISG SLP075=

0000011600
969
SACN61 CYMM 110200
METAR CYMM 110200Z AUTO 27006KT 9SM BKN023 OVC037 M13/M15 A2955 RMK
 SLP039=

0000010500
970
SACN61 CYLW 110200
METAR CYLW 110200Z AUTO 02005KT 9SM OVC070 01/M00 A2983 RMK SLP117=

0000010600
971
SACN61 CYNM 110200
METAR CYNM 110200Z AUTO 20008KT 7SM OVC009 M04/M05 A2988 RMK SLP138=

0000011200
972
SACN61 CYMO 110200
METAR CYMO 110200Z AUTO 19010G18KT 9SM OVC028 M01/M03 A2976 RMK
 SLP079=

00000000