0000011600
573
SACN61 CYHD 102000
METAR CYHD 102000Z AUTO 18011KT 2 1/2SM BR OVC006 M07/M07 A2948 RMK
 SLP011=

0000010600
574
SACN62 CYGP 102000
METAR CYGP 102000Z 00000KT 15SM BKN035 M06/M15 A3014 RMK SC7 SLP209=

0000011300
575
SACN61 CYHU 102000
METAR CYHU 102000Z AUTO 18003KT 9SM -SN OVC018 M03/M06 A3028 RMK
 SLP256=

0000012200
576
SACN62 CYMA 102000
METAR CYMA 102000Z 30002KT 3SM -SN BKN025 BKN070 M17/M19 A2940 RMK
 SC6AC1 SLP005=

0000030300
577
FTLV31 EVRA 102000
TAF EVRA 102003Z 1021/1121 31015G25KT 9999 BKN010 OVC015
     TEMPO 1021/1105 33020G32KT 5000 -RASN BKN007 OVC015
     BECMG 1105/1107 24007KT BKN020 BKN030 TEMPO 1112/1115
     BKN012 BKN020 BECMG 1115/1116 BKN010 OVC015 TEMPO
     1116/1121 BKN005 OVC015=

0000045600
578
FTUS80 KWBC 102003 AAA
TAF AMD
KACV 102001Z 1020/1118 25006KT 3SM BR OVC001
     FM102100 24006KT P6SM SCT002 BKN012
      TEMPO 1021/1022 5SM BR BKN002
     FM110000 20009KT P6SM VCSH SCT005 BKN015
     FM110700 16012G22KT 4SM -RA BR OVC015=
KSYR 102002Z 1020/1118 16006KT P6SM SCT020 BKN030
     FM102300 18006KT P6SM SCT015 OVC022
     FM110700 18010KT 4SM -SHRA OVC012
     FM111200 13014KT 6SM -SHRA SCT008 OVC011=

0000023500
579
FTUS80 KWBC 102003
TAF
TAF KEVW 101950Z 1020/1118 25020G30KT P6SM VCSH OVC040
     FM102100 25022G32KT 5SM -SHSN BLSN OVC020
     FM110200 24020KT P6SM VCSH BKN030
     FM111500 22015G27KT P6SM SCT050 BKN070=

0000027100
580
FTUS54 KWBC 102003 AAA
TAF AMD
KACV 102001Z 1020/1118 25006KT 3SM BR OVC001
     FM102100 24006KT P6SM SCT002 BKN012
      TEMPO 1021/1022 5SM BR BKN002
     FM110000 20009KT P6SM VCSH SCT005 BKN015
     FM110700 16012G22KT 4SM -RA BR OVC015=

0000066100
581
UDAF01 FAPR 111001
AMDAR 1110
LVR AFZA22 3611N 06211W 110910 F380 MS632 310/125 TB0 S031 333 F/// VG011=
LVR AFZA22 3624N 06257W 110918 F380 MS637 312/121 TB0 S031 333 F/// VG011=
LVR AFZA22 3637N 06343W 110925 F380 MS627 310/123 TB0 S031 333 F/// VG011=
LVR AFZA22 3650N 06430W 110932 F380 MS632 309/116 TB0 S031 333 F/// VG011=
LVR AFZA22 3703N 06518W 110939 F380 MS632 305/111 TB0 S031 333 F/// VG011=
LVR AFZA22 3716N 06607W 110946 F380 MS632 301/108 TB0 S031 333 F/// VG011=
LVR AFZA22 3727N 06657W 110953 F380 MS632 299/099 TB0 S031 333 F/// VG011=
LVR AFZA22 3730N 06749W 110960 F380 MS632 297/099 TB0 S031 333 F/// VG011=
0000066100
582
UDAF01 FAPR 111004
AMDAR 1110
ASC AFZA63 2608S 02814E 111001 F053 PS226 124/007 TB0 S031 333 F/// VG000=
ASC AFZA63 2607S 02815E 111002 F054 PS220 307/009 TB0 S031 333 F/// VG000=
ASC AFZA63 2606S 02815E 111002 F058 PS215 323/011 TB0 S031 333 F/// VG009=
ASC AFZA63 2606S 02815E 111003 F061 PS206 224/009 TB0 S031 333 F/// VG009=
ASC AFZA63 2606S 02815E 111003 F064 PS196 340/013 TB0 S031 333 F/// VG009=
ASC AFZA63 2605S 02815E 111003 F067 PS184 352/011 TB0 S031 333 F/// VG009=
ASC AFZA63 2605S 02815E 111003 F070 PS163 341/012 TB0 S031 333 F/// VG000=
UNS AFZA63 2602S 02816E 111004 F074 PS149 341/013 TB0 S031 333 F/// VG000=
0000024400
583
SNVD15 KWNB 111000 RRD
BBXX
41009 11101 99285 70802 46/// /1706 10241 20219 40181 56012 90950
22200 00241 10903 20501 307// 40903 70017 333 91206 555 11059
22062 30853 41707 60949 171054 171053 168051 167053 166058 169061=
0000024400
584
SNVD17 KWNB 111000 RRE
BBXX
51101 11101 99243 71621 46/// /0613 10226 20192 40153 58006 90950
22200 00237 11109 20806 305// 41107 70046 333 91215 555 11135
22143 30935 40718 60949 060126 062135 062133 061130 060126 071127=
0000069400
585
SNVD19 KWNB 111000 RRA
BBXX
46126 11101 99540 71666 46/// /2202 10040 49810 90936 22200 00045
1//00 70001 333 91203 555 11018 22020=
46126 11101 99540 71666 46/// /2202 10040 49810 90940 22200 00045
1//00 70001 333 91203 555 11018 22020=
46126 11101 99540 71666 46/// /2202 10040 49810 90942 22200 00045
1//00 70001 333 91202 555 11017 22019=
46126 11101 99540 71666 46/// /2202 10040 49811 90945 22200 00046
1//00 70001 333 91202 555 11017 22019=
46078 11101 99560 71526 46/// /2207 10038 20020 49942 58013 90950
22200 00044 11105 20502 324// 41104 70023 333 91209 555 11074
22078 30930 42309 60949 222069 225071 225069 222064 226067 223062
82308 90859=
0000040300
586
SNVE15 KWNB 111000 RRA
BBXX
51004 11101 99175 71524 46/// /1008 10249 40140 54000 90950 22200
00249 11405 20603 333// 41405 70027 333 91211 555 11082 22088
30947 40911 60949 098075 277067 278065 277070 278073 277073=
51100 11101 99236 71539 46/// /0911 10235 40157 57006 90950 22200
00244 333 91214 555 11119 22126 30948 40914 60949 091112 088108
087106 084097 085099 085103=
0000042700
587
SNVD22 KWNB 111000 RRE
BBXX
46069 11101 99337 71202 46/// /3604 10147 40193 54000 90950 22200
00142 11305 20301 3//// 41305 70023 333 91205 555 11046 22051
30906 43309 60949 359043 345049 334056 331070 329072 332064=
46088 11101 99483 71232 46/// /1410 10094 20076 49918 56039 90950
22200 00074 10503 20503 70013 333 91213 555 11109 22119 30855
41415 60949 140100 143108 143101 141102 144096 141111=
0000023200
588
SNVD20 KWNB 111000 RRE
BBXX
44013 11101 99423 70707 46/// /1305 10049 20049 40205 58038 90950
22200 00046 10501 20501 70003 333 91206 555 11058 22063 30946
41306 60949 133054 138048 137044 131040 129043 128041=
0000029000
589
SXHW11 KWAL 111005
B15017A0 011100503"
1,140111,09:00:00,7.4,93,11.7,11.4,1015.2,6.03,12.9,
1,140111,09:15:00,7.8,103,10.8,11.5,1015.2,6.03,12.9,
1,140111,09:30:00,7.3,110,10.2,11.5,1015.1,6.03,12.9,
1,140111,09:45:00,7.2,116,11.0,11.6,1015.1,6.03,12.9, 42+0NN 210W
0000009900
590
SAER41 OMAM 110957 RRF
METAR OMAM 111000Z 19011KT 9999NDV BKN100 23/10 Q1017 A3003=
0000065600
591
SABY31 UMMN 111000
METAR UMBB 111000Z 27007G12MPS 9999 SCT024 SCT100 05/01 Q1013
R29/290050 NOSIG=
METAR UMGG 111000Z 29012G16MPS 9999 -SHRA BKN032CB BKN100 04/M01
Q1004 R28/290050 NOSIG=
METAR UMII 111000Z 28008G14MPS P6000 OVC012CB 02/M01 Q0998 R23/290150
TEMPO 2000 SHSNRA BKN005=
METAR UMMG 111000Z 27005G08MPS 9999 BKN011 OVC066 04/02 Q1009
R35/290060 NOSIG=
METAR UMMM 111000Z 28008G11MPS 9999 OVC014 01/M02 Q1005 R30/190060
NOSIG RMK QFE734 =
METAR UMMS 111000Z 29005G10MPS 9999 BKN019 01/M02 Q1005 R31/CLRD//
NOSIG=
METAR UMOO 111000Z 29011G15MPS 4200 -SHSNRA BKN021CB OVC/// 01/M01
Q1003 R31/290067 NOSIG=
0000049500
592
SNVF11 BIRK 111000
BBXX
TFBKF 11104 99635 70202 46/// ///// 22200 10704 70020=
TFGRS 11104 99663 70182 46/// ///// 22200 10706 70028=
TFGRV 11104 99638 70225 46/// ///// 22200 10905 70025=
TFGSK 11104 99641 70229 46/// ///// 22200 10906 70032=
TFHFN 11104 99642 70152 46/// ///// 22200 10707 70036=
TFKGR 11104 99657 70136 46/// ///// 22200 10810 70052=
TFSRT 11104 99633 70203 46/// ///// 22200 10907 70034=
TFSTD 11104 99664 70234 46/// ///// 22200 10806 70032=
00000000