0000015700
293
SSVX13 LFPW 111000
ZZYY 44612 11014 1000/ 745769 045312 6113/ 11119 40218 52001 22219
 00042 444 20130 11014 1000/ 50101 80154 80000 9/015=
0000011800
294
SNVF25 LFPW 111000
BBXX
BATFR09 11104 99397 70101 46/// /0504 10152 20069 40188 53009
22242 04157=
0000251500
295
SNDL21 EDZW 111000
AAXX 11101
10004 46/56 /2611 10079 20071 30069 40069 56007
222// 00080
  333 55300 91115 91213=
10015 41239 82211 10063 20055 30068 40078 58010 76366 887//
  333 55300 20076 30076 88705 91116 91211 96010=
10020 47258 72209 10067 20062 30024 40056 58011 76266
  333 55300 20020 30020 87/04 91113=
10035 41240 82307 10056 20049 30019 40078 58007 76366 877//
  333 55300 20050 30049 41227 87706 91114=
10055 41215 82307 10058 20053 30074 40084 58006 75152 877//
  333 55300 20024 30024 87706=
10147 41356 82208 10050 20040 30089 40108 58005 76162 877//
  333 55300 20066 30061 41229 87708=
10162 47345 82207 10051 20039 30031 40104 58006 72365
  333 55300 20064 30064 88/09=
10184 41350 82204 10055 20041 30095 40103 58005 76062 876//
  333 55300 20151 30151 87709=
10200 47248 82107 10052 20045 30100 40098 58008 76166
  333 55300 20083 30083 88/05 88/23=
10224 42462 72206 10048 20028 30111 40117 58002 8552/
  333 55300 20240 30239 82711 84650 87459=
10270 46760 82203 10054 20024 30081 40137 58004
  222// 06040
  333 55300 87/50 88/57=
10338 42975 32006 10058 20015 30060 40133 58005 82031
  333 55310 20605 30176 82363=
10361 42983 12203 10055 20018 30038 40143 58004 81040
  333 55310 20583 30124 81360=
10393 42981 22405 10051 20017 30018 40146 55003 82030
  333 55307 20606 30239 82363=
10400 42481 51903 10049 20031 30113 40163 53006 82572
  333 55302 20239 30207 82618 84074=
10469 42984 42005 10043 20018 39992 40159 58004 83054
  333 55309 83360=
10488 42984 52205 10061 20005 39883 40166 57004 83084
  333 55309 20736 30304 40936 83366 84080=
10506 42378 72505 10046 20029 39586 40174 53009 8687/
  333 55301 20354 30322 81808 86635 86459=
10548 41/02 91602 10003 20002 39629 40185 58001 74344
  333 55300 20090 30090=
10637 41156 82003 10017 20011 30046 40187 52007 76166 8172/
  333 55300 81703 87538 96010=
10685 41484 71803 10018 21001 39491 40177 58002 71422 8185/
  333 55300 20199 30197 81815 87358=
10738 41457 80401 10011 20009 39716 40198 53008 76366 8272/
  333 55300 82710 87540=
10763 42865 71303 10019 20010 39795 40186 56005 8703/
  333 55304 20502 30345 87358=
10788 47857 81103 10012 20006 39762 40206 55003 71000
  333 55300 20269 30268 82/57 88/60 88/63=
10852 47857 81301 10022 20014 39616 40197 51003 71000
  333 55307 20540 30353 82/58 88/59 88/64=
10946 45882 51702 10064 20042 39349 40180 53001
  333 55305 20644 30450 83/57 84/58 85/62=
0000241100
296
SNDL22 EDZW 111000
AAXX 11101
10007 NIL=
10044 46/// /2211 10059 20049 30046 40078 58006
222// 00054
  333 55300 91116 91213=
10046 47341 82205 10061 20053 30051 40085 58006 75866
  333 55300 88/08=
10091 41350 82410 10052 20047 30038 40089 58003 75022 877//
  222// 06053
  333 55300 20086 30085 87707 91114 91211=
10113 41335 82108 10057 20051 30070 40089 58010 76166 886//
  333 55300 20083 30083 88707 91113 96010=
10124 46/// ///// 10052 20052 30043 40081 58009
222// 0////
  333 553//=
10131 41350 82206 10054 20045 30080 40095 58005 76366 877//
  333 55300 20034 30034 87707=
10170 41356 82105 10058 20042 30083 40099 57006 76022 886//
  333 55300 20107 30107 88709=
10264 45462 82305 10055 20033 30009 40116 56008
  333 55300 20226 30225 88/12=
10291 42470 82305 10054 20026 30062 40130 58001 8587/
  333 55303 20435 30360 81815 85656 87463=
10315 42962 72104 10043 20025 30079 40144 55001 8707/
  333 55300 20211 30210 83359 87462=
10379 NIL=
10381 42982 22204 10057 20017 30042 40140 57004 82081
  333 55308 82363=
10382 42681 42305 10058 20018 30095 40140 58003 82530
  333 55304 20373 30263 82642 84363=
10384 46/// /2204 10055 20017 30078 40139 58004
  333 55308 20628 30279=
10427 41/01 92307 10000 21001 39140 48436 53002 74944
  333 55300 20094 30094=
10430 45983 71803 10045 20010 39956 40151 58002
  333 55309 20434 30221 84/65 87/68=
10439 NIL=
10453 41988 32316 11029 21029 38791 48418 58006 73630 83031
  333 55310 83360 91120 91216
  444 26105=
10496 42982 12305 10060 20016 30072 40158 57003 81030
  333 55310 20690 30205 81363=
10499 42983 52107 10042 20005 39876 40170 57003 80006
  333 55310 20585 30223 85270=
10505 42684 62307 10063 20039 39883 40166 53011 84831
  333 55300 20176 30175 81835 84640=
10513 42582 71703 10051 20032 30041 40164 53005 8257/
  333 55300 20198 30198 82628 83360 86466=
10532 47002 82301 11001 21003 39925 40181 51003 73533
  333 55300 20192 30192 88/00=
10544 42084 72006 10001 20001 39077 48449 52004 8687/
  333 55300 81800 86631 87459
  444 26064=
10554 42982 72204 10027 20004 39775 40170 57001 8707/
  333 55300 20239 30231 87360=
10567 42975 71906 10037 20016 39790 40171 58001 86081
  333 55310 20566 30197 86360=
10578 42178 62314 11023 21027 38759 48452 55001 81132
  333 55309 20609 30345 81802 85357 91117 91214=
0000220700
297
SNDL23 EDZW 111000
AAXX 11101
10609 41235 82502 10016 20016 39851 40189 53013 72042 875//
  333 55300 20207 30202 82706 87640=
10616 41682 72502 10042 20030 39571 40177 53006 72122 878//
  333 55300 81835 87657=
10641 47644 72102 10018 20013 30036 40187 53007 76265
  333 55300 87/39=
10655 42660 81301 10004 20002 39846 40184 50002 875//
  333 55301 20223 30206 82640 87656=
10675 47947 81301 10003 20003 39891 40192 55003 71000
  333 55300 20367 30358 87/58 88/61 88/65=
10688 47933 02102 10006 20005 39659 40195 58004 71000
  333 55301 20294 30268=
10708 41559 81801 10030 20026 39795 40188 53007 76062 8152/
  333 55300 20087 30085 81631 85639 88458 96040=
10729 47660 83101 10025 20017 30066 40191 53009 75765
  333 55300 20114 30114 81/36 88/50=
10731 41664 82201 10023 20019 30043 40190 51014 72122 885//
  333 55300 20138 30134 83640 87656=
10742 47757 82001 10012 20004 39854 40194 53013 72365
  333 55300 20153 30153 87/50 88/56=
10776 47250 71503 10002 20000 39748 40206 57002 72250
  333 55300 20231 30228 85/04 87/58 87/60=
10791 41589 72311 11022 21022 38523 48467 57002 71422 81578
  333 55303 81633 86270 91211
  444 27135=
10805 41765 73503 10035 20032 30005 40200 53019 76166 8702/
  333 55300 20018 30018 87556=
10815 47/24 92506 10060 20054 39241 48481 53012 76365
  333 55301 20138 30127 91113=
10836 41678 72503 10043 20014 39308 40184 51008 76162 875//
  333 4/001 55302 20359 30305 87635 99010=
10870 42958 70802 10009 20009 39653 40201 50000 82032
  333 55305 82361 87075=
10895 41963 80501 11004 21006 39622 40210 55003 72842 86057
  333 55307 20703 30449 86360 88281 95149 98186 98286
  444 87041=
10908 42883 72609 10036 21006 38497 48493 53017 86031
  333 55303 20522 30424 86357 91113 91211=
10929 41/02 93002 10018 20018 39664 40208 53011 74344
  333 55300 20205 30201=
10948 45987 82501 10062 20052 39238 48485 51001
  333 55306 20649 30424 88/59=
10961 42489 72610 11050 21071 37086 47056 53007 81292
  333 55301 20596 41012 81815 85320 91117 91212 95150
  444 16130=
10962 42788 72102 10089 20022 39034 48487 51003 81532
  333 55304 20650 30466 81656 83362 85075=
0000126000
298
SNDL44 EDZW 111000
AAXX 11101
10022 47231 82210 10062 20057 30057 40067 58009 76266
  333 55300 20023 30023 88/06 91116=
10028 41238 82312 10059 20053 30067 40081 58007 76366 877//
  333 55300 20045 30045 87706 91115 91212 98038=
10033 NIL=
10037 NIL=
10038 NIL=
10042 47350 72309 10063 20052 30075 40079 58007 76166
  333 55300 87/09 87/15 91113=
10067 NIL=
10093 47350 82305 10052 20037 30047 40097 58002 75765
  333 55300 88/07=
10097 47456 72309 10053 20038 30085 40099 58003 71000
  222// 06045
  333 55300 86/14 87/50=
10126 NIL=
10129 47360 82210 10051 20045 30094 40107 58003 75165
  333 55300 20041 30040 88/07=
10130 47234 72210 10054 20048 30087 40093 58005 76266
  333 55300 87/05 91113=
10136 NIL=
10139 47345 82205 10047 20041 30097 40111 58004 76165
  333 55300 20069 30068 88/09=
10142 46337 82305 10054 20046 30064 40095 58006
  333 55300 88/07=
10146 47338 82105 10053 20044 30089 40106 58005 76165
  333 55300 88/08=
10150 47342 72206 10057 20049 30061 40095 58005 76165
  333 55300 20049 30049 87/07=
10152 47350 82307 10061 20051 30092 40094 58006 72365
  333 55300 88/08=
10156 47349 82104 10057 20043 30083 40104 58007 76165
  333 55300 20056 30056 88/09=
0000158100
299
SNDL45 EDZW 111000
AAXX 11101
10161 47239 82107 10055 20046 30080 40100 58006 76165
  333 55300 20042 30042 88/06=
10168 47345 82206 10052 20041 30037 40110 57005 72365
  333 55300 88/08=
10172 NIL=
10180 47456 82306 10058 20044 30092 40097 58004 72365
  333 55300 88/10=
10193 45658 72306 10055 20035 30111 40114 58006
  333 55300 20190 30190 85/46 87/56 87/65=
10210 47350 72106 10045 20034 30110 40119 58002 75165
  333 55300 20074 30073 87/08=
10235 45767 82204 10048 20021 30031 40126 58004
  333 55302 20342 30297 81/56 87/59 88/61=
10238 NIL=
10246 NIL=
10249 47458 82104 10052 20031 30058 40115 58006 72365
  333 55300 20104 30104 85/12 88/43=
10253 45970 72307 10055 20024 30105 40127 58004
  333 55306 87/60=
10261 42781 32305 10062 20025 30101 40130 58006 81581
  333 55307 20548 30283 81650=
10267 45578 82206 10056 20029 30081 40130 58006
  333 55302 81/29 87/58 88/64=
10268 46/// /2205 10048 20032 30027 40115 58006
  333 55300=
10281 463// 72206 10049 20036 30003 40117 58007
  333 55300 20134 30134 86/09 87/31=
10282 47460 82306 10044 20029 39980 40123 58004 72365
  333 55300 20124 30124 86/10 88/50 88/57=
10289 45463 82207 10046 20030 30056 40126 57002
  333 55300 84/10 88/63 88/66=
10304 NIL=
10305 41358 82105 10038 20021 30100 40132 58003 76122 876//
  333 55300 87708=
10306 NIL=
10309 47356 72105 10034 20023 30085 40143 55003 71000
  333 55300 20208 30207 85/07 87/50 87/56=
10312 45972 82305 10038 20015 30009 40138 58001
  333 55300 20214 30212 87/59 88/61=
0000053200
300
SANM40 FYWW 101900
METAR FYGB 101900Z AUTO 31001KT //// // ////// 23/07 Q1018=
METAR FYGO 101900Z AUTO 23006KT //// // ////// 26/15 Q1013=
METAR FYKT 101900Z AUTO 18006KT //// // ////// 27/05 Q1015=
METAR FYLZ 101900Z AUTO 17019KT //// // ////// 17/08 Q1012=
METAR FYOA 101900Z AUTO 23001KT //// // ////// 26/03 Q1012=
METAR FYOO 101900Z AUTO 25003KT //// // ////// 28/M01 Q1014=
METAR FYOW 101900Z AUTO 00000KT //// // ////// 22/04 Q1015=
METAR FYWB 101900Z AUTO 26007KT //// // ////// 19/15 Q1013=

0000009500
301
SAFR32 LFPW 101900 RRA
METAR LFCK 101900Z AUTO 11022KT 9999 NSC 11/07 Q1016=

0000087000
302
SAEA20 HKNC 101900
METAR HKEL 101900Z  13003KT  9999 FEW020CB SCT280 16/09 Q1025=
METAR HKJK 101900Z 07007KT 9999 SCT023 20/12 Q1022 NOSIG=
METAR HKKS 101900Z 09003KT 9999 FEW019CB BKN090 19/14=
METAR HKMO 101900Z 05015KT 9999 FEW021 26/22 Q1012 NOSIG=
METAR HKNC 101900Z 09005KT 9999 BKN019 20/12 Q1023=
METAR HKNK 101900Z  00000KT  CAVOK  19/10=
METAR HKEM 101900Z NIL=
METAR HKGA 101900Z NIL=
METAR HKKG 101900Z NIL=
METAR HKKI 101900Z NIL=
METAR HKKR 101900Z NIL=
METAR HKKT 101900Z NIL=
METAR HKLO 101900Z NIL=
METAR HKLU 101900Z NIL=
METAR HKMA 101900Z NIL=
METAR HKMB 101900Z NIL=
METAR HKME 101900Z NIL=
METAR HKML 101900Z NIL=
METAR HKMU 101900Z NIL=
METAR HKMY 101900Z NIL=
METAR HKNI 101900Z NIL=
METAR HKNO 101900Z NIL=
METAR HKNW 101900Z NIL=
METAR HKVO 101900Z NIL=
METAR HKWJ 101900Z NIL=

0000010600
303
SAAF05 LFPW 101900 RRA
METAR DBBB 101900Z 19007KT 6000 FEW013 BKN200 28/26 Q1009 NOSIG=

0000016200
304
SAAF08 LFPW 101900 RRA
METAR DFFD 101900Z 04005KT 4000 HZ NSC 27/04 Q1012 BECMG 6000 NSW=
METAR GABS 101900Z 06003KT CAVOK 28/07 Q1011 NOSIG=

0000028700
305
SAAF11 LFPW 101900 RRA
METAR FCPP 101900Z 17007KT 9999 SCT013 BKN023 27/24 Q1011 NOSIG=
METAR FKKD 101900Z VRB02KT 8000 FEW016 BKN300 28/25 Q1011 NOSIG=
METAR FKKR 101900Z 00000KT CAVOK 26/04 Q1012 NOSIG=
METAR FKYS 101900Z 00000KT 9999 FEW013 22/19 Q1014 NOSIG=

0000009300
306
SAAF13 LFPW 101900 RRA
METAR GGOV 101900Z 34003KT CAVOK 26/13 Q1010 NOSIG=

0000022400
307
SAAF14 LFPW 101900 RRA
METAR DRRN 101900Z 07006KT 3500 DU NSC 26/M02 Q1013 NOSIG=
METAR FEFF 101900Z 00000KT 2000 BR NSC 24/19 Q1011 BECMG 6000 NSW=
METAR FTTJ 101900Z 02006KT CAVOK 22/M04 Q1016 NOSIG=

0000015300
308
SAAF27 LFPW 101900 RRA
METAR FGBT 101900Z 22007KT 9999 FEW010 28/25 Q1011 NOSIG=
METAR GUCY 101900Z 20006KT CAVOK 27/22 Q1009 NOSIG=

0000023600
309
SACG21 FCBB 101900
METAR FCBB 101900Z 00000KT 8000 FEW020 FEW030CB 25/22 Q1013 TEMPO
      TS=
METAR FCPP 101900Z 17007KT 9999 SCT013 BKN023 27/24 Q1011 NOSIG=
METAR FCPD NIL=
METAR FCOU NIL=
METAR FCOI NIL=

0000065300
310
FKPQ30 RJTD 101800
TC ADVISORY
DTG:                 20140110/1800Z
TCAC:                TOKYO
TC:                  NN
NR:                  2
PSN:                 N0355 E13135
MOV:                 WNW 07KT
C:                   1004HPA
MAX WIND:            30KT
FCST PSN +6HR:       11/0000Z N0410 E13050
FCST MAX WIND +6HR:  35KT
FCST PSN +12HR:      11/0600Z N0430 E13000
FCST MAX WIND +12HR: 35KT
FCST PSN +18HR:      11/1200Z N0455 E12900
FCST MAX WIND +18HR: 35KT
FCST PSN +24HR:      11/1800Z N0520 E12800
FCST MAX WIND +24HR: 35KT
RMK:                 NIL
NXT MSG:             20140111/0000Z =

0000056500
311
SAHK31 VHHH 101900
METAR VHHH 101900Z 08010KT 9000 FEW022 16/11 Q1023 NOSIG=
METAR RCTP 101900Z 07011KT 9999 FEW020 16/12 Q1023 NOSIG RMK A3022
=
METAR RCKH 101900Z 02006KT 360V070 6000 FEW015 SCT060 17/13 Q1023
NOSIG RMK A3022=
METAR RCSS 101900Z 09009KT 9999 FEW025 SCT035 BKN100 17/12 Q1024
NOSIG RMK A3026=
METAR VMMC 101900Z 35003KT 320V020 7000 SCT025 16/11 Q1023 NOSIG=
METAR RPLL 101900Z NIL=
METAR RPVM 101900Z NIL=
METAR RPMD 101900Z NIL=
METAR RPLB 101900Z NIL=
METAR RPLI 101900Z NIL=
METAR RPMZ 101900Z NIL=

0000167100
312
SPUS70 KWBC 101910
SPECI
KBLF 101906Z AUTO 00000KT 10SM SCT006 BKN030 OVC060 11/07 A3017
     RMK AO2=
KBOK 101906Z AUTO 16008KT 3/4SM BR OVC002 09/09 A3028 RMK AO2
     $=
KBRL 101906Z AUTO 14009KT 1 3/4SM +RA BR OVC003 02/01 A2965 RMK
     AO2 LTG DSNT SE AND S P0004 I1000 T00170011=
KCAG 101906Z AUTO 06007KT 10SM SCT028 BKN045 OVC050 M06/M08 A2989
     RMK AO2 SNE1854 T10611083 PNO $=
KFMY 101906Z 16007KT 10SM BKN025 27/20 A3006 RMK AO2=
KIOW 101906Z AUTO 14008KT 1 1/4SM BR OVC002 01/01 A2968 RMK
     AO2=
KTHV 101906Z AUTO 09004KT 1 3/4SM BR OVC007 02/00 A3032 RMK AO2
     T00170000=
KAWM 101907Z AUTO 16011KT 10SM BKN030 OVC110 12/09 A2990 RMK
     AO2=
KCXO 101907Z 17012G19KT 9SM -RA FEW019 BKN025 OVC042 19/16 A2987
     RMK AO2 RAB02 P0000=
KDMO 101907Z AUTO 18009KT 2 1/2SM RA BR FEW009 BKN029 OVC085 08/08
     A2960 RMK AO2 P0005 T00830083=
KFRG 101907Z 00000KT 2SM BR SCT018 BKN026 OVC035 03/02 A3038 RMK
     AO2=
KGRD 101907Z AUTO 02007KT 2 1/2SM -RA BR OVC003 07/06 A3018 RMK
     AO2 RAB1858 P0000=
KIWI 101907Z AUTO VRB04KT 10SM SCT013 BKN046 OVC075 M02/M06 A3038
     RMK AO2 T10221056=
KTAN 101907Z AUTO 00000KT 1 3/4SM -RA BR BKN020 OVC025 02/M01
     A3040 RMK AO2 P0001 T00171006=
KTDZ 101907Z AUTO 16006KT 5SM BR SCT014 OVC023 03/01 A3005 RMK AO2
     TSNO=
PAGN 101907Z AUTO 00000KT 5SM -RA BR SCT014 BKN021 BKN031 12/12
     A2957 RMK AO2 TSNO P0001 $=
PAGN 101907Z AUTO 00000KT 5SM -RA BR SCT014 BKN021 BKN031 12/12
     A2957 RMK AO2 TSNO P0001 $=
KBMI 101907Z 23009KT 3/4SM R29/5000V6000FT -RA BR OVC001 01/01
     A2981 RMK AO2 P0000 WSHFT 1851=

00000000