0000089600
733
SAUS74 KWBC 102000 RRB
METAR
KSEA 101953Z 20012G18KT 10SM BKN014 OVC021 09/06 A3007=
KSFF 101953Z 24011G18KT 10SM FEW080 06/00 A2989=
KSFO 101956Z 08004KT 9SM FEW001 BKN200 12/09 A3028=
KSHR 101953Z AUTO 00000KT 10SM OVC080 02/M05 A2958=
KSJC 101953Z 26005KT 10SM FEW003 SCT160 BKN250 13/09 A3027=
KSLC 101953Z 13008KT 10SM SCT065 BKN110 BKN180 05/M03 A3005=
KSMF 101953Z 33004KT 10SM BKN250 12/06 A3028=
KSMX 101951Z 32014KT 10SM CLR 22/03 A3014=
KSNA 101953Z 00000KT 5SM HZ SCT250 19/10 A3008=
KSNS 101953Z 26005KT 10SM CLR 17/07 A3024=
KTIW 101953Z 19010KT 10SM SCT012 BKN024 OVC110 08/06 A3009=
KTUS 101953Z VRB05KT 10SM CLR 17/M08 A3010=
KTVL 101953Z AUTO 17003KT 10SM CLR 10/M04 A3029=
KTWF 101953Z 26022G32KT 10SM CLR 08/M03 A3003=
KUKI 101956Z AUTO 00000KT 10SM CLR 13/06 A3026=
KYKM 101953Z 28026G31KT 10SM CLR 12/M03 A2992=
KYUM NIL=

0000168300
734
SAUS75 KWBC 102000
METAR
PABA 102001Z AUTO 27021KT 2 1/2SM BR M26/M28 A2986=
PABE 101953Z 04009KT 10SM BKN006 M10/M11 A2947=
PABI 101953Z 00000KT 8SM -SN SCT035 BKN070 OVC100 M18/M20
     A2950=
PABR 101953Z 32009KT 10SM SCT005 BKN120 M26/M28 A2992=
PABT 101953Z 00000KT 10SM FEW045 SCT150 M32/M35 A2967=
PACV 101953Z 04003KT 4SM -SN BR FEW021 SCT027 OVC050 M02/M02
     A2938=
PACZ 101955Z AUTO 10007G11KT 360V200 10SM FEW055 SCT070 M05/M07
     A2942=
PADK 101956Z AUTO 23021G28KT 10SM FEW022 SCT030 OVC075 04/00
     A2895=
PADL NIL=
PADU 101956Z 16009KT 9SM -SN SCT016 BKN022 OVC028 03/M01 A2929=
PAEH 101955Z AUTO 14014G29KT 10SM BKN006 01/00 A2937=
PAEI 101958Z AUTO 00000KT 10SM SCT060 OVC080 M18/M20 A2957=
PAEN 101953Z 00000KT 1/4SM FZFG BKN005 OVC009 M04/M04 A2943=
PAFA 101953Z 00000KT 10SM BKN085 BKN110 M19/M22 A2958=
PAFB 101955Z 13003KT 13SM BKN085 M20/M22 A2959=
PAGA 101958Z AUTO 00000KT 10SM CLR M24/M27 A2969=
PAGK 101953Z AUTO 00000KT 1 1/2SM -SN BR FEW070 OVC085 M09/M10
     A2934=
PAGS 101956Z AUTO 15006KT 10SM BKN015 OVC022 03/01 A2950=
PAGY 101953Z AUTO 20023G33KT 10SM OVC065 04/00 A2942=
PAHO 101953Z 00000KT 10SM OVC070 M02/M04 A2943=
PAIL 101953Z 00000KT 10SM OVC020 M03/M03 A2949=
PAJN 101953Z 08007G15KT 10SM SCT016 BKN034 BKN050 BKN150 03/01
     A2953=
PAKN 101954Z 11003KT 10SM SCT004 BKN025 M05/M05 A2946=
PAKT 101953Z 18005KT 10SM SCT016 BKN031 03/02 A2969=
PALU 101955Z AUTO 09006KT 10SM OVC012 M19/M20 A3005=
PAMC 101953Z 02003KT 10SM SCT020 M18/M20 A2958=
PANC 101953Z 34004KT 7SM -SN BKN005 OVC010 M03/M04 A2942=
PANT 101953Z 00000KT 10SM CLR 02/02 A2969=

0000136600
735
SAUS75 KWBC 102000 RRA
METAR
PAOM 101953Z 04011KT 10SM SCT090 BKN200 M11/M17 A2965=
PAOR 101953Z 00000KT 9SM -SN BKN022 BKN027 M16/M18 A2940=
PAOT 101953Z 02004KT 10SM CLR M18/M24 A2979=
PAPG 101955Z 00000KT 10SM -RA SCT027 BKN035 OVC047 03/01 A2959=
PASC 101953Z 23013KT 10SM OVC026 M31/M34 A2989=
PASI 101953Z 32005KT 10SM SCT023 BKN033 OVC042 02/02 A2957=
PASN 101953Z 19004KT 10SM BKN016 00/M01 A2918=
PATA 101952Z 00000KT 10SM CLR M34/M37 A2967=
PATC 101955Z AUTO 02021KT 10SM CLR M18/M20 A2975=
PATK 101953Z 00000KT 10SM OVC018 M07/M09 A2941=
PAUN 101956Z AUTO 08018KT 10SM BKN046 BKN070 M13/M20 A2960=
PAVD 101956Z 10SM FEW010 FEW040 BKN100 M04/M07 A2939=
PAYA 101953Z 00000KT 10SM SCT018 SCT042 SCT100 00/00 A2944=
PGRO NIL=
PGUA 101958Z AUTO 06016KT 10SM SCT021 25/23 A2990=
PGUM 101954Z 06009KT 10SM FEW024 26/22 A2990=
PHJH 101950Z 04012KT 15SM FEW015 SCT030 24/20 A3002=
PHLI 101953Z 04013KT 10SM FEW021 24/19 A3006=
PHMK 101954Z 03010G16KT 10SM FEW013 23/21 A3002=
PHNL 101953Z 01008KT 10SM FEW026 SCT036 SCT044 26/17 A3001=
PHNY 101956Z AUTO 05016G21KT 10SM CLR 23/18 A3004=
PHOG 101954Z 36005KT 10SM FEW020 SCT035 26/21 A3001=
PHTO 101953Z 02006KT 10SM FEW030 FEW120 25/18 A3001=
PMDY 101956Z AUTO 10012KT 7SM BKN030 OVC039 20/14 A3026=
PWAK 101955Z 08010KT 10SM FEW024 26/26 A3000=

0000010400
736
SAAG41 SABE 102000
METAR SABE 102000Z  02010KT 9999  FEW045TCU SCT100
 30/21 Q1006=

0000011500
737
SACN62 CYUY 102000
METAR CYUY 102000Z 19010KT 3SM -SN BR OVC007 M05/M06 A2997 RMK SF8
 SLP171=

0000011700
738
SACN62 CYVR 102000
METAR CYVR 102000Z 14003KT 15SM BKN037 OVC120 07/05 A3000 RMK SC6AS2
 SLP160=

0000013800
739
SACN62 CYWK 102000
METAR CYWK 102000Z 22009KT 10SM -SN DRSN FEW019 BKN065 OVC120 M13/M17
 A2972 RMK SC1SC4AC3 SLP119=

0000012100
740
SACN62 CYWG 102000
METAR CYWG 102000Z 18011KT 4SM BR SCT010 OVC022 M05/M07 A2938 RMK
 SF4SC4 SLP966=

0000011300
741
SACN62 CYVQ 102000
METAR CYVQ 102000Z 29003KT 20SM -SN BKN080 M24/M28 A2974 RMK AC7
 SLP081=

0000012900
742
SACN62 CYXE 102000
METAR CYXE 102000Z 22009KT 15SM FEW020 SCT120 OVC280 M08/M09 A2942
 RMK SC1AC2CI5 SLP998=

0000009900
743
SACN62 CYXN 102000
METAR CYXN 102000Z 33008KT 15SM SKC M30/M34 A2967 RMK SLP049=

0000011800
744
SACN62 CYXH 102000
METAR CYXH 102000Z 28005KT 30SM FEW130 BKN270 01/M04 A2946 RMK AC1CI6
 SLP004=

0000012200
745
SACN62 CYVM 102000
METAR CYVM 102000Z 20009KT 15SM IC SCT090 BKN120 M22/M24 A2917 RMK
 AC4AC2 SLP879=

0000012900
746
SACN62 CYWL 102000
METAR CYWL 102000Z 13004KT 15SM FEW070 SCT140 BKN200 M03/M06 A2976
 RMK AC1AC3CI2 SLP117=

0000036000
747
SAVN26 SVMC 102000
METAR SVMC 102000Z NIL=
METAR SVJC 102000Z 05019KT 9999 FEW013 32/16 Q1010=
METAR SVVG 102000Z 00000KT 9999 SCT013 SCT100 33/19 Q1008=
METAR SVPM 102000Z NIL=
METAR SVCR 102000Z NIL=
METAR SVSZ 102000Z NIL=
METAR SVSA 102000Z NIL=
METAR SVLF 102000Z NIL=
METAR SVMD 102000Z 16010KT 9999 SCT027 24/18 Q1018=

0000019100
748
SAHA31 KWBC 102000
METAR
KQHA NIL=
MTCA NIL=
MTCH NIL=
MTEG NIL=
MTJA NIL=
MTJE NIL=
MTPP 2000Z 08013KT 9999 FEW030 32 Q1014.7 A29.96=
MTPX NIL=
MTTP NIL=

0000046400
749
SAJP31 KWBC 102000
METAR
RJAA 102000Z 35005KT 9999 FEW025 M05/M08 Q1023 NOSIG=
RJAH 102000Z 02005KT 9999 FEW020 M07/M10 Q1022=
RJCC 102000Z 22006KT 9999 -SHSN FEW015 BKN045 M09/M12 Q1017=
RJCH NIL=
RJFK NIL=
RJFT NIL=
RJFU NIL=
RJNN NIL=
RJOO 102000Z VRB01KT 9999 FEW025 01/M06 Q1028=
RJSS NIL=
RJTT 102000Z 26007KT CAVOK 00/M06 Q1023 NOSIG=
RODN 101958Z AUTO 06004KT 10SM CLR 07/05 A3032 RMK AO2 SLP276
     T00710052=

0000004200
750
SAJP41 KWBC 102000
NIL=

0000032700
751
SAJP42 KWBC 102000
METAR
RJDK NIL=
RJDM NIL=
RJDO NIL=
RJDT NIL=
RJEB NIL=
RJEC NIL=
RJEO NIL=
RJER NIL=
RJFA NIL=
RJFC NIL=
RJFE NIL=
RJFG NIL=
RJFM NIL=
RJFN NIL=
RJFO NIL=
RJFR 102000Z VRB02KT 9999 FEW025 BKN045 04/M03 Q1029=
RJFY NIL=
RJFZ NIL=
RJKA NIL=
RJKB NIL=

0000022300
752
SAJP45 KWBC 102000
METAR
RJTJ NIL=
RJTK NIL=
RJTL NIL=
RJTO NIL=
RJTQ NIL=
RJTR NIL=
RJTU NIL=
RJTX NIL=
RJTY 101958Z AUTO 31001KT 10SM CLR M03/M08 A3025 RMK AO2 SLP257
     T10281083=

00000000