0000011800
933
SACN52 CWAO 110300
METAR CWSA 110300Z AUTO 26012KT 9SM FEW019 FEW041 OVC047 01/M03 A3042
RMK SLP302=
0000012400
934
SACN31 CWAO 110300
METAR CYBG 110300Z 00000KT 15SM -SHSN OVC035 M09/M12 A3013 RMK SC8
PCPN VRY LGT SLP219=
0000034900
935
FXIN90 VILK 110300
FROM:-SWFC LUCKNOW
TO:-NWFC/RWFC NEW DELHI
LOCAL FORECAST FOR LUCKNOW AND N/HOOD:-
(I) GENERALLY CLOUDY SKY WITH ONE OR TWO SPELLS OF RAIN/THUNDER
SHOWERS ON 11.01.2014
(II) MAINLY CLEAR SKY FOG WOULD OCCUR DURING MORNING HOURS ON
12.01.2014
THE MINIMUM TEMPERATURE WOULD BE AROUND 7 DEGREE CELSIUS.=
0000009600
936
SACN48 CWAO 110300
METAR CYPX 110300Z 20006KT 15SM SKC M23/M26 A2972 RMK SLP069=
0000010300
937
SACN45 CWAO 110300
METAR CYHI 110300Z 31007KT 15SM FEW020 M33/M35 A2932 RMK SC1 SLP937=
0000010300
938
SACN31 CWAO 110300
METAR CYYR 110300Z 26015KT 15SM OVC110 M10/M18 A2984 RMK AC6 SLP110=
0000010700
939
SACN45 CWAO 110300
METAR CYZS 110300Z 32010KT 15SM SKC M29/M33 A2956 RMK WND ESTD
SLP021=
0000010200
940
SAIN90 VOCB 110400
METAR VOCB 110400Z 08006KT 3000 HZ SCT015 BKN080 23/18 Q1018 NOSIG=
0000011900
941
SACN45 CWAO 110300
METAR CYFS 110300Z 00000KT 10SM -SN FEW100 SCT210 M23/M26 A2967 RMK
AC2CI0 SLP070=
0000011000
942
SACN43 CWAO 110300
METAR CYEN 110300Z 29008KT 1/2SM FZFG VV001 M07/M07 A2955 RMK FG8
SLP039=
0000011500
943
SACN46 CWAO 110300
METAR CYKZ 110300Z 11005KT 4SM BR FEW014 OVC140 02/01 A2995 RMK
SC2AS6 SLP153=
0000010300
944
SACN49 CWAO 110300
METAR CYCX 110300Z 00000KT 15SM FEW120 M08/M09 A3029 RMK AC1 SLP260=
0000011800
945
SACN46 CWAO 110300
METAR CYYH 110300Z 20009KT 10SM SCT035 SCT080 M35/M38 A2945 RMK
SC1AC0 IC SLP977=
0000049000
946
SIMC21 GMMC 110300
AAXX 11034
60101 46/// /0806 10127 20104 40157 51006=
60115 42560 62016 10154 20042 40148 51006 83270
  333 83823 84360=
60135 45550 62006 10135 20114 40157 53013 83530
  333 83620 86360=
60150 32960 41702 10098 20050 39505 40164 51007 83082
  333 83360 83070=
60156 47460 61705 10120 20097 40164 55000 70060 83280
  333 83816 85360=
60252 32860 20706 10103 20089 40156 58014 82030
  333 82356=
60096 NIL=
60155 NIL=
60230 NIL=
0000038700
947
SIMC22 GMMC 110300
AAXX 11034
60141 32560 63699 00000 10107 20044 39489 40174 52007 81270
  333 81830 86360=
60265 32560 62305 10064 20042 38871 48491 56008 85202
  333 85830=
60318 46914 /0000 10123 20107 40162 53005=
60060 NIL=
60105 NIL=
60106 NIL=
60107 NIL=
60127 NIL=
60185 NIL=
60190 NIL=
60191 NIL=
60195 NIL=
60210 NIL=
60220 NIL=
0000012900
948
SACN40 CWAO 110300
METAR CYWH 110300Z 14007KT 6SM -RA BR FEW004 BKN011 OVC040 08/06
A2971 RMK SF2SC3SC3 SLP060=
0000012300
949
SACN49 CWAO 110300 CCA
METAR CYCX 110300Z CCA 00000KT 15SM FEW120 M08/M09 A3029 RMK AC1
DA-3090FT SLP260=
0000026500
950
SIIY22 LIIB 110300
AAXX 11034
16045 NIL=
16090 41410 80000 10078 20061 30143 40227 53001 71022 885// 333 82710
      87645=
16149 41756 70000 10082 20082 30207 40223 52003 71022 87500 333
      87650=
16261 NIL=
16453 NIL=
16560 NIL=
0000025000
951
UAAK04 KAWN 110300 RRA
DLG UA /OV DLG/TM 0340/FL010/TP C208/SK OVC040 TOP025 OVC010/TB
 NEG/IC LGT RIME/RM ZAN=
DLG UA /OV DLG/TM 0341/FL040/TP C208/SK
 OVC010-TOP025/BKN040-TOPUNKN/TA 00/TB NEG/IC LGT RIME/RM TEMP
 ESTIMATED=
0000022900
952
SNAA01 KARS 110300 RRA
AAXX 1103/
89869 46/// ///// 11030 39930 4//// 5////=
89866 46/// ///// 11008 39886 4//// 5////=
89314 46/// ///// 11076 38309 4//// 5////=
89879 46/// ///// 10049 39895 4//// 5////=
00000000