0000008900
913
SACN51 CWAO 110300
METAR CWUP 110300Z AUTO 24013KT M23/ A2914 RMK SLP917=
0000010800
914
SACN43 CWAO 110300
METAR CYGX 110300Z 06007KT 3SM -SN OVC035 M22/M26 A2958 RMK SC8
SLP036=
0000010300
915
SACN43 CWAO 110300
METAR CYXD 110300Z AUTO 23005KT 9SM BKN064 M04/M12 A2959 RMK SLP057=
0000010100
916
SACN42 CWAO 110300
METAR CYUA 110300Z AUTO 29022KT 1SM -SN CLR M24/ A2975 RMK SLP082=
0000012700
917
SACN45 CWAO 110300
METAR CYBB 110300Z 23015G20KT 6SM IC DRSN BKN090 M33/M36 A2951 RMK
AC4 WX CALL-OUT SLP996=
0000012300
918
SACN51 CWAO 110300
METAR CWUW 110300Z AUTO 12006KT 9SM FEW031 FEW047 FEW069 FEW078 M29/
A2910 RMK SLP936=
0000010100
919
SACN51 CWAO 110300
METAR CZCP 110300Z AUTO 28019KT 4SM -SN CLR M33/ A2944 RMK SLP986=
0000008900
920
SACN51 CWAO 110300
METAR CWLX 110300Z AUTO 07006KT M27/ A2924 RMK SLP929=
0000007800
921
SACN51 CWAO 110300
METAR CWRX 110300Z AUTO 31012KT M27/ A2930=
0000008900
922
SACN52 CWAO 110300
METAR CWXR 110300Z AUTO 30020KT M31/ A2939 RMK SLP967=
0000011500
923
SACN31 CWAO 110300
METAR CYQY 110300Z 23011KT 15SM FEW120 FEW210 M04/M07 A3028 RMK
AC1CI2 SLP259=
0000010800
924
SACN49 CWAO 110300
METAR CYGW 110300Z 12002KT 8SM -SN OVC013 M11/M12 A2976 RMK SC8
SLP077=
0000010100
925
SACN45 CWAO 110300
METAR CYCO 110300Z 26017KT 10SM DRSN SKC M29/M36 A2950 RMK SLP993=
0000010100
926
SACN31 CWAO 110300
METAR CYTR 110300Z 12006KT 7SM OVC019 03/M00 A3004 RMK SC7 SLP178=
0000010800
927
SACN31 CWAO 110300
METAR CYJT 110300Z 26016G26KT 15SM BKN022 M03/M07 A3017 RMK SC7
SLP218=
0000010800
928
SACN48 CWAO 110300
METAR CYBX 110300Z 27013G18KT 15SM BKN080 M10/M14 A2993 RMK AC6
SLP138=
0000010800
929
SACN46 CWAO 110300
METAR CYRB 110300Z 24005KT 6SM -SN BKN060 M30/M33 A2911 RMK SC3
SLP869=
0000011500
930
SACN44 CWAO 110300
METAR CYOD 110300Z 27009KT 15SM BKN015 OVC080 M08/M09 A2954 RMK
SC6AC1 SLP043=
0000011500
931
SACN44 CWAO 110300
METAR CYSM 110300Z 30006KT 15SM FEW013 BKN060 M19/M22 A2956 RMK
SC2SC5 SLP034=
0000012200
932
SACN42 CWAO 110300
METAR CYQD 110300Z 16005KT 15SM -SN OVC006 M09/M10 A2944 RMK ST8 PCPN
VRY LGT SLP989=
00000000