0000009300
093
SPUS31 KWBC 101828
SPECI
KCVG 101824Z 15011KT 1SM BR OVC003 08/07 A3006=

0000012100
094
SACA33 KWBC 101800 RRE
METAR
TNCB 101800Z AUTO 10010KT 060V140 //// ////// 28/22 Q1013
     NOSIG=

0000014100
095
SACN62 CYGL 101800 CCA
METAR CYGL 101800Z CCA 23013G21KT 2SM -SN OVC008 M07/M08 A2967 RMK
 SC8 VIS VRB 1-3 /S02/ SLP065=

0000010400
096
SPUS31 KWBC 101831
SPECI
KSFO 101827Z 03003KT 9SM BKN002 BKN006 BKN200 12/09 A3031=

0000011000
097
SPUS41 KWBC 101831
SPECI
KBVY 101827Z 21005KT 1 1/2SM -SN BR BKN009 OVC019 M01/M03 A3040=

0000011100
098
SAQB31 LQBK 101830
METAR LQBK 101830Z 32003KT 2500 -RA BR FEW023 BKN043 06/06 Q1021
NOSIG=

0000037800
099
SAHU41 LHBM 101830
METAR LHKE 101815Z 23003MPS CAVOK 04/00 Q1021 NOSIG RMK BLU=
METAR LHPA 101815Z 19002MPS 4000 BR FEW083 02/02 Q1021 NOSIG RMK GRN=
METAR LHPP 101815Z 08004KT CAVOK 06/05 Q1021=
METAR LHPR 101815Z /////KT CAVOK 05/00 Q1020=
METAR LHSN 101815Z 25004MPS CAVOK 05/01 Q1020 NOSIG RMK BLU=
METAR LHUD 101815Z 25003KT CAVOK 01/M00 Q1022=

0000014900
100
SAPA31 KWBC 101800 RRB
METAR
AYPY 101800Z 00000KT 2000M +FOG BKN003 25/25 Q1005=
PLCH 101800Z 09016KT 9999 FEW020 27/22 Q1010=

0000007700
101
FCRS31 RUMS 101700 AAA
TAF AMD UUOK 101830Z 1018/1103 CNL=

0000043200
102
SAAM31 FCBB 101800
METAR FCBB 101800Z 13004KT 060V170 8000 FEW016 SCT023 FEW030CB 25/22
Q1012 TEMPO TS=
METAR FCPP 101800Z 17008KT 9999 SCT013 BKN023 27/24 Q1010 NOSIG=
METAR FKKD 101800Z VRB02KT 8000 FEW016 BKN300 28/25 Q1009 NOSIG=
METAR FKYS NIL=
METAR FKKR 101800Z 00000KT CAVOK 26/03 Q1011 NOSIG=
METAR FKKL NIL=
METAR FKKN 101800Z 00000KT CAVOK 20/06 Q1017=
METAR FEFF NIL=
METAR FEFT NIL=

0000017100
103
SACY31 LCLK 101830
METAR LCLK 101830Z 30005KT 270V330 CAVOK 10/05 Q1021 NOSIG=
METAR LCPH 101830Z 02007KT CAVOK 11/03 Q1021=
METAR LCNC 101830Z NIL=

0000011200
104
SASR31 WSSS 101830
METAR WSSS 101830Z 02003KT 320V100 9999 FEW018 BKN140 25/23 Q1011
NOSIG=

0000010300
105
SASG20 GOOY 101830
METAR GOOY 101830Z 01014KT 9999  FEW010 BKN130 20/15 Q1012 NOSIG=

0000066700
106
SAGR31 LGAT 101820
METAR LGAD 101820Z 00000KT 9999 SCT020 12/10 Q1022=
METAR LGAV 101820Z VRB03KT CAVOK 11/07 Q1018 NOSIG=
METAR LGIR 101820Z 17008KT CAVOK 12/10 Q1021 NOSIG=
METAR LGKL 101820Z AUTO 29004KT //// // ////// 11/09 Q1022
           RE//=
METAR LGKO 101820Z NIL=
METAR LGKR 101820Z 00000KT 9999 FEW018 SCT025 BKN180 12/11 Q1021
 NOSIG=
METAR LGLM 101820Z AUTO VRB02KT //// // ////// 11/09 Q1018
           RE//=
METAR LGRP 101820Z VRB03KT 9999 FEW018 13/09 Q1020 NOSIG=
METAR LGSA 101820Z 26012KT 9999 FEW020 14/08 Q1020=
METAR LGSM 101820Z NIL=
METAR LGTS 101820Z 00000KT 9000 FEW010 SCT080 08/06 Q1019 NOSIG=

0000009600
107
SAAF13 LFPW 101700 RRD
METAR GFLL 101700Z 27006KT 9999 SKC 29/22 Q1010 NOSIG=

0000040200
108
SARH31 LDZM 101830
METAR LDSP 101830Z VRB01KT 9999 BKN050 12/09 Q1022 NOSIG =
METAR LDPL 101830Z 08004KT 9999 BKN052 11/09 Q1021 NOSIG =
METAR LDDU 101830Z 09005KT 9999 FEW017 BKN050 10/08 Q1022 NOSIG =
METAR LDZA 101830Z NIL=
METAR LDZD 101830Z 10004KT CAVOK 07/07 Q1021 BECMG 4000 BR =
METAR LDRI 101830Z NIL=
METAR LDOS 101830Z 09003KT 050V150 2000 BR NSC 04/03 Q1022=

0000034100
109
FCAP32 FAPR 101800
TAF FAEL 101800Z 1019/1106 NIL=
TAF FAHS 101800Z 1019/1106 NIL=
TAF FAKN 101800Z 1019/1106 NIL=
TAF FALM 101800Z 1019/1106 NIL=
TAF FAPM 101800Z 1019/1106 NIL=
TAF FAPP 101800Z 1019/1106 NIL=
TAF FARB 101800Z 1019/1106 NIL=
TAF FAUT 101800Z 1019/1106 NIL=
TAF FAWB 101800Z 1019/1106 NIL=

0000010700
110
SARH31 LDZM 101830 RRA
METAR LDZA 101830Z 12005KT 9999 MIFG NSC 07/07 Q1020 BECMG 3000 =

0000077100
111
SATU31 LTAA 101820
METAR LTAC 101820Z 25004KT 200V290 4900 BR OVC008 M03/M03 Q1022
 NOSIG=
METAR LTAF 101820Z VRB02KT 5000 HZ NSC 07/01 Q1020 NOSIG=
METAR LTAI 101820Z 35005KT 3800 BR FEW030 07/07 Q1021 NOSIG=
METAR LTAJ 101820Z VRB02KT CAVOK 02/M05 Q1020 NOSIG=
METAR LTAZ 101820Z NIL=
METAR LTBA 101820Z 25008KT 230V290 CAVOK 10/08 Q1018 NOSIG=
METAR LTBJ 101820Z 19001KT 6000 NSC 06/04 Q1020 NOSIG=
METAR LTBS 101820Z 06004KT CAVOK 09/07 Q1021 NOSIG=
METAR LTCG 101820Z VRB01KT 3300 BR NSC 06/02 Q1017 BECMG TL1920 9999
 NSW=
METAR LTCS 101820Z 08005KT CAVOK 07/M07 Q1021=
METAR LTFC 101820Z NIL=
METAR LTFE 101820Z VRB01KT 9999 FEW032 BKN180 11/09 Q1021 NOSIG=
METAR LTFJ 101820Z 17003KT 080V230 CAVOK 08/02 Q1018 NOSIG=

0000054500
112
SATU32 LTAA 101820
METAR LTAG 101820Z 08004KT CAVOK 04/M02 Q1020 NOSIG=
METAR LTAN 101820Z NIL=
METAR LTAP 101820Z 23008KT CAVOK M01/M04 Q1020 NOSIG=
METAR LTAT 101820Z 23004KT CAVOK M07/M09 Q1021 NOSIG=
METAR LTAU 101820Z 27004KT 4800 BR BKN016 M03/M04 Q1022 NOSIG=
METAR LTBF 101820Z NIL=
METAR LTBU 101820Z 27007KT 2300 BCFG SCT010 08/08 Q1019=
METAR LTCC 101820Z 28004KT CAVOK 01/M04 Q1020 NOSIG=
METAR LTCE 101820Z 00000KT 2600 BR NSC M22/M24 Q1022 NOSIG=
METAR LTCJ 101820Z 03005KT CAVOK M00/M03 Q1021=

00000000