0000506200
833
SSVX11 LFVW 110501
ZZYY 52086 11014 00004 305031 156024 6113/
11119 03010 10274 40083
22219 00304
33311 88872 20000 33042 20002 33042 43475 20025 33044 43479
20050 33040 20075 32972 43514 20100 32934 20125 32749 43579
20150 32595 43608 20200 32224 43594 20250 31694 43537
20300 31228 43493 20500 30758 43454 20750 30572 43449
444 20130 10014 2339/ 522// 60381=
ZZYY 52086 10014 22004 305025 156030 6112/
11119 02613 10272 40078
22219 00304
33311 88872 20000 33043 20002 33043 43475 20025 33040 43480
20050 33041 20075 32971 43514 20100 32946 20125 32806 43571
20150 32604 43607 20200 32157 43585 20250 31538 43521
20300 31155 43487 20500 30750 43454 20750 30563 43451
444 20120 10014 2154/ 522// 60381=
ZZYY 52084 10014 19004 105025 155976 6111/
11119 00407 10285 29071 40071
22219 00296
33311 88872 20000 32959 20002 32959 43431 20025 32962
20050 32962 43434 20075 32974 20100 32936 43454 20125 32781 43460
20150 32448 43486 20200 31364 43454 20250 31036 43459
20300 30929 43462 20500 30762 43458 20750 30578 43453
444 20110 10014 1938/ 522// 60381=
ZZYY 52084 10014 17004 105022 155969 6113/
11119 00408 10285 29072 40071
22219 00296
33311 88872 20000 32958 20002 32958 43431 20025 32962
20050 32963 43435 20075 32974 20100 32945 43452 20125 32814 43455
20150 32438 43493 20200 31426 43460 20250 31046 43460
20300 30931 43462 20500 30777 43457 20750 30591 43454
444 20130 10014 1744/ 522// 60381=
ZZYY 52084 11014 02004 105020 155966 6113/
11119 00413 10281 29079 40079
22219 00297
33311 88872 20000 32969 20002 32969 43433 20025 32963
20050 32963 43434 20075 32974 20100 32934 43456 20125 32775 43464
20150 32305 43492 20200 31409 43458 20250 31071 43459
20300 30949 43461 20500 30801 43459 20750 30605 43453
444 20130 11014 0255/ 522// 60381=
ZZYY 52084 11014 04004 105015 155971 6112/
11119 00613 10284 29078 40059
22219 00297
444 20120 11014 0438/ 522// 60381=
ZZYY 52079 11014 01004 100060 147013 6111/
11119 02911 10278 40084
22219 00297
33311 88872 20000 32972 20002 32972 43388 20025 32974 43397
20050 32972 43422 20075 32957 20100 32734 43549 20125 32402 43520
20150 32252 43537 20200 31884 43537 20250 31488 43510
20300 31162 43483 20500 30853 43461 20750 30615 43453
444 20110 11014 0112/ 522// 60381=
ZZYY 52079 10014 21004 100057 147020 6113/
11119 02710 10259 40081
22219 00297
33311 88872 20000 32969 20002 32969 43386 20025 32980 43402
20050 32977 43412 20075 32956 20100 32861 43535 20125 32522 43513
20150 32267 43540 20200 31873 43535 20250 31467 43508
20300 31143 43482 20500 30847 43461 20750 30612 43453
444 20130 10014 2116/ 522// 60381=
ZZYY 52079 10014 23004 100062 147022 6111/
11119 02714 10276 40091
22219 00297
33311 88872 20000 32973 20002 32973 43390 20025 32978 43400
20050 32973 43418 20075 32959 20100 32763 43550 20125 32518 43517
20150 32268 43540 20200 31907 43540 20250 31489 43511
20300 31171 43484 20500 30862 43462 20750 30617 43453
444 20110 10014 2243/ 522// 60381=
ZZYY 52085 11014 04004 100014 156042 6112/
11119 02606 10276 40059
22219 00301
33311 88872 20000 33008 20002 33008 43387 20025 33033 43437
20050 33026 20075 33021 20100 33003 20125 32646 43542
20150 32291 43540 20200 31837 43531 20250 31382 43496
20300 31172 43483 20500 30804 43460 20750 30589 43453
444 20120 11014 0437/ 522// 60381=
ZZYY 52083 11014 01004 107969 156028 6113/
11119 00715 10284 29078 40093
22219 00290
33311 88872 20000 32904 20002 32904 43380 20025 32904 43396
20050 32904 43395 20075 32903 43395 20100 32826 43467
20125 32518 43498 20150 32148 43507 20200 31344 43456
20250 31068 43455 20300 30978 43459 20750 30589 43454
444 20130 10014 2337/ 522// 60381=
ZZYY 52083 11014 03004 107964 156027 6113/
11119 00717 10287 29074 40075
22219 00291
33311 88872 20000 32907 20002 32907 43380 20025 32905 43396
20050 32904 43395 20075 32903 43395 20100 32806 43466
20300 30981 43459 20750 30585 43452
444 20130 11014 0303/ 522// 60381=
ZZYY 52088 11014 02004 302021 155959 6113/
11119 03009 10289 29073 40074
22219 00302
33311 88872 20000 33017 20002 33017 43507 20025 33014 43520
20050 33001 43542 20075 32952 20100 32937 43560 20125 32837 43565
20150 32549 43584 20200 31820 43546 20250 31153 43485
20300 31091 43478 20500 30864 43464 20750 30560 43452
444 20130 11014 0253/ 522// 60381=
ZZYY 52088 11014 00004 302019 155959 6113/
11119 02909 10286 29078 40088
22219 00301
33311 88872 20000 33013 20002 33013 43508 20025 33015 43518
20050 33006 43543 20075 32986 20100 32943 43562 20125 32867 43563
20150 32776 43569 20200 31828 43544 20250 31137 43484
20300 31074 43477 20500 30826 43462 20750 30555 43452
444 20130 10014 2338/ 522// 60381=
ZZYY 52077 11014 0400/ 102077 146984 6113/
33311 88872 20025 32999 20050 32995 20075 32932 43526
20100 32719 43519 20125 32626 43524 20150 32485 43522 20200 31812
20250 31200 20300 31036 43473 20500 30790 43458 20750 30599 43453
444 20130 11014 0436/ 522//=
0000011000
834
UANT01 CWAO 110459
ARP AAL86 5151N03620W 0459 F380 MS53 245/35 KT
N775AN DDL XXW 110459 F37A
0000011100
835
UANT01 CWAO 110459
ARP AAL104 4853N04044W 0459 F400 MS51 294/30 KT
N778AN DDL XXW 110459 F29A
0000011000
836
UANT01 CWAO 110459
ARP DLH437 5501N03918W 0459 F370 MS55 262/28 KT
DAIGV QXT AOW 110459 J38A
0000012000
837
SMSQ01 LZIB 110000 CCA
AAXX 11001
11918 16/// /2506 10016 21038 39360 42789 52003 60001
  333 55008=
0000244900
838
SNDL21 EDZW 110500
AAXX 11051
10004 46/58 /2308 10080 20068 30084 40084 58014
222// 00080
  333 55300 91114 91212=
10015 41240 82310 10068 20058 30084 40094 58013 71022 886//
  333 55300 20000 30000 88706 91114 91211=
10020 45359 82309 10071 20065 30038 40070 58017
  333 55300 20000 30000 84/06 88/61 88/63 91113=
10035 41256 82307 10064 20054 30032 40091 56013 76022 877//
  333 55300 20000 30000 41232 87706 91113=
10055 41460 82207 10060 20050 30085 40095 58013 72122 885//
  333 55300 20000 30000 85615 88624=
10147 41462 82306 10058 20043 30097 40115 58013 72122 876//
  333 55300 20000 30000 41235 87710=
10162 47446 82205 10048 20036 30040 40114 58011 71000
  333 55300 20000 30000 87/10 87/16 88/34=
10184 42661 72303 10049 20031 30102 40110 58006 875//
  333 55300 20000 30000 87634=
10200 47350 82106 10060 20047 30112 40110 58014 75165
  333 55300 20000 30000 88/07=
10224 41458 82206 10053 20042 30117 40123 58014 72162 886//
  333 55300 20000 30000 87710=
10270 46460 82302 10044 20025 30089 40145 57005
  222// 06039
  333 55300 88/13=
10338 42468 72303 10047 20029 30069 40143 57014 8353/
  333 55300 20000 30000 83614 87361=
10361 42678 72103 10037 20016 30048 40154 56009 83578
  333 55300 20000 30000 83640 85463 85271=
10393 42570 32303 10033 20015 30021 40150 58004 83500
  333 55300 20000 30000 83624=
10400 42980 11504 10016 20002 30109 40160 58011 81030
  333 55300 20000 30000 81360=
10469 42686 42003 10024 20008 39999 40168 57010 83501
  333 55300 83640=
10488 42982 22103 10027 20003 39886 40173 57010 80001
  333 55300 20000 30000 40987 82073=
10506 42172 72202 10025 20021 39580 40172 56007 8217/
  333 55300 20000 30000 82803 86359=
10548 41/03 91402 11001 21002 39633 40190 57006 74944
  333 55300 20000 30000=
10637 41007 63201 11010 21014 30042 40185 56010 74842 86600
  333 55300 86701=
10685 42158 22303 10007 21002 39494 40183 56009 82600
  333 55300 20000 30000 82703=
10738 41559 60000 11018 21019 39711 40198 56011 74011 82531
  333 55300 82630 83362 96011=
10763 41975 01103 11010 21010 39801 40197 58010 71100
  333 55300 20000 30000=
10788 47958 01702 11032 21032 39765 40216 58007 72030
  333 55300 20000 30000=
10852 47931 81901 11015 21015 39618 40207 57010 72030
  333 55300 20000 30000 88/76=
10946 45966 81302 10021 20021 39349 40194 58012
  333 55300 20000 30000 86/59 88/62=
0000239700
839
SNDL22 EDZW 110500
AAXX 11051
10007 46/40 /2212 10069 20059 30091 40091 58016
222// 00072
  333 553// 91115 91213=
10044 46/// /2311 10067 20052 30060 40092 58010
222// 00056
  333 55300 91114 91211=
10046 47350 82305 10067 20055 30063 40097 57012 75150
  333 55300 88/08=
10091 42482 52510 10050 20035 30043 40094 58008 82530
  222// 06053
  333 55300 20000 30000 82614 84365 91114 91211=
10113 41335 82207 10064 20055 30084 40103 58014 71022 886//
  333 55300 20000 30000 88708=
10124 46/// ///// 10061 20061 30057 40095 58012
222// 0////
  333 553//=
10131 41356 82206 10063 20049 30091 40106 56013 72022 877//
  333 55300 20000 30000 87709=
10170 42462 52204 10056 20035 30091 40107 58008 85800
  333 55300 20000 30000 81814 85647=
10264 47457 82303 10046 20033 30019 40127 57009 71000
  333 55300 20000 30000 85/13 88/36=
10291 42464 72504 10044 20024 30067 40136 57006 875//
  333 55300 20000 30000 87615=
10315 42463 72103 10041 20022 30087 40152 57005 875//
  333 55300 20000 30000 87611=
10379 NIL=
10381 42682 72303 10042 20010 30047 40146 57008 86508
  333 55300 86640 87275=
10382 42481 72504 10044 20016 30100 40146 58006 875//
  333 55300 20000 30000 83618 86625=
10384 46/// /2103 10041 20015 30083 40144 58007
  333 55300 20000 30000=
10427 42982 02306 11017 21024 39140 48433 58010
  333 55300 20000 30000
  444 27070=
10430 45978 21702 10008 21009 39960 40157 58012
  333 55300 20000 30000 82/82=
10439 NIL=
10453 41/90 92414 11024 21024 38796 48423 56005 74944
  333 55300 91119 91216 96036=
10496 42981 82303 10035 20011 30075 40162 58005 8701/
  333 55300 20000 30000 87465=
10499 42681 82104 10015 21004 39878 40175 57005 82507
  333 55300 20000 30000 82637 88267=
10505 42986 62006 10051 20024 39872 40156 58011 86030
  333 55300 20000 30000 86359=
10513 42980 11003 11001 21015 30041 40166 56008 81031
  333 55300 20000 30000 81360=
10532 47001 80000 11012 21015 39924 40181 58008 73530
  333 55300 20000 30000 88/00 88/14=
10544 41/01 92105 10001 20001 39078 48450 57009 74544
  333 55300=
10554 42984 02305 10017 21005 39777 40174 56009
  333 55300 20000 30000=
10567 42978 01906 10012 21001 39793 40178 56010
  333 55300 20000 30000=
10578 41/58 72511 11031 21031 38757 48450 56007 74122 876//
  333 55300 20000 30000 877// 91115 91213=
0000206900
840
SNDL23 EDZW 110500
AAXX 11051
10609 41/01 91201 11003 21003 39844 40185 55007 749//
  333 55300 20000 30000=
10616 41470 71704 11003 21003 39566 40182 58008 74011 8157/
  333 55300 81610 87359=
10641 47950 01601 11015 21018 30032 40185 56011 71000
  333 55300=
10655 41956 01602 11009 21010 39846 40186 57013 71000
  333 55300 20000 30000=
10675 47937 81701 11018 21018 39895 40198 58008 71000
  333 55300 20000 30000 88/79=
10688 47945 01701 11004 21007 39662 40201 58009 71000
  333 55300 20000 30000=
10708 42880 70602 10009 20006 39785 40181 56011 8357/
  333 55300 20000 30000 83657 87362=
10729 45959 72001 11007 21011 30058 40184 56008
  333 55300 20000 30000 87/61=
10731 42968 80000 11006 21008 30031 40180 56008 8807/
  333 55300 20000 30000 88359=
10742 47957 40802 11005 21009 39849 40192 56011 71000
  333 55300 20000 30000 81/69 84/78=
10776 47002 81702 11012 21013 39750 40210 58006 73533
  333 55300 20000 30000 88/00=
10791 42989 22409 11045 21048 38522 48466 58008 80002
  333 55300 82072
  444 17102=
10805 41966 83601 10009 20009 39984 40181 58014 72122 8807/
  333 55300 20000 30000 85360 85362=
10815 45884 72203 10023 20016 39230 48462 57011
  333 4/001 55300 20000 30000 82/57 87/59 87/63=
10836 42989 61703 10017 20002 39307 40191 56010 81032
  333 4/001 55300 20000 30000 81362 86077=
10870 41930 50000 11035 21035 39658 40216 58007 74144 80001
  333 55300 85077=
10895 41/01 90502 11040 21041 39624 40220 58009 74700
  333 55300 20000 30000=
10908 42784 72309 10050 21005 38481 48478 58005 83031
  333 55300 20000 30000 83356 84070 91211=
10929 41/01 93501 10018 20018 39656 40200 56011 74554
  333 55300 20000 30000=
10948 47030 71601 10008 20008 39238 48471 58012 72030
  333 55300 20000 30000 81/00 83/60 87/62=
10961 42989 62810 11058 21067 37075 47044 52001 80002
  333 55300 20000 40874 86069 91119 95180
  444 17111=
10962 42986 62204 10046 20020 39034 48479 56007 83016
  333 55300 20000 30000 83466 85275 95124
  444 27061=
0000125400
841
SNDL44 EDZW 110500
AAXX 11051
10022 47239 82309 10068 20061 30072 40082 58014 71000
  333 55300 20000 30000 88/06=
10028 41350 82312 10065 20057 30079 40092 58016 72152 876//
  333 55300 20000 30000 87707 91116 91212 96258 98050=
10033 NIL=
10037 NIL=
10038 NIL=
10042 47350 72408 10069 20056 30087 40091 58012 72250
  333 55300 87/07 91113=
10067 NIL=
10093 45576 72407 10047 20027 30052 40102 58006
  333 55300 83/25 87/64 87/80=
10097 45663 82409 10047 20031 30092 40106 57002
  222// 06045
  333 55300 88/36 91211=
10126 NIL=
10129 47360 82208 10058 20050 30104 40117 58012 75165
  333 55300 20000 30000 88/09=
10130 47337 82309 10062 20053 30099 40105 56014 75165
  333 55300 88/08 91114=
10136 NIL=
10139 47446 72306 10055 20047 30107 40121 58013 72250
  333 55300 20000 30000 87/10=
10142 46340 82305 10061 20049 30075 40106 57013
  333 55300 88/08=
10146 47450 82204 10060 20047 30099 40116 58013 72250
  333 55300 88/10=
10150 47358 72306 10061 20050 30071 40105 58013 723//
  333 55300 20000 30000 87/07=
10152 47350 82305 10061 20049 30103 40105 58013 71000
  333 55300 88/09=
10156 47446 82104 10057 20042 30093 40114 58013 71000
  333 55300 20000 30000 88/12=
0000155100
842
SNDL45 EDZW 110500
AAXX 11051
10161 47450 52106 10052 20038 30089 40109 58013 71000
  333 55300 20000 30000 82/10 83/15 85/33=
10168 47348 82304 10045 20036 30044 40117 58011 71000
  333 55300 87/09 88/67=
10172 NIL=
10180 45570 82206 10054 20035 30098 40103 58009
  333 55300 81/21 88/38 88/65=
10193 45664 72305 10045 20026 30119 40122 58002
  333 55300 20000 30000 87/36=
10210 47450 82106 10058 20043 30116 40125 58014 71000
  333 55300 20000 30000 88/11=
10235 47350 82204 10049 20034 30039 40134 58014 71000
  333 55300 20000 30000 88/08=
10238 NIL=
10246 NIL=
10249 47456 82204 10054 20037 30067 40124 58013 71000
  333 55300 20000 30000 88/11=
10253 47450 82205 10048 20035 30114 40136 58011 71000
  333 55300 84/12 87/65 88/67=
10261 42465 82203 10051 20034 30110 40139 58010 875//
  333 55300 20000 30000 87612=
10267 45459 82306 10049 20033 30090 40139 58006
  333 55300 83/10 88/26=
10268 46/// /2304 10043 20030 30035 40123 58007
  333 55300=
10281 465// 82405 10044 20030 30011 40126 58007
  333 55300 20000 30000 88/25=
10282 47450 82404 10034 20025 39987 40131 57004 71000
  333 55300 20000 30000 85/10 88/26=
10289 47/57 /2203 10028 20020 30062 40133 58001 71000
  333 55300=
10304 NIL=
10305 42360 72105 10044 20027 30105 40137 58011 876//
  333 55300 87708=
10306 NIL=
10309 47356 72104 10028 20018 30088 40146 58009 71000
  333 55300 20000 30000 87/08=
10312 45460 72105 10039 20023 30013 40142 58013
  333 55300 20000 30000 86/10 87/58=
0000173900
843
SNDL46 EDZW 110500
AAXX 11051
10321 41460 82206 10047 20035 30080 40133 57016 72022 876//
  333 55300 20000 30000 87710=
10325 45465 61802 10033 20015 39981 40150 58012
  333 55300 86/16=
10334 NIL=
10335 NIL=
10343 NIL=
10348 45980 8//02 10035 20014 30039 40148 58009
  333 55300 20000 30000 41072 84/62 88/65=
10356 45671 82204 10028 20014 39952 40154 57009
  333 55300 81/35 88/64=
10359 45478 82202 10047 20025 30090 40150 58007
  333 55300 20000 30000 88/18=
10365 45976 82202 10037 20016 30108 40155 56010
  333 55300 20000 30000 82/69 88/71=
10368 42770 72204 10025 20011 39918 40150 58014 82571
  333 55300 20000 30000 82650 84466=
10376 45977 72403 10035 20013 30084 40153 58008
  333 55300 87/69=
10385 42681 72304 10038 20014 30087 40150 58007 83538
  333 55300 20000 30000 83644 87276=
10396 45571 42303 10031 20013 30129 40145 58005
  333 55300 81/25 84/70=
10404 NIL=
10410 45972 01903 10022 20001 39974 40160 57011
  333 55300=
10418 45970 52202 10010 20000 39689 40167 57010
  333 55300 20000 30000 81/72 84/77 85/78=
10424 45981 02102 10023 20003 30050 40158 56011
  333 55300 20000 30000=
10433 45981 02104 10018 20003 39830 40150 58011
  333 55300 20000 30000=
10435 45960 02003 10010 20001 39870 40164 56011
  333 55300=
10441 45360 23501 10006 21000 39780 40173 58008
  333 55300 82/07=
10442 45982 11803 10042 20010 39974 40153 58010
  333 55300 20000 30000 81/63=
10444 42968 11502 10010 21002 39956 40166 56007 80001
  333 55300 20000 30000 81075=
10449 45971 02505 10018 20007 39733 40167 56007
  333 55300 20000 30000=
10452 45371 82202 10006 20001 39427 40163 56008
  333 55300 20000 30000 87/07 87/10 88/61=
0000157900
844
SNDL47 EDZW 110500
AAXX 11051
10454 45888 72204 10054 20003 39864 40157 56009
  333 55300 81/56 87/63=
10458 45977 52404 10010 20003 39664 40161 56009
  333 55300 20000 30000 85/62=
10460 42980 02104 10022 20007 39964 40170 56009
  333 55300 20000 30000=
10466 46/61 /2002 10024 20007 30046 40166 56011
  333 55300 20000 30000=
10471 45779 22002 10015 20001 39998 40170 57009
  333 55300 20000 30000 40943 81/56=
10474 45666 82103 10026 20013 30028 40160 58011
  333 55300 20000 30000 85/46 88/72 88/75=
10476 NIL=
10480 45671 72305 10025 20008 39978 40165 56009
  333 55300 20000 30000 85/40 85/63 87/80=
10490 45974 81802 10021 20006 30044 40166 57008
  333 55300 20000 30000 85/70 88/72=
10495 45981 82404 10037 20008 30022 40166 55006
  333 55300 88/66 88/76 88/78=
10500 NIL=
10502 NIL=
10516 NIL=
10519 45967 11802 10014 20006 39970 40170 57007
  333 55300 81/63=
10520 47456 70301 10004 20004 30078 40174 58008 71000
  333 553// 87/14 87/60=
10526 47001 72003 10012 20012 39510 40173 58009 73030
  333 55300 20000 30000 87/00=
10534 47000 32104 10004 20004 39285 40178 57010 73033
  333 55300 83/00=
10537 47001 71805 10009 20009 39745 40179 56009 73033
  333 55300 87/00=
10540 45975 02503 10021 20004 39789 40175 56009
  333 55300 20000 30000=
10542 47931 02201 11005 21010 39840 40178 58011 71000
  333 55300 20000 30000=
10552 47001 82206 11008 21008 39061 48447 57009 73533
  333 55300 88/00=
10557 41/04 92306 11002 21002 39162 48447 58008 74144
  333 55300 20000 30000=
0000198700
845
SNDL48 EDZW 110500
AAXX 11051
10564 45370 32304 10018 20008 39572 40182 56008
  333 55300 83/09=
10565 45960 02103 10026 20002 39868 40171 56011
  333 55300=
10569 45459 72002 10017 20009 39710 40187 56008
  333 55300 20000 30000 87/12=
10574 45276 42504 11006 21011 39116 48455 56008
  333 55300 84/04=
10577 42972 22205 10010 21003 39666 40181 57009 80002
  333 55300 20000 30000 82070=
10579 45/82 /2402 10001 21022 39410 40186 58009
  333 55300=
10582 42986 32503 11014 21019 39128 48446 57008 80006
  333 55300 20000 30000 83268=
10591 45583 31702 10023 21009 39788 40181 56009
  333 55300 83/30=
10613 NIL=
10615 45858 82404 10010 20001 39589 40177 57007
  333 55300 20000 30000 87/58 88/60=
10618 NIL=
10628 47001 81301 11010 21013 30042 40183 58011 73530
  333 55300 88/00=
10635 45972 02204 10002 20002 39187 48446 57010
  333 55300 20000 30000=
10646 47001 83401 11029 21029 39767 40194 58011 73533
  333 4/001 55300 88/00=
10648 45980 01503 10011 20005 39627 40184 57012
  333 55300 20000 30000=
10658 47001 82001 11012 21012 39841 40193 57006 73533
  333 55300 88/00=
10671 47250 70502 10005 20001 39765 40192 58010 71000
  333 55300 20000 30000 81/06 87/22=
10686 45959 22204 10003 20001 39433 40189 56010
  333 55300 82/80=
10704 47831 70802 10015 20015 39731 40177 56009 72030
  333 55300 20000 30000 87/57=
10706 47850 80602 10015 20015 39704 40179 58011 71000
  333 55300 88/57=
10724 45960 82103 10037 20018 39503 40174 56009
  333 55300 20000 30000 87/60 88/67=
10733 47931 80802 11012 21012 39890 40191 56010 71000
  333 4/001 55300 20000 30000 84/61 88/69 88/74=
10736 45958 72201 11027 21030 39887 40194 56010
  333 4/001 55300 85/59 86/62 87/69=
10739 47957 71503 10000 21006 39798 40192 56010 71000
  333 55300 20000 30000 40977 84/61 87/64=
10743 NIL=
10747 45963 80000 11034 21034 39590 40199 56012
  333 4/001 55300 20000 30000 87/64 88/73 88/79=
0000009300
846
SAIN90 VEIM 110500
METAR VEIM 110500Z 18002KT 3500 HZ NSC 19/06 Q1020 NO SIG=
0000162200
847
SNDL49 EDZW 110500
AAXX 11051
10756 47956 71901 11032 21034 39611 40204 58010 71000
  333 55300 20000 30000 87/75 87/80=
10761 45960 03301 11032 21038 39679 40208 58010
  333 55300 20000=
10765 46/// /1401 11033 21033 39711 40206 58010=
10771 NIL=
10777 47001 71602 11015 21016 39546 40208 58008 73530
  333 55300 87/00=
10782 47/02 /0601 11024 21025 39593 40212 58006 73533
  333 55300 20000 30000=
10796 47001 81701 11038 21039 39460 40221 57006 73530
  333 4/002 55300 88/00=
10803 45959 70501 10014 20008 39886 40181 58015
  333 55300 20000 30000 87/61 87/69=
10818 45883 81704 10047 20026 39041 48475 58009
  333 4/001 55300 20000 30000 85/58 87/59 88/64=
10827 46/// /1902 10024 20020 39088 48470 58010
  333 55300 20000 30000=
10837 NIL=
10838 46/01 /2001 11017 21019 39505 40206 58008
  333 55300=
10850 47000 81302 11023 21023 39584 40206 56011 73533
  333 55300 88/00=
10853 NIL=
10856 NIL=
10857 NIL=
10860 NIL=
10863 47956 20000 11018 21019 39618 40211 58009 71000
  333 55300 20000 30000 40929 82/80=
10865 45981 51901 11002 21007 39563 40207 58007
  333 55300 82/79 85/80=
10872 47904 81502 11037 21037 39776 40219 58005 73530
  333 55300 88/80=
10875 47050 70000 11034 21035 39709 40218 58007 71000
  333 55300 20000 30000 87/01=
10945 47956 83001 11008 21008 39385 40204 56011 71000
  333 55300 87/59 88/62 88/66=
10954 NIL=
10963 47957 82301 11005 21005 39346 40218 57006 71000
  333 4/002 55300 20000 30000 88/66 88/71 88/73=
10982 47960 01201 10006 20002 39532 40206 58007 72030
  333 55300 20000 30000=
0000010600
848
SNVF25 LFPW 110500
BBXX
BATEU08 11054 99637 70227 46/// /2621 29047 49957 53016
22273=
0000011800
849
SNVF25 LFPW 110500
BBXX
BATFR52 11054 99505 70009 46/// /2328 10095 20077 40137 58023
22283 04094=
0000011200
850
SNVF25 LFPW 110500
BBXX
BATEU02 11054 99539 70061 46/// /2720 10035 20009 40133
22282 04089=
0000011800
851
SNVF25 LFPW 110500
BBXX
BATFR61 11054 99470 70054 46/// /2711 10117 20087 40174 53009
22261 04125=
0000011800
852
SNVF25 LFPW 110500
BBXX
BATFR54 11054 99471 70027 46/// /2910 10082 20072 40169 58005
22222 04102=
00000000