0000036500
973
SIAL51 DAMM 110300
AAXX 11031
60370 36/// /2302 10160 20038=
60371 NIL=
60372 36/// /2402 10160 20019=
60373 NIL=
60374 NIL=
60376 NIL=
60379 NIL=
60380 NIL=
60381 NIL=
60393 NIL=
60394 NIL=
60593 NIL=
60595 NIL=
60605 NIL=
60613 NIL=
60623 NIL=
AAXX 11034
60624 36/// /0000 10126 20042=
60639 NIL=
60645 NIL=
0000007600
974
SIAL51 DAMM 110300 RRA
AAXX 11034
60595 36/// /0000 11451=
0000017100
975
SAEG33 HECA 110300
METAR
HECA 110300Z 00000KT 2000 BR NSC 11/08 Q1023=
HETR 110300Z 32011KT CAVOK 14/06 Q1021=
HEDF 110300Z NIL= 
HEIS 110300Z NIL=
0000011500
976
SIAL51 DAMM 110300 RRB
AAXX 11031
60381 36/// /2202 10136 20048=
60639 46/// /0403 10113 21006=
0000011900
977
SITU63 LTAA 110300 CCA
AAXX 11034
17015 42970 01503 10041 20006 30202 40214 52007
 333 91107 92418=
0000014800
978
SIAL51 DAMM 110300 RRC
AAXX 11031
60373 36/// /2402 10160 20037=
60623 36/// /0000 10117 21049=
60393 36/// /0000 10120 20058=
0000071500
979
SIAL50 DAMM 110300
AAXX 11034
60612 36/// /0000 10082 21033=
60617 NIL=
60619 36/// /0906 10098 21004=
60621 36/// /1007 10148 21038=
60633 36/// /0611 10091 21030=
60650 NIL=
60660 36/// /0000 10140 21068=
60661 NIL=
60662 36/// /0000 10108 21082=
60663 NIL=
60664 36/// /0000 10071 21041=
60667 36/// /0000 10108 20008=
60672 36/// /0000 10127 21118=
60673 NIL=
60674 NIL=
60675 NIL=
60676 NIL=
60677 36/// /0000 10090 21034=
60679 36/// /3104 10103 21220=
60681 NIL=
60682 NIL=
60683 NIL=
60685 NIL=
60688 NIL=
60689 36/// /0000 10154 21039=
60691 NIL=
60692 36/// ///08 10159 21014=
60693 NIL=
60694 NIL=
60695 36/// /0705 10139 21043=
0000010600
980
SIMZ20 FQMA 110300
AAXX 11034
67323 42570 70000 10276 20177 40137 5//// 8427/ 333 94320=
0000020200
981
FTIN90 VABP 110300
TAF VABP 110300 11061212 05005KT 0500 FG SCT020 BECMG 11131115 1500
BR FEW020 SCT100 BECMG 12002 1202 05005KT  0100 FG SCT100 BECMG
12061218 0800 FG FEW025 SCT100=
0000011800
982
SACN42 CWAO 110300 RRB
METAR CYEV 110300Z 27007KT 6SM -SN DRSN OVC073 M25/M29 A2971 RMK AC8
 SLP073=
0000058500
983
SINM40 FYWW 110300
AAXX 11034
68006 46/// /2107 10205 20095 38907 48484 55000
      333 10362 20205 91012 555 91013=
68018 42989 00000 10200 20091 38899 48498 55000
      333 1//// 2//// 555 91015=
68030 42989 10000 10215 20195 39071 4//// 53008 80002
      333 10/// 20/// 9//// 555 91017=
68098 46/// /3410 10165 20147 30029 40137 57003
      333 10260 20165 91013 555 91013=
68106 16/// /3509 10160 20136 39651 40133 53002
      333 10305 20149 555 91013=
68112 46/// /2006 10138 20015 38334 48520 56002
      333 10169 20080 91009 555 91021=
0000017500
984
SIAL51 DAMM 110300 RRD
AAXX 11031
60379 36/// /1803 10155=
60380 36/// /0000 10103 20076=
60394 36/// /2001 10125 20056=
60374 36/// /0000 10153 20061=
0000039200
985
SIJD21 OJAM 110300
AAXX 11034
40255 42660 70000 10074 20043 39484 40212 54001
87800 333 85830 84635=
40260 42960 00000 10028 20018 39410 40214 52007=
40270 41650 63107 10084 20063 39294 40205 54001 70522 86500 333
86640=
40272 41930 52806 10070 20061 39368 40213 54002 71000 82031 333 83360
84070=
40310 NIL=
40340 42560 10000 10112 20088 40220 52008 81100 333 81830=
0000008200
986
SIAL51 DAMM 110300 RRE
AAXX 11031
60376 36/// /1603 10140 20066=
0000012400
987
SACN49 CWAO 110300 CCB
METAR CYYG 110300Z CCA 22004KT 15SM FEW015 SCT200 M04/M05 A3026 RMK
 SC1CI3 SLP251=
0000011800
988
SNVF25 LFPW 110400
BBXX
BATFR24 11044 99430 10059 46/// /0812 10134 20095 40204 58003
22264 00140=
0000010000
989
SNVF25 LFPW 110400
BBXX
BAREU66 11044 99364 70028 46/// ///// 40166 52003
22265=
0000015700
990
SSVX13 LFPW 110400
ZZYY 44874 11014 0400/ 745738 020755 6113/ 11119 40079 57044 22219
 00129 444 20130 11014 0400/ 50101 80118 80005 9/015=
0000015700
991
SSVX13 LFPW 110400
ZZYY 44863 11014 0400/ 739033 038260 6113/ 11119 40165 52012 22219
 00161 444 20130 11014 0400/ 50101 80118 80100 9/015=
0000018400
992
SSVX13 LFPW 110400
ZZYY 41736 11014 0400/ 711956 040288 6113/ 11119 40144 57011 22219
 00257 33300 88872 20000 43602 444 20130 11014 0400/ 50101 80112
 80031 9/015=
00000000