0000010700
533
SABW31 VGHS 101920
METAR VGHS 101920Z 00000KT 1000 BR NSC 15/13 Q1014 TEMPO S/VIS 0800M=

0000013100
534
SACN62 CYXX 101900
METAR CYXX 101900Z 23005KT 15SM SCT025 OVC080 07/ A3002 RMK SC3AS5 DP
 5.3 VIA CYXC SLP168=

0000014600
535
FCNT31 KWBC 101918
TAF
TAF BGGH 101900Z 1019/1101 15016KT 8000 -SN SCT020 BKN040
     TEMPO 1019/1101 0800 SHSN DRSN VV006=

0000009900
536
SPCN52 CWAO 101917
SPECI CWFD 101917Z AUTO 20021KT 3/8SM CLR M21/ A2879 RMK ICG=

0000020300
537
SAUS71 KWBC 101900 RRE
METAR
KIAG 101853Z COR 18006KT 7SM OVC016 02/M01 A3015=
KLCK 101915Z AUTO 11005KT 7SM OVC007 07/04 A3009=
KPQI 101915Z AUTO 15005KT 10SM CLR M08/M21 A3026=

0000020900
538
SAUS73 KWBC 101900 RRF
METAR
KCIU 101915Z AUTO 15008KT 4SM OVC006 M02/M02 A2991=
KELO 101913Z AUTO 18008KT 7SM OVC009 M06/M07 A2957=
KLBL 101915Z AUTO 30019G24KT 10SM CLR 10/M07 A2969=

0000010500
539
SAUS74 KWBC 101900 RRC
METAR
KOTH 101915Z 24004KT 2 1/2SM SCT027 OVC070 11/11 A3023=

0000019500
540
FTPA32 KWBC 101918 AAA
TAF AMD
TAF AMD NFTV 101914Z 1019/1118 01025KT 9999 -SHRA BKN016
      TEMPO 1019/1112 1000 +TSRA BKN015 SCT018CB
      TEMPO 1019/1106 01030G45KT=

0000044200
541
FTUS80 KWBC 101918 AAA
TAF AMD
KONP 101916Z 1019/1118 19011KT 2SM -RA BR SCT008 OVC015
      TEMPO 1019/1022 1 1/2SM BR BKN008 OVC015
     FM102200 19020G30KT 3SM -RA BR BKN015 OVC035
     FM110000 19025G40KT 4SM -RA BR SCT015 OVC025
     FM110300 19030G45KT 2SM -RA BR SCT007 OVC015 WS015/21055KT
     FM111100 20030G45KT 1 1/2SM RA BR OVC007 WS015/22060KT
     FM111500 24025G40KT 3SM SHRA BR BKN007 OVC015=

0000172800
542
SPUS70 KWBC 101918
SPECI
KCSG 101914Z 00000KT 3SM BR OVC003 10/09 A3011 RMK AO2=
KDMO 101914Z AUTO 18012KT 10SM -RA FEW009 BKN025 OVC075 09/09
     A2960 RMK AO2 P0005 T00890089=
KEET 101914Z AUTO 10004KT 1 1/4SM BR OVC002 10/10 A3007 RMK AO2
     T01000100=
KSHN 101914Z AUTO 22007KT 6SM -RA BR SCT014 SCT033 OVC050 08/06
     A3008 RMK AO2 P0001 T00780061 TSNO=
KMDW 101914Z 14007KT 3SM BR OVC007 02/01 A2983 RMK AO2 $=
KOXB 101914Z AUTO 01003KT 1 3/4SM BR BKN003 OVC036 06/04 A3036 RMK
     AO2 T00560044 TSNO=
KPAO 101912Z 04005KT 7SM SCT005 12/10 A3030=
KRME 101914Z 10006KT 10SM SCT029 BKN044 OVC080 00/M04 A3028 RMK
     AO2 T00001039=
KFFC 101914Z AUTO 09004KT 4SM BR OVC003 09/09 A3012 RMK AO2
     T00890089=
KGRD 101914Z AUTO 02006KT 4SM -RA BR OVC003 07/06 A3019 RMK AO2
     RAB1858 P0000=
PAFS 101914Z AUTO 00000KT 5SM -SN FEW013 SCT021 BKN041 M14/M18
     A2956 RMK AO2 TSNO P0000 $=
KCHO 101915Z 00000KT 2 1/2SM -RA BR OVC004 02/01 A3029 RMK AO2
     P0002 T00220011=
KEWR 101915Z 02005KT 1 1/2SM -DZ BR OVC010 01/M01 A3038 RMK AO2
     SFC VIS 1 3/4 DZB14 CIG 008V013 P0000=
KFOK 101915Z 00000KT 3SM -RA BR BKN031 OVC040 04/03 A3039 RMK AO2
     P0000=
KFRG 101915Z 04003KT 1 1/2SM BR FEW018 BKN026 OVC033 03/02 A3038
     RMK AO2=
KCFV 101916Z AUTO 21010G18KT 10SM FEW010 BKN022 OVC030 11/10 A2958
     RMK AO2 T01110100=
KISW 101915Z AUTO 16007KT 2SM BR OVC005 M02/M03 A2975 RMK AO2
     I1000 T10221033=
KPDK 101915Z 00000KT 1 1/2SM BR OVC003 08/07 A3013 RMK AO2=
KSTL 101915Z 17016G22KT 3SM -RA BR OVC007 06/04 A2976 RMK AO2
     P0001=
PAMB 101915Z AUTO 04006KT 10SM SCT005 OVC018 M04/M04 A2944 RMK AO2
     TSNO $=

0000009600
543
SPUS31 KWBC 101918
SPECI
KLIT 101914Z 12006KT 2SM RA BR OVC005 09/08 A2984=

0000009300
544
SPUS43 KWBC 101918
SPECI
KMDW 101914Z 14007KT 3SM BR OVC007 02/01 A2983=

0000010100
545
SACA33 KWBC 101900 RRC
METAR
TNCC 101900Z 09009KT 9999 FEW025 28/21 Q1013 NOSIG=

0000012500
546
SASA32 KWBC 101900 RRA
METAR
SLLP 101900Z 02011KT 9999 -SHRA SCT017 FEW020CB BKN200 14/04 Q1
     033=

0000018800
547
SALV32 EVRA 101920
METAR EVLA 101920Z AUTO 29012KT 270V330 9999 FEW011 BKN013 OVC018 
03/02 Q0998=
METAR EVVA 101920Z AUTO 32019G29KT 9999 BKN014 OVC021 04/03 Q0996=

0000015700
548
SADN33 EKCH 101920
METAR EKKA 101920Z 25008KT 9999 FEW012 BKN030 06/06 Q1005=
METAR EKSP 101920Z 26012KT 9999 FEW012 BKN035 06/04 Q1008=

0000008700
549
SPCN44 CWAO 101921
SPECI CYPE 101921Z 21005KT 2SM -SN VV040 RMK SN8=

0000149000
550
SPUS70 KWBC 101922
SPECI
KFUL 101918Z 18003KT 3SM HZ CLR 17/09 A3009 RMK AO2=
KGLD 101918Z AUTO 32024G32KT 1 3/4SM -SN BR BKN013 OVC018 00/M02
     A2964 RMK AO2 PK WND 31033/1854 SNB1858 P0000 T00001017=
KGTR 101920Z 17010KT 2SM BR OVC003 10/09 A3002=
KGZH 101918Z AUTO 09004KT 2SM -RA BR OVC004 14/13 A3006 RMK AO2
     RAB1856 P0000 T01440133=
KHQM 101918Z AUTO 19007KT 3SM BR FEW021 BKN030 OVC036 A3010 RMK
     AO2 RAB00E09 P0000 TSNO $=
KIGX 101918Z AUTO 34004KT 1 3/4SM RA BR OVC003 06/05 A3025 RMK AO2
     P0001 T00610050=
KSBM 101918Z AUTO 15010KT 4SM BR OVC004 M01/M01 A2982 RMK AO2
     T10061011=
KSSF 101918Z 22011KT 10SM FEW023 SCT027 BKN039 22/16 A2983 RMK
     AO2=
K1B7 101912Z 07004KT 0SM -RA FG FEW002 A3000=
KEFD 101915Z 17008KT 2SM -RA BKN010 OVC045 20/18 A2989=
KACV 101919Z AUTO 25006KT 2 1/2SM R32/1400VP6000FT BR SCT002 11/09
     A3028 RMK AO2 T01110094=
KASE 101919Z 35007KT 1 1/2SM -SN BR FEW021 BKN027 OVC041 M08/M09
     A2986 RMK AO2 P0000 T10781094=
KBJJ 101919Z AUTO 19009KT 1/2SM FG OVC002 03/02 A3011 RMK AO2=
KBOK 101919Z AUTO 18005KT 4SM BR OVC002 09/09 A3028 RMK AO2 $=
KGED 101919Z AUTO 10003KT 1 1/2SM -RA BR BKN002 OVC023 05/04 A3035
     RMK AO2 P0001 T00500039=
KMQY 101919Z 19005KT 10SM OVC012 13/10 A3005 RMK AO2 PNO $=
KPHD 101919Z AUTO 15003KT 2 1/2SM BR OVC002 04/03 A3014 RMK
     AO2=
KSPW 101919Z AUTO 17009KT 2SM BR OVC003 M01/M02 A2956 RMK AO2
     T10111022=

0000009800
551
SPUS41 KWBC 101922
SPECI
KHTS 101918Z 00000KT 10SM BKN013 OVC020 09/07 A3010=

0000005200
552
RRIN23 VIDP 111001
RQRPT 072-153=

00000000