0000030700
973
FTUS43 KWBC 102015 AAA
TAF AMD
KGRR 102012Z 1020/1118 15009KT 5SM -RA BR OVC006
      TEMPO 1020/1022 2SM RA BR
     FM102200 14010KT 2SM RA BR OVC009
     FM110100 16012G19KT 1 1/2SM RA BR OVC005
     FM110500 18010G16KT 1SM -RA BR OVC003
     FM111000 20009KT 1SM BR OVC003=

0000030700
974
FTUS73 KWBC 102015 AAA
TAF AMD
KGRR 102012Z 1020/1118 15009KT 5SM -RA BR OVC006
      TEMPO 1020/1022 2SM RA BR
     FM102200 14010KT 2SM RA BR OVC009
     FM110100 16012G19KT 1 1/2SM RA BR OVC005
     FM110500 18010G16KT 1SM -RA BR OVC003
     FM111000 20009KT 1SM BR OVC003=

0000018600
975
FTUS73 KWBC 102015
TAF
TAF KRFD 102008Z 1020/1118 16011KT 1 1/2SM RA BR OVC003
     FM110300 20012KT 1SM -DZ BR VCSH OVC005
     FM110900 26012G18KT P6SM OVC012=

0000044100
976
FTUS71 KWBC 102015 AAA
TAF AMD
KFLO 102012Z 1020/1118 15012KT P6SM VCSH SCT025 BKN070
      TEMPO 1020/1022 3SM SHRA BKN020
     FM102200 14006KT P6SM VCSH FEW015 BKN025
     FM110700 16006KT 2SM BR VCSH BKN008 OVC015=
KFLO 102012Z 1020/1118 14010KT P6SM VCSH SCT025 BKN070
      TEMPO 1020/1022 3SM SHRA BKN020
     FM102200 14006KT P6SM VCSH FEW015 BKN025
     FM110700 16006KT 2SM BR VCSH BKN008 OVC015=

0000053200
977
FTUS72 KWBC 102015 AAA
TAF AMD
KBNA 102012Z 1020/1118 17012KT P6SM OVC015
     FM110500 19015G25KT 3SM -SHRA BR OVC009
      TEMPO 1107/1111 2SM TSRA OVC007CB
     FM111400 26010G20KT P6SM OVC040=
KHRO 102012Z 1020/1118 18010G20KT P6SM -RA SCT025 BKN050
      TEMPO 1020/1024 4SM -RA BR OVC025
     FM110000 20012KT 4SM -RA BR SCT007 OVC025
     FM110300 25012KT P6SM VCSH BKN007 OVC015
     FM110500 27010KT P6SM SCT025 BKN250
      TEMPO 1110/1114 BKN025
     FM111500 27010KT P6SM SCT250=

0000022600
978
SAPS32 NFFN 102000
METAR NFTF 102000Z 13009KT 9999 SCT016 BKN270 29/26 Q1002=
METAR NFTL 102000Z NIL=
METAR NFTV 102000Z NIL=
METAR NLWW 102000Z NIL=
METAR NVSS 102000Z NIL=
METAR NVVV 102000Z NIL=

0000076700
979
SAVN20 SVMR 102000
METAR SVCR 102000Z /////KT 9999 FEW016 34/22 Q1014=
METAR SVMC 102000Z NIL=
METAR SVBM 102000Z 09009KT 9999 FEW016 30/20 Q1014=
METAR SVBS 102000Z 18004KT 9999 FEW013 32/14 Q1015=
METAR SVMI 102000Z 05003KT 9999 SCT016 27/21 Q1013 NOSIG=
METAR SVFM 102000Z NIL=
METAR SVBC 102000Z 36010KT 9999 FEW010 31/22 Q1011=
METAR SVCU 102000Z 02018KT 9999 SCT013 30/15 Q1011=
METAR SVMG 102000Z /////KT 9999 SCT010 28/21 Q1012=
METAR SVAC 102000Z /////KT 9999 FEW020 33/28 Q1012=
METAR SVMT 102000Z 02010KT 9999 SCT013 31/11 Q1009=
METAR SVBI 102000Z 07006KT 9999 FEW023 35/18 Q1009=
METAR SVCB 102000Z NIL=
METAR SVVA 102000Z 09008KT 9999 FEW016 33/19 Q1012=
METAR SVSO 102000Z 11004KT 9999 SCT023 32/21 Q1017=

0000027600
980
SAXX69 EGRR 102000 RRA
METAR KQIR 101958Z 04003KT 9999 CLR 17/12 A3013 RMK AO2A WND DATA ESTMD
      SLP205 T01740118 VISNO RWY16 CHINO RWY16 $=
METAR KQSA 101955Z 22005KT 9000 HZ CLR M02/M09 A3028 RMK AO2A SLP325
      WND DATA ESTMD ALSTG/SLP ESTMD=

0000010200
981
SANM40 FYWW 102000 RRA
METAR FYOO 102000Z AUTO 26003KT //// // ////// 26/M00 Q1014=

0000013000
982
SAUK39 EGGY 102000 RRA
METAR EGUN 101958Z AUTO 21010KT 9999 FEW100 08/07 A2988 RMK AO2
     SLP122 T00790066=

0000010400
983
SAUS75 KWBC 102000 RRC
METAR
PGRO 102006Z 06014G18KT 7SM SCT020 BKN120 25/22 A2991=

0000010500
984
SPUS31 KWBC 102017
SPECI
KTEB 102013Z 00000KT 1 3/4SM HZ BKN009 OVC025 02/M02 A3037=

0000011600
985
SPUS41 KWBC 102017
SPECI
KDOV 102013Z AUTO 08002KT 1/2SM R01/4500FT -RA FG VV002 04/04
A3032=

0000012300
986
SPUS41 KWBC 102017
SPECI
KHVN 102013Z 00000KT 1 1/4SM R02/5000VP6000FT BR BKN003 OVC010
02/01 A3038=

0000009800
987
SPCN49 CWAO 102015
SPECI CYGW 102015Z 24005KT 6SM -SN BKN014 OVC030 RMK SC5SC2=

0000012100
988
SAMS34 WMKK 102000 RRB
METAR WBKS 102000Z 06013KT 020V100 9999 -RA FEW010 SCT140 OVC260
27/24 Q1010=

0000012100
989
SAMS38 WMKK 102000 RRB
METAR WBKS 102000Z 06013KT 020V100 9999 -RA FEW010 SCT140 OVC260
27/24 Q1010=

0000034800
990
FTUS31 KWBC 102018 AAA
TAF AMD
KSFO 102016Z 1020/1124 36004KT P6SM FEW006 SCT200
     FM102200 29012KT P6SM FEW012 BKN200
     FM110300 29006KT P6SM FEW012 BKN250
      TEMPO 1103/1105 BKN012
     FM110500 27004KT P6SM OVC010
     FM111700 23012KT P6SM BKN100
     FM111900 26008KT P6SM OVC060 PROB30 1119/1124 -RA=

0000074700
991
FTUS43 KWBC 102018 AAA
TAF AMD
KAZO 102015Z 1020/1118 16007KT 2SM -RA BR OVC006
      TEMPO 1020/1022 OVC004
     FM102200 16012KT 2SM RA BR OVC009
     FM110300 17012G19KT 1/2SM -RA FG OVC003
     FM111000 20010KT 1SM BR OVC003=
KMKC 102017Z 1020/1118 20008KT 4SM BR OVC008
     FM102200 21006KT 4SM BR OVC012
     FM110600 27006KT 4SM BR VCSH OVC008
     FM110900 26010KT P6SM SCT150=
KSGF 102016Z 1020/1118 16015G23KT P6SM VCSH BKN007 BKN090
      TEMPO 1020/1022 SCT007 BKN090
     FM102200 20015KT 6SM -SHRA BR VCTS SCT007 OVC015CB
      TEMPO 1023/1102 3SM SHRA BR OVC007CB
     FM110200 25011KT 6SM BR SCT008 BKN050
     FM110500 26010KT 3SM BR BKN007
     FM111400 26010G18KT P6SM SCT250=

0000025700
992
FTUS72 KWBC 102018 AAA
TAF AMD
KDHN 102017Z 1020/1118 08004KT 1/2SM FG OVC002
      TEMPO 1020/1022 1/4SM FG
     FM110300 15003KT 1/4SM FG OVC002
     FM111200 19010KT 2SM RA BR OVC003
     FM111700 26010G15KT P6SM VCSH OVC015=

00000000