0000025400
993
FTUS31 KWBC 110024 AAA
TAF AMD
KMSY 110021Z 1100/1124 12008KT 1/2SM FG OVC002
      TEMPO 1105/1109 2SM TSRA OVC006CB
     FM110900 21012KT 3SM -RA OVC008
     FM111300 25012KT 5SM BR OVC015
     FM111600 30010KT P6SM SCT250=

0000025400
994
FTUS72 KWBC 110024 AAA
TAF AMD
KMSY 110021Z 1100/1124 12008KT 1/2SM FG OVC002
      TEMPO 1105/1109 2SM TSRA OVC006CB
     FM110900 21012KT 3SM -RA OVC008
     FM111300 25012KT 5SM BR OVC015
     FM111600 30010KT P6SM SCT250=

0000022900
995
FTUS75 KWBC 110024 AAA
TAF AMD
PAGK 110022Z 1100/1124 00000KT 3SM -SHSN BR OVC050
      TEMPO 1100/1104 1 1/2SM -SN OVC025
     FM110600 00000KT 2SM BR BKN012 OVC035
     FM112000 00000KT 6SM BR BKN025=

0000010100
996
SAIO31 KWBC 110000 RRD
METAR
VRMM 110000Z 07015KT 9999 FEW019 28/23 Q1011 NOSIG=

0000010400
997
SPCN31 CWAO 110030
SPECI CYQQ 110030Z 14017G25KT 4SM -RA BR BKN012 OVC026 RMK SF5SC3=

0000009500
998
SAGQ21 FGSL 110030
METAR FGSL 110030Z 23007KT 6000 FEW010 24/22 Q1011 NOSIG=

0000011500
999
SASQ41 LZIB 110030 RRA
METAR LZPP 110030Z AUTO 18003KT 140V210 9999 // SCT100/// 01/M02
Q1020=

0000011400
000
SASR31 WSSS 110030
METAR WSSS 110030Z VRB03KT 9999 FEW018 FEW020TCU BKN300 26/23 Q1012
NOSIG=

0000025900
001
SAFR24 LFPW 110000
METAR LFSI 110000Z AUTO 09006KT 9999 NSC 01/01 Q1017=
METAR LFSO 110000Z AUTO VRB02KT 9999 NSC 02/02 Q1017=
METAR LFSX 110000Z AUTO 08005KT 9000 NSC 02/01 Q1017=
METAR LFYR 110000Z AUTO VRB03KT 9999 NSC 05/04 Q1015=

0000040000
002
SARO31 LROM 110000
METAR LRBS 110000Z 30003KT 260V350 6000 NSC 01/01 Q1019 TEMPO 3000
BR=
METAR LRCK 110000Z 27007KT 1500 BR NSC 02/01 Q1018 NOSIG=
METAR LROP 110000Z 27003KT 250V320 5000 BR NSC 01/00 Q1019 8819//95
TEMPO 3000 BR=
METAR LRSB 110000Z 29010KT 9999 BKN042 03/M02 Q1021 NOSIG=
METAR LRTR 110000Z 09004KT 0250 R11/0375N FZFG BKN000 M01/M02 Q1022
11190095=

0000058400
003
SAFR31 LFPW 110000
METAR LFLL 110000Z 14005KT 5000 BKN013 SCT200 07/06 Q1017 NOSIG=
METAR LFMN 110000Z 33008KT 9999 OVC028 10/06 Q1021 NOSIG=
METAR LFPG 110000Z 11003KT 0500 R27L/1500N R09R/1300U R26R/1600D
R08L/2000U R26L/1800D R08R/2000D R27R/1400D R09L/1400U FG VV///
05/04 Q1017 NOSIG=
METAR LFPO 110000Z 09003KT 3000 -RA BR OVC003 06/05 Q1017 NOSIG=
METAR LFQQ 110000Z 19009KT 9999 OVC009 05/03 Q1016 NOSIG=
METAR LFRB 110000Z 18006KT 5000 BR FEW006 BKN050 07/07 Q1015 NOSIG=
METAR LFRS 110000Z VRB01KT 5000 -RA FEW046 BKN056 08/07 Q1015 NOSIG=

0000010200
004
SABR31 TBPB 110000
METAR TBPB 110000Z 07014KT 9999 SCT018 BKN036 25/21 Q1015 NOSIG=

0000042000
005
SARO32 LROM 110000
METAR LRAR 110000Z AUTO 16004KT 5000 R09////// R27/P2000 BKN056
///// Q1022=
METAR LRBM 110000Z AUTO VRB02KT 6000 FEW035 SCT210 02/02 Q1020=
METAR LRCL 110000Z VRB02KT 9999 FEW058 00/M01 Q1020=
METAR LROD 110000Z AUTO 20010KT 9999 NCD 01/M00 Q1021=
METAR LRSM 110000Z AUTO 20006KT 9999 NCD M02/M02 Q1020=
METAR LRTM 110000Z 22004KT 4900 BR BKN048 M00/M00 Q1020 0729//95=

0000033100
006
SARO33 LROM 110000
METAR LRBC 110000Z AUTO 28004KT 9999 NCD 03/M01 Q1017=
METAR LRCV 110000Z AUTO 27008KT 9999 NCD 02/M01 Q1020=
METAR LRIA 110000Z 24008KT 210V270 CAVOK 04/M00 Q1016 1529//95=
METAR LRSV 110000Z AUTO 25006KT 9999 NCD 02/M03 Q1015=
METAR LRTC 110000Z AUTO 24006KT 9999 FEW070 03/01 Q1018=

0000077600
007
SAFR32 LFPW 110000
METAR LFBD 110000Z AUTO 20004KT 0800 0550 R23/1400D R05/1100D
R29///// FG FEW007 SCT170 07/07 Q1015=
METAR LFBH 110000Z AUTO 26001KT 7000 NSC 09/07 Q1015=
METAR LFBI 110000Z AUTO VRB02KT 9999 NSC 07/06 Q1014=
METAR LFBL 110000Z AUTO 26002KT 9999 NSC 09/05 Q1015=
METAR LFBO 110000Z AUTO 14010KT 9999 FEW015 OVC180 10/07 Q1016=
METAR LFBP 110000Z AUTO 28003KT 4000 BR OVC005 08/08 Q1016=
METAR LFBT 110000Z AUTO 25005KT 220V280 9999 NSC 09/05 Q1016=
METAR LFBZ 110000Z AUTO 28009KT 9999 BKN016 OVC024 12/09 Q1017=
METAR LFLB 110000Z AUTO 00000KT 0300 R18/1500N FG NSC 02/02 Q1018=
METAR LFLX 110000Z AUTO 08003KT 7000 NSC 07/06 Q1015=
METAR LFML 110000Z AUTO 08001KT 9999 OVC027 12/08 Q1019=
METAR LFCK 110000Z NIL=

0000049300
008
SAFR33 LFPW 110000
METAR LFKB 110000Z AUTO 00000KT 9000 OVC028 11/09 Q1021=
METAR LFKF 110000Z AUTO 07008KT 010V100 9999 BKN026/// OVC240///
12/09 Q1020=
METAR LFKJ 110000Z AUTO 05006KT 9999 NCD 06/05 Q1020=
METAR LFLC 110000Z VRB01KT CAVOK 04/02 Q1015 NOSIG=
METAR LFMP 110000Z AUTO 29004KT 6000 BKN022 OVC190 09/07 Q1018=
METAR LFMV 110000Z AUTO 00000KT 8000 OVC026 09/07 Q1020=
METAR LFSL 110000Z AUTO VRB02KT 9999 NSC 05/04 Q1015=
METAR LFKC 110000Z NIL=

0000099500
009
SAFR34 LFPW 110000
METAR LFCR 110000Z AUTO 13010KT 9999 NSC 07/04 Q1016=
METAR LFJL 110000Z AUTO 12008KT 6000 NSC 01/00 Q1018=
METAR LFLP 110000Z AUTO 00000KT 6000 NSC 02/00 Q1018=
METAR LFLS 110000Z AUTO VRB02KT 3100 BR OVC012 04/04 Q1018=
METAR LFLY 110000Z AUTO 00000KT 1900 BR OVC014 05/05 Q1017=
METAR LFMT 110000Z AUTO 05005KT 9999 OVC033 11/08 Q1019=
METAR LFMU 110000Z AUTO 08003KT 9999 BKN029 OVC034 12/08 Q1019=
METAR LFOB 110000Z AUTO 17004KT 7000 OVC006 05/04 Q1017=
METAR LFOH 110000Z AUTO 14007KT 9000 FEW004 OVC049 06/04 Q1015=
METAR LFOK 110000Z AUTO 05004KT 0500 0400 R10/1500U R28/2000U FZFG
VV/// M00/M00 Q1017=
METAR LFOP 110000Z AUTO 14004KT 0750 R22/1900D FG VV/// 05/04 Q1016=
METAR LFPB 110000Z AUTO 09002KT 6000 OVC004 06/05 Q1017=
METAR LFQA 110000Z AUTO 06001KT 0100 FG VV/// 01/01 Q1017=
METAR LFQB 110000Z AUTO 19004KT 0750 FG NSC 01/01 Q1017=
METAR LFSN 110000Z AUTO 00000KT 0200 R03///// FZFG VV/// M00/M00
Q1018=

0000093300
010
SAFR35 LFPW 110000
METAR LFMI 110000Z AUTO 09003KT 9999 OVC028 11/08 Q1019=
METAR LFMK 110000Z AUTO 10012KT 9999 FEW015 OVC027 10/08 Q1017=
METAR LFOV 110000Z AUTO 03003KT 1200 BR SCT004 BKN034 OVC054 06/06
Q1015=
METAR LFRD 110000Z AUTO 14003KT 1400 R35///// BR BKN002 OVC009
07/06 Q1015=
METAR LFRI 110000Z AUTO VRB01KT 9999 NSC 08/07 Q1015=
METAR LFRM 110000Z AUTO VRB02KT 5000 BR NSC 07/06 Q1016=
METAR LFRN 110000Z AUTO 05003KT 2300 -RA BR BKN002/// BKN007///
OVC030/// ///TCU 07/07 Q1016=
METAR LFRO 110000Z AUTO 17003KT 3700 BR NSC 06/06 Q1015=
METAR LFRV 110000Z AUTO 36005KT 330V040 3100 -RA BR SCT003///
OVC008/// ///TCU 07/07 Q1015=
METAR LFRZ 110000Z AUTO 10003KT 2600 BR FEW029 OVC049 08/07 Q1015=
METAR LFSB 110000Z AUTO 18004KT 9000 NSC 03/02 Q1018=
METAR LFST 110000Z AUTO 27001KT 5000 BR FEW002 00/M00 Q1019=
METAR LFTH 110000Z AUTO 36004KT 9999 OVC028 11/09 Q1020=

0000073900
011
SAFR36 LFPW 110000
METAR LFBA 110000Z AUTO 00000KT 9000 NSC 06/06 Q1016=
METAR LFBE 110000Z AUTO 07003KT 3600 BR NSC 04/04 Q1016=
METAR LFGJ 110000Z AUTO 08003KT 7000 NSC 03/02 Q1017=
METAR LFJR 110000Z AUTO VRB02KT 3800 BR FEW002/// SCT076///
OVC100/// ///TCU 07/06 Q1016=
METAR LFMD 110000Z AUTO VRB01KT 9999 OVC026 10/08 Q1021=
METAR LFMH 110000Z AUTO 15012KT 3900 BR NSC 06/05 Q1016=
METAR LFOT 110000Z 05006KT 9000 NSC 06/06 Q1015 NOSIG=
METAR LFPN 110000Z AUTO 11003KT 070V130 0600 R25/1900U FG VV///
05/05 Q1017=
METAR LFRC 110000Z AUTO 18008KT 4200 BR OVC004 06/06 Q1015=
METAR LFRG 110000Z AUTO 18006KT 9999 OVC045 06/05 Q1016=
METAR LFRK 110000Z AUTO 16005KT 5000 BR OVC044 06/05 Q1016=

0000071700
012
SAFR37 LFPW 110000
METAR LFAQ 110000Z AUTO 19007KT 150V210 3800 BR OVC005 04/04 Q1016=
METAR LFAT 110000Z AUTO 14005KT 3900 BR SCT005 SCT009 03/02 Q1016=
METAR LFLN 110000Z AUTO 05002KT 9999 NSC 04/03 Q1016=
METAR LFPM 110000Z AUTO 07004KT 0400 FG VV/// 05/05 Q1017=
METAR LFPT 110000Z AUTO 00000KT 4700 BR OVC006 05/04 Q1017=
METAR LFRH 110000Z AUTO 32003KT 1300 0900 R25///// R07///// BCFG
VV/// 08/07 Q1016=
METAR LFRQ 110000Z AUTO 00000KT 0100 R28/0375N FG VV/// 07/06 Q1016=
METAR LFRT 110000Z AUTO 21003KT 180V240 6000 NSC 07/07 Q1015=
METAR LFSD 110000Z AUTO VRB03KT 9999 NSC 03/02 Q1017=
METAR LFTW 110000Z AUTO 08002KT 6000 OVC029 10/06 Q1019=
METAR LFBU 110000Z NIL=

00000000