0000004100
373
SACZ41 LKPW 101900
NIL

0000075500
374
FTUS80 KWBC 101909 AAA
TAF AMD
KOAK 101905Z 1019/1124 23004KT P6SM SCT200
     FM102030 27012KT P6SM SCT200
     FM110200 29007KT P6SM BKN250
     FM110900 24005KT P6SM OVC010=
KORH 101907Z 1019/1118 21009KT 4SM BR OVC005
     FM102100 21007KT P6SM OVC005
     FM110700 21005KT P6SM OVC008
     FM111200 18008KT 3/4SM -RA OVC003
     FM111400 18011G25KT 3/4SM -RA OVC003
     FM111500 19012G30KT 1/2SM -RA FG OVC001 WS020/19045KT=
KPVD 101908Z 1019/1118 00000KT 1 1/2SM -RASN BR OVC020
     FM102030 21005KT P6SM OVC020
     FM102200 20005KT P6SM OVC030
     FM102300 20004KT P6SM BKN015
     FM110800 18005KT P6SM OVC010
     FM111300 17009KT 2SM -RA OVC008
     FM111500 18013G28KT 1SM -RA BR OVC003=

0000018200
375
FTPL31 EPWA 101700 AAA
TAF AMD EPGD 101904Z 1019/1118 28012KT 9999 BKN015
    TEMPO 1019/1106 28015G25KT 5000 SHRA BKN010 BKN015CB
    BECMG 1109/1112 22012KT=

0000010100
376
SPUS31 KWBC 101909
SPECI
KTEB 101905Z 00000KT 4SM HZ BKN011 OVC027 01/M02 A3038=

0000012000
377
SPUS41 KWBC 101909
SPECI
KEWB 101905Z 00000KT 2 1/2SM R05/6000VP6000FT -RA BR OVC018 02/02
A3039=

0000009400
378
SPUS42 KWBC 101909
SPECI
KRSW 101905Z 16008G14KT 10SM SCT024 27/20 A3007=

0000019700
379
SAID32 WIII 101900
METAR WAMM NIL=
METAR WIBB NIL=
METAR WIDN NIL=
METAR WIPT NIL=
METAR WIOO NIL=
METAR WIPP NIL=
METAR WAOO NIL=
METAR WALL NIL=
METAR WADL NIL=

0000013100
380
SANO35 ENMI 101850 RRA
METAR ENMS 101850Z VRB06KT 9999 FEW060 M08/M17 Q1007 RMK WIND 412FT
           VRB06KT=

0000010000
381
SACA32 KWBC 101900 RRB
METAR
MTPP 101900Z 09011KT 9999 FEW030 32 1014/9 A29/97=

0000026800
382
SAIO31 KWBC 101900 RRB
METAR
WBGG 101900Z 22003KT 6000 -RA FEW000 SCT020 BKN150 23/23 Q1011
     NOSIG NOSIG=
WBKK 101900Z 13004KT 9999 FEW014 SCT140 BKN280 24/23 Q1010
     NOSIG=
WBSB 101900Z 19002KT 9999 FEW005 BKN300 25/24 Q1011 NOSIG=

0000038900
383
SAPO31 LPMG 101900
METAR LPBJ 101900Z VRB01KT 9999 FEW040 13/08 Q1014=
METAR LPFR 101900Z 07003KT 040V100 CAVOK 13/09 Q1013=
METAR LPMA 101900Z 01008KT 340V050 9999 FEW015 17/12 Q1015 RS35014KT
0533006KT 2301010KT=
METAR LPPR 101900Z 33004KT CAVOK 10/09 Q1015=
METAR LPPS 101900Z 04006KT 9999 SCT012 17/15 Q1015=
METAR LPPT 101900Z 34007KT CAVOK 13/11 Q1014=

0000035400
384
SAPO32 LPMG 101900
METAR LPAZ 101900Z 19016KT 9999 SCT009 BKN022 16/14 Q1012=
METAR LPFL 101900Z NIL=
METAR LPHR 101900Z VRB02KT 9000 -DZ SCT002 BKN006 BKN025 13/12 Q1008=
METAR LPLA 101900Z 00000KT 2000 -RADZ BR SCT006 BKN008 BKN017 13/13
      Q1007=
METAR LPPD 101900Z 18017KT 5000 SHRA SCT006 BKN014 BKN025 16/15
Q1010=

0000037200
385
SAID31 WIII 101900
METAR WIMM 101900Z 26003KT 4000 HZ BKN017 24/24 Q1011= 
METAR WADD 101900Z VRB02KT 9999 FEW015CB FEW017 26/24 Q1009= 
METAR WAAA 101900Z 35006KT 5000 -RA FEW018CB SCT019 25/25 Q1010 RETS=
METAR WIII 101900Z 00000KT 3900 BR FEW021 SCT100 25/23 Q1009 NOSIG= 
METAR WIHH NIL=
METAR WABB NIL=
METAR WARR NIL=
METAR WIDD NIL=

0000009500
386
SANT31 KWBC 101900 RRA
METAR
LPBJ 101900Z VRB01KT 9999 FEW040 13/08 Q1014=

0000017900
387
SAID33 WIII 101900
METAR WABP NIL=
METAR WAJJ NIL=
METAR WAKK NIL=
METAR WAPP NIL=
METAR WARS NIL=
METAR WATT NIL=
METAR WALR NIL=
METAR WARQ NIL=

0000028000
388
SANG31 YBBN 101900
METAR AYPY 101900Z NIL=
METAR AYWK 101900Z NIL=
METAR AYVN 101900Z NIL=
METAR AYNZ 101900Z NIL=
METAR AYMH 101900Z NIL=
METAR AYGN 101900Z NIL=
METAR AYMO 101900Z NIL=
METAR AGGH 101900Z 14002KT 9999 FEW015 FEW016CB 24/23 Q1007=

0000015400
389
SAAF13 LFPW 101900 RRB
METAR GBYD 101900Z 32006KT CAVOK 22/16 Q1011=
METAR GVAC 101900Z 05008KT 9999 SCT014 BKN200 21/15 Q1015 NOSIG=

0000010600
390
SACN62 CYEK 101900
METAR CYEK 101900Z 34012KT 15SM FEW280 M31/M35 A2967 RMK CI1 SLP050=

0000038600
391
FTUS51 KWBC 101912 AAA
TAF AMD
KRWI 101908Z 1019/1118 03004KT 4SM -RA BR SCT005 OVC050
      TEMPO 1019/1023 6SM -RA BR BKN005 BKN050
     FM102300 06004KT 5SM -RADZ BR BKN005 OVC009
     FM110400 VRB05KT 1SM -DZ BR OVC003
     FM110700 18010KT P6SM OVC008
     FM111300 19013G24KT P6SM BKN009 OVC020
     FM111700 20017G28KT 5SM -SHRA BR BKN012 OVC025=

0000029300
392
FTUS52 KWBC 101912 AAA
TAF AMD
KFMH 101909Z 1019/1118 18006KT P6SM -SHSN OVC020
     FM102000 21007KT P6SM OVC020
     FM110500 19005KT P6SM OVC025
     FM110800 18007KT P6SM OVC040
     FM111200 17011G22KT P6SM OVC008
     FM111500 18017G31KT 1SM -RA BR OVC003=

00000000