0000015700
373
SSVX13 LFPW 111000
ZZYY 61687 11014 1000/ 144715 029825 6113/ 11119 40227 57005 22219
 00074 444 20131 11014 0957/ 50101 80090 80005 9/015=
0000046700
374
SNVD17 KWNB 111000 RRD
BBXX
46078 11101 99560 71526 46/// /2207 10038 20020 49942 58013 90950
22200 00044 11105 20502 324// 41104 70023 333 91209 555 11074
22078 30930 42309 60949 222069 225071 225069 222064 226067 223062
82308 90859=
46066 11101 99528 71550 46/// /1614 10037 49924 58047 90950 22200
00054 11206 20604 324// 41205 70031 333 91217 555 11148 22157
30943 41617 60949 160136 157135 157125 160127 163125 160125 81615
90949=
0000172500
375
SNVD15 KWNB 111000 RRC
BBXX
42003 11101 99260 70856 46/// /1706 10255 40158 56006 90950 22200
00249 10602 20502 312// 40601 70010 333 91208 555 11067 22073
30854 41608 60949 172062 173060 175064 170065 170064 170067 81707
90852=
42055 11101 99222 70940 46/// /1703 10227 40143 55000 90950 22200
00228 10802 20401 306// 40802 70011 333 91203 555 11029 22031
30851 41704 60949 173027 165026 159028 173023 167027 160031 81703
90851=
42057 11101 99170 70815 46/// /0908 10272 20226 40145 55000 90950
22200 00275 10904 20703 310// 40902 70020 333 91211 555 11090
22095 30914 40811 60949 086084 086084 084082 083090 083083 080084
80910 90914=
41047 11101 99275 70715 46/// /1208 10242 20230 40231 56005 90950
22200 00255 10805 20603 309// 40804 70023 333 91210 555 11088
22093 30939 41110 60949 116082 117087 116086 116080 118082 119087
81209 90938=
41048 11101 99320 70695 46/// /1309 10206 20159 40261 56012 90950
22200 00213 10904 20703 312// 40902 70019 333 91211 555 11099
22105 30929 41211 60949 134093 130093 131091 138092 132094 137091
81410 90917=
41040 11101 99145 70530 46/// /0711 10229 20200 40154 53012 90950
22200 00262 10906 20704 307// 40904 70030 333 91215 555 11118
22124 30942 40715 60949 071113 076098 079097 077097 067105 059083
80713 90941=
42039 11101 99288 70860 46/// /1706 10215 20215 40151 56011 90950
22200 00211 10502 20502 3//// 40801 70008 333 91208 555 11067
22072 30903 41608 60949 174062 170061 168059 166063 164066 163062
81607 90907=
44066 11101 99396 70726 46/// /1608 10130 20124 40191 56031 90950
22200 00111 10402 20401 316// 40901 70009 333 91210 555 11090
22099 60949 161082 158078 155078 150074 149073 149074=
0000012200
376
SNRE15 FMEE 111000
AAXX 11104
61996 26/// /2411 10146 20104 30185 40220 58002
  333 69925 90710 91126=
0000018400
377
SAJD20 OJAI 111000
METAR OJAI 111000Z NIL=
METAR OJAM 111000Z 31008KT 5000 HZ BKN025TCU 11/06 Q1023 NOSIG=
METAR OJAQ 111000Z 00000KT 9999 FEW030 17/08 Q1024 NOSIG=
0000018400
378
SAJD20 OJAM 111000
METAR OJAI 111000Z NIL=
METAR OJAM 111000Z 31008KT 5000 HZ BKN025TCU 11/06 Q1023 NOSIG=
METAR OJAQ 111000Z 00000KT 9999 FEW030 17/08 Q1024 NOSIG=
0000066100
379
UDAF01 FAPR 111001
AMDAR 1110
DES AFZA08 3326S 01911E 110952 F139 MS019 274/019 TB0 S031 333 F/// VG000=
DES AFZA08 3327S 01909E 110953 F125 PS015 288/018 TB0 S031 333 F/// VG000=
DES AFZA08 3329S 01907E 110953 F118 PS035 290/016 TB0 S031 333 F/// VG000=
DES AFZA08 3336S 01859E 110955 F099 PS060 318/013 TB0 S031 333 F/// VG000=
DES AFZA08 3341S 01855E 110956 F081 PS088 326/008 TB0 S031 333 F/// VG000=
UNS AFZA08 3345S 01850E 110957 F064 PS116 338/011 TB0 S031 333 F/// VG000=
DES AFZA08 3346S 01845E 110958 F048 PS140 307/002 TB0 S031 333 F/// VG000=
DES AFZA08 3349S 01834E 111001 F032 PS162 092/002 TB0 S031 333 F/// VG000=
0000009200
380
SAIN90 VOCB 111000
METAR VOCB 111000Z 09007KT 5000 HZ NSC 29/14 Q1013 NOSIG=
0000070700
381
FTUS80 KWBC 102000 AAA
TAF AMD
KALW 101956Z 1020/1118 21014KT P6SM FEW050 BKN100
     FM102100 23016G24KT P6SM -RA OVC050
     FM110000 21010KT 5SM -RA BR OVC020
     FM110400 18014KT P6SM VCSH SCT025 OVC040
     FM111000 20018G30KT P6SM SCT050 OVC100=
KAXN 101958Z 1020/1118 17012KT 1/2SM FZFG OVC002
     FM102100 18009KT 2SM BR BKN006 OVC015
     FM102300 20006KT 5SM BR SCT012 BKN100
     FM110300 27006KT P6SM SCT200
     FM111000 31010KT P6SM SCT025 BKN040
     FM111600 30010KT P6SM SCT250=
KSUX 101959Z 1020/1118 17011KT 1 1/2SM BR OVC003
     FM102130 29008KT 4SM BR BKN015 BKN080
     FM110100 30009KT P6SM SKC
     FM111600 31015G20KT P6SM SCT050=

0000061800
382
SPUS70 KWBC 102000
SPECI
KUUU 101956Z AUTO 20004KT 2SM BR BKN004 BKN008 OVC016 03/02 A3038
     RMK AO2 T00280022=
PABA 101956Z AUTO 27022KT 2 1/2SM HZ M26/M29 A2986 RMK AO2 VIS 2V3
     SNE08 P0000 FZRANO $=
PACV 101956Z 00000KT 1 3/4SM -SN BR FEW021 BKN029 OVC050 M02/M02
     A2938 RMK AO2 P0000 $=
KXFL 101950Z 13007KT 7SM SCT037 24/19 A3009=
KCGI 101956Z 16011KT 8SM FEW006 BKN017 OVC090 07/06 A2986 RMK AO2
     T00670061=
K1B7 101945Z 08003KT 0SM FG BKN002 15/15 A2998=
KRUE 101957Z AUTO 31009KT 2 1/2SM +RA BR BKN005 OVC014 09/08 A2977
     RMK AO2 CIG 003V009 P0001=

0000009900
383
SAAG41 SAEZ 102000
METAR SAEZ 102000Z 23007KT 9999 FEW050TCU SCT100 32/15 Q1007=

0000008900
384
SAJM31 MKJP 102000
METAR MKJP 102000Z 14024KT 9999 FEW022 29/23 Q1013=

0000014000
385
SACN61 CYHE 102000
METAR CYHE 102000Z AUTO 28014G20KT 9SM -RA BKN046 OVC055 07/06 A2995
 RMK PCPN 0.8MM PAST HR SLP141=

0000011900
386
SACN62 CYEK 102000
METAR CYEK 102000Z 34011KT 15SM FEW095 FEW260 M31/M35 A2968 RMK
 AS1CI1 SLP053=

0000012900
387
SACN61 CYKL 102000
METAR CYKL 102000Z AUTO /////KT 3SM -SN FEW021 OVC026 M11/M14 A2957
 RMK WND MISG SLP062=

0000011400
388
SACN61 CYLW 102000
METAR CYLW 102000Z AUTO 35004KT 9SM BKN100 BKN140 03/00 A2984 RMK
 SLP121=

0000012900
389
SACN62 CYKY 102000
METAR CYKY 102000Z 19008KT 15SM FEW030 SCT090 OVC240 M11/M13 A2940
 RMK SC2AC2CI4 SLP004=

0000011100
390
SACN61 CYKF 102000
METAR CYKF 102000Z AUTO 16006KT 1/4SM FG VV003 00/00 A3007 RMK
 SLP200=

0000012800
391
SAGQ21 FGSL 102000
METAR FGBT 102000Z NIL=
METAR FGSL 102000Z 22005KT 6000 FEW012 BKN130 26/23 Q1012 NOSIG=

0000009500
392
SAPF20 NTAA 102000
METAR NTAA 102000Z 22005KT 9999 FEW020 29/22 Q1013 NOSIG=

00000000