0000010600
453
SPUS44 KWBC 101913
SPECI
KHQM 101909Z AUTO 17006KT 3SM BR FEW021 BKN028 OVC044 A3011=

0000009000
454
SPCN44 CWAO 101913
SPECI CYMJ 101913Z 28003KT 1/2SM FZFG VV005 RMK FG8=

0000019300
455
FCUK32 EGGY 101700 AAB
TAF AMD EGNH 101914Z 1019/1023 17012KT 9999 SCT030 TEMPO 1019/1023
    8000 RA BKN014 PROB40 TEMPO 1019/1021 4000 RADZ BECMG 1020/1023
    31010KT=

0000010600
456
SARO31 LROM 101900 CCA
METAR COR LROP 101900Z 24008KT CAVOK 05/05 Q1015 8829//95 NOSIG=

0000262500
457
SPUS70 KWBC 101914
SPECI
KBAZ 101910Z 23010KT 10SM BKN011 BKN040 OVC060 19/18 A2983 RMK
     AO2=
KBEH 101910Z AUTO 14007KT 1 3/4SM BR OVC006 01/01 A2989 RMK
     AO2=
KDPA 101910Z 15011KT 1/2SM FG OVC002 01/01 A2980 RMK AO2 PRESFR
     RVRNO=
KGEZ 101910Z AUTO 15010KT 4SM BR SCT006 OVC050 05/03 A2998 RMK AO2
     T00500028=
KHLG 101910Z 15005KT 10SM OVC006 06/05 A3015 RMK AO2=
KMIA 101910Z 12012G20KT 10SM BKN021 BKN210 27/21 A3008 RMK AO2=
KOPF 101910Z 13013KT 10SM BKN025 BKN031 27/22 A3008 RMK AO2 $=
KPKD 101910Z AUTO 17011KT 1/2SM FZFG OVC002 M04/M05 A2950 RMK AO2
     T10441050 TSNO=
KRWI 101910Z AUTO 04004KT 3SM BR SCT003 BKN060 OVC085 09/08 A3026
     RMK AO2 T00890078=
KUZA 101910Z AUTO 04006KT 1 3/4SM +RA BR OVC003 06/05 A3021 RMK
     AO2 P0004 T00560050=
KHUM 101910Z 07007KT 7SM SCT006 OVC045 19/16 A2997 RMK ATIS Y
     GPS/RY36 ST=
PABA 101910Z AUTO 27021KT 2SM HZ M26/M29 A2986 RMK AO2 VIS 1 1/2V2
     1/2 SNE08 P0000 FZRANO $=
PAJZ 101914Z AUTO 31004KT 1SM BR OVC002 M07/M08 A2953 RMK AO2
     PWINO TSNO $=
PACM 101911Z AUTO 00000KT 10SM OVC016 M12/M13 A2954 RMK AO2 TSNO
     $=
PAGN 101911Z AUTO 00000KT 6SM -RA BR FEW004 BKN014 OVC048 12/12
     A2957 RMK AO2 TSNO BKN V SCT P0001 $=
PAHN 101911Z AUTO VRB06KT 10SM UP OVC013 02/00 A2945 RMK AO2 UPB05
     P0000 T00220000 TSNO=
PALH 101911Z 01003KT 10SM SCT005 OVC014 M03/M05 A2942 RMK AO2=
KBOK 101911Z AUTO 16006KT 2SM BR OVC002 09/09 A3028 RMK AO2 $=
KDNL 101911Z AUTO 03005KT 1 3/4SM -RA BR BKN003 BKN013 OVC046
     08/07 A3015 RMK AO2 P0008 T00830072 TSNO=
KLNK 101911Z 16004KT 4SM BR BKN004 OVC012 01/M01 A2957 RMK AO2 CIG
     003V008 T00111006=
KLVJ 101911Z AUTO 18009KT 4SM -RA FEW020 BKN030 OVC050 20/17 A2989
     RMK AO2 RAB02 P0000 T02000172=
KOGB 101911Z AUTO 05004KT 10SM -RA OVC013 18/15 A3014 RMK AO2
     P0000 T01780150 TSNO=
KPHL 101911Z 03004KT 1 1/2SM BR SCT004 BKN015 OVC025 02/00 A3037
     RMK AO2 $=
KPSF 101911Z AUTO 21005KT 10SM SCT012 BKN065 OVC080 00/M02 A3027
     RMK AO2=
KSET 101911Z AUTO 15006KT 3SM -RA BR OVC007 03/03 A2977 RMK AO2
     P0002 T00330033 TSNO=
KSGJ 101911Z 17015G19KT 10SM SCT015 23/18 A3012 RMK AO2=
KSLK 101911Z AUTO 22009KT 7SM BKN017 OVC041 M03/M05 A3017 RMK
     AO2=
KUIN 101911Z AUTO 17012KT 1 1/2SM +TSRA BR OVC003 03/02 A2969 RMK
     AO2 LTG DSNT ALQDS TSB05 P0014 T00280017=
PACM 101911Z AUTO 00000KT 10SM OVC016 M12/M13 A2954 RMK AO2 TSNO
     $=
PAGN 101911Z AUTO 00000KT 6SM -RA BR FEW004 BKN014 OVC048 12/12
     A2957 RMK AO2 TSNO BKN V SCT P0001 $=

0000012800
458
SMCM01 FKKD 110000 RRA
AAXX 11004
64870  32960 70000 10131 20043 38916 48513 80002
  333  0//00 58001 87080=
0000034500
459
SIVD30 KWBC 110300 RRT
BBXX
42392 11031 99272 70900 46/// ///// 1//// 90300 22200 10502 70009=
42887 11031 99282 70885 46/// /1606 10222 20195 90300 22200 10602
 70010 555 11047 22051=
42369 11031 99272 70903 46/// /1506 1//// 90300=
42375 11031 99285 70883 46/// /1311 1//// 90300 22200 10402 70008
 555 11086 22094=
0000015600
460
SIVJ30 KWBC 110300 RRC
BBXX
VHMW 11034 99643 31321 41/91 /1105 10012 20001 49914 52011 74942
 8//// 22262 05002 299// 333// 40904 80008=
0000013900
461
SNVD01 KWBC 110400 RRO
BBXX
46242 11041 99332 71174 46/// ///// 1//// 90427 22200 00153 11101
 20601 324// 41101 70006=
0000015900
462
SNVE01 KWBC 110400 RRE
BBXX
TBWUK30 11043 99101 30725 41598 62007 10291 20238 40119 70152
 82168 22254 04300 20601 317// 41003 5//// 80254=
0000016100
463
SNVF01 KWBC 110400 RRD
BBXX
MINUK01 1104/ 99578 70017 46/// ///// 10053 40038 52028=
MINUK05 1104/ 99602 70009 46/// ///// 10095 49982 52009=
0000011900
464
SNVA01 KWBC 110500
BBXX
BATFR55 11054 99084 30427 46/// /0110 10280 20217 40147 52028
 22262 04294=
0000042600
465
SNVB01 KWBC 110500 RRA
BBXX
3FZK3 11054 99369 11409 46/// /3410 10057 21093 40224 56014 7////
 8//// 22200 0//// 2////=
SHIP 11054 99369 11409 46/// /3410 10057 21093 40224 56014 7////
 8//// 22200 0//// 2////=
52211 11051 99153 11457 46/// ///// 1//// 90448 22200 00281 10705
 20705 305// 41101 70024=
52202 11051 99137 11448 46/// ///// 1//// 90500 22200 00283 10904
 20904 307// 41101 70022=
0000030300
466
SNVC01 KWBC 110500
BBXX
C6TZ9 11054 99301 50496 417// 73214 10230 20216 40120 54/// 7//22
 87/// 22213 00260 2//// 3//// 4//// 5//// 6//// 80220 ICE /////=
32012 11051 99199 50853 46/// ///// 1//// 90450 22200 11204 70018=
BAREU08 11054 99299 50726 46/// ///// 40118 57012 22243=
0000367000
467
SNVD01 KWBC 110500 RRA
BBXX
44099 11051 99369 70757 46/// ///// 1//// 90448 22200 00065 10502
 20502 70009=
44097 11051 99410 70711 46/// ///// 1//// 90455 22200 00068 10902
 20901 70008=
44098 11051 99428 70702 46/// ///// 1//// 90451 22200 00059 10602
 20602 70008=
44056 11051 99362 70757 46/// ///// 1//// 90453 22200 00088 10502
 20502 70009=
C6VG7 11054 99215 70861 41797 71624 10280 2//// 40163 52005 70211
 8618/ 22214 00280 20204 309// 4//04 5//02 6//// 8//// ICE /////=
41112 11051 99307 70813 46/// ///// 1//// 90452 22200 00118 10803
 20803 70014=
41108 11051 99337 70780 46/// ///// 1//// 90459 22200 00118 10703
 20703 70016=
41114 11051 99276 70802 46/// ///// 1//// 90455 22200 00228 10803
 20803 305// 41101 70015=
42099 11051 99273 70843 46/// ///// 1//// 90452 22200 00221 10401
 20401 70006=
46239 11051 99363 71221 46/// ///// 1//// 90459 22200 00131 11306
 21003 329// 41305 70029=
51205 11051 99210 71564 46/// ///// 1//// 90451 22200 00249 11005
 21004 332// 41403 70023=
SHIP 11054 99482 71228 46/// /1524 10082 20066 40040 58086 7////
 8//// 22273 0//// 2////=
VCRG 11054 99474 70619 46/// /2214 11036 21093 40231 56014 7////
 8//// 22200 0//// 2////=
SHIP 11054 99474 70619 46/// /2214 11036 21093 40231 56014 7////
 8//// 22200 0//// 2////=
VXKF 11054 99476 70591 46/// /2617 11015 21034 49994 51008 7////
 8//// 22200 0//// 2////=
VOCJ 11054 99462 70602 46/// /2503 11011 20000 40243 56021 7////
 8//// 22200 0//// 2////=
SHIP 11054 99476 70591 46/// /2617 11015 21034 49994 51008 7////
 8//// 22200 0//// 2////=
SHIP 11054 99462 70602 46/// /2503 11011 20000 40243 56021 7////
 8//// 22200 0//// 2////=
C6SI6 11054 99482 71228 46/// /1524 10082 20066 40040 58086 7////
 8//// 22273 0//// 2////=
46221 11051 99339 71186 46/// ///// 1//// 90455 22200 00156 11302
 21001 328// 41301 70009=
46214 11051 99379 71235 46/// ///// 1//// 90456 22200 00112 11406
 20903 331// 41406 70032=
C6RN3 11054 99208 70741 41/98 /0922 10250 20236 40190 5//// 7////
 8//// 22274 00270 2//// 3//// 4//// 5//// 6//// 80240 ICE /////=
46229 11051 99438 71246 46/// ///// 1//// 90449 22200 00092 11409
 20706 329// 41407 70047=
46224 11051 99332 71175 46/// ///// 1//// 90442 22200 00157 11201
 20701 326// 41201 70006=
46213 11051 99403 71247 46/// ///// 1//// 90454 22200 00118 11509
 21003 330// 41508 70045=
46231 11051 99327 71174 46/// ///// 1//// 90444 22200 00155 11402
 20802 328// 41402 70012=
46218 11051 99345 71208 46/// ///// 1//// 90459 22200 00135 11306
 20704 329// 41304 70028=
46237 11051 99378 71226 46/// ///// 1//// 90501 22200 00109 11304
 21002 328// 41303 70019=
CGCX 11054 99497 70555 46/// /0904 11037 21083 40153 56004 7////
 8//// 22261 00015 2////=
SHIP 11054 99489 70580 46/// /1210 11035 21078 4//// 56860 7////
 8//// 22200 0//// 2////=
SHIP 11054 99467 70718 46/// /1214 11069 21070 40239 58005 7////
 8//// 22263 0//// 2////=
SHIP 11054 99467 70713 46/// /1901 11061 21080 40240 58015 7////
 8//// 22251 00018 2////=
SHIP 11054 99491 70583 46/// /2520 11032 21079 40195 58019 7////
 8//// 22212 01002 2////=
SHIP 11054 99462 70729 46/// /0210 11088 21107 40217 58024 7////
 8//// 22211 00010 2////=
SHIP 11054 99513 70569 46/// /2726 11072 21118 40132 53001 7////
 8//// 22200 0//// 2////=
SHIP 11054 99453 70660 46/// /0301 11035 21058 40259 58001 7////
 8//// 22200 0//// 2////=
SHIP 11054 99463 70725 46/// /3603 11068 21090 40224 58021 7////
 8//// 22200 0//// 2////=
SHIP 11054 99468 70712 46/// /0000 11060 2//// 40238 58013 7////
 8//// 22200 0//// 2////=
0000037500
468
SXXX32 EUMS 110500
12FD90D0
:PRS 1 /1 1163 1156 1165 1163 1168 1177 1576 1188 1189 1189 1184 1185 :RAD 1 /3 5738 5747 5751 5754 5761 5770 5780 5795 5795 5783 :ENC 3 /6 5467 5478 5489 5509 5525 5495 5455 5456 5492 5502 :RA2 3 /6 4627 4638 4647 4670 4685 4651 4608 4613 4652 4663 :SW1 60 /60 60 :SW2 30 /60 60 :BAT 5 /6 13.5 :WTP 5 /6 28.2 28.2 :NAME 12FD90D0
0000041200
469
SXXX32 EUMS 110500 RRA
262D700E
:PRS 1 /1 2657 2668 2668 2708 2674 2710 2730 2724 2710 2656 2669 2668 2702 2762 2771 2748 2794 2772 2777 2806 2786 2772 2829 2757 2831 2780 2757 2778 2824 2811 :RAD 1 /3 5154 5169 5176 5196 5217 5224 5226 5240 5263 5283 5295 5308 5328 5346 5347 :ENC 5 /5 5261 5274 5330 5324 5350 5394 5401 5458 5440 5485 5497 5546 :SW1 60 /60 0 :BAT 14 /15 13.7 :NAME 262D700E /
0000375800
470
SNVD01 KWBC 110500 RRB
BBXX
SHIP 11054 99462 70570 46/// /2530 11002 21001 40230 58010 7////
 8//// 22263 0//// 2////=
SHIP 11054 99505 71278 46/// /0305 10080 20070 49888 56062 7////
 8//// 22200 0//// 2////=
CGDX 11054 99488 70676 46/// /2008 11056 21097 40213 53006 7////
 8//// 22200 0//// 2////=
VCLM 11054 99623 70748 46/// /2304 11177 21235 40037 53024 7////
 8//// 22200 0//// 2////=
SHIP 11054 99474 70619 46/// /2507 11031 21039 40227 56013 7////
 8//// 22200 0//// 2////=
SHIP 11054 99487 71235 46/// /1106 10076 20074 40020 58064 7////
 8//// 22200 0//// 2////=
SHIP 11054 99481 70477 46/// /2622 11031 21075 40155 58008 7////
 8//// 22261 0//// 2////=
SHIP 11054 99455 70735 46/// /3506 11056 21070 4//// 5//// 7////
 8//// 22200 0//// 2////=
SHIP 11054 99476 70527 46/// /2719 11040 21082 40198 56018 7////
 8//// 22200 0//// 2////=
SHIP 11054 99446 70635 46/// /2410 10019 20008 40273 56012 7////
 8//// 22200 0//// 2////=
XJAB 11054 99453 70660 46/// /0301 11035 21058 40259 58001 7////
 8//// 22200 0//// 2////=
VAAZ 11054 99481 70477 46/// /2622 11031 21075 40155 58008 7////
 8//// 22261 0//// 2////=
CGJK 11054 99489 71235 46/// /1317 10073 20070 40021 58064 7////
 8//// 22200 0//// 2////=
SHIP 11054 99489 71235 46/// /1317 10073 20070 40021 58064 7////
 8//// 22200 0//// 2////=
SHIP 11054 99623 70748 46/// /2304 11177 21235 40037 53024 7////
 8//// 22200 0//// 2////=
VOLG 11054 99446 70635 46/// /2410 10019 20008 40273 56012 7////
 8//// 22200 0//// 2////=
VOKF 11054 99455 70735 46/// /3506 11056 21070 4//// 5//// 7////
 8//// 22200 0//// 2////=
SHIP 11054 99449 70625 46/// /2406 10012 20005 40272 56015 7////
 8//// 22200 0//// 2////=
SHIP 11054 99121 70689 46/// /1008 10259 20221 40149 50000 7////
 8//// 22200 0//// 2////=
VCBW 11054 99468 70712 46/// /0000 11060 2//// 40238 58013 7////
 8//// 22200 0//// 2////=
CG2958 11054 99505 71278 46/// /0305 10080 20070 49888 56062 7////
 8//// 22200 0//// 2////=
VOKJ 11054 99467 70718 46/// /1214 11069 21070 40239 58005 7////
 8//// 22263 0//// 2////=
CGCC 11054 99462 70729 46/// /0210 11088 21107 40217 58024 7////
 8//// 22211 00010 2////=
SHIP 11054 99488 70676 46/// /2008 11056 21097 40213 53006 7////
 8//// 22200 0//// 2////=
SHIP 11054 99497 70555 46/// /0904 11037 21083 40153 56004 7////
 8//// 22261 00015 2////=
CGDT 11054 99463 70725 46/// /3603 11068 21090 40224 58021 7////
 8//// 22200 0//// 2////=
VAAP 11054 99489 70580 46/// /1210 11035 21078 4//// 56860 7////
 8//// 22200 0//// 2////=
CGSB 11054 99467 70713 46/// /1901 11061 21080 40240 58015 7////
 8//// 22251 00018 2////=
CGBN 11054 99462 70570 46/// /2530 11002 21001 40230 58010 7////
 8//// 22263 0//// 2////=
VCWL 11054 99491 70583 46/// /2520 11032 21079 40195 58019 7////
 8//// 22212 01002 2////=
CGTF 11054 99476 70527 46/// /2719 11040 21082 40198 56018 7////
 8//// 22200 0//// 2////=
8PSH 11054 99121 70689 46/// /1008 10259 20221 40149 50000 7////
 8//// 22200 0//// 2////=
CGHL 11054 99513 70569 46/// /2726 11072 21118 40132 53001 7////
 8//// 22200 0//// 2////=
CG3029 11054 99449 70625 46/// /2406 10012 20005 40272 56015 7////
 8//// 22200 0//// 2////=
CGBR 11054 99487 71235 46/// /1106 10076 20074 40020 58064 7////
 8//// 22200 0//// 2////=
CFN3031 11054 99474 70619 46/// /2507 11031 21039 40227 56013
 7//// 8//// 22200 0//// 2////=
46240 11051 99366 71219 46/// ///// 1//// 90451 22200 00127 11102
 21001 335// 41102 70012=
46236 11051 99368 71219 46/// ///// 1//// 90452 22200 00124 11203
 21002 329// 41203 70017=
46244 11051 99409 71244 46/// ///// 1//// 90451 22200 00109 11707
 20903 330// 41706 70035=
0000045100
471
SXXX32 EUMS 110500 RRB
16289262
:PRS 1 /1 2477 2481 2463 2484 2464 2468 2480 2481 2482 2480 2493 2480 2458 2474 2480 2486 2480 2488 2489 2487 2488 2491 2498 2496 2480 2501 2490 2497 2489 2507 :RAD 1 /3 7935 7937 7944 7945 7946 7952 7956 7958 7956 796/ 7960 7958 7964 7966 7969 7971 7978 7985 7990 7985 :ENC 5 /5 5303 5312 5310 5325 5324 5332 5338 5341 5342 5352 5357 5355 :SW1 60 /60 0 :SW2 30 /60 0 :BAT 14 /15 13.5 :NAME 16289262 /
0000025200
472
SNBX42 EBUM 110500
AAXX 11051
06414 46/// /2004 10041 20020 30120 40153 56003 333   91106 91204=
06459 46/// /1302 10039 20039 39973 40169 56007 333   91104 91203=
06494 46/// /2004 10016 20011 39357 40167 58009 333   91107 91205=
00000000