0000042700
553
FTCN37 CWAO 102300
TAF CYHZ 102341Z 1100/1124 21012KT P6SM BKN030 OVC130 TEMPO 1100/1104
     P6SM -SHSN OVC020
    FM110400 21012KT P6SM SCT006 OVC020 TEMPO 1104/1108 11/2SM -SN
     -FZDZ BR BKN004 OVC015
    FM110800 21010KT 1SM -SN -FZDZ BR OVC003
    FM111300 20012KT 3/4SM -DZ BR OVC002
    FM111700 20015KT 1SM -RA BR OVC003
     BECMG 1118/1120 19020G30KT
    RMK NXT FCST BY 110300Z=

0000034300
554
FTCN37 CWAO 102300
TAF CYQM 102341Z 1100/1124 22012KT P6SM SCT020 TEMPO 1100/1109 BKN020
    FM110900 21006KT P6SM -SN BKN015
    FM111200 16007KT 4SM -SN BR OVC006 PROB30 1112/1116 2SM -FZDZ
     -FZRA BR OVC004
    FM111600 18012KT 4SM -RA BR OVC006
     BECMG 1118/1120 19020G30KT
    RMK NXT FCST BY 110600Z=

0000021500
555
FTCN37 CWAO 102300
TAF CYQY 102341Z 1100/1112 22010KT P6SM BKN130
    FM110200 23008KT P6SM BKN025 TEMPO 1102/1108 BKN020
    FM110800 23008KT P6SM BKN008 OVC015
    RMK NXT FCST BY 110600Z=

0000032600
556
FTCN36 CWAO 102300
TAF CYZV 102341Z 1100/1124 27008KT P6SM FEW020 BKN040 OVC060 TEMPO
     1100/1109 5SM -SN BKN020 OVC040
    FM110900 28006KT P6SM -SN BKN030
     BECMG 1110/1112 VRB03KT
    FM111700 10008KT 2SM -SN BKN015 OVC030
    FM111900 08012KT 1SM -SN VV010
    RMK NXT FCST BY 110600Z=

0000031200
557
FTCN37 CWAO 102300
TAF CYQI 102341Z 1100/1112 23012KT 5SM -RA BR OVC007 TEMPO 1100/1104
     P6SM NSW SCT006 OVC012 PROB30 1100/1104 OVC005
    FM110400 20012KT 3SM -DZ BR OVC005 TEMPO 1104/1108 P6SM NSW
     OVC007
    FM110800 20012KT 1SM -DZ BR OVC002
    RMK NXT FCST BY 110600Z=

0000019800
558
FTCN37 CWAO 102300
TAF CYFC 102341Z 1100/1112 VRB03KT P6SM SCT080
    FM111000 VRB03KT P6SM BKN006 PROB30 1110/1112 BKN005
    RMK FCST BASED ON AUTO OBS. NXT FCST BY 110600Z=

0000023700
559
FTCN37 CWAO 102300
TAF CYSJ 102341Z 1100/1112 24008KT P6SM BKN025 TEMPO 1100/1109 P6SM
     -SHSN BKN020
    FM110900 VRB03KT 5SM BR BKN007 OVC012 PROB30 1109/1112 3SM -FZDZ
     BR
    RMK NXT FCST BY 110600Z=

0000018100
560
FTCN37 CWAO 102300
TAF CYYG 102341Z 1100/1112 VRB03KT P6SM BKN030 TEMPO 1100/1110 OVC020
    FM111000 VRB03KT 4SM -FZDZ BR OVC004
    RMK NXT FCST BY 110600Z=

0000015000
561
SAUS72 KWBC 102300 RRG
METAR
KBQK 102335Z AUTO 12004KT 7SM OVC003 18/18 A3012=
KLRU 102335Z AUTO 26017KT 10SM CLR 15/M09 A2997=

0000010500
562
SAUS73 KWBC 102300 RRI
METAR
KIKK 102335Z AUTO 16014G20KT 4SM RA OVC004 04/04 A2970=

0000014000
563
FTCN33 CWAO 102300 AAA
TAF AMD CYOC 102342Z 1100/1102 FCST CNCLD DUE NO OBS
    RMK NXT FCST WILL BE ISSUED AT 111545Z=

0000016600
564
FTYG31 LYBM 102300 CCA
TAF COR LYBE 102300Z 1100/1124 16004KT 6000 SCT040 TX11/1112Z
TN00/1106Z BECMG 1102/1104 2000 BR BECMG 1108/1110 6000 NSW=

0000148000
565
FTPA31 KWBC 102342
TAF
PGRO 102339Z 1100/1124 06014KT P6SM VCSH SCT015 SCT120
     FM110800 06011KT P6SM VCSH FEW020=
PGSN 102339Z 1100/1124 05014G24KT P6SM VCSH SCT020 SCT120
     FM110800 06011KT P6SM VCSH FEW020=
PGUM 102339Z 1100/1206 06014KT P6SM SCT020
     FM110800 06008KT P6SM FEW020=
PGWT 102339Z 1100/1124 06016KT P6SM VCSH SCT015 SCT120
     FM110800 06011KT P6SM VCSH FEW020=
PHJH 102339Z 1100/1124 03013KT P6SM FEW020 SCT035
     FM110600 05008KT P6SM FEW025 SCT045
     FM112100 06011KT P6SM VCSH SCT025 SCT045 AMD NOT SKED AFT
      110400=
PHJR 102339Z 1100/1124 09006KT P6SM VCSH SCT025 BKN040
      TEMPO 1100/1102 3SM SHRA BKN030
     FM110500 VRB03KT P6SM SCT040
     FM112100 14007KT P6SM VCSH SCT025 SCT040=
PHMK 102339Z 1100/1124 02009G15KT P6SM SCT022 SCT040
     FM110500 04006KT P6SM FEW025 SCT050
     FM112100 06010KT P6SM VCSH SCT025 SCT040=
PKMJ 102339Z 1100/1124 06014KT P6SM VCSH FEW015 SCT050=
PKWA 102339Z 1100/1124 07015KT P6SM VCSH SCT025=
PMDY 102339Z 1100/1124 12013G19KT P6SM SCT040
     FM111600 14012KT P6SM SCT025 SCT040
     FM112100 16011KT P6SM VCSH SCT020 BKN040 AMD LTD TO CLD AND
      WIND=
PTKK 102339Z 1100/1124 04011KT P6SM VCSH SCT014 SCT120=
PTPN 102339Z 1100/1124 05014KT P6SM SCT018=
PTRO 102339Z 1100/1124 08013G23KT P6SM VCSH SCT015CB BKN120
      TEMPO 1100/1104 -SHRA BKN015CB OVC120=
PTSA 102339Z 1100/1124 04015KT P6SM VCSH SCT020 SCT130=

0000010600
566
FTPA31 KWBC 102342 RRA
TAF
PTYA 102339Z 1100/1124 07012G22KT P6SM VCSH SCT020 BKN120=

0000086400
567
FTPQ31 KWBC 102342
TAF
PGRO 102339Z 1100/1124 06014KT P6SM VCSH SCT015 SCT120
     FM110800 06011KT P6SM VCSH FEW020=
PGSN 102339Z 1100/1124 05014G24KT P6SM VCSH SCT020 SCT120
     FM110800 06011KT P6SM VCSH FEW020=
PGUM 102339Z 1100/1206 06014KT P6SM SCT020
     FM110800 06008KT P6SM FEW020=
PGWT 102339Z 1100/1124 06016KT P6SM VCSH SCT015 SCT120
     FM110800 06011KT P6SM VCSH FEW020=
PKMJ 102339Z 1100/1124 06014KT P6SM VCSH FEW015 SCT050=
PKWA 102339Z 1100/1124 07015KT P6SM VCSH SCT025=
PTKK 102339Z 1100/1124 04011KT P6SM VCSH SCT014 SCT120=
PTPN 102339Z 1100/1124 05014KT P6SM SCT018=
PTRO 102339Z 1100/1124 08013G23KT P6SM VCSH SCT015CB BKN120
      TEMPO 1100/1104 -SHRA BKN015CB OVC120=
PTSA 102339Z 1100/1124 04015KT P6SM VCSH SCT020 SCT130=
PTYA 102339Z 1100/1124 07012G22KT P6SM VCSH SCT020 BKN120=

0000103700
568
FTHW31 KWBC 102342
TAF
PHJR 102339Z 1100/1124 09006KT P6SM VCSH SCT025 BKN040
      TEMPO 1100/1102 3SM SHRA BKN030
     FM110500 VRB03KT P6SM SCT040
     FM112100 14007KT P6SM VCSH SCT025 SCT040=
PHKO 102339Z 1100/1124 32011KT P6SM SCT060
     FM110600 11005KT P6SM SCT060
     FM112000 28009KT P6SM VCSH SCT030 SCT050=
PHLI 102339Z 1100/1124 04014KT P6SM VCSH SCT022 SCT040
     FM111000 07011KT P6SM VCSH SCT025 SCT040
     FM112100 13010KT P6SM VCSH SCT025 BKN040=
PHNL 102339Z 1100/1206 02010KT P6SM VCSH SCT025 BKN040
      TEMPO 1100/1102 3SM SHRA BKN030
     FM110600 03006KT P6SM FEW030 SCT050
     FM112100 13008KT P6SM VCSH SCT025 SCT040=
PHOG 102339Z 1100/1124 02012KT P6SM FEW030 SCT050
     FM110500 06006KT P6SM FEW030 SCT050
     FM112100 05011KT P6SM VCSH SCT025 SCT045 AMD LTD TO WX VIS
      AND
      WIND 1109/1116=
PHTO 102339Z 1100/1124 03008KT P6SM FEW030 SCT050
     FM110600 23006KT P6SM SCT025 SCT050
     FM112100 13007KT P6SM VCSH SCT025 SCT045=

0000010600
569
FTPA32 KWBC 102342
TAF
NSTU 102339Z 1100/1124 34010KT P6SM VCSH SCT014 BKN040 OVC100=

0000122400
570
SPUS70 KWBC 102342
SPECI
KRNT 102338Z 15004KT 9SM -RA SCT024 OVC041 09/07 A2999 RMK AO2
     RAB04 P0000=
KSRC 102338Z AUTO 00000KT 4SM -RA BR SCT001 BKN015 OVC022 08/08
     A2977 RMK AO2 TSNO P0021=
KACV 102338Z AUTO 00000KT 2 1/2SM R32/6000VP6000FT BR OVC003 11/09
     A3020 RMK AO2 T01060089=
KASE 102338Z 36009KT 2SM -SN BR BKN012 BKN037 OVC044 M06/M08 A2990
     RMK AO2 SNE15B32 P0000 T10611078=
KCLM 102338Z AUTO 13005KT 6SM -RA BR FEW008 OVC014 07/06 A2990 RMK
     AO2 PRESFR P0003 T00720056=
KFIG 102338Z AUTO 05007KT 8SM BKN011 OVC019 01/00 A3016 RMK AO2
     T00060000=
KGVL 102338Z AUTO 09007KT 1 1/4SM BR OVC002 08/08 A3011 RMK AO2
     P0001=
KHFF 102329Z 01004KT 7SM -RA BKN003 OVC034 09/09 A3018 RMK AO2
     SLP223=
KLWM 102338Z 00000KT 6SM BR OVC014 01/M02 A3036 RMK AO2
     T00061017=
KEWR 102339Z 03005KT 1SM R04R/P6000FT -DZ BR OVC003 01/01 A3034
     RMK AO2 P0000=
KFLD 102339Z AUTO 15011KT 4SM RA BR BKN006 OVC038 01/M01 A2961 RMK
     AO2 P0010 T00061006=
KFOK 102339Z 00000KT 1 1/4SM BR SCT002 BKN018 OVC033 03/02 A3036
     RMK AO2 RAB06E15 P0000=
KFWN 102339Z AUTO 00000KT 10SM OVC013 01/M02 A3031 RMK AO2
     T00061017=

0000034400
571
SAJP31 KWBC 102330 RRB
METAR
RJAA 102330Z 30003KT 270V330 9999 FEW025 00/M07 Q1024 NOSIG RMK
     1CU025 A3026=
RJCC 102330Z 22006KT 200V260 9999 VCSH FEW015 SCT050 BKN070
     M07/M11 Q1018 RMK 1ST015 4CU050 6AC070 A3008 5000W SH
     W-NW=
RJTT 102330Z 04005KT 360V070 CAVOK 03/M05 Q1024 NOSIG RMK
     A3026=

0000022800
572
FTPA31 PHFO 102300
TAF PHOG 102339Z 1100/1124 02012KT P6SM FEW030 SCT050
     FM110500 06006KT P6SM FEW030 SCT050
     FM112100 05011KT P6SM VCSH SCT025 SCT045
      AMD LTD TO WX VIS AND WIND 1109/1116=

00000000