0000010800
513
SPUS31 KWBC 101843
SPECI
KBOS 101839Z 20004KT 4SM BR SCT010 BKN015 OVC030 00/M02 A3041=

0000009700
514
SPUS41 KWBC 101843
SPECI
KEWB 101839Z 00000KT 4SM -RA BR OVC018 02/01 A3039=

0000012500
515
SPCN31 CWAO 101843
SPECI CYQB 101843Z 23010KT 15SM -SHSN SCT028 OVC040 M09/M14 A3029 RMK
 SC4SC4 SLP265=

0000012100
516
SPUS70 KWBC 101846 CCA
SPECI
KNSE 101842Z 09005KT 7SM OVC003 15/13 A3006 RMK AO2 T01500133
     $=

0000167000
517
SPUS70 KWBC 101846
SPECI
KTDR 101841Z AUTO 09003KT 12SM OVC005 17/ A3009 RMK AO2 $=
KBAZ 101842Z 21012KT 10SM SCT008 BKN021 OVC060 19/19 A2985 RMK AO2
     RAE16 P0000=
KDAW 101842Z AUTO 17003KT 2 1/2SM -SN SCT017 BKN027 BKN043 M02/M05
     A3036 RMK AO2 SNB37 P0000 T10221050=
KDNL 101842Z AUTO 00000KT 3SM RA BR SCT003 OVC015 08/08 A3016 RMK
     AO2 P0006 T00830078 TSNO=
KDWH 101842Z 16007KT 10SM FEW023 BKN029 OVC050 21/17 A2987 RMK
     AO2=
KFCI 101843Z AUTO 00000KT 3SM OVC004 03/M02 A3034 RMK AO1
     P0004=
KLWM 101842Z 20005KT 1SM -SN BR OVC012 M01/M03 A3040 RMK AO2 P0001
     T10111033=
KADG 101843Z AUTO 19007KT 2SM BR OVC004 02/01 A3004 RMK AO2
     TSNO=
KCEW 101843Z AUTO 04004KT 1SM -RA BR VV002 14/13 A3008 RMK AO2
     RAB24 P0000 T01390133=
KRKS 101843Z AUTO 28020G30KT 10SM SCT019 M02/M06 A2986 RMK AO2 PK
     WND 28030/1827 T10171061=
KSSF 101843Z 19009KT 10SM BKN020 BKN027 BKN055 21/16 A2985 RMK
     AO2=
KBAF 101844Z 24003KT 4SM -SN OVC006 M02/M04 A3037 RMK AO2 P0001
     T10221039=
KBVY 101843Z 21005KT 2 1/2SM -SN BR SCT008 OVC015 00/M02 A3039 RMK
     AO2 P0000 T00001022=
KDAN 101843Z AUTO 05004KT 4SM BR OVC003 03/02 A3029 RMK AO2 RAE41
     P0002=
KFCI 101844Z AUTO 00000KT 2 1/2SM OVC004 03/M02 A3034 RMK AO1
     P0004=
KGGG 101843Z 20017G24KT 10SM BKN031 OVC085 20/13 A2981 RMK AO2 PK
     WND 19029/1820=
KLEB 101843Z VRB04KT 10SM OVC030 M02/M07 A3032 RMK AO2
     T10221072=
PAMB 101843Z AUTO 05007KT 1SM BR OVC003 M04/M04 A2943 RMK AO2 TSNO
     $=
PAOH 101843Z AUTO 00000KT 3SM BR FEW004 SCT033 SCT042 00/00 A2953
     RMK AO2 TSNO $=

0000009900
518
SPUS41 KWBC 101846
SPECI
KLWM 101842Z 20005KT 1SM -SN BR OVC012 M01/M03 A3040=

0000012300
519
SACA33 KWBC 101800 RRG
METAR
TFFR 101843Z 07014KT 040V110 9999 SCT030 SCT047 27/20 Q1015
     NOSIG=

0000009300
520
SAEO32 EETN 101850
METAR EETU 101850Z 34011KT 8000 -RA OVC005 02/00 Q0983=

0000008400
521
SPCN31 CWAO 101844
SPECI CYTR 101844Z 19005KT 7SM OVC009 RMK ST8=

0000013200
522
FTUS52 KWBC 101845 AAA
TAF AMD
KLBB 101843Z 1019/1118 30022G32KT 6SM BLDU SKC
     FM110000 29007KT P6SM SKC=

0000023600
523
FTUS53 KWBC 101845 AAA
TAF AMD
KYNG 101842Z 1019/1118 17008KT 4SM BR BKN006 OVC020
      TEMPO 1019/1023 2SM BR OVC005
     FM110500 16012KT 2SM -RA BR OVC005 WS015/19040KT
     FM111700 22009KT 2SM BR OVC004=

0000043700
524
FTUS80 KWBC 101845 AAA
TAF AMD
KLBB 101843Z 1019/1118 30022G32KT 6SM BLDU SKC
     FM110000 29007KT P6SM SKC=
KSOA 101842Z 1019/1118 22012G18KT P6SM BKN010
     FM102000 24012G18KT P6SM SKC
     FM110000 VRB03KT P6SM SKC=
KYNG 101842Z 1019/1118 17008KT 4SM BR BKN006 OVC020
      TEMPO 1019/1023 2SM BR OVC005
     FM110500 16012KT 2SM -RA BR OVC005 WS015/19040KT
     FM111700 22009KT 2SM BR OVC004=

0000009700
525
SPUS41 KWBC 101845
SPECI
KINT 101841Z 03004KT 4SM -RA BR OVC003 03/02 A3026=

0000011100
526
SPUS41 KWBC 101845
SPECI
KPSM 101840Z 21005KT 1SM R34/P6000FT -SN BR OVC021 M02/M02 A3038=

0000009800
527
SPUS41 KWBC 101845
SPECI
KWRI 101840Z AUTO 02004KT 3SM BR OVC003 02/02 A3035=

0000011200
528
SAAB31 LATI 101850
METAR LATI 101850Z 07003KT 030V100 9999 FEW030 BKN055 12/08 Q1022
NOSIG=

0000010000
529
SAPA31 KWBC 101800 RRE
METAR
AYPY 101800Z 00000KT 2000M +FG BKN003 25/25 Q1005=

0000011000
530
UANT99 KDDL 110507
ARP KAC118 5016N04418W 0507 F330 MS61 328/80 KT
9KAOA QXT AOW 110507 F05A
0000133300
531
UAPS01 NZKL 110500
AIREP
VOZ23 2842S 16030E 0444 F310 MS40 281/55=
DAL16 2242S 16918E 0400 F330 MS38 266/30=
QFA27 4136S 16654E 0413 F330 MS49 330/22=
DAL16 2118S 17048E 0414 F330 MS37 259/17=
QFA93 2624S 16036E 0427 F330 MS42 276/69=
QFA27 4254S 17036E 0434 F330 MS48 309/22=
QFA93 2500S 16218E 0441 F330 MS42 274/57=
QFA93 2448S 16236E 0443 F330 MS41 274/56=
QFA27 4318S 17212E 0443 F330 MS48 296/20=
QFA93 2336S 16400E 0455 F330 MS39 263/52=
LAN800 3918S 17848W 0415 F340 MS52 154/14=
ANZ785 3000S 17524W 0423 F339 MS40 324/72=
LAN800 4006S 17524W 0436 F340 MS52 204/27=
LAN800 4042S 17148W 0458 F340 MS52 220/44=
ANZ792 3836S 16300E 0401 F350 MS51 246/23=
QFA28 4536S 16600E 0418 F360 MS53 308/67=
QFA28 4354S 16330E 0439 F360 MS54 294/61=
ANZ785 3312S 17854W 0458 F360 MS50 296/70=
ANZ124 3812S 16954E 0420 F370 MS58 276/06=
FJI910 2206S 17136E 0441 F370 MS46 285/35=
HAL445 0312S 17336W 0410 F380 MS50 172/16=
HAL445 0442S 17430W 0424 F380 MS50 155/20=
HAL445 0500S 17442W 0426 F380 MS49 175/19=
HAL445 0618S 17524W 0437 F380 MS50 151/16=
HAL445 0748S 17618W 0451 F380 MS49 209/14=
CAL051 3700S 16712E 0405 F390 MS58 270/18=
QFA146 3624S 17042E 0412 F400 MS58 258/25=
CAL051 3718S 17036E 0426 F390 MS59 255/19=
QFA146 3548S 16412E 0455 F400 MS57 241/17=
0000009900
532
SNVX22 EDZW 110500
SATLINK DATA BUFFER EMPTY NSB III 62087 TIME 2014/01/11 05:01:17
00000000