0000013000
673
FTID33 WATT 102300
TAF WATT 102300Z 1100/1124 30009KT 9000 SCT018
TEMPO 1104/1107 8000 -TSRA FEW015CB SCT015=

0000009800
674
SAZA31 FAPR 102300 RRA
METAR FABL 102300Z AUTO 19007KT 9999 ////// 19/08 Q1017=

0000073900
675
FTKZ31 RUMS 102300
TAF UAAA 102300Z 1100/1124 14004MPS 0800 FZFG FU BKN100 TXM01/1108Z
TNM18/1101Z TEMPO 1100/1106 0200 FZFG VV001 BECMG 1107/1108
02005MPS 2000 BR FU TEMPO 1111/1124 0300 FZFG=
TAF UACC 102300Z 1100/1124 19008MPS 6000 -SN DRSN BKN010 BKN100
TXM08/1109Z TNM14/1124Z TEMPO 1102/1107 17008G13MPS 2000 SN BLSN
SCT007 TEMPO 1107/1120 17009G14MPS 1000 SN BLSN SCT006=
TAF UAKK 102300Z 1100/1124 18010G15MPS 5000 -SN BLSN SCT010 BKN020
TXM08/1109Z TNM14/1023Z TEMPO 1104/1112 16013G18MPS=
TAF UATT 102300Z 1100/1124 22005MPS 3000 -SHSN BR BKN010CB TM02/1110Z
TNM02/1118Z TEMPO 1100/1106 0500 -FZDZ FZFG VV002 FM110600 20010MPS
3000 SHSN BLSN BKN004 BKN010CB TEMPO 1118/1124 0700 FZDZ VV002=

0000055400
676
FTME31 OEJD 102200 RRA
TAF OJAI 102250Z 1100/1206 VRB03KT 2000 BR NSC
       TEMPO 1100/1108 0800 FG SCT010
       PROB40 TEMPO 1102/1107 0200 FG
       BECMG 1107/1109 26008KT 6000 SCT030 SCT035
       TEMPO 1202/1206 VRB03KT 3000 BR SCT025=
TAF OJAM 102250Z 1100/1206 25004KT 4000 BR NSC
       TEMPO 1102/1107 0800 FG SCT010
       BECMG 1106/1108 26010KT 5000 HZ SCT030 SCT035
       TEMPO 1203/1206 VRB03KT 3000 BR SCT025=
TAF OJAQ 102250Z 1100/1206 36005KT 6000 FEW030
       BECMG 1107/1109 35012KT 8000 NSC=

0000023100
677
SAAP32 FAPR 102300 RRA
METAR FABL 102300Z AUTO 19007KT 9999 ////// 19/08 Q1017=
METAR FVHA 102300Z 06003KT 010V070 CAVOK 18/18 Q1020 RMK QFE 852.3=
METAR FYWH 102300Z AUTO 28003KT //// // ////// 13/M00 Q1021=

0000043400
678
FTCA33 KWBC 102315
TAF
TAF TFFF 102300Z 1100/1124 06015KT 9999 SCT035 BKN048
      TEMPO 1100/1114 05016G28KT 3000 SHRA SCT020TCU=
TAF TFFR 102300Z 1100/1124 VRB02KT 9999 FEW022 SCT050 PROB30
      TEMPO 11 00/1124 3000 SHRA FEW015TCU
      BECMG 1112/1114 08012KT=
TAF TFFR 102300Z 1100/1124 VRB02KT 9999 FEW022 SCT050 PROB30
      TEMPO 1100/1124 3000 SHRA FEW015TCU
      BECMG 1112/1114 08012KT=

0000056800
679
FTPO32 LPMG 102300
TAF LPLA 102309Z 1100/1124 24015KT 9999 SCT015 BKN030 TEMPO
    1100/1104 24018G30KT 8000 SHRA FEW010 BKN014 BECMG 1103/1105
    30018G28KT SCT018 SCT030 TEMPO 1104/1115 30028G45KT 6000 SHRA
    SCT014 FEW018TCU TEMPO 1115/1124 30025G40KT 3000 SHRAGS BKN014
    FEW020CB=
TAF LPPD 102300Z 1100/1124 22013KT 6000 -RA SCT008 BKN012 TEMPO
         1100/1106 21018G30KT 2000 RADZ BR SCT002 BKN005 BECMG
         1106/1109 32020KT 9999 NSW SCT018 SCT035 TEMPO 1106/1124
         32025G37KT 5000 SHRAGS BKN015 FEW018TCU=

0000053500
680
FTPO31 LPMG 102300
TAF LPPS 102300Z 1100/1206 VRB05KT 9999 FEW015 TEMPO 1100/1201 SCT012
         BKN030 BECMG 1107/1109 19012KT BECMG 1116/1118 24015KT BECMG
         1201/1204 32013KT SCT012 BKN025 TEMPO 1204/1206 5000 RADZ BR
         SCT008 BKN012=
TAF LPPT 102300Z 1100/1206 34007KT CAVOK BECMG 1100/1102 03005KT
         PROB30 1105/1111 09005KT 1200 PRFG SCT000 BKN001 BECMG
         1111/1113 13005KT 9999 FEW015 BECMG 1119/1121 17008KT
         BKN008 TEMPO 1121/1206 3000 DZ BR SCT002 BKN005=

0000030200
681
FTUS73 KWBC 102315
TAF
TAF AMD KOFF 1023/1124 16006KT 9999 OVC017 620179 QNH2953INS
      TEMPO 1023/1103 3200 -SN
      BECMG 1102/1103 30009KT 9999 OVC015 620154 QNH2958INS
      BECMG 1105/1106 30012KT 9999 SCT015 SCT100 QNH2961INS
      T06/1121Z TM05/1112Z AMD 102305=

0000037500
682
FTPO34 LPMG 102300
TAF LPAZ 102300Z 1100/1206 21020KT 6000 -RA SCT006 BKN012 TEMPO
         1100/1106 21025G38KT 2000 RADZ BR SCT002 BKN004 BECMG
         1106/1109 27017KT TEMPO 1106/1112 27023G35KT 3000 RADZ BR
         SCT002 BKN005 BECMG 1109/1112 32020KT 9999 NSW SCT018 SCT035
         TEMPO 1112/1206 32025G38KT 5000 SHRAGS BKN015 FEW018TCU=

0000012200
683
FCMC31 GMMC 102300 RRA
TAF GMMX 102300Z 1101/1110 22012KT 8000 SCT015 BKN020 TEMPO 1101/1108
5000 RA=

0000070700
684
FTPO33 LPMG 102300
TAF LPBJ 102305Z 1100/1124 VRB02KT CAVOK BECMG 1108/1110 12005KT=
TAF LPFR 102300Z 1100/1124 03005KT CAVOK BECMG 1103/1106 5000 BR
         SCT008 PROB30 TEMPO 1106/1110 1200 PRFG BR SCT000 BKN002
         BECMG 1110/1112 12010KT 9999 NSW SCT015 SCT030 BECMG
         1112/1114 15010KT SCT025 TEMPO 1120/1124 5000 BR SCT006
         BKN012=
TAF LPMA 102300Z 1100/1124 VRB05KT 9999 FEW015 BECMG 1108/1111
         24013KT TEMPO 1109/1118 SCT015 SCT030=
TAF LPPR 102300Z 1100/1124 VRB03KT 5000 BR NSC BECMG 1100/1103 0150
         FG VV001 BECMG 1109/1112 5000 BR SCT008 BECMG 1113/1116
         16008KT 9999 NSW FEW015 TEMPO 1117/1124 5000 BR SCT006=

0000017400
685
FTCN34 CWAO 102300
TAF CYMJ 102315Z 1100/1102 26005KT P6SM SCT010 SCT100 TEMPO 1100/1102
     2SM BR BKN010
    RMK NXT FCST WILL BE ISSUED AT 121915Z=

0000018500
686
FTCN32 CWAO 102300
TAF CYED 102315Z 1100/1106 28010KT P6SM SCT100
     BECMG 1104/1106 VRB03KT
    RMK FCST BASED ON AUTO OBS. NXT FCST WILL BE ISSUED AT 131115Z=

0000060900
687
SAPS31 NFFN 102300
METAR NCRG 102300Z 03010KT 9999 BKN016 30/25 Q1010=
METAR NFFN 102300Z 17013KT 9999 FEW030 31/20 Q1006 NOSIG=
METAR NFNA 102300Z 17008KT 9999 BKN020 29/23 Q1006=
METAR NGFU 102300Z 35007KT 9999 SCT018TCU OVC310 30/26 Q1006=
METAR NGTA 102300Z NIL=
METAR NIUE 102300Z 02017KT 9999 BKN018 BKN110 29/24 Q1005=
METAR NSFA 102300Z 34012KT 9999 FEW020 SCT036 BKN120 29/26 1006=
METAR NSTU 102300Z NIL=
METAR NTAA 102300Z VRB06KT 9999 SCT020 31/21 Q1011 NOSIG=
METAR NWWW 102300Z AUTO 14012KT 9999 BKN049 BKN056 BKN066 29/15 
Q1012=
METAR PLCH 102300Z NIL=

0000022900
688
SAPS32 NFFN 102300
METAR NFTF 102300Z 08050G65KT 9999 FEW008 BKN120 28/26 Q1000=
METAR NFTL 102300Z NIL=
METAR NFTV 102300Z NIL=
METAR NLWW 102300Z NIL=
METAR NVSS 102300Z NIL=
METAR NVVV 102300Z NIL=

0000033200
689
SAXX69 EGRR 102300 RRA
METAR KQIR 102258Z 06009KT 9999 -RA FEW110 18/16 A3005 RMK AO2A WND
      DATA ESTMD RAB2158DZE2158 PRESFR SLP178 P0000 T01760156
      VISNO RWY16 CHINO RWY16 $=
METAR KQTZ 102255Z 12013G18KT 6000 BR FEW010 SCT015 OVC030 10/09 A3000
      RMK SLP159 WND DATA ESTMD ALSTG/SLP ESTMD=

0000010200
690
SAUS73 KWBC 102300 RRE
METAR
KJAC 102300Z 17011KT 10SM VCSH BKN035 M01/M04 A2989=

0000024900
691
FTCN34 CWAO 102300 AAA
TAF AMD CYQV 102315Z 1023/1106 30012KT P6SM OVC012 TEMPO 1023/1103
     21/2SM -SN BR OVC006
    FM110300 30007KT P6SM SCT030 TEMPO 1103/1106 BKN020
    RMK FCST BASED ON AUTO OBS. NXT FCST BY 110000Z=

0000017100
692
SATH33 VTBB 102300 RRA
METAR VTUD 102300Z 00000KT 5000 BR NSC 16/15 Q1019
A3010 INFO A RWY30=
METAR VTUK 102300Z 34004KT 7000 NSC 17/17 Q1017 A3003=

00000000