0000015700
493
SSVX13 LFPW 110400
ZZYY 44773 11014 0400/ 742194 029081 6113/ 11119 40000 52006 22219
 00146 444 20130 11014 0400/ 50101 80118 80005 9/015=
0000011800
494
SNVF25 LFPW 110400
BBXX
BATFR33 11044 99430 10095 46/// /1819 10139 20089 40195 58007
22244 00152=
0000039800
495
SWIO40 RJTD 110400
:PRS 1 #1 1731 1741 1748 1737 1744 1745 1751 1732 1741 1752 1756 1761
1755 1769 1758 1765 1780 1786 1774 1781 1779 1786 1783 1797 1794 1781
1787 1778 1784 1803 :RAD 1 #3 6131 6134 6140 6150 6156 6166 6170 6175
6174 6181 :ENC 5 #5 5116 5133 5149 5159 5158 5170 5164 5157 5133 5115
5102 5110 :SW1 60 #60 59 :SW2 30 #60 60 :BAT 14 #15 13.4 :NAME 
0650018E=
0000009400
496
SNVD25 LFPW 110400
BBXX
BAREU13 11044 99524 70358 46/// ///// 4////
22264=
0000010000
497
SNVD25 LFPW 110400
BBXX
BAREU00 11044 99493 70464 46/// ///// 40141 52013
22253=
0000010000
498
SNVD25 LFPW 110400
BBXX
BAREU12 11044 99405 70726 46/// ///// 40245 57024
22264=
0000066100
499
UDAF01 FAPR 110356
AMDAR 1103
LVR AFZA65 1449S 03959E 110302 F400 MS561 100/031 TB0 S031 333 F/// VG011=
LVR AFZA65 1530S 03918E 110310 F400 MS562 097/034 TB0 S031 333 F/// VG011=
LVR AFZA65 1610S 03837E 110317 F400 MS560 085/020 TB0 S031 333 F/// VG011=
LVR AFZA65 1649S 03757E 110324 F400 MS561 134/015 TB0 S031 333 F/// VG010=
LVR AFZA65 1727S 03717E 110331 F400 MS559 159/015 TB0 S031 333 F/// VG011=
LVR AFZA65 1805S 03637E 110338 F400 MS561 076/003 TB0 S031 333 F/// VG011=
LVR AFZA65 1843S 03557E 110345 F400 MS557 012/006 TB0 S031 333 F/// VG010=
LVR AFZA65 1923S 03517E 110352 F400 MS557 324/007 TB0 S031 333 F/// VG010=
0000066100
500
UDAF01 FAPR 110359
AMDAR 1103
LVR AFZA06 0326S 05559E 110310 F330 MS395 116/020 TB0 S031 333 F/// VG000=
LVR AFZA06 0242S 05633E 110318 F330 MS391 137/028 TB0 S031 333 F/// VG000=
LVR AFZA06 0157S 05709E 110324 F330 MS391 129/032 TB0 S031 333 F/// VG000=
LVR AFZA06 0112S 05744E 110332 F330 MS402 137/022 TB0 S031 333 F/// VG000=
LVR AFZA06 0027S 05820E 110339 F330 MS397 137/024 TB0 S031 333 F/// VG000=
LVR AFZA06 0017N 05856E 110345 F330 MS397 135/021 TB0 S031 333 F/// VG000=
LVR AFZA06 0101N 05931E 110352 F330 MS400 137/019 TB0 S031 333 F/// VG000=
LVR AFZA06 0146N 06007E 110359 F330 MS405 140/021 TB0 S031 333 F/// VG000=
0000011000
501
UANT99 KDDL 110358
ARP UAL81 4925N04323W 0357 F370 MS58 322/48 KT
N14102 DDL IG1 110358 F49A
0000005400
502
BMRR01 DEMS 110251
HECA
SQN 891-893=
0000078700
503
SAEG32 HECA 110200
METAR HEAL 110200Z NIL=
METAR HEAR 110200Z 00000KT 9999 SCT025 09/09 Q1021 NOSIG=
METAR HEAX 110200Z 34003KT CAVOK 15/10 Q1023 NOSIG=
METAR HEMM 110200Z 24004KT 9999 SCT020 11/09 Q1024 NOSIG=
METAR HEPS 110200Z 35009KT CAVOK 16/14 Q1022 NOSIG=
METAR HELX 110200Z 15002KT CAVOK 09/06 Q1022 NOSIG=
METAR HESN 110200Z 36002KT CAVOK 10/04 Q1022 NOSIG=
METAR HEGN 110200Z 29010KT CAVOK 13/08 Q1022 NOSIG=
METAR HESH 110200Z 35004KT CAVOK 14/05 Q1020 NOSIG=
METAR HEBA 110200Z 33004KT CAVOK 10/09 Q1024 NOSIG=
METAR HEMA 110200Z 32011KT CAVOK 15/02 Q1021 NOSIG=
METAR HETB 110200Z NIL=
METAR HESC 110200Z 29010KT 9999 SCT025 03/02 Q1023 NOSIG=
METAR HEBL 110200Z NIL=
METAR HEAT 110200Z 00000KT CAVOK 06/03 Q1024 NOSIG=
METAR HESG 110200Z NIL=
0000079300
504
SAEG32 HECA 110300
METAR HEAL 110300Z NIL=
METAR HEAR 110300Z 00000KT 9999 SCT025 09/09 Q1021 NOSIG=
METAR HEAX 110300Z 00000KT CAVOK 15/08 Q1022 NOSIG=
METAR HEMM 110300Z 24006KT 9999 FEW020 12/10 Q1024 NOSIG=
METAR HEPS 110300Z 35010KT 9999 SCT025 16/13 Q1022 NOSIG=
METAR HELX 110300Z 00000KT CAVOK 09/07 Q1022 NOSIG=
METAR HESN 110300Z 36004KT CAVOK 10/04 Q1022 NOSIG=
METAR HEGN 110300Z 29008KT CAVOK 12/07 Q1022 NOSIG=
METAR HESH 110300Z 34003KT CAVOK 13/04 Q1021 NOSIG=
METAR HEBA 110300Z 33003KT CAVOK 11/10 Q1024 NOSIG=
METAR HEMA 110300Z 31012KT CAVOK 14/03 Q1021 NOSIG=
METAR HETB 110300Z NIL=
METAR HESC 110300Z 28008KT 9999 SCT025 05/02 Q1023 NOSIG=
METAR HEBL 110300Z NIL=
METAR HEAT 110300Z 27001KT CAVOK 05/04 Q1024 NOSIG=
METAR HESG 110300Z NIL=
0000035500
505
SIEG21 HECA 110300
AAXX 11034
62357 NIL=
62325 32960 00000 10120 20095 40243 54000=
62387 31910 03601 10071 20071 40244 52006 71000=
62420 31958 00000 10060 20050 40247 54000 71000=
62452 32960 31805 10065 20065 40264 52008 83030=
62459 32960 03211 10138 20059 40218 52005=
62458 32960 03503 10134 20074 40230 52004=



0000033000
506
SIEG25 HECA 110300
AAXX 11034
62455 NIL=
62309 32560 42605 10108 20078 40247 54000 84800=
62332 32560 33510 10160 20133 40229 52003 83200=
62403 32960 03502 10085 20071 40235 52007=
62435 32960 02701 10062 20032 40242 52006=
62423 NIL=
62432 NIL=
62476 32960 02804 10126 20031 40185 58004=



0000011100
507
UANT99 KDDL 110358
ARP DAL410 4731N04252W 0358 F350 MS56 324/51 KT
N195DN QXT AOW 110358 F37A
0000011000
508
UANT99 KDDL 110358
ARP AFR347 4951N03617W 0358 F380 MS53 236/33 KT
FGLZS QXT AOW 110358 J38A
0000011100
509
UANT99 KDDL 110358
ARP DAL270 4808N03928W 0358 F360 MS53 300/21 KT
N183DN QXT AOW 110358 F89A
0000011100
510
UANT99 KDDL 110358
ARP DAL418 4559N02019W 0358 F330 MS58 234/61 KT
N830MH QXT AOE 110358 F61A
0000011100
511
UANT99 KDDL 110358
ARP AAL106 4901N03955W 0358 F350 MS53 294/33 KT
N717AN DDL XXW 110358 F33A
0000011100
512
UANT99 KDDL 110358
ARP AWE797 5807N01453W 0358 F340 MS47 229/46 KT
N282AY DDL XXW 110358 J23A
00000000