0000011000
673
UANT99 KDDL 110457
ARP VIR46C 5310N02835W 0457 F390 MS56 209/56 KT
GVWOW DDL XXN 110458 F97A
0000010900
674
UANT99 KDDL 110457
ARP SIA25 4858N04015W 0457 F390 MS53 281/28 KT
9VSKR QXT AME 110458 J42A
0000011100
675
UANT99 KDDL 110458
ARP DAL176 5210N02842W 0458 F370 MS55 214/57 KT
N1604R QXT AOE 110458 F45A
0000011100
676
UANT99 KDDL 110458
ARP AWE730 5240N02430W 0458 F370 MS57 225/63 KT
N273AY DDL XXN 110458 J93A
0000215900
677
SZNZ01 NZKL 110500
CREX++
T000103 A001 D01021 D06025++
-3683144 17478654 AUCT  2014 01 11 04 52 //// 11 07 00 01
05822 3166 05815 3164 05808 3162 05802 3161 05796 3161 05788 3158+
-4402404 -17636748 CHIT  2014 01 11 04 52 //// 11 07 00 01
04726 2045 04713 2035 04690 2016 04702 2032 04721 2055 04722 2059+
-4089929 17623168 CPIT  2014 01 11 04 52 //// 11 07 00 01
03783 2261 03777 2260 03768 2257 03764 2257 03757 2256 03749 2253+
-3618905 17548887 GBIT  2014 01 11 04 52 //// 11 07 00 01
06250 0072 06244 0070 06233 0063 06233 0068 06224 0063 06211 0054+
-3867541 17802288 GIST  2014 01 11 04 52 //// 11 07 00 01
04102 2738 04086 2728 04076 2723 04057 2710 04065 2723 04069 2732+
-4241288 17370277 KAIT  2014 01 11 04 52 //// 11 07 00 01
03094 2203 03082 2196 03092 2211 03065 2189 03061 2190 03043 2178+
-3755040 17815904 LOTT  2014 01 11 04 52 //// 11 07 00 01
03758 0218 03756 0220 03758 0226 03754 0228 03736 0215 03752 0235+
-3704657 17451175 MNKT  2014 01 11 04 52 //// 11 07 00 01
03206 -0129 03224 -0116 03213 -0132 03232 -0118 03209 -0145 03233 -0127+
-3947566 17692007 NAPT  2014 01 11 04 52 //// 11 07 00 01
02962 1982 02944 1969 02970 2001 02975 2012 03004 2047 02976 2024+
-3441483 17304870 NCPT  2014 01 11 04 52 //// 11 07 00 01
02175 -2773 02249 -2697 02249 -2694 02214 -2727 02279 -2660 02229 -2707+
-4581435 17062939 OTAT  2014 01 11 04 52 //// 11 07 00 01
03996 3437 03994 3440 03993 3444 03989 3443 03985 3444 03984 3447+
-2928002 -17789440 RBCT  2014 01 11 04 52 //// 11 07 00 01
06329 2045 06329 2049 06330 2053 06318 2043 06312 2041 06333 2065+
-2925114 -17790384 RFRT  2014 01 11 04 52 //// 11 07 00 01
03267 0233 03263 0232 03234 0207 03236 0212 03232 0211 03249 0233+
-4357010 17277383 SUMT  2014 01 11 04 52 //// 11 07 00 01
01619 1850 01611 1848 01573 1817 01576 1826 01562 1818 01560 1823+
-3764109 17618118 TAUT  2014 01 11 04 52 //// 11 07 00 01
05494 3991 05493 3994 05489 3994 05484 3993 05483 3996 05477 3995+
-4128448 17477985 WLGT  2014 01 11 04 52 //// 11 07 00 01
02963 2030 02956 2028 02946 2021 02934 2014 02931 2015 02927 2015++
7777
0000156100
678
SNVD22 KWNB 110500 RRD
BBXX
46027 11051 99419 71244 46/// /1809 10091 40209 56014 90450 22200
00096 11507 20602 330// 41507 70037 333 91211 555 11095 22101
30449 41611 60449 176088 175089 178084 180083 181081 180079=
46086 11051 99325 71180 46/// /1802 10151 40189 53011 90450 22200
00162 11403 330// 41403 70014 333 91202 555 11022 22022 30437
41603 60449 182021 172024 172023 160020 179020 189019=
46050 11051 99446 71245 46/// /1914 10097 40114 56030 90450 22200
00092 11310 20707 326// 41307 70048 333 91218 555 11154 22165
60449 191143 189146 189142 189145 190143 189143=
46013 11051 99382 71233 46/// /3103 10096 40231 50003 90450 22200
00108 11305 20401 3//// 41305 70025 333 91205 555 11035 22036
30429 43105 60449 307034 308032 311035 318035 323035 324034=
46087 11051 99485 71247 46/// /1309 10076 20072 49992 56071 90450
22200 00076 333 91213 555 11097 22104 30351 40915 60449 126090
113102 090102 082108 081099 090117=
46028 11051 99357 71219 46/// /3307 10128 40214 51012 90450 22200
00135 11506 20502 332// 41505 70029 333 91209 555 11070 22074
30411 43309 60449 334067 338072 338070 336074 333074 334076=
46015 11051 99428 71248 46/// /1813 10101 40163 56020 90450 22200
00098 11408 20604 330// 41407 70042 333 91217 555 11138 22147
30448 41817 60449 181129 180129 179129 177131 179127 181127=
46042 11051 99368 71225 46/// /3308 10110 40231 53008 90450 22200
00126 11205 20402 331// 41205 70027 333 91210 555 11084 22088
30354 43310 60449 328080 330079 326079 331079 330076 331085=
0000015700
679
SNVD01 PANC 110500 RRB
BBXX
PHSG 11054 99050 71339
41395 81220 10250 20235 40110 5/000 70300 8777/
22214 00240 20202 323// 40304 80240=
0000129600
680
SNVD20 KWNB 110500 RRB
BBXX
44027 11051 99443 70673 46/// /2701 10023 20015 40257 58007 90450
22200 00056 10702 20401 3//// 40702 70011 333 91202 555 11010
22010 30350 42903 60449 263011 290014 294015 287020 296021 291024=
41013 11051 99334 70777 46/// /1711 10214 20196 40191 58017 90450
22200 00196 10805 20805 318// 41401 70025 333 91214 555 11122
22133 30437 41715 60449 169115 169121 169108 168107 167121 169120=
44017 11051 99407 70720 46/// /1805 10091 20090 40242 58021 90450
22200 00072 10501 20501 316// 40901 70007 333 91206 555 11059
22068 30441 41806 60449 176053 177052 176053 175049 171046 173046=
44009 11051 99385 70747 46/// ///// 10100 20096 40218 58034 90450
22200 00065 10501 70007=
41008 11051 99314 70809 46/// /1704 10165 20165 40183 58012 90450
22200 00143 10803 20401 309// 40803 70015 333 91205 555 11051
22060 30356 41806 60449 174044 174043 180043 184043 183046 181049=
44014 11051 99366 70748 46/// ///// 10150 20136 40232 58028 90450
22200 10502 70009=
44020 11051 99414 70702 46/// ///// 10048 40252 58020 90450 22200
00017 10201 20301 70004=
44059 11051 99368 70763 46/// /1704 10141 40197 90450 333 91205
555 11045 22049=
44058 11051 99376 70763 46/// /1903 10066 40206 90450 333 91204
555 11036 22039=
0000041000
681
SNVD17 KWNB 110500 RRA
BBXX
46075 11051 99539 71608 46/// /1411 10036 49893 58039 90450 22200
00050 11106 20604 3//// 41104 70028 333 91214 555 11122 22129
30433 41314 60449 138113 135113 132109 131106 130100 134099 81412
90442=
46001 11051 99563 71479 46/// ///// 1//// 49956 56009 90450 22200
00048 11004 70020=
32012 11051 99199 50853 46/// ///// 1//// 90450 22200 11204 70018=
0000067500
682
SABN32 OBBI 110500
METAR OMAA 110500Z 16005KT 130V240 CAVOK 17/10 Q1021 A3017 NOSIG=
METAR OMAD 110500Z 15004KT 120V190 CAVOK 18/10 Q1022 A3018 NOSIG=
METAR OMAL 110500Z 14009KT CAVOK 17/09 Q1022 A3020 NOSIG=
METAR OMDB 110500Z 10009KT 070V140 CAVOK 19/10 Q1022 NOSIG=
METAR OMDW 110500Z 04008KT CAVOK 16/11 Q1023 NOSIG=
METAR OMFJ 110500Z 29004KT 9999 SCT020 BKN100 17/11 Q1023 A3020=
METAR OMRK 110500Z 11009KT CAVOK 19/10 Q1022 A3020=
METAR OMSJ 110500Z 11006KT 9999 FEW040 18/11 Q1022=
METAR OOMS 110450Z 00000KT 8000 FEW020 BKN200 18/10 Q1023 NOSIG=
METAR OOSA 110450Z 02004KT 340V070 9999 FEW025 SCT090
23/16 Q1019 NOSIG  RH62 RMK01=
0000009300
683
SAGD31 TGPY 110500
METAR TGPY 110500Z 05008KT 9999 SCT018 SCT045 25/22 Q1014=
0000011000
684
UANT01 CWAO 110458
ARP DLH413 4917N04412W 0457 F390 MS57 311/46 KT
DAIHN QXT AME 110458 J70A
0000011100
685
UANT01 CWAO 110458
ARP DAL410 4946N03124W 0457 F350 MS55 194/50 KT
N195DN QXT AOW 110458 F50A
0000010000
686
SNVF25 LFPW 110500
BBXX
BAREU65 11054 99324 70143 46/// ///// 40157 57001
22243=
0000011000
687
UANT01 CWAO 110458
ARP DLH491 5706N03043W 0457 F370 MS58 216/49 KT
DAIKI QXT EUA 110458 J29A
0000009700
688
SAPK31 OPKC 110500 RRA
METAR OPKC 110455Z 36006KT 6000 SCT200 16/M05 Q1023 NOSIG=
0000240200
689
FTIN51 VOMM 110300
TAF VOBL 110300Z 1106/1212 09010KT 8000 FEW015 BECMG 1121/1122
    VRB02KT 3000 HZ SCT010 BECMG 1122/1123 1500 BR SCT005 TEMPO
    1200/1203 0800 FG BKN005 BECMG 1203/1204 09010KT 3000 HZ SCT010
    BECMG 1204/1205 6000 FEW015=
TAF VOCB 110300Z 1106/1212 09005KT 6000 FEW015 SCT080 BECMG 1121/1122
    VRB02KT 3000 HZ TEMPO 1200/1203 2000 BR BECMG 1208/1209 09005KT
     6000=
TAF VOCI 110300Z 1106/1212 22005KT 5000 HZ FEW015 SCT100
    TEMPO 1109/1112 FEW025CB
    BECMG 1117/1118 00000KT 4000 HZ
    TEMPO 1200/1203 2000 BR/HZ FEW025CB
    BECMG 1204/1205 05005KT 5000 HZ
    TEMPO 1209/1212 2000 TSRA/RA SCT008 SCT012 FEW025CB OVC090=
TAF VOCL 110300Z 1106/1212 25005KT 5000 HZ FEW015 SCT100
    TEMPO 1109/1112 FEW025CB
    BECMG 1117/1118 00000KT 4000 HZ
    TEMPO 1200/1203 2000 BR/HZ FEW025CB
    BECMG 1204/1205 25005KT 5000 HZ
    TEMPO 1209/1212 2000 TSRA/RA SCT008 SCT012 FEW025CB OVC090=
TAF VOHS 110300Z 1106/1212 14010KT 5000 HZ SCT020 BECMG 1114/1116
    12005KT 4000 HZ NSC TEMPO 1200/1203 00000KT 3000 HZ SCT010 SCT015
    BECMG 1205/1207 10010KT 5000 HZ FEW020=
TAF VOMD 110300Z 1106/1212 05010KT 4000 HZ FEW020 BECMG 1115/1116
    VRB02KT 3000 HZ BECMG 1206/1207 07010KT 4000 HZ=
TAF VOML 110300Z 1106/1212 09005KT 6000 FEW015 BECMG 1109/1110
    29010KT BECMG 1121/1122 09005KT 3000 HZ SCT010 TEMPO 1200/1203
     1500 BR SCT005 BECMG 1203/1204 6000 FEW015 BECMG 1209/1210
     29010KT=
TAF VOMM 110300Z 1106/1212 04010KT 4000 HZ SCT020 BECMG 1109/1110
    04010G20KT 6000 BECMG 1112/1113 04005KT 4000 HZ BECMG 1121/1122
    00000KT 2000 BR TEMPO 1200/1203 1000 MIFG BECMG 1205/1206 04010KT
    3000 HZ=
TAF VOTR 110300Z 1106/1212 07010KT 3000 HZ FEW020 SCT080
    BECMG 1109/1110 5000 HZ BECMG 1115/1116 09005KT 3000 HZ TEMPO
     1200/1203 1500 BR BECMG 1209/1210 07010KT 4000 HZ=
TAF VOTV 110300Z 1106/1212 14005KT 5000 HZ FEW015 SCT100
    TEMPO 1109/1112 2000 TSRA/RA SCT008 SCT012 FEW025CB OVC090
    BECMG 1117/1118 00000KT 4000 HZ
    TEMPO 1200/1203 2000 BR/HZ FEW025CB
    BECMG 1204/1205 14005KT 5000 HZ
    TEMPO 1209/1212 2000 TSRA/RA SCT008 SCT012 FEW025CB OVC090=
TAF VOVZ 110300Z 1106/1115 12010KT 3000 HZ FEW018
    BECMG 1115/1116 VRB02KT 2000 HZ/BR 
    BECMG 1120/1122 1000 BR 
    BECMG 1123/1200 0800 FG
    TEMPO 1200/1202 0500 FG 
    BECMG 1202/1204 1500 BR 
    BECMG 1205/1207 3000 HZ 
    BECMG 1210/1211 2000 HZ/BR =

0000009500
690
SAIN90 VEGT 110500
METAR VEGT 110500Z 00000KT 2000 BR SCT100 20/13 Q1018 NOSIG=
0000011200
691
SAIN90 VEGY 110500
METAR VEGY 110500Z 07004KT 1000 -RA FEW010 BKN018 OVC080 16/15 Q1019 NOSIG =

0000008200
692
SAIN90 VECC 110400
METAR VECO 110400Z 00000KT 5000 HZ 17/13 Q1019=
00000000