0000011100
813
UANT01 CWAO 111002
ARP AAL136 5545N04325W 1002 F350 MS59 281/50 KT
N719AN DDL XXW 111002 F54A
0000015700
814
SSVX13 LFPW 111000
ZZYY 44747 11014 1000/ 758627 045340 6113/ 11119 49953 57005 22219
 00046 444 20130 11014 1000/ 50101 80154 80000 9/015=
0000015700
815
SSVX13 LFPW 111000
ZZYY 14920 11014 1000/ 328511 067381 6113/ 11119 40233 57013 22219
 00227 444 20130 11014 0958/ 50101 80122 80015 9/015=
0000074900
816
SNVD22 KWNB 111000 RRD
BBXX
46026 11101 99378 71228 46/// ///02 10091 90950 22200 11305 20401
329// 41305 70026 333 91203 555 11019 22020=
46025 11101 99337 71191 46/// /0903 10148 20135 40192 52003 90950
22200 00154 11402 326// 41402 70011 333 91204 555 11032 22033
30937 41004 60949 090031 095029 091028 093025 092025 097022=
46029 11101 99462 71245 46/// /1917 10102 20097 49991 56040 90950
22200 00092 11011 20807 321// 41008 70054 333 91221 555 11185
22199 30852 41923 60949 189173 188180 186180 186187 188184 188191=
46054 11101 99343 71205 46/// /0102 10144 40199 52009 90950 22200
00139 11505 20401 330// 41505 70026 333 91202 555 11021 22025
30855 43410 60949 008018 001024 015023 010042 010061 344083=
0000024400
817
SNVD17 KWNB 111000 RRC
BBXX
46060 11101 99606 71468 46/// /3202 10005 49888 57013 90950 22200
00050 11001 318// 41001 70006 333 91203 555 11019 22020 30946
43303 60949 327019 325016 325019 325016 311012 332015 83202 90946=
0000179100
818
SZPS01 AMMC 111003
CREX++
T000103 A001 D01021 D06025++
-0204190 14737360 56130 2014 01 11 09 56 3028 11 07 00 01
00575 0053 00575 0055 00575 0057 00575 0060 00572 0059 00575 0064+
-0669280 15640860 56363 2014 01 11 09 56 //// 11 07 00 01
00362 -0070 00365 -0067 00367 -0064 00364 -0067 00363 -0068 00360 -0071+
-0942890 15995560 56670 2014 01 11 09 56 3043 11 07 00 01
00530 -0040 00528 -0041 00528 -0039 00525 -0041 00523 -0042 00521 -0043+
-1072080 16580190 57131 2014 01 11 09 56 //// 11 07 00 01
01798 1534 01396 1131 01539 1274 02456 2191 01769 1503 00584 0318+
-1551560 16718860 57210 2014 01 11 09 56 //// 11 07 00 01
00325 -0087 00314 -0099 00324 -0089 00330 -0083 00333 -0081 00330 -0084+
-1775690 16830030 57320 2014 01 11 09 56 3017 11 07 00 01
00351 -0110 00352 -0109 00355 -0105 00357 -0102 00359 -0100 00359 -0099+
-4397330 16861610 65180 2014 01 11 09 56 2887 11 07 00 01
02143 0371 02149 0381 02141 0377 02140 0381 02138 0383 02107 0356+
-2120470 -15978530 65980 2014 01 11 09 56 3010 11 07 00 01
00431 0012 00415 -0004 00398 -0022 00405 -0015 00424 0004 00414 -0006+
-2113810 -17518140 66600 2014 01 11 09 56 //// 11 07 00 01
00633 0092 00632 0090 00652 0109 00636 0092 00647 0103 00636 0091+
-1382670 -17176110 66840 2014 01 11 09 56 3013 11 07 00 01
00539 0070 00535 0065 00540 0069 00539 0066 00527 0052 00538 0061+
-1813250 17842750 67050 2014 01 11 09 56 3030 11 07 00 01
00719 0112 00717 0109 00720 0112 00718 0109 00720 0111 00722 0112+
-1760530 17743810 67070 2014 01 11 09 56 3032 11 07 00 01
00678 0034 00680 0035 00680 0035 00682 0035 00683 0036 ///// ////+
-0850250 17919500 67440 2014 01 11 09 56 3028 11 07 00 01
01626 0013 01627 0012 01635 0017 01634 0015 01643 0022 01638 0014++
7777

0000011100
819
SAFG20 SOCA 101930
METAR SOCA 101930Z AUTO 18004KT 140V200 9999 FEW007 OVC070 25/22
Q1009=

0000009200
820
SPCN44 CWAO 101931
SPECI CYMJ 101931Z 25002KT 3/4SM BR OVC003 RMK FG2ST6=

0000014100
821
SPLT31 EYVI 101931
SPECI EYVI 101930Z 27017KT 4000 SHRA BR BKN006 OVC012CB 02/01 Q0994
     R20/2/0295 TEMPO 27026G36KT=

0000009500
822
SAHK31 VHHH 101930
METAR VHHH 101930Z 08007KT 9000 FEW030 15/11 Q1023 NOSIG=

0000016000
823
FTTU32 LTAA 101700 AAB
TAF AMD LTAZ 101927Z 1019/1118 VRB02KT 6000 BKN009 TEMPO 1100/1104
 1500 BCFG VV002 TEMPO 1104/1107 1500 BCFG VV002=

0000009700
824
SPCN42 CWAO 101932
SPECI CYUA 101932Z AUTO 29020KT 2 1/4SM -SN CLR M25/ A2976=

0000022600
825
SACZ31 LKPW 101930
METAR LKKV 101930Z NIL=
METAR LKMT 101930Z 19006KT CAVOK 04/M01 Q1018 NOSIG=
METAR LKPR 101930Z 22011KT CAVOK 03/M00 Q1017 NOSIG=
METAR LKTB 101930Z 00000KT CAVOK 03/M02 Q1019 NOSIG=

0000008100
826
SAEA20 HKNC 101900 RRB
METAR HKKT 101900Z 00000KT CAVOK 17/11=

0000040900
827
FTUS31 KWBC 101933 AAA
TAF AMD
KSWF 101930Z 1020/1124 VRB02KT 5SM BR OVC015
     FM110000 VRB02KT 2SM BR FEW006 BKN012 OVC025
      TEMPO 1102/1105 -DZ BKN006 OVC015
     FM110500 14004KT 3/4SM -RA BR BKN006 OVC010
     FM110800 16008KT 1/2SM -RA FG OVC004
     FM111400 17010KT 1/2SM -RA FG OVC004 WS015/19050KT
     FM111900 17014KT 1SM RA OVC004 WS015/19050KT AMD NOT SKED=

0000032500
828
FTUS41 KWBC 101933 AAA
TAF AMD
KGON 101932Z 1020/1118 VRB03KT 2SM -RA BR BKN012 OVC020
     FM110000 VRB04KT 1SM BR SCT006 BKN010 OVC020
     FM110600 14004KT 3/4SM -RA BR BKN006 OVC012
     FM110900 15008KT 3/4SM -RA BR OVC004 WS020/19050KT
     FM111400 16011KT 1SM -RA BR OVC004 WS020/19055KT=

0000011100
829
SAIL31 BICC 101930
METAR BIKF 101930Z 26018KT 9999 VCSH FEW009 SCT019 BKN035 01/M00
Q0990=

0000049400
830
SAYG31 LYBM 101930
METAR LYBE 101930Z 00000KT 7000 NSC 06/06 Q1022 NOSIG=
METAR LYBT 101930Z 16001KT 5000 BR NSC 06/06 Q1023 NOSIG=
METAR LYKV 101930Z 00000KT 9999 BKN033 07/00 Q1022 NOSIG=
METAR LYNI 101930Z 35007KT 260V040 CAVOK 07/02 Q1022 NOSIG=
METAR LYPG 101930Z VRB01KT 9999 FEW090 07/07 Q1022 NOSIG=
METAR LYPR 101930Z NIL=
METAR LYTV 101930Z NIL=
METAR LYUZ 101930Z VRB01KT 8000 BKN020 04/03 Q1021=
METAR LYVR 101930Z VRB01KT CAVOK 05/01 Q1022 NOSIG=

0000068500
831
FTUS71 KWBC 101933 AAA
TAF AMD
KGON 101932Z 1020/1118 VRB03KT 2SM -RA BR BKN012 OVC020
     FM110000 VRB04KT 1SM BR SCT006 BKN010 OVC020
     FM110600 14004KT 3/4SM -RA BR BKN006 OVC012
     FM110900 15008KT 3/4SM -RA BR OVC004 WS020/19050KT
     FM111400 16011KT 1SM -RA BR OVC004 WS020/19055KT=
KSWF 101930Z 1020/1124 VRB02KT 5SM BR OVC015
     FM110000 VRB02KT 2SM BR FEW006 BKN012 OVC025
      TEMPO 1102/1105 -DZ BKN006 OVC015
     FM110500 14004KT 3/4SM -RA BR BKN006 OVC010
     FM110800 16008KT 1/2SM -RA FG OVC004
     FM111400 17010KT 1/2SM -RA FG OVC004 WS015/19050KT
     FM111900 17014KT 1SM RA OVC004 WS015/19050KT AMD NOT SKED=

0000021800
832
FTUS72 KWBC 101933 AAA
TAF AMD
KMLC 101931Z 1020/1118 18009G15KT P6SM SCT070 OVC090
      TEMPO 1020/1021 6SM -SHRA OVC090
     FM102100 23012G19KT P6SM SCT100
     FM110100 27010KT P6SM SKC=

00000000