0000009000
173
SAID33 WIII 110030
METAR WAPP 110030Z  18003KT 9999 FEW018 29/24 Q1009=

0000035600
174
FTUS74 KWBC 110033 AAA
TAF AMD
KMRY 110031Z 1101/1124 31004KT P6SM SCT005
      TEMPO 1101/1103 BKN005
     FM110300 24004KT P6SM BKN008
     FM111800 25007KT P6SM SCT015 BKN060=
KSNS 110032Z 1101/1124 27008KT P6SM SKC
     FM110300 VRB03KT P6SM BKN005
     FM110900 12003KT P6SM BKN010
     FM111700 13006KT P6SM SCT060=

0000034600
175
FTUS75 KWBC 110033
TAF
TAF AMD PAED 1100/1202 VRB06KT 9999 SCT005 OVC010 620109
      QNH2920INS
      TEMPO 1100/1103 3200 -SN BR OVC003
      BECMG 1114/1115 VRB06KT 9999 BKN005 OVC010 620105
      QNH2912INS
      BECMG 1200/1201 VRB06KT 9999 OVC010 QNH2907INS
      TXM02/1102Z
      TNM11/1110Z AMD 110027=

0000023800
176
FTAU32 YBBN 110000 AAB
TAF AMD YPLM 110046Z 1101/1124
05008KT CAVOK
FM110300 03014KT CAVOK
FM110900 31012KT CAVOK
FM111500 27005KT 9999 BKN010
PROB30 INTER 1108/1111 VRB25G40KT 3000 TSRA SCT040 FEW110CB
RMK=

0000009700
177
SAUS75 KWBC 110000 RRD
METAR
PAEI 102355Z 00000KT 10SM FEW120 M24/M27 A2956=

0000009700
178
SAYG31 LYBM 110030 RRA
METAR LYVR 110030Z 05003KT 7000 NSC 01/M01 Q1023 NOSIG=

0000010200
179
SPCN51 CWAO 110048
SPECI CWCL 110048Z AUTO 14002KT 9SM BKN007 BKN037 M02/M06 A2971=

0000011300
180
SPCN40 CWAO 110047
SPECI CYWH 110047Z 09005KT 6SM -RA BR SCT005 BKN011 OVC035 RMK
SF3SC4SC1=

0000020200
181
SAAK31 KWBC 110000 RRB
METAR
PAVD 110016Z 10SM FEW015 FEW090 SCT100 M06/M07 A2935=
PAWG 110016Z 09010KT 10SM BKN050 OVC060 03/00 A2952=
PFYU 110016Z 00000KT 10SM CLR M36/ A2971=

0000008900
182
SANT31 KWBC 110000 RRD
METAR
BIKF 110030Z 27014KT 9999 02/M03 Q0993=

0000030000
183
FTAU31 YBBN 110000 AAB
TAF AMD YMML 110049Z 1101/1206
18010KT 9000 HZ BKN012
BECMG 1102/1104 18012KT 9999 FEW015 BKN020
BECMG 1104/1106 18014KT CAVOK
BECMG 1109/1111 19009KT 9999 -DZ BKN008
BECMG 1122/1124 19010KT 9999 SCT015 BKN020
BECMG 1200/1202 18012KT CAVOK
RMK=

0000068000
184
SAUK20 EGGY 110050
METAR EGRE 110050Z AUTO 10018KT 4600 -SN SCT014/// SCT020/// 03/M01
     Q0998 RERA W///S5=
METAR EGRK 110050Z AUTO 27031KT 9999 RA SCT011/// SCT016/// 06/03
     Q0998 RESN W///S5=
METAR EGRM 110050Z AUTO 27025KT 9999 SCT025/// 06/02 Q1001 W///S5=
METAR EGRO 110050Z AUTO 30024KT //// // ///////// 07/02 Q1003 W///S4=
METAR EGRP 110050Z AUTO 28013KT 250V320 9999 NCD ///// Q1003 W///S4=
METAR EGRS 110050Z AUTO 30024KT 9999 NCD 07/02 Q1003 W///S4=
METAR EGRV 110050Z AUTO 23026KT 9999 SCT010/// SCT015/// 08/06 Q1008
     RERA W///S4=
METAR EGRW 110050Z AUTO 21026KT 9999 RA BKN023/// BKN028/// 07/06
     Q1009 W///S4=

0000048900
185
SAUK21 EGGY 110050
METAR EGRF 110050Z AUTO 26026KT 9999 SCT027/// 07/01 Q0997 W///S5=
METAR EGRG 110050Z AUTO 11020KT 9999 SCT010/// BKN022/// 04/02 Q0996
     W///S5=
METAR EGRI 110050Z AUTO 24026KT 9999 FEW020/// 07/02 Q0998=
METAR EGRL 110050Z AUTO 27026G37KT 140V310 9999 NCD 06/01 Q0999
     W///S5=
METAR EGRN 110050Z AUTO 31018KT 9999 SCT010/// BKN035/// 07/06 Q1004=
METAR EGRT 110050Z AUTO /////KT 9999 RA BKN006/// 07/05 Q1008 RERA
     W///S4=

0000011500
186
SAKY31 RUMS 110030 RRA
METAR UCFM 110030Z 12002MPS 3800 FU SKC M13/M18 Q1024 R08/CLRD70
NOSIG=

0000016600
187
SAFA31 EKCH 110050
METAR EKVG 110050Z AUTO 25011KT 9999NDV BKN024/// BKN160///
05/01 Q0995 RMK SCT023/// BKN160/// WIND 850FT 28016G31KT 240V300=

0000012100
188
SALV31 EVRA 110050
METAR EVRA 110050Z 30012KT 210V330 9999 -RA OVC009 03/02 Q0998 
R36/290158 NOSIG=

0000012900
189
SALT32 EYVI 110050
METAR EYKA 110050Z AUTO 28012KT 250V310 9999 BKN017/// OVC038///
02/M01 Q1001 R08/290095=

0000017200
190
FTCI32 ZBBB 110049 CCA
TAF COR ZGNN 110048Z 1100/1124 07003MPS 2000 -RA BR FEW007 SCT013
OVC026 TX14/1107Z TN11/1122Z BECMG 1102/1103 13005MPS 4000 BR=

0000017000
191
SAMP31 LMMM 110100
METAR HLLT NIL=
METAR HLLB 110045Z
00000KT 9999 SCT020 BKN080 14/12 Q1025 =
METAR LMML 110045Z AUTO 23006KT CAVOK 15/13 Q1022=

0000010600
192
SALT31 EYVI 110050
METAR EYVI 110050Z 28015KT 8000 OVC014 02/00 Q1000 R20/2/0295 NOSIG=

00000000