0000007800
133
FCEO32 EETN 101500 AAA
TAF AMD EEKE  101900Z 1016/1022 CNL=

0000012300
134
SACN62 CYAB 101900
METAR CYAB 101900Z 06009KT 15SM -SN FEW050 BKN090 M23/M28 A2903 RMK
 SC2AC3 SLP835=

0000074800
135
SIIN52 VIDP 110900
AAXX 11093
42027 31596 41401 10062 21027 38474 48560 70521 83430 333 58054=
42028 32596 32302 10014 21022 37900 83400 333 58053=
42031 32596 22301 10064 20011 38418 82100 333 58033=
42044 32596 40000 10060 21036 38338 48580 82420 333 58066=
42045 32696 13603 10058 21058 38413 48545 81100 333 58042=
42054 32996 01401 10176 20022 39229 333 58009=
42056 32996 03202 10186 20032 39728 333 58008=
42071 31996 02907 10168 20109 40190 70500 333 58017=
42081 32696 10000 10118 20048 38935 48511 81500
333 58025 81635=
42083 32697 20000 10062 20009 4//// 82800
333 58012 81835=
42105 31996 13203 10186 20061 40181 70510 80001 333 58017=
42182 31995 02908 10180 20097 40179 70500 333 58027=

0000009400
136
SNVF25 LFPW 111000
BBXX
BAREU62 11104 99441 10099 46/// ///// 40233
22200=
0000068900
137
UDEU02 EGRR 111002 RRF
AMDAR 1108
LVR EU0970   4801N 01753W 110834 F329 MS587 227/075 TB0 S031=
LVR EU0970   4801N 01620W 110841 F329 MS582 243/069 TB0 S031=
LVR EU0970   4803N 01447W 110848 F329 MS585 248/068 TB0 S031=
LVR EU0970   4828N 01320W 110855 F329 MS590 269/057 TB0 S031=
UNS EU0970   4853N 01156W 110902 F329 MS590 279/066 TB/ S031=
LVR EU0970   4918N 01034W 110909 F369 MS572 278/048 TB0 S031=
LVR EU0970   4934N 00904W 110916 F369 MS565 274/040 TB0 S031=
LVR EU0970   4952N 00734W 110923 F369 MS587 257/045 TB0 S031=
LVR EU0970   5009N 00602W 110930 F369 MS582 258/050 TB0 S031=
LVR EU0970   5026N 00428W 110937 F369 MS565 261/058 TB0 S031=
0000009400
138
SICH01 SCSC 110900 RRE
AAXX 11094
85467 43460 /2504 10170 20139 40131 53000=
0000016700
139
SOVI10 KWAL 111001
B110070A 011100101"P9751095 B\P~W@@v0ekI1@mS???CdCf>@mm3@NC~@^4Co5D@6bG9Kn2?????A"??? ?TIzKA~BDBJBMBQBZ:AMPTEMP 25.85C  45+0NN 219E
0000023800
140
SNVD17 KWNB 111000 RRB
BBXX
46061 11101 99602 71468 46/// /3305 10008 49893 57011 90950 22200
00045 11103 20401 300// 41103 70017 333 91206 555 11049 22050
30913 43207 60949 332047 333047 323051 321061 312058 309059=
0000043300
141
UDEU02 EGRR 111002 RRG
AMDAR 1109
LVR EU2230   5356N 00706E 110923 F323 MS545 245/062 TB/ S031=
LVR EU2230   5317N 00627E 110930 F340 MS557 242/061 TB/ S031=
LVR EU2230   5237N 00549E 110937 F340 MS547 240/059 TB/ S031=
LVR EU2230   5157N 00512E 110944 F340 MS542 244/061 TB/ S031=
LVR EU2230   5117N 00437E 110951 F340 MS550 244/068 TB/ S031=
LVR EU2230   5037N 00403E 110958 F342 MS560 243/071 TB/ S031=
0000009100
142
SPUR31 UKMS 110952
SPECI UKON 110952Z 29010G15MPS CAVOK 08/M02 Q1016 NOSIG=
0000011500
143
SAAJ31 UBBB 111000
METAR UBBL 111000Z 11003KT 7000 NSC 07/03 Q1016
R33/CLRD70 NOSIG RMK MT OBSC =
0000010200
144
SAAH10 OAKB 110950
METAR OAKB 110950Z 18004KT 7000 NSC 04/M16 Q1024 NOSIG RMK WHT WHT=
0000011000
145
SIRS22 RUMS 110900 CCA
AAXX 11091
26378 42/// 12805 11008 21018 39860 49949 52035 333 91111=
0000011200
146
SNVD25 LFPW 111000
BBXX
BATFR18 11104 99127 70468 46/// /0917 10245 40151 53016
22213 04264=
0000010000
147
SNVD25 LFPW 111000
BBXX
BAREU00 11104 99485 70483 46/// ///// 40160 52007
22253=
0000044700
148
SXXX32 EUMS 110954
224AD678
:PRS 2 /1 2319 2314 2311 2309 2308 2309 2307 2304 2301 2298 2297 2299 2301 2302 2298 2277 2275 2272 2272 2269 2267 2268 2265 2264 2260 2256 2250 2246 2243 2238 :RAD 4 /3 5128 5125 5118 5109 5100 5090 5082 5072 5060 5053 5041 5029 5017 5005 4993 4988 4980 4974 4961 4952 :ENC 4 /5 8643 8637 8627 8608 8597 8582 8563 8547 8531 8515 8503 8488 :SW1 54 /60 60 :SW2 24 /60 22 :BAT 14 /15 13.2 :NAME 224AD678
0000036300
149
SXXX32 EUMS 110957
22E595B6
:PRS 1 /1 M 4006 4038 4044 4067 4057 4063 4079 4091 4093 4044 4066 4055 4062 4061 4016 4014 4007 4007 4015 4007 4004 3977 4004 3996 3989 4021 3991 4010 3989 :RAD 1 /3 7245 7250 7243 7223 7200 7190 7187 7188 7194 7203 :ENC 2 /5 5367 5383 5349 5318 5305 5309 :SW1 57 /60 0 :SW2 27 /60 60 :BAT 14 /15 12.7 :NAME 22E595B6
0000044500
150
SXXX32 EUMS 110958
32BD7124
:PRS 1 /1 2260 2260 2262 2265 2265 2267 2268 2270 2272 2284 2296 2298 2301 2300 2300 2299 2298 2302 2301 2301 2303 2301 2303 2304 2304 2307 2306 2305 2306 2304 :RAD 3 /3 8049 8058 8068 8079 8086 8085 8086 8088 8086 8087 8082 8077 8076 8072 8072 8071 8065 8061 8058 8063 :ENC 3 /5 5051 5071 5086 5088 5089 5090 5081 5077 5076 5070 5063 5064 :SW1 59 /60 0 :SW2 29 /60 0 :BAT 14 /15 13.4 :NAME 32BD7124
0000070300
151
SXXX32 EUMS 110958 RRA
223412A2
OT12 ID:IND-SADENG DT:2014 01 11 09 57
:PRS /1 02131 02154 02072 02139 02182 02231 02242 02171 02106 02165 02093 02148 02206 02151 02125 02160 02125 02114 02144 02187 02197 02147 02063 02172 02194 02205 02185 02169 02141 02164
:ENC /1 -12723 -12699 -12743 -12736 -12659 -12609 -12599 -12666 -12719 -12689 -12746 -12689 -12623 -12686 -12706 -12659 -12676 -12689 -12666 -12619 -12636 -12669 -12723 -12676 -12606 -12619 -12649 -12666 -12666 -12653
:RAD /1 11847 11847 11877 11867 11859 11932 11952 11930 11890 11837 11849 11824 11898 11914 11836 11895 11930 11858 11893 11937 11898 11886 11841 11832 11895 11923 11913 11879 11902 11906
:BA837 11849
0000011800
152
SNVA25 LFPW 111000
BBXX
BATFR55 11104 99080 30419 46/// /3409 10279 20222 40129 58018
22262 04295=
00000000