0000009700
893
SAKO31 RKSI 101930
METAR RKSI 101930Z 05003KT 8000 FEW030 M05/M06 Q1032 NOSIG=

0000092500
894
SAFR34 LFPW 101930
METAR LFCR 101930Z AUTO 14006KT 9999 NSC 09/01 Q1015=
METAR LFJL 101930Z AUTO 10006KT 9999 NSC 02/01 Q1019=
METAR LFLP 101930Z AUTO 00000KT 9000 NSC 05/03 Q1019=
METAR LFLS 101930Z AUTO 08004KT 1000 R09///// BCFG NSC 04/03 Q1018=
METAR LFLY 101930Z AUTO 00000KT 2500 BR NSC 05/04 Q1018=
METAR LFMT 101930Z 07006KT 8000 OVC028 12/08 Q1019 NOSIG=
METAR LFMU 101930Z AUTO 05007KT 9999 OVC023 12/08 Q1018=
METAR LFOB 101930Z AUTO 18004KT 9999 OVC011 06/04 Q1018=
METAR LFOH 101930Z AUTO 14005KT 100V170 9999 FEW009 05/03 Q1016=
METAR LFOK 101930Z AUTO 11005KT 9999 NSC 04/04 Q1018=
METAR LFOP 101930Z AUTO 15007KT 9999 OVC008 04/04 Q1017=
METAR LFPB 101930Z AUTO 16004KT 9999 OVC009 06/04 Q1018=
METAR LFQA 101930Z AUTO VRB03KT 9000 OVC011 03/03 Q1018=
METAR LFQB 101930Z AUTO 00000KT 0150 FG NSC 02/02 Q1018=
METAR LFSN 101930Z AUTO VRB02KT 7000 NSC 02/02 Q1019=

0000084700
895
SAFR35 LFPW 101930
METAR LFMI 101930Z AUTO VRB03KT 9999 OVC025 11/08 Q1019=
METAR LFMK 101930Z AUTO 10013KT 9999 OVC023 11/08 Q1017=
METAR LFOV 101930Z AUTO 10005KT 0500 FG VV/// 06/06 Q1016=
METAR LFRD 101930Z AUTO 15005KT 120V180 0500 R35/1500U FG VV///
07/06 Q1015=
METAR LFRI 101930Z AUTO 10008KT 9999 NSC 08/07 Q1014=
METAR LFRM 101930Z AUTO 07006KT 6000 OVC005 07/06 Q1016=
METAR LFRN 101930Z AUTO 11004KT 5000 BR OVC006 08/07 Q1016=
METAR LFRO 101930Z AUTO 18004KT 9999 NSC 06/05 Q1015=
METAR LFRV 101930Z AUTO 05006KT 2800 -RA BR OVC002/// ///TCU 07/07
Q1015=
METAR LFRZ 101930Z AUTO 06005KT 2700 BR NSC 08/08 Q1015=
METAR LFSB 101930Z 12004KT 9999 FEW036 SCT230 04/02 Q1019 NOSIG=
METAR LFST 101930Z AUTO VRB03KT 9999 NSC 02/01 Q1019=
METAR LFTH 101930Z AUTO 02001KT 8000 OVC025 12/09 Q1020=

0000070200
896
SAFR36 LFPW 101930
METAR LFBA 101930Z AUTO 09004KT 9999 NSC 09/07 Q1015=
METAR LFBE 101930Z AUTO 07003KT 5000 BR NSC 06/06 Q1015=
METAR LFGJ 101930Z AUTO 08002KT 9999 NSC 05/03 Q1018=
METAR LFJR 101930Z AUTO 05004KT 010V070 3500 BR NSC 07/07 Q1016=
METAR LFMD 101930Z AUTO VRB02KT 9000 OVC023 11/09 Q1020=
METAR LFMH 101930Z AUTO 15007KT 7000 NSC 07/05 Q1017=
METAR LFOT 101930Z 06008KT 0250 R20///// FG VV/// 06/06 Q1016 NOSIG=
METAR LFPN 101930Z AUTO VRB03KT 9999 OVC005 05/04 Q1017=
METAR LFRC 101930Z AUTO 18010KT 9999 OVC006 06/05 Q1015=
METAR LFRG 101930Z AUTO 19008KT 6000 OVC004 05/04 Q1016=
METAR LFRK 101930Z AUTO 14005KT 6000 SCT013 BKN110 03/03 Q1016=

0000068400
897
SAFR37 LFPW 101930
METAR LFAQ 101930Z AUTO 20008KT 8000 OVC010 05/04 Q1018=
METAR LFAT 101930Z AUTO 16006KT 9000 OVC014 05/04 Q1017=
METAR LFLN 101930Z AUTO 10002KT 9999 NSC 06/05 Q1017=
METAR LFPM 101930Z AUTO VRB03KT 8000 OVC004 06/05 Q1018=
METAR LFPT 101930Z AUTO 20005KT 9999 OVC008 06/04 Q1018=
METAR LFRH 101930Z AUTO 13005KT 100V160 4500 -RA BR OVC003///
///TCU 09/08 Q1015=
METAR LFRQ 101930Z AUTO VRB01KT 0350 R28///// FG OVC003 09/08 Q1015=
METAR LFRT 101930Z AUTO 15003KT 3100 BR NSC 07/06 Q1015=
METAR LFSD 101930Z AUTO 32002KT 9999 NSC 03/01 Q1018=
METAR LFTW 101930Z AUTO 00000KT 8000 OVC024 11/04 Q1019=
METAR LFBU 101930Z NIL=

0000059300
898
SASP31 LEMM 101930
METAR LEMD 101930Z 00000KT CAVOK 10/04 Q1015 NOSIG=
METAR LEBL 101930Z 31006KT 220V340 5000 BR FEW013 09/06 Q1018
NOSIG=
METAR LEPA 101930Z 08005KT CAVOK 12/11 Q1017 NOSIG=
METAR LEZL 101930Z 01003KT CAVOK 12/09 Q1013 NOSIG=
METAR LEMG 101930Z 29004KT 9999 FEW020 12/11 Q1015 NOSIG=
METAR LEVC 101930Z VRB02KT 7000 OVC020 12/08 Q1018 NOSIG=
METAR LEAL 101930Z 04007KT 010V070 9000 FEW010 14/11 Q1017 NOSIG=
METAR LEIB 101930Z 00000KT 9999 BKN020 14/11 Q1017 NOSIG=
METAR LEVX 101930Z VRB02KT 6000 2000S BKN013 BKN035 10/09 Q1016
NOSIG=

0000077000
899
SASP32 LEMM 101930
METAR LEAS 101930Z 29003KT 7000 FEW009 SCT010 BKN020 10/10 Q1017
REDZ TEMPO 3000 DZ BKN010=
METAR LEBB 101930Z VRB01KT 9000 SCT012 10/09 Q1016 TEMPO 3000 DZ
BKN012=
METAR LECO 101930Z 00000KT 9999 FEW024 10/08 Q1017=
METAR LEGE 101930Z 00000KT 8000 BKN017 09/07 Q1018=
METAR LEST 101930Z 00000KT 9999 FEW013 08/07 Q1016 NOSIG=
METAR LEZG 101930Z 08003KT 2500 BR BKN002 BKN004 06/06 Q1017=
METAR LESO 101930Z 00000KT CAVOK 10/08 Q1015=
METAR LEVT 101930Z VRB02KT 8000 NSC 06/04 Q1016=
METAR LERS 101930Z VRB01KT 8000 BKN021 10/07 Q1018=
METAR LEMH 101930Z 10005KT 070V150 9999 BKN011 12/11 Q1017=
METAR LEAM 101930Z VRB01KT 9999 FEW020 SCT100 15/09 Q1015=
METAR LEGR 101930Z 00000KT 9999 FEW100 12/06 Q1014=

0000015700
900
SASP33 LEMM 101930
METAR LEVD 101930Z 08003KT CAVOK 04/04 Q1015=
METAR LEVS 101930Z NIL=
METAR LESA 101930Z VRB01KT CAVOK 04/03 Q1015=

0000038100
901
SACR31 LEMM 101930
METAR GCLP 101930Z 36007KT 9999 FEW025 18/11 Q1014 NOSIG=
METAR GCXO 101930Z 31016KT CAVOK 13/08 Q1015 NOSIG=
METAR GCTS 101930Z 00000KT 9999 FEW030 18/11 Q1014 NOSIG=
METAR GCRR 101930Z 02005KT 9999 FEW021 16/13 Q1014=
METAR GCFV 101930Z 04009KT 010V070 9999 FEW020 16/12 Q1014=
METAR GCLA 101930Z 33006KT 270V010 CAVOK 20/07 Q1014=

0000026300
902
SASP34 LEMM 101930
METAR LEDA 101930Z NIL=
METAR LEJR 101930Z 36003KT CAVOK 12/11 Q1013=
METAR LELL 101930Z NIL=
METAR LEPP 101930Z 16003KT 120V190 9000 NSC 07/05 Q1016=
METAR LEXJ 101930Z 25005KT 220V280 9999 SCT014 BKN022 12/10 Q1016=

0000008800
903
SASP39 LEMM 101930
METAR LETL 101930Z AUTO 11004KT CAVOK 05/01 Q1016=

0000009500
904
SAUK37 EGGY 101920 RRA
METAR EGPI 101920Z AUTO 35006KT 9999 NCD 04/01 Q1007=

0000010600
905
SAUK38 EGGY 101920 RRA
METAR EGPU 101920Z AUTO 25005KT 9999 SCT011/// 02/01 Q1006 RERA=

0000126600
906
SPUS70 KWBC 101934
SPECI
KAFN 101930Z AUTO 20009KT 10SM SCT008 OVC016 M01/M03 A3030 RMK AO2
     T10111033=
KBKL 101930Z 15010KT 6SM BR SCT023 OVC055 04/02 A3008 RMK AO2=
KBLF 101930Z AUTO 15008KT 10SM SCT006 OVC055 11/07 A3015 RMK
     AO2=
KFIG 101930Z AUTO 01004KT 3/4SM BR OVC005 00/00 A3022 RMK AO2
     T00000000=
KILG 101930Z 03003KT 1 3/4SM BR SCT005 OVC012 03/02 A3036 RMK
     AO2=
KSTJ 101930Z 27004KT 5SM BR OVC005 02/02 A2955 RMK AO2
     T00220017=
KTCL 101930Z 14005KT 10SM OVC010 12/09 A3005 RMK AO2=
KAKH 101931Z AUTO 02007KT 2 1/2SM BR OVC004 07/06 A3020 RMK AO2
     RAB1856E05 P0000=
KDMO 101931Z AUTO 19010KT 10SM BKN009 OVC025 08/08 A2960 RMK AO2
     RAE22 P0005 T00830083 $=
KHOU 101931Z 17009KT 10SM FEW020 OVC050 20/17 A2985 RMK AO2
     RAB1854E15 P0000=
KJXN 101931Z 15008KT 2 1/2SM BR OVC004 02/01 A2996 RMK AO2
     T00170006=
KPAH 101931Z 16007KT 7SM SCT010 OVC080 09/07 A2992 RMK AO2
     RAB1854E03 P0000 T00890067=
KSLN 101931Z 29007KT 7SM BKN016 OVC022 03/01 A2957 RMK AO2
     T00280006=
KVIH 101932Z AUTO 17012KT 5SM -RA BR BKN005 OVC040 05/04 A2969 RMK
     AO2 P0013 T00500044=
PPIZ 101931Z AUTO 00000KT 4SM HZ OVC008 M26/M28 A3004 RMK AO2 TSNO
     $=

0000016100
907
SACA33 KWBC 101900 RRE
METAR
TFFF 101930Z AUTO 06014KT 9999 BKN034 28/19 Q1014=
TFFR 101930Z 07012KT 9999 SCT027 SCT036 26/21 Q1015 NOSIG=

0000010100
908
SAUK36 EGGY 101920 RRA
METAR EGSC 101920Z 18007KT 160V220 9999 FEW025 07/06 Q1012=

0000009300
909
SAFR33 LFPW 101930 RRA
METAR LFLC 101935Z 22002KT CAVOK 05/03 Q1016 NOSIG=

0000009300
910
SPCN42 CWAO 101936
SPECI CYUA 101936Z AUTO 29021KT 2 1/4SM CLR M25/ A2976=

0000193300
911
SPUS70 KWBC 101936
SPECI
KACK 101932Z 16010KT 10SM OVC027 04/01 A3041 RMK AO2=
KELM 101932Z 20007KT 10SM BKN029 OVC060 04/M02 A3023 RMK AO2=
KLNK 101932Z 16006KT 4SM BR SCT005 OVC014 01/00 A2957 RMK AO2
     T00110000=
KLWM 101932Z VRB05KT 4SM HZ OVC011 00/M03 A3039 RMK AO2 SNE03
     P0000 T00001033=
KMIV 101932Z AUTO 00000KT 1 1/2SM -RA BR OVC002 04/04 A3035 RMK
     AO2 RAB1859E23B25 P0001 T00390039=
KMIW 101932Z AUTO 11006KT 1 1/2SM BR OVC003 00/00 A2957 RMK AO2
     UPE1855B11E17FZRAB1855E1856B17E26SNB1856E11 PRESFR P0001
     I1000 T00000000 TSNO=
KPHD 101932Z AUTO 15004KT 3SM BR OVC002 04/03 A3014 RMK AO2=
KSBY 101932Z 04004KT 3SM -RA BR BKN003 OVC041 06/04 A3035 RMK AO2
     P0000=
KSPI 101932Z 17020G25KT 4SM -RA BR OVC004 03/03 A2974 RMK AO2
     P0001 $=
PATO 101932Z AUTO 29005KT 10SM OVC016 M02/M02 A2941 RMK AO2
     T10171022 TSNO=
KAOO 101933Z AUTO 00000KT 8SM BKN013 OVC029 02/M02 A3024 RMK AO2
     T00221022=
KARA 101933Z 17016G23KT 10SM SCT017 OVC048 22/17 A2994 RMK AO2=
KCEU 101933Z AUTO 09004KT 1 3/4SM -RA BR OVC003 10/08 A3017 RMK
     AO2 RAE07B30 P0001=
KEAU 101933Z 15008KT 3SM BR OVC005 M03/M03 A2968 RMK AO2
     T10281033=
KGVL 101933Z AUTO 08009KT 1 3/4SM BR OVC003 08/07 A3015 RMK
     AO2=
KHXD 101930Z 18005KT 6SM BR OVC006 19/18 A3015=
KLLQ 101933Z AUTO 19006KT 10SM OVC014 14/11 A2987 RMK AO2 RAE27
     P0000=
KMFI 101933Z AUTO 15008KT 1SM BR OVC002 M03/M04 A2971 RMK AO2
     I1002 T10281039=
KMSP 101933Z 16008KT 5SM BR OVC008 M02/M03 A2962 RMK AO2=
KOTM 101933Z AUTO 15010KT 3SM BR OVC003 01/01 A2958 RMK AO2
     T00110006 TSNO=
KSDF 101933Z 16006KT 10SM OVC015 11/08 A2999 RMK AO2=
KSPW 101933Z AUTO 17008KT 1 1/2SM BR OVC003 M01/M02 A2956 RMK AO2
     T10111017=
KUIN 101933Z AUTO 16008KT 2 1/2SM RA BR BKN004 OVC010 03/02 A2967
     RMK AO2 LTG DSNT N-SE TSB05E32 P0021 T00280022=

0000024100
912
SANZ31 NZKL 101930
METAR NZAA 101930Z AUTO 15003KT 9999 OVC043/// 18/13 Q1018 NOSIG=
METAR NZWN 101930Z AUTO 02006KT 340V050 9999 NCD 16/11 Q1017 NOSIG=
METAR NZCH 101930Z AUTO 05010KT 9999 FEW016/// 16/12 Q1016 NOSIG=

00000000