0000114600
593
SNCN19 CWAO 110418
OOXX
MYP42 11021 99045 11014 ///// 15551
     26/// /1301 10177 29082 38458 90217 333 60000=
MYP42 11021 99045 11014 ///// 15551
     26/// /1201 10181 29082 38456 90227 333 60000=
MYP42 11021 99045 11014 ///// 15551
     26/// /0701 10183 29081 38449 90237 333 60000=
MYP42 11021 99045 11014 ///// 15551
     26/// /0901 10183 29081 38464 90247 333 60000=
MYP42 11021 99045 11014 ///// 15551
     26/// /1201 10185 29081 38451 90257 333 60000=
MYP42 11031 99045 11014 ///// 15551
     26/// /0901 10185 29081 38455 90307 333 60000=
MYP42 11031 99045 11014 ///// 15551
     26/// /1701 10188 29080 38460 90317 333 60000=
MYP42 11031 99045 11014 ///// 15551
     26/// /1801 10188 29080 38449 90327 333 60000=
MYP42 11031 99045 11014 ///// 15551
     26/// /1901 10191 29078 38456 90337 333 60000=
MYP42 11031 99045 11014 ///// 15551
     26/// /3201 10193 29074 38466 90347 333 60000=
MYP42 11031 99045 11014 ///// 15551
     26/// /2901 10196 29071 38451 90357 333 60000=
MYP42 11041 99045 11014 ///// 15551
     26/// /2201 10196 29072 38455 90407 333 60000=

0000114600
594
SNCN19 CWAO 110425
OOXX
CAP16 11021 99624 71145 ///// 02061
     26/// /0404 11264 29068 39613 90220 333 60000=
CAP16 11021 99624 71145 ///// 02061
     26/// /0403 11266 29068 39613 90230 333 60000=
CAP16 11021 99624 71145 ///// 02061
     26/// /0303 11268 29067 39612 90240 333 60000=
CAP16 11021 99624 71145 ///// 02061
     26/// /0303 11268 29067 39612 90250 333 60000=
CAP16 11031 99624 71145 ///// 02061
     26/// /0303 11270 29067 39613 90300 333 60000=
CAP16 11031 99624 71145 ///// 02061
     26/// /0403 11270 29067 39611 90310 333 60000=
CAP16 11031 99624 71145 ///// 02061
     26/// /0403 11271 29067 39612 90320 333 60000=
CAP16 11031 99624 71145 ///// 02061
     26/// /0503 11273 29067 39615 90330 333 60000=
CAP16 11031 99624 71145 ///// 02061
     26/// /0403 11274 29067 39614 90340 333 60000=
CAP16 11031 99624 71145 ///// 02061
     26/// /0503 11276 29067 39613 90350 333 60000=
CAP16 11041 99624 71145 ///// 02061
     26/// /0403 11276 29067 39613 90400 333 60000=
CAP16 11041 99624 71145 ///// 02061
     26/// /0303 11277 29067 39616 90410 333 60000=

0000114600
595
SNCN19 CWAO 110402
OOXX
MXP44 11021 99280 71140 ///// 00041
     26/// /3403 10157 29080 30157 90210 333 60000=
MXP44 11021 99280 71140 ///// 00041
     26/// /3403 10156 29081 30159 90220 333 60000=
MXP44 11021 99280 71140 ///// 00041
     26/// /3302 10155 29081 30160 90230 333 60000=
MXP44 11021 99280 71140 ///// 00041
     26/// /3302 10154 29081 30160 90240 333 60000=
MXP44 11021 99280 71140 ///// 00041
     26/// /3201 10153 29082 30160 90250 333 60000=
MXP44 11031 99280 71140 ///// 00041
     26/// /3501 10151 29082 30162 90300 333 60000=
MXP44 11031 99280 71140 ///// 00041
     26/// /3501 10151 29082 30162 90310 333 60000=
MXP44 11031 99280 71140 ///// 00041
     26/// /0000 10150 29083 30165 90320 333 60000=
MXP44 11031 99280 71140 ///// 00041
     26/// /0000 10150 29083 30167 90330 333 60000=
MXP44 11031 99280 71140 ///// 00041
     26/// /3301 10149 29086 30169 90340 333 60000=
MXP44 11031 99280 71140 ///// 00041
     26/// /3601 10144 29085 30171 90350 333 60000=
MXP44 11041 99280 71140 ///// 00041
     26/// /1101 10143 29086 30173 90400 333 60000=

0000114600
596
SNCN19 CWAO 110401
OOXX
SEP63 11021 99594 10180 ///// 00401
     26/// /2101 11034 29088 39970 90210 333 60000=
SEP63 11021 99594 10180 ///// 00401
     26/// /1502 11035 29088 39970 90220 333 60000=
SEP63 11021 99594 10180 ///// 00401
     26/// /1301 11034 29087 39970 90230 333 60000=
SEP63 11021 99594 10180 ///// 00401
     26/// /0601 11034 29088 39970 90240 333 60000=
SEP63 11021 99594 10180 ///// 00401
     26/// /1001 11034 29088 39970 90250 333 60000=
SEP63 11031 99594 10180 ///// 00401
     26/// /1201 11034 29088 39970 90300 333 60000=
SEP63 11031 99594 10180 ///// 00401
     26/// /0601 11033 29087 39970 90310 333 60000=
SEP63 11031 99594 10180 ///// 00401
     26/// /3101 11033 29087 39970 90320 333 60000=
SEP63 11031 99594 10180 ///// 00401
     26/// /3501 11032 29087 39970 90330 333 60000=
SEP63 11031 99594 10180 ///// 00401
     26/// /3001 11032 29087 39970 90340 333 60000=
SEP63 11031 99594 10180 ///// 00401
     26/// /2601 11031 29087 39960 90350 333 60000=
SEP63 11041 99594 10180 ///// 00401
     26/// /0601 11032 29089 39960 90400 333 60000=

0000114600
597
SNCN19 CWAO 110454
OOXX
CAP17 11021 99476 70527 ///// 01331
     26/// /0109 11055 29075 30059 90250 333 60000=
CAP17 11031 99476 70527 ///// 01331
     26/// /0109 11055 29076 30059 90300 333 60000=
CAP17 11031 99476 70527 ///// 01331
     26/// /0109 11054 29076 30059 90310 333 60000=
CAP17 11031 99476 70527 ///// 01331
     26/// /0108 11055 29076 30057 90320 333 60000=
CAP17 11031 99476 70527 ///// 01331
     26/// /0108 11054 29076 30060 90330 333 60000=
CAP17 11031 99476 70527 ///// 01331
     26/// /0108 11053 29076 30058 90340 333 60000=
CAP17 11031 99476 70527 ///// 01331
     26/// /0108 11053 29076 30056 90350 333 60000=
CAP17 11041 99476 70527 ///// 01331
     26/// /0108 11052 29077 30053 90400 333 60000=
CAP17 11041 99476 70527 ///// 01331
     26/// /0108 11052 29077 30052 90410 333 60000=
CAP17 11041 99476 70527 ///// 01331
     26/// /0108 11051 29076 30050 90420 333 60000=
CAP17 11041 99476 70527 ///// 01331
     26/// /0110 11051 29076 30048 90430 333 60000=
CAP17 11041 99476 70527 ///// 01331
     26/// /0110 11050 29075 30049 90440 333 60000=

0000029100
598
SXXX32 EUMS 110503 RRH
269375AE
OT12 ID:FI-STAN-07 DT:2014 01 11 04 53
:RED /1 0/732 07737 07746 07752 07756 07762 07770 07777 07785 07795 07806 07814 07807 07813 07809 07815 07812 07823 07818 07808 0781/ 07806 07804 07804 07806 07808 07809 07808 07807 07812
:BAT 13.3V
0000039600
599
SXXX32 EUMS 110503 RRI
16590056
:PRS 1 /1 2680 2679 2688 2693 2699 2702 2705 2701 2707 2699 2700 2692 :RAD 1 /1 6988 6991 6998 7002 7006 7011 7015 7013 7017 7010 7012 7006 7003 6993 6997 6992 6989 6985 :ENC 6 /6 5231 5215 5200 5198 5171 5144 5145 5123 5110 5105 :ENB 6 /6 5227 5210 5197 5196 5170 5142 5142 5122 5108 5103 :SW1 3 /60 0 :SW2 30 /60 0 :BAT 5 /6 13.1 :NAME 16590056
0000045100
600
SXXX32 EUMS 110503 RRK
32D8A2BE
:PRS 1 /1 2038 2043 2042 2048 2040 2045 2043 2047 2043 2051 2049 2042 2046 2048 2041 2041 2037 2054 2042 2052 2043 2049 2039 2049 2050 2048 2046 2054 2042 2044 :RAD 1 /3 7615 7614 7612 7612 7613 7622 7623 7625 7629 7628 7623 7619 7618 7627 7622 7622 7613 7624 7633 7618 :ENC 3 /5 5043 5045 5044 5046 5048 5046 5047 5048 5048 5047 5046 5048 :SW1 3 /60 9 :SW2 33 /60 22 :BAT 14 /15 13.5 :NAME 32D8A2BE /
0000045100
601
SXXX32 EUMS 110503 RRJ
22856700
:PRS 1 /1 3340 3338 3344 3347 3342 3340 3335 3328 3318 3314 3316 3321 3317 3311 3301 3300 3303 3299 3299 3303 3304 3301 3293 3283 3282 3277 3274 3276 3274 3277 :RAD 1 /3 6834 6826 6814 6803 6796 6794 6787 6775 6771 6767 6759 6753 6747 6744 6742 6734 6727 6722 6718 6711 :ENC 3 /5 5040 5016 5003 4998 4980 4970 4961 4946 4945 4932 4920 4912 :SW1 3 /60 0 :SW2 33 /60 23 :BAT 14 /15 13.1 :NAME 22856700 /
0000195100
602
SPUS70 KWBC 101926
SPECI
KALO 101922Z AUTO 14006KT 1SM R12/4000VP6000FT UP BR OVC002 00/M01
     A2963 RMK AO2 P0001 T00001006 TSNO=
KDEQ 101922Z AUTO 18007G15KT 3/4SM +RA BR SCT007 BKN010 OVC024
     14/13 A2973 RMK AO2 P0012 T01390133=
KGEZ 101922Z AUTO 16012KT 4SM BR BKN006 OVC050 05/03 A2997 RMK AO2
     T00500028=
KIML 101922Z AUTO 33018G25KT 3SM -SN OVC020 02/M02 A2961 RMK AO2
     PK WND 33026/1856 P0000=
KLOU 101922Z 14006KT 10SM OVC015 11/08 A3001 RMK AO2=
KMFI 101922Z AUTO 15008KT 3/4SM BR OVC002 M03/M04 A2971 RMK AO2
     I1001 T10281039=
KPIT 101922Z 16005KT 10SM SCT008 BKN023 OVC045 07/04 A3016 RMK
     AO2=
KUUU 101922Z AUTO 18003KT 2SM -RA BR BKN017 OVC022 03/02 A3039 RMK
     AO2 P0000 T00280022=
PAEN 101922Z 00000KT 1/4SM FZFG OVC002 M04/M04 A2943 RMK AO2=
KAVL 101923Z 16005KT 10SM OVC005 09/08 A3016 RMK AO2=
KBKL 101923Z 15008G19KT 6SM BR BKN023 OVC050 04/02 A3008 RMK
     AO2=
KCEC 101923Z AUTO 19011KT 6SM BR BKN006 OVC065 11/09 A3029 RMK AO2
     CIG 003V009 T01060094=
KDAW 101923Z AUTO 19004KT 3SM -SN BR SCT015 BKN026 OVC070 M02/M04
     A3035 RMK AO2 P0000 T10171039=
KDNL 101923Z AUTO VRB06KT 2 1/2SM -RA BR BKN003 BKN010 OVC019
     08/08 A3016 RMK AO2 VIS 1 1/4V5 P0011 T00830078 TSNO=
KDTO 101923Z 22010KT 10SM SCT015 BKN020 BKN075 17/15 A2970 RMK AO2
     RAE1858 P0000=
KIMT 101923Z AUTO 16006KT 3SM BR OVC006 M04/M06 A2976 RMK AO2=
KLFT 101923Z 15006KT 10SM BKN015 BKN020 OVC048 19/16 A2993 RMK
     AO2=
KMCI 101923Z 19009KT 2SM OVC004 05/M01 A2954 RMK AO2 SFC VIS 7
     T00501006=
KMIW 101923Z AUTO 12005KT 1 1/4SM -FZRA BR OVC003 00/00 A2959 RMK
     AO2 UPE1855B11E17FZRAB1855E1856B17SNB1856E11 PRESFR P0000
     I1000 T00000000 TSNO=
KTRL 101923Z AUTO 19011KT 10SM OVC010 18/17 A2974 RMK AO2
     T01780172=
KVIH 101923Z AUTO 18012KT 2 1/2SM RA BR BKN005 OVC030 05/04 A2970
     RMK AO2 P0011 T00500044=

0000009100
603
SPUS31 KWBC 101926
SPECI
KLOU 101922Z 14006KT 10SM OVC015 11/08 A3001=

0000010500
604
SPUS31 KWBC 101926
SPECI
KPIT 101922Z 16005KT 10SM SCT008 BKN023 OVC045 07/04 A3016=

0000010900
605
SPUS41 KWBC 101926
SPECI
KCEF 101918Z 18004KT 5SM BR SCT007 BKN030 OVC070 M01/M01 A3036=

0000041900
606
SAFI34 EFHK 101920
EFET 101920Z AUTO 07002KT 9999 -SHSN SKC M27/M30 Q1013=
EFIV 101920Z AUTO 24002KT 9000 -IC OVC005 M32/M35 Q1016=
EFKE 101920Z AUTO 03014G24KT 5000 -SG BKN038 BKN059 M13/M15 Q1006=
EFKI 101920Z AUTO 05014KT 9999 -SN OVC023 M10/M12 Q0999=
EFKS 101920Z 05008KT 360V100 9999 -SG FEW016 BKN044 M16/M18 Q1005
R12/72//95=
EFKT 101920Z AUTO 02006KT 330V070 CAVOK M18/M20 Q1012=

0000035600
607
SANL31 EHDB 101925
METAR EHAM 101925Z 21013KT 8000 FEW011 SCT015 07/06 Q1014 TEMPO 7000
BKN012=
METAR EHBK 101925Z AUTO 22010KT 9999 FEW012 SCT014 04/03 Q1017 BECMG
SCT015=
METAR EHGG 101925Z AUTO 21007KT 9999 FEW011 04/03 Q1013 NOSIG=
METAR EHRD 101925Z AUTO 20012KT 170V230 8000 FEW009 OVC010 07/05
Q1015 TEMPO 9000 BKN011=

0000054100
608
FTUS41 KWBC 101927 AAA
TAF AMD
KERI 101924Z 1019/1118 18011KT P6SM BKN015 OVC045
      TEMPO 1019/1023 SCT015 OVC045
     FM110500 17015G25KT 4SM -RA BR BKN015 OVC030=
KHPN 101926Z 1019/1118 VRB04KT 5SM BR BKN008 OVC015
      TEMPO 1021/1024 2SM -DZ BR
     FM110000 VRB03KT 1SM BR BKN006 OVC010
      TEMPO 1102/1105 -RA
     FM110500 15003KT 3/4SM -RA BR BKN004 OVC009
     FM110800 15008KT 1/2SM -RA FG OVC003 WS020/19050KT
     FM111400 17011KT 1SM -RA BR OVC004 WS015/19050KT AMD NOT
      SKED=

0000028300
609
FTUS42 KWBC 101927 AAA
TAF AMD
KSSI 101925Z 1019/1118 13010KT P6SM VCSH OVC008
      TEMPO 1020/1024 5SM -RA BR OVC005
     FM110200 14005KT 3SM BR BKN005 OVC010
     FM110600 15005KT 1SM BR BKN003 OVC006
     FM111400 19010G15KT P6SM VCSH BKN010 OVC020=

0000027000
610
FTUS43 KWBC 101927 AAA
TAF AMD
KPIA 101926Z 1019/1118 15010G18KT 2SM -RA BR VCTS OVC004CB
      TEMPO 1020/1022 2SM -TSRA BR
     FM110100 18012G20KT 2SM -RA BR OVC004
     FM110600 24012KT 3SM BR OVC004
     FM111400 26012G18KT P6SM OVC015=

0000073000
611
FTUS31 KWBC 101927 AAA
TAF AMD
KLIT 101924Z 1019/1118 13008KT 4SM -RA BR OVC008 WS020/20045KT
      TEMPO 1019/1022 2SM RA BR OVC004
     FM102200 17008G16KT 4SM -RA BR VCTS BKN008 OVC015CB
      TEMPO 1022/1102 2SM TSRA BR OVC005CB
     FM110200 23012KT 5SM -RA BR OVC015
     FM110600 26010KT P6SM SCT100 BKN250
     FM111500 27010KT P6SM SCT250=
KTEB 101926Z 1019/1118 VRB03KT 3SM BR FEW008 BKN012 OVC025
      TEMPO 1021/1024 2SM -DZ BR
     FM110000 VRB02KT 1SM BR SCT006 OVC012
      TEMPO 1102/1105 -RA BKN006 OVC012
     FM110500 15003KT 3/4SM -RA BR BKN005 OVC008
     FM110800 15007KT 3/4SM -RA BR OVC004 WS020/19050KT
     FM111400 17009KT 1SM -RA BR OVC004 WS015/19050KT=

0000085200
612
FTUS72 KWBC 101927 AAA
TAF AMD
KGNV 101924Z 1019/1118 14008KT P6SM VCSH SCT015 SCT025 BKN040
      TEMPO 1020/1024 BKN025
     FM110200 14002KT 4SM BR BKN010 BKN020
     FM110600 15002KT 1SM BR BKN003 OVC006
     FM111400 19012G18KT P6SM VCSH BKN010 OVC020=
KLIT 101924Z 1019/1118 13008KT 4SM -RA BR OVC008 WS020/20045KT
      TEMPO 1019/1022 2SM RA BR OVC004
     FM102200 17008G16KT 4SM -RA BR VCTS BKN008 OVC015CB
      TEMPO 1022/1102 2SM TSRA BR OVC005CB
     FM110200 23012KT 5SM -RA BR OVC015
     FM110600 26010KT P6SM SCT100 BKN250
     FM111500 27010KT P6SM SCT250=
KSSI 101925Z 1019/1118 13010KT P6SM VCSH OVC008
      TEMPO 1020/1024 5SM -RA BR OVC005
     FM110200 14005KT 3SM BR BKN005 OVC010
     FM110600 15005KT 1SM BR BKN003 OVC006
     FM111400 19010G15KT P6SM VCSH BKN010 OVC020=

00000000