0000191100
633
SZAU01 AMMC 110939
CREX++
T000103 A001 D01021 D06025++
-1927750 14705860 59260 2014 01 11 09 32 3030 11 07 00 01
02470 0178 02465 0175 02463 0175 02463 0178 02458 0176 02458 0179+
-2316110 15079000 59670 2014 01 11 09 32 3003 11 07 00 01
03446 0228 03436 0222 03428 0220 03422 0218 03420 0222 03421 0227+
-3447330 15091170 60420 2014 01 11 09 32 2950 11 07 00 01
00878 -0016 00872 -0020 00870 -0019 00865 -0021 00861 -0023 00856 -0026+
-4105000 14591500 60910 2014 01 11 09 32 2888 11 07 00 01
02987 -0015 03001 -0003 03003 -0003 03012 0005 03013 0004 03013 0002+
-4254640 14793080 61170 2014 01 11 09 32 2895 11 07 00 01
01244 0111 01247 0115 01251 0120 01252 0123 01256 0128 01257 0130+
-3834390 14161360 61410 2014 01 11 09 32 2907 11 07 00 01
00680 0064 00636 0019 00679 0062 00614 -0004 00685 0066 00660 0040+
-3214890 13364170 62000 2014 01 11 09 32 2960 11 07 00 01
01281 0162 01280 0162 01276 0159 01274 0158 01271 0156 01270 0156+
-3387080 12189720 62080 2014 01 11 09 32 2950 11 07 00 01
00919 0053 00921 0054 00960 0091 00934 0064 00927 0056 00937 0065+
-3182560 11573860 62237 2014 01 11 09 32 2973 11 07 00 01
00996 0053 01006 0062 01005 0061 01013 0068 01012 0067 01021 0076+
-2422000 11339750 62385 2014 01 11 09 32 //// 11 07 00 01
01451 -0055 01434 -0073 01448 -0059 01450 -0057 01419 -0089 01396 -0112+
-2181670 11419110 62430 2014 01 11 09 32 //// 11 07 00 01
02145 -0073 02147 -0072 02161 -0060 02146 -0076 02140 -0084 02163 -0062+
-1800080 12221830 62650 2014 01 11 09 32 3043 11 07 00 01
06865 0099 06869 0099 06873 0099 06880 0101 06885 0101 06890 0103+
-1247190 13084580 63230 2014 01 11 09 32 3050 11 07 00 01
04523 0158 04517 0156 04509 0152 04504 0153 04501 0154 04497 0154+
-1386000 13641580 63511 2014 01 11 09 32 3043 11 07 00 01
01860 0162 01860 0162 01863 0164 01865 0165 01866 0166 01864 0163++
7777

0000179100
634
SZPS01 AMMC 110939
CREX++
T000103 A001 D01021 D06025++
-0204190 14737360 56130 2014 01 11 09 32 3027 11 07 00 01
00663 0085 00657 0081 00654 0081 00645 0074 00644 0075 00637 0071+
-0669280 15640860 56363 2014 01 11 09 32 //// 11 07 00 01
00366 -0075 00361 -0080 00358 -0082 00357 -0083 00355 -0084 00359 -0079+
-0942890 15995560 56670 2014 01 11 09 32 3043 11 07 00 01
00570 -0032 00567 -0033 00563 -0036 00562 -0035 00560 -0036 00564 -0031+
-1072080 16580190 57131 2014 01 11 09 32 //// 11 07 00 01
01520 1259 01797 1536 02130 1870 01259 0998 01229 0968 02105 1845+
-1551560 16718860 57210 2014 01 11 09 32 //// 11 07 00 01
00329 -0083 00331 -0081 00328 -0084 00331 -0080 00333 -0078 00330 -0081+
-1775690 16830030 57320 2014 01 11 09 32 3017 11 07 00 01
00385 -0100 00381 -0103 00378 -0105 00375 -0107 00372 -0108 00370 -0109+
-4397330 16861610 65180 2014 01 11 09 32 2887 11 07 00 01
02246 0376 02227 0360 02241 0379 02231 0372 02233 0378 02217 0366+
-2120470 -15978530 65980 2014 01 11 09 32 3012 11 07 00 01
00399 -0018 00392 -0025 00410 -0007 00428 0011 00417 0000 00398 -0019+
-2113810 -17518140 66600 2014 01 11 09 32 //// 11 07 00 01
00634 0101 00637 0105 00632 0099 00636 0103 00643 0110 00634 0101+
-1382670 -17176110 66840 2014 01 11 09 32 3013 11 07 00 01
00488 0050 00498 0060 00497 0057 00508 0067 00512 0070 00506 0063+
-1813250 17842750 67050 2014 01 11 09 32 3030 11 07 00 01
00714 0109 00713 0109 00716 0111 00713 0109 00711 0107 00711 0107+
-1760530 17743810 67070 2014 01 11 09 32 3033 11 07 00 01
00650 0010 00651 0011 00653 0013 00654 0015 00655 0016 ///// ////+
-0850250 17919500 67440 2014 01 11 09 32 3028 11 07 00 01
01580 0010 01586 0015 01582 0009 01585 0011 01588 0012 01596 0018++
7777

0000046700
635
SZPA01 AMMC 110939
CREX++
T000103 A001 D01021 D06025++
0136250 17293000 67590 2014 01 11 09 32 3018 11 07 00 01
01297 0009 01301 0011 01311 0019 01309 0015 01312 0017 01311 0013+
0710610 17137250 67680 2014 01 11 09 32 3013 11 07 00 01
00897 0105 00902 0108 00905 0109 00910 0113 00910 0111 00914 0113+
0698060 15820000 67950 2014 01 11 09 32 3023 11 07 00 01
00569 0032 00566 0029 00567 0030 00569 0032 00569 0031 00566 0028++
7777

0000034700
636
SZIO01 AMMC 110939
CREX++
T000103 A001 D01021 D06025++
-1211670 09689190 46280 2014 01 11 09 32 3022 11 07 00 01
01146 0022 01141 0018 01139 0018 01140 0022 01131 0014 01133 0018+
-1042940 10566940 46290 2014 01 11 09 32 //// 11 07 00 01
01337 -0070 01388 -0018 01352 -0053 01381 -0024 01347 -0057 01394 -0009++
7777

0000009200
637
SAIN90 VOMM 110940
METAR VOMM 110940Z 09007KT 8000 FEW020 29/19 Q1012 NOSIG=
0000046900
638
SIIN24 DEMS 110900 RRA
AAXX 11094
43198 32496 31404 10300 20090 30281 40083 82501
  333 56509 58002 82615=
43201 32497 42303 10306 20136 39378 40077 84800
  333 58001 82615 83820=
43226 32997 03204 10306 20189 30088 40117
  333 58006=
43233 32497 31104 10302 20126 39298 40083 83400
  333 58003=
43284 32496 22710 10312 20211 39986 40099 82500
  333 58002 82620=
43295 32997 40903 10282 20128 39102 48524 80001
  333 59009 84075=
0000023200
639
SIIN44 DEMS 110900 RRA
AAXX 11094
43121 32597 32005 10302 20196 39600 40101 83500
  333 59001=
43225 32997 03202 10310 20205 30117 40122
  333 58010=
43226 32997 03204 10306 20189 30088 40117
  333 58006=
0000091800
640
SAAU31 AMMC 110400
METAR YBAS 110400Z 11013KT 9999 PO NSC 38/06 Q1013=
METAR YBBN 110400Z 11009KT 9999 FEW035 28/16 Q1016
     NOSIG=
METAR YBCS 110400Z 16011KT 7000 -SHRA SCT020 BKN050 25/24 Q1010=
METAR YBTL 110400Z AUTO 08019KT 9999 // NCD 31/21 Q1010=
METAR YMML 110400Z 14009KT 9999 FEW022 21/12 Q1019
     NOSIG=
METAR YPAD 110400Z 22015KT CAVOK 26/14 Q1018
     NOSIG=
METAR YPCC 110400Z AUTO 14012KT 9999 // SCT027 OVC037 28/22 Q1012=
METAR YPDN 110400Z 29009KT 9999 FEW038 BKN350 31/24 Q1007
     NOSIG=
METAR YPKU 110400Z AUTO 17006KT 9999 // NCD 36/22 Q1007=
METAR YPLM 110400Z AUTO 06008KT 9999 // NCD 34/22 Q1009=
METAR YPPH 110400Z 10016KT CAVOK 39/08 Q1013
     NOSIG=
METAR YPTN 110400Z AUTO 11009KT 9999 // NCD 33/22 Q1007=
METAR YPXM 110400Z AUTO 15006KT 9999 // BKN020 OVC029 27/22 Q1012=
METAR YSSY 110400Z 04015KT CAVOK 30/16 Q1014
     NOSIG=
0000016100
641
SAAU31 AMMC 110400 CCA
METAR YBCS 110400Z 16011KT 7000 -SHRA SCT020 BKN050 25/24 Q1010
     INTER 0400/0700 VRB15G25KT 4000 SHRA FEW015 BKN020=
0000034700
642
SNVD17 KWNB 110400 RRF
BBXX
46076 11041 99595 71480 46/// /2704 10027 49915 58010 90350 22200
00060 11004 20401 3//// 41004 70021 333 91205 555 11040 22042
30258 42807 60349 273038 270036 275043 276041 270046 271053 82806
90258=
52202 11041 99137 11448 46/// ///// 1//// 90400 22200 00283 10704
20704 304// 41101 70022=
0000046600
643
SNVD22 KWNB 110400 RRG
BBXX
46041 11041 99473 71247 46/// ///14 1//// 40028 56053 90350 22200
00078 11508 20705 3//// 41506 70039 333 91218 555 11155 22165=
46089 11041 99459 71258 46/// /1810 10104 40052 58036 90350 22200
00091 11508 20705 326// 41506 70040 333 91213 555 11109 22119
30254 41816 60349 181101 178098 179098 178100 181097 181101=
46232 11041 99325 71174 46/// ///// 1//// 90403 22200 00162 11303
20902 328// 41302 70015=
0000023200
644
SNVE15 KWNB 110400 RRB
BBXX
51000 11041 99331 71522 46/// /0108 10156 40298 53021 90350 22200
11107 20603 3//// 41106 70034 333 91211 555 11089 22093 30306
40211 60349 011085 013085 022082 019082 023083 014085=
0000013800
645
SNVD22 KWNB 110400 RRI
BBXX
46237 11041 99378 71226 46/// ///// 1//// 90401 22200 00110 11304
21002 328// 41303 70020=
0000032800
646
SNVD22 KWNB 110400 RRH
BBXX
46244 11041 99409 71244 46/// ///// 1//// 90351 22200 00109 11408
21004 331// 41407 70041=
46240 11041 99366 71219 46/// ///// 1//// 90351 22200 00128 11203
21001 335// 41202 70013=
46236 11041 99368 71219 46/// ///// 1//// 90352 22200 00124 11304
21002 328// 41303 70018=
0000066200
647
FTZA31 FAPR 110300 RRA
TAF FACT 110400Z 1106/1212 17017KT 9999 FEW035
         TX26/1112ZTN15/1204Z=
TAF FALE 110400Z 1106/1212 21012KT 9999 BKN030
    BECMG 1112/1114 14015KT 
    PROB30 TEMPO 1115/1121 5000 RA BKN015
    BECMG 1118/1120 35005KT BECMG 1206/1208 04020KT SCT030 
    TX30/1212ZTN21/1204Z=
TAF FAOR 110400Z 1106/1212 06012KT CAVOK
         BECMG 1108/1110 33011KT SCT035
         PROB30 TEMPO 1112/1118 5000 TSRA FEW030CB
         BECMG 1117/1119 03013KT CAVOK
         BECMG 1122/1124 BKN008
         TEMPO 1201/1206 4000 BR BKN005
         BECMG 1207/1209 33010KT SCT030
         TX29/1112ZTN16/1203Z=
0000007900
648
SASY31 OSDI 110406 RRA
OSLK 110406Z 06004KT CAVOK 05/M02 Q1022=
0000048800
649
SAAL40 DAMM 110400
METAR DAAG 110400Z 00000KT 9999 FEW030 BKN100 10/08 Q1016=
METAR DAAT 110400Z 04002KT CAVOK 11/M05 Q1022=
METAR DABB 110400Z 20004KT CAVOK 07/06 Q1016=
METAR DABC 110400Z  20006KT CAVOK 04/00 Q1019=
METAR DABS 110400Z 00000KT CAVOK 02/00 Q1021=
METAR DAON 110400Z 24006KT 9999 FEW030 BKN100 15/04 Q1016=
METAR DAOO 110400Z 08002KT 9999 FEW026 BKN100 12/09 Q1016 RERA=
METAR DAUH 110400Z 00000KT CAVOK 09/06 Q1020=
METAR DAUZ 110400Z NIL=
0000009600
650
SACN45 CWAO 110400
METAR CYHI 110400Z 30009KT 10SM SKC M35/M36 A2933 RMK SLP938=
0000015700
651
SSVX13 LFPW 110400
ZZYY 44724 11014 0400/ 756305 021663 6113/ 11119 40056 52010 22219
 00103 444 20130 11014 0000/ 50101 80130 80019 9/015=
0000015700
652
SSVX13 LFPW 110400
ZZYY 64611 11014 0400/ 760966 022851 6113/ 11119 49982 52007 22219
 00084 444 20130 11014 0300/ 50101 80142 80003 9/015=
00000000