0000027800
313
SAIE31 EIDB 102000
METAR EIDW 102000Z 27008KT 9999 FEW025 BKN200 04/03 Q1009 NOSIG=
METAR EINN 102000Z 18001KT 9999 FEW009 SCT020CB BKN037 04/04 Q1011
     NOSIG=
METAR EICK 102000Z 30007KT 9999 FEW017 SCT060 04/03 Q1011 NOSIG=
METAR EIKN 102000Z NIL=

0000014500
314
SACN62 CYEG 102000
METAR CYEG 102000Z 27009KT 15SM FEW032 FEW076 BKN110 BKN230 M01/M03
 A2946 RMK SC1AC2AC4CI1 SC TR SLP015=

0000010700
315
SACN62 CYGK 102000
METAR CYGK 102000Z 18006KT 4SM BR OVC017 00/M01 A3022 RMK ST8 SLP237=

0000010600
316
SACN61 CYDN 102000
METAR CYDN 102000Z AUTO 29005KT 9SM OVC015 M08/M10 A2939 RMK SLP976=

0000013100
317
SACN61 CYFC 102000
METAR CYFC 102000Z AUTO 23010KT 9SM CLR M02/M10 A3032 RMK MAX WND
 22022KT AT 1903Z SLP269=

0000077100
318
FTIL31 BICC 102000
TAF BIKF 102003Z 1021/1121 27020G30KT 5000 SNRA FEW008 BKN018 BKN030
         BECMG 1100/1103 25015KT 9999 SHSN BKN025CB
         BECMG 1109/1112 18010KT 9999 NSW FEW020 BKN030=
TAF BIRK 102003Z 1021/1121 27017G27KT 5000 RASN FEW010 BKN017 BKN032
         BECMG 1103/1106 25012KT 9999 SHSN SCT025CB
         BECMG 1109/1112 VRB02KT 9999 NSW FEW020 BKN030=
TAF BIAR 102003Z 1021/1121 21012KT 9999 BKN035
         TEMPO 1021/1109 16020G35KT
         PROB40 1021/1112 5000 SHSN BKN015
         BECMG 1112/1115 220008KT 9999 FEW025 SCT035=
TAF BIEG 102003Z 1021/1121 09030G40KT 9999 RA FEW010 BKN018 OVC024
         TEMPO 1021/1109 3000 SNRA BKN008 OVC012
         BECMG 1111/1113 10012KT 7000 SHSN BKN015 OVC030=

0000013400
319
SACN61 CYDQ 102000
METAR CYDQ 102000Z AUTO 25015G20KT 9SM CLR M01/M08 A2947 RMK MAX WND
 25017KT AT 1939Z SLP018=

0000008900
320
SAJM31 MKJS 102000
METAR MKJS 102000Z 08014KT 9999 FEW022 29/25 Q1014=

0000011900
321
FCSN32 ESWI 101700 AAA
TAF AMD ESOK 102002Z 1020/1023 08004KT 9999 BKN016 PROB40 1020/1022
BKN013=

0000011700
322
SABZ24 SBUG 102000
METAR SBUG 102000Z 13009KT 9999 VCTSSH BKN015
FEW035CB BKN080 23/21 Q
1008=

0000010000
323
SPUS41 KWBC 102003
SPECI
KCAE 101959Z 31005KT 2 1/2SM RA BR OVC005 09/08 A3017=

0000010400
324
SPAU32 AMMC 102003
SPECI YCIN 102000Z AUTO 01004KT //// // BKN013 OVC018 27/25 Q1008=

0000008900
325
SADO31 TDPD 102000
METAR TDCF 102000Z 17005KT 9999 SCT019 28/17 Q1013=

0000012700
326
FCQB31 LQBK 102000
TAF LQBK 102000Z 1021/1106 VRB02KT 3000 BR BKN040 PROB40 TEMPO
1023/1106 0200 FG VV002=

0000100100
327
SAPR76 SPIM 102000
METAR SPCL 102000Z 35006KT 9999 BKN025 SCT100 30/24 Q1007 RMK 
BIRD HAZARD RWY 02/20 PP000=
METAR SPGM 102000Z /////KT 9999 SCT020 OVC090 24/21 Q1011
RMK PP000=
METAR SPHO 102000Z 31007KT 9999 FEW046TCU BKN100 22/13 Q1018 RMK
PP000=
METAR SPHY 102000Z NIL=
METAR SPJI 102000Z 00000KT 9999 BKN030 32/25 Q1014 RMK PP000=
METAR SPJL 102000Z 06005KT 9999 FEW010 BKN080 13/05 Q1032 RMK PP000=
METAR SPJR 102000Z 36007KT 9999 VCSH SCT023 BKN037 19/10 Q1023 RMK
PP000=
METAR SPLO 102000Z 17008KT CAVOK 26/20 Q1008 RMK PP000=
METAR SPME 102000Z 30006KT 9999 FEW022 28/24 Q1008
RMK BIRD HAZARD RWY 32/14 PP000=
METAR SPMS 102000Z /////KT 4000 RA BKN013 BKN080 28/24 Q1009 RMK
BIRD HAZARD 09/27 PP060=
METAR SPST 102000Z 34008KT 9999 SCT020 BKN100 31/20 Q1006 
RMK BIRD HAZARD RWY 17/35 PP000=
METAR SPTU 102000Z 35003KT 9999 SCT010 32/25 Q1006 RMK BIRD HAZARD
RWY 01/19 PP000=
METAR SPYL 102000Z 21012KT CAVOK 29/22 Q1007 RMK PP000=

0000026800
328
SAEQ01 SEQU 102000
METAR SEQM 102000Z NIL=
METAR SEGU 102000Z 22004KT 9999 BKN040 OVC100 31/20 Q1007 RMK 
A2975 NOSIG=
METAR SEMT 102000Z 22006KT 9999 BKN020 SCT100 22/22 Q1008=
METAR SELT 102000Z 34006KT 9999 VCSH BKN030 BKN100 16/10 Q1024=

0000011200
329
SACN61 CYBC 102000
METAR CYBC 102000Z AUTO 26010G16KT 9SM OVC140 M06/M11 A3014 RMK
 SLP209=

0000010600
330
SACN61 CYZE 102000
METAR CYZE 102000Z AUTO 19011KT 7SM OVC011 M01/M02 A2997 RMK SLP160=

0000050700
331
SACU31 MUHA 102000
METAR
MUHA 101955Z 15009KT 120V180 9000 SCT030 29/18 Q1016=
MUVR 101951Z VRB06KT 9000 SCT020 29/20 Q1017=
MUSC 101950Z 10009KT 070V130 9000 BKN020 29/21 Q1017=
MUCC 101950Z 08012KT 9000 SCT020 28/21 Q1017=
MUCM 101950Z 08015KT 9999 FEW020 29/16 Q1017=
MUHG 101950Z 09012KT 060V130 9999 FEW020 30/16 Q1015=
MUCU 101950Z 13017KT 9999 FEW020 29/20 Q1015=
MUCL 101951Z 09013KT 9999 FEW020 28/23 Q1016=
MUCF 101950Z 23008KT 190V260 9999 SCT015 30/22 Q1016=

0000044000
332
FCTU31 LTAA 102000
TAF LTAR 101940Z 1021/1106 VRB02KT CAVOK TEMPO 1103/1106 3500 BR
 SCT010=
TAF LTBY 101940Z 1021/1106 VRB02KT 9999 OVC006=
TAF LTCA 101940Z 1021/1106 VRB02KT CAVOK=
TAF LTCD 101940Z 1021/1106 VRB02KT CAVOK=
TAF LTCF 101940Z 1021/1106 VRB02KT CAVOK=
TAF LTCI 101940Z 1021/1106 VRB02KT 7000 SCT040 BKN100=
TAF LTDA 101940Z 1021/1106 VRB02KT CAVOK=
TAF LTFH 101940Z 1021/1106 VRB02KT CAVOK=

00000000