0000082300
753
FTIS32 LLBD 102300
TAF LLHA 102303Z 1100/1200 14006KT 9999 SCT030
     TEMPO 1100/1108 9000 -RA BKN020
     BECMG 1108/1110 28008KT SCT035
     BECMG 1116/1118 14006KT BKN025
     TX17/1112Z TN11/1103Z=
TAF LLSD 102303Z 1100/1200 16004KT 9999 SCT030
     TEMPO 1100/1108 9000 -RA BKN020
     BECMG 1108/1110 28010KT SCT035
     BECMG 1116/1118 16004KT BKN025
     TX19/1112Z TN10/1103Z=
TAF LLIB 102303Z 1100/1200 VRB05KT 9999 BKN030
     TEMPO 1100/1106 5000 -RA SCT015 BKN025
     BECMG 1108/1110 32010KT SCT030
     BECMG 1118/1120 VRB04KT 6000 BKN020
     TX14/1112Z TN08/1103Z=
TAF LLHZ 102302Z 1100/1200 16004KT 9999 SCT030
     TEMPO 1100/1108 9000 -RA BKN020
     BECMG 1108/1110 28010KT SCT035
     BECMG 1116/1118 16004KT BKN025
     TX18/1112Z TN10/1103Z=

0000015800
754
FTPF21 NTAA 102300
TAF NTAA 102300Z 1100/1206 05012KT 9999 FEW020 SCT110 PROB30 TEMPO
1100/1103 5000 SHRA BKN015 BECMG 1104/1106 VRB02KT=

0000010300
755
SAAG41 SABE 102300
METAR SABE 102300Z  32008KT 9999  SCT035 FEW045CB
28/21 Q1008 =

0000042500
756
SAJP31 RJTD 102300
METAR RJAA 102300Z 32004KT 9999 FEW025 M03/M06 Q1024 NOSIG=
METAR RJBB 102300Z 32006KT 290V360 9999 FEW025 04/M03 Q1029 BECMG
           30010KT=
METAR RJTT 102300Z 03008KT 9999 FEW030 02/M06 Q1024 NOSIG=
METAR RJOO 102300Z 33008KT 9999 FEW025 01/M06 Q1029=
METAR ROAH 102300Z 05009KT 9999 FEW030 BKN080 15/06 Q1027=
METAR RJGG 102300Z 27015KT 9999 FEW020 04/M02 Q1027 NOSIG=

0000010600
757
SACN61 CYXS 102300
METAR CYXS 102300Z AUTO 18009KT 9SM FEW075 M02/M04 A2968 RMK SLP084=

0000078200
758
SAJP32 RJTD 102300
METAR RJFF 102300Z 16009KT 9999 VCSH FEW035 SCT040 03/M03 Q1031=
METAR RJCC 102300Z 22006KT 9999 VCSH FEW015 SCT050 M10/M13 Q1018=
METAR RJFK 102300Z 29004KT 9999 FEW035 BKN050 02/M06 Q1030=
METAR RJSN 102300Z 32014KT 9999 VCSH FEW015 SCT025 BKN035 01/M02
           Q1025=
METAR RJFT 102300Z 08003KT 050V120 9999 FEW050 BKN060 01/M04 Q1030=
METAR RJFU 102300Z 11005KT 080V150 9999 FEW040 SCT050 BKN070 04/01
           Q1031=
METAR RJCH 102300Z 30007KT 3200 -SHSN FEW004 SCT015 BKN020 M06/M08
           Q1020=
METAR RJSS 102300Z 23008KT 9999 FEW020 M01/M07 Q1023=
METAR RJOA 102300Z 32005KT 300V020 9999 -SHSN FEW020 SCT035 BKN045
           00/M05 Q1028=
METAR RJOB 102300Z 30005KT 9999 FEW020 SCT050 M00/M04 Q1028=

0000017700
759
SACN62 CYXP 102300
METAR CYXP 102300Z 12004KT 15SM -SN FEW090 BKN210 M18/M23 A2932 RMK
 AS1CI4 -17.1/-19.5/TR/5 ONE LOOSE LAST STFD OBS/NEXT 111500Z SLP931=

0000017100
760
SAJP32 RJTD 102300 RRA
METAR RJOT 102300Z 22006KT 9999 FEW020 BKN050 02/M04 Q1029=
METAR RJFO 102300Z 24003KT 210V280 9999 FEW035 BKN060 01/M04 Q1030=

0000013700
761
SACN62 CYXT 102300
METAR CYXT 102300Z 20006KT 10SM FEW005 BKN009 BKN019 OVC060 02/01
 A2966 RMK SF1SF4SC2SC1 SLP054=

0000011600
762
SACN62 CYXU 102300
METAR CYXU 102300Z 15009KT 1 1/2SM BR OVC003 01/01 A3001 RMK FG1ST7
 SLP175=

0000013500
763
SACN62 CYYC 102300
METAR CYYC 102300Z 12004KT 40SM FEW023 FEW120 BKN220 M03/M09 A2955
 RMK CU1AC1CI6 CU TR SLP055=

0000012500
764
SACN62 CYYB 102300
METAR CYYB 102300Z 15007KT 8SM -SN OVC007 M04/M05 A2998 RMK ST8 PCPN
 VRY LGT SLP177=

0000010600
765
SACN62 CYYE 102300
METAR CYYE 102300Z 35003KT 30SM BKN040 M15/M18 A2951 RMK SC7 SLP029=

0000011900
766
SACN62 CYYD 102300
METAR CYYD 102300Z 00000KT 25SM FEW065 OVC210 M04/M04 A2962 RMK
 SC2CI6 SLP053=

0000016900
767
SACY31 LCLK 102300
METAR LCLK 102300Z 33005KT CAVOK 09/04 Q1021 NOSIG=
METAR LCPH 102300Z 02007KT 9999 FEW020 11/06 Q1022=
METAR LCNC 102300Z NIL=

0000171200
768
SAUS71 KWBC 102300
METAR
KABE 102251Z 05003KT 5SM BR OVC007 01/M02 A3031=
KACK 102253Z 15008KT 10SM BKN021 OVC026 04/02 A3039=
KACY 102254Z 00000KT 1/2SM -RA FG VV005 05/05 A3032=
KAGC 102253Z 13005KT 10SM OVC012 08/06 A3008=
KAGS 102253Z 00000KT 2SM BR OVC008 09/09 A3013=
KAKR 102254Z AUTO 14006KT 1 3/4SM BR OVC002 04/03 A3003=
KALB 102251Z 17007KT 10SM BKN047 OVC070 01/M03 A3030=
KAND 102256Z AUTO 05003KT 2SM BR OVC004 08/08 A3014=
KAOO 102253Z AUTO 06003KT 6SM BR CLR M01/M02 A3020=
KAPG NIL=
KART 102256Z AUTO 14003KT 10SM OVC021 02/M01 A3017=
KAVL 102254Z VRB04KT 1/2SM FG OVC003 08/07 A3013=
KAVP 102254Z 19005KT 5SM BR SCT029 M01/M02 A3026=
KBAF 102253Z 00000KT 5SM BR FEW017 OVC080 M01/M03 A3034=
KBDL 102251Z 15003KT 4SM BR BKN021 OVC080 00/M02 A3034=
KBDR 102252Z 36003KT 1 1/2SM BR OVC003 01/01 A3036=
KBED 102256Z 22006KT 7SM OVC012 02/00 A3034=
KBFD 102253Z AUTO 15006KT 1/2SM FG VV002 01/01 A3011=
KBGM 102253Z 16006KT 9SM OVC008 01/M02 A3019=
KBGR 102253Z 00000KT 10SM OVC075 M04/M09 A3034=
KBKL 102253Z 16014KT 7SM BKN007 OVC060 05/03 A3001=
KBKW 102251Z AUTO 16012G20KT 10SM BKN006 07/06 A3007=
KBOS 102254Z 19004KT 5SM BR BKN012 OVC021 02/00 A3036=
KBTV 102254Z 19010KT 10SM FEW038 OVC050 00/M04 A3026=
KBUF 102254Z 18007KT 8SM BKN019 BKN025 OVC047 03/02 A3009=
KBVY 102253Z 18003KT 5SM BR BKN016 01/M01 A3035=
KBWI 102254Z 00000KT 3/4SM R10/4000V5500FT -RA BR OVC003 02/01
     A3029=
KCAE 102256Z 30006KT 3SM -RA BR BKN005 OVC017 09/09 A3014=
KCAK 102251Z 17006KT 1/8SM FG VV004 05/05 A3004=
KCAR 102254Z AUTO 20003KT 10SM FEW120 M09/M17 A3022=
KCEF 102258Z 00000KT 8SM SCT006 BKN018 OVC080 M01/M02 A3033=

0000166200
769
SAUS71 KWBC 102300 RRA
METAR
KCHO 102253Z 03003KT 1 1/2SM -RA BR BKN003 OVC009 02/01 A3026=
KCHS 102256Z 16006KT 10SM FEW015 SCT035 BKN250 18/16 A3013=
KCKB 102253Z 00000KT 10SM CLR 06/05 A3006=
KCLE 102251Z 16012KT 6SM BR BKN006 BKN060 05/03 A3003=
KCLT 102252Z 36006KT 8SM -RA OVC005 06/06 A3017=
KCMH 102251Z 12008KT 9SM FEW007 OVC130 07/04 A2999=
KCRW 102254Z 10003KT 10SM FEW075 BKN180 BKN300 11/08 A3002=
KCVG 102252Z 15012KT 10SM OVC012 09/08 A2992=
KDAN 102253Z AUTO 08004KT 10SM BKN003 OVC011 04/03 A3023=
KDAY 102256Z 15009KT 1/4SM R06L/5000VP6000FT FG VV002 05/04
     A2992=
KDCA 102252Z 02003KT 1 1/2SM -RA BR OVC006 04/02 A3031=
KDUJ 102256Z AUTO 12008KT 1 3/4SM BR OVC002 03/01 A3011=
KECG 102254Z 13007KT 10SM -RA BKN100 OVC110 14/11 A3028=
KEKN 102251Z AUTO 17004KT 10SM CLR 10/06 A3010=
KELM 102253Z 00000KT 8SM BKN015 02/M01 A3019=
KERI 102251Z 17012G18KT 10SM SCT010 BKN055 05/02 A3005=
KEWB 102253Z 00000KT 2SM BR OVC003 04/04 A3036=
KEWN 102254Z 12004KT 10SM FEW029 OVC110 18/14 A3024=
KEWR 102251Z 03003KT 1SM R04R/P6000FT -DZ BR OVC004 01/01
     A3034=
KFAY 102253Z AUTO 36006KT 2 1/2SM -RA BR SCT030 BKN042 OVC055
     13/12 A3017=
KFLO 102253Z 12005KT 7SM -RA BKN010 OVC018 18/17 A3013=
KFRG 102253Z 00000KT 1 1/4SM BR OVC012 02/02 A3035=
KFVE 102253Z AUTO 19008KT 10SM SCT120 M08/M15 A3017=
KGFL 102253Z AUTO 00000KT 6SM BR OVC032 M02/M04 A3030=
KGON 102256Z 00000KT 1SM R05/P6000FT BR OVC006 02/02 A3036=
KGSO 102254Z 02007KT 5SM BR OVC002 04/03 A3019=
KGSP 102253Z 02005KT 1 1/4SM BR OVC004 08/08 A3013=
KHFD 102253Z 00000KT 4SM BR OVC010 02/00 A3036=

0000168400
770
SAUS71 KWBC 102300 RRB
METAR
KHKY 102253Z AUTO 06004KT 1 3/4SM BR OVC003 07/06 A3017=
KHPN 102256Z 00000KT 1SM R16/P6000FT -DZ BR VV003 00/M01 A3032=
KHTS 102251Z 08004KT 10SM CLR 08/07 A3000=
KHVN 102253Z 00000KT 1 3/4SM BR OVC006 02/01 A3036=
KHYA 102256Z 19008KT 10SM OVC013 03/02 A3036=
KIAD 102252Z 05003KT 1SM -RA BR OVC003 02/01 A3029=
KIAG NIL=
KILG 102251Z AUTO 06006KT 1 1/4SM -RA BR BKN003 OVC007 03/02
     A3032=
KILM 102253Z AUTO 12007KT 10SM SCT027 SCT034 BKN044 20/16
     A3019=
KINT 102254Z 03004KT 6SM BR OVC003 04/03 A3020=
KIPT 102254Z 08005KT 7SM OVC016 01/M02 A3026=
KISP 102256Z 00000KT 1SM R06/P6000FT -DZ BR BKN003 OVC007 03/02
     A3034=
KJFK 102251Z 05004KT 1SM R04R/4000V4500FT -RA BR BKN006 OVC011
     03/02 A3035=
KJST 102254Z AUTO 15008KT 10SM CLR 03/01 A3012=
KLBE 102250Z VRB06KT 15SM SCT040 BKN130 07/06 A3011=
KLCK 102255Z AUTO 14004KT 10SM SCT065 SCT080 SCT120 07/05
     A2998=
KLEB 102253Z 00000KT 10SM FEW032 BKN042 M03/M06 A3029=
KLGA 102251Z 04004KT 1 1/2SM -DZ BR OVC007 01/M01 A3035=
KLUK 102253Z 16008KT 10SM SCT075 OVC120 09/07 A2995=
KLWM 102254Z 00000KT 5SM BR OVC016 M01/M03 A3036=
KLYH 102254Z 01003KT 2SM -RA BR BKN005 BKN008 OVC014 02/02
     A3024=
KMDT 102256Z 00000KT 2 1/2SM HZ OVC006 01/M02 A3030=
KMFD 102252Z 15012KT 1/2SM FG VV002 03/03 A2999=
KMGW 102253Z 00000KT 10SM CLR 08/06 A3008=
KMHT 102253Z 18004KT 7SM FEW075 SCT090 M01/M03 A3032=
KMIV 102254Z AUTO 00000KT 3/4SM -RA BR VV004 04/04 A3031=
KMMU NIL=
KMRB 102253Z 07006KT 3SM BR OVC005 02/00 A3026=
KMSS 102253Z AUTO 07006KT 10SM OVC020 M03/M06 A3023=
KMTN NIL=
KMYR NIL=

0000010600
771
SAUS71 KWBC 102300 RRD
METAR
KZZV 102253Z AUTO 13005KT 8SM BKN013 OVC023 07/05 A3003=

0000122500
772
SAAK31 KWBC 102300
METAR
PABR 102253Z 31011KT 10SM SCT007 SCT120 M25/M28 A2990=
PACD 102253Z 15013KT 10SM FEW040 SCT170 03/M01 A2932=
PAED 102258Z 25004KT 5SM -SN OVC003 M04/M04 A2940=
PAEI 102255Z 00000KT 10SM SCT080 M22/M25 A2957=
PAEN 102253Z 01003KT 10SM OVC006 M03/M03 A2942=
PAFA 102253Z 00000KT 10SM FEW080 M24/M28 A2958=
PAFR NIL=
PAFS 102256Z AUTO 05007KT 10SM OVC025 M14/M18 A2956=
PAFY NIL=
PAJN 102253Z 11009KT 7SM -RA SCT013 BKN034 BKN060 OVC160 02/00
     A2949=
PAKN 102254Z 36004KT 10SM FEW004 BKN025 M02/M02 A2944=
PAKT 102253Z VRB04KT 9SM -RA BKN015 BKN044 OVC055 04/02 A2960=
PANC 102253Z 34004KT 6SM -SN BR SCT005 OVC013 M03/M04 A2940=
PAOM 102253Z 04009KT 10SM SCT100 SCT200 M11/M18 A2966=
PAOR 102253Z 33003KT 4SM -SN BKN037 BKN070 M16/M18 A2938=
PAOT 102253Z 03004KT 10SM CLR M18/M24 A2979=
PARY 102256Z AUTO 00000KT 10SM CLR M22/M25 A2960=
PASC 102253Z 25013KT 4SM -SN BR FEW017 OVC030 M29/M33 A2987=
PASG NIL=
PASI 102253Z 11006KT 10SM BKN024 OVC046 02/01 A2951=
PATQ 102256Z AUTO 31007KT 3/4SM -SN OVC004 M27/M30 A2994=
PAVD 102256Z 10SM FEW015 FEW090 BKN100 M03/M06 A2937=
PAWG 102256Z 00000KT 10SM BKN040 03/M01 A2959=
PFYU NIL=

00000000