0000010800
773
SACN42 CWAO 110200
METAR CYUA 110200Z AUTO 30023G29KT 3/4SM -SN CLR M24/ A2975 RMK
SLP083=
0000010300
774
SACN51 CWAO 110200
METAR CWCL 110200Z AUTO 18003KT 6SM BKN002 M03/M07 A2967 RMK SLP092=
0000011900
775
SACN47 CWAO 110200
METAR CYWA 110200Z AUTO 13004KT 1/2SM OVC001 M03/M04 A3007 RMK ICG
PAST HR SLP194=
0000010300
776
SACN52 CWAO 110200
METAR CWEU 110200Z 01008KT 15SM BKN100 M24/M29 A2919 RMK AC2 SLP886=
0000011800
777
SACN46 CWAO 110200
METAR CYRB 110200Z 26008KT 4SM -SN SCT037 OVC060 M30/M33 A2909 RMK
SC2SC4 SLP863=
0000010300
778
SACN43 CWAO 110200
METAR CYXD 110200Z AUTO 26006KT 9SM SCT068 M03/M12 A2959 RMK SLP059=
0000010300
779
SACN43 CWAO 110200
METAR CWHN 110200Z AUTO 29011KT 9SM OVC009 M07/M08 A2945 RMK SLP014=
0000011400
780
SACN31 CWAO 110200
METAR CYQG 110200Z 16005KT 5/8SM -RA BR OVC002 03/03 A2985 RMK FG5SF3
SLP114=
0000010400
781
SACN45 CWAO 110200
METAR CYCO 110200Z 26016G22KT 10SM DRSN SKC M28/M35 A2949 RMK SLP990=
0000012800
782
SACN46 CWAO 110200
METAR CYLD 110200Z 17004KT 13SM OVC006 M03/M04 A2973 RMK ST8 LAST
OBS/NEXT 11 1100Z SLP097=
0000011300
783
SACN43 CWAO 110200
METAR CYGX 110200Z 07013KT 3SM -SN DRSN OVC035 M22/M25 A2960 RMK SC8
SLP040=
0000011100
784
SACN45 CWAO 110200
METAR CYHY 110200Z 25002KT 15SM FEW230 M25/M30 A2963 RMK CI0 FROIN
SLP057=
0000009200
785
SACN51 CWAO 110200
METAR CWYK 110200Z AUTO 16007G16KT M20/ A2917 RMK SLP965=
0000009200
786
SACN52 CWAO 110200
METAR CWTU 110200Z AUTO 26027G43KT M16/ A2940 RMK SLP024=
0000008700
787
SACN51 CWAO 110200
METAR CWVH 110200Z AUTO ///// M27/ A2958 RMK SLP057=
0000009200
788
SACN51 CWAO 110200
METAR CWKW 110200Z AUTO 25032G38KT M22/ A2923 RMK SLP962=
0000010700
789
SACN51 CWAO 110200
METAR CZCP 110200Z AUTO 29022KT 1 5/8SM -SN CLR M33/ A2944 RMK
SLP984=
0000011500
790
SACN44 CWAO 110200
METAR CYOD 110200Z 26006KT 15SM SCT018 BKN080 M08/M09 A2952 RMK
SC3AC1 SLP037=
0000008900
791
SACN52 CWAO 110200
METAR CWXR 110200Z AUTO 29021KT M30/ A2938 RMK SLP965=
0000008900
792
SACN52 CWAO 110200
METAR CWKP 110200Z AUTO 25034KT M34/ A2921 RMK SLP948=
00000000