0000040500
333
SAMX31 KWBC 101945 RRD
METAR
MMCZ 101941Z 12005KT 8SM BKN015TCU 25/22 A2997 RMK 8/200 SC=
MMGL 101946Z 00000KT 10SM BKN080 23/02 A3011 RMK 8/030 CI=
MMMD 101943Z 12012KT 7SM BKN025TCU 30/19 A2991 RMK 8/200=
MMPR 101946Z 19005KT 15SM SKC 26/16 A2993 RMK AC/SSW=
MMTP 101943Z 24010KT 10SM FEW020 30/21 A2984 RMK 8/100=
MMUN 101941Z 14012KT 7SM BKN018TCU 28/23 A2997 RMK 8/200=

0000047500
334
FTUS73 KWBC 102000 AAA
TAF AMD
KAXN 101958Z 1020/1118 17012KT 1/2SM FZFG OVC002
     FM102100 18009KT 2SM BR BKN006 OVC015
     FM102300 20006KT 5SM BR SCT012 BKN100
     FM110300 27006KT P6SM SCT200
     FM111000 31010KT P6SM SCT025 BKN040
     FM111600 30010KT P6SM SCT250=
KSUX 101959Z 1020/1118 17011KT 1 1/2SM BR OVC003
     FM102130 29008KT 4SM BR BKN015 BKN080
     FM110100 30009KT P6SM SKC
     FM111600 31015G20KT P6SM SCT050=

0000028100
335
FTUS74 KWBC 102000 AAA
TAF AMD
KALW 101956Z 1020/1118 21014KT P6SM FEW050 BKN100
     FM102100 23016G24KT P6SM -RA OVC050
     FM110000 21010KT 5SM -RA BR OVC020
     FM110400 18014KT P6SM VCSH SCT025 OVC040
     FM111000 20018G30KT P6SM SCT050 OVC100=

0000010600
336
SAUK36 EGGY 101950 RRA
METAR EGVN 101950Z 20007KT 9999 FEW040 BKN060 08/06 Q1012 NOSIG=

0000034900
337
FCTU32 LTAA 102000
TAF LTAN 101940Z 1021/1106 VRB02KT 2500 BR OVC004=
TAF LTAY 101940Z 1021/1106 VRB02KT CAVOK BECMG 1103/1106 3200 BR=
TAF LTBF 101940Z 1021/1106 VRB02KT 1200 BR NSC BECMG 1021/1023 0300
 FZFG VV003=
TAF LTBR 101940Z 1021/1106 08006KT 8000 NSC BECMG 1022/1101 4000 BR
 PROB30 1102/1105 0500 FZFG BKN005=

0000009700
338
SACG20 FCBB 102000
METAR FCBB 102000Z VRB02KT 8000 FEW030CB 25/23 Q1013 NOSIG=

0000089200
339
SATU31 LTAA 101950
METAR LTAC 101950Z VRB02KT 4800 BR OVC007 M03/M03 Q1022 BECMG TL2100
 1200 BCFG OVC003=
METAR LTAF 101950Z 04005KT 5000 HZ NSC 07/01 Q1021 NOSIG=
METAR LTAI 101950Z 35005KT 4800 BR FEW030 07/06 Q1022 NOSIG=
METAR LTAJ 101950Z 28003KT 250V350 CAVOK M01/M05 Q1020 NOSIG=
METAR LTAZ 101950Z VRB02KT 9000 BKN009 M01/M02 Q1023=
METAR LTBA 101950Z 28006KT 250V320 6000 NSC 10/08 Q1020 BECMG
 21012KT=
METAR LTBJ 101950Z 14002KT 6000 NSC 04/03 Q1021 NOSIG=
METAR LTBS 101950Z 04004KT CAVOK 07/06 Q1022 NOSIG=
METAR LTCG 101950Z 00000KT 4100 BR NSC 06/02 Q1017 BECMG TL2050 9999
 NSW=
METAR LTCS 101950Z 05004KT CAVOK 06/M06 Q1021=
METAR LTFC 101950Z 00000KT 0300 R05/0450U R23/0400U FZFG VV001
 M03/M03 Q1022=
METAR LTFE 101950Z VRB02KT 6000 FEW035 BKN120 08/07 Q1022 NOSIG=
METAR LTFJ 101950Z 24006KT 7000 NSC 10/06 Q1020 NOSIG=

0000065700
340
SATU32 LTAA 101950
METAR LTAG 101950Z 05007KT CAVOK 02/M02 Q1020 NOSIG=
METAR LTAN 101950Z 14004KT 2500 BR OVC004 M01/M02 Q1022 NOSIG=
METAR LTAP 101950Z 27003KT CAVOK M03/M05 Q1021 NOSIG=
METAR LTAT 101950Z 20003KT 190V260 CAVOK M08/M09 Q1022 NOSIG=
METAR LTAU 101950Z VRB01KT 2100 BR BKN007 M03/M04 Q1022 NOSIG=
METAR COR LTBF 101950Z 00000KT 1200 R36/1400U R18/1300U BR NSC 00/00
 Q1021 NOSIG=
METAR LTBU 101950Z 28008KT 4500 BR FEW018 09/08 Q1019=
METAR LTCC 101950Z VRB01KT CAVOK M02/M05 Q1021 NOSIG=
METAR LTCE 101950Z 00000KT 2500 BR NSC M24/M25 Q1022 BECMG 1200=
METAR LTCJ 101950Z 02006KT CAVOK M02/M03 Q1021=

0000055500
341
SATU33 LTAA 101950
METAR LTAR 101950Z NIL=
METAR LTAY 101950Z 00000KT CAVOK M02/M04 Q1021=
METAR LTBR 101950Z 08009KT CAVOK 03/M02 Q1022 NOSIG=
METAR LTBY 101950Z 10007KT 6000 OVC009 M01/M03 Q1022=
METAR LTCA 101950Z 21005KT CAVOK M07/M08 Q1022 NOSIG=
METAR LTCD 101950Z 00000KT CAVOK M09/M12 Q1023 NOSIG=
METAR LTCF 101950Z 00000KT CAVOK M21/M23 Q1022=
METAR LTCI 101950Z VRB01KT 7000 FEW040 BKN100 M09/M10 Q1020 NOSIG=
METAR LTDA 101950Z 01005KT CAVOK 06/01 Q1021=
METAR LTFH 101950Z 14003KT CAVOK 03/01 Q1016 NOSIG=

0000059100
342
SATU34 LTAA 101950
METAR LTAL 101950Z NIL=
METAR LTAS 101950Z NIL=
METAR LTAW 101950Z NIL=
METAR LTBD 101950Z NIL=
METAR LTBH 101950Z NIL=
METAR LTBO 101950Z NIL=
METAR LTCK 101950Z NIL=
METAR LTCL 101950Z NIL=
METAR LTCM 101950Z NIL=
METAR LTCN 101950Z NIL=
METAR LTCO 101950Z 02001KT 1700 BCFG BKN005 M24/M27 Q1022=
METAR LTCP 101950Z NIL=
METAR LTCR 101950Z NIL=
METAR LTCT 101950Z NIL=
METAR LTCU 101950Z NIL=
METAR LTCV 101950Z NIL=
METAR LTFD 101950Z 12005KT 6000 NSC 05/02 Q1021=
METAR LTFG 101950Z 10003KT 9999 SCT035 10/07 Q1022=

0000008900
343
SATU35 LTAA 101950
METAR LCEN 101950Z 28009KT CAVOK 08/03 Q1021 NOSIG=

0000010800
344
SARM31 LUKK 102000
METAR LUKK 102000Z 32013KT 9999 FEW049 07/00 Q1012
R26/CLRD65 NOSIG=

0000009500
345
SALI20 GLRB 102000
METAR GLRB 102000Z 00000KT 9999 SCT015 27/26 Q1010 NOSIG=

0000008700
346
SARH32 LDZM 102000
METAR LDLO 102000Z NIL=
METAR LDSB 102000Z NIL=

0000049700
347
SARH31 LDZM 102000
METAR LDSP 102000Z VRB01KT 9999 FEW025 SCT045 12/09 Q1022 NOSIG =
METAR LDPL 102000Z 10005KT 9999 FEW019 SCT038 OVC054 11/10 Q1021
     NOSIG =
METAR LDDU 102000Z 08006KT 9999 BKN017 BKN025 11/09 Q1022 NOSIG =
METAR LDZA 102000Z 03005KT 0600 R05/0350V0600U R23/0325V0500N BCFG
FEW003 05/05 Q1021 TEMPO 0300 =
METAR LDZD 102000Z 13003KT 9999 BKN060 08/08 Q1022 NOSIG =
METAR LDRI 102000Z NIL=
METAR LDOS 102000Z 11005KT 1000 BR NSC 04/04 Q1022=

0000016400
348
SAUS71 KWBC 101900 RRI
METAR
KMMU 101945Z 00000KT 2 1/2SM HZ OVC008 00/M02 A3038=
KMYR 101945Z 14012G18KT 8SM VCSH SCT024 BKN035 19/16 A3018=

0000010000
349
SAAG41 SADF 102000
METAR SADF 102000Z  36005KT 9999  SCT025 BKN100
31/20 Q1006=

0000010500
350
SAID31 WIII 102000
METAR WIII 102000Z 22003KT 3600 BR FEW021 SCT110 25/23 Q1008 NOSIG=

0000030400
351
SAMX34 MMMD 102000
METAR MMCZ 101941Z 12005KT 8SM  BKN015TCU 25/22 A2997 RMK 8/200 SC=
METAR MMMD 101943Z 12012KT 7SM  BKN025TCU 30/19 A2991 RMK 8/200=
METAR MMTP 101943Z 24010KT 10SM  FEW020 30/21 A2984 RMK 8/100=
METAR MMUN 101941Z 14012KT 7SM  BKN018TCU 28/23 A2997 RMK 8/200=

0000012900
352
SAXX69 EGRR 102000
METAR EQBH 101950Z 02003KT 9999 SKC 01/M01 Q1027 BLU NOSIG RMK A3033
      PA2541 DA1573=

00000000