0000008900
133
SANT31 KWBC 110200 RRA
METAR
LPBJ 110200Z 19004KT CAVOK 07/06 Q1015=

0000009800
134
SAPA31 KWBC 110200 RRA
METAR
AGGH 110200Z 36006KT 9999 HZ FEW020 31/25 Q1005=

0000029200
135
FCMC31 GMMC 110200
TAF GMME 110200Z 1104/1113 22010KT 5000 SCT015 BKN100 TEMPO
     1104/1112 4000 RA BKN010 BKN015=
TAF GMMN 110200Z 1104/1113 22008KT 9999 SCT016 BKN100 TEMPO 1104/1110
6000 RA=
TAF GMAD 110200Z NIL=
TAF GMMX 110200Z NIL=
TAF GMTT 110200Z NIL=

0000035200
136
FCMC32 GMMC 110200
TAF GMFF 110200Z 1104/1113 16005KT 9999 SCT030 BKN100 BECMG 1108/1112
32010KT RA BKN030 BN100=
TAF GMFO 110200Z 1104/1113 20018KT 9999 SCT023 SCT100 TEMPO 1105/1108
8000 -RA BKN023 BKN100=
TAF GMFB 110200Z NIL=
TAF GMML 110200Z NIL=
TAF GMMW 110200Z NIL=
TAF GMMZ 110200Z NIL=
TAF GMTA 110200Z NIL=

0000009100
137
SAAL31 DAAA 110130 CCA
METAR COR DABC 110130Z 19003KT CAVOK 07/02 Q1019=

0000004600
138
FCRA31 RUMS 110200
TAF NIL=

0000025700
139
FCRS31 RUMS 110200
TAF ULWC 110200Z NIL=
TAF UUBP 110200Z NIL=
TAF UUOB 110145Z 1103/1112 26006G11MPS 4000 SHRA BR BKN005 BKN015CB
530001 BECMG 1108/1110 29009G14MPS=
TAF UUOK 110145Z 1103/1112 23008G13MPS 4000 BR BKN006 BKN020CB=

0000029500
140
FCRA32 RUMS 110200
TAF UNTT 110150Z 1103/1112 22008G14MPS 5000 -SHSN DRSN SCT007
BKN017CB OVC100 650060 530003 TEMPO 1103/1112 1100 SHSN BLSN
SCT003=
TAF USCM 110200Z 1103/1112 17006MPS 5000 -SN OVC015 650150 530005
TEMPO 1103/1112 VRB03MPS 2000 FZDZ BR OVC005 640000=

0000017000
141
FCRS33 RUMS 110200
TAF UUMO 110200Z 1103/1112 22006G11MPS 8000 BKN008 530008 TEMPO
1103/1112 2000 SHRASN BKN005 BKN012CB BECMG 1107/1109 27007G12MPS=

0000022900
142
FCRS36 RUMS 110200
TAF ULOO 110200Z NIL=
TAF ULPB 110200Z NIL=
TAF UUOO 110200Z 1103/1112 26007G12MPS 2400 -SNRA BR BKN006 OVC020
650200 530002 TEMPO 1103/1106 BKN004 OVC020 TEMPO 1106/1112
25010G15MPS=

0000058400
143
FCRS34 RUMS 110200
TAF URWW 110150Z 1103/1112 19009G15MPS 2000 -SHRA BR BKN007 SCT010CB
OVC100 530001 TEMPO 1103/1108 0400 FG BKN002 SCT010CB OVC100 BECMG
1108/1110 25010G15MPS=
TAF UWKS 110150Z 1103/1112 15010G15MPS 2100 -SHSNRA BR OVC006
BKN012CB 650060 530001 TEMPO 1103/1111 0700 +SHSNRA OVC003
BKN012CB=
TAF UWOR 110200Z 1103/1112 23006MPS 2000 SN BR OVC006 650060 TEMPO
1103/1109 1000 FZDZ BR OVC004 640000 BECMG 1107/1109 22012MPS=
TAF UWSS 110200Z 1103/1112 19009MPS 2000 SNRA BR OVC005 530002 TEMPO
1103/1109 0500 FZDZ FZFG OVC003 640000=

0000050000
144
SAID32 WIII 110200
METAR WIPT 110200Z 36004KT 9999 FEW020 27/23 Q1012= 
METAR WIOO 110200Z 04005KT 9999 FEW013 27/24 Q1012 NOSIG= 
METAR WAOO 110200Z 06004KT 9999 FEW020 28/25 Q1012 NOSIG= 
METAR WALL 110200Z 30005KT 9000 FEW020 BKN090 28/24 Q1011 NOSIG= 
METAR WADL 110200Z 33003KT 9000 HZ SCT016 29/24 Q1011= 
METAR WIPP 110200Z 30003KT 2000 -RA BKN015 FEW020CB 25/25 Q1012= 
METAR WIBB 110200Z 36005KT 5000 HZ BKN010 24/23 Q1012= 
METAR WAMM NIL=
METAR WIDN NIL=

0000027400
145
SANG31 YBBN 110200
METAR AYPY 110200Z NIL=
METAR AYWK 110200Z NIL=
METAR AYVN 110200Z NIL=
METAR AYNZ 110200Z NIL=
METAR AYMH 110200Z NIL=
METAR AYGN 110200Z NIL=
METAR AYMO 110200Z NIL=
METAR AGGH 110200Z 36006KT 9999 HZ FEW020 31/25 Q1005=

0000133200
146
SAAU31 YBBN 110200
METAR YPAD 110200Z 22012KT CAVOK 26/15 Q1019
NOSIG=
METAR YBAS 110200Z 14015KT 9999 PO NSC 37/04 Q1015=
METAR YBBN 110200Z 09009KT 9999 BKN033 27/17 Q1017=
METAR YBCS 110200Z 12015KT 9999 VCSH SCT025 SCT060 BKN120 31/22 Q1010
RMK SHOWERS TO S.=
METAR YSCB 110200Z 31008KT 9999 SCT050 BKN240 31/12 Q1018=
METAR YPXM 110200Z AUTO 18002KT 9999 // SCT018 27/21 Q1013=
METAR YPCC 110200Z 14012KT 9999 FEW025 BKN035 28/21 Q1012=
METAR YCFS 110200Z AUTO 06013KT 9999 // BKN095 25/18 Q1017=
METAR YPDN 110200Z 15005KT 9999 FEW030 SCT160 BKN350 30/23 Q1009=
METAR YBCG 110200Z AUTO 09011KT 9999 // NCD 27/16 Q1018=
METAR YHID 110200Z AUTO 31006KT //// // ////// 29/25 Q1007=
METAR YPJT 110200Z AUTO 11012KT 9999 // NCD 33/11 Q1015=
METAR YPKU 110200Z AUTO 35006KT 9999 // NCD 33/22 Q1009=
METAR YPLM 110200Z AUTO 05007KT 9999 // NCD 31/21 Q1009=
METAR YMML 110200Z 14009KT 9999 OVC015 18/13 Q1020
FM0230 18012KT 9999 SCT015 BKN020
FM0400 18014KT CAVOK=
METAR YPPH 110200Z 10014KT CAVOK 33/11 Q1015=
METAR YSSY 110200Z 07012KT 030V090 CAVOK 31/15 Q1015
NOSIG=
METAR YSTW 110200Z AUTO 17009KT 9999 // SCT065 OVC120 29/10 Q1018=
METAR YPTN 110200Z AUTO 07009KT 9999 // NCD 32/22 Q1009=
METAR YBTL 110200Z 11015KT 9999 VCSH FEW025 SCT030 BKN065 30/21
Q1011=

0000028300
147
SANM40 FYWW 110200
METAR FYGO 110200Z AUTO 34010KT //// // ////// 16/13 Q1013=
METAR FYOA 110200Z AUTO 22008KT //// // ////// 21/09 Q1013=
METAR FYWB 110200Z AUTO 36011KT //// // ////// 17/14 Q1013=
METAR FYWH 110200Z AUTO 00000KT //// // ////// 08/01 Q1021=

0000120400
148
SAAU32 YBBN 110200
METAR YAMB 110200Z AUTO 10003KT 9999 // SCT049 SCT063 28/15 Q1017=
METAR YMAV 110200Z AUTO 18010KT 9999 // NCD 22/13 Q1019=
METAR YBRM 110200Z 28008KT 9999 FEW024 SCT400 32/24 Q1009=
METAR YCIN 110200Z AUTO 29006KT //// // NCD 33/24 Q1010=
METAR YSDU 110200Z AUTO 35007KT 9999 // NCD 30/14 Q1018=
METAR YFRT 110200Z AUTO 12012KT //// // ////// 28/10 Q1021=
METAR YGEL 110200Z 07021KT CAVOK 42/M00 Q1009=
METAR YPGV 110200Z NIL=
METAR YBHM 110200Z AUTO 12020KT 9999 // ////// 29/22 Q1013=
METAR YMHB 110200Z 15011KT 9999 FEW050 BKN220 23/11 Q1012=
METAR YPKG 110200Z AUTO 09011KT 9999 // NCD 29/07 Q1020=
METAR YMLT 110200Z AUTO 16004KT 9999 // NCD 26/10 Q1013=
METAR YBMA 110200Z AUTO 07007KT 9999 // NCD 38/16 Q1011=
METAR YSNF 110200Z 13011KT 9999 FEW038 SCT049 21/10 Q1018=
METAR YPEA 110200Z AUTO 09011KT 9999 // NCD 35/10 Q1014=
METAR YPPD 110200Z AUTO 31006KT 9999 // NCD 34/26 Q1009=
METAR YSRI 110200Z AUTO 09004KT 9999 // NCD 28/12 Q1015=
METAR YBRK 110200Z 10010KT CAVOK 28/18 Q1015
RMK 1TCU065 5AC200=
METAR YWLM 110200Z AUTO 13012KT 9999 // NCD 29/17 Q1016=
METAR YPWR 110200Z AUTO 24004KT 9999 // NCD 35/10 Q1017=

0000046200
149
FTCN35 CWAO 110200 AAA
TAF AMD CYYZ 110210Z 1102/1206 11006KT P6SM SCT005 OVC015 TEMPO
     1102/1106 5SM -DZ BR OVC005
    FM110600 12008KT 1SM -RA BR OVC003 TEMPO 1106/1109 3SM -RA BR
     OVC005
    FM110900 16008KT 1/2SM -RA FG VV001 TEMPO 1109/1114 2SM -RA BR
     OVC004
    FM111400 20010KT 11/2SM -RA BR OVC003
    FM112200 23015G25KT P6SM -SHRA OVC012
    FM120400 26015G25KT P6SM OVC020
    RMK NXT FCST BY 110300Z=

0000025600
150
FTCN35 CWAO 110200 AAA
TAF AMD CYKZ 110210Z 1102/1112 11006KT 6SM BR SCT005 OVC012 TEMPO
     1102/1106 5SM -DZ BR OVC005
    FM110600 16006KT 1/2SM -RA FG VV002 TEMPO 1106/1112 2SM -RA BR
     OVC005
    RMK NXT FCST BY 110600Z=

0000009500
151
SAFR32 LFPW 110200 RRA
METAR LFCK 110200Z AUTO 13020KT 9999 NSC 11/06 Q1017=

0000010600
152
SAAF05 LFPW 110200 RRA
METAR DBBB 110200Z 23006KT 6000 SCT011 BKN200 27/26 Q1010 NOSIG=

00000000