0000029800
453
SNVD20 KWNB 110200 RRX
BBXX
41053 11021 99185 70661 46/// /0808 10265 40189 90230 333 91210
555 11090 22098=
41053 11021 99185 70661 46/// /0808 10264 40188 90220 333 91210
555 11093 22101=
41053 11021 99185 70661 46/// /0709 10264 40188 90210 333 91211
555 11102 22110=
0000021300
454
SNVD20 KWNB 110400 RRL
BBXX
41052 11041 99183 70648 46/// /0907 10251 40181 90350 333 91209
555 11081 22089=
41052 11041 99183 70648 46/// /1009 10252 40181 90340 333 91212
555 11103 22112=
0000009600
455
SASB31 VCBI 110940
METAR VCBI 110940Z 32010KT 9999 SCT016   30/23  Q1009 NOSIG=

0000012800
456
SIVD20 KWNB 110300 RRU
BBXX
41053 11031 99185 70661 46/// /0808 10265 40188 90310 333 91210
555 11090 22098=
0000068500
457
UDNT02 EGRR 110420
AMDAR 1102
LVR EU3147   5223N 02650W 110248 F379 MS555 216/066 TB0 S031=
LVR EU3147   5234N 02510W 110255 F380 MS560 220/067 TB0 S031=
LVR EU3147   5244N 02328W 110302 F379 MS557 229/079 TB0 S031=
LVR EU3147   5252N 02144W 110309 F380 MS540 240/065 TB0 S031=
LVR EU3147   5258N 02001W 110316 F379 MS545 245/054 TB0 S031=
LVR EU3147   5300N 01819W 110323 F379 MS517 239/043 TB0 S031=
LVR EU3147   5300N 01639W 110330 F379 MS537 229/051 TB0 S031=
LVR EU3147   5258N 01458W 110337 F380 MS542 229/056 TB0 S031=
LVW EU3147   5252N 01317W 110344 F379 MS507 241/064 TB0 S031=
LVR EU3147   5244N 01134W 110351 F380 MS492 251/049 TB0 S031=
0000068900
458
UDNT02 EGRR 110420 RRA
AMDAR 1101
LVR EU3147   4938N 04209W 110138 F380 MS542 274/030 TB0 S031=
LVR EU3147   4952N 04040W 110145 F380 MS532 269/030 TB0 S031=
LVR EU3147   5010N 03912W 110152 F379 MS545 251/031 TB0 S031=
LVR EU3147   5031N 03744W 110159 F379 MS532 234/031 TB0 S031=
LVR EU3147   5050N 03616W 110206 F379 MS547 212/028 TB0 S031=
LVR EU3147   5109N 03446W 110213 F380 MS547 226/042 TB0 S031=
LVR EU3147   5126N 03313W 110220 F379 MS530 221/040 TB0 S031=
LVR EU3147   5143N 03139W 110227 F379 MS542 226/048 TB0 S031=
LVR EU3147   5158N 03003W 110234 F380 MS542 215/053 TB0 S031=
LVR EU3147   5211N 02827W 110241 F380 MS537 210/055 TB0 S031=
0000068500
459
UDEU02 EGRR 110420
AMDAR 1023
UNS EU3859   3407N 01517E 102359 F349 MS522 281/059 TB/ S031=
LVR EU3859   3312N 01547E 110006 F349 MS522 279/065 TB0 S031=
LVR EU3859   3216N 01619E 110013 F349 MS522 284/067 TB0 S031=
LVR EU3859   3120N 01651E 110020 F349 MS520 286/072 TB0 S031=
LVR EU3859   3024N 01722E 110027 F349 MS520 290/072 TB0 S031=
UNS EU3859   2926N 01753E 110034 F349 MS515 292/073 TB/ S031=
LVR EU3859   2826N 01809E 110041 F349 MS515 296/072 TB0 S031=
LVR EU3859   2725N 01825E 110049 F349 MS512 300/068 TB0 S031=
LVR EU3859   2624N 01840E 110056 F349 MS500 288/069 TB0 S031=
LVR EU3859   2524N 01854E 110103 F349 MS495 293/067 TB0 S031=
0000009200
460
SAIN90 VECC 110420
METAR VECC 110420Z 03004KT 1800 BR NSC 20/15 Q1017 NOSIG=
0000015800
461
SNVD20 KWNB 110400 RRM
BBXX
41053 11041 99185 70661 46/// /0808 10264 40184 50000 90400 22200
00266 10904 70018 333 91210 555 11084 22091=
0000021300
462
SNVD20 KWNB 110400 RRN
BBXX
41053 11041 99185 70661 46/// /0808 10264 40185 90350 333 91210
555 11088 22096=
41053 11041 99185 70661 46/// /0808 10264 40186 90340 333 91210
555 11088 22096=
0000021300
463
SIVD20 KWNB 110300 RRW
BBXX
41053 11031 99185 70661 46/// /0808 10264 40186 90330 333 91209
555 11085 22092=
41053 11031 99185 70661 46/// /0808 10264 40188 90320 333 91210
555 11089 22097=
0000021300
464
SNVD15 KWNB 110400 RRI
BBXX
41056 11041 99183 70655 46/// /0706 10257 40181 90350 333 91208
555 11069 22075=
41056 11041 99183 70655 46/// /0706 10258 40181 90340 333 91208
555 11070 22076=
0000012100
465
SAWD01 OEJD 110400 RRA
METAR UUEE 110400Z 21005MPS 7000 -RA OVC007 02/01 Q0984 75290151
25290151 NOSIG=
0000015600
466
SAME31 OLBA 110400 RRA
METAR OSLK 110406Z 06004KT CAVOK 05/M02 Q1022=
METAR OJAI 110400Z 27004KT 2500 BR SCT200 07/06 Q1021 TEMPO 2000 FG=
0000046200
467
SNVD15 KWNB 110400 RRJ
BBXX
44064 11041 99370 70760 46/// /1607 10124 40213 90410 333 91208
555 11082 22089=
44062 11041 99386 70764 46/// /3402 10026 40217 90410 333 91202
555 11018 22020=
44063 11041 99390 70764 46/// /0102 10019 40203 90410 333 91202
555 11018 22020=
44041 11041 99372 70768 46/// /0802 10075 90410 333 91202 555
11021 22023=
44042 11041 99380 70763 46/// /1504 10062 40206 90410 333 91205
555 11046 22050=
0000011000
468
UANT99 KDDL 110417
ARP VIR34Z 4600N01955W 0417 F390 MS58 243/67 KT
GVWAG DDL XXF 110417 J68A
0000285900
469
SIXX40 ETGT 110300 RRE
AAXX 11031
40700 42960 02605 11022 21059 30115 40206 57013 333 21050 555
11032 29076 66666 00000 10002 20012 30022 50070 90090=
40723 42960 30000 11052 21080 39002 40278 53004 80001 333 21058
83067 555 11058 29081 66666 01050 11028 20002 30014 50034 90080=
40726 41620 80000 11056 21092 38675 40278 57009 70522 8352/ 333
21082 83635 88458 555 11064 29076 66666 01030 11036 21020 30000
50032 90080=
40727 41520 80000 11065 21076 38494 40280 56008 77372 8342/ 333 21098
83630 88558 555 11066 29092 66666 01030 11023 21007 30011 50023
90074=
40734 42960 60000 10048 20017 30218 40192 56012 80006 333 20042
86268 555 10036 29081 66666 00050 10060 20074 30082 50094 90116=
40737 42960 71503 10042 20022 30178 40196 56011 80006 333 20018
87269 555 10034 29087 66666 00040 10058 20076 30084 50106 90124=
40780 41558 81502 10030 20025 38674 40178 56002 71022 8532/ 333
20012 84725 81930 88458 555 10028 29097 66666 00016 10022 20038
30044 50060 90092=
40791 42660 30000 10012 21026 39407 40258 55002 82570 333 20011
      82640 555 11002 29076 66666 00032 10050 20080 30094 50110
      90156=
40792 42670 50603 11010 21074 38749 40251 58006 82530 333 21018
82635 84360 555 11030 29062 66666 01004 10006 20026 30040 50064
90110=
40794 41556 80805 10102 20098 30102 40202 53002 76166
8432/ 333 20100 81930 83635 88557 555 10100 29097 66666 00104
10108 20110 30120 50148 90172=
40812 41650 80101 10086 20086 39809 40190 53010 76466 8632/ 333
 20085 82935 84640 88557 555 10086 29100 66666 00062 10064 20090
30096 50140 90160 77777 00/// 10100 20/// 30/// 50100 70/// 99///=
40829 41957 10000 11038 21060 39685 40289 53006 71000 80002 333
21038 81069 555 11043 29085 66666 00016 10016 20090 30096 50128
90168=
40833 41658 81006 10112 20101 30175 40208 53007 78088 88300 333
20107 83935 85640 555 10106 29093 66666 00110 10114 20122 30132
 50140 90190 77777 00029 10099 20/// 30090 50093 70/// 99///=
40835 42660 81105 10098 20031 39364 40187 57001 8342/ 333 20082
83640 88559 555 10068 29063 66666 00060 10072 20094 30098 50114
 90130=
40845 42560 81507 10160 20116 30185 40190 53002 8492/ 333 20148
81930 83640 88459 555 10136 29075 66666 00138 10140 20146 30146
5//// 90182=
40882 41557 81005 10146 20087 30175 40211 53003 76181 8532/ 333
20146 82930 83725 88559 555 10116 29068 66666 00134 10142 20154
30170 50180 90222=
40889 42960 80715 10198 20123 30196 40201 53010 80007
333 20190 88270 555 10156 29062 66666 00168 10166 20176
30186 50204 90242=
40890 41540 70608 10192 20103 30189 40197 53001 70722 82370 333
20188 82925 82630 87360 555 10144 29056 66666 00176 10172 20178
30190 50208 90236=
40893 42962 40000 10148 20065 30210 40217 53004 84030 333 20140
84360 555 10108 29058 66666 00134 10142 20178 30180 50200 90184=
0000006200
470
SNBX40 EBBR 110400 RRA
AAXX 11041
06447 NIL=
0000014300
471
SNBX41 EBBR 110400 RRA
AAXX 11041
06431 NIL=
06478 42970 61803 10035 20018 39942 40166 57006 8603/
333 86360 91107 91205=
0000018400
472
UAPA01 KWBC 110418
ARP ASA886 2425N 14459W 0408 F350 MS42 265/048KT=
ARP ASA877 43N 140W 0407 F350B370 MS46 260/072KT=
ARP ASA859 42N 133W 0412 F350 MS56 240/120KT=
00000000