0000011100
433
UANT01 CWAO 110417
ARP DAL402 4727N03803W 0416 F370 MS49 271/30 KT
N173DZ QXT AOW 110417 F71A
0000011100
434
UANT01 CWAO 110417
ARP DAL178 5805N03439W 0416 F390 MS56 236/38 KT
N860NW DDL XXW 110417 J56A
0000011100
435
UANT01 CWAO 110417
ARP UAL952 5601N04901W 0417 F350 MS62 289/64 KT
N642UA DDL XXW 110417 F25A
0000011000
436
UANT01 CWAO 110417
ARP DLH471 5506N03430W 0417 F380 MS53 209/48 KT
DAIHB QXT AOW 110417 J56A
0000013000
437
SNIY21 LIIB 110400 RRA
AAXX 11044
16098 41715 70000 10070 20052 30172 40224 56000 71022 87030 333
      87356=
0000224200
438
FCIN32 VABB 110300
TAF VAAH 110300Z 1106/1115 34006KT 5000 FU FEW100 BECMG 1112/1114
     32004KT 4000 FU/HZ=
TAF VAAU 110300Z 1106/1115 090/06KT 3000 FU NSC
         BECMG 1108/1110 25006KT 4000 
         BECMG 1113/1115 320/05KT 3000 FU =
TAF VABB 110300Z 1106/1115 10005KT 2500 FU/HZ FEW100
     BECMG 1107/1109 27008KT 3000 FU
     BECMG 1113/1115 33007KT 2500 FU/HZ NSC=
TAF VABM 110300Z NIL=
TAF VABO 110300Z 1106/1115 34006KT 5000 FU FEW100 BECMG 1112/1114
     32004KT 4000 FU/HZ=
TAF VABP 110300Z NIL=
TAF VABV 110300Z 1106/1115 34006KT 5000 FU FEW100 BECMG 1112/1114
     32004KT 4000 FU/HZ=
TAF VAGN 110300Z NIL=
TAF VAGO 110300Z NIL=
TAF VAID 110300Z NIL=
TAF VAJB 110300Z NIL=
TAF VAJM 110300Z 1106/1115 34006KT 5000 FU FEW100 BECMG 1112/1114
     32004KT 4000 FU/HZ=
TAF VAKJ 110300Z NIL=
TAF VANP 110300Z 1106/1115 14005KT 3000 HZ FEW020 SCT025
    BECMG 11081110 20005KT 4000 HZ
    BECMG 11121114 14003KT 3000 HZ FEW025 SCT100=
TAF VAPO 110300Z 1106/1115 28005KT 6000 SCT250 =
TAF VARK 110300Z 1106/1115 34006KT 5000 FU FEW100 BECMG 1112/1114
     32004KT 4000 FU/HZ=
TAF VARP 110300Z 1106/1115 15005KT 5000 HZ FEW025 BECMG 1109/1111
     21005KT 6000 BECMG 1113/1115 VRB02KT 3000 HZ=
TAF VCBI 110300Z NIL=
TAF VEVZ 110300Z NIL=
TAF VIGR 110300Z NIL=
TAF VOBG 110300Z 1106/1115 09010KT 8000 FEW015=
TAF VOBZ 110300Z 1106/1115 11008KT 3000 HZ FEW020 BECMG 1108/1110
    5000 HZ= 
TAF VOCB 110300Z 1106/1115 09005KT 6000 FEW015 SCT080=
TAF VOCC 110300Z NIL=
TAF VOCI 110300Z 1106/1115 22005KT 5000 HZ FEW015 SCT100
    TEMPO 1109/1112 FEW025CB BECMG 1117/1118 00000KT 4000 HZ=
TAF VOCL 110300Z 1106/1115 25005KT 5000 HZ FEW015 SCT100
    TEMPO 1109/1112 FEW025CB=
TAF VOHY 110300Z 1106/1115 14010KT 5000 HZ 11008KT 3000 HZ FEW020
     BECMG 1108/111 0 5000 HZ=
TAF VOMD 110300Z 1106/1115 05010KT 4000 HZ FEW020=
TAF VOML 110300Z NIL=
TAF VOMM 110300Z 1106/1115 04010KT 4000 HZ SCT020 BECMG 1109/1110
    04010G20KT 6000 BECMG 1112/1113 04005KT 4000 HZ=
TAF VOTP 110300Z 1106/1115 09010KT 4000 HZ SCT020=
TAF VOTR 110300Z 1106/1115 07010KT 3000 HZ FEW020 SCT080
    BECMG 1109/1110 5000 HZ=
TAF VOTV 110300Z 1106/1115 14005KT 5000 HZ FEW015 SCT100
    TEMPO 1109/1112 2000 TSRA/RA SCT008 SCT012 FEW025CB OVC090=

0000009000
439
SAIR33 OIII 110400 RRA
METAR OIZC 110400Z 06006KT CAVOK 13/01 Q1022 A3020=
0000011100
440
SACN45 CWAO 110400 RRB
METAR CYZS 110400Z 33005KT 15SM SKC M30/M34 A2959 RMK WND ESTD
SLP030=
0000167600
441
SASA85 EGRR 110400 RRC
METAR SABE 110400Z 18015G29KT CAVOK 24/15 Q1011=
METAR SACO 110400Z 16010KT 9999 SCT015 BKN100 24/19 Q1016=
METAR SADF 110400Z 20013KT CAVOK 23/14 Q1011=
METAR SAEZ 110400Z 20009KT CAVOK 19/13 Q1012=
METAR SAME 110400Z 18006KT CAVOK 26/04 Q1016=
METAR SARP 110400Z 09004KT CAVOK 26/21 Q1011=
METAR SASA 110400Z 36004KT 9999 SCT020 FEW045CB BKN200 23/16 Q1015=
METAR SAVE 110400Z 23020KT CAVOK 10/03 Q1020=
METAR SBBR 110400Z 17002KT 9999 VCTS SCT035 FEW040CB 22/16 Q1018=
METAR SBJP 110400Z 15004KT 9999 SCT020 24/21 Q1013=
METAR SBMA 110400Z 23002KT 9999 -RA NSC 22/22 Q1012 RETS=
METAR SCAR 110400Z 14002KT 9999 BKN045 23/17 Q1013=
METAR SCBA 110400Z AUTO 29018KT 260V320 CAVOK 09/03 Q1019=
METAR SCCI 110400Z 31010KT 9999 SCT030 OVC090 08/04 Q1009 NOSIG=
METAR SCDA 110400Z 19007KT CAVOK 22/17 Q1013=
METAR SCEL 110400Z 14003KT CAVOK 20/06 Q1013 NOSIG=
METAR SCFA 110400Z 18005KT 9999 FEW014 20/16 Q1012 NOSIG=
METAR SCIE 110400Z 23007KT CAVOK 14/09 Q1015=
METAR SCSE 110400Z 28003KT CAVOK 15/14 Q1011=
METAR SCTE 110400Z 16006KT CAVOK 09/07 Q1023 NOSIG=
METAR SKBG 110400Z 00000KT 9999 FEW012 SCT100 20/19 A3000=
METAR SKBO 110400Z 00000KT 7000 HZ BKN015 13/11 A3031=
METAR SKCG 110400Z 01005KT CAVOK 26/23 A2983=
METAR SKCL 110400Z 08003KT 9999 FEW023 BKN090 22/19 A2997=
METAR SKPE 110400Z 11006KT 9999 FEW015 20/17 A3010=
METAR SKRG 110400Z 00000KT 8000 VCFG SCT008 BKN080 15/14 A3027 RMK
      VCFG/S/N=
METAR SKSP 110400Z 08014KT 9999 FEW018 27/24 A2992=
METAR SVMI 110400Z 00000KT 9999 FEW016 23/18 Q1015 NOSIG=
METAR SYCJ 110400Z 00000KT 9999 FEW016 21/21 Q1013 NOSIG=
0000139400
442
FTSA85 EGRR 110407
TAF SBFZ 110400Z 1106/1206 06010KT 9999 BKN017 TN26/1107Z TX30/1116Z
     RMK PDG=
TAF SBJP 110400Z 1106/1206 20005KT 9999 SCT020 TN24/1107Z TX30/1114Z
     BECMG 1110/1111 11010KT
     RMK PDG=
TAF SBMO 110400Z 1106/1206 32005KT 9999 SCT020 TN23/1107Z TX30/1114Z
     RMK PDG=
TAF SBNT 110400Z 1106/1206 14007KT 9999 BKN020 TN23/1107Z TX30/1115Z
     RMK PDG=
TAF SBPL 110400Z 1106/1206 12008KT 9999 FEW025 TN23/1107Z TX31/1117Z
     RMK PDG=
TAF SBRF 110400Z 1106/1206 15010KT 9999 SCT020 TN22/1107Z TX30/1115Z
     PROB30 TEMPO 1106/1108 4000 SHRA SCT010
     RMK PDG=
TAF SBSV 110400Z 1106/1206 10007KT 9999 SCT017 TN24/1108Z TX30/1115Z
     RMK PDG=
TAF SVBC 110400Z 1106/1206 00000KT 9999 FEW010 SCT090 TX34/18Z
     TN20/11Z
     FM110730 00000KT SCT013 SCT070=
TAF SVMC 110400Z 1106/1206 00000KT 9999 FEW020 TX34/17Z TN22/12Z
     FM110900 00000KT 9999 FEW020 SCT100=
TAF SVMG 110400Z 1106/1206 09012KT 9999 BKN010 TX31/19Z TN24/11Z
     FM110700 07010KT 07009KT SCT016 SCT070=
TAF SVMI 110400Z 1106/1206 00000KT 9999 FEW016 TX29/17Z TN23/11Z
     FM110900 VRB04KT SCT016
     FM111430 05006KT 9999 FEW016=
TAF SYCJ 110406Z 1106/1206 VRB02KT 8000 SHRA SCT014 BKN037
     BECMG 1112/1114 07012KT 9999 BKN018
     TEMPO 1120/1122 8000 SHRA BKN017 SCT038
     BECMG 1123/1201 05004KT 9999 SCT016=
0000065700
443
SASA85 EGRR 110400 RRD
METAR SAAR 110400Z 20004KT CAVOK 24/21 Q1010=
METAR SANT 110400Z 18014KT 9999 BKN040 FEW045CB 27/22 Q1008=
METAR SAOC 110400Z 00000KT CAVOK 20/14 Q1014=
METAR SARC 110400Z 09005KT 9999 FEW050CB BKN200 28/21 Q1006=
METAR SARF 110400Z 02008KT CAVOK 29/22 Q1007=
METAR SAWE 110400Z 25005 KT 9999 FEW020 SCT056 07/05 Q1008=
METAR SAWG 110400Z 29009KT CAVOK 09/06 Q1012=
METAR SAZM 110400Z 20010KT CAVOK 16/08 Q1015=
METAR SAZN 110400Z 00000KT CAVOK 22/M01 Q1015=
METAR SGAS 110400Z 05004KT CAVOK 27/22 Q1008=
METAR SGES 110400Z 08004KT CAVOK 26/22 Q1010=
METAR SULS 110400Z 00000KT CAVOK 21/20 Q1010=
0000315900
444
FSXX21 EGRR 110000
65556 33300 01100 00024
99900
81068 53276
81097 57220
81097 59467
81004 60082
81008 64098
81019 36092
85020 72021
85026 39361
85026 50041
83/// 48267 47276 46278 46285 45297 44315 43336 43346
83/// 46206 44208 43215 41226 39245 38256
83/// 51367 49366 47366 46366 44376 44377
83/// 74323 72211 72160
83/// 36101 35072 ///// 35050 36031 38013
99911
66650 59446 59436 58398 55388 54405 52436 51466 52497
66650 67318 67276 68205 66168
66250 54306 55305 57305 57298 58296 59278 60256 60238
66650 54277 52286 51278 50268 49258
66650 54277 55265 56237 56225 55206
66250 55206 55196 55178 55176 55155 55145 54126 53108 53097
66450 55206 55195 53178 52167 49156 47155 44147 41155 39166 37175
66650 65105 65146 66168
66650 65105 63058 61025 60008
66650 60090 59051 60006 60008
66450 51210 49200 48162 48122
66650 57220 56193 55182 54182 52191 51210
66230 51210 50221 49233 46232
66650 57220 57262 56283 54321 53340 50370 48401
99922
44972 55255 52237 51255 52277 54295 55275 55255
44976 55238 52227 51237 50256 51275 52287 53297 54306 56285 56255
      55238
44980 56236 56217 53216 51225 50245 50265 50286 51296 54315 56306
      57267 57247 56236
44984 57248 56218 55198 55197 51208 50227 49247 50277 52307 55325
      57308 58297 57248
44988 58268 58227 56196 55185 53178 50208 49226 48248 49275 51307
      54336 57326 59297 59287 58268
44992 59245 57196 56177 55168 52166 50186 48228 48255 48278 50316
      53338 56346 59325 59288 59268 59245
44992 61400 59401
44996 60247 58187 56165 55158 55155 52147 50155 48207 47248 47268
      49307 52348 56368 59355 60308 60257 60247
44996 63400 60371 58381 57400
44000 62376 62325 61245 58178 55146 54138 51135 47146 47165 46236
      47277 48316 52367 54396 57455 58505 ///// 61506 61435 62398
      62376
44000 80485 80497
44000 57283 56283 55202 55190 56172 58182 59222 58271 57283
44000 64400 62342 59331 57343 55400
44004 65400 63302 61263 61190 58143 58122 56140 54182 53221 55312
      54362 53400
44008 80000 76206 76248 76316 73435 69436 69407 68327 67278 67255
      64218 56117 53108 47115 42138 41155 43187 43217 44265 45295
      47366 49398 52437 55505
44008 66401 63241 61141 62113 64090 64060 62050 60050 58070 54143
      52191 52241 53342 51401
44012 77301 77202 78091 76125 74206 73266 70278 69256 69186 67106
      64026 66062 65112 64150 65251 67401
44016 48400 49283 48243 49200 50171 55070 59035 59065 57078 44078
      38135 36165 36176 38197 39246 41287 43338 45375 50506
44016 75341 75240 75143 76043 74116 72148 71125 69055 68023 68120
      66160 66211 69400
44020 46400 46310 45253 46232 46170 48162 50142 55032 56026 55048
      49056 46038 44015 43035 41068 38095 36115 35127
44020 72043 72012 72003 73023 72043
44020 35112 37121 38113 39092 37072 35072
44020 73363 72320 71342 70393
44024 37315 44435 45468 46505
44024 48131 48130 46113 46072 47042 47013 50015 52016 53010 50101
      48131
44024 35242 36202 35190
44024 38401 37332 38300 40292 41302 42372 43401
44032 36448 38465 38495 37506
19191=
0000092300
445
SASA85 EGRR 110400 RRE
METAR SARL 110400Z 05007KT 9999 TS FEW020 FEW045CB OVC100 22/20 Q1008=
METAR SBAF 110400Z 09003KT CAVOK 27/21 Q1013=
METAR SBAN 110400Z 00000KT 9999 VCTS SCT030 FEW040CB 18/16 Q1018=
METAR SBAT 110400Z 00000KT 9999 -TSRA FEW015 FEW025CB BKN090 23/22
      Q1013=
METAR SBBH 110400Z 11006KT CAVOK 21/17 Q1017=
METAR SBBU 110400Z 35005KT CAVOK 27/22 Q1015=
METAR SBDN 110400Z 07009KT CAVOK 27/18 Q1013=
METAR SBFL 110400Z 21010KT 6000 -TSRA SCT010 BKN030 FEW040CB 22/20
      Q1014=
METAR SBIL 110400Z 27005KT 5000 VCSH SCT009 BKN015 BKN070 24/23 Q1013=
METAR SBKG 110400Z 10005KT 6000 BKN010 21/21 Q1015=
METAR SBME 110400Z 03004KT 9999 SCT020 25/23 Q1014=
METAR SBSC 110400Z 05003KT CAVOK 25/23 Q1011=
METAR SBUL 110400Z 09007KT CAVOK 20/16 Q1017=
METAR SBUR 110400Z 03006KT CAVOK 21/17 Q1016=
METAR SBVH 110400Z 03006KT 9999 FEW015 SCT090 21/20 Q1014=
0000011100
446
UANT99 KDDL 110416
ARP DAL270 4855N03603W 0416 F360 MS51 219/25 KT
N183DN QXT AOW 110416 F91A
0000011100
447
UANT99 KDDL 110416
ARP AWE797 5851N01855W 0416 F340 MS52 237/40 KT
N282AY DDL XXW 110416 J26A
0000011100
448
UANT99 KDDL 110416
ARP UAL161 5019N04353W 0416 F370 MS60 320/49 KT
N34137 DDL IG1 110416 F46A
0000011100
449
UANT99 KDDL 110416
ARP DAL401 4934N02507W 0416 F360 MS61 208/53 KT
N845MH QXT AOE 110416 F37A
0000011000
450
UANT99 KDDL 110417
ARP SWR23C 4607N03928W 0417 F380 MS50 273/38 KT
HBJHD QXT AOW 110417 J54A
0000137300
451
SNVZ11 SBBR 110400 RRD
BBXX
SHIP 11041 99/// 1//// 36/// /0300 10233 20188 39608 40130
  333 10239 20231 553// 10004 91102=
SHIP 11041 99/// 1//// 36/// /0800 10233 20191 39491 40136 57///
  333 10245 20232 553// 10004 91102=
SHIP 11041 99/// 1//// 36/// /0404 10176 20167 39354 40137 52///
  333 10179 20175 553// 10003 91108=
SHIP 11041 99/// 1//// 36/// /0400 10190 20172 39629 40128
  333 10190 20185 553// 10004 91100=
SHIP 11041 99/// 1//// 36/// /1204 10227 20195 30018 40114
  333 10227 20224 553// 10003 91108=
SHIP 11041 99/// 1//// 36/// /0701 10230 20191 39587 40150
  333 10257 20230 553// 10003 91104=
SHIP 11041 99/// 1//// 36/// /0802 10185 20150 38814 49909
  333 10187 20182 553// 10004 91103=
SHIP 11041 99/// 1//// 36/// /0900 10240 20180 39462 40105 57///
  333 10243 20240 553// 10004 91100=
SHIP 11041 99/// 1//// 36/// /2301 10223 20203 30051 40119 52///
  333 10228 20220 553// 10003 91103=
SHIP 11041 99/// 1//// 36/// /0801 10171 20156 39113 40194
  333 10173 20171 553// 10001 91106=
SHIP 11041 99/// 1//// 36/// /0500 10252 20201 39651 40107
  333 10255 20252 553// 10003 91101=
SHIP 11041 99/// 1//// 36/// /3401 10223 20213 39972 40151
  333 10230 20223 553// 10002 91102=
SHIP 11041 99/// 1//// 36/// /3601 10251 20199 39804 40130 52///
  333 10258 20251 553// 10004 91102=
0000021300
452
SIVD20 KWNB 110300 RRV
BBXX
41053 11031 99185 70661 46/// /0808 10265 40189 90250 333 91209
555 11087 22095=
41053 11031 99185 70661 46/// /0808 10265 40189 90240 333 91210
555 11092 22099=
00000000