0000047700
273
SAUK32 EGGY 110320
METAR EGAA 110320Z AUTO 24005KT 9000 FEW049/// 01/00 Q1011=
METAR EGAC 110320Z NIL=
METAR EGFF 110320Z 30009KT CAVOK 06/05 Q1013=
METAR EGGW 110320Z 21010KT 9999 BKN004 07/07 Q1011=
METAR EGLC 110320Z AUTO 21009KT 9999 BKN035/// 09/07 Q1012=
METAR EGNM 110320Z 29009KT 9999 SCT042 04/03 Q1009=
METAR EGNX 110320Z 25009KT 9999 FEW012 SCT025 BKN038 07/06 Q1010
    RERA=
METAR EGPD 110320Z AUTO 25009KT 9999 NCD 02/M02 Q1005=

0000039100
274
SAUK33 EGGY 110320
METAR EGGD 110320Z 26011KT 5000 -DZ BKN004 BKN021 06/06 Q1013=
METAR EGGP 110320Z 36004KT 340V040 9999 -SHRA FEW018 SCT031 05/03
    Q1011=
METAR EGHI 110320Z NIL=
METAR EGNS 110320Z NIL=
METAR EGNT 110320Z 26008KT 9999 FEW030 02/02 Q1009=
METAR EGNV 110320Z NIL=
METAR EGPB 110320Z AUTO 26019KT 9999 SCT027/// SCT032/// 06/03
    Q0999=

0000021700
275
SAUK34 EGGY 110320
METAR EGHE 110320Z NIL=
METAR EGHK 110320Z NIL=
METAR EGHQ 110320Z NIL=
METAR EGJA 110320Z NIL=
METAR EGJB 110320Z NIL=
METAR EGJJ 110320Z NIL=
METAR EGTE 110320Z NIL=

0000024300
276
SAUK35 EGGY 110320
METAR EGHH 110320Z NIL=
METAR EGKA 110320Z NIL=
METAR EGKB 110320Z NIL=
METAR EGLF 110320Z NIL=
METAR EGMC 110320Z NIL=
METAR EGMD 110320Z NIL=
METAR EGMH 110320Z NIL=
METAR EGTC 110320Z NIL=

0000034700
277
SAUK36 EGGY 110320
METAR EGBE 110320Z NIL=
METAR EGBJ 110320Z NIL=
METAR EGCN 110320Z 28009KT 9999 -RA FEW018 SCT048 07/05 Q1010=
METAR EGSC 110320Z NIL=
METAR EGSD 110320Z NIL=
METAR EGSH 110320Z AUTO 21013KT 9999 RA SCT007/// BKN031///
    OVC039/// 08/07 Q1010=
METAR EGVN 110320Z NIL=
METAR EGWU 110320Z NIL=

0000029800
278
SAUK37 EGGY 110320
METAR EGAE 110320Z NIL=
METAR EGNC 110320Z NIL=
METAR EGNH 110320Z NIL=
METAR EGNJ 110320Z NIL=
METAR EGNO 110320Z NIL=
METAR EGNR 110320Z NIL=
METAR EGPE 110320Z 22011KT 9999 FEW012 02/M00 Q1006=
METAR EGPI 110320Z NIL=
METAR EGPN 110320Z NIL=

0000046100
279
SAUK38 EGGY 110320
METAR EGEC 110320Z NIL=
METAR EGEO 110320Z NIL=
METAR EGPA 110320Z AUTO 28010KT 4100 HZ FEW010/// SCT024/// 03/01
    Q1002=
METAR EGPC 110320Z AUTO 24007KT 9999 NCD 02/M00 Q1003=
METAR EGPL 110320Z AUTO 26017KT 9999 // FEW017/// SCT033/// 03/01
    Q1006=
METAR EGPM 110320Z AUTO 26010KT 9999 FEW027/// SCT048/// 05/02 Q0998=
METAR EGPO 110320Z AUTO 22008KT 9999 NCD 02/M00 Q1005=
METAR EGPU 110320Z NIL=

0000036700
280
SASW32 LSSW 110320
METAR LSGC 110320Z AUTO 00000KT CAVOK 01/01 Q1016=
METAR LSGS 110320Z NIL=
METAR LSZG 110320Z AUTO 04002KT 0150 FG VV002 02/02 Q1018=
METAR LSZR 110320Z AUTO 23002KT 1000 R10/P2000N BR SCT001 03/02
    Q1018=
METAR LSZS 110320Z NIL=
METAR LSZC 110320Z AUTO 22003KT 0250 FG VV002 01/01 Q1018=
METAR LSZL 110320Z NIL=

0000009700
281
SAUS71 KWBC 110200 RRI
METAR
KMTN 110245Z 00000KT 2SM DZ OVC005 03/03 A3024=

0000055600
282
SAGR31 LGAT 110320
METAR LGAD 110320Z NIL=
METAR LGAV 110320Z VRB02KT CAVOK 07/05 Q1020 NOSIG=
METAR LGIR 110320Z 17006KT 9999 FEW025 11/09 Q1021 NOSIG=
METAR LGKL 110320Z NIL=
METAR LGKO 110320Z NIL=
METAR LGKR 110320Z NIL=
METAR LGLM 110320Z AUTO VRB03KT //// // ////// 12/10 Q1020
     RE//=
METAR LGRP 110320Z 00000KT 9999 FEW018 11/07 Q1021 NOSIG=
METAR LGSA 110320Z 26014KT 9999 FEW020 14/09 Q1020=
METAR LGSM 110320Z NIL=
METAR LGTS 110320Z 11004KT 0100 R16/0250 R34/0350 FG OVC001 06/05
      Q1021 NOSIG=

0000009900
283
SAUS72 KWBC 110300 RRF
METAR
KAFW 110253Z COR 33006KT 10SM FEW075 10/02 A2980=

0000052300
284
SAGR32 LGAT 110320
METAR LGAL 110320Z NIL=
METAR LGEL 110320Z NIL=
METAR LGIO 110320Z AUTO 00000KT //// // ////// 06/06 Q1022
     RE//=
METAR LGKV 110320Z 09004KT CAVOK 05/05 Q1021=
METAR LGMT 110320Z 00000KT 9999 FEW015 BKN020 11/09 Q1021=
METAR LGPZ 110320Z 08004KT 9999 SCT025 BKN080 12/10 Q1023 NOSIG=
METAR LGRX 110320Z 00000KT 9999 BKN060 10/08 Q1022 NOSIG=
METAR LGSK 110320Z NIL=
METAR LGSR 110320Z AUTO 25011KT //// // ////// 15/11 Q1020
     RE//=
METAR LGZA 110320Z NIL=

0000025500
285
FTUS51 KWBC 110327 AAA
TAF AMD
KLEB 110326Z 1103/1124 00000KT P6SM OVC008
     FM110500 00000KT 3SM -FZDZ BR OVC015
     FM110800 00000KT 1SM -FZRA BR OVC005 WS020/19045KT
     FM111400 19008G18KT 2SM RA BR OVC005 WS020/19055KT=

0000019900
286
FTUS80 KWBC 110327
TAF
TAF AMD PASC 110323Z 1103/1124 25017KT 1SM -SN BR BKN010 OVC020
      TEMPO 1103/1106 4SM -SN BR OVC020
     FM110600 25015KT 4SM -SN BR SCT005 OVC015=

0000025500
287
FTUS80 KWBC 110327 AAA
TAF AMD
KLEB 110326Z 1103/1124 00000KT P6SM OVC008
     FM110500 00000KT 3SM -FZDZ BR OVC015
     FM110800 00000KT 1SM -FZRA BR OVC005 WS020/19045KT
     FM111400 19008G18KT 2SM RA BR OVC005 WS020/19055KT=

0000010800
288
SPUS31 KWBC 110327
SPECI
KLOU 110323Z 18010G15KT 10SM BKN021 BKN060 OVC120 12/09 A2976=

0000010600
289
SPUS41 KWBC 110327
SPECI
KBDL 110323Z 02003KT 1SM R06/P6000FT BR OVC007 01/M01 A3028=

0000009800
290
SPUS41 KWBC 110327
SPECI
KFVE 110323Z AUTO 23008KT 10SM BKN014 M09/M13 A3016=

0000009700
291
SPUS42 KWBC 110327
SPECI
KLCH 110323Z 19012G27KT 7SM -RA OVC004 19/18 A2984=

0000009800
292
SPUS42 KWBC 110327
SPECI
KSHV 110323Z 22007KT 10SM FEW009 OVC013 18/17 A2977=

00000000