0000023400
533
NOUK32 EGGY 102341
SADIS GATEWAY MONITOR
INTERNAL ALARM MESSAGE
AERODROME NOT RECEIVED

OSDI FT LAST RECEIVED AT 101700Z
SKBO FT LAST RECEIVED AT 101000Z
VABB FT LAST RECEIVED AT 100300Z
END OF MESSAGE

0000105900
534
FTUS73 KWBC 102336
TAF
KCOS 102332Z 1100/1124 31015G25KT P6SM FEW090 SCT140
     FM110100 32013KT P6SM FEW140 SCT200
     FM111000 35008KT P6SM FEW200
     FM111900 17008KT P6SM FEW200=
KDSM 102332Z 1100/1124 VRB04KT 1SM -DZ BR OVC002
     FM110300 27008KT 2SM -SN BR OVC003
     FM110600 28009KT 5SM BR BKN011 BKN024
     FM110900 28011KT P6SM SCT012 BKN035
     FM111600 29016G21KT P6SM BKN070=
KLEX 102333Z 1100/1124 15008KT P6SM BKN015
     FM110500 18012G22KT 5SM -SHRA BR OVC010
     FM110900 18014G24KT 4SM -SHRA BR OVC007
     FM111300 24014G22KT P6SM SCT010 BKN035
     FM112000 26013G18KT P6SM BKN025=
KPUB 102332Z 1100/1124 30018G28KT P6SM FEW100 SCT150
     FM110200 29012KT P6SM FEW150 SCT200
     FM110800 26008KT P6SM FEW200
     FM112000 13008KT P6SM FEW200=
KSDF 102333Z 1100/1206 16008KT P6SM VCSH OVC015
     FM110300 18011G21KT 5SM -SHRA BR OVC010
     FM110700 18014G24KT 4SM -SHRA BR OVC007
     FM111200 25015G22KT P6SM SCT010 BKN035
     FM112000 26013G18KT P6SM BKN025=

0000009800
535
SANL33 EHDB 102325 RRA
METAR EHJR 102325Z AUTO 22026G29KT  09/07 Q1011 W10/H18=

0000010200
536
SANL33 EHDB 102325 RRB
METAR EHSC 102325Z AUTO 22025G28KT 9999 06/06 Q1014 W08/H15=

0000010200
537
SANL33 EHDB 102325 RRC
METAR EHSA 102325Z AUTO 22025G29KT 9999 08/06 Q1014 W09/H17=

0000014000
538
SAIO31 KWBC 102300 RRE
METAR
VYMD 102330Z 00000KT 5000 BR NSC 11/11 Q1016=
VYYY 102330Z 03002KT 6000 NSC 20/19 Q1014=

0000008900
539
SAPL31 EPWA 102330 RRA
METAR EPRZ 102330Z 27019KT CAVOK 06/M01 Q1015 =

0000151000
540
FTUS75 KWBC 102336
TAF
PAGS 102333Z 1100/1124 13009KT P6SM -SHRA BKN025 OVC040
     FM110400 VRB05KT P6SM VCSH SCT020 OVC040
     FM110900 00000KT P6SM BCFG SCT003 BKN030
     FM111500 33004KT P6SM BCFG SCT003 BKN060
     FM112100 VRB04KT P6SM VCSH BKN030 OVC050 AMD LTD TO CLD VIS
      AND WIND=
PAGY 102333Z 1100/1124 21016G24KT P6SM VCSH FEW025 OVC070
     FM110200 20012G20KT P6SM VCSH SCT025 OVC050
     FM110600 VRB02KT P6SM VCSH SCT025 OVC050
     FM111000 04005KT P6SM BKN025 OVC050
     FM111500 03008KT P6SM FEW025 BKN050
     FM112200 VRB05KT P6SM VCSH FEW025 OVC050 AMD LTD TO CLD VIS
      AND WIND=
PAJN 102333Z 1100/1124 10009KT P6SM -SHRA SCT015 BKN035 OVC060
     FM110300 09006KT P6SM VCSH SCT010 BKN040
     FM110600 VRB02KT 3SM BCFG SCT003 BKN040
     FM111500 00000KT P6SM BCFG FEW003 BKN070
     FM112100 VRB04KT P6SM VCSH BKN035 OVC070=
PAKT 102333Z 1100/1124 17005KT P6SM VCSH SCT015 BKN040 OVC060
      TEMPO 1100/1103 BKN015 OVC030
     FM110300 VRB03KT P6SM SCT050 OVC100
     FM110700 33008KT P6SM VCSH SCT040 OVC080
     FM111600 32007KT P6SM FEW050 SCT100
     FM112200 30008KT P6SM SCT050 BKN080 AMD LTD TO CLD VIS AND
      WIND 1106/1115=
PAPG 102333Z 1100/1124 13005KT P6SM VCSH FEW010 SCT025 OVC040
     FM110400 VRB03KT P6SM BCFG SCT008 BKN050
     FM110900 00000KT 3SM BR SCT005 SCT070
     FM111600 00000KT 5SM BR FEW005 SCT050
     FM112000 29004KT P6SM SCT035 BKN050 AMD NOT SKED 1106/1115=

0000037200
541
FTUS74 KWBC 102336
TAF
KBTM 102334Z 1100/1124 27015KT P6SM BKN090
     FM110200 30005KT P6SM BKN090
     FM110900 26010KT P6SM BKN070
     FM111500 21018G35KT P6SM BKN070=
KMSO 102334Z 1100/1124 29010KT P6SM VCSH BKN050 OVC090
     FM110100 VRB05KT P6SM OVC090
     FM111000 12009KT P6SM BKN060
     FM111800 24010G20KT P6SM VCSH BKN060=

0000042400
542
SAAL31 DAAA 102330
METAR DAAG 102330Z 13002KT 9999 FEW016 SCT080 15/07 Q1017=
METAR DAAT 102330Z 09016KT CAVOK 14/M02 Q1021=
METAR DABB 102330Z 22003KT CAVOK 08/07 Q1017=
METAR DABC 102330Z 23003KT CAVOK 07/02 Q1020=
METAR DAON 102330Z 28007KT 9999 FEW030 BKN100 16/04 Q1015=
METAR DAOO 102330Z 06002KT 9999 FEW023 SCT100 12/07 Q1015=
METAR DAUH 102330Z 01004KT 9999 FEW040 SCT100 13/08 Q1021=

0000019100
543
SAIE32 EIDB 102330
METAR EICM 102330Z NIL=
METAR EIDL 102330Z NIL=
METAR EIKY 102330Z NIL=
METAR EIME 102330Z NIL=
METAR EISG 102330Z NIL=
METAR EIWF 102330Z NIL=

0000096100
544
SPUS70 KWBC 102336
SPECI
KDHN 102332Z 11005KT 1/2SM FG VV002 14/14 A3008 RMK AO2=
KDVN 102332Z AUTO 18009KT 2SM RA BR OVC005 02/02 A2955 RMK AO2
     UPB2259E02 P0005=
KLBT 102332Z AUTO 02004KT 2SM RA BR FEW024 BKN031 OVC070 18/17
     A3013 RMK AO2 VIS 1 1/4V4 P0011 T01780167=
KTDZ 102332Z AUTO 14012KT 3/4SM BR OVC003 03/02 A2991 RMK AO2
     TSNO=
KUNO 102332Z AUTO 15012KT 2 1/2SM BR OVC002 07/06 A2967 RMK AO2
     RAE06B17E31 P0001 T00670061=
PAJZ 102336Z AUTO 30004KT 1SM BR OVC002 M07/M08 A2952 RMK AO2
     PWINO TSNO $=
KESF 102333Z AUTO 17004KT 3SM -RA BR OVC008 18/17 A2986 RMK AO2
     RAB2254 P0001=
KM19 102333Z AUTO 30012KT 2SM +RA BR OVC004 07/07 A2978 RMK AO2
     P0020=
KMLC 102333Z AUTO 32006KT 4SM -TSRA FEW029 BKN037 BKN047 11/08
     A2965 RMK AO2 PK WND 29026/2319 LTG DSNT NE AND SW TSB04RAB23
     P0012=
KDUJ 102333Z AUTO 13008KT 1 1/2SM BR OVC002 03/02 A3010 RMK
     AO2=

0000017900
545
SACA33 KWBC 102300 RRF
METAR
TFFF 102330Z AUTO 06009KT 030V090 9999 FEW029 SCT038 BKN062 25/20
     Q1015=
TFFR 102330Z AUTO 08005KT 9999 NSC 24/19 Q1016=

0000004200
546
SAHA31 KWBC 102330
NIL=

0000004200
547
SAJP31 KWBC 102330
NIL=

0000004200
548
SAJP41 KWBC 102330
NIL=

0000004200
549
SAJP42 KWBC 102330
NIL=

0000004200
550
SAJP43 KWBC 102330
NIL=

0000073200
551
SACI31 ZBBB 102330
METAR ZBAA 102330Z 36002MPS 8000 NSC M11/M21 Q1032 NOSIG=
ZBSJ NIL=
METAR ZBTJ 102330Z 14001MPS 0400 R16R/1300N FZFG NSC M09/M10 Q1032
NOSIG=
METAR ZBYN 102330Z 12001MPS 7000 NSC M09/M18 Q1028 NOSIG=
METAR ZGGG 102330Z 09002MPS 4000 BR NSC 12/08 Q1025 NOSIG=
METAR ZSHC 102330Z 09002MPS 5000 -RA BR BKN026 05/03 Q1031
NOSIG=
METAR ZSPD 102330Z 07005MPS 9999 -RA FEW030 06/01 Q1032 NOSIG=
METAR ZSSS 102330Z 08004MPS 050V120 9999 OVC040 07/M00 Q1031 NOSIG=
ZWSH NIL=
METAR ZWWW 102330Z 13001MPS 0500 R25/0800N FZFG BKN005 M22/M24 Q1036
NOSIG=
METAR ZYTL 102330Z 00000MPS 3000 BR FEW033 M06/M09 Q1032 NOSIG=
METAR ZYTX 102330Z 13002MPS 5000 FU NSC M17/M21 Q1030 NOSIG=

0000011700
552
SAIO31 KWBC 102300 RRF
METAR
FMCZ 102330Z NIL=
FMEE 102330Z AUTO 12011KT 9999 NSC 26/22 Q1014=

00000000