0000059400
853
SACN31 CWAO 110200 RRA
METAR CYQM 110200Z 22008KT 15SM SKC M06/M08 A3026 RMK SLP253=
METAR CYXX 110200Z 03010KT 6SM -RA OVC025 05/ A2982 RMK SC8 DP 4.6
 VIA CYXC SLP099=
METAR CYYC 110200Z 36003KT 15SM FEW120 SCT220 M07/M10 A2964 RMK
 AC1CI3 SLP088=
METAR CYYQ 110200Z 30004KT 15SM FEW130 BKN270 M28/M31 A2973 RMK
 AC2CI3 SLP072=
METAR CYYT 110200Z 25021KT 15SM SKC M06/M09 A3011 RMK PRESFR SLP205=
METAR CYYZ 110200Z 11006KT 12SM R24R/5000VP6000FT/U SCT005 OVC014
 02/01 A2998 RMK SF3ST5 SLP159=
METAR CYZF 110200Z 30009KT 15SM SKC M27/M29 A2953 RMK SLP031=
0000055200
854
SACN41 CWAO 110200 RRA
METAR CYCD 110200Z 14007KT 5SM -RA BR FEW008 SCT013 OVC022 06/04
 A2976 RMK SF2SC2SC4 SLP079=
METAR CYXJ 110200Z 18006KT 15SM BKN220 M07/M12 A2945 RMK CI6 SLP026=
METAR CYXT 110200Z 01007KT 10SM FEW005 SCT020 BKN040 OVC120 00/00
 A2948 RMK SF2SC1SC2AC3 PRESFR SLP993=
METAR CYXY 110200Z 00000KT 15SM FEW025 SCT060 M16/M19 A2923 RMK
 SC1SC3 SLP959=
METAR CYYE 110200Z 32005KT 15SM SCT040 M17/M20 A2953 RMK SC3 SLP036=
METAR CYYF 110200Z 16002KT 15SM SCT075 OVC110 02/M00 A2985 RMK AC3AC5
 SLP122=
0000039500
855
SACN46 CWAO 110200 RRA
METAR CYGK 110200Z 12006KT 12SM SCT023 BKN050 01/M01 A3011 RMK SC4SC2
 SLP200=
METAR CYXL 110200Z 18006KT 2SM -SN BR OVC005 M07/M07 A2944 RMK ST8
 SLP997=
METAR CYXU 110200Z 16012KT 1 1/2SM BR OVC002 02/02 A2991 RMK FG1ST7
 PRESFR SLP138=
METAR CYYB 110200Z 14008KT 6SM -SN OVC005 M02/M03 A2992 RMK SF8 VIS
 LWR NE PCPN VRY LGT PRESFR SLP154=
0000013100
856
SACN45 CWAO 110200 RRB
METAR CYBB 110200Z 23023G28KT 6SM IC DRSN BKN030 M33/M36 A2950 RMK
SC4 WX CALL-OUT SLP991=
0000017100
857
SAEG33 HECA 110200
METAR
HECA 110200Z 00000KT 1500 BR NSC 11/08 Q1023=
HETR 110200Z 35008KT CAVOK 13/05 Q1021=
HEDF 110200Z NIL= 
HEIS 110200Z NIL=
0000011700
858
SACN47 CWAO 110200 RRB
METAR CYVV 110200Z 15013KT 4SM BR BKN007 OVC012 02/01 A2987 RMK SF7SC1 SLP126=
0000013200
859
SACN47 CWAO 110200 CCA
METAR CYAM 110200Z CCA 10008KT 2 1/2SM BR OVC007 M02/M03 A2974 RMK
 ST8 CIG VRB 6-8 SLP082=
0000014400
860
SACN40 CWAO 110200 CCA
METAR CYWH 110200Z CCA 11009KT 5SM -RA BR SCT004 BKN011 OVC035 08/07
A2973 RMK SF3SC2SC2 PRESFR SLP068=
0000010300
861
SACN45 CWAO 110200
METAR CYHI 110200Z 29007KT 15SM FEW020 M33/M34 A2932 RMK SC1 SLP936=
0000010700
862
SACN45 CWAO 110200 RRC
METAR CYHI 110200Z 29007KT 15SM FEW020 M33/M34 A2932 RMK SC1 SLP936=
0000033400
863
UEOM34 OOMS 110000 RRA
TTDD 1100/ 41256
11861 74962 22768 78562 33640 74364 44609 70365
55438 65376 66421 66375 77367 59581
21212 11021 12003 22021 12003 33021 12003 44021 12003
55021 12003 66021 12003 77021 12003 88021 12003 99021 12003
11021 12003 22021 12003 33021 12003
31313 47908 80035
41414 80001=
0000012800
864
ULOM34 OOMS 110000 RRA
TTCC 11001 41256
70849 75762 26024 50048 67571 26520
30365 ///// ///// 88999
77999=
0000011000
865
SMAF95 HECA 110000 RRX
AAXX 11004
63820 32480 70000 10249 20224 40118 872// 333 58009 87818=
0000010800
866
SACN31 CWAO 110300
METAR CYFB 110300Z 34003KT 15SM FEW210 M27/M32 A2948 RMK CI0 IC
SLP987=
0000010300
867
SACN43 CWAO 110300
METAR CYQF 110300Z 19005KT 15SM BKN070 M05/M05 A2962 RMK AC6 SLP089=
0000011800
868
SACN44 CWAO 110300
METAR CYTH 110300Z 06008KT 5SM -SN BKN018 OVC033 M15/M16 A2949 RMK
ST6ST2 SLP010=
0000009600
869
SACN48 CWAO 110300
METAR CYOY 110300Z AUTO 00000KT 9SM M09/M11 A3021 RMK SLP244=
0000014600
870
SACN52 CWAO 110300
METAR CWEU 110300Z 21009KT 15SM OVC100 M20/M25 A2919 RMK AC7 LAST
OBS/NEXT 110600Z SN COV/MEDIUM PACK SLP887=
0000010300
871
SACN44 CWAO 110300
METAR CYPE 110300Z 20007KT 15SM FEW050 M15/M16 A2948 RMK SC2 SLP031=
0000012500
872
SACN31 CWAO 110300
METAR CYZV 110300Z 32006KT 15SM FEW070 BKN100 BKN140 M10/M14 A3007
RMK AC1AC4AC2 SLP188=
00000000