0000036600
513
FTUS42 KWBC 101921 AAA
TAF AMD
KSHV 101920Z 1019/1118 17011KT P6SM OVC010
      TEMPO 1019/1021 FEW010 SCT015 BKN100
     FM102100 18014G22KT P6SM VCTS OVC009CB
      TEMPO 1023/1103 VRB10G25KT 4SM -TSRA BR BKN015CB
     FM110300 23012G18KT 5SM -TSRA BR OVC009CB
     FM110600 28010G16KT 6SM BR SCT250
     FM111200 27007KT P6SM SKC=

0000054700
514
FTUS31 KWBC 101921 AAA
TAF AMD
KCVG 101918Z 1019/1124 16008KT 6SM BR OVC008
      TEMPO 1019/1021 2SM BR OVC005
     FM110000 15010KT 4SM BR VCSH OVC015
     FM110600 17011KT 4SM -SHRA BR OVC008
     FM111200 22011G20KT P6SM VCSH OVC012
     FM111600 25016G25KT P6SM OVC022
     FM112300 26014KT P6SM BKN025=
KJAX 101918Z 1019/1118 14010KT P6SM VCSH SCT015 BKN025 BKN040
     FM110200 14005KT 5SM BR BKN010 BKN020
     FM110600 15005KT 2SM BR BKN005 OVC010
     FM111400 19012G18KT P6SM VCSH BKN015 OVC025=

0000055300
515
FTUS41 KWBC 101921
TAF
TAF KCEF 1019/1201 VRB06KT 9000 -SN BR SCT015 OVC030 620307
      QNH3035INS
      BECMG 1019/1020 VRB06KT 9999 NSW SCT015 OVC030 620307
      QNH3030INS
      TEMPO 1100/1103 4800 FZDZ 660001
      BECMG 1102/1103 10006KT 4800 FZDZ OVC030 WS020/20040KT
      660001
      620307 QNH3010INS
      BECMG 1107/1108 15006KT 4800 -RA BR OVC015
      WS020/20040KT
      QNH3002INS
      BECMG 1110/1111 17010KT 2400 -RA BR OVC008
      WS020/20050KT
      QNH2941INS T12/1121Z T00/1102Z=

0000057200
516
FTUS72 KWBC 101921 AAA
TAF AMD
KJAX 101918Z 1019/1118 14010KT P6SM VCSH SCT015 BKN025 BKN040
     FM110200 14005KT 5SM BR BKN010 BKN020
     FM110600 15005KT 2SM BR BKN005 OVC010
     FM111400 19012G18KT P6SM VCSH BKN015 OVC025=
KSHV 101920Z 1019/1118 17011KT P6SM OVC010
      TEMPO 1019/1021 FEW010 SCT015 BKN100
     FM102100 18014G22KT P6SM VCTS OVC009CB
      TEMPO 1023/1103 VRB10G25KT 4SM -TSRA BR BKN015CB
     FM110300 23012G18KT 5SM -TSRA BR OVC009CB
     FM110600 28010G16KT 6SM BR SCT250
     FM111200 27007KT P6SM SKC=

0000055300
517
FTUS71 KWBC 101921
TAF
TAF KCEF 1019/1201 VRB06KT 9000 -SN BR SCT015 OVC030 620307
      QNH3035INS
      BECMG 1019/1020 VRB06KT 9999 NSW SCT015 OVC030 620307
      QNH3030INS
      TEMPO 1100/1103 4800 FZDZ 660001
      BECMG 1102/1103 10006KT 4800 FZDZ OVC030 WS020/20040KT
      660001
      620307 QNH3010INS
      BECMG 1107/1108 15006KT 4800 -RA BR OVC015
      WS020/20040KT
      QNH3002INS
      BECMG 1110/1111 17010KT 2400 -RA BR OVC008
      WS020/20050KT
      QNH2941INS T12/1121Z T00/1102Z=

0000059500
518
FTUS71 KWBC 101921 AAA
TAF AMD
KCVG 101918Z 1019/1124 16008KT 6SM BR OVC008
      TEMPO 1019/1021 2SM BR OVC005
     FM110000 15010KT 4SM BR VCSH OVC015
     FM110600 17011KT 4SM -SHRA BR OVC008
     FM111200 22011G20KT P6SM VCSH OVC012
     FM111600 25016G25KT P6SM OVC022
     FM112300 26014KT P6SM BKN025=
KLUK 101918Z 1019/1118 16007KT P6SM OVC011
      TEMPO 1019/1021 5SM BR OVC008
     FM110000 15007KT 4SM BR VCSH OVC018
     FM110600 17007KT 4SM -SHRA BR OVC009
     FM111300 21010G18KT P6SM VCSH OVC012
     FM111600 25012G22KT P6SM OVC022=

0000015400
519
SAUS72 KWBC 101900 RRE
METAR
KBQK 101915Z AUTO 13006KT 10SM OVC007 20/19 A3013=
KLRU 101915Z AUTO 25010G15KT 10SM CLR 14/M10 A3002=

0000010200
520
SAUS73 KWBC 101900 RRG
METAR
KIKK 101915Z AUTO 13011KT 5SM BR OVC005 02/01 A2982=

0000030600
521
SAUS75 KWBC 101900 RRB
METAR
PADK 101916Z AUTO 23017G22KT 10SM FEW020 SCT031 OVC060 04/01
     A2895=
PAGS 101916Z AUTO 13009KT 10SM FEW017 BKN025 OVC034 03/01
     A2950=
PAUN 101916Z AUTO 08014KT 10SM CLR M14/M21 A2961=
PAVD 101916Z 10SM FEW015 BKN090 BKN120 M04/M06 A2938=

0000021300
522
SAAK31 KWBC 101900 RRA
METAR
PAVD 101916Z 10SM FEW015 BKN090 BKN120 M04/M06 A2938=
PAWG 101916Z 23003KT 10SM FEW008 BKN020 BKN050 03/M01 A2966=
PFYU 101916Z 00000KT 10SM FEW100 M37/ A2968=

0000012400
523
SAAK32 KWBC 101900 RRA
METAR
PADK 101916Z AUTO 23017G22KT 10SM FEW020 SCT031 OVC060 04/01
     A2895=

0000017100
524
SAMP31 LMMM 101930
METAR HLLT NIL=
METAR HLLB 101915Z
00000KT 9999 SCT020 BKN080 15/10 Q1025 =
METAR LMML 101915Z 24006KT CAVOK 14/11 Q1023 NOSIG=

0000014000
525
SALT31 EYVI 101920
METAR EYVI 101920Z 27017KT 7000 -SHRA BKN0098 OVC017CB 02/01 Q0993
     R20/2/0295 TEMPO 27026G36KT=

0000140700
526
FTUS80 KWBC 101921 AAA
TAF AMD
KCVG 101918Z 1019/1124 16008KT 6SM BR OVC008
      TEMPO 1019/1021 2SM BR OVC005
     FM110000 15010KT 4SM BR VCSH OVC015
     FM110600 17011KT 4SM -SHRA BR OVC008
     FM111200 22011G20KT P6SM VCSH OVC012
     FM111600 25016G25KT P6SM OVC022
     FM112300 26014KT P6SM BKN025=
KGLD 101919Z 1019/1118 33020G31KT P6SM VCSH OVC040
      TEMPO 1019/1020 3/4SM -SN OVC008
     FM102100 29015G25KT P6SM SCT050 BKN090
     FM110000 29013KT P6SM SKC=
KJAX 101918Z 1019/1118 14010KT P6SM VCSH SCT015 BKN025 BKN040
     FM110200 14005KT 5SM BR BKN010 BKN020
     FM110600 15005KT 2SM BR BKN005 OVC010
     FM111400 19012G18KT P6SM VCSH BKN015 OVC025=
KLUK 101918Z 1019/1118 16007KT P6SM OVC011
      TEMPO 1019/1021 5SM BR OVC008
     FM110000 15007KT 4SM BR VCSH OVC018
     FM110600 17007KT 4SM -SHRA BR OVC009
     FM111300 21010G18KT P6SM VCSH OVC012
     FM111600 25012G22KT P6SM OVC022=
KSHV 101920Z 1019/1118 17011KT P6SM OVC010
      TEMPO 1019/1021 FEW010 SCT015 BKN100
     FM102100 18014G22KT P6SM VCTS OVC009CB
      TEMPO 1023/1103 VRB10G25KT 4SM -TSRA BR BKN015CB
     FM110300 23012G18KT 5SM -TSRA BR OVC009CB
     FM110600 28010G16KT 6SM BR SCT250
     FM111200 27007KT P6SM SKC=
KSOA 101918Z 1019/1118 22012G18KT P6SM SKC
     FM102000 24012G18KT P6SM SKC
     FM110000 VRB03KT P6SM SKC=

0000009200
527
SPCN44 CWAO 101921
SPECI CYMJ 101921Z 26003KT 5/8SM BR OVC004 RMK FG3ST5=

0000010900
528
SPUS44 KWBC 101921
SPECI
KHLN 101917Z 26013G23KT 10SM SCT029 SCT036 OVC100 04/M04 A2968=

0000010600
529
SAIS32 LLBG 101920
METAR LLBG 101920Z 15004KT 9999 SCT050 13/10 Q1021 NOSIG RMK BKN065=

0000033600
530
SASW31 LSSW 101920
METAR LSZH 101920Z VRB02KT 9999 R14/P2000N R16/1300D R28/P2000N
    R34/P2000N BCFG FEW036 SCT230 03/02 Q1020 BECMG 5000=
METAR LSGG 101920Z 00000KT CAVOK 05/03 Q1019 NOSIG=
METAR LSZB 101920Z VRB01KT CAVOK 02/02 Q1019 NOSIG=
METAR LSZA 101920Z VRB01KT 9999 FEW038 BKN042 08/07 Q1021 NOSIG=

0000010800
531
SAIO31 KWBC 101900 RRC
METAR
VRMM 101900Z 07013KT 9999 SCT018 BKN280 28/24 Q1012 NOSIG=

0000013200
532
SAPA31 KWBC 101900 RRA
METAR
PKWA 101920Z AUTO 05017KT 10SM SCT026 SCT039 27/21 A2980 RMK AO2
     T02700214=

00000000