0000008500
673
SAAL41 DAMM 110300 RRB
METAR DAAJ 110300Z 33006KT CAVOK 07/M02 Q1023=
0000008400
674
SAAL41 DAMM 110300 RRC
METAR DAAV 110300Z 00000KT CAVOK 10/06 Q1016=
0000008400
675
SAAL41 DAMM 110300 RRD
METAR DAUI 110300Z 07008KT CAVOK 12/01 Q1019=
0000008400
676
SAAL41 DAMM 110300 RRE
METAR DAUK 110300Z 00000KT CAVOK 08/06 Q1022=
0000008600
677
SADJ20 HDAM 110313
METAR
HDAM 110300 00000KT 9999 SCT020 22/21 Q1017=
0000008400
678
SAAL41 DAMM 110200 RRC
METAR DAUK 110200Z 00000KT CAVOK 08/06 Q1022=
0000008800
679
SAAL41 DAMM 110200 CCC
METAR COR DAUB 110200Z /////KT CAVOK 08/05 Q1019=
0000008400
680
SAAL41 DAMM 110100 RRB
METAR DAUK 110100Z 00000KT CAVOK 08/07 Q1022=
0000009000
681
SABC40 FBSK 110300 RRA
METAR FBSK 110300Z 20004KT CAVOK 20/10 Q1015 NOSIG=
0000008800
682
SAAL41 DAMM 110100 CCC
METAR COR DAUB 110100Z /////KT CAVOK 08/05 Q1020=
0000073200
683
SACI31 ZBBB 110930
METAR ZBAA 110930Z 19003MPS 170V230 8000 NSC 02/M22 Q1027 NOSIG=
ZBSJ NIL=
METAR ZBTJ 110930Z 20003MPS 0600 R16R/1700U FZFG NSC M02/M04 Q1028
NOSIG=
METAR ZBYN 110930Z 25003MPS 5000 HZ NSC 01/M23 Q1026 NOSIG=
METAR ZGGG 110930Z 22002MPS 200V270 4000 HZ NSC 20/11 Q1020 NOSIG=
METAR ZSHC 110930Z 07004MPS 3500 -RA BR SCT006 BKN017 06/05
Q1029 NOSIG=
METAR ZSPD 110930Z 03006MPS 9999 -RA BKN020 05/03 Q1030 NOSIG=
METAR ZSSS 110930Z 07004MPS 020V090 8000 -RA BKN015 05/02 Q1030
NOSIG=
ZWSH NIL=
METAR ZWWW 110930Z VRB01MPS 1000 R25/1100N FU NSC M17/M21 Q1033
NOSIG=
METAR ZYTL 110930Z 27002MPS 3000 BR NSC 01/M05 Q1028 BECMG
TL1030
2000 BR=
METAR ZYTX 110930Z 23002MPS 6000 NSC M03/M16 Q1027 NOSIG=

0000009400
684
SARW20 HRYR 110330
METAR
HRYR 110330Z 00000KT 9999 FEW026 16/16 Q1020 NOSIG=
0000020800
685
SASB31 VCCC 110310
METAR VCBI 110310Z 05008KT CAVOK 26/21 Q1013 NOSIG=
METAR VRMM 110300Z 07013KT 9000 FEW018 29/24 Q1013 NOSIG=
METAR VCRI 110310Z 02006KT 8000 FEW016   26/21 Q1014 NOSIG=
0000008400
686
SAAL41 DAMM 110300 RRF
METAR DAUB 110300Z /////KT CAVOK 08/05 Q1019=
0000008400
687
SAAO32 GOOY 110300 RRA
METAR GANR 110300Z 36002KT CAVOK 22/06 Q////=
0000008400
688
SAAL41 DAMM 110300 RRG
METAR DAUO 110300Z /////KT CAVOK 06/05 Q1021=
0000008500
689
SAAL40 DAMM 110300 RRB
METAR DAAT 110300Z 00000KT CAVOK 11/M04 Q1022=
0000023200
690
SATN40 HTDA 110300
METAR
HTAR NIL=
HTBU NIL=
HTDA NIL=
HTDO NIL=
HTIR NIL=
HTKA NIL=
HTKJ NIL=
HTMB NIL=
HTMG NIL=
HTMT NIL=
HTMU NIL=
HTMW NIL=
HTSO NIL=
HTSU NIL=
HTTB NIL=
HTZA NIL=
0000032700
691
SAAO30 GOOY 110300 RRA
METAR GOSS 110300Z 02004KT CAVOK 15/15 Q1014=
METAR GOOK 110300Z 36006KT 8000 NSC 19/10 Q1014=
METAR GOTT 110300Z 36006KT CAVOK 25/08 Q1010=
METAR GOGG 110300Z VRB02KT CAVOK 20/12 Q1013=
METAR GOGS 110300Z 36006KT CAVOK 19/16 Q1013=
METAR GOTK 110300Z 16004KT CAVOK 23/10 Q1011=
0000010900
692
SAMG20 FMMI 110330
METAR FMMI 110330Z VRB02KT 7000  FEW007 SCT020 BKN230 18/1/ Q1022
NOSIG=
00000000