0000019500
013
FTRO31 LROM 101700 AAA
TAF AMD LRTR 101902Z 1019/1118 VRB04KT 0150 FZFG VV001 PROB30 TEMPO
1019/1023 0800 BKN002 BECMG 1106/1108 3000 BR BKN010 BECMG 1109/1111
5000 BKN020=

0000011800
014
SPUS31 KWBC 101907
SPECI
KLGA 101903Z 06005KT 1 1/2SM -DZ BR FEW007 BKN009 OVC022 00/M02
A3038=

0000012200
015
SPUS31 KWBC 101907
SPECI
KORF 101903Z AUTO 34006KT 2 1/2SM -RA BR SCT004 BKN075 OVC090
05/03 A3033=

0000012700
016
SPUS31 KWBC 101907
SPECI
KSFO 101903Z 06003KT 6SM R28R/1200VP6000FT BR FEW001 SCT007 BKN200
11/09 A3030=

0000009700
017
SPUS42 KWBC 101907
SPECI
KFTY 101903Z 06005KT 1 1/2SM BR OVC002 09/08 A3013=

0000010200
018
SPUS44 KWBC 101907
SPECI
KHLN 101903Z 27016G33KT 10SM BKN027 BKN038 04/M04 A2968=

0000009800
019
SACA32 KWBC 101900 RRA
METAR
MTPP 1900Z 09011KT 9999 FEW030 32 1014/9 A29/97=

0000039700
020
SANK31 MNMG 101900
METAR
MNPC 101900Z 09008KT 6000 VCRA BKN016TCU 28/25 Q1012
                           RESHRA TCURA W/NW 82%=
MNRS 101900Z 07008KT 9999 FEW020 30/21 Q1010=
MNJG  101900Z 00000KT 9999 BKN020 23/17 Q1012=
MNJU  101900Z 06010KT 9999 SCT020 32/22 Q1012=
MNCH 101900Z 04014KT 9999 SCT025 33/18 Q1010=
MNBL  101900Z 10008KT 9999 SCT017 29/25 Q1012 76%=

0000010800
021
SAIO31 KWBC 101800 RRI
METAR
FMEE 101848Z 12009KT 9999 FEW026 BKN300 26/23 Q1016 NOSIG=

0000023300
022
SANZ31 NZKL 101900
METAR NZAA 101900Z AUTO 11002KT 9999 OVC044/// 17/13 Q1018 NOSIG=
METAR NZWN 101900Z AUTO 36007KT 9999 NCD 15/12 Q1017 NOSIG=
METAR NZCH 101900Z AUTO 03003KT 9999 SCT018/// 14/13 Q1016 NOSIG=

0000010700
023
SAIO31 KWBC 101900 RRA
METAR
FMCZ 101900Z NIL=
VYMD 101900Z NIL=
VYYY 101900Z NIL=

0000065300
024
SAMS38 WMKK 101900
METAR WBGB 101900Z 11003KT 9999 FEW016 BKN150 25/24 Q1011=
METAR WBGR 101900Z 19001KT 9999 SCT014 SCT150 BKN300 24/24 Q1010=
METAR WBGS 101900Z 27001KT 9999 SCT018 BKN150 23/23 Q1011=
METAR WBKL 101900Z 00000KT 9999 FEW010 SCT140 BKN290 25/24 Q1010=
METAR WBKS 101900Z 05014G24KT 010V080 9999 -RA FEW014 SCT140 OVC250
26/23 Q1010=
METAR WBKW 101900Z 06002KT 9999 FEW017 BKN140 25/22 Q1009=
METAR WMKD 101900Z 36003KT 9999 FEW012 SCT160 BKN260 23/22 Q1011
NOSIG=
METAR WMKL 101900Z 08006KT 9999 FEW026 SCT140 BKN270 27/22 Q1012=
METAR WMKM 101900Z 03004KT 9999 FEW017CB SCT140 BKN270 24/23 Q1011=

0000010000
025
SAAG41 SAVC 101900
METAR SAVC 101900Z  05015KT 9999  SCT040 BKN200
18/02 Q1013=

0000009700
026
SASB31 VCRI 101910
METAR VCRI 101910Z 04008KT 9000 FEW016   23/21 Q1012 NOSIG=

0000040800
027
SARS31 RUMS 101900
METAR ULWC 101900Z 18003MPS 3400 -SN BKN002 OVC/// 00/00 Q0984 RESN
TEMPO 0500 SHSNRA BKN002 RMK QBB070 QFE728/0971 SC034=
METAR UUBP 101900Z NIL=
METAR UUOB 101900Z 23006G09MPS 3000 -RA BR OVC007 03/03 Q1000
29290050 NOSIG=
METAR UUOK 101900Z NIL=
METAR UWGG 101900Z 15007MPS 2800 -SN OVC005 01/00 Q0996 TEMPO 1000
SHSNRA VV004 18620145 RMK QBB150 QFE740=

0000080900
028
SACI41 ZBBB 101900
METAR ZBHH 101900Z 07002MPS CAVOK M19/M26 Q1028 NOSIG=
METAR ZGHA 101900Z 35003MPS 1600 -RA BR SCT002 BKN006 OVC033
05/04
Q1028 NOSIG=
METAR ZHCC 101900Z 03001MPS 1500 BR NSC 01/M02 Q1032 NOSIG=
METAR ZHHH 101900Z VRB01MPS 3400 -RA BR SCT015 04/03 Q1030 NOSIG=
METAR ZJHK 101900Z 08002MPS 6000 SCT033 17/16 Q1020 NOSIG=
METAR ZJSY 101900Z 06004MPS 9999 BKN066 21/16 Q1019 NOSIG=
METAR ZLLL 101900Z 36002MPS CAVOK M17/M25 Q1026 NOSIG=
METAR ZSNJ 101900Z 12003MPS 5000 HZ NSC 05/M00 Q1031 NOSIG=
METAR ZSOF 101900Z 06002MPS 3500 BR NSC 03/00 Q1030 BECMG TL2100
2500=
METAR ZUCK 101900Z 29002MPS 4000 BR FEW023 OVC050 06/03 Q1027 NOSIG=
METAR ZYCC 101900Z 22006MPS CAVOK M18/M24 Q1027 NOSIG=
METAR ZYHB 101900Z 25004MPS CAVOK M18/M23 Q1024 NOSIG=

0000012700
029
SARA31 RUMS 101900
METAR UEEE 101900Z 23002MPS 5000 -SN BR OVC200 M43/M48 Q1034 NOSIG
RMK QFE767 23490145=

0000016000
030
SACN62 CYXC 101900
METAR CYXC 101900Z 00000KT 25SM FEW015 FEW050 SCT080 BKN120 OVC230
 M01/M05 A2965 RMK SF1SC1AC2AC2CI3 SF TR SH W SLP071=

0000012700
031
SACN62 CYWK 101900
METAR CYWK 101900Z 23008KT 5SM -SN DRSN BKN016 OVC027 M13/M17 A2972
 RMK SC5SC3 SLP119=

0000047100
032
SARA33 RUMS 101900
METAR UIAA 101900Z VRB01MPS 9999 FEW050CB BKN100 M23/M26 Q1021 NOSIG
RMK QFE707 29CLRD70=
METAR UIBB 101900Z 06002MPS 5000 BR FEW003 M23/M25 Q1028 TEMPO 0300
FG VV002 RMK QFE728/0970 30490530=
METAR UIII 101900Z 00000MPS 9999 SCT050CB BKN100 OVC200 M14/M16 Q1031
TEMPO 0300 -SHSN FG VV001 RMK QFE728/0971 30490340=
METAR UIUU 101900Z 29003MPS 260V320 5000 -SN SCT033 OVC100 M12/M14
Q1027 NOSIG RMK QFE726/0968 26490842=

00000000