0000078900
193
UDAS02 BABJ 110355
AMDAR 1103
LVR CNFPYL 3409N 10905E 110343 F276 MS413 267/071 TB/ S//1=
LVR CNFPYL 3418N 10848E 110346 F276 MS415 269/071 TB/ S//1=
LVR CNFPYL 3434N 10836E 110349 F276 MS415 266/071 TB/ S//1=
LVR CNFPYL 3452N 10827E 110352 F276 MS415 264/075 TB/ S//1=
ASC CNFOZL 3709N 12625E 110351 F172 MS250 281/048 TB/ S//1=
ASC CNFOZL 3709N 12624E 110351 F180 MS264 276/053 TB/ S//1=
ASC CNFOZL 3710N 12622E 110352 F191 MS291 277/054 TB/ S//1=
ASC CNFOZL 3710N 12618E 110352 F207 MS298 270/067 TB/ S//1=
LVR CNFPQK 3642N 11837E 110344 F226 MS340 262/065 TB/ S//1=
LVR CNFPQK 3639N 11905E 110347 F226 MS335 262/067 TB/ S//1=
DES CNFPQK 3645N 11932E 110350 F208 MS295 263/064 TB/ S//1=
LVR CNFPQK 3658N 11950E 110353 F187 MS285 268/043 TB/ S//1=
0000078900
194
UDAS02 BABJ 110353
AMDAR 1103
DES CNFPQL 2619N 10345E 110348 F243 MS226 248/076 TB/ S//1=
DES CNFPQL 2616N 10343E 110348 F235 MS203 247/078 TB/ S//1=
DES CNFPQL 2612N 10340E 110349 F220 MS175 259/073 TB/ S//1=
DES CNFPQL 2607N 10336E 110350 F205 MS148 264/061 TB/ S//1=
ASC CNFOZL 3714N 12636E 110349 F100 MS135 300/029 TB/ S//1=
ASC CNFOZL 3712N 12634E 110349 F115 MS154 304/032 TB/ S//1=
ASC CNFOZL 3709N 12631E 110350 F131 MS183 306/038 TB/ S//1=
ASC CNFOZL 3708N 12628E 110351 F151 MS215 300/039 TB/ S//1=
ASC CNFLWM 2440N 11810E 110350 F171 MS080 254/049 TB/ S//1=
ASC CNFLWM 2438N 11807E 110351 F185 MS099 265/053 TB/ S//1=
ASC CNFLWM 2436N 11804E 110351 F198 MS105 270/064 TB/ S//1=
ASC CNFLWM 2434N 11801E 110352 F213 MS116 262/070 TB/ S//1=
0000010600
195
SIAA22 EGRR 110300 RRA
AAXX 11031
89063 42598 82001 11012 21020 30015 40027 57006 8751/=
0000009600
196
SAIN90 VOVZ 110400
METAR VOVZ 110400Z VRB01KT 3000 BR SCT018 26/21 Q1017 NOSIG =
0000055500
197
FCIN31 VABB 110300
TAF VAAH 110300Z 1106/1115 34006KT 5000 FU FEW100 BECMG 1112/1114
     32004KT 4000 FU/HZ=
TAF VABB 110300Z 1106/1115 10005KT 2500 FU/HZ FEW100
     BECMG 1107/1109 27008KT 3000 FU
     BECMG 1113/1115 33007KT 2500 FU/HZ NSC=
TAF VECC 110300Z 1106/1115 35005KT 2800 HZ NSC
     BECMG 1112/1114 00000KT 1800 BR=
TAF VIDP 110300Z 1106/1115 26005KT 1200 MIFG/FU NSC
     BECMG 1108/1110 33007KT 3000 HZ=
TAF VOCI 110300Z 1106/1115 22005KT 5000 HZ FEW015 SCT100
    TEMPO 1109/1112 FEW025CB BECMG 1117/1118 00000KT 4000 HZ=

0000010300
198
SACN46 CWAO 110400
METAR CYKZ 110400Z 11005KT 5SM BR OVC140 01/01 A2992 RMK AS8 SLP141=
0000024100
199
SOAT10 KWAL 110403
FA8005BC 011040337 OT12 ID:KN-BASS-01 DT:2014 01 11 04 01
:RD -3212 -3228 -3236 -3206 -3212 -3222 -3188 -3209 -3192 -3181
:PR 0501 0488 0497 0451 0504 0476 0472 0458 0481 0475
:B 13.7V
 46+0NN 219E
0000022300
200
SAUK39 EGRR 110350 RRA
METAR EGDR 110350Z 32006KT 9999 FEW030 04/02 Q1016 BLU=
METAR EGQS 110350Z 24011KT CAVOK 01/M01 Q1005 BLU=
METAR EGXC 110350Z 25011KT 5000 -DZ FEW006 SCT010 OVC035 07/07 Q1009 GRN=
0000068500
201
UDNT02 EGRR 110405
AMDAR 1100
LVR EU3147   4641N 05604W 110028 F369 MS630 297/054 TB0 S031=
LVR EU3147   4701N 05443W 110035 F370 MS667 317/045 TB0 S031=
LVR EU3147   4718N 05324W 110042 F369 MS662 303/049 TB0 S031=
LVR EU3147   4736N 05202W 110049 F369 MS652 313/054 TB0 S031=
LVR EU3147   4752N 05039W 110056 F379 MS615 308/056 TB0 S031=
LVR EU3147   4809N 04916W 110103 F379 MS607 314/057 TB0 S031=
LVR EU3147   4829N 04753W 110110 F379 MS592 309/063 TB0 S031=
LVR EU3147   4848N 04629W 110117 F379 MS565 313/056 TB0 S031=
LVR EU3147   4905N 04504W 110124 F380 MS580 314/049 TB0 S031=
LVR EU3147   4922N 04337W 110131 F380 MS542 301/040 TB0 S031=
0000036500
202
UDNA02 EGRR 110405
AMDAR 1103
LVR EU0970   3139N 07456W 110312 F329 MS477 261/042 TB0 S031=
LVR EU0970   3226N 07411W 110319 F329 MS472 276/052 TB0 S031=
UNS EU0970   3313N 07324W 110326 F329 MS475 277/065 TB/ S031=
LVR EU0970   3352N 07227W 110333 F329 MS472 280/075 TB0 S031=
LVR EU0970   3431N 07129W 110340 F329 MS480 283/077 TB0 S031=
0000015700
203
SSVX13 LFPW 110400
ZZYY 41970 11014 0400/ 730907 058812 6113/ 11119 40296 57006 22219
 00216 444 20130 11014 0358/ 50101 80118 80061 9/015=
0000015700
204
SSVX13 LFPW 110400
ZZYY 16593 11014 0400/ 338652 079063 6113/ 11119 40202 52008 22219
 00147 444 20130 11014 0358/ 50101 80120 80013 9/015=
0000012200
205
SNRE20 FMEE 110400
AAXX 11044
61980 24986 /1016 10288 20211 40159 700//
  333 58014 60005 90710 91122=
0000011000
206
UANT01 CWAO 110357
ARP DLH441 5125N04820W 0357 F380 MS65 312/57 KT
DAIMH QXT AME 110357 J92A
0000011100
207
UANT01 CWAO 110357
ARP BAW176A 4900N03535W 0357 F400 MS52 228/34 KT
GZZZC QXT AOW 110357 F17A
0000011100
208
UANT01 CWAO 110357
ARP UAL946 4909N03451W 0357 F360 MS51 195/38 KT
N659UA DDL XXW 110357 F43A
0000011100
209
UANT01 CWAO 110357
ARP DAL176 4946N04122W 0357 F370 MS56 297/33 KT
N1604R QXT AOW 110357 F29A
0000011000
210
UANT01 CWAO 110357
ARP BAW81V 5116N05315W 0357 F350 MS64 296/58 KT
GCIVM QXS YAY 110357 F86A
0000025800
211
SSVX08 KARS 110357
ZZYY 13002 10014 1200/ 720444 023132 6112/
33311 88872 20001 32153 43671 20020 32152 20040 32148 43670
20080 32043 20100 31854 20120 31779 20140 31775 20180 31731
20300 31467 20500 31069
444 20120 10014 1140/ 521//=
0000011000
212
UANT01 CWAO 110357
ARP UAL60 5025N03810W 0357 F360 MS55 267/11 KT
N69063 DDL XXW 110357 F60A
00000000