0000217100
673
SZNZ01 NZKL 111003
CREX++
T000103 A001 D01021 D06025++
-3683144 17478654 AUCT  2014 01 11 09 55 //// 11 07 00 01
03964 3189 03967 3191 03969 3193 03969 3192 03968 3190 03970 3192+
-4402404 -17636748 CHIT  2014 01 11 09 55 //// 11 07 00 01
04710 2016 04683 1986 04711 2010 04739 2034 04720 2011 04727 2014+
-4089929 17623168 CPIT  2014 01 11 09 55 //// 11 07 00 01
03576 2333 03582 2335 03582 2330 03596 2340 03593 2332 03579 2313+
-3618905 17548887 GBIT  2014 01 11 09 55 //// 11 07 00 01
05019 -0011 05022 -0009 05026 -0006 05029 -0005 05021 -0014 05006 -0030+
-3867541 17802288 GIST  2014 01 11 09 55 //// 11 07 00 01
03531 2796 03522 2784 03527 2785 03518 2772 03511 2762 03523 2770+
-4241288 17370277 KAIT  2014 01 11 09 55 //// 11 07 00 01
03102 2229 03084 2206 03097 2214 03107 2218 03116 2222 03131 2231+
-3755040 17815904 LOTT  2014 01 11 09 55 //// 11 07 00 01
02794 0199 02802 0205 02801 0202 02802 0201 02802 0198 02802 0196+
-3704657 17451175 MNKT  2014 01 11 09 55 //// 11 07 00 01
02525 -0137 02516 -0138 02499 -0149 02498 -0143 02485 -0149 02486 -0141+
-3947566 17692007 NAPT  2014 01 11 09 55 //// 11 07 00 01
02579 2056 02578 2051 02597 2066 02590 2054 02613 2072 02611 2066+
-3441483 17304870 NCPT  2014 01 11 09 55 //// 11 07 00 01
-04637 -8235 -04631 -8228 -04657 -8252 -04643 -8237 -04680 -8273 -04682 -8274+
-4581435 17062939 OTAT  2014 01 11 09 55 //// 11 07 00 01
04663 3398 04670 3399 04673 3395 04679 3394 04685 3395 04689 3392+
-2928002 -17789440 RBCT  2014 01 11 09 55 //// 11 07 00 01
05488 2014 05488 2013 05477 2001 05488 2012 05487 2009 05491 2013+
-2925114 -17790384 RFRT  2014 01 11 09 55 //// 11 07 00 01
02407 0211 02384 0187 02389 0191 02389 0190 02394 0194 02401 0200+
-4357010 17277383 SUMT  2014 01 11 09 55 //// 11 07 00 01
01785 1858 01779 1845 01788 1847 01792 1844 01779 1824 01805 1843+
-3764109 17618118 TAUT  2014 01 11 09 55 //// 11 07 00 01
04331 3995 04329 3992 04334 3996 04334 3996 04335 3996 04337 3997+
-4128448 17477985 WLGT  2014 01 11 09 55 //// 11 07 00 01
02946 2012 02957 2019 02961 2019 02963 2016 02960 2009 02971 2015++
7777
0000028700
674
SXHW11 KWAL 111002
B15997E8 011100233"
1,140111,09:00:02,9.5,44,18.7,22.8,1014.1,0.02,13.2,
1,140111,09:15:02,8.9,44,16.4,22.8,1014.0,0.02,13.2,
1,140111,09:30:02,8.6,47,16.2,22.9,1013.9,0.02,13.2,
1,140111,09:45:02,8.1,51,16.5,22.8,1013.8,0.03,13.2, 45+0NN  30W
0000028900
675
SXHW11 KWAL 111002
B159A272 011100243"
1,140111,08:59:52,10.3,67,14.7,22.5,1015.1,0.00,13.3,
1,140111,09:14:52,8.8,72,12.0,22.4,1015.0,0.00,13.3,
1,140111,09:29:52,9.6,79,13.0,22.4,1015.0,0.00,13.3,
1,140111,09:44:52,10.0,72,14.2,22.3,1014.8,0.00,13.3, 46+0NN  30W
0000019100
676
SANO34 ENMI 101920
METAR ENBN 101920Z NIL=
METAR ENBV 101920Z NIL=
METAR ENFG 101920Z NIL=
METAR ENHF 101920Z NIL=
METAR ENRA 101920Z NIL=
METAR ENSH 101920Z NIL=

0000054700
677
SADN31 EKCH 101920
METAR EKCH 101920Z 26013KT 9999 -SHRA FEW010 BKN015 BKN035 06/05
Q1006 NOSIG=
METAR EKBI 101920Z 25010KT 9999 SCT012 BKN030 05/04 Q1007=
METAR EKYT 101920Z 24011KT 9999 FEW012 SCT020 BKN025 06/05 Q1003=
METAR EKRK 101920Z AUTO 27014KT 9999NDV -SHRA  FEW012/// BKN021///
OVC029/// 06/05 Q1006=
METAR EKAH 101920Z AUTO 26012KT 9999NDV BKN028/// 06/04 Q1005=
METAR EKEB 101920Z AUTO 24011KT 9999NDV BKN037/// 06/04 Q1008=
METAR EKRN 101920Z AUTO 27022KT 9999NDV BKN015/// OVC032///
06/06 Q1006=

0000016500
678
SADN32 EKCH 101920
METAR EKVJ 101923Z NIL=
METAR EKSB 101923Z NIL=
METAR EKSN 101923Z NIL=
METAR EKVD 101923Z NIL=
METAR EKOD 101923Z NIL=

0000054700
679
SADN34 EKCH 101920
METAR EKGF 101920Z 23020KT CAVOK 07/05 Q1007=
METAR EKHN 101920Z AUTO 26017KT 210V280 8000NDV FEW016/// BKN035///
BKN140/// ///// Q1010=
METAR EKHR 101920Z AUTO 26018KT 9999NDV FEW042/// 08/05 Q1008=
METAR EKHA 101920Z AUTO 25022KT 9999NDV 07/05 Q1009=
METAR EKHD 101920Z AUTO 29026KT 9999NDV 07/05 Q1005=
METAR EKTE 101920Z AUTO 23021KT 9999NDV SCT013 07/05 Q1008=
METAR EKGC 101920Z AUTO 24022KT 9999NDV 07/06 Q1008=
METAR EKAV 101920Z AUTO 26017KT 9999NDV FEW015/// BKN050///
06/04 Q1004=

0000014800
680
FCSN34 ESWI 101700 AAA
TAF AMD ESPA 101922Z 1019/1024 02010KT 6000 -SN BKN025 TEMPO
1019/1024 2000 SN VV014 RMK ISSUED BY ESSA=

0000011900
681
SAEU31 BKPR 101930
BKPR 101930Z 00000KT 0100 R17/0125 FG BKN003 01/M00 Q1022 NOSIG RMK
 17010095 =

0000010500
682
SPCN44 CWAO 101919
SPECI CYTH 101919Z 09004KT 1SM R06/P6000FT/D -SN OVC020 RMK SN4SC4=

0000046500
683
SAUK31 EGGY 101920
METAR EGBB 101920Z 18007KT 9999 NSC 08/06 Q1010=
METAR EGCC 101920Z 18013KT 9999 -RA FEW027 SCT043 07/05 Q1008=
METAR EGKK 101920Z 21006KT CAVOK 08/06 Q1014=
METAR EGLL 101920Z 20009KT 160V240 9999 FEW043 08/06 Q1013=
METAR EGPF 101920Z 25002KT CAVOK 03/01 Q1006=
METAR EGPH 101920Z 25006KT CAVOK 04/03 Q1006=
METAR EGPK 101920Z VRB03KT 9999 FEW028 03/02 Q1007=
METAR EGSS 101920Z 21008KT 9999 SCT015 07/05 Q1013=

0000065100
684
SAFI31 EFHK 101920
METAR EFHK 101920Z 35011KT 9999 -SN FEW009 BKN012 M01/M03 Q0990 TEMPO
BKN015=
METAR EFJY 101920Z AUTO 01009KT 9999 OVC010 M06/M08
 Q0994=
METAR EFKU 101920Z AUTO 02013KT 9999 -SN OVC016 
M07/M09 Q0996=
METAR EFOU 101920Z AUTO 05009KT 010V080 9999 -SN OVC037/// M11/M13 
Q1003=
METAR EFRO 101920Z AUTO 04019KT 9000 SCT060 BKN115 
M16/M18 Q1008=
METAR EFTP 101920Z AUTO 01008KT 9999 -SN SCT009 
OVC011 M03/M03 Q0994=
METAR EFTU 101920Z AUTO 01006KT 330V030 9999 OVC009/// M00/M01 Q0993 
R08/19//95=
METAR EFVA 101920Z AUTO 03009KT 9999 SG BKN014/// OVC030/// M07/M13 
Q0999 R16/450162=

0000052500
685
SAUK32 EGGY 101920
METAR EGAA 101920Z 23004KT 9999 MIFG NSC 03/03 Q1008=
METAR EGAC 101920Z 25005KT CAVOK 06/02 Q1008=
METAR EGFF 101920Z 21007KT 9999 FEW045 09/07 Q1011=
METAR EGGW 101920Z 20007KT 170V230 9999 SCT009 07/06 Q1012=
METAR EGLC 101920Z 22009KT 9999 -SHRA FEW045 09/06 Q1014=
METAR EGNM 101920Z 21008KT 180V250 9999 -SHRA SCT015 SCT040 07/05
    Q1007=
METAR EGNX 101920Z 22011KT 9999 -SHRA FEW035 SCT045 07/06 Q1010=
METAR EGPD 101920Z 25006KT 230V290 CAVOK 05/02 Q1003 NOSIG=

0000045700
686
SAUK33 EGGY 101920
METAR EGGD 101920Z 19008KT 9999 FEW023 SCT047 08/06 Q1011=
METAR EGGP 101920Z 17008KT 140V200 9999 SCT024 BKN030 08/05
    Q1008=
METAR EGHI 101920Z 22009KT 190V250 9000 -SHRA SCT008 SCT015 08/06
    Q1014 =
METAR EGNS 101920Z NIL=
METAR EGNT 101920Z 23012KT 9999 -SHRA FEW030 08/06 Q1005=
METAR EGNV 101920Z 19015KT 9999 SCT020 07/04 Q1006=
METAR COR EGPB 101920Z 24014KT 9999 FEW019 07/04 Q0998 NOSIG=

0000036000
687
SAUK34 EGGY 101920
METAR EGHE 101920Z NIL=
METAR EGHK 101920Z NIL=
METAR EGHQ 101920Z 21009KT 9999 -RA SCT015 08/07 Q1012=
METAR EGJA 101920Z NIL=
METAR EGJB 101920Z 19008KT 9999 FEW012 08/07 Q1015=
METAR EGJJ 101920Z 17008KT 4000 BR BKN003 07/07 Q1015 TEMPO 2000
    BKN002=
METAR EGTE 101920Z 18008KT 9999 FEW040 09/07 Q1012=

0000037400
688
SAUK35 EGGY 101920
METAR EGHH 101920Z 25007KT 6000 -RA FEW022 SCT036 08/06 Q1014=
METAR EGKA 101920Z 25014KT 9999 FEW020 SCT030 09/07 Q1015=
METAR EGKB 101920Z NIL=
METAR EGLF 101920Z 19008KT 9999 FEW020 08/06 Q1013=
METAR EGMC 101920Z NIL=
METAR EGMD 101920Z NIL=
METAR EGMH 101920Z 21009KT 9999 FEW018 07/06 Q1015 =
METAR EGTC 101920Z NIL=

0000033700
689
SAUK36 EGGY 101920
METAR EGBE 101920Z 18008KT CAVOK 08/05 Q1011=
METAR EGBJ 101920Z 18009KT 9999 FEW030 09/05 Q1011=
METAR EGCN 101920Z 19010KT CAVOK 07/05 Q1010=
METAR EGSC 101920Z NIL=
METAR EGSD 101920Z NIL=
METAR EGSH 101920Z 20008KT CAVOK 07/06 Q1012=
METAR EGVN 101920Z NIL=
METAR EGWU 101920Z NIL=

0000038400
690
SAUK37 EGGY 101920
METAR EGAE 101920Z NIL=
METAR EGNC 101920Z NIL=
METAR EGNH 101920Z NIL=
METAR EGNJ 101920Z 20013KT 9999 -RA NSC 07/05 Q1009=
METAR EGNO 101920Z NIL=
METAR EGNR 101920Z 16007KT 9999 FEW030 08/06 Q1008=
METAR EGPE 101920Z 20007KT 9999 FEW040 03/00 Q1003=
METAR EGPI 101920Z NIL=
METAR EGPN 101920Z 21004KT 150V260 CAVOK 05/05 Q1005=

0000043700
691
SAUK38 EGGY 101920
METAR EGEC 101920Z NIL=
METAR EGEO 101920Z NIL=
METAR EGPA 101920Z 24014KT 9999 VCSH FEW018 SCT032 06/03 Q1000=
METAR COR EGPC 101920Z 25006KT 9999 FEW030 03/01 Q1002=
METAR EGPL 101920Z AUTO 26016KT 9999 // FEW033/// 05/01 Q1004=
METAR EGPM 101920Z AUTO 21010KT 9999 SCT028/// BKN048/// 06/03 Q0997=
METAR EGPO 101920Z 26006KT 9999 FEW014 FEW018CB 04/03 Q1002=
METAR EGPU 101920Z NIL=

0000037500
692
SASW32 LSSW 101920
METAR LSGC 101920Z AUTO 00000KT 1600 BR NCD 00/00 Q1018=
METAR LSGS 101920Z 08004KT 9999 SCT100 05/02 Q1019=
METAR LSZG 101920Z AUTO 00000KT CAVOK 03/02 Q1019=
METAR LSZR 101920Z AUTO 00000KT 9999 BKN070 BKN080 05/03 Q1019=
METAR LSZS 101920Z NIL=
METAR LSZC 101920Z AUTO VRB01KT 7000 NCD 03/02 Q1019=
METAR LSZL 101920Z NIL=

00000000