0000013900
053
SSVX13 LFPW 110500
ZZYY 41597 11014 0500/ 727955 078834 6113/ 22219 00261 444 20130
 11014 0300/ 50101 80122 80002 9/015=
0000015700
054
SSVX13 LFPW 110500
ZZYY 62534 11014 0500/ 750337 020851 6113/ 11119 40070 57021 22219
 00107 444 20130 11014 0300/ 50101 80144 80034 9/015=
0000015700
055
SSVX13 LFPW 110500
ZZYY 14529 11014 0500/ 333421 036086 6113/ 11119 40136 52025 22219
 00229 444 20130 11014 0300/ 50101 80124 80002 9/015=
0000015700
056
SSVX13 LFPW 110500
ZZYY 44546 11014 0500/ 745141 030503 6113/ 11119 49965 52014 22219
 00135 444 20130 11014 0300/ 50101 80138 80034 9/015=
0000015700
057
SSVX13 LFPW 110500
ZZYY 44770 11014 0500/ 749208 017877 6113/ 11119 40116 57027 22219
 00115 444 20130 11014 0300/ 50101 80138 80003 9/015=
0000015700
058
SSVX13 LFPW 110500
ZZYY 14525 11014 0500/ 333250 071817 6113/ 11119 40277 52006 22219
 00202 444 20130 11014 0300/ 50101 80150 80019 9/015=
0000015700
059
SSVX13 LFPW 110500
ZZYY 14511 11014 0500/ 331683 088987 6113/ 11119 40225 52011 22219
 00214 444 20130 11014 0300/ 50101 80080 80003 9/015=
0000015700
060
SSVX13 LFPW 110500
ZZYY 15547 11014 0500/ 527077 014519 6113/ 11119 40219 57006 22219
 00248 444 20130 11014 0300/ 50101 80142 80008 9/015=
0000014500
061
SSVX13 LFPW 110500
ZZYY 44551 11014 0500/ 744512 016048 6113/ 11119 40132 57019 444
 20130 11014 0300/ 50101 80106 80018 9/015=
0000017200
062
WSUY31 SUMU 111000
SUEO SIGMET 3 VALID 111000/111400Z SUMU-
SUEO MONTEVIDEO FIR EMBD TS OBS/FCST WI S30W057 - S31W055 - S31W057
CB TOP FL420 MOV ENE NC=
0000078400
063
FTAG31 KWBC 102251
TAF
TAF SARE 102300Z 1100/1124 02010KT 9999 SCT030TCU TX28/1119Z
      TN24/1109Z
      BECMG 1105/1107 8000 TSRA SCT025 FEW040CB SCT090
      BECMG 1118/1120 18010KT 9999 FEW030=
TAF SARF 102300Z 1100/1124 02015KT CAVOK TX29/1119Z TN24/1109Z
      BECMG 1113/1115 8000 TSRA SCT025 FEW040CB SCT090
      BECMG 1118/1120 18010KT
      BECMG 1122/1124 9999 FEW030 SCT090=
TAF SARI 102300Z 1100/1124 02010KT CAVOK TX30/1118Z TN20/1109Z
      BECMG 1117/1119 18010KT 8000 TSRA BKN020 BKN035 FEW040CB
      BKN090=
TAF SARP 102300Z 1100/1124 36010KT 9999 SCT035TCU TX28/1119Z
      TN22/1109Z
      BECMG 1114/1116 8000 TSRA SCT020 FEW040CB SCT090
      BECMG 1118/1120 18010KT
      BECMG 1122/1124 9999 FEW030 SCT090=

0000023200
064
FTUS52 KWBC 102251 AAA
TAF AMD
KCSV 102248Z 1023/1118 17006G14KT 6SM BR OVC004
     FM110300 17012G22KT 4SM -SHRA BR OVC003
     FM110800 18012G22KT 2SM SHRA BR OVC002
     FM111600 25010G20KT P6SM OVC015=

0000018800
065
FTUS80 KWBC 102251
TAF
TAF PGSN 102244Z 1023/1118 05014G24KT P6SM VCSH SCT020 SCT120
     FM110000 06014KT P6SM VCSH SCT020
     FM110800 06009KT P6SM VCSH FEW020=

0000023200
066
FTUS80 KWBC 102251 AAA
TAF AMD
KCSV 102248Z 1023/1118 17006G14KT 6SM BR OVC004
     FM110300 17012G22KT 4SM -SHRA BR OVC003
     FM110800 18012G22KT 2SM SHRA BR OVC002
     FM111600 25010G20KT P6SM OVC015=

0000012400
067
SALT31 EYVI 102250
METAR EYVI 102250Z 28017G28KT 250V310 7000 OVC013 02/00 Q0998
     R20/2/0295 NOSIG=

0000036700
068
SASW31 LSSW 102250
METAR LSZH 102250Z 00000KT 2000 0450N R14/0450N R16/1700U R28/P2000N
    R34/P2000N BCFG BKN002 01/00 Q1019 BECMG 0200 VV001=
METAR LSGG 102250Z 00000KT CAVOK 02/01 Q1019 NOSIG=
METAR LSZB 102250Z AUTO VRB01KT 2600 R14/0750D FZFG FEW004 M01/M01
    Q1019=
METAR LSZA 102250Z AUTO VRB02KT 9999 SCT041 BKN046 08/06 Q1022=

0000024900
069
SASW39 LSSW 102250
METAR LSMA 102250Z NIL=
METAR LSMD 102250Z NIL=
METAR LSME 102250Z NIL=
METAR LSMM 102250Z NIL=
METAR LSMP 102250Z NIL=
METAR LSMS 102250Z AUTO 07003KT 010V120 7000NDV FEW110 03/02 Q1020
    RMK GRN=

0000009300
070
SAAI41 FHAW 102250
METAR FHAW 102250Z 13012KT 9999 FEW022 24/19 Q1014 BLU=

0000029000
071
SAMX31 KWBC 102245 RRC
METAR
MMCZ 102246Z 13006KT 8SM SCT015TCU 24/22 A2996 RMK 8/200 CB W=
MMMD 102243Z 15008KT 7SM FEW025TCU 29/19 A2990 RMK 8/200=
MMTP 102244Z 27007KT 10SM SCT250 29/22 A2985 RMK 8/002=
MMUN 102243Z 13005KT 7SM BKN015TCU 26/23 A2996 RMK 8/200=

0000125100
072
FTMX52 MMMX 102252
TAF MMGL 102252Z 1100/1206 24010KT P6SM SCT030 BKN080 TX23/1121Z
TN03/1112Z
         FM110600 24008KT P6SM SCT080 
         FM111200 00000KT P6SM SKC 
         FM111800 24015KT P6SM SCT030 SCT080 
         TEMPO 1122/1202 BKN030 BKN080=
TAF MMMM 102252Z 1100/1206 20010KT P6SM BKN030 BKN230 
         FM110600 00000KT P6SM BKN025 
         FM111000 00000KT 5SM HZ SCT020 
         TEMPO 1112/1115 3SM BR BKN020 
         FM111600 22015KT P6SM SCT030 SCT230 
         TEMPO 1122/1202 BKN030=
TAF MMPR 102252Z 1100/1206 22010KT P6SM SCT120 TX26/1120Z TN15/1112Z 
         FM110600 00000KT P6SM SKC 
         FM111200 02005KT P6SM BKN090 
         FM111800 22010KT P6SM SCT200 
         FM120300 06005KT P6SM SKC=
TAF MMSP 102252Z 1100/1206 24010G25KT P6SM SCT035 TX24/1121Z
TN03/1112Z
         FM110600 24015KT P6SM SKC 
         FM111200 26010KT 6SM HZ SKC 
         FM111800 29010KT P6SM SCT200 
         TEMPO 1121/1201 SCT030 SCT200=
TAF MMZC 102252Z 1100/1206 24015G25KT P6SM SCT040 TX20/1121Z
TN04/1112Z
         FM110600 24015KT P6SM SCT200 
         FM111200 20010KT P6SM SKC 
         FM111800 24018KT P6SM SCT040 
         FM120300 24010KT P6SM SKC=

00000000