0000010200
733
SAPA31 KWBC 102300 RRA
METAR
AYPY 102300Z VRB02KT 9999 FEW017 BKN040 28/25 Q1008=

0000099400
734
FACR40 LEMM 102300
GCCC GAMET VALID 110300/110900 GCGC-
GCCC CANARIAS FIR SUBZONA ISLAS BLW FL150
SECN I:
SIG CLD: BKN ST 008-012/018-020 HFT AMSL LAN COT OF AFRICA.
SECN II:
PSYS: 06 L 1015 SW OF PENINSULA IBERICA STNR WKN.
      06 L 0997 N43 W026 MOV NE INTSF.
      06 L 0973 N48 W032 MOV NE INTSF.
      06 H 1032 N38 W053 EXTENDING CANARIAS MOV S NC.
CLD: LOC BKN CU,SC 020-025/030-035 HFT AMSL MAR APRX WI N31 W016-
N30 W015- N30 W014-N31 W012.
WND/T:  LANZAROTE AD   TENERIFE S AD  LA PALMA  AD
       -------------- -------------- --------------
020HFT 010/006KT PS13 043/007KT PS14 029/003KT PS10
050HFT 003/013KT PS09 043/015KT PS09 080/008KT PS09
100HFT 355/016KT PS01 000/008KT PS01 319/003KT PS01
150HFT 301/025KT MS07 303/022KT MS06 297/018KT MS06
200HFT 302/035KT MS17 288/030KT MS15 293/028KT MS16
300HFT 300/046KT MS42 284/043KT MS41 286/040KT MS42
FZLVL:  104 HFT AMSL   108 HFT AMSL   108 HFT AMSL
MNM QNH:1016 HPA=

0000007700
735
FCIY33 LIIB 102000 AAA
TAF AMD LIMZ 102300Z 1021/1106 CNL=

0000020500
736
FTCN34 CWAO 102300 AAA
TAF AMD CYDN 102316Z 1023/1106 28010KT P6SM SCT015 BKN040 TEMPO
     1023/1106 21/2SM -SN BR BKN008 OVC015
    RMK FCST BASED ON AUTO OBS. NXT FCST BY 110000Z=

0000031000
737
FTCN35 CWAO 102300
TAF CYWA 102316Z 1100/1112 14005KT 2SM -SN OVC005 TEMPO 1100/1106
     P6SM NSW SCT005 OVC020 PROB40 1102/1106 2SM -FZRA BR
    FM110600 14005KT 4SM -FZRA BR SCT003 OVC010 TEMPO 1106/1112 1SM
     -SN -PL OVC003
    RMK FCST BASED ON AUTO OBS. NXT FCST BY 110600Z=

0000009800
738
SAAF20 LFPW 102300 RRB
METAR FABL 102300Z AUTO 19007KT 9999 ////// 19/08 Q1017=

0000012600
739
SACN62 CYTS 102300
METAR CYTS 102300Z 18010KT 15SM -SN OVC016 M02/M05 A2982 RMK SC8 PCPN
 VRY LGT SLP117=

0000133800
740
FTCI31 ZBBB 102300
TAF ZBAA 102140Z 1100/1124 34004MPS 6000 NSC TX02/1107Z TNM10/23Z=
TAF ZBSJ 101910Z 1100/1124 03003MPS 1400 FU NSC TX03/1106Z
TNM11/23Z BECMG 1101/1102 2000 BECMG 1102/1103 3500=
TAF ZBTJ 102136Z 1100/1124 25004MPS 0600 FZFG NSC TX03/1106Z
TNM08/23Z BECMG 1101/1103 1400 HZ BECMG 1104/1106 2000 BECMG
 1112/1114
1400 BECMG 1120/1122 36006MPS 3500=
TAF ZBYN 101901Z 1100/1124 21004MPS 3000 HZ NSC TX03/1107Z
TNM09/22Z BECMG 1110/1111 09004MPS=
TAF ZGGG 102102Z 1100/1124 10004MPS 6000 BKN040 TX21/1107Z
TN12/21Z=
TAF ZSHC 101924Z 1100/1124 09003MPS 3100 -RA BR BKN020 TX07/1106Z
TN03/21Z=
TAF ZSPD 102124Z 1100/1124 10004MPS 5000 -RA BR BKN015 TX07/1106Z
TN04/1120Z BECMG 1108/1110 06004MPS BKN005 OVC040=
TAF ZSSS 102126Z 1100/1124 08004MPS 5000 -RA BR BKN015 TX08/1106Z
TN03/1121Z BECMG 1120/1121 36005MPS=
TAF ZWSH 102126Z 1100/1124 32004MPS 4000 FU NSC BECMG 1104/1105
12003MPS BECMG 1114/1115 32004MPS TXM01/09Z TNM11/00Z=
TAF ZWWW 102131Z 1100/1124 36002MPS 0800 FZFG VV003 TEMPO 1102/1106
0500 FZFG VV002 BECMG 1106/1107 1600 BR NSC BECMG 1111/1112 18002MPS
1000 BR TXM10/08Z TNM21/23Z=
TAF ZYTL 101920Z 1100/1124 28004MPS 2000 BR FEW030 TX03/1106Z
TNM09/21Z BECMG 1101/1102 3000 BR=
TAF ZYTX 101905Z 1100/1124 20004MPS CAVOK TXM02/07Z TNM17/23Z=

0000021900
741
SAIE32 EIDB 102300
METAR EICM 102300Z NIL=
METAR EIDL 102300Z NIL=
METAR EIKY 102300Z NIL=
METAR EIME 102300Z 23011KT 9999 FEW030 02/02 Q1011=
METAR EISG 102300Z NIL=
METAR EIWF 102300Z NIL=

0000013800
742
FTID32 WALL 102303
TAF WALL 102300Z 1100/1206 32006KT 9999 SCT020 BECMG 1103/1105
06008KT TEMPO 1108/1110
FEW020CB=

0000137300
743
FTCI32 ZBBB 102300
TAF ZGKL 101916Z 1100/1124 VRB01MPS 2000 -RA BR SCT020 OVC030
TX10/1108Z TN06/22Z=
TAF ZGNN 101946Z 1100/1124 07003MPS 2000 -RA BR FEW007 SCT013
OVC026 TX14/1107Z TN11/1122Z BECMG 1102/1103 13004MPS 4000 BR=
TAF ZGOW 101914Z 1100/1124 11004MPS 6000 SCT023 SCT040 TX18/1107Z
TN11/22Z=
TAF COR ZGSZ 101938Z 1100/1124 08004MPS 5000 HZ SCT050 TX21/1107Z
TN13/1123Z BECMG 1104/1105 27004MPS BECMG 1111/1112 12004MPS BECMG
 1117/1118
06004MPS=
TAF ZLXY 102131Z 1100/1124 26004MPS 3100 HZ NSC TX07/1107Z
TNM04/23Z=
TAF ZMUB 102238Z 1100/1206 VRB02MPS 3000 FU SCT100 TEMPO 1100/1105
1600 BR BECMG 1106/1108 4000 BECMG 1122/1124 3000 TEMPO 1200/1205
 1600
BR TXM22/1106Z TNM33/1123Z=
TAF ZPPP 101920Z 1100/1124 22007MPS 9999 FEW023 TX16/1108Z
 TN02/1123Z
BECMG 1119/1120 04004MPS=
TAF ZSAM 101905Z 1100/1124 06003MPS 6000 BKN033 TX17/1107Z
TN12/22Z=
TAF ZSFZ 101908Z 1100/1124 03005MPS 9999 OVC023 TX15/1106Z
TN11/00Z=
TAF ZSNB 101942Z 1100/1124 15004MPS 3000 -RA BR FEW009 BKN020
TX08/1106Z TN04/21Z=
TAF ZSQD 102130Z 1100/1124 19003MPS 1700 BR NSC TX05/1106Z
TNM06/22Z BECMG 1101/1102 3000 BECMG 1119/1120 35004MPS 2000=
TAF ZUGY 102104Z 1100/1124 02004MPS 5000 -RA BR FEW005 BKN012
OVC033 TX05/1107Z TN01/22Z=
TAF ZUUU 102011Z 1100/1124 02003MPS 3500 BR SCT040 TX08/1107Z
TN05/00Z=

0000012400
744
SPAU32 AMMC 102306
SPECI YPGV 102300Z 12010KT 9999 4000SE SHRA BKN013 SCT060 OVC180
27/25
     Q1008=

0000013700
745
SACN62 CYXC 102300
METAR CYXC 102300Z 21006KT 20SM SCT030 BKN080 BKN210 03/M03 A2969 RMK
 SC3AC2CI2 SH ALQDS SLP085=

0000011900
746
SACN62 CYXH 102300
METAR CYXH 102300Z 32010KT 30SM SCT110 BKN270 M01/M08 A2956 RMK
 AC4CI3 SLP037=

0000012300
747
SACN62 CYVC 102300
METAR CYVC 102300Z 28005KT 12SM -SN BKN008 OVC012 M05/M07 A2937 RMK
 SC6SC2 SLP969=

0000011900
748
SACN62 CYUY 102300
METAR CYUY 102300Z 19011KT 2 1/2SM -SN BR OVC005 M04/M05 A2993 RMK
 SF8 SLP159=

0000011100
749
SACN62 CYWG 102300
METAR CYWG 102300Z 21007KT 6SM BR OVC017 M05/M07 A2941 RMK SC8
 SLP974=

0000011900
750
SACN62 CYVQ 102300
METAR CYVQ 102300Z 00000KT 25SM BKN080 BKN270 M29/M32 A2976 RMK
 AC5CI2 SLP090=

0000011900
751
SACN62 CYXE 102300
METAR CYXE 102300Z 24005KT 15SM BKN120 OVC250 M06/M08 A2948 RMK
 AC5CI3 SLP019=

0000012800
752
SACN62 CYWK 102300
METAR CYWK 102300Z 22007KT 10SM -SN DRSN SCT014 OVC041 M12/M15 A2974
 RMK SC4SC4 SLP123=

00000000