0000015100
453
SACN62 CYBD 102000
METAR CYBD 102000Z 30007KT 12SM FEW012 SCT047 BKN200 05/02 A2984 RMK
 SC1SC2CS4 VIS W 6 IN LO CLD  HALO SLP106=

0000011900
454
SACN62 CYCY 102000
METAR CYCY 102000Z 27004KT 15SM FEW140 SCT160 M26/M30 A2914 RMK
 AC1AS2 SLP872=

0000005200
455
RRIN23 VECC 111003
RQRPT 553-574=

0000011000
456
SAIN90 VILK 111000
METAR VILK 111000Z 09004KT 1200 R27/1300 BKN020 BKN100 18/14 Q1015
NOSIG=
0000010200
457
SAAG41 SACO 102000
METAR SACO 102000Z  14014KT 9999  SCT030 FEW040CB
28/19 Q1011=

0000010000
458
SAAG41 SAVC 102000
METAR SAVC 102000Z  05013KT 9999  SCT040 SCT200
18/02 Q1012=

0000012800
459
FCAJ31 UBBB 110500
TAF UBBN 110500Z 1106/1115 26008KT 2500 BR OVC010
620100 TEMPO 1106/1112 1300 SN BR OVC005=
0000011700
460
SAAJ31 UBBB 110500
METAR UBBQ 110500Z 35008KT 3500 BR NSC M04/M05 Q1016
R16/CLRD70 NOSIG RMK MT OP=
0000012800
461
SPBY31 UMMN 110500
SPECI UMII 110500Z 28008G13MPS 4100 -SHRASN BKN007 OVC011CB 02/M01
Q0993 TEMPO 2000 BKN005=
0000010500
462
SATR31 UTAA 110500
METAR UTAA 110500Z 11002MPS 9999 BKN230 05/M06 Q1021
30CLRD70 NOSIG=
0000022800
463
FTAJ31 UBBB 110500
TAF UBBL 110500Z 1106/1206 VRB04KT 6000 SCT020 SCT100 TX05/1111Z
TNM03/1203Z BECMG 1107/1109 14008KT BKN020 OVC080 TEMPO
1109/1118 -RA BKN007 OVC030 BECMG 1118/1120 34014KT SCT012
BKN020=
0000024300
464
SAGG31 UGTB 110500
METAR UGTB 110500Z 28007KT CAVOK M02/M06 Q1019 R31L/CLRD80 NOSIG=
METAR UGSB 110500Z 13012KT CAVOK 06/M02 Q1021 R13/CLRD70 NOSIG=
METAR UGKO 110500Z 31003KT 270V030 CAVOK 03/M05 Q1018 R07/09//70
 NOSIG=
0000057400
465
FCTR31 UTAA 110500
TAF UTAA 110430Z 1106/1118 09008MPS 5000 SCT030 530005 BECMG
1114/1115 30008MPS=
TAF UTAK 110430Z 1106/1118 18007G12MPS 9999  BKN016 530001 TEMPO
1106/1110 13006G11MPS=
TAF UTAV 110430Z 1106/1118 19008MPS 5000 SCT050 530005 TEMPO
1106/1112 10011G16MPS 2000 DS BKN040 570004=
TAF UTAM 110430Z 1106/1118 23008MPS CAVOK 530005
TEMPO 1106/1112 17007G12MPS 3000 BLDU SCT020=
TAF UTAT 110430Z 1106/1118 20005MPS 5000 SCT020 OVC033 650330 530003
 TEMPO
                   1106/1108 3000 -SG BR OVC007 BECMG 1108/1110
 CAVOK=
0000010300
466
SPBY31 UMMN 110500
SPECI UMMG 110500Z 29006G09MPS 9999 BKN011 OVC066 03/01 Q1006 NOSIG=
0000022900
467
FTIQ01 ORSU 110500
TAF ORSU 110500Z 1106/1206 14006KT 7000 RA BKN035 BKN070
TEMPO 1109/1115 22008KT 6000 TSSHRA FEW030CB KBN035
BECMG 1115/1117 31008KT 9999 SCT040 SCT200
TEMPO 1202/1206 VRB04KT 3000 BR NSC=
0000010300
468
SAAJ31 UBBB 110500
METAR UBBB 110500Z 18016KT 9999 FEW010 04/03 Q1015 88CLRD70
NOSIG=
0000080800
469
SAUR30 UKMS 110500
METAR UKBB 110500Z 27007MPS 9999 SCT024 BKN040 05/01
         Q1005 88290060    TEMPO 27011G16MPS -SHRA
         SCT015CB=
METAR UKHH 110500Z 27008MPS 9999 OVC017 04/01 Q1001
         25290050  TEMPO 28011G17MPS=
METAR UKOO 110500Z 29003MPS CAVOK 02/M03 Q1017
         34290054 NOSIG=
METAR UKDE 110500Z 28007MPS CAVOK 03/01 Q1009
         20290356 NOSIG=
METAR UKDD 110500Z 28008MPS CAVOK 03/01 Q1007
         26220356 NOSIG=
METAR UKFF 110500Z 25004MPS CAVOK 01/M00 Q1017
         19010070 NOSIG=
METAR UKLL 110500Z 26006MPS 9999 BKN046 04/M03 Q1015
         31CLRD80 NOSIG=
METAR UKCC 110500Z 27008MPS 9999 OVC010 03/02 Q1006
         26290055 TEMPO 28012G17MPS=
METAR UKDR 110500Z 28008MPS CAVOK 02/M00 Q1010
         3619//60 NOSIG=
0000010800
470
SAAJ31 UBBB 110500
METAR UBBG 110500Z 25005KT 9999 FEW100 M02/M06 Q1017
R30/CLRD70 NOSIG =
0000013400
471
SAAJ31 UBBB 110500
METAR UBBN 110500Z VRB02KT 2100 -SN BR OVC004 M10/M11 Q1026
R14R/CLRD60 NOSIG RMK MT OBSC QFE694=
0000012700
472
SAAJ31 UBBB 110500
METAR UBBL 110500Z VRB02KT 6000 SCT013 BKN200 M01/M02 Q1020
R33/CLRD70 NOSIG RMK MT OBSC =
00000000