0000041900
753
SARA33 RUMS 102230
METAR UIAA 102230Z 02004MPS 9999 FEW100 M24/M29 Q1024 NOSIG RMK
QFE709 29CLRD70=
METAR UIBB 102230Z 05001MPS 5000 BR SCT006 M23/M25 Q1028 NOSIG RMK
QFE727/0970 30490240=
METAR UIII 102230Z 00000MPS 9999 SCT020 BKN200 M18/M20 Q1031 NOSIG
RMK QFE728/0971 30490340=
METAR UIUU 102230Z 15003MPS 090V190 9999 -SN SCT033 OVC100 M15/M17
Q1029 NOSIG RMK QFE726/0969 26450545=

0000014000
754
SARA35 RUMS 102230
METAR USCM 102230Z 14003MPS 5000 -SN OVC020 M07/M08 Q1008 TEMPO 1000
SHSN VV003 19490532 RMK QFE719=

0000078900
755
SARS35 RUMS 102230
METAR USPP 102230Z 15003MPS 5000 BR SCT030 BKN086 M07/M07 Q1007
21350139 NOSIG RMK QFE745/0993=
METAR UWKD 102230Z 17007MPS 5000 BR OVC003 M00/M00 Q1003 R11/2/0050
TEMPO OVC002 RMK QFE742/0990=
METAR UWKE 102230Z 00000MPS 4000 BR OVC004 M04/M05 Q1005 NOSIG RMK
 QBB120 QFE737/0983 21420542=
METAR UWKS 102230Z 16008MPS 2700 BR OVC002 M00/M00 Q1000 NOSIG RMK
QBB080 QFE736 24290250=
METAR UWLW 102230Z NIL=
METAR UWOR 102230Z NIL=
METAR UWOO 102230Z 20001MPS M0300 R08/0600N FZFG VV002 M01/M02 Q1009
08590332 NOSIG RMK QBB070 QFE746/0995=
METAR UWSS 102230Z 18006MPS 6000 OVC005 01/M00 Q1007 1219//55 NOSIG
RMK   QFE743=
METAR UWWW 102230Z 18003MPS 9999 OVC006 M01/M02 Q1006 23520540
33//99// NOSIG RMK QFE744/0992 650000=

0000054300
756
SARS36 RUMS 102230
METAR ULAA 102230Z 07007G11MPS 1500 R08/P2000U BLSN OVC006 M18/M20
Q1002 TEMPO 0600 SN BLSN OVC005 RMK QBB200 QFE751/1001 SC050=
METAR ULMM 102230Z 17001MPS 9999 BKN003 M33/M37 Q1017 NOSIG RMK
QBB100 OBST OBSC QFE755 31450239=
METAR ULOO 102230Z NIL=
METAR ULPB 102230Z NIL=
METAR UMKK 102230Z NIL=
METAR UUOO 102230Z 21006MPS 8000 -RA OVC004 02/01 Q0996 NOSIG RMK
12290250=
METAR UUYY 102230Z 04004MPS 2100 -SN BR BKN017 OVC066 M15/M17 Q1004
TEMPO 1000 SN BR 0145//33 RMK QFE744/0992=

0000020800
757
FTID31 WIII 102300
TAF WIII 102300Z 1100/1206 22005KT 5000 HZ FEW020 BECMG 1102/1104 
26010KT 9000 SCT020 TEMPO 1106/1110 4000 TSRA FEW020CB SCT021 
BECMG 1112/1114 22005KT 7000 SCT020=

0000030200
758
FTCN35 CWAO 102200 AAB
TAF AMD CYWA 102235Z 1022/1106 15005KT P6SM SCT008 OVC020 TEMPO
     1022/1102 4SM -SN OVC008
    FM110200 14005KT P6SM SCT008 BKN020 TEMPO 1102/1106 2SM -SN
     BKN008 PROB30 1102/1106 2SM -FZRA BR
    RMK FCST BASED ON AUTO OBS. NXT FCST BY 110000Z=

0000004200
759
SASP36 LEMM 102230
NIL=

0000045700
760
SAAE33 VTBB 102230
METAR VVTS 102230Z 04001KT 9999 FEW017 SCT040 22/20 Q1013 NOSIG =
METAR VVNB 102230Z 32003KT 2500 BR FEW020 BKN050 15/11 Q1020 NOSIG=
METAR VVDN 102230Z 36003KT 4000 BR SCT013 BKN060 20/19 Q1019 NOSIG=
METAR VVPB 102230Z NIL=
METAR VVCR 102230Z 35005KT 9999 FEW017 SCT060 24/18 Q1016 NOSIG=
METAR VVCT 102230Z 00000KT 8000 FEW015 BKN040 23/20 Q1013 NOSIG=
METAR VVPQ 102230Z 05005KT CAVOK 25/19 Q1012 NOSIG=

0000010400
761
SPUS31 KWBC 102235
SPECI
KMCI 102231Z 23006KT 2SM -DZ BR BKN005 OVC011 04/04 A2954=

0000010100
762
SPUS31 KWBC 102235
SPECI
KLIT 102231Z 17007KT 1 1/2SM -RA BR OVC003 12/11 A2974=

0000010200
763
SPUS41 KWBC 102235
SPECI
KAKR 102231Z AUTO 16005KT 1 1/4SM BR OVC002 04/03 A3004=

0000009500
764
SPUS42 KWBC 102235
SPECI
KNEW 102231Z 11007KT 3/4SM BR OVC002 14/13 A2996=

0000010400
765
SPUS43 KWBC 102235
SPECI
KTOL 102231Z 14007KT 9SM BKN006 BKN026 OVC040 03/02 A2992=

0000009100
766
SPUS44 KWBC 102235
SPECI
KNUW 102233Z 07008KT 10SM OVC021 09/06 A2998=

0000009900
767
SPCN45 CWAO 102231
SPECI CYPC 102231Z 30021KT 2SM BLSN FEW090 BKN210 RMK AC2CI2=

0000021100
768
SAAY31 RUMS 102230
METAR UDYZ 102230Z 00000MPS 2300 BR BKN010 M09/M11 Q1028 R09/000070
NOSIG=
METAR UDSG 102230Z 00000MPS 0250 R02/0375VP1500U FZFG FEW001 M22/M24
Q1021 R02/CLRD70 NOSIG=

0000013200
769
SAKY31 RUMS 102230
METAR UCFM 102230Z NIL=
METAR UCFO 102230Z 17003MPS 9000 NSC M06/M11 Q1027 R12/CLRD70 NOSIG=

0000027200
770
SATA31 RUMS 102230
METAR UTDD 102230Z 00000MPS M0050 R09/M0050N FZFG VV001 M08/M09 Q1028
09CLRD70 NOSIG RMK QBB030 QFE702/0936=
METAR UTDL 102230Z 07008G11MPS 1300 R08/P1500N BR SCT006 M05/M06
Q1028 TEMPO 0700 FZFG RMK QFE731/0975 QBB200 8819//65=

0000082300
771
SAKZ31 RUMS 102230
METAR UAAA 102230Z VRB01MPS 1100 R23R/P2000U R23L/P2000D BR FU SCT200
M16/M18 Q1027 8891//60 NOSIG=
METAR UACC 102230Z 19006MPS 9999 -SN DRSN OVC023 M09/M11 Q1025
R22/8/0055 NOSIG RMK QFE737/0983=
METAR UAKK 102230Z 18009MPS 9999 SCT023 BKN220 M14/M17 Q1027
R23/850555 NOSIG RMK QFE723/0964=
METAR UAOO 102230Z NIL=
METAR UARR 102230Z NIL=
METAR UATE 102230Z 12004MPS 0100 R12/0350N FZFG VV001 M03/M04 Q1019
R12/0///70 NOSIG RMK QBB050 QFE762/1017=
METAR UATG 102230Z 21002MPS 5000 BR OVC019 01/01 Q1016 R14/19//65
NOSIG RMK QFE764/1019=
METAR UATT 102230Z 24002MPS 9999 OVC004 M00/M01 Q1009 R13/491040
NOSIG RMK QBB140 QFE738/0984=
METAR UAUU 102230Z 17007MPS 4000 -SHSN BLSN OVC027CB M07/M09 Q1014
TEMPO 19012MPS 1000 SHSN BLSN BKN005CB RMK QFE744/0992=

0000038900
772
FTCA33 KWBC 102236
TAF
TAF TGPY 102230Z 1100/1124 09010KT 9999 SCT020 PROB40
      TEMPO 1106/1110 6000 SHRA SCT017
      BECMG 1110/1112 11014KT FEW020
      BECMG 1122/1124 08008KT FEW018=
TGPY 102230Z 1100/1124 09010KT 9999 SCT020 PROB40
      TEMPO 1106/1110 6000 SHRA SCT017
      BECMG 1110/1112 11014KT FEW020
      BECMG 1122/1124 08008KT FEW018=

00000000