0000010600
453
SAIN90 VANP 110340
METAR VANP 110340Z 15002KT 1500 HZ NSC 19/16 Q1016 BECMG 2500M IN
HZ=
0000011400
454
SAIN90 VEGY 110400
METAR VEGY 110400Z 09008KT 0400 -RA FEW010 BKN018 OVC080 15/14 Q1019 NOSIG =

0000009500
455
SPIN90 VOML 110400
SPECI VOML 110400Z 03005KT 5000 BR FEW020 26/22 Q1015 NOSIG=
0000551000
456
SIIN42 VOMM 110300
AAXX 11034
42182 31992 02705 10082 20082 40187 74442
  333 10202 20071 58010
  555 10000=
43081 31996 00000 10216 20174 39718 40152 70500
  333 10324 20194 58006
  555 10000=
43086 31596 81804 10226 20192 39976 40156 70522 84502
  333 10300 20198 59002
  555 10000=
43105 32597 50000 10220 20195 30160 40167 83501
  333 10278 20185 58004
  555 10000=
43121 31596 09902 10210 20192 39634 40155 70500
  333 10318 20188 59002
  555 10000=
43128 31496 71404 10202 20177 39547 40161 70522 84530
  333 10292 20188 56290 58007 84615 85360
  555 10000=
43147 32996 03603 10234 20197 30144 40166
  333 10305 20209 58006
  555 10000=
43150 31595 10000 10242 20202 30094 40169 71000 81500
222// 20000
  333 10287 20201 58001 81620
  555 10000=
43161 NIL=
43169 NIL=
43177 NIL=
43181 31994 00000 10228 20213 30138 40166 71000
  333 10304 20198 58001
  555 10000=
43182 NIL=
43185 31596 41403 10250 20204 30156 40160 70521 82530
  333 10292 20210 58000 82620 83360
  555 00000 10000=
43189 32597 39901 10246 20226 30157 40166 82502
  333 10300 20218 58010
  555 10000=
43198 32496 30000 10166 20135 39312 40155 82530
  333 10306 20126 56290 58002 82618
  555 10000=
43201 32997 02302 10196 20171 39415 40144
  333 10310 20164 58004
  555 10000=
43205 NIL=
43213 31596 69902 10214 20182 39839 40161 70522 83838
  333 10322 20193 56299 58005
  555 10000=
43220 32597 30902 10234 20210 30148 40155 82530
  333 10292 20195 59001
  555 10000=
43221 32996 00000 10230 20205 30145 40158
  333 10305 20201 59002
  555 10000=
43225 31596 30000 10214 20198 30148 40153 705// 83500
  333 10326 20194 58015
  555 10000=
43226 32496 30902 10224 20202 30117 40147 84530
  333 10315 20200 58007
  555 10000=
43233 31896 40000 10204 20163 39334 40150 70510 84030
  333 10303 20154 58005
  555 10000=
43237 31996 41103 10228 20187 39760 40157 70500 82032
  333 10322 20197 58000 82360 84075
  555 10000=
43245 32997 10000 10234 20203 30137 40164 80001
  333 10307 20214 58002
  555 10000=
43263 NIL=
43271 NIL=
43275 31494 40000 10202 20179 30042 40163 71011 81502
  333 10310 20178 58002
  555 10000=
43277 32597 41802 10240 20210 30066 40167 82110
  333 10310 20170 58009
  555 10000=
43278 32597 30000 10244 20207 30156 40163 82501
  333 10297 20209 58007
  555 10000=
43279 31597 30000 10234 20197 30153 40171 70500 82501
  333 10306 20197 58004 82620
  555 10001=
43284 31596 50000 10240 20216 30023 40139 71042 82531
  333 10334 20222 58004 82620 83075
  555 10000=
43287 NIL=
43291 NIL=
43295 31997 30902 10184 20158 39130 48531 70500 80001
  333 10297 20169 58003 83075
  555 10000=
43301 32997 10702 10208 20169 39638 40174 80001
  333 10310 20165 58015
  555 10000=
43302 32597 70000 10206 20197 39682 40125 82343
  333 10326 20176 59002
  555 10000=
43303 31596 50000 10210 20194 39914 40161 70522 82530
  333 10306 20194 58001
  555 10000=
43311 32597 50505 10276 20238 40135 85400
  333 10334 20264 58007 85620
  555 10000=
43314 32597 51403 10256 20220 40141 83501
  333 10345 20246 58008
  555 10000=
43317 32597 40000 10128 20088 37813 4//// 8////
  333 10190 20072 58///
  555 10000=
43318 32996 01101 10166 20123 38295 48534
  333 10170 20104 58007
  555 10003=
43321 31495 80706 10214 20182 39714 40168 70522 82540
  333 10304 20210 58006 82615 86358
  555 10000=
43325 31596 50904 10224 20185 39839 40156 70522 81531
  333 10324 20183 58009
  555 10000=
43329 32597 23402 10220 20198 30145 40159 82500
  333 10300 20193 58007
  555 10000=
43330 32597 30501 10238 20211 30077 40161 83500
  333 10300 20222 58007
  555 10001=
43331 31596 13404 10222 20200 30116 40161 70510
  333 10301 20195 58004
  555 10001=
43339 32/97 31412 10144 20000 37729 47170 81101
  333 10193 20091 58004
  555 10017=
43341 32996 00000 10141 20129 38980 48503
  333 10275 20095 58006
  555 10000=
43342 32596 60000 10226 20192 39956 40165 83530
  333 10324 20200 58011
  555 10000=
43343 NIL=
43344 31495 20208 10234 20197 30062 40163 70500 81501
  333 10302 20201 58008 81618
  555 10000=
43346 31596 43204 10232 20204 30149 40157 70511 82501
  333 10288 20213 58014 82620 84075
  555 10007=
43347 32597 33602 10234 20216 30143 40154 82501
  333 10289 20216 58007
  555 10007=
43348 31995 20502 10230 20215 30152 40159 70521 80001
  333 10310 20191 58010
  555 10012=
43349 NIL=
43352 32597 40000 10250 20220 40136 81101
  333 10320 20230 58006
  555 10000=
43353 31995 40703 10256 20207 40147 70100 83071
  333 10330 20216 56099 58007 82458
  555 10000=
43354 32597 30000 10246 20206 40141 83500
  333 10335 20210 58009
  555 10000=
43356 NIL=
43360 31996 00203 10246 20196 30004 40154 70500
  333 10308 20216 58003
  555 10010=
43361 32997 00000 10234 20206 30151 40157
  333 10284 20207 58008
  555 10043=
43363 32597 63608 10254 20230 30141 40154 85601
  333 10289 20235 58012
  555 10042=
43369 32597 33602 10278 20255 40129 82502
  333 10315 20263 58006 82620
  555 10002=
43371 31996 00000 10238 20223 30064 40137 70500
  333 10320 20222 58009
  555 10013=
43376 NIL=
43377 31996 00510 10250 20220 30099 40141 70500
  333 10308 20226 58013
  555 10085=
43379 32898 20208 10240 20222 30143 40146 82070
  333 10298 20214 58006
  555 10020=
0000009000
457
SNVE01 KWBC 110100 RRC
BBXX
AMOHK02 11014 99012 11039 46/// ///// 40131=
0000009000
458
SNVE01 KWBC 110200 RRD
BBXX
AMOHK02 11024 99012 11039 46/// ///// 40130=
0000015600
459
SIVB30 KWBC 110300 RRF
BBXX
SHIP 11034 99083 11162 41/97 50514 10260 20232 40133 51020 70022
 84322 22213 00303 2//03 301// 4//03 80240=
0000014700
460
SNVD01 KWBC 110200 RRT
BBXX
44040 11021 99410 70736 46/// /0502 10014 20014 90219 22200 1//00
 70001 333 91203 555 11026 22031=
0000105700
461
SIVD30 KWBC 110300 RRN
BBXX
44060 11031 99413 70721 46/// /0602 10037 20034 40268 90330 22200
 00042 333 91203 555 11021 22021=
44039 11031 99411 70727 46/// /0903 10030 20029 90330 333 91204
 555 11036 22046=
46222 11031 99336 71183 46/// ///// 1//// 90303 22200 00158 11302
 20802 327// 41302 70012=
46225 11031 99329 71174 46/// ///// 1//// 90312 22200 00156 11303
 20802 328// 41302 70013=
46223 11031 99335 71178 46/// ///// 1//// 90318 22200 00158 11301
 20801 327// 41301 70007=
46216 11031 99343 71198 46/// ///// 1//// 90312 22200 00152 11302
 20702 326// 41301 70012=
46126 11031 99540 71666 46/// /2404 10046 49837 90320 22200 00045
 1//00 70001 333 91207 555 11046 22050=
46126 11031 99540 71666 46/// /2204 10045 49834 90330 22200 00045
 1//00 70001 333 91205 555 11047 22051=
46126 11031 99540 71666 46/// /2204 10046 49837 90324 22200 00045
 1//00 70001 333 91205 555 11039 22043=
46126 11031 99540 71666 46/// /2404 10046 49837 90318 22200 00045
 1//00 70001 333 91207 555 11046 22050=
0000015900
462
SIVE30 KWBC 110300 RRD
BBXX
A8RW3 11033 99329 31696 41298 31314 10220 20140 70311 836// 22233=
AMOHK02 11034 99013 11038 46/// ///// 40123=
0000011200
463
SIVF30 KWBC 110300 RRH
BBXX
42086 11031 99550 10064 46/// /0410 10079 40073 57010 22230 00078=
0000023100
464
SNVB01 KWBC 110400
BBXX
46070 11041 99551 11753 46/// ///// 10018 20005 49772 56005 90350
 22200 00037 11106 70031=
52211 11041 99153 11457 46/// ///// 1//// 90348 22200 00281 10705
 20704 305// 41101 70024=
0000276400
465
SNVD01 KWBC 110400
BBXX
46014 11041 99394 71240 46/// /1002 10086 40230 54000 90350 22200
 00113 11407 20401 3//// 41407 70037 333 91203 555 11022 22022
 30341 41004 60349 098021 099020 097018 098015 107006 124004=
46011 11041 99350 71210 46/// /3308 10135 40210 51010 90350 22200
 00142 11305 20502 332// 41305 70027 333 91209 555 11081 22085
 30251 43311 60349 331077 329083 330089 329092 329094 328094=
46211 11041 99469 71242 46/// ///// 1//// 90343 22200 00080 11509
 21007 329// 41506 70046=
46219 11041 99332 71199 46/// ///// 1//// 90340 22200 00142 11405
 20804 329// 41404 70025=
46215 11041 99352 71209 46/// ///// 1//// 90335 22200 00143 11304
 20802 327// 41303 70019=
41002 11041 99319 70748 46/// ///// 10228 40235 50000 90350 22200
 00240 10905 70023=
41113 11041 99284 70805 46/// ///// 1//// 90340 22200 00184 10902
 20902 70011=
41115 11041 99184 70673 46/// ///// 1//// 90341 22200 10802 20802
 335// 41101 70011=
44095 11041 99358 70753 46/// ///// 1//// 90347 22200 00098 10603
 20603 312// 41101 70014=
44100 11041 99363 70756 46/// ///// 1//// 90334 22200 00088 10502
 20502 70010=
51206 11041 99198 71550 46/// ///// 1//// 90333 22200 00253 11405
 21004 333// 41403 70027=
46084 11041 99566 71361 46/// /1104 10048 20000 49925 56043 90350
 22200 00073 11106 20401 300// 41106 70030 333 91206 555 11037
 22038 30347 41006 60349 115036 118034 119030 097025 100028 104030
 81205 90342=
44022 11041 99409 70737 46/// /0402 10013 20008 90345 333 91202
 555 11015 22015=
44099 11041 99369 70757 46/// ///// 1//// 90348 22200 00064 10602
 20602 70009=
44096 11041 99370 70758 46/// ///// 1//// 90347 22200 00069 10902
 20501 312// 40901 70008=
46217 11041 99342 71194 46/// ///// 1//// 90339 22200 00152 11303
 20602 328// 41302 70013=
46243 11041 99462 71241 46/// ///// 1//// 90346 22200 00085 11509
 20707 327// 41506 70044=
46251 11041 99338 71196 46/// ///// 1//// 90339 22200 00158 11303
 21002 327// 41302 70013=
WNGW 11044 99590 71411 41398 42515 10039 2//// 49900 57010 70110
 847// 22223 0//// 20401 318// 41504 5//// 6//// 8//// ICE /////=
44041 11041 99372 70768 46/// /1302 10077 90340 333 91204 555
 11028 22030=
44058 11041 99376 70763 46/// /1805 10074 40219 90340 333 91206
 555 11052 22057=
44064 11041 99370 70760 46/// /1406 10100 40217 90340 333 91206
 555 11065 22070=
44042 11041 99380 70763 46/// /1402 10054 40212 90340 333 91203
 555 11028 22030=
44059 11041 99368 70763 46/// /1805 10137 40212 90340 333 91208
 555 11062 22068=
44063 11041 99390 70764 46/// /0102 10017 40210 90340 333 91203
 555 11027 22029=
44062 11041 99386 70764 46/// /0102 10025 40222 90340 333 91202
 555 11017 22019=
0000018700
466
SNVF01 KWBC 110400
BBXX
BAREU51 11044 99400 10120 46/// ///// 10140 29082 40213 57005
 22275=
BAREU71 11044 99384 70120 46/// /0308 10139 29075 40184 52006
 22264=
0000006100
467
AAUK99 EGRR 110400
Socket stay alive message.
0000012600
468
SIUK43 EGRR 110300 RRA
AAXX 11034
03410 46480 /2705 10034 20021 39681 40121 53016
  333 553// 20000 86/10=
0000034100
469
SZIO01 AMMC 110400
CREX++
T000103 A001 D01021 D06025++
-1211670 09689190 46280 2014 01 11 03 53 3003 11 07 00 01
00943 0043 00950 0047 00953 0047 00948 0040 00956 0046 00960 0047+
-1042940 10566940 46290 2014 01 11 03 53 //// 11 07 00 01
00942 0054 00939 0050 00958 0067 00957 0064 ///// //// ///// ////++
7777

0000046700
470
SZPA01 AMMC 110400
CREX++
T000103 A001 D01021 D06025++
0136250 17293000 67590 2014 01 11 03 53 3015 11 07 00 01
02105 0103 02102 0103 02080 0084 02087 0095 02077 0088 02076 0089+
0710610 17137250 67680 2014 01 11 03 53 3013 11 07 00 01
01328 0056 01327 0059 01327 0061 01320 0057 01320 0060 01315 0057+
0698060 15820000 67950 2014 01 11 03 53 3023 11 07 00 01
01059 0068 01056 0066 01053 0064 01054 0066 01051 0065 01049 0064++
7777

0000191300
471
SZAU01 AMMC 110400
CREX++
T000103 A001 D01021 D06025++
-1927750 14705860 59260 2014 01 11 03 53 3030 11 07 00 01
01355 0180 01360 0183 01362 0184 01359 0179 01368 0186 01366 0182+
-2316110 15079000 59670 2014 01 11 03 53 2998 11 07 00 01
01831 0218 01820 0203 01814 0192 01815 0186 01818 0184 01815 0177+
-3447330 15091170 60420 2014 01 11 03 53 2960 11 07 00 01
00733 -0026 00720 -0041 00715 -0049 00714 -0052 00711 -0058 00715 -0057+
-4105000 14591500 60910 2014 01 11 03 53 2890 11 07 00 01
00504 -0048 00500 -0052 00493 -0060 00493 -0061 00502 -0052 00504 -0052+
-4254640 14793080 61170 2014 01 11 03 53 2897 11 07 00 01
01014 0057 01024 0065 01032 0072 01038 0076 01044 0080 01039 0073+
-3834390 14161360 61410 2014 01 11 03 53 2905 11 07 00 01
00256 -0006 00291 0028 00284 0020 00277 0012 00294 0029 00293 0027+
-3214890 13364170 62000 2014 01 11 03 53 2960 11 07 00 01
00657 0019 00658 0019 00660 0021 00664 0023 00667 0026 00669 0027+
-3387080 12189720 62080 2014 01 11 03 53 2943 11 07 00 01
00762 0112 00759 0109 00750 0099 00743 0092 00743 0091 00740 0088+
-3182560 11573860 62237 2014 01 11 03 53 2970 11 07 00 01
00725 0057 00728 0059 00741 0072 00740 0070 00748 0077 00740 0068+
-2422000 11339750 62385 2014 01 11 03 53 //// 11 07 00 01
00999 -0039 00973 -0066 00958 -0082 00953 -0088 00989 -0053 00943 -0101+
-2181670 11419110 62430 2014 01 11 03 53 //// 11 07 00 01
01518 -0027 01541 -0005 01546 -0001 01552 0005 01533 -0015 01529 -0019+
-1800080 12221830 62650 2014 01 11 03 53 3043 11 07 00 01
04711 0202 04711 0203 04711 0203 04712 0205 04713 0208 04713 0208+
-1247190 13084580 63230 2014 01 11 03 53 3052 11 07 00 01
04977 0027 04985 0027 04993 0026 05001 0026 05009 0024 05015 0023+
-1386000 13641580 63511 2014 01 11 03 53 3045 11 07 00 01
01295 0030 01298 0032 01301 0034 01302 0034 01302 0032 01304 0033++
7777

0000179300
472
SZPS01 AMMC 110400
CREX++
T000103 A001 D01021 D06025++
-0204190 14737360 56130 2014 01 11 03 53 3028 11 07 00 01
01179 0114 01181 0115 01180 0114 01182 0115 01183 0115 01182 0114+
-0669280 15640860 56363 2014 01 11 03 53 //// 11 07 00 01
01033 -0049 01028 -0052 01024 -0054 01028 -0048 01021 -0054 01013 -0060+
-0942890 15995560 56670 2014 01 11 03 53 3040 11 07 00 01
00936 -0042 00941 -0036 00935 -0041 00937 -0039 00936 -0039 00938 -0036+
-1072080 16580190 57131 2014 01 11 03 53 //// 11 07 00 01
03379 2291 03379 2293 03379 2295 03379 2297 03380 2300 03379 2301+
-1551560 16718860 57210 2014 01 11 03 53 //// 11 07 00 01
01327 -0091 01332 -0084 01319 -0095 01319 -0093 01331 -0079 01326 -0082+
-1775690 16830030 57320 2014 01 11 03 53 3015 11 07 00 01
01314 -0049 01311 -0051 01315 -0046 01318 -0042 01320 -0039 01320 -0039+
-4397330 16861610 65180 2014 01 11 03 53 2885 11 07 00 01
01471 0393 01475 0391 01456 0368 01453 0360 01463 0365 01475 0372+
-2120470 -15978530 65980 2014 01 11 03 53 3013 11 07 00 01
00933 0063 00926 0057 00890 0021 00897 0029 00940 0073 00948 0082+
-2113810 -17518140 66600 2014 01 11 03 53 //// 11 07 00 01
01645 0084 01640 0081 01654 0097 01647 0092 01654 0100 01652 0100+
-1382670 -17176110 66840 2014 01 11 03 53 3012 11 07 00 01
01189 0094 01189 0097 01176 0086 01169 0081 01170 0084 01157 0073+
-1813250 17842750 67050 2014 01 11 03 53 3033 11 07 00 01
01874 0101 01870 0099 01866 0096 01868 0101 01871 0105 01859 0094+
-1760530 17743810 67070 2014 01 11 03 53 3033 11 07 00 01
01970 0027 01967 0027 01965 0026 01961 0024 01956 0022 ///// ////+
-0850250 17919500 67440 2014 01 11 03 53 3030 11 07 00 01
02455 -0014 02461 -0005 02449 -0015 02447 -0013 02454 -0004 02453 -0002++
7777

00000000