0000047700
153
SXXX32 EUMS 110949
262AD2C2
OT12 ID:PK-ORMA-10 DT:2014 01 11 09 48
:PRS /1 06571 06574 06596 06592 06596 06602 06607 06606 06610 06622 06612 06610 06619 06617 06615 06613 06620 06616 06615 06612 06615 06616 06620 06615 06622 06627 06625 06633 06626 06631
:RAD /1 ///// ///// ///// ///// ///// ///// ///// ///// ///// ///// ///// ///// ///// ///// ///// ///// ///// ///// ///// ///// ///// ///// ///// ///// ///// ///// ///// ///// ///// /////
:BAT 13.3V
0000036200
154
SXXX32 EUMS 110951
12FFB3C8
:PRS 1 /1 M 3472 3469 3476 3474 3475 3500 3494 3501 3514 3502 3507 3495 3501 3483 3497 3497 3500 3509 3514 3512 3519 3516 3520 3538 3529 3541 3558 3552 3557 :RAD 1 /3 6424 6437 6446 6443 6444 6455 6466 6481 6497 6505 :ENC 1 /5 -144 -144 -144 -144 -144 -144 :SW1 51 /60 0 :SW2 21 /60 0 :BAT 14 /15 13.8 :NAME 12FFB3C8
0000070100
155
SXXX32 EUMS 110951 RRA
22E7E6D2
OT12 ID:ID-ROTE-11 DT:2014 01 11 09 49
:PRS /1 -10803 -10710 -10799 -10805 -10774 -10775 -10773 -10775 -10803 -10800 -10809 -10807 -10803 -10801 -10806 -10804 -10695 -10799 -10805 -10772 -10774 -10775 -10774 -10805 -10804 -10805 -10806 -10803 -10803 -10806
:PR2 /1 04504 04555 04522 04526 04533 04568 04548 04531 04545 04586 04528 04541 04566 04559 04567 04583 04582 04561 04565 04570 04578 04581 04585 04603 04587 04603 04609 04578 04604 04615
:RAD /1 06073 06081 06097 06101 06089 06077 06113 06113 06089 06125 06113 06137 06121 06121 06129 06153 06165 06173 06161 06145 06133 06165 06157 06173 06169 06141 06141 06201 06169 06189
:BAT 12.4V
0000066700
156
SXXX32 EUMS 110952
32CC9580
OT12 ID:ID-ENGG-07 DT:2014 01 11 09 51
:PRS /1 01876 01904 01913 01864 01882 01882 01904 01860 01880 01889 01911 01945 01878 01901 01862 01919 01824 01853 01880 01924 01833 01881 01847 01845 01887 01843 01893 01844 01891 01833
:PR2 /1 05300 05341 05344 05338 05322 05301 05342 05285 05311 05300 05301 05302 05323 05316 05291 05314 05298 05309 05284 05316 05291 05293 05289 05305 05311 05276 05299 05287 05269 05276
:RAD /1 06190 06213 06214 06226 06200 06200 06207 06191 06182 06202 06178 06228 06178 06206 06171 06192 06187 06186 06177 06196 06177 06172 06168 06183 06201 06158 06199 06163 06154 06152
:BAT 13.7V
0000008900
157
SPCN43 CWAO 110044
SPECI CYQF 110044Z 27003KT 10SM -SN OVC045 RMK SC8=

0000008400
158
SAEA20 HKNC 110000 RRD
METAR HKNK 110000Z  00000KT  CAVOK  12/10=

0000009700
159
SPCN31 CWAO 110043
SPECI CYQG 110043Z 16008KT 5SM BR BKN006 OVC030 RMK SF5SC3=

0000009300
160
SAEA20 HKNC 110000 RRE
METAR HKML 110000Z 07005KT 9999 FEW018 26/22 Q1011=

0000010200
161
SAAB31 LATI 110050
METAR LATI 110050Z 16003KT 7000 FEW034 SCT055 10/08 Q1022 NOSIG=

0000010400
162
SACV20 GVNP 110100
METAR GVNP 110100Z /////KT 9999 BKN020 BKN200 XX/XX Q////
NOSIG=

0000012100
163
SPCN42 CWAO 110046
SPECI CYIV 110046Z 09002KT 1 1/2SM -SN BR OVC002 RMK FG5ST3 BEAM
VISBL TO 500 FT=

0000026000
164
FTUS52 KWBC 110018 AAA
TAF AMD
KELD 110015Z 1100/1124 18012G18KT P6SM VCSH OVC012
      TEMPO 1100/1103 3SM TSRA BR OVC006CB
     FM110600 22008KT P6SM SCT020 BKN040
     FM111000 25007KT P6SM SKC
     FM111800 27014G22KT P6SM SKC=

0000067100
165
FTUS80 KWBC 110018 AAA
TAF AMD
KASD 110016Z 1100/1124 12005KT 1/2SM FG OVC002
     FM110800 19010KT 1SM BR OVC001
      TEMPO 1108/1112 2SM TSRA OVC006CB
     FM111500 28009KT P6SM SCT250
     FM111700 32010G18KT P6SM SKC=
KELD 110015Z 1100/1124 18012G18KT P6SM VCSH OVC012
      TEMPO 1100/1103 3SM TSRA BR OVC006CB
     FM110600 22008KT P6SM SCT020 BKN040
     FM111000 25007KT P6SM SKC
     FM111800 27014G22KT P6SM SKC=
KLCH 110017Z 1100/1124 17010KT 5SM -SHRA BR OVC004
      TEMPO 1100/1102 2SM -SHRA BR
     FM110400 20012KT 2SM -SHRA BR OVC003
     FM110900 27008KT 1SM BR OVC001
     FM111400 34008KT P6SM SCT005=

0000239500
166
SPUS70 KWBC 110018
SPECI
KBMG 110014Z 15008KT 1 3/4SM BR OVC006 07/06 A2981 RMK AO2 RAE11
     CIG 003V007 P0000 T00670056=
KASG 110013Z 25012G19KT 5SM TSRA FEW008 BKN015 OVC019 12/10
     A2964=
KORE 110014Z AUTO 21004KT 6SM BR BKN008 OVC013 M01/M02 A3032 RMK
     AO2 CIG 006V010 T10061017=
KSBY 110014Z 11004KT 2SM BR FEW075 OVC090 07/06 A3028 RMK AO2=
KSLN 110014Z 30010KT 10SM BKN030 OVC044 03/01 A2962 RMK AO2
     T00280006=
KSMQ 110014Z AUTO 00000KT 1/2SM FG VV007 01/00 A3031 RMK AO2
     T00060000 TSNO=
KLBT 110014Z AUTO 25003KT 1 1/2SM -RA BR OVC011 17/17 A3013 RMK
     AO2 VIS 1/2V5 P0007 T01720167=
KMNN 110014Z AUTO 15011KT 1 1/4SM BR OVC002 04/04 A2991 RMK AO2
     TSNO=
KMRY 110014Z 31005KT 10SM SCT004 12/10 A3018 RMK AO2=
PABA 110014Z AUTO 27019KT 3SM BR OVC047 M27/M29 A2985 RMK AO2
     FZRANO=
PAJZ 110018Z AUTO 35003KT 3SM BR OVC002 M07/M08 A2951 RMK AO2
     PWINO TSNO $=
PAOH 110014Z AUTO 00000KT 1 3/4SM UP BR FEW007 SCT026 BKN045 01/01
     A2946 RMK AO2 TSNO UPB10 P0000 $=
KAMW 110015Z AUTO 00000KT 3SM BR BKN003 OVC010 00/ A2954 RMK AO2
     CIG 003V006 T0000 $=
KAUW 110015Z AUTO 08005KT 2 1/2SM -SN BR OVC018 M02/M03 A2956 RMK
     AO2 PRESFR P0001 T10221028=
KAVL 110015Z 19003KT 3SM BR OVC003 07/07 A3013 RMK AO2=
KCEU 110015Z AUTO 07004KT 1 3/4SM -RA BR OVC003 10/08 A3014 RMK
     AO2 RAB08 P0000=
KLAF 110015Z 16010KT 4SM RA BR BKN006 BKN035 OVC046 04/04 A2976
     RMK AO2 P0004 T00440039=
KMEB 110015Z AUTO 07007KT 2 1/2SM +RA BR BKN007 OVC012 14/14 A3015
     RMK AO2 P0014 T01390139=
KDUJ 110015Z AUTO 13007KT 6SM BR SCT002 OVC008 03/01 A3011 RMK
     AO2=
KEAU 110015Z 11003KT 2 1/2SM -SN BR OVC004 M02/M02 A2957 RMK AO2
     UPE2358SNB2358 P0000 T10221022=
KHKY 110015Z 00000KT 2SM BR OVC003 06/06 A3017 RMK AO2=
KMIV 110015Z AUTO 00000KT 3/4SM -RA BR SCT003 OVC018 04/04 A3030
     RMK AO2 P0001 T00440044=
KSGH 110015Z AUTO 14011KT 1 1/4SM BR OVC001 05/05 A2990 RMK
     AO2=
KTVC 110015Z 11004KT 2SM -SN OVC007 00/M02 A2975 RMK AO2 SNB13
     P0000 T00001017 $=
PAHC 110015Z AUTO 36012KT 6SM -SN FEW029 SCT038 BKN046 M16/M19
     A2955 RMK AO2 TSNO SNB03BLSNB13E15 P0000 $=
PAHN 110015Z AUTO VRB06KT 10SM OVC009 02/01 A2940 RMK AO2
     T00170006 TSNO=
PABA 110014Z AUTO 27019KT 3SM BR OVC047 M27/M29 A2985 RMK AO2
     FZRANO=

0000009400
167
SPUS41 KWBC 110018
SPECI
KCAK 110014Z 15006KT 1/4SM FG VV005 05/05 A2998=

0000012800
168
SAAG41 KWBC 110000 RRB
METAR
SARL 110000Z 09017KT 9999 TS FEW025 FEW045CB BKN100 BKN200 24/21
     Q1008=

0000009700
169
SAAK32 KWBC 110000 RRA
METAR
PADL 102355Z 35007KT 10SM OVC010 M03/M03 A2946=

0000014500
170
SAJP41 KWBC 110000 RRB
METAR
RJAW 110000Z RTD 05011KT 020V080 9999 FEW020 BKN030 18/06 Q1023
     RMK 2CU020 7CU030 A3023=

0000011000
171
SAMF20 TFFR 110030
METAR TFFR 110030Z AUTO 08006KT 9999 FEW031 BKN058 BKN070 24/20
Q1017=

0000012700
172
SPCN51 CWAO 110045
SPECI CWUW 110045Z AUTO 16009KT 2 3/4SM FEW080 FEW094 M29/ A2906 RMK
VSBY VRBL 1.9V7.0=

00000000