0000015700
153
SSVX13 LFPW 111000
ZZYY 16549 11014 1000/ 346082 063996 6113/ 11119 40148 57009 22219
 00069 444 20130 11014 0900/ 50101 80148 80016 9/015=
0000078600
154
SABZ41 KWBC 102000 RRA
METAR
SBAA 102000Z 33005KT 9999 BKN015 OVC080 ///// Q////=
SBAF 102000Z 20009KT 9999 FEW025 34/21 Q1010=
SBBH 102000Z 07006KT 9999 SCT030 29/17 Q1014=
SBBI 102000Z 28006KT 9999 SCT030 32/16 Q1015=
SBBU 102000Z 32005KT 9999 SCT030 FEW040TCU 35/21 Q1011=
SBCO 102000Z 27013KT 9999 TS VCSH BKN040 FEW045CB BKN100 27///
     Q1011=
SBDN 102000Z 36006KT 9999 SCT045 FEW060TCU BKN100 35/11 Q1009=
SBGW 102000Z 03002KT 9999 SCT025 FEW030TCU 26/18 Q1014 RETS=
SBHT 102000Z 07007KT 9999 BKN020 BKN100 28/23 Q1008=
SBIH 102000Z 15004KT 9999 FEW022 FEW023TCU SCT100 29/23 Q1007=
SBIL 102000Z 07010KT 8000 VCSH SCT015 BKN025TCU BKN090 26/22 Q1
     013=
SBIL 102000Z 07010KT 8000 VCSH SCT015 BKN025TCU BKN090 26/22
     Q1013=

0000005200
155
RRIN23 VIDP 111005
RQRPT 472-513=

0000009200
156
SAIN90 VIDP 111000
METAR VIDP 111000Z 31010KT 3000 HZ NSC 18/07 Q1018 NOSIG=
0000005200
157
RRIN23 VIDP 111005
RQRPT 652-673=

0000009800
158
SAIN90 VOVZ 111000
METAR VOVZ 111000Z 13007KT 4000 HZ SCT018 28/20 Q1013 NOSIG=

0000019800
159
FTIN90 VOMM 110900 CCA
TAF VOMD 110900Z 1112/1218 07010KT 4000 HZ SCT020
     BECMG 1200/1203 00000KT 3000 HZ
     BECMG 07010KT 1205/1206 6000
     BECMG 1212/1213 4000 HZ=

0000035200
160
SNQB45 LQSM 111000
AAXX 11101
14528 42770 11604 10149 20064 39920 40212 81100 333 81850=
14537 42670 20000 10088 20070 30033 40226 81401 333 81643=
14544 42670 40000 10077 20039 39571 40242 82101 333 82843=
14557 42960 32301 10101 20055 39871 40238 83031 333 83360=
14640 41340 70000 10068 20062 39406 48555 72844 87800 333 84806 83620

0000030500
161
SNQB40 LQSM 111000
AAXX 11101
14654 42770 42301 10109 20032 39484 40223 81101 333 81850 83072=
14648 42665 80000 10104 20089 30125 40246 8257/ 333 82646 88461=
14652 42284 42507 11005 21019 37965 48529 82205 333 82803=
14542 42960 30000 10120 20058 30039 40227 58001 80006 333 83275 95900

0000084700
162
SABZ42 KWBC 102000 RRB
METAR
SBJR 102000Z 16006KT 9999 FEW030 33/23 Q1010=
SBME 102000Z 09012KT 9999 FEW020 28/23 Q1012=
SBMT 102000Z 17010KT 4000 TS HZ BKN045 FEW050CB BKN100 26/21
     Q1016=
SBPC 102000Z 08006KT 9999 FEW020 28/18 Q1018=
SBSM 102000Z 11007KT 5000 -TSRA BKN007 SCT025 FEW040CB OVC070 2
     2/21 Q1013=
SBSM 102000Z 11007KT 5000 -TSRA BKN007 SCT025 FEW040CB OVC070
     22/21 Q1013=
SBST 102000Z 15004KT 9999 SCT024 31/23 Q1010=
SBTU 102000Z 00000KT 9999 SCT020 FEW023TCU BKN070 25/24 Q1010=
SBUR 102000Z 14010KT 8000 -TSRA SCT030 FEW050CB BKN100 23/18
     Q1015=
SBVH 102000Z 06004KT 8000 -TSRA SCT015 FEW020CB BKN090 24/22 Q1
     011=
SBVH 102000Z 06004KT 8000 -TSRA SCT015 FEW020CB BKN090 24/22
     Q1011=
SBYS 102000Z 14012KT 9999 SCT048 FEW050TCU SCT070 31/17 Q1012=

0000104400
163
SABZ43 KWBC 102000 RRA
METAR
SBAN 102000Z 30002KT 9999 SCT035 FEW040TCU 27/18 Q1015=
SBAT 102000Z 00000KT 9999 SCT022 31/22 Q1007=
SBBQ 102000Z 07007KT CAVOK 26/15 Q1019=
SBBW 102000Z 09005KT 9999 FEW020 BKN100 25/19 Q1010 RETS=
SBCC 102000Z 22007KT 8000 -RA SCT020 FEW025TCU 24/21 Q1009=
SBES 102000Z 07018KT 9999 FEW025TCU 28/21 Q1012=
SBIZ 102000Z 14004KT 9999 FEW020 32/22 Q1007=
SBJF 102000Z 07004KT 9999 FEW020TCU SCT025 28/18 Q1017=
SBKG 102000Z 11013KT CAVOK 28/18 Q1013=
SBLB 102000Z 10010KT CAVOK 26/21 Q1014 W///S3=
SBLP 102000Z 15008KT 9999 BKN030 SCT100 28/20 Q1011=
SBMK 102000Z 07009KT CAVOK 29/15 Q1013=
SBMS 102000Z 02015KT 9999 FEW030 30/23 Q1008=
SBPJ 102000Z 00000KT 9999 SCT025 SCT100 26/20 Q1009=
SBPN 102000Z 31004KT 9999 FEW025 BKN080 23/22 Q1008=
SBQV 102000Z 13013KT 9999 SCT020 BKN070 25/20 Q1017=
SBTK 102000Z 31002KT 9999 SCT025 FEW030TCU 31/24 Q1007=
SBUF 102000Z 09010KT 9999 SCT021 33/17 Q1010=
SBUL 102000Z 06015KT 7000 -TSRA SCT030 FEW040CB 23/17 Q1015=

0000010700
164
SAMS34 WMKK 102000 RRA
METAR WBKL 102000Z 18001KT 9999 FEW010 SCT140 BKN290 25/24 Q1010=

0000038700
165
FCFR22 LFPW 102000
TAF LFBM 102000Z 1021/1106 12005KT CAVOK BECMG 1101/1103 3000 BR
 BKN005
 BECMG 1103/1105 0400 FG VV///=
TAF LFMO 102000Z 1021/1106 VRB02KT 4000 BR BKN020 PROB30 TEMPO
 1021/1106
 0800 FG SCT020=
TAF LFBC 102000Z NIL=
TAF LFBG 102000Z NIL=
TAF LFBY 102000Z NIL=
TAF LFKS 102000Z NIL=
TAF LFMC 102000Z NIL=
TAF LFMY 102000Z NIL=

0000015500
166
FCFR23 LFPW 102000
TAF LFOC 102000Z NIL=
TAF LFOE 102000Z NIL=
TAF LFOJ 102000Z NIL=
TAF LFRJ 102000Z NIL=
TAF LFRL 102000Z NIL=

0000021600
167
FCFR24 LFPW 102000
TAF LFSO 102000Z 1021/1106 13003KT CAVOK
PROB40 TEMPO 1100/1106 3000 BR
PROB30 TEMPO 1102/1106 BKN005=
TAF LFSI 102000Z NIL=
TAF LFSX 102000Z NIL=
TAF LFYR 102000Z NIL=

0000020300
168
FCFR31 LFPW 102000
TAF LFBA 102000Z NIL=
TAF LFBE 102000Z NIL=
TAF LFCK 102000Z NIL=
TAF LFPN 102000Z NIL=
TAF LFRC 102000Z NIL=
TAF LFRG 102000Z NIL=
TAF LFRK 102000Z NIL=

0000028900
169
FCFR32 LFPW 102000
TAF LFGJ 102000Z 1021/1106 01005KT CAVOK BECMG 1021/1024 VRB03KT 3000
 BR NSC PROB40 1100/1106 0500 FG BKN002=
TAF LFOT 102000Z 1021/1106 07005KT 1500 BR BKN002 TEMPO 1022/1106
-DZRA BKN005 BKN015=
TAF LFJR 102000Z NIL=
TAF LFMD 102000Z NIL=

0000013100
170
FCFR33 LFPW 102000
TAF LFAQ 102000Z NIL=
TAF LFRH 102000Z NIL=
TAF LFRQ 102000Z NIL=
TAF LFSL 102000Z NIL=

0000013100
171
FCFR34 LFPW 102000
TAF LFAT 102000Z NIL=
TAF LFLN 102000Z NIL=
TAF LFPM 102000Z NIL=
TAF LFRT 102000Z NIL=

0000010700
172
SAMS38 WMKK 102000 RRA
METAR WBKL 102000Z 18001KT 9999 FEW010 SCT140 BKN290 25/24 Q1010=

00000000