0000011000
753
NCNC40 EGRR 110900 RRC
03044 01008 555 00036 10010 20012 40044 50054=
03874 555 00096 10053=
0000029100
754
SXXX32 EUMS 110954 RRX
166AC436
OT12 ID:IC-COMI-10 DT:2014 01 11 09 53
:RAD /1 06091 06098 06095 06100 06100 06105 06078 06110 06103 06087 06130 06098 06103 06114 06125 06084 06120 06106 06112 06114 06091 06117 06134 06114 06107 06119 06117 06126 06108 06130
:BAT 13.6V
0000037900
755
SXXX32 EUMS 110954 RRX
12FD90D0
:PRS 1 /1 1466 1451 1443 1428 1430 1431 1417 1421 1398 1423 1432 1411 :RAD 1 /3 5985 5974 5971 5975 5974 5986 6001 6007 6004 6003 :ENC 3 /6 5725 5712 5723 5756 5753 5752 5751 5742 5771 5776 :RA2 3 /6 4879 4863 4873 4901 4890 4895 4886 4881 4922 4935 :SW1 54 /60 39 :SW2 24 /60 60 :BAT 5 /6 12.8 :WTP 5 /6 28.5 28.5 :NAME 12FD90D0
0000045300
756
SXXX32 EUMS 110954 RRX
224AD678
:PRS 2 /1 2319 2314 2311 2309 2308 2309 2307 2304 2301 2298 2297 2299 2301 2302 2298 2277 2275 2272 2272 2269 2267 2268 2265 2264 2260 2256 2250 2246 2243 2238 :RAD 4 /3 5128 5125 5118 5109 5100 5090 5082 5072 5060 5053 5041 5029 5017 5005 4993 4988 4980 4974 4961 4952 :ENC 4 /5 8643 8637 8627 8608 8597 8582 8563 8547 8531 8515 8503 8488 :SW1 54 /60 60 :SW2 24 /60 22 :BAT 14 /15 13.2 :NAME 224AD678 /
0000069900
757
SXXX32 EUMS 110954 RRX
229C0324
OT92 ID:MZ-NIH2-09 DT:2014 01 11 09 44
:RAD /1 0661/ 06613 06617 06626 06624 06625 06625 06635 06635 06638 06642 06640 06652 0/651 06660 06661 06663 06669 06677 06676 0667/ 06687 06687 0/688 06694 0670= 06615 06694 06705 06715/
:PR1 /1 '//// ///// ///// ///// ///// ///// ////' ///// ///// /'/// /////(///// ///// //'// /'/// ///// ///// ///'/ ///// ///// ///// ///// ///'/ ///// ///// /////(///// ///// ///// /////
:PR2 /1 ///// ///// ////' ///// ///// ///// ///// ////' ///'/ ///// ///// ///// ///// ///// ///// ///// ///// ///// ///// //'// ///// ///// ///// ///// ///// ///// ///// ////' ///// //'//
:TM1 /15 /// /// /// ///
:BAT 13.8V
0000063900
758
SXXX32 EUMS 110955 RRX
366C76AC
OT12 ID:IR-CHAB-07 DT:2014 01 11 09 54
:RAD /1 00533 00546 00547 00540 00549 00550 00552 00557 00562 00572 00571 00584 00585 00592 00599 00596 00595 00596 00585 00596 00593 00600 00606 00604 00608 00603 00608 00606 00609 00609
:PR1 /1 00968 00980 00982 00987 00980 00985 01007 01001 01009 01011 01025 01027 01033 01037 01050 01047 01035 01047 01036 01030 01049 01034 01053 01062 01050 01054 01046 01050 01053 01059
:PR2 /1 00966 00960 00959 00956 00955 00965 00963 00962 00960 00956 00966 00962 00963 00958 00958 00954 00956 00954 00952 00962 00960 00960 00959 00958 00956 00952 0096
0000036900
759
SXXX32 EUMS 110957 RRX
22E595B6
:PRS 1 /1 M 4006 4038 4044 4067 4057 4063 4079 4091 4093 4044 4066 4055 4062 4061 4016 4014 4007 4007 4015 4007 4004 3977 4004 3996 3989 4021 3991 4010 3989 :RAD 1 /3 7245 7250 7243 7223 7200 7190 7187 7188 7194 7203 :ENC 2 /5 5367 5383 5349 5318 5305 5309 :SW1 57 /60 0 :SW2 27 /60 60 :BAT 14 /15 12.7 :NAME 22E595B6 /
0000039700
760
SXXX32 EUMS 110957 RRX
16590056
:PRS 1 /1 2395 2404 2408 2411 2419 2423 2430 2438 2435 2443 2445 2446 :RAD 1 /1 6702 6713 6717 6715 6725 6729 6738 6746 6744 6750 6751 6754 6752 6750 6752 6754 6745 6750 :ENC 6 /6 4960 4970 4965 4977 5015 5018 5020 5030 5068 5090 :ENB 6 /6 4960 4970 4966 4977 5015 5016 5021 5030 5066 5088 :SW1 57 /60 0 :SW2 24 /60 0 :BAT 5 /6 12.9 :NAME 16590056
0000065100
761
SXXX32 EUMS 110957 RRX
16AF741C
OT12 ID:SA-MAIS-07 DT:2014 01 11 09 47
:RID /1 08864 08969 08904 08931 08941 08909 08910 08918 08926 08943 08873 08961 08899 08896 08925 08833 09019 09024 08967 08936 08885 08850 08950 08904 08938 08905 08919 09001 08910 08942 09012 08937 08840 08799 08951 09055 08921 08840 09009 09055 08903 08912 09003 08879 08967 08960 08917 08954 08960 09011 08958 08956 08949 08968 08966 08928 09062 08992 09011 08918 08980 08972 08904 09016 08988 08891 08939 08988 08954 08981 09015 08916 08929 08930 08872 09010 09018 08993 08920 09074 09018 08995 08987 08980 09007 09152 08985 09050 09038 08929
:BAT 14.3V
0000009600
762
SAPK31 OPKC 111000 RRA
METAR OPPS 111000Z SE-04KT 5000 HZ FEW200 20/M02 Q1020.0=
0000011100
763
UANT99 KDDL 110959
ARP RCH944 4802N02949W 0959 F330 MS48 195/54 KT
00221A DDL XXN 110959 F68A
0000010900
764
UANT99 KDDL 110959
ARP THY10 5602N03836W 0959 F330 MS59 269/24 KT
TCJJL QXT AOW 110959 F22A
0000011000
765
UANT99 KDDL 110959
ARP XLF057 4801N01646W 0959 F410 MS55 248/51 KT
FGRSQ DDL XXN 110959 J19A
0000068500
766
UDEU02 EGRR 111002
AMDAR 1108
LVR EU9622   5308N 00056E 110854 F360 MS515 247/056 TB/ S031=
LVR EU9622   5228N 00017E 110901 F360 MS523 245/050 TB/ S031=
LVR EU9622   5147N 00028W 110908 F360 MS510 261/046 TB/ S031=
LVR EU9622   5107N 00111W 110915 F360 MS520 266/058 TB/ S031=
LVR EU9622   5028N 00154W 110922 F360 MS555 269/060 TB/ S031=
LVR EU9622   4944N 00227W 110929 F360 MS570 268/057 TB/ S031=
ASC EU9622   4900N 00259W 110936 F368 MS573 275/050 TB/ S031=
LVR EU9622   4815N 00331W 110943 F370 MS598 269/054 TB/ S031=
LVR EU9622   4731N 00401W 110950 F370 MS613 271/052 TB/ S031=
LVR EU9622   4646N 00431W 110957 F370 MS625 266/043 TB/ S031=
0000055800
767
SANO37 ENMI 101850
METAR ENNO 101850Z NIL=
METAR ENOV 101850Z VRB02KT 9999 VCSH FEW020 SCT055 M01/M03 Q0998 RMK
           WIND 2175FT 35008KT=
METAR ENSD 101850Z VRB02KT 9999 FEW015 SCT040 BKN060 02/M02 Q0997 RMK
           WIND 1138FT VRB05KT=
METAR ENSG 101850Z 24010KT 9999 -SHSN FEW010 BKN025 M00/M01 Q0995 RMK
           WIND 4226FT 29033KT=
METAR ENSN 101850Z VRB01KT CAVOK M02/M02 Q0998=
METAR ENSR 101850Z NIL=
METAR ENSS 101850Z 09013KT 8000 VCSH FEW015 SCT035 M04/M06 Q1015 RMK
           WIND 500FT 06021KT=

0000051800
768
SADL34 EDZO 101850
METAR EDGS 101850Z 23006KT CAVOK 01/01 Q1016=
METAR EDLN 101850Z VRB03KT CAVOK 04/03 Q1017=
METAR EDLP 101850Z 23008KT 9999 SCT038 04/00 Q1016=
METAR EDLW 101850Z 21009KT CAVOK 05/02 Q1016=
METAR EDMA 101850Z 16004KT CAVOK 01/01 Q1019=
METAR EDNY 101850Z VRB03KT 9999 OVC071 04/03 Q1020=
METAR EDQM 101850Z AUTO 24007KT 9999NDV BKN013/// BKN018///
OVC022/// 03/00 Q1017=
METAR EDRZ 101850Z VRB02KT CAVOK 03/02 Q1019=
METAR EDSB 101850Z 00000KT CAVOK 03/01 Q1019=

0000030400
769
SADL35 EDZO 101850
METAR EDJA 101850Z VRB03KT CAVOK 00/M00 Q1019=
METAR EDMO 101850Z 17004KT 9999 SCT028 BKN068 01/M00 Q1019=
METAR EDTL 101850Z 15003KT CAVOK 05/04 Q1019=
METAR EDTY 101850Z 09002KT CAVOK 01/M00 Q1019=
METAR EDVE 101850Z 25012KT 9999 FEW029 OVC053 06/02 Q1015=

0000076200
770
SANO39 ENMI 101850
METAR ENNE 101850Z NIL=
METAR ENQR 101850Z AUTO 07010KT 040V120 9999NDV SCT026/// OVC044///
           06/M01 Q0999 W///S/=
METAR ENSE 101850Z AUTO 07019KT 9999NDV FEW024/// SCT037/// BKN046///
           04/M01 Q0999 W///S5=
METAR ENQC 101850Z AUTO 04012KT 9999NDV FEW023/// BKN046/// 06/02
           Q0998 W///S4=
METAR ENQA 101850Z AUTO VRB03KT 9999NDV -SHRA FEW019/// SCT025///
           BKN029/// 05/02 Q0999 W04/S4=
METAR ENHM 101850Z AUTO 26016KT 9999NDV FEW016/// SCT037/// BKN046///
           07/05 Q0999 W08/S4=
METAR ENVH 101850Z AUTO 24026KT 9999NDV SCT100/// BKN140/// 07/06
           Q1005 W///S4=
METAR ENLA 101850Z AUTO 23026KT 9999NDV BKN029/// 08/06 Q1003
           W///S4=

0000009700
771
SACS31 MROC 101900
METAR
MRPV 101900Z 06014KT 9999 FEW045 25/14 A2998 NOSIG=

0000008300
772
SAFI01 MBPV 101900
MBPV 101900Z 09013KT 9999 SCT012 28/20 Q1018=

00000000