0000113400
633
SACA32 KWBC 102300
METAR
MDLR 102300Z 07010KT 9999 FEW018 SCT070 25/22 Q1016=
MDPC 102300Z 10010KT 9999 FEW022 26/21 Q1017=
MDPP 102300Z 12007KT 9999 SCT020 26/22 Q1017=
MDSD 102300Z 07008KT 9999 FEW020 26/21 Q1016=
MDST 102300Z 11009KT 9999 SCT017 23/21 Q1017=
MTCH NIL=
MTPP 2300Z 08005KT 9000 FEW02429 1015/0 A2997=
MTPP 2300Z 08005KT 9000 FEW02429 1015.0 A2997=
TAPA 102300Z 08011KT 9999 SCT018 25/19 Q1016 NOSIG=
TIST 102253Z AUTO 09015G21KT 10SM FEW035 26/19 A3005 RMK AO2
     SLP177 T02560189 TSNO=
TISX 102253Z 07005KT 10SM OVC060 24/20 A3005 RMK AO2 SLP176
     T02440200=
TJBQ 102250Z 10015KT 10SM SCT030 26/ A3006 RMK RWY08 ATIS K=
TJMZ NIL=
TJNR 102253Z AUTO 06009G18KT 10SM OVC060 26/20 A3008 RMK AO2
     SLP187 T02610200 TSNO=
TJPS 102250Z 09005KT 10SM FEW030 SCT050 26/19 A3002=
TJSJ 102256Z 08010KT 10SM FEW023 SCT055 26/22 A3006 RMK AO2
     RAB01E22 SLP178 P0001 T02610217 ?=
TKPK 102300Z 07017KT 9999 SCT021 25/19 Q1017=
TKPN 102300Z 10017KT 9999 FEW019 26/21 Q1016=
TQPF NIL=
TRPM NIL=
TUPJ 102300Z 09010KT 9999 FEW020 25/18 Q1018=
TUPW NIL=

0000051100
634
FTUS72 KWBC 102306
TAF
TAF KNGP 1023/1123 18010G16KT 9999 FEW025 SCT045 SCT250 QNH2978INS
      BECMG 1100/1102 20009KT 9999 FEW050 SCT250 QNH2980INS
      BECMG 1105/1107 22008KT 6000 BR SCT005 SCT020 BKN250
      QNH2990INS
      TEMPO 1108/1113 28005KT 0800 FG BKN005 BKN020 BKN250
      BECMG 1113/1115 35009KT 9999 NSW SCT025 SCT250 QNH2996INS
      BECMG 1116/1118 36012KT 9999 SCT250 QNH3000INS AUTOMATED
      SENSOR METWATCH 1102 TIL 1221 T13/1113Z T22/1121Z FN00004=

0000039900
635
SAHW31 KWBC 102300
METAR
PBKH NIL=
PHJR 102253Z VRB03KT 10SM SCT040 SCT055 26/17 A2994=
PHKO 102253Z 33011KT 10SM CLR 28/18 A2989=
PHLI 102253Z AUTO 03014KT 10SM FEW022 26/20=
PHNL 102253Z 01014G19KT 8SM -RA FEW025 SCT036 BKN045 25/18
     A2994=
PHOG 102254Z 01010KT 10SM FEW030 SCT050 26/19 A2993=
PHTO 102253Z 03007KT 10SM FEW030 SCT050 26/20 A2992=
PNGF NIL=

0000039200
636
SAPL31 EPWA 102300
METAR EPGD 102300Z 28011KT 8000 -SHRA BKN009 SCT018CB
    04/04 Q1006 =
METAR EPKK 102300Z 23012KT 9999 BKN046 05/M00 Q1016 =
METAR EPLL 102300Z 26014KT 9999 SCT032 05/00 Q1013 =
METAR EPPO 102300Z 25011KT CAVOK 06/01 Q1013 R10/19//95 =
METAR EPRZ 102300Z 27017KT CAVOK 06/M01 Q1014 =
METAR EPWA 102300Z 26020KT 9999 BKN026 05/01 Q1010 NOSIG=

0000037100
637
SAPL32 EPWA 102300
METAR EPBY 102300Z 26016KT 9999 BKN028 06/03 Q1010 =
METAR EPKT 102300Z 24013KT 9999 BKN045 05/M02 Q1016 =
METAR EPLB 102300Z NIL=
METAR EPMO 102300Z 26017KT 9999 FEW022 BKN033 05/03
    Q1009 =
METAR EPSC 102300Z 25011KT 9999 BKN036 05/02 Q1012 =
METAR EPWR 102300Z 26008KT CAVOK 05/M00 Q1017 =
METAR EPZG 102300Z NIL=

0000042800
638
SAAL31 DAAA 102300
METAR DAAG 102300Z 12002KT 9999 FEW030 SCT080 13/07 Q1017=
METAR DAAT 102300Z 09013KT CAVOK 14/M02 Q1021=
METAR COR DABB 102300Z 22003KT CAVOK 08/07 Q1017=
METAR DABC 102300Z 21003KT CAVOK 07/02 Q1020=
METAR DAON 102300Z 16002KT 9999 FEW030 BKN100 15/04 Q1015=
METAR DAOO 102300Z 01002KT 9999 FEW023 SCT100 12/07 Q1015=
METAR DAUH 102300Z 04005KT 9999 FEW040 SCT100 13/08 Q1021=

0000048600
639
SAIO31 KWBC 102300
METAR
FIMP 102300Z 10005KT 9999 SCT017 SCT050 26/23 Q1016=
FIMR NIL=
FJDG 102255Z 32010KT 9999 FEW020 BKN050 OVC080 26/25 A2980 RMK
     SLP088 P0008 T02630254=
FMCH NIL=
FMCV NIL=
FMCZ NIL=
FMEE NIL=
FMMI 102300Z 31005KT 9999 FEW017 SCT230 17/17 Q1020 NOSIG=
FMMT NIL=
FMNN NIL=
FSIA 102300Z 30006KT 9999 FEW014CB BKN080 26/23 Q1010 NOSIG=
FSSS NIL=
VRMM NIL=
VYMD NIL=
VYYY NIL=
WBGG NIL=
WBKK NIL=
WBSB NIL=

0000015900
640
SATD31 TTPP 102300
METAR
TTPP 102300Z 09005KT 9999 FEW018 25/21 Q1013 NOSIG=
METAR
TTCP 102300Z 06005KT 9999 SCT015 25/20 Q1013 NOSIG=

0000098000
641
SANT31 KWBC 102300
METAR
BGBW 102255Z NIL=
BGCO 102250Z AUTO 00000KT //// OVC033/// M08/M10 Q1010=
BGGH 102250Z 11009KT 9999 FEW030 M07/M16 Q0993=
BGJN 102250Z AUTO 10022KT 9999NDV BKN230/// M09/M19 Q0995=
BGKK 102250Z AUTO /////KT 1000NDV -SN BKN014/// M01/M02 Q0984=
BGSF 102250Z AUTO 06010KT 9999NDV FEW230/// M14/M21 Q0996=
BGTL 102258Z AUTO 13014KT 9999 CLR M09/M12 A2918 RMK AO2 PK WND
     14027/06 SLP869 T10881121=
BIAR 102300Z 15008KT 110V190 9999 -SN BKN029 OVC049 02/M02
     Q0996=
BIEG 102300Z 06017KT 7000 -SN SCT012 OVC020 01/M01 Q0997 RMK
     R04/790140 RWY SANDED=
BIKF 102300Z 27015KT 9999 FEW044 BKN055 BKN070 02/M04 Q0992=
BIRK 102300Z 27010KT 1500 -SN VV006 00/M01 Q0992=
GVAC 102300Z 03006KT 9999 SCT014 BKN200 20/15 Q1016 NOSIG=
GVPR NIL=
LPBJ 102300Z 19003KT CAVOK 10/07 Q1015=
LPLA 102300Z 24017KT 9999 FEW014 SCT020 BKN032 15/11 Q1005=
TXKF 102255Z 07012KT 9999 SCT026 BKN038 BKN300 18/12 Q1030=

0000010500
642
SACN62 CYUL 102300
METAR CYUL 102300Z 02006KT 8SM OVC025 M07/M10 A3025 RMK SC8 SLP247=

0000015400
643
SACN62 CYUT 102300
METAR CYUT 102300Z 30004KT 25SM SKC M29/M34 A2949 RMK
 -25.6/-30.8/TR/8.0 TRACE LOOSE LAST OBS/NXT 111500Z SLP990=

0000015500
644
FTCN34 CWAO 102300 AAA
TAF AMD CYPG 102305Z 1018/1024 FCST CNCLD DUE END OF FLYING PROGRAM
    RMK NXT FCST WILL BE ISSUED AT 131315Z=

0000010400
645
SPUS31 KWBC 102305
SPECI
KMCI 102301Z 25004KT 2SM -DZ BR BKN003 OVC008 04/04 A2954=

0000010400
646
SPUS31 KWBC 102305
SPECI
KORD 102301Z 17013KT 5SM -RA BR BKN007 OVC012 03/01 A2966=

0000009400
647
SPUS41 KWBC 102305
SPECI
KBVY 102301Z 00000KT 5SM BR BKN014 01/M01 A3035=

0000011900
648
SPUS41 KWBC 102305
SPECI
KDOV 102303Z AUTO 07003KT 2 1/2SM R01/3500FT -RA BR OVC002 03/03
A3029=

0000010100
649
SPUS41 KWBC 102305
SPECI
KERI 102301Z 17013G21KT 10SM BKN010 OVC055 05/03 A3005=

0000011100
650
SPUS43 KWBC 102305
SPECI
KDSM 102301Z 35004KT 1/2SM R31/P6000FT -DZ BR OVC002 01/00 A2954=

0000009600
651
SPUS43 KWBC 102305
SPECI
KGRB 102301Z 14010KT 2SM UP BR OVC005 01/00 A2968=

0000010700
652
SPUS44 KWBC 102305
SPECI
KCLM 102301Z AUTO 00000KT 10SM -RA BKN011 OVC018 07/06 A2994=

00000000