0000044800
773
SAGR33 LGAT 101920
METAR LGBL 101920Z NIL=
METAR LGHI 101920Z NIL=
METAR LGKC 101920Z NIL=
METAR LGKF 101920Z AUTO VRB01KT //// // ////// 13/09 Q1022
     RE//=
METAR LGKP 101920Z NIL=
METAR LGKZ 101920Z AUTO 02004KT 340V050 //// // //////
     09/M02 Q1019 RE//=
METAR LGMK 101920Z NIL=
METAR LGNX 101920Z NIL=
METAR LGPA 101920Z AUTO 18008KT //// // ////// 16/13 Q1019
     RE//=
METAR LGSO 101920Z NIL=

0000008900
774
SAEG31 HECA 101930
METAR HECA 101930Z 30004KT CAVOK 15/10 Q1022 NOSIG=

0000034900
775
FTUS41 KWBC 101930 AAA
TAF AMD
KBDR 101929Z 1019/1118 VRB02KT 2SM BR SCT012 OVC025
     FM110000 VRB03KT 1SM BR FEW006 BKN012 OVC025
      TEMPO 1102/1105 -RA
     FM110500 15003KT 3/4SM -RA BR BKN006 OVC012
     FM110800 15008KT 3/4SM -RA BR OVC003 WS020/19050KT
     FM111400 17011KT 1SM -RA BR OVC004 WS015/19050KT=

0000093800
776
FTUS71 KWBC 101930 AAA
TAF AMD
KBDR 101929Z 1019/1118 VRB02KT 2SM BR SCT012 OVC025
     FM110000 VRB03KT 1SM BR FEW006 BKN012 OVC025
      TEMPO 1102/1105 -RA
     FM110500 15003KT 3/4SM -RA BR BKN006 OVC012
     FM110800 15008KT 3/4SM -RA BR OVC003 WS020/19050KT
     FM111400 17011KT 1SM -RA BR OVC004 WS015/19050KT=
KISP 101928Z 1019/1118 VRB04KT 2SM BR SCT012 OVC030
      TEMPO 1021/1024 1SM -DZ BR BKN012
     FM110000 VRB04KT 1SM BR FEW008 BKN012 OVC025
      TEMPO 1102/1105 -RA BKN008 OVC015
     FM110500 16008KT 3/4SM -RA BR BKN006 OVC012 WS020/19040KT
     FM110800 15013KT 3/4SM -RA BR OVC004 WS020/19055KT
     FM111400 17016KT 1SM -RA BR OVC004 WS015/19060KT=
KPOU 101927Z 1019/1118 VRB03KT P6SM BKN015 OVC050
      TEMPO 1019/1023 SCT015 OVC050
     FM110300 16005KT 4SM -SHRA BR OVC025
     FM110900 16008KT 3SM -RA BR OVC030
     FM111200 18010KT 3SM -RA BR OVC025=

0000031800
777
FTUS73 KWBC 101930 AAA
TAF AMD
KSPI 101927Z 1019/1118 17010G18KT 3SM BR VCTS OVC004CB
      TEMPO 1019/1021 2SM -TSRA BR
     FM102100 17014G22KT 2SM -RA BR VCTS OVC004CB
     FM110100 18014G22KT 2SM -RA BR OVC004
     FM110600 24012KT 3SM BR OVC004
     FM111400 26012G18KT P6SM OVC015=

0000010800
778
SARM31 LUKK 101930
METAR LUKK 101930Z 33009KT 9999 SCT049 07/02 Q1012
R26/CLRD65 NOSIG=

0000010000
779
SACG20 FCBB 101930
METAR FCBB 101930Z VRB02KT 8000 FEW030CB 25/22 Q1013 TEMPO TS=

0000063800
780
FTUS51 KWBC 101930 AAA
TAF AMD
KISP 101928Z 1019/1118 VRB04KT 2SM BR SCT012 OVC030
      TEMPO 1021/1024 1SM -DZ BR BKN012
     FM110000 VRB04KT 1SM BR FEW008 BKN012 OVC025
      TEMPO 1102/1105 -RA BKN008 OVC015
     FM110500 16008KT 3/4SM -RA BR BKN006 OVC012 WS020/19040KT
     FM110800 15013KT 3/4SM -RA BR OVC004 WS020/19055KT
     FM111400 17016KT 1SM -RA BR OVC004 WS015/19060KT=
KPOU 101927Z 1019/1118 VRB03KT P6SM BKN015 OVC050
      TEMPO 1019/1023 SCT015 OVC050
     FM110300 16005KT 4SM -SHRA BR OVC025
     FM110900 16008KT 3SM -RA BR OVC030
     FM111200 18010KT 3SM -RA BR OVC025=

0000031800
781
FTUS53 KWBC 101930 AAA
TAF AMD
KSPI 101927Z 1019/1118 17010G18KT 3SM BR VCTS OVC004CB
      TEMPO 1019/1021 2SM -TSRA BR
     FM102100 17014G22KT 2SM -RA BR VCTS OVC004CB
     FM110100 18014G22KT 2SM -RA BR OVC004
     FM110600 24012KT 3SM BR OVC004
     FM111400 26012G18KT P6SM OVC015=

0000120700
782
FTUS80 KWBC 101930 AAA
TAF AMD
KBDR 101929Z 1019/1118 VRB02KT 2SM BR SCT012 OVC025
     FM110000 VRB03KT 1SM BR FEW006 BKN012 OVC025
      TEMPO 1102/1105 -RA
     FM110500 15003KT 3/4SM -RA BR BKN006 OVC012
     FM110800 15008KT 3/4SM -RA BR OVC003 WS020/19050KT
     FM111400 17011KT 1SM -RA BR OVC004 WS015/19050KT=
KISP 101928Z 1019/1118 VRB04KT 2SM BR SCT012 OVC030
      TEMPO 1021/1024 1SM -DZ BR BKN012
     FM110000 VRB04KT 1SM BR FEW008 BKN012 OVC025
      TEMPO 1102/1105 -RA BKN008 OVC015
     FM110500 16008KT 3/4SM -RA BR BKN006 OVC012 WS020/19040KT
     FM110800 15013KT 3/4SM -RA BR OVC004 WS020/19055KT
     FM111400 17016KT 1SM -RA BR OVC004 WS015/19060KT=
KPOU 101927Z 1019/1118 VRB03KT P6SM BKN015 OVC050
      TEMPO 1019/1023 SCT015 OVC050
     FM110300 16005KT 4SM -SHRA BR OVC025
     FM110900 16008KT 3SM -RA BR OVC030
     FM111200 18010KT 3SM -RA BR OVC025=
KSPI 101927Z 1019/1118 17010G18KT 3SM BR VCTS OVC004CB
      TEMPO 1019/1021 2SM -TSRA BR
     FM102100 17014G22KT 2SM -RA BR VCTS OVC004CB
     FM110100 18014G22KT 2SM -RA BR OVC004
     FM110600 24012KT 3SM BR OVC004
     FM111400 26012G18KT P6SM OVC015=

0000142900
783
SPUS70 KWBC 101930
SPECI
KDAN 101926Z AUTO 04004KT 4SM BR OVC003 03/02 A3027 RMK AO2 RAE18
     CIG 003V007 P0003=
KDCA 101926Z 05003KT 1SM R01/4000V5000FT -DZ BR OVC006 03/02 A3034
     RMK AO2 DZE09B26RAB09E26 P0002=
KEWB 101926Z 00000KT 2 1/2SM R05/6000VP6000FT -RA BR BKN011 OVC019
     02/02 A3039 RMK AO2 P0001 T00220017=
KJFK 101926Z 02004KT 2SM -DZ BR FEW009 SCT019 OVC025 03/01 A3039
     RMK AO2 SFC VIS 2 1/2 P0000 $=
KMGY 101926Z AUTO 16009KT 3SM BR OVC003 07/06 A3003 RMK AO2
     T00670061=
KOFP 101926Z AUTO 00000KT 2SM -RA BR BKN003 OVC013 03/03 A3033 RMK
     AO2 P0004 T00280028=
KOPF 101926Z 13012G19KT 10SM SCT025 BKN035 27/22 A3008 RMK AO2
     $=
KTAN 101926Z AUTO 00000KT 1 1/4SM -RA BR OVC023 02/M01 A3039 RMK
     AO2 P0003 T00171006=
KACV 101927Z AUTO 25008KT 1/4SM R32/0600V2000FT FG VV001 10/09
     A3027 RMK AO2 T01000089=
KBEH 101927Z AUTO 14008KT 2SM BR OVC006 01/01 A2988 RMK AO2=
KDFI 101927Z AUTO 15007KT 6SM HZ FEW009 BKN027 OVC034 04/01 A3000
     RMK AO2=
KGSH 101927Z AUTO 15007KT 2 1/2SM BR SCT006 OVC017 03/02 A2992 RMK
     AO2=
KHKY 101927Z 06003KT 2 1/2SM -RA BR OVC003 07/06 A3020 RMK AO2
     P0000=
KMKC 101927Z 21006KT 10SM BKN008 BKN029 OVC036 06/04 A2955 RMK AO2
     CIG 006V011 T00560039=
PAOO 101927Z AUTO 06019KT 10SM FEW014 BKN019 OVC049 M05/M07 A2940
     RMK AO2 TSNO BKN V SCT SNB02E21 P0000 $=

0000011100
784
SPUS31 KWBC 101930
SPECI
KJFK 101926Z 02004KT 2SM -DZ BR FEW009 SCT019 OVC025 03/01 A3039=

0000012700
785
SPUS41 KWBC 101930
SPECI
KEWB 101926Z 00000KT 2 1/2SM R05/6000VP6000FT -RA BR BKN011 OVC019
02/02 A3039=

0000010100
786
SPUS42 KWBC 101930
SPECI
KOPF 101926Z 13012G19KT 10SM SCT025 BKN035 27/22 A3008=

0000009200
787
SARM31 LUKK 101930
METAR LUBL 101930Z AUTO 28012KT 9999 NCD 03/M00 Q1012=

0000009400
788
SAMR20 TFFF 101930
METAR TFFF 101930Z AUTO 06014KT 9999 BKN034 28/19 Q1014=

0000019900
789
SASQ31 LZIB 101930
METAR LZIB 101930Z 32007KT CAVOK 05/01 Q1020=
METAR LZKZ 101930Z 20001KT 3800 BR BKN002 01/01 Q1017=
METAR LZTT 101930Z 26019KT 9999 -SN SCT050 02/M03 Q1015=

0000019600
790
SASQ41 LZIB 101930
METAR LZPP 101930Z 26006KT CAVOK 02/M01 Q1020=
METAR LZSL 101930Z 27005KT 240V310 CAVOK 02/M02 Q1018=
METAR LZZI 101930Z VRB01KT 9999 BKN056 03/M00 Q1018=

0000009900
791
SPPR00 SPIM 101930
SPECI SPZO 101930Z 15003KT 9999 SCT040TCU BKN100 16/05 Q1025=

0000010100
792
SANC01 NWWW 101930
METAR NWWW 101930Z AUTO 04004KT 9999 SCT062 BKN140 21/15 Q1013=

00000000