0000140500
593
SOVX05 LFPW 111005
KKYY 10014 1311/ 103397 085866 88872 84660 20015 32879 43506 20020
32874 43513 20025 32861 43525 20030 32841 43535 20034 32790 43544
20040 32783 43544 20045 32781 43544 20048 32767 43546 20060 32738
43549 20069 32604 43545 20079 32482 43538 20089 32414 43534 20100
32262 43533 20109 31916 43516 20118 31850 43516 20130 31740 43514
20139 31693 43516 20149 31627 43517 20159 31608 43518 20168 31579
43517 20179 31549 43516 20189 31471 43509 20199 31402 43506 20208
31377 43505 20219 31361 43509 20229 31324 43509 20238 31284 43509
20248 31269 43510 20259 31247 43510 20268 31233 43509 20278 31213
43509 20288 31208 43509 20298 31190 43508 20308 31177 43508 20317
31167 43508 20327 31160 43507 20337 31153 43507 20348 31139 43507
20372 31111 43506 20398 31093 43505 20422 31062 43504 20447 31053
43504 20472 31039 43504 20497 31024 43503 20521 31005 43504 20546
30985 43504 20571 30966 43504 20596 30954 43503 20620 30941 43503
20645 30908 43502 20695 30872 43502 20744 30847 43501 20794 30812
43499 20844 30774 43497 20893 30743 43496 20942 30712 43495 20992
30692 43494 21041 30660 43493 21090 30626 43491 21141 30599 43490
21190 30577 43490 21239 30551 43489 21288 30527 43488 21338 30500
43487 21387 30469 43485 21436 30450 43485 21486 30426 43484 21585
30392 43483 21684 30353 43481 21782 30322 43480 21880 30292 43478
Q2901522=
0000013500
594
SNVD02 CWAO 111000
BBXX
SHIP 11104 99539 10080 46/// /2510 10079 20077 40084 58007 7//// 8//// 22222 00074 2//// =

0000013500
595
SNVD02 CWAO 111000
BBXX
SHIP 11104 99513 70569 46/// /2519 11071 21114 40157 53013 7//// 8//// 22200 0//// 2//// =

0000013500
596
SNVD02 CWAO 111000
BBXX
SHIP 11104 99488 70676 46/// /1709 11063 21092 40203 56011 7//// 8//// 22200 0//// 2//// =

0000013500
597
SNVD02 CWAO 111000
BBXX
SHIP 11104 99430 70879 46/// /2204 10041 20028 4//// 5//// 7//// 8//// 22200 0//// 2//// =

0000013500
598
SNVD02 CWAO 111000
BBXX
SHIP 11104 99491 70583 46/// /2416 11028 21073 40197 50006 7//// 8//// 22200 01002 2//// =

0000013500
599
SNVD02 CWAO 111000
BBXX
SHIP 11104 99623 70748 46/// /1806 11192 21243 40075 52022 7//// 8//// 22200 0//// 2//// =

0000013500
600
SNVD02 CWAO 111000
BBXX
SHIP 11104 99489 70580 46/// /2401 11048 21086 4//// 50135 7//// 8//// 22200 0//// 2//// =

0000010400
601
SPAU32 YBBN 102003
SPECI YCIN 102000Z AUTO 01004KT //// // BKN013 OVC018 27/25 Q1008=

0000023200
602
SALJ31 LJLJ 102000
METAR LJLJ 102000Z 30003KT 9999 SCT030 BKN050 06/05 Q1021 NOSIG=
METAR LJMB 102000Z 36006KT 0500 R32/0450N FG VV002 03/03 Q1021=
METAR LJPZ 102000Z 00000KT 3000 BR FEW010 OVC015 10/09 Q1022=

0000009700
603
SALJ32 LJLJ 102000
METAR LJCE 102000Z 00000KT 4000 BR NSC 05/04 Q1021 RMK GRN=

0000012100
604
SABZ18 SBGR 102000
METAR SBGR 102000Z 23007G18KT 8000 +TSGRRA BKN020
FEW040CB BKN080 26
/21 Q1015=

0000008800
605
SATU34 LTAA 101950 RRA
METAR LTCR 101950Z 34001KT CAVOK 07/M08 Q1021=

0000009400
606
SAAG41 SAZM 102000
METAR SAZM 102000Z  09010KT 9999  FEW025  22/12
Q1008=

0000011100
607
SAAG41 SASA 102000
METAR SASA 102000Z  05010KT 9999  FEW020TCU SCT100
BKN200  30/11 Q1009=

0000011400
608
SAPH41 RPLC 102000
METAR RPLC 102000Z
34004KT 9999 FEW042 SCT300 19/17 Q1017 A3002 RMK NOSIG=

0000021700
609
SAFR21 LFPW 102000
METAR LFOA 102000Z AUTO 09006KT 9999 NSC 05/04 Q1016=
METAR LFPC 102000Z AUTO 16004KT 120V180 9999 OVC008 05/03 Q1018=
METAR LFPV 102000Z AUTO VRB02KT 6000 OVC003 05/04 Q1017=

0000011300
610
SACN61 CYMM 102000
METAR CYMM 102000Z AUTO 31006KT 6SM -SN OVC014 M12/M14 A2942 RMK
 SLP993=

0000012100
611
SACN61 CYNE 102000
METAR CYNE 102000Z AUTO 07004KT 040V110 9SM -SN OVC008 M09/M11 A2943
 RMK SLP983=

0000011900
612
SACN61 CYNM 102000
METAR CYNM 102000Z AUTO 20012G17KT 9SM BKN015 OVC029 M05/M07 A2989
 RMK SLP143=

00000000