0000075800
553
FTNT31 KWBC 102006
TAF
TAF BIAR 102003Z 1021/1121 21012KT 9999 BKN035
      TEMPO 1021/1109 16020G35KT PROB40 1021/1112 5000 SHSN BKN015
      BECMG 1112/1115 220008KT 9999 FEW025 SCT035=
TAF BIEG 102003Z 1021/1121 09030G40KT 9999 RA FEW010 BKN018 OVC024
      TEMPO 1021/1109 3000 SNRA BKN008 OVC012
      BECMG 1111/1113 10012KT 7000 SHSN BKN015 OVC030=
TAF BIKF 102003Z 1021/1121 27020G30KT 5000 SNRA FEW008 BKN018
      BKN030
      BECMG 1100/1103 25015KT 9999 SHSN BKN025CB
      BECMG 1109/1112 18010KT 9999 NSW FEW020 BKN030=
TAF BIRK 102003Z 1021/1121 27017G27KT 5000 RASN FEW010 BKN017
      BKN032
      BECMG 1103/1106 25012KT 9999 SHSN SCT025CB
      BECMG 1109/1112 VRB02KT 9999 NSW FEW020 BKN030=

0000022000
554
FTUS41 KWBC 102006 AAA
TAF AMD
KAVP 102004Z 1020/1118 26005KT P6SM SCT015 OVC020
      TEMPO 1022/1102 SCT009 BKN012
     FM110200 18004KT P6SM OVC009
     FM110600 15007KT 3SM -SHRA BR OVC008=

0000068500
555
FTUS42 KWBC 102006 AAA
TAF AMD
KBPT 102004Z 1020/1118 16008KT P6SM VCSH FEW007 BKN035
      TEMPO 1021/1101 -SHRA
     FM110100 18012KT 5SM BR VCSH OVC004
      TEMPO 1101/1105 3SM SHRA
     FM110900 27008KT 1SM BR OVC001
     FM111400 34008KT P6SM SKC=
KLCH 102005Z 1020/1118 17010KT P6SM VCSH FEW007 BKN035
      TEMPO 1023/1102 -SHRA
     FM110200 20012KT 2SM -SHRA BR OVC003
     FM110900 27008KT 1SM BR OVC001
     FM111400 34008KT P6SM SCT005=
KSAV 102003Z 1020/1118 14007KT P6SM -SHRA BKN010 BKN020
     FM110200 15005KT 4SM BR SCT005 BKN010
     FM110600 18005KT 3/4SM BR OVC003
     FM111500 21012G20KT P6SM VCSH SCT015 BKN040=

0000041500
556
FTUS71 KWBC 102006 AAA
TAF AMD
KAVP 102004Z 1020/1118 26005KT P6SM SCT015 OVC020
      TEMPO 1022/1102 SCT009 BKN012
     FM110200 18004KT P6SM OVC009
     FM110600 15007KT 3SM -SHRA BR OVC008=
KSAV 102003Z 1020/1118 14007KT P6SM -SHRA BKN010 BKN020
     FM110200 15005KT 4SM BR SCT005 BKN010
     FM110600 18005KT 3/4SM BR OVC003
     FM111500 21012G20KT P6SM VCSH SCT015 BKN040=

0000049000
557
FTUS72 KWBC 102006 AAA
TAF AMD
KBPT 102004Z 1020/1118 16008KT P6SM VCSH FEW007 BKN035
      TEMPO 1021/1101 -SHRA
     FM110100 18012KT 5SM BR VCSH OVC004
      TEMPO 1101/1105 3SM SHRA
     FM110900 27008KT 1SM BR OVC001
     FM111400 34008KT P6SM SKC=
KLCH 102005Z 1020/1118 17010KT P6SM VCSH FEW007 BKN035
      TEMPO 1023/1102 -SHRA
     FM110200 20012KT 2SM -SHRA BR OVC003
     FM110900 27008KT 1SM BR OVC001
     FM111400 34008KT P6SM SCT005=

0000009800
558
SANL33 EHDB 101955 RRA
METAR EHJR 101955Z AUTO 21025G29KT  09/07 Q1011 W10/H16=

0000107400
559
SACA32 KWBC 102000
METAR
MDLR 102000Z 07018KT 9999 SCT022 28/20 Q1016=
MDPC 102000Z 09015KT 9999 FEW022 27/22 Q1017=
MDPP 102000Z 10010KT 9999 SCT020 29/23 Q1017=
MDSD 102000Z 07008KT 9999 FEW024 31/24 Q1015=
MDST 102000Z 16008KT 9999 BKN022 27/22 Q1017=
MTCH NIL=
MTPP 2000Z 08013KT 9999 FEW030 32 Q1014.7 A29.96=
TAPA 102000Z 08012KT 9999 FEW020 26/20 Q1015 NOSIG=
TIST 101953Z AUTO 09012G17KT 10SM FEW028 SCT070 27/21 A3003 RMK
     AO2 SLP169 T02720206 TSNO=
TISX 101953Z 06014G23KT 8SM -RA SCT025 26/20 A3002 RMK AO2 RAB52
     SLP163 P0000 T02610200=
TJBQ 101950Z 08011G24KT 10SM SCT020 SCT060 31/ A3005 RMK ATIS
     H=
TJMZ NIL=
TJNR 101953Z AUTO 07012G18KT 10SM SCT028 OVC036 28/22 A3006 RMK
     AO2 SLP177 T02780217 TSNO=
TJPS NIL=
TJSJ 101956Z 07015KT 10SM SCT035 28/21 A3004 RMK AO2 SLP170
     T02830211=
TKPK 102000Z 07015KT 9999 FEW016 SCT044 26/21 Q1016=
TKPN NIL=
TQPF 102000Z 08014KT 9999 FEW023 27/19 Q1016=
TRPM NIL=
TUPJ 102000Z 10008KT 9999 FEW020 27/20 Q1017 RMK A3003=
TUPW NIL=

0000010200
560
SANL33 EHDB 101955 RRB
METAR EHSC 101955Z AUTO 22027G31KT 9999 07/06 Q1014 W08/H15=

0000010200
561
SANL33 EHDB 101955 RRC
METAR EHSA 101955Z AUTO 21026G30KT 9999 08/06 Q1014 W09/H16=

0000038000
562
SAHW31 KWBC 102000
METAR
PBKH NIL=
PHJR 101953Z 06005KT 10SM FEW030 24/18 A3002=
PHKO 101953Z 36010KT 10SM CLR 26/16 A2998=
PHLI 101953Z 04013KT 10SM FEW021 24/19 A3006=
PHNL 101953Z 01008KT 10SM FEW026 SCT036 SCT044 26/17 A3001=
PHOG 101954Z 36005KT 10SM FEW020 SCT035 26/21 A3001=
PHTO 101953Z 02006KT 10SM FEW030 FEW120 25/18 A3001=
PNGF NIL=

0000031100
563
FTUS74 KWBC 102006 AAA
TAF AMD
KGCN 102005Z 1020/1118 29010G17KT P6SM SCT250
     FM110100 VRB02KT P6SM SCT250=
KRDM 102002Z 1020/1118 25011KT P6SM OVC050
     FM102300 19010KT P6SM VCSH OVC050
     FM110600 19015G24KT P6SM SCT050 OVC100
     FM111300 20018G30KT P6SM VCSH BKN050=

0000048600
564
SAIO31 KWBC 102000
METAR
FIMP 102000Z 10005KT 9999 SCT017 SCT050 27/24 Q1017=
FIMR NIL=
FJDG 101955Z 30012KT 9999 FEW020 SCT080 BKN220 27/25 A2983 RMK
     SLP098 P0001 T02690248=
FMCH NIL=
FMCV NIL=
FMCZ NIL=
FMEE NIL=
FMMI 102000Z 36002KT 9999 FEW017 BKN230 19/19 Q1021 NOSIG=
FMMT NIL=
FMNN NIL=
FSIA 102000Z 30005KT 9999 FEW014CB BKN080 25/23 Q1012 NOSIG=
FSSS NIL=
VRMM NIL=
VYMD NIL=
VYYY NIL=
WBGG NIL=
WBKK NIL=
WBSB NIL=

0000013000
565
SACN62 CYAB 102000
METAR CYAB 102000Z 31004KT 240V310 8SM -SN FEW050 SCT080 M25/M28
 A2907 RMK SC2AC2 SLP847=

0000035400
566
SAAL31 DAAA 102000
METAR DAAG 102000Z 00000KT 9999 FEW030 BKN090 13/08 Q1017=
METAR DAAT 102000Z 14005KT CAVOK 14/M03 Q1023=
METAR DABB 102000Z 14002KT CAVOK 12/11 Q1017=
METAR DABC 102000Z 25006KT CAVOK 08/01 Q1020=
METAR DAON 102000Z NIL=
METAR DAOO 102000Z NIL=
METAR DAUH 102000Z 35007KT 9999 FEW040 SCT100 16/08 Q1021=

0000011100
567
SACN62 CYAM 102000
METAR CYAM 102000Z 13005KT 3SM BR OVC008 M02/M04 A2989 RMK SF8
 SLP135=

0000012500
568
SANT31 KWBC 102000 CCA
METAR
LPLA 102000Z 21013KT 3500 -RADZ BR SCT006 BKN008 BKN017 15/14
     Q1006=

0000155900
569
SAPA31 KWBC 102000
METAR
AGGG NIL=
AGGH 102000Z 14002KT 9999 FEW016 FEW016CB 25/23 Q1007=
ANAU NIL=
AYPY NIL=
PGNT NIL=
PGRO NIL=
PGSN 101954Z 04012KT 10SM SCT020 26/23 A2990 RMK AO2 SLP147
     T02560228=
PGSN 101952Z 03013KT 10SM SCT020 26/23 A2990 RMK AO2=
PGUA 101958Z AUTO 06016KT 10SM SCT021 25/23 A2990 RMK AO2 SLP115
     T02540230 ?=
PGUM 101954Z 06009KT 10SM FEW024 26/22 A2990 RMK AO2 SLP116
     T02560217=
PGWT 101959Z 06016KT 7SM FEW015 SCT100 26/22 A2990 RMK WIND DATA
     ESTIMATED FIRST=
PHJH 101950Z 04012KT 15SM FEW015 SCT030 24/20 A3002=
PHJR 101953Z 06005KT 10SM FEW030 24/18 A3002 RMK AO2 SLP172
     T02440178=
PHMK 101954Z 03010G16KT 10SM FEW013 23/21 A3002 RMK AO2 SLP168
     T02330211=
PJON NIL=
PKMJ NIL=
PKMR 101954Z 05014KT 15SM FEW015 BKN300 28/22 A2978 RMK SLP085
     T02790220=
PKWA 102000Z AUTO 05017KT 10SM SCT024 SCT030 27/21 A2982 RMK AO2
     T02720214=
PLCH NIL=
PMDY 101956Z AUTO 10012KT 7SM BKN030 OVC039 20/14 A3026 RMK AO2
     TSNO T02000144 BKN V SCT SLP558 ?=
PTKK 101950Z VRB05KT 15SM FEW014 BKN280 27/23 A2980 RMK SLP094
     T02740232=
PTKR 101952Z 09016KT 10SM -SHRA BKN016CB OVC110 25/24 A2978 RMK
     SHRAB17 CB ALQDS AND OHD SLP084 T02500239=
PTPN NIL=
PTRO NIL=
PTSA NIL=
PTTP 101953Z 07015KT 15SM FEW018 SCT130 BKN300 28/23 A2982 RMK
     SLP098 T02780233=
PTYA 101952Z 07011G21KT 12SM FEW016 SCT130 OVC300 28/24 A2979 RMK
     SLP088 T02770235=
PWAK 101955Z 08010KT 10SM FEW024 26/26 A3000 RMK AO2A=

0000012700
570
SACI44 ZSJN 102000
METAR ZSJN 102000Z 00000MPS 1600 R19/1400N BR NSC M07/M08 Q1033
BECMG
TL2100 1400 BR=

0000012000
571
SACN61 CYGV 102000
METAR CYGV 102000Z AUTO 28012KT 9SM -SN SCT040 OVC070 M09/M11 A3007
 RMK SLP186=

0000011800
572
SACN62 CYGR 102000
METAR CYGR 102000Z 25024G30KT 20SM FEW240 M05/M11 A3024 RMK CI1 CI TR
 SLP241=

00000000