0000011000
513
UANT99 KDDL 110358
ARP EJM312 5453N03149W 0358 F410 MS52 225/44 KT
N312P QXT EUA 110358 A37A
0000011100
514
UANT99 KDDL 110358
ARP DAL401 4908N02847W 0358 F360 MS58 191/52 KT
N845MH QXT AOE 110358 F35A
0000011000
515
UANT99 KDDL 110358
ARP SWR23C 4530N04257W 0358 F380 MS52 297/58 KT
HBJHD QXT AOW 110359 J50A
0000023800
516
SNVD17 KWNB 110400 RRB
BBXX
46061 11041 99602 71468 46/// /0102 10014 49918 58010 90350 22200
00051 11003 20401 300// 41003 70017 333 91203 555 11020 22021
30256 43506 60349 012020 022026 359029 005033 356043 353046=
0000030300
517
FTIN32 VECC 110300
TAF
TAF VHHH 110300Z NIL=
TAF VTBD 110300Z NIL=
TAF VTBU 110300Z NIL=
TAF VTCC 110300Z NIL=
TAF VTSP 110300Z NIL=
TAF VTSS 110300Z NIL=
TAF VVNB 110300Z NIL=
TAF VVTS 110300Z NIL=
TAF VYYY 110300Z NIL=
TAF WMKK 110300Z NIL=
TAF WSAP 110300Z NIL=
TAF WSSS 110300Z NIL=

0000125600
518
SIIN52 VIDP 110300
AAXX 11033
42027 21595 82701 10004 21009 38474 48561 70522 8452/
        333 21003 58056 6996/
        555 00006 10036=
42028 22596 20000 11132 21183 37900 82500
        333 21143 58051 6020/
        555 00202 10137=
42031 32495 80000 11026 21031 38400 8472/
        333 21045 58014
        555 10032=
42044 22494 80000 11012 21026 38334 48518 887//
        333 21030 58048 6008/
        555 00084 10116=
42045 22696 33603 10020 21034 38413 48546 82130
        333 21004 58034 6003/
        555 00028 10085=
42054 22996 00000 10060 20015 39229
        333 20056 58016 6992/
        555 00002 10028=
42056 31695 10502 10056 20037 39725 71000 81500
        333 20050 58008
        555 10009=
42071 31994 00000 10018 20018 40202 71000
        333 10174 20004 58010
        555 10000=
42081 22496 20000 10034 20025 38959 48522 82700
        333 10148 20028 56400 58018 6015/ 82715
        555 00150 10025=
42083 22997 00000 10010 21019 4////
        333 10108 20001 59006 6001/
        555 00013 10002=
42105 21993 00000 10074 20065 40190 74300 333 10182 20062 58010 6990/ 555 10000=
42182 31992 02705 10082 20082 40187 74442 333 10202 20071 58010 555 10000=

0000133100
519
FCIN31 VECC 110300
TAF VAAH 110300Z 1106/1115 34006KT 5000 FU FEW100 BECMG 1112/1114
     32004KT 4000 FU/HZ=
TAF VANP 110300Z 1106/1115 14005KT 3000 HZ FEW020 SCT025
    BECMG 11081110 20005KT 4000 HZ
    BECMG 11121114 14003KT 3000 HZ FEW025 SCT100=
TAF VEAT 110300Z 1106/1115 33006KT 2000 BR NSC BECMG 1108/1109
    2500 HZ BECMG 1111/1112 1500 BR=
TAF VEBS 110300Z 1106/1115 05005KT 2000 HZ NSC
    BECMG 1108/1110 2500 HZ BECMG 1112/1114 08003KT 2000 HZ=
TAF VECC 110300Z 1106/1115 35005KT 2800 HZ NSC
     BECMG 1112/1114 00000KT 1800 BR=
TAF VEGT 110300Z 1106/1115 04005KT 3000 HZ FEW018 SCT100 BEC
    1112/1114 00000KT 2500 BR SCT100=
TAF VEGY 110300Z NIL=
TAF VEIM 110300Z 1106/1115 04006KT 3000 HZ FEW018 SCT100 BEC 112/1114
    00000KT 2000 BR SCT100=
TAF VEMN 110300Z NIL=
TAF VEPT 110300Z NIL=
TAF VERC 110300Z NIL=
TAF VGEG 110300Z NIL=
TAF VGHS 110300Z NIL=
TAF VIJP 110300Z 1106/1115 05005KT 3000 HZ FEW035 SCT100 BECMG
     1112/1114 VRB02KT 1500 FU=
TAF VNKT 110300Z NIL=
TAF VOBG 110300Z 1106/1115 09010KT 8000 FEW015=
TAF VOHY 110300Z 1106/1115 14010KT 5000 HZ 11008KT 3000 HZ FEW020
     BECMG 1108/111 0 5000 HZ=
TAF VOTV 110300Z 1106/1115 14005KT 5000 HZ FEW015 SCT100
    TEMPO 1109/1112 2000 TSRA/RA SCT008 SCT012 FEW025CB OVC090=

0000040100
520
SAIN33 VECC 110350
METAR VECC 110350Z NIL=
METAR VEPT 110350Z 10006KT 0500 -RA SCT018 OVC080 14/14 Q1017 NOSIG=
METAR VGEG 110350Z NIL=
METAR VGHS 110350Z 07003KT 1500 BR NSC 17/13 Q1016 BECMG S/VIS 2000M=
METAR VNKT 110350Z 18004KT 2000 BR FEW015 SCT025 BKN100 09/03 Q1022
    BECMG FM 0450Z 3000
    HZ=
METAR VQPR 110350Z 00000KT 9999 SCT100 BKN200 01/M06 Q1026 NOSIG=
0000016700
521
SOVI10 KWAL 110401
B110070A 011040101"P9751095 B\P~W@@v0ekC1@qi???CoCt>@qd3@KD@@T4Cv5DA6bU9Jn2?????@"??? ?TCzLBcBfBoBtBrBr:AMPTEMP 27.29C  47-0NN 219E
0000014400
522
SIID22 WIIX 110300 RRA
AAXX 11034
97270 31458 42404 10316 20248 30104 40107 57008 71411 83231
  333 56000 57802 83815 80860=
0000009300
523
SAYE20 OYHD 110400
METAR OYHD 110400Z 06003KT 9999 FEW030 SCT060 21/20 Q1014=
0000392800
524
SOFX05 LFPW 110401
KKYY 11014 0141/ 353958 046848 88881 84160 20001 30117 43386 20006
30116 43386 20016 30107 43387 20026 30100 43387 20036 30098 43387
20046 30094 43387 20055 30074 43387 20065 30065 43388 20075 30053
43388 20085 30038 43388 20095 30013 43389 20105 35020 43390 20115
35065 43394 20125 35067 43398 20135 35050 43402 20145 35026 43408
20155 30017 43421 20164 30058 43429 20174 30093 43433 20184 30104
43435 20194 30132 43441 20204 30147 43445 20214 30157 43447 20224
30165 43450 20234 30172 43452 20244 30175 43453 20254 30178 43455
20263 30179 43455 20273 30179 43456 20283 30182 43457 20293 30183
43458 20303 30184 43458 20313 30185 43459 20323 30186 43460 20333
30187 43460 20344 30187 43461 20353 30187 43462 20362 30187 43462
20372 30187 43462 20382 30186 43463 20392 30186 43464 20402 30187
43464 20412 30187 43464 20422 30188 43465 20432 30191 43466 20442
30193 43466 20451 30193 43466 20461 30192 43467 20471 30190 43467
20481 30188 43467 20491 30187 43468 20508 30186 43468 20533 30185
43469 20557 30186 43470 20582 30186 43470 20608 30186 43471 20631
30182 43471 20656 30179 43471 20681 30178 43472 20705 30176 43472
20730 30174 43472 20756 30172 43473 20780 30170 43473 20804 30168
43473 20829 30167 43473 20855 30165 43473 20878 30164 43473 20903
30162 43473 20928 30161 43474 20952 30159 43474 20978 30156 43474
21003 30153 43473 21027 30150 43473 21051 30147 43473 21075 30145
43473 21101 30142 43473 21126 30140 43473 21149 30138 43473 21174
30135 43473 21199 30132 43473 21223 30130 43473 21248 30128 43473
21273 30127 43473 21297 30127 43473 21323 30125 43473 21347 30123
43473 21372 30121 43473 21396 30120 43473 21421 30118 43473 21446
30115 43473 21471 30112 43473 21495 30110 43472 21520 30107 43472
21543 30104 43472 21568 30101 43472 21592 30098 43472 21618 30097
43472 21642 30094 43472 21666 30090 43471 21693 30088 43471 21715
30087 43471 21741 30086 43471 21765 30084 43471 21789 30081 43471
21814 30078 43470 21838 30076 43470 21863 30075 43470 21887 30074
43470 21913 30072 43470 21935 30070 43470 21954 30070 43470
Q1901201=
KKYY 11014 0045/ 348213 103159 88881 84160 20001 30722 43388 20006
30721 43388 20016 30720 43388 20026 30719 43388 20036 30712 43389
20047 30703 43390 20056 30693 43392 20065 30664 43398 20075 30606
43402 20085 30555 43402 20095 30558 43404 20105 30559 43405 20115
30559 43406 20125 30563 43408 20135 30558 43408 20145 30552 43408
20155 30534 43406 20165 30523 43406 20174 30509 43405 20184 30500
43405 20194 30501 43406 20204 30482 43404 20215 30471 43403 20225
30462 43403 20234 30461 43406 20244 30467 43409 20254 30474 43411
20264 30473 43413 20273 30473 43414 20283 30476 43417 20293 30476
43418 20303 30473 43419 20313 30470 43419 20323 30464 43419 20333
30460 43420 20343 30462 43421 20353 30465 43423 20363 30460 43423
20372 30452 43422 20382 30438 43422 20392 30430 43422 20402 30425
43422 20412 30422 43423 20422 30416 43423 20432 30404 43423 20442
30403 43424 20452 30392 43424 20462 30382 43423 20471 30368 43423
20481 30363 43423 20491 30369 43425 20508 30353 43425 20533 30343
43426 20558 30338 43427 20582 30333 43429 20607 30328 43431 20632
30321 43432 20656 30314 43433 20682 30308 43434 20707 30299 43435
20732 30296 43437 20756 30292 43439 20780 30288 43440 20805 30285
43442 20829 30281 43443 20855 30277 43445 20880 30273 43446 20904
30268 43448 20929 30266 43450 20953 30262 43451 20978 30261 43452
21002 30259 43453 21027 30258 43454 21051 30256 43455 21077 30254
43457 21102 30253 43458 21126 30252 43459 21150 30251 43460 21176
30249 43461 21200 30248 43462 21225 30246 43463 21251 30245 43464
21273 30244 43465 21299 30242 43466 21323 30241 43466 21347 30239
43467 21372 30237 43467 21396 30236 43468 21421 30235 43468 21446
30234 43469 21470 30232 43470 21495 30230 43470 21517 30229 43471
Q5902288=
0000010100
525
SAPK31 OPMT 110400
METAR OPMT 110355Z 00000KTS 4000 FU FEW120 07/04 Q1021 TEMPO 5000=
0000011200
526
SAQT31 OTBD 110400
METAR OTBD 110400Z 12015KT 8000 -RA FEW018 SCT100 OVC120 18/14 Q1020
NOSIG=
0000011000
527
UANT99 KDDL 110359
ARP VIR34Z 4436N02305W 0359 F390 MS59 233/72 KT
GVWAG DDL XXF 110359 J62A
0000011200
528
SNVE25 LFPW 110400
BBXX
BATFR36 11044 99173 51461 46/// /1015 10269 20224 40121 53013
22222=
0000011100
529
UANT99 KDDL 110359
ARP DAL240 4558N02021W 0359 F350 MS61 243/69 KT
N176DN QXT AOE 110359 F18A
0000011100
530
UANT99 KDDL 110359
ARP DAL186 4903N02930W 0359 F350 MS54 204/53 KT
N177DZ QXT AOE 110359 F12A
0000011000
531
UANT99 KDDL 110359
ARP MSR986 4835N03231W 0359 F330 MS52 202/52 KT
SUGDP QXT AOW 110359 F20A
0000011000
532
UANT99 KDDL 110359
ARP DLH427 5158N02032W 0359 F360 MS60 229/66 KT
DAIGZ QXT AOE 110359 J98A
00000000