0000011000
533
UANT99 KDDL 110359
ARP DLH475 5336N04510W 0359 F370 MS59 299/46 KT
DAIKQ QXT AME 110359 J93A
0000021000
534
SOBR10 KWAL 110401
BAB00078?011040111 :TP%r7+lKMi&pY$8':x}UWG{A`F}_uo[iIFu!H;ad!xG,_$e.`6%sR5d",g'=1!%%.6#v5xe=T_lWVSYPRU:

ZhZJ|E%8jreXa?b3`#jBN^V:{/( 27+0NP 219E
0000008900
535
SPIN90 VOTP 110400
SPECI VOTP 110400Z 00000KT 2000 HZ FEW015 21/19 Q1016=
0000139500
536
SIMG20 FMMD 110300
AAXX 11034
67002 42580 20805 10250 20226 30093 40128 81800
  333 58012 81820 92408=
67009 32580 70000 10246 20214 39989 40108 52005 8693/
  333 81820 81920 86640 84360 94976 949777 95816 95817=
67012 22582 61804 10240 20234 30103 40114 53009 86900
  333 83820 81920 84640 94951 95831=
67019 NIL=
67025 NIL=
67027 32582 52602 10250 20238 30099 40120 53009 81232
  333 81820 85073
  555 81360=
67045 NIL=
67072 NIL=
67073 NIL=
67083 31215 70000 10174 20173 38763 48537 53015 74042 82808
  333 82705 87273=
67085 31565 608// 10190 20175 38720 48529 53009 704// 86800
  333 81817 85633=
67095 22480 50000 10250 20246 30128 40134 53020 83802
  333 69932 83817 555 81633 82073=
67113 NIL=
67117 33580 43206 10233 20/// 30125 40134 53010 83832
  333 82820 555 81640 81360 81073=
67137 31265 50000 10197 20191 38907 48513 53004 71022 82402
  333 81707 83073 555 82617=
67143 32581 50000 10250 20244 30122 40129 53012 85800
  333 83820 83633 92438=
67152 23480 5//// 10185 20177 39221 48522 52011 83270
  333 69952 83817 84360=
67157 32580 5//// 10/// 20/// 30146 40153 51004 85800
  333 82820 85633=
67161 32582 40000 10/// 20/// 30122 40131 53003 82332
  333 81820 81920 94996 95816 555 81640 82360 81073=
67194 NIL=
67197 22480 30000 10246 20234 30128 40138 53015 81202
  333 69952 81816 83073=
0000005400
537
BMRR01 DEMS 110359
HECA
SQN 017-020=
0000015600
538
SIXX99 HECA 102100 CCA
AAXX 10211
15230 23597 62502 10045 20020 39931 40230 51017 86500 333 55300 10113
20000
3//// 6///7 91003 91105=
0000013700
539
SMXX95 HECA 110000 CCA
AAXX 11004
17298 12670 33301 10085 20084 30201 40221 52002 60001 83200
 333 83840 91105 92408=
0000010200
540
SAAC80 HECA 110200
METAR HECA 110200Z 22003KT 1500 R23R///// BR NSC 12/09 Q1023 NOSIG=
0000014300
541
SMXX95 HECA 110000 CCB
AAXX 11004
17080 11657 83301 11033 21041 39352 40273 55000 60001 71022 8552/
 333 85635 88460 91104=
0000013600
542
SMXX95 HECA 110000 CCC
AAXX 11001
29332 11496 82105 11058 21067 30084 40230 52013 60012 78582 883// 333
21099 48038=
0000009200
543
SAAC80 HECA 110230
METAR HECA 110230Z 23003KT 1500 BR NSC 12/09 Q1023 NOSIG=
0000009200
544
SAAC80 HECA 110300
METAR HECA 110300Z 22003KT 2000 BR NSC 12/08 Q1024 NOSIG=
0000009700
545
SIAC80 HECA 110300
AAXX 11034 
62366 15920 02203 10117 20084 40242 53004 60007=
0000011200
546
SMXX95 HECA 110000 CCD
AAXX 11001
28044 41497 82502 11067 21077 3//// 4//// 5//// 70272 887//=
0000011000
547
SMXX95 HECA 101800 CCI
AAXX 10181
55578 32/// 90000 11056 21221 36349 52015 333 00101 10071=
0000009200
548
SAAC80 HECA 110330
METAR HECA 110330Z 21001KT 2000 BR NSC 11/08 Q1024 NOSIG=
0000003900
549
SIVX29 HECA 110300
NIL=
0000529400
550
SIXX99 HECA 110300
AAXX 11031
AAXX 11034
06610 23/// /0000 10006 20001 39605 40206 57006
  333 55300 20000 60005 91103 91202=
06700 22980 43002 10019 20009 39697 40203 57006 80002
  333 55300 20000 60005 84080 91103 91202=
06762 23/// /0801 10056 20045 39972 40224 57005
  333 55300 20000 60005 91103 91202=
07149 21120 81402 10056 20050 30056 40167 56010 76062 887//
  333 69967 88703 90710 91105 93100=
07481 22462 71105 10096 20063 39889 40178 57002 8453/
  333 60007 84619 86365 90710 91112 93100=
07486 24462 82304 10079 20057 39723 40186 57008 700//
  333 4/000 60007 90710 91111=
07650 22582 70906 10121 20072 30163 40202 53002 875//
  333 60007 87627 90710 91109 93100=
07660 NIL=
07690 22670 83309 10098 20050 30180 40212 50000 885//
  333 60007 88633 90710 91111 93100=
07761 24983 /0408 10066 20054 30193 40204 50003 700//
  333 4//// 60007 90710 91111=
07780 24586 /0808 10121 20078 30178 40206 50000 700//
  333 4//// 60007 90710 91115=
07790 22570 81903 10115 20084 30196 40211 58001 885//
  333 60007 88830 90710 91104 93100=
AAXX 11031
12910 46/// /3101 10041 20037 39828 40214 57003=
12925 46/// /1801 10016 20010 30043 40220 54000=
12935 41570 80701 10042 20030 30086 40222 57003 70322 885//
  333 88623=
12942 41680 70602 10052 20043 39973 40222 57002 70222 875//
  333 87640=
12970 42758 62101 10000 21011 30084 40228 55000 86500 333 86656=
12982 41756 61703 10011 20002 30123 40228 54000 70142 83582
  333 83650=
13067 32697 72501 10035 20033 30102 40234 51000 87500=
13130 NIL=
13236 NIL=
13262 31697 70000 10063 20055 30077 40220 58002 70262 87500=
13272 32760 51503 10051 20021 30111 40233 58004 85500 333 85650=
13275 NIL=
13295 32998 02501 10028 20009 30175 40231 53003=
13388 32997 00000 10003 21004 39990 40247 51004=
13426 NIL=
13493 42998 03504 10002 21019 39411 40251 53004 333 92000=
13583 41/92 90000 11010 21012 39533 40253 54000 74744=
13610 NIL=
13611 NIL=
13615 45756 /1601 10099 20082 30182 40228 54000 8//// 333 88/50=
13619 NIL=
13622 NIL=
13624 NIL=
13625 NIL=
13626 NIL=
14014 42560 72801 10057 20051 39749 40214 58004 87500
  333 553// 20000 58050 82630 87640 8/6// 8/6// 90705 91101=
14026 46/// /3101 10028 20023 39890 40218 5/004
  333 553// 20000 30000 58096 90705 91101=
14105 46/// /1601 10089 20085 30214 40218 5/002
  333 553// 20000 30000 58037 90705 91101=
14120 NIL=
14234 NIL=
14240 41/00 90000 10028 20028 30054 40213 56003 74740=
14241 41/01 90302 10029 20028 30081 40215 56002 74544=
14284 42960 21403 10041 20030 30115 40226 55001 82030=
14307 41759 70000 10094 20085 30138 40215 58002 71022 87500
  333=
14370 41920 00901 10037 20035 30102 40213 57005 71020=
14431 NIL=
14444 43665 70102 10111 20092 30198 40227 57003 85570
  333=
14452 NIL=
14474 42970 00503 10096 20055 30036 40228 52001=
14528 NIL=
14625 NIL=
15080 NIL=
15111 NIL=
15120 22997 02103 11011 21017 39714 40228 52004 333 55300 10239 20000
3//// 60007 91003 91104 92611=
15145 NIL=
15150 23/// /3401 11032 21032 39972 40195 52009 333 6///7 91002
91102=
15170 23/// /2504 10015 21011 39413 42803 52009 333 60007 91007
91110=
15197 NIL=
15200 22997 71202 10000 21003 30085 40236 50003 87070 333 60007 91002
91102 92600=
15209 NIL=
15230 22597 32101 11008 21009 39944 40249 51006 83500 333 55300 10178
20000 3//// 60007 91001 91102=
15235 NIL=
15247 NIL=
15264 NIL=
15266 NIL=
15280 22999 02928 11118 21160 37455 47991 51024 333 60007 91034=
15292 21596 70902 10012 20010 39941 40245 50001 71022 87500 333 60007
91003 91103=
15310 21995 01902 11002 21003 30111 40200 52015 71000 333 55300 10214
20000 3//// 60007 91003 91104 92600=
15335 23/// /2602 10039 20018 30189 40196 53017 333 6///7 91005
91105=
15340 NIL=
15346 22997 03401 11005 21040 39920 40221 52007 333 60007 91003 91103
92600=
15350 22997 01201 10013 21012 30080 40204 52013 333 60007 91002
91106=
15360 22497 82506 10025 20006 30171 40186 52017 886// 333 60007 91008
91108 92427=
15377 NIL=
15405 NIL=
15410 23/// /3302 10037 20008 30131 40229 50002 333 6///7 91003
91107=
15420 22997 02302 11006 21016 30094 40210 51015 333 55300 0//// 20000
3//// 60007 91003 91103 92600=
15444 NIL=
15450 22997 02204 10020 20000 39981 40224 52007 333 55300 10236 20000
3//// 60007 91004 91105=
15460 23/// /2503 10030 2//// 30181 40206 51013 333 6///7 91005
91106=
15470 23/// /2504 10011 20006 30083 40213 51007 333 60007 91007
91108=
15480 21496 32701 10039 20030 30185 40203 53016 71011 83600 333 60007
91003 91103 92446=
15490 NIL=
15501 NIL=
15511 NIL=
15514 NIL=
15526 NIL=
15535 NIL=
15550 NIL=
15552 42960 02905 10073 20027 30158 40207 52016 333 10123 20071=
15614 42965 00000 10003 21002 39524 40251 54000 333 10048 21005=
15615 41988 02910 11044 21130 37127 47064 54000 70100 333 11043
21065=
15627 NIL=
15640 41956 50000 11004 21013 39895 40219 52006 71011 85050 333 10105
21008=
15655 42970 02502 10046 20023 30173 40207 52009 333 10062 20046=
15712 41/08 90000 10019 20016 39982 40241 51005 74344 333 10031
20012=
15725 NIL=
15730 41/00 90000 10016 21009 39820 40229 52007 74742 333 10073
20014=
15741 NIL=
0000702400
551
SIXX98 HECA 110300
AAXX 11034
16008 42560 70000 10012 20002 38550 48508 53002 87200 333 87625
      92865=
16020 46/// /0901 10051 20045 39947 40238 53001=
16045 NIL=
16059 41657 70000 10067 39858 40211 56004 71022 87500
333 87638=
16066 41656 72501 10065 20055 39969 40227 58001 71011 87500
  333 87640=
16080 41250 73301 10079 20071 30096 40223 58003 75052 877//
333 83705 87630=
16090 41410 80000 10078 20061 30143 40227 53001 71022 885// 333 82710
      87645=
16105 41635 72601 10081 20065 30214 40216 58006 71022 87500
  333 87650=
16116 NIL=
16120 42475 70102 10122 20101 30212 40216 55000 87800
333 82818 86640 98580=
16134 42980 03111 10042 21033 37846 48518 54000 333 92845 95150 444
      38160=
16146 NIL=
16153 42598 50107 10104 20065 39948 40215 53002 82530 333 82625
84358=
16158 42760 51103 10078 20067 30211 40219 54001 85400 333 85650=
16170 41550 81001 10107 20103 30166 40220 58000 71022 888//
333 82820 86640=
16179 42575 71802 10094 20052 39531 42820 54000 83110 333 83827
      85460=
16191 16/// /0401 10093 20089 30208 40222 52001 60002 ////=
16206 42965 00605 10052 20034 30211 40220 56001=
16219 42970 02805 10030 21012 38157 48541 54000=
16230 NIL=
16232 41596 42004 10102 20086 30161 40215 51001 71000 83501 333
83626=
16242 41950 00603 10063 20063 30218 40223 57002 71000=
16244 NIL=
16261 NIL=
16270 NIL=
16280 42597 70202 10120 20104 39990 40213 56002 87500 333 87620=
16289 41950 03503 10068 20050 30138 40223 58001 71000=
16300 NIL=
16310 42998 03503 10108 20089 39989 40213 56001=
16320 41958 02502 10064 20049 30209 40221 54001 71000=
16325 41996 00000 10086 20086 30200 40214 54000 71011 333 98040=
16337 NIL=
16350 NIL=
16360 42997 00207 10110 20096 30080 40216 51001=
16405 12965 00803 10115 20083 30203 40216 56005 60002=
16410 NIL=
16420 42997 22703 10110 20055 30144 40210 53005 80001=
16429 42962 01209 10126 20108 30185 40196 57008=
16450 41/00 92707 10062 20056 39049 48512 54000 74541 333 89/00=
16460 42960 02507 10073 20046 30203 40218 5////=
16463 NIL=
16470 NIL=
16480 42997 03004 10150 20142 30149 40210 58002=
16490 NIL=
16597 NIL=
16610 NIL=
16622 41001 80904 10052 20042 30219 40220 52008 74442 886// 333
      91106=
16625 NIL=
16627 NIL=
16632 NIL=
16641 42460 60000 10110 20102 30215 40220 51001 83650 333 82714
      83818 86357 91104=
16642 NIL=
16643 42560 50804 10116 20096 30232 40233 54000 83550 333 83625
      85358 91107=
16648 41301 60000 10032 20032 30127 40218 51004 74442 83606 333
      83708 86068 91105=
16650 46/// /3304 10114 20101 30207 40207 52002 333 91107=
16665 NIL=
16667 42460 70000 10114 20090 30211 40216 51001 87600 333 82715
      86620 91105=
16684 42560 53209 10126 20083 30183 40193 52009 81105 333 81820
      85068 91112=
16685 NIL=
16701 NIL=
16710 46/// /2302 10020 20020 39459 40254 52001 333 91104=
16716 NIL=
16723 NIL=
16732 46/// /1105 10131 20105 30186 40197 52001 333 91108=
16734 46/// /2910 10154 20093 30161 40222 54000 333 91118=
16738 46/// /3503 10124 20107 30000 40200 52003 333 91106=
16742 NIL=
16743 46/// /2813 10143 20095 39998 40195 57008 333 91131=
16744 NIL=
16746 42560 12614 10136 20093 30025 40207 58001 81200 333 91121=
16749 42460 20000 10112 20070 30195 40210 57004 82400 333 91103=
16754 42565 21706 10108 20088 30162 40210 57001 82100 333 91110=
16756 NIL=
16765 NIL=
17022 42965 62705 10098 20050 30054 40221 52009 80008
 333 86270 91113 92427=
17024 42670 32726 10105 20062 30115 40193 52027 83500
 333 83635 91141 92438=
17026 42970 03110 10103 20101 30151 40190 52029
 333 91022 91122 92428=
17030 42970 02312 10082 21058 30181 40186 52020
 333 92438=
17034 42970 31903 10094 21008 30141 40188 52024 83030 333 83360
92428=
17038 42970 00000 10075 21010 30120 40172 53005
 333 91111 92428=
17042 42970 01205 10117 21080 30133 40173 52010
 333 92428=
17045 42970 03501 10011 21076 39466 40223 53004=
17050 41/01 93302 10026 20024 30162 40226 52007 74544
 333 89/00 91103=
17056 42970 03003 10068 20066 30215 40219 52009
 333 91109 92418=
17060 41958 02705 10080 20053 30180 40221 52004 71000
 333 91109=
17067 42970 52503 10084 20021 30194 40217 52006 85030
 333 85360 91109 92408=
17070 42965 03201 11002 21039 39346 40229 51002
 333 91103=
17074 4//// /1102 11050 21055 39271 4//// 52004=
17082 42960 40000 11042 21048 39605 40254 53001 84040
 333 84360 91107=
17090 NIL=
17092 42960 03601 11132 21136 38910 48520 55002
 333 91104=
17096 41/04 90000 11257 21257 38254 48540 57007 74940
 333 89/02=
17098 42960 00000 11238 21238 38208 48538 57010
 333 91104=
17100 NIL=
17112 42965 00103 10080 20064 30212 40214 55000
 333 91106 92417=
17115 42960 20000 10007 21006 30170 40222 51003 82030
 333 82360 91104=
17116 42965 01008 10042 21019 30113 40237 55000
 333 91113=
17128 41348 82904 11042 21042 39124 40276 56004 71022 886//
 333 88707=
17130 41330 82302 11026 21038 39192 40269 57007 71022 886//
 333 88708 91106=
17160 41520 81201 11039 21040 39066 48516 55000 71022 886//
 333 88723 91104=
17162 NIL=
17170 41656 30804 11106 21110 38338 48515 56007 71000 83500
 333 83640=
17180 41957 41304 10094 20044 30212 40216 58002 71011 80004
 333 84070 91109 92426=
17184 42665 60701 10003 21006 30118 40232 51003 82130
 333 82840 86360 91103=
17188 42970 02903 10004 21052 39151 40229 55003
 333 91105=
17190 41/03 93501 11039 21040 39030 48512 57003 74944
 333 89/04 91105=
17195 41120 80202 11047 21050 39015 48517 55002 71022 886//
 333 88702 91105=
17200 42960 02306 11098 21109 39235 40277 55002=
17202 42970 02206 11084 21084 39198 40273 56007=
17205 NIL=
17210 NIL=
17218 41658 31006 10096 20054 30209 40215 50000 71000 81101
 333 81840 83070 91113=
17237 42970 02503 10043 21010 39719 40232 50001
 333 91104=
17240 4//// /2202 11036 21052 39071 40251 57005=
17244 41118 80000 11028 21028 39037 48517 53001 71022 886//
 333 88703=
17248 41920 02201 11063 21072 39014 48505 58004 71000=
17250 42670 60404 11073 21083 38835 48515 56004 83550
 333 83640 86360=
17260 42960 00000 11027 21053 39386 40225 55005=
17270 42970 03102 10042 21040 39555 40212 56007=
17280 42970 02701 11045 21066 39409 40225 56010=
17290 4//// /0403 10127 20109 30187 40217 57004=
17292 41905 01801 11008 21010 39470 40244 52006 74200
 333 91102=
17300 42560 63505 10051 20033 30144 40217 56004 83101
 333 83820 86070=
17310 42970 00702 10115 20057 30208 40215 57004
 333 91104 92428=
17319 NIL=
17320 NIL=
17330 NIL=
17350 42960 03602 10038 21026 30131 40211 55004=
17370 42965 01401 10097 21010 30212 40216 50002
 333 92417=
17600 42562 30208 10098 20062 30212 40222 52001 83500
  333 83626=
17601 42980 03103 10078 20010 30186 40218 53002 90250
  333 55300 2////=
17607 NIL=
17609 42965 03007 10098 20060 30215 40219 53002=
0000451400
552
SIXX97 HECA 110300
AAXX 11031
33815 42997 22905 10038 21024 39957 40167 52012 82030 333   55005=
33837 42984 02603 10031 21014 30107 40160 51012 333 55000=
33869 NIL=
33902 42997 02804 10027 20003 30061 40128 52015 333 55000=
33910 NIL=
33915 NIL=
33924 42998 02908 10069 20023 30147 40159 52019=
33929 NIL=
33934 NIL=
33976 NIL=
33990 NIL=
34824 11596 82603 10053 20043 30095 40100 53010 60002 78082 883// 333
20053 91110=
34838 12997 82005 10073 20029 39998 40093 52002 60002 8807/ 333 20016
91110=
34915 NIL=
34929 NIL=
37054 12697 32201 11059 21066 39728 40127 56020 60002 83500 333
21060=
37061 11950 01901 11013 21019 39946 40116 56025 60002 71000 333 21022
55003=
37085 12996 01305 10025 20013 30152 40124 57022 60002 333 20012
91110=
37171 219// /0805 10037 21021 30150 40164 53002 333 20016=
37228 12997 01701 11013 21089 39289 40138 57018 60002 333 21033 42007
55076=
37235 12997 01601 11010 21025 39809 40128 57022 60002 333 21028=
37260 NIL=
37395 32997 30904 10048 21055 30052 40194 57026 82030=
37472 12597 81302 10009 21014 30154 40131 55005 60002 8357/ 333 21003
55083=
37549 NIL=
37575 NIL=
37597 NIL=
37618 NIL=
37632 NIL=
37789 NIL=
37815 NIL=
37907 NIL=
37985 NIL=
40001 NIL=
40005 NIL=
40007 NIL=
40009 NIL=
40016 NIL=
40022 NIL=
40024 NIL=
40027 NIL=
40039 NIL=
40045 NIL=
40061 NIL=
40066 NIL=
40072 NIL=
40080 NIL=
40085 NIL=
40087 NIL=
AAXX 11034
40100 43/// /1203 10106 20091 30181 40213 53001 903// 333 92416=
40102 NIL=
40165 NIL=
40180 41660 69903 10117 20102 30169 40219 53004 70262 86100=
40191 NIL=
40199 43/// /0101 10104 20083 30202 40229 52007=
40250 NIL=
40260 42960 00000 10028 20018 39410 40214 52007=
40265 NIL=
40270 41650 63107 10084 20063 39294 40205 54001 70522 86500 333
86640=
40310 NIL=
40337 NIL=
40338 NIL=
40356 41656 43114 10020 20020 39202 48490 71000 84200 333 58042
84840=
40357 42660 73112 10059 20060 39533 40185 87500 333 58045 87640=
40360 41560 83304 10062 20050 39614 40219 76000 85530 333 58068 85630
87360=
40362 41957 01804 10063 20050 39647 40170 71040 333 58031=
40364 NIL=
40367 NIL=
40370 NIL=
40371 NIL=
40374 NIL=
40375 42960 00000 10042 20020 39325 40224 333 58068=
40376 NIL=
40380 NIL=
40386 NIL=
40394 42960 03308 10052 20020 39050 48518 333 58053=
40397 NIL=
40398 NIL=
40400 42560 20204 10136 20090 30165 40193 82500 333 58052 82630=
40405 42660 33210 10100 20090 39429 40185 83500 333 58034 83640=
40417 41658 81608 10148 20110 30177 40192 71000 8452/ 333 59014 84640
88459=
40420 41660 81412 10139 20120 39976 40186 76000 84520 333 59015 84640
85460=
40421 NIL=
40430 42960 03506 10110 20020 39468 40199 333 58054=
40432 NIL=
40435 NIL=
40438 NIL=
40439 42960 03308 10148 20070 30164 40174 333 58047=
40450 NIL=
40460 NIL=
40570 37/30 /2106 10082 20077 40180 53011 71011
  333 55300 90069 90400 91009 91111 91207 91305=
40582 31940 31709 10111 20100 40174 53004 71000 83030
  333 55300 00000 10149 20000 30000 41137 51285 60000 55407 40000
83360 90401 91009 91113 91209 91307=
40592 37/17 /1808 10115 20111 40178 53005 71011
  333 55300 00000 10054 20000 30000 41253 51306 60000 55407 40000
90069 90400 91013 91113 91207 91307=
AAXX 11031
40604 42560 60000 10066 20072 40211 57008 86800 333 83825 83628=
40608 42560 60000 10052 20040 40205 57006 86500 333 86630=
40621 41556 80302 10085 20051 40196 57014 76166 888xx 333 84823
85625=
40642 41540 80000 10022 20011 40206 53003 75052 8552x 33385625 88460=
40650 41530  81504  10100  20092  40153  55002  76166  884//  333
88630=
40658 42560 60000 10020 20021 40210 52010 86200 333 86825=
40672 42560  81804  10088  20059  40178  53003  888xx  333  83830
86632=
40676 NIL=
40689 NIL=
40703 41510 80000 11118 21128 38988 40351 57012 71022 886// 333
21144 88725=
40706 41958 40603 11102 21137 38672 40303 55016 70511 80002 333
21110 84068=
40712 41620 72702 11110 21128 38706 40309 56011 71022 82508 333
21112 82635 87264=
40718 42960 02702 10064 20050 30219 40189 57016 333 20064=
40727 NIL=
40747 NIL=
40766 41650 71106 11013 21026 38695 40215 56010 71072 84370 333 
21015 81935 83640 87458=
40767 NIL=
40769 41520 80000 11074 21083 38304 40298 55004 77177 8372/ 333
21116 83725 88558=
40795 NIL=
40811 41550 61105 10112 20100 30164 40191 55000 71062 84370 333
20110 81930 83635 86459=
40812 NIL=
00000000