0000012100
173
SAPA31 KWBC 102000 RRC
METAR
PGRO 102006Z 06014G18KT 7SM SCT020 BKN120 25/22 A2991 RMK
     FIRST=

0000015700
174
SASG21 GOOY 102000
METAR GOSS 102000Z 36004KT CAVOK 18/15 Q1013=
METAR GOGG 102000Z VRB02KT CAVOK 24/16 Q1012=
METAR GOTT 102000Z NIL=

0000178100
175
UDAS02 BABJ 110502
AMDAR 1105
DES CNFOZM 1817N 10919E 110457 F014 PS193 092/021 TB/ S//1=
DES CNFOZM 1818N 10921E 110458 F007 PS210 084/020 TB/ S//1=
DES CNFOZM 1818N 10922E 110459 F003 PS223 078/022 TB/ S//1=
ASC CNFNXL 2429N 11454E 110450 F297 MS294 255/075 TB/ S//1=
LVR CNFNXL 2451N 11503E 110453 F311 MS333 257/084 TB/ S//1=
LVR CNFNXL 2514N 11508E 110456 F311 MS326 262/084 TB/ S//1=
LVR CNFNXL 2534N 11503E 110459 F311 MS328 263/091 TB/ S//1=
ASC CNFPQK 3723N 12121E 110459 F010 MS009 226/006 TB/ S//1=
ASC CNFPQK 3722N 12121E 110459 F011 MS010 224/005 TB/ S//1=
ASC CNFPQK 3722N 12120E 110459 F012 MS010 220/004 TB/ S//1=
DES CNFPXL 2516N 10303E 110458 F099 PS028 271/029 TB/ S//1=
DES CNFPXL 2514N 10302E 110458 F093 PS046 242/021 TB/ S//1=
DES CNFPXL 2513N 10301E 110459 F089 PS058 247/020 TB/ S//1=
DES CNFPXL 2511N 10259E 110500 F080 PS081 255/022 TB/ S//1=
DES CNFOZL 3620N 12029E 110457 F043 MS073 266/005 TB/ S//1=
DES CNFOZL 3623N 12026E 110458 F036 MS068 238/011 TB/ S//1=
DES CNFOZL 3626N 12023E 110459 F026 MS045 207/015 TB/ S//1=
DES CNFOZL 3625N 12020E 110500 F017 MS023 208/009 TB/ S//1=
LVR CNFPYM 3637N 11546E 110459 F236 MS368 266/068 TB/ S//1=
LVR CNFPYM 3636N 11542E 110500 F236 MS368 266/068 TB/ S//1=
LVR CNFPYM 3636N 11538E 110500 F236 MS368 266/071 TB/ S//1=
DES CNFOZN 3711N 12522E 110459 F176 MS275 277/047 TB/ S//1=
DES CNFOZN 3713N 12530E 110500 F164 MS255 288/043 TB/ S//1=
DES CNFOZN 3714N 12534E 110500 F155 MS245 279/033 TB/ S//1=
DES CNFOZN 3716N 12537E 110501 F149 MS235 277/032 TB/ S//1=
ASC CNFPQK 3720N 12118E 110500 F026 MS045 300/004 TB/ S//1=
ASC CNFPQK 3718N 12116E 110500 F046 MS075 305/011 TB/ S//1=
ASC CNFPQK 3717N 12114E 110501 F065 MS091 299/018 TB/ S//1=
0000065300
176
SAUK20 EGGY 102020
METAR EGRE 102020Z AUTO 07020KT 9999 BKN025/// 05/M01 Q0998 W///S5=
METAR EGRK 102020Z AUTO 25020KT 9999 SCT015/// 07/04 Q0999 W///S5=
METAR EGRM 102020Z AUTO 26019KT 9999 FEW023/// SCT026/// 07/05 Q1001
     W///S4=
METAR EGRO 102020Z AUTO 27021KT //// // ///////// 07/05 Q1002 W///S4=
METAR EGRP 102020Z AUTO 25019KT 180V270 9999 FEW013/// BKN017///
     BKN024/// ///// Q1003 RERA W///S4=
METAR EGRS 102020Z AUTO 26028KT 9999 FEW011/// BKN025/// 08/06 Q1004
     W///S4=
METAR EGRV 102020Z AUTO 22026KT 9999 NCD 07/06 Q1009 W///S4=
METAR EGRW 102020Z AUTO 21024KT 9999 NCD 08/06 Q1010 W///S3=

0000047500
177
SAUK21 EGGY 102020
METAR EGRF 102020Z AUTO 25026KT 9999 FEW016/// 06/03 Q0996 W///S5=
METAR EGRG 102020Z AUTO 10020KT 9999 BKN016/// 05/02 Q0998 RERA
     W///S5=
METAR EGRI 102020Z AUTO 25025KT 9999 FEW022/// 07/01 Q0997=
METAR EGRL 102020Z AUTO 26013G24KT 9999 RA FEW017/// 07/04 Q1000
     W///S4=
METAR EGRN 102020Z AUTO 25027KT 9999 -RA FEW010/// SCT032/// 08/06
     Q1004=
METAR EGRT 102020Z AUTO /////KT 9999 NCD 07/04 Q1009 W///S3=

0000032700
178
FTCN35 CWAO 102000 AAA
TAF AMD CYYZ 102019Z 1020/1124 15006KT 1SM BR OVC003 TEMPO 1020/1106
     3SM BR OVC005
    FM110600 12008KT 1SM -RA BR OVC003
    FM110900 16008KT 1/2SM -RA FG VV002
    FM111400 20010KT 11/2SM -RA BR OVC003
    FM112200 23015G25KT P6SM OVC015
    RMK NXT FCST BY 102100Z=

0000014500
179
SAFA31 EKCH 102020
METAR EKVG 102020Z AUTO VRB01KT 9999NDV BKN078/// 02/01 Q0994
RMK FEW042/// BKN082/// WIND 850FT 24003KT=

0000012700
180
SALV31 EVRA 102020
METAR EVRA 102020Z 31012KT 270V340 9999 -RA BKN011 OVC016 03/02 Q0992
R36/290158 NOSIG=

0000011400
181
SAEO31 EETN 102020
METAR EETN 102020Z 36011KT 9999 -SN OVC010 01/M01 Q0990 R08/290195 
NOSIG=

0000009100
182
SPCN42 CWAO 102017
SPECI CYBV 102017Z 15002KT 2SM -SN OVC005 RMK SN3SC5=

0000011200
183
SALT32 EYVI 102020
METAR EYKA 102020Z 27018G30KT 9999 BKN016 OVC021 03/00 Q0997
R08/290095=

0000008400
184
SAEA20 HKNC 102000 RRA
METAR HKGA 102000Z 12014KT SKC 29/18 1010=

0000080500
185
FASW41 LSSW 101940
LSAS GAMET VALID 102100/110300 LSZH-
WESTERN SWITZERLAND
SECN I
HAZARDOUS WX NIL
SECN II
W/T:  5000FT 210/25KT PS06   10000FT  260/25KT MS04
FZLVL: FL080
MNM QNH: 1018 HPA
EASTERN SWITZERLAND
SECN I
HAZARDOUS WX NIL
SECN II
W/T: 5000FT 250/20KT PS03   10000FT  270/40KT MS06
FZLVL: FL070
MNM QNH: 1018 HPA
WESTERN ALPINE SWITZERLAND
SECN I
TURB: LCA MOD FL070/FL140
SECN II
W/T: 8000FT 260/20KT PS00   13000FT  270/25KT MS11
FZLVL: FL080
EASTERN ALPINE SWITZERLAND
SECN I
TURB: MOD FL070/FL140
SECN II
W/T: 8000FT 270/25KT MS01   13000FT 290/35KT MS11
FZLVL: FL070
SOUTHERN SWITZERLAND
SECN I
HAZARDOUS WX NIL
SECN II
W/T: 5000FT VRB/05KT PS01   10000FT 290/20KT MS04
FZLVL: FL070
MNM QNH: 1020 HPA  =

0000011100
186
SPCN47 CWAO 102019
SPECI CYWA 102019Z AUTO 14004KT 9SM SCT013 OVC028 OVC079 M05/M07
A3017=

0000010100
187
SANM40 FYWW 102000 RRB
METAR FYML 102000Z AUTO 14003KT //// // ////// 29/03 Q1016=

0000143000
188
SPUS70 KWBC 102020
SPECI
KCVG 102016Z 15011KT 10SM SCT008 BKN050 OVC180 09/08 A2999 RMK AO2
     BINOVC=
KDTO 102016Z 22015G22KT 10SM BKN017 18/16 A2968 RMK AO2=
KEEO 102016Z AUTO 00000KT 5SM -SN BKN033 OVC041 M04/M07 A2990 RMK
     AO2 P0000 T10391067=
KWST 102016Z AUTO 00000KT 1SM -RA BR BKN014 OVC022 02/02 A3039 RMK
     AO2 P0000 T00220017=
KHFD 102016Z 00000KT 2 1/2SM BR SCT013 SCT041 OVC055 01/M01 A3037
     RMK AO2 T00111011=
KPIH 102016Z 24025G30KT 10SM BKN028 03/M01 A2996 RMK AO2 PK WND
     24030/2016 T00331011=
KILN 102017Z AUTO 14007KT 8SM OVC005 07/06 A3002 RMK AO2
     T00670061=
KMRB 102017Z 02006KT 3SM HZ OVC011 03/00 A3028 RMK AO2 CIG 008V013
     T00330000=
KPAH 102017Z 15006KT 8SM FEW010 OVC090 09/07 A2989 RMK AO2
     T00940072=
KARB 102017Z 15006KT 1 3/4SM BR OVC004 02/02 A2998 RMK AO2=
KBDE 102017Z AUTO 18012KT 2 1/2SM BR OVC006 M04/M06 A2946 RMK AO2
     T10441056 TSNO=
KBOS 102017Z 13003KT 4SM BR FEW007 BKN030 OVC035 00/M02 A3039 RMK
     AO2=
KCEW 102017Z AUTO 06003KT 1SM BR OVC001 15/14 A3005 RMK AO2
     T01500144=
KDEQ 102017Z AUTO 20009G15KT 1 1/2SM -RA BR OVC007 14/14 A2970 RMK
     AO2 CIG 005V013 P0003 T01440139=
KRUE 102017Z AUTO 03004KT 2SM +RA BR FEW005 BKN008 OVC017 10/09
     A2975 RMK AO2 P0014=
KVPZ 102017Z AUTO 15009KT 2SM -RA BR OVC006 02/02 A2982 RMK AO2
     RAB1959 P0001 T00220022 TSNO=

0000008900
189
SPCN51 CWAO 102020
SPECI CWOB 102020Z AUTO 13002KT -SN CLR M19/ A2910=

0000009000
190
SPBU40 LBSM 102020
SPECI LBPD 102020Z 27006MPS CAVOK 08/08 Q1019 NOSIG=

0000014700
191
FTRA31 RUMS 102000
TAF UEEE 102000Z 1021/1203 23004MPS VRB02MPS 2000 BR NSC TM45/1023Z
TEMPO 1021/1103 VRB02MPS 0500 FG VV003=

0000045400
192
FTRA35 RUMS 102000
TAF UHBB 101940Z 1021/1121 VRB02MPS 9999 SCT100 TEMPO 1021/1102 2100
BR SCT007 SCT100 BECMG 1100/1102 30003MPS=
TAF UHSS 102000Z 1021/1203 36003MPS 5000 FU BKN025CB 530007 BECMG
1022/1024 28006MPS 9999 NSW TEMPO 1100/1121 2100 SHSN BKN007
BKN020CB=
TAF UHWW 101955Z 1021/1121 VRB02MPS 2100 HZ SCT007 BKN100 BECMG
1100/1102 32004MPS 5000 HZ SCT030 SCT100 530005 BECMG 1103/1104
9999 NSW SCT025CB BKN100=

00000000