0000008700
013
SPCN47 CWAO 101714
SPECI CYVV 101714Z 18010KT 4SM BR OVC020 RMK SC8=

0000010200
014
SAAB31 LATI 101720
METAR LATI 101720Z VRB02KT 9999 FEW030 BKN053 12/08 Q1021 NOSIG=

0000023500
015
FTUS80 KWBC 101715
TAF
TAF KEVW 101708Z 1017/1112 25020KT 6SM -SHSN OVC040
     FM101800 25022G32KT 5SM -SHSN BLSN OVC020
     FM101900 24028G40KT 4SM -SHSN BLSN BKN025
     FM110200 24020KT P6SM VCSH BKN030=

0000009800
016
SPCN42 CWAO 101715
SPECI CYUA 101715Z AUTO 30023G30KT 5/8SM -SN CLR M25/ A2974=

0000010700
017
SAMS34 WMKK 101700 RRC
METAR WBGR 101700Z 15002KT 9999 SCT014 SCT150 BKN300 25/24 Q1011=

0000010700
018
SAMS38 WMKK 101700 RRB
METAR WBGR 101700Z 15002KT 9999 SCT014 SCT150 BKN300 25/24 Q1011=

0000076600
019
FTHO31 MHTG 101714
TAF
TAF MHTG 101625Z 1018/1118 07008KT 9999 BKN026 
       TX27/1021Z TN13/1112Z
       BECMG 1020/1022 SCT028
       BECMG 1101/1103 03006KT SCT026
       BECMG 1108/1110 FEW008 BKN024
       BECMG 1113/1115 SCT026=
TAF MHLM 101625Z 1018/1118 04006KT 9999 FEW028 
      TX28/1020Z TN18/1112Z
       BECMG 1101/1103 19005KT SCT025=
TAF MHLC 101625Z 1018/1118 04008KT 9999 SCT022 BKN080
      TX27/1018Z TN19/1112Z
      BECMG 1020/1022 SCT024TCU BKN070
      BECMG 1101/1103 16006KT FEW022 SCT080=
TAF MHRO 101625Z 1018/1118 06010KT 9999 SCT020
      TX28/1018Z TN24/1112Z
      BECMG 1020/1022 13012KT SCT020 SCT080
      BECMG 1102/1104 SCT018 FEW020CB 
      BECMG 1107/1109 FEW018 SCT080=

0000025800
020
SAHK31 VHHH 101700 RRA
METAR RPLL 101700Z 07006KT 9999 SCT023 SCT100 23/20 Q1016 NOSIG RMK 
           A3001=
METAR RPVM 101700Z 350012KT 9999 SCT020 OVC090 25/23 Q1012 A2990=
METAR RPLB 101700Z 08010KT 9999 FEW030 23/19 Q1015 NOSIG=

0000010500
021
SPCN52 CWAO 101714
SPECI CWSA 101714Z AUTO 27010G15KT 9SM BKN024 BKN070 M02/M08 A3050=

0000009400
022
SAIN90 VIAR 110505
METAR VIAR 110505Z 30003KT 270V340 2200 BR NSC 09/07 Q1020=
0000008900
023
SAIN90 VIGG 110500
METAR VIGG 110500Z 24001KT 5000 HZ NSC 13/03 Q1020=

0000583600
024
SIIN52 VECC 110300
AAXX 11034
42027 21595 82701 10004 21009 38474 48561 70522 8452/
  333 21003 58056 6996/
  555 00006 10036=
42101 31994 00000 10070 20061 40189 71000
  333 10186 20063 58011
  555 10000=
42111 21596 73202 10090 20082 39377 40175 70262 87800
  333 10192 20083 58000 6015/ 85625 84830
  555 00145 10015=
42165 31994 20000 10050 20026 40210 70500 80001
  333 10198 20042 58036 82070
  555 10000=
42182 31992 02705 10082 20082 40187 74442
  333 10202 20071 58010
  555 10000=
42260 31993 02703 10082 20082 40193 74244
  333 20068 58007
  555 10000=
42295 32396 83600 10036 20027 48543 88///
  333 20010 58000
  555=
42296 32492 73202 10100 20081 48533
  333 20030 58038
  555 10000=
42299 31495 70000 10062 20032 38231 48544 70522 85630
  333 20052 58017 82710 85618
  555 10000=
42314 31994 30000 10154 20117 40195 71044 83030
  333 20073 58006 83360
  555 10002=
42328 32996 30501 10076 20023 40203 83030
  333 10177 20055 58027 83360
  555 10000=
42339 31995 60503 10096 20031 40204 70500 80001
  333 10217 20093 58035 86070
  555 10000=
42348 31995 30205 10114 20027 40188 70500 80001
  333 10200 20072 58019 83070
  555 10000=
42369 21/93 90000 10134 20127 40172 74544 89///
  333 10193 20100 59006
  555 00025 10012=
42375 NIL=
42379 21594 50902 10148 20106 40173 71021 83530
  333 10195 20098 56690 59001 6998/ 83620 83360
  555 00008 10001=
42397 NIL=
42398 31595 70000 10128 20120 40201 71020 83431
  333 20087 58012
  555 10000=
42399 31496 80000 10144 20106 40187 70500 8562/
  333 20117 58009
  555 10000=
42403 31995 60000 10144 20126 40191 70511 86505
  333 20081 58004
  555 10000=
42404 31596 40501 10150 20125 40193 70511 82530
  333 20124 58002 82620 83360
  555 10000=
42410 31495 30000 10140 20126 40192 71000 81530
  333 20098 58062 81618 83359
  555 10000=
42415 32996 30000 10156 20111 40217 83050
  333 20104 58009 83360
  555 10000=
42423 31594 30000 10150 20136 40178 71044 82530
  333 20102 58015 82620 83360
  555 10005=
42475 21/92 90904 10160 20160 4//// 74344 89///
  333 10203 20150 58/// 6037/
  555 00366 10039=
42492 21494 80506 10142 20135 40178 79596 8492/
  333 20125 58005 6006/ 84618 81930 87458
  555 00062 10007=
42500 21595 80000 10128 20124 40157 76162 8452/
  333 20098 58011 6001/ 84620 88458
  555 00014 10001=
42511 NIL=
42516 32996 10000 10130 20034 38447 48543 81030
  333 20079 58019
  555 10000=
42591 21994 80000 10146 20139 40189 76096 8572/
  333 20139 58008 6032/ 81710 85618 88458
  555 00321 10032=
42619 31996 00902 10158 20133 40181 70500
  333 20095 59003
  555 10000=
42623 31995 00902 10122 20071 39307 40202 70500
  333 20045 58007
  555 10000=
42647 31995 22902 10116 20061 40180 70500
  333 20104 58024 82070
  555 10000=
42675 21493 80000 10160 20153 40161 74696 8860/
  333 20156 59001 6021/ 88710
  555 00211 10021=
42701 31994 21804 10150 20122 39427 40173 71000 82030
  333 20101 58001 82360
  555 10003=
42724 31992 00000 10136 20125 40174 74444
  333 20080 59009
  555 10000=
42731 32996 33604 10156 20061 40190 80001
222// 20000
  333 20130 58021
  555 10000=
42737 32996 00504 10100 20042 40186
  333 20076 58015
  555 10000=
42779 31996 42506 10174 20151 39450 40158 70510 80002
  333 20152 59004 84075
  555 10001=
42798 31993 00000 10164 20132 40171 74244
  333 20117 59005
  555 10000=
42809 31995 00000 10190 20138 40177 70500
  333 20108 58006
  555 10000=
42867 21994 31102 10190 20174 40156 74441 82032
  333 20160 58004 6990/ 82360 83070
  555 00000 10000=
42886 31993 00501 10178 20147 40168 74244
  333 20153 59005
  555 10000=
42895 31995 00000 10178 20124 40171 70500
  333 20130 59010
  555 10000=
42971 31994 00201 10198 20175 40172 72840
  333 20159 59004
  555 10000=
42976 31994 03402 10196 20166 40172 71000
  333 20157 59005
  555 10000=
42977 NIL=
43003 31995 00000 10150 20078 40163 70400
  333 20136 58019
  555 10000=
43049 31995 03603 10200 20190 40167 70500
  333 20/// 58007
  555 10000=
43053 32996 03602 10226 20167 40169
222// 20701
  333 20180 59006
  555 10000=
43063 31996 00000 10122 20118 39517 40162 70500
  333 20071 58004
  555 10000=
43117 32997 00702 10196 20121 40152
  333 20161 59002
  555 10000=
43128 31496 71404 10202 20177 39547 40161 70522 84530
  333 10292 20188 56290 58007 84615 85360
  555 10000=
43149 31494 29902 10234 20210 30167 40170 71000
  333 10294 20192 56600 58000 82618
  555 10000=
43157 31996 00000 10168 20130 39507 40157 74440
  333 20152 58000
  555 10000=
43185 31596 41403 10250 20204 30156 40160 70521 82530
  333 10292 20210 58000 82620 83360
  555 00000 10000=
43192 31596 40503 10200 20167 40145 70500 81430
  333 20180 58006
  555 10000=
43201 32997 02302 10196 20171 39415 40144
  333 10310 20164 58004
  555 10000=
43221 32996 00000 10230 20205 30145 40158
  333 10305 20201 59002
  555 10000=
43263 NIL=
43279 31597 30000 10234 20197 30153 40171 70500 82501
  333 10306 20197 58004 82620
  555 10001=
43285 32597 20000 10248 20221 30116 40148 82500
  333 10336 20232 58005 82620
  555 10000=
43295 31997 30902 10184 20158 39130 48531 70500 80001
  333 10297 20169 58003 83075
  555 10000=
43333 31496 50706 10288 20233 40144 70510 84401
  333 20253 56109 58004 82618 83820
  555 10000=
43339 32/97 31412 10144 20000 37729 47170 81101
  333 10193 20091 58004
  555 10017=
43347 32597 33602 10234 20216 30143 40154 82501
  333 10289 20216 58007
  555 10007=
43371 31996 00000 10238 20223 30064 40137 70500
  333 10320 20222 58009
  555 10013=
43466 NIL=
43555 NIL=
0000011700
025
FTID33 WAPP 101716
TAF WAPP 101700Z 1018/1118 34006KT 9999 SCT018
BECMG 1101/1103 210008KT 9000=

0000010200
026
SPCN44 CWAO 101715
SPECI CYMJ 101715Z 31005KT 3/4SM BR OVC002 RMK FG3ST5 VIS W 1/4=

0000387900
027
SAIR31 OIII 110500
METAR OIAA 110500Z 11006KT 1800 BR SCT040 BKN100 13/12 Q1018=
 METAR OIAG 110500Z 11012KT 8000 TSSHRA SCT035CB BKN040 13/10
 Q1020=
 METAR OIAH 110500Z 10012KT 4000 -RA FEW035CB FEW040 OVC100 10/04
 Q1019=
 METAR OIAI 110500Z 02002KT 4000 +RA FEW035CB SCT040 OVC070 09/09
 Q1019 RERA=
 METAR OIAM 110500Z 09012KT 4000 -RA BKN010 FEW030CB OVC070 11/11
 Q1019=
 METAR OIAW 110500Z 10006KT 7000 FEW030CB SCT025 OVC090 12/10
 Q1019=
 METAR OIBA 110500Z 06018KT 4000 SA FEW025CB FEW030 OVC100 20/12
 Q1020=
 METAR OIBB 110500Z 12008KT 9999 -RA FEW030CB SCT040 OVC090 15/07
 Q1019 A3009=
 METAR OIBK 110500Z 07012KT 6000 -RA FEW030CB SCT025 OVC080 13/09
 Q1021=
METAR OIBL 110500Z 05006KT 5000 HZ SCT025 OVC080 13/07 Q1021=
METAR OIBS NIL=
 METAR OICC 110500Z 10008KT 4000 BR FEW035CB SCT040 OVC080 M01/M03
 Q1019 A3011 NOSIG=
METAR OICI 110500Z 14006KT 9999 SCT035 BKN090 03/03 Q1017 A3005=
 METAR OICJ 110450Z 00000KT 2000 -SN FEW030CB SCT035 OVC070 M01/M03
 Q1020=
 METAR OICK 110500Z 12004KT 9999 FEW010 FEW030CB SCT040 OVC080
 01/01 Q1020=
 METAR OICS 110500Z 18002KT 3500 BR FEW020 SCT035 BKN080 M04/M04
 Q1020=
METAR OIFK 110500Z 00000KT 7000 SCT035 OVC090 M01/M04 Q1023=
 METAR OIFM 110500Z 00000KT 0050 FG FEW040 SCT100 M04/M05 Q1020
 A3014=
 METAR OIFS 110500Z 00000KT 1000 SN FEW030CB SCT035 OVC080 M08/M10
 Q1020=
 METAR OIGG 110500Z VRB02KT 2500 BR FEW015CB BKN025 BKN090 02/02
 Q1018=
METAR OIGK 110450Z 00000KT 9999 FEW035 BKN150 M09/M13 Q1019=
METAR OIHH 110500Z 00000KT 2000 BR SCT035 OVC100 M09/M10
Q1021=
METAR OIHM 110500Z 12006KT 1500 -SN SCT035 OVC080 M04/M04 Q1019=
 METAR OIIE 110500Z 27004KT 9999 FEW040 SCT100 BKN180 M01/M05 Q1022
 A3018 NOSIG=
 METAR OIII 110500Z 15006KT 9999 FEW040 SCT100 BKN200 03/M06 Q1021
 A3016 NOSIG TEMPO FEW035CB SCT030 BKN100=
METAR OIIK 110500Z 00000KT 5000 HZ NSC M01/M05 Q1022=
METAR OIIP 110500Z 26010KT 5000 BR SCT035 SCT090 M04/M07 Q1020=
METAR OIIS 110500Z 00000KT 9999 FEW035 BKN200 02/M05 Q1022=
 METAR OIKB 110450Z 34004KT 8000 RA FEW025CB SCT030 OVC090 13/08
 Q1023 A3022 TEMPO 06012KT 7000 RA FEW025CB SCT030 OVC090=
METAR OIKK 110500Z 13008KT 9999 FEW040 OVC100 M02/M06 Q1022 A3020=
 METAR OIKO 110450Z 00000KT 6000 FEW015 FEW025CB OVC080 16/03
 Q1024=
METAR OIKQ 110500Z 06014KT 8000 FEW030 SCT100 14/04 Q1022=
 METAR OIMB 110500Z 09004KT 9999 FEW040 SCT090 OVC190 M00/M11
 Q1023=
METAR OIMC 110450Z 00000KT 9999 FEW040 SCT200 04/M04 Q1023=
METAR OIMD 110450Z 00000KT 9999 SCT035 SCT100 00/M06 Q1021=
METAR OIMM 110500Z 00000KT 9999 FEW035 BKN180 04/M10 Q1022 A3020=
METAR OINB 110500Z 00000KT CAVOK 06/04 Q1018=
METAR OING 110500Z 00000KT 3000 BR FEW030 BKN100 04/04 Q1020=
METAR OINK 110500Z 00000KT 0100 FG OVC010 03/03 Q1018=
METAR OINN 110500Z 00000KT CAVOK 07/04 Q1018=
METAR OINR 110500Z 00000KT CAVOK 07/04 Q1017=
METAR OISA 110450Z 24006KT 9999 FEW040 SCT100 M05/M10 Q1020=
 METAR OISF 110450Z 00000KT 9999 FEW035CB SCT040 OVC090 06/03
 Q1021=
 METAR OISL 110500Z 00000KT 9999 FEW035CB SCT040 OVC100 09/02
 Q1021=
 METAR OISS 110500Z 00000KT 2500 BR FEW030CB FEW035 OVC080 01/M00
 Q1023 A3023=
 METAR OISY 110500Z 00000KT 1000 -SN FEW030CB SCT035 OVC080 M01/M01
 Q1022=
METAR OITL 110450Z 28012KT 9999 FEW030 SCT090 BKN170 M13/M15 Q1017=
 METAR OITR 110500Z 27004KT 2500 BR SCT035 BKN140 M12/M14 Q1021
 NOSIG=
METAR OITT 110500Z 07008KT 6000 NSC M11/M14 Q1022 A3019=
METAR OITU 110450Z 00000KT 5000 BR SKC M19/M19 Q1022=
METAR OIYY 110500Z 12004KT 9999 FEW030 OVC100 02/M02 Q1022=
METAR OIZB 110500Z 00000KT 6000 NSC 03/M02 Q1027=
METAR OIZC NIL=
METAR OIZH 110500Z 22004KT CAVOK 01/M04 Q1024 A3026 NOSIG=
METAR OIZI 110500Z 04006KT CAVOK 09/M00 Q1025=
METAR OIZJ 110450Z 04004KT 9999 SCT030 BKN090 16/02 Q1022=
0000410000
028
SAIR77 OIII 110500
METAR AZUH 110450Z 00000KT 1000 SG OVC020 M10/M11 Q1025=
METAR KHME 110450Z 08008KT CAVOK M00/M09 Q1023=
METAR OIAA 110500Z 11006KT 1800 BR SCT040 BKN100 13/12 Q1018=
 METAR OIAG 110500Z 11012KT 8000 TSSHRA SCT035CB BKN040 13/10
 Q1020=
 METAR OIAH 110500Z 10012KT 4000 -RA FEW035CB FEW040 OVC100 10/04
 Q1019=
 METAR OIAI 110500Z 02002KT 4000 +RA FEW035CB SCT040 OVC070 09/09
 Q1019 RERA=
 METAR OIAM 110500Z 09012KT 4000 -RA BKN010 FEW030CB OVC070 11/11
 Q1019=
 METAR OIAW 110500Z 10006KT 7000 FEW030CB SCT025 OVC090 12/10
 Q1019=
 METAR OIBA 110500Z 06018KT 4000 SA FEW025CB FEW030 OVC100 20/12
 Q1020=
 METAR OIBB 110500Z 12008KT 9999 -RA FEW030CB SCT040 OVC090 15/07
 Q1019 A3009=
 METAR OIBK 110500Z 07012KT 6000 -RA FEW030CB SCT025 OVC080 13/09
 Q1021=
METAR OIBL 110500Z 05006KT 5000 HZ SCT025 OVC080 13/07 Q1021=
METAR OIBS NIL=
 METAR OICC 110500Z 10008KT 4000 BR FEW035CB SCT040 OVC080 M01/M03
 Q1019 A3011 NOSIG=
METAR OICI 110500Z 14006KT 9999 SCT035 BKN090 03/03 Q1017 A3005=
 METAR OICJ 110450Z 00000KT 2000 -SN FEW030CB SCT035 OVC070 M01/M03
 Q1020=
 METAR OICK 110500Z 12004KT 9999 FEW010 FEW030CB SCT040 OVC080
 01/01 Q1020=
 METAR OICS 110500Z 18002KT 3500 BR FEW020 SCT035 BKN080 M04/M04
 Q1020=
METAR OIFK 110500Z 00000KT 7000 SCT035 OVC090 M01/M04 Q1023=
 METAR OIFM 110500Z 00000KT 0050 FG FEW040 SCT100 M04/M05 Q1020
 A3014=
 METAR OIFS 110500Z 00000KT 1000 SN FEW030CB SCT035 OVC080 M08/M10
 Q1020=
 METAR OIGG 110500Z VRB02KT 2500 BR FEW015CB BKN025 BKN090 02/02
 Q1018=
METAR OIGK 110450Z 00000KT 9999 FEW035 BKN150 M09/M13 Q1019=
METAR OIHM 110500Z 12006KT 1500 -SN SCT035 OVC080 M04/M04 Q1019=
 METAR OIIE 110500Z 27004KT 9999 FEW040 SCT100 BKN180 M01/M05 Q1022
 A3018 NOSIG=
 METAR OIII 110500Z 15006KT 9999 FEW040 SCT100 BKN200 03/M06 Q1021
 A3016 NOSIG TEMPO FEW035CB SCT030 BKN100=
METAR OIIK 110500Z 00000KT 5000 HZ NSC M01/M05 Q1022=
METAR OIIP 110500Z 26010KT 5000 BR SCT035 SCT090 M04/M07 Q1020=
METAR OIIS 110500Z 00000KT 9999 FEW035 BKN200 02/M05 Q1022=
 METAR OIKB 110450Z 34004KT 8000 RA FEW025CB SCT030 OVC090 13/08
 Q1023 A3022 TEMPO 06012KT 7000 RA FEW025CB SCT030 OVC090=
METAR OIKK 110500Z 13008KT 9999 FEW040 OVC100 M02/M06 Q1022 A3020=
 METAR OIKO 110450Z 00000KT 6000 FEW015 FEW025CB OVC080 16/03
 Q1024=
METAR OIKQ 110500Z 06014KT 8000 FEW030 SCT100 14/04 Q1022=
 METAR OIMB 110500Z 09004KT 9999 FEW040 SCT090 OVC190 M00/M11
 Q1023=
METAR OIMC 110450Z 00000KT 9999 FEW040 SCT200 04/M04 Q1023=
METAR OIMD 110450Z 00000KT 9999 SCT035 SCT100 00/M06 Q1021=
METAR OIMM 110500Z 00000KT 9999 FEW035 BKN180 04/M10 Q1022 A3020=
METAR OIMN 110500Z 00000KT CAVOK M05/M07 Q1022 A3019=
METAR OINB 110500Z 00000KT CAVOK 06/04 Q1018=
METAR OING 110500Z 00000KT 3000 BR FEW030 BKN100 04/04 Q1020=
METAR OINK 110500Z 00000KT 0100 FG OVC010 03/03 Q1018=
METAR OINN 110500Z 00000KT CAVOK 07/04 Q1018=
METAR OINR 110500Z 00000KT CAVOK 07/04 Q1017=
METAR OISA 110450Z 24006KT 9999 FEW040 SCT100 M05/M10 Q1020=
 METAR OISF 110450Z 00000KT 9999 FEW035CB SCT040 OVC090 06/03
 Q1021=
 METAR OISL 110500Z 00000KT 9999 FEW035CB SCT040 OVC100 09/02
 Q1021=
 METAR OISS 110500Z 00000KT 2500 BR FEW030CB FEW035 OVC080 01/M00
 Q1023 A3023=
 METAR OISY 110500Z 00000KT 1000 -SN FEW030CB SCT035 OVC080 M01/M01
 Q1022=
METAR OITL 110450Z 28012KT 9999 FEW030 SCT090 BKN170 M13/M15 Q1017=
 METAR OITR 110500Z 27004KT 2500 BR SCT035 BKN140 M12/M14 Q1021
 NOSIG=
METAR OITT 110500Z 07008KT 6000 NSC M11/M14 Q1022 A3019=
METAR OITU 110450Z 00000KT 5000 BR SKC M19/M19 Q1022=
METAR OIYY 110500Z 12004KT 9999 FEW030 OVC100 02/M02 Q1022=
METAR OIZB 110500Z 00000KT 6000 NSC 03/M02 Q1027=
METAR OIZC NIL=
METAR OIZH 110500Z 22004KT CAVOK 01/M04 Q1024 A3026 NOSIG=
METAR OIZI 110500Z 04006KT CAVOK 09/M00 Q1025=
METAR OIZJ 110450Z 04004KT 9999 SCT030 BKN090 16/02 Q1022=
METAR SESG 110500Z 00000KT 9999 FEW035 BKN090 03/M04 Q1023=
METAR YAYT 110450Z 00000KT 9999 FEW040 SCT200 04/M03 Q1024=
0000391300
029
SAIR78 OIII 110500
METAR AZUH 110450Z 00000KT 1000 SG OVC020 M10/M11 Q1025=
METAR KHME 110450Z 08008KT CAVOK M00/M09 Q1023=
METAR OIAA 110500Z 11006KT 1800 BR SCT040 BKN100 13/12 Q1018=
 METAR OIAG 110500Z 11012KT 8000 TSSHRA SCT035CB BKN040 13/10
 Q1020=
 METAR OIAH 110500Z 10012KT 4000 -RA FEW035CB FEW040 OVC100 10/04
 Q1019=
 METAR OIAI 110500Z 02002KT 4000 +RA FEW035CB SCT040 OVC070 09/09
 Q1019 RERA=
 METAR OIAM 110500Z 09012KT 4000 -RA BKN010 FEW030CB OVC070 11/11
 Q1019=
 METAR OIAW 110500Z 10006KT 7000 FEW030CB SCT025 OVC090 12/10
 Q1019=
 METAR OIBA 110500Z 06018KT 4000 SA FEW025CB FEW030 OVC100 20/12
 Q1020=
 METAR OIBB 110500Z 12008KT 9999 -RA FEW030CB SCT040 OVC090 15/07
 Q1019 A3009=
 METAR OIBK 110500Z 07012KT 6000 -RA FEW030CB SCT025 OVC080 13/09
 Q1021=
METAR OIBL 110500Z 05006KT 5000 HZ SCT025 OVC080 13/07 Q1021=
METAR OIBS NIL=
 METAR OICC 110500Z 10008KT 4000 BR FEW035CB SCT040 OVC080 M01/M03
 Q1019 A3011 NOSIG=
METAR OICI 110500Z 14006KT 9999 SCT035 BKN090 03/03 Q1017 A3005=
 METAR OICJ 110450Z 00000KT 2000 -SN FEW030CB SCT035 OVC070 M01/M03
 Q1020=
 METAR OICK 110500Z 12004KT 9999 FEW010 FEW030CB SCT040 OVC080
 01/01 Q1020=
 METAR OICS 110500Z 18002KT 3500 BR FEW020 SCT035 BKN080 M04/M04
 Q1020=
METAR OIFK 110500Z 00000KT 7000 SCT035 OVC090 M01/M04 Q1023=
 METAR OIFM 110500Z 00000KT 0050 FG FEW040 SCT100 M04/M05 Q1020
 A3014=
 METAR OIFS 110500Z 00000KT 1000 SN FEW030CB SCT035 OVC080 M08/M10
 Q1020=
 METAR OIGG 110500Z VRB02KT 2500 BR FEW015CB BKN025 BKN090 02/02
 Q1018=
METAR OIGK 110450Z 00000KT 9999 FEW035 BKN150 M09/M13 Q1019=
METAR OIHH 110500Z 00000KT 2000 BR SCT035 OVC100 M09/M10
Q1021=
METAR OIHM 110500Z 12006KT 1500 -SN SCT035 OVC080 M04/M04 Q1019=
 METAR OIIE 110500Z 27004KT 9999 FEW040 SCT100 BKN180 M01/M05 Q1022
 A3018 NOSIG=
 METAR OIII 110500Z 15006KT 9999 FEW040 SCT100 BKN200 03/M06 Q1021
 A3016 NOSIG TEMPO FEW035CB SCT030 BKN100=
METAR OIIK 110500Z 00000KT 5000 HZ NSC M01/M05 Q1022=
METAR OIIS 110500Z 00000KT 9999 FEW035 BKN200 02/M05 Q1022=
 METAR OIKB 110450Z 34004KT 8000 RA FEW025CB SCT030 OVC090 13/08
 Q1023 A3022 TEMPO 06012KT 7000 RA FEW025CB SCT030 OVC090=
METAR OIKK 110500Z 13008KT 9999 FEW040 OVC100 M02/M06 Q1022 A3020=
 METAR OIKO 110450Z 00000KT 6000 FEW015 FEW025CB OVC080 16/03
 Q1024=
METAR OIKQ 110500Z 06014KT 8000 FEW030 SCT100 14/04 Q1022=
 METAR OIMB 110500Z 09004KT 9999 FEW040 SCT090 OVC190 M00/M11
 Q1023=
METAR OIMC 110450Z 00000KT 9999 FEW040 SCT200 04/M04 Q1023=
METAR OIMD 110450Z 00000KT 9999 SCT035 SCT100 00/M06 Q1021=
METAR OIMM 110500Z 00000KT 9999 FEW035 BKN180 04/M10 Q1022 A3020=
METAR OIMN 110500Z 00000KT CAVOK M05/M07 Q1022 A3019=
METAR OINB 110500Z 00000KT CAVOK 06/04 Q1018=
METAR OING 110500Z 00000KT 3000 BR FEW030 BKN100 04/04 Q1020=
METAR OINN 110500Z 00000KT CAVOK 07/04 Q1018=
METAR OINR 110500Z 00000KT CAVOK 07/04 Q1017=
METAR OISA 110450Z 24006KT 9999 FEW040 SCT100 M05/M10 Q1020=
 METAR OISF 110450Z 00000KT 9999 FEW035CB SCT040 OVC090 06/03
 Q1021=
 METAR OISL 110500Z 00000KT 9999 FEW035CB SCT040 OVC100 09/02
 Q1021=
 METAR OISS 110500Z 00000KT 2500 BR FEW030CB FEW035 OVC080 01/M00
 Q1023 A3023=
 METAR OISY 110500Z 00000KT 1000 -SN FEW030CB SCT035 OVC080 M01/M01
 Q1022=
 METAR OITR 110500Z 27004KT 2500 BR SCT035 BKN140 M12/M14 Q1021
 NOSIG=
METAR OITT 110500Z 07008KT 6000 NSC M11/M14 Q1022 A3019=
METAR OITU 110450Z 00000KT 5000 BR SKC M19/M19 Q1022=
METAR OIYY 110500Z 12004KT 9999 FEW030 OVC100 02/M02 Q1022=
METAR OIZB 110500Z 00000KT 6000 NSC 03/M02 Q1027=
METAR OIZC NIL=
METAR OIZH 110500Z 22004KT CAVOK 01/M04 Q1024 A3026 NOSIG=
METAR OIZI 110500Z 04006KT CAVOK 09/M00 Q1025=
METAR OIZJ 110450Z 04004KT 9999 SCT030 BKN090 16/02 Q1022=
METAR YAYT 110450Z 00000KT 9999 FEW040 SCT200 04/M03 Q1024=
0000117900
030
UDOC01 NZKL 110500
AMDAR 1105
ASC NZL061 4119S 17448E 110407 F001 PS194 350/011 TB3 S031=
ASC NZL014 4119S 17448E 110416 F001 PS222 329/009 TB3 S031=
DES NZL045 4119S 17449E 110418 F001 PS181 353/017 TB0 S031
333 F/// VG016=
ASC NZL025 3659S 17447E 110448 F001 PS177 203/010 TB1 S031=
ASC NZL061 4119S 17448E 110407 F003 PS178 336/013 TB1 S031
333 F/// VG021=
ASC NZL014 4119S 17448E 110416 F003 PS201 338/007 TB1 S031
333 F/// VG021=
DES NZL015 4330S 17231E 110412 F004 PS144 055/018 TB0 S031
333 F/// VG016=
DES NZL045 4120S 17449E 110418 F004 PS174 350/018 TB0 S031
333 F/// VG018=
DES NZL061 4329S 17231E 110445 F004 PS144 056/016 TB0 S031
333 F/// VG009=
ASC NZL025 3659S 17447E 110449 F004 PS172 214/012 TB0 S031
333 F/// VG010=
ASC NZL061 4118S 17448E 110407 F006 PS167 347/011 TB0 S031
333 F/// VG015=
DES NZL015 4330S 17230E 110412 F006 PS138 061/021 TB0 S031
333 F/// VG018=
ASC NZL014 4118S 17448E 110416 F006 PS189 338/009 TB0 S031
333 F/// VG012=
DES NZL045 4121S 17448E 110417 F006 PS167 353/018 TB0 S031
333 F/// VG018=
DES NZL061 4330S 17230E 110445 F006 PS134 067/020 TB1 S031
333 F/// VG019=
0000123400
031
UDOC01 NZKL 110500 RRA
AMDAR 1105
ASC NZL025 3659S 17446E 110449 F007 PS166 213/009 TB0 S031
333 F/// VG006=
ASC NZL061 4118S 17448E 110407 F009 PS159 336/013 TB0 S031
333 F/// VG011=
DES NZL015 4331S 17229E 110411 F009 PS134 047/016 TB1 S031
333 F/// VG019=
ASC NZL014 4118S 17448E 110417 F009 PS178 339/013 TB0 S031
333 F/// VG012=
DES NZL045 4122S 17448E 110417 F009 PS159 358/015 TB1 S031
333 F/// VG017=
DES NZL061 4331S 17230E 110444 F009 PS127 064/020 TB0 S031
333 F/// VG013=
ASC NZL025 3659S 17446E 110449 F009 PS159 210/009 TB0 S031
333 F/// VG005=
ASC NZL061 4118S 17448E 110407 F012 PS154 340/009 TB0 S031
333 F/// VG015=
DES NZL015 4332S 17228E 110411 F012 PS124 067/017 TB0 S031
333 F/// VG015=
DES NZL045 4122S 17446E 110416 F012 PS153 001/013 TB1 S031
333 F/// VG026=
ASC NZL014 4118S 17448E 110417 F012 PS171 359/013 TB0 S031
333 F/// VG014=
DES NZL061 4331S 17229E 110444 F012 PS117 056/018 TB0 S031
333 F/// VG011=
ASC NZL025 3700S 17446E 110449 F012 PS155 211/007 TB0 S031
333 F/// VG011=
ASC NZL061 4118S 17448E 110408 F015 PS150 005/010 TB0 S031
333 F/// VG008=
DES NZL015 4332S 17227E 110410 F015 PS114 059/018 TB1 S031
333 F/// VG017=
0000123400
032
UDOC01 NZKL 110500 RRB
AMDAR 1105
DES NZL045 4122S 17443E 110415 F015 PS150 339/008 TB1 S031
333 F/// VG029=
ASC NZL014 4118S 17448E 110417 F015 PS166 022/011 TB1 S031
333 F/// VG019=
DES NZL061 4332S 17228E 110444 F015 PS112 058/019 TB1 S031
333 F/// VG023=
ASC NZL025 3700S 17445E 110449 F015 PS144 212/011 TB0 S031
333 F/// VG015=
ASC NZL061 4118S 17448E 110408 F017 PS144 030/009 TB0 S031
333 F/// VG016=
DES NZL015 4333S 17227E 110410 F018 PS107 051/016 TB1 S031
333 F/// VG015=
DES NZL045 4121S 17442E 110415 F018 PS153 037/009 TB1 S031
333 F/// VG023=
ASC NZL014 4118S 17448E 110417 F018 PS157 037/009 TB0 S031
333 F/// VG010=
DES NZL061 4333S 17227E 110443 F018 PS107 059/018 TB0 S031
333 F/// VG010=
ASC NZL025 3700S 17445E 110449 F018 PS135 215/010 TB1 S031
333 F/// VG019=
ASC NZL061 4117S 17448E 110408 F020 PS137 044/007 TB0 S031
333 F/// VG016=
DES NZL015 4334S 17226E 110410 F021 PS102 053/018 TB0 S031
333 F/// VG010=
DES NZL045 4121S 17441E 110415 F021 PS150 023/005 TB1 S031
333 F/// VG020=
ASC NZL014 4117S 17448E 110417 F021 PS152 035/009 TB0 S031
333 F/// VG010=
DES NZL061 4334S 17226E 110443 F021 PS100 046/021 TB0 S031
333 F/// VG011=
00000000