0000008900
853
SABZ19 SBCJ 101900
METAR SBCJ 101900Z 04003KT 9999 SCT024 26/20 Q1012=

0000025800
854
SAPM31 MPTO 101900
METAR
MPBO 101900Z 33008KT  290V040 9000 SCT020TCU SCT080 Q1014=
MPDA 101900Z 17006KT 9999 SCT020 31/24 Q1008=
MPMG 101900Z 33007KT 9999 SCT018TCU 27/24 Q1010 NOSIG=
MPPA 101900Z 35007KT 9999 SCT020 SCT060 Q1011=

0000007700
855
FCPL32 EPWA 101700 AAA
TAF AMD EPLB 101900Z 1018/1103 CNL=

0000009900
856
SAMX31 KWBC 101845 RRE
METAR
MMMY 101846Z 06003KT 5SM SKC 23/12 A2987 RMK HZY=

0000037800
857
SAHU41 LHBM 101900
METAR LHKE 101845Z 24003MPS CAVOK 04/00 Q1021 NOSIG RMK BLU=
METAR LHPA 101845Z 14002MPS 4000 BR FEW083 02/02 Q1021 NOSIG RMK GRN=
METAR LHPP 101845Z 10005KT CAVOK 06/05 Q1022=
METAR LHPR 101845Z 25008KT CAVOK 05/M01 Q1021=
METAR LHSN 101845Z 27004MPS CAVOK 06/01 Q1020 NOSIG RMK BLU=
METAR LHUD 101845Z 24005KT CAVOK 01/00 Q1022=

0000091000
858
SACH10 SCSC 101900
METAR SCFA 101900Z 20014KT 9999 FEW025 SCT260 24/16 Q1010 NOSIG=
METAR SCAR 101900Z 21012KT CAVOK 24/18 Q1010=
METAR SCBA 101900Z 32027G40KT 280V340 9999 FEW040 BKN200 15/04 Q1014=
METAR SCCF 101900Z 25016KT CAVOK 23/05 Q1022=
METAR SCIE 101900Z 24017KT CAVOK 22/10 Q1015=
METAR SCAT 101900Z 23010KT 190V270 CAVOK 23/14 Q1013=
METAR SCDA 101900Z 20013KT CAVOK 25/16 Q1010=
METAR SCSE 101900Z 28012KT CAVOK 20/14 Q1013=
METAR SCJO 101900Z 16008KT 9999 SCT040 19/08 Q1021=
METAR SCTE 101900Z 15013KT 9999 SCT040 SCT200 17/05 Q1022 NOSIG=
METAR SCNT 101900Z 29018KT 9999 SCT033 BKN090 11/03 Q1011=
METAR SCCI 101900Z 23021KT 9999 SCT040 BKN070 11/02 Q1008 NOSIG=
METAR SCEL 101900Z 21014KT 180V240 CAVOK 30/04 Q1012 NOSIG=
METAR SCIP 101900Z 10011KT 9999 SCT020 26/19 Q1021 NOSIG=
METAR SCPQ 101900Z 14009KT 100V180 9999 FEW032 BKN049 16/08 Q1022=

0000012700
859
SPCN51 CWAO 101858
SPECI CWUW 101858Z AUTO 14009KT 2 3/4SM FEW087 FEW095 M28/ A2894 RMK
VSBY VRBL 1.3V9.+=

0000072300
860
SANL33 EHDB 101855
METAR EHAK 101855Z AUTO 22021KT 9999 NSC 07/06 Q1007=
METAR EHDV 101855Z AUTO 23017KT 9999 FEW010/// 08/06 Q1009=
METAR EHFD 101855Z AUTO 24026KT 9999 FEW006/// 07/06 Q1008=
METAR EHFZ 101855Z AUTO 22021KT //// // ///////// 08/06 Q1010 RE//=
METAR EHJA 101855Z AUTO 21020KT 9999 NSC 07/05 Q1010=
METAR EHJR 101855Z NIL=
METAR EHKV 101855Z AUTO 25023KT 9999 FEW014/// 09/05 Q1012=
METAR EHMA 101855Z AUTO 22014KT 9999 NSC 07/05 Q1012=
METAR EHMG 101855Z AUTO 24021KT 9999 FEW015/// 08/05 Q1011=
METAR EHPG 101855Z AUTO ///23KT 9999 FEW013/// 09/07 Q1013=
METAR EHQE 101855Z AUTO 23020KT 9999 FEW016/// 09/06 Q////=
METAR EHSA 101855Z NIL=
METAR EHSC 101855Z NIL=

0000008900
861
SAEG31 HECA 101900
METAR HECA 101900Z 30004KT CAVOK 15/10 Q1022 NOSIG=

0000056200
862
SAGR32 LGAT 101850
METAR LGAL 101850Z 32006KT 9999 FEW008 SCT020 BKN200 09/06 Q1019=
METAR LGEL 101850Z 00000KT CAVOK 09/07 Q1018=
METAR LGIO 101850Z 00000KT 9999 FEW030 BKN170 05/04 Q1022=
METAR LGKV 101850Z NIL=
METAR LGMT 101850Z /////KT CAVOK 11/08 Q1020 RMK R32 16004KT=
METAR LGPZ 101850Z AUTO VRB01KT //// // ////// 11/09 Q1023
     RE//=
METAR LGRX 101850Z 00000KT 9999 SCT040 10/08 Q1022 NOSIG=
METAR LGSK 101850Z NIL=
METAR LGSR 101850Z AUTO 22009KT //// // ////// 15/10 Q1020
     RE//=
METAR LGZA 101850Z NIL=

0000053000
863
SADR31 MDSD 101900
METAR
METAR MDPP 101900Z 09018KT 9999 SCT020 28/23 Q1017=
METAR MDST 101900Z 13006KT 9999 BKN020 27/21 Q1017=
METAR MDPC 101900Z 10012KT 9999 FEW022 27/22 Q1017=
METAR MDBH 101900Z 13012KT 9999 FEW023 30/21 Q1015=
METAR MDJB 101900Z 06008KT 9999 SCT020 31/22 Q1016= 
METAR MDSD 101900Z 15010KT 9999 SCT024 32/25 Q1016=
METAR MDLR 101900Z 07016KT 9999 SCT022 29/20 Q1016=
METAR MDCY 101900Z 04010KT 9999 SCT020 28/24 Q1017=
METAR MDAB 101900Z 09005KT 9999 BKN022 27/24 Q1017=

0000009500
864
SAVN22 SVMI 101900
METAR SVMI 101900Z 05004KT 9999 SCT016 28/20 Q1014 NOSIG=

0000009600
865
SPCN51 CWAO 101858
SPECI CZCP 101858Z AUTO 29020G25KT 2 3/4SM CLR M28/ A2937=

0000050300
866
SAGR33 LGAT 101850
METAR LGBL 101850Z 27006KT 9999 FEW020 SCT180 08/06 Q1018 NOSIG=
METAR LGHI 101850Z VRB02KT 9999 FEW018 BKN020 11/10 Q1019=
METAR LGKC 101850Z NIL=
METAR LGKF 101850Z 00000KT 9999 SCT018 SCT080 13/09 Q1022=
METAR LGKP 101850Z NIL=
METAR LGKZ 101850Z AUTO VRB03KT //// // ////// 10/M01 Q1018
     RE//=
METAR LGMK 101850Z NIL=
METAR LGNX 101850Z NIL=
METAR LGPA 101850Z AUTO 16007KT //// // ////// 16/13 Q1019
     RE//=
METAR LGSO 101850Z NIL=

0000016000
867
SAGC31 MWCR 101900
METAR MWCR 101900Z 10008KT 080V140 9999 FEW018 29/23 Q1015 NOSIG=
METAR MWCB 101900Z 11012KT 9999 SCT018TCU 29/24 Q1016=

0000010300
868
SASG20 GOOY 101900
METAR GOOY 101900Z 01013KT 9999  FEW010 BKN130 20/13 Q1012 NOSIG=

0000009400
869
SPAU32 AMMC 101859
SPECI YSRI 101900Z AUTO 00000KT 1900 // NCD 15/15 Q1018=

0000010200
870
SAAG41 SACO 101900
METAR SACO 101900Z  14013KT 9999  SCT030 FEW040CB
29/18 Q1011=

0000009500
871
SALI20 GLRB 101900
METAR GLRB 101900Z 20003KT 9999 SCT016 28/25 Q1009 NOSIG=

0000008500
872
SPCN44 CWAO 101859
SPECI CYUS 101859Z AUTO 27006KT CLR M36/ A2939=

00000000