0000011100
073
UANT99 KDDL 110434
ARP DAL270 4936N03227W 0434 F360 MS52 208/54 KT
N183DN QXT AOW 110434 F94A
0000011000
074
UANT99 KDDL 110434
ARP AFR347 5111N02835W 0434 F380 MS54 208/66 KT
FGLZS QXT AOE 110434 J49A
0000013800
075
FTKB31 NFFN 110400
TAF NGTA 110436Z 1106/1206
06015KT 9999 -SHRA BKN015 OVC100
TEMPO 1106/1112 5000 TSRA BKN015 FEW018CB
0000010400
076
SAIR31 OIII 110430 RRB
METAR OIMM 110425Z 00000KT 9999 FEW035 BKN180 02/M09 Q1022 A3018=
0000042800
077
SIIN44 DEMS 110300 RRD
AAXX 11034
43161 32997 00000 10218 20119 39473 40137
  333 10305 20125 59001=
43169 32997 40000 10188 20168 39698 40156 80004
  333 10310 20176 58000=
43205 32996 10902 10224 20179 39647 40153 80001
  333 20180 58003=
43287 31995 20501 10214 20170 38940 48587 71011 80001
  333 10250 20138 56009 58007=
43291 32995 00501 10214 20170 39340 40193
  333 10304 20189 58002=
0000179300
078
SZPS01 AMMC 110436
CREX++
T000103 A001 D01021 D06025++
-0204190 14737360 56130 2014 01 11 04 29 3028 11 07 00 01
01177 0097 01178 0098 01174 0094 01176 0096 01172 0091 01170 0089+
-0669280 15640860 56363 2014 01 11 04 29 //// 11 07 00 01
00942 -0070 00942 -0067 00941 -0067 00939 -0066 00941 -0062 00940 -0061+
-0942890 15995560 56670 2014 01 11 04 29 3040 11 07 00 01
00920 -0035 00924 -0030 00924 -0029 00922 -0030 00918 -0034 00923 -0028+
-1072080 16580190 57131 2014 01 11 04 29 //// 11 07 00 01
03379 2372 03379 2375 03380 2378 03380 2381 03380 2384 03380 2386+
-1551560 16718860 57210 2014 01 11 04 29 //// 11 07 00 01
01248 -0087 01241 -0092 01242 -0088 01235 -0092 01229 -0096 01217 -0104+
-1775690 16830030 57320 2014 01 11 04 29 3015 11 07 00 01
01262 -0058 01263 -0055 01265 -0051 01269 -0046 01268 -0045 01268 -0043+
-4397330 16861610 65180 2014 01 11 04 29 2888 11 07 00 01
01627 0366 01615 0348 01636 0364 01651 0373 01642 0359 01637 0349+
-2120470 -15978530 65980 2014 01 11 04 29 3013 11 07 00 01
00882 0047 00854 0020 00866 0033 00857 0026 00892 0062 00841 0012+
-2113810 -17518140 66600 2014 01 11 04 29 //// 11 07 00 01
01582 0101 01579 0101 01582 0106 01569 0097 01579 0109 01571 0104+
-1382670 -17176110 66840 2014 01 11 04 29 3012 11 07 00 01
01075 0070 01082 0080 01064 0064 01066 0070 01068 0074 01041 0050+
-1813250 17842750 67050 2014 01 11 04 29 3033 11 07 00 01
01783 0094 01782 0095 01783 0099 01768 0087 01772 0094 01769 0095+
-1760530 17743810 67070 2014 01 11 04 29 3033 11 07 00 01
01836 -0012 01831 -0015 01826 -0016 01822 -0017 01820 -0015 ///// ////+
-0850250 17919500 67440 2014 01 11 04 29 3030 11 07 00 01
02345 -0003 02344 0000 02341 0000 02344 0008 02340 0007 02332 0004++
7777

0000191300
079
SZAU01 AMMC 110436
CREX++
T000103 A001 D01021 D06025++
-1927750 14705860 59260 2014 01 11 04 29 3030 11 07 00 01
01472 0197 01476 0196 01481 0198 01489 0202 01490 0199 01491 0196+
-2316110 15079000 59670 2014 01 11 04 29 2998 11 07 00 01
01982 0143 01998 0153 01995 0143 02011 0151 02020 0153 02028 0152+
-3447330 15091170 60420 2014 01 11 04 29 2955 11 07 00 01
00808 -0044 00813 -0042 00819 -0039 00820 -0040 00822 -0041 00829 -0036+
-4105000 14591500 60910 2014 01 11 04 29 2890 11 07 00 01
00588 -0046 00591 -0047 00590 -0053 00595 -0051 00596 -0055 00594 -0062+
-4254640 14793080 61170 2014 01 11 04 29 2895 11 07 00 01
01099 0075 01103 0077 01100 0072 01101 0072 01104 0073 01103 0070+
-3834390 14161360 61410 2014 01 11 04 29 2905 11 07 00 01
00341 0050 00358 0066 00324 0031 00356 0062 00311 0016 00363 0067+
-3214890 13364170 62000 2014 01 11 04 29 2960 11 07 00 01
00746 0058 00749 0059 00751 0059 00755 0061 00759 0063 00762 0064+
-3387080 12189720 62080 2014 01 11 04 29 2943 11 07 00 01
00765 0100 00784 0118 00788 0122 00774 0108 00792 0125 00784 0117+
-3182560 11573860 62237 2014 01 11 04 29 2970 11 07 00 01
00737 0045 00726 0033 00727 0033 00719 0025 00719 0024 00725 0029+
-2422000 11339750 62385 2014 01 11 04 29 //// 11 07 00 01
00930 -0151 00930 -0152 01003 -0080 00979 -0105 00995 -0091 01005 -0082+
-2181670 11419110 62430 2014 01 11 04 29 //// 11 07 00 01
01554 -0022 01562 -0015 01565 -0013 01560 -0019 01563 -0017 01561 -0021+
-1800080 12221830 62650 2014 01 11 04 29 3043 11 07 00 01
04771 0250 04771 0248 04773 0248 04774 0248 04776 0247 04779 0249+
-1247190 13084580 63230 2014 01 11 04 29 3050 11 07 00 01
05240 0024 05247 0025 05252 0023 05259 0024 05265 0025 05271 0026+
-1386000 13641580 63511 2014 01 11 04 29 3045 11 07 00 01
01350 0037 01353 0038 01354 0038 01357 0040 01358 0039 01360 0039++
7777

0000034100
080
SZIO01 AMMC 110436
CREX++
T000103 A001 D01021 D06025++
-1211670 09689190 46280 2014 01 11 04 29 3005 11 07 00 01
01026 0038 01034 0043 01036 0043 01039 0044 01037 0039 01038 0038+
-1042940 10566940 46290 2014 01 11 04 29 //// 11 07 00 01
01042 0084 00992 0032 01011 0049 01045 0081 00974 0008 01058 0089++
7777

0000046700
081
SZPA01 AMMC 110436
CREX++
T000103 A001 D01021 D06025++
0136250 17293000 67590 2014 01 11 04 29 3017 11 07 00 01
01966 0084 01956 0077 01951 0075 01954 0082 01948 0079 01940 0075+
0710610 17137250 67680 2014 01 11 04 29 3013 11 07 00 01
01219 0051 01220 0055 01214 0052 01217 0058 01213 0057 01207 0054+
0698060 15820000 67950 2014 01 11 04 29 3023 11 07 00 01
00996 0056 00991 0052 00987 0050 00987 0051 00987 0053 00983 0051++
7777

0000011100
082
UANT99 KDDL 110434
ARP UAL903 5803N04744W 0434 F350 MS58 270/34 KT
N116UA QXS UAK 110434 F27A
0000027500
083
SAIN31 VOMM 110940
METAR VOHS 110940Z VRB04KT 5000 HZ SCT020 30/11 Q1014 NOSIG=
METAR VOMM 110940Z 09007KT 8000 FEW020 29/19 Q1012 NOSIG=
METAR VOTR 110940Z 07007KT 7000 FEW016 30/19 Q1012 NOSIG=
METAR VOTV 110940Z 17004KT 6000 FEW020 30/24 Q1009 NOSIG=
0000011100
084
UANT99 KDDL 110434
ARP DAL418 4602N01254W 0434 F330 MS57 261/55 KT
N830MH QXT AOE 110434 F67A
0000011100
085
UANT99 KDDL 110434
ARP DAL410 4854N03601W 0434 F350 MS51 208/25 KT
N195DN QXT AOW 110434 F44A
0000011100
086
UANT99 KDDL 110434
ARP AAL106 5035N03234W 0434 F350 MS55 201/48 KT
N717AN DDL XXW 110434 F38A
0000011100
087
UANT99 KDDL 110434
ARP AWE797 5925N02304W 0434 F340 MS53 235/43 KT
N282AY DDL XXW 110434 J29A
0000011100
088
UANT99 KDDL 110434
ARP UAL161 5056N04010W 0434 F370 MS56 283/21 KT
N34137 DDL IG1 110435 F49A
0000011100
089
UANT99 KDDL 110434
ARP DAL401 4953N02123W 0434 F360 MS65 217/57 KT
N845MH QXT AOE 110435 F38A
0000040000
090
SABY31 UMMN 110430
METAR UMBB 110430Z NIL=
METAR UMGG 110430Z 28012G17MPS 9999 -SHRA BKN029CB OVC100 04/01 Q0998
R28/290250 NOSIG=
METAR UMII 110430Z NIL=
METAR UMMG 110430Z NIL=
METAR UMMM 110430Z 29008G13MPS 9999 SCT020 BKN100 02/M01 Q1000
NOSIG RMK QFE731 =
METAR UMMS 110430Z 29008G12MPS 250V320 9999 BKN019 02/M00
Q0999 R31/290060 NOSIG=
METAR UMOO 110430Z NIL=
0000013400
091
SAAJ31 UBBB 110430
METAR UBBN 110430Z 26004KT 2000 -SN BR OVC004 M10/M11 Q1025
R14R/CLRD60 NOSIG RMK MT OBSC QFE693=
0000010300
092
SAAJ31 UBBB 110430
METAR UBBB 110430Z 17016KT 8000 BKN008 04/03 Q1016 88CLRD70
NOSIG=
00000000