0000112400
493
FTUS53 KWBC 101721 RRA
TAF
KPAH 101720Z 1018/1118 16009KT P6SM VCSH SCT015 OVC025
      TEMPO 1018/1020 5SM -SHRA BR BKN015
     FM102000 17011KT P6SM VCSH SCT008 OVC015
     FM102300 17013KT 4SM SHRA BR OVC006
     FM110800 26010KT P6SM BKN015=
KRSL 101720Z 1018/1118 29013KT 5SM BR SCT002 OVC008
     FM101900 30017G25KT P6SM BKN025
     FM110000 29008KT P6SM SCT025 BKN100
     FM110400 27008KT P6SM SCT030
     FM111500 27015G22KT P6SM SKC=
KSBN 101720Z 1018/1118 17010KT 4SM BR BKN004 OVC015
      TEMPO 1018/1020 2SM BR
     FM102200 16014KT 2SM -RA BR OVC005
     FM111000 22012KT 4SM -SHRA OVC008
     FM111500 25015G23KT 3SM BR VCSH BKN008 OVC015=
KSLN 101720Z 1018/1118 26008KT 5SM BR SCT005 OVC010
     FM102000 29014G22KT P6SM BKN025
     FM110000 29010KT P6SM SCT020 OVC050
      TEMPO 1100/1104 6SM -SN BKN020
     FM110400 28008KT P6SM SCT030
     FM111500 28014G21KT P6SM SKC=
KUIN 101720Z 1018/1118 15010KT 3SM -RA BR OVC004
     FM110000 19011KT 4SM BR OVC007
     FM110600 26012KT 5SM BR OVC008
     FM111500 26012KT P6SM SCT015 BKN250=

0000026800
494
FTUS53 KWBC 101721 AAA
TAF AMD
KGJT 101719Z 1017/1112 32005KT P6SM SCT060 BKN070
     FM110200 06005KT P6SM BKN080
     FM111000 12005KT P6SM VCFG BKN080=
KMTJ 101719Z 1017/1112 32005KT P6SM BKN070
     FM110300 15005KT P6SM SCT060 BKN090=

0000059400
495
FTUS54 KWBC 101721
TAF
KBYI 101720Z 1018/1118 25020G30KT P6SM OVC090
     FM110200 24015KT P6SM VCSH OVC040
     FM111700 20015G25KT P6SM VCSH OVC040=
KIDA 101720Z 1018/1118 22015G25KT P6SM OVC013
     FM110200 21012G20KT P6SM VCSH OVC008
     FM110600 21014KT 6SM -SN OVC008
     FM111700 21020G30KT P6SM VCSH OVC015=
KPIH 101720Z 1018/1118 24020G30KT P6SM OVC080
     FM110300 22015G25KT P6SM VCSH SCT010 OVC020
     FM111700 18028G38KT P6SM VCSH OVC050=
KSUN 101720Z 1018/1118 VRB06KT P6SM BKN040 BKN150
     FM110900 VRB06KT 4SM -SN SCT010 OVC020=

0000128400
496
FTUS80 KWBC 101721 RRA
TAF
KCNU 101720Z 1018/1118 20015KT 1/2SM FG OVC004
      TEMPO 1018/1020 2SM BR OVC008
     FM102000 23013G22KT 5SM BR BKN015
     FM110000 27009KT P6SM SCT020 OVC100
     FM111000 28011KT P6SM SKC=
KCOU 101720Z 1018/1118 15013KT 3SM -RA BR VCTS OVC003CB
     FM110100 19011KT 4SM BR OVC007
     FM110600 25011KT 5SM BR OVC010
     FM111500 26014KT P6SM SCT015 BKN250=
KCPS 101720Z 1018/1118 16014KT 3SM -RA BR OVC009
     FM110300 20012KT 4SM BR OVC007
     FM110700 25011KT 5SM BR OVC012
     FM111500 27013KT P6SM SCT015 BKN250=
KCSM 101720Z 1018/1118 30016G24KT P6SM SKC
     FM110000 28008KT P6SM SCT120=
KDAL 101720Z 1018/1118 21010KT P6SM -RA BKN025 BKN070
     FM102000 22015G25KT P6SM BKN100
     FM102300 25014KT P6SM SCT250
     FM110200 32008KT P6SM SKC=
KDET 101720Z 1018/1118 18007KT 5SM BR OVC008
     FM102000 15010KT 2SM -SHRA BR OVC004
     FM110000 16014KT 2SM -RA BR OVC004 WS020/19043KT
      TEMPO 1106/1110 2SM RA BR OVC004
     FM111200 18010KT 2SM SHRA BR OVC004
     FM111700 24012G20KT 6SM BR OVC010=
KDFW 101720Z 1018/1124 21010KT P6SM -RA FEW010 BKN070
     FM102000 22015G25KT P6SM BKN100
     FM102300 25014KT P6SM SCT250
     FM110200 32008KT P6SM SKC=

0000148400
497
FTUS80 KWBC 101721
TAF
KABI 101720Z 1018/1118 22018G25KT P6SM BKN150
     FM101900 25018G25KT P6SM SKC
     FM110000 28007KT P6SM SKC=
KACT 101720Z 1018/1118 21013KT P6SM -RA BKN015 OVC060
      TEMPO 1018/1020 BKN060
     FM102000 22013KT P6SM BKN090
     FM110400 VRB05KT P6SM SCT250
     FM111400 31006KT P6SM SKC=
KART 101720Z 1018/1118 20011KT P6SM OVC015
     FM110400 15010KT P6SM OVC025
     FM110900 15012KT P6SM OVC015 WS020/19040KT
     FM111100 16015KT 3SM -RA BR OVC015 WS020/19045KT
     FM111500 17018G25KT 1SM -RA BR OVC003 WS020/20045KT=
KBBD 101720Z 1018/1118 20012KT P6SM BKN150
     FM102000 24012G18KT P6SM SKC
     FM110000 29002KT P6SM SKC=
KBUF 101720Z 1018/1118 21009KT P6SM OVC015
     FM102200 18008KT P6SM OVC025
     FM110800 17014G23KT 3SM -RA BR OVC020 WS020/20045KT
     FM111300 19015KT 5SM -RA BR OVC015=
KBYI 101720Z 1018/1118 25020G30KT P6SM OVC090
     FM110200 24015KT P6SM VCSH OVC040
     FM111700 20015G25KT P6SM VCSH OVC040=
KCGI 101720Z 1018/1118 16008KT 6SM -SHRA BR SCT009 OVC015
      TEMPO 1018/1022 3SM SHRA BR OVC009
     FM102200 17011KT 4SM SHRA BR OVC006
     FM110600 26010KT P6SM SCT015=
KCHA 101720Z 1018/1118 00000KT 3SM BR OVC010
      TEMPO 1018/1022 2SM BR BKN006
     FM110200 17006KT 3SM BR OVC010
     FM110500 18008KT 3SM BR VCSH SCT008 OVC010
     FM111000 20010KT 3SM RA BR SCT005 OVC010
     FM111500 23010KT 3SM RA BR SCT005 OVC010=

0000144800
498
FTUS80 KWBC 101721 RRB
TAF
KDTW 101720Z 1018/1124 18007KT 4SM BR OVC008
     FM102000 15010KT 2SM -SHRA BR OVC004
     FM110000 16014KT 2SM -RA BR OVC004 WS020/19043KT
      TEMPO 1105/1109 2SM RA BR OVC004
     FM111200 18010KT 2SM SHRA BR OVC004
     FM111700 24012G20KT 6SM BR OVC010=
KEVV 101720Z 1018/1118 15007KT P6SM VCSH OVC040
      TEMPO 1019/1022 6SM -SHRA BR BKN015
     FM110000 16011KT 5SM SHRA BR SCT008 OVC012
     FM110900 24010KT P6SM BKN015=
KFNT 101720Z 1018/1118 18007KT 5SM BR OVC008
     FM102000 16010KT 2SM -SHRA BR OVC004
     FM110000 16014KT 2SM -RA BR OVC004 WS020/19044KT
      TEMPO 1106/1110 2SM RA BR OVC004
     FM111200 20010KT 2SM SHRA BR OVC004
     FM111700 24012G20KT 5SM BR OVC010=
KFTW 101720Z 1018/1118 21010KT P6SM -RA FEW010 BKN070
     FM102000 22015G25KT P6SM BKN100
     FM102300 25014KT P6SM SCT250
     FM110200 32008KT P6SM SKC=
KFWA 101720Z 1018/1118 16009KT 2SM -DZ BR BKN004 OVC015
     FM101900 16010KT 4SM BR SCT007 OVC020
      TEMPO 1019/1023 OVC007
     FM102300 16012KT 2SM -RA BR OVC005
     FM111300 24014G22KT 3SM BR VCSH BKN008 OVC015=
KGAG 101720Z 1018/1118 34021G33KT P6SM SKC
     FM110000 28009KT P6SM SCT120=
KGNV 101720Z 1018/1118 14008KT P6SM VCSH BKN015 BKN025
     FM110200 14002KT 4SM BR BKN006 OVC012
     FM110600 15002KT 1SM BR BKN003 OVC006
     FM111400 19012G18KT P6SM VCSH BKN010 OVC020=

0000138000
499
FTUS80 KWBC 101721 RRC
TAF
KGRI 101720Z 1018/1118 25009KT 6SM BR OVC005
     FM102100 30011KT P6SM SCT009 OVC060
     FM110300 28011KT P6SM SCT060
     FM111600 29015G24KT P6SM SCT070=
KHBR 101720Z 1018/1118 24011KT P6SM SKC
     FM101900 31017G25KT P6SM SCT120
     FM110000 29008KT P6SM SCT120=
KHUT 101720Z 1018/1118 28011KT 5SM BR SCT005 OVC010
     FM101900 29013KT P6SM BKN020
     FM110000 28008KT P6SM SCT120 BKN250
     FM111700 29013G20KT P6SM SKC=
KIAG 101720Z 1018/1118 20009KT P6SM OVC012
     FM110800 16012G20KT 5SM -RA BR OVC007 WS020/20040KT
     FM111300 19014KT 3SM -RA BR OVC007=
KICT 101720Z 1018/1118 26014KT P6SM OVC012
      TEMPO 1018/1020 SCT015 BKN020
     FM102000 28014G22KT P6SM SCT020 BKN250
     FM110000 28011KT P6SM BKN120
     FM111600 28013G20KT P6SM SKC=
KIDA 101720Z 1018/1118 22015G25KT P6SM OVC013
     FM110200 21012G20KT P6SM VCSH OVC008
     FM110600 21014KT 6SM -SN OVC008
     FM111700 21020G30KT P6SM VCSH OVC015=
KJAX 101720Z 1018/1118 14010KT P6SM VCSH BKN015 BKN025
     FM110200 14005KT 5SM BR BKN008 OVC015
     FM110600 15005KT 2SM BR BKN005 OVC010
     FM111400 19012G18KT P6SM VCSH BKN015 OVC025=
KJCT 101720Z 1018/1118 23012G18KT P6SM BKN025
     FM101900 22011G17KT P6SM BKN050
     FM102000 24012G18KT P6SM SKC
     FM110000 VRB03KT P6SM SKC=

0000133400
500
FTUS80 KWBC 101721 RRD
TAF
KJHW 101720Z 1018/1118 19010KT P6SM OVC015
     FM110700 16015KT 4SM -RA BR OVC007 WS020/20045KT
     FM111300 18015KT 2SM -RA BR OVC007 WS020/20055KT AMD LTD TO
      CLD VIS AND WIND=
KMBS 101720Z 1018/1118 18007KT 5SM BR OVC008
     FM102000 17010KT 2SM -SHRA BR OVC004
     FM110000 16014KT 2SM -RA BR OVC004 WS020/20040KT
      TEMPO 1103/1107 2SM RA BR OVC004
     FM111200 20010KT 2SM SHRA BR OVC004
     FM111700 25012G20KT 5SM BR OVC010=
KOKC 101720Z 1018/1118 21016G21KT P6SM SCT010 OVC130
     FM102000 30018G26KT P6SM SCT120
     FM110000 28010KT P6SM SCT120=
KPAH 101720Z 1018/1118 16009KT P6SM VCSH SCT015 OVC025
      TEMPO 1018/1020 5SM -SHRA BR BKN015
     FM102000 17011KT P6SM VCSH SCT008 OVC015
     FM102300 17013KT 4SM SHRA BR OVC006
     FM110800 26010KT P6SM BKN015=
KPIH 101720Z 1018/1118 24020G30KT P6SM OVC080
     FM110300 22015G25KT P6SM VCSH SCT010 OVC020
     FM111700 18028G38KT P6SM VCSH OVC050=
KPNC 101720Z 1018/1118 22013G18KT P6SM OVC010
     FM101900 29014G21KT P6SM SCT120
     FM110000 27008KT P6SM SCT120=
KROC 101720Z 1018/1118 20008KT P6SM OVC025
     FM110600 16010KT P6SM OVC015 WS020/19040KT
     FM110900 16012KT 3SM -RA OVC007 WS020/20045KT
     FM111400 19014G21KT 2SM -RA BR OVC003=

0000149900
501
FTUS80 KWBC 101721 RRE
TAF
KRSL 101720Z 1018/1118 29013KT 5SM BR SCT002 OVC008
     FM101900 30017G25KT P6SM BKN025
     FM110000 29008KT P6SM SCT025 BKN100
     FM110400 27008KT P6SM SCT030
     FM111500 27015G22KT P6SM SKC=
KSBN 101720Z 1018/1118 17010KT 4SM BR BKN004 OVC015
      TEMPO 1018/1020 2SM BR
     FM102200 16014KT 2SM -RA BR OVC005
     FM111000 22012KT 4SM -SHRA OVC008
     FM111500 25015G23KT 3SM BR VCSH BKN008 OVC015=
KSJT 101720Z 1018/1118 22012G18KT P6SM SCT120
     FM101900 24018G25KT P6SM SKC
     FM102300 26008KT P6SM SKC=
KSLN 101720Z 1018/1118 26008KT 5SM BR SCT005 OVC010
     FM102000 29014G22KT P6SM BKN025
     FM110000 29010KT P6SM SCT020 OVC050
      TEMPO 1100/1104 6SM -SN BKN020
     FM110400 28008KT P6SM SCT030
     FM111500 28014G21KT P6SM SKC=
KSOA 101720Z 1018/1118 21012G18KT 5SM BR BKN003
     FM101900 22012G18KT P6SM BKN150
     FM102000 24012G18KT P6SM SKC
     FM110000 VRB03KT P6SM SKC=
KSPS 101720Z 1018/1118 21011KT P6SM FEW010 BKN120
     FM102100 31014G21KT P6SM SCT120
     FM110100 28007KT P6SM SCT120=
KSSI 101720Z 1018/1118 13010KT P6SM VCSH BKN008 OVC015
     FM110200 14005KT 5SM BR BKN005 OVC010
     FM110600 15005KT 2SM BR BKN003 OVC006
     FM111400 19010G15KT P6SM VCSH BKN010 OVC020=
KSTL 101720Z 1018/1124 16015KT 3SM -RA BR OVC009
     FM110300 20013KT 4SM BR OVC007
     FM110700 25012KT 5SM BR OVC012
     FM111500 27013KT P6SM SCT015 BKN250=

0000149400
502
FTUS80 KWBC 101721 RRF
TAF
KSUN 101720Z 1018/1118 VRB06KT P6SM BKN040 BKN150
     FM110900 VRB06KT 4SM -SN SCT010 OVC020=
KSUS 101720Z 1018/1118 16014KT 3SM -RA BR OVC009
     FM110300 20012KT 4SM BR OVC007
     FM110700 25011KT 5SM BR OVC012
     FM111500 27013KT P6SM SCT015 BKN250=
KTRI 101720Z 1018/1118 07003KT P6SM OVC050
      TEMPO 1018/1022 BKN030
     FM110000 00000KT P6SM OVC030
     FM110900 14003KT 5SM BR VCSH OVC030
     FM111500 21010KT 3SM RA BR OVC015=
KTYS 101720Z 1018/1118 05004KT P6SM SCT007 OVC030
     FM110800 21012KT 5SM BR VCSH OVC025
     FM111300 23015KT 3SM RA BR OVC015=
KUIN 101720Z 1018/1118 15010KT 3SM -RA BR OVC004
     FM110000 19011KT 4SM BR OVC007
     FM110600 26012KT 5SM BR OVC008
     FM111500 26012KT P6SM SCT015 BKN250=
PGSN 101720Z 1018/1118 03009KT P6SM SCT020 SCT120
     FM110000 06014KT P6SM VCSH SCT020
     FM110800 06009KT P6SM VCSH FEW020=
PGUM 101720Z 1018/1124 06008KT P6SM FEW020
     FM110000 06014KT P6SM SCT020
     FM110800 06008KT P6SM FEW020=
PKMJ 101720Z 1018/1118 06014KT P6SM VCSH FEW015 SCT050=
PKWA 101720Z 1018/1118 07015G22KT P6SM VCSH SCT025=
PTKK 101720Z 1018/1118 05011KT P6SM VCSH SCT014 SCT120=
PTPN 101720Z 1018/1118 NIL=
PTRO 101720Z 1018/1118 08015G22KT P6SM SHRA SCT015CB OVC120
      TEMPO 1018/1021 07015G28KT 3SM +SHRA FEW008 BKN014CB OVC080
     FM110000 08013G24KT P6SM VCSH SCT016CB BKN050 BKN120=
PTSA 101720Z 1018/1118 NIL=

0000026800
503
FTUS80 KWBC 101721 AAA
TAF AMD
KGJT 101719Z 1017/1112 32005KT P6SM SCT060 BKN070
     FM110200 06005KT P6SM BKN080
     FM111000 12005KT P6SM VCFG BKN080=
KMTJ 101719Z 1017/1112 32005KT P6SM BKN070
     FM110300 15005KT P6SM SCT060 BKN090=

0000014900
504
FTUS80 KWBC 101721 RRG
TAF
PTYA 101720Z 1018/1118 06011KT P6SM VCSH SCT018 BKN120
     FM110000 07012G22KT P6SM SCT020 BKN120=

0000011800
505
SPUS41 KWBC 101721
SPECI
KDOV 101718Z AUTO 10005KT 3SM -RA BR SCT004 BKN038 BKN050 02/02
A3037=

0000012800
506
SALT31 EYVI 101720
METAR EYVI 101720Z 26018KT 7000 -SHRA BKN010CB OVC020 03/01 Q0991
     R20/2/0295 NOSIG=

0000016400
507
SAAK31 KWBC 101700 RRA
METAR
PAVD 101716Z 10SM FEW005 BKN050 OVC070 M04/M05 A2937=
PAWG 101716Z 25003KT 8SM SCT008 BKN020 OVC040 03/00 A2965=

0000010900
508
SAAK32 KWBC 101700 RRA
METAR
PADK 101716Z AUTO 23015G25KT 5SM BKN014 OVC020 04/02 A2895=

0000011000
509
UANT99 KDDL 110506
ARP DAL50 5158N02030W 0506 F370 MS62 230/80 KT
N815NW DDL XXW 110506 J94A
0000011000
510
UANT99 KDDL 110506
ARP BAW214 4820N04358W 0506 F330 MS59 330/71 KT
GCIVN QXT AOW 110506 F04A
0000011100
511
UANT99 KDDL 110506
ARP BAW176A 5059N02005W 0506 F400 MS54 244/59 KT
GZZZC QXT AOW 110506 F26A
0000050300
512
SAGR32 LGAT 101720
METAR LGAL 101720Z 29006KT 9000 FEW008 BKN018 09/07 Q1018=
METAR LGEL 101720Z NIL=
METAR LGIO 101720Z 13001KT 9999 FEW030 OVC170 08/06 Q1021=
METAR LGKV 101720Z 03005KT 9999 BKN020 BKN180 09/08 Q1018=
METAR LGMT 101720Z /////KT 9999 FEW025 11/08 Q1019=
METAR LGPZ 101720Z 00000KT 9999 SCT030 SCT080 11/09 Q1022 NOSIG=
METAR LGRX 101720Z 00000KT 9999 SCT035 11/08 Q1021 NOSIG=
METAR LGSK 101720Z NIL=
METAR LGSR 101720Z NIL=
METAR LGZA 101720Z NIL=

00000000