0000034100
213
SZIO01 AMMC 110442
CREX++
T000103 A001 D01021 D06025++
-1211670 09689190 46280 2014 01 11 04 35 3005 11 07 00 01
01036 0034 01039 0034 01048 0041 01051 0042 01051 0039 01059 0045+
-1042940 10566940 46290 2014 01 11 04 35 //// 11 07 00 01
00992 0021 01042 0069 01038 0063 00994 0017 01083 0104 00990 0008++
7777

0000191300
214
SZAU01 AMMC 110442
CREX++
T000103 A001 D01021 D06025++
-1927750 14705860 59260 2014 01 11 04 35 3030 11 07 00 01
01493 0193 01504 0201 01509 0201 01511 0199 01520 0204 01534 0214+
-2316110 15079000 59670 2014 01 11 04 35 3000 11 07 00 01
02041 0159 02048 0159 02060 0162 02066 0162 02070 0159 02079 0159+
-3447330 15091170 60420 2014 01 11 04 35 2955 11 07 00 01
00829 -0039 00832 -0039 00840 -0033 00844 -0032 00850 -0028 00858 -0023+
-4105000 14591500 60910 2014 01 11 04 35 2890 11 07 00 01
00599 -0061 00601 -0064 00609 -0061 00608 -0066 00618 -0062 00637 -0047+
-4254640 14793080 61170 2014 01 11 04 35 2895 11 07 00 01
01104 0069 01106 0069 01100 0061 01102 0061 01099 0056 01097 0052+
-3834390 14161360 61410 2014 01 11 04 35 2905 11 07 00 01
00319 0022 00357 0059 00326 0028 00342 0043 00341 0041 00343 0042+
-3214890 13364170 62000 2014 01 11 04 35 2960 11 07 00 01
00766 0066 00767 0065 00770 0066 00773 0067 00777 0069 00781 0071+
-3387080 12189720 62080 2014 01 11 04 35 2945 11 07 00 01
00801 0134 00803 0135 00818 0150 00815 0147 00806 0138 00784 0115+
-3182560 11573860 62237 2014 01 11 04 35 2970 11 07 00 01
00726 0029 00731 0034 00743 0045 00745 0046 00752 0052 00752 0052+
-2422000 11339750 62385 2014 01 11 04 35 //// 11 07 00 01
00990 -0098 00963 -0127 00981 -0110 01024 -0068 01077 -0017 00993 -0102+
-2181670 11419110 62430 2014 01 11 04 35 //// 11 07 00 01
01557 -0026 01572 -0012 01570 -0015 01573 -0013 01559 -0029 01565 -0023+
-1800080 12221830 62650 2014 01 11 04 35 3043 11 07 00 01
04782 0250 04784 0249 04787 0250 04790 0250 04792 0249 04795 0250+
-1247190 13084580 63230 2014 01 11 04 35 3050 11 07 00 01
05277 0026 05283 0027 05288 0026 05294 0027 05299 0026 05304 0025+
-1386000 13641580 63511 2014 01 11 04 35 3045 11 07 00 01
01363 0041 01365 0042 01367 0042 01368 0042 01368 0040 01367 0038++
7777

0000008800
215
FCIN90 VANP 110900
TAF VANP 110900Z 1112 1121 32005KT 2000 HZ FEW025=

0000012600
216
SAIN90 VEGY 110930
METAR VEGY 110930Z 08003KT 1300 -TSRA FEW010 BKN018 FEWCB030 BKN080 16/15 Q1015
NOSIG=

0000010000
217
SAAJ31 UBBB 110930
METAR UBBB 110930Z 19022G32KT CAVOK 07/02 Q1011 88CLRD70
NOSIG=
0000084900
218
SAUR30 UKMS 110930
METAR UKBB 110930Z 27006G11MPS 9000 -RA BKN022 05/02
         Q1008 88290060    TEMPO 27011G16MPS=
METAR UKHH 110930Z 28009MPS 9999 SCT016CB BKN026
         05/01 Q1003  25190057 TEMPO 28012G21MPS=
METAR UKOO 110930Z 25007MPS CAVOK 07/M01 Q1019
         34190058 NOSIG=
METAR UKDE 110930Z 28010MPS 9999 FEW020 SCT100 06/01
         Q1011 02290356 NOSIG=
METAR UKDD 110930Z 29012MPS 260V340 CAVOK 06/02 Q1009
          26210370 TEMPO 29010G17MPS=
METAR UKFF 110930Z 27010MPS 250V310 CAVOK 08/00 Q1019
          WS RWY19 19010070 NOSIG=
METAR UKLL 110930Z 26007MPS CAVOK 06/M03 Q1017
         31CLRD80  NOSIG=
METAR UKCC 110930Z 27010MPS 9999 BKN013 04/03 Q1008
         26090070 TEMPO 28012G17MPS=
METAR UKDR 110930Z 27011MPS CAVOK 06/M00 Q1012
         1819//60 TEMPO 27010G15MPS=
0000010700
219
SAAJ31 UBBB 110930
METAR UBBG 110930Z 30010KT 9999 FEW100 09/M05 Q1014
R30/CLRD70 NOSIG =
0000023000
220
SAGG31 UGTB 110930
METAR UGTB 110930Z 31020KT CAVOK 09/M07 Q1016 R31L/CLRD80 NOSIG=
METAR UGSB 110930Z 20010KT CAVOK 14/03 Q1023 R13/CLRD70 NOSIG=
METAR UGKO 110930Z 29007KT CAVOK 11/M00 Q1020 R07/09//70 NOSIG=
0000010200
221
SPUR30 UKMS 110931
SPECI UKLL 110931Z 26007G12MPS CAVOK 06/M03 Q1017 31CLRD80
NOSIG=
0000013600
222
SIVD17 CWHX 110900
BBXX
44141 11091 99430 70580 46/// /2908 10043 40301 57001
22200 00122 10803 70016 333 91210 =

0000021800
223
SOAT10 KWAL 110943
14022214 011094311    +6.448   +6.452   +6.442   +6.452   +6.448   +6.459   +6.480   +6.486   +6.468   +6.481       +13      +7.6     +25.5       +71   +1016.1  +655.350  50-0NN  79E
0000036100
224
SXXX32 EUMS 110936
12FFB3C8
:PRS 1 /1 M 3497 3500 3509 3514 3512 3519 3516 3520 3538 3529 3541 3558 3552 3557 3563 3559 3555 3567 3570 3572 3564 3567 3572 3555 3574 3559 3542 3546 3539 :RAD 1 /3 6455 6466 6481 6497 6505 6508 6507 6501 6492 6491 :ENC 1 /5 -144 -144 -144 -144 -144 -144 :SW1 36 /60 0 :SW2 6 /60 0 :BAT 14 /15 13.6 :NAME 12FFB3C8
0000070100
225
SXXX32 EUMS 110936 RRA
22E7E6D2
OT12 ID:ID-ROTE-11 DT:2014 01 11 09 34
:PRS /1 -10803 -10720 -10802 -10806 -10773 -10774 -10773 -10775 -10805 -10808 -10806 -10804 -10804 -10804 -10806 -10803 -10710 -10799 -10805 -10774 -10775 -10773 -10775 -10803 -10800 -10809 -10807 -10803 -10801 -10806
:PR2 /1 04488 04449 04492 04496 04487 04504 04468 04518 04472 04514 04512 04495 04541 04511 04500 04504 04555 04522 04526 04533 04568 04548 04531 04545 04586 04528 04541 04566 04559 04567
:RAD /1 06033 06085 06037 06045 06049 06049 06089 06053 06089 06053 06073 06073 06065 06101 06073 06073 06081 06097 06101 06089 06077 06113 06113 06089 06125 06113 06137 06121 06121 06129
:BAT 12.5V
0000066700
226
SXXX32 EUMS 110937
32CC9580
OT12 ID:ID-ENGG-07 DT:2014 01 11 09 36
:PRS /1 01920 01904 01931 01922 01862 01896 01894 01927 01897 01895 01892 01915 01898 01914 01866 01876 01904 01913 01864 01882 01882 01904 01860 01880 01889 01911 01945 01878 01901 01862
:PR2 /1 05366 05320 05342 05319 05342 05350 05295 05320 05323 05347 05333 05377 05326 05342 05334 05300 05341 05344 05338 05322 05301 05342 05285 05311 05300 05301 05302 05323 05316 05291
:RAD /1 06227 06232 06236 06208 06208 06241 06188 06211 06214 06214 06225 06226 06193 06214 06198 06190 06213 06214 06226 06200 06200 06207 06191 06182 06202 06178 06228 06178 06206 06171
:BAT 13.5V
0000044600
227
SXXX32 EUMS 110939
224AD678
:PRS 2 /1 2277 2275 2272 2272 2269 2267 2268 2265 2264 2260 2256 2250 2246 2243 2238 2235 2233 2227 2222 2219 2215 2212 2209 2208 2205 2203 2201 2196 2191 2186 :RAD 4 /3 5090 5082 5072 5060 5053 5041 5029 5017 5005 4993 4988 4980 4974 4961 4952 4949 4945 4943 4936 4930 :ENC 4 /5 8608 8597 8582 8563 8547 8531 8515 8503 8488 8479 8467 8454 :SW1 39 /60 60 :SW2 9 /60 22 :BAT 14 /15 13.4 :NAME 224AD678
0000011000
228
UANT99 KDDL 110941
ARP XLF057 4757N02038W 0941 F410 MS54 240/67 KT
FGRSQ DDL XXN 110941 J17A
0000011100
229
UANT99 KDDL 110941
ARP UAL123 5402N01915W 0941 F340 MS62 233/82 KT
N58101 DDL IG1 110941 F33A
0000021800
230
SOBR10 KWAL 110943
14004206 011094331       N/M      N/M      N/M      N/M      N/M      N/M      N/M      N/M      N/M      N/M        +5     +16.0  +25836.0    +99665     +26.0       N/M  45+0NN  79E
0000010000
231
SAIN90 VABB 110440
METAR VABB 110440Z 32005KT 2800 FU NSC 22/02 Q1017 BECMG 3000 FU=
0000075100
232
USAA01 NZCM 110000
TTAA 61001 89664
99997 00056 18501 00512 ///// ///// 92601 07158 18518
85255 11341 17017 70716 21114 15006 50514 33959 24513
40666 44759 24520 30855 51765 24023 25975 45585 24514
20124 43786 24513 15318 43586 26009 10592 41586 23504
88320 52361 23026
77999
31313 48008 82219=

0000069700
87361=
0000011200
87368=
0000015000
87382
0000012800
87386
0000045600
87406
0000047700
87410=
0000049900
87467
0000047900
87475
0000047900
87491
0000056200
87512=
0000054300
87729
0000054300
87840
0000060600
88007
0000013400
88174
0000064700
88423
0000056500
88646
0000058600
89068
0000066900
89659
0000064900
90357
0000058700
91447
00000000