0000010200
753
SACN46 CWAO 110200
METAR CYBN 110200Z AUTO 16009KT 1/4SM VV001 01/01 A2995 RMK SLP153=
0000008900
754
SACN51 CWAO 110200
METAR CWIL 110200Z AUTO 22014KT M31/ A2945 RMK SLP986=
0000071300
755
SIIN90 VOMM 110900
AAXX 11094
43295 32997 40903 10282 20128 39102 48524 80001
  333 59009 84075=
43225 32997 03202 10310 20205 30117 40122
  333 58010=
43226 32997 03204 10306 20189 30088 40117
  333 58006=
43121 32597 32005 10302 20196 39600 40101 83500
  333 59001=
43198 32496 31404 10300 20090 30281 40083 82501
  333 56509 58002 82615=
43284 32496 22710 10312 20211 39986 40099 82500
  333 58002 82620=
43201 32497 42303 10306 20136 39378 40077 84800
  333 58001 82615 83820=
43121 32597 32005 10302 20196 39600 40101 83500
  333 59001=
43257 32997 00902 10294 20200 39380 40092
  333 58011=
43233 32497 31104 10302 20126 39298 40083 83400
  333 58003=
0000014300
756
SMTU60 LTAA 110000 CCB
AAXX 11004
17080 11657 83301 11033 21041 39352 40273 55000 60001 71022 8552/
 333 85635 88460 91104=
0000011500
757
SACN31 CWAO 110200
METAR CYZV 110200Z 31004KT 15SM FEW070 SCT130 M12/M16 A3007 RMK
AC1AC2 SLP189=
0000011000
758
SACN43 CWAO 110200
METAR CYQF 110200Z 24005KT 15SM VCSH BKN093 M03/M05 A2961 RMK AC6
SLP083=
0000010800
759
SACN31 CWAO 110200
METAR CYJT 110200Z 26017G28KT 15SM BKN023 M04/M07 A3018 RMK SC6
SLP222=
0000010300
760
SACN46 CWAO 110200
METAR CYYU 110200Z 15010KT 15SM OVC012 M02/M03 A2974 RMK SC8 SLP085=
0000010900
761
SACN44 CWAO 110200
METAR CYUB 110200Z 28011KT 7SM DRSN FEW070 M28/M34 A2967 RMK AS1
SLP050=
0000010800
762
SACN49 CWAO 110200
METAR CYGW 110200Z 12002KT 6SM -SN OVC013 M11/M12 A2976 RMK SC8
SLP079=
0000009300
763
SACN51 CWAO 110200
METAR CWOB 110200Z AUTO 07005KT CLR M21/ A2923 RMK SLP956=
0000011600
764
SACN51 CWAO 110200
METAR CWUW 110200Z AUTO 15007KT 9SM BKN007 BKN022 BKN089 M29/ A2908
RMK SLP927=
0000009200
765
SACN51 CWAO 110200
METAR CWLI 110200Z AUTO 23011G17KT M34/ A2957 RMK SLP037=
0000009600
766
SACN44 CWAO 110200
METAR CYZU 110200Z 27002KT 15SM SKC M04/M08 A2956 RMK SLP052=
0000014700
767
SACN45 CWAO 110200
METAR CYCB 110200Z 21007KT 3SM -SN SCT015 OVC065 M28/M32 A2940 RMK
SC2SC5 VIS VRB 2-4  MOON DMLY VISBL SLP961=
0000008900
768
SACN51 CWAO 110200
METAR CWPX 110200Z AUTO 18004KT M29/ A2929 RMK SLP953=
0000012000
769
SACN46 CWAO 110200
METAR CYGQ 110200Z 21010KT 10SM -SN OVC006 M03/M04 A2958 RMK SF8 BR
CIG RAG SLP037=
0000007300
770
SACN52 CWAO 110200
METAR CWRH 110200Z AUTO 27022KT A2927=
0000009700
771
SACN52 CWAO 110200
METAR CWFD 110200Z AUTO 19017KT 9SM CLR M23/ A2891 RMK SLP880=
0000008900
772
SACN52 CWAO 110200
METAR CWYM 110200Z AUTO 26017KT M20/ A2909 RMK SLP924=
00000000