0000012700
573
SADL34 EDZO 102250 RRA
METAR EDNY 102250Z AUTO 10002KT 0300 0200/ R24/0900U FG SCT004 SCT048
01/M00 Q1019=

0000082900
574
FASW41 LSSW 102243
LSAS GAMET VALID 110000/110600 LSZH-
WESTERN SWITZERLAND
SECN I
TURB: LCA MOD 4000FT AMSL/FL080
SECN II
W/T:  5000FT 220/20KT PS05   10000FT  250/30KT MS04
FZLVL: FL080
MNM QNH: 1018 HPA
EASTERN SWITZERLAND
SECN I
TURB: LCA MOD FL050/FL080
SECN II
W/T: 5000FT 250/20KT PS04   10000FT  270/30KT MS05
FZLVL: FL075
MNM QNH: 1018 HPA
WESTERN ALPINE SWITZERLAND
SECN I
TURB: MOD FL070/FL140
SECN II
W/T: 8000FT 260/15KT MS00   13000FT  250/25KT MS12
FZLVL: FL080
EASTERN ALPINE SWITZERLAND
SECN I
TURB: LOC MOD FL070/FL140
SECN II
W/T: 8000FT 270/20KT MS01   13000FT 260/30KT MS12
FZLVL: FL075
SOUTHERN SWITZERLAND
SECN I
HAZARDOUS WX NIL
SECN II
W/T: 5000FT VRB/05KT PS02   10000FT 270/15KT MS04
FZLVL: FL070
MNM QNH: 1021 HPA  =

0000016300
575
SAMX31 KWBC 102245 RRE
METAR
MMMZ 102242Z 23009KT 15SM BKN220 25/12 A2987 RMK 8/004=
MMPR 102246Z 20005KT 15SM FEW120 26/17 A2990 RMK 8/080=

0000021900
576
FTUK31 EGGY 101700 AAA
TAF AMD EGCC 102257Z 1023/1124 26010KT 4000 DZ BKN008 BECMG
    1023/1102 9999 NSW SCT025 TEMPO 1102/1105 8000 SHRA BKN014 BECMG
    1115/1118 14005KT PROB40 1118/1124 6000=

0000012800
577
SAUK36 EGGY 102250 RRA
METAR EGVN 102250Z 19007KT 9999 -RA BKN035 OVC050 08/06 Q1012 TEMPO
    7000 SCT011=

0000012200
578
SAMJ41 LWSK 102300 CCA
METAR COR LWSK 102300Z 00000KT 0500 R34/0500V0600 FG OVC002 02/01
Q1024 NOSIG=

0000009900
579
SAPR01 SPIM 102300
METAR SPIM 102300Z 16012KT CAVOK 23/19 Q1010 NOSIG RMK PP000=

0000009200
580
SAMT20 GQPP 102300
METAR GQPP 102300Z 20003KT 8000 NSC 17/15 Q1016 NOSIG=

0000017600
581
FTID31 WABB 102300
TAF WABB 102300Z 1100/1206 23010KT 8000 SCT018
TEMPO 1104/1108 7000 -SHRA FEW017CB
BECMG 1111/1113 33006KT
TEMPO 1115/1119 FEW017CB=

0000052300
582
FTBA31 MYNN 102200
TAF
MYNN 102200Z 1100/1200 14008KT 9999 SCT015 SCT080 PROB30 TEMPO
          14008G18KT 1106/1115 FEW015CB BKN030 BKN080 BECMG
1114/1116
14014KT=
MYGF 102200Z 1100/1200 13015KT 9999 SCT015 BKN120 PROB30 TEMPO
1100/1106
          13015G25KT 4800 FEW015CB BKN030 OVC080 BECMG 1106/1108
15016KT
           BECMG 1116/1118 18016KT=
MBGT 102200Z 1100/1200 10018KT 9999 SCT015 BECMG 1112/1114 12015KT=
MBPV 102200Z 1100/1200 10018KT 9999 SCT015 BECMG 1112/1114 12015KT=

0000011900
583
SABZ24 SBCT 102300
METAR SBCT 102300Z 08005G16KT 8000 -TSRA SCT010
FEW025CB BKN050 22/19
 Q1017=

0000010200
584
SABR31 TBPB 102300
METAR TBPB 102300Z 05019KT 9999 SCT018 SCT036 25/20 Q1014 NOSIG=

0000008900
585
SABZ21 SBAR 102300
METAR SBAR 102300Z 11012KT 9999 SCT015 27/22 Q1013=

0000058800
586
SANO38 ENMI 102250
METAR ENDR 102250Z AUTO 07026KT M04/M08 Q1002=
METAR ENEK 102250Z 25023KT 9999 FEW010 BKN020 08/07 Q1004 W08/S4=
METAR ENGC 102250Z NIL=
METAR ENHE 102250Z 09021KT 2500 -SHSN BKN011 M03/M05 Q1003 W///S6=
METAR ENOA 102250Z 09010KT 7000 RA OVC007 04/03 Q0998 W///S4=
METAR ENSL 102250Z AUTO 28022KT 9999NDV SCT016/// BKN110/// 08/05
           Q1001 W06/S4=
METAR ENFB 102250Z AUTO 08019KT 9999NDV OVC027/// 04/M01 Q0998
           W///S5=
METAR ENSF 102250Z AUTO 09020KT 9999NDV BKN027/// BKN057/// 05/M01
           Q0998 W///S5=

0000074800
587
SANO32 ENMI 102250
METAR ENAL 102250Z 04009KT 9999 SCT021 BKN030 M02/M06 Q1000=
METAR ENCN 102250Z AUTO 21003KT 140V240 7000NDV FEW011/// SCT017///
           BKN028/// 04/04 Q1001=
METAR ENHD 102250Z AUTO 25014KT 9999NDV -SHRA FEW014/// SCT025///
           BKN043/// 06/05 Q0999=
METAR ENRO 102250Z AUTO 08009KT 5000NDV -SN SCT006/// OVC009///
           M14/M17 Q0997=
METAR ENRY 102250Z AUTO 20004KT 150V250 9999NDV OVC150/// 02/M00
           Q0997=
METAR ENSB 102250Z 22012KT 9999 FEW017 BKN025 M01/M06 Q1007 RMK WIND
           1400FT 22020KT=
METAR ENTC 102250Z 17003KT 9999 FEW015 M12/M14 Q1017 RMK WIND 2600FT
           11009KT=
METAR ENTO 102250Z AUTO 21005KT 9999NDV OVC150/// 01/M00 Q0997=

0000025200
588
SANO34 ENMI 102250
METAR ENBN 102250Z NIL=
METAR ENBV 102250Z NIL=
METAR ENFG 102250Z NIL=
METAR ENHF 102250Z VRB02KT CAVOK M10/M13 Q1016 RMK WIND 1254FT
           VRB01KT=
METAR ENRA 102250Z NIL=
METAR ENSH 102250Z NIL=

0000010100
589
SABZ21 SBSV 102300
METAR SBSV 102300Z 09009KT 9999 BKN017 FEW020TCU
27/24 Q1013=

0000010100
590
SAFK41 EGYP 102250
METAR EGYP 102250Z 20029KT 9999 FEW018 BKN031 05/M03 Q0998 BLU=

0000073000
591
SANO39 ENMI 102250
METAR ENNE 102250Z NIL=
METAR ENQR 102250Z AUTO VRB08KT 9999NDV FEW027/// BKN045/// 04/M03
           Q0998 W///S/=
METAR ENSE 102250Z AUTO 08016KT 9999NDV FEW028/// SCT043/// BKN051///
           03/M03 Q0998 W///S5=
METAR ENQC 102250Z AUTO 06011KT 9999NDV BKN035/// BKN046/// BKN075///
           05/M01 Q0997 W///S4=
METAR ENQA 102250Z AUTO 08012KT 9999NDV FEW024/// BKN035/// OVC040///
           04/00 Q0998 W04/S4=
METAR ENHM 102250Z AUTO 26024KT 9999NDV NCD 07/03 Q0998 W08/S4=
METAR ENVH 102250Z AUTO 24021KT 8000NDV -SHRA SCT010/// OVC023///
           07/06 Q1004 W///S4=
METAR ENLA 102250Z AUTO 27022KT 9999NDV -DZ BKN010/// 07/07 Q1002
           W///S4=

0000084700
592
SAIY31 LIIB 102250
METAR LIEA 102250Z VRB01KT 9000 0200NW R20/1000VP1500U BCFG NSC
06/06 Q1019=
METAR LIEE 102250Z 32003KT 9999 MIFG NSC 09/09 Q1020=
METAR LIEO 102250Z 00000KT 4000 R05/0900VP1500D BR NSC 04/03 Q1021=
METAR LIMC 102250Z VRB02KT 9999 BKN040 08/06 Q1022 NOSIG=
METAR LIME 102250Z 00000KT 3000 BR BKN010 08/07 Q1022=
METAR LIMF 102250Z 30004KT 9999 BKN030 08/05 Q1021=
METAR LIMJ 102250Z VRB01KT 9999 -DZ SCT018 BKN035 13/11 Q1021=
METAR LIML 102250Z 08002KT 5000 BR SCT004 BKN035 08/07 Q1022 NOSIG=
METAR LIRA 102245Z 01001KT 8000 SCT025 SCT070 09/08 Q1022=
METAR LIRF 102250Z 06003KT 6000 BKN030 09/09 Q1022 NOSIG=
METAR LIRN 102250Z 33004KT 5000 BR BKN030 09/07 Q1022=
METAR LIRP 102245Z 06002KT 9999 SCT050 10/08 Q1021 NOSIG=
METAR LIRQ 102250Z VRB01KT 9999 FEW020 BKN040 12/11 Q1022=

00000000