0000009700
913
SASA42 KWBC 101700 RRA
METAR
SCTC 101700Z 18007KT 120V250 CAVOK 20/07 Q1019=

0000023400
914
FTUS31 KWBC 101709 AAA
TAF AMD
KRDU 101706Z 1017/1112 01003KT 3SM -RA BR FEW026 BKN035 OVC060
     FM102100 11004KT 4SM -RADZ BR OVC003
      TEMPO 1101/1105 2SM -RADZ BR
     FM110800 16007KT 5SM BR OVC005=

0000075700
915
FTUS71 KWBC 101709 AAA
TAF AMD
KFAY 101706Z 1017/1112 02003KT 4SM -RA BR FEW050 OVC100
     FM101900 VRB04KT 5SM -RADZ BR BKN012 OVC040
     FM102300 11003KT 3SM -RADZ BR OVC003
     FM110600 16008KT 5SM BR OVC003=
KMDT 101706Z 1017/1112 VRB02KT 2SM BR OVC009
      TEMPO 1017/1019 4SM -FZDZ BKN015 OVC035
     FM102100 VRB03KT 4SM BR SCT012 OVC029
     FM110300 00000KT 2SM -RA BR OVC025 WS020/19045KT=
KRDU 101706Z 1017/1112 01003KT 3SM -RA BR FEW026 BKN035 OVC060
     FM102100 11004KT 4SM -RADZ BR OVC003
      TEMPO 1101/1105 2SM -RADZ BR
     FM110800 16007KT 5SM BR OVC005=
KRWI 101707Z 1017/1112 01003KT 5SM -RA BR OVC060
     FM102200 11003KT 4SM -RADZ BR OVC003
     FM110600 16008KT 5SM BR OVC003=

0000024600
916
FTUS41 KWBC 101709 AAA
TAF AMD
KMDT 101706Z 1017/1112 VRB02KT 2SM BR OVC009
      TEMPO 1017/1019 4SM -FZDZ BKN015 OVC035
     FM102100 VRB03KT 4SM BR SCT012 OVC029
     FM110300 00000KT 2SM -RA BR OVC025 WS020/19045KT=

0000011900
917
SACN62 CYYG 101700
METAR CYYG 101700Z 22013KT 15SM FEW120 SCT250 M05/M13 A3036 RMK
 AC1CI2 SLP286=

0000009400
918
SAIQ01 ORBI 110500
METAR ORBI 110500Z 13005KT 2100BR OVC030 09/08 Q1016 NOSIG=
0000027700
919
SAAF11 LFPW 101700 RRA
METAR FCPP 101700Z 18010KT 9999 SCT020 BKN026 28/24 Q1009 NOSIG=
METAR FKKD 101700Z 24004KT 8000 FEW023CB BKN300 29/25 Q1008 NOSIG=
METAR FKKN 101700Z 02008KT CAVOK 23/04 Q1016=
METAR FKKR 101700Z 00000KT CAVOK 28/03 Q1011 NOSIG=

0000010400
920
SAAF14 LFPW 101700 RRB
METAR FEFF 101700Z 11001KT 2000 FU NSC 27/18 Q1009 BECMG 1500=

0000015700
921
SAAG05 SABM 101700 RRB
METAR SABE 101700Z  05008KT 9999  FEW030  28/20
Q1007=
METAR SASJ 101700Z  05007KT 9999  FEW025  33/20
Q1008=

0000017100
922
SAZA31 FAPR 101700 RRA
METAR FAKN 101700Z 15004KT 9999 FEW020 BKN080 22/19 Q1014 NOSIG=
METAR FALW 101700Z AUTO 20017G27KT //// // ////// 20/10 Q1016=

0000055600
923
FTME31 OEJD 101600 RRB
TAF OJAI 101652Z 1018/1124 24008KT 5000 BR SCT030 SCT080
       TEMPO 1023/1106 29004KT 2500 BR SCT025
       PROB40 TEMPO 1100/1106 30003KT 0800 FG SCT015
       BECMG 1106/1108 27012KT 5000 HZ SCT030=
TAF OJAM 101652Z 1018/1124 25008KT 4000 BR SCT030 SCT080
       TEMPO 1100/1106 30004KT 2500 BR SCT025
       PROB30 TEMPO 1101/1106 29003KT 1000 FG SCT015
       BECMG 1106/1108 26010KT 5000 HZ SCT030=
TAF OJAQ 101652Z 1018/1124 36008KT 7000 SCT030
       TEMPO 1106/1116 02014KT 6000 SCT035=

0000067700
924
FTKZ31 RUMS 101700
TAF UAAA 101700Z 1018/1118 16005MPS 0600 FZFG FU BKN100 TXM01/1108Z
TNM18/1101Z TEMPO 1018/1106 0200 FZFG VV001 BECMG 1107/1108
02005MPS 2000 BR FU TEMPO 1111/1118 0300 FZFG=
TAF UACC 101700Z 1018/1118 19007MPS 6000 -SN DRSN BKN010 BKN100
TXM08/1109Z TNM14/1019Z TEMPO 1018/1022 18008G13MPS 2000 SN BLSN
SCT006 TEMPO 1102/1112 17007G12MPS 2000 SN BLSN SCT006=
TAF UAKK 101700Z 1018/1118 18010G15MPS 5000 -SN BLSN BKN020 BKN100
TXM08/1109Z TNM14/1023Z=
TAF UATT 101700Z 1018/1118 20007MPS 3000 SHSN BR BKN010CB TM02/1110Z
TNM02/1118Z TEMPO 1018/1104 0500 FZDZ FZFG VV002 FM110400 24010MPS
3000 SHSN BLSN BKN004 BKN010CB=

0000024800
925
SAAP32 FAPR 101700 RRA
METAR FBSK 101700Z 24007KT CAVOK 34/02 Q1011 NOSIG=
METAR FVHA 101700Z 09004KT 040V120 9999 FEW025CB BKN090 19/18 Q1018
             NOSIG RMK QFE 851.3=
METAR FYWH 101700Z 28008KT CAVOK 28/M01 Q1017=

0000008900
926
SANO37 ENMI 101650 RRB
METAR ENSN 101650Z 01002KT CAVOK M01/M01 Q0998=

0000053300
927
FTCA33 KWBC 101715
TAF
TAF TFFF 101700Z 1018/1118 07018KT 9999 SCT035
      TEMPO 1100/1112 05016G 28KT 3000 SHRA SCT020TCU=
TAF TFFF 101700Z 1018/1118 07018KT 9999 SCT035
      TEMPO 1100/1112 05016G28KT 3000 SHRA SCT020TCU=
TAF TFFR 101700Z 1018/1118 08012KT 9999 FEW025 SCT050 PROB30
      TEMPO 10 18/1118 3000 SHRA FEW015TCU
      BECMG 1023/1102 VRB02KT=
TAF TFFR 101700Z 1018/1118 08012KT 9999 FEW025 SCT050 PROB30
      TEMPO 1018/1118 3000 SHRA FEW015TCU
      BECMG 1023/1102 VRB02KT=

0000036600
928
FTNT31 KWBC 101715
TAF
TAF LPLA 101711Z 1018/1118 09012KT 6000 RADZ SCT007 BKN014
      BECMG 1018/1021 16015KT
      TEMPO 1018/1024 2000 RADZ SCT004 BKN007 BKN012
      BECMG 1021/1024 22015G25KT 9999 NSW FEW007 SCT012 BKN020
      BECMG 1103/1105 30020G30KT SCT020 SCT030
      TEMPO 1104/1118 30025G40KT 4000 SHRA BKN014 SCT018TCU=

0000009900
929
SPCN47 CWAO 101713
SPECI CYFT 101713Z 24016KT 13SM -SN BKN025 BKN075 RMK SC5AS2=

0000010500
930
SANM40 FYWW 101700 CCA
METAR COR FYGB 101700Z AUTO 33001KT //// // ////// 31/04 Q1017=

0000024300
931
FTCN35 CWAO 101700
TAF CYBN 101715Z 1018/1022 16008KT P6SM SCT015 OVC030 TEMPO 1018/1022
     2SM -SN SCT007 OVC015 PROB30 1018/1022 2SM -FZDZ BR OVC007
    RMK FCST BASED ON AUTO OBS. NXT FCST WILL BE ISSUED AT 131115Z=

0000025900
932
FTCN34 CWAO 101700 AAA
TAF AMD CYQW 101714Z 1017/1024 VRB03KT 6SM BR FEW140 TEMPO 1017/1019
     4SM BR BKN150
    FM101900 24007KT P6SM FEW120 SCT250
     BECMG 1022/1024 29015KT
    RMK FCST BASED ON AUTO OBS. NXT FCST BY 101800Z=

00000000