0000064800
473
SNBX43 EBUM 110500
AAXX 11051
06418 46/// /2107 10043 20026 30135 40147 58007 333   91110 91207=
06434 46/// /2203 10038 20024 30142 40163 56007 333   91107 91205=
06439 46/// /2202 10038 20015 30148 40162 56008 333   91105 91203=
06447 46/// /2103 10041 20026 30030 40157 56010 333   91106 91204=
06455 46/// /2301 10043 20031 39865 40153 56012 333   91103 91202=
06464 46/// /2303 10040 20040 30123 40151 58008 333   91108 91205=
06472 46/// ///// 10043 20042 39805 40169 56010=
06477 46/// /0801 11011 21011 30109 40160 58010 333   91101 91201=
06484 46/// /3302 10006 20006 39783 40187 55002 333   91103 91202=
0000011100
474
UANT01 CWAO 110508
ARP UAL903 5802N03848W 0508 F350 MS59 218/31 KT
N116UA DDL XXW 110508 F33A
0000354300
475
SNVD01 KWBC 110500 RRC
BBXX
46041 11051 99473 71247 46/// ///16 1//// 40011 56053 90450 22200
 00081 11508 20806 3//// 41506 70042 333 91220 555 11174 22186=
46232 11051 99325 71174 46/// ///// 1//// 90503 22200 00161 11303
 21002 328// 41302 70015=
41043 11051 99211 70650 46/// ///11 1//// 40203 58007 90450 22200
 00264 10905 20804 309// 40903 70027 333 91214 555 11122 22130
 8//12 90443=
41036 11051 99342 70769 46/// /1911 10207 20192 40193 58027 90450
 22200 00209 10705 20705 311// 41901 70025 333 91213 555 11121
 22129 30434 41915 60449 186113 192118 176105 170105 165104
 161095=
46126 11051 99540 71666 46/// /1903 10037 49827 90445 22200 00045
 1//00 70001 333 91204 555 11033 22035=
46126 11051 99540 71666 46/// /1903 10042 49829 90442 22200 00045
 1//00 70001 333 91204 555 11033 22035=
46126 11051 99540 71666 46/// /1903 10042 49829 90440 22200 00045
 1//00 70001 333 91204 555 11035 22038=
46126 11051 99540 71666 46/// /1903 10042 49829 90436 22200 00045
 1//00 70001 333 91204 555 11035 22038=
44013 11051 99423 70707 46/// /1504 10039 20039 40254 58023 90450
 22200 00046 10901 70003 333 91204 555 11037 22038 30447 41504
 60449 154035 159033 147029 143023 146021 135019=
46088 11051 99483 71232 46/// /1506 10075 20059 40016 56053 90450
 22200 00074 10403 20403 326// 40901 70013 333 91208 555 11067
 22072 30412 41314 60449 151064 148074 133107 132116 132114
 131110=
46069 11051 99337 71202 46/// /3210 10145 40180 52014 90450 22200
 00142 11405 20603 3//// 41404 70026 333 91212 555 11108 22116
 30403 43213 60449 320100 322102 324098 324099 323103 323102=
51101 11051 99243 71621 46/// /0614 10224 20191 40157 51010 90450
 22200 00237 11110 20707 304// 41107 70048 333 91216 555 11144
 22154 30424 40519 60449 056136 054138 053144 053139 056135
 048133=
41009 11051 99285 70802 46/// /1507 10244 20211 40198 58011 90450
 22200 00241 10904 20502 308// 40903 70018 333 91209 555 11077
 22083 30448 41509 60449 151071 152068 149065 151064 152064
 155067=
42039 11051 99288 70860 46/// /1507 10215 20215 40169 58007 90450
 22200 00212 10501 20501 70007 333 91208 555 11071 22076 30434
 41508 60449 154066 153065 151062 149060 148062 149064 81507
 90435=
44066 11051 99396 70726 46/// /1606 10122 20115 40243 58020 90450
 22200 00111 10501 20501 316// 41001 70007 333 91207 555 11066
 22073 60449 157060 159062 163061 162061 161062 162064=
41048 11051 99320 70695 46/// /1208 10201 20155 40281 58009 90450
 22200 00213 10803 20603 310// 40802 70016 333 91210 555 11089
 22094 30400 41310 60449 124085 123084 120084 121084 119086 117088
 81210 90400=
42055 11051 99222 70940 46/// /1507 10234 40140 51009 90450 22200
 00228 10802 20501 307// 40801 70010 333 91208 555 11076 22082
 30431 41509 60449 147070 147070 149066 154061 148056 144059 81408
 90448=
41047 11051 99275 70715 46/// /1208 10242 20229 40240 57006 90450
 22200 00255 10805 20704 307// 40803 70023 333 91210 555 11089
 22094 30417 41310 60449 120083 118082 122083 119084 115084 116084
 81109 90403=
42003 11051 99260 70856 46/// /1506 10257 40168 58004 90450 22200
 00249 10602 20502 312// 40601 70010 333 91208 555 11067 22074
 30428 41508 60449 152062 149062 151067 153066 151066 142063 81507
 90421=
41040 11051 99145 70530 46/// /0710 10252 20199 40150 58009 90450
 22200 00262 11306 20804 301// 41304 70028 333 91212 555 11102
 22108 30415 40712 60449 068097 066095 063100 064103 068095 066098
 80711 90412=
0000011100
476
UANT01 CWAO 110508
ARP UAL907 5137N03722W 0508 F360 MS56 249/23 KT
N776UA DDL XXW 110508 F17A
0000011100
477
UANT01 CWAO 110508
ARP FIN1990 4929N05107W 0507 F380 MS66 289/47 KT
OHLQE QXT AOW 110508 J66A
0000011000
478
UANT01 CWAO 110508
ARP EIN124 4850N05147W 0508 F370 MS65 302/48 KT
EIEDY DDL YYT 110508 J93A
0000056700
479
UKLJ10 LJLM 110300
TTBB 11048 14015
00985 07012 11971 06820 22956 08631 33796 02705
44792 02509 55782 00857 66774 01658 77694 06548 88647 08759 99641
06765 11566 12973 22503 20176 33465 25362 44429 26990 55345 40157
66314 44963 77254 55138 88223 60560 99187 66561 11180 65562 22177
60762 33150 62179 44138 57380 55124 60779 66113 58180 21212 00985
36001 11852 24011 22701 29009 33639 32021 44546 30515 55452 28025
66318 28017 77257 27033 88187 26525 99165 28034 11131 28516 22105
28527 31313 45708 80333 41414 885// 51515 11875 29507 =
0000012300
480
ULLJ10 LJLM 110300
TTCC 11045 14015
70833 57780 31524 50046 56181 30019 88999 77999
31313 45708 80333 =
0000017900
481
UELJ10 LJLM 110300
TTDD 1104/ 14015
11867 59380 22537 55381 33477 57780 21212 11848
30515 22720 31025 33569 34020 44519 31513 55477 30523 31313 45708
80333 =
0000118200
482
SNOS42 LOWM 110500
AAXX 11051
11008 36/// /0000 11032 21034 39482 40226 57005 333 55300=
11015 36/// ///// 11052 21056 39551 40236 55003 333 55300=
11020 36/// /3601 11039 21043 39598 40228 56005 333 55300=
11021 36/// /0000 11021 21023 39534 40219 55003 333 55300=
11032 36/// /2801 11019 21027 39956 40217 55003 333 55300=
11078 36/// /2104 10000 21017 39375 40219 55005 333 55300=
11129 36/// /2104 11003 21008 38647 48506 58002 333 55300=
11135 NIL=
11138 36/// /0105 10005 21067 37677 47054 52003 333 55300=
11141 36/// /1801 10012 20009 39558 40227 58002 333 55300=
11144 36/// /1901 10018 20012 3//// 4//// 5//// 333 55300=
11154 36/// /0101 10003 21010 39687 40211 56006 333 55300=
11170 36/// /0000 11025 21029 39478 40232 57007 333 55300=
11174 NIL=
11182 NIL=
11192 36/// /3301 10035 20030 39886 40215 50004 333 55300=
11194 36/// /1701 10019 20001 30022 40208 56004 333 55300=
11213 36/// /1101 10006 20003 39630 40239 53001 333 55300=
11225 36/// /2701 11025 21028 39376 40248 50001 333 55300=
11241 36/// /2503 10016 21018 38554 48490 57003 333 55300=
11261 36/// /0000 11002 21018 39265 40243 52001 333 55300=
0000025100
483
UAPA01 KWBC 110509
ARP WJA1877 3948N 13807W 0459 F370 MS50 242/115KT TB CONT LGT CHOP=
ARP ASA886 2700N 13812W 0457 F360 MS46 290/030KT=
ARP ASA859 39N 137W 0458 F350 MS56 240/115KT=
ARP WJA1882 44N 140W 0504 F360 MS47 271/071KT=
0000011100
484
UANT01 CWAO 110509
ARP UAL909 5511N04835W 0508 F350 MS63 293/70 KT
N652UA DDL XXW 110508 F65A
0000011100
485
UANT01 CWAO 110509
ARP UPS208 6110N02112W 0509 F310 MS52 215/34 KT
N331UP QXS REK 110509 F22A
0000011000
486
UANT01 CWAO 110509
ARP UAL48 5324N04552W 0509 F330 MS61 307/85 KT
N77014 DDL XXW 110509 F35A
0000121800
487
SNEO21 EEMH 110500
AAXX 11051
26038 27358 83401 11014 21021 39940 49981 52017 78587 88///
 333  10019 21014 60007 88/10
 555  1/101 21014 3/101 50005 52101=
26045 27466 83408 11013 21028 39960 49962 53016 77176 88///
 333  10025 21014 69917 88/11 91009 91112
 555  21014 50009=
26058 27470 83405 11033 21051 39912 49947 52027 78587 80///
 333  10012 21034 60007 80/11 91008 91111
 555  21034=
26115 27474 73002 10010 20003 39991 49999 52008 78588 87///
 333  10029 20007 60007 87/12 91109
 555  1/001 20007 3/000 50026=
26135 27459 83202 11009 21021 39902 49977 53021 77787 88///
 333  10016 21009 60007 88/12
 555  1/101 21009 3/101 50013 52101=
26141 27381 83305 11025 21028 39817 49967 53023 77787 88///
 333  10003 21026 60007 88/09 91008 91108
 555  1/101 21026 3/101 51006 52103=
26231 27276 83203 10004 20004 39972 49987 53019 77770 88///
 333  10025 20002 69927 88/06 91008 91108
 555  1/001 20002 3/000 50026=
26242 27356 72903 11005 21015 39880 49967 53023 77177 87///
 333  10035 21005 60007 87/10 91109
 555  1/100 21005 3/100 50024 52101=
26247 27/82 /2904 10005 20005 39895 49974 53022 72477
 333  10038 20002 69947 91109
 555  1/000 20002 3/000 50029=
0000051800
488
SNSP20 LEMM 110500
AAXX 11054
08045 46/// /0000 10062 20056 39858 40173 53001
  555 60005=
08181 47/56 /3507 10101 20077 30177 40184 53002 71011
  555 60005=
08221 42962 70204 10060 20045 39489 40182 52004 85042
  555 60005=
08284 46/// /3103 10091 20074 30106 40182 51005
  555 60005=
08306 46/// /0404 10097 20096 30166 40173 52001
  555 60005=
08314 47/// /1004 10123 2//// 3//// 4//// 5//// 740//
  555 69905=
08482 46/// /2907 10109 20101 30159 40168 50000
  555 60005=
0000010200
489
SAIN90 VEGT 111000
METAR VEGT 111000Z 00000KT 3000 HZ SCT020 BKN100 20/15 Q1015 NOSIG=
0000011800
490
SNVF25 LFPW 110500
BBXX
BATUK01 11054 99581 70062 43/// /2515 10037 21005 40055 51022
22200 04094=
0000037100
491
SASG21 GOOY 101900
METAR GOSS 101900Z 36006KT CAVOK 19/14 Q1013=
METAR GOOG 101900Z 06004KT CAVOK 25/10 Q////=
METAR GOSM 101900Z 34006KT CAVOK 25/12 Q1012=
METAR GOTT 101900Z 36006KT CAVOK 30/12 Q1010=
METAR GOOK 101900Z 04006KT CAVOK 27/12 Q1012=
METAR GOGG 101900Z 34004KT CAVOK 26/15 Q1011=
METAR GOGS 101900Z 34012KT CAVOK 23/17 Q1011=

0000010200
492
SPUS31 KWBC 101919
SPECI
KEWR 101915Z 02005KT 1 1/2SM -DZ BR OVC010 01/M01 A3038=

00000000