0000011700
413
SAAJ31 UBBB 110400
METAR UBBQ 110400Z 04004KT 4000 BR NSC M06/M07 Q1017
R16/CLRD70 NOSIG RMK MT OP=
0000042000
414
SXXX32 EUMS 110401 RRE
26CB10AC
:PRS 1 /1 -1340 -1340 -1340 -1340 -1340 -1340 -1340 -1340 -1340 -1340 -1340 -1340 -1340 -1341 -1340 -1340 -1340 -1340 -1340 -1340 -1340 -1340 -1340 -1340 -1340 -1340 -1340 -1340 -1341 -1340 :RAD 3 /3 6228 6231 6233 6236 6238 6239 6242 6245 6250 6258 :RA2 3 /3 6193 6196 6192 6197 6202 6207 6209 6215 6209 6227 :SW1 2 /60 0 :SW2 32 /60 0 :BAT 14 /15 12.8 :NAME 26CB10AC /
0000045100
415
SXXX32 EUMS 110401 RRF
1227146C
:PRS 1 /1 2907 2910 2913 2915 2918 2920 2925 2927 2931 2932 2934 2934 2936 2938 2940 2943 2946 2950 2952 2955 2958 2965 2969 2972 2975 2980 2985 2988 2992 2993 :RAD 3 /3 2900 2913 2893 2914 2911 2941 2950 2964 2959 2964 2987 3009 2995 3020 3026 3052 3038 3078 3074 3036 :ENC 1 /5 3658 3673 3682 3696 3716 3735 3754 3775 3792 3810 3829 3846 :SW1 2 /60 0 :SW2 32 /60 60 :BAT 14 /15 12.9 :NAME 1227146C /
0000051500
416
SXXX32 EUMS 110401 RRG
3246B586
:PRS 1 /1 1798 2757 2852 3034 2757 1629 1775 2462 1968 2849 2895 1781 1906 1888 1817 :RAD 3 /3 7207 7215 7216 7214 7208 7215 7216 7230 7240 7239 :ENC 10 /15 5280 5280 :SW1 2 /60 0 :SW2 32 /60 0 :WTP 1 /15 -0.4 :BAT 13 /15 13.2 :WAV 1 /10 4.9 3.8 3.3 :DAV 1 /10 72 90 95 :WMX 1 /10 10.2 7.0 6.6 :TPA 1 /15 28.3 :TMN 241 /720 25.9 :TMX 241 /720 27.6 :HUM 1 /15 75.3 :PRA 1 /15 1011.6 :RAC 1 /60 0.0 :RDU 1 /60 0 :RIN 1 /60 0.0 :DAC 241 /1440 10.9 :DDR 241 /1440 16460
0000041600
417
SSVX12 KARS 110359
ZZYY 72808 11014 0300/ 565331 172370 6111/
11119 10022 49975 57008
22219 00006
444 20110 11014 0246/ 501// 80140 80000=
ZZYY 73634 11014 0330/ 365975 144679 6112/
11119 11005 49863 57004
22219 01019
444 20120 11014 0155/ 501// 80140 80000=
ZZYY 73634 11014 0230/ 365975 144679 6112/
11119 11005 49864 57004
22219 01019
444 20120 11014 0155/ 501// 80140 80000=
0000011100
418
UANT01 CWAO 110359
ARP DAL116 4835N03724W 0359 F350 MS50 258/21 KT
N175DZ QXT AOW 110359 F37A
0000010900
419
UANT01 CWAO 110400
ARP KLM24 5558N02956W 0400 F330 MS59 227/66 KT
PHBFI QXT AOE 110400 F39A
0000015700
420
SSVX13 LFPW 110400
ZZYY 62508 11014 0400/ 745915 006081 6113/ 11119 40180 52005 22219
 00130 444 20130 11014 0355/ 50101 80104 80031 9/015=
0000015700
421
SSVX13 LFPW 110400
ZZYY 62507 11014 0400/ 747338 011789 6113/ 11119 40182 52012 22219
 00119 444 20130 11014 0355/ 50101 80104 80031 9/015=
0000016300
422
SSVX13 LFPW 110400
ZZYY 13595 11014 0400/ 730268 019490 6113/ 22219 00199 33300 88872
 20000 43682 444 20130 11014 0356/ 50101 80108 80027 9/015=
0000107700
423
SNIY20 LIIB 110400
AAXX 11044
16008 42560 70000 10012 21007 38550 48508 51002 87200 333 87625
      92865=
16088 NIL=
16110 41496 80000 10090 20078 30212 40216 54002 71022 886// 333 88715
      555 0////=
16134 42980 03310 10040 21035 37845 48517 53001 333 92845 95150 444
      38160=
16153 42598 63606 10110 20058 39945 40212 50003 83530 333 83625 83358
      555 0////=
16206 NIL=
16219 NIL=
16280 42597 70302 10120 20104 39990 40213 56002 87500 333 87620 555
      0////=
16310 42998 03604 10106 20087 39990 40214 54000 555 0////=
16360 42997 00206 10108 20094 30080 40216 51001 555 0////=
16400 42498 31308 10128 20096 39926 40217 58006 81130 333 55300 81819
      83359 555 0213/=
16420 42997 02703 10108 20074 30142 40208 50003 555 0////=
16429 42962 61308 10126 20107 30184 40195 56008 83034 333 83360=
16470 NIL=
16480 42997 01105 10142 20133 30149 40210 54000 555 0////=
16522 42998 00000 10112 20093 39951 40197 50001 555 0////=
16550 42898 83008 10118 20077 30035 40216 54000 8807/ 333 86357 555
      0////=
0000011000
424
UANT01 CWAO 110400
ARP AFR333 4748N04104W 0400 F380 MS50 295/35 KT
FGSPU QXT AOW 110400 F13A
0000011100
425
UANT01 CWAO 110400
ARP DAL228 4750N03104W 0400 F330 MS53 201/67 KT
N1201P QXT AOW 110400 F57A
0000010900
426
UANT01 CWAO 110400
ARP SIA25 4643N05144W 0400 F390 MS61 300/56 KT
9VSKR DDL YYT 110400 J28A
0000011000
427
UANT01 CWAO 110400
ARP KLM602 5505N04732W 0400 F350 MS62 297/65 KT
PHBFS QXT AOW 110400 F33A
0000011100
428
UANT01 CWAO 110400
ARP AWE730 5039N03714W 0400 F370 MS55 232/21 KT
N273AY DDL XXN 110400 J80A
0000011100
429
UANT01 CWAO 110400
ARP AAL290 5129N03759W 0400 F380 MS54 244/25 KT
N190AA DDL XXW 110400 F93A
0000011000
430
UANT01 CWAO 110401
ARP NVR712 5317N04202W 0400 F390 MS58 286/38 KT
EILAX DDL XXN 110401 J03A
0000011100
431
UANT01 CWAO 110401
ARP UAL936 4948N03116W 0401 F370 MS53 213/48 KT
N668UA DDL XXW 110401 F29A
0000011000
432
UANT01 CWAO 110401
ARP DAL98 5506N03600W 0401 F360 MS56 223/37 KT
N833MH QXT AOW 110401 F60A
00000000