0000170300
473
SAUS72 KWBC 110300
METAR
KABI 110252Z 07006KT 10SM CLR 12/M06 A2981=
KABQ 110252Z 30010G28KT 10SM CLR 09/M12 A3003=
KABY 110253Z 12003KT 1/2SM FG VV002 16/16 A3008=
KACT 110251Z 21006KT 10SM CLR 14/13 A2978=
KAEX 110253Z 18006KT 6SM -TSRA BR BKN007 OVC011 18/17 A2979=
KAFW 110253Z 33006KT 10SM FEW075 10/02 A2980=
KAHN 110251Z AUTO 08006KT 3/4SM BR OVC003 08/07 A3007=
KALI 110253Z AUTO 31005KT 10SM CLR 16/13 A2987=
KAMA 110253Z 31009KT 10SM FEW110 09/M13 A2984=
KANB 110253Z AUTO 05008KT 10SM BKN014 OVC020 11/09 A3000=
KAPF 110253Z 09003KT 10SM CLR 22/21 A3009=
KATL 110252Z 15003KT 1/4SM -RA BR OVC003 08/08 A3007=
KAUS 110253Z 21008KT 10SM SCT150 SCT200 17/14 A2982=
KBFM 110253Z 19004KT 5SM -RA BR OVC003 17/16 A2998=
KBHM 110253Z 14007G15KT 4SM BR OVC005 12/11 A2999=
KBNA 110253Z 17015KT 10SM BKN130 OVC250 12/09 A2983=
KBPT 110253Z 20011KT 10SM OVC004 19/18 A2984=
KBQK 110255Z AUTO 13003KT 10SM SCT003 SCT010 18/17 A3011=
KBRO 110253Z 18004KT 9SM CLR 18/18 A2991=
KBTR 110253Z 15008KT 5SM -RA BR OVC003 17/16 A2990=
KCEW 110253Z AUTO 00000KT 1SM BR VV002 18/17 A3002=
KCHA 110253Z 18005KT 1SM -DZ BKN004 OVC007 09/08 A3002=
KCLL 110253Z AUTO 23006KT 7SM CLR 17/16 A2982=
KCNM 110253Z AUTO 25019KT 10SM CLR 14/M10 A2988=
KCRP 110251Z 18003KT 10SM BKN250 16/15 A2987=
KCSG 110251Z AUTO 08005KT 1 3/4SM BR OVC002 11/11 A3005=
KCSV 110253Z AUTO 19008KT 10SM OVC004 11/09 A2996=
KDAB 110253Z 00000KT 9SM SCT070 19/18 A3012=
KDAL 110253Z 34009KT 10SM CLR 14/06 A2979=
KDFW 110253Z 34009KT 10SM FEW250 12/04 A2979=
KDHN 110253Z AUTO 13004KT 1/4SM FG VV002 14/14 A3007=
KDLF 110258Z AUTO 18008KT 10SM CLR 15/10 A2987=

0000010600
474
SACN62 CYLL 110300
METAR CYLL 110300Z 28012KT 15SM FEW070 M07/M09 A2954 RMK AC1 SLP045=

0000170900
475
SAUS72 KWBC 110300 RRA
METAR
KDMN 110253Z AUTO 28010KT 10SM CLR 08/M08 A3007=
KELP 110251Z VRB03KT 10SM CLR 14/M09 A3002=
KESF 110253Z AUTO 18011G16KT 7SM -RA OVC008 19/17 A2981=
KEYW 110253Z AUTO 11011KT 10SM FEW016 24/22 A3008=
KFLL 110253Z 11008KT 10SM SCT016 BKN021 BKN190 24/23 A3011=
KFSM 110253Z 28010KT 10SM CLR 09/06 A2974=
KFTW 110253Z 33007KT 10SM BKN070 12/03 A2980=
KFTY 110253Z 00000KT 1SM -RA BR OVC003 09/08 A3006=
KGGG 110253Z 22009KT 10SM FEW013 BKN023 OVC028 18/16 A2976=
KGLS 110252Z AUTO 19010KT 3/4SM BR VV002 16/16 A2986=
KGNV 110253Z 00000KT 5SM BR SCT018 OVC024 21/20 A3011=
KGPT 110253Z 14006KT 1/2SM FG VV002 14/14 A2995=
KGUP 110253Z AUTO 23007KT 10SM CLR 02/M09 A3013=
KGWO 110253Z AUTO 17021G28KT 10SM BKN019 OVC028 17/14 A2979=
KHOT 110253Z AUTO 00000KT 5SM -RA BR FEW009 SCT055 OVC075 14/14
     A2969=
KHOU 110253Z 22007KT 10SM OVC012 21/18 A2985=
KHRL 110252Z 18007KT 10SM CLR 19/17 A2989=
KHRO 110253Z AUTO 27010G18KT 10SM FEW065 BKN110 10/08 A2966=
KHSV 110253Z COR 15008KT 2 1/2SM -RA BR OVC008 11/10 A2994=
KHSV 110253Z 15008KT 2 1/2SM -RA BR OVC008 11/10 A2994=
KIAH 110253Z 23007KT 10SM BKN018 OVC037 21/19 A2985=
KINK 110253Z AUTO 25014G21KT 10SM CLR 14/M09 A2986=
KJAN 110254Z 15010KT 8SM OVC007 16/14 A2987=
KJAX 110256Z 16003KT 7SM SCT003 SCT065 17/17 A3011=
KJBR 110253Z AUTO 00000KT 2 1/2SM -RA BR SCT003 BKN006 OVC075
     07/06 A2971=
KLBB 110253Z 32013KT 10SM CLR 09/M09 A2983=
KLCH 110253Z 19013G26KT 7SM -RA OVC004 19/18 A2984=
KLFT 110253Z AUTO 18009G18KT 6SM RA BR OVC008 19/18 A2987=
KLIT 110253Z 17007KT 10SM OVC006 13/12 A2969=
KLRD 110256Z 00000KT 10SM CLR 17/13 A2992=

0000168500
476
SAUS72 KWBC 110300 RRB
METAR
KLRU 110255Z AUTO 27016G24KT 10SM CLR 10/M09 A3004=
KMAF 110253Z 26013KT 10SM CLR 13/M08 A2985=
KMCN 110253Z AUTO 00000KT 1/4SM FG VV002 11/11 A3009=
KMCO 110253Z 11004KT 10SM BKN150 21/19 A3012=
KMEI 110258Z 18008KT 7SM OVC004 14/14 A2992=
KMEM 110254Z 33013G19KT 1SM R36L/4500VP6000FT +TSRA BR FEW006
     OVC019CB 12/11 A2975=
KMFE 110253Z 17003KT 10SM CLR 19/18 A2991=
KMGM 110253Z 09004KT 3/4SM BR VV002 12/11 A3001=
KMIA 110253Z 10006KT 10SM FEW017 BKN200 24/22 A3011=
KMKL 110253Z AUTO 18012G21KT 10SM SCT016 OVC033 13/10 A2975=
KMLB 110253Z 00000KT 8SM CLR 22/21 A3013=
KMLC 110253Z AUTO 00000KT 10SM FEW075 SCT110 05/02 A2976=
KMLU 110253Z 19009KT 10SM SCT014 BKN019 OVC024 18/16 A2979=
KMOB 110256Z 13005KT 3/4SM +RA BR VV004 15/15 A2997=
KMSL 110253Z AUTO 16009KT 10SM BKN009 OVC050 13/10 A2990=
KMSY 110253Z 16008KT 1/8SM -RA BR OVC002 18/17 A2993=
KNEW 110253Z AUTO 14009KT 1 1/4SM -RA BR OVC003 14/14 A2994=
KNGP 110256Z AUTO 20003KT 8SM CLR 17/16 A2987=
KOKC 110252Z VRB05KT 10SM CLR 03/M04 A2975=
KPBI 110253Z 13005KT 10SM SCT200 24/21 A3011=
KPDK 110253Z 00000KT 3/4SM BR VV002 08/07 A3006=
KPFN NIL=
KPIE 110253Z 00000KT 10SM CLR 19/18 A3010=
KPNS 110253Z AUTO 14007KT 1/4SM R17/1600FT FG VV002 18/17
     A2999=
KROW 110251Z 25013KT 10SM CLR 11/M10 A2988=
KRSW 110253Z 09006KT 10SM SCT023 21/20 A3009=
KSAT 110251Z 23008KT 10SM FEW170 SCT250 18/14 A2986=
KSFB 110253Z 00000KT 10SM CLR 20/19 A3012=
KSHV 110256Z 22006KT 10SM BKN012 OVC019 17/16 A2977=
KSJT 110251Z AUTO 23008KT 10SM CLR 11/M04 A2982=
KSRQ 110253Z 00000KT 10SM BKN032 OVC055 21/19 A3009=

0000108500
477
SAUS72 KWBC 110300 RRC
METAR
KSSI 110253Z AUTO 15007KT 2SM BR OVC004 17/17 A3010=
KTCC 110253Z AUTO 35009KT 10SM CLR 02/M12 A2987=
KTCL 110253Z AUTO 13007KT 2SM -RA BR OVC005 13/12 A2996=
KTCS 110253Z AUTO 29015KT 10SM CLR 12/M11 A3001=
KTLH 110253Z 14005KT 1SM BR VV002 18/17 A3007=
KTPA 110253Z 00000KT 10SM FEW200 21/19 A3011=
KTRI 110253Z 02003KT 10SM BKN100 07/06 A3000=
KTUL 110253Z 22005KT 10SM CLR 07/00 A2970=
KTUP 110253Z 20011KT 10SM OVC007 13/ A2985=
KTXK 110253Z 22007KT 9SM BKN012 OVC018 16/15 A2973=
KTYR 110253Z 22009KT 10SM BKN010 OVC014 17/16 A2978=
KTYS 110253Z 27005KT 8SM -RA BKN010 BKN029 OVC035 08/07 A3000=
KVCT 110251Z 20005KT 3SM BR CLR 19/17 A2987=
KVLD 110253Z 17003KT 6SM BR OVC011 19/18 A3009=
KVRB 110253Z 00000KT 10SM CLR 21/21 A3013=
TIST 110253Z 08008KT 10SM CLR 25/19 A3010=
TISX 110253Z AUTO 06006KT 10SM CLR 24/19 A3010=
TJBQ 110250Z 10007KT 10SM SCT030 24/ A3013=
TJMZ NIL=
TJPS 110250Z 08005KT 10SM SKC 24/18 A3010=
TJSJ 110256Z 09007KT 10SM SCT043 25/19 A3012=
TKPK NIL=
TNCM NIL=

0000170400
478
SAUS73 KWBC 110300
METAR
KABR 110253Z AUTO 24007KT 10SM CLR M11/M12 A2952=
KALN 110250Z 19011G19KT 10SM BKN019 06/06 A2961=
KALO 110250Z 00000KT 3/4SM R12/3500VP6000FT -SN BR VV005 00/00
     A2950=
KAPN 110254Z AUTO 14007KT 3SM UP BR OVC003 00/00 A2972=
KASE 110253Z 00000KT 2SM -SN BR OVC014 M06/M07 A3000=
KATY 110253Z AUTO 26007KT 6SM BR CLR M10/M11 A2950=
KAXN 110253Z AUTO 24007KT 1/4SM FZFG VV002 M02/M03 A2947=
KAZO 110253Z 16012G20KT 1 1/2SM RA BR OVC006 05/03 A2966=
KBDE 110253Z AUTO 18005KT 4SM BR OVC010 M03/M04 A2940=
KBFF 110253Z AUTO 30005KT 10SM OVC090 01/M06 A2973=
KBIS 110252Z 28007KT 10SM SCT027 M04/M07 A2952=
KBJC NIL=
KBKF 110255Z 13005KT 25SM FEW100 BKN200 M01/M10 A2981=
KBRL 110253Z AUTO 21005KT 1/4SM -RA FG VV005 04/03 A2953=
KBTL 110253Z 17014KT 6SM RA BR OVC007 04/03 A2968=
KCGI 110253Z AUTO 15011G19KT 8SM -RA FEW005 BKN070 OVC085 07/06
     A2965=
KCID 110252Z 27004KT 1/4SM FG VV002 01/00 A2948=
KCIU 110255Z AUTO 11011KT 2 1/2SM OVC004 M02/M02 A2967=
KCMI 110253Z 17014KT 6SM -RA BR OVC003 04/04 A2962=
KCMX 110253Z AUTO 13003KT 1 1/4SM -SN BR FEW021 OVC030 M03/M05
     A2954=
KCOS 110254Z 03008KT 10SM SCT170 SCT200 M04/M12 A2983=
KCOU 110254Z AUTO 18010KT 10SM SCT007 BKN015 OVC022 07/07
     A2954=
KCPR 110253Z 28014KT 10SM SCT095 M02/M08 A2976=
KCYS 110253Z 29019G27KT 10SM CLR M01/M09 A2974=
KDDC 110252Z AUTO 31011KT 10SM CLR 00/M03 A2976=
KDEC 110254Z 18013G19KT 10SM OVC003 05/05 A2959=
KDEN 110253Z 32011KT 10SM SCT140 SCT200 01/M09 A2979=
KDET 110253Z 15006KT 2SM -RA BR OVC003 03/02 A2982=
KDLH 110255Z 18006KT 3/4SM R09/5500V6000FT -FZDZ BR OVC002 M03/M05
     A2946=

0000165700
479
SAUS73 KWBC 110300 RRA
METAR
KDSM 110254Z 29006KT 6SM BR OVC003 01/M01 A2955=
KDTW 110253Z 12005KT 3/4SM RA BR OVC002 03/03 A2981=
KEAU NIL=
KEGE 110250Z 28004KT 10SM VCSH OVC055 M02/M05 A3001=
KELO 110253Z AUTO 19004KT 10SM OVC007 M04/M06 A2945=
KEVV 110254Z 19004KT 4SM +RA BR BKN010 OVC013 09/08 A2974=
KFAR 110253Z 22007KT 9SM CLR M08/M10 A2946=
KFNT 110253Z 17014G20KT 6SM -RA BR BKN007 OVC012 04/02 A2976=
KFSD 110256Z 00000KT 5SM BR CLR M07/M07 A2954=
KFWA 110254Z 14006KT 1SM -RA BR VV003 03/02 A2973=
KGCK 110254Z AUTO 28009KT 10SM CLR M02/M06 A2977=
KGFK NIL=
KGJT 110253Z 07003KT 10SM CLR M06/M09 A3006=
KGRB 110253Z 16005KT 5SM -RA BR BKN007 OVC013 02/01 A2951=
KGRI 110253Z AUTO 30006KT 10SM CLR M01/M04 A2963=
KGRR 110253Z 16017KT 4SM RA BR BKN008 OVC015 05/03 A2964=
KGYY 110255Z AUTO 17008KT 10SM -DZ SCT006 BKN019 OVC070 06/05
     A2959=
KHIB 110253Z AUTO 18004KT 2SM BR OVC003 M03/M04 A2945=
KHON 110255Z AUTO 10SM CLR M04/M07 A2955=
KHUF 110253Z 19010KT 6SM -RA OVC008 07/ A2970=
KHUT 110252Z 32011KT 8SM -RA SCT011 OVC031 02/01 A2969=
KICT 110253Z 31014G21KT 10SM -RA BKN055 OVC070 04/01 A2968=
KIKK 110255Z AUTO 17016G22KT 10SM -DZ BKN004 BKN017 OVC060 04/04
     A2961=
KIND 110254Z 15009KT 1/4SM R05L/1800V2800FT -RA FG VV002 04/04
     A2970=
KINL 110255Z AUTO 21006KT 2SM BR OVC003 M04/M05 A2943=
KIRK 110255Z AUTO 27005KT 6SM BR OVC004 03/02 A2955=
KJAC 110253Z 16015KT 10SM VCSH BKN030 M01/M04 A2993=
KJLN 110253Z 26006KT 10SM CLR 03/01 A2968=
KJMS 110256Z AUTO 29007KT 10SM CLR M05/M08 A2946=
KJXN 110256Z 16013KT 5SM RA BR OVC006 03/02 A2973=

0000169800
480
SAUS73 KWBC 110300 RRB
METAR
KLAN 110253Z 15013KT 2 1/2SM -RA BR BKN006 OVC009 03/03 A2971=
KLAR 110253Z AUTO 28021G28KT 10SM CLR M06/M10 A2977=
KLBF 110253Z AUTO 32006KT 10SM CLR M07/M09 A2967=
KLBL 110255Z AUTO 29012KT 10SM CLR 01/M08 A2980=
KLEX 110254Z 18012KT 10SM OVC020 12/09 A2986=
KLNK 110254Z 00000KT 1 1/2SM BR OVC075 M02/M02 A2962=
KLOU 110253Z 16010G18KT 10SM BKN110 12/09 A2976=
KLOZ 110253Z AUTO 20006KT 10SM OVC027 13/09 A2992=
KLSE 110253Z AUTO 32006KT 1 3/4SM BR BKN004 OVC012 M01/M02
     A2950=
KMBS 110253Z 16012KT 4SM RA BR BKN005 BKN014 OVC034 03/02
     A2972=
KMCI 110253Z 30005KT 10SM OVC005 02/01 A2959=
KMDW 110251Z 19009KT 7SM -RA OVC008 05/05 A2958=
KMHK 110252Z 26007KT 2 1/2SM -SN BR BKN019 OVC025 01/01 A2964=
KMKC 110254Z 30006KT 10SM OVC011 03/01 A2960=
KMKE 110252Z 19008KT 9SM OVC006 03/02 A2953=
KMKG 110255Z 15012KT 4SM RA BR BKN007 OVC011 05/03 A2958=
KMLI 110252Z 20006KT 9SM BKN006 OVC021 04/03 A2950=
KMOT NIL=
KMSN 110253Z 19006KT 3SM -DZ BR OVC004 02/02 A2949=
KMSP 110253Z 00000KT 5SM -SN BR OVC008 M01/M02 A2951=
KOFF 110258Z 28003KT 10SM BKN014 BKN070 00/00 A2959=
KOMA 110252Z 29006KT 7SM BKN014 OVC200 01/M01 A2960=
KORD 110251Z 19013KT 9SM OVC006 04/02 A2955=
KOSH 110253Z 17005KT 5SM -RA BR BKN010 OVC026 01/00 A2949=
KOTM 110253Z AUTO 26006KT 1/2SM FG VV002 01/01 A2952=
KOWB 110256Z 24003G14KT 2 1/2SM +RA BR FEW007 OVC014 08/08
     A2975=
KPAH 110253Z 21011G17KT 5SM RA BR OVC050 11/09 A2974=
KPIA 110254Z 18011KT 3SM -RA BR OVC002 04/03 A2955=
KPIR 110253Z AUTO 26007KT 10SM OVC100 01/M04 A2956=
KPLN 110254Z AUTO 13010KT 4SM -FZRA BR OVC004 M01/M02 A2965=

0000134100
481
SAUS73 KWBC 110300 RRC
METAR
KPTK 110253Z 15008KT 2 1/2SM -RA BR OVC002 02/02 A2978=
KPUB 110253Z AUTO 29011KT 10SM CLR 02/M12 A2983=
KRAP 110252Z 28004KT 10SM SCT055 BKN070 OVC090 02/M05 A2961=
KRFD 110254Z 18009KT 7SM -DZ OVC004 02/02 A2954=
KRKS 110254Z AUTO 24014KT 10SM BKN026 OVC036 M02/M06 A2998=
KRST 110254Z 00000KT 1 1/4SM -SN BR OVC022 M02/M03 A2949=
KSAW 110255Z 00000KT 1 1/2SM -SN OVC007 M02/M03 A2955=
KSBN 110254Z 16012KT 8SM -RA OVC006 06/04 A2963=
KSDF 110256Z 17012G20KT 10SM FEW021 SCT090 BKN120 OVC250 12/09
     A2976=
KSDM 110253Z 00000KT 7SM CLR 13/08 A3008=
KSGF 110252Z 28012KT 10SM FEW016 SCT021 07/04 A2964=
KSLN 110253Z 24008KT 8SM -RA OVC035 01/00 A2967=
KSPI 110252Z 18014KT 9SM OVC004 05/05 A2958=
KSTC 110253Z 18003KT 1/4SM FZFG VV002 M03/M03 A2949=
KSTJ 110253Z AUTO 32007KT 7SM FEW011 OVC040 01/00 A2960=
KSTL 110251Z 19007KT 10SM OVC009 08/06 A2960=
KSTP 110253Z 00000KT 5SM BR OVC008 M02/M02 A2953=
KSUS 110254Z 24006KT 10SM OVC009 07/06 A2961=
KSUX 110252Z 26003KT 1/4SM R31/0700V1200FT FZFG VV002 M04/M05
     A2957=
KTVC 110253Z VRB03KT 5SM -RA BR SCT028 OVC045 02/01 A2957=
KUIN 110254Z AUTO 21009KT 10SM OVC010 06/05 A2953=
KWRL 110253Z AUTO 17008KT 10SM CLR M07/M11 A2978=
KYIP 110253Z AUTO 14006KT 1 1/2SM BR OVC002 03/02 A2980=

0000041100
482
SAJP31 RJTD 110300
METAR RJAA 110300Z 32009KT 9999 FEW030 06/M08 Q1023 NOSIG=
METAR RJBB 110300Z 30013KT 9999 FEW025 07/M05 Q1028 NOSIG=
METAR RJTT 110300Z 09005KT 9999 FEW030 06/M05 Q1023 NOSIG=
METAR RJOO 110300Z 30009KT 250V330 9999 FEW030 08/M05 Q1027=
METAR ROAH 110300Z 07010KT 040V130 9999 FEW030 19/09 Q1026=
METAR RJGG 110300Z 33004KT 9999 FEW020 SCT040 06/M03 Q1026 NOSIG=

0000171300
483
SAUS74 KWBC 110300
METAR
KACV 110253Z AUTO 10003KT 7SM SCT049 09/07 A3017=
KALW 110253Z AUTO 19012KT 10SM SCT046 BKN055 OVC080 09/03
     A2999=
KBFI 110253Z 15011KT 10SM -RA SCT037 OVC046 09/06 A2983=
KBFL 110254Z 03003KT 8SM CLR 10/03 A3020=
KBIL 110253Z 29016KT 10SM FEW100 04/M06 A2974=
KBKE 110253Z AUTO 29003KT 10SM OVC055 01/M01 A3004=
KBLI 110253Z 14015G22KT 7SM -RA BKN025 BKN030 OVC043 08/05
     A2974=
KBOI 110253Z 00000KT 10SM OVC050 05/M01 A3010=
KBTM 110253Z AUTO 25009G17KT 10SM BKN055 OVC085 01/M08 A2987=
KBUR 110253Z 08003KT 10SM CLR 18/07 A3006=
KBYI 110253Z AUTO 22013KT 10SM OVC049 03/M02 A3011=
KBZN 110256Z VRB03KT 10SM OVC070 02/M07 A2986=
KCDC 110253Z AUTO 13007KT 10SM CLR 03/M06 A3015=
KCEC 110256Z AUTO 15009KT 9SM BKN043 OVC060 10/09 A3015=
KCLM 110253Z AUTO 28004KT 3SM -RA BR BKN005 OVC050 06/05 A2968=
KCTB 110256Z AUTO 27013KT 10SM SCT080 02/M06 A2970=
KCXL NIL=
KEKO 110256Z AUTO 14004KT 10SM SCT048 SCT075 02/M03 A3019=
KEUG 110254Z 17010KT 10SM BKN039 OVC085 11/07 A3002=
KFAT 110253Z 00000KT 5SM HZ SCT200 12/05 A3022=
KFLG 110257Z AUTO VRB03KT 10SM CLR 04/M07 A3019=
KGCN 110254Z AUTO 00000KT 10SM CLR M06/M11 A3021=
KGEG 110253Z 20012KT 10SM FEW020 BKN065 OVC090 03/01 A2988=
KGGW 110253Z AUTO 25008KT 10SM FEW065 SCT085 BKN120 M08/M10
     A2961=
KGTF 110253Z 23011KT 10SM CLR 02/M05 A2974=
KHLN 110253Z 28008G14KT 10SM OVC060 04/M05 A2984=
KHQM 110253Z AUTO 15019G28KT 4SM -RA OVC012 A2978=
KIDA 110253Z AUTO 19012G19KT 10SM CLR 01/M03 A3001=
KIWA 110255Z AUTO 11006KT 10SM CLR 10/M01 A3012=
KLAS 110256Z 20005KT 10SM SCT250 12/M02 A3009=
KLAX 110253Z 27005KT 10SM SCT200 14/12 A3007=

0000170600
484
SAUS74 KWBC 110300 RRA
METAR
KLGB 110253Z 00000KT 4SM HZ CLR 15/11 A3007=
KLMT 110253Z 00000KT 10SM FEW041 OVC070 04/01 A3015=
KLVM 110253Z AUTO 28016KT 10SM SCT085 BKN120 03/M07 A2979=
KMFR 110253Z 01003KT 7SM SCT060 BKN110 07/05 A3014=
KMLS 110253Z AUTO 31011KT 10SM BKN060 01/M04 A2964=
KMRY 110254Z 00000KT 4SM BR OVC002 11/11 A3020=
KMSO 110253Z 34005KT 10SM OVC055 03/M01 A2994=
KMYV 110253Z AUTO 00000KT 10SM CLR 09/04 A3019=
KNTD 110254Z 15004KT 7SM FEW220 14/12 A3006=
KOAK 110253Z 32004KT 10SM FEW250 11/08 A3020=
KOGD 110253Z 17003KT 10SM OVC060 04/M03 A3012=
KOLM 110254Z 19015G20KT 5SM -RA BR SCT012 BKN017 OVC031 08/07
     A2981=
KONT 110253Z 00000KT 6SM HZ FEW250 17/06 A3007=
KOTH 110255Z 14005KT 10SM OVC022 11/11 A3004=
KPAE 110253Z 15015G19KT 10SM SCT030 BKN045 OVC100 08/03 A2980=
KPDX 110253Z 19011KT 10SM SCT032 BKN045 OVC090 12/07 A2996=
KPHX 110251Z 05003KT 10SM FEW250 16/M02 A3008=
KPIH 110253Z 22017KT 10SM OVC090 02/M03 A3008=
KPMD 110253Z AUTO 34005KT 10SM CLR 14/M02 A3013=
KPRB 110253Z AUTO 11006KT 10SM CLR 11/03 A3017=
KPRC 110253Z 30006KT 10SM CLR 07/M07 A3017=
KPSP 110253Z 00000KT 10SM CLR 16/00 A3011=
KRBL 110254Z AUTO 29004KT 10SM CLR 10/03 A3019=
KRDD 110253Z 00000KT 10SM CLR 09/03 A3018=
KRDM 110256Z 19011KT 10SM BKN060 07/M04 A3001=
KRNO 110255Z 15003KT 10SM SCT180 BKN250 08/M01 A3023=
KRNT 110253Z 13006KT 10SM -RA SCT038 OVC044 08/06 A2983=
KSAC 110253Z AUTO 00000KT 10SM CLR 09/06 A3019=
KSAN 110251Z 00000KT 7SM CLR 16/11 A3008=
KSBA 110253Z 30003KT 5SM BR CLR 12/11 A3005=
KSBD NIL=
KSBP 110256Z 00000KT 10SM CLR 16/04 A3014=
KSCK 110255Z 00000KT 10SM CLR 11/04 A3020=

0000075900
485
SAJP32 RJTD 110300
METAR RJFF 110300Z 32008KT 270V360 9999 FEW035 BKN045 07/M01 Q1030=
METAR RJCC 110300Z 35005KT 9999 -SHSN FEW020 SCT040 BKN070 M06/M12
           Q1017=
METAR RJFK 110300Z 36009KT 9999 FEW035 SCT/// 08/M03 Q1028=
METAR RJSN 110300Z 29015KT 9999 VCSH FEW006 SCT035 BKN045 03/M06
           Q1025=
METAR RJFT 110300Z VRB03KT 9999 FEW040 06/M04 Q1029=
METAR RJFU 110300Z 15004KT 080V210 9999 FEW040 BKN050 07/01 Q1030=
METAR RJCH 110300Z 29012KT 2400 R12/1000VP1800U -SHSN FEW005 BKN012
           BKN020 M05/M07 Q1019=
METAR RJSS 110300Z 31016KT 9999 FEW020 04/M07 Q1022=
METAR RJOA 110300Z 26012KT 9999 FEW025 SCT035 05/M06 Q1027=
METAR RJOB 110300Z 27010KT 230V310 9999 FEW025 SCT035 06/M02 Q1027=

0000086000
486
SAUS74 KWBC 110300 RRB
METAR
KSEA 110253Z 15010KT 10SM -RA OVC033 08/05 A2983=
KSFF 110253Z 21008KT 10SM BKN070 OVC085 05/01 A2991=
KSFO 110256Z 29011KT 10SM SCT200 11/08 A3020=
KSHR 110253Z AUTO 31021G28KT 10SM OVC090 03/M06 A2969=
KSJC 110253Z 00000KT 10SM FEW200 12/08 A3020=
KSLC 110253Z 14007KT 10SM BKN065 OVC080 05/M02 A3013=
KSMF 110253Z 00000KT 10SM FEW250 10/04 A3019=
KSMX 110251Z 31008KT 10SM CLR 12/08 A3011=
KSNA 110253Z 00000KT 5SM HZ FEW250 15/11 A3007=
KSNS 110253Z 29006KT 7SM OVC003 12/10 A3019=
KTIW 110253Z 15004KT 9SM -RA OVC024 07/06 A2983=
KTUS 110253Z 00000KT 10SM CLR 13/M06 A3012=
KTVL 110253Z AUTO 00000KT 10SM CLR 01/M04 A3026=
KTWF 110253Z 20008KT 10SM OVC049 04/M01 A3013=
KUKI 110256Z AUTO 00000KT 10SM CLR 10/02 A3019=
KYKM 110253Z 23007KT 10SM FEW070 08/00 A2988=
KYUM NIL=

0000017100
487
SAJP32 RJTD 110300 RRA
METAR RJOT 110300Z 29012KT 9999 FEW025 SCT035 06/M03 Q1028=
METAR RJFO 110300Z 30007KT 230V010 9999 FEW030 SCT040 08/M01 Q1029=

0000168600
488
SAUS75 KWBC 110300
METAR
PABA 110301Z AUTO 27024G28KT 1/2SM -SN FZFG OVC010 M24/M27
     A2982=
PABE 110253Z 03008KT 10SM FEW050 M13/M14 A2942=
PABI 110253Z 00000KT 3SM -SN BKN031 OVC080 M17/M20 A2947=
PABR 110253Z 31013KT 1/2SM R07/2400V3000FT FZFG VV003 M22/M25
     A2984=
PABT 110253Z 00000KT 10SM FEW050 M33/M36 A2965=
PACV 110253Z 00000KT 1 3/4SM R27/4000VP6000FT BR BKN034 M02/M03
     A2930=
PACZ 110255Z AUTO 09020G31KT 10SM BKN025 M07/M10 A2938=
PADK 110256Z AUTO 21026G35KT 10SM FEW031 SCT036 BKN042 03/M02
     A2879=
PADL 110255Z 02010KT 4SM -SN BR OVC015 M05/M05 A2944=
PADU 110256Z 15006KT 10SM SCT028 BKN036 OVC055 04/01 A2905=
PAEH 110255Z AUTO 13016KT 1 1/2SM -SN BR BKN014 00/M01 A2930=
PAEI 110258Z AUTO 00000KT 10SM CLR M29/M33 A2956=
PAEN 110253Z 03003KT 10SM OVC006 M03/M04 A2938=
PAFA 110253Z 00000KT 10SM SCT090 M28/M32 A2957=
PAFB 110255Z 00000KT 7SM SCT100 M30/M33 A2957=
PAGA 110258Z AUTO 00000KT 10SM CLR M30/M33 A2968=
PAGK 110253Z AUTO 34006KT 4SM BR OVC090 M11/M13 A2928=
PAGS 110256Z AUTO 12008KT 10SM BKN038 OVC045 02/01 A2937=
PAGY 110253Z AUTO 21019G26KT 10SM OVC070 03/M01 A2933=
PAHO 110253Z 00000KT 10SM BKN022 OVC027 M02/M04 A2937=
PAIL 110253Z 35004KT 10SM OVC012 M04/M06 A2943=
PAJN 110253Z 06005KT 10SM FEW020 BKN040 OVC065 02/00 A2939=
PAKN 110254Z 34004KT 10SM FEW004 SCT025 BKN130 M05/M06 A2939=
PAKT 110253Z 25003KT 10SM FEW030 02/01 A2934=
PALU 110255Z AUTO 08006KT 10SM OVC010 M19/M20 A2999=
PAMC 110253Z AUTO 32004KT 10SM OVC026 M17/M19 A2956=
PANC 110253Z 34004KT 5SM -SN BR SCT006 OVC014 M04/M06 A2937=
PANT 110253Z AUTO VRB06KT 10SM CLR 03/M01 A2932=

0000148500
489
SAUS75 KWBC 110300 RRA
METAR
PAOM 110253Z 04014KT 10SM BLSN FEW032 SCT100 M13/M20 A2963=
PAOM 110253Z COR 04014KT 10SM DRSN FEW032 SCT100 M13/M20 A2963=
PAOR 110253Z 00000KT 6SM -SN OVC040 M17/M19 A2935=
PAOT 110253Z 03008KT 10SM CLR M18/M25 A2976=
PAPG NIL=
PASC 110253Z 25017KT 1 1/4SM -SN BR BKN010 OVC018 M28/M31
     A2983=
PASI 110253Z 04004KT 10SM SCT026 BKN050 OVC120 01/00 A2935=
PASN 110253Z AUTO 09011KT 10SM FEW015 01/M01 A2908=
PATA 110252Z 00000KT 10SM CLR M33/M37 A2964=
PATC 110255Z AUTO 02027KT 3/4SM BR BKN002 M17/M19 A2971=
PATK 110253Z AUTO 00000KT 10SM OVC016 M07/M09 A2936=
PAUN 110256Z AUTO 10011KT 10SM CLR M16/M22 A2958=
PAVD 110256Z 10SM FEW025 BKN150 M07/M08 A2932=
PAYA 110253Z AUTO 00000KT 1/4SM R11/2800V5500FT FZFG VV002 M01/M01
     A2933=
PGRO 110250Z 06016G22KT 7SM FEW025 SCT100 28/23 A2991=
PGUA 110258Z AUTO 05014G19KT 10SM FEW040 28/23 A2990=
PGUM 110254Z 06014G22KT 10SM SCT028 BKN035 OVC060 29/22 A2989=
PHJH 110250Z 03015KT 15SM FEW020 FEW035 25/18 A2989=
PHLI 110253Z AUTO 03017G22KT 10SM FEW021 SCT034 OVC047 23/20
     A2993=
PHMK 110254Z 03009KT 10SM CLR 24/20 A2990=
PHNL 110253Z 04006KT 10SM FEW028 SCT060 25/18 A2989=
PHNY 110256Z AUTO 15010KT 10SM BKN025 OVC029 24/17 A2994=
PHOG 110254Z 03017KT 10SM SCT040 26/19 A2989=
PHTO 110253Z 11004KT 10SM CLR 24/18 A2991=
PMDY 110256Z AUTO 11013KT 5SM HZ CLR 22/17 A3011=
PWAK 110255Z 07010KT 10SM FEW025 28/28 A2995=

0000011700
490
SACN62 CYQT 110300
METAR CYQT 110300Z 36002KT 2SM -FZDZ BR OVC010 M03/M04 A2954 RMK SF8
 SLP015=

0000010600
491
SACN62 CYQB 110300
METAR CYQB 110300Z 00000KT 10SM OVC016 M09/M10 A3023 RMK SC8 SLP244=

0000014300
492
SACN62 CYVO 110300
METAR CYVO 110300Z 17011KT 12SM -SN OVC009 M04/M05 A2992 RMK ST8 LAST
 STFD OBS/NEXT 111100 UTC SLP157=

00000000