0000008100
273
NCNC01 EGRR 110900
03044 01008 555 00036 10010 20012 40044 50054=
0000005700
274
NCNC01 EGRR 110900
03874 555 00096 10053=
0000011600
275
SPUS43 KWBC 110226
SPECI
KTOL 110222Z 00000KT 2 1/2SM RA BR SCT002 BKN016 OVC044 03/03
A2981=

0000030900
276
SANL31 EHDB 110225
METAR EHAM 110225Z 20013KT 8000 SCT009 OVC011 06/04 Q1014 BECMG 7000=
METAR EHBK 110225Z AUTO 20009KT 9999 NCD 02/01 Q1016=
METAR EHGG 110225Z AUTO 21012KT 4000 BR BKN008 OVC009 06/05 Q1012=
METAR EHRD 110225Z AUTO 20012KT 5000 BR BKN008 OVC009 05/04 Q1014
NOSIG=

0000013500
277
SACN62 CYAM 110200 CCA
METAR CYAM 110200Z CCA 10008KT 2 1/2SM BR OVC007 M02/M03 A2974 RMK
 ST8 CIG VRB 6-8 SLP082=

0000027300
278
SANO31 ENMI 110220
METAR ENAN 110220Z NIL=
METAR ENBR 110220Z NIL=
METAR ENBO 110220Z NIL=
METAR ENDU 110220Z NIL=
METAR ENGM 110220Z 00000KT 9999 SCT007 M02/M03 Q0997=
METAR ENOL 110220Z NIL=
METAR ENVA 110220Z NIL=
METAR ENZV 110220Z NIL=

0000008700
279
SAIY32 LIIB 110220 RRA
METAR LICC 110220Z 24007KT CAVOK 09/05 Q1022=

0000021700
280
SANO36 ENMI 110220
METAR ENBS 110220Z NIL=
METAR ENHK 110220Z NIL=
METAR ENHV 110220Z NIL=
METAR ENLK 110220Z NIL=
METAR ENMH 110220Z NIL=
METAR ENNK 110220Z NIL=
METAR ENNM 110220Z NIL=

0000076300
281
SANO39 ENMI 110220
METAR ENNE 110220Z NIL=
METAR ENQR 110220Z AUTO 09007G17KT 9999NDV -RA SCT011/// BKN038///
           02/M01 Q0997 W///S/=
METAR ENSE 110220Z AUTO 08023KT 9999NDV -RA FEW011/// SCT016///
           BKN022/// 01/M01 Q0997 W///S5=
METAR ENQC 110220Z AUTO 06012KT 9999NDV OVC011/// 03/01 Q0997
           W///S4=
METAR ENQA 110220Z AUTO 08012KT 9999NDV FEW011/// BKN023/// OVC033///
           03/02 Q0997 W04/S4=
METAR ENHM 110220Z AUTO 26028KT 9999NDV FEW023/// SCT037/// OVC100///
           06/03 Q0998 W08/S5=
METAR ENVH 110220Z AUTO 29018KT 9999NDV -RA BKN005/// BKN030/// 07/06
           Q1003 W///S4=
METAR ENLA 110220Z AUTO 30022KT 9999NDV FEW021/// BKN070/// 07/04
           Q1002 W///S4=

0000010100
282
SATH31 VTBB 110200 RRB
METAR VTPH 110200Z 35007KT 300V020 CAVOK 27/19 Q1016 NOSIG=

0000019100
283
SANO34 ENMI 110220
METAR ENBN 110220Z NIL=
METAR ENBV 110220Z NIL=
METAR ENFG 110220Z NIL=
METAR ENHF 110220Z NIL=
METAR ENRA 110220Z NIL=
METAR ENSH 110220Z NIL=

0000057100
284
SANO32 ENMI 110220
METAR ENAL 110220Z NIL=
METAR ENCN 110220Z AUTO 23005KT 9999NDV SCT023/// BKN059/// 04/03
           Q1000=
METAR ENHD 110220Z AUTO 24016KT 9999NDV SCT018/// BKN035/// 07/05
           Q0999=
METAR ENRO 110220Z AUTO 09011KT 6000NDV -SN BKN006/// BKN009///
           OVC014/// M15/M18 Q0998=
METAR ENRY 110220Z AUTO 21006KT 9999NDV BKN110/// OVC140/// 02/M00
           Q0998=
METAR ENSB 110220Z NIL=
METAR ENTC 110220Z NIL=
METAR ENTO 110220Z AUTO 24008KT 9999NDV FEW100/// BKN130/// 02/M00
           Q0997=

0000010000
285
SPKO31 RKSI 110225
SPECI RKTU 110225Z 25002KT 4800 BR FEW040 M01/M04 Q1034 NOSIG=

0000011100
286
SPUS41 KWBC 110225
SPECI
KDAY 110221Z 15009KT 6SM -RA BR FEW007 SCT013 OVC022 07/06 A2982=

0000009800
287
SPUS41 KWBC 110225
SPECI
KFVE 110221Z AUTO 19008KT 10SM BKN016 M08/M14 A3015=

0000010900
288
SPUS41 KWBC 110225
SPECI
KWRI 110222Z AUTO 06003KT 3SM R06/4000FT BR OVC003 03/03 A3025=

0000010100
289
SPUS43 KWBC 110225
SPECI
KAPN 110222Z AUTO 14009KT 3SM UP BR OVC003 00/00 A2975=

0000019700
290
FCSP31 LEMM 110200
TAF LEBA 110200Z 1103/1112 VRB02KT CAVOK=
TAF LEBG 110200Z 1103/1112 05005KT 0400 FG OVC001 TEMPO
1103/1110 4000 BR SCT005 BECMG 1110/1112 9999 NSW FEW015=

0000040000
291
FCSP32 LEMM 110200
TAF LEAB 110200Z 1103/1112 13004KT 2500 BR BKN014 TEMPO
1104/1111 0800 FG OVC005 PROB40 TEMPO 1106/1110 0100 FG
OVC001 BECMG 1111/1112 CAVOK=
TAF LELN 110200Z 1103/1112 02003KT CAVOK PROB30 TEMPO 1104/1109
4000 BR NSC=
TAF LESA 110200Z 1103/1112 VRB02KT CAVOK TEMPO 1103/1109
4000 BR NSC PROB30 TEMPO 1105/1108 0700 FG SCT001=
TAF LEVS 110200Z NIL=

0000047900
292
FTSP37 LEMM 110200
TAF LEDA 110200Z 1103/1203 VRB03KT 3000 BR FEW008 TX08/1115Z
TN03/1107Z TEMPO 1103/1110 0500 FG VV002 BECMG 1109/1112
7000 NSW=
TAF LEHC 110200Z 1103/1203 VRB04KT 9999 FEW010 TX13/1113Z
TN03/1106Z TEMPO 1103/1110 3000 BR PROB30 TEMPO 1103/1110
0800 FG VV003 TEMPO 1118/1203 3000 BR NSC=
TAF LELL 110200Z 1103/1203 VRB03KT 8000 BKN016 TX15/1114Z
TN04/1106Z PROB40 TEMPO 1103/1109 3000 BR BKN006 PROB30
TEMPO 1103/1108 0800 FG=

00000000