0000009200
353
SARM31 LUKK 102000
METAR LUBL 102000Z AUTO 28014KT 9999 NCD 04/M00 Q1012=

0000009800
354
SAPM31 MPTO 102000
METAR 
MPTO 102000Z 36004KT 9999 SCT020 32/20 Q1007 NOSIG=

0000009800
355
SABZ19 SBOI 102000
METAR SBOI 102000Z 12002KT 9999 FEW010 BKN100 25/22
Q1009=

0000010100
356
SABZ18 SBKP 102000
METAR SBKP 102000Z 12006KT 9999 FEW040 FEW045TCU
29/16 Q1013=

0000011800
357
SAMR20 TFFF 102000
METAR TFFF 102000Z AUTO 06017KT 030V090 9999 BKN034 BKN040 BKN049
27/20 Q1014=

0000009800
358
SABZ19 SBMQ 102000
METAR SBMQ 102000Z 12005KT 9999 FEW013 BKN100 29/22
Q1008=

0000021100
359
SASQ31 LZIB 102000
METAR LZIB 102000Z 32004KT CAVOK 04/01 Q1020=
METAR LZKZ 102000Z 00000KT 0800 R01/0550N PRFG OVC002 02/02 Q1017=
METAR LZTT 102000Z 26018KT 9999 -SN SCT050 02/M03 Q1015=

0000020100
360
SASQ41 LZIB 102000
METAR LZPP 102000Z 27007KT CAVOK 02/M02 Q1020=
METAR LZSL 102000Z 28005KT 220V320 9999 FEW060 03/M02 Q1018=
METAR LZZI 102000Z VRB02KT 9999 BKN057 02/00 Q1018=

0000047500
361
FTUS53 KWBC 102000 AAA
TAF AMD
KAXN 101958Z 1020/1118 17012KT 1/2SM FZFG OVC002
     FM102100 18009KT 2SM BR BKN006 OVC015
     FM102300 20006KT 5SM BR SCT012 BKN100
     FM110300 27006KT P6SM SCT200
     FM111000 31010KT P6SM SCT025 BKN040
     FM111600 30010KT P6SM SCT250=
KSUX 101959Z 1020/1118 17011KT 1 1/2SM BR OVC003
     FM102130 29008KT 4SM BR BKN015 BKN080
     FM110100 30009KT P6SM SKC
     FM111600 31015G20KT P6SM SCT050=

0000127900
362
SNFR34 LFPW 111000
AAXX 11104
07260 24560 80000 10071 20060 39989 40205 51030 700//
  333 60005 90710 91102=
07266 24860 /1403 10061 20049 30013 40201 53027 700//
  333 69905 90710 91104=
07374 24/60 /1401 10095 20051 39903 40206 53021 700//
  333 60005 90710 91104=
07379 24956 /1902 10062 20045 39913 40211 53024 700//
  333 60005 90710 91105=
07385 22658 61704 10084 20062 39947 40211 53026 82531
  333 60005 82643 84359 90710 91108 93100=
07475 24986 81706 10101 20038 39728 40207 53022 700//
  333 60005 90710 91110=
07480 24983 81909 10109 20064 39973 40212 51024 700//
  333 60005 90710 91116=
07482 24/70 /1808 10110 20059 39912 40215 53024 700//
  333 60005 90710 91119=
07486 24569 /3206 10094 20063 39755 40217 52018 700//
  333 60005 90710 91113=
07487 26/// /0000 10048 20047 39955 40226 52022
  333 60005 90710 91103=
07491 22658 73502 10057 20048 39936 40224 51019 82531
  333 60005 82633 83366 86073 90710 91105 93100=
07497 22986 40000 10081 20017 39191 48509 52011 81032
  333 60005 81365 84070 90710 91103 93100=
07549 21470 71004 10063 20031 39459 40220 53018 700// 875//
  333 60005 87619 90710 91109 93100=
07570 24/13 /0402 10077 20076 39903 40243 52016 750//
  333 69925 90710 91102=
0000148600
363
SNFR35 LFPW 111000
AAXX 11104
07316 24350 83508 10088 20082 30187 40209 51029 700//
  333 60005 90710 91112=
07330 21324 80000 10082 20079 30137 40212 53029 71022 886//
  333 60005 87708 90710 91105 93100=
07361 24/69 /1904 10099 20055 39767 40203 51028 700//
  333 60005 90710 91116=
07412 24131 81603 10092 20086 30171 40209 52024 710//
  333 60005 90710 91105=
07438 24/58 /3401 10081 20064 30077 40220 53020 700//
  333 60005 90710 91103=
07500 26/// /0504 10125 20111 30174 40208 53022
  333 60005 90710 91108=
07503 265// 80000 10119 20108 30160 40207 53020
  333 60005 90710 91105=
07524 24456 81005 10086 20078 30128 40213 53020 700//
  333 60005 90710 91107=
07530 24550 80503 10092 20081 30148 40212 51024 700//
  333 60005 90710 91105=
07540 24/50 /1802 10094 20083 30086 40217 53017 761//
  333 69905 90710 91106=
07552 24469 80401 10074 20054 39530 40218 52018 700//
  333 60005 90710 91104=
07600 26/// /0000 10125 20090 30158 40210 53017
  333 60005 90710 91102=
07602 22562 71502 10122 20087 30122 40208 53017 875//
  333 60005 87628 90710 91104 93100=
07603 26/58 /1802 10111 20095 30170 40208 52018
  333 60005 90710 91104=
07610 22961 51403 10102 20088 39989 40210 53016 80001
  333 60005 85070 90710 91104 93100=
07622 22557 71903 10097 20081 30058 40214 53018 875//
  333 60005 87620 90710 91106 93100=
07632 24/62 /0701 10084 20064 30010 40219 53015 700//
  333 60005 90710 91103=
0000192400
364
SNFR36 LFPW 111000
AAXX 11104
07554 24470 80000 10059 20041 39134 4//// 52013 700//
  333 60005 90710 91103=
07560 26/// /1814 10020 20020 38450 4//// 52015
  333 69925 90710 91120=
07563 24565 82102 10110 20082 30168 40227 52016 700//
  333 60005 90710 91105=
07579 24516 82502 10091 20079 30161 40229 52015 710//
  333 60005 90710 91103=
07586 26/// /0000 10110 20067 30095 40224 51013
  333 60005 90710 91106=
07588 24569 80303 10065 20038 39685 40241 52017 700//
  333 60005 90710 91106=
07635 24558 80203 10096 20074 30062 40217 53015 700//
  333 60005 90710 91103=
07638 24458 80206 10107 20091 30198 40218 53013 700//
  333 60005 90710 91107=
07641 26/// /0107 10109 20085 30127 40221 53015
  333 60005 90710 91111=
07646 24662 80703 10107 20066 30094 40222 51014 700//
  333 60005 90710 91106=
07647 24569 80304 10114 20086 30195 40223 51017 700//
  333 60005 90710 91105=
07648 24670 80504 10115 20072 30155 40227 51017 700//
  333 60005 90710 91107=
07666 26/// /3203 10119 20100 30162 40211 52015
  333 60005 90710 91105=
07667 24569 83103 10127 20091 30219 40224 51018 700//
  333 60005 90710 91104=
07675 24/62 /1003 10108 20086 30127 40227 51016 700//
  333 60005 90710 91105=
07684 24981 80000 10155 20094 30219 40224 53011 700//
  333 60005 90710 91103=
07749 26/// /3110 10115 20082 30109 40214 53014
  333 60005 90710 91114=
07754 22975 50000 10142 20102 30143 40213 51007 84032
  333 60005 84367 85076 90710 91103 93100=
07765 24557 82702 10132 20091 30206 40227 51009 700//
  333 60005 90710 91104=
07770 26/// /0812 10150 20118 30079 40218 52007
  333 60005 90710 91119=
07775 26/// /2310 10140 20092 30134 40223 51009
  333 60005 90710 91115=
07780 24585 81008 10145 20103 30194 40222 51010 700//
  333 60005 90710 91117=
07785 26/// /2703 10163 20097 30080 40214 50009
  333 60005 90710 91112=
0000111800
365
SNFR37 LFPW 111000
AAXX 11104
07002 26/// /3115 10082 20060 30093 40176 53024
  333 69985 90710 91130=
07003 24359 82510 10089 20078 30155 40180 53020 760//
  333 69925 90710 91122=
07010 26/// /2914 10082 20051 30148 40168 53019
  333 60015 90710 91124=
07028 26/// /2307 10077 20074 30073 40201 53027
  333 60005 90710 91114=
07038 24/07 92404 10056 20056 30034 40204 51028 745//
  333 60005 90710 91106=
07040 26/// /2315 10082 20068 30143 40192 53024
  333 60005 90710 91123=
07046 24156 82310 10082 20071 30086 40201 53027 700//
  333 69905 90710 91113=
07055 21132 82806 10058 20055 30061 40198 51028 71022 886//
  333 60005 88702 90710 91112 93100=
07057 24/09 92508 10054 20051 30091 40200 51032 745//
  333 60005 90710 91111=
07061 24/50 /2103 10051 20051 30070 40191 52023 700//
  333 60005 90710 91104=
07075 24556 81901 10048 20036 30011 40194 53018 700//
  333 60005 90710 91103=
07169 24768 80000 10059 20049 30025 40195 53023 700//
  333 69905 90710 91104=
07283 24/18 92205 10051 20050 39637 40200 53029 710//
  333 60005 90710 91111=
0000038500
366
SSVX13 LFPW 111000
ZZYY 61690 11014 1000/ 142805 029450 6113/ 11119 40234 57007 22219
 00094 33300 88870 20000 30944 20011 30936 20013 30928 20016 30924
 20021 30928 20026 30936 20030 30936 20035 30932 20040 30940 20045
 30934 20050 30844 20055 30792 20060 30792 20065 30784 20070 30784
 20075 30788 20079 30800 444 20131 11014 0957/ 50101 80102 80013
 9/015=
0000015700
367
SSVX13 LFPW 111000
ZZYY 62687 11014 1000/ 166087 001414 6113/ 11119 40057 52003 22219
 00075 444 20130 11014 0957/ 50101 80098 80000 9/015=
0000015700
368
SSVX13 LFPW 111000
ZZYY 44624 11014 1000/ 746718 020026 6113/ 11119 49985 57061 22219
 00128 444 20130 11014 0957/ 50101 80098 80018 9/015=
0000015700
369
SSVX13 LFPW 111000
ZZYY 61688 11014 1000/ 144058 029453 6113/ 11119 40229 57006 22219
 00088 444 20131 11014 0957/ 50101 80090 80005 9/015=
0000015700
370
SSVX13 LFPW 111000
ZZYY 62713 11014 1000/ 733783 019539 6113/ 11119 40166 52014 22219
 00182 444 20130 11014 0957/ 50101 80098 80000 9/015=
0000015700
371
SSVX13 LFPW 111000
ZZYY 62714 11014 1000/ 734342 021712 6113/ 11119 40144 52006 22219
 00192 444 20130 11014 0957/ 50101 80100 80000 9/015=
0000015700
372
SSVX13 LFPW 111000
ZZYY 44762 11014 1000/ 751162 006180 6113/ 11119 40206 52024 22219
 00106 444 20130 11014 0957/ 50101 80096 80000 9/015=
00000000