0000011900
793
SACN62 CYYG 102000
METAR CYYG 102000Z 21011KT 15SM FEW110 BKN250 M04/M08 A3032 RMK
 AC2CI3 SLP272=

0000013500
794
SACN62 CZFA 102000
METAR CZFA 102000Z 24003KT 30SM FEW060 SCT076 SCT140 M14/M15 A2929
 RMK SC1AC2AC1 AC TR SLP975=

0000010600
795
SACN62 CZBF 102000
METAR CZBF 102000Z 07003KT 15SM FEW220 M10/M16 A3022 RMK CI1 SLP238=

0000110500
796
SANT31 KWBC 102000
METAR
BGBW 101950Z 03007KT 9999 FEW050 BKN064 BKN074 M08/M18 Q0995 RMK
     2SC 5AC 6AC=
BGCO 101950Z AUTO 14004KT 110V200 //// BKN032/// M08/M10 Q1010=
BGGH 101950Z 15017KT 2000 -SN DRSN SCT010 BKN025 OVC035 M07/M12
     Q0993=
BGJN 101950Z 11025KT 9999 FEW010 SCT160 M08/M19 Q0993 RMK LAST=
BGKK 101950Z AUTO 05018G30KT 020V090 0900NDV SN VV005/// M01/M02
     Q0985=
BGSF 101950Z AUTO 08013KT 9999NDV NCD M13/M20 Q0995=
BGTL 101958Z AUTO 13005KT 9999 CLR M12/M16 A2910 RMK AO2 SLP842
     T11211159=
BIAR 102000Z 17008KT 090V240 9999 -RA BKN033 03/M02 Q0995=
BIEG 102000Z 09029G40KT 4000 -SNRA SCT013 BKN030 BKN050 01/00
     Q0996 RMK R04/790193 RWY SANDED=
BIKF 102000Z 26018KT 9999 FEW022 SCT029 BKN046 02/M01 Q0990=
BIRK 102000Z 26010KT 6000 RASN BKN010 OVC014 01/M00 Q0990=
GVAC 102000Z 04006KT 9999 SCT014 BKN200 20/15 Q1015 NOSIG=
GVPR NIL=
LPBJ 102000Z VRB02KT 9999 FEW040 12/08 Q1014=
LPLA 102000Z 21013KT 3000 -RADZ BR SCT006 BKN008 BKN017 15/14
     Q1006=
TXKF 101955Z 06014KT 9999 FEW032 BKN300 18/12 Q1030=

0000009900
797
SPUS31 KWBC 102005
SPECI
KRDU 102001Z 02004KT 1/2SM -RA BR OVC004 07/06 A3023=

0000010500
798
SPUS31 KWBC 102005
SPECI
KTEB 102001Z 00000KT 2 1/2SM HZ SCT009 OVC025 02/M02 A3037=

0000010500
799
SPUS41 KWBC 102005
SPECI
KERI 102001Z 17010KT 10SM SCT012 SCT028 OVC049 05/02 A3011=

0000010400
800
SPUS41 KWBC 102005
SPECI
KINT 102001Z 04006KT 3SM -RA BR BKN003 OVC012 03/02 A3024=

0000010700
801
SPUS43 KWBC 102005
SPECI
KMOT 102002Z AUTO 25016G22KT 10SM BKN016 OVC100 00/M05 A2939=

0000027400
802
SAIE32 EIDB 102000
METAR EICM 102000Z NIL=
METAR EIDL 102000Z NIL=
METAR EIKY 102000Z NIL=
METAR EIME 102000Z 24006KT 9999 FEW020 SCT045 BKN230 02/02 Q1009=
METAR EISG 102000Z NIL=
METAR EIWF 102000Z 32004KT 290V350 CAVOK 04/03 Q1010 R03/1/////=

0000011700
803
SACN62 CYCD 102000
METAR CYCD 102000Z 00000KT 15SM FEW025 BKN090 06/06 A2999 RMK SF1AC6
 SLP156=

0000010600
804
SACN62 CYBK 102000
METAR CYBK 102000Z 25002KT 20SM BKN020 M31/M35 A2968 RMK SC5 SLP053=

0000017200
805
SACN62 CYBW 102000
METAR CYBW 102000Z 31006KT 25SM FEW055 FEW065 FEW075 SCT150 SCT210
 M01/M09 A2945 RMK SC1CU1AC1AC1CI1 CU TR CI TR TCU ASOCTD SLP021=

0000012800
806
SACN62 CYDC 102000
METAR CYDC 102000Z 00000KT 15SM FEW050 BKN070 BKN080 01/M00 A2983 RMK
 SC1AC5AS1 SLP127=

0000013000
807
SACN62 CYCG 102000
METAR CYCG 102000Z 20011G16KT 15SM FEW025 BKN075 BKN200 03/01 A2981
 RMK SC1AC5CI1 SLP111=

0000010400
808
SACN62 CYCS 102000
METAR CYCS 102000Z 29019KT 10SM DRSN SKC M31/M35 A2962 RMK SLP033=

0000015100
809
SACN62 CYDA 102000
METAR CYDA 102000Z 08002KT 20SM FEW040 SCT080 BKN100 BKN210 M24/M26
 A2949 RMK SC1AC3AS2CI1 ACSL ASOCTD SLP031=

0000012700
810
SACN62 CYEV 102000
METAR CYEV 102000Z 26005KT 10SM IC DRSN SCT020 BKN090 M27/M30 A2972
 RMK SC4AS3 SLP074=

0000013300
811
SACN62 CYGL 102000
METAR CYGL 102000Z 23009G15KT 2SM -SN OVC010 M06/M08 A2970 RMK SC8
 VIS VRB 1-3 /S01/ SLP073=

0000010300
812
SPAU32 YBBN 102005
SPECI YMHB 102000Z 14005KT 9999 FEW009 SCT012 BKN250 16/13 Q1014=

00000000