0000011100
793
SACN52 CWAO 110200
METAR CWSA 110200Z AUTO 25013KT 9SM BKN030 BKN085 01/M05 A3044 RMK
SLP310=
0000010300
794
SACN31 CWAO 110200
METAR CYBG 110200Z 14002KT 15SM OVC035 M11/M13 A3013 RMK SC8 SLP220=
0000010100
795
SACN31 CWAO 110200
METAR CYTR 110200Z 12003KT 7SM OVC019 02/M01 A3008 RMK ST8 SLP191=
0000013000
796
SACN48 CWAO 110200
METAR CYMT 110200Z 21008KT 15SM OVC010 M06/M07 A2993 RMK ST6 LAST
OBS/NEXT 121100 UTC SLP166=
0000012800
797
SACN31 CWAO 110200
METAR CYQQ 110200Z 14016G24KT 4SM RA BR BKN014 OVC022 06/05 A2968 RMK
ST6SC2 PRESFR SLP053=
0000015500
798
SACN41 CWAO 110200
METAR CZMT 110200Z 13011G18KT 15SM -RA BKN009 BKN014 OVC020 04/02
A2931 RMK SC4SC2SC2 LAST OBS/NEXT 111500 UTC SLP925=
0000011500
799
SACN49 CWAO 110200
METAR CYCX 110200Z 20003KT 15SM FEW120 M06/M08 A3028 RMK AC1
DA-2735FT SLP258=
0000011500
800
SACN42 CWAO 110200
METAR CYQD 110200Z 17003KT 15SM BKN006 OVC009 M09/M10 A2944 RMK
SF6SC2 SLP989=
0000011500
801
SACN31 CWAO 110200
METAR CYQY 110200Z 23008KT 15SM FEW120 SCT210 M04/M08 A3030 RMK
AC1CI2 SLP267=
0000010300
802
SACN31 CWAO 110200
METAR CYYR 110200Z 25020KT 15SM OVC120 M11/M19 A2983 RMK AC7 SLP108=
0000011800
803
SACN46 CWAO 110200
METAR CYYH 110200Z 18007KT 10SM SCT035 SCT080 M35/M39 A2945 RMK
SC1AC0 IC SLP979=
0000012900
804
SACN41 CWAO 110100 CCA
METAR CYQU 110100Z CCA 26010KT 25SM DRSN FEW120 BKN220 M04/M10 A2954
 RMK AC2CI4 SLP042=
0000021300
805
SACN42 CWAO 110100 RRA
METAR CYEV 110100Z 28009G17KT 10SM IC OVC080 M25/M28 A2973 RMK AC8
 SLP078=
METAR CYXC 110100Z 32002KT 20SM -SN FEW030 BKN080 BKN210 01/M03 A2977
 RMK SC2AC4CI1 SLP118=
0000010700
806
SACN43 CWAO 110100 RRA
METAR CYLL 110100Z 28013KT 15SM FEW250 M06/M08 A2950 RMK CI2 SLP031=
0000034200
807
SACN41 CWAO 110100 RRA
METAR CYCD 110100Z 11008KT 6SM -RA BR SCT008 BKN030 OVC080 06/06
 A2981 RMK SF4SC3AC1 PRESFR SLP096=
METAR CYCG 110100Z 01006KT 15SM FEW018 BKN029 OVC058 03/01 A2990 RMK
 SC1SC5SC2 LAST OBS/NEXT 111400 UTC SLP143=
METAR CYQU 110100Z 26010KT 25SM FEW120 BKN220 M04/M10 A2954 RMK
 AC2CI4 SLP042=
0000018800
808
SACN47 CWAO 110100 RRA
METAR CYTS 110100Z 18009G16KT 15SM -SN OVC014 M02/M04 A2983 RMK SC8
 SLP119=
METAR CYYY 110100Z 22008KT 30SM SCT100 M06/M12 A3015 RMK AC3 SLP213=
0000013500
809
SACN31 CWAO 110100 RRA
METAR CYXX 110100Z 05005KT 10SM -RA OVC025 06/ A2989 RMK SC8 DP 4.8
 WND ESTD VIA CYXC SLP122=
0000012000
810
SACN46 CWAO 110100 RRA
METAR CYQK 110100Z 18009KT 1 1/2SM -SN BR OVC003 M05/M06 A2940 RMK
 SC8 SLP980=
0000010700
811
SACN31 CWAO 110100 RRB
METAR CYUL 110100Z 01004KT 10SM OVC023 M07/M09 A3024 RMK SC8 SLP242=
0000011600
812
SACN43 CWAO 110100 RRB
METAR CYEN 110100Z 30009KT 3/4SM BR DRSN OVC006 M05/M06 A2950 RMK ST2 SLP025=
00000000