0000028700
353
SXHW11 KWAL 110405
B150314C 011040523"
1,140111,03:00:00,2.1,174,4.5,24.9,1014.4,0.00,13.6,
1,140111,03:15:00,2.7,134,5.2,25.1,1014.4,0.00,13.6,
1,140111,03:30:00,2.6,143,6.2,24.1,1014.4,0.00,13.6,
1,140111,03:45:00,2.7,174,3.8,23.1,1014.5,0.00,13.6, 47+0NN 210W
0000013500
354
SNVD02 CWAO 110400
BBXX
SHIP 11044 99121 70689 46/// /0907 10261 20228 40150 53005 7//// 8//// 22200 0//// 2//// =

0000013500
355
SNVD02 CWAO 110400
BBXX
SHIP 11044 99468 70713 46/// /2103 11066 21085 40249 56011 7//// 8//// 22251 00019 2//// =

0000013500
356
SNVD02 CWAO 110400
BBXX
SHIP 11044 99497 70553 46/// /0905 11043 21087 40151 58009 7//// 8//// 22261 00015 2//// =

0000013500
357
SNVD02 CWAO 110400
BBXX
SHIP 11044 99463 70568 46/// /2532 11006 21005 40230 58013 7//// 8//// 22252 0//// 2//// =

0000013500
358
SNVD02 CWAO 110400
BBXX
SHIP 11044 99462 70602 46/// /2503 11014 21003 40249 58012 7//// 8//// 22200 0//// 2//// =

0000013500
359
SNVD02 CWAO 110400
BBXX
SHIP 11044 99449 70625 46/// /2607 10008 20002 40276 57014 7//// 8//// 22200 0//// 2//// =

0000013500
360
SNVD02 CWAO 110400
BBXX
SHIP 11044 99505 71278 46/// /0607 10088 20072 49906 56079 7//// 8//// 22200 0//// 2//// =

0000047100
361
WAIR31 OIII 110935
OIIX AIRMET 9 VALID 110930/111130 OIII-
OIIX TEHRAN FIR AMD AIRMET 8 ISOL CB TOP ABV FL150 OBS OVER SW,W,S,SE
     N,E AND CENTRAL AND TEHRAN AREA OF IRAN STNR INSF
SFC VIS 3000M TO 1000M DUE TO SN/RA BR/FG OBS LOC OVER SW,S,W,NW
    SSE,E,SE AND CENTRAL AND TEHRAN AREA OF IRAN
SFC VIS 5000M TO 2000M DUE TO HZ/BR AND BKN005 CLD OBS LOC OVER N
    OF IRAN
SFC VIS 1000M TO 0200M DUE TO FG SN OBS OVER OINE,OIIP,OIIE,OIII=
0000013900
362
SSVX02 CWAO 110900
ZZYY 64731 11014 0900/ 764291 012940 6113/ 22219 
00072 444 20130 11014 0900/ 50101 80138 80002 9////=
0000040700
363
SXXX32 EUMS 110930
262D700E
:PRS 1 /1 1932 1915 1903 1873 1894 1886 1903 1908 2011 1969 1919 1932 1905 1869 1866 1888 1911 1932 1880 1938 1950 1935 1890 1888 1871 1865 1881 1901 1901 1912 :RAD 1 /3 4359 4365 4355 4340 4347 4357 4344 4333 4341 4340 4327 4327 4333 4324 4322 :ENC 5 /5 4486 4442 4466 4447 4436 4442 4428 4435 4422 4454 4405 4468 :SW1 30 /60 60 :BAT 14 /15 13.5 :NAME 262D700E
0000044900
364
SXXX32 EUMS 110930 RRA
16289262
:PRS 1 /1 2178 2182 2178 2174 2172 2182 2175 2173 2177 2181 2178 2181 2193 2183 2187 2179 2181 2180 2185 2190 2187 2188 2195 2192 2201 2193 2173 2194 2190 2213 :RAD 1 /3 7637 7634 7641 7642 7646 7648 7651 7654 7652 7656 7659 7664 7662 7668 7668 7667 7673 7674 7679 7682 :ENC 5 /5 5006 5008 5009 5016 5017 5034 5031 5031 5031 5041 5038 5044 :SW1 30 /60 0 :SW2 60 /60 0 :BAT 14 /15 13.0 :NAME 16289262
0000045500
365
SXXX32 EUMS 110930 RRB
324DF524
:PRS 1 /1 2799 2805 2811 2818 2824 2830 2837 2843 2850 2856 2863 2869 2875 2881 2887 2893 2899 2906 2912 2917 2924 2931 2938 2944 2951 2958 2964 2971 2978 2984 :RAD 1 /3 2846 2865 2884 2903 2924 2943 2964 2985 3006 3027 3046 3067 3088 3110 3131 3155 3177 3201 3223 3245 :ENC 5 /5 1794 1825 1856 1887 1922 1956 1989 2026 2063 2100 2137 2174 :SW1 30 /60 0 0 :SW2 60 /60 60 60 :BAT 14 /15 12.6 :NAME 324DF524
0000041600
366
SXXX32 EUMS 110931
26CB10AC
:PRS 1 /1 -1337 -1337 -1337 -1337 -1337 -1337 -1337 -1337 -1337 -1337 -1337 -1337 -1337 -1338 -1337 -1337 -1337 -1337 -1337 -1337 -1337 -1337 -1337 -1337 -1337 -1337 -1337 -1337 -1338 -1337 :RAD 3 /3 5767 5761 5760 5760 5758 5757 5751 5749 5752 5752 :RA2 3 /3 5736 5732 5730 5724 5720 5729 5718 5712 5715 5710 :SW1 32 /60 60 :SW2 2 /60 60 :BAT 14 /15 13.0 :NAME 26CB10AC
0000044900
367
SXXX32 EUMS 110931 RRA
1227146C
:PRS 1 /1 3286 3283 3278 3275 3272 3269 3265 3260 3256 3251 3248 3247 3243 3238 3233 3229 3223 3216 3211 3207 3203 3197 3190 3186 3180 3176 3170 3166 3162 3159 :RAD 3 /3 3275 3254 3242 3237 3221 3206 3178 3165 3164 3139 3153 3136 3100 3093 3086 3080 3035 3027 3032 3021 :ENC 1 /5 4025 4003 3986 3961 3933 3909 3887 3863 3845 3827 3806 3785 :SW1 32 /60 0 :SW2 2 /60 60 :BAT 14 /15 13.1 :NAME 1227146C
0000044400
368
SXXX32 EUMS 110933
22856700
:PRS 1 /1 3980 3986 3988 3987 3990 3986 3986 3981 3971 3972 3977 3980 3974 3976 3976 3972 3964 3962 3963 3970 3972 3969 3965 3968 3975 3976 3970 3967 3962 3957 :RAD 1 /3 7486 7483 7478 7477 7474 7469 7471 7470 7466 7459 7456 7452 7445 7439 7434 7428 7422 7416 7408 7402 :ENC 3 /5 5685 5674 5671 5665 5668 5658 5653 5644 5636 5625 5615 5605 :SW1 33 /60 0 :SW2 3 /60 0 :BAT 14 /15 12.9 :NAME 22856700
0000045000
369
SXXX32 EUMS 110933 RRA
32D8A2BE
:PRS 1 /1 1781 1775 1776 1784 1783 1782 1774 1786 1784 1784 1786 1787 1787 1788 1788 1793 1796 1797 1801 1795 1799 1807 1805 1809 1808 1811 1814 1823 1810 1821 :RAD 1 /3 7361 7367 7369 7366 7373 7386 7386 7388 7397 7404 7406 7413 7420 7424 7424 7428 7434 7437 7439 7438 :ENC 3 /5 4789 4793 4799 4808 4821 4831 4838 4848 4851 4855 4860 4862 :SW1 33 /60 59 :SW2 3 /60 60 :BAT 14 /15 13.1 :NAME 32D8A2BE
0000169800
370
SICI36 BABJ 110900
AAXX 11091
56144 31759 60000 10069 21165 36805 57023 70500 86/// 333
00151=
56152 32680 73204 11012 21162 36269 57007 87/// 333 00254=
56167 32780 70000 10084 21184 37026 57015 87/// 333 00253=
56182 32779 33603 10007 21078 37151 57002 83/// 333 00653=
56357 32680 02506 10052 21229 36418 57011 333 00151=
56586 31458 80203 11002 21036 38073 57005 70500 88/// 333
00754=
56748 32574 22205 10185 21013 38357 57015 82/// 333 00101=
56763 32980 02506 10255 21039 40088 57017 333 00251=
56768 32680 02508 10179 21041 38174 57013 333 00100=
56838 32678 02501 10231 20088 40160 57028 333 00100=
56886 32977 02207 10194 21011 38291 57013 333 00200=
56946 32680 12703 10242 20018 40157 57018 81/// 333 00100=
56959 32775 10702 10267 20134 40134 57025 81/// 333 00251=
56969 32580 20402 10228 20154 40144 57021 82/// 333 00153=
57503 41741 80901 10086 20040 40283 54000 76000 88///=
57731 32672 80000 10067 20028 40287 57004 88///=
57766 41457 80402 10038 20032 40298 52001 76066 88///=
57845 41758 80202 10042 20027 40286 57003 76066 88///=
57853 41440 80202 10048 20038 40295 57001 76066 88///=
57916 32674 80000 10100 20046 40249 57010 88///=
57922 32666 83602 10037 20013 40273 57006 88///=
57932 31358 82201 10068 20046 40281 57004 76060 88///=
58338 41450 80201 10048 20042 40293 52005 76066 88///=
59007 32668 80703 10098 20081 40204 57013 88///=
59046 41456 83202 10083 20063 40253 57002 76066 88///=
59058 31857 83206 10083 20064 40247 57001 71000 88///=
59072 32760 80406 10104 20052 40248 54000 88///=
59087 32961 03203 10201 20097 40210 57011=
59209 41357 80202 10114 20097 40210 57007 76066 88///=
0000010700
371
UANT99 KDDL 110936
ARP UAL938 54N020W 0936 F350 MS64 225/71 KT
N651UA DDL XXW 110936 F31A
0000011100
372
UANT99 KDDL 110936
ARP UAL970 5605N02430W 0936 F370 MS62 214/54 KT
N643UA DDL XXW 110936 F25A
00000000