0000069400
813
SSVX07 KARS 110427
ZZYY 25605 11014 0404/ 182526 135950 6113/
11119 49976 52004
22219 01207
444 20130 11014 0400/ 504// 80100 80000=
ZZYY 48733 11014 0410/ 772966 152376 6112/
11119 11255 40069
444 20120 11014 0408/ 504//=
ZZYY 48508 11014 0410/ 772724 159219 6113/
11119 11258 40102
444 20130 11014 0408/ 504//=
ZZYY 48732 11014 0410/ 774503 131117 6111/
11119 11147 49917
444 20110 11014 0408/ 504//=
ZZYY 48507 11014 0410/ 773087 135106 6113/
11119 11307 49987
444 20130 11014 0346/ 504//=
ZZYY 48731 11014 0410/ 774141 154958 6112/
11119 11227 40073
444 20120 11014 0411/ 504//=
ZZYY 48536 11014 0410/ 175232 148564 6112/
11119 11233=
0000032000
814
SSVX08 KARS 110427
ZZYY 48400 10014 12004 750144 144847 6111/
11119 01126 10064 29092
22219 00091
33311 88872 20000 30912 20001 30906 43226
444 20110 10014 1218/ 521// 60401=
ZZYY 48400 11014 04004 750111 144824 6111/
11119 03439 10065 29083
22219 00090
444 20110 11014 0415/ 521// 60401=
0000011000
815
UANT01 CWAO 110428
ARP ACA848 4850N05138W 0428 F350 MS65 294/57 KT
CGFAH DDL YYT 110428 J15A
0000011000
816
UANT01 CWAO 110428
ARP DLH475 5411N03841W 0428 F370 MS56 262/31 KT
DAIKQ QXT AME 110428 J98A
0000015600
817
SNVB21 RJTD 110400
BBXX
A8PF5   11044 99080 11177
41697 40218 10310 20242 40120 51020 70200 8/16/
22223 21005 304// 41004 5//// 80260=
0000016300
818
SSVX13 LFPW 110400
ZZYY 13593 11014 0400/ 738172 018501 6113/ 22219 00169 33300 88872
 20000 43624 444 20130 11014 0332/ 50101 80118 80029 9/015=
0000068900
819
UDAF02 EGRR 110430 RRA
AMDAR 1023
LVR EU1795   0816N 01606E 102300 F360 MS457 198/033 TB0 S031=
LVR EU1795   0915N 01550E 102307 F360 MS452 208/040 TB0 S031=
LVR EU1795   1015N 01534E 102314 F360 MS450 215/052 TB0 S031=
LVR EU1795   1114N 01518E 102321 F360 MS455 226/053 TB0 S031=
LVR EU1795   1213N 01501E 102328 F360 MS450 227/048 TB0 S031=
LVR EU1795   1311N 01444E 102335 F360 MS452 231/049 TB0 S031=
LVR EU1795   1408N 01426E 102342 F360 MS452 230/050 TB0 S031=
LVR EU1795   1506N 01408E 102349 F360 MS457 240/054 TB0 S031=
LVR EU1795   1602N 01350E 102356 F360 MS467 250/045 TB0 S031=
LVR EU1795   1657N 01333E 110003 F360 MS467 246/034 TB0 S031=
0000059000
820
FTSD22 OEJD 110500
TAF OEJN 110430Z 1106/1212 33012KT 9999 SCT040 SCT100=
TAF OEMA 110430Z 1106/1212 03008KT 9999 FEW045 SCT100=
TAF OERK 110430Z 1106/1212 22014KT 7000 SCT040 BKN100 TEMPO 1106/1115
                 5000 TSRA/BLDU FEW035CB BKN040 OVC100=
TAF OEDF 110300Z 1106/1212 22014KT 5000 BR BKN080 TEMPO 1106/1114 RA
PROB30 TEMPO 1106/1109 2000 TSRA FEW030CB BECMG 1117/1120 33015G25KT BLDU
SCT030=
TAF OEDR 110300Z 1106/1212 22014KT 5000 BR BKN080 TEMPO 1106/1114 RA
PROB30 TEMPO 1106/1109 2000 TSRA FEW030CB BECMG 1117/1120 33015G25KT BLDU
SCT030=
0000008500
821
FTSD40 OEJD 110500
TAF OETF 110430Z 1106/1124 26008G18KT 9999 SCT030=
0000013400
822
SNVE21 AMMC 110400 RRA
BBXX
VNAH 11044 99383 31416 46/// /2009 10194 20115 30190 40214 57004
22200 04175 85147=

0000027100
823
SNVX22 EGRR 110400
BBXX
ZCEI3 11044 99226 70710 41498 21018 10254 20214 40215 52011 70200
82100 22274 04262 20302 309// 41005 80226=
MCCW7 11043 99319 31156 41998 01313 10330 20155 40133 57020 70200
80000 22200 00209 20101 322// 40302 5//// 80220=
0000017800
824
UAAK04 KAWN 110400 RRA
ANN UA /OV ANN117083/TM 0414/FL370/TP B737/TA M65/WV 181125KT/TB
 LGT 370/RM OCNL MODT FROM PAWG-CYPR FL370-FL410. ASA118
 AWC-WEB/ASA=
0000215900
825
SZNZ01 NZKL 110430
CREX++
T000103 A001 D01021 D06025++
-3683144 17478654 AUCT  2014 01 11 04 22 //// 11 07 00 01
05980 3193 05974 3191 05969 3189 05963 3187 05960 3187 05956 3187+
-4402404 -17636748 CHIT  2014 01 11 04 22 //// 11 07 00 01
04862 2064 04855 2061 04837 2047 04802 2016 04801 2020 04796 2018+
-4089929 17623168 CPIT  2014 01 11 04 22 //// 11 07 00 01
03936 2256 03938 2264 03923 2254 03907 2242 03908 2248 03901 2247+
-3618905 17548887 GBIT  2014 01 11 04 22 //// 11 07 00 01
06330 0042 06317 0033 06324 0042 06338 0060 06333 0058 06321 0050+
-3867541 17802288 GIST  2014 01 11 04 22 //// 11 07 00 01
04209 2695 04210 2701 04183 2679 04191 2691 04168 2673 04202 2712+
-4241288 17370277 KAIT  2014 01 11 04 22 //// 11 07 00 01
03206 2156 03220 2175 03208 2168 03203 2168 03200 2171 03205 2181+
-3755040 17815904 LOTT  2014 01 11 04 22 //// 11 07 00 01
03886 0215 03887 0221 03890 0227 03877 0218 03883 0229 03869 0218+
-3704657 17451175 MNKT  2014 01 11 04 22 //// 11 07 00 01
03020 -0150 03033 -0143 03043 -0138 03046 -0142 03046 -0147 03056 -0143+
-3947566 17692007 NAPT  2014 01 11 04 22 //// 11 07 00 01
03091 1948 03109 1972 03117 1984 03105 1978 03117 1995 03097 1981+
-3441483 17304870 NCPT  2014 01 11 04 22 //// 11 07 00 01
02317 -2682 02186 -2812 02247 -2750 02212 -2784 02262 -2733 02364 -2629+
-4581435 17062939 OTAT  2014 01 11 04 22 //// 11 07 00 01
04157 3447 04153 3449 04148 3450 04149 3456 04147 3459 04135 3453+
-2928002 -17789440 RBCT  2014 01 11 04 22 //// 11 07 00 01
06415 2049 06423 2059 06402 2041 06413 2055 06406 2050 06396 2042+
-2925114 -17790384 RFRT  2014 01 11 04 22 //// 11 07 00 01
03348 0227 03344 0225 03350 0234 03319 0205 03315 0204 03311 0203+
-4357010 17277383 SUMT  2014 01 11 04 22 //// 11 07 00 01
01859 1891 01869 1907 01842 1887 01830 1882 01827 1886 01821 1887+
-3764109 17618118 TAUT  2014 01 11 04 22 //// 11 07 00 01
05607 4003 05601 4000 05602 4004 05597 4002 05597 4005 05592 4003+
-4128448 17477985 WLGT  2014 01 11 04 22 //// 11 07 00 01
03093 2030 03094 2036 03079 2025 03077 2027 03072 2026 03065 2024++
7777
0000046200
826
SNVD15 KWNB 110400 RRL
BBXX
44064 11041 99370 70760 46/// /1607 10122 40211 90420 333 91208
555 11077 22084=
44062 11041 99386 70764 46/// /3502 10026 40216 90420 333 91202
555 11018 22020=
44063 11041 99390 70764 46/// /3301 10019 40202 90420 333 91201
555 11012 22013=
44041 11041 99372 70768 46/// /0902 10077 90420 333 91202 555
11018 22020=
44042 11041 99380 70763 46/// /1505 10064 40203 90420 333 91205
555 11053 22058=
0000021300
827
SNVD20 KWNB 110400 RRQ
BBXX
44059 11041 99368 70763 46/// /1604 10135 40202 90420 333 91205
555 11045 22049=
44058 11041 99376 70763 46/// /2001 10065 40213 90420 333 91202
555 11014 22015=
0000012800
828
SNVF51 EGRR 110400
BBXX
62163 11044 99475 70084 46/// /0310 10102 20060 40173 53015 22200
00121 10905 70026=
0000012800
829
SNVF51 EGRR 110400
BBXX
64045 11044 99591 70117 46/// /2719 10046 20011 40041 53019 22200
00096 10808 70042=
0000006100
830
AAUK99 EGRR 110430
Socket stay alive message.
0000011400
831
SNUK42 EGRR 110400 RRA
AAXX 11044
03010 46/// /2719 10059 20018 40025 52011
  333 90710 91135=
0000011800
832
SNAU44 AMMC 110400 CCB
AAXX 11044
94658 15/// /2017 10236 20138 30167 40201 58011 60001 90430=


00000000