0000059600
493
FTUS52 KWBC 110303 AAA
TAF AMD
KCPS 110301Z 1103/1124 20011KT 4SM BR OVC007
      TEMPO 1103/1105 3SM -SHRA
     FM110700 25011KT 5SM BR OVC012
     FM111600 27012G20KT P6SM SCT020 BKN250=
KMCB 110301Z 1103/1124 15008KT 3/4SM BR OVC002
     FM110500 23010KT 5SM -RA BR OVC005
      TEMPO 1105/1109 2SM TSRA OVC003CB
     FM111000 23010KT 5SM BR OVC005
     FM111500 30008KT P6SM SCT250
     FM111800 30012G20KT P6SM SKC=
KTCL 110301Z 1103/1124 13007KT 2SM -RA BR OVC005
      TEMPO 1110/1114 2SM -TSRA BR OVC007CB
     FM111500 26013G19KT P6SM BKN100=

0000138800
494
FTUS80 KWBC 110303 AAB
TAF AMD
KCLE 110300Z 1103/1206 18010G20KT P6SM -RA SCT006 OVC040
      TEMPO 1103/1106 4SM -RA BR OVC006
     FM110600 18010G20KT 6SM -RA BR OVC006
     FM111800 22010G20KT 4SM -RA BR OVC007
     FM112000 24010G20KT 4SM -RA BR OVC015
     FM120300 24010G20KT 5SM -RASN OVC015=
KCOS 110301Z 1103/1124 02008KT P6SM FEW140 SCT200
     FM111000 35008KT P6SM FEW200
     FM111900 17008KT P6SM FEW200=
KCPS 110301Z 1103/1124 20011KT 4SM BR OVC007
      TEMPO 1103/1105 3SM -SHRA
     FM110700 25011KT 5SM BR OVC012
     FM111600 27012G20KT P6SM SCT020 BKN250=
KCRW 110259Z 1103/1124 14006KT P6SM OVC045
     FM110800 17010G16KT P6SM BKN035
     FM111000 17011G17KT 6SM -RA OVC025
     FM111200 17011G17KT 4SM SHRA OVC025
     FM111500 19013G19KT 3SM SHRA OVC015
     FM111700 22011G16KT 3SM SHRA OVC008
     FM111900 24011G16KT 5SM SHRA OVC010
     FM112100 24013G17KT 6SM SHRA OVC015=
KDAL 110301Z 1103/1124 32008KT P6SM SKC=
KDFW 110301Z 1103/1206 32008KT P6SM SKC=
KEKN 110301Z 1103/1124 15005KT P6SM OVC035
     FM110500 18011G17KT P6SM OVC035
     FM111000 18011G17KT P6SM OVC030
     FM111200 18013G19KT 4SM SHRA OVC030
     FM111700 21013G19KT 3SM SHRA OVC010
     FM111800 23011G16KT 3SM SHRA OVC003
     FM112000 24012G19KT 3SM SHRA OVC015=
KFTW 110301Z 1103/1124 32008KT P6SM SKC=

0000124900
495
FTUS80 KWBC 110303 AAA
TAF AMD
KACT 110301Z 1103/1124 21007KT P6SM SKC
     FM110600 31006KT P6SM SKC=
KAGC 110259Z 1103/1124 12005KT P6SM BKN080
     FM110600 13006KT P6SM OVC050 WS020/22045KT
     FM111100 18010KT 4SM -RA OVC009 WS020/22050KT
     FM112200 23012G24KT P6SM BKN015 OVC025=
KAXN 110301Z 1103/1124 23007KT 3SM BR SCT002
      TEMPO 1103/1106 1/4SM FZFG VV002
     FM110600 27006KT P6SM SCT200
     FM110800 31010KT P6SM SCT025 BKN040
     FM111800 29009KT P6SM SCT040 SCT250=
KBKW 110302Z 1103/1124 15009KT P6SM OVC006
     FM111100 17015G22KT 4SM SHRA OVC006
     FM111600 22012G18KT 3SM SHRA OVC010
     FM111900 25011G16KT 3SM SHRA OVC010
     FM112100 26012G19KT 3SM SHRA OVC020
     FM112300 27013G20KT P6SM OVC015=
KBTR 110302Z 1103/1124 15008KT 5SM -RA BR OVC003
      TEMPO 1103/1107 2SM TSRA OVC006CB
     FM110800 23012KT 2SM RA OVC004
     FM111500 30009KT P6SM SCT250=
KCKB 110301Z 1103/1124 11004KT P6SM OVC040
     FM110600 18008KT P6SM BKN035
     FM111100 17010G15KT 6SM SHRA OVC035
     FM111500 18012G19KT 3SM SHRA OVC015
     FM111700 20011G17KT 3SM SHRA OVC008
     FM112000 23012G18KT 3SM SHRA OVC015
     FM112300 25014G20KT P6SM OVC015=

0000148200
496
FTUS80 KWBC 110303 AAC
TAF AMD
KHLG 110301Z 1103/1124 12005KT P6SM BKN040
     FM110500 13006KT P6SM OVC050 WS020/22045KT
     FM110900 18010KT 4SM -RA OVC009 WS020/22050KT
     FM111900 23012G24KT P6SM BKN015 OVC025=
KHTS 110300Z 1103/1124 10006KT P6SM BKN035
     FM110600 18010G15KT P6SM OVC025
     FM110800 17011G16KT 5SM -RA OVC020
     FM111000 23012G18KT 3SM SHRA OVC008
     FM111600 23012G19KT 3SM SHRA OVC015
     FM112000 25014G20KT 6SM BR OVC020
     FM112300 26013G19KT P6SM BKN020=
KMCB 110301Z 1103/1124 15008KT 3/4SM BR OVC002
     FM110500 23010KT 5SM -RA BR OVC005
      TEMPO 1105/1109 2SM TSRA OVC003CB
     FM111000 23010KT 5SM BR OVC005
     FM111500 30008KT P6SM SCT250
     FM111800 30012G20KT P6SM SKC=
KMGW 110302Z 1103/1124 12005KT P6SM BKN080
     FM110600 13007KT P6SM OVC050 WS020/22045KT
     FM111300 18010KT 4SM -RA OVC009 WS020/22050KT
     FM112300 23012G24KT P6SM BKN015 OVC025=
KMOB 110300Z 1103/1124 12005KT 2SM -SHRA BR OVC003
      TEMPO 1103/1105 1/4SM FG VV002
     FM110500 16012KT 4SM SHRA BR OVC005
      TEMPO 1106/1109 3SM -TSRA BKN005CB
     FM111500 27012KT 5SM BR OVC007
     FM111900 30012KT P6SM SCT015=
KPKB 110301Z 1103/1124 12005KT P6SM OVC035
     FM110800 17010G15KT P6SM OVC025
     FM111100 18012G18KT 3SM SHRA OVC008
     FM111500 21012G18KT 3SM SHRA OVC010
     FM112000 24013G19KT 6SM SHRA OVC015
     FM112100 24013G20KT P6SM OVC015=

0000149000
497
FTUS80 KWBC 110303 AAD
TAF AMD
KSFO 110301Z 1103/1206 29008KT P6SM FEW006 SCT200
     FM110500 27004KT P6SM OVC010
     FM111700 23012KT P6SM BKN100
     FM112100 26008KT P6SM VCSH OVC030
     FM112300 29003KT P6SM BKN060=
KSTC 110301Z 1103/1124 19005KT 2SM BR SCT002 BKN012
      TEMPO 1103/1106 1/4SM FZFG VV002
     FM110600 24005KT 6SM BR SCT012
     FM110800 30009KT P6SM SCT200
     FM111200 31010KT P6SM SCT025 BKN040
     FM111800 30009KT P6SM SCT040 SCT250=
KSTJ 110302Z 1103/1124 32007KT P6SM FEW011 OVC040
     FM110400 27006KT 4SM BR OVC015
     FM110800 26010KT P6SM SCT150=
KSTL 110259Z 1103/1206 20013KT 4SM BR OVC007
      TEMPO 1103/1105 3SM -SHRA
     FM110700 25012KT 5SM BR OVC012
     FM111600 27012G20KT P6SM SCT020 BKN250=
KSUS 110300Z 1103/1124 21011KT 4SM BR OVC007
      TEMPO 1103/1105 3SM -SHRA
     FM110700 25011KT 5SM BR OVC012
     FM111600 27012G20KT P6SM SCT020 BKN250=
KTCL 110301Z 1103/1124 13007KT 2SM -RA BR OVC005
      TEMPO 1110/1114 2SM -TSRA BR OVC007CB
     FM111500 26013G19KT P6SM BKN100=
PABE 110300Z 1103/1124 02011KT P6SM FEW006 BKN050
     FM111300 03018KT P6SM FEW050 SCT150=
PAYA 110301Z 1103/1124 08004KT 2SM -SHSN BR BKN003 OVC020
      TEMPO 1103/1106 1/4SM FG OVC002
     FM110900 VRB04KT P6SM BCFG VCSH FEW003 OVC025
     FM111500 00000KT P6SM VCSH FEW010 BKN050
     FM112100 08003KT P6SM FEW010 OVC035 AMD LTD TO CLD VIS AND
      WIND 1101/1110=

0000018600
498
FTUS80 KWBC 110303 CCA
TAF COR
KTCL 110301Z 1103/1124 13007KT 2SM -RA BR OVC005
      TEMPO 1110/1114 2SM -TSRA BR OVC005CB
     FM111500 26013G19KT P6SM BKN100=

0000011900
499
SACN62 CYYG 110300
METAR CYYG 110300Z 22004KT 15SM FEW015 BKN200 M04/M05 A3026 RMK
 NS2CI3 SLP251=

0000011500
500
SACN62 CYXL 110300
METAR CYXL 110300Z 17006KT 2SM -SN BR OVC005 M07/M07 A2942 RMK ST8
 SLP989=

0000015200
501
SACN62 CYYJ 110300
METAR CYYJ 110300Z 12015G21KT 4SM -RA BR FEW004 FEW008 BKN013 OVC018
 08/07 A2972 RMK SF1SC2SC4SC2 SF TR SLP065=

0000013900
502
SACN62 CYYB 110300
METAR CYYB 110300Z 13009KT 3SM -SN BR OVC004 M02/M03 A2988 RMK SF8
 VIS LWR NE PCPN VRY LGT SLP141=

0000010600
503
SACN62 CYXJ 110300
METAR CYXJ 110300Z 22011KT 15SM BKN210 M04/M10 A2945 RMK CI7 SLP023=

0000010600
504
SACN62 CYYE 110300
METAR CYYE 110300Z 32005KT 15SM BKN080 M17/M20 A2953 RMK AC6 SLP037=

0000008400
505
SAAG41 SAZS 110300
METAR SAZS 110300Z  27004KT CAVOK 13/05 Q1021=

0000012900
506
SPLT31 EYVI 110304
SPECI EYVI 110304Z 28013KT 4000 SNRA BR BKN006 OVC013 01/M00 Q1001
     R20/2/0195 NOSIG=

0000012100
507
SAUK37 EGGY 110250 RRA
METAR EGPI 110250Z AUTO 25009KT 220V290 9999 FEW044/// 03/01 Q1009
     RERA=

0000010800
508
SAUK38 EGGY 110250 RRA
METAR EGPU 110250Z AUTO 25013KT 220V280 9999 NCD 04/01 Q1008 RERA=

0000004200
509
SASP36 LEMM 110300
NIL=

0000004200
510
SASP37 LEMM 110300
NIL=

0000023300
511
SASP40 LEMM 110300
METAR LEGA 110300Z NIL=
METAR LEGT 110300Z NIL=
METAR LEMO 110300Z VRB02KT CAVOK 09/08 Q1015
NOSIG=
METAR LERI 110300Z NIL=
METAR COR LERT 110300Z 13010KT 9999 SCT058 14/11 Q1015 NOSIG=

0000020600
512
SASP41 LEMM 110300
METAR LEAO 110300Z NIL=
METAR LEBT 110300Z NIL=
METAR LECV 110300Z NIL=
METAR LEEC 110300Z NIL=
METAR LELO 110300Z 00000KT 0500 R29/1100U FG OVC002 04/04 Q1018=

00000000