0000011000
713
UANT99 KDDL 110509
ARP UAL23 5309N02837W 0509 F370 MS55 214/51 KT
N17126 DDL IG1 110509 F80A
0000011000
714
UANT99 KDDL 110509
ARP DAL98 5501N02015W 0509 F360 MS58 236/68 KT
N833MH QXT AOE 110509 F72A
0000011100
715
UANT99 KDDL 110509
ARP AWE734 4901N03955W 0509 F380 MS54 295/32 KT
N286AY DDL XXN 110509 J32A
0000011100
716
UANT99 KDDL 110509
ARP AWE716 4936N02459W 0509 F380 MS58 207/65 KT
N274AY DDL XXN 110509 J35A
0000011000
717
UANT99 KDDL 110509
ARP AFR007 4749N03623W 0509 F380 MS51 229/29 KT
FHPJD QXT AOW 110509 J77A
0000011000
718
UANT99 KDDL 110509
ARP BAW244 4442N01325W 0509 F380 MS62 275/52 KT
GYMMD QXS VGO 110509 F78A
0000011500
719
SACN62 CYQK 102000
METAR CYQK 102000Z 17010KT 1SM -SN BR OVC005 M06/M07 A2942 RMK ST8
 SLP989=

0000012800
720
SACN62 CYQL 102000
METAR CYQL 102000Z 25023KT 40SM FEW050 SCT140 BKN270 03/M04 A2948 RMK
 SC1AC2CI3 SLP009=

0000011900
721
SACN62 CYSJ 102000
METAR CYSJ 102000Z 22007KT 15SM BKN020 OVC035 M02/M06 A3034 RMK
 SC5SC3 SLP282=

0000013400
722
SACN62 CYQB 102000
METAR CYQB 102000Z 24008KT 8SM -SHSN SCT022 BKN036 BKN080 M09/M12
 A3029 RMK SC3SC2AC2 SLP263=

0000013300
723
SACN62 CYSB 102000
METAR CYSB 102000Z 17010KT 1/8SM R22/1100FT/N -FZDZ FZFG VV001
 M04/M04 A2999 RMK FG8 SLP177=

0000169400
724
SAUS72 KWBC 102000 RRB
METAR
KLIT 101953Z 13005KT 1 3/4SM RA BR OVC005 09/08 A2982=
KLRD 101956Z 31007KT 10SM CLR 23/14 A2987=
KLRU 101955Z AUTO 27014G21KT 10SM CLR 14/M10 A3000=
KMAF 101953Z 28023G29KT 10SM CLR 19/M04 A2980=
KMCN 101953Z 05004KT 2SM BR OVC004 11/10 A3013=
KMCO 101953Z 20006KT 10SM FEW025 BKN047 BKN250 26/18 A3009=
KMEI 101958Z 17004KT 10SM OVC008 13/11 A3001=
KMEM 101954Z 17006KT 10SM FEW060 BKN100 OVC250 13/09 A2991=
KMFE 101953Z 19007G16KT 10SM CLR 27/15 A2982=
KMGM 101953Z 08005KT 10SM OVC004 11/11 A3007=
KMIA 101953Z 13014G19KT 10SM SCT021 BKN220 26/21 A3008=
KMKL 101953Z 16008G14KT 10SM BKN012 BKN110 11/07 A2992=
KMLB 101953Z 13006KT 10SM SCT020 24/20 A3009=
KMLC 101953Z AUTO 19007KT 10SM BKN110 14/12 A2963=
KMLU 101953Z 17008G16KT 10SM OVC014 16/13 A2988=
KMOB 101956Z 12005KT 4SM BR OVC014 15/14 A3002=
KMSL 101953Z AUTO 16012KT 10SM OVC014 13/08 A3001=
KMSY 101953Z 13010KT 4SM HZ SCT007 BKN045 18/15 A2997=
KNEW 101953Z 11009KT 6SM BR OVC040 14/12 A2999=
KNGP 101956Z 17013KT 10SM FEW031 BKN047 22/19 A2982=
KOKC 101952Z 29016KT 10SM CLR SCT250 14/04 A2963=
KPBI 101953Z 14013KT 10SM SCT020 BKN050 OVC250 26/21 A3008=
KPDK 101953Z 08005KT 1 1/2SM BR OVC003 08/07 A3012=
KPFN NIL=
KPIE 101953Z 18008KT 140V200 10SM FEW035 27/19 A3006=
KPNS 101953Z 00000KT 10SM OVC004 17/14 A3002=
KROW 101951Z 30009KT 10SM CLR 18/M11 A2982=
KRSW 101953Z 13008KT 10SM CLR 27/19 A3006=
KSAT 101951Z 25010KT 10SM BKN027 BKN041 OVC250 22/15 A2983=
KSFB 101953Z 15007KT 10SM SCT033 BKN070 26/19 A3008=
KSHV 101956Z 18017G23KT 10SM SCT014 18/14 A2979=
KSJT 101951Z 23017G21KT 10SM CLR 22/06 A2978=

0000015100
725
SACN62 CYUX 102000
METAR CYUX 102000Z 32014KT 6SM IC DRSN FEW008 SCT140 BKN220 M30/M33
 A2922 RMK SF1AS3CS4 SF TR WND ESTD SLP895=

0000122800
726
SAUS72 KWBC 102000 RRC
METAR
KSRQ 101953Z 23005KT 10SM FEW030 25/19 A3005=
KSSI 101953Z AUTO 13008KT 10SM OVC005 18/17 A3012=
KTCC 101953Z AUTO 30007KT 10SM CLR 15/M13 A2971=
KTCL 101953Z 10004KT 10SM BKN010 OVC030 12/09 A3003=
KTCS 101953Z AUTO 29006G15KT 10SM CLR 15/M09 A2994=
KTLH 101953Z 14006KT 3/4SM DZ BR OVC003 20/18 A3007=
KTPA 101953Z 21005KT 10SM FEW035 SCT150 SCT250 25/19 A3007=
KTRI 101953Z 05003KT 10SM OVC050 13/08 A3010=
KTUL 101953Z 19006KT 10SM SCT017 BKN180 13/10 A2957=
KTUP 101953Z AUTO 20009KT 8SM OVC003 10/ A3000=
KTXK 101953Z 00000KT 3SM BR OVC014 14/13 A2977=
KTYR 101953Z 19010KT 5SM -RA BR OVC018 17/16 A2977=
KTYS 101953Z 04003KT 10SM FEW040 BKN055 OVC250 11/07 A3009=
KVCT 101951Z 20009KT 10SM BKN015 OVC023 22/19 A2984=
KVLD 101953Z 17004KT 10SM SCT015 OVC024 23/19 A3008=
KVRB 101953Z 11007KT 10SM SCT035 BKN050 BKN060 25/22 A3008=
TIST 101953Z AUTO 09012G17KT 10SM FEW028 SCT070 27/21 A3003=
TISX 101953Z 06014G23KT 8SM -RA SCT025 26/20 A3002=
TJBQ 101950Z 08011G24KT 10SM SCT020 SCT060 31/ A3005=
TJMZ NIL=
TJPS NIL=
TJSJ 101956Z 07015KT 10SM SCT035 28/21 A3004=
TKPK 102000Z 07015KT 9999 FEW016 SCT044 26/21 Q1016=
TNCM NIL=

0000171300
727
SAUS73 KWBC 102000
METAR
KABR 101953Z AUTO 22004KT 10SM FEW100 00/M04 A2951=
KALN NIL=
KALO 101954Z AUTO 12006KT 2 1/2SM UP BR OVC004 00/M01 A2960=
KAPN 101954Z AUTO 17010KT 7SM FEW013 OVC047 M01/M04 A2995=
KASE 101953Z 03005KT 1 1/2SM -SN BR BKN015 BKN026 OVC039 M07/M09
     A2986=
KATY 101953Z AUTO 20006KT 5SM BR BKN085 M02/M03 A2949=
KAXN 101953Z AUTO 17011KT 1/4SM FZFG VV002 M03/M03 A2951=
KAZO 101953Z 16008KT 1SM BR OVC002 02/01 A2991=
KBDE 101953Z AUTO 18009G18KT 3SM BR OVC006 M04/M06 A2947=
KBFF 101953Z AUTO 30012G21KT 10SM CLR 06/M09 A2962=
KBIS 101952Z 28012KT 10SM CLR 02/M06 A2948=
KBJC NIL=
KBKF 101955Z 32020G24KT 70SM FEW070 FEW110 SCT220 04/M11 A2967=
KBRL 101953Z AUTO 16009KT 1 1/2SM RA BR OVC004 02/02 A2964=
KBTL 101953Z 16009KT 2 1/2SM BR OVC004 02/01 A2992=
KCGI 101953Z 16011KT 9SM SCT015 BKN055 OVC090 07/06 A2987=
KCID 101952Z 12009KT 1SM BR OVC002 01/00 A2958=
KCIU 101955Z AUTO 15008KT 4SM OVC006 M02/M02 A2989=
KCMI 101953Z 16020KT 1 1/4SM RA BR OVC004 03/03 A2980=
KCMX 101953Z AUTO 20005KT 9SM CLR M02/M06 A2969=
KCOS 101954Z 31028G35KT 10SM SCT090 SCT180 06/M16 A2966=
KCOU 101954Z 17017KT 8SM -RA BKN004 OVC050 06/06 A2963=
KCPR 101953Z 23010KT 10SM SCT090 M01/M09 A2967=
KCYS 101953Z 30025G38KT 10SM CLR 01/M12 A2961=
KDDC 101952Z AUTO 30030G38KT 10SM CLR 09/M08 A2961=
KDEC 101954Z 17015G25KT 4SM -RA BR OVC005 04/04 A2978=
KDEN 101953Z 29021G26KT 10SM FEW070 SCT110 SCT220 04/M10 A2965=
KDET 101953Z 17009KT 5SM BR OVC007 03/01 A3003=
KDLH 101955Z 18007KT 3/4SM R09/5000VP6000FT -SN BR OVC002 M04/M06
     A2957=
KDSM 101954Z 00000KT 3/4SM R31/5000VP6000FT -DZ BR OVC002 01/00
     A2956=

0000166900
728
SAUS73 KWBC 102000 RRA
METAR
KDTW 101953Z 12006KT 4SM BR OVC008 03/01 A3001=
KEAU NIL=
KEGE 101950Z 26011G15KT 10SM VCSH SCT050 OVC060 M02/M07 A2990=
KELO 101953Z AUTO 18008KT 5SM BR OVC009 M06/M07 A2955=
KEVV 101954Z 16006KT 7SM -RA OVC010 08/06 A2994=
KFAR 101953Z 19010KT 6SM HZ CLR M02/M04 A2948=
KFNT 101953Z 17009KT 4SM BR OVC006 02/00 A2998=
KFSD 101956Z 23006KT 2 1/2SM BR OVC007 00/M02 A2952=
KFWA 101954Z 15008KT 3SM BR OVC027 03/01 A2995=
KGCK 101954Z 32024G33KT 10SM BKN035 07/M06 A2963=
KGFK NIL=
KGJT 101953Z 00000KT 10SM OVC075 M02/M06 A2999=
KGRB 101953Z 15008KT 3SM BR OVC008 M01/M02 A2980=
KGRI 101953Z 25010KT 7SM SCT012 OVC060 02/M01 A2952=
KGRR 101953Z 15010KT 7SM OVC006 02/00 A2990=
KGYY NIL=
KHIB 101953Z AUTO 18006KT 2 1/2SM BR OVC005 M04/M06 A2954=
KHON 101955Z AUTO 32004KT 10SM CLR 02/M03 A2952=
KHUF 101953Z 16010KT 7SM SCT016 OVC030 05/03 A2988=
KHUT 101952Z 31012KT 10SM SCT019 BKN025 06/01 A2957=
KICT 101953Z 30015KT 10SM BKN019 BKN200 06/02 A2958=
KIKK 101955Z AUTO 15009KT 1 1/4SM RA OVC005 02/02 A2980=
KIND 101954Z 13010KT 5SM BR BKN028 BKN041 OVC170 03/03 A2991=
KINL 101955Z AUTO VRB05KT 3SM BR OVC006 M06/M07 A2951=
KIRK 101955Z AUTO 13008KT 5SM BR OVC003 02/02 A2957=
KJAC NIL=
KJLN 101953Z 20015KT 10SM OVC014 12/10 A2958=
KJMS 101956Z AUTO 28012KT 10SM CLR 01/M04 A2943=
KJXN 101956Z 17010KT 1 1/2SM BR OVC003 02/01 A2995=
KLAN 101953Z 15008KT 4SM BR OVC006 02/00 A2994=
KLAR 101953Z AUTO 29033G40KT 1 3/4SM BLSN SCT110 M04/M09 A2965=
KLBF 101953Z AUTO 32017G26KT 10SM OVC038 05/M02 A2957=
KLBL 101955Z AUTO 31019G25KT 10SM CLR 10/M09 A2968=

0000164600
729
SAUS73 KWBC 102000 RRB
METAR
KLEX 101954Z 16010KT 10SM FEW012 FEW120 12/08 A3002=
KLNK 101954Z 19003KT 4SM BR BKN008 OVC015 01/00 A2956=
KLOU 101953Z 14007KT 10SM OVC015 11/08 A2999=
KLOZ 101953Z AUTO VRB06KT 10SM OVC022 14/09 A3004=
KLSE 101953Z 12005KT 4SM BR OVC009 00/M02 A2968=
KMBS 101953Z 16009KT 8SM OVC009 02/M01 A2996=
KMCI 101953Z 21010KT 2SM OVC004 06/M01 A2953=
KMDW 101951Z 15004KT 1 1/2SM BR OVC005 03/02 A2980=
KMHK 101952Z 26007KT 10SM OVC007 04/03 A2955=
KMKC 101954Z 20006KT 10SM OVC006 06/04 A2954=
KMKE 101952Z 16011KT 3/4SM R01L/4500V5500FT BR OVC002 00/00
     A2980=
KMKG 101955Z 13009KT 2SM BR OVC007 01/M01 A2988=
KMLI 101952Z 15010KT 9SM OVC006 02/00 A2965=
KMOT NIL=
KMSN 101953Z 14010KT 2SM BR OVC003 00/M01 A2973=
KMSP 101953Z 16008KT 5SM BR OVC008 M01/M03 A2961=
KOFF 101958Z 17005KT 1SM BR OVC003 01/01 A2955=
KOMA 101952Z 18005KT 2SM -SN BR OVC005 01/00 A2957=
KORD 101951Z 17007KT 2SM BR OVC005 02/M01 A2979=
KOSH 101953Z 14009KT 2SM BR OVC008 M01/M03 A2977=
KOTM 101953Z AUTO 15012KT 3SM BR OVC003 01/01 A2957=
KOWB 101956Z 16010KT 7SM OVC008 08/08 A2994=
KPAH 101953Z 15007KT 7SM BKN010 OVC085 09/07 A2990=
KPIA 101954Z 18013KT 5SM -RA BR OVC005 03/02 A2970=
KPIR 101953Z AUTO 28009KT 10SM CLR 02/M04 A2955=
KPLN 101954Z AUTO 12007KT 5SM HZ OVC011 M02/M04 A2989=
KPTK 101953Z 16006KT 1 3/4SM BR OVC004 01/01 A2998=
KPUB 101953Z AUTO 30021G42KT 6SM HZ 09/M16 A2968=
KRAP 101952Z 01005KT 10SM CLR 06/M09 A2955=
KRFD 101954Z 15011KT 1 1/2SM -RA BR OVC004 01/00 A2975=
KRKS 101954Z AUTO 29028G34KT 10SM SCT026 BKN032 M01/M06 A2984=

0000103400
730
SAUS73 KWBC 102000 RRC
METAR
KRST 101954Z 14010KT 3/4SM R31/4500V5000FT BR OVC003 M01/M02
     A2961=
KSAW NIL=
KSBN 101954Z 14010KT 1SM BR OVC006 02/01 A2987=
KSDF 101956Z 17010KT 10SM OVC015 12/08 A2997=
KSDM 101953Z 27005KT 10SM CLR 21/05 A3008=
KSGF 101952Z 15015KT 10SM SCT008 BKN075 OVC085 08/07 A2961=
KSLN 101953Z 29008KT 9SM FEW017 SCT022 OVC027 03/01 A2957=
KSPI 101952Z 17017G24KT 4SM RA OVC004 04/ A2974=
KSTC 101953Z 18008KT 2SM BR OVC005 M03/M04 A2957=
KSTJ 101953Z 26005KT 5SM BR OVC005 02/02 A2955=
KSTL 101951Z 17015KT 3SM -RA BR BKN007 BKN013 OVC018 07/05
     A2975=
KSTP 101953Z 15010KT 5SM BR OVC006 M01/M03 A2963=
KSUS 101954Z 19009G17KT 5SM -RA BR BKN011 OVC070 07/06 A2972=
KSUX 101952Z 14005KT 3/4SM R31/3000V5000FT BR OVC002 00/M01
     A2954=
KTVC 101953Z 16005KT 6SM HZ OVC009 01/M02 A2987=
KUIN 101954Z AUTO 17008KT 4SM -RA BR OVC005 03/03 A2965=
KWRL 101953Z AUTO 00000KT 10SM CLR M03/M08 A2969=
KYIP 101953Z 15009KT 3SM HZ OVC006 04/01 A3000=

0000166600
731
SAUS74 KWBC 102000
METAR
KACV 101953Z AUTO 26005KT 3SM R32/4500VP6000FT BR OVC001 10/09
     A3027=
KALW 101953Z 22011KT 10SM CLR 10/01 A3003=
KBFI 101953Z 19007KT 10SM BKN019 BKN085 OVC110 09/06 A3006=
KBFL 101954Z 24005KT 8SM CLR 14/06 A3024=
KBIL 101953Z 28022G28KT 10SM SCT070 SCT220 05/M04 A2958=
KBKE 101953Z AUTO 09006KT 10SM SCT060 OVC080 04/M01 A3006=
KBLI 101953Z 18009G18KT 10SM BKN034 BKN110 08/04 A3001=
KBOI 101953Z 31009KT 10SM OVC065 06/M01 A3010=
KBTM 101953Z AUTO 25010KT 10SM FEW055 OVC070 02/M06 A2972=
KBUR 101953Z 00000KT 9SM CLR 22/03 A3007=
KBYI NIL=
KBZN 101956Z 27015KT 10SM CLR 04/M07 A2972=
KCDC 101953Z AUTO 00000KT 10SM CLR 08/M06 A3010=
KCEC 101956Z AUTO 17009KT 1SM BR OVC003 10/09 A3028=
KCLM 101953Z AUTO 14005KT 10SM OVC016 08/05 A3002=
KCTB 101956Z AUTO 26020G30KT 10SM CLR 04/M04 A2951=
KCXL NIL=
KEKO 101956Z AUTO 23017KT 10SM CLR 07/M02 A3014=
KEUG 101954Z 18006KT 6SM BR OVC070 11/09 A3019=
KFAT 101953Z 12003KT 4SM HZ BKN200 14/06 A3027=
KFLG 101957Z 25009KT 10SM CLR 09/M07 A3010=
KGCN 101954Z 29010G18KT 10SM CLR 08/M06 A3011=
KGEG 101953Z 23021G28KT 10SM FEW020 SCT075 BKN200 04/M01 A2986=
KGGW 101953Z AUTO 26005KT 10SM CLR M02/M07 A2947=
KGTF 101953Z 26020G28KT 10SM BKN080 05/M04 A2957=
KHLN 101953Z 25008G18KT 220V290 10SM FEW060 SCT100 05/M05
     A2968=
KHQM 101953Z AUTO 19007KT 2 1/2SM UP FEW011 BKN039 OVC055
     A3008=
KIDA 101953Z 21017KT 10SM BKN016 01/M02 A2991=
KIWA NIL=
KLAS 101956Z 09004KT 10SM SCT250 13/M06 A3007=
KLAX 101953Z 24004KT 6SM HZ FEW160 SCT250 18/09 A3009=
KLGB 101953Z 31005KT 4SM HZ CLR 19/08 A3008=

0000170300
732
SAUS74 KWBC 102000 RRA
METAR
KLMT 101953Z 00000KT 10SM OVC039 07/M04 A3021=
KLVM 101953Z AUTO 25026G34KT 10SM FEW120 05/M07 A2961=
KMFR 101953Z 00000KT 4SM BR OVC004 06/04 A3025=
KMLS 101953Z AUTO 25015KT 10SM OVC090 02/M03 A2952=
KMRY 101954Z 30004KT 10SM CLR 14/07 A3025=
KMSO 101953Z 09004KT 7SM -SN BKN047 OVC060 02/M01 A2984=
KMYV 101953Z AUTO 31005KT 10SM CLR 13/06 A3028=
KNTD 101954Z 16012KT 7SM SCT220 19/12 A3008=
KOAK 101953Z 20005KT 7SM FEW001 SCT007 BKN250 12/09 A3028=
KOGD 101953Z 23010KT 10SM FEW065 OVC110 04/M03 A3003=
KOLM 101954Z 20009KT 6SM BR SCT008 BKN028 OVC110 08/07 A3010=
KONT 101953Z 22005KT 5SM HZ FU SCT250 19/07 A3007=
KOTH 101955Z 21003KT 2 1/2SM SCT014 BKN019 OVC026 12/11 A3022=
KPAE 101953Z 19011KT 10SM OVC014 08/05 A3004=
KPDX 101953Z 21008KT 9SM FEW020 SCT060 BKN085 11/07 A3015=
KPHX 101951Z 00000KT 10SM FEW250 17/M03 A3006=
KPIH 101953Z 24023G27KT 10SM SCT027 03/M02 A2997=
KPMD 101953Z 33008KT 10SM CLR 18/01 A3014=
KPRB 101953Z AUTO 33003KT 10SM CLR 16/04 A3022=
KPRC 101953Z 33005KT 10SM CLR 12/M07 A3011=
KPSP 101953Z VRB03KT 10SM CLR 22/M05 A3006=
KRBL 101954Z AUTO 01005KT 10SM CLR 14/04 A3027=
KRDD 101953Z VRB03KT 10SM CLR 14/04 A3026=
KRDM 101956Z 25009KT 10SM OVC046 08/00 A3009=
KRNO 101955Z VRB03KT 10SM FEW075 SCT150 BKN180 OVC250 10/M01
     A3027=
KRNT 101953Z 16011G17KT 10SM OVC019 09/06 A3007=
KSAC 101953Z 34004KT 10SM CLR 13/06 A3028=
KSAN 101951Z 30008KT 8SM SCT250 18/08 A3010=
KSBA 101953Z 13010KT 8SM CLR 18/12 A3007=
KSBD 101951Z 24006KT 10SM FEW100 20/M01 A3007=
KSBP 101956Z 31013G20KT 10SM CLR 23/03 A3015=
KSCK 101955Z 32007KT 10SM CLR 13/07 A3026=

00000000