0000010300
833
SAHA31 KWBC 101800 RRA
METAR
MTPP 101800Z 09016KT 9999 FEW028 32/XX Q1015/7 A2999=

0000116700
834
SAPR41 KWBC 101800
METAR
SPCL 101800Z 01007KT 9999 SCT020 BKN070 28/24 Q1011 RMK BIRD
     HAZARD RWY 02/20 PP000=
SPEC NIL=
SPEI NIL=
SPEO NIL=
SPGM 101800Z /////KT 2000 BR SCT010 OVC080 23/21 Q1014 RMK
     PP000=
SPHI 101800Z 19009KT 150V220 9999 FEW040 29/21 Q1010 RMK PP000=
SPHO 101800Z 04005KT 9999 FEW046TCU BKN110 22/12 Q1020 RMK
     PP000=
SPHY 101800Z 28005KT 9000 SCT012 SCT040 15/11 Q1031 RMK PP000=
SPHY 101800Z NIL=
SPJA NIL=
SPJI 101800Z 00000KT 9999 BKN030 31/24 Q1017 RMK PP000=
SPJL 101800Z 14010KT 9999 SCT015 SCT100 17/06 Q1034 RMK SH QUAD N
     PP000=
SPJN NIL=
SPJR 101800Z 15007KT 9999 FEW023 BKN040 20/11 Q1025 RMK PP000=
SPME 101800Z 32009KTKT 9999 FEW020 29/22 Q1009 RMK BIRD HAZARD RWY
     32/14 PP000=
SPMS 101800Z /////KT 9999 SCT015 BKN080 29/24 Q1011 RMK BIRD
     HAZARD 09/27 PP000=
SPNC NIL=
SPPY NIL=
SPRU 101800Z 16010KT 9000 BKN015 24/19 Q1010 RMK HZ PP000=
SPST 101800Z 35010KT 9999 SCT020 BKN080 32/23 Q1008 RMK BIRD
     HAZARD RWY 17/35 PP000=
SPTU 101800Z 35005KT 9999 SCT008 BKN040 29/25 Q1009 RMK BIRD
     HAZARD RWY 01/19 PP000=
SPUR NIL=

0000037400
835
SASA31 KWBC 101800 RRA
METAR
SKBQ 101800Z 03008KT 9999 FEW020 32/23 A2981=
SKCG 101800Z 36006KT 9999 FEW020 31/23 A2981=
SKCL 101800Z 00000KT 9000 SCT010 BKN090 25/19 A2994 RMK HZ=
SKLT 101800Z VRB02KT 9999 FEW012CB BKN015 30/26 A2982 RMK CB/N=
SKRG 101800Z 18004KT 9999 SCT020 SCT070 21/12 A3022=
SKSP 101800Z 08011KT 9999 FEW018 28/23 A2991=

0000028100
836
SASA41 KWBC 101800 RRA
METAR
SKBG 101800Z 32007KT 9999 SCT017 24/17 A2994=
SKMD 101800Z 19004KT 9999 SCT025 SCT080 25/15 A3000=
SKPE 101800Z 25004KT 9999 SCT015TCU SCT080 23/18 A3007 RMK
     TCU/NE/E/SE/W=
SKSM 101800Z 27004KT 9999 FEW020 32/22 A2977=

0000010700
837
SAVN42 KWBC 101800 RRA
METAR
SVSO 101800Z NIL=
SVSP 101800Z NIL=
SVVL 101800Z NIL=

0000064800
838
SABZ42 KWBC 101800 RRC
METAR
SBJR 101800Z 14008KT 9999 FEW030 35/24 Q1011=
SBME 101800Z 10012KT 9999 FEW030 29/23 Q1012=
SBMT 101800Z 14003KT 9999 BKN045 33/15 Q1014=
SBPC 101800Z 05004KT 9999 SCT020 31/18 Q1019=
SBSC 101800Z 06006KT 9999 FEW035TCU FEW035 34/18 Q1011=
SBSM 101800Z 14015KT 9999 TS VCSH BKN030 FEW040CB 26/22 Q1008=
SBST 101800Z 18006KT 9999 SCT025 32/25 Q1011=
SBTU 101800Z 07005KT 9999 SCT020 FEW023TCU BKN070 29/23 Q1011=
SBUR 101800Z 33006KT 9999 VCTS BKN040 FEW050CB 29/15 Q1014=
SBVH 101800Z 08013KT 9999 -TSRA BKN020 FEW025CB 27/23 Q1011=
SBYS 101800Z 35006KT 9999 SCT048 33/16 Q1013=

0000073800
839
SABZ41 KWBC 101800 RRB
METAR
SBAA 101800Z 04004KT 9999 SCT025 BKN100 ///// Q////=
SBAF 101800Z 14005KT 9999 SCT025 35/20 Q1011=
SBBH 101800Z 11005KT 9999 SCT030 30/17 Q1015=
SBBI 101800Z 02006KT 9999 BKN030 FEW035TCU 32/14 Q1016=
SBBU 101800Z 02006KT 9999 SCT030 25/21 Q1013=
SBCO 101800Z 19011KT 9999 FEW045TCU SCT100 28/// Q1009=
SBDN 101800Z 02005KT 9999 SCT045 FEW055TCU 35/13 Q1011=
SBGW 101800Z 08004KT 9999 TS SCT025 FEW030CB 31/16 Q1013=
SBHT 101800Z 07006KT 9999 BKN020 BKN100 28/23 Q1009=
SBIH 101800Z 10007KT 9999 SCT023 29/24 Q1008=
SBIL 101800Z 06004KT 9999 VCSH SCT018 SCT030TCU BKN090 25/23 Q1
     013=
SBIL 101800Z 06004KT 9999 VCSH SCT018 SCT030TCU BKN090 25/23
     Q1013=

0000108300
840
SABZ43 KWBC 101800 RRA
METAR
SBAN 101800Z 11008KT 5000 TSRA BKN035 FEW040CB 23/17 Q1016=
SBAT 101800Z 19005KT 9999 SCT022 SCT100 34/22 Q1010=
SBBQ 101800Z 06007KT 9999 SCT020 27/17 Q1019=
SBBW 101800Z 33008KT 9999 TS VCSH SCT020 FEW025CB 28/18 Q1011=
SBCC 101800Z 36005KT 9999 SCT020 FEW025TCU SCT100 27/19 Q1011=
SBES 101800Z 07017KT 9999 FEW030 31/21 Q1013=
SBIZ 101800Z 09005KT 9999 FEW020 BKN090 31/22 Q1009=
SBJF 101800Z 06005KT 9999 BKN020 28/17 Q1017=
SBKG 101800Z 11013KT 9999 SCT040 30/17 Q1012=
SBLB 101800Z 10010KT CAVOK 28/21 Q1015 W///S2=
SBLP 101800Z 36008KT 9999 SCT030 32/19 Q1011=
SBMK 101800Z 12010KT 9999 SCT045 31/12 Q1014=
SBMS 101800Z 03014KT 9000 -RA BKN025 28/25 Q1008=
SBPJ 101800Z 36005KT 9999 TS SCT025 FEW027CB SCT100 26/19
     Q1011=
SBPN 101800Z 33007KT FEW025 FEW027TCU BKN080 21/20 Q1009=
SBQV 101800Z 13007KT 9999 SCT020 BKN070 26/19 Q1017=
SBTK 101800Z 11003KT 9999 BKN025 30/24 Q1011=
SBUF 101800Z 03004KT 9999 FEW022 34/18 Q1010=
SBUL 101800Z 08007KT 9999 TS FEW030 FEW040CB 28/15 Q1015=

0000010500
841
SABZ24 SBFL 110100
METAR SBFL 110100Z 36006KT 9999 TS FEW011 SCT030
FEW035CB 26/24 Q1012

0000010500
842
SABZ24 SBCT 110100
METAR SBCT 110100Z 10005KT 9999 TS FEW010 FEW025CB
SCT050 20/18 Q1018

0000012400
843
SACA33 KWBC 101800 RRC
METAR
TFFR 101805Z 06014KT 030V090 9999 SCT030 SCT047 27/21 Q1015 NOS
     IG=

0000010100
844
SPUS31 KWBC 101813
SPECI
KEWR 101809Z 00000KT 3SM BR BKN009 OVC030 01/M01 A3039=

0000010400
845
SPUS41 KWBC 101813
SPECI
KGSO 101809Z 04006KT 3SM -DZ BR BKN004 OVC010 02/01 A3025=

0000010800
846
SPUS41 KWBC 101813
SPECI
KRIC 101809Z 05004KT 2 1/2SM -RA BR BKN004 OVC034 03/02 A3034=

0000009000
847
SPUS42 KWBC 101813
SPECI
KNEW 101809Z 10006KT 7SM OVC005 14/12 A3005=

0000011500
848
SPCN52 CWAO 101813
SPECI CWFD 101813Z AUTO 21015KT 3/8SM CLR M22/ A2877 RMK VSBY VRBL
0.2V2.6=

0000025900
849
FTKO31 RKSI 101700 RRA
TAF RKTU 101700Z 1018/1124 24006KT 4800 BR SCT030 
?BECMG 1018/1019 1600 -SN BR BKN030 
?BECMG 1023/1024 27006KT 4800 BR SCT030 BKN200 
?VIS 9999 NSW AFT 1101= 
TAF RKTN 101700Z 1018/1124 30006KT 9999 SCT050= 

0000011000
850
SACA32 KWBC 101800 RRC
METAR
TKPN 101800Z 09020KT 9999 VCSH FEW015TCU SCT048 26/23 Q1016=

0000010800
851
SPUS31 KWBC 101817
SPECI
KLGA 101813Z 07004KT 4SM BR FEW007 BKN010 OVC032 00/M02 A3039=

0000010400
852
SPUS41 KWBC 101817
SPECI
KBDR 101813Z 00000KT 1 1/4SM BR SCT016 OVC041 01/00 A3040=

00000000