0000008900
113
SATU35 LTAA 101820
METAR LCEN 101820Z 27008KT CAVOK 10/05 Q1021 NOSIG=

0000011300
114
SPUS41 KWBC 101829
SPECI
KBDL 101825Z 00000KT 3SM -SN BR FEW009 BKN015 OVC030 M02/M04 A3038=

0000010200
115
SAHW31 KWBC 101800 RRB
METAR
PHLI 101825Z 04014KT 10SM SCT021 BKN026 24/19 A3004=

0000025000
116
FTUS42 KWBC 101830 AAA
TAF AMD
KSSI 101829Z 1018/1118 13010KT 5SM BR VCSH BKN005 OVC010
     FM110200 14005KT 3SM BR BKN005 OVC010
     FM110600 15005KT 1SM BR BKN003 OVC006
     FM111400 19010G15KT P6SM VCSH BKN010 OVC020=

0000036400
117
FTUS71 KWBC 101830 AAA
TAF AMD
KRDG 101829Z 1018/1118 VRB04KT 5SM BR BKN008 BKN025
      TEMPO 1018/1021 3SM BR SCT008 BKN025
     FM102100 VRB04KT 3SM BR SCT008 BKN015
     FM110200 13004KT 1SM BR BKN007 OVC015
     FM110600 16005KT 2SM -RA BR BKN004 OVC010 WS020/20050KT
     FM111500 18010KT 1SM RA BR BKN003 OVC010 WS020/21050KT=

0000025000
118
FTUS72 KWBC 101830 AAA
TAF AMD
KSSI 101829Z 1018/1118 13010KT 5SM BR VCSH BKN005 OVC010
     FM110200 14005KT 3SM BR BKN005 OVC010
     FM110600 15005KT 1SM BR BKN003 OVC006
     FM111400 19010G15KT P6SM VCSH BKN010 OVC020=

0000050500
119
SAGR32 LGAT 101820
METAR LGAL 101820Z 36007KT 9999 FEW008 SCT020 09/07 Q1019=
METAR LGEL 101820Z 00000KT CAVOK 10/08 Q1018=
METAR LGIO 101820Z 00000KT 9999 FEW030 BKN170 05/05 Q1021=
METAR LGKV 101820Z NIL=
METAR LGMT 101820Z VRB02KT CAVOK 10/08 Q1019=
METAR LGPZ 101820Z AUTO VRB01KT //// // ////// 11/09 Q1022
     RE//=
METAR LGRX 101820Z NIL=
METAR LGSK 101820Z NIL=
METAR LGSR 101820Z AUTO 25008KT //// // ////// 16/10 Q1020
     RE//=
METAR LGZA 101820Z NIL=

0000009500
120
SAPA31 KWBC 101700 RRG
METAR
PLCH 101700Z 11014KT 9999 FEW020 26/22 Q1009=

0000009300
121
SAUK37 EGGY 101820 RRB
METAR EGPN 101820Z 12002KT 9999 FEW048 05/05 Q1004=

0000010800
122
SARM31 LUKK 101830
METAR LUKK 101830Z 31006KT 9999 OVC049 07/02 Q1012
R26/CLRD65 NOSIG=

0000011700
123
SACG20 FCBB 101830
METAR FCBB 101830Z 09003KT 040V140 8000 FEW020 FEW030CB 25/22 Q1013
TEMPO TS=

0000039200
124
SAGR33 LGAT 101820
METAR LGBL 101820Z NIL=
METAR LGHI 101820Z NIL=
METAR LGKC 101820Z NIL=
METAR LGKF 101820Z NIL=
METAR LGKP 101820Z NIL=
METAR LGKZ 101820Z AUTO VRB02KT //// // ////// 09/M01 Q1018
     RE//=
METAR LGMK 101820Z NIL=
METAR LGNX 101820Z NIL=
METAR LGPA 101820Z AUTO 16008KT //// // ////// 15/12 Q1019
     RE//=
METAR LGSO 101820Z NIL=

0000009700
125
SPAU32 AMMC 101830
SPECI YCIN 101827Z AUTO 29004KT //// // BKN013 27/25 Q1007=

0000009700
126
SPAU32 YBBN 101829
SPECI YCIN 101827Z AUTO 29004KT //// // BKN013 27/25 Q1007=

0000012300
127
SPAU32 YBBN 101830
SPECI YAMB 101830Z AUTO 00000KT 0500 // ////// 17/17 Q1018
RMK CLD:SKY MAY BE OBSC=

0000020800
128
SAAF11 LFPW 101800 RRB
METAR FKKD 101800Z VRB02KT 8000 FEW016 BKN300 28/25 Q1009 NOSIG=
METAR FKKN 101800Z 00000KT CAVOK 20/06 Q1017=
METAR FKKR 101800Z 00000KT CAVOK 26/03 Q1011 NOSIG=

0000015400
129
SAAF13 LFPW 101800 RRC
METAR GBYD 101800Z 32009KT CAVOK 23/16 Q1010=
METAR GVAC 101800Z 04011KT 9999 SCT014 BKN200 22/14 Q1014 NOSIG=

0000177200
130
SPUS70 KWBC 101832
SPECI
KAKH 101828Z AUTO 02006KT 2 1/2SM BR OVC004 06/05 A3022 RMK AO2
     RAB00E11 P0000=
KBFI 101828Z 18011G21KT 10SM BKN020 BKN090 OVC120 10/05 A3010 RMK
     AO2 RAB08E18 P0000=
KCKB 101828Z 21003KT 10SM BKN010 OVC022 10/07 A3019 RMK AO2 $=
KFCI 101829Z AUTO 00000KT 3SM BKN004 OVC020 03/M02 A3034 RMK AO1
     P0003=
KMKE 101828Z 16012KT 3/4SM R01L/4000VP6000FT BR OVC003 00/M01
     A2986 RMK AO2 SFC VIS 1 1/4 PRESFR T00001006=
KROG 101828Z 17011KT 10SM RA SCT009 BKN020 OVC060 10/09 A2973 RMK
     AO2 P0003=
KCRS 101828Z AUTO 20010KT 4SM -RA BR BKN008 OVC012 17/16 A2982 RMK
     AO2 RAE1754B10 CIG 005V010 P0003 T01720161=
KIJD 101828Z AUTO 00000KT 3SM UP BR SCT006 SCT019 OVC028 M02/M04
     A3040 RMK AO2 P0001 I1000 T10221039=
KLWM 101828Z 20003KT 1/2SM SN OVC012 M01/M04 A3040 RMK AO2 P0001
     T10111039=
KRST 101828Z 17010KT 1SM R31/4500V6000FT BR OVC003 M01/M03 A2967
     RMK AO2 TWR VIS 1 1/4 FZRAB14E22 PRESFR P0000 I1001
     T10111028=
KARR 101829Z 14011KT 1SM BR OVC003 01/00 A2984 RMK AO2
     T00110000=
KBAZ 101829Z 22010KT 10SM BKN006 BKN014 OVC032 19/18 A2986 RMK AO2
     RAE16 P0000=
KDNL 101829Z AUTO 01009KT 2 1/2SM RA BR FEW003 SCT011 OVC019 08/07
     A3016 RMK AO2 VIS 1 1/2V5 P0005 T00830072 TSNO=
KEVV 101829Z 14008KT 6SM -RA BR BKN009 OVC039 08/06 A2998 RMK AO2
     RAB28 P0000 T00830061 $=
KLVJ 101829Z AUTO 18009KT 9SM SCT019 BKN024 OVC040 21/16 A2992 RMK
     AO2 T02110161=
KPWK 101829Z 15007KT 1 1/4SM BR OVC006 01/00 A2986 RMK AO2 PRESFR
     P0001=
KWST 101829Z AUTO 00000KT 1 1/2SM -RA BR FEW010 OVC021 01/00 A3041
     RMK AO2 UPE02RAB02 P0000 T00060000=
PAEN 101829Z 00000KT 1/2SM FZFG VV002 M04/M04 A2943 RMK AO2=

0000010000
131
SPUS41 KWBC 101832
SPECI
KGSO 101828Z 04007KT 1 1/2SM RA BR OVC004 02/01 A3025=

0000009700
132
SPUS41 KWBC 101832
SPECI
KLWM 101828Z 20003KT 1/2SM SN OVC012 M01/M04 A3040=

00000000