0000012600
593
SAEQ01 SEQU 102300 RRA
METAR SEGU 102300Z 21006KT 9999 FEW020 SCT030 OVC090 28/22 Q1007 RMK 
A2975 NOSIG=

0000012200
594
SACN61 CYKF 102300
METAR CYKF 102300Z AUTO 15007KT 1/4SM -RA FG VV002 01/01 A3002 RMK
 PRESFR SLP181=

0000012800
595
SACN61 CYLW 102300
METAR CYLW 102300Z AUTO 00000KT 9SM BKN046 BKN060 OVC075 02/00 A2987
 RMK PRESRR SLP131=

0000011300
596
SACN61 CYMM 102300
METAR CYMM 102300Z AUTO 29004KT 5SM -SN OVC014 M12/M14 A2949 RMK
 SLP018=

0000012000
597
SACN61 CYMO 102300
METAR CYMO 102300Z AUTO 19007KT 5SM -SN BKN021 OVC029 M02/M03 A2978
 RMK SLP084=

0000011900
598
SACN62 CYIO 102300
METAR CYIO 102300Z 17008KT 1 1/2SM -SN OVC024 M22/M24 A2917 RMK
 SN2SC6 SLP887=

0000019700
599
SAMX31 KWBC 102245 RRF
METAR
MMGL 102244Z 28012KT 10SM SCT030TCU BKN080 22/01 A3007 RMK
     8/230=
MMMY 102255Z 08007KT 8SM SCT160 SCT250 24/14 A2985 RMK 8/072
     HZY=

0000039200
600
SAHU41 LHBM 102300
METAR LHKE 102245Z 23001MPS CAVOK 01/M00 Q1022 NOSIG RMK BLU=
METAR LHPA 102245Z 00000MPS 8000 BKN043 00/M00 Q1021 NOSIG RMK BLU=
METAR LHPP 102245Z 09004KT 9999 BKN040 05/04 Q1022=
METAR LHPR 102245Z 24006KT CAVOK 03/M00 Q1021=
METAR LHSN 102245Z 24004MPS CAVOK 03/M01 Q1021 NOSIG RMK BLU=
METAR LHUD 102245Z 00000KT 6000 FEW200 M00/M01 Q1022=

0000021500
601
FTAY31 RUMS 102200
TAF UDYZ 102230Z 1100/1124 VRB02MPS 2000 BR BKN010 TEMPO 1100/1106
0800 SN FZFG OVC003=
TAF UDSG 102242Z 1100/1124 VRB01MPS 1000 BR FEW010 TEMPO 1100/1109
0200 FZFG VV001=

0000008900
602
SAVN31 SVVA 102300
METAR SVVA 102300Z 36007KT 9999 FEW016 27/17 Q1012=

0000079700
603
SACH10 SCSC 102300
METAR SCFA 102300Z 18010KT 9999 BKN022 21/17 Q1010 NOSIG=
METAR SCAR 102300Z 23005KT CAVOK 23/18 Q1011=
METAR SCBA 102300Z AUTO 30025G35KT CAVOK 12/03 Q1016=
METAR SCCF 102300Z 26020KT CAVOK 21/07 Q1022=
METAR SCIE 102300Z 23012KT CAVOK 21/10 Q1015=
METAR SCAT 102300Z 23011KT 9999 SCT015 19/14 Q1012=
METAR SCDA 102300Z 20012KT CAVOK 24/17 Q1010=
METAR SCSE 102300Z 29007KT CAVOK 18/14 Q1011=
METAR SCJO 102300Z NIL=
METAR SCTE 102300Z 16012KT 9999 FEW045 16/05 Q1022 NOSIG=
METAR SCNT 102300Z NIL=
METAR SCCI 102300Z 24014KT 9999 SCT030 OVC066 09/03 Q1010 NOSIG=
METAR SCEL 102300Z 21016KT CAVOK 27/03 Q1012 NOSIG=
METAR SCIP 102300Z 11009KT 9999 SCT020 25/18 Q1019 NOSIG=
METAR SCPQ 102300Z AUTO 14010KT 9999 OVC044 13/07 Q1023=

0000009500
604
SAVN22 SVMI 102300
METAR SVMI 102300Z 07004KT 9999 SCT016 27/21 Q1013 NOSIG=

0000010600
605
SACN62 CYOW 102300
METAR CYOW 102300Z 07006KT 10SM OVC010 M06/M08 A3019 RMK SC8 SLP232=

0000011200
606
SACN61 CYQA 102300
METAR CYQA 102300Z AUTO 16008KT 3SM BR OVC005 M01/M01 A3004 RMK
 SLP191=

0000011400
607
SACN61 CYPR 102300
METAR CYPR 102300Z AUTO 08005KT 9SM FEW140 04/01 A2959 RMK PRESFR
 SLP022=

0000012700
608
SACI44 ZSJN 102300
METAR ZSJN 102300Z VRB01MPS 1400 R19/1300N BR NSC M07/M09 Q1033
BECMG
TL0030 1700 BR=

0000010700
609
SACN62 CYQI 102300
METAR CYQI 102300Z 23010G16KT 10SM OVC007 01/01 A3039 RMK SF8 SLP292=

0000008300
610
SAAG41 SAME 102300
METAR SAME 102300Z 14004KT CAVOK 30/06 Q1010=

0000010000
611
SAAG41 SAVC 102300
METAR SAVC 102300Z  05009KT 9999  FEW030 SCT200
19/01 Q1012=

0000036400
612
SANK31 MNMG 102300
METAR 
MNPC  102300Z 08008KT 7000 BKN016 28/23 Q1010 HZ 76?=
MNRS  102300Z  07006KT 9999 FEW020 29/20 Q1008=
MNJG   102300Z  00000KT 9999 BKN018 19/16 Q1011=
MNJU   102300Z 09006KT 9999 FEW020TCU 29/22 Q1011 TCU NE=
MNCH  102300Z 09008KT 9999 FEW025 33/16 Q1008=
MNBL   102300Z 09004KT 9999 BKN017 28/23 Q1011 78?=

00000000