0000091200
953
FTUS51 KWBC 101733
TAF
KDAY 101730Z 1018/1118 17007KT 3SM BR OVC004
      TEMPO 1018/1021 1SM BR OVC002
     FM102100 15010KT 3SM BR OVC006
     FM110000 15012KT 4SM BR VCSH OVC011
     FM110500 17015G23KT 4SM -RA BR OVC007
     FM111200 22015G25KT P6SM VCSH OVC013
     FM111500 24016G26KT P6SM OVC018=
KFAY 101731Z 1018/1118 03004KT 4SM -RA BR SCT025 OVC050
     FM102300 06004KT 5SM -RADZ BR BKN005 OVC009
     FM110400 VRB05KT 1SM -DZ BR OVC003
     FM110700 18010KT P6SM OVC008
     FM111300 19013G24KT P6SM BKN009 OVC020
     FM111700 20017G28KT 5SM -SHRA BR BKN012 OVC025=
KRWI 101731Z 1018/1118 03004KT 4SM -RA BR SCT025 OVC050
     FM102300 06004KT 5SM -RADZ BR BKN005 OVC009
     FM110400 VRB05KT 1SM -DZ BR OVC003
     FM110700 18010KT P6SM OVC008
     FM111300 19013G24KT P6SM BKN009 OVC020
     FM111700 20017G28KT 5SM -SHRA BR BKN012 OVC025=

0000064100
954
FTUS53 KWBC 101733 RRA
TAF
KRST 101730Z 1018/1118 17011KT 2SM BR OVC003
      TEMPO 1018/1022 1SM -FZDZ BR
     FM102200 17008KT 2SM -SN BR OVC002
      TEMPO 1022/1023 2SM -FZDZ BR
     FM110500 27007KT 4SM -SN BR OVC004
     FM110900 30011KT 5SM BR SCT008 BKN150=
KRWF 101732Z 1018/1118 18013KT 2SM BR OVC005
     FM102100 20007KT 4SM BR SCT006 OVC014
     FM110300 28008KT P6SM SCT250
     FM111300 30010KT P6SM SCT020 BKN040=
KTOP 101731Z 1018/1118 14007KT 2SM BR OVC007
     FM102100 25007KT 4SM BR OVC012
     FM110400 28005KT 2SM -SN BR BKN007
     FM110800 28006KT 6SM BR SCT007 BKN100=

0000100600
955
FTUS52 KWBC 101733
TAF
KDAB 101728Z 1018/1118 10007KT P6SM SCT015
      TEMPO 1018/1020 BKN015
     FM110000 12004KT P6SM OVC120
     FM110800 17004KT 5SM BR OVC005
     FM111400 19010G15KT P6SM SCT015 BKN150=
KDRT 101729Z 1018/1118 29008KT 6SM BR OVC015
     FM101900 30008KT P6SM SCT020 BKN100 BKN250
     FM102000 32008KT P6SM SCT250
     FM110100 34005KT P6SM SKC=
KHRL 101732Z 1018/1118 19022G30KT P6SM OVC040
     FM110100 18008KT P6SM BKN040
     FM110600 VRB03KT 5SM BR FEW020
     FM110900 VRB03KT 1/2SM FG SCT005
      TEMPO 1110/1113 1/4SM FG VV001
     FM111400 32010KT P6SM FEW030=
KMLB 101728Z 1018/1118 13008KT P6SM VCSH SCT025 SCT050 BKN200
     FM110000 14006KT P6SM OVC120
     FM110800 16005KT 5SM BR BKN010
     FM111400 19010G15KT P6SM SCT015 BKN150=
KVRB 101728Z 1018/1118 13008KT P6SM VCSH SCT025 BKN050
     FM110000 14006KT P6SM OVC120
     FM110800 16005KT 5SM BR BKN010
     FM111400 18010G15KT P6SM SCT015 BKN150=

0000083000
956
FTUS54 KWBC 101733
TAF
KABR 101732Z 1018/1118 22009KT P6SM SKC
     FM101900 25008KT P6SM SCT200
     FM102200 28008KT P6SM SCT200
     FM110500 31010KT P6SM SCT200=
KATY 101732Z 1018/1118 21010KT P6SM SCT007
      TEMPO 1018/1019 4SM BR
     FM101900 24009KT P6SM SCT200
     FM102200 27007KT P6SM SCT200
     FM110500 31010KT P6SM SCT200=
KBTM 101731Z 1018/1118 30005KT P6SM VCSH BKN090
     FM110200 30005KT P6SM BKN090=
KPIR 101732Z 1018/1118 27005KT P6SM SKC
     FM101900 30008KT P6SM SCT200
     FM111500 29014G17KT P6SM SKC=
KSDY 101730Z 1018/1118 24012KT P6SM SCT100 SCT200 WS010/27035KT
     FM102100 27012KT P6SM SCT200 WS010/28035KT
     FM110300 28011KT P6SM SCT100 BKN200 WS015/29040KT
     FM111700 19008KT P6SM VCSH BKN040 AMD LTD TO CLD VIS AND
      WIND=

0000131000
957
FTUS53 KWBC 101733
TAF
KAXN 101732Z 1018/1118 17012KT 1SM BR OVC002
     FM101900 18009KT 2SM BR BKN006 OVC015
     FM102100 20006KT 5SM BR SCT012 BKN100
     FM110300 27006KT P6SM SCT200
     FM111000 31010KT P6SM SCT025 BKN040
     FM111600 30010KT P6SM SCT250=
KBJI 101731Z 1018/1118 17010KT 2SM -SN BR OVC004
      TEMPO 1018/1019 1SM -SN BR OVC002
     FM102000 17009KT 5SM BR OVC008
     FM102200 22008KT P6SM OVC015
     FM110600 27009KT P6SM OVC007=
KEAU 101732Z 1018/1118 16009KT 3SM BR OVC006
     FM110000 15003KT 3SM -SN BR OVC004
      TEMPO 1101/1104 1SM -SN
     FM110600 25004KT 4SM -SN BR OVC006
     FM110800 29007KT 6SM BR BKN007 OVC012
     FM111100 30008KT P6SM SCT012=
KFOE 101731Z 1018/1118 15009KT 2SM BR OVC005
     FM102100 26008KT 4SM BR OVC010
     FM110400 29007KT 2SM -SN BR BKN005
     FM110800 29009KT 6SM BR SCT007 BKN100=
KLSE 101730Z 1018/1118 15006KT 5SM BR OVC008
      TEMPO 1018/1022 5SM -FZDZ BR OVC010
     FM102200 VRB03KT 2SM -SN BR OVC010
     FM110700 28005KT 6SM -SN BR OVC008
     FM111100 29007KT 6SM BR SCT010 BKN150=
KMHK 101731Z 1018/1118 24006KT 3SM BR OVC006
     FM102000 27005KT 6SM BR OVC015
     FM110300 29007KT 2SM -SN BR BKN007
     FM110700 27005KT 6SM BR SCT007 BKN100=

0000149400
958
FTUS80 KWBC 101733 RRA
TAF
KCMH 101730Z 1018/1118 16007KT 4SM BR OVC006
      TEMPO 1018/1021 3SM BR OVC004
     FM102200 17009KT 5SM BR OVC015
     FM110300 17010KT 5SM BR VCSH OVC015
     FM110700 17012KT 4SM -RA BR OVC008
     FM111400 23014G23KT P6SM VCSH OVC012=
KCVG 101730Z 1018/1124 16007KT 5SM BR OVC008
      TEMPO 1018/1021 2SM BR OVC003
     FM110000 15010KT 4SM BR VCSH OVC015
     FM110600 17011KT 4SM -SHRA BR OVC008
     FM111200 22011G20KT P6SM VCSH OVC012
     FM111600 25016G25KT P6SM OVC022
     FM112300 26014KT P6SM BKN025=
KDAB 101728Z 1018/1118 10007KT P6SM SCT015
      TEMPO 1018/1020 BKN015
     FM110000 12004KT P6SM OVC120
     FM110800 17004KT 5SM BR OVC005
     FM111400 19010G15KT P6SM SCT015 BKN150=
KDAY 101730Z 1018/1118 17007KT 3SM BR OVC004
      TEMPO 1018/1021 1SM BR OVC002
     FM102100 15010KT 3SM BR OVC006
     FM110000 15012KT 4SM BR VCSH OVC011
     FM110500 17015G23KT 4SM -RA BR OVC007
     FM111200 22015G25KT P6SM VCSH OVC013
     FM111500 24016G26KT P6SM OVC018=
KDRT 101729Z 1018/1118 29008KT 6SM BR OVC015
     FM101900 30008KT P6SM SCT020 BKN100 BKN250
     FM102000 32008KT P6SM SCT250
     FM110100 34005KT P6SM SKC=
KEAU 101732Z 1018/1118 16009KT 3SM BR OVC006
     FM110000 15003KT 3SM -SN BR OVC004
      TEMPO 1101/1104 1SM -SN
     FM110600 25004KT 4SM -SN BR OVC006
     FM110800 29007KT 6SM BR BKN007 OVC012
     FM111100 30008KT P6SM SCT012=

0000144500
959
FTUS80 KWBC 101733
TAF
KABR 101732Z 1018/1118 22009KT P6SM SKC
     FM101900 25008KT P6SM SCT200
     FM102200 28008KT P6SM SCT200
     FM110500 31010KT P6SM SCT200=
KATY 101732Z 1018/1118 21010KT P6SM SCT007
      TEMPO 1018/1019 4SM BR
     FM101900 24009KT P6SM SCT200
     FM102200 27007KT P6SM SCT200
     FM110500 31010KT P6SM SCT200=
KAUS 101729Z 1018/1124 18011KT 3SM -RA BR BKN007 OVC015
     FM101900 20012KT 6SM -RA BKN012 OVC025
     FM102000 21012KT P6SM BKN022
     FM102200 22012KT P6SM SCT030 BKN250
     FM110400 24008KT P6SM SCT250
     FM110800 32006KT P6SM SKC
     FM111500 01006KT P6SM SKC=
KAXN 101732Z 1018/1118 17012KT 1SM BR OVC002
     FM101900 18009KT 2SM BR BKN006 OVC015
     FM102100 20006KT 5SM BR SCT012 BKN100
     FM110300 27006KT P6SM SCT200
     FM111000 31010KT P6SM SCT025 BKN040
     FM111600 30010KT P6SM SCT250=
KBJI 101731Z 1018/1118 17010KT 2SM -SN BR OVC004
      TEMPO 1018/1019 1SM -SN BR OVC002
     FM102000 17009KT 5SM BR OVC008
     FM102200 22008KT P6SM OVC015
     FM110600 27009KT P6SM OVC007=
KBRO 101732Z 1018/1118 18018G25KT P6SM OVC040
     FM110100 17007KT P6SM BKN040
     FM110600 VRB03KT 5SM BR SCT020
     FM110900 VRB03KT 1/2SM FG SCT005
      TEMPO 1110/1113 1/4SM FG VV001
     FM111400 32010KT P6SM FEW030=
KBTM 101731Z 1018/1118 30005KT P6SM VCSH BKN090
     FM110200 30005KT P6SM BKN090=

0000148800
960
FTUS80 KWBC 101733 RRB
TAF
KFAR 101731Z 1018/1118 17010KT P6SM SCT250
     FM102100 22010KT P6SM SCT150
     FM110600 29008KT P6SM BKN050=
KFAY 101731Z 1018/1118 03004KT 4SM -RA BR SCT025 OVC050
     FM102300 06004KT 5SM -RADZ BR BKN005 OVC009
     FM110400 VRB05KT 1SM -DZ BR OVC003
     FM110700 18010KT P6SM OVC008
     FM111300 19013G24KT P6SM BKN009 OVC020
     FM111700 20017G28KT 5SM -SHRA BR BKN012 OVC025=
KFOE 101731Z 1018/1118 15009KT 2SM BR OVC005
     FM102100 26008KT 4SM BR OVC010
     FM110400 29007KT 2SM -SN BR BKN005
     FM110800 29009KT 6SM BR SCT007 BKN100=
KGDV 101730Z 1018/1118 26012KT P6SM SCT100 SCT200 WS015/27035KT
     FM102000 28015KT P6SM SCT200 WS015/28035KT
     FM110200 29012KT P6SM SCT100 BKN200 WS015/29040KT
     FM111700 21007KT P6SM VCSH BKN040 AMD LTD TO CLD VIS AND
      WIND=
KGFK 101731Z 1018/1118 18012KT 4SM BR BKN035
     FM101900 19012KT P6SM SCT250
     FM102100 22008KT P6SM SCT150
     FM110500 29008KT P6SM BKN050=
KGGW 101730Z 1018/1118 27007KT P6SM SCT200 WS010/27030KT
     FM110300 29012KT P6SM SCT060 BKN200 WS010/29035KT
     FM111500 13012KT P6SM VCSH BKN035=
KGPI 101731Z 1018/1118 20012KT P6SM OVC040
     FM110600 17007KT 6SM -SHRASN OVC040=
KGSO 101731Z 1018/1118 04004KT 3SM -RADZ BR BKN003 OVC009
     FM110200 VRB05KT 1SM -DZ BR OVC003 WS010/19036KT
     FM111200 19015G25KT P6SM OVC008
     FM111600 20016G28KT 5SM -SHRA BR BKN009 OVC015=

0000126200
961
FTUS80 KWBC 101733 RRC
TAF
KHRL 101732Z 1018/1118 19022G30KT P6SM OVC040
     FM110100 18008KT P6SM BKN040
     FM110600 VRB03KT 5SM BR FEW020
     FM110900 VRB03KT 1/2SM FG SCT005
      TEMPO 1110/1113 1/4SM FG VV001
     FM111400 32010KT P6SM FEW030=
KILN 101730Z 1018/1118 17007KT 2SM BR OVC005
      TEMPO 1018/1021 1/4SM FG OVC002
     FM102100 15010KT 3SM BR OVC008
     FM110100 15012KT 4SM BR VCSH OVC012
     FM110500 17014G22KT 4SM -RA BR OVC007
     FM111300 22014G24KT P6SM VCSH OVC013
     FM111600 24014G25KT P6SM OVC016=
KINT 101731Z 1018/1118 04004KT 3SM -RADZ BR BKN003 OVC009
     FM110200 VRB05KT 1SM -DZ BR OVC003 WS010/19036KT
     FM111200 19015G25KT P6SM OVC008
     FM111600 20016G28KT 5SM -SHRA BR BKN009 OVC015=
KLCK 101730Z 1018/1118 16007KT P6SM OVC006
      TEMPO 1018/1021 3SM BR OVC004
     FM102200 17009KT 5SM BR OVC015
     FM110300 17010KT 5SM BR VCSH OVC015
     FM110700 17012KT 4SM -RA BR OVC008
     FM111400 23014G23KT P6SM VCSH OVC012=
KLSE 101730Z 1018/1118 15006KT 5SM BR OVC008
      TEMPO 1018/1022 5SM -FZDZ BR OVC010
     FM102200 VRB03KT 2SM -SN BR OVC010
     FM110700 28005KT 6SM -SN BR OVC008
     FM111100 29007KT 6SM BR SCT010 BKN150=

0000150600
962
FTUS80 KWBC 101733 RRD
TAF
KLUK 101730Z 1018/1118 16007KT 6SM BR OVC011
      TEMPO 1018/1021 5SM BR OVC006
     FM110000 15007KT 4SM BR VCSH OVC018
     FM110600 17007KT 4SM -SHRA BR OVC009
     FM111300 21010G18KT P6SM VCSH OVC012
     FM111600 25012G22KT P6SM OVC022=
KMFE 101732Z 1018/1118 19015G22KT P6SM SCT040
     FM110100 18007KT P6SM SCT030
     FM110600 VRB04KT 5SM BR FEW020
     FM110900 24003KT 1/2SM FG SCT005
      TEMPO 1110/1113 1/4SM FG VV001
     FM111500 32010KT P6SM FEW030=
KMHK 101731Z 1018/1118 24006KT 3SM BR OVC006
     FM102000 27005KT 6SM BR OVC015
     FM110300 29007KT 2SM -SN BR BKN007
     FM110700 27005KT 6SM BR SCT007 BKN100=
KMLB 101728Z 1018/1118 13008KT P6SM VCSH SCT025 SCT050 BKN200
     FM110000 14006KT P6SM OVC120
     FM110800 16005KT 5SM BR BKN010
     FM111400 19010G15KT P6SM SCT015 BKN150=
KMSO 101731Z 1018/1118 17007KT P6SM VCSH BKN050 OVC090
     FM102100 29012KT P6SM VCSH BKN050 OVC090
     FM110100 VRB05KT P6SM OVC090
     FM111000 12009KT P6SM BKN060=
KMSP 101732Z 1018/1124 15010KT 3SM BR OVC007
      TEMPO 1018/1020 2SM -FZDZ
     FM110100 19005KT 2SM BR OVC005
     FM110600 24005KT 5SM BR BKN009
     FM110900 28008KT P6SM SCT015
     FM111200 29012KT P6SM SCT250
     FM111600 28012KT P6SM SCT025 BKN040=
KOLF 101730Z 1018/1118 26007KT P6SM SCT200 WS010/27030KT
     FM110300 29010KT P6SM SCT100 BKN200 WS010/29035KT
     FM111600 21004KT P6SM VCSH BKN040=

0000141900
963
FTUS80 KWBC 101733 RRE
TAF
KPIR 101732Z 1018/1118 27005KT P6SM SKC
     FM101900 30008KT P6SM SCT200
     FM111500 29014G17KT P6SM SKC=
KRDU 101731Z 1018/1118 03004KT 4SM -RA BR SCT005 OVC035
     FM102200 06004KT 5SM -RADZ BR BKN005 OVC009 WS018/19030KT
     FM110600 VRB05KT 1SM -DZ BR OVC003 WS014/19035KT
     FM110800 18010KT P6SM OVC008
     FM111300 19014G26KT P6SM BKN009 OVC020
     FM111700 20017G28KT 5SM -SHRA BR BKN012 OVC025=
KRNH 101732Z 1018/1118 17010KT 2SM BR OVC005
      TEMPO 1018/1020 -FZDZ
     FM102000 17009KT 4SM BR OVC008
     FM110000 17005KT 3SM -SN BR OVC006
     FM110600 28007KT 6SM BR OVC009
     FM111000 30010KT P6SM SCT015=
KRST 101730Z 1018/1118 17011KT 2SM BR OVC003
      TEMPO 1018/1022 1SM -FZDZ BR
     FM102200 17008KT 2SM -SN BR OVC002
      TEMPO 1022/1023 2SM -FZDZ BR
     FM110500 27007KT 4SM -SN BR OVC004
     FM110900 30011KT 5SM BR SCT008 BKN150=
KRWF 101732Z 1018/1118 18013KT 2SM BR OVC005
     FM102100 20007KT 4SM BR SCT006 OVC014
     FM110300 28008KT P6SM SCT250
     FM111300 30010KT P6SM SCT020 BKN040=
KRWI 101731Z 1018/1118 03004KT 4SM -RA BR SCT025 OVC050
     FM102300 06004KT 5SM -RADZ BR BKN005 OVC009
     FM110400 VRB05KT 1SM -DZ BR OVC003
     FM110700 18010KT P6SM OVC008
     FM111300 19013G24KT P6SM BKN009 OVC020
     FM111700 20017G28KT 5SM -SHRA BR BKN012 OVC025=

0000136300
964
FTUS80 KWBC 101733 RRF
TAF
KSAT 101729Z 1018/1124 19006KT 4SM -RA BR SCT015 BKN025 OVC040
     FM101900 19010KT P6SM VCSH BKN025 OVC050
     FM102000 21010KT P6SM BKN028
     FM102100 23007KT P6SM SCT030 BKN250
     FM110300 24006KT P6SM SCT250
     FM110700 32005KT P6SM SKC
     FM111500 36006KT P6SM SKC=
KSDY 101730Z 1018/1118 24012KT P6SM SCT100 SCT200 WS010/27035KT
     FM102100 27012KT P6SM SCT200 WS010/28035KT
     FM110300 28011KT P6SM SCT100 BKN200 WS015/29040KT
     FM111700 19008KT P6SM VCSH BKN040 AMD LTD TO CLD VIS AND
      WIND=
KSMN 101731Z 1018/1118 00000KT P6SM VCSH SCT040 OVC060 AMD LTD TO
      CLD VIS AND WIND=
KSSF 101729Z 1018/1118 17003KT 4SM -RA BR SCT015 BKN025 OVC040
     FM101900 17008KT P6SM VCSH BKN025 OVC040
     FM102000 19008KT P6SM BKN028
     FM102200 21008KT P6SM SCT030 BKN250
     FM110400 24006KT P6SM SCT250
     FM110800 32005KT P6SM SKC
     FM111500 35006KT P6SM SKC=
KSTC 101732Z 1018/1118 17011KT 2SM BR OVC005
     FM102200 19005KT 4SM BR BKN008 OVC012
     FM110100 24005KT 6SM BR BKN012
     FM110400 30009KT P6SM SCT200
     FM111200 31010KT P6SM SCT025 BKN040=
KTOP 101731Z 1018/1118 14007KT 2SM BR OVC007
     FM102100 25007KT 4SM BR OVC012
     FM110400 28005KT 2SM -SN BR BKN007
     FM110800 28006KT 6SM BR SCT007 BKN100=

0000022300
965
FTUS80 KWBC 101733 RRG
TAF
KVRB 101728Z 1018/1118 13008KT P6SM VCSH SCT025 BKN050
     FM110000 14006KT P6SM OVC120
     FM110800 16005KT 5SM BR BKN010
     FM111400 18010G15KT P6SM SCT015 BKN150=

0000011700
966
SPUS31 KWBC 101733
SPECI
KSTL 101729Z 16008KT 2 1/2SM -RA BR SCT006 BKN050 OVC080 04/02
A2985=

0000010100
967
SPUS42 KWBC 101733
SPECI
KTUL 101729Z 18017G24KT 10SM FEW009 OVC013 12/09 A2967=

0000017200
968
FTCN35 CWAO 101700 AAA
TAF AMD CYSB 101733Z 1017/1102 17010KT 1/2SM -FZDZ FZFG VV001 TEMPO
     1017/1102 2SM -SN OVC006
    RMK NXT FCST BY 102000Z=

0000009800
969
SAMJ41 LWSK 101730
METAR LWSK 101730Z 00000KT 4100 BR OVC005 03/01 Q1022 NOSIG=

0000022500
970
SALJ31 LJLJ 101730
METAR LJLJ 101730Z 00000KT 9999 BKN033 07/06 Q1020 NOSIG=
METAR LJMB 101730Z 33003KT 300V040 8000 NSC 02/01 Q1019=
METAR LJPZ 101730Z 00000KT 3000 BR FEW005 BKN010 OVC046 10/09 Q1020=

0000009400
971
SALJ32 LJLJ 101730
METAR LJCE 101730Z AUTO 20002KT 5000 BR NCD 06/05 Q1020=

0000011300
972
SANT31 KWBC 101700 RRB
METAR
BIKF 101730Z 27017KT 9999 -RA FEW008 SCT016 BKN020 02/01 Q0989=

00000000