0000108100
893
FTCH12 SCSC 101800
TAF SCIE 101615Z 1018/1118 20010KT CAVOK TX24/1018Z TN10/1110Z BECMG
         1020/1022 20017KT BECMG 1101/1103 18008KT BECMG 1106/1108
         VRB02KT=
TAF SCTC 101640Z 1018/1118 23009KT CAVOK TX24/1020Z TN08/1110Z BECMG 
1102/1104 VRB02KT TEMPO 1107/1111 9999 BKN015 BECMG 1116/1118 21007KT
=
TAF SCJO 101640Z 1018/1106 17012KT 9999 SCT030 TX21/1019Z TN09/1106Z 
BECMG 1100/1102 16005KT=
TAF SCTE 101640Z 1018/1118 15012KT 9999 SCT040 TX18/1019Z TN08/1110Z 
BECMG 1102/1104 18003KT SCT020 TEMPO 1108/1112 BKN013 BECMG 1114/1116
 16009KT 9999 FEW030=
TAF SCPQ 101640Z 1018/1106 18011KT 9999 SCT040 TX17/1019Z TN10/1106Z=
TAF SCBA 101640Z 1018/1118 31025G37KT 9999 FEW045 TX17/1019Z TN05/
1110Z BECMG 1100/1102 30017KT CAVOK BECMG 1114/1116 31024KT=
TAF SCNT 101800Z NIL=
TAF SCCI 101638Z 1018/1118 24020G30KT 9999 SCT030
TN08/1109Z TX12/1018Z
BECMG 1019/1021 BKN030
BECMG 1101/1103 31013G27KT
BECMG 1104/1106 8000 -SHRA BKN020
BECMG 1110/1112 28025G40KT NSW SCT040
TEMPO 1113/1118 8000 -SHRA BKN022=

0000191600
894
SPUS70 KWBC 101732
SPECI
KDMO 101728Z AUTO 18013KT 3SM -TSRA BR OVC003 07/06 A2970 RMK AO2
     LTG DSNT SE-W RAB17 TSB26 P0002 T00670061=
KFOK 101728Z 00000KT 3SM BR SCT026 OVC039 02/01 A3042 RMK AO2
     RAE27 P0000=
KGED 101728Z AUTO 04005KT 1 1/4SM -RA BR OVC002 03/02 A3038 RMK
     AO2 P0004 T00330022=
KGMU 101728Z 04007KT 4SM -RA BR BKN004 OVC014 07/06 A3025 RMK AO2
     RAB01 P0002=
KJEF 101728Z 09007KT 10SM OVC011 06/04 A2974 RMK AO2=
KLFK 101728Z AUTO 19011G21KT 10SM FEW014 20/15 A2994 RMK AO2=
KOXB 101728Z AUTO 03006KT 2SM -RA BR SCT004 OVC032 05/04 A3038 RMK
     AO2 RAB00 P0001 T00500039 TSNO=
KPOU 101728Z 00000KT 3SM -SN OVC016 M01/M04 A3040 RMK AO2 SNB1656
     P0000=
KSPI 101728Z 15016G23KT 3SM -RA BR OVC004 02/01 A2984 RMK AO2
     RAB26 PRESFR P0000=
KUTS 101728Z AUTO 18013G19KT 10SM FEW019 OVC060 20/16 A2992 RMK
     AO2=
KAHN 101729Z 05007KT 3SM BR OVC005 07/06 A3021 RMK AO2 RAE1654
     P0000=
KBKV 101729Z 20006KT 10SM SCT025 SCT032 26/19 A3012 RMK AO2
     T02560189=
KCAG 101729Z AUTO 06005KT 1SM -SN BR VV019 M07/M09 A2992 RMK AO2
     P0001 T10721094=
KCLT 101729Z 35006KT 1 3/4SM R18C/3500VP6000FT +RA BR OVC003 05/04
     A3026 RMK AO2 P0001=
KHFD 101729Z 00000KT 3/4SM -SN BR FEW008 OVC016 M02/M03 A3042 RMK
     AO2 P0001 T10171033=
KPIL 101729Z AUTO 18016G27KT 7SM BKN015 BKN022 OVC037 24/20 A2989
     RMK AO2 PK WND 16028/1717=
KSTL 101729Z 16008KT 2 1/2SM -RA BR SCT006 BKN050 OVC080 04/02
     A2985 RMK AO2 P0002=
KTUL 101729Z 18017G24KT 10SM FEW009 OVC013 12/09 A2967 RMK AO2
     PRESFR T01170094=
PAHC 101729Z AUTO 36012KT 2SM -SN SCT010 BKN027 OVC049 M14/M17
     A2956 RMK AO2 TSNO P0000 $=
PAMB 101729Z AUTO 05007KT 1/2SM FZFG OVC003 M04/M04 A2943 RMK AO2
     TSNO $=
PASI 101729Z 04004KT 10SM SCT020 BKN027 OVC035 02/02 A2958 RMK AO2
     SHRA DSNT S T00220017=

0000013000
895
SARS31 RUMS 101700 CCA
METAR UUOB 101730Z 21006G09MPS 1700 R11/2600 -RA BR OVC005 02/02
Q1002 29290050 NOSIG=

0000014000
896
SASA31 KWBC 101700 RRC
METAR
SOCA 101730Z AUTO 05005KT 9999 -RA FEW043/// SCT052/// OVC066///
     ///CB 25/23 Q1010=

0000008900
897
SPCN51 CWAO 101732
SPECI CZCP 101732Z AUTO 28018KT 6SM CLR M28/ A2935=

0000008900
898
SPAU32 AMMC 101732
SPECI YMHB 101730Z 00000KT 9999 BKN011 16/14 Q1013=

0000008900
899
SPAU32 YBBN 101732
SPECI YMHB 101730Z 00000KT 9999 BKN011 16/14 Q1013=

0000025800
900
SACZ31 LKPW 101730
METAR LKKV 101730Z 24009G20KT 9999 BKN046 03/M01 Q1016=
METAR LKMT 101730Z 23009KT CAVOK 02/M02 Q1017 NOSIG=
METAR LKPR 101730Z 24012KT CAVOK 04/M01 Q1017 NOSIG=
METAR LKTB 101730Z 22003KT CAVOK 04/M02 Q1018 NOSIG=

0000010700
901
SAIL31 BICC 101730
METAR BIKF 101730Z 27017KT 9999 -RA FEW008 SCT016 BKN020 02/01 Q0989=

0000040600
902
SAPL31 EPWA 101730
METAR EPGD 101730Z 29019KT 9999 FEW009 BKN015CB 05/03
    Q1002 =
METAR EPKK 101730Z 25015KT 9999 SCT040 BKN053 05/00
    Q1014 =
METAR EPLL 101730Z 27017G28KT 9999 BKN030 06/01 Q1010 =
METAR EPPO 101730Z 26019G32KT CAVOK 06/02 Q1010 R10/19//95 =
METAR EPRZ 101730Z 26019KT CAVOK 06/00 Q1012 =
METAR EPWA 101730Z 27020G31KT 9999 BKN026 06/02 Q1007 NOSIG=

0000048900
903
SAPL32 EPWA 101730
METAR EPBY 101730Z 25017KT 9999 SCT019 BKN025 06/04
    Q1007 =
METAR EPKT 101730Z 24015KT 9999 SCT040 05/M00 Q1014 =
METAR EPLB 101730Z 26021G31KT 9999 -SHRA SCT025CB BKN035
    06/02 Q1006 =
METAR EPMO 101730Z 26021KT 9999 BKN025 06/03 Q1006 =
METAR EPSC 101730Z 25010KT 9999 SCT026 BKN033 06/03
    Q1009 =
METAR EPWR 101730Z 27011G22KT 140V300 9999 BKN046 07/M01
    Q1015 =
METAR EPZG 101730Z 24013KT 9999 FEW040 07/01 Q1012 =

0000051600
904
SAYG31 LYBM 101730
METAR LYBE 101730Z 21004KT 7000 NSC 07/06 Q1022 NOSIG=
METAR LYBT 101730Z 25004KT 5000 BR NSC 06/06 Q1022 NOSIG=
METAR LYKV 101730Z 31004KT 280V350 9999 BKN033 09/M01 Q1022 NOSIG=
METAR LYNI 101730Z 36003KT 310V110 9999 SCT040 08/03 Q1021 NOSIG=
METAR LYPG 101730Z 30003KT 9999 FEW040 SCT080 08/07 Q1021 NOSIG=
METAR LYPR 101730Z NIL=
METAR LYTV 101730Z NIL=
METAR LYUZ 101730Z VRB02KT 9999 BKN020 05/03 Q1021=
METAR LYVR 101730Z VRB02KT CAVOK 05/01 Q1021 NOSIG=

0000053000
905
FCSN31 ESWI 101700
TAF ESGJ 101730Z 1018/1102 VRB02KT 6000 -SN SCT008 BKN015 PROB40
1018/1022 BKN008=
TAF ESGP 101730Z 1018/1103 18003KT 9999 BKN020 BECMG 1023/1101
23013KT PROB40 1022/1103 RA BKN008=
TAF ESGT 101730Z 1018/1020 VRB03KT 9999 SCT020=
TAF ESMK 101700Z NIL=
TAF ESMQ 101700Z NIL=
TAF ESMT 101700Z NIL=
TAF ESMX 101730Z 1018/1022 28005KT 9999 SCT008 OVC010 PROB40
1018/1022 SCT012=
TAF ESTA 101730Z 1018/1022 27013KT 9999 BKN020 TEMPO 1018/1022 
BKN008=
TAF ESTL 101700Z NIL=

0000048900
906
FCSN32 ESWI 101700
TAF ESOE 101730Z 1018/1021 03005KT 9999 BKN015 PROB40 1018/1021
BKN013=
TAF ESOK 101730Z 1018/1023 08004KT 9999 BKN016=
TAF ESOW 101730Z 1018/1022 35008KT 9999 BKN013 PROB40 1018/1022
BKN015=
TAF ESSB 101730Z 1018/1021 31012KT 9999 BKN006 PROB40 1018/1021
BKN012=
TAF ESSD 101700Z NIL=
TAF ESSP 101730Z 1018/1023 30008KT 9999 BKN015 PROB40 1018/1023
BKN013=
TAF ESSV 101730Z 1018/1020 31015KT 9999 BKN010 PROB40 1018/1020
BKN009=

0000052700
907
FCSN33 ESWI 101700
TAF ESNG 101730Z 1018/1022 03010KT CAVOK=
TAF ESNK 101730Z 1018/1020 35013KT 5000 -SN SCT005 BKN020 TEMPO
1018/1020 1400 SN VV005=
TAF ESNN 101700Z NIL=
TAF ESNO 101700Z NIL=
TAF ESNQ 101700Z NIL=
TAF ESNS 101730Z 1018/1023 36012KT 1400 SN VV008 TEMPO 1018/1023 4000
-SN VV015=
TAF ESNU 101730Z 1018/1103 36015KT 7000 -SN BKN030 PROB40 1018/1024
2000 SN VV008=
TAF ESNZ 101730Z 1018/1023 03005KT 6000 -SN BKN030 PROB40 1018/1023
3000 SN VV010=
TAF ESUT 101700Z NIL=

0000046900
908
FCSN34 ESWI 101700
TAF ESCF 101700Z NIL=
TAF ESCM 101700Z NIL=
TAF ESDF 101730Z 1018/1020 28005KT 9999 SCT015 RMK ISSUED BY ESSA=
TAF ESIA 101700Z NIL=
TAF ESIB 101700Z NIL=
TAF ESMV 101700Z NIL=
TAF ESNL 101700Z NIL=
TAF ESPA 101730Z 1018/1024 02010KT 9999 -SN BKN025 TEMPO 1018/1024
4000 VV014 RMK ISSUED BY ESSA=
TAF ESPE 101700Z NIL=
TAF ESSL 101730Z 1018/1023 33007KT 9999 OVC010 PROB40 1018/1023
OVC009 RMK ISSUED BY ESSA=

0000092200
909
FTUS31 KWBC 101733
TAF
KCVG 101730Z 1018/1124 16007KT 5SM BR OVC008
      TEMPO 1018/1021 2SM BR OVC003
     FM110000 15010KT 4SM BR VCSH OVC015
     FM110600 17011KT 4SM -SHRA BR OVC008
     FM111200 22011G20KT P6SM VCSH OVC012
     FM111600 25016G25KT P6SM OVC022
     FM112300 26014KT P6SM BKN025=
KMSP 101732Z 1018/1124 15010KT 3SM BR OVC007
      TEMPO 1018/1020 2SM -FZDZ
     FM110100 19005KT 2SM BR OVC005
     FM110600 24005KT 5SM BR BKN009
     FM110900 28008KT P6SM SCT015
     FM111200 29012KT P6SM SCT250
     FM111600 28012KT P6SM SCT025 BKN040=
KRDU 101731Z 1018/1118 03004KT 4SM -RA BR SCT005 OVC035
     FM102200 06004KT 5SM -RADZ BR BKN005 OVC009 WS018/19030KT
     FM110600 VRB05KT 1SM -DZ BR OVC003 WS014/19035KT
     FM110800 18010KT P6SM OVC008
     FM111300 19014G26KT P6SM BKN009 OVC020
     FM111700 20017G28KT 5SM -SHRA BR BKN012 OVC025=

0000126500
910
FTUS41 KWBC 101733
TAF
KCMH 101730Z 1018/1118 16007KT 4SM BR OVC006
      TEMPO 1018/1021 3SM BR OVC004
     FM102200 17009KT 5SM BR OVC015
     FM110300 17010KT 5SM BR VCSH OVC015
     FM110700 17012KT 4SM -RA BR OVC008
     FM111400 23014G23KT P6SM VCSH OVC012=
KDAY 101730Z 1018/1118 17007KT 3SM BR OVC004
      TEMPO 1018/1021 1SM BR OVC002
     FM102100 15010KT 3SM BR OVC006
     FM110000 15012KT 4SM BR VCSH OVC011
     FM110500 17015G23KT 4SM -RA BR OVC007
     FM111200 22015G25KT P6SM VCSH OVC013
     FM111500 24016G26KT P6SM OVC018=
KGSO 101731Z 1018/1118 04004KT 3SM -RADZ BR BKN003 OVC009
     FM110200 VRB05KT 1SM -DZ BR OVC003 WS010/19036KT
     FM111200 19015G25KT P6SM OVC008
     FM111600 20016G28KT 5SM -SHRA BR BKN009 OVC015=
KINT 101731Z 1018/1118 04004KT 3SM -RADZ BR BKN003 OVC009
     FM110200 VRB05KT 1SM -DZ BR OVC003 WS010/19036KT
     FM111200 19015G25KT P6SM OVC008
     FM111600 20016G28KT 5SM -SHRA BR BKN009 OVC015=
KLUK 101730Z 1018/1118 16007KT 6SM BR OVC011
      TEMPO 1018/1021 5SM BR OVC006
     FM110000 15007KT 4SM BR VCSH OVC018
     FM110600 17007KT 4SM -SHRA BR OVC009
     FM111300 21010G18KT P6SM VCSH OVC012
     FM111600 25012G22KT P6SM OVC022=

0000034000
911
FTUS42 KWBC 101733 RRA
TAF
KSAT 101729Z 1018/1124 19006KT 4SM -RA BR SCT015 BKN025 OVC040
     FM101900 19010KT P6SM VCSH BKN025 OVC050
     FM102000 21010KT P6SM BKN028
     FM102100 23007KT P6SM SCT030 BKN250
     FM110300 24006KT P6SM SCT250
     FM110700 32005KT P6SM SKC
     FM111500 36006KT P6SM SKC=

0000046600
912
FTUS44 KWBC 101733
TAF
KGGW 101730Z 1018/1118 27007KT P6SM SCT200 WS010/27030KT
     FM110300 29012KT P6SM SCT060 BKN200 WS010/29035KT
     FM111500 13012KT P6SM VCSH BKN035=
KGPI 101731Z 1018/1118 20012KT P6SM OVC040
     FM110600 17007KT 6SM -SHRASN OVC040=
KMSO 101731Z 1018/1118 17007KT P6SM VCSH BKN050 OVC090
     FM102100 29012KT P6SM VCSH BKN050 OVC090
     FM110100 VRB05KT P6SM OVC090
     FM111000 12009KT P6SM BKN060=

00000000