0000014900
533
FTAU31 AMMC 101700 RRD
TAF YPAD 101750Z 1018/1124 15012KT 9999 FEW015
     FM110000 22014KT CAVOK
     FM110800 15014KT CAVOK=

0000010600
534
SAUS75 KWBC 101700 RRE
METAR
PADL 101745Z 01004KT 5SM BR BKN004 OVC010 M03/M04 A2948=

0000104700
535
SAMX44 MMMD 101800
METAR MMCE 101743Z 18006KT 5SM SCT003 BKN020 22/21 A2997
      RMK SLP149 57005 990 8/600=
METAR MMCM 101740Z 00000KT 7SM SCT010 27/22 A2999 RMK SLP157 5////
967 8/100 =
METAR MMCP 101748Z 18010KT 6SM  BKN020 26/22 A2998 
      RMK SLP151 57013 973 8/100=
METAR MMCT 101745Z 12006KT 8SM  BKN020 29/22 A3002 
      RMK 8/100 MSGTX MMMD=
METAR MMCZ 101741Z 12009KT 8SM  BKN015TCU 26/21 A3002 
      RMK SLP167 57021 965 8/200 SC=
METAR MMMD 101744Z 13015KT 7SM  BKN015TCU 28/20 A2999 
      RMK SLP155 58022 987 8/200=
METAR MMMT 101750Z 00000KT 10SM  SCT015 BKN040 25/19 A2997 
      RMK SLP225 52010 991 8/500 VC HZ=
METAR MMTG 101745Z 06003KT 10SM  SKC 25/16 A2999 RMK SLP133 57026
980=
METAR MMTP 101749Z 00000KT 10SM  FEW030 32/22 A2990 
      RMK SLP122 52003 951 8/100=
METAR MMUN 101742Z 12008KT 7SM  BKN018 28/23 A3003 
      RMK SLP161 58011 971 8/100 MDT CU=
METAR MMVA 101750Z 00000KT 5SM  SCT007 BKN015 OVC060 22/19 A2995 
      RMK SLP177 57006 990 8/62/=

0000017100
536
SAMP31 LMMM 101800
METAR HLLT NIL=
METAR HLLB 101745Z
00000KT 9999 SCT020 BKN080 16/08 Q1025 =
METAR LMML 101745Z 25006KT CAVOK 15/11 Q1022 NOSIG=

0000017200
537
SANK31 MNMG 101800
METAR  
MNMG 101800Z 08012KT 9999 FEW023 31/18 Q1011 A2988 1AC070
                                                          NOSIG=

0000224000
538
SPUS70 KWBC 101748
SPECI
PAPB 101744Z AUTO 23007KT 10SM FEW019 BKN027 BKN031 01/M01 A2917
     RMK AO2 T00111006 TSNO=
KAGC 101744Z 19009KT 10SM FEW007 BKN031 OVC050 07/04 A3020 RMK
     AO2=
KAUW 101744Z AUTO 17010KT 2SM BR OVC004 M04/M05 A2980 RMK AO2
     T10441050 $=
KEEO 101744Z AUTO 00000KT 3SM -SN BKN024 OVC037 M07/M11 A2995 RMK
     AO2 SNB1654 P0002 T10721106=
KEYE 101744Z AUTO 15007KT 4SM BR FEW007 OVC031 03/02 A3002 RMK AO2
     T00330017=
KFTY 101744Z 05004KT 4SM BR OVC004 08/08 A3017 RMK AO2 PRESFR=
KILN 101744Z AUTO 16007KT 1/2SM FG VV002 05/04 A3012 RMK AO2
     T00500044=
KIXD 101744Z 14006KT 1 1/2SM BR SCT003 OVC009 03/03 A2964 RMK AO2
     UPE20RAB06E42 PRESFR P0001 T00330028=
KMFI 101744Z AUTO 15008KT 3/4SM BR OVC002 M03/M04 A2978 RMK AO2
     PRESFR T10331044=
KMHT 101744Z 23003KT 2SM R35/5000VP6000FT -SN BKN023 BKN050 OVC070
     M03/M06 A3038 RMK AO2 SNB41 P0000 T10281056=
KMKC 101744Z 00000KT 1SM BR BKN007 OVC011 04/03 A2965 RMK AO2
     RAB1656E07 CIG 006V009 PRESFR P0000 T00390028=
KORD 101744Z 16010KT 2 1/2SM BR OVC005 01/M02 A2989 RMK AO2 PRESFR
     T00061017 $=
KRWI 101745Z AUTO 01004KT 3SM -RA BR FEW003 OVC060 08/07 A3031 RMK
     AO2 P0003 T00780067=
KTAN 101745Z AUTO 00000KT 5SM -RA SCT018 BKN027 OVC046 01/M02
     A3041 RMK AO2 RAB44 P0000 T00111022=
KTTN 101745Z 03004KT 1 1/2SM BR OVC004 01/M01 A3038 RMK AO2 $=
KBPT 101745Z 13009KT 9SM OVC006 18/15 A2996 RMK AO2=
KDAN 101745Z AUTO 01003KT 3SM -RA BR OVC003 03/02 A3031 RMK AO2
     P0007=
KDTO 101745Z 21006KT 7SM -RA FEW065 OVC085 16/15 A2978 RMK AO2
     P0004=
KDVN 101745Z AUTO 14014KT 2SM BR OVC004 01/00 A2978 RMK AO2=
KEWR 101745Z 00000KT 3SM BR SCT009 OVC029 01/M01 A3040 RMK AO2 SFC
     VIS 4 SCT V BKN=
KFFC 101745Z AUTO VRB04KT 4SM BR OVC004 08/08 A3017 RMK AO2
     T00830078=
KHWO 101745Z 12013KT 10SM SCT022 SCT027 BKN036 27/22 A3012 RMK
     AO2=
KOPF 101745Z 14015KT 10SM SCT021 SCT026 27/22 A3011 RMK AO2 $=
KOXB 101745Z AUTO 02005KT 2 1/2SM BR BKN003 OVC032 05/04 A3037 RMK
     AO2 RAB00E39 P0001 T00500039 TSNO=
KRKP 101745Z AUTO 19006KT 8SM SCT006 BKN033 OVC050 28/19 A2991 RMK
     AO2 RAB04E13 P0000=

0000010500
539
SPUS41 KWBC 101748
SPECI
KAGC 101744Z 19009KT 10SM FEW007 BKN031 OVC050 07/04 A3020=

0000009800
540
SPUS31 KWBC 101748
SPECI
KORD 101744Z 16010KT 2 1/2SM BR OVC005 01/M02 A2989=

0000009500
541
SASA31 KWBC 101700 RRD
METAR
SKBQ 101700Z 06008KT 9999 FEW015 31/23 A2985=

0000026500
542
FTUS53 KWBC 101748 AAA
TAF AMD
KCOU 101747Z 1018/1118 15013KT 3SM -RA BR OVC003
      TEMPO 1018/1020 1SM TSRA BR OVC002CB
     FM110100 19011KT 4SM BR OVC007
     FM110600 25011KT 5SM BR OVC010
     FM111500 26014KT P6SM SCT015 BKN250=

0000040600
543
FTUS53 KWBC 101748
TAF
KLNK 101745Z 1018/1118 16008KT 3SM BR OVC003
     FM102100 30005KT 4SM BR OVC004
     FM102200 32005KT 2SM -SN BR OVC004
      TEMPO 1100/1102 3/4SM -SN
     FM110400 30006KT 4SM BR OVC004
     FM110600 30006KT P6SM SCT100=
KOFK 101745Z 1018/1118 18006KT 3SM BR OVC004
     FM102000 30006KT 3SM BR OVC006
     FM110300 30008KT P6SM FEW010 SCT100=

0000132500
544
FTUS51 KWBC 101748
TAF
KACY 101747Z 1018/1118 09003KT 1 1/2SM -SHRA BR SCT004 BKN035
      TEMPO 1018/1021 3SM BR SCT004 BKN025
     FM102100 12004KT 3SM BR BKN005 BKN025
     FM110200 14005KT 1SM BR BKN005 OVC015
     FM110600 16005KT 2SM -RA BR BKN004 OVC010 WS020/20050KT
     FM111500 19013KT 1SM RA BR BKN003 OVC010 WS020/21050KT=
KMIV 101747Z 1018/1118 08003KT 1 1/2SM -SHRA BR BKN002 BKN015
      TEMPO 1018/1021 3SM BR BKN004 BKN015
     FM102100 12004KT 3SM BR BKN005 BKN015
     FM110200 14005KT 1SM BR BKN005 OVC015
     FM110600 16005KT 2SM -RA BR BKN004 OVC010 WS020/20050KT
     FM111500 19013KT 1SM RA BR BKN003 OVC010 WS020/21050KT=
KPNE 101747Z 1018/1118 05003KT 1 1/2SM BR BKN004 BKN015
      TEMPO 1018/1021 3SM BR BKN008 BKN015
     FM102100 12004KT 3SM BR BKN008 BKN015
     FM110200 14005KT 1SM BR BKN005 OVC015
     FM110600 16005KT 2SM -RA BR BKN004 OVC010 WS020/20050KT
     FM111500 19013KT 1SM RA BR BKN003 OVC010 WS020/21050KT=
KRDG 101747Z 1018/1118 VRB04KT 4SM BR BKN008 BKN015
      TEMPO 1018/1021 3SM BR SCT008 BKN015
     FM102100 12004KT 3SM BR SCT008 BKN012
     FM110200 14005KT 1SM BR BKN007 OVC015
     FM110600 16005KT 2SM -RA BR BKN004 OVC010 WS020/20050KT
     FM111500 19013KT 1SM RA BR BKN003 OVC010 WS020/21050KT=

0000132400
545
FTUS80 KWBC 101748
TAF
KABE 101747Z 1018/1118 06003KT 6SM BR BKN008 BKN015
      TEMPO 1018/1021 3SM BR SCT008 BKN015
     FM102100 12004KT 3SM BR SCT008 BKN012
     FM110200 14005KT 1SM BR BKN007 OVC015
     FM110600 16005KT 2SM -RA BR BKN004 OVC010 WS020/20050KT
     FM111500 19013KT 1SM RA BR BKN003 OVC010 WS020/21050KT=
KACY 101747Z 1018/1118 09003KT 1 1/2SM -SHRA BR SCT004 BKN035
      TEMPO 1018/1021 3SM BR SCT004 BKN025
     FM102100 12004KT 3SM BR BKN005 BKN025
     FM110200 14005KT 1SM BR BKN005 OVC015
     FM110600 16005KT 2SM -RA BR BKN004 OVC010 WS020/20050KT
     FM111500 19013KT 1SM RA BR BKN003 OVC010 WS020/21050KT=
KGLS 101746Z 1018/1118 13007KT P6SM FEW030 OVC035
     FM102000 12010KT 6SM BR BKN030
     FM110000 14010KT 3SM BR SCT015
      TEMPO 1100/1102 1SM BR VV003
     FM110200 17010KT 1/2SM FG VV002
     FM110700 18010KT 4SM BR SCT003 BKN015
     FM111100 27008KT 6SM BR SCT009
     FM111300 31008KT P6SM SCT250=
KILG 101747Z 1018/1118 09003KT 1 1/2SM BR BKN004 BKN015
      TEMPO 1018/1021 3SM BR BKN008 BKN015
     FM102100 12004KT 3SM BR BKN008 BKN015
     FM110200 14005KT 1SM BR BKN005 OVC015
     FM110600 16005KT 2SM -RA BR BKN004 OVC010 WS020/20050KT
     FM111500 19013KT 1SM RA BR BKN003 OVC010 WS020/21050KT=

0000121900
546
FTUS80 KWBC 101748 RRA
TAF
KLBX 101746Z 1018/1118 16009KT P6SM OVC045
     FM102200 17010KT 6SM BR VCSH SCT015 BKN040
      TEMPO 1100/1102 2SM BR
     FM110200 21006KT 2SM BR BKN005
     FM110800 25005KT 6SM BR SCT010 SCT250
     FM111200 33006KT P6SM SCT250=
KLNK 101745Z 1018/1118 16008KT 3SM BR OVC003
     FM102100 30005KT 4SM BR OVC004
     FM102200 32005KT 2SM -SN BR OVC004
      TEMPO 1100/1102 3/4SM -SN
     FM110400 30006KT 4SM BR OVC004
     FM110600 30006KT P6SM SCT100=
KMIV 101747Z 1018/1118 08003KT 1 1/2SM -SHRA BR BKN002 BKN015
      TEMPO 1018/1021 3SM BR BKN004 BKN015
     FM102100 12004KT 3SM BR BKN005 BKN015
     FM110200 14005KT 1SM BR BKN005 OVC015
     FM110600 16005KT 2SM -RA BR BKN004 OVC010 WS020/20050KT
     FM111500 19013KT 1SM RA BR BKN003 OVC010 WS020/21050KT=
KOFK 101745Z 1018/1118 18006KT 3SM BR OVC004
     FM102000 30006KT 3SM BR OVC006
     FM110300 30008KT P6SM FEW010 SCT100=
KOMA 101745Z 1018/1118 16011KT 2SM BR OVC006
     FM102100 35004KT 4SM BR OVC008
     FM102300 34005KT 3SM -SN BR OVC008
      TEMPO 1100/1102 1 1/2SM -SN
     FM110400 31008KT 5SM BR OVC012
     FM110700 30009KT P6SM SCT100=

0000144100
547
FTUS80 KWBC 101748 RRB
TAF
KPHL 101747Z 1018/1124 05003KT 1 1/2SM BR BKN004 BKN015
      TEMPO 1018/1021 3SM BR BKN008 BKN015
     FM102100 12004KT 3SM BR BKN008 BKN015
     FM110200 14005KT 1SM BR BKN005 OVC015
     FM110600 16005KT 2SM -RA BR BKN004 OVC010 WS020/20050KT
     FM111500 19013KT 1SM RA BR BKN003 OVC010 WS020/21050KT=
KPNE 101747Z 1018/1118 05003KT 1 1/2SM BR BKN004 BKN015
      TEMPO 1018/1021 3SM BR BKN008 BKN015
     FM102100 12004KT 3SM BR BKN008 BKN015
     FM110200 14005KT 1SM BR BKN005 OVC015
     FM110600 16005KT 2SM -RA BR BKN004 OVC010 WS020/20050KT
     FM111500 19013KT 1SM RA BR BKN003 OVC010 WS020/21050KT=
KRDG 101747Z 1018/1118 VRB04KT 4SM BR BKN008 BKN015
      TEMPO 1018/1021 3SM BR SCT008 BKN015
     FM102100 12004KT 3SM BR SCT008 BKN012
     FM110200 14005KT 1SM BR BKN007 OVC015
     FM110600 16005KT 2SM -RA BR BKN004 OVC010 WS020/20050KT
     FM111500 19013KT 1SM RA BR BKN003 OVC010 WS020/21050KT=
KTTN 101747Z 1018/1118 07003KT 1 1/2SM BR BKN004 BKN015
      TEMPO 1018/1021 3SM BR BKN008 BKN015
     FM102100 12004KT 3SM BR BKN008 BKN015
     FM110200 14005KT 1SM BR BKN005 OVC015
     FM110600 16005KT 2SM -RA BR BKN004 OVC010 WS020/20050KT
     FM111500 19013KT 1SM RA BR BKN003 OVC010 WS020/21050KT=
TIST 101740Z 1018/1118 07015G25KT P6SM SCT030
     FM102200 07010KT P6SM FEW030
     FM111300 08016G23KT P6SM SCT025=

0000085600
548
FTUS80 KWBC 101748 RRC
TAF
TISX 101740Z 1018/1118 08015G25KT P6SM SCT030
     FM102200 07010KT P6SM FEW030
     FM111300 09016G23KT P6SM SCT025=
TJBQ 101740Z 1018/1118 08022G27KT P6SM SCT020 SCT100
     FM102330 09010KT P6SM FEW030
     FM111400 08018G25KT P6SM SCT025=
TJMZ 101740Z 1018/1118 12011KT P6SM SCT040
     FM102200 07005KT P6SM FEW040
     FM111530 06005KT P6SM SCT025 SCT040 AMD NOT SKED 1023/1113=
TJPS 101740Z 1018/1118 12005KT P6SM FEW030
     FM102200 07010KT P6SM FEW030
     FM111500 13012KT P6SM SCT030 SCT060=
TJSJ 101740Z 1018/1118 07017G24KT P6SM FEW026 SCT030 SCT040
     FM102200 08010KT P6SM VCSH FEW030 SCT045
     FM111300 07015G23KT P6SM SCT025=
TNCM 101740Z 1018/1118 08015KT P6SM VCSH FEW017 SCT035
     FM102200 07010KT P6SM FEW022
     FM111300 09015G20KT P6SM SCT022=

0000041300
549
FTUS80 KWBC 101748 AAA
TAF AMD
KBIL 101745Z 1018/1118 24012G24KT P6SM SCT080 BKN200
     FM102000 27022G32KT P6SM SCT080 BKN200
     FM110200 27014G24KT P6SM SCT080 BKN200=
KCOU 101747Z 1018/1118 15013KT 3SM -RA BR OVC003
      TEMPO 1018/1020 1SM TSRA BR OVC002CB
     FM110100 19011KT 4SM BR OVC007
     FM110600 25011KT 5SM BR OVC010
     FM111500 26014KT P6SM SCT015 BKN250=

0000009300
550
SPUS42 KWBC 101748
SPECI
KFTY 101744Z 05004KT 4SM BR OVC004 08/08 A3017=

0000010000
551
SPUS43 KWBC 101748
SPECI
KMKC 101744Z 00000KT 1SM BR BKN007 OVC011 04/03 A2965=

0000009300
552
SAAI41 FHAW 101750
METAR FHAW 101750Z 14014KT 9999 FEW022 26/18 Q1012 BLU=

00000000