0000056300
993
SAGR32 LGAT 101750
METAR LGAL 101750Z 34007KT 9999 FEW008 SCT020 09/07 Q1019=
METAR LGEL 101750Z 00000KT CAVOK 13/09 Q1018=
METAR LGIO 101750Z 17002KT 9999 FEW030 OVC170 08/06 Q1021=
METAR LGKV 101750Z 04004KT 9999 SCT020 BKN180 09/08 Q1018=
METAR LGMT 101750Z /////KT CAVOK 11/08 Q1019 RMK R32 19004KT=
METAR LGPZ 101750Z 00000KT 9999 SCT025 SCT070 10/09 Q1022 NOSIG=
METAR LGRX 101750Z NIL=
METAR LGSK 101750Z NIL=
METAR LGSR 101750Z 24010KT 9999 SCT025 15/10 Q1020 NOSIG=
METAR LGZA 101750Z 00000KT 9999 SCT018 11/08 Q1021=

0000012600
994
SABZ24 SBUG 101800
METAR SBUG 101800Z 16019KT 7000 -TSRA SCT009 BKN013
FEW040CB BKN080 2
3/20
 Q1009=

0000057300
995
SAGR33 LGAT 101750
METAR LGBL 101750Z VRB03KT 9999 FEW020 SCT180 08/06 Q1018 NOSIG=
METAR LGHI 101750Z 22002KT 9999 FEW018 BKN020 11/10 Q1019=
METAR LGKC 101750Z NIL=
METAR LGKF 101750Z 00000KT 9999 SCT018 SCT080 13/09 Q1021=
METAR LGKP 101750Z 31002KT 9999 FEW030 13/07 Q1020=
METAR LGKZ 101750Z 33005KT 9999 BKN070 BKN170 09/00 Q1018=
METAR LGMK 101750Z 00000KT 9999 FEW020 12/06 Q1018=
METAR LGNX 101750Z NIL=
METAR LGPA 101750Z AUTO 18007KT //// // ////// 15/12 Q1019
     RE//=
METAR LGSO 101750Z 20007KT 9999 FEW018 15/12 Q1019=

0000016200
996
SACN62 CYBD 101800
METAR CYBD 101800Z 31004KT 10SM -SHRA BKN024TCU BKN048TCU OVC090
 04/02 A2988 RMK TCU5TCU2AS1 TR SF  RA IS VRY LGT SLP119=

0000008400
997
SAAG41 SAZS 101800
METAR SAZS 101800Z  29018KT CAVOK 18/01 Q1017=

0000007700
998
FCLV32 EVRA 101400 AAA
TAF AMD EVLA 101800Z 1015/1024 CNL=

0000011300
999
SPAU32 AMMC 101800
SPECI YPGV 101800Z AUTO 13009KT 8000 // SCT005 BKN011 OVC100 25/24
Q1006=

0000011600
000
SARM31 LUKK 101800
METAR LUKK 101800Z 30005KT 260V330 9999 OVC049 06/03 Q1011
R26/CLRD65 NOSIG=

0000012400
001
SACG20 FCBB 101800
METAR FCBB 101800Z 13004KT 060V170 8000 FEW016 SCT023 FEW030CB 25/22
Q1012 TEMPO TS=

0000010800
002
SANO33 ENMI 101750 RRA
METAR ENBL 101750Z VRB01KT 9999 FEW/// SCT006 BKN045 M00/M01 Q996=

0000060500
003
SABO41 SLLP 101800
METAR SLLP 101800Z 13012KT 080V180 9999 VCTS SCT017 FEW020CB 
BKN200 16/02 Q1034=
METAR SLVR 101800Z 36012KT 9999 BKN017 30/22 Q1009=
METAR SLCB 101800Z 19005KT 9999 FEW027 FEW030CB 27/01 Q1021=
METAR SLTJ 101800Z 09006KT 9999 NSC 31/11 Q1014=
METAR SLTR 101800Z 34008KT 9999 SCT017 30/24 Q1010= 
METAR SLPS 101800Z 36015KT 8000 TS VCSH BKN020 FEW025CB 
32/25 Q1008= 
METAR SLET 101800Z 32014KT 9999 SCT012 BKN017 28/24 Q1008=
METAR SLSU 101800Z 08006KT 9999 FEW023 22/10 Q1026=
METAR SLCO 101800Z 32005KT 9999 SCT017 BKN080 BKN200 29/23 
Q1010=

0000019000
004
FTAU31 YBBN 101800 RRD
TAF YPAD 101750Z 1018/1124
15012KT 9999 FEW015 
FM110000 22014KT CAVOK
FM110800 15014KT CAVOK
RMK
FM110800 MOD TURB BLW 3000FT TILL112300=

0000010200
005
SACV20 GVBA 101800
METAR GVBA 101800Z 05011KT 9999 FEW015 BKN200 23/14 Q1014 NOSIG=

0000009500
006
SALI20 GLRB 101800
METAR GLRB 101800Z 24004KT 9999 BKN017 29/25 Q1009 NOSIG=

0000020200
007
SAUS71 KWBC 101700 RRI
METAR
KMMU 101745Z 00000KT 5SM BR OVC010 M01/M03 A3041=
KSCH 101749Z 00000KT 10SM SCT037 OVC042 M01/M04 A3033=
KSWF 101745Z 00000KT 7SM SKC M02/M03 A3039=

0000009400
008
SPAU32 YBBN 101800
SPECI YAMB 101800Z AUTO 00000KT 2100 // NCD 18/18 Q1017=

0000009400
009
SPAU32 AMMC 101800
SPECI YAMB 101800Z AUTO 00000KT 2100 // NCD 18/18 Q1017=

0000016900
010
SANO32 ENMI 101750 RRA
METAR ENRO 101750Z 09011KT 6000 -SN SCT007 BKN011 M12/M15 Q0995=
METAR ENRY 101750Z 17007KT 140V200 9999 BKN014 01/M00 Q0998=

0000008900
011
SAJM31 MKJP 101800
METAR MKJP 101800Z 14017KT 9999 FEW024 32/23 Q1014=

0000009500
012
SAUS74 KWBC 101700 RRF
METAR
KSBD 101749Z 00000KT 10SM FEW200 14/00 A3014=

00000000