0000008700
953
SARH32 LDZM 101900
METAR LDLO 101900Z NIL=
METAR LDSB 101900Z NIL=

0000046700
954
SARH31 LDZM 101900
METAR LDSP 101900Z VRB03KT 9999 BKN050 12/09 Q1022 NOSIG =
METAR LDPL 101900Z 08004KT 9999 BKN045 11/09 Q1021 NOSIG =
METAR LDDU 101900Z 07006KT 9999 SCT017 BKN035 11/08 Q1022 NOSIG =
METAR LDZA 101900Z VRB03KT 0800 R05/0650VP2000D R23/0400V0600N PRFG
NSC 07/07 Q1020 BECMG 3000 =
METAR LDZD 101900Z 12003KT 7000 SCT060 07/07 Q1022 NOSIG =
METAR LDRI 101900Z NIL=
METAR LDOS 101900Z 08004KT 1000 BR NSC 04/04 Q1022=

0000011900
955
SACN62 CYCY 101900
METAR CYCY 101900Z 26005KT 15SM FEW140 BKN160 M28/M30 A2911 RMK
 AC1AS6 SLP863=

0000014100
956
SARH31 LDZM 101900 CCA
METAR COR LDZA 101900Z VRB03KT 4000 0800NE R05/0650VP2000D R23/0500N
PRFG NSC 07/06 Q1020 NOSIG =

0000009200
957
SPIN90 VOMM 110510
SPECI VOMM 110510Z 06005KT 6000 SCT020 28/19 Q1016 NOSIG=
0000009900
958
SAAE33 VTBB 101830 RRB
METAR VVCR 101830Z 35005KT 9999 FEW017 24/18 Q1017 NOSIG=

0000009100
959
SARM31 LUKK 101900
METAR LUBL 101900Z AUTO 28011KT 9999 NCD 04/00 Q1011=

0000008300
960
SAAG41 SAME 101900
METAR SAME 101900Z 05008KT CAVOK 29/05 Q1010=

0000014100
961
SARH31 LDZM 101900 CCB
METAR COR LDZA 101900Z VRB03KT 4000 0800NE R05/0650VP2000D R23/0500N
PRFG NSC 07/06 Q1020 NOSIG =

0000010100
962
SABZ18 SBKP 101900
METAR SBKP 101900Z 10009KT 9999 FEW040 FEW049TCU
30/15 Q1013=

0000011300
963
SACN61 CYKF 101900
METAR CYKF 101900Z AUTO 17005KT 1/8SM FG VV002 M01/M01 A3010 RMK
 SLP208=

0000011400
964
SACN61 CYLW 101900
METAR CYLW 101900Z AUTO 36007KT 9SM OVC110 03/00 A2984 RMK PRESRR
 SLP121=

0000011300
965
SACN61 CYHU 101900
METAR CYHU 101900Z AUTO 18005KT 9SM -SN OVC018 M04/M06 A3028 RMK
 SLP256=

0000013300
966
SACN62 CYIO 101900
METAR CYIO 101900Z 16006KT 15SM -SN FEW025 BKN055 BKN068 M22/M25
 A2906 RMK SC1SC5AC1 SLP849=

0000030800
967
SAMX34 MMMD 101900
METAR MMCZ 101841Z 14009KT 8SM  BKN015TCU 26/21 A2999 RMK 8/200 SC=
METAR MMMD 101850Z 13011KT 7SM  BKN020TCU 29/20 A2994 RMK 8/200=
METAR MMTP 101844Z 24010KT 10SM  FEW020 30/22 A2988 RMK 8/100=
METAR MMUN 101841Z 14010KT 7SM  SCT018 28/22 A2999 RMK 8/100 MDT CU=

0000011100
968
SAMR20 TFFF 101900
METAR TFFF 101900Z AUTO 06016KT 030V090 9999 BKN033 BKN039 28/20
Q1014=

0000010700
969
SACG20 FCBB 101900
METAR FCBB 101900Z 00000KT 8000 FEW020 FEW030CB 25/22 Q1013 TEMPO TS=

0000031200
970
FTUS52 KWBC 101900 AAA
TAF AMD
KJBR 101857Z 1019/1118 17012G20KT P6SM BKN035
     FM102100 17012G20KT P6SM VCSH BKN025
     FM102300 21015G25KT 3SM -RA BR VCTS OVC005CB
     FM110700 24012KT P6SM BKN012 OVC070
     FM111000 25010KT P6SM SCT020
     FM111500 27012G20KT P6SM SCT025=

0000052700
971
FTUS53 KWBC 101900 AAA
TAF AMD
KAXN 101858Z 1019/1118 17012KT 1SM BR OVC002
     FM102000 18009KT 2SM BR BKN006 OVC015
     FM102200 20006KT 5SM BR SCT012 BKN100
     FM110300 27006KT P6SM SCT200
     FM111000 31010KT P6SM SCT025 BKN040
     FM111600 30010KT P6SM SCT250=
KLSE 101858Z 1019/1118 15006KT 2SM BR OVC007
      TEMPO 1019/1022 1 1/2SM -FZDZ BR OVC005
     FM102200 VRB03KT 2SM -SN BR OVC010
     FM110700 28005KT 6SM -SN BR OVC008
     FM111100 29007KT 6SM BR SCT010 BKN150=

0000120400
972
FTUS80 KWBC 101900 AAA
TAF AMD
KAXN 101858Z 1019/1118 17012KT 1SM BR OVC002
     FM102000 18009KT 2SM BR BKN006 OVC015
     FM102200 20006KT 5SM BR SCT012 BKN100
     FM110300 27006KT P6SM SCT200
     FM111000 31010KT P6SM SCT025 BKN040
     FM111600 30010KT P6SM SCT250=
KJBR 101857Z 1019/1118 17012G20KT P6SM BKN035
     FM102100 17012G20KT P6SM VCSH BKN025
     FM102300 21015G25KT 3SM -RA BR VCTS OVC005CB
     FM110700 24012KT P6SM BKN012 OVC070
     FM111000 25010KT P6SM SCT020
     FM111500 27012G20KT P6SM SCT025=
KJFK 101858Z 1019/1124 VRB04KT 4SM BR SCT008 OVC015
      TEMPO 1020/1024 2SM -DZ BR BKN008
     FM110000 VRB04KT 3SM BR BKN008 OVC015
      TEMPO 1102/1105 -RA BKN008 OVC015
     FM110500 16008KT 3SM -RA BR BKN006 OVC015 WS020/19040KT
     FM110800 15011KT 1SM -RA BR OVC004 WS020/19055KT
     FM111400 17018KT 1SM -RA BR OVC004 WS015/19060KT
     FM111900 18023G30KT 1SM RA OVC004 WS015/19060KT=
KLSE 101858Z 1019/1118 15006KT 2SM BR OVC007
      TEMPO 1019/1022 1 1/2SM -FZDZ BR OVC005
     FM102200 VRB03KT 2SM -SN BR OVC010
     FM110700 28005KT 6SM -SN BR OVC008
     FM111100 29007KT 6SM BR SCT010 BKN150=

00000000