0000061300
913
SAIY32 LIIB 110020
METAR LIBD 110020Z 25005KT 7000 NSC 06/06 Q1022=
METAR LIBR 110015Z 28002KT 8000 NSC 07/06 Q1021 NOSIG=
METAR LICC 110020Z NIL=
METAR LICJ 110020Z 14006KT CAVOK 11/08 Q1021=
METAR LIPE 110020Z VRB02KT 0500 R12/0800V1000U FG OVC001 07/07
Q1022=
METAR LIPH 110015Z /////KT 1500 BR SCT020 BKN035 06/05 Q1021=
METAR LIPQ 110020Z 00000KT 1500 BR SCT010 BKN020 09/06 Q1021=
METAR LIPR 110015Z /////KT 6000 BKN045 09/09 Q1021=
METAR LIPX 110015Z 28001KT 1000 R04/P1500N BR SCT010 BKN045 08/06
      Q1022=
METAR LIPZ 110020Z VRB01KT 3500 BR BKN040 08/07 Q1022=

0000004200
914
SAIY33 LIIB 110020
NIL=

0000008700
915
SAIY32 LIIB 110020 RRA
METAR LICC 110020Z 27009KT CAVOK 11/07 Q1021=

0000124300
916
SACA32 KWBC 110000
METAR MDLR 110000Z 05010KT 9999 FEW018 24/22 Q1017=
METAR MDPC 110000Z 10012KT 9999 FEW022 26/21 Q1018 NOSIG=
METAR MDPP 110000Z 12005KT 9999 SCT018 24/22 Q1018=
METAR MDSD 110000Z 06006KT 9999 FEW018 25/21 Q1017=
METAR MDST 110000Z 11011KT 9999 FEW016 23/21 Q1018=
METAR MTCH NIL=
METAR MTPP NIL=
METAR TAPA 110000Z 09011KT 9999 SCT018 25/19 Q1017 NOSIG=
METAR TIST 102353Z AUTO 08012G22KT 10SM CLR 25/17 A3007 RMK AO2
     SLP184
60000 T02500172 10289 20244 53014 TSNO=
METAR TISX 102353Z 06006KT 10SM FEW070 24/17 A3007 RMK AO2 SLP181
     60000
T02440172 10283 20233 51017=
METAR TJBQ 102350Z 10011KT 10SM SCT030 27/ A3009 RMK RWY08 ATIS L=
METAR TJMZ NIL=
METAR TJNR 102353Z AUTO 06012G15KT 10SM FEW033 SCT060 26/19 A3010 RMK
AO2 SLP193 T02610194 10289 20261 53015 TSNO=
METAR TJPS 102350Z 00000KT 8SM FEW030 SCT050 26/19 A3003=
METAR TJSJ 102356Z 08007KT 10SM SCT026 SCT045 25/21 A3008 RMK AO2 PK
     WND
08029/2340 RAB35E54 SLP185 P0000 60001 T02500211 10289 20239
53014 $=
METAR TKPK 110000Z 08015KT 9999 SCT021 25/19 Q1017=
METAR TKPN NIL=
METAR TQPF NIL=
METAR TRPM NIL=
METAR TUPJ 110000Z 10010KT 9999 FEW020 25/19 Q1019=
METAR TUPW NIL=

0000018900
917
FTCN35 CWAO 110000 AAA
TAF AMD CYSN 110025Z 1100/1102 VRB03KT P6SM SCT020 OVC130 TEMPO
     1100/1102 5SM BR BKN020 OVC130
    RMK NXT FCST WILL BE ISSUED AT 111345Z=

0000066200
918
SACA33 KWBC 110000
METAR TBPB 110000Z 07014KT 9999 SCT018 BKN036 25/21 Q1015 NOSIG=
METAR TDPD 110000Z 09012KT 9999 BKN016 25/21 Q1017=
METAR TDPR NIL=
METAR TFFF 110000Z AUTO 05008KT 9999 FEW032 BKN046 BKN056 25/20
Q1016=
METAR TFFG NIL=
METAR TFFJ NIL=
METAR TFFR 110000Z AUTO 08005KT 9999 FEW033 24/19 Q1017=
METAR TGPY 110000Z 10007KT 9999 SCT018 25/22 Q1014=
METAR TGPZ NIL=
METAR TLPC NIL=
METAR TLPL NIL=
METAR TNCA NIL=
METAR TNCB NIL=
METAR TNCC NIL=
METAR TNCE NIL=
METAR TNCM 110000Z 08013KT 9999 FEW019 26/17 Q1018 A3007 NOSIG=
METAR TTCP NIL=
METAR TTPP NIL=
METAR TVSM NIL=
METAR TVSU NIL=

0000037100
919
SAFI34 EFHK 110020
EFET 110020Z AUTO 35002KT CAVOK M28/M31 Q1014=
EFIV 110020Z AUTO 24003KT 6000 OVC003 M29/M33 Q1016=
EFKE 110020Z AUTO 02013KT 360V060 CAVOK M14/M17 Q1008=
EFKI 110020Z AUTO 05011KT 020V090 9999 -SHSN BKN017 M12/M14 Q1001=
EFKS 110020Z AUTO 03007KT 350V090 CAVOK M17/M21 Q1006=
EFKT 110020Z AUTO VRB01KT CAVOK M19/M22 Q1014=

0000133000
920
SASA31 KWBC 110000
METAR SEGU 110000Z 22007KT 9999 BKN020 BKN090 28/22 Q1008 RMK A2977
NOSIG=
METAR SEQU NIL=
METAR SKBO 110000Z 29005KT 9999 SCT020 SCT080 13/10 A3024=
METAR SKBQ 110000Z 01007KT CAVOK 26/23 A2979=
METAR SKCG 110000Z 03005KT CAVOK 27/22 A2978=
METAR SKCL 110000Z 36007KT 9999 FEW020 SCT100 24/19 A2989=
METAR SKLT 110000Z 00000KT 9999 FEW016 SCT080 25/24 A2977=
METAR SKRG NIL=
METAR SKSP 110000Z 08014KT 9999 SCT018 27/23 A2986=
METAR SMNI NIL=
METAR SMZO 110000Z 00000KT 9999 FEW012 SCT025 26/22 Q1012 NOSIG=
METAR SMZY NIL=
METAR SOCA 110000Z AUTO 00000KT 9999 NSC 23/21 Q1012=
METAR SPIM 110000Z 16012KT CAVOK 22/19 Q1011 NOSIG RMK PP000=
METAR SPQT 110000Z 00000KT CAVOK 25/23 Q1007 NOSIG RMK PP000=
METAR SPQU 110000Z 27007KT 9999 SCT020 BKN030 12/10 Q1024 RMK PP000=
METAR SPSO 110000Z /////KT 9999 BKN100 SCT230 23/19 Q1009 RMK PP000=
METAR SPTN 110000Z 22006KT CAVOK 21/16 Q1010 RMK PP000=
METAR SPYL NIL=
METAR SPZO 110000Z 03004KT 320V120 9999 FEW036 SCT050 BKN080 14/05
     Q1027
RMK PP000=
METAR SVBC 110000Z 00000KT 9999 BKN010 27/21 Q1011=
METAR SVMC 110000Z /////KT 9999 FEW0136 26/21 Q1011=
METAR SVMI 110000Z 05001KT 9999 SCT016 25/21 Q1013 NOSIG=
METAR SYCJ 110000Z 02006KT 9999 SCT016 23/22 Q1012 NOSIG=
METAR SYTM NIL=

0000066700
921
SAEA20 HKNC 110000
METAR HKJK 110000Z 02006KT 9999 SCT019 18/12 Q1021 NOSIG=
METAR HKEL 110000Z NIL=
METAR HKEM 110000Z NIL=
METAR HKGA 110000Z NIL=
METAR HKKI 110000Z NIL=
METAR HKKR 110000Z NIL=
METAR HKKS 110000Z NIL=
METAR HKKT 110000Z NIL=
METAR HKLO 110000Z NIL=
METAR HKLU 110000Z NIL=
METAR HKMA 110000Z NIL=
METAR HKMB 110000Z NIL=
METAR HKME 110000Z NIL=
METAR HKML 110000Z NIL=
METAR HKMO 110000Z NIL=
METAR HKMU 110000Z NIL=
METAR HKMY 110000Z NIL=
METAR HKNC 110000Z NIL=
METAR HKNI 110000Z NIL=
METAR HKNK 110000Z NIL=
METAR HKNW 110000Z NIL=
METAR HKVO 110000Z NIL=
METAR HKWJ 110000Z NIL=

0000009500
922
SAEG31 HECA 110030
METAR HECA 110030Z 22003KT 2000 BR NSC 12/08 Q1023 NOSIG=

0000053500
923
SADN31 EKCH 110020
METAR EKCH 110020Z 25012KT 9999 BKN041 06/04 Q1007 NOSIG=
METAR EKBI 110020Z 24009KT 9999 FEW013 BKN150 05/04 Q1007=
METAR EKYT 110020Z 25013KT 9999 FEW015 SCT030 BKN160 06/05 Q1004=
METAR EKRK 110020Z AUTO 24009KT 9999NDV FEW015/// SCT019///
BKN040/// BKN150/// 05/03 Q1007=
METAR EKAH 110020Z AUTO 24008KT 190V270 9999NDV BKN037/// 06/03
Q1006=
METAR EKEB 110020Z AUTO 23011KT 9999NDV BKN012/// 07/05 Q1008=
METAR EKRN 110020Z AUTO 27018KT 9999NDV -SHRA  BKN028/// 06/06
Q1008=

0000016500
924
SADN32 EKCH 110020
METAR EKVJ 110023Z NIL=
METAR EKSB 110023Z NIL=
METAR EKSN 110023Z NIL=
METAR EKVD 110023Z NIL=
METAR EKOD 110023Z NIL=

0000045200
925
SADN34 EKCH 110020
METAR EKHN 110020Z AUTO 24007G20KT 170V280 7000NDV BKN012///
///// Q1010=
METAR EKHR 110020Z AUTO 24018KT 9999NDV FEW013/// BKN017///
08/06 Q1008=
METAR EKHA 110020Z AUTO 23023KT 6000NDV 07/06 Q1008=
METAR EKHD 110020Z AUTO 30020KT 9999NDV 07/06 Q1004=
METAR EKGC 110020Z AUTO 23018KT 9999NDV 07/06 Q1007=
METAR EKAV 110020Z AUTO 25017KT 9999NDV FEW015/// SCT039///
BKN120/// BKN150/// 06/04 Q1005=

0000017200
926
FTCN34 CWAO 110000 AAA
TAF AMD CYQT 110023Z 1100/1108 14005KT 3SM -SN BR OVC008 TEMPO
     1100/1108 1SM -FZDZ BR OVC004
    RMK NXT FCST BY 110200Z=

0000054700
927
SAUK31 EGGY 110020
METAR EGBB 110020Z AUTO 21009KT 9000 FEW007/// SCT010///
    BKN032/// 08/07 Q1010 RERA=
METAR EGCC 110020Z 28006KT 9999 FEW005 BKN031 BKN036 07/06 Q1009=
METAR EGKK 110020Z 21006KT 9999 FEW009 BKN012 08/06 Q1014=
METAR EGLL 110020Z 21008KT 9999 -RA FEW023 SCT032 BKN041 08/06
    Q1013=
METAR EGPF 110020Z 27005KT 9999 SCT048 02/00 Q1008=
METAR EGPH 110020Z 25007KT 9999 FEW032 02/01 Q1008=
METAR EGPK 110020Z NIL=
METAR EGSS 110020Z 21010KT 9999 -RA SCT007 BKN010 OVC036 07/06
    Q1012=

0000048200
928
SAUK32 EGGY 110020
METAR EGAA 110020Z 19004KT CAVOK 02/01 Q1010=
METAR EGAC 110020Z NIL=
METAR EGFF 110020Z 28010KT 3700 DZ BKN003 07/07 Q1012=
METAR EGGW 110020Z 20010KT 160V230 9000 DZ BKN007 07/06 Q1012=
METAR EGLC 110020Z AUTO 22008KT 9999 -RA OVC035/// 08/06 Q1013=
METAR EGNM 110020Z 28004KT 9999 -RADZ SCT008 SCT026 06/06 Q1007=
METAR EGNX 110020Z 23013KT 9999 FEW015 BKN030 08/06 Q1009=
METAR EGPD 110020Z AUTO 27007KT 9999 NCD 02/M03 Q1005=

0000035100
929
SAUK33 EGGY 110020
METAR EGGD 110020Z 21011KT 5000 RADZ SCT004 BKN013 07/07 Q1011=
METAR EGGP 110020Z 29003KT 9999 SCT033 07/06 Q1009=
METAR EGHI 110020Z NIL=
METAR EGNS 110020Z NIL=
METAR EGNT 110020Z 28008KT 9999 SCT032 03/03 Q1007=
METAR EGNV 110020Z NIL=
METAR COR EGPB 110020Z 26021KT 9999 FEW020 06/04 Q0999 NOSIG=

0000025200
930
SAUK34 EGGY 110020
METAR EGHE 110020Z NIL=
METAR EGHK 110020Z NIL=
METAR EGHQ 110020Z NIL=
METAR EGJA 110020Z NIL=
METAR EGJB 110020Z NIL=
METAR EGJJ 110020Z NIL=
METAR EGTE 110020Z 21009KT 9999 FEW020 SCT035 09/07 Q1012=

0000024300
931
SAUK35 EGGY 110020
METAR EGHH 110020Z NIL=
METAR EGKA 110020Z NIL=
METAR EGKB 110020Z NIL=
METAR EGLF 110020Z NIL=
METAR EGMC 110020Z NIL=
METAR EGMD 110020Z NIL=
METAR EGMH 110020Z NIL=
METAR EGTC 110020Z NIL=

0000035200
932
SAUK36 EGGY 110020
METAR EGBE 110020Z 21008KT 9999 FEW015 SCT025 BKN032 08/06 Q1010=
METAR EGBJ 110020Z NIL=
METAR EGCN 110020Z 21013KT 9999 FEW035 09/06 Q1009=
METAR EGSC 110020Z NIL=
METAR EGSD 110020Z NIL=
METAR EGSH 110020Z AUTO 22010KT 9999 -RA NCD 08/06 Q1011 RERA=
METAR EGVN 110020Z NIL=
METAR EGWU 110020Z NIL=

00000000