0000010100
193
SPUS42 KWBC 101837
SPECI
KGPT 101833Z 09005KT 1 3/4SM -RA BR OVC006 16/14 A3004=

0000051800
194
SAMS31 WMKK 101830
METAR WBGG 101830Z 24002KT 9999 -RA SCT020 BKN150 23/23 Q1011 NOSIG=
METAR WBKK 101830Z 10003KT 9999 FEW014 SCT140 BKN280 24/23 Q1010
NOSIG=
METAR WBSB 101830Z 20002KT 9999 FEW005 BKN300 25/24 Q1011 NOSIG=
METAR WMKK 101830Z 35005KT 300V030 9000 FEW017CB SCT140 BKN280 25/23
Q1011 NOSIG=
METAR WMKP 101830Z 36001KT 8000 -RA FEW010 SCT025 OVC260 25/24 Q1012
NOSIG=
METAR WSSL 101830Z NIL=
METAR WSSS 101830Z 02003KT 320V100 9999 FEW018 BKN140 25/23 Q1011
NOSIG=

0000026300
195
SANZ31 NZKL 101830
METAR NZAA 101830Z AUTO 00000KT 9999 FEW030/// OVC045/// 16/12 Q1018
          NOSIG=
METAR NZWN 101830Z AUTO 01006KT 350V050 9999 NCD 14/11 Q1017 NOSIG=
METAR NZCH 101830Z AUTO 04004KT 9999 BKN017/// 13/12 Q1016 NOSIG=

0000012700
196
SAIO31 KWBC 101800 RRG
METAR
FMCZ 101830Z NIL=
FMEE 101830Z NIL=
VYMD 101830Z NIL=
VYYY 101830Z NIL=

0000037600
197
FTCN31 CWAO 101800
TAF CBBC 101838Z 1019/1106 VRB03KT P6SM SCT015 OVC030 TEMPO 1019/1022
     3SM -SHRA BR BKN015
    FM102200 12010KT P6SM -SHRA BKN025 OVC040 TEMPO 1022/1101 3SM
     -SHRA BR BKN010 OVC020
    FM110100 12008KT 2SM -RA BR OVC009 TEMPO 1101/1106 6SM -RA BR
     SCT010 OVC020
    RMK FCST BASED ON AUTO OBS. NXT FCST BY 110100Z=

0000022400
198
FTCN31 CWAO 101800
TAF CYPR 101838Z 1019/1107 15005KT P6SM FEW025 BKN040 OVC050 TEMPO
     1019/1107 6SM BR BKN015
     BECMG 1020/1022 12012G22KT
    RMK FCST BASED ON AUTO OBS. NXT FCST BY 110100Z=

0000033800
199
FTCN31 CWAO 101800
TAF CYBL 101838Z 1019/1105 VRB03KT P6SM FEW008 BKN030 OVC180 TEMPO
     1019/1022 P6SM -SHRA SCT008 BKN020
     BECMG 1019/1021 13008KT
    FM102200 13010KT P6SM -RA SCT006 OVC015 TEMPO 1022/1105 2SM -SHRA
     BR SCT003 OVC006
     BECMG 1023/1101 13015G30KT
    RMK NXT FCST BY 110100Z=

0000036900
200
FTCN31 CWAO 101800
TAF CYKA 101838Z 1019/1107 VRB03KT P6SM FEW015 BKN060 TEMPO 1019/1024
     P6SM -SN
     BECMG 1021/1023 09007KT
    FM110000 09007KT P6SM SCT050 BKN080 TEMPO 1100/1103 4SM -RASN BR
     SCT020 BKN050
    FM110300 10012G22KT P6SM -RA SCT015 OVC040 TEMPO 1103/1107 3SM
     -RASN BR OVC015
    RMK NXT FCST BY 110100Z=

0000021800
201
FTCN31 CWAO 101800
TAF CYCG 101838Z 1019/1101 20012KT P6SM SCT050 BKN100 TEMPO 1019/1101
     5SM -RASN BR FEW030 BKN050
     BECMG 1019/1021 17007KT
    RMK NXT FCST WILL BE ISSUED AT 111545Z=

0000026800
202
FTCN31 CWAO 101800
TAF CYXC 101838Z 1019/1107 VRB03KT P6SM FEW050 SCT080 TEMPO 1019/1024
     BKN050
    FM110000 VRB03KT P6SM BKN050 BKN180 TEMPO 1103/1107 4SM -RASN BR
     BKN030
     BECMG 1103/1105 17008KT
    RMK NXT FCST BY 110100Z=

0000026200
203
FTCN31 CWAO 101800
TAF CYLW 101838Z 1019/1107 35010KT P6SM FEW050 BKN100
     BECMG 1019/1021 19007KT
    FM110300 15006KT P6SM SCT020 OVC050 TEMPO 1103/1107 2SM -RASN BR
     OVC020
    RMK FCST BASED ON AUTO OBS. NXT FCST BY 110100Z=

0000016000
204
FTCN32 CWAO 101800
TAF CYPE 101838Z 1019/1107 20005KT P6SM SCT050 BKN090 TEMPO 1019/1107
     6SM -SN BKN050
    RMK NXT FCST BY 110100Z=

0000018400
205
FTCN33 CWAO 101800
TAF CYBB 101838Z 1019/1024 23020G30KT 4SM IC BLSN BKN020 TEMPO
     1019/1024 6SM IC SCT020 BKN090
    RMK NXT FCST WILL BE ISSUED AT 111745Z=

0000025900
206
FTCN34 CWAO 101800
TAF CYQD 101838Z 1019/1107 16008KT 6SM -SN BR OVC012 TEMPO 1019/1022
     2SM -SN BR OVC008
    FM102200 20003KT P6SM BKN025 TEMPO 1022/1107 3SM -SN BKN012
     BECMG 1101/1103 28007KT
    RMK NXT FCST BY 110100Z=

0000017900
207
FTCN33 CWAO 101800
TAF CZFM 101838Z 1019/1024 VRB03KT 2SM -SN OVC015 TEMPO 1019/1024
     P6SM -SN FEW015 BKN040
    RMK NXT FCST WILL BE ISSUED AT 111545Z=

0000025900
208
FTCN34 CWAO 101800
TAF CYNE 101838Z 1019/1107 VRB03KT P6SM -SN SCT006 OVC012 TEMPO
     1019/1023 2SM -SN BR OVC006
    FM102300 09005KT 4SM -SN OVC015 TEMPO 1023/1107 1SM -SN VV010
    RMK FCST BASED ON AUTO OBS. NXT FCST BY 110100Z=

0000012500
209
FTCN33 CWAO 101800
TAF CYCB 101838Z 1019/1107 26010KT P6SM IC FEW040 SCT070
    RMK NXT FCST BY 110100Z=

0000034200
210
FTCN31 CWAO 101800
TAF CYZP 101838Z 1019/1107 24010KT P6SM SCT040 BKN150
    FM102100 12015G30KT P6SM SCT020 BKN040 OVC100 TEMPO 1021/1024 5SM
     -RA BR BKN020 OVC040
    FM110000 14030G40KT 6SM -RA BR OVC025 TEMPO 1100/1107 14040G50KT
     2SM -RA BR BKN009
    RMK FCST BASED ON AUTO OBS. NXT FCST BY 110100Z=

0000025000
211
FTCN34 CWAO 101800
TAF CYVC 101838Z 1019/1107 19005KT 3SM -SN BKN007 OVC011 TEMPO
     1019/1023 6SM -SN SCT007 OVC012
    FM102300 26006KT P6SM SCT008 BKN015 TEMPO 1023/1103 4SM -SN
     OVC008
    RMK NXT FCST BY 110100Z=

0000012200
212
FTCN34 CWAO 101800
TAF CYPA 101838Z 1019/1107 22007KT P6SM FEW120 BKN250
    RMK NXT FCST BY 110100Z=

00000000