0000163100
293
SPUS70 KWBC 110228
SPECI
KBAF 110224Z 00000KT 5SM BR OVC014 M01/M02 A3030 RMK AO2
     T10061022=
KBFM 110224Z 00000KT 1SM +RA BR VV003 16/15 A2998 RMK AO2 LTG DSNT
     E P0006 T01560150=
KBRL 110224Z AUTO 21005KT 1/4SM -RA FG VV003 04/04 A2951 RMK AO2
     P0000 T00390039=
KCXY 110224Z AUTO 00000KT 1SM R08/5500VP6000FT -RA BR OVC003 01/00
     A3024 RMK AO2 UPB0158E04RAB04 P0001=
KHKS 110224Z 14006KT 4SM -RA BR OVC009 15/14 A2988 RMK AO2
     P0001=
KOSU 110224Z 14009KT 7SM SCT007 OVC030 07/07 A2984 RMK AO2
     T00720067=
KPNS 110224Z AUTO 14006KT 1/2SM R17/1600V3500FT FG VV002 17/17
     A3000 RMK AO2 LTG DSNT N AND NW RAB01E20 P0001 T01720167=
KRBD 110224Z AUTO 33012KT 10SM CLR 16/09 A2976 RMK AO2 WSHFT 0204
     TSNO=
KTDZ 110224Z AUTO 21003KT 1 1/4SM RA BR OVC004 04/03 A2984 RMK AO2
     P0008 TSNO=
KBIV 110225Z AUTO 16013KT 4SM RA BR BKN007 BKN013 OVC039 04/04
     A2963 RMK AO2 P0007 T00440044=
KDUJ 110225Z AUTO 12012G18KT 7SM BKN008 03/01 A3002 RMK AO2=
KGGG 110225Z 22012G17KT 10SM FEW010 BKN020 OVC027 18/16 A2976 RMK
     AO2=
KGLR 110225Z AUTO 16014KT 4SM FZRA BR OVC006 00/M01 A2965 RMK AO2
     UPB17E19FZRAE17B19 P0007 I1002 T00001006=
KLBT 110225Z AUTO 19006KT 9SM BKN005 OVC011 18/18 A3013 RMK AO2
     RAE10 P0000 T01780178=
KMCW 110225Z AUTO 28003KT 1 3/4SM -SN BR BKN033 OVC055 M02/M02
     A2952 RMK AO2 P0000 T10171017 TSNO=
KVIH 110225Z AUTO 16009KT 6SM -RA BR FEW004 OVC049 07/06 A2957 RMK
     AO2 P0011 T00670061 $=
PABR 110225Z 30010KT 2 1/2SM BR OVC006 M23/M26 A2984 RMK AO2 VIS 1
     3/4V5 T12281256=

0000009500
294
SPUS41 KWBC 110228
SPECI
KBAF 110224Z 00000KT 5SM BR OVC014 M01/M02 A3030=

0000011700
295
SPUS42 KWBC 110228
SPECI
KPNS 110224Z AUTO 14006KT 1/2SM R17/1600V3500FT FG VV002 17/17
A3000=

0000009500
296
SACA33 KWBC 110200 RRD
METAR
TTPP 110200Z 00000KT 9999 FEW016 23/21 Q1014=

0000014400
297
SPMG20 FMMI 110226
SPECI FMMI 110226Z VRB02KT 0800W 8000 R11/800V1100U PRFG FEW007
SCT020 BKN230 17/17 Q1021 TEMPO 1500 BR=

0000025000
298
SADL36 EDZO 110220
METAR ETMN 110220Z 23010KT 6000 BKN009 06/05 Q1012
      GRN=
METAR ETNL 110220Z 24008KT 9999 FEW015 BKN026 05/03 Q1012
      BLU=
METAR ETSI 110220Z AUTO 04001KT 0250 // ////// M03/M03 Q1019
      ///=

0000094400
299
SANL33 EHDB 110225
METAR EHAK 110225Z AUTO 23022KT 4000 DZ FEW001/// BKN003/// OVC004///
07/06 Q1005=
METAR EHDV 110225Z AUTO 23023KT 6000 DZ FEW005/// SCT007/// BKN008///
08/07 Q1007=
METAR EHFD 110225Z AUTO 24024KT 9999 -RA FEW006/// BKN008///
BKN021/// 08/07 Q1007 RERA REDZ=
METAR EHFZ 110225Z AUTO 24022KT //// // ///////// 08/07 Q1009 RE//=
METAR EHJA 110225Z AUTO 22024KT 8000 -RADZ FEW006/// BKN031///
BKN036/// 07/06 Q1009=
METAR EHJR 110225Z NIL=
METAR EHKV 110225Z AUTO 25030KT 9999 DZ FEW010/// BKN012/// BKN015///
09/06 Q1010=
METAR EHMA 110225Z AUTO 21020KT 6000 FEW005/// OVC007/// 07/06 Q1011=
METAR EHMG 110225Z AUTO 23025KT 9999 FEW009/// SCT018/// 09/07 Q1010=
METAR EHPG 110225Z AUTO ///28KT 9999 FEW007/// SCT009/// BKN013///
09/07 Q1011=
METAR EHQE 110225Z AUTO 23024KT 9999 FEW008/// SCT011/// BKN014///
09/07 Q////=
METAR EHSA 110225Z NIL=
METAR EHSC 110225Z NIL=

0000009300
300
SAUK35 EGGY 110220 RRA
METAR EGHH 110220Z 22005KT 9999 BKN037 09/07 Q1013=

0000013500
301
FTBR31 TBPB 110200
TAF
TBPB 110200Z 1106/1206 06015KT 9999 SCT018 
     TEMPO 1106/1118 8000 SHRA BKN014 BKN038=

0000008900
302
SASG20 GOOY 110230
METAR GOOY 110230Z 36010KT CAVOK 19/14 Q1014 NOSIG=

0000015300
303
FCBX31 EBBR 110200 CCA
TAF COR EBAW 110220Z 1103/1112 22010KT 9999 BKN008
    BECMG 1107/1110 SCT012 
    TEMPO 1110/1112 BKN012 =

0000025400
304
FTCN34 CWAO 110200 AAA
TAF AMD CYQR 110229Z 1102/1112 32005KT 1/4SM FZFG VV002 TEMPO
     1102/1106 3SM BR FEW002 SCT050
    FM110600 28007KT P6SM SCT006 BKN012 TEMPO 1106/1112 11/2SM BR
     BKN006
    RMK NXT FCST BY 110600Z=

0000051600
305
FTSW31 LSSW 110200
TAF LSZH 110225Z 1103/1209 VRB03KT 0400 FG VV001 TX08/1114Z
     TN01/1106Z TN04/1206Z PROB40 TEMPO 1103/1108 1000 PRFG BECMG
     1108/1111 6000 BKN120 PROB40 TEMPO 1117/1122 RA=
TAF LSGG 110225Z 1103/1209 VRB03KT CAVOK TX09/1113Z TN02/1103Z
     TN03/1205Z PROB30 1103/1108 5000 BR NSC PROB40 TEMPO 1110/1115
     24007KT BECMG 1112/1115 9999 FEW050 SCT080 BKN150 TEMPO
     1115/1120 9999 BKN080 BECMG 1120/1123 04006KT FEW050 SCT080
     BECMG 1200/1203 CAVOK=

0000025100
306
FCSW31 LSSW 110200
TAF LSGC 110200Z NIL=
TAF LSGS 110200Z NIL=
TAF LSZA 110200Z NIL=
TAF LSZB 110200Z NIL=
TAF LSZC 110200Z NIL=
TAF LSZG 110200Z NIL=
TAF LSZL 110200Z NIL=
TAF LSZR 110200Z NIL=
TAF LSZS 110200Z NIL=

0000005900
307
FCOS32 LOWM 110200
TAF LOXZ 110200Z NIL=

0000041200
308
SARH31 LDZM 110230
METAR LDSP 110230Z VRB02KT 9999 FEW031 BKN051 12/10 Q1022 =
METAR LDPL 110230Z 00000KT 9000 FEW040 BKN059 09/08 Q1021 =
METAR LDDU 110230Z NIL=
METAR LDZA 110230Z 03003KT 0100 R05/0275N R23/0350N FG VV001 03/03
Q1021 NOSIG =
METAR LDZD 110230Z VRB03KT 9999 SCT027 OVC050 10/09 Q1022 =
METAR LDRI 110230Z NIL=
METAR LDOS 110230Z 15006KT 9999 FEW040 04/03 Q1021=

0000008800
309
SARH31 LDZM 110230 RRA
METAR LDDU 110230Z 08007KT CAVOK 08/06 Q1022 =

0000082900
310
SATU31 LTAA 110220
METAR LTAC 110220Z 29005KT 4800 BR OVC007 M04/M04 Q1022 NOSIG=
METAR LTAF 110220Z 35003KT CAVOK 04/M01 Q1021 NOSIG=
METAR LTAI 110220Z 35007KT 9999 SCT020 BKN200 05/04 Q1022 NOSIG=
METAR LTAJ 110220Z 00000KT CAVOK M03/M06 Q1020 NOSIG=
METAR LTAZ 110220Z NIL=
METAR LTBA 110220Z 27004KT 4000 BR NSC 08/06 Q1021 NOSIG=
METAR LTBJ 110220Z 00000KT 3400 BR NSC 04/02 Q1021 NOSIG=
METAR LTBS 110220Z 06006KT CAVOK 05/04 Q1022 NOSIG=
METAR LTCG 110220Z 20003KT 170V260 CAVOK 06/M01 Q1016 NOSIG=
METAR LTCS 110220Z 33006KT CAVOK 02/M07 Q1020=
METAR LTFC 110220Z 00000KT 0300 R05/0400U R23/0450N FZFG VV001
 M05/M05 Q1023=
METAR LTFE 110220Z 12004KT 090V170 8000 FEW035 BKN100 09/07 Q1021
 NOSIG=
METAR LTFJ 110220Z VRB02KT 9999 SCT013 06/01 Q1022 BECMG TL0400 4000
 BR=

0000031000
311
FCRO32 LROM 110200
TAF LRAR 110200Z NIL=
TAF LRBM 110200Z NIL=
TAF LRCL 110200Z 1103/1112 VRB02KT CAVOK TEMPO 1103/1107 3000 BR=
TAF LROD 110200Z NIL=
TAF LRSM 110200Z NIL=
TAF LRTM 110200Z 1103/1112 VRB04KT 5000 BR SCT045 TEMPO 1103/1107
1500 BR BKN005 BECMG 1107/1109 9999 NSW=

0000017500
312
FCRO33 LROM 110200
TAF LRBC 110200Z NIL=
TAF LRCV 110200Z NIL=
TAF LRIA 110200Z 1103/1112 25006KT CAVOK=
TAF LRSV 110200Z NIL=
TAF LRTC 110200Z NIL=

00000000