0000010600
633
SABZ20 SBTT 101900
METAR SBTT 101900Z 07003KT 8000 VCSH SCT020
FEW025TCU 27/23 Q1008=

0000091300
634
SAMX43 MMMZ 101900
METAR MMCL 101842Z 00000KT 10SM  OVC230 23/14 A2999 RMK 8/007=
METAR MMCN 101842Z 32002KT 10SM  FEW200 24/04 A2997 RMK 8/005 HZY=
METAR MMDO 101850Z 21019KT 14SM  SCT250 20/M19 A3015 RMK 8/004=
METAR MMGM 101840Z 00000KT 10SM  SKC 24/01 A2997 RMK HZY=
METAR MMHO 101856Z  NIL=
METAR MMLM 101851Z 33004KT 12SM  SCT100 SCT200 25/02 A2999 
      RMK 8/032 HZY=
METAR MMLP 101846Z 36009KT 10SM  FEW040 SCT120 BKN200 20/12 A3003 
      RMK 8/538 HZY=
METAR MMLT 101847Z 07005KT 8SM  SCT100 BKN200 20/11 A3001 RMK 8/038=
METAR MMML 101842Z 00000KT 10SM  SKC 19/M05 A3012 RMK ISOL-CI=
METAR MMMZ 101842Z 17007KT 15SM  FEW210 24/13 A2994 RMK 8/002=
METAR MMSD 101845Z 34005KT 15SM  SCT160 25/10 A2998 RMK 8/070 CU/CI=
METAR MMSL 101846Z 15013KT 12SM  FEW120 23/15 A2996 RMK 8/030 ISOL
CI=
METAR MMTJ 101846Z 26003KT 7SM  SKC 22/01 A3013 RMK HZY ISOL CI=

0000040400
635
FTMX51 MMMX 101855 COR
TAF COR MMTO 101855Z 1018/1124 20015KT 6SM HZ BKN015 TX20/1020Z
TN02/1112Z
         FM102000 21018KT P6SM BKN015CB 
         TEMPO 1021/1101 4SM VC RA 
         FM110200 20005KT 6SM HZ SCT015 
         FM111000 00000KT 3SM BR BKN010 
         TEMPO 1110/1114 1SM BR 
         FM111500 04005KT 5SM HZ SCT015 
         FM112100 13010KT P6SM BKN015=

0000029200
636
SAMX31 KWBC 101845 RRB
METAR
MMCZ 101841Z 14009KT 8SM BKN015TCU 26/21 A2999 RMK 8/200 SC=
MMMD 101850Z 13011KT 7SM BKN020TCU 29/20 A2994 RMK 8/200=
MMTP 101844Z 24010KT 10SM FEW020 30/22 A2988 RMK 8/100=
MMUN 101841Z 14010KT 7SM SCT018 28/22 A2999 RMK 8/100 MDT CU=

0000011100
637
SAFK41 EGYP 101850
METAR EGYP 101850Z 21029KT 9999 SCT020 OVC055 06/M00 Q0995 RESHRA
 WHT=

0000008900
638
SABZ24 SBFI 101900
METAR SBFI 101900Z 30004KT 9999 SCT040 32/24 Q1009=

0000068000
639
SAMX42 MMGL 101855
METAR MMAS 101845Z 23012KT 15SM  FEW050 19/M01 A3021 RMK 8/100=
METAR MMEP 101850Z 00000KT 12SM  SKC 26/10 A3009=
METAR MMGL 101854Z 00000KT 10SM  SCT100 23/02 A3014 RMK 8/030 CI=
METAR MMIA 101840Z 00000KT 8SM  BKN250 26/17 A3006 RMK 8/005 RTS=
METAR MMMM 101843Z 19003KT 8SM  BKN030 20/06 A3019 RMK 8/100 CI=
METAR MMPN 101850Z 15006KT 15SM  SCT020TCU 23/10 A3017 RMK 8/200
AC-CI=
METAR MMPR 101845Z 21006KT 15SM  SKC 26/16 A2996=
METAR MMSP 101847Z 27014KT 15SM  FEW025 21/M03 A3016 RMK 8/500 CI E=
METAR MMZC 101842Z 24022G32KT 10SM  SKC 19/M02 A3020=
METAR MMZO 101842Z 13010KT 10SM  FEW025 27/21 A2988 RMK 8/100 HZY=

0000011300
640
SAGL31 BGSF 101850 RRA
METAR BGGH 101850Z 16018KT 2500 SN DRSN BKN014 OVC020 M07/M12 
Q0993=

0000009700
641
SAUK34 EGGY 101850 RRA
METAR EGHQ 101850Z 22011KT 9999 -RA SCT030 08/07 Q1012=

0000008900
642
SABZ21 SBNT 101900
METAR SBNT 101900Z 13018KT 9999 SCT028 28/19 Q1010=

0000010500
643
SAAG41 SAWG 101900
METAR SAWG 101900Z  23021G31KT 9999  BKN035 SCT200
 13/M01 Q1009=

0000010400
644
SPCN48 CWAO 101851
SPECI CYOY 101851Z 22004KT 190V250 9SM -SN OVC100 RMK AC6 VIS N 6=

0000034400
645
SPUS70 KWBC 101856
SPECI
KGON 101852Z 00000KT 2SM -RA BR BKN019 OVC024 02/01 A3039 RMK AO2
     P0000=
K1B7 101845Z 09007KT 0SM FG OVC002 14/14 A3001=
K1B7 101820Z 09008KT 0SM FG OVC002 14/14 A3002=
K7R3 101827Z 12005KT 10SM OVC005 A3000=
KBVO 101851Z AUTO 21010G16KT 9SM BKN016 BKN021 12/10 A2962 RMK
     AO2=

0000010400
646
SPUS41 KWBC 101856
SPECI
KGON 101852Z 00000KT 2SM -RA BR BKN019 OVC024 02/01 A3039=

0000011300
647
SPUS43 KWBC 101856
SPECI
KSUS 101852Z 19008G18KT 6SM RA BR SCT009 BKN055 OVC070 06/05 A2976=

0000042200
648
SAFI34 EFHK 101850
EFET 101850Z AUTO 07001KT 9999 -SHSN SKC M29/M32 Q1013=
EFIV 101850Z AUTO 21003KT 9999 -SG OVC006 M32/M36 Q1016=
EFKE 101850Z AUTO 02014KT 360V060 4400 -SN BR OVC034 M12/M15 Q1006=
EFKI 101850Z AUTO 05013KT 020V080 9999 -SN OVC022 M10/M12 Q0999=
EFKS 101850Z AUTO 04009KT 360V100 8000 -SN SCT016 BKN044 M16/M18
Q1005=
EFKT 101850Z AUTO 02006KT 340V070 CAVOK M18/M20 Q1012=

0000031600
649
SASW39 LSSW 101850 RRA
METAR LSMD 101850Z AUTO 00000KT 2100NDV BR FEW042 BKN074 04/03 Q1019
           RMK YLO=
METAR LSME 101850Z AUTO 06001KT 0650NDV R04/0750V1700D
           R22/0900VP2000D BR NCD 02/01 Q1019 RMK RED=
METAR LSMP 101850Z AUTO 23002KT 9999NDV FEW130 02/02 Q1019 RMK BLU=

0000034500
650
FTUS73 KWBC 101857
TAF
TAF AMD KOFF 1018/1124 16006KT 1600 BR OVC003 620039 QNH2953INS
      BECMG 1021/1022 22009KT 3200 -SN BR OVC005 620057 QNH2955INS
      BECMG 1102/1103 30009KT 9999 NSW OVC015 620154 QNH2958INS
      BECMG 1105/1106 30012KT 9999 SCT015 SCT100 QNH2961INS
      T06/1121Z TM05/1112Z AMD 101852=

0000033100
651
SANL31 EHDB 101855
METAR EHAM 101855Z 21012KT 9999 FEW012 BKN017 07/06 Q1014 TEMPO
BKN012=
METAR EHBK 101855Z AUTO 24007KT 9999 SCT013 05/03 Q1017 NOSIG=
METAR EHGG 101855Z AUTO 23009KT 9999 NSC 04/03 Q1013 NOSIG=
METAR EHRD 101855Z AUTO 21011KT 8000 FEW009 BKN011 OVC014 07/05 Q1015
TEMPO 9000 BKN011=

0000099500
652
SAMX41 MMMX 101856
METAR MMMX 101844Z 19010KT 12SM BKN025 BKN200 19/03 A3025
      NOSIG RMK 8/104 ISOL TCU=
METAR MMAA 101843Z 19005KT 8SM SKC 31/20 A2989=
METAR MMBT 101840Z 00000KT 7SM SKC 30/24 A2992
      RMK CU=
METAR MMCB 101845Z NIL= 
METAR MMOX 101843Z 16010KT 15SM FEW030 25/04 A3014 RMK 8/100=
METAR MMPA 101850Z 06005KT 5SM SCT280 26/20 A2994
      RMK 8/008 HZY=
METAR MMPB 101843Z 17011KT 8SM  FEW020 20/05 A3027 RMK 8/100 HZY=
METAR MMPS 101845Z 27006KT 15SM FEW015 31/18 A3003 RMK 8/100=
METAR MMQT 101845Z 31006KT 8SM BKN020 21/09 A3023 RMK 8/500 AC/CI=
METAR MMTM 101849Z 16009KT 5SM  SCT020 BKN200 25/17 A2992 
      RMK 8/501 HZY=
METAR MMTO 101843Z 17016KT 7SM  BKN020TCU 16/04 A3032
      RMK 8/200 HZY=
METAR MMVR 101844Z 17008KT 7SM  SKC 28/16 A2991 
      RMK HZY DSNT TCU 3,4 QUAD=
METAR MMZH 101852Z 18006KT 7SM SCT020TCU BKN250 30/23 A2990
      RMK 8/202=
METAR MMIT 101845Z NIL= 
METAR MMTB 101845Z NIL= 

00000000