0000013900
173
SACN62 CYEG 101900
METAR CYEG 101900Z 26012KT 15SM FEW032 FEW077 BKN110 BKN230 M02/M04
 A2945 RMK SC1AC1AC4CI1 SLP016=

0000012700
174
SACN62 CYEV 101900
METAR CYEV 101900Z 25007KT 10SM IC DRSN SCT040 BKN090 M26/M29 A2970
 RMK SC3AS3 SLP069=

0000028000
175
SACZ43 LKPW 101900
METAR LKCV 101900Z 24008KT CAVOK 05/00 Q1018 NOSIG=
METAR LKKB 101900Z 25012KT CAVOK 06/M00 Q1017 NOSIG=
METAR LKLN 101900Z NIL=
METAR LKNA 101900Z 25005KT CAVOK 01/M01 Q1018 NOSIG=
METAR LKPD 101900Z 25009KT CAVOK 05/M02 Q1018 NOSIG=

0000015100
176
SNVE20 EHDB 110500
BBXX
PHSG 11054 99050 71339 41395 81220 10250 20235 40110 5/000 70300
8777/ 22214 00240 20202 323// 40304 80240=
0000003800
177
SNVJ20 EHDB 110500
NIL
0000035900
178
SNVD20 EHDB 110500
BBXX
A8IN7 11053 99172 70767 41597 60920 10270 20226 40150 52010 70211
84428 22214 20803 80240=
MGGF9 11053 99223 70864 41298 51522 10261 20230 40178 54000 70222
8/798 22233 20603 3//// 4//// 5//// 80240=
PHSG 11054 99050 71339 41395 81220 10250 20235 40110 5/000 70300
8777/ 22214 00240 20202 323// 40304 80240=
0000041600
179
SAVN26 SVMC 101900
METAR SVMC 101900Z /////KT 9999 SCT026 35/24 Q1012=
METAR SVJC 101900Z 08025KT 9999 FEW013 32/17 Q1011=
METAR SVVG 101900Z 00000KT 9999 SCT013 31/21 Q1009=
METAR SVPM 101900Z NIL=
METAR SVCR 101900Z NIL=
METAR SVSZ 101900Z NIL=
METAR SVSA 101900Z /////KT 9999 FEW020 31/22 Q1013=
METAR SVLF 101900Z NIL=
METAR SVMD 101900Z 23008KT 9999 SCT027 SCT300 24/17 Q1019=

0000011600
180
SACN61 CYGV 101900
METAR CYGV 101900Z AUTO 27011G16KT 5SM -SN OVC020 M09/M11 A3007 RMK
 SLP185=

0000011800
181
SACN62 CYGR 101900
METAR CYGR 101900Z 25020G28KT 20SM FEW240 M05/M12 A3026 RMK CI1 CI TR
 SLP246=

0000013400
182
SACN62 CYKA 101900
METAR CYKA 101900Z 17002KT 30SM -SHSN FEW015 BKN062 OVC110 01/M02
 A2988 RMK SF2SC4AC2 SLP133=

0000012900
183
SACN62 CYLJ 101900
METAR CYLJ 101900Z 26012KT 15SM FEW070 FEW250 M07/M10 A2937 RMK
 AC1CI1 CC ASOCTD SLP975=

0000011300
184
SACN61 CYNA 101900
METAR CYNA 101900Z AUTO 29007KT 6SM -SN OVC012 M09/M10 A3007 RMK
 SLP183=

0000072800
185
SAZA31 FAPR 101900
METAR FABL 101900Z NIL=
METAR FACT 101900Z 18016KT 9999 FEW025 18/12 Q1018 NOSIG=
METAR FAEL 101900Z 24011KT 9999 SCT042 20/14 Q1017=
METAR FAGG 101900Z AUTO 26002KT 9999 FEW023 BKN059 17/13 Q1019=
METAR FALA 101900Z 19005KT CAVOK 26/10 Q1017 NOSIG=
METAR FALE 101900Z 21009KT 9999 SCT025 SCT045 23/20 Q1014 NOSIG=
METAR FAMM 101900Z AUTO 23006KT //// // ////// 26/06 Q1016=
METAR FAOR 101900Z 15005KT CAVOK 22/12 Q1020 NOSIG=
METAR COR FAPE 101900Z 24014KT 9999 FEW021 19/14 Q1017 NOSIG=
METAR FAPN 101900Z AUTO 21007KT //// // ////// 29/04 Q1013=
METAR FAPP 101900Z AUTO 29002KT //// // ////// 23/16 Q1016=
METAR FAUP 101900Z AUTO 22004KT //// // ////// 25/05 Q1014=

0000010600
186
SACN62 CYGP 101900
METAR CYGP 101900Z 26010KT 15SM BKN035 M06/M16 A3014 RMK SC7 SLP209=

0000011200
187
SACN62 CYMX 101900
METAR CYMX 101900Z 04003KT 8SM -SN OVC010 M10/M13 A3029 RMK ST8
 SLP264=

0000015800
188
SATD31 TTPP 101900
METAR
TTPP 101900Z 09013KT 9999 SCT018 29/21 Q1011 NOSIG=
TTCP 101900Z 08010KT 9999 FEW015 SCT090 27/21 Q1013 NOSIG=

0000011300
189
SACN62 CYND 101900
METAR CYND 101900Z 09006KT 10SM -SN OVC011 M07/M10 A3025 RMK SC8
 SLP249=

0000012100
190
SACN61 CYNE 101900
METAR CYNE 101900Z AUTO 07003KT 040V130 9SM -SN OVC008 M10/M11 A2944
 RMK SLP989=

0000012800
191
SACN61 CYPY 101900
METAR CYPY 101900Z AUTO 10003KT 040V110 8SM -SN BKN043 OVC100 M17/M20
 A2947 RMK SLP004=

0000013000
192
SACN61 CYNM 101900
METAR CYNM 101900Z AUTO 20011G16KT 9SM -SN SCT015 BKN038 OVC090
 M06/M08 A2989 RMK SLP142=

00000000