0000012200
953
SPUS41 KWBC 101716
SPECI
KDOV 101713Z AUTO 11007KT 2 1/2SM -RA BR SCT008 BKN039 OVC050
02/02 A3037=

0000083000
954
SAVN20 SVMR 101700
METAR SVCR 101700Z /////KT 9999 FEW016 33/23 Q1017=
METAR SVMC 101700Z /////KT 9999 FEW026 SCT080 34/25 Q1013=
METAR SVBM 101700Z 09011KT 9999 FEW016 29/20 Q1017=
METAR SVBS 101700Z 18006KT 9999 FEW013 31/14 Q1018=
METAR SVMI 101700Z 07003KT 9999 FEW016 29/26 Q1015 NOSIG=
METAR SVFM 101700Z NIL=
METAR SVBC 101700Z 36009KT 9999 FEW010 32/18 Q1014=
METAR SVCU 101700Z 05016KT 9999 FEW013 31/12 Q1013=
METAR SVMG 101700Z /////KT 9999 SCT010 31/21 Q1014 NOSIG=
METAR SVAC 101700Z 07003KT 9999 FEW020 31/20 Q1015=
METAR SVMT 101700Z 07008KT 9999 BKN013 31/14 Q1011=
METAR SVBI 101700Z 09009KT 9999 FEW023 35/19 Q1013=
METAR SVCB 101700Z 09006KT 9999 SCT013 30/// Q1011=
METAR SVVA 101700Z 09003KT CAVOK 31/19 Q1015=
METAR SVSO 101700Z 00000KT 9999 SCT023 29/22 Q1014=

0000009500
955
SAAG31 KWBC 101700 RRC
METAR
SASJ 101700Z 05007KT 9999 FEW025 33/20 Q1008=

0000015300
956
SACA33 KWBC 101700 RRD
METAR
TNCM 101700Z 08015KT 050V110 9999 FEW017TCU SCT035 28/19 Q1017
     A3005 TEMPO SHRA RMK JP TO SE/ S=

0000038100
957
FTOS31 LOWM 101700
TAF LOWW 101715Z 1018/1124 26008KT CAVOK TX06/1124Z TNM01/1106Z
    BECMG 1102/1104 12005KT
    PROB40 TEMPO 1105/1108 VRB02KT 1200 BCFG FEW001
    BECMG 1107/1109 13007KT 7000 SCT003
    TEMPO 1109/1116 5000 BR BKN005
    BECMG 1116/1118 2500 BR BKN002
    TEMPO 1118/1121 4000 BKN003 BKN080
    FM112200 29015G25KT 9999 BKN040=

0000105200
958
FTOS32 LOWM 101700
TAF LOWL 101715Z 1018/1118 27007KT 9999 FEW023 BKN050
    TX06/1112Z TNM01/1106Z
    TEMPO 1100/1110 09003KT 1400 BCFG NSC
    PROB40 1103/1109 0300 FG VV002=
TAF LOWS 101715Z 1018/1118 15004KT 9999 SCT040
    TX10/1112Z TNM01/1106Z
    PROB30 TEMPO 1100/1107 VRB02KT 0400 BCFG SCT002
    BECMG 1107/1109 34004KT CAVOK=
TAF LOWI 101715Z 1018/1118 27005KT 9999 FEW007 BKN050
    TX10/1112Z TNM01/1106Z
    BECMG 1020/1022 5000 BR SCT007 BKN015
    TEMPO 1102/1110 2000 BR BKN007
    BECMG 1110/1112 9999 FEW007 BKN120=
TAF LOWG 101715Z 1018/1118 VRB02KT 6000 FEW050 TX07/1114Z
   TNM03/1106Z
    BECMG 1018/1020 0400 FZBCFG
    TEMPO 1020/1107 0200 FZFG VV002
    BECMG 1107/1109 3000 FZBR SCT003
    BECMG 1109/1111 9999 NSW FEW060 BKN150=
TAF LOWK 101715Z 1018/1118 VRB02KT 0800 FG VV002
    TX08/1112Z TNM01/1103Z
    TEMPO 1018/1108 0400
    BECMG 1108/1111 4000 BR SCT002 BKN004
    TEMPO 1111/1116 6000 FEW002 SCT004 BKN007
    TEMPO 1116/1118 0800 BCFG BKN002=

0000042000
959
SALY31 HLMC 101700
METAR HLLM 101650Z 12002KT 8000 NSC 16/12 Q1024=
METAR HLLT 101650Z 00000KT CAVOK 16/06 Q1023=
METAR HLGD 101700Z NIL=
METAR HLGT 101700Z NIL=
METAR HLJA 101700Z NIL=
METAR HLKF 101700Z NIL=
METAR HLKM 101700Z NIL=
METAR HLLB 101700Z NIL=
METAR HLLS 101700Z NIL=
METAR HLMI 101700Z NIL=
METAR HLNT 101700Z NIL=
METAR HLON 101700Z NIL=
METAR HLTD 101700Z NIL=

0000028200
960
FTCN32 CWAO 101700 AAA
TAF AMD CYLL 101717Z 1017/1024 25012KT P6SM FEW100 BKN200 TEMPO
     1017/1020 1SM BR VV001 PROB30 1017/1020 1/2SM FZFG VV001
    FM102000 28010KT P6SM SCT080 TEMPO 1020/1024 BKN080
    RMK FCST BASED ON AUTO OBS. NXT FCST BY 101800Z=

0000035800
961
SACG21 FCBB 101700
METAR FCBB 101700Z 14005KT 9999 FEW016 FEW030CB 26/22 Q1012 TEMPO TS=
METAR FCPP 101700Z 18010KT 9999 SCT020 BKN026 28/24 Q1009 NOSIG=
METAR FCPD 101700Z 18004KT 9999 TS FEW020 FEW028CB BKN300 27/23
Q1010=
METAR FCOU 101700Z 00000KT 9999 FEW023 BKN300 29/22 Q1009=
METAR FCOI 101700Z 00000KT CAVOK 28/24 Q1010=

0000009500
962
SABZ24 SBPP 101700 RRA
METAR SBPP 101700Z 03010KT 9999 BKN025 30/20
Q1014=

0000008900
963
FCGR32 LGAT 101700 RRB
TAF LGKP 101700Z 1018/1103 30012KT 9999 SCT025=

0000018900
964
FCGR33 LGAT 101700 RRA
TAF LGMK 101700Z 1018/1103 22010KT 9000 FEW020=
TAF LGSK 101700Z 1018/1103 VRB03KT 9000 FEW018=
TAF LGST 101700Z 1018/1103 28010KT 9999 FEW020=

0000022700
965
FCFR22 LFPW 101700
TAF LFBC 101700Z NIL=
TAF LFBG 101700Z NIL=
TAF LFBM 101700Z NIL=
TAF LFBY 101700Z NIL=
TAF LFKS 101700Z NIL=
TAF LFMC 101700Z NIL=
TAF LFMO 101700Z NIL=
TAF LFMY 101700Z NIL=

0000015500
966
FCFR23 LFPW 101700
TAF LFOC 101700Z NIL=
TAF LFOE 101700Z NIL=
TAF LFOJ 101700Z NIL=
TAF LFRJ 101700Z NIL=
TAF LFRL 101700Z NIL=

0000013100
967
FCFR24 LFPW 101700
TAF LFSI 101700Z NIL=
TAF LFSO 101700Z NIL=
TAF LFSX 101700Z NIL=
TAF LFYR 101700Z NIL=

0000020300
968
FCFR31 LFPW 101700
TAF LFBA 101700Z NIL=
TAF LFBE 101700Z NIL=
TAF LFCK 101700Z NIL=
TAF LFPN 101700Z NIL=
TAF LFRC 101700Z NIL=
TAF LFRG 101700Z NIL=
TAF LFRK 101700Z NIL=

0000032000
969
FCFR32 LFPW 101700
TAF LFGJ 101700Z 1018/1103 36004KT CAVOK BECMG 1018/1020 2000 BR
BKN015 TEMPO 1022/1103 0500 FG=
TAF LFOT 101700Z 1018/1103 07005KT 4000 BR NSC BECMG 1018/1020 1500
BR BKN011 TEMPO 1020/1022 0800 FG BKN002 TEMPO 1022/1103 -DZRA=
TAF LFJR 101700Z NIL=
TAF LFMD 101700Z NIL=

0000018300
970
FCFR33 LFPW 101700
TAF LFRQ 101700Z 1018/1103 15005KT 9999 BKN003 TEMPO 1018/1103 3000
RA=
TAF LFAQ 101700Z NIL=
TAF LFRH 101700Z NIL=
TAF LFSL 101700Z NIL=

0000013100
971
FCFR34 LFPW 101700
TAF LFAT 101700Z NIL=
TAF LFLN 101700Z NIL=
TAF LFPM 101700Z NIL=
TAF LFRT 101700Z NIL=

0000010700
972
SAMS34 WMKK 101700 RRB
METAR WBKT 101700Z 13002KT 9999 SCT013 SCT033 BKN270 26/24 Q1011=

00000000