0000006100
893
SAOS32 LOWM 110020
METAR LOXZ 110020Z NIL=

0000005900
894
FTNL32 EHDB 110000
TAF EHEH 110000Z NIL=

0000021700
895
SANO35 ENMI 110020
METAR ENMS 110020Z NIL=
METAR ENRM 110020Z NIL=
METAR ENRS 110020Z NIL=
METAR ENSK 110020Z NIL=
METAR ENSO 110020Z NIL=
METAR ENST 110020Z NIL=
METAR ENVD 110020Z NIL=

0000021700
896
SANO36 ENMI 110020
METAR ENBS 110020Z NIL=
METAR ENHK 110020Z NIL=
METAR ENHV 110020Z NIL=
METAR ENLK 110020Z NIL=
METAR ENMH 110020Z NIL=
METAR ENNK 110020Z NIL=
METAR ENNM 110020Z NIL=

0000046600
897
SAFI33 EFHK 110020
EFJO 110020Z AUTO 01013KT 340V050 9999 -SN FEW013 BKN016 M08/M10
Q0994=
EFLP 110020Z AUTO 35011KT 310V040 7000 -SHSN FEW011 OVC014 M06/M08
Q0992=
EFMI 110020Z AUTO 36007KT 290V110 9999 -SG OVC014 M07/M08 Q0995=
EFSA 110020Z AUTO 34008KT 300V020 9000 -SN BKN015 BKN022 M08/M09
Q0993=
EFUT 110020Z AUTO 35011G21KT 9999 OVC013 M06/M07 Q0993=
EFVR 110020Z AUTO 01009KT 330V060 2900 -SN FEW015 OVC018 M07/M10
Q0995=

0000048600
898
SANO33 ENMI 110020
METAR ENAT 110020Z AUTO 21005KT 3600NDV -SN OVC001/// M15/M16 Q1019
           RMK WIND 700FT 18007KT=
METAR ENBL 110020Z NIL=
METAR ENEV 110020Z NIL=
METAR ENFL 110020Z NIL=
METAR ENKB 110020Z AUTO 07001KT 9999NDV BKN016/// OVC022/// M05/M08
           Q1000=
METAR ENKR 110020Z 17010KT 1500 -SN OVC001 M21/M23 Q1016 SEASMOKE
           NORTH OF THE FIELD RMK WIND 775FT 26005KT=
METAR ENML 110020Z NIL=
METAR ENNA 110020Z NIL=

0000019400
899
SADL33 EDZO 110020
METAR EDFE 110020Z NIL=
METAR EDFH 110020Z 21005KT 9999 FEW010 00/M00 Q1017=
METAR EDFM 110020Z NIL=
METAR EDLV 110020Z NIL=
METAR EDVK 110020Z NIL=

0000009500
900
SADL34 EDZO 110020
METAR EDQM 110020Z AUTO 24008KT 9999NDV NCD 01/M01 Q1017=

0000011200
901
SABW31 VGHS 110020
METAR VGHS 110020Z 00000KT 0400 FG BKN003 14/13 Q1014 TEMPO S/VIS
0200M=

0000029000
902
SANO37 ENMI 110020
METAR ENNO 110020Z NIL=
METAR ENOV 110020Z NIL=
METAR ENSD 110020Z NIL=
METAR ENSG 110020Z NIL=
METAR ENSN 110020Z NIL=
METAR ENSR 110020Z NIL=
METAR ENSS 110020Z 03015KT 9999 FEW035 SCT055 M02/M11 Q1015 RMK WIND
           500FT 10013KT=

0000066500
903
SANO38 ENMI 110020
METAR ENDR 110020Z AUTO 07025KT M04/M10 Q1002=
METAR ENEK 110020Z 25021KT 8000 -DZRA SCT010 BKN030 08/07 Q1004
           W08/S4=
METAR ENGC 110020Z 08016KT 9999 -SHRA FEW010 BKN018 02/M01 Q0998
           RESHRA W06/S4=
METAR ENHE 110020Z 08025G36KT 3000 -SHSNRA BKN012 M03/M04 Q1003 RESN
           W///S5=
METAR ENOA 110020Z NIL=
METAR ENSL 110020Z AUTO 29023KT 9999NDV -SHRA FEW025/// BKN048///
           07/03 Q1001 W06/S4=
METAR ENFB 110020Z AUTO 10018KT 9999NDV BKN014/// 03/01 Q0998
           W///S5=
METAR ENSF 110020Z AUTO 10019KT 9999NDV FEW013/// BKN033/// 04/00
           Q0997 W///S5=

0000124300
904
SACA32 KWBC 110000
METAR MDLR 110000Z 05010KT 9999 FEW018 24/22 Q1017=
METAR MDPC 110000Z 10012KT 9999 FEW022 26/21 Q1018 NOSIG=
METAR MDPP 110000Z 12005KT 9999 SCT018 24/22 Q1018=
METAR MDSD 110000Z 06006KT 9999 FEW018 25/21 Q1017=
METAR MDST 110000Z 11011KT 9999 FEW016 23/21 Q1018=
METAR MTCH NIL=
METAR MTPP NIL=
METAR TAPA 110000Z 09011KT 9999 SCT018 25/19 Q1017 NOSIG=
METAR TIST 102353Z AUTO 08012G22KT 10SM CLR 25/17 A3007 RMK AO2
     SLP184
60000 T02500172 10289 20244 53014 TSNO=
METAR TISX 102353Z 06006KT 10SM FEW070 24/17 A3007 RMK AO2 SLP181
     60000
T02440172 10283 20233 51017=
METAR TJBQ 102350Z 10011KT 10SM SCT030 27/ A3009 RMK RWY08 ATIS L=
METAR TJMZ NIL=
METAR TJNR 102353Z AUTO 06012G15KT 10SM FEW033 SCT060 26/19 A3010 RMK
AO2 SLP193 T02610194 10289 20261 53015 TSNO=
METAR TJPS 102350Z 00000KT 8SM FEW030 SCT050 26/19 A3003=
METAR TJSJ 102356Z 08007KT 10SM SCT026 SCT045 25/21 A3008 RMK AO2 PK
     WND
08029/2340 RAB35E54 SLP185 P0000 60001 T02500211 10289 20239
53014 ?=
METAR TKPK 110000Z 08015KT 9999 SCT021 25/19 Q1017=
METAR TKPN NIL=
METAR TQPF NIL=
METAR TRPM NIL=
METAR TUPJ 110000Z 10010KT 9999 FEW020 25/19 Q1019=
METAR TUPW NIL=

0000075500
905
SANO39 ENMI 110020
METAR ENNE 110020Z NIL=
METAR ENQR 110020Z AUTO 10008KT 030V180 2400NDV -SHRASN OVC014///
           03/M02 Q0998 W///S/=
METAR ENSE 110020Z AUTO 11014KT 4400NDV -RASN SCT022/// BKN026///
           OVC030/// 03/M02 Q0998 W///S5=
METAR ENQC 110020Z AUTO 09010KT 9999NDV -RA OVC022/// 04/01 Q0997
           W///S5=
METAR ENQA 110020Z AUTO 11009KT 9999NDV -RA FEW015/// BKN021///
           BKN028/// 03/01 Q0998 RERA W04/S5=
METAR ENHM 110020Z AUTO 26027KT 5000NDV -SHRA FEW023/// SCT037///
           06/03 Q0998 W08/S4=
METAR ENVH 110020Z AUTO 25021KT 9999NDV -SHRA OVC008/// 07/07 Q1004
           W///S4=
METAR ENLA 110020Z AUTO 28020KT 9999NDV FEW009/// 08/07 Q1002
           W///S4=

0000028400
906
SANO31 ENMI 110020
METAR ENAN 110020Z NIL=
METAR ENBR 110020Z NIL=
METAR ENBO 110020Z NIL=
METAR ENDU 110020Z NIL=
METAR ENGM 110020Z VRB01KT 8000 -SN FEW004 BKN007 M02/M03 Q0996=
METAR ENOL 110020Z NIL=
METAR ENVA 110020Z NIL=
METAR ENZV 110020Z NIL=

0000009300
907
SAEA20 HKNC 102300 RRD
METAR HKML 102300Z 08005KT 9999 FEW019 26/22 Q1011=

0000019100
908
SANO34 ENMI 110020
METAR ENBN 110020Z NIL=
METAR ENBV 110020Z NIL=
METAR ENFG 110020Z NIL=
METAR ENHF 110020Z NIL=
METAR ENRA 110020Z NIL=
METAR ENSH 110020Z NIL=

0000053400
909
SANO32 ENMI 110020
METAR ENAL 110020Z NIL=
METAR ENCN 110020Z AUTO 22008KT 9999NDV FEW029/// SCT062/// BKN080///
           05/03 Q1001=
METAR ENHD 110020Z AUTO 24014KT 9999NDV FEW014/// SCT030/// BKN062///
           07/05 Q0999=
METAR ENRO 110020Z AUTO 09009KT 9999NDV -SN BKN006/// OVC009///
           M14/M17 Q0998=
METAR ENRY 110020Z AUTO 21007KT 9999NDV OVC150/// 02/00 Q0997=
METAR ENSB 110020Z NIL=
METAR ENTC 110020Z NIL=
METAR ENTO 110020Z AUTO 24009KT 9999NDV BKN130/// 01/M01 Q0997=

0000009700
910
SAUS75 KWBC 110000 RRB
METAR
PADL 102355Z 35007KT 10SM OVC010 M03/M03 A2946=

0000009600
911
SABA31 MYNN 110005
METAR MYNN 110000Z 12006KT 9999 FEW018 BKN040 25/23 A3011=

0000082100
912
SAIY31 LIIB 110020
METAR LIEA 110020Z VRB02KT 9000 0400NW MIFG NSC 07/06 Q1020=
METAR LIEE 110020Z 34002KT 6000 MIFG NSC 08/08 Q1019=
METAR LIEO 110020Z 21002KT 3000 R05/0800V1400U BR NSC 04/04 Q1021=
METAR LIMC 110020Z 00000KT 9999 BKN040 07/06 Q1022 NOSIG=
METAR LIME 110020Z 29004KT 3000 BR BKN012 08/07 Q1021=
METAR LIMF 110020Z 00000KT 9999 BKN030 08/05 Q1021=
METAR LIMJ 110020Z 06003KT 9999 SCT018 BKN035 13/11 Q1021=
METAR LIML 110020Z 10002KT 5000 BR FEW005 BKN035 08/07 Q1022 NOSIG=
METAR LIRA 110015Z 00000KT 8000 SCT030 SCT060 08/08 Q1022=
METAR LIRF 110020Z 05005KT 6000 BKN030 08/08 Q1022 NOSIG=
METAR LIRN 110020Z 33004KT 5000 BR NSC 07/05 Q1022=
METAR LIRP 110015Z 08002KT 9999 SCT060 08/07 Q1021 NOSIG=
METAR LIRQ 110020Z 00000KT 8000 FEW020 BKN040 11/10 Q1022=

00000000