0000136500
833
FTUS75 KWBC 101730
TAF
PACV 101728Z 1018/1118 08005KT 6SM -SHSN BKN040
      TEMPO 1018/1022 2SM -SN BR BKN018 BKN028
     FM102200 VRB03KT P6SM VCSH BKN040
      TEMPO 1022/1102 3SM -SHSN BKN018 BKN028=
PADQ 101728Z 1018/1118 27006KT P6SM SCT040 BKN100
     FM110900 18005KT 6SM -SN BKN025
     FM111700 11011KT 5SM -SN OVC012=
PAEN 101728Z 1018/1118 VRB03KT 2SM BR BKN006 OVC015
      TEMPO 1018/1022 1/2SM FZFG BKN002
     FM110000 02004KT 6SM BR SCT008 BKN025
     FM110900 36003KT 3/4SM BR BKN005=
PAGK 101728Z 1018/1118 00000KT 4SM BR OVC035
      TEMPO 1018/1022 1SM -SN BR BKN015
     FM102200 00000KT P6SM BKN025
     FM110900 00000KT P6SM BKN012 BKN040=
PAGS 101728Z 1018/1118 13009KT P6SM -SHRA BKN025 OVC040
      TEMPO 1018/1020 BKN015 OVC030
     FM110000 21005KT P6SM VCSH SCT020 OVC040
     FM110900 VRB03KT P6SM BCFG SCT003 BKN030
     FM111500 33005KT P6SM BCFG SCT003 BKN060 AMD LTD TO CLD VIS
      AND WIND=
PAGY 101728Z 1018/1118 21016G24KT P6SM VCSH SCT025 OVC070
     FM110000 20012G20KT P6SM VCSH SCT025 OVC050
     FM110600 VRB02KT P6SM VCSH SCT025 OVC050
     FM111000 04005KT P6SM BKN025 OVC050
     FM111500 03008KT P6SM FEW025 BKN050 AMD LTD TO CLD VIS AND
      WIND=
PAHO 101728Z 1018/1118 24002KT P6SM VCSH BKN012
     FM110200 VRB03KT P6SM SCT025 BKN200=

0000048800
834
FTUS75 KWBC 101730 RRB
TAF
PAVD 101728Z 1018/1118 00000KT P6SM VCSH BKN050
      TEMPO 1018/1022 5SM -SHSN BKN030 OVC050 AMD LTD TO CLD VIS
      AND WIND=
PAYA 101728Z 1018/1118 VRB04KT P6SM -SHSN SCT004 BKN015 OVC025
      TEMPO 1018/1021 2SM -SHSN BR BKN004 OVC012
     FM102100 10004KT P6SM -SHSN SCT010 OVC030
     FM110900 VRB04KT P6SM VCSH FEW010 OVC025
     FM111500 00000KT P6SM VCSH FEW010 BKN035 AMD LTD TO CLD VIS
      AND WIND 1101/1110=

0000139900
835
FTUS75 KWBC 101730 RRA
TAF
PAJN 101728Z 1018/1118 08008KT P6SM -SHRA FEW010 BKN035 OVC050
     FM102100 10009KT P6SM -SHRA SCT015 BKN030 OVC040
     FM110300 09006KT P6SM VCSH SCT010 BKN040
     FM110600 VRB02KT 3SM BCFG SCT003 BKN040
     FM111500 00000KT P6SM BCFG FEW003 BKN070=
PAKT 101728Z 1018/1118 14007KT P6SM VCSH SCT015 BKN040 OVC060
     FM110300 VRB03KT P6SM SCT045 OVC150
     FM110900 33008KT P6SM VCSH SCT040 OVC080
     FM111600 32007KT P6SM SCT050 BKN100 AMD LTD TO CLD VIS AND
      WIND 1106/1115=
PANC 101728Z 1018/1124 VRB02KT 6SM -SN BR VCFG OVC015
      TEMPO 1018/1020 3SM BR BKN005
     FM102300 35003KT 6SM BR SCT005 BKN015
     FM111200 VRB03KT P6SM VCFG BKN008
     FM112200 VRB03KT P6SM BKN040=
PAPG 101728Z 1018/1118 VRB03KT P6SM -SHRA SCT010 BKN015 OVC025
      TEMPO 1018/1021 4SM -SHRA BR BKN012 OVC020
     FM102100 25005KT P6SM VCSH FEW010 BKN025 OVC035
     FM110400 VRB03KT P6SM BCFG SCT008 BKN050
     FM110900 00000KT 3SM BR SCT005 SCT070
     FM111600 00000KT 5SM BR FEW005 SCT050 AMD NOT SKED 1106/1115=
PASI 101728Z 1018/1118 09005KT P6SM -SHRA FEW015 BKN035 OVC060
     FM102000 21007KT P6SM VCSH SCT030 BKN045
     FM110300 VRB04KT P6SM SCT030 BKN050
     FM111200 30006KT P6SM VCSH BKN025 OVC040=
PATK 101728Z 1018/1118 VRB03KT P6SM BKN018
     FM110400 35002KT P6SM SCT025 BKN060=

0000011300
836
SPAU32 AMMC 101730
SPECI YPGV 101730Z AUTO 14009KT 9999 // SCT012 BKN025 OVC071 25/24
Q1006=

0000011600
837
SARM31 LUKK 101730
METAR LUKK 101730Z 31006KT 270V340 9999 OVC046 06/03 Q1011
R26/CLRD65 NOSIG=

0000009500
838
SALI20 GLRB 101730
METAR GLRB 101730Z 22007KT 9999 BKN017 29/25 Q1009 NOSIG=

0000011600
839
SACG20 FCBB 101730
METAR FCBB 101730Z 14003KT 9999 FEW016 SCT023 FEW030CB 26/22 Q1012
TEMPO TS=

0000039300
840
FTAU33 YBBN 101700 RRC
TAF YSNF 101729Z 1018/1112
13015KT 9999 -SHRA SCT030 BKN050
INTER 1102/1112 5000 SHRA SCT015
RMK=
TAF YBRK 101727Z 1018/1118
13008KT 9999 SCT030
FM102300 11013KT 9999 SCT040
FM110100 08012KT 9999 FEW040
FM111000 11008KT 9999 FEW030 
RMK=
TAF YSTW 101720Z 1018/1112
VRB03KT CAVOK
BECMG 1023/1101 20005KT 9999 -SHRA SCT060
RMK=

0000019900
841
FTAU32 YBBN 101700 RRC
TAF YBCG 101727Z 1018/1118
VRB06KT 9999 SCT030 BKN045
FM102200 13012KT 9999 FEW035
FM110100 09010KT 9999 FEW040 
FM111000 VRB06KT 9999 FEW025 
RMK=

0000019100
842
FTAU31 YBBN 101700 RRB
TAF YBBN 101726Z 1018/1124
21008KT 9999 SCT040
FM102200 13013KT 9999 FEW040
FM110100 08012KT 9999 FEW045
FM111000 13008KT 9999 FEW030 
RMK=

0000009400
843
SARM31 LUKK 101730
METAR LUBL 101730Z AUTO 29016G27KT 9999 NCD 06/02 Q1010=

0000011000
844
SAMR20 TFFF 101730
METAR TFFF 101730Z AUTO 07017KT 9999 BKN030 BKN037 BKN046 28/21
Q1015=

0000014300
845
SPIL31 BICC 101700
SPECI BIEG 101729Z 10032G43KT 5000 SHRASN FEW010 BKN014 BKN035 01/00
Q0996 RMK
R04/290095 RWY SANDED=

0000010300
846
SATU31 LTAA 101720 RRA
METAR LTAZ 101720Z 08004KT 030V140 9999 BKN011 M01/M02 Q1022=

0000020500
847
SASQ31 LZIB 101730
METAR LZIB 101730Z 29006KT CAVOK 06/02 Q1020 NOSIG=
METAR LZKZ 101730Z 00000KT 9999 FEW005 SCT010 03/03 Q1016=
METAR LZTT 101730Z 26018KT 9999 FEW043 02/M04 Q1014=

0000019500
848
SASQ41 LZIB 101730
METAR LZPP 101730Z 24004KT CAVOK 06/00 Q1019=
METAR LZSL 101730Z 33003KT 290V020 CAVOK 03/M02 Q1017=
METAR LZZI 101730Z VRB02KT 9999 SCT060 04/M01 Q1017=

0000064100
849
FCPL32 EPWA 101700
TAF EPBY 101730Z 1018/1103 26015KT 9999 BKN025
    TEMPO 1018/1024 26020G32KT=
TAF EPKT 101730Z 1018/1103 25015KT 9999 BKN036=
TAF EPLB 101730Z 1018/1103 26021KT 9999 BKN030
    TEMPO 1018/1021 26022G32KT
    PROB30 TEMPO 1018/1020 BKN020CB
    BECMG 1101/1103 26010KT=
TAF EPMO 101730Z 1018/1103 26015KT 9999 BKN030
    TEMPO 1018/1024 26020G30KT SCT020CB=
TAF EPSC 101730Z 1018/1103 26010KT 9999 BKN030=
TAF EPWR 101730Z 1018/1103 27012KT 9999 SCT035
    PROB40 TEMPO 1018/1021 27015G25KT=
TAF EPZG 101730Z 1018/1103 25012KT 9999 BKN030
    PROB40 TEMPO 1018/1021 25015G25KT=

0000092100
850
FTPL31 EPWA 101700
TAF EPGD 101730Z 1018/1118 28012KT 9999 BKN020
    TEMPO 1018/1106 28015G25KT 5000 SHRA BKN015CB
    BECMG 1109/1112 22012KT=
TAF EPKK 101730Z 1018/1118 26016KT 9999 BKN040
    BECMG 1100/1103 24006KT=
TAF EPLL 101730Z 1018/1118 27020KT 9999 BKN025
    TEMPO 1018/1022 27020G30KT
    PROB40 TEMPO 1018/1021 SHRA BKN020CB
    BECMG 1022/1024 24010KT
    BECMG 1113/1115 CAVOK=
TAF EPPO 101730Z 1018/1118 26013KT 9999 BKN025
    TEMPO 1018/1021 26018G30KT SCT020CB
    PROB40 TEMPO 1021/1024 26015G25KT
    BECMG 1103/1106 20010KT=
TAF EPRZ 101730Z 1018/1118 27012KT 9999 BKN040
    PROB40 TEMPO 1018/1020 28017G28KT BKN024TCU
    BECMG 1112/1114 21007KT=
TAF EPWA 101730Z 1018/1118 26020KT 9999 BKN025
    TEMPO 1018/1103 27022G32KT SHRA BKN020CB
    BECMG 1100/1103 24010KT
    PROB40 TEMPO 1108/1116 SHRA SCT030CB
    BECMG 1114/1116 CAVOK=

0000082700
851
FTAU31 AMMC 101700 RRA
TAF YBAS 101708Z 1018/1118 30006KT CAVOK
     FM102300 13014KT CAVOK
     FM111000 10008KT CAVOK=
TAF YBBN 101726Z 1018/1124 21008KT 9999 SCT040
     FM102200 13013KT 9999 FEW040
     FM110100 08012KT 9999 FEW045
     FM111000 13008KT 9999 FEW030=
TAF YBCS 101711Z 1018/1118 16010KT 9999 -SHRA SCT025 BKN045
     FM110000 13014KT 9999 -SHRA SCT025 SCT050
     FM110900 16010KT 9999 -SHRA SCT020 BKN045
     INTER 1018/1118 4000 SHRA BKN020=
TAF AMD YMML 101701Z 1018/1124 18006KT CAVOK
     BECMG 1020/1022 18010KT 9999 BKN008
     BECMG 1022/1024 18012KT 9999 SCT015 BKN020
     BECMG 1101/1103 18014KT CAVOK
     BECMG 1110/1112 19008KT 9999 BKN008
     TEMPO 1022/1024 BKN012=
TAF YPPH 101704Z 1018/1124 10013KT CAVOK
     FM112100 04012KT CAVOK=

0000039300
852
FTUS52 KWBC 101730
TAF
KCKV 101729Z 1018/1118 17010KT P6SM OVC007
     FM110300 18015G25KT 4SM -SHRA BR OVC007
      TEMPO 1106/1110 2SM TSRA OVC005CB
     FM111300 27012G22KT P6SM OVC040=
KCSV 101729Z 1018/1118 17006KT P6SM OVC007
     FM110300 17012G22KT 4SM -SHRA BR OVC004
     FM110800 18012G22KT 2SM SHRA BR OVC003
     FM111600 25010G20KT P6SM OVC015=

00000000