0000042200
933
SAID31 WIII 101930
METAR WIII 101930Z 29003KT 2900 BR FEW021 SCT100 25/23 Q1008 NOSIG= 
METAR WIMM 101930Z 25005KT 4000 HZ BKN017 24/24 Q1011= 
METAR WADD 101930Z VRB02KT 9999 FEW015CB BKN018 26/24 Q1008 NOSIG= 
METAR WAAA 101930Z 07003KT 5000 -RA FEW018CB BKN019 24/24 Q1010= 
METAR WARR 101930Z 25003KT 220V290 5000 HZ FEW020 25/23 Q1009= 
METAR WIHH NIL=
METAR WABB NIL=
METAR WIDD NIL=

0000035300
934
SAPO31 LPMG 101930
METAR LPBJ 101930Z NIL=
METAR LPFR 101930Z 02003KT CAVOK 13/09 Q1013=
METAR LPMA 101930Z 03006KT 360V060 9999 FEW015 17/12 Q1015 RS32010KT
0508004KT 2301007KT=
METAR LPPR 101930Z 34003KT CAVOK 10/08 Q1015=
METAR LPPS 101930Z 02007KT 9999 SCT012 17/15 Q1015=
METAR LPPT 101930Z 33007KT CAVOK 13/11 Q1014=

0000005200
935
RRIN23 VIDP 111002
RQRPT 432-513=

0000149900
936
FCIN90 VIDP 110900
TAF VIDP 110900Z 1112/1121 33005KT 2500 HZ NSC
     BECMG 1113/1115 1500 HZ/FU
     BECMG 1116/1118 0800 FU/MIFG=
TAF VIAG 110900Z 1112/1121 31005KT 5000 HZ NSC
     BECMG 1116/1118 3000 HZ/BR=
TAF VILH 110900Z 1112/1121 00000KT 5000 HZ SCT080=
TAF VISR 110900Z 1112/1121 05003KT 5000 HZ NSC
     BECMG 1116/1118 3500 BR=
TAF VICG 110900Z 1112/1121 29003KT 5000 HZ NSC
     BECMG 1116/1118 VRB02KT 3000 HZ/BR=
TAF VIJU 110900Z 1112/1121 29003KT 5000 HZ NSC
     BECMG 1116/1118 VRB02KT 3000 HZ/BR=
TAF VIDN 110900Z 1112/1121 25004KT 5000 HZ NSC
     BECMG 1118/1120 00000KT 3000 HZ/BR=
TAF VISP 110900Z 1112/1121 25004KT 5000 HZ NSC
     BECMG 1118/1120 00000KT 3000 HZ/BR=
TAF VIAR 110900Z 1112/1121 24003KT 5000 HZ NSC
     BECMG 1114/1116 00000KT 3000 HZ
     BECMG 1120/1121 1500 BR=
TAF VICX 110900Z 1112/1121 32004KT 1000 BR/HZ FEW020 SCT100
     BECMG 1114/1116 0500 MIFG/FG
     TEMPO 1113/1118 -RA/TSRA FEW030CB BKN090
     BECMG 1117/1119 00000KT 0100 FG VV///=
TAF VIAL 110900Z 1112/1121 32004KT 1000 BR/HZ FEW020 SCT100
     BECMG 1114/1116 0500 MIFG/FG
     TEMPO 1113/1118 -RA/TSRA FEW030CB BKN090
     BECMG 1117/1119 00000KT 0100 FG VV///=
TAF VEGT 110900Z 1112/1121 00000KT 2500 HZ SCT018 BKN100
     BECMG 1116/1118 2000 BR
     BECMG 1119//1121 1500 BR=
TAF VOCC 110900Z 1112/1121 22005KT 5000 HZ FEW015 SCT100
     TEMPO 1112/1115 FEW025CB
     BECMG 1117/1118 00000KT 4000 HZ=

0000017900
937
SAID33 WIII 101930
METAR WABP NIL=
METAR WAJJ NIL=
METAR WAKK NIL=
METAR WAPP NIL=
METAR WARS NIL=
METAR WATT NIL=
METAR WALR NIL=
METAR WARQ NIL=

0000030800
938
SAPO32 LPMG 101930
METAR LPAZ 101930Z 19017KT 9999 FEW008 SCT010 BKN019 16/14 Q1012=
METAR LPFL 101930Z NIL=
METAR LPHR 101930Z 30003KT 200V340 9999 SCT006 BKN010 BKN025 13/11
Q1008=
METAR LPLA 101930Z NIL=
METAR LPPD 101930Z 18018KT 9000 VCSH SCT006 BKN010 BKN025 16/15
Q1010=

0000019700
939
SAID32 WIII 101930
METAR WAMM NIL=
METAR WIBB NIL=
METAR WIDN NIL=
METAR WIPT NIL=
METAR WIOO NIL=
METAR WIPP NIL=
METAR WAOO NIL=
METAR WALL NIL=
METAR WADL NIL=

0000019800
940
FTCN35 CWAO 101900
TAF CYZE 101940Z 1020/1023 19012KT P6SM OVC010 TEMPO 1020/1023 3SM BR
     BKN007 OVC008
    RMK FCST BASED ON AUTO OBS. NXT FCST WILL BE ISSUED AT 111045Z=

0000034300
941
FTCN35 CWAO 101900
TAF CYAM 101940Z 1020/1108 11008KT 2SM BR OVC008 TEMPO 1020/1024 1SM
     BR OVC005
    FM110000 13010KT 5SM BR OVC008 TEMPO 1100/1102 3SM -SN -FZDZ
     OVC005
    FM110200 12012KT 3SM -SN OVC008 TEMPO 1102/1108 2SM -SHSN OVC005
     PROB30 1104/1108 1SM -FZDZ BR
    RMK NXT FCST BY 110200Z=

0000027900
942
FTCN35 CWAO 101900
TAF CYSB 101940Z 1020/1108 16010KT 1/4SM -FZDZ FZFG VV001 TEMPO
     1020/1103 1SM -SN BR OVC002
    FM110300 18008KT 2SM -SN OVC002 TEMPO 1103/1108 1/2SM SHSN OVC001
     PROB30 1103/1107 1/4SM FZRA FZFG
    RMK NXT FCST BY 110200Z=

0000026400
943
FTCN35 CWAO 101900
TAF CYYB 101940Z 1020/1108 15008KT P6SM OVC006 TEMPO 1020/1104 3SM
     -SN BR OVC005
    FM110400 15008KT 3SM -SN OVC006 TEMPO 1104/1108 2SM -SHSN OVC004
     PROB40 1104/1108 1SM -FZRA BR
    RMK NXT FCST BY 110200Z=

0000131300
944
SAAU31 YBBN 101930
METAR YPAD 101930Z 17006KT 9999 FEW016 17/09 Q1017
NOSIG=
METAR YBAS 101930Z AUTO 29006KT 9999 // NCD 20/M08 Q1014=
METAR YBBN 101930Z 15007KT 9999 FEW025 BKN058 22/18 Q1018=
METAR YBCS 101930Z 19013KT 8000 -SHRA FEW008 SCT023 BKN050 24/23
Q1009
INTER 1930/2230 4000 SHRA BKN020=
METAR YSCB 101930Z 00000KT CAVOK 13/12 Q1020
RMK 1AC140=
METAR YPXM 101930Z NIL=
METAR YPCC 101930Z AUTO 16011KT 9999 // NCD 26/22 Q1010=
METAR YCFS 101930Z AUTO 33004KT 9999 // NCD 18/18 Q1019=
METAR YPDN 101930Z 17004KT 9999 FEW040 BKN250 25/23 Q1007=
METAR YBCG 101930Z AUTO 24004KT 9999 // NCD 20/19 Q1019=
METAR YHID 101930Z AUTO 09008KT //// // ////// 28/24 Q1006=
METAR YPJT 101930Z AUTO 10010KT 9999 // NCD 25/10 Q1015=
METAR YPKU 101930Z AUTO 19004KT 9999 // NCD 27/25 Q1007=
METAR YPLM 101930Z AUTO 26007KT 9999 // NCD 29/23 Q1005=
METAR YMML 101930Z 17009KT 9999 FEW009 BKN014 17/15 Q1018
RMK HZ
FM1930 18008KT 9999 BKN008=
METAR YPPH 101930Z 09017G28KT CAVOK 25/10 Q1014=
METAR YSSY 101930Z 32007KT 9999 FEW040 21/17 Q1018
RMK HZ
NOSIG=
METAR YSTW 101930Z AUTO 16004KT 9999 // OVC096 19/14 Q1019=
METAR YPTN 101930Z AUTO 00000KT 9999 // NCD 25/23 Q1007=
METAR YBTL 101930Z AUTO 15010KT 9999 // SCT038 BKN051 OVC066 26/22
Q1011=

0000116500
945
SAAU32 YBBN 101930
METAR YAMB 101930Z AUTO 00000KT 9999 // NCD 17/17 Q1018=
METAR YMAV 101930Z AUTO 26009KT 9999 // OVC015 16/13 Q1018=
METAR YBRM 101930Z AUTO 26010KT 9999 // BKN020 30/25 Q1007=
METAR YCIN 101930Z NIL=
METAR YSDU 101930Z AUTO 16008KT 9999 // NCD 18/17 Q1019=
METAR YFRT 101930Z AUTO 14009KT //// // ////// 16/16 Q1020=
METAR YGEL 101930Z AUTO 14006KT 9999 // NCD 19/17 Q1010=
METAR YPGV 101930Z AUTO 11007KT 9999 // NCD 25/24 Q1006=
METAR YBHM 101930Z AUTO 12019KT 9999 // ////// 26/22 Q1012=
METAR YMHB 101930Z 13004KT 9999 SCT009 BKN012 16/14 Q1014=
METAR YPKG 101930Z AUTO 12009KT 9999 // NCD 21/11 Q1019=
METAR YMLT 101930Z AUTO 35006KT 9999 // NCD 14/13 Q1012=
METAR YBMA 101930Z AUTO 17009KT 9999 // NCD 28/17 Q1010=
METAR YSNF 101930Z 12009KT 9999 FEW025 BKN061 20/12 Q1019=
METAR YPEA 101930Z NIL=
METAR YPPD 101930Z AUTO 29012KT 9999 // NCD 29/27 Q1006=
METAR YSRI 101930Z AUTO 00000KT 9999 // NCD 15/15 Q1018=
METAR YBRK 101930Z AUTO 12007KT 9999 // NCD 22/20 Q1015=
METAR YWLM 101930Z AUTO 00000KT 9999 // NCD 18/16 Q1018=
METAR YPWR 101930Z AUTO 14009KT 9999 // NCD 23/09 Q1016=

0000028000
946
SAHK31 VHHH 101930
METAR VHHH 101930Z 08007KT 9000 FEW030 15/11 Q1023 NOSIG=
METAR RCTP 101930Z 08005KT 9999 FEW020 16/12 Q1023 NOSIG RMK A3022
=
METAR RCKH 101930Z NIL=
METAR RCSS 101930Z NIL=
METAR VMMC 101930Z 05011KT 7000 SCT025 16/12 Q1023 NOSIG=

0000012800
947
FTAI41 FHAW 102000
TAF FHAW 101930Z 1021/1115 14015KT 9999 FEW020 PROB30 TEMPO 1021/1108 7000
-SHRA SCT018=

0000011400
948
SPCN46 CWAO 101939
SPECI CYSP 101939Z 19012G18KT 150V220 10SM DRSN OVC012 RMK SC8 HZ CIG
RAG=

0000215900
949
SPUS70 KWBC 101940
SPECI
KXFL 101933Z 14008KT 7SM SCT012 23/19 A3010=
KPLN 101936Z AUTO 12005KT 5SM HZ OVC010 M02/M04 A2990 RMK AO2
     T10171044=
KPQL 101936Z 12006KT 10SM SCT007 BKN016 OVC024 17/16 A3001 RMK AO2
     RAE12 P0000 T01720156=
KTHV 101936Z AUTO 06003KT 1 3/4SM BR OVC008 02/00 A3032 RMK AO2
     T00220000=
KAHN 101936Z 07008KT 2SM BR OVC005 08/07 A3014 RMK AO2 RAE1858
     P0000=
KBFD 101936Z AUTO 16004KT 5SM BR OVC004 01/M01 A3016 RMK AO2
     T00111006 TSNO=
KDAW 101936Z AUTO 17003KT 6SM BR BKN013 BKN024 OVC075 M02/M04
     A3035 RMK AO2 SNE29 P0000 T10171039=
KERI 101936Z 18008KT 10SM BKN012 OVC049 04/02 A3012 RMK AO2=
KGED 101936Z AUTO 00000KT 2 1/2SM -RA BR BKN002 BKN021 OVC030
     06/04 A3035 RMK AO2 P0002 T00560039=
KHIO 101936Z 20010KT 10SM BKN020 BKN060 OVC085 10/06 A3016 RMK AO2
     T01000061=
KHLG 101936Z 14006KT 10SM FEW006 OVC041 07/05 A3013 RMK AO2=
KIPT 101936Z 08006KT 5SM HZ SCT017 OVC070 01/M03 A3030 RMK AO2=
KISP 101936Z 35004KT 1SM R06/P6000FT -DZ BR BKN023 OVC035 03/01
     A3037 RMK AO2 RAE17DZB17 P0000=
KLAR 101936Z AUTO 29033G39KT 2SM HZ FEW110 M04/M09 A2964 RMK AO2
     PK WND 29040/1921=
KLXT 101936Z AUTO 20007KT 5SM BR OVC003 04/03 A2955 RMK AO2
     T00440033=
KHKS 101937Z 14013KT 10SM SCT011 OVC042 16/11 A2996 RMK AO2=
KHKY 101937Z 00000KT 3SM BR OVC003 07/06 A3021 RMK AO2 RAE31
     P0000=
KINT 101937Z 03004KT 2SM RA BR BKN003 OVC009 04/03 A3024 RMK AO2
     P0006=
KORD 101937Z 16010KT 2SM BR OVC005 02/M01 A2979 RMK AO2 T00171006
     $=
KRDU 101937Z 04006KT 1 1/2SM -RA BR OVC004 07/06 A3023 RMK AO2 SFC
     VIS 2 RAB30 P0000=
KTQE 101937Z AUTO 18006KT 8SM OVC007 02/M01 A2955 RMK AO2 CIG
     006V012 T00221006=
KVAY 101937Z AUTO 02003KT 3/4SM BR OVC003 01/01 A3036 RMK AO2
     T00110006=
KAUS 101937Z 21009KT 10SM FEW010 BKN020 BKN060 OVC200 20/18 A2980
     RMK AO2 RAB10E35 P0002=
KDNL 101937Z AUTO 01006KT 1 3/4SM -RA BR SCT003 OVC013 08/08 A3015
     RMK AO2 P0015 T00830078 TSNO=
PAJZ 101941Z AUTO 31005KT 10SM OVC002 M08/M08 A2954 RMK AO2 PWINO
     TSNO CIG 001V005 $=

0000009500
950
SAFR32 LFPW 101930 RRA
METAR LFCK 101930Z AUTO 12022KT 9999 NSC 11/07 Q1016=

0000010600
951
SPCN44 CWAO 101939
SPECI CYTH 101939Z 08004KT 5/8SM R06/6000FT/U -SN OVC018 RMK SN5SC3=

0000031900
952
FTOS32 LOWM 101700 AAA
TAF AMD LOWG 101936Z 1019/1118 35005KT 6000 BKN006 TX07/1114Z
    TNM03/1106Z
    BECMG 1020/1022 BKN004
    TEMPO 1020/1107 2000 FZBR BKN004
    PROB40 TEMPO 1103/1107 0300 FZFG VV002
    BECMG 1107/1109 3000 FZBR SCT003
    BECMG 1109/1111 9999 NSW FEW060 BKN150=

00000000