0000014200
593
SAMG20 FMMI 110230
METAR FMMI 110230Z 29002KT 0800W 8000 R11/0800V1100D PRFG FEW007
SCT020 BKN230 17/17 Q1021 TEMPO 1500 BR=
0000028000
594
SAMC31 GMMC 110230
METAR GMME 110230Z 15003KT 110V180 5000 SCT020 BKN100 14/12 Q1015
NOSIG=
METAR GMMN 110230Z 20008KT 9999 SCT016 BKN100 12/10 Q1016 NOSIG=
METAR GMAD 110230Z NIL=
METAR GMFF 110230Z NIL=
METAR GMMX 110230Z NIL=
METAR GMTT 110230Z NIL=
0000023200
595
SATN40 HTDA 110200
METAR
HTAR NIL=
HTBU NIL=
HTDA NIL=
HTDO NIL=
HTIR NIL=
HTKA NIL=
HTKJ NIL=
HTMB NIL=
HTMG NIL=
HTMT NIL=
HTMU NIL=
HTMW NIL=
HTSO NIL=
HTSU NIL=
HTTB NIL=
HTZA NIL=
0000028800
596
SATS40 DTTA 110230
METAR DTMB 110230Z 15006KT CAVOK 11/06 Q1019 NOSIG=
METAR DTNH 110230Z AUTO 19007KT CAVOK 08/06 Q1019=
METAR DTTA 110230Z 00000KT 2000 R19/0600V1100U R11/0600V1100U BR
 SCT010 08/07 Q1018 NOSIG=
METAR DTTJ 110230Z 18004KT 7000 NSC 12/09 Q1020 NOSIG=
0000029200
597
SATS32 DTTA 110230
METAR DTMB 110230Z 15006KT CAVOK 11/06 Q1019 NOSIG=
METAR DTNH 110230Z AUTO 19007KT CAVOK 08/06 Q1019=
METAR DTTA 110230Z 00000KT 2000 R19/0600V1100U R11/0600V1100U BR
 SCT010 08/07 Q1018 NOSIG=
METAR DTTJ 110230Z 18004KT 7000 NSC 12/09 Q1020 NOSIG=
0000015000
598
SAMG20 FMMI 110230 CCA
METAR COR FMMI 110230Z 29002KT 8000 0800W R11/0800V1100D PRFG FEW007
SCT020 BKN230 17/17 Q1021 TEMPO 1500 BR=
0000021500
599
SARE20 FMEE 110230
METAR FMCZ 110230Z 30006KT 9999 FEW021 SCT300 26/23 Q1012 NOSIG=
METAR FMEE 110230Z 12010KT 9999 FEW030 26/20 Q1015 NOSIG=
METAR FMEP 110230Z AUTO 03004KT 9999 NCD 25/20 Q1015=
0000039100
600
SAAO33 DRRN 110225
METAR COR DBBB 110230Z 23005KT 6000 SCT010 BKN200 27/26 Q1009 TEMPO
4000 BR BKN008=
METAR DFFD 110230Z 09005KT CAVOK 22/02 Q1013 NOSIG=
METAR DGAA 110225Z NIL=
METAR DNKN 110225Z NIL=
METAR DNMM 110225Z NIL=
METAR DRRN 110230Z 09010KT 4000 DU NSC 22/M00 Q1014 NOSIG=
METAR DXXX 110230Z 00000KT 8000 SCT012 27/25 Q1011 NOSIG=
METAR FTTJ 110225Z NIL=
0000036100
601
FTIN90 VILK 110900
TAF VIBN 110900Z 1112/1218 32004KT 1000 BR/HZ FEW020 SCT100 BECMG
1114/1116 0500 MIFG/FG TEMPO 1113/1118 -RA/TSRA FEW030CB BKN090
BECMG 1117/1119 00000KT 0100 FG VV/// BECMG 1205/1207 09005KT 0800
MIFG FEW010 SCT025 BECMG 1207/1209 2500 HZ SCT020 SCT100 BECMG
1212/1214 VRB02KT 1000 BR/MIFG BECMG 1215/1217 0300 FG=

0000011000
602
UANT01 CWAO 110934
ARP AFR022 5102N01621W 0934 F360 MS64 236/67 KT
FGSPC DDL BYT 110934 F12A
0000010800
603
UANT01 CWAO 110934
ARP THY8 4846N03129W 0934 F370 MS50 205/38 KT
TCJNR QXT AOE 110934 J29A
0000012500
604
SIAL21 DAMM 110900 RRA
AAXX 11094
60351 42970 5//// 10160 20051 40183 52013 83032 333 83360 84073 95900
=
0000011900
605
SIMD20 LPMG 110900 CCA
AAXX 11091
08524 41470 21502 10145 20139 30083 40182 52015 81101
333  81814=
0000108300
606
SIPK40 OPKC 110900
AAXX 11094
41506 22997 03618 10095 21165 48562 333
      58062 60007=
41508 22997 01802 10100 21042 48565 333
      58018 60007=
41523 22997 00000 10145 21019 48562 333
      58005 60007=
41535 22997 00000 10130 21047 48501 333
      58014 60007=
41536 22997 01802 10150 21049 48526 333
      58016 60007=
41573 22997 03604 10065 21117 48511 333
      58027 60007=
41600 21995 02302 10190 20045 40175 70400 333
      58010 60007=
41630 21996 03606 10180 20013 40199 70500 333 
      58020 60007= 
41678 22997 03106 10190 20030 40205 333
      58019 60007=
41696 NIL=
41697 22997 00000 10200 21025 40213 333
      58023 60007=
41700 21996 13102 10190 20059 40196 70500 80001 333
      56009 58026 60007 81070=
41725 22996 33602 10200 20014 40197 80001 333
      56009 58016 60007 83707=
41746 22996 23602 10165 20050 40220 80001 333
      56009 58026 60007 82070=
41759 22996 70904 10205 20039 40206 87030 333
      56090 58009 60007 87360=
41785 22997 00506 10200 20014 40196 80001 333 
      56009 58035 60007 84070=
0000078300
607
SIPK21 OPKC 110900
AAXX 11094
41515 22997 00512 10087 21208 48554 333
      58032 60007=
41560 22697 31303 10030 21020 38273 48506 82430 333 
      59002 60007= 
41571 21996 02720 10175 21018 39620 40205 70500 333
      58018 60007=
41594 32997 12308 10190 21023 39976 40195 80001 333
      56009 58021=
41685 32997 23102 10125 21144 38946 48526 82020 333
      56090 58028 82460=
41710 22997 21302 10110 21090 40214 80002 333
      56009 58001 60007 82070=
41718 21995 03102 10195 20053 40202 70500 333
      58026 60007=
41739 22997 30000 10120 21026 48541 80001 333
      56009 58003 60007 83080=
41744 22996 00000 10115 21035 48507 333
      58002 60007=
41749 21996 43604 10200 20014 40213 70400 81031 333
      56099 58037 60007 81360 83070=
0000099400
608
SIPK20 OPKC 110900
AAXX 11094
41529 22997 02302 10183 20021 39823 40204 333
      58025 60007=
41598 21997 02304 10200 21004 40180 333
      58009 60007=
41620 32997 03605 10075 21090 48/// 333
      58///=
41624 22997 03104 10200 21075 40200 333
      58016 60007=
41640 21996 03106 10180 20058 40197 70500 333
      58027 60007=
41660 21997 33104 10055 21032 38455 48546 83001 333
      56009 58003 60007 83072=
41675 21996 03106 10200 21004 40202 70200 333
      58021 60007=
41712 22997 30504 10105 21016 48547 80008 333
      56009 58001 60007 83270=
41715 21996 33102 10200 20014 40206 70500 80001 333
      56009 58029 60007 83070=
41756 22996 50902 10190 21025 40214 80001 333
      56009 58002 60007 85070=
41764 32996 40416 10200 21004 30144 40195 80001 333
      56009 58018 60007 84070=
41768 22996 40506 10235 20010 40184 80001 333
      56009 58021 60007 84070=
41780 22996 60912 10225 21059 40202 80001 333
      56009 58028 60007 86070=
0000013600
609
SIVD17 CWVR 110900
BBXX
46004 11091 99509 71361 46/// /2605 10075 49768 57003
22200 00080 10907 70037 333 91207 =

0000017000
610
SOVI10 KWAL 110936
B110070A 011093601 P9751095 B\P~W@@^0ekI1@mj???CdCf>@me3@JC?@W4Cn5C~6bE9K\<BM2?????@"??? nTIaKBoBgBfBmBiBk:AMPTEMP 25.85C  45+0NN 219E
0000191200
611
SZAU01 AMMC 110936
CREX++
T000103 A001 D01021 D06025++
-1927750 14705860 59260 2014 01 11 09 29 3030 11 07 00 01
02471 0172 02472 0175 02465 0170 02470 0178 02465 0175 02463 0175+
-2316110 15079000 59670 2014 01 11 09 29 3003 11 07 00 01
03463 0232 03456 0228 03448 0226 03446 0228 03436 0222 03428 0220+
-3447330 15091170 60420 2014 01 11 09 29 2950 11 07 00 01
00885 -0018 00882 -0018 00882 -0015 00878 -0016 00872 -0020 00870 -0019+
-4105000 14591500 60910 2014 01 11 09 29 2888 11 07 00 01
02997 0001 02987 -0011 02991 -0009 02987 -0015 03001 -0003 03003 -0003+
-4254640 14793080 61170 2014 01 11 09 29 2895 11 07 00 01
01246 0109 01247 0111 01241 0107 01244 0111 01247 0115 01251 0120+
-3834390 14161360 61410 2014 01 11 09 29 2907 11 07 00 01
00624 0011 00680 0066 00664 0049 00680 0064 00636 0019 00679 0062+
-3214890 13364170 62000 2014 01 11 09 29 2960 11 07 00 01
01283 0161 01281 0160 01279 0159 01281 0162 01280 0162 01276 0159+
-3387080 12189720 62080 2014 01 11 09 29 2950 11 07 00 01
00929 0067 00929 0065 00915 0050 00919 0053 00921 0054 00960 0091+
-3182560 11573860 62237 2014 01 11 09 29 2973 11 07 00 01
00994 0052 00995 0052 00997 0054 00996 0053 01006 0062 01005 0061+
-2422000 11339750 62385 2014 01 11 09 29 //// 11 07 00 01
01429 -0076 01395 -0111 01406 -0100 01451 -0055 01434 -0073 01448 -0059+
-2181670 11419110 62430 2014 01 11 09 29 //// 11 07 00 01
02152 -0062 02147 -0068 02157 -0060 02145 -0073 02147 -0072 02161 -0060+
-1800080 12221830 62650 2014 01 11 09 29 3043 11 07 00 01
06853 0101 06857 0101 06860 0099 06865 0099 06869 0099 06873 0099+
-1247190 13084580 63230 2014 01 11 09 29 3050 11 07 00 01
04535 0155 04523 0147 04525 0154 04523 0158 04517 0156 04509 0152+
-1386000 13641580 63511 2014 01 11 09 29 3043 11 07 00 01
01861 0165 01859 0163 01859 0162 01860 0162 01860 0162 01863 0164++
7777

0000046700
612
SZPA01 AMMC 110936
CREX++
T000103 A001 D01021 D06025++
0136250 17293000 67590 2014 01 11 09 29 3018 11 07 00 01
01298 0015 01304 0019 01300 0013 01297 0009 01301 0011 01311 0019+
0710610 17137250 67680 2014 01 11 09 29 3013 11 07 00 01
00888 0101 00890 0101 00896 0105 00897 0105 00902 0108 00905 0109+
0698060 15820000 67950 2014 01 11 09 29 3023 11 07 00 01
00565 0029 00571 0034 00567 0030 00569 0032 00566 0029 00567 0030++
7777

00000000