0000034100
333
SZIO01 AMMC 110357
CREX++
T000103 A001 D01021 D06025++
-1211670 09689190 46280 2014 01 11 03 50 3003 11 07 00 01
00936 0043 00944 0049 00941 0043 00943 0043 00950 0047 00953 0047+
-1042940 10566940 46290 2014 01 11 03 50 //// 11 07 00 01
00958 0076 00928 0044 00968 0082 00942 0054 00939 0050 00958 0067++
7777

0000027500
334
SXHW11 KWAL 110357
15D142A4 011035702 :PRS 1 #1 1349 1349 1359 1369 1361 1350 1370 1375 1369 1367 :RAD 1 #1 6931 6933 6936 6942 6942 6935 6945 6948 6948 6946 :ENC 2 #5 4843 4855 4856 4858 :SW1 57 #60 0 :SW2 27 #60 0 :BAT 4 #5 13.9 :NAME 15D142A4  35+0NN 216W
0000068900
335
UDEU02 EGRR 110937 RRA
AMDAR 1108
ASC EU0090   5825N 01543E 110823 F328 MS540 294/049 TB/ S031=
LVR EU0090   5750N 01439E 110830 F350 MS543 293/051 TB/ S031=
LVR EU0090   5714N 01337E 110837 F350 MS553 271/059 TB/ S031=
LVR EU0090   5640N 01239E 110844 F350 MS551 265/058 TB/ S031=
LVR EU0090   5605N 01143E 110851 F350 MS580 266/060 TB/ S031=
LVR EU0090   5531N 01049E 110858 F350 MS573 266/068 TB/ S031=
LVR EU0090   5456N 00957E 110905 F350 MS570 262/071 TB/ S031=
LVR EU0090   5422N 00907E 110912 F350 MS570 252/068 TB/ S031=
LVR EU0090   5347N 00818E 110919 F360 MS568 255/062 TB/ S031=
LVR EU0090   5311N 00731E 110926 F360 MS571 251/062 TB/ S031=
0000055300
336
SNAA01 KARS 110400 RRE
AAXX 1104/
89869 46/// ///// 11025 39924 4//// 5//// 90440=
89866 46/// ///// 11026 39883 4//// 5//// 90440=
89329 46/// ///// 11094 38836 4//// 5//// 90430=
89329 46/// ///// 11095 38835 4//// 5//// 90440=
89799 46/// ///// 11223 4//// 5//// 90440=
89314 46/// ///// 11088 38304 4//// 5//// 90440=
89828 46/// ///// 11234 36553 4//// 5//// 90440=
89108 46/// ///// 11203 37008 4//// 5//// 90430=
89108 46/// ///// 11203 37008 4//// 5//// 90440=
89879 46/// ///// 10035 39896 4//// 5//// 90440=
0000068900
337
UDEU02 EGRR 110937 RRB
AMDAR 1109
DES EU0592   5544N 00301W 110922 F063 MS087 292/036 TB/ S031=
DES EU0592   5545N 00301W 110922 F060 MS080 293/037 TB/ S031=
DES EU0592   5546N 00302W 110922 F057 MS077 289/036 TB/ S031=
DES EU0592   5547N 00302W 110922 F054 MS070 288/036 TB/ S031=
DES EU0592   5549N 00302W 110923 F050 MS062 286/035 TB/ S031=
DES EU0592   5550N 00302W 110923 F047 MS060 286/035 TB/ S031=
DES EU0592   5552N 00302W 110924 F044 MS050 284/035 TB/ S031=
DES EU0592   5554N 00302W 110924 F041 MS037 284/036 TB/ S031=
DES EU0592   5556N 00302W 110925 F038 MS027 285/034 TB/ S031=
DES EU0592   5557N 00302W 110925 F035 MS025 287/034 TB/ S031=
0000011100
338
UANT99 KDDL 110933
ARP UAL938 5357N02034W 0933 F350 MS65 225/74 KT
N651UA DDL XXW 110933 F30A
0000018400
339
SNAA01 KARS 110500 RRG
AAXX 1105/
89866 46/// ///// 11028 39883 4//// 5////=
89108 46/// ///// 11201 37007 4//// 5////=
89879 46/// ///// 10030 39896 4//// 5////=
0000069700
340
UDEU02 EGRR 110937 RRC
AMDAR 1109
ASC EU0066   5217N 00445E 110933 F000 PS045 201/006 TB1 S031
333 F000 VG025=
ASC EU0066   5217N 00444E 110933 F001 PS042 199/011 TB1 S031
333 F001 VG027=
ASC EU0066   5217N 00444E 110933 F003 PS040 200/016 TB0 S031
333 F003 VG019=
ASC EU0066   5217N 00444E 110933 F006 PS037 207/022 TB0 S031
333 F006 VG016=
ASC EU0066   5217N 00443E 110933 F009 PS038 214/026 TB0 S031
333 F009 VG012=
ASC EU0066   5217N 00443E 110933 F012 PS042 226/030 TB0 S031
333 F012 VG017=
ASC EU0066   5217N 00443E 110933 F015 PS047 239/036 TB1 S031
333 F015 VG023=
ASC EU0066   5216N 00443E 110933 F017 PS047 248/036 TB1 S031
333 F017 VG029=
0000092100
341
SICI37 BABJ 110900
AAXX 11091
50658 33/// 90201 11245 21322 40304 52020=
50888 31940 60000 11214 21229 40250 52003 70070 86///=
50983 31970 63201 11196 21217 40258 52008 70070 86/// 333
92506=
51053 32980 00905 11094 21166 40412 57018 333 05405=
51542 32980 00901 11283 21322 37630 57013 333 00052=
52436 32980 02904 11030 21228 38592 40429 57001 333 00501=
52908 32675 72705 11121 21245 35726 57005 87/// 333 00252=
52996 32980 73606 11098 21223 37617 52008 87/// 333 00653=
53083 42964 03204 11154 21235 40395 52020 333 00352=
53764 32970 02901 10007 21203 40356 52002=
53787 42969 23202 10020 21220 40319 52004 82///=
54096 32970 42702 11150 21212 40266 52002 84///=
54226 32657 33601 11050 21220 40292 52005 83///=
54259 32970 02201 11058 21195 40280 57005=
54527 31925 51402 11007 21046 40286 57005 70500 85///=
54534 31912 42002 11004 21093 40278 57010 70500 84///=
0000216900
342
SZNZ01 NZKL 110936
CREX++
T000103 A001 D01021 D06025++
-3683144 17478654 AUCT  2014 01 11 09 28 //// 11 07 00 01
03984 3192 03982 3191 03979 3190 03978 3191 03975 3189 03974 3189+
-4402404 -17636748 CHIT  2014 01 11 09 28 //// 11 07 00 01
04581 1985 04573 1974 04580 1977 04585 1978 04586 1976 04586 1972+
-4089929 17623168 CPIT  2014 01 11 09 28 //// 11 07 00 01
03408 2281 03402 2271 03411 2276 03404 2266 03424 2281 03426 2279+
-3618905 17548887 GBIT  2014 01 11 09 28 //// 11 07 00 01
04983 -0034 04983 -0033 05001 -0016 05021 0004 05025 0008 05003 -0013+
-3867541 17802288 GIST  2014 01 11 09 28 //// 11 07 00 01
03394 2741 03381 2725 03402 2743 03394 2733 03407 2743 03408 2741+
-4241288 17370277 KAIT  2014 01 11 09 28 //// 11 07 00 01
02958 2220 02956 2213 02966 2219 02959 2207 02975 2218 02990 2229+
-3755040 17815904 LOTT  2014 01 11 09 28 //// 11 07 00 01
02749 0196 02755 0202 02743 0189 02750 0194 02749 0192 02743 0185+
-3704657 17451175 MNKT  2014 01 11 09 28 //// 11 07 00 01
02701 -0151 02697 -0148 02686 -0151 02666 -0165 02674 -0150 02658 -0159+
-3947566 17692007 NAPT  2014 01 11 09 28 //// 11 07 00 01
02488 2071 02473 2054 02489 2066 02504 2077 02499 2069 02525 2091+
-3441483 17304870 NCPT  2014 01 11 09 28 //// 11 07 00 01
-03880 -7531 -03993 -7642 -04030 -7677 -04048 -7692 -03927 -7569 -04029 -7668+
-4581435 17062939 OTAT  2014 01 11 09 28 //// 11 07 00 01
04494 3405 04505 3409 04511 3408 04516 3407 04521 3406 04527 3405+
-2928002 -17789440 RBCT  2014 01 11 09 28 //// 11 07 00 01
05485 2021 05475 2011 05472 2008 05485 2020 05483 2018 05485 2021+
-2925114 -17790384 RFRT  2014 01 11 09 28 //// 11 07 00 01
02413 0228 02394 0210 02394 0210 02382 0198 02383 0198 02385 0200+
-4357010 17277383 SUMT  2014 01 11 09 28 //// 11 07 00 01
01634 1886 01628 1874 01649 1889 01638 1871 01661 1888 01660 1880+
-3764109 17618118 TAUT  2014 01 11 09 28 //// 11 07 00 01
04318 3987 04310 3979 04305 3975 04311 3981 04306 3976 04307 3977+
-4128448 17477985 WLGT  2014 01 11 09 28 //// 11 07 00 01
02854 2033 02853 2028 02866 2037 02868 2035 02874 2038 02875 2034++
7777
0000011000
343
UANT99 KDDL 110934
ARP SVA061 5247N02629W 0934 F360 MS57 195/69 KT
HZAKI QXT AOE 110934 F50A
0000030000
344
SIAA14 EGRR 110900
AAXX 11094
89065 46/// /9901 11043 21055 39893 49972 5////=
89257 46/// /3106 11111 21131 39839 49911 57005=
89262 46/// /3206 11080 21095 39916 49961 57009=
89266 46/// /2705 11016 21078 39787 49925 57005=
89272 46/// /3510 11193 21241 38102 49798 57007=
0000068900
345
UDEU02 EGRR 110937 RRD
AMDAR 1109
DES EU0196   5512N 00306W 110921 F166 MS325 285/034 TB/ S031=
DES EU0196   5520N 00307W 110922 F141 MS267 274/026 TB/ S031=
DES EU0196   5527N 00308W 110924 F121 MS222 295/024 TB/ S031=
DES EU0196   5534N 00308W 110925 F097 MS167 292/030 TB/ S031=
DES EU0196   5540N 00309W 110927 F071 MS112 280/034 TB/ S031=
DES EU0196   5547N 00309W 110928 F059 MS085 282/031 TB/ S031=
DES EU0196   5553N 00308W 110930 F043 MS047 275/035 TB/ S031=
DES EU0196   5559N 00307W 110931 F032 MS020 278/034 TB/ S031=
DES EU0196   5600N 00312W 110933 F025 MS010 286/030 TB/ S031=
DES EU0196   5559N 00317W 110934 F014 PS010 271/029 TB/ S031=
0000146200
346
SIRA22 RUHB 110900
AAXX 11091
30499 41999 30201 11288 21350 39622 40355 52014 73631 80001 333
91110=
30683 429// 83304 11267 21331 39638 40356 52014 85044=
31253 42999 80000 11294 21324 39758 40266 52008 8807/=
31295 42999 63203 11261 21346 39797 40299 52017 80001=
31348 12999 80000 11294 21311 39968 40183 52/// 69902 80007 333
11294=
31418 11998 80000 11305 21336 39900 40184 50006 69902 70272 80006 333
11275=
31439 11998 82101 11236 21269 30087 40135 53002 69962 70272 85075 333
11235=
31442 41997 22803 11273 21320 39885 40276 52015 70271 80001=
31445 42984 42902 11291 21330 39993 40276 52016 80001=
30695 42999 83005 11236 21335 39955 40324 52018 82046 333 91110=
31474 12999 33601 11365 21408 39718 40272 53/// 60002 80001 333
11335=
31521 42980 60000 11318 21348 39953 40282 52013 80001=
31527 42998 02902 11306 21368 39928 40268 52012=
31534 11998 80000 11293 21324 39883 40266 53014 69902 77171 8801/ 333
11279=
31587 42998 02801 11305 21336 30121 40285 52010=
31632 12999 01801 11294 21324 39803 40197 54/// 60002 333 11217=
31702 12998 23501 11333 21373 39897 40277 51007 60002 80001 333
11246=
31713 12999 02503 11243 21333 30113 40225 52011 60002 333 11193=
31725 12998 02602 11253 21326 30142 40212 52006 60002 333 11213=
31801 11997 82502 11200 21258 39971 40215 54/// 69902 77171 80007 333
11178=
31832 12970 33101 11207 21263 30153 40246 52015 60002 80001 333
11156=
0000075600
347
SIRA28 RUHB 110900
AAXX 11091
31825 12684 13101 11204 21315 39966 40190 52014 60002 81500 333
11158=
31845 12998 62302 11210 21135 30065 40242 52011 60002 80070 333
11160=
31878 11965 83002 11148 21207 30125 40257 51014 60002 70422 8807/ 333
11120=
31915 12998 22501 11125 21208 39962 40250 50003 60002 80001 333 11088
91112=
31921 12598 80403 11131 21186 30146 40250 52008 60002 85905 333
11084=
31969 62998 02301 11059 21195 30195 40246 54001 60002 333 11032
91115=
31981 12999 32701 11109 21225 30008 40254 52008 60002 80001 333 11085
91111=
31987 12699 12401 11096 21219 39980 40251 52004 60002 81400 333
11070=
32069 11598 63004 11184 21225 30130 40135 52009 69922 72683 86900 333
11181 91006 91108=
0000270100
348
SIRA23 RUHB 110900
AAXX 11091
30669 42999 02701 11272 21327 39437 40403 53017=
30731 42999 21101 11169 21195 39738 40394 53005 80001=
30745 429// 20000 11287 21319 39158 40444 52003 82040=
30764 42998 01801 11273 21337 39541 40430 53011=
30829 42999 63202 11182 21223 39669 40412 53005 83049=
30838 42598 62303 11165 21184 39345 40393 53005 82940=
30846 42999 00000 11224 21290 39428 40426 52011=
30859 42999 03101 11245 21321 39497 40422 52014=
30862 42998 20204 11281 21376 39599 40426 52019 80001=
30957 42699 10000 11202 21251 39432 40403 52020 81200=
30975 42899 53503 11270 21325 39663 40383 52026 85030=
24076 12398 80903 11234 21259 39925 40318 52006 69902 886// 333 11229
88709=
24194 12998 80301 11221 21232 30256 40314 53010 69902 8801/ 333
11198=
24219 42999 10801 11449 21472 39971 40329 56001 81030=
24261 11997 70000 11354 21377 39637 40339 52004 69902 77177 87030 333
11323=
24263 12999 80000 11421 21437 30036 40359 52004 60002 8801/ 333
11420=
24322 42998 02002 11336 21353 39622 40330 53002=
24338 42999 02301 11437 21457 39889 40347 58005=
24361 11998 80000 11378 21399 30045 40341 53005 69902 77172 8807/ 333
11378=
24371 12999 20000 11453 21472 39960 40376 53008 60002 82030 333
11434=
24449 42999 30000 11493 21516 30272 40388 51007 80001=
24462 42899 80000 11330 21360 39266 40339 52001 8801/=
24477 12999 80000 11385 21420 39391 40352 52003 60002 8807/ 333
11385=
24525 42998 00000 11477 21500 30015 40403 53004=
24538 42998 00000 11482 21505 30167 40385 53003=
24557 42999 00000 11486 21524 30259 40393 52011=
24585 12997 00000 11426 21455 39579 40341 52007 69922 333 11327=
24588 12999 00000 11441 21459 39480 40345 52006 69922 333 11332=
24643 42999 20000 11461 21475 30268 40387 53004 80005=
24644 42998 00000 11431 21455 30222 40398 53004=
24668 42999 00000 11474 21496 30250 40392 53013=
24679 12998 60000 11286 21304 38577 48355 53003 69902 86025 333
11272=
24684 11998 00000 11387 21402 39229 40325 53008 69922 70271 333
11312=
24691 12999 60000 11469 21490 39195 40365 53006 60002 81032 333
11428=
24725 42999 00000 11396 21435 30021 40409 57001=
24726 42999 02502 11415 21463 39880 40413 54000=
24737 41996 00000 11462 21505 30204 40421 53002 71000=
24739 42999 01801 11426 21450 39936 40400 57003=
24753 41996 00000 11444 21469 30257 40396 52008 74000=
24758 42998 00000 11456 21492 30053 40408 54000=
24763 12999 00000 11465 21496 30219 40396 52010 60002 333 11456=
24771 12997 00000 11460 21486 39956 40397 52012 60002 333 11435=
24826 42999 32402 11385 21420 39908 40430 56002 80009=
24843 42998 20000 11438 21457 30112 40416 52003 80001=
0000011300
349
UDEU02 EGRR 110937 RRE
AMDAR 1109
DES EU0135   3818N 00039W 110928 F008 PS117 264/007 TB/ S031=
0000068900
350
UDEU02 EGRR 110937 RRF
AMDAR 1109
UNS EU2399   4521N 00741E 110924 F035 PS030 176/006 TB/ S031=
UNS EU2399   4522N 00743E 110924 F047 PS010 228/010 TB/ S031=
UNS EU2399   4521N 00745E 110925 F064 MS017 295/002 TB/ S031=
ASC EU2399   4519N 00748E 110925 F080 PS010 251/011 TB/ S031=
UNS EU2399   4516N 00751E 110926 F099 MS030 264/012 TB/ S031=
UNS EU2399   4516N 00755E 110927 F118 MS067 290/016 TB/ S031=
UNS EU2399   4520N 00757E 110928 F138 MS095 251/033 TB/ S031=
ASC EU2399   4522N 00753E 110928 F159 MS150 259/028 TB/ S031=
ASC EU2399   4523N 00749E 110929 F183 MS220 254/037 TB/ S031=
LVR EU2399   4526N 00744E 110930 F204 MS270 257/041 TB0 S031=
0000190500
351
UDEU02 EGRR 110937 RRG
AMDAR 1109
ASC EU0156   3935N 00247E 110913 F008 PS137 118/001 TB/ S031=
ASC EU0156   3936N 00248E 110913 F014 PS130 126/001 TB/ S031=
ASC EU0156   3937N 00249E 110913 F019 PS127 154/006 TB/ S031=
ASC EU0156   3938N 00250E 110913 F028 PS122 176/010 TB/ S031=
ASC EU0156   3939N 00251E 110913 F038 PS110 184/013 TB/ S031=
ASC EU0156   3940N 00252E 110913 F049 PS082 196/013 TB/ S031=
ASC EU0156   3941N 00253E 110913 F059 PS062 207/014 TB/ S031=
ASC EU0156   3942N 00254E 110913 F069 PS042 222/018 TB/ S031=
ASC EU0156   3943N 00255E 110913 F078 PS032 229/017 TB/ S031=
ASC EU0156   3944N 00256E 110913 F097 MS015 237/015 TB/ S031=
ASC EU0156   3945N 00252E 110914 F100 MS022 246/012 TB/ S031=
ASC EU0156   3946N 00248E 110914 F100 MS025 242/010 TB/ S031=
ASC EU0156   3947N 00244E 110914 F109 MS040 242/014 TB/ S031=
ASC EU0156   3949N 00239E 110915 F134 MS097 211/018 TB/ S031=
ASC EU0156   3950N 00234E 110915 F147 MS115 204/023 TB/ S031=
ASC EU0156   3951N 00229E 110915 F165 MS147 195/023 TB/ S031=
ASC EU0156   3953N 00224E 110916 F183 MS187 193/019 TB/ S031=
ASC EU0156   3954N 00219E 110916 F201 MS232 214/021 TB/ S031=
ASC EU0156   3956N 00214E 110916 F218 MS277 219/027 TB/ S031=
ASC EU0156   3957N 00209E 110917 F231 MS312 214/028 TB/ S031=
ASC EU0156   3958N 00204E 110917 F245 MS350 216/038 TB/ S031=
ASC EU0156   4000N 00159E 110917 F258 MS382 214/040 TB/ S031=
ASC EU0156   4003N 00154E 110918 F267 MS407 208/042 TB/ S031=
ASC EU0156   4006N 00149E 110918 F278 MS435 207/046 TB/ S031=
ASC EU0156   4010N 00145E 110918 F288 MS455 207/044 TB/ S031=
ASC EU0156   4014N 00142E 110919 F298 MS475 207/044 TB/ S031=
ASC EU0156   4019N 00140E 110919 F306 MS495 203/043 TB/ S031=
ASC EU0156   4024N 00137E 110919 F316 MS520 203/043 TB/ S031=
ASC EU0156   4029N 00135E 110920 F328 MS545 212/043 TB/ S031=
0000015500
352
SIVD01 CWHX 110900
BBXX
YJQN7 11094 99467 70480 41597 82434 11012 2105/ 40196 57003
70222 885// 22200 07005 20606 326// 40902 81025=

00000000