0000012600
093
SATH32 VTBB 110000 RRC
METAR VTSH 110000Z 09008KT 8000 FEW020 SCT120 BKN300 27/20
           Q1011 A2988=

0000050900
094
SAID31 WIII 110030
METAR WIII 110030Z 21005KT 6000 FEW020CB FEW022 28/24 Q1011 RMK CB TO
W= 
METAR WIHH 110030Z 00000KT 6000 NIL NSC 25/24 QNH 1009 RMK NOSIG= 
METAR WIMM 110030Z 27003KT 3000 HZ FEW016CB BKN017 24/24 Q1012= 
METAR WADD 110030Z VRB02KT 9999 FEW015TCU FEW015 28/23 Q1011 NOSIG= 
METAR WAAA 110030Z 13002KT 9999 -RA FEW020 25/25 Q1012= 
METAR WIDD 110030Z 33004KT 9999 FEW015 26/23 Q1012= 
METAR WARR 110030Z 13004KT 100V180 CAVOK 27/23 Q1011= 
METAR WABB NIL=

0000044400
095
SAID32 WIII 110030
METAR WIPT 110030Z 04004KT 9999 SCT020 24/23 Q1011= 
METAR WIPP 110030Z 27004KT 6000 BKN015 25/24 Q1010= 
METAR WALL 110030Z 36004KT 9999 FEW020 BKN090 26/23 Q1011 NOSIG= 
METAR WADL 110030Z 00000KT 8000 HZ SCT016 26/24 Q1012= 
METAR WIBB 110030Z 34005KT 5000 HZ BKN007 24/23 Q1011= 
METAR WIOO 110030Z 00000KT 9999 BKN010 24/23 Q1012 NOSIG= 
METAR WAMM NIL=
METAR WIDN NIL=
METAR WAOO NIL=

0000118300
096
SAAU32 YBBN 110030
METAR YAMB 110030Z AUTO 25004KT 9999 // SCT055 SCT066 27/15 Q1018=
METAR YMAV 110030Z AUTO 19005KT 9999 // OVC021 20/14 Q1020=
METAR YBRM 110030Z 28007KT 9999 SCT022 31/24 Q1010=
METAR YCIN 110030Z NIL=
METAR YSDU 110030Z AUTO 25005KT 9999 // NCD 29/14 Q1019=
METAR YFRT 110030Z AUTO 11013KT //// // ////// 25/13 Q1022=
METAR YGEL 110030Z 07022KT CAVOK 40/00 Q1009=
METAR YPGV 110030Z 13014KT 9999 BKN017 BKN130 28/24 Q1008=
METAR YBHM 110030Z AUTO 11019KT 9999 // ////// 28/22 Q1014=
METAR YMHB 110030Z 31008KT 270V340 9999 FEW035 BKN220 23/09 Q1014=
METAR YPKG 110030Z AUTO 09009KT 9999 // NCD 24/09 Q1021=
METAR YMLT 110030Z AUTO 15006KT 9999 // NCD 24/13 Q1014=
METAR YBMA 110030Z AUTO 10013KT 9999 // NCD 35/18 Q1012=
METAR YSNF 110030Z 13011KT 9999 FEW040 SCT280 22/10 Q1018=
METAR YPEA 110030Z NIL=
METAR YPPD 110030Z AUTO 27007KT 9999 // NCD 32/26 Q1009=
METAR YSRI 110030Z AUTO 07006KT 9999 // NCD 26/13 Q1017=
METAR YBRK 110030Z 10012KT CAVOK 28/19 Q1016
RMK 1TCU050 5CU050 5AC200=
METAR YWLM 110030Z AUTO 25005KT 9999 // NCD 28/15 Q1017=
METAR YPWR 110030Z AUTO 12005KT 9999 // NCD 32/10 Q1017=

0000123300
097
SAAU31 YBBN 110030
METAR YPAD 110030Z 24011KT CAVOK 25/12 Q1019
NOSIG=
METAR YBAS 110030Z 11013KT CAVOK 34/07 Q1015=
METAR YBBN 110030Z 09007KT 9999 BKN032 27/16 Q1018=
METAR YBCS 110030Z 15010KT 9999 SCT025 BKN060 29/24 Q1011=
METAR YSCB 110030Z 29006KT 9999 FEW055 BKN240 28/12 Q1019=
METAR YPXM 110030Z NIL=
METAR YPCC 110030Z 16011KT 9999 FEW025 BKN039 27/21 Q1012=
METAR YCFS 110030Z AUTO 06012KT 9999 // BKN100 25/17 Q1018=
METAR YPDN 110030Z 20006KT 9999 FEW020 BKN350 28/23 Q1009=
METAR YBCG 110030Z AUTO 11010KT 9999 // NCD 27/17 Q1019=
METAR YHID 110030Z AUTO 33007KT //// // ////// 28/25 Q1008=
METAR YPJT 110030Z AUTO 09011KT 9999 // NCD 30/11 Q1016=
METAR YPKU 110030Z AUTO 05002KT 9999 // NCD 31/26 Q1010=
METAR YPLM 110030Z AUTO 07006KT 9999 // NCD 31/21 Q1009=
METAR YMML 110030Z 17008KT 9000 OVC011 17/14 Q1020
FM0300 18012KT 9999 SCT015 BKN020=
METAR YPPH 110030Z 07017KT CAVOK 29/11 Q1016=
METAR YSSY 110030Z 17008KT 150V210 CAVOK 29/16 Q1017
FM0100 08010KT CAVOK=
METAR YSTW 110030Z AUTO 20004KT 9999 // NCD 29/13 Q1019=
METAR YPTN 110030Z AUTO 09010KT 9999 // NCD 31/23 Q1010=
METAR YBTL 110030Z 13012KT 9999 VCSH FEW015 SCT021 BKN065 30/23
Q1012=

0000011400
098
SPCN42 CWAO 110036
SPECI CYAZ 110036Z 10008KT 5SM -RA BR SCT008 OVC018 RMK SF3NS5 OCNL
GUSTS=

0000021300
099
SAIO31 KWBC 110000 RRF
METAR
FMCZ 110030Z NIL=
FMEE 110030Z AUTO 12013KT 9999 FEW037 26/22 Q1014=
VYMD 110030Z 00000KT 5000 BR NSC 11/11 Q1017=
VYYY 110030Z 02002KT 6000 NSC 19/18 Q1015=

0000019100
100
FTCN31 CWAO 110000
TAF CYBL 110038Z 1101/1105 13015G25KT 2SM -RA BR BKN004 OVC012 TEMPO
     1101/1105 6SM -RA SCT004 OVC012
    RMK NXT FCST WILL BE ISSUED AT 111545Z=

0000038200
101
FTCN31 CWAO 110000
TAF CYKA 110038Z 1101/1113 VRB03KT P6SM SCT060 OVC120 TEMPO 1101/1103
     4SM -RASN BR SCT020 BKN050
     BECMG 1101/1103 10012G22KT
    FM110300 10012G22KT P6SM SCT015 OVC040 TEMPO 1103/1109 2SM -RASN
     BR OVC015
    FM110900 10020G30KT P6SM SCT020 BKN050 TEMPO 1109/1113 5SM -SHRA
     BR BKN020
    RMK NXT FCST BY 110700Z=

0000020500
102
FTCN31 CWAO 110000
TAF CBBC 110038Z 1101/1106 11006KT 2SM -RA BR OVC009 TEMPO 1101/1106
     6SM -RA SCT010 OVC025
    RMK FCST BASED ON AUTO OBS. NXT FCST WILL BE ISSUED AT 111345Z=

0000027400
103
FTCN31 CWAO 110000
TAF CYLW 110038Z 1101/1113 VRB03KT P6SM SCT020 OVC060 TEMPO 1101/1109
     3SM -RASN BR OVC020
    FM110900 15008KT P6SM SCT015 OVC040 TEMPO 1109/1113 4SM -SHRA BR
     OVC015
    RMK FCST BASED ON AUTO OBS. NXT FCST BY 110700Z=

0000020000
104
FTCN31 CWAO 110000
TAF CYZP 110038Z 1101/1113 14025G35KT 6SM -RA BR OVC025 TEMPO
     1101/1113 14035G45KT 2SM -RA BR BKN009
    RMK FCST BASED ON AUTO OBS. NXT FCST BY 110700Z=

0000031000
105
FTCN31 CWAO 110000
TAF CYPR 110038Z 1101/1113 09006KT P6SM SCT050 BKN130 TEMPO 1101/1106
     P6SM -SHRA BKN050
    FM110600 VRB03KT P6SM SCT015 OVC050 TEMPO 1106/1113 3SM -SHRA BR
     BKN015 OVC030
     BECMG 1110/1112 15012KT
    RMK FCST BASED ON AUTO OBS. NXT FCST BY 110700Z=

0000028000
106
FTCN31 CWAO 110000
TAF CYYF 110038Z 1101/1113 VRB03KT P6SM SCT040 BKN080
     BECMG 1101/1103 17012G22KT
    FM110300 17012G22KT P6SM SCT015 OVC040 TEMPO 1103/1113 3SM
     -SHRASN BR OVC015
     BECMG 1105/1107 18020G30KT
    RMK NXT FCST BY 110700Z=

0000028100
107
FTCN31 CWAO 110000
TAF CYXC 110038Z 1101/1113 23006KT P6SM SCT050 BKN080 TEMPO 1101/1109
     4SM -RASN BR BKN050
     BECMG 1101/1103 17008KT
    FM110900 17008KT P6SM SCT020 BKN050 TEMPO 1109/1113 4SM -RASN BR
     OVC020
    RMK NXT FCST BY 110700Z=

0000019300
108
FTCN31 CWAO 110000
TAF CYZT 110038Z 1101/1113 13020G35KT 6SM -RA OVC020 TEMPO 1101/1113
     3SM -RA BR BKN009
     BECMG 1105/1107 24007KT
    RMK NXT FCST BY 110700Z=

0000026200
109
FTCN31 CWAO 110000
TAF CYZY 110038Z 1101/1109 17007KT P6SM FEW070 TEMPO 1104/1107 P6SM
     -SN BKN070
    FM110700 14005KT P6SM -SN SCT020 BKN060 TEMPO 1107/1109 4SM -SN
     BKN020
    RMK FCST BASED ON AUTO OBS. NXT FCST BY 110700Z=

0000030200
110
FTCN31 CWAO 110000
TAF CYWL 110038Z 1101/1113 11008KT P6SM BKN070
    FM110200 12010KT P6SM -SN BKN070 TEMPO 1102/1107 2SM -SN BKN015
     BECMG 1105/1107 12012G22KT
    FM110700 12012G22KT P6SM SCT040 BKN150 TEMPO 1107/1110 6SM -SN
     BKN040
    RMK NXT FCST BY 110700Z=

0000022300
111
FTCN31 CWAO 110000
TAF CYQZ 110038Z 1101/1106 VRB03KT P6SM BKN140
    FM110300 13006KT 6SM -SN BKN040 TEMPO 1103/1106 2SM -SN BKN009
    RMK FCST BASED ON AUTO OBS. NXT FCST WILL BE ISSUED AT 111145Z=

0000031900
112
FTCN31 CWAO 110000
TAF CYXS 110038Z 1101/1113 17008KT P6SM FEW080
    FM110400 17008KT P6SM -SN OVC070 TEMPO 1105/1108 2SM -SN BKN015
    FM110800 15005KT 5SM -SN OVC020 TEMPO 1108/1113 1SM -SN BKN005
     PROB30 1108/1113 1/4SM +SN BKN002
    RMK FCST BASED ON AUTO OBS. NXT FCST BY 110700Z=

00000000