0000025100
433
FTUS74 KWBC 110303 AAA
TAF AMD
KSFO 110301Z 1103/1206 29008KT P6SM FEW006 SCT200
     FM110500 27004KT P6SM OVC010
     FM111700 23012KT P6SM BKN100
     FM112100 26008KT P6SM VCSH OVC030
     FM112300 29003KT P6SM BKN060=

0000081200
434
FTUS72 KWBC 110303 AAA
TAF AMD
KACT 110301Z 1103/1124 21007KT P6SM SKC
     FM110600 31006KT P6SM SKC=
KBTR 110302Z 1103/1124 15008KT 5SM -RA BR OVC003
      TEMPO 1103/1107 2SM TSRA OVC006CB
     FM110800 23012KT 2SM RA OVC004
     FM111500 30009KT P6SM SCT250=
KDAL 110301Z 1103/1124 32008KT P6SM SKC=
KDFW 110301Z 1103/1206 32008KT P6SM SKC=
KFTW 110301Z 1103/1124 32008KT P6SM SKC=
KMOB 110300Z 1103/1124 12005KT 2SM -SHRA BR OVC003
      TEMPO 1103/1105 1/4SM FG VV002
     FM110500 16012KT 4SM SHRA BR OVC005
      TEMPO 1106/1109 3SM -TSRA BKN005CB
     FM111500 27012KT 5SM BR OVC007
     FM111900 30012KT P6SM SCT015=
KTCL 110301Z 1103/1124 13007KT 2SM -RA BR OVC005
      TEMPO 1110/1114 2SM -TSRA BR OVC007CB
     FM111500 26013G19KT P6SM BKN100=

0000108600
435
FTUS71 KWBC 110303 AAB
TAF AMD
KEKN 110301Z 1103/1124 15005KT P6SM OVC035
     FM110500 18011G17KT P6SM OVC035
     FM111000 18011G17KT P6SM OVC030
     FM111200 18013G19KT 4SM SHRA OVC030
     FM111700 21013G19KT 3SM SHRA OVC010
     FM111800 23011G16KT 3SM SHRA OVC003
     FM112000 24012G19KT 3SM SHRA OVC015=
KHTS 110300Z 1103/1124 10006KT P6SM BKN035
     FM110600 18010G15KT P6SM OVC025
     FM110800 17011G16KT 5SM -RA OVC020
     FM111000 23012G18KT 3SM SHRA OVC008
     FM111600 23012G19KT 3SM SHRA OVC015
     FM112000 25014G20KT 6SM BR OVC020
     FM112300 26013G19KT P6SM BKN020=
KMGW 110302Z 1103/1124 12005KT P6SM BKN080
     FM110600 13007KT P6SM OVC050 WS020/22045KT
     FM111300 18010KT 4SM -RA OVC009 WS020/22050KT
     FM112300 23012G24KT P6SM BKN015 OVC025=
KPKB 110301Z 1103/1124 12005KT P6SM OVC035
     FM110800 17010G15KT P6SM OVC025
     FM111100 18012G18KT 3SM SHRA OVC008
     FM111500 21012G18KT 3SM SHRA OVC010
     FM112000 24013G19KT 6SM SHRA OVC015
     FM112100 24013G20KT P6SM OVC015=

0000010300
436
SACN61 CYFC 110300
METAR CYFC 110300Z AUTO 18004KT 9SM CLR M11/M12 A3029 RMK SLP259=

0000011800
437
SACN62 CYGL 110300
METAR CYGL 110300Z 18006KT 4SM -FZDZ -SN OVC002 M06/M07 A2973 RMK ST8
 SLP082=

0000011600
438
SACN61 CYDN 110300
METAR CYDN 110300Z AUTO 28014KT 8SM OVC014 M07/M08 A2947 RMK PRESRR
 SLP003=

0000012300
439
SACN61 CYGV 110300
METAR CYGV 110300Z AUTO 29005KT 9SM FEW024 BKN075 BKN170 M08/M11
 A3005 RMK SLP179=

0000012300
440
SACN61 CYHU 110300
METAR CYHU 110300Z AUTO 01004KT 8SM BKN023 BKN030 OVC065 M06/M08
 A3021 RMK SLP233=

0000010600
441
SACN62 CYGP 110300
METAR CYGP 110300Z 29008KT 15SM FEW035 M07/M14 A3013 RMK SC1 SLP206=

0000046400
442
SPUS70 KWBC 110302
SPECI
KHDO 110258Z AUTO 00000KT 1 1/4SM BR CLR 12/11 A2989 RMK AO2
     T01220111=
KLWV 110258Z AUTO 19011KT 3SM RA FEW007 BKN010 OVC042 07/ A2973
     RMK AO2 P0001 T0072 $=
KMIW 110258Z AUTO 28006KT 3SM BR OVC003 00/00 A2951 RMK AO2
     T00000000 TSNO=
KSSI 110258Z AUTO 15008KT 1 3/4SM BR OVC003 17/17 A3011 RMK AO2
     T01720172=
KBIS 110259Z 28006KT 10SM BKN027 M03/M07 A2952 RMK AO2
     T10281067=

0000010200
443
SPUS42 KWBC 110302
SPECI
KSSI 110258Z AUTO 15008KT 1 3/4SM BR OVC003 17/17 A3011=

0000026800
444
SAIE31 EIDB 110300
METAR EIDW 110300Z 24012KT 9999 -RA SCT025 BKN040 BKN060 03/02 Q1012
     NOSIG=
METAR EINN 110300Z 23008KT 9999 FEW018CB 03/02 Q1015 NOSIG=
METAR EICK 110300Z 29007KT 9999 FEW016 03/01 Q1015 NOSIG=
METAR EIKN 110300Z NIL=

0000014000
445
SACN61 CYZE 110300
METAR CYZE 110300Z AUTO 13010G15KT 3SM -SN OVC005 01/00 A2976 RMK
 PRESFR PCPN 0.8MM PAST HR SLP087=

0000009600
446
SAPM31 MPTO 110300
METAR 
MPTO 110300Z 00000KT C A V O K 24/20 Q1010 NOSIG=

0000008900
447
SAID32 WADL 110300
METAR WADL 110300Z 27005KT 9000 SCT016 30/24 Q1011=

0000008900
448
SASG20 GOOY 110300
METAR GOOY 110300Z 36010KT CAVOK 19/15 Q1013 NOSIG=

0000022600
449
FTRS35 RUMS 110200 AAA
TAF AMD UWWW 110300Z 1103/1203 18009MPS 1500 SNRA BR OVC004 650040
TEMPO 1103/1106 19012MPS 0600 FZDZ FZFG VV002 640000 TEMPO
1106/1124 21015MPS 0500 +SHSNRA VV002 SCT010CB 530003=

0000008700
450
SARH32 LDZM 110300
METAR LDLO 110300Z NIL=
METAR LDSB 110300Z NIL=

0000019000
451
FTDN31 EKCH 102300 AAA
TAF AMD EKYT 110255Z 1102/1124 23012KT 9999 BKN030 TEMPO 1102/1108 
4000 RA BKN006 BECMG 1108/1111 28012KT TEMPO 1111/1124 7000 -SHRA 
SCT020CB=

0000053900
452
SAPR82 SPIM 110300
METAR SPHI 110300Z 17011KT CAVOK 23/21 Q1012 RMK PP000=
METAR SPIM 110300Z 16011KT CAVOK 22/19 Q1012 NOSIG RMK SCT170 PP000=
METAR SPQT 110300Z 00000KT 9999 FEW020 BKN100 24/23 Q1010
NOSIG RMK PP000=
METAR SPQU 110300Z NIL=
METAR SPRU 110300Z 15006KT 9999 FEW045 22/19 Q1012 RMK PP000=
METAR SPSO 110300Z /////KT 9999 FEW100 21/19 Q1012 RMK PP000=
METAR SPTN 110300Z 00000KT 9999 BKN050 20/16 Q1012 RMK PP000=
METAR SPZO 110300Z 08004KT 9000 -RA SCT043 BKN070 10/07 Q1031 
RMK PP008=

00000000