0000016000
013
SAIO31 KWBC 101900 RRE
METAR
FMCZ 101930Z NIL=
FMEE 101930Z AUTO 14007KT 9999 FEW058 25/22 Q1016=
VYMD 101930Z NIL=
VYYY 101930Z NIL=

0000045100
014
SARA33 RUMS 101930
METAR UIAA 101930Z VRB01MPS 9999 FEW050CB BKN100 M21/M25 Q1022 NOSIG
RMK QFE707 29CLRD70=
METAR UIBB 101930Z 08002MPS 5000 BR FEW003 M23/M25 Q1028 TEMPO 0300
FG VV002 RMK QFE728/0970 30490530=
METAR UIII 101930Z 00000MPS 9999 FEW050CB SCT100 OVC200 M16/M18 Q1031
NOSIG RMK QFE728/0971 30490340=
METAR UIUU 101930Z 27003MPS 140V310 5000 -SN SCT033 OVC100 M12/M14
Q1028 NOSIG RMK QFE726/0968 26490842=

0000013900
015
SARA35 RUMS 101930
METAR USCM 101930Z 13002MPS 3000 -SN VV007 M07/M08 Q1008 TEMPO 1000
SHSN VV003 19490532 RMK QFE718=

0000030000
016
SARS31 RUMS 101930
METAR ULWC 101930Z NIL=
METAR UUBP 101930Z NIL=
METAR UUOB 101930Z 23006G09MPS 4000 -RA BR OVC011 03/03 Q1000
29290050 NOSIG=
METAR UUOK 101930Z NIL=
METAR UWGG 101930Z 16007MPS 3700 -SN OVC006 01/00 Q0995 TEMPO 1000
SHSNRA VV004 18620145 RMK QFE740=

0000048600
017
SARS33 RUMS 101930
METAR ULLI 101930Z 00000MPS 5000 -RASN BKN006 OVC016 01/01 Q0983
60////// 10620245 NOSIG=
METAR UUBW 101930Z 20005MPS 9999 OVC007 04/02 Q0989 NOSIG=
METAR UUDD 101930Z 20006MPS 9999 OVC005 04/03 Q0989 64290195 14290194
NOSIG=
METAR UUDL 101930Z NIL=
METAR UUEE 101930Z 19004MPS 5000 BR OVC003 04/03 Q0987 75290151
25290151 NOSIG=
METAR UUWW 101930Z 21004MPS 9999 BKN013 OVC023 03/03 Q0988 24290045
NOSIG=
METAR UUMO 101930Z NIL=

0000012700
018
SARA31 RUMS 101930
METAR UEEE 101930Z 23002MPS 5000 -SN BR OVC200 M43/M48 Q1034 NOSIG
RMK QFE767 23490145=

0000056500
019
SARA36 RUMS 101930
METAR UWUU 101930Z 17002MPS 140V230 4500 -SN OVC008 M02/M03 Q1007
14650440 TEMPO 1000 SN FZRA BKN003 RMK QFE745/0993=
METAR USCC 101930Z 16005MPS 3000 -SHSN BR BKN010CB OVC070 M05/M05
Q1010 09490350 TEMPO 1100 SHSN BKN005 RMK QFE737=
METAR USNN 101930Z 00000MPS 9000 SCT014 OVC067 M10/M12 Q1016 NOSIG
RMK QFE758 03420242=
METAR COR USRR 101930Z 07002MPS 7000 SKC M26/M29 Q1017 NOSIG RMK
QFE758 07////35=
METAR USSS 101930Z 11001MPS 7000 -SN SCT006 BKN020 OVC067 M03/M05
Q1008 08590230 TEMPO BKN004 RMK QFE736=

0000088200
020
SARA34 RUMS 101930
METAR UNAA 101930Z 21005MPS CAVOK M05/M10 Q1029 NOSIG RMK QFE749
20090040=
METAR UNBB 101930Z 21007MPS 4700 -SN DRSN OVC018 M08/M10 Q1029 NOSIG
RMK QFE749/0999 24424042=
METAR COR UNEE 101930Z 19006MPS 1800 SN OVC004 M08/M09 Q1026 NOSIG
RMK QFE746 23451050=
METAR UNKL 101930Z VRB02MPS 8000 -SHSN SCT030CB OVC083 M08/M12 Q1025
NOSIG RMK QFE743 29////55=
METAR UNNT 101930Z 21007MPS 6000 -SHSN DRSN FEW016 OVC033CB M06/M09
Q1026 25490139 16390136 NOSIG RMK QFE760/1013=
METAR UNOO 101930Z 22005MPS 8000 BKN016 BKN026CB M06/M09 Q1021
25390137 NOSIG RMK QFE758=
METAR UNTT 101930Z NIL=
METAR USTR 101930Z 17003MPS 6000 -SHSN BKN013 OVC017CB M04/M04 Q1012
TEMPO 1500 SHSN BKN005 RMK QFE749/0999 21390045 12750029=
METAR USHH 101930Z 04002MPS 350V060 9999 SCT023 OVC080 M22/M25 Q1016
TEMPO BKN007 RMK QFE758 06////37=

0000085000
021
SARS35 RUMS 101930
METAR USPP 101930Z 13003MPS 5000 IC SCT017 BKN076 M05/M06 Q1007
21290250 NOSIG RMK QFE744/0992=
METAR UWKD 101930Z 14004MPS 0600 R11/P1500U FZFG VV002 M00/M00 Q1004
R11/2/0050 TEMPO 0500 FZFG RMK QBB070 QFE743/0991=
METAR UWKE 101930Z 00000MPS 3000 BR OVC003 M04/M05 Q1005 TEMPO 0500
FZFG VV002 RMK  QBB100 QFE737/0983 21420542=
METAR UWKS 101930Z 17005MPS 2700 BR OVC002 00/M00 Q1002 NOSIG RMK
QBB070 QFE737 24290250=
METAR UWLW 101930Z NIL=
METAR UWOR 101930Z NIL=
METAR UWOO 101930Z 14002MPS 2000 SN OVC005 M02/M03 Q1008 08590332
TEMPO 1000 SN RMK QBB150 QFE746/0994=
METAR UWSS 101930Z 20005MPS 5000 BR OVC005 01/M00 Q1008 3019//55
TEMPO 2000 BR OVC004 RMK  QFE743=
METAR UWWW 101930Z 19002MPS 180V260 2900 BR BKN011 OVC100 M01/M02
Q1007 23520540 33//99// NOSIG RMK QFE744/0992=

0000052100
022
SARA32 RUMS 101930
METAR UHBB 101930Z NIL=
METAR UHHH 101930Z 24008MPS CAVOK M26/M32 Q1018 NOSIG RMK QFE757/1009
23090060=
METAR UHMA 101930Z NIL=
METAR UHMD 101930Z NIL=
METAR UHMM 101930Z NIL=
METAR UHPP 101930Z 14003MPS 080V210 9999 BKN033 BKN100 M06/M12 Q0992
NOSIG RMK QFE740/0987 SC035 037 037=
METAR UHSS 101930Z 03002MPS 5000 FU SCT033 M21/M24 Q1013 NOSIG RMK MT
OBSC QFE758/1011 19810366=
METAR UHWW 101930Z VRB01MPS 9999 SKC M24/M28 Q1027 NOSIG RMK
QFE769/1025 25CLRD70=

0000082900
023
SARS32 RUMS 101930
METAR URKA 101930Z NIL=
METAR URKK 101930Z VRB01MPS 9000 BKN100 03/02 Q1013 NOSIG RMK QFE756
SC065=
METAR URML 101930Z 17002MPS 9999 SKC 00/M01 Q1018 NOSIG RMK
QFE764/1019 SC070=
METAR URMM 101930Z 27002MPS 9999 SKC M02/M02 Q1015 12CLRD70 NOSIG RMK
QFE733/0977=
METAR URMN 101930Z NIL=
METAR URMO 101930Z NIL=
METAR URMT 101930Z 21004MPS CAVOK 02/M00 Q1013 NOSIG RMK QFE721
SC0.60=
METAR URRR 101930Z 21005MPS 9999 -RA FEW008 OVC017 06/06 Q1010
22290045 TEMPO 0800 FG OVC002=
METAR URSS 101930Z 05004MPS 9999 BKN230 04/00 Q1017 NOSIG RMK
R06/09005MPS QFE762 02000070 06//////=
METAR URWA 101930Z 23003MPS 9999 OVC033 04/01 Q1017 NOSIG RMK
QFE765/1020 SC055=
METAR URWI 101930Z NIL=
METAR URWW 101930Z 21005MPS 9999 BKN026 02/00 Q1011 NOSIG RMK
29190060=

0000061300
024
SARS36 RUMS 101930
METAR ULAA 101930Z NIL=
METAR ULMM 101930Z 00000MPS 9999 BKN002 M33/M37 Q1016 NOSIG RMK
QBB060 OBST OBSC QFE755 31450239=
METAR ULOO 101930Z 30004MPS 6000 -SHRA SCT006 BKN014 OVC020 03/03
Q0982 19290055 NOSIG RMK QFE732=
METAR ULPB 101930Z NIL=
METAR UMKK 101930Z 31008G14MPS 280V340 9999 SCT022CB BKN100 04/M01
Q1002 R24/29//60 NOSIG RMK QFE750/1001=
METAR UUOO 101930Z 21007G12MPS 6000 -RA OVC005 02/01 Q0999 TEMPO
20010G15MPS BKN004 RMK 12290250=
METAR UUYY 101930Z 03003MPS 6000 BKN009 OVC066 M16/M18 Q1006 TEMPO
1000 SN BR 0145//33 RMK QFE745/0993=

0000116800
025
SPUS70 KWBC 101938
SPECI
KDXR 101934Z 00000KT 3SM BR OVC007 00/M02 A3037 RMK AO2=
KMKO 101934Z AUTO 16004KT 6SM BR SCT003 OVC014 11/11 A2964 RMK
     AO2=
KOWB 101934Z 15010KT 7SM OVC008 08/08 A2995 RMK AO2 CIG
     007V012=
KAND 101934Z AUTO 06006KT 2SM -RA BR OVC004 08/08 A3016 RMK AO2
     RAB15 P0000=
KDTO 101934Z 21011KT 10SM SCT017 BKN100 17/15 A2969 RMK AO2
     RAE1858 P0000=
KFLO 101934Z 16007G18KT 10SM BKN028 OVC035 22/16 A3015 RMK AO2=
KGON 101934Z 00000KT 1 3/4SM BR OVC009 02/01 A3039 RMK AO2 RAE10
     P0000=
KISW 101934Z AUTO 14006KT 2SM BR OVC005 M02/M03 A2975 RMK AO2
     I1001 T10221033=
KCKV 101935Z AUTO 16010KT 10SM OVC015 11/08 A2995 RMK AO2=
KDTN 101935Z 15012KT 5SM BR SCT005 BKN013 14/14 A2982 RMK AO2=
KMIE 101935Z 16007G16KT 7SM BKN006 OVC031 04/03 A2995 RMK AO2
     T00440028=
KRST 101935Z 15009KT 1SM R31/4500V5500FT BR OVC003 M01/M03 A2962
     RMK AO2 FZRAB22E29 P0000 I1002 T10111028=
KTKI 101935Z 20017G22KT 10SM -RA FEW080 OVC095 18/16 A2969 RMK AO2
     RAB25 P0000=
KVPZ 101935Z AUTO 15010KT 2SM BR OVC006 02/02 A2985 RMK AO2 CIG
     003V008 T00220022 TSNO=

0000009700
026
SPUS41 KWBC 101938
SPECI
KGON 101934Z 00000KT 1 3/4SM BR OVC009 02/01 A3039=

0000011100
027
SAAG31 KWBC 101900 RRB
METAR
SASJ 101900Z 05007KT 9999 FEW025 FEW040CB BKN200 33/17 Q1006=

0000021500
028
SAJP31 KWBC 101930 RRA
METAR
RJAA 101930Z VRB01KT 9999 FEW025 M06/M09 Q1023 NOSIG=
RJCC 101930Z 21007KT 9999 -SHSN FEW030 BKN050 M09/M12 Q1017=
RJTT 101930Z 33005KT CAVOK 01/M05 Q1023 NOSIG=

0000008500
029
SPCN46 CWAO 101937
SPECI CYLD 101937Z 18008KT 13SM OVC006 RMK ST8=

0000010000
030
SAAL31 DAAA 101930 RRA
METAR DAUH 101930Z 04005KT 9999 FEW040 SCT100 15/08 Q1021=

0000008700
031
SAYG31 LYBM 101930 RRA
METAR LYTV 101930Z VRB02KT CAVOK 08/07 Q1022=

0000009700
032
SPUS41 KWBC 101938
SPECI
KRIC 101934Z 08005KT 3SM -RA BR OVC004 04/03 A3031=

00000000