0000019600
913
FTCN36 CWAO 102000 AAA
TAF AMD CYVP 102008Z 1020/1106 27015KT P6SM OVC040 TEMPO 1020/1022
     5SM -SN BKN020
    FM110200 26008KT P6SM FEW030
    RMK NXT FCST BY 110000Z=

0000022600
914
FTUS74 KWBC 102009
TAF
TAF AMD KRDM 102002Z 1020/1118 25011KT P6SM OVC050
     FM102300 19010KT P6SM VCSH OVC050
     FM110600 19015G24KT P6SM SCT050 OVC100
     FM111300 20018G30KT P6SM VCSH BKN050=

0000009900
915
SPCN51 CWAO 102008
SPECI CWOB 102008Z AUTO 00000KT -SN BKN001 BKN007 M19/ A2909=

0000033700
916
SAAE33 VTBB 102000
METAR VVTS 102000Z 08004KT 9999 FEW017 SCT040 23/19 Q1012 NOSIG =
METAR VVNB 102000Z 31004KT 2500 BR FEW020 BKN050 15/11 Q1020 NOSIG=
METAR VVDN 102000Z NIL=
METAR VVPB 102000Z NIL=
METAR VVCR 102000Z 35006KT 9999 FEW017 24/18 Q1015 NOSIG=
METAR VVCT 102000Z NIL=
METAR VVPQ 102000Z NIL=

0000021800
917
SACG21 FCBB 102000
METAR FCBB 102000Z VRB02KT 8000 FEW030CB 25/23 Q1013 NOSIG=
METAR FCPP 102000Z 16009KT 9999 FEW013 BKN023 27/24 Q1012 NOSIG=
METAR FCPD NIL=
METAR FCOU NIL=
METAR FCOI NIL=

0000133100
918
SAAG05 SABM 102000
METAR SAAR 102000Z  05008KT 9999  FEW030 SCT100
31/19 Q1006=
METAR SABE 102000Z  02010KT 9999  FEW045TCU SCT100
 30/21 Q1006=
METAR SACO 102000Z  14014KT 9999  SCT030 FEW040CB
28/19 Q1011=
METAR SADF 102000Z  36005KT 9999  SCT025 BKN100
31/20 Q1006=
METAR SAEZ 102000Z 23007KT 9999 FEW050TCU SCT100 32/15 Q1007=
METAR SAME 102000Z 09008KT CAVOK 30/03 Q1009=
METAR SANT 102000Z  18004KT 9999  FEW035 FEW045CB
BKN200  36/22 Q1003=
METAR SAOC 102000Z  14015KT 9999  FEW035 SCT100
28/12 Q1009=
METAR SARC 102000Z  02007KT 9999  FEW040 SCT045TCU
 35/23 Q1005=
METAR SARE 102000Z 36006KT 9999 FEW025 SCT030TCU 34/24 Q1005=
METAR SARF 102000Z NIL=
METAR SARI 102000Z NIL=
METAR SARL 102000Z  11010KT 9999 TS SCT015
FEW045CB BKN100 BKN200  24/22 Q1008=
METAR SARP 102000Z  32010KT 9999  SCT030TCU  35/21
Q1009=
METAR SASA 102000Z  05010KT 9999  FEW020TCU SCT100
BKN200  30/11 Q1009=
METAR SASJ 102000Z NIL=
METAR SAVC 102000Z  05013KT 9999  SCT040 SCT200
18/02 Q1012=
METAR SAWE 102000Z NIL=
METAR SAWG 102000Z  23021G31KT 9999  BKN035 SCT200
 14/M01 Q1009=
METAR SAWH 102000Z NIL=
METAR SAZM 102000Z  09010KT 9999  FEW025  22/12
Q1008=
METAR SAZN 102000Z  23009KT CAVOK 27/M06 Q1012=
METAR SAZS 102000Z  29022KT CAVOK 19/01 Q1017=

0000017300
919
SAUS72 KWBC 102000 RRD
METAR
TJPS 101950Z 11010G15KT 10SM SCT030 30/22 A3000=
TNCM 102000Z 07012KT 040V100 9999 FEW019 27/19 Q1016 A3002
     NOSIG=

0000013100
920
SACN62 CYXX 102000
METAR CYXX 102000Z 19010KT 20SM SCT025 OVC080 08/ A3002 RMK SC3AS5 DP
 4.9 VIA CYXC SLP165=

0000031000
921
FTFR31 LFPW 101700 AAB
TAF AMD LFPO 102001Z 1020/1124 17006KT 9999 BKN009 TEMPO 1020/1101
BKN003 PROB30 TEMPO 1021/1101 0800 FG BKN002 TEMPO 1101/1106 3000 -RA
 BKN006 BECMG 1105/1108 20006KT BKN016 TEMPO 1106/1109 4000 BR BKN004
 BECMG 1112/1115 SCT016 BECMG 1120/1123 02004KT BKN006=

0000016700
922
SAMX41 MMMX 102009
METAR MMIT 102000Z 36007KT 7SM SKC 31/17 A2985 RMK PRESFR FU NW =
METAR MMTB 101945Z 00000KT 7SM SKC 29/18 A2983 RMK ISOLD CU =

0000013600
923
SAIN31 EGGY 102000
METAR VOBL 102000Z NIL=
METAR VOCB 102000Z NIL=
METAR VOCI 102000Z NIL=
METAR VOCL 102000Z NIL=
0000009900
924
SANO36 ENMI 101950 RRA
METAR ENHV 101950Z 20007KT 9999 -SN FEW011 M06/M08 Q1017=

0000004100
925
SACZ41 LKPW 102000
NIL

0000013900
926
SAOS33 LOWM 102000
METAR LOAN 102000Z NIL=
METAR LOAV 102000Z NIL=
METAR LOIH 102000Z NIL=
METAR LOWZ 102000Z NIL=

0000064200
927
SAEE31 LOWM 102000
METAR UACK 102000Z 23008MPS 9999 DRSN OVC013CB M07/M10 Q1020
R20/450342 NOSIG RMK QFE741/0989=
METAR UACP 102000Z NIL=
METAR UAII 102000Z VRB01MPS 5000 BR BKN100 M07/M10 Q1027
R28/0///70 NOSIG RMK QFE732/0977=
METAR UADD 102000Z 19005MPS 9999 NSC M07/M13 Q1026 NOSIG RMK
QFE712/0949=
METAR UASK 102000Z 13004MPS 9999 BKN052 OVC130 M07/M14 Q1036
R12/820350 NOSIG RMK QFE751/1001=
METAR UASP 102000Z 19003MPS 9999 -SHSN BKN025CB M09/M12
Q1029 R21/451045 NOSIG RMK QFE760/1014=
METAR UAOO 102000Z 16004MPS 5000 BR BKN160 M06/M07 Q1025
NOSIG RMK QFE757/1009=
METAR UAKD 102000Z NIL=

0000047400
928
FCGR31 LGAT 102000
TAF LGAD 102000Z 1021/1106 VRB03KT 9999 SCT020 PROB30 TEMPO 1100/1106
5000 BR SCT010 BKN020=
TAF LGIO 102000Z 1021/1106 VRB03KT 9999 FEW010 SCT030 PROB40 TEMPO
1022/1106 5000 BR SCT008 PROB30 TEMPO 1100/1106 0300 FG BKN004=
TAF LGKC 102000Z 1021/1106 28015KT 9999 SCT012=
TAF LGKF 102000Z 1021/1106 VRB03KT 9999 SCT018 SCT025=
TAF LGKL 102000Z 1021/1106 35010KT 9999 FEW030=
TAF LGZA 102000Z 1021/1106 VRB03KT 9999 SCT018=

0000073900
929
FCGR32 LGAT 102000
TAF LGAL 102000Z 1021/1106 VRB03KT 8000 FEW008 SCT018 PROB40 TEMPO
1021/1106 4000 BR SCT004 BKN012 PROB30 TEMPO 1023/1106 0500 FG
BKN004=
TAF LGHI 102000Z 1021/1106 VRB03KT 9999 SCT015 PROB30 TEMPO 1100/1106
5000 BR SCT010=
TAF LGKP 102000Z 1021/1106 30012KT 9999 SCT025=
TAF LGKV 102000Z 1021/1106 VRB03KT 9000 BKN020 PROB40 TEMPO 1021/1106
5000 BR SCT010 BKN020 PROB30 1100/1106 0400 FG BKN004=
TAF LGLM 102000Z 1021/1106 VRB05KT 8000 BKN016 PROB30 TEMPO 1021/1106
4000 BR SCT008 BKN016=
TAF LGMT 102000Z 1021/1106 VRB03KT 9000 SCT020 PROB30 TEMPO 1022/1106
5000 BR SCT010 SCT020=
TAF LGSM 102000Z 1021/1106 VRB03KT 8000 SCT020 PROB30 TEMPO 1022/1106
4000 BR SCT010 SCT020=

0000045700
930
FCGR33 LGAT 102000
TAF LGBL 102000Z 1021/1106 28008KT 9999 FEW020=
TAF LGMK 102000Z 1021/1106 20012KT 9000 FEW020=
TAF LGPZ 102000Z 1021/1106 07007KT 9999 BKN025=
TAF LGRX 102000Z 1021/1106 VRB03KT 9999 SCT025
TEMPO 1021/1106 BKN025=
TAF LGSK 102000Z 1021/1106 VRB03KT 9000 FEW018 PROB30 TEMPO 1022/1106
5000 BR SCT010 SCT020=
TAF LGSR 102000Z 1021/1106 29012KT 9999 SCT025=
TAF LGST 102000Z 1021/1106 18008KT 9999 FEW020=

0000012500
931
SACN62 CYLJ 102000
METAR CYLJ 102000Z 26009KT 15SM FEW070 FEW250 M07/M10 A2936 RMK
 AC1CI1 TR CI SLP974=

0000008900
932
SPCN51 CWAO 102009
SPECI CWOB 102009Z AUTO 20002KT -SN CLR M19/ A2909=

00000000