0000055200
433
FTRA33 RUMS 101700
TAF UIAA 101645Z 1018/1118 01004MPS 9999 BKN030CB BKN100 530009 TEMPO
1018/1106 2400 -SHSN BR FEW006 BKN030CB BKN100=
TAF UIBB 101652Z 1018/1118 10002MPS 0300 FG VV002 TEMPO 1020/1102
1400 SHSN BR BKN004 OVC010CB BECMG 1102/1103 3000 -SHSN BKN014CB
OVC100=
TAF UIII 101642Z 1018/1118 VRB02MPS 1500 -SHSN FU BKN007CB TEMPO
1018/1102 0300 FG VV001 BECMG 1102/1104 9999 NSW SCT020 TEMPO
1103/1112 2000 FU=
TAF UIUU 101652Z 1018/1118 30005G10MPS 5000 -SHSN BKN020CB OVC100
TEMPO 1018/1101 2100 -SHSN=

0000014700
434
FTRA31 RUMS 101700
TAF UEEE 101700Z 1018/1124 23004MPS VRB02MPS 2000 BR NSC TM46/1022Z
TEMPO 1018/1103 VRB02MPS 0500 FG VV003=

0000058400
435
FTRA36 RUMS 101700
TAF UWUU 101658Z 1018/1118 16005G10MPS 2000 SN BR OVC007 SCT015CB
650070 530003 TEMPO 1018/1105 VRB02MPS 0300 FZDZ FZFG VV002 640000=
TAF UNEE 101645Z 1018/1118 19008G14MPS 3000 -SHSN DRSN BKN010CB
BKN070 530004 TEMPO 1018/1106 23015MPS 0500 +SHSN BLSN BKN002 TEMPO
1106/1115 1200 SHSN BKN004=
TAF USCC 101700Z 1018/1118 18006MPS 5000 BR BKN010CB OVC070 530005
TEMPO 1018/1106 VRB02MPS 2000 SHSN BKN005=
TAF USNN 101700Z 1018/1118 25003MPS 4000 -SN BR BKN015 OVC066 620150
TEMPO 1018/1103 0800 FZFG VV003 BECMG 1020/1021 36003MPS=

0000061800
436
FTRS34 RUMS 101700
TAF USPP 101700Z 1018/1118 14003MPS 2000 BR OVC007 650070 TEMPO
1018/1106 0800 FZDZ FZFG OVC002 640000=
TAF UWKD 101655Z 1018/1118 15004MPS 1500 BR OVC004 650040 TEMPO
1018/1024 0500 FZDZ FZFG OVC002 640000 BECMG 1100/1102 17006G12MPS
2000 SNRA OVC005 SCT015CB 530001 TEMPO 1102/1106 0700 +SHSNRA VV003
BKN010CB TEMPO 1106/1115 18009G15MPS=
TAF UWKE 101645Z 1018/1018 22005MPS 1000 BR OVC003 650050 TEMPO
1018/1106 18008MPS 0500 SN FZRA FZFG OVC002 640000 BECMG 1106/1107
4000 BR OVC007 TEMPO 1106/1118 18012MPS 1000 SHSN FZRA BLSN BKN003
BKN010CB 640000 530001=

0000093400
437
FTRA34 RUMS 101700
TAF UNAA 101650Z 1018/1118 18006MPS 9999 SCT030CB BKN100 530009 TEMPO
1018/1106 1000 SHSN SCT004 BKN020CB OVC100 640005 TEMPO 1106/1118
23008G13MPS=
TAF UNBB 101700Z 1018/1118 20009G14MPS 3000 -SHSN DRSN BKN010CB
530005 TEMPO 1018/1112 23010G15MPS 0500 +SHSN BLSN SCT002 BKN004
TEMPO 1112/1118 1200 SHSN BKN005=
TAF UNKL 101650Z 1018/1118 18005MPS 9999 SCT030 OVC100 TEMPO
1018/1021 21005G10MPS 1500 SN BLSN FM102100 20005G10MPS 5000 -SHSN
BLSN BKN020CB OVC100 TEMPO 1021/1103 23009G14MPS 0800 +SHSN BLSN
530009 TEMPO 1103/1115 23010G15MPS 0500 +SHSN BLSN SCT005 BKN015CB
OVC100 530009=
TAF UNNT 101655Z 1018/1118 20008G15MPS 2000 SHSN DRSN BKN010CB 530005
TEMPO 1018/1103 0500 +SHSN BLSN SCT001 BKN004 650040 TEMPO
1103/1118 1200 SHSN BKN005=
TAF UNOO 101650Z 1018/1118 20009MPS 3000 -SHSN BLSN BKN020CB 650200
530002 TEMPO 1021/1112 1000 SHSN BLSN BKN007 BKN020CB=

0000058400
438
FTRA37 RUMS 101700
TAF USTR 101700Z 1018/1118 17006MPS 2000 SHSN BR BKN007 BKN015CB
650070 TEMPO 1018/1106 0400 +SHSN FZRA FZFG VV002 640000 TEMPO
1106/1118 1500 SHSN=
TAF USHH 101659Z 1018/1118 04003MPS 4000 -SN BKN010 OVC070 620100
TEMPO 1018/1024 2000 SN BR BKN006 OVC070 TEMPO 1100/1106 1000 SN BR
OVC004=
TAF USRR 101640Z 1018/1118 34003MPS 4000 BR SCT005 BKN066 TEMPO
1018/1103 1000 BR BKN003=
TAF USSS 101702Z 1018/1118 14004MPS 2000 SHSN BKN007 SCT020CB 650070
TEMPO 1018/1103 0800 +SHSN VV003 BECMG 1103/1105 5000 -SHSN BKN010
SCT020CB=

0000044500
439
FTRA35 RUMS 101700
TAF UHBB 101640Z 1018/1118 VRB02MPS 9999 SCT100 TEMPO 1020/1102 2100
BR SCT007 SCT100 BECMG 1100/1102 30004MPS=
TAF UHSS 101700Z 1018/1124 VRB02MPS 1400 BR FU BKN025CB 530007 BECMG
1022/1024 28006MPS 9999 NSW TEMPO 1100/1124 2100 SHSN BKN007
BKN020CB=
TAF UHWW 101645Z 1018/1118 VRB02MPS 2100 HZ SCT007 BKN100 BECMG
1101/1103 32004MPS 5000 HZ SCT020CB BKN100 BECMG 1103/1104 36004MPS
9999 NSW=

0000088600
440
FTRS33 RUMS 101700
TAF UUBW 101650Z 1018/1118 19007MPS 8000 OVC010 TEMPO 1018/1024 2200
-SHRA SCT007 BKN010CB TEMPO 1103/1112 2200 -SHSNRA SCT005 BKN010CB
BECMG 1110/1112 28007G12MPS=
TAF UUDD 101655Z 1018/1124 22005G10MPS 4000 -RASN OVC006 TEMPO
1018/1024 2100 -SHRASN BKN004 BKN012CB TEMPO 1100/1115 1000 SHSNRA
SCT004 BKN012CB BECMG 1110/1112 28008G13MPS=
TAF UUDL 101700Z 1018/1118 13006MPS 3000 -RA BR BKN005 OVC010 620060
TEMPO 1018/1024 18007G12MPS 1000 SHRASN BR BKN004 OVC012CB BECMG
1106/1108 24007G12MPS BECMG 1116/1118 34010G15MPS=
TAF UUEE 101350Z 1018/1118 18005MPS 2000 RASN OVC005 BECMG 1109/1111
27005MPS TEMPO 1109/1118 1200 SHSNRA BKN007 SCT010CB=
TAF UUWW 101655Z 1018/1118 20006G11MPS 6000 OVC006 530003 TEMPO
1018/1106 1200 SHSNRA BKN003 BKN012CB BECMG 1104/1106 26008G13MPS
TEMPO 1106/1115 1500 SHSNRA BKN004 SCT015CB=

0000099700
441
FTRS32 RUMS 101700
TAF URKA 101700Z 1018/1118 22009G14MPS 9999 BKN020CB 530005 TEMPO
1018/1024 2000 -SHRA BR BKN005 BKN015CB=
TAF URKK 101701Z 1018/1118 22006G11MPS 9999 SCT020CB 530002 TEMPO
1020/1107 24010G15MPS 2000 SHRA SCT005 BKN020CB FM110700
27006G11MPS 9999 BKN020CB TEMPO 1107/1118 3000 -SHRA BKN007
BKN020CB=
TAF URMM 101658Z 1018/1118 08007G12MPS 9999 BKN030 530005 FM110000
08003G08MPS 2100 BR OVC007 TEMPO 1100/1106 1200 OVC004 FM110600
26003G08MPS 9999 BKN020CB TEMPO 1106/1118 3000 -SHRA BKN007
BKN010CB=
TAF URRR 101700Z 1018/1118 23007G12MPS 2100 -RA BR OVC006 OVC100
530005 TEMPO 1018/1021 26011G16MPS 0400 FG OVC002 TEMPO 1021/1106
26011G16MPS 0800 SHRA FG BKN003 BKN020CB TEMPO 1106/1118
27011G16MPS=
TAF URSS 101647Z 1018/1118 05007MPS 9999 SCT100 BECMG 1100/1102
BKN020CB OVC100 TEMPO 1103/1109 -SHRA BECMG 1107/1109 15007G12MPS
530002 TEMPO 1109/1118 VRB08G14MPS 2000 TSRA BKN005 BKN020CB OVC100
BECMG 1116/1118 06006MPS=

0000076100
442
FTRS36 RUMS 101700
TAF ULAA 101700Z 1018/1118 04009G14MPS 1400 SN BLSN BKN005 BRN020
650050 TEMPO 1018/1103 0500 +SHSN BKN003 BKN005CB TEMPO 1021/1104
08010G17MPS=
TAF ULMM 101700Z 1018/1118 VRB02MPS 9999 SCT004 BKN011 TEMPO
1018/1107 0300 FZFG VV002 TEMPO 1107/1118 07003MPS 2100 -SHSN BR
SCT003 BKN010CB=
TAF UMKK 101700Z 1018/1118 30005G10MPS 9999 BKN007 BKN015CB TEMPO
1018/1020 32009G14MPS 2000 SHRA SCT004 BKN010CB BECMG 1020/1022
30007MPS TEMPO 1020/1024 32005G10MPS TEMPO 1100/1112 27006G11MPS
3000 -SHRA SCT004 BKN010CB BECMG 1112/1114 24008MPS=
TAF UUYY 101700Z 1018/1118 06006G12MPS 2500 -SN BR BKN007 BKN070
650070 TEMPO 1018/1109 0700 +SHSN BKN004 BKN007CB TEMPO 1109/1118
0500 +SHSN BLSN BKN003 BKN007CB=

0000011200
443
SAEO31 EETN 101720
METAR EETN 101720Z 01011KT 8000 DZ OVC006 02/01 Q0986 R08/290195 
NOSIG=

0000021900
444
FTXX69 EGRR 101700
TAF AMD EQBH 101700Z 1018/1118 26005KT 9999 FEW250
     BECMG 1100/1103 08012KT
     PROB30 1100/1105 6000 HZ SCT005
     BECMG 1105/1108 SCT020
     BECMG 1108/1110 SCT120=

0000020600
445
FTCN36 CWAO 101700 AAA
TAF AMD CYHA 101720Z 1017/1022 27015KT P6SM -SN OVC020 TEMPO
     1017/1019 11/2SM -SN
     BECMG 1020/1022 SCT020
    RMK NXT FCST WILL BE ISSUED AT 111445Z=

0000017700
446
FTCN36 CWAO 101700 AAA
TAF AMD CYIK 101720Z 1017/1022 24005KT P6SM FEW015 TEMPO 1017/1019
     P6SM -SN BKN015
    RMK NXT FCST WILL BE ISSUED AT 111445Z=

0000013300
447
SPSP32 LEMM 101714 CCA
SPECI COR LEAS 101714Z 34004KT 270V050 4500 -RADZ FEW001 SCT002
BKN006 11/11 Q1015 NOSIG=

0000022200
448
FTCN36 CWAO 101700 AAA
TAF AMD CYNA 101718Z 1017/1102 30007KT 21/2SM -SN BKN012 OVC020 TEMPO
     1017/1102 6SM -SN
     BECMG 1017/1019 27012KT
    RMK FCST BASED ON AUTO OBS. NXT FCST BY 102000Z=

0000009200
449
SPCN52 CWAO 101718
SPECI CWFD 101718Z AUTO 21013KT 9SM BKN002 M21/ A2875=

0000009000
450
SPCN44 CWAO 101718
SPECI CYMJ 101718Z 31005KT 1/4SM FZFG VV002 RMK FG8=

0000013900
451
FTAU33 YBBN 101700 AAC
TAF AMD YMHB 101719Z 1017/1112
15010KT 9999 BKN010
FM102200 15010KT 9999 FEW015 SCT030
RMK=

0000021000
452
FTMV31 VRMM 101700
TAF VRMM 101700Z 1018/1124 07014KT 9999 FEW018 SCT280 TEMPO 1020/1102
FEW019CB=
TAF VRMG 101700Z 1018/1124 05006KT 9999 FEW018 BKN260 TEMPO 1018/1024
SCT017 FEW018CB=

00000000