0000004200
853
SASP36 LEMM 101930
NIL=

0000026700
854
FTFK41 EGYP 102000
TAF EGYP 101934Z 1021/1115 22028G38KT 9999 BKN020 TEMPO
1021/1024 19033G43KT 6000 -RA SCT012 PROB30 TEMPO
1021/1024 4000 RADZ SCT006 BECMG 1100/1103 21020G30KT
BKN030 PROB40 TEMPO 1100/1115 SCT020 BECMG 1106/1109
23014KT=

0000021600
855
SAKY31 RUMS 101930
METAR UCFM 101930Z 16002MPS 1400 R08/P2000 BR FU SKC M12/M17 Q1027
R08/CLRD70 TEMPO 1000 FU=
METAR UCFO 101930Z 17003MPS 7000 NSC M06/M11 Q1028 R12/CLRD70 TEMPO
1000 BR FU=

0000019000
856
SAAY31 RUMS 101930
METAR UDYZ 101930Z VRB01MPS 2300 BR BKN010 M09/M11 Q1028 R09/000070
NOSIG=
METAR UDSG 101930Z 00000MPS 3200 BR NSC M20/M22 Q1022 R02/CLRD70
NOSIG=

0000080800
857
SAKZ31 RUMS 101930
METAR UAAA 101930Z 00000MPS 0500 R23R/1800U R23L/0800V1400D BR FU
FEW200 M15/M18 Q1028 8891//60 NOSIG=
METAR UACC 101930Z 18007MPS 9999 -SN DRSN OVC024 M12/M14 Q1026
R22/8/0055 NOSIG RMK QFE738/0984=
METAR UAKK 101930Z 17008MPS CAVOK M14/M17 Q1028 R23/850555 NOSIG RMK
QFE723/0965=
METAR UAOO 101930Z NIL=
METAR UARR 101930Z NIL=
METAR UATE 101930Z 17003MPS 0300 R12/1000N FZFG NSC M03/M03 Q1020
R12/0///70 NOSIG RMK QFE763/1018=
METAR UATG 101930Z 26004MPS 5000 BR OVC014 01/01 Q1016 R14/19//65
NOSIG RMK QFE764/1019=
METAR UATT 101930Z 20003MPS 7000 -SN BKN008 OVC020 M01/M01 Q1009
R13/491040 NOSIG RMK QFE737/0983=
METAR UAUU 101930Z 18008MPS 5000 -SHSN BLSN OVC021CB M08/M10 Q1014
TEMPO 19012MPS 1000 SHSN BLSN BKN005CB RMK QFE745/0993=

0000026700
858
SATA31 RUMS 101930
METAR UTDD 101930Z 00000MPS M0050 R09/M0050N FZFG VV001 M07/M08 Q1029
09CLRD70 NOSIG RMK QBB030 QFE703/0938=
METAR UTDL 101930Z 08008G12MPS 1400 R08/P1500D BR SKC M04/M06 Q1029
TEMPO 1000 BR SCT004 RMK QFE732/0976 8809//70=

0000009800
859
SANL33 EHDB 101925 RRA
METAR EHJR 101925Z AUTO 21025G28KT  09/07 Q1011 W10/H17=

0000010200
860
SANL33 EHDB 101925 RRB
METAR EHSC 101925Z AUTO 22023G27KT 9999 07/07 Q1014 W08/H15=

0000010200
861
SANL33 EHDB 101925 RRC
METAR EHSA 101925Z AUTO 22025G28KT 9999 09/07 Q1014 W09/H16=

0000035600
862
FTUS73 KWBC 101936 AAA
TAF AMD
KMKG 101934Z 1020/1118 15010KT 2SM BR OVC005
      TEMPO 1020/1022 3/4SM -FZRA BR OVC003
     FM102200 15011KT 1/2SM RA OVC005
     FM110100 16014G22KT 1/2SM RA FG OVC003
     FM110500 18012G18KT 1/2SM -RA FG OVC003
     FM111000 21007KT 1SM BR OVC003
     FM111400 25011KT 2SM -SN BR OVC005=

0000010100
863
SPUS41 KWBC 101935
SPECI
KABE 101931Z 00000KT 5SM HZ SCT008 OVC019 01/M03 A3035=

0000009800
864
SPUS42 KWBC 101935
SPECI
KHOU 101931Z 17009KT 10SM FEW020 OVC050 20/17 A2985=

0000011800
865
SPCN47 CWAO 101935
SPECI CYWA 101935Z AUTO 14005KT 9SM BKN013 OVC030 OVC079 OVC089
M05/M07 A3017=

0000036100
866
SAAL31 DAAA 101930
METAR DAAG 101930Z 00000KT 9999 FEW033 BKN080 14/06 Q1017=
METAR DAAT 101930Z 17005KT CAVOK 14/M03 Q1023=
METAR DABB 101930Z 12002KT CAVOK 13/11 Q1017=
METAR DABC 101930Z 23004KT CAVOK 07/01 Q1020=
METAR DAON 101930Z NIL=
METAR DAOO 101930Z 00000KT 9999 FEW023 SCT100 BKN233 14/07 Q1015=
METAR DAUH 101930Z NIL=

0000025200
867
SAIE32 EIDB 101930
METAR EICM 101930Z NIL=
METAR EIDL 101930Z NIL=
METAR EIKY 101920Z 20002KT 9999 BKN024 05/04 Q1012=
METAR EIME 101930Z NIL=
METAR EISG 101930Z NIL=
METAR EIWF 101930Z VRB02KT CAVOK 03/03 Q1010 R21/1/////=

0000038100
868
SAAE33 VTBB 101930
METAR VVTS 101930Z 09002KT 9999 FEW017 SCT040 23/19 Q1012 NOSIG =
METAR VVNB 101930Z 30004KT 2500 BR FEW020 BKN050 15/11 Q1020 NOSIG=
METAR VVDN 101930Z 35004KT 4000 BR SCT013 BKN060 21/19 Q1019 NOSIG=
METAR VVPB 101930Z NIL=
METAR VVCR 101930Z 35006KT 9999 FEW017 24/18 Q1016 NOSIG=
METAR VVCT 101930Z NIL=
METAR VVPQ 101930Z NIL=

0000070400
869
SACI31 ZBBB 101930
METAR ZBAA 101930Z 01002MPS 6000 NSC M10/M19 Q1032 NOSIG=
ZBSJ NIL=
METAR ZBTJ 101930Z 24003MPS 1300 R16R/P2000N BR NSC M03/M07 Q1032
NOSIG=
METAR ZBYN 101930Z 00000MPS 6000 NSC M09/M19 Q1029 NOSIG=
METAR ZGGG 101930Z VRB01MPS 6000 BKN040 13/08 Q1024 NOSIG=
METAR ZSHC 101930Z 00000MPS 6000 -RA SCT030 05/02 Q1031 NOSIG=
METAR ZSPD 101930Z 09004MPS 040V110 CAVOK 06/00 Q1031 NOSIG=
METAR ZSSS 101930Z 10003MPS CAVOK 06/M01 Q1031 NOSIG=
ZWSH NIL=
METAR ZWWW 101930Z VRB01MPS 6000 R25/1200N FZFG NSC M19/M21 Q1037
NOSIG=
METAR ZYTL 101930Z 00000MPS 3000 BR SCT033 M06/M09 Q1031 NOSIG=
METAR ZYTX 101930Z VRB01MPS 6000 NSC M16/M21 Q1031 NOSIG=

0000009500
870
SPCN43 CWAO 101935
SPECI CYQF 101935Z 25005KT 15SM BKN009 OVC060 RMK SC6SC2=

0000022500
871
SALJ31 LJLJ 101930
METAR LJLJ 101930Z 30004KT 9999 BKN040 05/04 Q1020 NOSIG=
METAR LJMB 101930Z 36004KT 0400 R32/0700D FG VV002 02/02 Q1020=
METAR LJPZ 101930Z 34002KT 3000 BR FEW010 OVC018 10/09 Q1021=

0000009400
872
SALJ32 LJLJ 101930
METAR LJCE 101930Z 22002KT 6000 NSC 05/05 Q1021 RMK WHT=

00000000