0000011700
413
SPUS44 KWBC 101747
SPECI
KSMF 101743Z 01003KT 3/4SM R16R/P6000FT BR SCT001 BKN250 06/05
A3032=

0000012600
414
SPCN44 CWAO 101745
SPECI CYZU 101745Z 27007KT 4SM -SHSN BKN035 BKN070 OVC250 RMK
SC5AC2CI0 SHWRS MVG W-E=

0000102100
415
FTCA32 KWBC 101748
TAF
TIST 101740Z 1018/1118 07015G25KT P6SM SCT030
     FM102200 07010KT P6SM FEW030
     FM111300 08016G23KT P6SM SCT025=
TISX 101740Z 1018/1118 08015G25KT P6SM SCT030
     FM102200 07010KT P6SM FEW030
     FM111300 09016G23KT P6SM SCT025=
TJBQ 101740Z 1018/1118 08022G27KT P6SM SCT020 SCT100
     FM102330 09010KT P6SM FEW030
     FM111400 08018G25KT P6SM SCT025=
TJMZ 101740Z 1018/1118 12011KT P6SM SCT040
     FM102200 07005KT P6SM FEW040
     FM111530 06005KT P6SM SCT025 SCT040 AMD NOT SKED 1023/1113=
TJPS 101740Z 1018/1118 12005KT P6SM FEW030
     FM102200 07010KT P6SM FEW030
     FM111500 13012KT P6SM SCT030 SCT060=
TJSJ 101740Z 1018/1118 07017G24KT P6SM FEW026 SCT030 SCT040
     FM102200 08010KT P6SM VCSH FEW030 SCT045
     FM111300 07015G23KT P6SM SCT025=
TKPK 101740Z 1018/1118 04013KT P6SM VCSH SCT015 SCT045
      TEMPO 1018/1020 VRB18KT -SHRA BKN015
     FM102200 07010KT P6SM FEW022
     FM111300 06016G21KT P6SM SCT022=

0000017400
416
FTCA33 KWBC 101748
TAF
TNCM 101740Z 1018/1118 08015KT P6SM VCSH FEW017 SCT035
     FM102200 07010KT P6SM FEW022
     FM111300 09015G20KT P6SM SCT022=

0000027900
417
FTUS43 KWBC 101748
TAF
KOMA 101745Z 1018/1118 16011KT 2SM BR OVC006
     FM102100 35004KT 4SM BR OVC008
     FM102300 34005KT 3SM -SN BR OVC008
      TEMPO 1100/1102 1 1/2SM -SN
     FM110400 31008KT 5SM BR OVC012
     FM110700 30009KT P6SM SCT100=

0000132500
418
FTUS71 KWBC 101748
TAF
KABE 101747Z 1018/1118 06003KT 6SM BR BKN008 BKN015
      TEMPO 1018/1021 3SM BR SCT008 BKN015
     FM102100 12004KT 3SM BR SCT008 BKN012
     FM110200 14005KT 1SM BR BKN007 OVC015
     FM110600 16005KT 2SM -RA BR BKN004 OVC010 WS020/20050KT
     FM111500 19013KT 1SM RA BR BKN003 OVC010 WS020/21050KT=
KACY 101747Z 1018/1118 09003KT 1 1/2SM -SHRA BR SCT004 BKN035
      TEMPO 1018/1021 3SM BR SCT004 BKN025
     FM102100 12004KT 3SM BR BKN005 BKN025
     FM110200 14005KT 1SM BR BKN005 OVC015
     FM110600 16005KT 2SM -RA BR BKN004 OVC010 WS020/20050KT
     FM111500 19013KT 1SM RA BR BKN003 OVC010 WS020/21050KT=
KILG 101747Z 1018/1118 09003KT 1 1/2SM BR BKN004 BKN015
      TEMPO 1018/1021 3SM BR BKN008 BKN015
     FM102100 12004KT 3SM BR BKN008 BKN015
     FM110200 14005KT 1SM BR BKN005 OVC015
     FM110600 16005KT 2SM -RA BR BKN004 OVC010 WS020/20050KT
     FM111500 19013KT 1SM RA BR BKN003 OVC010 WS020/21050KT=
KMIV 101747Z 1018/1118 08003KT 1 1/2SM -SHRA BR BKN002 BKN015
      TEMPO 1018/1021 3SM BR BKN004 BKN015
     FM102100 12004KT 3SM BR BKN005 BKN015
     FM110200 14005KT 1SM BR BKN005 OVC015
     FM110600 16005KT 2SM -RA BR BKN004 OVC010 WS020/20050KT
     FM111500 19013KT 1SM RA BR BKN003 OVC010 WS020/21050KT=

0000067500
419
FTUS41 KWBC 101748
TAF
KABE 101747Z 1018/1118 06003KT 6SM BR BKN008 BKN015
      TEMPO 1018/1021 3SM BR SCT008 BKN015
     FM102100 12004KT 3SM BR SCT008 BKN012
     FM110200 14005KT 1SM BR BKN007 OVC015
     FM110600 16005KT 2SM -RA BR BKN004 OVC010 WS020/20050KT
     FM111500 19013KT 1SM RA BR BKN003 OVC010 WS020/21050KT=
KILG 101747Z 1018/1118 09003KT 1 1/2SM BR BKN004 BKN015
      TEMPO 1018/1021 3SM BR BKN008 BKN015
     FM102100 12004KT 3SM BR BKN008 BKN015
     FM110200 14005KT 1SM BR BKN005 OVC015
     FM110600 16005KT 2SM -RA BR BKN004 OVC010 WS020/20050KT
     FM111500 19013KT 1SM RA BR BKN003 OVC010 WS020/21050KT=

0000099800
420
FTUS71 KWBC 101748 RRA
TAF
KPHL 101747Z 1018/1124 05003KT 1 1/2SM BR BKN004 BKN015
      TEMPO 1018/1021 3SM BR BKN008 BKN015
     FM102100 12004KT 3SM BR BKN008 BKN015
     FM110200 14005KT 1SM BR BKN005 OVC015
     FM110600 16005KT 2SM -RA BR BKN004 OVC010 WS020/20050KT
     FM111500 19013KT 1SM RA BR BKN003 OVC010 WS020/21050KT=
KRDG 101747Z 1018/1118 VRB04KT 4SM BR BKN008 BKN015
      TEMPO 1018/1021 3SM BR SCT008 BKN015
     FM102100 12004KT 3SM BR SCT008 BKN012
     FM110200 14005KT 1SM BR BKN007 OVC015
     FM110600 16005KT 2SM -RA BR BKN004 OVC010 WS020/20050KT
     FM111500 19013KT 1SM RA BR BKN003 OVC010 WS020/21050KT=
KTTN 101747Z 1018/1118 07003KT 1 1/2SM BR BKN004 BKN015
      TEMPO 1018/1021 3SM BR BKN008 BKN015
     FM102100 12004KT 3SM BR BKN008 BKN015
     FM110200 14005KT 1SM BR BKN005 OVC015
     FM110600 16005KT 2SM -RA BR BKN004 OVC010 WS020/20050KT
     FM111500 19013KT 1SM RA BR BKN003 OVC010 WS020/21050KT=

0000147800
421
FTUS72 KWBC 101748
TAF
KGLS 101746Z 1018/1118 13007KT P6SM FEW030 OVC035
     FM102000 12010KT 6SM BR BKN030
     FM110000 14010KT 3SM BR SCT015
      TEMPO 1100/1102 1SM BR VV003
     FM110200 17010KT 1/2SM FG VV002
     FM110700 18010KT 4SM BR SCT003 BKN015
     FM111100 27008KT 6SM BR SCT009
     FM111300 31008KT P6SM SCT250=
TIST 101740Z 1018/1118 07015G25KT P6SM SCT030
     FM102200 07010KT P6SM FEW030
     FM111300 08016G23KT P6SM SCT025=
TISX 101740Z 1018/1118 08015G25KT P6SM SCT030
     FM102200 07010KT P6SM FEW030
     FM111300 09016G23KT P6SM SCT025=
TJBQ 101740Z 1018/1118 08022G27KT P6SM SCT020 SCT100
     FM102330 09010KT P6SM FEW030
     FM111400 08018G25KT P6SM SCT025=
TJMZ 101740Z 1018/1118 12011KT P6SM SCT040
     FM102200 07005KT P6SM FEW040
     FM111530 06005KT P6SM SCT025 SCT040 AMD NOT SKED 1023/1113=
TJPS 101740Z 1018/1118 12005KT P6SM FEW030
     FM102200 07010KT P6SM FEW030
     FM111500 13012KT P6SM SCT030 SCT060=
TJSJ 101740Z 1018/1118 07017G24KT P6SM FEW026 SCT030 SCT040
     FM102200 08010KT P6SM VCSH FEW030 SCT045
     FM111300 07015G23KT P6SM SCT025=
TKPK 101740Z 1018/1118 04013KT P6SM VCSH SCT015 SCT045
      TEMPO 1018/1020 VRB18KT -SHRA BKN015
     FM102200 07010KT P6SM FEW022
     FM111300 06016G21KT P6SM SCT022=
TNCM 101740Z 1018/1118 08015KT P6SM VCSH FEW017 SCT035
     FM102200 07010KT P6SM FEW022
     FM111300 09015G20KT P6SM SCT022=

0000051500
422
FTUS73 KWBC 101748
TAF
KLNK 101745Z 1018/1118 16008KT 3SM BR OVC003
     FM102100 30005KT 4SM BR OVC004
     FM102200 32005KT 2SM -SN BR OVC004
      TEMPO 1100/1102 3/4SM -SN
     FM110400 30006KT 4SM BR OVC004
     FM110600 30006KT P6SM SCT100=
KOMA 101745Z 1018/1118 16011KT 2SM BR OVC006
     FM102100 35004KT 4SM BR OVC008
     FM102300 34005KT 3SM -SN BR OVC008
      TEMPO 1100/1102 1 1/2SM -SN
     FM110400 31008KT 5SM BR OVC012
     FM110700 30009KT P6SM SCT100=

0000036500
423
FTUS42 KWBC 101748
TAF
KGLS 101746Z 1018/1118 13007KT P6SM FEW030 OVC035
     FM102000 12010KT 6SM BR BKN030
     FM110000 14010KT 3SM BR SCT015
      TEMPO 1100/1102 1SM BR VV003
     FM110200 17010KT 1/2SM FG VV002
     FM110700 18010KT 4SM BR SCT003 BKN015
     FM111100 27008KT 6SM BR SCT009
     FM111300 31008KT P6SM SCT250=

0000036000
424
FTUS31 KWBC 101748
TAF
KPHL 101747Z 1018/1124 05003KT 1 1/2SM BR BKN004 BKN015
      TEMPO 1018/1021 3SM BR BKN008 BKN015
     FM102100 12004KT 3SM BR BKN008 BKN015
     FM110200 14005KT 1SM BR BKN005 OVC015
     FM110600 16005KT 2SM -RA BR BKN004 OVC010 WS020/20050KT
     FM111500 19013KT 1SM RA BR BKN003 OVC010 WS020/21050KT=

0000026500
425
FTUS73 KWBC 101748 AAA
TAF AMD
KCOU 101747Z 1018/1118 15013KT 3SM -RA BR OVC003
      TEMPO 1018/1020 1SM TSRA BR OVC002CB
     FM110100 19011KT 4SM BR OVC007
     FM110600 25011KT 5SM BR OVC010
     FM111500 26014KT P6SM SCT015 BKN250=

0000019700
426
FTUS74 KWBC 101748 AAA
TAF AMD
KBIL 101745Z 1018/1118 24012G24KT P6SM SCT080 BKN200
     FM102000 27022G32KT P6SM SCT080 BKN200
     FM110200 27014G24KT P6SM SCT080 BKN200=

0000010800
427
SAIO31 KWBC 101700 RRI
METAR
FMEE 101740Z 11010KT 9999 FEW026 BKN300 26/23 Q1016 NOSIG=

0000019700
428
FTUS44 KWBC 101748 AAA
TAF AMD
KBIL 101745Z 1018/1118 24012G24KT P6SM SCT080 BKN200
     FM102000 27022G32KT P6SM SCT080 BKN200
     FM110200 27014G24KT P6SM SCT080 BKN200=

0000009700
429
SAUS71 KWBC 101700 RRH
METAR
KMTN 101745Z 00000KT 2SM BR OVC004 02/02 A3039=

0000083700
430
FTDN31 EKCH 101700
TAF EKCH 101730Z 1018/1118 23012KT 9999 BKN020 TEMPO 1018/1023 
SHRA BKN010 SCT015TCU TEMPO 1023/1109 BKN012 TEMPO 1109/1118 RA 
BKN008 BECMG 1116/1118 29013KT=
TAF EKBI 101730Z 1018/1118 23012KT 9999 BKN020 TEMPO 1018/1101 
BKN012 TEMPO 1101/1110 4000 RADZ BR BKN004 BECMG 1109/1111 30010KT 
TEMPO 1110/1113 BKN012 TEMPO 1116/1118 SHRA FEW020CB=
TAF EKYT 101730Z 1018/1118 25010KT 9999 SCT020 TEMPO 1018/1021 
7000 -SHRA BKN015CB BECMG 1100/1102 7000 -RA BKN012 TEMPO 1102/1111 
3000 RA BKN005 BECMG 1111/1113 29015KT 9999 NSW BKN020 TEMPO 
1113/1118 5000 SHRA BKN015CB=
TAF EKAH 101730Z 1018/1118 23010KT 9999 BKN020 TEMPO 1018/1020 
SHRA BKN012 SCT015TCU TEMPO 1020/1103 BKN012 TEMPO 1103/1110 4000 
RADZ BR BKN007 BECMG 1109/1111 27010KT TEMPO 1117/1118 SHRA 
FEW020CB=

0000043800
431
FTDN33 EKCH 101700
TAF EKKA 101730Z 1018/1118 25010KT 9999 SCT015 BKN030 TEMPO 
1018/1020 5000 -SHRA SCT012CB BECMG 1101/1103 7000 -RA BKN012 TEMPO 
1103/1110 3000 RA BKN005 BECMG 1110/1112 29015KT 9999 NSW BKN020 
TEMPO 1113/1118 5000 SHRA BKN015CB=
TAF EKSP 101730Z 1018/1118 25012KT 9999 FEW015 BKN025 TEMPO 
1018/1020 4000 SHRA BKN012CB BECMG 1103/1105 7000 -RA BKN012 TEMPO 
1105/1118 3000 RADZ BKN005=

0000010200
432
SAUS71 KWBC 101700 RRG
METAR
KMYR 101745Z 14015KT 10SM SCT030 SCT060 21/16 A3022=

00000000