0000012200
493
SPUS31 KWBC 101919
SPECI
KORF 101915Z AUTO 35007KT 2 1/2SM -RA BR BKN004 BKN037 OVC085
05/03 A3033=

0000010000
494
SPUS31 KWBC 101919
SPECI
KSTL 101915Z 17016G22KT 3SM -RA BR OVC007 06/04 A2976=

0000010800
495
SPUS42 KWBC 101919
SPECI
KMOB 101915Z 10004KT 2 1/2SM -RA BR SCT010 OVC016 15/14 A3003=

0000009700
496
SPUS42 KWBC 101919
SPECI
KPDK 101915Z 00000KT 1 1/2SM BR OVC003 08/07 A3013=

0000065500
497
SAUK20 EGGY 101920
METAR EGRE 101920Z AUTO 05015KT 9999 FEW028/// BKN038/// 05/M02 Q0999
     W///S5=
METAR EGRK 101920Z AUTO 26013KT 9999 FEW015/// 07/05 Q0999 W///S4=
METAR EGRM 101920Z AUTO 25015KT 9999 RA SCT040/// 07/05 Q1001 W///S4=
METAR EGRO 101920Z AUTO 27018KT //// // ///////// 07/04 Q1002 W///S4=
METAR EGRP 101920Z AUTO 24020KT 7000 RA SCT013/// SCT016/// BKN024///
     ///// Q1003 W///S4=
METAR EGRS 101920Z AUTO 25026KT 9999 -RA SCT014/// BKN017/// 08/05
     Q1003 RERA W///S4=
METAR EGRV 101920Z AUTO 22025KT 9999 NCD 07/05 Q1009 W///S4=
METAR EGRW 101920Z AUTO 21023KT 9999 NCD 07/05 Q1010 W///S3=

0000044100
498
SAUK21 EGGY 101920
METAR EGRF 101920Z AUTO 21025KT 9999 FEW024/// 07/02 Q0996 W///S5=
METAR EGRG 101920Z AUTO 09018KT 9999 BKN020/// 06/02 Q0998 W///S5=
METAR EGRI 101920Z AUTO 27022KT 9999 FEW031/// 08/03 Q0996=
METAR EGRL 101920Z AUTO 26011G21KT 220V000 9999 NCD 07/04 Q1000
     W///S4=
METAR EGRN 101920Z AUTO 24025KT 9999 BKN029/// 08/06 Q1004=
METAR EGRT 101920Z AUTO /////KT 9999 NCD 07/04 Q1009 W///S4=

0000013100
499
SALV31 EVRA 101920
METAR EVRA 101920Z 31012G23KT 270V340 9999 -RA SCT009 OVC013 03/03 
Q0990 R36/290158 NOSIG=

0000015800
500
SAFA31 EKCH 101920
METAR EKVG 101920Z AUTO 02005KT 9999NDV -RA  OVC020/// 03/01
Q0994 RMK SCT017/// OVC034/// WIND 850FT 16004KT 130V190=

0000024000
501
FTCN34 CWAO 101900 AAA
TAF AMD CYQV 101919Z 1019/1106 31005KT P6SM SCT025 BKN050 TEMPO
     1019/1103 21/2SM -SN BR BKN020 OVC040
    FM110300 30007KT P6SM SCT030
    RMK FCST BASED ON AUTO OBS. NXT FCST BY 110000Z=

0000012100
502
SAEO31 EETN 101920
METAR EETN 101920Z 36010KT 330V030 9999 -DZ OVC010 01/00 Q0989 
R08/290195 NOSIG=

0000015100
503
FTAU33 YBBN 101900 AAE
TAF AMD YPPD 101920Z 1019/1112
29006KT 9999 SCT010
FM102300 28008KT CAVOK
FM110500 29014KT CAVOK
RMK=

0000014400
504
SPBU40 LBSM 101919
SPECI LBPD 101919Z 02003MPS 330V090 1400 R30/P1500N R12/P1500U
     BR BKN120 02/02 Q1019 TEMPO 0800 FG=

0000009300
505
SPCN51 CWAO 101919
SPECI CZCP 101919Z AUTO 28021KT 4SM -SN CLR M29/ A2937=

0000021900
506
FTXX69 EGRR 101900
TAF AMD EQBH 101700Z 1018/1118 26005KT 9999 FEW250
     BECMG 1100/1103 08012KT
     PROB30 1100/1105 6000 HZ SCT005
     BECMG 1105/1108 SCT020
     BECMG 1108/1110 SCT120=

0000010900
507
SALT32 EYVI 101920
METAR EYKA 101920Z 27021KT 9999 BKN018 OVC025 03/00 Q0995
R08/290095=

0000023100
508
SAAF13 LFPW 101900 RRC
METAR GOGG 101900Z 34004KT CAVOK 26/15 Q1011=
METAR GOGS 101900Z 34012KT CAVOK 23/17 Q1011=
METAR GOSS 101900Z 36006KT CAVOK 19/14 Q1013=
METAR GOTT 101900Z 36006KT CAVOK 30/12 Q1010=

0000013800
509
SAEA20 HKNC 101900 RRA
METAR HKGA 101900Z 09005KT SKC 31/14 1010=
METAR HKML 101900Z 09010KT 9999 SCT022 27/23 Q1012=

0000091900
510
SPUS70 KWBC 101920
SPECI
KGMU 101916Z 04006KT 2 1/2SM -RA BR OVC004 08/07 A3019 RMK AO2
     P0000=
KM19 101916Z AUTO 17008KT 10SM BKN023 OVC031 08/06 A2988 RMK
     AO2=
KTOI 101916Z AUTO 04003KT 1 1/2SM BR OVC003 12/11 A3008 RMK AO2
     T01220111=
KTVC 101916Z VRB05KT 4SM BR OVC007 00/M02 A2987 RMK AO2
     T00001022=
K1B7 101912Z 07004KT 0SM -RA FG FEW002 A3000=
KDPA 101917Z 15011KT 1SM BR OVC002 01/01 A2979 RMK AO2 PRESFR
     RVRNO=
KHLN 101917Z 26013G23KT 10SM SCT029 SCT036 OVC100 04/M04 A2968 RMK
     AO2 PK WND 27033/1858=
KMPO 101917Z AUTO 24006KT 9SM SCT007 OVC028 01/M01 A3027 RMK AO2
     T00111011=
KRKP 101917Z AUTO 18007KT 150V230 10SM FEW007 BKN049 OVC055 29/19
     A2985 RMK AO2 RAE13 P0000=
KRVS 101918Z 22006KT 10SM SCT014 14/12 A2961 RMK AO2=
KRWI 101917Z AUTO 02004KT 3SM BR BKN003 BKN065 BKN100 09/08 A3027
     RMK AO2 T00940078=

0000010300
511
SALT33 EYVI 101920
METAR EYPA 101920Z VRB10G21KT 9999 OVC014 03/01 Q1000 R01/2///95=

0000030300
512
FTUS41 KWBC 101921 AAA
TAF AMD
KLUK 101918Z 1019/1118 16007KT P6SM OVC011
      TEMPO 1019/1021 5SM BR OVC008
     FM110000 15007KT 4SM BR VCSH OVC018
     FM110600 17007KT 4SM -SHRA BR OVC009
     FM111300 21010G18KT P6SM VCSH OVC012
     FM111600 25012G22KT P6SM OVC022=

00000000