0000014800
293
SACN61 CYAY 102000
METAR CYAY 102000Z AUTO 24028G34KT 7SM -SN BKN100 OVC130 M10/M13
 A2991 RMK MAX WND 24028KT AT 1959Z SLP131=

0000025400
294
SACZ31 LKPW 102000
METAR LKKV 102000Z 25007KT 9999 BKN047 02/M00 Q1017=
METAR LKMT 102000Z 23012KT CAVOK 03/M01 Q1017 NOSIG=
METAR LKPR 102000Z 23011KT CAVOK 04/00 Q1018 NOSIG=
METAR LKTB 102000Z 18003KT CAVOK 02/M02 Q1019 NOSIG=

0000005200
295
RRIN23 VIDP 111003
RQRPT 832-893=

0000010700
296
SPIN90 VIBN 111000
SPECI VIBN 111000Z 11003KT 1500 BR SCT020 FEW030CB BKN100 18/17
Q1015=
0000011000
297
SPIN90 VILK 110930
SPECI VILK 110930Z 07004KT 1200 R27/1300 BKN020 BKN100 18/14 Q1015
NOSIG=
0000057900
298
SAIR37 OIII 111000
METAR OIBL 111000Z  35012KT 3000 RA FEW020CB SCT025 OVC080 14/12
 Q1019=
METAR OIBQ 111000Z  15019KT 2000 +SHRA FEW020 SCT025CB SCT040
 OVC080 14/14 Q1016=
METAR OIIK 111000Z 000Z 14006KT 5000 HZ FEW035CB SCT040 OVC090
 01/M03 Q1020=
METAR OIMC 111000Z 12010KT 9999 FEW040 BKN170 14/M07 Q1018=
METAR OIMD 111000Z 09006KT CAVOK 07/M04 Q1016=
METAR OIMQ 111000Z 12010KT 9999 FEW035 09/M07 Q1020=
METAR OINE 111000Z 00000KT 2000 HZ FEW025 BKN090 10/07 Q1014=
METAR OITK 111000Z NIL=
METAR OITM 111000Z 00000KT 1100 HZ SCT042 BKN120 M03/M06 Q1020=

0000009200
299
SAIR36 OIII 111000 RRA
METAR OIMN 111000Z 00000KT CAVOK 09/M09 Q1017 A3004=

0000051300
300
SAYG31 LYBM 102000
METAR LYBE 102000Z 12002KT 8000 NSC 06/05 Q1022 NOSIG=
METAR LYBT 102000Z VRB01KT 5000 BR NSC 06/06 Q1023 NOSIG=
METAR LYKV 102000Z VRB01KT 9999 BKN033 07/01 Q1022 NOSIG=
METAR LYNI 102000Z VRB02KT CAVOK 06/02 Q1022 NOSIG=
METAR LYPG 102000Z 36004KT 6000 NSC 07/06 Q1022 BECMG 3000 BR=
METAR LYPR 102000Z NIL=
METAR LYTV 102000Z VRB01KT CAVOK 08/07 Q1022=
METAR LYUZ 102000Z VRB01KT 8000 BKN020 04/03 Q1021=
METAR LYVR 102000Z VRB02KT CAVOK 04/01 Q1022 NOSIG=

0000034500
301
SAIL31 BICC 102000
METAR BIAR 102000Z 17008KT 090V240 9999 -RA BKN033 03/M02 Q0995=
METAR BIEG 102000Z 09029G40KT 4000 -SNRA SCT013 BKN030 BKN050 01/00
Q0996 RMK
R04/790193 RWY SANDED=
METAR BIKF 102000Z 26018KT 9999 FEW022 SCT029 BKN046 02/M01 Q0990=
METAR BIRK 102000Z 26010KT 6000 RASN BKN010 OVC014 01/M00 Q0990=

0000043100
302
SAPL31 EPWA 102000
METAR EPGD 102000Z 29014G24KT 9999 BKN015 05/03 Q1004 =
METAR EPKK 102000Z 25015KT 9999 FEW040 BKN060 05/M01
    Q1016 =
METAR EPLL 102000Z 27015KT 9999 BKN033 06/01 Q1012 =
METAR EPPO 102000Z 26013KT 9999 SCT027 06/01 Q1012
    R10/19//95 =
METAR EPRZ 102000Z 27021KT CAVOK 06/M00 Q1013 =
METAR EPWA 102000Z 26020G32KT 230V290 9999 -SHRA FEW023CB SCT030
    06/02 Q1008 NOSIG=

0000011700
303
SACN62 CYBL 102000
METAR CYBL 102000Z 15004KT 15SM BKN028 OVC220 05/04 A2995 RMK SC7CI1
 SLP145=

0000039400
304
SAPL32 EPWA 102000
METAR EPBY 102000Z 26017KT 9999 BKN025 BKN033 06/03
    Q1009 =
METAR EPKT 102000Z 24015KT 9999 SCT045 05/M01 Q1015 =
METAR EPLB 102000Z NIL=
METAR EPMO 102000Z 26021KT 9999 BKN022 05/03 Q1008 =
METAR EPSC 102000Z 26012KT 9999 SCT020 05/03 Q1011 =
METAR EPWR 102000Z 27011KT CAVOK 07/M01 Q1016 =
METAR EPZG 102000Z 25011KT CAVOK 06/01 Q1013 =

0000012900
305
SACN62 CYDB 102000
METAR CYDB 102000Z 25002KT 30SM FEW003 SCT030 BKN140 M21/M23 A2930
 RMK ST2SC1AC3 SLP006=

0000011100
306
SACN62 CYBR 102000
METAR CYBR 102000Z 29011KT 5SM BR OVC005 M10/M11 A2936 RMK ST8
 SLP978=

0000013000
307
SACN62 CYDF 102000
METAR CYDF 102000Z 24017G23KT 8SM -SN DRSN SCT018 BKN023 M06/M10
 A3011 RMK SC3SC4 SLP199=

0000008900
308
SAVG31 TVSV 102000
METAR TVSV 102000Z 08017KT 9999 SCT020 28/21 Q1014=

0000027300
309
FTUS75 KWBC 102003
TAF
TAF PAEI 1020/1202 VRB06KT 9999 OVC060 QNH2956INS
      BECMG 1023/1024 VRB06KT 9999 SCT060 BKN090 QNH2959INS
      TXM15/1104Z TNM29/1116Z=
TAF PAFB 1020/1202 VRB04KT 9999 BKN085 QNH2956INS TXM17/1104Z
      TNM31/1116Z=

0000027100
310
FTUS74 KWBC 102003 AAA
TAF AMD
KACV 102001Z 1020/1118 25006KT 3SM BR OVC001
     FM102100 24006KT P6SM SCT002 BKN012
      TEMPO 1021/1022 5SM BR BKN002
     FM110000 20009KT P6SM VCSH SCT005 BKN015
     FM110700 16012G22KT 4SM -RA BR OVC015=

0000023400
311
FTUS71 KWBC 102003 AAA
TAF AMD
KSYR 102002Z 1020/1118 16006KT P6SM SCT020 BKN030
     FM102300 18006KT P6SM SCT015 OVC022
     FM110700 18010KT 4SM -SHRA OVC012
     FM111200 13014KT 6SM -SHRA SCT008 OVC011=

0000023400
312
FTUS41 KWBC 102003 AAA
TAF AMD
KSYR 102002Z 1020/1118 16006KT P6SM SCT020 BKN030
     FM102300 18006KT P6SM SCT015 OVC022
     FM110700 18010KT 4SM -SHRA OVC012
     FM111200 13014KT 6SM -SHRA SCT008 OVC011=

00000000