0000007700
433
FTSP37 LEMM 101400 AAA
TAF AMD LELL 101744Z 1015/1115 CNL=

0000009900
434
SPCN44 CWAO 101744
SPECI CYPE 101744Z 00000KT 15SM -SN SCT050 BKN090 RMK SC4AC3=

0000015100
435
SAES20 MSLP 101800
METAR MSLP 101750Z 01005KT 260V070 CAVOK 33/16 Q1011 A2987=
METAR MSSS 101750Z 34006KT CAVOK 28/26 Q1017 A3006=

0000009300
436
SASP32 LEMM 101730 RRA
METAR LECO 101730Z 00000KT 9999 FEW019 10/08 Q1016=

0000012200
437
SAIO31 KWBC 101700 RRH
METAR
WBKK 101730Z 12003KT 9999 FEW014 SCT140 BKN280 24/23 Q1010
     NOSIG=

0000020500
438
FTID31 WABB 101700
TAF WABB 101700Z 1018/1124 28007KT 8000 SCT018
TEMPO 1019/1023 RA FEW017CB
BECMG 1100/1102 23010KT
TEMPO 1104/1108 7000 -SHRA FEW017CB
BECMG 1111/1113 33006KT=

0000010300
439
FTSA41 KWBC 101745
TAF
TAF SKBG 101000Z 101212 NIL=
TAF SKPE 101000Z 101212 NIL=

0000091900
440
FTUS51 KWBC 101745
TAF
KBGM 101742Z 1018/1118 19008KT P6SM BKN035
     FM102000 19007KT P6SM SCT015 OVC022
      TEMPO 1022/1102 SCT009 BKN012
     FM110300 17008KT P6SM SCT007 OVC009
     FM110800 17012KT 4SM -SHRA OVC006=
TAF KECG 101740Z 1018/1118 15004KT P6SM OVC050
     FM102000 16006KT 5SM -RA BR OVC030
     FM110500 18008KT 4SM -DZ BR OVC010
     FM111400 18015G22KT 4SM BR BKN010=
KELM 101742Z 1018/1118 12006KT P6SM SCT015 BKN035
     FM102100 19008KT P6SM SCT015 OVC020
      TEMPO 1101/1104 BKN009
     FM110400 17010KT 6SM BR OVC009
      TEMPO 1108/1112 3SM -SHRA
     FM111300 13013KT 5SM -SHRA SCT009 OVC012=
KITH 101742Z 1018/1118 17008KT P6SM SCT015 BKN035
     FM102100 17007KT P6SM SCT012 OVC020
     FM110000 16008KT P6SM OVC012
      TEMPO 1101/1104 BKN009
     FM110400 16015KT 4SM -SHRA OVC008
     FM111500 16018KT 5SM -SHRA OVC008=

0000145200
441
FTUS52 KWBC 101745
TAF
KAHN 101743Z 1018/1118 05007KT 2SM -RADZ BR OVC004
     FM110400 09003KT 1SM -RADZ BR OVC003
     FM111400 19008KT 2SM -SHRA BR OVC005=
KBBG 101742Z 1018/1118 18009KT 3SM -SHRA OVC006
      TEMPO 1020/1024 6SM -SHRA BR SCT007 OVC025
     FM110000 20010KT 6SM -SHRA BR VCTS SCT007 OVC025CB
      TEMPO 1100/1102 3SM SHRA BR OVC008CB
     FM110200 25011KT 6SM BR SCT008 OVC035
     FM110500 26010KT 2SM BR SCT005
     FM111400 28010G18KT P6SM SCT250=
KCDS 101741Z 1018/1118 33014KT P6SM SKC
     FM102300 30005KT P6SM SKC=
KCSG 101743Z 1018/1118 09008KT 2SM -DZ BR OVC003
     FM110000 15007KT 1SM -RADZ BR OVC003
     FM111200 18008KT 1SM SHRA BR OVC005
     FM111700 26010G19KT 3SM -SHRA BR OVC007=
KDHT 101740Z 1018/1118 34011KT P6SM SKC
     FM101900 31020G35KT P6SM SKC
     FM110000 30009KT P6SM SKC=
KFMN 101741Z 1018/1118 29012KT P6SM FEW150
     FM102000 28018G28KT P6SM SCT150
     FM110200 29010KT P6SM SCT150
     FM110500 09006KT P6SM FEW250=
KGUP 101741Z 1018/1118 25012KT P6SM SCT100
      TEMPO 1020/1024 25014G24KT
     FM110200 29010KT P6SM SCT150
     FM111000 VRB05KT P6SM SCT250=
KJKL 101742Z 1018/1118 VRB05KT P6SM OVC025
     FM102000 20005KT P6SM SCT015 OVC050
     FM110000 VRB05KT P6SM VCSH SCT025 OVC050
     FM110900 18008KT 4SM -RA BR OVC020=
KLBB 101741Z 1018/1118 30014G24KT P6SM SKC
     FM110000 29007KT P6SM SKC=

0000069600
442
FTUS52 KWBC 101745 RRA
TAF
KLVS 101741Z 1018/1118 30021G25KT P6SM SKC
     FM101900 30024G32KT P6SM SCT150
     FM110600 29010KT P6SM SKC=
KMCN 101743Z 1018/1118 04006KT 4SM -RADZ OVC004
     FM110500 14004KT 1SM -RADZ BR OVC002
     FM111200 18010KT 1SM -SHRA BR OVC004
     FM111700 23011G20KT 2SM SHRA OVC007=
KROW 101741Z 1018/1118 30015G25KT P6SM SKC
     FM110100 28010KT P6SM SKC=
KSAF 101741Z 1018/1118 26015KT P6SM SCT090
     FM101930 27020G30KT P6SM SCT100
     FM110200 35011KT P6SM SCT150=
KTCC 101741Z 1018/1118 27017KT P6SM SKC
     FM102100 29024G30KT P6SM FEW150
     FM110100 27018G20KT P6SM SKC
     FM110300 28014KT P6SM SKC=

0000036000
443
FTUS53 KWBC 101745 AAA
TAF AMD
KDBQ 101744Z 1018/1118 15013KT 3/4SM -DZ BR OVC002
     FM102100 14008KT 3/4SM -RA BR OVC002
     FM110100 18003KT 1/2SM -RA FG OVC001
     FM110500 26005KT 1SM -FZRASN BR OVC002
     FM110700 29010KT 1SM -SN BR OVC002
     FM111300 29012KT 2SM BR VCSH OVC004
     FM111600 29012KT 6SM BR OVC020=

0000137100
444
FTUS53 KWBC 101745
TAF
KCMI 101744Z 1018/1118 14010KT 4SM BR OVC015
      TEMPO 1018/1020 2SM -RA BR
     FM102000 16012G20KT 2SM -RA BR VCTS OVC004CB
     FM110100 18012G20KT 2SM -RA BR OVC004
     FM110600 24012KT 3SM BR OVC004
     FM111400 26012G18KT P6SM OVC015=
KDEC 101744Z 1018/1118 16012G20KT 4SM BR VCTS OVC007CB
      TEMPO 1018/1020 2SM -RA BR
     FM102000 17012G20KT 2SM -RA BR VCTS OVC004CB
     FM110100 18012G20KT 2SM -RA BR OVC004
     FM110600 24012KT 3SM BR OVC004
     FM111400 26012G18KT P6SM OVC015=
KJLN 101742Z 1018/1118 17015G27KT 6SM -SHRA BR FEW005 SCT015
      OVC040
      TEMPO 1018/1021 SCT007 OVC015
     FM102100 22012G20KT 6SM -SHRA BR VCTS SCT008 OVC035CB
      TEMPO 1021/1023 4SM -SHRA BR SCT008 OVC020
     FM110000 24011KT 6SM BR FEW008 BKN035
     FM110300 24010KT 6SM BR SCT007 BKN250
     FM111400 25010G18KT P6SM FEW250=
KLOZ 101742Z 1018/1118 VRB03KT P6SM OVC021
     FM102000 20005KT P6SM SCT015 OVC050
     FM110000 20005KT P6SM VCSH SCT015 OVC050
     FM110700 18008KT 4SM -RA BR OVC015=
KSPI 101744Z 1018/1118 16014G22KT 4SM BR VCTS OVC004CB
      TEMPO 1018/1020 2SM -TSRA BR
     FM102000 17014G22KT 2SM -RA BR VCTS OVC004CB
     FM110100 18014G22KT 2SM -RA BR OVC004
     FM110600 24012KT 3SM BR OVC004
     FM111400 26012G18KT P6SM OVC015=

0000105700
445
FTUS54 KWBC 101745
TAF
KLMT 101742Z 1018/1118 22010G18KT P6SM BKN050 BKN150
     FM110400 18006KT P6SM BKN050 BKN080
     FM111200 20020G30KT P6SM BKN035 OVC050=
KLVM 101743Z 1018/1118 22033G40KT P6SM VCSH BKN060 OVC150
     FM110400 23036G45KT P6SM BKN080=
KMFR 101742Z 1018/1118 34003KT 4SM BR OVC005
     FM102200 34005KT P6SM BKN035 OVC080
     FM110400 15006KT P6SM SCT025 OVC050
     FM111000 15010KT P6SM VCSH SCT025 OVC040 WS020/20050KT
     FM111400 16015G25KT P6SM VCSH BKN025 OVC040=
KMLS 101743Z 1018/1118 25010KT P6SM SCT040 OVC150
     FM101900 25015G25KT P6SM SCT040 OVC150
     FM110300 25012KT P6SM SCT080 BKN200=
KOTH 101742Z 1018/1118 17006KT P6SM -SHRA BKN024 OVC050
     FM102000 20012G18KT P6SM -SHRA FEW010 BKN018 OVC025
     FM110000 20018G28KT P6SM -RA OVC020
     FM110300 20025G35KT 4SM -RA BR OVC015
     FM111200 21028G40KT 2SM RA BR OVC012=
KSHR 101743Z 1018/1118 18010KT P6SM SKC
     FM101900 30015G25KT P6SM SCT080 BKN200
     FM110200 VRB06KT P6SM SCT080 BKN200=

0000146500
446
FTUS80 KWBC 101745
TAF
KABQ 101741Z 1018/1118 30007KT P6SM FEW100
     FM101930 30018G28KT P6SM SCT120
     FM110200 33010KT P6SM SCT250
     FM110600 34004KT P6SM SCT250=
KAHN 101743Z 1018/1118 05007KT 2SM -RADZ BR OVC004
     FM110400 09003KT 1SM -RADZ BR OVC003
     FM111400 19008KT 2SM -SHRA BR OVC005=
KAMA 101740Z 1018/1118 34014KT P6SM SKC
     FM101900 32020G35KT P6SM SKC
     FM102300 28008KT P6SM SKC=
KATL 101743Z 1018/1124 08008KT 1 1/2SM -DZ BR OVC003
     FM110100 11008KT 1/2SM -RADZ FG OVC002
     FM110900 16009KT 1SM -RADZ BR OVC003
     FM111400 20009G18KT 2SM -SHRA OVC006
     FM111900 27013G22KT P6SM BKN025
     FM112100 27014G23KT P6SM SCT035=
KAVP 101742Z 1018/1118 22005KT P6SM OVC035
     FM102100 22005KT P6SM SCT015 OVC020
      TEMPO 1022/1102 SCT009 BKN012
     FM110200 18004KT P6SM OVC009
     FM110600 15007KT 3SM -SHRA BR OVC008=
KBBG 101742Z 1018/1118 18009KT 3SM -SHRA OVC006
      TEMPO 1020/1024 6SM -SHRA BR SCT007 OVC025
     FM110000 20010KT 6SM -SHRA BR VCTS SCT007 OVC025CB
      TEMPO 1100/1102 3SM SHRA BR OVC008CB
     FM110200 25011KT 6SM BR SCT008 OVC035
     FM110500 26010KT 2SM BR SCT005
     FM111400 28010G18KT P6SM SCT250=
KBGM 101742Z 1018/1118 19008KT P6SM BKN035
     FM102000 19007KT P6SM SCT015 OVC022
      TEMPO 1022/1102 SCT009 BKN012
     FM110300 17008KT P6SM SCT007 OVC009
     FM110800 17012KT 4SM -SHRA OVC006=

0000148900
447
FTUS80 KWBC 101745 RRA
TAF
KBIL 101743Z 1018/1118 27021G35KT P6SM SCT080 BKN200
     FM110200 27014G24KT P6SM SCT080 BKN200=
KBMI 101744Z 1018/1118 16014G22KT 4SM BR VCTS OVC004CB
      TEMPO 1019/1021 2SM -TSRA BR
     FM102100 17014G22KT 2SM -RA BR VCTS OVC004CB
     FM110100 18014G22KT 2SM -RA BR OVC004
     FM110600 24012KT 3SM BR OVC004
     FM111400 26012G18KT P6SM OVC015=
KCDS 101741Z 1018/1118 33014KT P6SM SKC
     FM102300 30005KT P6SM SKC=
KCMI 101744Z 1018/1118 14010KT 4SM BR OVC015
      TEMPO 1018/1020 2SM -RA BR
     FM102000 16012G20KT 2SM -RA BR VCTS OVC004CB
     FM110100 18012G20KT 2SM -RA BR OVC004
     FM110600 24012KT 3SM BR OVC004
     FM111400 26012G18KT P6SM OVC015=
KCSG 101743Z 1018/1118 09008KT 2SM -DZ BR OVC003
     FM110000 15007KT 1SM -RADZ BR OVC003
     FM111200 18008KT 1SM SHRA BR OVC005
     FM111700 26010G19KT 3SM -SHRA BR OVC007=
KDEC 101744Z 1018/1118 16012G20KT 4SM BR VCTS OVC007CB
      TEMPO 1018/1020 2SM -RA BR
     FM102000 17012G20KT 2SM -RA BR VCTS OVC004CB
     FM110100 18012G20KT 2SM -RA BR OVC004
     FM110600 24012KT 3SM BR OVC004
     FM111400 26012G18KT P6SM OVC015=
KDHT 101740Z 1018/1118 34011KT P6SM SKC
     FM101900 31020G35KT P6SM SKC
     FM110000 30009KT P6SM SKC=
TAF KECG 101740Z 1018/1118 15004KT P6SM OVC050
     FM102000 16006KT 5SM -RA BR OVC030
     FM110500 18008KT 4SM -DZ BR OVC010
     FM111400 18015G22KT 4SM BR BKN010=

0000121300
448
FTUS80 KWBC 101745 RRB
TAF
KELM 101742Z 1018/1118 12006KT P6SM SCT015 BKN035
     FM102100 19008KT P6SM SCT015 OVC020
      TEMPO 1101/1104 BKN009
     FM110400 17010KT 6SM BR OVC009
      TEMPO 1108/1112 3SM -SHRA
     FM111300 13013KT 5SM -SHRA SCT009 OVC012=
KFMN 101741Z 1018/1118 29012KT P6SM FEW150
     FM102000 28018G28KT P6SM SCT150
     FM110200 29010KT P6SM SCT150
     FM110500 09006KT P6SM FEW250=
KFTY 101743Z 1018/1118 08005KT 1 1/2SM -DZ BR OVC004
     FM110100 11005KT 1/2SM -RADZ FG OVC002
     FM110900 16007KT 1SM -RADZ BR OVC003
     FM111400 20009KT 2SM -SHRA OVC006=
KGUP 101741Z 1018/1118 25012KT P6SM SCT100
      TEMPO 1020/1024 25014G24KT
     FM110200 29010KT P6SM SCT150
     FM111000 VRB05KT P6SM SCT250=
KITH 101742Z 1018/1118 17008KT P6SM SCT015 BKN035
     FM102100 17007KT P6SM SCT012 OVC020
     FM110000 16008KT P6SM OVC012
      TEMPO 1101/1104 BKN009
     FM110400 16015KT 4SM -SHRA OVC008
     FM111500 16018KT 5SM -SHRA OVC008=
KJKL 101742Z 1018/1118 VRB05KT P6SM OVC025
     FM102000 20005KT P6SM SCT015 OVC050
     FM110000 VRB05KT P6SM VCSH SCT025 OVC050
     FM110900 18008KT 4SM -RA BR OVC020=

0000145300
449
FTUS80 KWBC 101745 RRC
TAF
KJLN 101742Z 1018/1118 17015G27KT 6SM -SHRA BR FEW005 SCT015
      OVC040
      TEMPO 1018/1021 SCT007 OVC015
     FM102100 22012G20KT 6SM -SHRA BR VCTS SCT008 OVC035CB
      TEMPO 1021/1023 4SM -SHRA BR SCT008 OVC020
     FM110000 24011KT 6SM BR FEW008 BKN035
     FM110300 24010KT 6SM BR SCT007 BKN250
     FM111400 25010G18KT P6SM FEW250=
KLBB 101741Z 1018/1118 30014G24KT P6SM SKC
     FM110000 29007KT P6SM SKC=
KLMT 101742Z 1018/1118 22010G18KT P6SM BKN050 BKN150
     FM110400 18006KT P6SM BKN050 BKN080
     FM111200 20020G30KT P6SM BKN035 OVC050=
KLOZ 101742Z 1018/1118 VRB03KT P6SM OVC021
     FM102000 20005KT P6SM SCT015 OVC050
     FM110000 20005KT P6SM VCSH SCT015 OVC050
     FM110700 18008KT 4SM -RA BR OVC015=
KLVM 101743Z 1018/1118 22033G40KT P6SM VCSH BKN060 OVC150
     FM110400 23036G45KT P6SM BKN080=
KLVS 101741Z 1018/1118 30021G25KT P6SM SKC
     FM101900 30024G32KT P6SM SCT150
     FM110600 29010KT P6SM SKC=
KMCN 101743Z 1018/1118 04006KT 4SM -RADZ OVC004
     FM110500 14004KT 1SM -RADZ BR OVC002
     FM111200 18010KT 1SM -SHRA BR OVC004
     FM111700 23011G20KT 2SM SHRA OVC007=
KMFR 101742Z 1018/1118 34003KT 4SM BR OVC005
     FM102200 34005KT P6SM BKN035 OVC080
     FM110400 15006KT P6SM SCT025 OVC050
     FM111000 15010KT P6SM VCSH SCT025 OVC040 WS020/20050KT
     FM111400 16015G25KT P6SM VCSH BKN025 OVC040=

0000148100
450
FTUS80 KWBC 101745 RRD
TAF
KMLS 101743Z 1018/1118 25010KT P6SM SCT040 OVC150
     FM101900 25015G25KT P6SM SCT040 OVC150
     FM110300 25012KT P6SM SCT080 BKN200=
KMOB 101743Z 1018/1118 12004KT 4SM BR SCT006 BKN022 OVC030
     FM102100 14010KT P6SM BKN005 OVC015
     FM110400 16012KT 4SM SHRA BR OVC005
      TEMPO 1106/1109 3SM -TSRA BKN005CB
     FM111500 27012KT 5SM BR OVC007=
KOTH 101742Z 1018/1118 17006KT P6SM -SHRA BKN024 OVC050
     FM102000 20012G18KT P6SM -SHRA FEW010 BKN018 OVC025
     FM110000 20018G28KT P6SM -RA OVC020
     FM110300 20025G35KT 4SM -RA BR OVC015
     FM111200 21028G40KT 2SM RA BR OVC012=
KPDK 101743Z 1018/1118 08005KT 1 1/2SM -DZ BR OVC004
     FM110100 11005KT 1/2SM -RADZ FG OVC002
     FM110900 16007KT 1SM -RADZ BR OVC003
     FM111400 20009KT 2SM -SHRA OVC006=
KPIA 101744Z 1018/1118 15012G20KT 6SM BR VCTS OVC008CB
      TEMPO 1018/1020 2SM -TSRA BR
     FM102000 16012G20KT 2SM -RA BR VCTS OVC004CB
     FM110100 18012G20KT 2SM -RA BR OVC004
     FM110600 24012KT 3SM BR OVC004
     FM111400 26012G18KT P6SM OVC015=
KPNS 101743Z 1018/1118 07003KT 6SM BR OVC005
     FM102100 14010KT P6SM BKN005 OVC015
     FM110500 16012KT 4SM SHRA BR OVC005
      TEMPO 1107/1110 3SM -TSRA BKN005CB
     FM111500 27012KT 5SM BR OVC007=
KRME 101742Z 1018/1118 11007KT P6SM SCT018 OVC025
     FM110000 12005KT P6SM SCT015 OVC020
     FM110700 14008KT 4SM -SHRA SCT009 OVC012=

0000139400
451
FTUS80 KWBC 101745 RRE
TAF
KROW 101741Z 1018/1118 30015G25KT P6SM SKC
     FM110100 28010KT P6SM SKC=
KSAF 101741Z 1018/1118 26015KT P6SM SCT090
     FM101930 27020G30KT P6SM SCT100
     FM110200 35011KT P6SM SCT150=
KSGF 101742Z 1018/1118 17015G25KT 4SM SHRA BR BKN005 OVC010
      TEMPO 1019/1023 6SM -SHRA BR SCT005 OVC025
     FM102300 20015KT 6SM -SHRA BR VCTS SCT008 OVC020CB
      TEMPO 1023/1102 3SM SHRA BR OVC008CB
     FM110200 25011KT 6SM BR SCT008 OVC035
     FM110500 26010KT 2SM BR SCT005
     FM111400 26010G18KT P6SM SCT250=
KSHR 101743Z 1018/1118 18010KT P6SM SKC
     FM101900 30015G25KT P6SM SCT080 BKN200
     FM110200 VRB06KT P6SM SCT080 BKN200=
KSME 101742Z 1018/1118 VRB03KT P6SM SCT020 OVC029
     FM102000 20005KT P6SM SCT015 OVC050
     FM110000 20006KT P6SM VCSH SCT015 OVC050
     FM110600 18010KT 4SM -RA BR OVC015=
KSPI 101744Z 1018/1118 16014G22KT 4SM BR VCTS OVC004CB
      TEMPO 1018/1020 2SM -TSRA BR
     FM102000 17014G22KT 2SM -RA BR VCTS OVC004CB
     FM110100 18014G22KT 2SM -RA BR OVC004
     FM110600 24012KT 3SM BR OVC004
     FM111400 26012G18KT P6SM OVC015=
KSYR 101742Z 1018/1118 15008KT P6SM SCT020 BKN035
      TEMPO 1018/1020 6SM BR BKN025
     FM102300 18006KT P6SM SCT015 OVC022
     FM110700 18010KT 4SM -SHRA OVC012
     FM111200 13014KT 6SM -SHRA SCT008 OVC011=

0000019600
452
FTUS80 KWBC 101745 RRF
TAF
KTCC 101741Z 1018/1118 27017KT P6SM SKC
     FM102100 29024G30KT P6SM FEW150
     FM110100 27018G20KT P6SM SKC
     FM110300 28014KT P6SM SKC=

00000000