0000009800
293
SPUS31 KWBC 101739
SPECI
KORD 101735Z 16010KT 2 1/2SM BR OVC004 01/M01 A2991=

0000011700
294
SPUS31 KWBC 101739
SPECI
KSTL 101735Z 17010KT 2 1/2SM -RA BR BKN006 BKN030 OVC075 04/02
A2985=

0000010500
295
SPUS41 KWBC 101739
SPECI
KHTS 101734Z VRB03KT 10SM FEW024 BKN030 BKN060 08/07 A3018=

0000009800
296
SPUS42 KWBC 101739
SPECI
KFPR 101735Z 12009KT 10SM BKN014 BKN020 24/21 A3013=

0000011400
297
SPCN49 CWAO 101739
SPECI CYTQ 101739Z 27022G30KT 6SM BLSN FEW008 FEW070 BKN220 RMK
SF1AC2CI1=

0000009700
298
SPUS43 KWBC 101739
SPECI
KMLI 101735Z 13011KT 1 1/2SM BR OVC004 01/00 A2979=

0000018900
299
SAIO31 KWBC 101700 RRG
METAR
WBGG 101730Z 29002KT 9999 SCT020 BKN150 23/23 Q1012 NOSIG=
WBKK 101730Z NIL=
WBSB 101730Z 19003KT 9999 FEW005 BKN300 25/24 Q1011 NOSIG=

0000024000
300
SAID32 WIII 101730
METAR WIBB 101730Z 35005KT 7000 FEW016 25/23 Q1010 NOSIG= 
METAR WAMM NIL=
METAR WIDN NIL=
METAR WIPT NIL=
METAR WIOO NIL=
METAR WIPP NIL=
METAR WAOO NIL=
METAR WALL NIL=
METAR WADL NIL=

0000017900
301
SAID33 WIII 101730
METAR WABP NIL=
METAR WAJJ NIL=
METAR WAKK NIL=
METAR WAPP NIL=
METAR WARS NIL=
METAR WATT NIL=
METAR WALR NIL=
METAR WARQ NIL=

0000010700
302
SANO38 ENMI 101720 RRB
METAR ENEK 101720Z 24027KT 9999 FEW015 BKN140 07/06 Q1005 W08/S4=

0000010900
303
SAAE33 VTBB 101730 RRA
METAR VVPB 101730Z 27005KT 5000 BR SCT020 BKN050 19/18 Q1020 NOSIG=

0000012300
304
FTBE31 TXKF 101739
TAF TXKF 101739Z 1018/1118 07014KT 9999 SCT035 BKN300
     BECMG 1112/1115 12018KT=

0000036400
305
SAPO31 LPMG 101730
METAR LPBJ 101730Z NIL=
METAR LPFR 101730Z VRB04G16KT CAVOK 16/10 Q1012=
METAR LPMA 101730Z 36007KT 320V030 9999 FEW015 18/13 Q1014 RS02002KT
0502007KT 2301009KT=
METAR LPPR 101730Z 34005KT CAVOK 11/09 Q1015=
METAR LPPS 101730Z 04008KT 360V070 9999 SCT012 18/16 Q1014=
METAR LPPT 101730Z 35008KT CAVOK 14/11 Q1013=

0000031600
306
SAPO32 LPMG 101730
METAR LPAZ 101730Z 18015KT 9999 SCT009 17/15 Q1012=
METAR LPFL 101730Z 18014KT 150V220 9999 FEW019 13/07 Q1009=
METAR LPHR 101730Z 11003KT 080V140 9000 SCT007 BKN013 BKN030 14/12
Q1009=
METAR LPLA 101730Z NIL=
METAR LPPD 101730Z 18015KT 9999 BKN006 BKN010 16/15 Q1011=

0000028700
307
SAHK31 VHHH 101730
METAR VHHH 101730Z 09014KT 9000 FEW022 16/11 Q1024 NOSIG=
METAR RCTP 101730Z 03005KT 350V070 9999 FEW020 16/12 Q1023 NOSIG
RMK A3022=
METAR RCKH 101730Z NIL=
METAR RCSS 101730Z NIL=
METAR VMMC 101730Z 08014KT 9000 FEW030 16/11 Q1023 NOSIG=

0000029500
308
FTCN31 CWAO 101700 AAA
TAF AMD CYYD 101740Z 1017/1102 VRB03KT 2SM BR OVC020 TEMPO 1017/1020
     P6SM NSW BKN080
    FM102000 VRB03KT P6SM SCT006 SCT040 TEMPO 1020/1022 5SM BR BKN020
    FM102200 VRB03KT P6SM BKN040
    RMK FCST BASED ON AUTO OBS. NXT FCST BY 101900Z=

0000009500
309
SAFR32 LFPW 101730 RRA
METAR LFCK 101730Z AUTO 12021KT 9999 NSC 11/07 Q1016=

0000036900
310
FCFI31 EFHK 101700
TAF EFHA 101740Z NIL=
TAF EFHF 101740Z NIL=
TAF EFKA 101740Z NIL=
TAF EFKK 101728Z 1018/1021 03011KT 8000 -SN BKN015 PROB40
     TEMPO 1018/1021 2500 BKN012=
TAF EFMA 101733Z 1018/1103 34011KT 9999 -RA BKN010 TEMPO
     1018/1020 3000 -RASN BKN005 BECMG 1100/1102 BKN015=
TAF EFPO 101740Z NIL=
TAF EFSI 101740Z NIL=

0000025900
311
FCFI32 EFHK 101700
TAF EFJO 101740Z NIL=
TAF EFLP 101736Z 1018/1023 02012G22KT 5000 -SN BKN007 TEMPO
     1018/1023 2000 SHSN SCT007 BKN015=
TAF EFMI 101740Z NIL=
TAF EFSA 101740Z NIL=
TAF EFUT 101740Z NIL=
TAF EFVR 101740Z NIL=

0000032500
312
FCFI33 EFHK 101700
TAF EFET 101740Z NIL=
TAF EFIV 101740Z NIL=
TAF EFKE 101736Z 1018/1021 02015KT 9000 -SN BKN045 TEMPO
     1018/1021 3000=
TAF EFKI 101736Z 1018/1021 06014KT 9999 -SN OVC020=
TAF EFKS 101736Z 1018/1023 05010KT 9999 -SN BKN045 TEMPO
     1018/1021 6000=
TAF EFKT 101740Z NIL=

00000000