0000127000
833
SAAK31 KWBC 102000
METAR
PABR 101953Z 32009KT 10SM SCT005 BKN120 M26/M28 A2992=
PACD 101953Z 16003KT 10SM FEW040 01/M04 A2937=
PAED 101958Z 00000KT 6SM BR SCT002 OVC008 M04/M04 A2942=
PAEI 101958Z AUTO 00000KT 10SM SCT060 OVC080 M18/M20 A2957=
PAEN 101953Z 00000KT 1/4SM FZFG BKN005 OVC009 M04/M04 A2943=
PAFA 101953Z 00000KT 10SM BKN085 BKN110 M19/M22 A2958=
PAFR NIL=
PAFS 101956Z AUTO 00000KT 10SM UP SCT001 BKN015 OVC044 M15/M18
     A2956=
PAFY NIL=
PAJN 101953Z 08007G15KT 10SM SCT016 BKN034 BKN050 BKN150 03/01
     A2953=
PAKN 101954Z 11003KT 10SM SCT004 BKN025 M05/M05 A2946=
PAKT 101953Z 18005KT 10SM SCT016 BKN031 03/02 A2969=
PANC 101953Z 34004KT 7SM -SN BKN005 OVC010 M03/M04 A2942=
PAOM 101953Z 04011KT 10SM SCT090 BKN200 M11/M17 A2965=
PAOR 101953Z 00000KT 9SM -SN BKN022 BKN027 M16/M18 A2940=
PAOT 101953Z 02004KT 10SM CLR M18/M24 A2979=
PARY 101956Z AUTO 00000KT 10SM CLR M20/M24 A2961=
PASC 101953Z 23013KT 10SM OVC026 M31/M34 A2989=
PASG NIL=
PASI 101953Z 32005KT 10SM SCT023 BKN033 OVC042 02/02 A2957=
PATQ 101956Z AUTO 27006KT 10SM SCT004 M31/M34 A2995=
PAVD 101956Z 10SM FEW010 FEW040 BKN100 M04/M07 A2939=
PAWG 101956Z 15005KT 10SM FEW010 BKN030 OVC080 04/M01 A2965=
PFYU NIL=

0000100400
834
SABO41 KWBC 102000
METAR
SLCA 102000Z 15009KT 9999 FEW036 33/19 Q1008=
SLCN NIL=
SLCO 102000Z 30006KT 9999 FEW017 SCT080 BKN200 30/24 Q1007=
SLCP 102000Z 00000KT 9999 BKN017 27/24 Q1010=
SLJE 102000Z 00000KT 9999 FEW017 31/23 Q1010=
SLJO 102000Z 32006KT 9999 SCT017 FEW023CB 27/24 Q1007=
SLMG 102000Z 32006KT 9999 SCT017 FEW023CB 31/23 Q1008=
SLOR 102000Z 11016KT 9999 FEW015 20/01 Q1032=
SLPO 102000Z 07015KT 9999 FEW020 17/02 Q1034=
SLPS 102000Z 00000KT 9999 SCT020 FEW025TCU 34/23 Q1005=
SLRB 102000Z 36010KT 9999 SCT020 32/24 Q1009=
SLRI 102000Z 34010KT 9999 SCT017 FEW020CB BKN200 32/23 Q1007=
SLRQ 102000Z 36006KT 9999 SCT017 FEW020CB 30/26 Q1006=
SLRY 102000Z 34004KT 9999 BKN017 30/25 Q1007=
SLSA 102000Z 32012KT 9999 SCT020 30/23 Q1006=
SLSI 102000Z 00000KT 9999 SCT017 31/24 Q1008=
SLSU 102000Z 08004KT 9999 FEW023 23/08 Q1025=
SLVG NIL=
SLVM 102000Z 36010KT 9999 NSC 35/24 Q1003=
SLYA 102000Z 36008KT 9999 NSC 34/24 Q1004=
SLZO NIL=

0000069800
835
SABZ41 KWBC 102000
METAR
SBAA NIL=
SBAF NIL=
SBAR 102000Z 11014KT 9999 SCT018 28/22 Q1011=
SBBG 102000Z 08008KT 9999 BKN020 20/19 Q1010=
SBBH NIL=
SBBI NIL=
SBBU NIL=
SBCJ 102000Z 04003KT 9999 FEW027 25/20 Q1012=
SBCO NIL=
SBCR 102000Z 05004KT 9999 SCT025 34/21 Q1006=
SBCT 102000Z 28010KT 9999 SCT045 30/13 Q1015=
SBCV NIL=
SBCY 102000Z 00000KT 9999 SCT020 32/21 Q1007=
SBCZ 102000Z 30007KT 5000 -RA BKN025 BKN100 26/25 Q1007=
SBDN NIL=
SBFL 102000Z 09004KT 9999 FEW030 FEW035TCU 29/24 Q1008=
SBFN 102000Z 11014KT 9999 SCT021 26/20 Q1012=
SBGO 102000Z 31006KT 9999 FEW040 FEW045TCU 29/16 Q1012=
SBGW NIL=
SBHT NIL=
SBIH NIL=
SBIL NIL=

0000101000
836
SABZ42 KWBC 102000
METAR
SBJR NIL=
SBLO 102000Z 04006KT 9999 FEW035 FEW040TCU 33/14 Q1011=
SBMA 102000Z 13002KT 9999 FEW018 30/23 Q1008=
SBME NIL=
SBMN 102000Z 32006KT 9999 SCT025 FEW030TCU 29/23 Q1007=
SBMO 102000Z 10010KT 9999 SCT020 SCT080 27/22 Q1012=
SBMQ 102000Z 12005KT 9999 FEW013 BKN100 29/22 Q1008=
SBMT NIL=
SBPC NIL=
SBPK 102000Z 33004KT 9999 SCT040 22/21 Q1010=
SBPP 102000Z 21004KT 9999 SCT025 FEW030TCU 29/19 Q1011=
SBPV 102000Z 21004KT 9999 BKN025 31/22 Q1006=
SBRB 102000Z 22002KT 9999 SCT020 FEW025TCU SCT100 ///// Q1007=
SBRJ 102000Z 18012KT 9999 FEW025 FEW035TCU 30/22 Q1010=
SBSC NIL=
SBSJ NIL=
SBSM NIL=
SBSP 102000Z 11006KT 040V140 8000 -TSRA SCT011 BKN030 FEW040CB
     BKN100 25/20 Q1017=
SBST NIL=
SBTE 102000Z 22002KT 9999 VCSH SCT030 33/20 Q1007=
SBTU NIL=
SBUG 102000Z 13009KT 9999 VCTSSH BKN015 FEW035CB BKN080 23/21 Q
     1008=
SBUR NIL=
SBVH NIL=
SBVT 102000Z 06009KT 9999 FEW020 30/22 Q1013=
SBYS NIL=

0000010200
837
SABZ42 KWBC 102000 CCA
METAR
SBMQ 102000Z 12005KT 9999 SCT013 BKN100 29/22 Q1008=

0000092200
838
SAAK32 KWBC 102000
METAR
PABA 102001Z AUTO 27021KT 2 1/2SM BR M26/M28 A2986=
PABI 101953Z 00000KT 8SM -SN SCT035 BKN070 OVC100 M18/M20
     A2950=
PACZ 101955Z AUTO 10007G11KT 360V200 10SM FEW055 SCT070 M05/M07
     A2942=
PADK 101956Z AUTO 23021G28KT 10SM FEW022 SCT030 OVC075 04/00
     A2895=
PADL NIL=
PADQ 101953Z 29004KT 10SM SCT040 M01/M04 A2947=
PAEH 101955Z AUTO 14014G29KT 10SM BKN006 01/00 A2937=
PAFB 101955Z 13003KT 13SM BKN085 M20/M22 A2959=
PAGA 101958Z AUTO 00000KT 10SM CLR M24/M27 A2969=
PAIM 101955Z AUTO VRB02KT 10SM CLR M22/M27 A2958=
PALU 101955Z AUTO 09006KT 10SM OVC012 M19/M20 A3005=
PASV 101955Z AUTO 28002KT 10SM -SN SCT006 OVC021 M12/M13 A2940=
PASY 101956Z AUTO 02034G40KT 5SM -SN BR BKN012 OVC019 00/00
     A2878=
PATC 101955Z AUTO 02021KT 10SM CLR M18/M20 A2975=
PATL 101955Z AUTO 07004KT 10SM -SHSN BKN120 M15/M16 A2954=
PBTI NIL=

0000059000
839
SABZ43 KWBC 102000
METAR
SBAN NIL=
SBAT NIL=
SBBA NIL=
SBBQ NIL=
SBBW NIL=
SBCC NIL=
SBER NIL=
SBES NIL=
SBGA NIL=
SBIZ NIL=
SBJF NIL=
SBJP 102000Z 12012KT 9999 SCT025 28/20 Q1011=
SBKG NIL=
SBLB NIL=
SBLP NIL=
SBMK NIL=
SBMS NIL=
SBMZ NIL=
SBPB 102000Z 06013KT 9999 FEW020 29/24 Q1008=
SBPJ NIL=
SBPL 102000Z 07005KT 9999 FEW025 30/19 Q1011=
SBPN NIL=
SBQV NIL=
SBRP 102000Z 31014KT 9999 TS SCT040 FEW045CB 25/18 Q1012=
SBTF 102000Z 09003KT 9999 SCT012 BKN080 28/26 Q1007=
SBTK NIL=
SBUF NIL=
SBUI NIL=
SBUL NIL=

0000004600
840
FCRA31 RUMS 102000
TAF NIL=

0000047600
841
FCRS32 RUMS 102000
TAF URML 101942Z 1021/1106 VRB02MPS 5000 BR SCT015 SCT100 530001
TEMPO 1021/1103 0900 FZFG SCT003 BKN005=
TAF URMN 102000Z 1021/1106 22004MPS 9999 BKN030 TEMPO 1021/1103 2000
BR BKN004=
TAF URMO 102000Z NIL=
TAF URMT 101959Z 1021/1106 24004G09MPS 9999 SCT007 BKN015 TEMPO
1021/1103 2000 BR BKN007 BKN015=
TAF URWA 102000Z 1021/1106 23004MPS 9999 BKN012 BKN100 TEMPO
1021/1003 2100 BR BKN007 BKN100=
TAF URWI 102000Z NIL=

0000029400
842
FCRA32 RUMS 102000
TAF UNTT 101958Z 1021/1106 22009G14MPS 1800 SHSN DRSN BKN006 SCT020CB
OVC100 530003 TEMPO 1021/1106 0900 +SHSN VV003=
TAF USCM 102000Z 1021/1106 14006MPS 2000 SHSN BR OVC005 BKN015CB
650050 530005 TEMPO 1021/1106 17009MPS 0300 FZDZ FZFG VV002 640000=

0000036300
843
FCRS36 RUMS 102000
TAF ULOO 102004Z 1021/1106 29006MPS 3000 -RA BR BKN006 OVC020
TM01/1101Z TEMPO 1021/1024 2100 -SHRASN BKN005 BKN015CB BECMG
1100/1102 33007G12MPS TEMPO 1100/1106 1000 SHSN BKN003 BKN015CB=
TAF ULPB 102000Z NIL=
TAF UUOO 102000Z 1021/1106 23007G12MPS 2400 -SNRA BR BKN006 OVC020
650200 530002 TEMPO 1021/1103 BKN004=

0000027700
844
FCRS31 RUMS 102000
TAF ULWC 102000Z NIL=
TAF UUBP 101942Z 1021/1106 24007MPS 9000 BKN015CB TEMPO 1023/1106
4000 -SHRA BKN008=
TAF UUOB 101945Z 1021/1106 24005G10MPS 4000 SHRA BR BKN007 BKN015CB
530001 BECMG 1023/1101 27009MPS=
TAF UUOK 102000Z NIL=

0000004600
845
FCRS33 RUMS 102000
TAF NIL=

0000053400
846
FCRS34 RUMS 102000
TAF URWW 101951Z 1021/1106 19005G11MPS 2000 -SHRA BR BKN007 SCT010CB
OVC100 530001 TEMPO 1100/1103 0400 FG BKN002 SCT010CB OVC100 BECMG
1103/1104 21010G16MPS=
TAF UWKS 101950Z 1021/1106 16007G12MPS 1500 SNRA BR OVC003 640000
530001 TM00/1021Z TEMPO 1021/1024 0700 FZDZ FZFG VV002=
TAF UWOR 102000Z 1021/1106 17009MPS 2000 SN BR OVC007 650070 TEMPO
1021/1103 1000 SN BR OVC005=
TAF UWSS 102000Z 1021/1106 19009MPS 2000 BR OVC005 530002 TEMPO
1021/1106 0400 FZDZ FZFG OVC003 640000=

0000010700
847
SPCN52 CWAO 102010
SPECI CWFD 102010Z AUTO 21014KT 1/8SM CLR M21/ A2881 RMK ICG PAST HR=

0000081700
848
SAEA20 HKNC 102000
METAR HKJK 102000Z 07008KT 9999 FEW021 19/12 Q1022 NOSIG=
METAR HKKS 102000Z 00000KT 9999 FEW020 BKN090 19/13=
METAR HKKT 102000Z 00000KT CAVOK 16/10=
METAR HKMO 102000Z 03015KT 9999 FEW020 26/22 Q1013 NOSIG=
METAR HKNK 102000Z  00000KT  CAVOK  18/10=
METAR HKEL 102000Z NIL=
METAR HKEM 102000Z NIL=
METAR HKGA 102000Z NIL=
METAR HKKG 102000Z NIL=
METAR HKKI 102000Z NIL=
METAR HKKR 102000Z NIL=
METAR HKLO 102000Z NIL=
METAR HKLU 102000Z NIL=
METAR HKMA 102000Z NIL=
METAR HKMB 102000Z NIL=
METAR HKME 102000Z NIL=
METAR HKML 102000Z NIL=
METAR HKMU 102000Z NIL=
METAR HKMY 102000Z NIL=
METAR HKNC 102000Z NIL=
METAR HKNI 102000Z NIL=
METAR HKNO 102000Z NIL=
METAR HKNW 102000Z NIL=
METAR HKVO 102000Z NIL=
METAR HKWJ 102000Z NIL=

0000007300
849
FCSQ41 LZIB 101700 AAA
TAF LZPP 102010Z 1020/1103 CNL=

0000011400
850
SAAG05 SABM 102000 RRA
METAR SASJ 102000Z  05007KT 9999  FEW030 FEW040CB
BKN200  32/18 Q1006=

0000009400
851
SAAG41 SARI 102000
METAR SARI 102000Z  00000KT 9999  SCT030  32/22
Q1010=

0000021600
852
FTUK34 EGGY 102000
TAF EGVN 101945Z 1021/1121 21007KT 9999 SCT040 TEMPO 1021/1104 7000
    RA SCT020 PROB40 TEMPO 1022/1104 4000 -RADZ BKN008 BECMG
    1104/1107 FEW025=
TAF EGWU 102000Z NIL=

00000000