0000009700
293
SPUS43 KWBC 110327
SPECI
KDET 110323Z 15007KT 3SM -RA BR OVC003 04/02 A2980=

0000044000
294
SAGR33 LGAT 110320
METAR LGBL 110320Z 28005KT 9999 FEW020 BKN180 06/04 Q1021 NOSIG=
METAR LGHI 110320Z NIL=
METAR LGKC 110320Z NIL=
METAR LGKF 110320Z NIL=
METAR LGKP 110320Z NIL=
METAR LGKZ 110320Z AUTO 08005KT 320V100 //// // //////
     06/00 Q1021 RE//=
METAR LGMK 110320Z NIL=
METAR LGNX 110320Z NIL=
METAR LGPA 110320Z AUTO VRB01KT //// // ////// 12/10 Q1019
     RE//=
METAR LGSO 110320Z NIL=

0000011000
295
SAMJ41 LWSK 110330
METAR LWSK 110330Z 00000KT 0500 R34/0700N FG OVC002 01/00 Q1024
NOSIG=

0000008700
296
SAGR32 LGAT 110320 RRA
METAR LGEL 110320Z 00000KT CAVOK 07/06 Q1020=

0000017700
297
SANL32 EHDB 110325
METAR EHEH 110325Z AUTO 21009KT 9999 OVC006 04/02 Q1015 
YLO=
METAR EHKD 110325Z AUTO 21018KT 5000 DZ BKN005 OVC006 07/06 Q1012 
YLO=

0000010700
298
SABW31 VGHS 110320
METAR VGHS 110320Z 34004KT 1000 BR NSC 16/13 Q1016 BECMG S/VIS 1500M=

0000057500
299
SASG21 GOOY 110300
METAR GOSS 110300Z 02004KT CAVOK 15/15 Q1014=
METAR GOSP 110300Z 36004KT CAVOK 16/11 Q1015=
METAR GOOG 110300Z 04004KT 8000 NSC 18/08 Q////=
METAR GOSM 110300Z 36004KT CAVOK 20/10 Q1013=
METAR GOOD 110300Z 36004KT 8000 NSC 17/14 Q1013=
METAR GOOK 110300Z 36006KT 8000 NSC 19/10 Q1014=
METAR GOTT 110300Z 36006KT CAVOK 25/08 Q1010=
METAR GOGG 110300Z VRB02KT CAVOK 20/12 Q1013=
METAR GOGS 110300Z 36006KT CAVOK 19/16 Q1013=
METAR GOGK 110300Z VRB02KT 8000 NSC 20/11 Q1012=
METAR GOTK 110300Z 16004KT CAVOK 23/10 Q1011=

0000010800
300
SATH33 VTBB 110300 RRA
METAR VTUI 110300Z 12004KT CAVOK 24/14 Q1020 A3013 RWY05
INFO A=

0000031700
301
FTNP31 VNKT 110320
TAF VNKT 110320Z 1106/1206 27006KT 6000 FEW020 BKN100
BECMG 1113/1114 5000 HZ FEW015 BKN100
BECMG 1200/1202 0800 BCFG NSC
BECMG 1202/1203 1500 BR
BECMG 1203/1204 3000 BR
BECMG 1205/1206 24005KT 5000 HZ FEW025
TEMPO 1106/1109 VRB12KT 3000 -SHRA FEW015 FEW025CB OVC090=

0000011100
302
SADL34 EDZO 110320 RRA
METAR EDNY 110320Z AUTO VRB01KT 0150 R24/0450N FG BKN001 02/01 Q1018=

0000025600
303
FTUS31 KWBC 110324 AAA
TAF AMD
KMSY 110321Z 1103/1124 16008KT 3SM -RA BR OVC005
      TEMPO 1105/1109 2SM TSRA OVC006CB
     FM110900 21012KT 3SM -RA OVC008
     FM111300 25012KT 5SM BR OVC015
     FM111600 30010KT P6SM SCT250=

0000068600
304
FTUS72 KWBC 110324 AAA
TAF AMD
KAEX 110323Z 1103/1124 18006KT P6SM VCTS BKN007 OVC012CB
      TEMPO 1103/1105 2SM TSRA OVC004CB
     FM110500 21012KT P6SM VCSH OVC004
     FM110900 27009KT 1SM BR OVC002
     FM111400 31008KT P6SM SCT006=
KMEI 110321Z 1103/1124 18010KT 6SM -SHRA BR OVC004
     FM110800 18014KT 1SM TSRA BR OVC003CB
     FM111100 25009KT 4SM -DZ BR OVC007
     FM111500 29011KT P6SM SCT250
     FM111700 29014G21KT P6SM SKC=
KMSY 110321Z 1103/1124 16008KT 3SM -RA BR OVC005
      TEMPO 1105/1109 2SM TSRA OVC006CB
     FM110900 21012KT 3SM -RA OVC008
     FM111300 25012KT 5SM BR OVC015
     FM111600 30010KT P6SM SCT250=

0000046700
305
FTUS75 KWBC 110324 AAA
TAF AMD
PABR 110323Z 1103/1124 20012KT 2SM BR OVC005
      TEMPO 1103/1106 1/2SM FZFG VV003
     FM111200 28010KT 3SM -SN BR OVC008=
PAOR 110323Z 1103/1124 00000KT 4SM -SN OVC040
      TEMPO 1103/1106 2SM -SN OVC025
     FM110800 00000KT 6SM -SN BR BKN035 OVC080=
PASC 110323Z 1103/1124 25017KT 1SM -SN BR BKN010 OVC020
      TEMPO 1103/1106 4SM -SN BR OVC020
     FM110600 25015KT 4SM -SN BR SCT005 OVC015=

0000128800
306
FTUS71 KWBC 110324 AAA
TAF AMD
KACK 110323Z 1103/1124 19008KT P6SM OVC050
     FM110600 19008KT 3SM BR OVC020
     FM111100 17013G24KT 2SM -RA BR OVC008
     FM111700 18024G37KT 1SM -RA OVC005 WS020/20060KT
     FM112100 18027G42KT 3/4SM -RA OVC005 WS020/19060KT=
KBDL 110320Z 1103/1206 VRB03KT 2SM BR OVC005
     FM110600 00000KT 2SM -RA BR OVC008
     FM111200 17006KT 1/2SM -RA FG OVC008
     FM111600 18010G25KT 1/2SM -RA FG OVC003 WS020/19050KT
     FM120300 20009KT 3/4SM -RA BR OVC008
     FM120500 24008KT 5SM BR SCT008 OVC080=
KHYA 110323Z 1103/1124 20007KT P6SM SCT010 OVC040
     FM110600 20005KT 6SM BR OVC008
     FM111100 18010G19KT 2SM -RA BR OVC005
     FM111500 18017G32KT 1/2SM -RA FG OVC003 WS020/20050KT
     FM112300 18030G43KT 1/2SM -RA OVC003 WS020/19065KT=
KMHT 110321Z 1103/1124 00000KT 3SM BR OVC015
     FM110600 00000KT 2SM BR OVC015
     FM111000 00000KT 1SM -FZRA BR OVC008
     FM111500 17004KT 3/4SM -RA BR OVC004 WS020/20045KT
     FM112000 18013G25KT 1SM -RA OVC008 WS020/20050KT=
KPVD 110322Z 1103/1124 20004KT 1/2SM -DZ FG OVC003
     FM110700 17005KT 1/2SM -RA FG OVC003
     FM111400 18013G28KT 1SM -RA BR OVC003 WS020/19050KT
     FM111900 18020G36KT 2SM -RA OVC003 WS020/20060KT=

0000054600
307
FTUS41 KWBC 110324 AAA
TAF AMD
KBDL 110320Z 1103/1206 VRB03KT 2SM BR OVC005
     FM110600 00000KT 2SM -RA BR OVC008
     FM111200 17006KT 1/2SM -RA FG OVC008
     FM111600 18010G25KT 1/2SM -RA FG OVC003 WS020/19050KT
     FM120300 20009KT 3/4SM -RA BR OVC008
     FM120500 24008KT 5SM BR SCT008 OVC080=
KPVD 110322Z 1103/1124 20004KT 1/2SM -DZ FG OVC003
     FM110700 17005KT 1/2SM -RA FG OVC003
     FM111400 18013G28KT 1SM -RA BR OVC003 WS020/19050KT
     FM111900 18020G36KT 2SM -RA OVC003 WS020/20060KT=

0000078500
308
SASN32 ESWI 110320
METAR ESKN 110320Z 14007KT 4500 -SN SCT007 M03/M03 Q1000
R26/710195=
METAR ESOE 110320Z AUTO 07005KT 8000NDV -SN OVC005/// M02/M03
Q0999 REPL=
METAR ESOK 110320Z AUTO 02004KT 9999 OVC007/// M00/M00 Q0997=
METAR ESOW 110320Z AUTO 05004KT 9999NDV SG FEW007/// BKN020///
M04/M06 Q1001 RESN=
METAR ESSA 110320Z 06003KT 1800 -SN VV009 M04/M05 Q1000 R01L/19//71
R08/19//58 R01R/19//68 BECMG 4000=
METAR ESSB 110320Z AUTO VRB02KT 9999NDV -SN FEW007/// SCT012///
BKN021/// M03/M05 Q1000=
METAR ESSD 110320Z AUTO 06005KT 6000 -SN SCT001/// BKN006///
OVC032/// M07/M09 Q1001=
METAR ESSP 110320Z AUTO 11005KT 4800NDV BR OVC006/// M02/M02 Q1000=
METAR ESSV 110320Z AUTO 23004KT 9999NDV FEW011/// SCT016///
OVC059/// 00/M02 Q1002=

0000010100
309
SAIO31 KWBC 110300 RRD
METAR
VRMM 110300Z 07013KT 9000 FEW018 29/24 Q1013 NOSIG=

0000071500
310
SASN33 ESWI 110320
METAR ESNG 110320Z AUTO 03003KT 360V080 9999 NCD M17/M20 Q1012=
METAR ESNK 110320Z AUTO 32010KT 3900 -SN FEW009/// BKN018///
BKN035/// M10/M13 Q1005=
METAR ESNN 110320Z AUTO 33009KT 9999NDV -SN FEW024/// M10/M12
Q1004 R16/49/79=
METAR ESNO 110320Z AUTO 36011KT 4800 -SN BKN019/// OVC023/// M12/M14
Q1003=
METAR ESNQ 110320Z AUTO VRB01KT 9999NDV NCD M22/M24 Q1012=
METAR ESNS 110320Z AUTO 35014KT //// VV007 M13/M14 Q1006=
METAR ESNU 110320Z AUTO 35016KT 4200 -SN ///027 M11/M14 Q1004
R14/49//50=
METAR ESNZ 110320Z AUTO 04004KT 3300NDV -SN VV019 M15/M17 Q1003=
METAR ESUT 110320Z AUTO 22008G21KT 160V270 9999 IC FEW021///
BKN096/// M13/M19 Q1005 RESN=

0000054800
311
SASN34 ESWI 110320
METAR ESCF 110320Z AUTO 19007KT 9999NDV SCT009/// BKN014/// 
OVC017/// 01/01 Q0999=
METAR ESDF 110320Z AUTO 24007KT 9999NDV FEW010/// SCT013/// 
BKN018/// OVC029/// 05/04 Q1005=
METAR ESIB 110320Z AUTO 24016KT 9999NDV FEW088/// 05/04 Q0999=
METAR ESMV 110320Z NIL=
METAR ESPA 110320Z AUTO 01009KT 9999NDV -IC VV016/// M14/M18 Q1010=
METAR ESPE 110320Z AUTO 36009KT 9999NDV OVC049/// M15/M19 Q1010=
METAR ESSL 110320Z AUTO 19006KT 9999NDV FEW010/// BKN013///
OVC018/// 01/M00 Q0999 R29/19//95=

0000039600
312
SASN35 ESWI 110320
METAR ESGR 110320Z NIL=
METAR ESKM 110320Z NIL=
METAR ESNL 110320Z AUTO 35007KT 6000NDV -SN BKN028/// M13/M16
Q1006=
METAR ESNX 110320Z AUTO 02012KT 5000NDV -SN ///036 M16/M19 Q1007=
METAR ESNY 110320Z NIL=
METAR ESSF 110320Z NIL=
METAR ESSK 110320Z NIL=
METAR ESUD 110320Z AUTO 35005KT 5000 -SN FEW006/// SCT013///
BKN034/// M14/M17 Q1007=

00000000