0000021700
333
SANO36 ENMI 110320
METAR ENBS 110320Z NIL=
METAR ENHK 110320Z NIL=
METAR ENHV 110320Z NIL=
METAR ENLK 110320Z NIL=
METAR ENMH 110320Z NIL=
METAR ENNK 110320Z NIL=
METAR ENNM 110320Z NIL=

0000060100
334
SANO33 ENMI 110320
METAR ENAT 110320Z AUTO 21006KT 9999NDV OVC001/// M16/M17 Q1019 RESG
           RMK WIND 700FT 18008KT=
METAR ENBL 110320Z NIL=
METAR ENEV 110320Z AUTO 32002KT 9999NDV NCD M08/M16 Q1015 RMK WIND
           1400FT 07022KT=
METAR ENFL 110320Z NIL=
METAR ENKB 110320Z AUTO 10005KT 070V140 9999NDV BKN017/// M05/M07
           Q0999=
METAR ENKR 110320Z AUTO 17008KT 2500NDV -SN FEW003/// BKN020///
           OVC059/// M21/M23 Q1016 SEASMOKE NORTH OF THE FIELD RMK
           WIND 775FT 23013KT=
METAR ENML 110320Z NIL=
METAR ENNA 110320Z NIL=

0000051500
335
SANO32 ENMI 110320
METAR ENAL 110320Z NIL=
METAR ENCN 110320Z AUTO 23008KT 9999NDV SCT022/// OVC032/// 06/03
           Q1000=
METAR ENHD 110320Z AUTO 26017KT 9999NDV SCT024/// 07/04 Q0999=
METAR ENRO 110320Z AUTO 10010KT 9999NDV -SN BKN007/// OVC011///
           M15/M18 Q0998=
METAR ENRY 110320Z AUTO 20005KT 9999NDV FEW100/// 01/M00 Q0997=
METAR ENSB 110320Z NIL=
METAR ENTC 110320Z NIL=
METAR ENTO 110320Z AUTO 25005KT 9999NDV FEW098/// OVC110/// 02/M00
           Q0997=

0000074100
336
SANO39 ENMI 110320
METAR ENNE 110320Z NIL=
METAR ENQR 110320Z AUTO 09008G18KT 030V190 9999NDV SCT020///
           BKN039/// 02/M02 Q0997 W///S/=
METAR ENSE 110320Z AUTO 09019KT 9999NDV FEW018/// SCT024/// BKN045///
           02/M02 Q0997 W///S5=
METAR ENQC 110320Z AUTO 05011KT 030V090 9999NDV BKN015/// OVC022///
           04/00 Q0996 W///S4=
METAR ENQA 110320Z AUTO 07012KT 9999NDV FEW008/// BKN062/// 03/02
           Q0996 W04/S4=
METAR ENHM 110320Z AUTO 28027KT 9999NDV FEW077/// 06/02 Q0998
           W08/S5=
METAR ENVH 110320Z AUTO 31019KT 9999NDV -RA BKN013/// 07/05 Q1003
           W///S4=
METAR ENLA 110320Z AUTO 30023KT 9999NDV FEW022/// BKN096/// 07/03
           Q1002 W///S4=

0000019100
337
SANO34 ENMI 110320
METAR ENBN 110320Z NIL=
METAR ENBV 110320Z NIL=
METAR ENFG 110320Z NIL=
METAR ENHF 110320Z NIL=
METAR ENRA 110320Z NIL=
METAR ENSH 110320Z NIL=

0000077500
338
SAIY31 LIIB 110320
METAR LIEA 110320Z 36002KT 8000 0500W BCFG NSC 05/05 Q1020=
METAR LIEE 110320Z 33006KT CAVOK 06/06 Q1019=
METAR LIEO 110320Z VRB01KT 1200 R05/0550D BR NSC 03/03 Q1021=
METAR LIMC 110320Z 00000KT 6000 BKN040 07/06 Q1022 NOSIG=
METAR LIME 110320Z NIL=
METAR LIMF 110320Z 00000KT 7000 BKN030 07/05 Q1021=
METAR LIMJ 110320Z 36002KT 9999 FEW018 BKN040 12/10 Q1021=
METAR LIML 110320Z 00000KT 5000 BR SCT005 BKN030 08/07 Q1022 NOSIG=
METAR LIRA 110315Z 02001KT 9999 FEW025 06/06 Q1021=
METAR LIRF 110320Z VRB03KT 5000 BR NSC 06/06 Q1022 NOSIG=
METAR LIRN 110320Z 01002KT 5000 BR SCT030 07/06 Q1022=
METAR LIRP 110315Z VRB02KT 9999 BKN050 08/07 Q1021 NOSIG=
METAR LIRQ 110320Z VRB01KT 5000 BR FEW020 BKN040 11/10 Q1022=

0000063800
339
SAIY32 LIIB 110320
METAR LIBD 110320Z 23006KT 7000 NSC 06/06 Q1022=
METAR LIBR 110315Z 24003KT 8000 NSC 06/05 Q1022 NOSIG=
METAR LICC 110320Z NIL=
METAR LICJ 110320Z 07003KT 020V120 CAVOK 10/09 Q1021=
METAR LIPE 110320Z VRB01KT 1700 0800W R12/1100V1500U PRFG SCT001
BKN050 07/07 Q1021=
METAR LIPH 110315Z /////KT 1800 BR SCT020 BKN060 06/05 Q1021=
METAR LIPQ 110320Z 00000KT 0200 R09/0275 FG OVC003 07/04 Q1021=
METAR LIPR 110315Z /////KT 6000 BKN050 08/08 Q1022=
METAR LIPX 110315Z 21003KT 1000 R04/P1500N BR FEW010 BKN045 08/06
      Q1022=
METAR LIPZ 110320Z VRB01KT 4000 BR BKN050 08/06 Q1021=

0000004200
340
SAIY33 LIIB 110320
NIL=

0000008700
341
SAIY32 LIIB 110320 RRA
METAR LICC 110320Z 24006KT CAVOK 07/04 Q1021=

0000034700
342
SANT31 KWBC 110300 RRA
METAR
BGBW 110325Z NIL=
BGCO 110325Z NIL=
BGGH 110320Z AUTO 10010KT 9999NDV BKN200/// M08/M16 Q0993=
BGJN 110320Z AUTO 10011KT 9999NDV BKN150/// M09/M21 Q0994=
BGKK 110320Z AUTO VRB08G21KT 9999NDV -SHSN FEW041/// M03/M09
     Q0991=
BGSF 110320Z AUTO 06008KT 9999NDV BKN200/// M16/M22 Q0996=

0000009700
343
SPUS31 KWBC 110325
SPECI
KSWF 110320Z 00000KT 1 1/4SM BR OVC003 00/00 A3027=

0000009700
344
SPUS41 KWBC 110325
SPECI
KINT 110321Z 05004KT 1 1/2SM BR OVC003 04/03 A3014=

0000010200
345
SPUS41 KWBC 110325
SPECI
KPSM 110318Z 00000KT 4SM BR BKN014 OVC049 M01/M02 A3030=

0000011900
346
SPUS41 KWBC 110325
SPECI
KWRI 110323Z AUTO 09002KT 1 3/4SM R06/2800FT -RA BR OVC003 03/03
A3022=

0000035700
347
SAFI34 EFHK 110320
EFET 110320Z AUTO 00000KT CAVOK M30/M33 Q1014=
EFIV 110320Z AUTO 24004KT 9999 OVC004 M29/M32 Q1016=
EFKE 110320Z AUTO 02012KT 360V060 CAVOK M15/M19 Q1009=
EFKI 110320Z AUTO 04010KT 9999 BKN018 M13/M16 Q1002=
EFKS 110320Z AUTO 02008KT 340V070 CAVOK M18/M21 Q1006=
EFKT 110320Z AUTO 36002KT CAVOK M24/M26 Q1013=

0000031900
348
FTCN35 CWAO 110300 AAA
TAF AMD CYTS 110326Z 1103/1114 17010KT P6SM -SN OVC008 TEMPO
     1103/1106 4SM -SN OVC012
    FM110600 14008KT 2SM -SN BR OVC010 TEMPO 1106/1113 1/2SM SN VV004
    FM111300 VRB03KT 3SM -SN BR OVC006 TEMPO 1113/1114 1SM -SN BR
     OVC003
    RMK NXT FCST BY 110800Z=

0000008800
349
SAAL31 DAAA 110300 RRB
METAR DAAT 110300Z 00000KT CAVOK 11/M04 Q1022=

0000008700
350
SAAF08 LFPW 110300 RRB
METAR GANR 110300Z 36002KT CAVOK 22/06 Q////=

0000010600
351
SAAF27 LFPW 110300 RRB
METAR FGBT 110300Z 11004KT 9999 FEW010 SCT100 26/24 Q1010 NOSIG=

0000008100
352
SAEA20 HKNC 110300 RRB
METAR HKKS 110300Z 09003KT CAVOK 15/12=

00000000