0000010900
073
UANT99 KDDL 110957
ARP THY34 5646N03308W 0956 F350 MS58 204/49 KT
TCJJH QXT AOW 110957 F34A
0000010600
074
SIAU40 AMMC 110900 CCD
AAXX 11094
95961 35/// /3122 10152 20123 30120 40161 55001=


0000035800
075
SAPK31 OPKC 111000
METAR OPGD 111000Z NIL=
METAR OPKC 111000Z NIL=
METAR OPLA 110955Z 28008KT 5000 HZ NSC 19/04 Q1019 NOSIG=
METAR OPNH 111000Z 36006KTS 4000M FU NSC 21/01 Q.1019=
METAR OPPS 111000Z NIL=
METAR OPRN 111000Z 27020KT 6000 SKC 17/M02 Q1020.1/30.12=
METAR OPSK 111000Z 36003KTS 6000 HZ SCT200  22/05 QNH.1019 RH.33 PC=
0000012200
076
SNRE15 FMEE 111000
AAXX 11104
61997 26/// /3422 10090 20089 39795 49969 56049
  333 60035 90710 91133=
0000011200
077
SNVF25 LFPW 111000
BBXX
BAREU51 11104 99419 10103 46/// ///// 10143 29084 40233 52010
22276=
0000011200
078
SNVF25 LFPW 111000
BBXX
BAREU71 11104 99383 70139 46/// /2013 10157 29067 40188 52005
22263=
0000015900
079
SIKN20 HKNC 110900 RRA
AAXX 11094
63772 42580 40812 10308 20215 84230 333 84826=
63793 42580 60612 10274 10204 40137 86200 333 59002 86823=
0000018800
080
UAPA01 KWBC 110957
ARP UAL1706 2517N 14531W 0946 F340 MS41 253/062KT=
ARP UAL825 2957N 14023W 0949 F370 MS48 270/060KT=
ARP AAL14 2347N 15322W 0951 F360 MS50 228/069KT=
0000009400
081
SANC01 NWWW 101830
METAR NWWW 101830Z AUTO 00000KT 9999 FEW062 21/14 Q1013=

0000010500
082
SAID31 WIII 101830
METAR WIII 101830Z 00000KT 5000 HZ SCT021 BKN100 25/23 Q1009 NOSIG=

0000024700
083
SABU31 LBSM 101830
METAR LBSF 101830Z 10004MPS 070V130 2500 BR FEW009 M01/M01 Q1021
    TEMPO 3000 BR=
METAR LBWN 101830Z 27009MPS CAVOK 09/03 Q1015 NOSIG=
METAR LBBG 101830Z 28003MPS 5000 BR NSC 05/04 Q1017 TEMPO 4000 BR=

0000008900
084
SAHU31 LHBM 101830
METAR LHBP 101830Z 25005KT CAVOK 03/01 Q1020 NOSIG=

0000009500
085
SAMT20 GQPP 101800
METAR GQPP 101800Z 25009KT 8000 FEW010 19/14 Q1014 NOSIG=

0000010600
086
SAFG20 SOCA 101830
METAR SOCA 101830Z AUTO 15004KT 130V190 9999 -RA ///TCU 24/22 Q1010=

0000009600
087
SPPR00 SPIM 101830
SPECI SPJR 101830Z 13006KT 9999 FEW023 BKN040 19/11 Q1024=

0000025400
088
SADL36 EDZO 101820
METAR ETMN 101820Z 25013KT 9999 FEW016 SCT041 06/04 Q1012
      BLU+=
METAR ETNL 101820Z 26012KT 9999 BKN050 06/04 Q1010 RERA
      BLU=
METAR ETSI 101820Z AUTO 16002KT 9999 // ////// 01/00 Q1019
      ///=

0000009500
089
SALI20 GLRB 101830
METAR GLRB 101830Z 25005KT 9999 SCT016 28/25 Q1009 NOSIG=

0000007700
090
FCFR23 LFPW 101700 AAA
TAF AMD LFOE 101826Z 1018/1103 CNL=

0000071700
091
SANL33 EHDB 101825
METAR EHAK 101825Z AUTO 23022KT 9999 NSC 07/05 Q1007=
METAR EHDV 101825Z AUTO 23018KT 9999 FEW010/// 08/06 Q1009=
METAR EHFD 101825Z AUTO 24027KT 9999 FEW006/// 07/06 Q1008=
METAR EHFZ 101825Z AUTO 22020KT //// // ///////// 07/06 Q1011 RE//=
METAR EHJA 101825Z AUTO 22022KT 9999 NSC 07/05 Q1010=
METAR EHJR 101825Z NIL=
METAR EHKV 101825Z AUTO 24023KT 9999 FEW014/// 09/06 Q1012=
METAR EHMA 101825Z AUTO 22014KT 9999 NSC 07/05 Q1012=
METAR EHMG 101825Z AUTO 24022KT 9999 FEW017/// 08/05 Q1011=
METAR EHPG 101825Z AUTO ///19KT 9999 NSC 10/07 Q1013=
METAR EHQE 101825Z AUTO 23022KT 9999 FEW016/// 09/06 Q////=
METAR EHSA 101825Z NIL=
METAR EHSC 101825Z NIL=

0000161600
092
SPUS70 KWBC 101828
SPECI
KCVG 101824Z 15011KT 1SM BR OVC003 08/07 A3006 RMK AO2 SFC VIS
     3=
KDUJ 101824Z AUTO 13003KT 1 1/2SM BR OVC003 02/00 A3018 RMK
     AO2=
KFOE 101824Z 15006KT 2SM R31/4500VP6000FT BR OVC002 03/02 A2957
     RMK AO2 T00330022=
KIOW 101824Z AUTO 13007KT 1SM BR OVC002 01/01 A2972 RMK AO2=
KLNR 101824Z AUTO 13006KT 4SM BR OVC007 00/M02 A2977 RMK AO2
     T00001017=
KMIC 101824Z 16010KT 2 1/2SM BR OVC007 M03/M04 A2965 RMK AO2=
KMPO 101824Z AUTO 24007KT 9SM OVC007 01/M01 A3028 RMK AO2
     T00111011=
KMTO 101825Z AUTO 15012KT 2 1/2SM -RA OVC009 03/M01 A2987 RMK AO2
     RAB15 CIG 006V011 P0002 T00331011 TSNO=
KPPF 101824Z AUTO 21012KT 8SM OVC006 09/08 A2962 RMK AO2 CIG
     004V010 T00940083=
KSBM 101824Z AUTO 18010KT 7SM OVC005 M01/M02 A2987 RMK AO2 CIG
     004V008 T10111022=
KCAG 101825Z AUTO 07003KT 2 1/2SM -SN BR SCT027 OVC036 M07/M09
     A2990 RMK AO2 P0000 T10671089=
KLWC 101825Z AUTO 14003KT 3SM BR OVC003 04/03 A2959 RMK AO2 CIG
     001V008 T00440033=
KMKL 101825Z 18008KT 10SM OVC010 10/07 A2998 RMK AO2 CIG
     009V013=
KMKO 101825Z AUTO 14013G16KT 2 1/2SM -RA BR OVC003 10/09 A2968 RMK
     AO2 RAB16 PRESFR P0000=
KSGJ 101825Z 15018KT 10SM BKN006 BKN015 22/19 A3013 RMK AO2 CIG
     005V011=
PAJZ 101829Z AUTO 00000KT 1 3/4SM BR OVC002 M06/M07 A2953 RMK AO2
     PWINO TSNO $=
KOWD 101825Z 00000KT 1 3/4SM UP BR BKN008 OVC019 00/M01 A3040 RMK
     AO2 UPB11SNE1754 P0001 T00001011=
KUUU 101825Z AUTO 00000KT 2 1/2SM -RA BR BKN015 OVC020 03/02 A3040
     RMK AO2 P0000 T00280017=

00000000