0000052200
693
SNDL49 EDZW 111000 RRA
AAXX 11101
10771 41120 81002 11008 21009 39686 40205 56003 71022 886//
  333 88702=
10837 41135 72101 10011 20008 39530 40200 53003 72842 81631
  333 81703 85360=
10853 41118 79901 11009 21011 39724 40205 53001 71022 85630
  333 85703 86360=
10856 46/65 /1702 10028 20022 39516 40195 5/002=
10857 42989 72201 10048 20027 39442 40189 53003 83038
  333 83359 87271=
10860 46/57 /1301 11005 21006 39749 40203 5/000=
10954 46/// /2202 10028 20025 39292 48472 5/002=
0000015700
694
SSVX13 LFPW 111000
ZZYY 44610 11014 1000/ 750338 040761 6113/ 11119 40090 52011 22219
 00098 444 20130 11014 0759/ 50101 80150 80002 9/015=
0000011000
695
UANT01 CWAO 111004
ARP AFR439 5504N03804W 1004 F370 MS59 266/26 KT
FGITJ QXT AOW 111004 F11A
0000010000
696
SNAA14 EGRR 110800 RRA
AAXX 11084
89013 46/// /0308 11172 21197 37720 49748 52014=
0000016300
697
SSVX13 LFPW 111000
ZZYY 13593 11014 1000/ 738169 018520 6113/ 22219 00169 33300 88872
 20000 43624 444 20130 11014 0956/ 50101 80118 80035 9/015=
0000015700
698
SSVX13 LFPW 111000
ZZYY 62508 11014 1000/ 745919 006073 6113/ 11119 40215 52021 22219
 00130 444 20130 11014 0955/ 50101 80104 80031 9/015=
0000015700
699
SSVX13 LFPW 111000
ZZYY 62507 11014 1000/ 747363 011730 6113/ 11119 40169 57002 22219
 00119 444 20130 11014 0956/ 50101 80104 80031 9/015=
0000040300
700
SAGU31 MGGT 111000
METAR
METAR MGMM 111000Z 00000KT CAVOK 19/18 Q1015 A2997=
METAR MGHT 111000Z 00000KT CAVOK 06/05 QFE 816.3=
METAR MGPB 111000Z 00000KT 9999 SCT016 BKN080 22/21 Q1013 A2991=
METAR MGGT 111000Z 36004KT 9999 FEW014 14/13 Q1024 A3024 VOL. PACAYA
CON VA A 9000FT CON DIRECCION S-SSW A UNA DISTANCIA DE 6-10KM=
METAR MGSJ 111000Z 00000KT CAVOK 21/20 Q1012 A2988=
0000397900
701
SAIR78 OIII 111000
METAR AZUH 111000Z 36004KT 2500 HZ OVC025 M07/M10 Q1022=
METAR KHME 110950Z 00000KT CAVOK 09/M08 Q1020=
METAR OIAA 111000Z 27008KT 4000 BR SCT040 BKN100 14/10 Q1017=
METAR OIAG 110952Z 14010KT 4000 SHRA SCT030TCU BKN035 12/11 Q1018=
 METAR OIAH 111000Z 00000KT 4000 RA FEW030CB SCT040 OVC070 08/07
 Q1017=
 METAR OIAI 111000Z 24006KT 9999 SCT030CB SCT035 OVC070 11/09
 Q1019=
METAR OIAM 111000Z 12010KT 9999 BKN030CB SCT035 12/11 Q1017=
METAR OIAW 111000Z 12010KT 9999 FEW025CB SCT025 BKN080 14/10 Q1016=
 METAR OIBA 111000Z 12010KT 5000 FEW025CB FEW030 OVC090 21/12
 Q1018=
 METAR OIBB 111000Z 12008KT 8000 TSRA FEW030CB SCT035 OVC080 12/10
 Q1017 A3004=
 METAR OIBK 111000Z 07008KT 6000 -RA FEW030CB SCT025 OVC080 15/13
 Q1019=
 METAR OIBL 111000Z 35012KT 3000 RA FEW020CB SCT025 OVC080 14/12
 Q1019=
METAR OIBS 111000Z 06020KT 9999 SCT035 OVC100 20/15 Q1019=
 METAR OICC 111000Z 13006KT 0800 SN FEW035CB SCT040 OVC060 M01/M01
 Q1019 A3010 TEMPO SN=
 METAR OICI 111000Z 00000KT 8000 -RA FEW015 FEW025CB SCT035 OVC090
 03/03 Q1016 A3002=
METAR OICJ NIL=
 METAR OICK 110950Z 00000KT 9999 FEW010 FEW030CB BKN035 OVC080
 03/03 Q1019 RERA=
 METAR OICS 111000Z 03006KT 6000 FEW030 SCT035 BKN080 01/M04 Q1018=
METAR OIFK 111000Z 33004KT 4000 -SN BKN020 OVC070 01/00 Q1023=
 METAR OIFM 111000Z 06004KT 2000 HZ SCT040 OVC100 02/M03 Q1018
 A3006=
 METAR OIFS 111000Z 00000KT 4000 BR FEW025CB SCT030 BKN080 M02/M05
 Q1018=
METAR OIGG 111000Z 32004KT 3000 BR SCT025 BKN100 10/07
Q1014=
METAR OIGK 110950Z 34006KT 9999 FEW035 BKN150 M02/M07 Q1017=
METAR OIHH 111000Z 00000KT 2000 BR BKN035 SCT090 M03/M06
Q1018=
METAR OIHM 111000Z 31010KT 0500 +SN SCT035 OVC080 M02/M03 Q1017=
 METAR OIIE 111000Z 21006KT 2600 -SHSN BR FEW025 SCT035CB SCT045
 OVC080 01/M00 Q1020 A3014 NOSIG=
 METAR OIII 111000Z 19006KT 0800 +SN SCT025 OVC080 01/M01 Q1019
 A3010 TEMPO 0800 SN FEW035CB SCT030 BKN100 TEMPO 0800 SN FEW035CB SCT030 BKN100=
 METAR OIIK 111000Z 000Z 14006KT 5000 HZ FEW035CB SCT040 OVC090
 01/M03 Q1020=
METAR OIIS 111000Z 27008KT 5000 -SN SCT030 OVC080 04/M04 Q1020=
 METAR OIKB 111000Z 06010KT 7000 -RA FEW025CB SCT030 OVC090 16/06
 Q1020 A3013 NOSIG=
METAR OIKK 111000Z 00000KT 9999 SCT035 OVC100 04/M04 Q1019 A3010=
 METAR OIKO 110950Z 30008KT 7000 FEW020 FEW025CB SCT080 17/02
 Q1021=
 METAR OIKQ 111000Z 34010KT 8000 -RA FEW025CB SCT030 SCT090 14/08
 Q1020=
METAR OIMB 111000Z 08006KT 9999 FEW040 SCT100 BKN190 07/M14 Q1019=
METAR OIMC 111000Z 12010KT 9999 FEW040 BKN170 14/M07 Q1018=
METAR OIMD 111000Z 09006KT CAVOK 07/M04 Q1016=
METAR OIMM 111000Z 07004KT 9999 FEW040 BKN170 10/M11 Q1018 A3008=
METAR OIMN 111000Z 00000KT CAVOK 09/M09 Q1017 A3004=
METAR OINB 111000Z 00000KT CAVOK 11/07 Q1015=
METAR OING 111000Z 27008KT 5000 HZ SCT030 BKN090 12/07 Q1016=
METAR OINN 111000Z 09004KT CAVOK 11/10 Q1014=
METAR OINR 111000Z 12004KT 8000 FEW045 OVC160 11/07 Q1014=
METAR OISA 110950Z 00000KT 9999 SCT040TCU FEW200 08/M01 Q1017=
METAR OISF 110950Z 00000KT 9999 FEW030CB SCT035 OVC090 08/02 Q1019=
 METAR OISL 111000Z 00000KT 9999 FEW025 FEW035CB OVC090 08/04
 Q1020=
 METAR OISS 111000Z 00000KT 1500-RA FEW030CB SCT035 OVC070 03/02
 Q1020 A3012=
 METAR OISY 111000Z 00000KT 0500 RA FEW030CB SCT035 OVC070 01/01
 Q1019=
 METAR OITR 111000Z 12004KT 2000 HZ SCT035 BKN170 M05/M09 Q1019
 NOSIG=
 METAR OITT 111000Z 00000KT 6000 FEW035 BKN180 M04/M10 Q1021 A3015=
METAR OITU 110950Z 00000KT 3000 BR SKC M12/M12 Q1021=
METAR OIYY 111000Z 33004KT 8000 FEW035 09/M03 Q1018=
METAR OIZB 111000Z 09008KT CAVOK 10/M02 Q1023=
METAR OIZC NIL=
 METAR OIZH 111000Z 11010KT 9999 VCRA SCT035 FEW040CB BKN090 07/M07
 Q1020 A3013 TEMPO SHRA=
METAR OIZI 111000Z 13006KT 9999 FEW020 OVC090 15/M05 Q1021=
METAR OIZJ 111000Z 11004KT CAVOK 20/06 Q1020=
METAR YAYT 110950Z 32004KT 9999 FEW040 SCT100 BKN200 09/M04 Q1020=
0000034600
702
SAIQ01 ORBI 111000
METAR ORBI 111000Z 13004KT 2100 OVC030 10/08 Q1017 NOSIG=
METAR ORMM 111000Z 29012KT 6000 BR SCT040 OVC100 13/12 Q1017 NOSIG=
METAR ORNI 111000Z 26016KT 7000 OVC025 10/09 Q1017 NOSIG=
METAR ORBM 111000Z VRB03KT 7000 NSC 13/05 Q1019 NOSIG=
METAR ORER 111000Z VRB02KT 9000 SCT030 OVC090 09/06 Q1017 NOSIG=
0000005200
703
RRIN23 VIDP 111005
RQRPT 352-393=

0000012200
704
SACN62 CYRA 102000
METAR CYRA 102000Z 21002KT 6SM -SN BKN035 BKN080 M25/M28 A2952 RMK
 SC5AC2 SLP027=

0000010400
705
SACN62 CYSN 102000
METAR CYSN 102000Z 18003KT 12SM OVC021 04/01 A3014 RMK SC8 SLP210=

0000011400
706
SACN62 CYRL 102000
METAR CYRL 102000Z 15007KT 4SM BR OVC006 M07/M08 A2943 RMK FG2SC6
 SLP993=

0000066400
707
SAZA31 FAPR 102000
METAR FABL 102000Z NIL=
METAR FACT 102000Z 17015KT 9999 FEW035 18/13 Q1018 NOSIG=
METAR FAGG 102000Z AUTO VRB02KT 9999 FEW039 16/12 Q1020=
METAR FALA 102000Z 19005KT CAVOK 24/11 Q1018 NOSIG=
METAR FALE 102000Z 20007KT 9999 SCT030 23/20 Q1015 NOSIG=
METAR FAMM 102000Z AUTO 22005KT //// // ////// 24/06 Q1017=
METAR FAOR 102000Z 18006KT 140V220 CAVOK 23/10 Q1020 NOSIG=
METAR FAPE 102000Z 24018KT 9999 FEW018 19/15 Q1017 NOSIG=
METAR FAPN 102000Z AUTO 22006KT //// // ////// 28/02 Q1014=
METAR FAPP 102000Z AUTO 05003KT //// // ////// 22/16 Q1016=
METAR FAUP 102000Z AUTO 24003KT //// // ////// 24/05 Q1015=

0000012000
708
SACN61 CYTL 102000
METAR CYTL 102000Z AUTO 18003KT 8SM -SN FEW011 OVC023 M07/M09 A2953
 RMK SLP019=

0000011300
709
SACN62 CYUL 102000
METAR CYUL 102000Z 01006KT 10SM -SN OVC018 M06/M09 A3028 RMK SC8
 SLP255=

0000011600
710
SACN62 CYTE 102000
METAR CYTE 102000Z 28014KT 15SM BKN013 M22/M25 A2927 RMK SC6 PRESRR
 SLP916=

0000012300
711
SACN62 CYVC 102000
METAR CYVC 102000Z 23003KT 10SM -SN BKN008 OVC012 M06/M07 A2931 RMK
 SC6SC2 SLP951=

0000022100
712
FCHU41 LHBM 102000
TAF LHKE 101945Z 1021/1106 24003MPS CAVOK
    TEMPO 1100/1106 VRB02MPS 5000 BR MIFG NSC=
TAF LHSN 101945Z 1021/1106 24003MPS CAVOK
    TEMPO 1100/1106 VRB02MPS 5000 BR MIFG NSC=

00000000