0000011400
253
SACN61 CYZY 101700
METAR CYZY 101700Z AUTO 13003KT 110V210 9SM CLR M13/M14 A2956 RMK
 SLP054=

0000011100
254
SACN62 CYYZ 101700
METAR CYYZ 101700Z 17004KT 2SM BR OVC003 M01/M02 A3019 RMK ST8
 SLP234=

0000011700
255
SACN62 CYZT 101700
METAR CYZT 101700Z 19004KT 15SM BKN042 OVC160 05/03 A2993 RMK SC5AC3
 SLP135=

0000012900
256
SACN62 CZFA 101700
METAR CZFA 101700Z 29006KT 30SM FEW050 SCT063 BKN100 M11/M13 A2928
 RMK SC2SC2AC2 SLP968=

0000270300
257
SPUS70 KWBC 101704
SPECI
KABY 101700Z 03003KT 2 1/2SM BR OVC004 12/12 A3020 RMK AO2=
KBAF 101701Z 00000KT 1SM R20/4500VP6000FT -SN OVC020 M03/M06 A3042
     RMK AO2 P0000 T10331061=
KBHM 101700Z VRB03KT 3SM BR OVC005 08/07 A3018 RMK AO2=
KBLF 101700Z AUTO 00000KT M1/4SM HZ BKN002 OVC024 08/06 A3025 RMK
     AO2=
KCUB 101700Z AUTO 04003KT 4SM -RA BR OVC004 11/10 A3024 RMK AO2
     P0000 T01060100 TSNO=
KGPT 101700Z 08005KT 9SM OVC006 15/12 A3011 RMK AO2 T01500122=
KGSH 101700Z AUTO 16008KT 2 1/2SM BR OVC006 02/01 A3004 RMK
     AO2=
KHJO 101700Z AUTO 13003KT 2 1/2SM BR CLR 05/04 A3029 RMK AO2
     T00500044=
KLCH 101700Z 14013KT 8SM BR OVC004 16/15 A3001 RMK AO2
     T01560150=
KMLB 101700Z 11006KT 8SM SCT012 SCT030 24/22 A3015 RMK AO2=
KOGB 101700Z AUTO 00000KT 10SM SCT019 BKN032 OVC100 14/12 A3022
     RMK AO2 T01390117 TSNO=
KPDK 101700Z VRB04KT 2SM BR OVC004 07/06 A3022 RMK AO2=
KRSL 101701Z AUTO 27008KT 5SM BR BKN004 BKN010 OVC016 01/01 A2963
     RMK AO2 CIG 002V007 T00110006=
KRWL 101700Z AUTO 26021G29KT 10SM SCT017 BKN120 M06/M10 A2976 RMK
     AO2 PK WND 25027/1654=
KSLK 101700Z AUTO 21010KT 1 1/4SM -SN BR FEW009 BKN029 OVC038
     M04/M06 A3020 RMK AO2 P0000=
KTOP 101700Z 12006KT 3/4SM BR BKN002 OVC006 03/02 A2967 RMK AO2
     T00280017=
KAOH 101701Z AUTO 17010KT 4SM BR BKN005 BKN021 OVC055 03/02 A3012
     RMK AO2 PNO $=
KCEC 101701Z AUTO 15008KT 1SM BR OVC002 09/09 A3027 RMK AO2
     T00940089=
KDEC 101701Z 16012KT 2 1/2SM -RA BR OVC007 03/01 A2994 RMK AO2 CIG
     004V009 P0000=
KFCI 101702Z AUTO 35004KT 2SM OVC004 03/M03 A3038 RMK AO1=
KFFC 101701Z AUTO 08004KT 1 3/4SM BR OVC005 08/07 A3021 RMK AO2
     PRESFR T00780067=
KFSM 101701Z 03005KT 2 1/2SM -RA BR SCT002 OVC023 06/05 A2983 RMK
     AO2 P0001=
KGED 101701Z AUTO 05004KT 1SM -RA BR BKN003 OVC022 03/02 A3040 RMK
     AO2 P0001 T00280017=
KGVL 101701Z AUTO 07008KT 1 3/4SM BR OVC003 08/07 A3024 RMK AO2
     RAE1659 P0000=
KLGB 101701Z 00000KT 3SM HZ CLR 11/08 A3013 RMK AO2=
KMIW 101701Z AUTO 14013KT 2 1/2SM BR OVC003 M01/M01 A2973 RMK AO2
     I1001 T10061006 TSNO=
KORE 101701Z AUTO 00000KT 8SM OVC011 M03/M04 A3040 RMK AO2 SNE1658
     P0000 T10281044=
KRKP 101701Z AUTO 19005KT 6SM HZ FEW006 BKN038 OVC050 28/19 A2993
     RMK AO2=
KROG 101701Z 25006KT 6SM +RA BR SCT005 BKN014 OVC038 09/09 A2980
     RMK AO2 P0002=
KTDZ 101701Z AUTO 18009KT 5SM BR FEW009 OVC014 02/01 A3015 RMK AO2
     TSNO=
KUGN 101701Z 15009KT 1 3/4SM BR OVC004 M01/M01 A2995 RMK AO2=
PAHC 101701Z AUTO 36010KT 1 3/4SM -SN BKN005 BKN012 OVC024 M14/M17
     A2956 RMK AO2 TSNO CIG 003V007 P0000 $=

0000013500
258
SACN62 CYKA 101700
METAR CYKA 101700Z VRB02KT 30SM FEW015 BKN064 OVC110 01/M02 A2983 RMK
 SF2SC5AC1 PRESRR SLP115=

0000013500
259
SACN62 CYLJ 101700
METAR CYLJ 101700Z 26006KT 15SM FEW015 SCT070 SCT250 M09/M11 A2936
 RMK SC1AC2CI1 CI TR SLP973=

0000019000
260
SAAY31 RUMS 101700
METAR UDYZ 101700Z 00000MPS 2300 BR BKN011 M09/M11 Q1029 R09/000070
NOSIG=
METAR UDSG 101700Z 05002MPS 3200 BR NSC M18/M20 Q1023 R02/CLRD70
NOSIG=

0000012900
261
SACN62 CYKY 101700
METAR CYKY 101700Z 19005KT 15SM FEW070 FEW120 BKN240 M13/M15 A2942
 RMK AC1AC1CI4 SLP009=

0000022400
262
SAKY31 RUMS 101700
METAR UCFM 101700Z 10002MPS 1500 R08/P2000 FU SKC M11/M16 Q1029
R08/CLRD70 TEMPO 1000 FU=
METAR UCFO 101700Z 17003MPS 2300 BR FU NSC M06/M09 Q1029 R12/CLRD70
TEMPO 0500 FZFG VV002=

0000011300
263
SACN62 CYMA 101700
METAR CYMA 101700Z 24003KT 10SM -SN OVC030 M17/M19 A2937 RMK SC8
 SLP994=

0000012700
264
SACN61 CYGV 101700
METAR CYGV 101700Z AUTO 28013KT 9SM -SN FEW021 BKN060 BKN140 M10/M13
 A3007 RMK SLP187=

0000098000
265
SAKZ31 RUMS 101700
METAR UAAA 101700Z 17002MPS 0300 R23R/1900N R23L/0900U BR FU FEW200
M14/M16 Q1030 8891//60 NOSIG=
METAR UACC 101700Z 19006MPS 9999 -SN DRSN BKN011 OVC032 M13/M16 Q1027
R22/8/0055 NOSIG RMK QFE739/0985=
METAR UAKK 101700Z 18009MPS CAVOK M14/M17 Q1028 R23/850555 NOSIG RMK
QFE724/0965=
METAR UAOO 101700Z 17006MPS 5000 BR BKN160 M04/M06 Q1027 NOSIG RMK
QFE758/1011=
METAR UARR 101700Z 29003MPS 9999 BKN008 OVC020 01/00 Q1009 R22/650340
TEMPO 2000 BR BKN004 RMK QFE753/1005=
METAR UATE 101700Z 20001MPS 5000 NSC 02/02 Q1021 R30/0///70 BECMG
1000 BR SCT003 RMK QFE764/1019=
METAR UATG 101700Z 28007MPS 5000 BR OVC016 02/02 Q1016 R32/19//65
NOSIG RMK QFE764/1019=
METAR UATT 101700Z 18005MPS 9999 -SN BKN007 OVC019 M00/M01 Q1009
R13/491040 TEMPO 0500 FZDZ FZFG VV002 RMK QFE737/0983=
METAR UAUU 101700Z 17009MPS 4100 -SHSN BLSN BKN009 OVC030CB M08/M10
Q1015 TEMPO 19012MPS 1000 SHSN BLSN BKN005CB RMK QFE745/0994=

0000011000
266
UANT99 KDDL 110504
ARP UAL36 5149N03625W 0504 F370 MS56 221/22 KT
N21108 DDL IG1 110505 F75A
0000040600
267
SXXX32 EUMS 110500
262D700E
:PRS 1 /1 2657 2668 2668 2708 2674 2710 2730 2724 2710 2656 2669 2668 2702 2762 2771 2748 2794 2772 2777 2806 2786 2772 2829 2757 2831 2780 2757 2778 2824 2811 :RAD 1 /3 5154 5169 5176 5196 5217 5224 5226 5240 5263 5283 5295 5308 5328 5346 5347 :ENC 5 /5 5261 5274 5330 5324 5350 5394 5401 5458 5440 5485 5497 5546 :SW1 60 /60 0 :BAT 14 /15 13.7 :NAME 262D700E
0000045500
268
SXXX32 EUMS 110500 RRA
324DF524
:PRS 1 /1 3728 3720 3713 3705 3697 3690 3682 3674 3667 3659 3651 3643 3635 3626 3618 3610 3601 3593 3584 3576 3567 3558 3549 3539 3531 3522 3513 3505 3495 3487 :RAD 1 /3 3726 3704 3681 3659 3633 3606 3580 3551 3524 3497 3468 3439 3411 3382 3353 3326 3299 3269 3239 3209 :ENC 5 /5 2654 2615 2573 2529 2483 2437 2393 2348 2302 2255 2206 2155 :SW1 60 /60 0 0 :SW2 30 /60 60 60 :BAT 14 /15 13.4 :NAME 324DF524
0000005200
269
RRIN23 VIDP 110506
RQRPT 840-861=

0000005200
270
RRIN23 VIDP 110506
RQRPT 960-981=

0000005200
271
RRIN23 VIDP 110506
RQRPT 060-101=

0000008200
272
SAIN90 VECC 110500
METAR VECO 110500Z 00000KT 5000 HZ 17/12 Q1018=
00000000