0000033800
373
FTUS44 KWBC 110251 AAA
TAF AMD
KHQM 110249Z 1103/1124 15015G28KT 3SM -RA BKN012 OVC020
      TEMPO 1103/1105 2SM +RA BR OVC008
     FM110500 18026G38KT 3SM RA BR OVC015
     FM110800 18030G45KT 5SM -RA BR OVC015
     FM111200 20022G35KT 5SM -RA BR BKN020 OVC050
     FM111800 22030G45KT 4SM -SHRA BR OVC015=

0000026600
374
FTUS73 KWBC 110251 AAA
TAF AMD
KBRL 110248Z 1103/1124 23005KT 1SM -RA BR OVC004
      TEMPO 1103/1107 1/4SM -DZ FG OVC002
     FM110700 28007KT 2SM -SN BR OVC004
     FM111400 28011KT 4SM BR VCSH OVC006
     FM111900 29012KT P6SM OVC020=

0000022500
375
FTUS72 KWBC 110251 AAA
TAF AMD
KABY 110249Z 1103/1124 11004KT 1/4SM FG OVC002
     FM111400 18010KT 2SM RA BR OVC004
     FM111800 24011KT 2SM TSRA OVC012CB
     FM112100 27015KT P6SM SCT025 BKN050=

0000028500
376
FTUS73 KWBC 110251
TAF
TAF AMD KRFD 110246Z 1103/1124 18010G18KT 3SM -RA BR OVC004
     FM110400 18012KT 1 1/2SM -DZ BR VCSH OVC004
      TEMPO 1104/1107 1/2SM FG OVC002
     FM110900 26012G18KT P6SM VCSH BKN007 OVC012
     FM111700 27013G21KT P6SM SCT015=

0000033800
377
FTUS74 KWBC 110251 AAA
TAF AMD
KHQM 110249Z 1103/1124 15015G28KT 3SM -RA BKN012 OVC020
      TEMPO 1103/1105 2SM +RA BR OVC008
     FM110500 18026G38KT 3SM RA BR OVC015
     FM110800 18030G45KT 5SM -RA BR OVC015
     FM111200 20022G35KT 5SM -RA BR BKN020 OVC050
     FM111800 22030G45KT 4SM -SHRA BR OVC015=

0000009600
378
SAUS74 KWBC 110200 RRE
METAR
KIWA 110247Z 13004KT 20SM FEW250 12/M01 A3011=

0000011800
379
SABW31 VGHS 110250
METAR VGHS 110250Z 00000KT 0800 FG BKN004 15/13 Q1016 BECMG S/VIS
      1000M=

0000020500
380
FTCA31 KWBC 110251
TAF
TAF MWCB 110300Z 1109/1206 11005KT 9999 FEW018
      BECMG 1112/1114 10012KT=
TAF MWCR 110300Z 1109/1206 11005KT 9999 FEW018
      BECMG 1112/1114 10012KT=

0000022500
381
FTUS52 KWBC 110251 AAA
TAF AMD
KABY 110249Z 1103/1124 11004KT 1/4SM FG OVC002
     FM111400 18010KT 2SM RA BR OVC004
     FM111800 24011KT 2SM TSRA OVC012CB
     FM112100 27015KT P6SM SCT025 BKN050=

0000026600
382
FTUS53 KWBC 110251 AAA
TAF AMD
KBRL 110248Z 1103/1124 23005KT 1SM -RA BR OVC004
      TEMPO 1103/1107 1/4SM -DZ FG OVC002
     FM110700 28007KT 2SM -SN BR OVC004
     FM111400 28011KT 4SM BR VCSH OVC006
     FM111900 29012KT P6SM OVC020=

0000028500
383
FTUS53 KWBC 110251
TAF
TAF AMD KRFD 110246Z 1103/1124 18010G18KT 3SM -RA BR OVC004
     FM110400 18012KT 1 1/2SM -DZ BR VCSH OVC004
      TEMPO 1104/1107 1/2SM FG OVC002
     FM110900 26012G18KT P6SM VCSH BKN007 OVC012
     FM111700 27013G21KT P6SM SCT015=

0000028500
384
FTUS80 KWBC 110251
TAF
TAF AMD KRFD 110246Z 1103/1124 18010G18KT 3SM -RA BR OVC004
     FM110400 18012KT 1 1/2SM -DZ BR VCSH OVC004
      TEMPO 1104/1107 1/2SM FG OVC002
     FM110900 26012G18KT P6SM VCSH BKN007 OVC012
     FM111700 27013G21KT P6SM SCT015=

0000073100
385
FTUS80 KWBC 110251 AAA
TAF AMD
KABY 110249Z 1103/1124 11004KT 1/4SM FG OVC002
     FM111400 18010KT 2SM RA BR OVC004
     FM111800 24011KT 2SM TSRA OVC012CB
     FM112100 27015KT P6SM SCT025 BKN050=
KBRL 110248Z 1103/1124 23005KT 1SM -RA BR OVC004
      TEMPO 1103/1107 1/4SM -DZ FG OVC002
     FM110700 28007KT 2SM -SN BR OVC004
     FM111400 28011KT 4SM BR VCSH OVC006
     FM111900 29012KT P6SM OVC020=
KHQM 110249Z 1103/1124 15015G28KT 3SM -RA BKN012 OVC020
      TEMPO 1103/1105 2SM +RA BR OVC008
     FM110500 18026G38KT 3SM RA BR OVC015
     FM110800 18030G45KT 5SM -RA BR OVC015
     FM111200 20022G35KT 5SM -RA BR BKN020 OVC050
     FM111800 22030G45KT 4SM -SHRA BR OVC015=

0000011200
386
SPUS41 KWBC 110251
SPECI
KDOV 110248Z AUTO 04004KT 3/4SM R01/2600FT -RA BR CLR 04/04 A3022=

0000009800
387
SPUS42 KWBC 110251
SPECI
KSHV 110247Z 22005KT 10SM SCT010 OVC015 17/16 A2977=

0000012700
388
SALT31 EYVI 110250
METAR EYVI 110250Z 29014KT 7000 -SNRA SCT006 OVC017 01/M01 Q1001
     R20/2/0295 NOSIG=

0000009500
389
SAIS32 LLBG 110250
METAR LLBG 110250Z VRB03KT 9999 BKN050 12/10 Q1021 NOSIG=

0000011500
390
FTTU31 LTAA 102300 AAA
TAF AMD LTBA 110249Z 1102/1206 VRB02KT CAVOK PROB30 1105/1107 4000
 BR=

0000016500
391
SAIS31 LLBG 110250
METAR LLET 110250Z NIL=
METAR LLHA 110250Z NIL=
METAR LLIB 110250Z NIL=
METAR LLOV 110250Z NIL=
METAR LLSD 110250Z NIL=

0000034300
392
SASW31 LSSW 110250
METAR LSZH 110250Z 02001KT 0400 R14/0750N R16/0700N R28/0550N
    R34/0550N FG VV001 02/02 Q1018 NOSIG=
METAR LSGG 110250Z 00000KT CAVOK 01/00 Q1018 NOSIG=
METAR LSZB 110250Z AUTO VRB01KT 1900 R14/1000U BR SCT003 BKN180
    M01/M01 Q1018=
METAR LSZA 110250Z AUTO VRB01KT 9999 OVC044 07/06 Q1021=

00000000