0000197500
113
SNDL23 EDZW 110400
AAXX 11041
10609 47000 81201 11003 21003 39843 40183 58007 73533
  333 55300 20000 30000 88/00=
10616 41470 11702 10000 20000 39569 40185 56009 74000 81500
  333 55300 81610=
10641 47937 01401 11013 21017 30035 40188 58008 71000
  333 55300=
10655 42959 01601 11004 21006 39851 40190 58009
  333 55300 20000 30000=
10675 47950 71703 11011 21011 39897 40199 58008 71000
  333 55300 20000 30000 87/80=
10688 47956 01702 11004 21008 39667 40206 58004 71000
  333 55300 20000 30000=
10708 42980 70402 10004 20001 39789 40186 57008 8707/
  333 55300 20000 30000 84360 86362=
10729 45966 02101 11015 21019 30059 40186 57011
  333 55300 20000 30000=
10731 45968 80000 11014 21015 30033 40182 56010
  333 55300 20000 30000 88/62 88/66 88/70=
10742 47957 10702 11005 21008 39853 40196 58008 71000
  333 55300 20000 30000 81/80=
10776 47001 81702 11013 21015 39753 40213 58005 73533
  333 55300 20000 30000 88/00=
10791 46/// /2409 11042 21045 38526 48470 58002
  333 55300=
10805 47867 82701 10014 20014 39992 40188 55007 72363
  333 55300 20000 30000 81/57 87/61 88/62=
10815 45983 82103 10021 20015 39235 48465 56008
  333 4/001 55300 20000 30000 85/59 87/63 88/70=
10836 45988 01902 10015 21003 39308 40193 58009
  333 4/001 55300 20000 30000=
10870 41959 23601 11031 21031 39660 40217 58007 74144 80001
  333 55300 82077=
10895 47950 01601 11002 21002 39630 40218 58001 71000
  333 55300 20000 30000=
10908 45960 82411 10049 20001 38484 48480 50000
  333 55300 20000 30000 88/59 91114 91212=
10929 47002 80201 10017 20017 39659 40203 58006 73033
  333 55300 20000 30000 88/00=
10948 47064 71901 10004 20004 39246 48477 58004 72030
  333 55300 20000 30000 81/00 87/68=
10961 46/// /3109 11059 21062 37075 47044 51003
  333 55300 20000 40853 91119 91211=
10962 42986 22104 10036 20018 39036 48479 58006 80001
  333 55300 20000 30000 82076 95120
  444 37071=
0000119000
114
SNDL44 EDZW 110400
AAXX 11041
10022 47345 82308 10069 20062 30076 40086 58011 71000
  333 55300 20000 30000 88/06 91113=
10028 47344 82311 10067 20059 30085 40098 58010 71000
  333 55300 20000 30000 88/08 91114 91211=
10033 NIL=
10037 NIL=
10038 NIL=
10042 47356 72408 10067 20054 30091 40095 58009 75150
  333 55300 87/08=
10067 NIL=
10093 NIL=
10097 45568 82411 10050 20032 30093 40107 50000
  222// 06046
  333 55300 81/21 88/36 91113 91211=
10126 NIL=
10129 47460 82209 10061 20051 30108 40121 58008 72250
  333 55300 20000 30000 88/10=
10130 47344 82310 10064 20054 30103 40109 58012 71000
  333 55300 88/09=
10136 NIL=
10139 47450 82305 10058 20047 30112 40126 58009 71000
  333 55300 20000 30000 88/11=
10142 46344 82304 10061 20049 30079 40110 58010
  333 55300 88/09=
10146 47450 82204 10060 20046 30105 40122 58008 72250
  333 55300 87/11 88/15=
10150 45463 42206 10060 20048 30076 40110 58008
  333 55300 20000 30000 83/10 84/64=
10152 47457 82206 10062 20050 30108 40110 58006 72250
  333 55300 87/13 88/19=
10156 47449 82103 10058 20043 30099 40120 58006 71000
  333 55300 20000 30000 87/13 88/18=
0000009200
115
SAIN90 VECC 110350
METAR VECC 110350Z 00000KT 1500 BR NSC 19/14 Q1017 NOSIG=
0000009900
116
SAIN90 VIBN 110330
METAR VIBN 110330Z 20002KT 0600 -RA SCT020 FEW030CB 16/15 Q1017=
0000153900
117
SNDL45 EDZW 110400
AAXX 11041
10161 47456 52207 10051 20036 30095 40115 58006 71000
  333 55300 20000 30000 82/19 85/72 85/77=
10168 47547 72305 10043 20034 30049 40122 58006 71000
  333 55300 84/28 87/69 87/71=
10172 NIL=
10180 45581 82407 10058 20034 30103 40108 58002
  333 55300 86/24 88/35=
10193 45464 62405 10047 20027 30120 40123 50000
  333 55300 20000 30000 81/15 86/39=
10210 47450 82105 10060 20045 30123 40132 58007 72365
  333 55300 20000 30000 88/10=
10235 47350 82204 10049 20034 30045 40140 58008 71000
  333 55300 20000 30000 88/08=
10238 NIL=
10246 NIL=
10249 47450 82304 10052 20035 30073 40130 58006 71000
  333 55300 20000 30000 87/12 88/29=
10253 47450 82304 10049 20034 30117 40139 58005 71000
  333 55300 87/14 88/64 88/66=
10261 42470 82404 10052 20034 30115 40144 58002 885//
  333 55300 20000 30000 88613=
10267 45462 82505 10051 20031 30092 40141 58002
  333 55300 88/12=
10268 46/// /2304 10043 20029 30038 40126 58003
  333 55300=
10281 465// 82404 10041 20027 30016 40131 50001
  333 55300 20000 30000 88/25=
10282 47457 52504 10031 20022 39989 40133 50000 71000
  333 55300 20000 30000 84/11 85/24=
10289 45/61 /2304 10033 20020 30064 40135 50001
  333 55300=
10304 NIL=
10305 463// 82104 10050 20031 30109 40141 58009
  333 55300 88/08=
10306 NIL=
10309 45358 82106 10040 20026 30092 40150 58008
  333 55300 20000 30000 88/09 88/58=
10312 45359 82205 10043 20028 30020 40149 57009
  333 55300 20000 30000 88/09=
0000175100
118
SNDL46 EDZW 110400
AAXX 11041
10321 47456 82105 10048 20037 30087 40140 58010 71000
  333 55300 20000 30000 87/10 88/56=
10325 45463 82203 10044 20023 39987 40155 58007
  333 55300 88/12=
10334 NIL=
10335 NIL=
10343 NIL=
10348 45572 82502 10037 20017 30044 40153 58005
  333 55300 20000 30000 41065 83/20 86/63 88/65=
10356 45966 72304 10026 20015 39955 40157 58005
  333 55300 85/63 87/67=
10359 45576 72302 10048 20025 30093 40153 58002
  333 55300 20000 30000 87/20 87/49=
10365 45774 71902 10039 20016 30110 40157 58004
  333 55300 20000 30000 82/50 85/66 87/69=
10368 45975 72204 10028 20010 39923 40155 58005
  333 55300 20000 30000 85/66 87/76=
10376 45580 72405 10042 20017 30087 40156 58002
  333 55300 82/27 87/43 87/66=
10385 42581 72305 10034 20011 30090 40153 58001 81538
  333 55300 20000 30000 81621 87276=
10396 45576 32404 10039 20016 30133 40149 50001
  333 55300 82/29 83/74=
10404 NIL=
10410 45974 01903 10025 20003 39978 40164 58008
  333 55300=
10418 45973 22403 10007 21003 39694 40173 56006
  333 55300 20000 30000 82/82=
10424 45978 02002 10024 20004 30053 40161 58009
  333 55300 20000 30000=
10433 45981 82204 10024 20007 39834 40153 58010
  333 55300 20000 30000 88/80=
10435 45964 02003 10015 20004 39873 40166 58007
  333 55300=
10441 45361 32301 10010 20002 39783 40175 58005
  333 55300 83/06=
10442 45782 81802 10050 20014 39978 40157 58006
  333 55300 20000 30000 81/56 88/62=
10444 45980 01803 10028 20009 39957 40166 57009
  333 55300 20000 30000=
10449 45975 02404 10020 20007 39735 40169 58006
  333 55300 20000 30000=
10452 45366 82102 10006 20003 39430 40166 58004
  333 55300 20000 30000 87/06 87/24 88/61=
0000156100
119
SNDL47 EDZW 110400
AAXX 11041
10454 45988 82203 10057 20007 39865 40157 58008
  333 55300 88/63=
10458 45981 82404 10016 20008 39666 40162 58006
  333 55300 20000 30000 88/62=
10460 45971 12103 10025 20010 39965 40171 58006
  333 55300 20000 30000 81/72=
10466 46/61 /1701 10026 20008 30050 40170 58007
  333 55300 20000 30000=
10471 45780 62003 10021 20006 30001 40173 58006
  333 55300 20000 30000 40953 82/50 85/70 86/74=
10474 45972 82302 10030 20014 30031 40163 58005
  333 55300 20000 30000 87/67 88/70=
10476 NIL=
10480 45974 82305 10027 20008 39979 40166 58006
  333 55300 20000 30000 84/79 88/80=
10490 45980 72203 10034 20011 30046 40168 58004
  333 55300 20000 30000 87/68=
10495 45981 82404 10035 20007 30021 40165 58004
  333 55300 88/66 88/71 88/73=
10500 NIL=
10502 NIL=
10516 NIL=
10519 45967 01502 10009 20001 39972 40172 58006
  333 55300=
10520 45459 82801 10005 20005 30083 40179 56005
  333 553// 88/14=
10526 47003 82003 10010 20010 39515 40179 56005 73030
  333 55300 20000 30000 88/00=
10534 47000 72204 10003 20003 39289 40183 58006 73033
  333 55300 87/00=
10537 47001 61606 10008 20008 39747 40181 58009 73030
  333 55300 86/00=
10540 45981 32305 10031 20006 39791 40176 58006
  333 55300 20000 30000 83/80=
10542 45958 01903 10013 20010 39844 40179 58006
  333 55300 20000 30000=
10552 47000 82206 11009 21009 39065 48450 58004 73533
  333 55300 88/00=
10557 41/04 92406 11001 21001 39166 48451 58003 74111
  333 55300 20000 30000 96210=
0000196900
120
SNDL48 EDZW 110400
AAXX 11041
10564 45967 72202 10012 20004 39573 40185 58006
  333 55300 83/80 87/80=
10565 45960 72203 10026 20002 39869 40172 58008
  333 55300 82/68 83/70 87/74=
10569 47956 01903 10005 21000 39711 40190 58007 71000
  333 55300 20000 30000=
10574 45276 62504 11008 21014 39117 48456 58007
  333 55300 81/05 85/72 86/79=
10577 45968 72205 10011 21002 39668 40183 58009
  333 55300 20000 30000 87/68=
10579 45/81 /2303 10003 21020 39413 40189 58006
  333 55300=
10582 45476 12404 11014 21018 39130 48448 58004
  333 55300 20000 30000 81/18=
10591 45684 32002 10026 21007 39790 40183 58003
  333 55300 83/36=
10613 NIL=
10615 45968 31601 10013 20007 39591 40179 57008
  333 55300 20000 30000 82/58 83/68=
10618 NIL=
10628 45964 03502 11008 21013 30047 40188 58008
  333 55300=
10635 45966 02204 10003 20003 39191 48449 58007
  333 55300 20000 30000=
10646 47001 82001 11028 21028 39772 40199 58006 73533
  333 4/001 55300 88/00=
10648 45974 01402 10005 20003 39632 40190 58008
  333 55300 20000 30000=
10658 47001 82001 11017 21017 39842 40195 58006 73533
  333 55300 88/00=
10671 47248 80702 10005 20001 39770 40197 58004 71000
  333 55300 20000 30000 87/04 88/17 88/26=
10686 47021 72204 11001 21003 39437 40194 58006 72030
  333 55300 84/00 86/04 87/14=
10704 47911 80602 10011 20011 39733 40180 58008 72030
  333 55300 20000 30000 88/60=
10706 45961 80901 10022 20021 39710 40184 56007
  333 55300 88/60=
10724 45960 01705 10029 20006 39505 40179 56011
  333 55300 20000 30000=
10733 47926 80802 11014 21014 39892 40193 58011 71000
  333 4/001 55300 20000 30000 86/76 88/80=
10736 45958 10000 11032 21035 39889 40197 58011
  333 4/001 55300 81/62=
10739 45958 21503 10002 21005 39800 40194 58010
  333 55300 20000 30000 40905 82/77=
10743 NIL=
10747 45965 70000 11035 21035 39592 40201 58009
  333 4/001 55300 20000 30000 87/76 87/78=
0000160400
121
SNDL49 EDZW 110400
AAXX 11041
10756 47948 81501 11023 21025 39615 40206 58007 71000
  333 55300 20000 30000 88/80 88/80=
10761 45961 02301 11031 21037 39683 40212 58007
  333 55300 20000=
10765 46/// /1501 11029 21029 39716 40210 58007=
10771 NIL=
10777 47941 31801 10004 20001 39548 40205 58008 71000
  333 55300 81/61 83/79=
10782 47902 03501 11009 21010 39596 40211 58001 73530
  333 55300 20000 30000=
10796 47011 51201 11030 21030 39463 40222 58002 72030
  333 4/002 55300 85/00=
10803 45965 82001 10012 20008 39896 40191 56007
  333 55300 20000 30000 88/63=
10818 45981 81604 10037 20026 39045 48477 58006
  333 4/001 55300 20000 30000 85/58 87/61 88/67=
10827 46/// /2202 10018 20017 39093 48473 58006
  333 55300 20000 30000=
10837 NIL=
10838 46/01 /2301 11012 21014 39508 40208 57008
  333 55300=
10850 47000 81402 11024 21024 39588 40211 58007 73530
  333 55300 88/00=
10853 NIL=
10856 NIL=
10857 NIL=
10860 NIL=
10863 47950 02801 11019 21020 39621 40214 58008 71000
  333 55300 20000 30000 40912=
10865 45978 81801 10000 21006 39565 40209 58006
  333 55300 88/80=
10872 47926 40501 11038 21039 39780 40223 56003 72030
  333 55300 84/80=
10875 47325 10702 11031 21031 39712 40221 58005 72030
  333 55300 20000 30000 81/07=
10945 47959 82001 11006 21006 39387 40205 58009 72030
  333 55300 84/62 88/69=
10954 NIL=
10963 45960 82801 11006 21006 39348 40221 58003
  333 4/002 55300 20000 30000 81/67 87/72 88/75=
10982 47856 20802 10004 21000 39538 40213 56005 72030
  333 55300 20000 30000 82/58=
0000011500
122
SNVF25 LFPW 110400
BBXX
FVNM 11044 99477 70034 46/// /3103 10070 20064 40157 52005
22200 04092=
0000011800
123
SNVF25 LFPW 110400
BBXX
BATFR54 11044 99472 70030 46/// /3010 10090 20079 40179 53006
22222 04110=
0000011800
124
SNVF25 LFPW 110400
BBXX
BATFR09 11044 99408 70101 46/// /3609 10114 20059 40181 53005
22242 04152=
0000011800
125
SNVF25 LFPW 110400
BBXX
BATFR61 11044 99471 70053 46/// /2711 10117 20084 40170 53004
22262 04124=
0000011800
126
SNVF25 LFPW 110400
BBXX
BATFR13 11044 99495 10001 46/// /1803 10070 20057 40160 53003
22221 04099=
0000011200
127
SNVF25 LFPW 110400
BBXX
BATFR20 11044 99392 10081 46/// /1205 10134 20100 40183 58008
22233=
0000011200
128
SNVF25 LFPW 110400
BBXX
BATFR21 11044 99427 10083 46/// /0116 10134 20097 40203 58004
22223=
0000011800
129
SNVF25 LFPW 110400
BBXX
BATFR52 11044 99502 70007 46/// /2322 10087 20069 40144 58020
22283 04109=
0000015700
130
SSVX13 LFPW 110400
ZZYY 16591 11014 0400/ 343658 064425 6113/ 11119 40210 57003 22219
 00109 444 20130 11014 0358/ 50101 80118 80016 9/015=
0000018400
131
SSVX13 LFPW 110400
ZZYY 41734 11014 0400/ 705327 039185 6113/ 11119 40112 57011 22219
 00264 33300 88872 20000 43603 444 20130 11014 0359/ 50101 80118
 80016 9/015=
0000010600
132
SNVF25 LFPW 110400
BBXX
BATEU08 11044 99636 70222 46/// /2725 29049 49950 51018
22273=
00000000