0000088400
313
SAAG31 KWBC 101900
METAR
SAAG NIL=
SAAP NIL=
SAAR 101900Z 07006KT 9999 FEW030 SCT100 30/20 Q1006=
SABE 101900Z 36009KT 9999 FEW035 BKN100 30/19 Q1007=
SACO 101900Z 14013KT 9999 SCT030 FEW040CB 29/18 Q1011=
SADD NIL=
SAEZ 101900Z 28004KT 190V330 9999 FEW050TCU SCT100 32/17 Q1007=
SAME 101900Z 05008KT CAVOK 29/05 Q1010=
SARC 101900Z 34010KT 9999 SCT035TCU 35/23 Q1005=
SARE 101900Z 02008KT 9999 FEW025 SCT030TCU 35/24 Q1005=
SARF 101900Z NIL=
SARF 101900Z 36010KT 9999 SCT025 36/23 Q1005=
SARI 101900Z 00000KT 9999 BKN030 31/22 Q1010 RESHRA=
SARP 101900Z 32015KT 9999 SCT030TCU 35/21 Q1009=
SASA 101900Z 09009KT 9999 FEW020TCU BKN100 30/15 Q1009=
SASJ 101900Z NIL=
SAWE 101900Z NIL=
SAWG 101900Z 23021G31KT 9999 BKN035 SCT200 13/M01 Q1009=
SAZM 101900Z 11014KT 9999 FEW025 22/11 Q1008=
SAZS 101900Z 29022KT CAVOK 19/01 Q1017=

0000034000
314
SAAG41 KWBC 101900
METAR
SAAC NIL=
SAAV NIL=
SAGS NIL=
SANE NIL=
SANT 101900Z 20003KT 9999 FEW035TCU 36/22 Q1003=
SANU NIL=
SAOR NIL=
SARL 101900Z NIL=
SATM NIL=
SAVC 101900Z NIL=
SAVC 101900Z 05015KT 9999 SCT040 BKN200 18/02 Q1013=
SAVT NIL=
SAZB NIL=
SAZN 101900Z 27012KT CAVOK 27/M06 Q1012=

0000010700
315
SABZ42 KWBC 101900 RRA
METAR
SBSJ 101900Z 08007KT 9999 TS SCT025 FEW030CB 28/15 Q1014=

0000027400
316
SACA33 KWBC 101900 RRB
METAR
TFFF 101900Z AUTO 06016KT 030V090 9999 BKN033 BKN039 28/20 Q101
     4=
TFFR 101900Z 07013KT 030V100 9999 SCT029 SCT047 27/20 Q1015 NOS
     IG=
TNCM 101900Z 06012KT 9999 FEW019 SCT040 28/18 Q1016 A3002
     NOSIG=

0000010000
317
SAHA31 KWBC 101900 RRB
METAR
MTPP 101900Z 09011KT 9999 FEW030 32 1014/9 A29/97=

0000110700
318
SAPR41 KWBC 101900
METAR
SPCL 101900Z 34007KT 9999 BKN020 SCT100 29/23 Q1009 RMK BIRD
     HAZARD RWY 02/20 PP000=
SPEC NIL=
SPEI NIL=
SPEO NIL=
SPGM 101900Z /////KT 9999 SCT020 OVC080 24/21 Q1012 RMK PP000=
SPHI 101900Z 20015KT 9999 FEW040 29/22 Q1010 RMK PP000=
SPHO 101900Z 04007KT 9999 FEW046TCU BKN110 23/13 Q1019 RMK
     PP000=
SPHY 101900Z 30006KT 9000 SCT012 SCT040 16/13 Q1029 RMK PP000=
SPJA NIL=
SPJI 101900Z 00000KT 9999 BKN030 32/25 Q1016 RMK PP000=
SPJL 101900Z 06010KT 9999 FEW010 BKN080 12/08 Q1033 RMK PP000=
SPJN NIL=
SPJR 101900Z 21003KT 9999 SCT025 BKN040 20/11 Q1024 RMK PP000=
SPME 101900Z 32008KT 9999 FEW020 28/21 Q1008 RMK BIRD HAZARD RWY
     32/14 PP000=
SPMS 101900Z /////KT 9999 SCT017 SCT080 30/24 Q1009 RMK BIRD
     HAZARD 09/27 PP000=
SPNC NIL=
SPPY NIL=
SPRU 101900Z 17010KT 9999 FEW030 25/19 Q1010 RMK PP000=
SPST 101900Z 35012KT 9999 SCT020 SCT100 32/22 Q1007 RMK BIRD
     HAZARD RWY 17/35 PP000=
SPTU 101900Z 36004KT 9999 SCT010 BKN040 30/25 Q1007 RMK BIRD
     HAZARD RWY 01/19 PP000=
SPUR NIL=

0000043600
319
SASA31 KWBC 101900 RRB
METAR
SKBQ 101900Z 04010KT 9999 FEW020 31/21 A2979=
SKCG 101900Z 31007KT 9999 FEW020 30/23 A2978=
SKCL 101900Z 00000KT 9999 SCT013 BKN100 25/20 A2990=
SKLT 101900Z 00000KT 4000 -RA BKN010 26/25 A2978=
SKRG 101900Z 32004KT 9999 SCT020 SCT070 21/11 A3018=
SKSP 101900Z 08012KT 9999 FEW018 28/23 A2988=
SOCA 101900Z AUTO 18007KT 140V220 9999 FEW007 BKN070 OVC080 25/ 23
     Q1009=

0000012500
320
SASA31 KWBC 101900 CCB
METAR
SEGU 101900Z 24005KT 9999 SCT040 BKN100 31/20 Q1008 RMK A2976
     NOSIG=

0000024900
321
SASA41 KWBC 101900 RRA
METAR
SKBG 101900Z 35006KT 9999 SCT017 25/17 A2991=
SKMD 101900Z NIL=
SKPE 101900Z 25006KT 9999 VCSH SCT018TCU SCT080 24/18 A3003 RMK
     VCSH/TCU/SE=
SKSM 101900Z 36008KT 9999 FEW020 34/22 A2977=

0000019600
322
FTCN33 CWAO 101900 AAA
TAF AMD CYWE 101910Z 1019/1102 VRB03KT 1SM -SN OVC030 TEMPO 1019/1102
     6SM -SN
    RMK FCST BASED ON AUTO OBS. NXT FCST WILL BE ISSUED AT 111345Z=

0000018100
323
FTCN33 CWAO 101900 AAA
TAF AMD CYOA 101910Z 1019/1024 15005KT 1SM BR OVC020 TEMPO 1019/1024
     6SM -SN BR OVC025
    RMK NXT FCST WILL BE ISSUED AT 111345Z=

0000010400
324
SAAG05 SABM 101900 RRA
METAR SAVC 101900Z  05015KT 9999  SCT040 BKN200
18/02 Q1013=

0000010000
325
SAAG41 SAWE 101900
METAR SAWE 101900Z  02010KT 9999  FEW015 SCT020
10/07 Q1004=

0000010400
326
SPAU32 AMMC 101911
SPECI YPGV 101911Z AUTO 11008KT 9000 // SCT007 SCT115 25/24 Q1006=

0000012900
327
SACN62 CYYD 101900
METAR CYYD 101900Z 14003KT 25SM FEW065 SCT080 BKN210 M06/M06 A2969
 RMK SC2AC2CI3 SLP079=

0000011900
328
SACN62 CYYG 101900
METAR CYYG 101900Z 20011KT 15SM SCT120 BKN250 M05/M09 A3033 RMK
 AC3CI2 SLP274=

0000012200
329
SACN62 CYZF 101900
METAR CYZF 101900Z 00000KT 4SM -SN FEW007 OVC050 M23/M26 A2949 RMK
 SC2SC6 SLP014=

0000010600
330
SACN62 CZBF 101900
METAR CZBF 101900Z 05003KT 15SM FEW220 M10/M16 A3022 RMK CI1 SLP239=

0000048600
331
SAAM31 FCBB 101900
METAR FCBB 101900Z 00000KT 8000 FEW020 FEW030CB 25/22 Q1013 TEMPO
      TS=
METAR FCPP 101900Z 17007KT 9999 SCT013 BKN023 27/24 Q1011 NOSIG=
METAR FKKD 101900Z VRB02KT 8000 FEW016 BKN300 28/25 Q1011 NOSIG=
METAR FKYS 101900Z 00000KT 9999 FEW013 22/19 Q1014 NOSIG=
METAR FKKR 101900Z 00000KT CAVOK 26/04 Q1012 NOSIG=
METAR FKKL NIL=
METAR FKKN NIL=
METAR FEFF 101900Z 00000KT 2000 BR NSC 24/19 Q1011 BECMG 6000 NSW=
METAR FEFT NIL=

0000010900
332
SAAE33 VTBB 101900 RRA
METAR VVPB 101900Z VRB02KT 4000 BR SCT015 BKN050 19/18 Q1019 NOSIG=

00000000