0000035200
933
SAUK37 EGGY 110020
METAR EGAE 110020Z NIL=
METAR EGNC 110020Z NIL=
METAR EGNH 110020Z NIL=
METAR EGNJ 110020Z AUTO 21012KT 9999 SCT020/// BKN024/// 08/07
    Q1008=
METAR EGNO 110020Z NIL=
METAR EGNR 110020Z NIL=
METAR EGPE 110020Z AUTO 21012KT 9999 NCD 02/M01 Q1005=
METAR EGPI 110020Z NIL=
METAR EGPN 110020Z NIL=

0000044300
934
SAUK38 EGGY 110020
METAR EGEC 110020Z NIL=
METAR EGEO 110020Z NIL=
METAR EGPA 110020Z 25011KT 9999 SCT025 05/02 Q1002=
METAR EGPC 110020Z AUTO 22006KT 9999 NCD 01/M01 Q1003=
METAR EGPL 110020Z AUTO 24013KT 9999 // NCD 04/01 Q1005=
METAR EGPM 110020Z AUTO 24010KT 9999 SCT006/// BKN020/// BKN033///
    05/03 Q0998 RERA=
METAR EGPO 110020Z AUTO 25008KT 9999 -RA FEW022/// 02/M00 Q1004=
METAR EGPU 110020Z NIL=

0000035800
935
SASW32 LSSW 110020
METAR LSGC 110020Z AUTO 26001KT CAVOK 01/01 Q1017=
METAR LSGS 110020Z NIL=
METAR LSZG 110020Z AUTO 05003KT 4900 BR OVC001 01/01 Q1019=
METAR LSZR 110020Z AUTO 24001KT 0200 R10/0900D BR NCD 02/01 Q1019=
METAR LSZS 110020Z NIL=
METAR LSZC 110020Z AUTO 23002KT 0150 FG VV003 01/01 Q1019=
METAR LSZL 110020Z NIL=

0000008800
936
SPCN44 CWAO 110023
SPECI CYUS 110023Z AUTO 20009KT FEW033 M35/ A2946=

0000079800
937
SASN32 ESWI 110020
METAR ESKN 110020Z 03004KT 9999 BKN012 M03/M05 Q1002 R26/710195=
METAR ESOE 110020Z AUTO 12007KT 9999NDV SG FEW007/// SCT009///
OVC014/// M02/M03 Q1000 RESN=
METAR ESOK 110020Z AUTO 12005KT 9999 FEW003/// SCT005/// OVC007///
M00/M00 Q0997=
METAR ESOW 110020Z AUTO 04004KT 7000NDV -SN FEW010/// OVC013///
M04/M06 Q1002 REPL RESG=
METAR ESSA 110020Z 30007KT 9999 BKN008 M04/M05 Q1002 R01L/19//71
R08/19//58 R01R/19//68 TEMPO BKN018=
METAR ESSB 110020Z AUTO 29006KT 9999NDV FEW009/// OVC017///
M04/M05 Q1001=
METAR ESSD 110020Z AUTO 07006KT 1100 R32/P1500N -SN VV002 M06/M08
Q1000=
METAR ESSP 110020Z AUTO 16003KT 9999NDV FEW012/// OVC016///
M02/M03 Q1002=
METAR ESSV 110020Z AUTO 29009KT 9999NDV BKN009/// OVC011///
M00/M02 Q1002=

0000049900
938
SAFI32 EFHK 110020
METAR EFHA 110020Z AUTO 35008KT 9999 OVC010 M06/M07
 Q0996=
EFHF 110020Z AUTO 34013KT 310V020 9999 OVC011 M02/M04 Q0994=
METAR EFKA 110020Z AUTO 04010KT 9999 -SG OVC014 
M07/M09 Q1000=
EFKK 110020Z AUTO 04009KT 9999 -SHSN OVC039 M10/M11 Q1002=
EFMA 110020Z AUTO 34008KT 9999 -SN OVC013 M01/M01 Q0999=
METAR EFPO 110020Z AUTO 02006KT 350V050 9999 OVC008/// M04/M05 Q0998 
R12/29//95=
EFSI 110020Z AUTO 01006KT 350V050 9999 OVC010 M07/M08 Q0999=

0000071200
939
SASN33 ESWI 110020
METAR ESNG 110020Z AUTO 34005KT 300V030 9999 NCD M17/M19 Q1012=
METAR ESNK 110020Z AUTO 33010KT 7000 -SN ///021 M10/M14 Q1005 RESG=
METAR ESNN 110020Z AUTO 33012KT 3400NDV -SN NCD M10/M12 Q1004
R16/49/79=
METAR ESNO 110020Z AUTO 35010KT 320V040 9999 OVC019/// M11/M15
Q1003=
METAR ESNQ 110020Z AUTO 36005KT 3400NDV -SN BKN003/// OVC006///
M15/M17 Q1012=
METAR ESNS 110020Z AUTO 35012KT //// VV007 M13/M14 Q1006=
METAR ESNU 110020Z 34017KT 4400 R14/P1500N R32/P1500N -SN OVC035
M11/M14 Q1004 R14/49//50=
METAR ESNZ 110020Z 05003KT 010V080 9999 -SN BKN047 M15/M16 Q1002=
METAR ESUT 110020Z AUTO 24007KT 200V300 9999 SCT062/// OVC078///
M13/M19 Q1005=

0000059500
940
SASN34 ESWI 110020
METAR ESCF 110020Z AUTO 13003KT 100V170 9999NDV SCT014/// OVC026/// 
M02/M02 Q1001=
METAR ESDF 110020Z AUTO 24003KT 9999NDV -SHRA SCT006/// BKN012/// 
OVC029/// 04/03 Q1005=
METAR ESIB 110020Z AUTO 23011KT 9999NDV FEW015/// SCT150/// 
OVC180/// 04/03 Q0999=
METAR ESMV 110020Z NIL=
METAR ESPA 110020Z AUTO 03009KT 360V060 9999NDV -SG BKN140/// 
M13/M16 Q1009=
METAR ESPE 110020Z AUTO 36007KT 330V040 9999NDV -IC OVC042/// 
M15/M18 Q1009=
METAR ESSL 110020Z AUTO 12006KT 9999NDV FEW013/// SCT020///
OVC027/// M02/M03 Q1001 R29/19//95=

0000042800
941
SASN35 ESWI 110020
METAR ESGR 110020Z NIL=
METAR ESKM 110020Z NIL=
METAR ESNL 110020Z AUTO 35008KT 320V030 9999NDV IC FEW018///
OVC022/// M13/M17 Q1006=
METAR ESNX 110020Z AUTO 01010KT 3800NDV -SN FEW012/// OVC028///
M15/M18 Q1006=
METAR ESNY 110020Z NIL=
METAR ESSF 110020Z NIL=
METAR ESSK 110020Z NIL=
METAR ESUD 110020Z AUTO 36004KT 6000 -SN FEW006/// SCT013///
OVC028/// M14/M17 Q1006=

0000009900
942
SAEA20 HKNC 110000 RRA
METAR HKMO 110000Z 00000KT 9999 FEW019 25/22 Q1012 NOSIG=

0000017200
943
FTCN34 CWAO 110000 AAA
TAF AMD CYXE 110032Z 1100/1124 26007KT P6SM BKN025 BKN120
    FM110300 28008KT P6SM FEW030 SCT120
    RMK NXT FCST BY 110600Z=

0000010300
944
SAPF20 NTAA 110030
METAR NTAA 110030Z 21004KT 180V240 9999 SCT020 30/21 Q1011 NOSIG=

0000017100
945
SACY31 LCLK 110030
METAR LCLK 110030Z 32004KT CAVOK 12/06 Q1021 NOSIG=
METAR LCPH 110030Z AUTO 02008KT 9999 NCD 11/06 Q1022=
METAR LCNC 110030Z NIL=

0000008300
946
SAIL31 BICC 110030
METAR BIKF 110030Z 27014KT 9999 02/M03 Q0993=

0000047900
947
SAYG31 LYBM 110030
METAR LYBE 110030Z 16006KT 8000 NSC 06/03 Q1023 NOSIG=
METAR LYBT 110030Z 20001KT 0500 FG NSC 02/02 Q1023 NOSIG=
METAR LYKV 110030Z 06001KT 9999 SCT040 04/02 Q1023 NOSIG=
METAR LYNI 110030Z 11002KT CAVOK 01/01 Q1023=
METAR LYPG 110030Z VRB02KT 6000 FEW100 07/06 Q1023 TEMPO 3000=
METAR LYPR 110030Z NIL=
METAR LYTV 110030Z 09001KT CAVOK 08/07 Q1022=
METAR LYUZ 110030Z VRB02KT 9999 BKN020 04/04 Q1021=
METAR LYVR 110030Z NIL=

0000047200
948
SARH31 LDZM 110030
METAR LDSP 110030Z 33004KT 290V350 9999 -RA FEW020 BKN036 11/10 Q1022
     =
METAR LDPL 110030Z 08004KT 9999 SCT035 BKN057 11/09 Q1021 =
METAR LDDU 110030Z 03006KT 350V070 CAVOK 11/06 Q1022 =
METAR LDZA 110030Z 00000KT 0800 R05/P2000N R23/1600D FG FEW001 FEW042
04/04 Q1020 TEMPO 0400 =
METAR LDZD 110030Z 11004KT 9999 OVC060 09/09 Q1022 =
METAR LDRI 110030Z NIL=
METAR LDOS 110030Z 20005KT 4000 BR SCT040 04/04 Q1022=

0000074300
949
SATU31 LTAA 110020
METAR LTAC 110020Z 29005KT 4800 BR OVC007 M04/M04 Q1022 NOSIG=
METAR LTAF 110020Z 04005KT CAVOK 04/M01 Q1021 NOSIG=
METAR LTAI 110020Z 34004KT 9999 SCT020 SCT200 06/04 Q1022 NOSIG=
METAR LTAJ 110020Z 00000KT CAVOK M03/M06 Q1020 NOSIG=
METAR LTAZ 110020Z NIL=
METAR LTBA 110020Z 24004KT 190V280 4000 BR NSC 10/06 Q1021 NOSIG=
METAR LTBJ 110020Z 13001KT 4200 BR NSC 05/03 Q1021 NOSIG=
METAR LTBS 110020Z 06006KT CAVOK 05/05 Q1022 NOSIG=
METAR LTCG 110020Z 19004KT CAVOK 06/M01 Q1016 NOSIG=
METAR LTCS 110020Z 04006KT CAVOK 03/M07 Q1021=
METAR LTFC 110020Z NIL=
METAR LTFE 110020Z 11004KT 6000 FEW035 BKN100 08/07 Q1022 NOSIG=
METAR LTFJ 110020Z VRB01KT 9999 SCT012 07/00 Q1021 NOSIG=

0000066800
950
SATU32 LTAA 110020
METAR LTAG 110020Z 02004KT CAVOK 03/M02 Q1021 NOSIG=
METAR LTAN 110020Z NIL=
METAR LTAP 110020Z 00000KT CAVOK M05/M07 Q1022 NOSIG=
METAR LTAT 110020Z 23003KT CAVOK M10/M11 Q1022 NOSIG=
METAR LTAU 110020Z 00000KT 2600 BR OVC002 M04/M04 Q1022 TEMPO 0800
 FZFG=
METAR LTBF 110020Z NIL=
METAR LTBU 110020Z 29004KT 0100 R05/0100N R23/0200N FG NSC 03/03
 Q1021=
METAR LTCC 110020Z 31004KT CAVOK M04/M06 Q1020 NOSIG=
METAR LTCE 110020Z 14001KT 1800 0900E R26L/P1500U R08R/P1500U
 R26R/P1500U R08L/P1500U BCFG NSC M27/M29 Q1021 BECMG TL0200 0400
 FZFG VV002=
METAR LTCJ 110020Z VRB02KT 5000 BR NSC M04/M04 Q1021=

0000008900
951
SATU35 LTAA 110020
METAR LCEN 110020Z 28008KT CAVOK 07/04 Q1021 NOSIG=

0000010200
952
SACG20 FCBB 110030
METAR FCBB 110030Z VRB01KT 8000 FEW010 SCT016 23/22 Q1012 NOSIG=

00000000