0000007800
573
BMDA01 DEMS 110935
OPKC
RETRANSMISSION ACTIVATED FOR 146-147
0000020800
574
SARE20 FMEE 110200
METAR FMCZ 110200Z 26004KT 9999 FEW021 26/23 Q1012 NOSIG=
METAR FMEE 110200Z 13011KT 9999 FEW030 26/20 Q1015 NOSIG=
METAR FMEP 110200Z AUTO 04005KT 9999 NCD 24/20 Q1014=
0000008200
575
FCRE31 FMEE 110300
TAF FMEP 110200Z 1103/1112 24008KT 9999 FEW023=
0000008200
576
FCRE31 FMEE 110300
TAF FMCZ 110200Z 1103/1112 27008KT 9999 SCT023=
0000009000
577
SAMC32 GMMC 110200 RRA
METAR GMML 110200Z 08002KT 9999 SCT017 13/11 Q1016=
0000043700
578
SAAL40 DAMM 110200
METAR DAAG 110200Z VRB02KT 9999 FEW030 SCT080 11/07 Q1016=
METAR DAAT 110200Z NIL=
METAR DABB 110200Z 22003KT CAVOK 08/07 Q1017=
METAR DABC 110200Z 00000KT CAVOK 07/02 Q1019=
METAR DABS 110200Z NIL=
METAR DAON 110200Z 22010KT 9999 FEW030 BKN100 18/03 Q1015=
METAR DAOO 110200Z 00000KT 9999 FEW026 BKN233 12/07 Q1015=
METAR DAUH 110200Z 36004KT CAVOK 10/07 Q1021=
METAR DAUZ 110200Z NIL=
0000103600
579
SAAL41 DAMM 110200
METAR DAAD 110200Z NIL=
METAR DAAE 110200Z NIL=
METAR DAAJ 110200Z NIL=
METAR DAAP 110200Z NIL=
METAR DAAS 110200Z 00000KT CAVOK 03/00 Q1021=
METAR DAAV 110200Z 00000KT CAVOK 11/09 Q1016=
METAR DAAY 110200Z NIL=
METAR DABT 110200Z NIL=
METAR DAEF 110200Z NIL=
METAR DAEN 110200Z NIL=
METAR DAFH 110200Z NIL=
METAR DAOB 110200Z NIL=
METAR DAOF 110200Z NIL=
METAR DAOI 110200Z 06011KT CAVOK 14/06 Q1016=
METAR DAOL 110200Z NIL=
METAR DAOR 110200Z 11012KT 9999 SCT033 OVC100 13/08 Q1019=
METAR DAOV 110200Z 18010KT CAVOK 14/04 Q1017=
METAR DATG 110200Z NIL=
METAR DATM 110200Z NIL=
METAR DAUA 110200Z 12015KT 8000 NSC 15/M05 Q1016=
METAR DAUB 110200Z NIL=
METAR DAUE 110200Z /////KT 9999 FEW040 SCT200 12/07 Q1021=
METAR DAUG 110200Z 36003KT CAVOK 08/05 Q1022=
METAR DAUI 110200Z NIL=
METAR DAUK 110200Z NIL=
METAR DAUL 110200Z NIL=
METAR DAUO 110200Z NIL=
METAR DAUT 110200Z 11009KT CAVOK 13/04 Q1017=
METAR DAUU 110200Z 00000KT CAVOK 09/07 Q1021=
0000023600
580
SAAO32 GOOY 110200
METAR GABS 110200Z 01003KT CAVOK 20/08 Q1013 NOSIG=
METAR GAGO 110200Z NIL=
METAR GAKY 110200Z NIL=
METAR GAKL 110200Z NIL=
METAR GAMB 110200Z NIL=
METAR GANR 110200Z NIL=
METAR GATB 110200Z NIL=
0000020800
581
SAAO31 GOOY 110200
METAR FHAW 110200Z NIL=
METAR GGOV 110200Z NIL=
METAR DIAP 110200Z VRB01KT 8000 SCT012 BKN100 27/25 Q1011 TEMPO 
BKN009=
METAR DIBK 110200Z NIL=
METAR DIYO 110200Z NIL=
0000024200
582
SAAO30 GOOY 110200
METAR GOOY 110200Z 01009KT CAVOK 19/14 Q1014 NOSIG=
METAR GOGS 110200Z NIL=
METAR GOOK 110200Z NIL=
METAR GOSS 110200Z NIL=
METAR GOTK 110200Z NIL=
METAR GOTT 110200Z NIL=
METAR GOGG 110200Z NIL=
0000032800
583
SAAO33 GOOY 110200
METAR GQPP 110200Z 30006KT 7000 NSC 17/15 Q1015 NOSIG=
METAR GQNN 110200Z 01005KT 8000 NSC 15/14 Q1015 NOSIG=
METAR GQPA 110200Z NIL=
METAR GQNI 110200Z NIL=
METAR GQPZ 110200Z NIL=
METAR GUCY 110200Z NIL=
METAR GUXN 110200Z NIL=
METAR GULB 110200Z NIL=
METAR GUNZ 110200Z NIL=
0000063300
584
SAAO21 DRRN 110200
METAR DFOO 110200Z NIL=
METAR DGSI 110200Z NIL=
METAR DNAA 110200Z NIL=
METAR DNCA 110200Z NIL=
METAR DNEN 110200Z NIL=
METAR DNIB 110200Z NIL=
METAR DNIL 110200Z NIL=
METAR DNJO 110200Z NIL=
METAR DNKA 110200Z NIL=
METAR DNKT 110200Z NIL=
METAR DNMA 110200Z NIL=
METAR DNPO 110200Z NIL=
METAR DNSO 110200Z NIL=
METAR DNSU 110200Z NIL=
METAR DNYO 110200Z NIL=
METAR DRRM 110200Z NIL=
METAR DRRT 110200Z NIL=
METAR DRZA 110200Z NIL=
METAR DRZR 110200Z NIL=
METAR DXNG 110200Z NIL=
METAR DXSK 110200Z NIL=
METAR FTTA 110200Z NIL=
METAR FTTD 110200Z NIL=
METAR FTTY 110200Z NIL=
0000040400
585
SAAO33 DRRN 110200
METAR DBBB 110200Z 23006KT 6000 SCT011 BKN200 27/26 Q1010 NOSIG=
METAR DFFD 110200Z 10007KT CAVOK 24/02 Q1013 NOSIG=
METAR DGAA 110203Z 23006KT 9999 FEW012 27/25 Q1011 NOSG=
METAR DNKN 110200Z NIL=
METAR DNMM 110200Z NIL=
METAR DRRN 110200Z 09012KT 4000 DU NSC 22/M01 Q1014 NOSIG=
METAR DXXX 110200Z VRB01KT 8000 SCT012 27/26 Q1011 NOSIG=
METAR FTTJ 110200Z NIL=
0000008800
586
SAAL40 DAMM 110130 CCA
METAR COR DABC 110130Z 19003KT CAVOK 07/02 Q1019=
0000017000
587
SAKN20 HKNC 110200
METAR HKMO 110200Z 32005KT 9999 BKN018 25/22 Q1012 NOSIG=
METAR HKEL 110200Z NIL=
METAR HKJK 110200Z NIL=
METAR HKKI 110200Z NIL=
0000008500
588
SAAL40 DAMM 110200 RRA
METAR DAAT 110200Z 00000KT CAVOK 11/M04 Q1022=
0000021900
589
SASB31 VCCC 110210
METAR VCBI 110210Z 05010KT 8000 SKC 23/21 Q1013 NOSIG=
METAR VRMM 110200Z 07013KT 9999 FEW018 28/23 Q1013 NOSIG=
METAR VCRI 110210Z 01004KT 340V040 7000 FEW016   23/21 Q1013 NOSIG=
0000009000
590
SAKN20 HKNC 110200 RRA
METAR HKJK 110200Z 03005KT CAVOK 15/12 Q1021 NOSIG=
0000009400
591
SARW20 HRYR 110230
METAR
HRYR 110230Z 00000KT 9999 SCT026 16/16 Q1019 NOSIG=
0000009300
592
SAPK31 OPKC 110400 RRB
METAR OPPS 110400Z 23006KT 3600 HZ SKC 07/M03 Q1022.2=
00000000