0000010400
213
SPUS43 KWBC 102021
SPECI
KBDE 102017Z AUTO 18012KT 2 1/2SM BR OVC006 M04/M06 A2946=

0000016600
214
SAAK31 KWBC 102000 RRA
METAR
PAVD 102016Z 10SM FEW010 FEW040 BKN100 M04/M06 A2939=
PAWG 102016Z 14004KT 10SM FEW010 BKN030 OVC080 04/M01 A2964=

0000084600
215
SACI31 ZBBB 111000
METAR ZBAA 111000Z 20004MPS 180V250 7000 NSC 02/M21 Q1028 NOSIG=
METAR ZBSJ 111000Z 19004MPS 0900 R15/2000D FU NSC M00/M07 Q1028
 NOSIG=
METAR ZBTJ 111000Z 21002MPS 0600 R16R/1800N FZFG NSC M01/M04 Q1029
NOSIG=
METAR ZBYN 111000Z 27003MPS 6000 NSC 01/M23 Q1027 NOSIG=
METAR ZGGG 111000Z 24002MPS 190V320 4000 HZ NSC 20/11 Q1021 NOSIG=
METAR ZSHC 111000Z 08004MPS 4000 -RA BR SCT008 BKN017 06/04
Q1029 NOSIG=
METAR ZSPD 111000Z 03006MPS 9999 -RA BKN020 05/03 Q1030 NOSIG=
METAR ZSSS 111000Z 05003MPS 010V090 8000 -RA BKN013 05/02 Q1030
NOSIG=
METAR ZWSH 111000Z 16002MPS 090V240 4000 FU NSC M02/M10 Q1032 NOSIG=
METAR ZWWW 111000Z VRB01MPS 1000 R25/1200N FU NSC M18/M21 Q1033
NOSIG=
METAR ZYTL 111000Z VRB01MPS 3000 BR NSC 00/M06 Q1029 BECMG 2000 BR=
METAR ZYTX 111000Z 21002MPS 5000 FU NSC M03/M14 Q1027 NOSIG=

0000012400
216
SAAK32 KWBC 102000 RRB
METAR
PADK 102016Z AUTO 22018G30KT 10SM SCT022 BKN029 BKN034 03/01
     A2895=

0000010600
217
SAIS32 LLBG 102020
METAR LLBG 102020Z 18004KT 9999 SCT030 12/10 Q1021 NOSIG RMK BKN065=

0000019100
218
SALV32 EVRA 102020
METAR EVLA 102020Z AUTO 29012G22KT 260V320 9999 BKN013 OVC038 03/01 
Q0999=
METAR EVVA 102020Z AUTO 32015KT 9999 SCT012 BKN020 OVC038 04/02 
Q0997=

0000015700
219
SADN33 EKCH 102020
METAR EKKA 102020Z 24013KT 9999 FEW012 BKN036 06/05 Q1005=
METAR EKSP 102020Z 26011KT 9999 FEW012 BKN040 06/03 Q1008=

0000008900
220
SAMP31 LMMM 102030 RRB
METAR HLLT 102020Z
13005KT CAVOK 12/08 Q1024=

0000124500
221
SPUS70 KWBC 102022
SPECI
KNFE 102014Z AUTO 35006KT 2 1/2SM -RA FEW036 FEW070 OVC090 09/06
     A3032 RMK AO2 RAB02 P0000 T00940061=
KASD 102018Z AUTO 11003KT 1 3/4SM -RA BR OVC008 17/15 A2998 RMK
     AO2 RAB12 P0000 T01670150 TSNO=
KCEC 102018Z AUTO 17011KT 3SM BR OVC003 10/09 A3027 RMK AO2
     T01000094=
KGLD 102018Z AUTO 33018G26KT 3SM -SN BR BKN023 OVC032 00/M01 A2963
     RMK AO2 PK WND 33029/2007 P0000 T00001011=
KTXK 102018Z 14006KT 1 3/4SM -RA BR FEW004 BKN014 OVC035 14/14
     A2975 RMK AO2 RAB1954 PRESFR P0000=
KVPC 102018Z AUTO 12006KT 4SM HZ OVC006 19/09 A3010 RMK AO2=
PAHC 102018Z AUTO 36012KT 7SM FEW029 BKN037 OVC045 M16/M19 A2958
     RMK AO2 TSNO BLSNE18 $=
KAEX 102019Z 16007KT 3SM -RA BR BKN010 OVC014 16/16 A2986 RMK AO2
     RAB02 CIG 007V010 P0001=
KBLF 102019Z AUTO VRB06KT 10SM BKN008 OVC050 10/06 A3014 RMK
     AO2=
KIGX 102019Z AUTO 01003KT 2SM RA BR OVC003 06/06 A3023 RMK AO2
     P0006 T00610056=
KPHL 102019Z 08003KT 1 3/4SM BR BKN006 OVC015 02/01 A3036 RMK AO2
     $=
KTAN 102019Z AUTO 00000KT 1SM BR BKN013 OVC018 02/00 A3038 RMK AO2
     RAE05 P0000 T00220000=
KVLD 102019Z 17003KT 10SM SCT013 BKN018 OVC024 23/19 A3008 RMK
     AO2=

0000018600
222
FCRM31 LUKK 102000
TAF LUKK 102020Z 1021/1106 29012KT 9999 SCT040
TEMPO 1021/1103 30014G30KT=
TAF LUBL 102020Z NIL=
TAF LUBM 102020Z NIL=
TAF LUCH 102020Z NIL=

0000008800
223
FCIY31 LIIB 102000
TAF LIMP 102000Z 1021/1106 VRB03KT 4000 BR SCT030=

0000058600
224
FTRS31 RUMS 102000
TAF ULLI 102001Z 1021/1121 01003G08MPS 3000 -SNRA BR OVC005
TM01/1023Z TEMPO 1021/1023 VRB01MPS 1000 SHSNRA BKN003 BKN012CB
BECMG 1023/1101 35007G13MPS 2100 -SHSN BLSN BKN006 BKN012CB 530003
TEMPO 1023/1109 33010G15MPS 0700 +SHSN BLSN BKN003 BKN015CB TEMPO
1109/1115 33009G15MPS 1600 SHSN BLSN=
TAF UWGG 101953Z 1021/1121 18005G10MPS 2100 -SHSNRA OVC007 SCT012CB
650070 530003 TEMPO 1021/1109 16007G14MPS 0700 +SHSNRA VV004
FM110900 23006G14MPS 2100 -SHSNRA BKN009 SCT012CB 650090 530003
TEMPO 1109/1121 1000 SHSNRA OVC004 SCT012CB=

0000059200
225
FTRA36 RUMS 102000
TAF UWUU 101953Z 1021/1121 16005G10MPS 2000 SN BR OVC007 SCT015CB
650070 530003 TEMPO 1021/1105 VRB02MPS 0300 FZDZ FZFG VV002 640000=
TAF UNEE 101950Z 1021/1121 19008G14MPS 2000 SHSN DRSN BKN010CB BKN070
530004 TEMPO 1021/1106 23015MPS 0500 +SHSN BLSN BKN002 TEMPO
1106/1115 1200 SHSN BKN004=
TAF USCC 102000Z 1021/1121 17006MPS 5000 BR FU BKN010CB OVC070 530005
TEMPO 1021/1106 VRB02MPS 2000 SHSN BKN005=
TAF USNN 102000Z 1021/1121 36003MPS 4000 -SN BR BKN015 OVC066 620150
TEMPO 1021/1103 0800 FZFG VV003 TEMPO 1103/1109 2000 BR BKN007=

0000055300
226
FTRA33 RUMS 102000
TAF UIAA 101945Z 1021/1121 35004MPS 9999 BKN030CB BKN100 530009 TEMPO
1021/1106 2400 -SHSN FEW006 BKN030CB BKN100=
TAF UIBB 101951Z 1021/1121 09003MPS 2100 -SHSN BR SCT003 BKN010CB
TEMPO 1021/1103 0300 FG VV002 BECMG 1103/1104 5000 -SHSN BKN014CB
OVC100=
TAF UIII 101943Z 1021/1121 16004MPS 2000 BR BKN007CB TEMPO 1021/1102
0300 FG VV001 BECMG 1102/1104 9999 NSW SCT020 TEMPO 1103/1112
30004MPS 2000 FU=
TAF UIUU 101950Z 1021/1121 28005G10MPS 2100 -SHSN BKN020CB OVC100
BECMG 1101/1102 5000 -SHSN=

0000081800
227
FTRA34 RUMS 102000
TAF UNAA 101949Z 1021/1121 23005MPS 9999 SCT030CB BKN100 530009 TEMPO
1021/1109 20008G13MPS 1000 SHSN BLSN SCT004 BKN020CB OVC100 640005=
TAF UNBB 102000Z 1021/1121 20008G15MPS 3000 -SHSN DRSN BKN010CB
530005 TEMPO 1021/1109 0500 +SHSN BLSN SCT002 BKN004 650040 TEMPO
1109/1121 1200 SHSN BKN005=
TAF UNKL 101950Z 1021/1121 20006MPS 5000 -SHSN BKN020CB OVC100 TEMPO
1021/1103 23007G12MPS 0800 +SHSN BLSN TEMPO 1103/1115 23009G14MPS
0500 +SHSN BLSN SCT005 BKN015CB OVC100 530009=
TAF UNNT 101955Z 1021/1121 20008G15MPS 2000 SHSN DRSN BKN010CB 530005
TEMPO 1021/1103 0500 +SHSN BLSN SCT001 BKN004 650040 TEMPO
1103/1121 1200 SHSN BKN005=
TAF UNOO 101951Z 1021/1121 20010MPS 2000 SHSN BLSN BKN020CB 650200
530002 TEMPO 1021/1112 1000 SHSN BLSN BKN007 BKN020CB=

0000051200
228
FTRA32 RUMS 102000
TAF UHHH 101946Z 1021/1203 24010MPS CAVOK 530002 TEMPO 1100/1108
25010G15MPS=
TAF UHMA 101950Z 1021/1121 36008G13MPS 9999 DRSN SCT030 650309 530003
550309 TEMPO 1021/1121 06016G21MPS 2000 BLSN SCT010 BKN030=
TAF COR UHMM 101950Z 1021/1203 05006G13MPS 9999 DRSN SCT030 SCT070
530009 530906 TEMPO 1100/1118 34004G09MPS=
TAF UHPP 101950Z 1021/1203 36005G12MPS 9999 BKN020CB OVC100 650200
550009 TEMPO 1021/1023 1000 SHSN BKN003 TEMPO 1023/1210 2000 SHSN
BKN004=

0000055500
229
FTRA37 RUMS 102000
TAF USTR 102000Z 1021/1121 17006MPS 2000 SHSN BR BKN007 BKN015CB
650070 TEMPO 1021/1106 0400 +SHSN FZRA FZFG VV002 640000 TEMPO
1106/1121 1500 SHSN=
TAF USHH 101958Z 1021/1121 04003MPS 4000 -SN BKN010 OVC070 620100
TEMPO 1021/1106 2000 SN BR BKN005 OVC070 620050=
TAF USRR 101933Z 1021/1121 04003MPS 4000 BR SCT005 BKN066 TEMPO
1021/1103 1000 BR BKN003=
TAF USSS 102000Z 1021/1121 14004MPS 2000 SHSN BKN007 BKN020CB 650070
TEMPO 1021/1103 0800 +SHSN VV003 BECMG 1103/1105 5000 -SHSN BKN010
SCT020CB=

0000053800
230
FTRS35 RUMS 102000
TAF UWLW 101945Z 1021/1121 19008MPS 2100 -SNRA BR OVC007 650070 TEMPO
1021/1103 0400 FZDZ FZFG VV002 TEMPO 1103/1115 0700 +SNRA OVC003=
TAF UWOO 102000Z 1021/1121 15005MPS 0800 FZDZ FZFG VV002 640000 TEMPO
1021/1105 VRB03MPS 0300 FZFG VV001=
TAF UWWW 102000Z 1021/1121 VRB03MPS 1500 BR OVC004 TEMPO 1021/1102
0300 FZDZ FZFG VV002 640000 FM110200 18009MPS 1500 SNRA BR BKN005
OVC100 TEMPO 1102/1106 0300 FZDZ FZFG VV002 640000 TEMPO 1106/1121
16013MPS 0400 +SHSNRA VV003 BKN010CB 530003=

0000060500
231
FTRS34 RUMS 102000
TAF USPP 102000Z 1021/1121 14005MPS 2000 BR OVC007 650070 TEMPO
1021/1106 0500 FZFG VV002=
TAF UWKD 101955Z 1021/1121 15004MPS 1500 BR OVC004 650040 TEMPO
1021/1024 0500 FZDZ FZFG OVC002 640000 BECMG 1100/1102 17006G12MPS
2000 SNRA OVC005 SCT015CB 530001 TEMPO 1102/1106 0700 +SHSNRA VV003
BKN010CB TEMPO 1106/1115 18009G15MPS=
TAF UWKE 101945Z 1021/1121 22005MPS 1000 BR OVC003 650030 TEMPO
1021/1106 18008MPS 0500 SN FZRA FZFG OVC002 640000 BECMG 1106/1107
4000 BR OVC007 TEMPO 1106/1118 18012MPS 1000 SHSN FZRA BLSN BKN003
BKN010CB 640000 530001=

0000070200
232
FTRS33 RUMS 102000
TAF UUBW 101950Z 1021/1121 21007MPS 8000 OVC008 TEMPO 1021/1103 3000
-SHRA BKN006 SCT010CB TEMPO 1103/1112 2200 -SHSNRA SCT005 BKN010CB
BECMG 1110/1112 29007G12MPS=
TAF UUDD 101955Z 1021/1203 22008MPS 6000 OVC006 TEMPO 1021/1024 2100
-SHRASN BKN004 BKN012CB TEMPO 1100/1115 1000 SHSNRA SCT004 BKN012CB
BECMG 1110/1112 28008G13MPS=
TAF UUDL 102000Z NIL=
TAF UUEE 101950Z 1021/1121 20005MPS 6000 BKN004 TEMPO 1106/1121 1200
SHSNRA BKN004 SCT010CB BECMG 1109/1111 27005MPS=
TAF UUWW 101955Z 1021/1121 21007MPS 6000 BKN005 TEMPO 1021/1106 1200
SHRASN BKN003 BKN012CB BECMG 1106/1108 27008G13MPS OVC008 TEMPO
1106/1115 1500 SHSNRA BKN005 SCT015CB=

00000000