0000026500
713
WSZA21 FAOR 110945
FAOR SIGMET A01 VALID 110949/111200 FAOR-
FAJA JOHANNESBURG FIR EMBD TS OBS WI
S2214 E02846 - S2243 E03124 - S2319 E03137 - S2424 E03149 -
S2533 E03039 - S2533 E03039 - S2451 E02810 - S2307 E02750 -
S2236 E02815 TOP FL320=
0000012100
714
SPUS41 KWBC 102227
SPECI
KGON 102223Z AUTO 00000KT 1SM R05/6000VP6000FT -RA BR OVC006 02/02
A3036=

0000010200
715
SPUS43 KWBC 102227
SPECI
KMKE 102223Z 16014KT 1 1/2SM FZRA BR OVC002 01/01 A2971=

0000017300
716
FTDL32 EDZO 101700 AAA
TAF AMD EDDG 102226Z 1022/1118 21005KT 9999 BKN015 TEMPO 1022/1118
     BKN009 BECMG 1113/1116 28008KT PROB30 TEMPO 1115/1118 RA=

0000018600
717
SANL32 EHDB 102225
METAR EHEH 102225Z AUTO 22011KT 9999 BKN011 05/03 Q1016 
GRN=
METAR EHKD 102225Z AUTO 21019KT 7000 BR SCT007 BKN008 OVC018 07/06
Q1013 
GRN=

0000010800
718
SAIO31 KWBC 102200 RRD
METAR
FMMI 102230Z 31003KT 9999 FEW017 SCT230 18/18 Q1020 NOSIG=

0000012900
719
SPCN52 CWAO 102227
SPECI CWFD 102227Z AUTO 20012KT 2 1/2SM CLR M20/ A2887 RMK VSBY VRBL
0.6V9.+ ICG PAST HR=

0000009400
720
SPCN51 CWAO 102227
SPECI CZCP 102227Z AUTO 29020KT 3/4SM FEW001 M32/ A2942=

0000010700
721
SAMJ41 LWSK 102230
METAR LWSK 102230Z 00000KT 1200 R34/2000 BR OVC002 02/01 Q1024 NOSIG=

0000061400
722
SAGR31 LGAT 102220
METAR LGAD 102220Z 00000KT 9999 BKN020 12/09 Q1022=
METAR LGAV 102220Z 36007KT CAVOK 10/06 Q1019 NOSIG=
METAR LGIR 102220Z 17007KT CAVOK 12/09 Q1021 NOSIG=
METAR LGKL 102220Z AUTO 33004KT //// // ////// 09/08 Q1022
     RE//=
METAR LGKO 102220Z NIL=
METAR LGKR 102220Z 00000KT 9999 FEW014 SCT018 BKN070 11/10 Q1022
 NOSIG=
METAR LGLM 102220Z AUTO VRB03KT //// // ////// 10/08 Q1020
     RE//=
METAR LGRP 102220Z 00000KT 9999 FEW018 13/08 Q1021 NOSIG=
METAR LGSA 102220Z 27015KT 9999 FEW020 14/10 Q1021=
METAR LGSM 102220Z NIL=
METAR LGTS 102220Z NIL=

0000012000
723
SADL34 EDZO 102220 RRA
METAR EDNY 102220Z AUTO 07001KT 0300 0250/ R24/0650D FG FEW052 01/M00
Q1019=

0000043900
724
SAGR32 LGAT 102220
METAR LGAL 102220Z NIL=
METAR LGEL 102220Z NIL=
METAR LGIO 102220Z AUTO 00000KT //// // ////// 06/06 Q1022
     RE//=
METAR LGKV 102220Z NIL=
METAR LGMT 102220Z NIL=
METAR LGPZ 102220Z AUTO VRB02KT //// // ////// 11/10 Q1023
     RE//=
METAR LGRX 102220Z NIL=
METAR LGSK 102220Z NIL=
METAR LGSR 102220Z AUTO 23015KT //// // ////// 15/11 Q1019
     RE//=
METAR LGZA 102220Z NIL=

0000044000
725
SAGR33 LGAT 102220
METAR LGBL 102220Z NIL=
METAR LGHI 102220Z NIL=
METAR LGKC 102220Z NIL=
METAR LGKF 102220Z AUTO VRB02KT //// // ////// 14/09 Q1022
     RE//=
METAR LGKP 102220Z NIL=
METAR LGKZ 102220Z AUTO 36011KT //// // ////// 08/M01 Q1020
     RE//=
METAR LGMK 102220Z NIL=
METAR LGNX 102220Z NIL=
METAR LGPA 102220Z AUTO 14004KT //// // ////// 15/14 Q1019
     RE//=
METAR LGSO 102220Z NIL=

0000009100
726
SAEG31 HECA 102230
METAR HECA 102230Z CALMKT 6000 NSC 13/09 Q1023 NOSIG=

0000007700
727
SASU01 HSSS 102230
METAR HSSS 102230Z 33012KT CAVOK Q1018=

0000009500
728
SAIY31 LIIB 102220 RRA
METAR LIEE 102220Z VRB01KT 9999 MIFG NSC 10/09 Q1019=

0000008500
729
SPCN47 CWAO 102227
SPECI CYVP 102227Z 30009KT 15SM BKN058 RMK SC3=

0000111200
730
SPUS70 KWBC 102228
SPECI
K9F2 102215Z 11006KT 1SM VV001 18/18 A2992 RMK LAST=
KBIV 102224Z AUTO 14010KT 4SM -RA BR BKN004 OVC011 02/02 A2980 RMK
     AO2 P0008 T00220017=
KORE 102224Z AUTO 18003KT 8SM OVC014 M01/M02 A3032 RMK AO2
     T10061017=
KTXK 102224Z 16007KT 1SM +RA BR FEW005 SCT018 OVC037 14/14 A2973
     RMK AO2 P0020=
KVPZ 102224Z AUTO 16007KT 1 1/4SM RA BR OVC003 02/02 A2978 RMK AO2
     CIG 002V006 P0005 T00220022 TSNO=
KBEH 102225Z AUTO 14009KT 1 1/2SM RA BR SCT006 BKN025 OVC042 02/02
     A2978 RMK AO2 P0011=
KESF 102225Z AUTO 23007KT 3SM -RA BR BKN010 OVC018 19/17 A2987 RMK
     AO2 RAB16 P0000=
PACV 102225Z 08003KT 10SM OVC015 01/M01 A2936 RMK AO2 SNE09 P0000
     $=
PADU 102225Z 14012KT 6SM -RA BR BKN006 OVC014 03/00 A2922 RMK AO2
     VIS NE 4 CIG LWR NE P0001=
PASC 102225Z 25013KT 4SM -SN BR BKN026 OVC043 M29/M33 A2988 RMK
     AO2 SNB24 P0000=
PASO 102225Z AUTO 00000KT 10SM BKN029 OVC045 00/M01 A2941 RMK AO2
     TSNO=
KRTN 102226Z AUTO 34017G24KT 10SM SCT080 06/M13 A2977 RMK AO2
     WSHFT 2206 T00561133 TSNO=

0000010900
731
SPUS41 KWBC 102228
SPECI
KBDL 102224Z 00000KT 4SM BR FEW013 BKN021 OVC080 M01/M02 A3034=

0000013100
732
SASA41 KWBC 102200 RRC
METAR
SKMD 102200Z 26005KT 9999 -TSRA BKN030 SCT035CB 19/16 A2997 RMK
     CB/E/W/NW=

00000000