0000010900
493
UANT99 KDDL 110404
ARP AUA72 5606N02428W 0404 F360 MS54 219/63 KT
OELAE QXT AOE 110404 F83A
0000017000
494
SOVI10 KWAL 110406
B110070A 011040601 P9751095 B\P~W@@@0ekD1@qZ???CpCt>@qi3@MD@@^4Cx5DA6bT9Jg<BM2?????@"??? nTDCLBZBcBbBbBaBc:AMPTEMP 27.29C  47-0NN 219E
0000011000
495
UANT99 KDDL 110404
ARP DLH439 5502N04137W 0404 F350 MS57 278/24 KT
DAIKK QXT AME 110404 J65A
0000010000
496
SNAA01 KARS 110100 RRD
AAXX 1101/
89869 46/// ///// 11034 39934 4//// 5//// 90110=
0000010900
497
UANT99 KDDL 110404
ARP VIR30 4435N01833W 0404 F390 MS61 257/59 KT
GVGEM DDL XXF 110404 J37A
0000011000
498
UANT99 KDDL 110404
ARP UAL50 4924N04328W 0404 F340 MS59 333/67 KT
N68061 DDL XXW 110404 F46A
0000010900
499
UANT99 KDDL 110404
ARP KLM48 5602N02825W 0404 F360 MS55 214/55 KT
PHBFK QXT AOE 110404 F60A
0000011000
500
UANT99 KDDL 110404
ARP KLM602 5506N04629W 0404 F350 MS62 297/59 KT
PHBFS QXT AOW 110404 F34A
0000011100
501
UANT99 KDDL 110404
ARP DAL171 5604N03259W 0404 F370 MS55 217/34 KT
N801NW DDL XXW 110405 J12A
0000011100
502
UANT99 KDDL 110405
ARP UAL992 4854N03609W 0405 F360 MS51 216/27 KT
N673UA DDL XXW 110405 F39A
0000011100
503
UANT99 KDDL 110405
ARP AWE754 4935N03223W 0405 F390 MS52 225/49 KT
N288AY DDL XXN 110405 J35A
0000202400
504
SNRO41 YRBK 110400
AAXX 11041
15015 23/// /1501 10005 21021 39592 42794 52004 333 6///5 91002
91105=
15020 22997 03003 10044 21034 39976 40177 52012 333 60005 91004
91106=
15090 22597 32601 10018 21002 30087 40182 52009 83500 333 55300 0////
20000
3//// 60005 91002 91102 92600=
15108 21/91 92734 11075 21075 38013 48451 52013 74944 333 60005 91040
92723=
15120 22697 62002 11017 21020 39716 40232 52004 86500 333 55300 10141
20000
3//// 60005 91003 91103 92611=
15150 23/// /3200 11037 21037 39976 40199 52010 333 6///5 91002
91102=
15170 23/// /2405 10014 21012 39416 42805 52008 333 60005 91008
91110=
15200 22997 61202 10004 21002 30083 40232 50001 86070 333 60005 91002
91103=
15230 22597 42201 11006 21007 39943 40248 52002 84500 333 55300 10046
20000
3//// 60005 91002 91102=
15260 22998 02903 10018 21028 39687 40237 52002 333 60005 91005
91105=
15280 22999 02934 11120 21165 37451 47986 58003 333 60005 91040=
15292 21596 72201 10015 20009 39941 40245 53002 71022 87500 333 60005
91003
91104=
15310 21493 81802 10000 20000 30114 40203 52013 74611 886// 333 55300
10162
20000 3//// 60005 91005 91105 92600=
15335 23/// /2402 10041 20017 30193 40200 52017 333 6///5 91004
91104=
15346 22997 01600 11024 21040 39923 40226 52007 333 60005 91001 91103
92600=
15350 22997 02802 10016 21010 30084 40208 52014 333 60005 91005
91105=
15360 22497 82505 10022 20009 30179 40193 52018 886// 333 60005 91006
91108=
15410 23/// /2601 10030 20010 30133 40232 52004 333 6///5 91005
91105=
15420 22997 02602 11008 21017 30099 40215 53013 333 55300 0//// 20000
3////
60005 91003 91103 92600=
15450 22997 02003 10011 21004 39983 40226 52004 333 55300 10230 20000
3////
60005 91004 91105=
15460 23/// /2704 10026 2//// 30187 40212 53013 333 6///5 91007
91107=
15470 23/// /2705 10008 20003 30089 40220 53007 333 60005 91007
91107=
15480 21496 32601 10038 20028 30191 40208 53016 71000 83600 333 60005
91004
91105=
0000015700
505
SSVX13 LFPW 110300
ZZYY 25650 11014 0300/ 179526 133180 6113/ 11119 40256 52004 22219
 01148 444 20130 11014 0300/ 50101 80132 8//// 9/015=
0000015700
506
SSVX13 LFPW 110400
ZZYY 16531 11014 0400/ 322425 104952 6113/ 11119 40139 57007 22219
 00249 444 20130 11014 0300/ 50101 80108 80002 9/015=
0000015700
507
SSVX13 LFPW 110400
ZZYY 64609 11014 0400/ 768939 004386 6113/ 11119 40111 57005 22219
 00048 444 20130 11014 0300/ 50101 80140 80019 9/015=
0000015700
508
SSVX13 LFPW 110400
ZZYY 64516 11014 0400/ 172833 012411 6113/ 11119 40161 57001 22219
 00061 444 20130 11014 0300/ 50101 80130 80015 9/015=
0000015700
509
SSVX13 LFPW 110400
ZZYY 14511 11014 0400/ 331683 088987 6113/ 11119 40224 52018 22219
 00213 444 20130 11014 0300/ 50101 80080 80003 9/015=
0000015700
510
SSVX13 LFPW 110400
ZZYY 62712 11014 0400/ 741748 027303 6113/ 11119 49983 57028 22219
 00142 444 20130 11014 0300/ 50101 80140 80000 9/015=
0000015700
511
SSVX13 LFPW 110400
ZZYY 64521 11014 0400/ 175066 003955 6113/ 11119 40145 57004 22219
 00005 444 20130 11014 0300/ 50101 80138 80019 9/015=
0000015700
512
SSVX13 LFPW 110400
ZZYY 44865 11014 0400/ 735760 016445 6113/ 11119 40169 57003 22219
 00192 444 20130 11014 0300/ 50101 80072 80002 9/015=
00000000