0000120400
693
FTUS31 KWBC 101924 AAA
TAF AMD
KEWR 101922Z 1019/1124 VRB04KT 2SM BR SCT006 OVC012
      TEMPO 1021/1024 1SM -DZ BKN006 OVC012
     FM110000 VRB03KT 1SM BR BKN006 OVC012
      TEMPO 1102/1105 -RA
     FM110500 15005KT 3/4SM -RA BR BKN005 OVC008
     FM110800 16008KT 1SM -RA BR OVC004 WS020/19050KT
     FM111400 17014KT 1SM -RA BR OVC004 WS015/19050KT
     FM111900 18016G23KT 1SM RA OVC004 WS015/19050KT=
KJFK 101922Z 1019/1124 VRB04KT 3SM BR SCT008 OVC012
      TEMPO 1021/1024 2SM -DZ BR BKN008
     FM110000 VRB04KT 1SM BR FEW005 BKN008 OVC015
      TEMPO 1102/1105 -RA
     FM110500 16008KT 3/4SM -RA BR BKN005 OVC008 WS020/19040KT
     FM110800 15011KT 1SM -RA BR OVC004 WS020/19055KT
     FM111400 17018KT 1SM -RA BR OVC004 WS015/19060KT
     FM111900 18023G30KT 1SM RA OVC004 WS015/19060KT=
KLGA 101922Z 1019/1118 06005KT 3SM BR SCT008 OVC012
      TEMPO 1020/1024 2SM -DZ BR BKN008
     FM110000 06005KT 1SM BR FEW005 BKN008 OVC012
      TEMPO 1102/1105 -RA
     FM110500 15007KT 3/4SM -RA BR BKN005 OVC008 WS020/19040KT
     FM110800 15011KT 1SM -RA BR OVC004 WS020/19055KT
     FM111400 17016KT 1SM -RA BR OVC004 WS015/19060KT=

0000120400
694
FTUS71 KWBC 101924 AAA
TAF AMD
KEWR 101922Z 1019/1124 VRB04KT 2SM BR SCT006 OVC012
      TEMPO 1021/1024 1SM -DZ BKN006 OVC012
     FM110000 VRB03KT 1SM BR BKN006 OVC012
      TEMPO 1102/1105 -RA
     FM110500 15005KT 3/4SM -RA BR BKN005 OVC008
     FM110800 16008KT 1SM -RA BR OVC004 WS020/19050KT
     FM111400 17014KT 1SM -RA BR OVC004 WS015/19050KT
     FM111900 18016G23KT 1SM RA OVC004 WS015/19050KT=
KJFK 101922Z 1019/1124 VRB04KT 3SM BR SCT008 OVC012
      TEMPO 1021/1024 2SM -DZ BR BKN008
     FM110000 VRB04KT 1SM BR FEW005 BKN008 OVC015
      TEMPO 1102/1105 -RA
     FM110500 16008KT 3/4SM -RA BR BKN005 OVC008 WS020/19040KT
     FM110800 15011KT 1SM -RA BR OVC004 WS020/19055KT
     FM111400 17018KT 1SM -RA BR OVC004 WS015/19060KT
     FM111900 18023G30KT 1SM RA OVC004 WS015/19060KT=
KLGA 101922Z 1019/1118 06005KT 3SM BR SCT008 OVC012
      TEMPO 1020/1024 2SM -DZ BR BKN008
     FM110000 06005KT 1SM BR FEW005 BKN008 OVC012
      TEMPO 1102/1105 -RA
     FM110500 15007KT 3/4SM -RA BR BKN005 OVC008 WS020/19040KT
     FM110800 15011KT 1SM -RA BR OVC004 WS020/19055KT
     FM111400 17016KT 1SM -RA BR OVC004 WS015/19060KT=

0000032500
695
FTUS73 KWBC 101924 AAA
TAF AMD
KBRL 101921Z 1019/1118 13010KT 2SM -RA BR VCTS OVC002CB
     FM102000 16009KT 1SM -RA BR OVC002
     FM110100 18003KT 1/2SM -RA FG OVC002
     FM110700 26005KT 1SM -FZRASN BR OVC003
     FM110900 27010KT 2SM -SN BR OVC004
     FM111300 28011KT 4SM BR VCSH OVC006=

0000063200
696
SASN32 ESWI 101920
METAR ESKN 101920Z 32009KT 9999 BKN012 M03/M05 Q1001 R26/710195=
METAR ESOE 101920Z 24002KT 9999 OVC015 M02/M05 Q1002=
METAR ESOK 101920Z NIL=
METAR ESOW 101920Z 36006KT 9999 BKN013 M04/M07 Q1002 R01/750184=
METAR ESSA 101920Z 31011KT 9999 OVC007 M04/M05 Q1000 R01L/19//71
R08/19//58 R01R/19//68 BECMG BKN010=
METAR ESSB 101920Z 30009KT 9999 OVC007 M03/M05 Q1000 R30/29//67=
METAR ESSD 101920Z AUTO 01003KT 9999 OVC018/// M06/M10 Q1001=
METAR ESSP 101920Z 29009KT 9999 BKN013 M02/M04 Q1002 R27/19//95=
METAR ESSV 101920Z 33013KT 290V350 9999 BKN010 M00/M02 Q1000
R21/29//87=

0000013000
697
SAPA31 KWBC 101900 RRB
METAR
PTRO 101857Z 07010G16KT 14SM BKN015CB OVC270 26/25 A2973 RMK CB VC
     ALQDS=

0000065900
698
SASN33 ESWI 101920
METAR ESNG 101920Z 04010KT CAVOK M16/M19 Q1010=
METAR ESNK 101920Z 32012KT 9999 BKN018 BKN036 M10/M15 Q1004=
METAR ESNN 101920Z 34014KT 9999 -SN BKN020 BKN031 M10/M13 Q1003
R16/49/79=
METAR ESNO 101920Z AUTO 35011G23KT 4400 -SN ///034 M12/M15 Q1002=
METAR ESNQ 101920Z AUTO 01006KT 9999NDV OVC010/// M15/M16 Q1011
RESN=
METAR ESNS 101920Z 35012KT 1200 SN VV009 M12/M13 Q1004 RESN=
METAR ESNU 101920Z 34015KT 7000 -SN FEW017 OVC037 M11/M14 Q1003
R14/49//50=
METAR ESNZ 101920Z 04001KT 9999 -SN BKN045 M15/M17 Q1002=
METAR ESUT 101920Z AUTO 29010G23KT 230V350 9999 SCT078/// OVC100///
M13/M18 Q1003=

0000008700
699
SAUK35 EGGY 101920 RRA
METAR EGMC 101920Z 21012KT CAVOK 08/06 Q1014=

0000048000
700
SASN34 ESWI 101920
METAR ESCF 101920Z AUTO VRB02KT 9999NDV BKN009/// OVC013/// M02/M03 
Q1002=
METAR ESDF 101920Z AUTO VRB02KT 9999NDV BKN034/// 01/00 Q1003=
METAR ESIB 101920Z AUTO 18005KT 9999NDV OVC019/// 00/M01 Q1001=
METAR ESMV 101920Z NIL=
METAR ESPA 101920Z 02009KT 2600 -SN VV027 M12/M15 Q1007=
METAR ESPE 101920Z AUTO 01010KT 5000NDV -SN VV039/// M14/M17 Q1008=
METAR ESSL 101920Z 35005KT 9999 OVC010 M03/M04 Q1002 RESG RESN
R29/19//95=

0000039300
701
SASN35 ESWI 101920
METAR ESGR 101920Z NIL=
METAR ESKM 101920Z NIL=
METAR ESNL 101920Z 34009KT 9999 -SG BKN025 OVC035 M13/M17 Q1005=
METAR ESNX 101920Z AUTO 02008KT 6000NDV -SN FEW012/// SCT015///
OVC022/// M15/M18 Q1005=
METAR ESNY 101920Z NIL=
METAR ESSF 101920Z NIL=
METAR ESSK 101920Z NIL=
METAR ESUD 101920Z AUTO 36004KT 9999 -SN OVC028/// M14/M17 Q1005=

0000010500
702
SPUS42 KWBC 101923
SPECI
KCRP 101919Z 18011KT 10SM FEW011 BKN035 BKN047 23/20 A2984=

0000009700
703
SAUK36 EGGY 101920 CCA
METAR COR EGSH 101920Z 20008KT CAVOK 07/06 Q1012 NOSIG=

0000067800
704
SANO31 ENMI 101920
METAR ENAN 101920Z NIL=
METAR ENBR 101920Z 00000KT 9999 -RADZ FEW007 SCT015 BKN025 04/03
           Q0999 TEMPO SHRA BKN008 RMK WIND 1200FT 34005KT=
METAR ENBO 101920Z 08011KT 050V120 CAVOK M07/M15 Q1011 NOSIG=
METAR ENDU 101920Z NIL=
METAR ENGM 101920Z 17006KT 9999 BKN006 M01/M02 Q0996 NOSIG=
METAR ENOL 101920Z 06007KT 9999 -SN FEW007 SCT010 BKN020 M07/M10
           Q1001 TEMPO 1500 SN VV005=
METAR ENVA 101920Z 08008KT 9999 -SN BKN024 BKN031 M07/M12 Q1001 TEMPO
           3000 -SN VV012 RMK WIND 670FT 10011KT=
METAR ENZV 101920Z 26010KT 9999 RADZ FEW008 SCT012 BKN020 07/06 Q1001
           TEMPO -SHRA BKN008=

0000051100
705
SANO32 ENMI 101920
METAR ENAL 101920Z 03010KT 9999 SCT026 M01/M06 Q1000=
METAR ENCN 101920Z VRB01KT 9999 FEW015 SCT022 M00/M00 Q1001=
METAR ENHD 101920Z 26011KT 9000 SHRA SCT008 BKN020 06/05 Q1000=
METAR ENRO 101920Z 10012KT 6000 -SN SCT010 BKN017 M13/M15 Q0996=
METAR ENRY 101920Z 16007KT 9999 FEW013 01/M00 Q0998=
METAR ENSB 101920Z NIL=
METAR ENTC 101920Z 09002KT CAVOK M12/M14 Q1017 NOSIG RMK WIND 2600FT
           10013KT=
METAR ENTO 101920Z VRB01KT CAVOK M01/M01 Q0998=

0000081500
706
SAIY31 LIIB 101920
METAR LIEA 101920Z 01002KT 8000 1500NW MIFG NSC 08/07 Q1020=
METAR LIEE 101920Z 18003KT 140V210 CAVOK 13/12 Q1019=
METAR LIEO 101920Z 22004KT CAVOK 08/07 Q1021=
METAR LIMC 101920Z 25003KT 220V280 9999 BKN040 09/06 Q1021 NOSIG=
METAR LIME 101920Z 13005KT 2000 BR BKN005 08/08 Q1021=
METAR LIMF 101920Z 34006KT 9999 BKN030 08/05 Q1020=
METAR LIMJ 101920Z 22003KT 9999 SCT027 BKN040 13/10 Q1021=
METAR LIML 101920Z VRB02KT 9999 SCT035 SCT045 09/07 Q1021 NOSIG=
METAR LIRA 101915Z 00000KT 8000 SCT030 BKN070 11/09 Q1021=
METAR LIRF 101920Z VRB01KT 9999 BKN027 11/09 Q1022 NOSIG=
METAR LIRN 101920Z VRB02KT 5000 BR BKN030 13/08 Q1022=
METAR LIRP 101915Z 08003KT 9999 FEW025 BKN050 11/09 Q1021 NOSIG=
METAR LIRQ 101920Z VRB01KT 9999 FEW020 BKN035 12/11 Q1021=

0000061500
707
SAIY32 LIIB 101920
METAR LIBD 101920Z 24005KT 8000 NSC 08/08 Q1021=
METAR LIBR 101915Z 00000KT 9999 FEW020 10/08 Q1021 NOSIG=
METAR LICC 101920Z NIL=
METAR LICJ 101920Z 19004KT CAVOK 12/09 Q1021=
METAR LIPE 101920Z 10003KT 0100 R12/0600N FG VV/// 07/07 Q1021=
METAR LIPH 101915Z /////KT 1700 BR BKN015 SCT030 06/06 Q1021=
METAR LIPQ 101920Z VRB01KT 2000 BR SCT007 BKN012 09/06 Q1021=
METAR LIPR 101915Z /////KT 8000 BKN045 10/10 Q1020=
METAR LIPX 101915Z 00000KT 1000 R04/P1500D BR SCT010 BKN045 08/06
      Q1022=
METAR LIPZ 101920Z VRB01KT 2500 BR SCT015 SCT050 07/06 Q1021=

0000004200
708
SAIY33 LIIB 101920
NIL=

0000008700
709
SAIY32 LIIB 101920 RRA
METAR LICC 101920Z 27005KT CAVOK 11/08 Q1021=

0000009100
710
SPCN45 CWAO 101923
SPECI CYOA 101923Z 14006KT 2SM -SN OVC023 RMK SN2SC6=

0000011100
711
SAUK31 EGGY 101920 CCA
METAR COR EGLL 101920Z 20009KT 160V240 9999 FEW043 08/06 Q1013 NOSIG=

0000009400
712
SPUS31 KWBC 101925
SPECI
KORD 101921Z 15010KT 2SM BR OVC004 01/M01 A2980=

00000000