0000010100
033
SACN45 CWAO 110400
METAR CYCO 110400Z 26016KT 10SM DRSN SKC M30/M36 A2949 RMK SLP991=
0000007800
034
SACN51 CWAO 110400
METAR CWRX 110400Z AUTO 31013KT M28/ A2933=
0000012400
035
SACN31 CWAO 110400
METAR CYBG 110400Z 09005KT 15SM -SHSN OVC033 M08/M10 A3012 RMK SC8
PCPN VRY LGT SLP214=
0000010700
036
SACN51 CWAO 110400
METAR CZCP 110400Z AUTO 28022KT 2 1/4SM -SN CLR M33/ A2944 RMK
SLP985=
0000008900
037
SACN51 CWAO 110400
METAR CWIL 110400Z AUTO 22010KT M31/ A2942 RMK SLP976=
0000010300
038
SACN43 CWAO 110400
METAR CYQF 110400Z 21005KT 15SM SCT080 M08/M08 A2962 RMK AC3 SLP089=
0000009300
039
SACN44 CWAO 110400
METAR CYUS 110400Z AUTO 22011KT CLR M33/ A2947 RMK SLP990=
0000008600
040
SAIN90 VAND 110330
METAR VAND 110330Z 27004KT 3500 HZ NSC 19/10 Q1018=
0000008600
041
SAIN90 VAND 110400
METAR VAND 110400Z 27002KT 4000 HZ NSC 20/10 Q1018=
0000010300
042
SAIN90 VILK 110400
METAR VILK 110400Z VRB02KT 0500 R27/0800 FG VV/// 14/13 Q1017 NOSIG=
0000009600
043
SAIN90 VIAR 110400
METAR VIAR 110400Z 26004KT 1400 R34/1900N BR NSC 05/04 Q1020=
0000038100
044
FCIN90 VABP 110300
TAF VABP 110300 11061115 05005KT 0500 FG SCT020=
TAF VAID 110300 11061115 05005KT 0500 FG SCT020=
TAF VAJB 110300 11061115 00000KT 1000 BR SCT020 BKN100 TEMPO 11061115
1000 -RA/TSRA FEW030CB=
TAF VAKJ 110300 11061115 05005KT 0500 FG SCT020 BKN100 TEMPO 11061115
1000 -RA/TSRA FEW030CB=
TAF VIGR 110300 11061115 32005KT 1000 BR SCT020=
0000008900
045
SACN52 CWAO 110400
METAR CWYM 110400Z AUTO 26019KT M21/ A2912 RMK SLP934=
0000008700
046
SACN51 CWAO 110400
METAR CWVH 110400Z AUTO ///// M27/ A2955 RMK SLP048=
0000011900
047
SACN47 CWAO 110400
METAR CYWA 110400Z AUTO 12005KT 5/8SM OVC002 M03/M03 A3001 RMK ICG
PAST HR SLP172=
0000008900
048
SACN52 CWAO 110400
METAR CWXR 110400Z AUTO 30018KT M31/ A2938 RMK SLP966=
0000010300
049
SACN48 CWAO 110400
METAR CYBX 110400Z 28013KT 15SM SCT080 M10/M14 A2992 RMK AC3 SLP136=
0000012100
050
SACN31 CWAO 110400
METAR CYQG 110400Z 15007KT 3/4SM -RA BR OVC002 03/03 A2975 RMK FG2SF6
PRESFR SLP082=
0000007300
051
SACN52 CWAO 110400
METAR CWRH 110400Z AUTO 30024KT A2934=
0000010000
052
SACN52 CWAO 110400
METAR CWFD 110400Z AUTO 19014KT 9SM FEW026 M23/ A2894 RMK SLP889=
00000000