0000017200
533
FTPA31 KWBC 102254 AAA
TAF AMD
PTRO 102253Z 1023/1118 08015G22KT P6SM VCSH BKN015CB OVC120
     FM110000 08013G24KT P6SM VCSH SCT016CB BKN050 BKN120=

0000017200
534
FTPQ31 KWBC 102254 AAA
TAF AMD
PTRO 102253Z 1023/1118 08015G22KT P6SM VCSH BKN015CB OVC120
     FM110000 08013G24KT P6SM VCSH SCT016CB BKN050 BKN120=

0000141000
535
FTMX31 KWBC 102254
TAF
TAF MMCZ 102252Z 1100/1206 12010KT 6SM HZ SCT015
     FM110400 13005KT P6SM SKC
     FM111800 13010KT P6SM SCT020
      TEMPO 1122/1202 5SM TSRA BKN010CB
     FM120400 030010KT 6SM HZ BKN010=
TAF MMGL 102252Z 1100/1206 24010KT P6SM SCT030 BKN080 TX23/1121Z
      TN03/1112Z
     FM110600 24008KT P6SM SCT080
     FM111200 00000KT P6SM SKC
     FM111800 24015KT P6SM SCT030 SCT080
      TEMPO 1122/1202 BKN030 BKN080=
TAF MMMD 102252Z 1100/1206 15010KT 6SM HZ SCT020 TX29/1118Z
      TN21/1112Z
     FM110400 14005KT 6SM HZ SCT015
     FM110900 00000KT 3SM BR BKN008
      TEMPO 1112/1115 1/2SM FG VV003
     FM111600 14010KT 6SM HZ BKN020
      TEMPO 1122/1202 4SM TSRA BKN010CB
     FM120300 33010KT 6SM HZ BKN015=
TAF MMPR 102252Z 1100/1206 22010KT P6SM SCT120 TX26/1120Z
      TN15/1112Z
     FM110600 00000KT P6SM SKC
     FM111200 02005KT P6SM BKN090
     FM111800 22010KT P6SM SCT200
     FM120300 06005KT P6SM SKC=
TAF MMTP 102252Z 1100/1206 26010KT P6SM SCT250
     FM110400 24005KT 6SM HZ SKC
     FM111800 24010KT P6SM SCT020
     FM120400 24005KT 6SM HZ SKC=
TAF MMUN 102252Z 1100/1206 12015KT 6SM HZ BKN015 TX28/1118Z
      TN21/1110Z
     FM110400 13005KT 5SM HZ SCT015
     FM111800 13010KT 6SM HZ BKN020
      TEMPO 1122/1202 4SM TSRA BKN010CB
     FM120200 03010KT 6SM -RA BKN015CB=

0000052100
536
FTMX41 KWBC 102254
TAF
TAF MMGL 102252Z 1100/1206 24010KT P6SM SCT030 BKN080 TX23/1121Z
      TN03/1112Z
     FM110600 24008KT P6SM SCT080
     FM111200 00000KT P6SM SKC
     FM111800 24015KT P6SM SCT030 SCT080
      TEMPO 1122/1202 BKN030 BKN080=
TAF MMMM 102252Z 1100/1206 20010KT P6SM BKN030 BKN230
     FM110600 00000KT P6SM BKN025
     FM111000 00000KT 5SM HZ SCT020
      TEMPO 1112/1115 3SM BR BKN020
     FM111600 22015KT P6SM SCT030 SCT230
      TEMPO 1122/1202 BKN030=

0000048700
537
FTMX42 KWBC 102254
TAF
TAF MMSP 102252Z 1100/1206 24010G25KT P6SM SCT035 TX24/1121Z
      TN03/1112Z
     FM110600 24015KT P6SM SKC
     FM111200 26010KT 6SM HZ SKC
     FM111800 29010KT P6SM SCT200
      TEMPO 1121/1201 SCT030 SCT200=
TAF MMZC 102252Z 1100/1206 24015G25KT P6SM SCT040 TX20/1121Z
      TN04/1112Z
     FM110600 24015KT P6SM SCT200
     FM111200 20010KT P6SM SKC
     FM111800 24018KT P6SM SCT040
     FM120300 24010KT P6SM SKC=

0000018400
538
FTUS52 KWBC 102254 AAA
TAF AMD
KFSM 102252Z 1023/1118 02006KT 1/4SM FG SCT001 BKN100
      TEMPO 1100/1103 2SM TSRA BKN030CB
     FM110300 24011KT P6SM SCT100=

0000030700
539
FTUS80 KWBC 102254 AAA
TAF AMD
KFSM 102252Z 1023/1118 02006KT 1/4SM FG SCT001 BKN100
      TEMPO 1100/1103 2SM TSRA BKN030CB
     FM110300 24011KT P6SM SCT100=
PTRO 102253Z 1023/1118 08015G22KT P6SM VCSH BKN015CB OVC120
     FM110000 08013G24KT P6SM VCSH SCT016CB BKN050 BKN120=

0000063100
540
FTBU31 LBSM 102300
TAF LBSF 102235Z 1100/1124 VRB02MPS 1500 BR SCT004 TEMPO 1102/1107
0400 FZFG BKN002 BECMG 1108/1110 5000 BR NSC BECMG 1120/1122 1200 BR
BKN003=
TAF LBWN 102236Z 1100/1124 28004MPS CAVOK TEMPO 1102/1106 5000 BR
BECMG 1107/1109 CAVOK=
TAF LBBG 102239Z 1100/1124 24004MPS 7000 NSC TEMPO 1100/1106 3000 BR
BECMG 1108/1110 27006MPS BECMG 1114/1116 VRB02MPS 4000 BR TEMPO
1118/1124 1200 BR SCT005 BKN010=
TAF LBPD 102239Z 1100/1124 30005MPS CAVOK TEMPO 1102/1107 5000 BR
NSC BECMG 1117/1119 07004MPS 9999 SCT070=
TAF LBGO 102231Z 1100/1124 30003MPS CAVOK BECMG 1120/1122 2000 BR=

0000071800
541
SPUS70 KWBC 102254
SPECI
KAOH 102250Z AUTO 15012KT 1SM BR OVC002 04/03 A2989 RMK AO2 PNO
     $=
KCRE 102250Z 11005KT 10SM FEW019 BKN030 BKN036 18/16 A3016 RMK
     AO2=
KIJD 102250Z AUTO 00000KT 2SM BR OVC004 00/M02 A3036 RMK AO2=
KJEF 102250Z 16007KT 10SM BKN015 08/06 A2960 RMK AO2=
KLWV 102250Z AUTO 16013KT 2SM -RA BR OVC007 06/06 A2986 RMK AO2
     RAE2156B05 P0004=
KSSI 102250Z AUTO 11008KT 1SM BR OVC002 17/17 A3010 RMK AO2=
KUGN 102250Z 14007KT 2SM RA BR OVC002 01/01 A2969 RMK AO2 PNO
     $=
KSPB 102251Z AUTO 15006KT 8SM -RA BKN024 BKN065 OVC080 10/07 A3003
     RMK AO2 RAB41 P0000=
KTRL 102251Z AUTO 19012KT 10SM CLR 19/18 A2968 RMK AO2 LTG DSNT
     NE=

0000009800
542
SPUS42 KWBC 102254
SPECI
KSSI 102250Z AUTO 11008KT 1SM BR OVC002 17/17 A3010=

0000040000
543
SABX31 EBBR 102250
METAR EBAW 102250Z AUTO 23006KT 200V260 9999 OVC009/// 05/03 Q1017=
METAR EBBR 102250Z 21010KT 9999 BKN011 04/02 Q1017 NOSIG=
METAR EBCI 102250Z 19009KT 9999 FEW010 04/02 Q1017 NOSIG=
METAR EBLG 102250Z 19009KT CAVOK 04/02 Q1017 NOSIG=
METAR EBOS 102250Z 20012KT 9999 SCT008 04/02 Q1016 TEMPO BKN008=
METAR ELLX 102250Z 00000KT CAVOK 03/02 Q1017 NOSIG=

0000009400
544
SAAK31 KWBC 102200 RRC
METAR
PFYU 102216Z 02003KT 10SM FEW100 M36/ A2971=

0000006100
545
SAOS32 LOWM 102250
METAR LOXZ 102250Z NIL=

0000049900
546
SAOS31 LOWM 102250
METAR LOWW 102250Z 25005KT CAVOK 04/M01 Q1020 NOSIG=
METAR LOWL 102250Z AUTO VRB01KT 9999 NCD M00/M00 Q1021=
METAR LOWS 102250Z AUTO VRB02KT 9999 OVC070 04/02 Q1020=
METAR LOWI 102250Z AUTO VRB02KT 4900 BR FEW002 BKN003 03/03 Q1020
    R88///////=
METAR LOWG 102250Z 15003KT 1100 R17/P1500D R35/0750D BCFG BKN002
03/03 Q1021 R17/29//95 NOSIG=
METAR LOWK 102250Z AUTO 28003KT 200V330 1300 R28/1500N R10/1500N FG
    OVC002 02/02 Q1021 R88///////=

0000044500
547
SAFI33 EFHK 102250
EFJO 102250Z AUTO 02015KT 340V060 9999 -SG BKN013 OVC070 M08/M10
Q0993=
EFLP 102250Z AUTO 35013KT 310V040 9999 -SG OVC012 M06/M09 Q0991=
EFMI 102250Z AUTO VRB07KT 8000 -SG BKN013 M07/M08 Q0994=
EFSA 102250Z AUTO 35010KT 310V050 9999 -SN OVC016 M08/M09 Q0993=
EFUT 102250Z AUTO 35012G23KT 9999 OVC010 M05/M06 Q0992=
EFVR 102250Z AUTO 36011KT 330V040 1000 +SN FEW014 BKN017 BKN024
M07/M09 Q0994=

0000024900
548
SAEO32 EETN 102250
METAR EEKA 102250Z NIL=
METAR EEKE 102250Z AUTO 32009KT 9999NDV -RA BKN009 OVC026 02/02 
Q0996=
METAR EETU 102250Z AUTO 31014KT 9999NDV SG OVC011/// 01/M01 Q0989
REUP RESN RERA=
METAR EEPU 102250Z NIL=

0000021700
549
SANO36 ENMI 102250
METAR ENBS 102250Z NIL=
METAR ENHK 102250Z NIL=
METAR ENHV 102250Z NIL=
METAR ENLK 102250Z NIL=
METAR ENMH 102250Z NIL=
METAR ENNK 102250Z NIL=
METAR ENNM 102250Z NIL=

0000025400
550
SANO35 ENMI 102250
METAR ENMS 102250Z NIL=
METAR ENRM 102250Z NIL=
METAR ENRS 102250Z NIL=
METAR ENSK 102250Z NIL=
METAR ENSO 102250Z NIL=
METAR ENST 102250Z NIL=
METAR ENVD 102250Z 25005KT 9999 FEW010 BKN025 M09/M12 Q1015=

0000011500
551
FTDL33 EDZO 101700 AAE
TAF AMD EDLP 102252Z 1022/1118 CNL=
TAF AMD EDLV 102253Z 1022/1118 CNL=

0000011500
552
FTDL34 EDZO 101700 AAE
TAF AMD EDLP 102252Z 1022/1118 CNL=
TAF AMD EDLV 102253Z 1022/1118 CNL=

00000000