0000031000
913
FTUS44 KWBC 101757 CCA
TAF COR
KSFF 101753Z 1018/1118 23012G18KT P6SM SCT025 SCT060 BKN150
     FM102200 22009KT P6SM SCT030 BKN040 OVC120
     FM110300 22009KT 6SM -RA SCT007 OVC012
     FM110700 20010KT 5SM RA OVC015 WS020/21040KT
     FM111100 20025G35KT P6SM -RA BKN010 OVC030=

0000040700
914
FTUS73 KWBC 101757 CCA
TAF COR
KJLN 101755Z 1018/1118 18015G27KT 6SM -SHRA BR FEW005 SCT020
      OVC050
      TEMPO 1018/1021 SCT007 OVC020
     FM102100 22012G20KT 6SM -SHRA BR VCTS SCT008 OVC035CB
      TEMPO 1021/1023 4SM -SHRA BR SCT008 OVC020
     FM110000 24011KT 6SM BR FEW008 BKN035
     FM110300 24010KT 6SM BR SCT007 BKN250
     FM111400 25010G18KT P6SM FEW250=

0000029200
915
FTUS73 KWBC 101757
TAF
KMSN 101754Z 1018/1118 16009KT 3SM BR OVC005
     FM101900 14009KT 3SM -FZRA BR OVC005
     FM102300 14006KT 3SM -RA BR OVC005
     FM110500 21004KT 2SM -DZ OVC004
     FM111000 28007KT 3SM -SN OVC006
     FM111600 29009G18KT P6SM BKN012=

0000031000
916
FTUS74 KWBC 101757 CCA
TAF COR
KSFF 101753Z 1018/1118 23012G18KT P6SM SCT025 SCT060 BKN150
     FM102200 22009KT P6SM SCT030 BKN040 OVC120
     FM110300 22009KT 6SM -RA SCT007 OVC012
     FM110700 20010KT 5SM RA OVC015 WS020/21040KT
     FM111100 20025G35KT P6SM -RA BKN010 OVC030=

0000063900
917
FTUS74 KWBC 101757
TAF
KACV 101744Z 1018/1118 15009KT P6SM SCT003 SCT009
      TEMPO 1018/1019 BKN009
     FM102000 15009KT P6SM SCT010 BKN025
     FM110000 15011KT P6SM VCSH SCT005 BKN015
     FM110700 16012G22KT 4SM -RA BR OVC015=
KCEC 101744Z 1018/1118 16006KT 6SM BR SCT003 BKN050
     FM101900 15010KT 6SM BR SCT003 SCT025 BKN050
      TEMPO 1019/1021 5SM BR SCT003 BKN025
     FM102100 16010KT 6SM -DZ SCT012 BKN025
     FM110600 17015G25KT 4SM RA BKN005 OVC020
     FM110900 17025G35KT 4SM RA OVC005=
KUKI 101744Z 1018/1118 34003KT 6SM BR SCT035 BKN250
     FM110900 17003KT P6SM BKN025=

0000007700
918
SASU01 HSSS 101730
METAR HSSS 101730Z 34009KT CAVOK Q1018=

0000009200
919
SAQB31 LQMO 101800
METAR LQMO 101800Z 13004KT 4000 BR SCT035 07/06 Q1021=

0000027100
920
SAHO31 MHTG 101800
METAR MHRO 101800Z 30002KT 9999 SCT020 SCT080 26/21 Q1015 A2997
NOSIG=
METAR MHLC  101800Z NIL=
METAR MHLM  101800Z 34003KT 9999 SCT028 29/22 Q1015 A2997 NOSIG=
METAR MHTG  101800Z 05008KT 9999 SCT027 25/14 Q1019 A3009 NOSIG=

0000041400
921
SPUS70 KWBC 101756
SPECI
K1B7 101745Z 08008KT 1/4SM -RA FG BKN002 14/14 A3006/=
K7R3 101750Z 13006KT 10SM HZ OVC005 17/M A3003=
KAXO 101745Z 06008KTS 2SM OVC005 15/14 A3006=
KCXY 101752Z 13003KT 2 1/2SM BR OVC009 00/M02 A3037 RMK AO2=
KEAU 101752Z 16009KT 3SM BR OVC005 M03/M04 A2975 RMK AO2=
KVAY 101752Z AUTO 00000KT 1 1/4SM BR BKN004 OVC038 01/00 A3038 RMK
     AO2 UPE00 P0000=

0000011600
922
SAFK41 EGYP 101750
METAR EGYP 101750Z 21029KT 9999 -SHRA FEW014 SCT022 BKN050 07/00
 Q0994 WHT=

0000107000
923
SAMX41 MMMX 101756
METAR MMMX 101744Z 15007KT 10SM BKN025 19/04 A3028
      NOSIG RMK SLP100 57007 970 8/100 HZY SC=
METAR MMAA 101742Z 20004KT 8SM SKC 31/21 A2992
      RMK SLP138 52007 953=
METAR MMBT 101740Z 00000KT 7SM SKC 32/24 A2994
      RMK CU=
METAR MMOX 101742Z 14008KT 10SM SKC 22/06 A3019 RMK SLP125
      58011 974 CU FRMG ARND=
METAR MMPB 101743Z 18004KT 8SM  SKC 20/05 A3031 RMK HZY=
METAR MMPS 101745Z 27006KT 15SM FEW015 32/18 A3007
      RMK SLP151 57002 970 8/100=
METAR MMQT 101745Z 32005KT 8SM SCT025 21/09 A3027 RMK 8/100 AC/CI=
METAR MMTM 101746Z 20010KT 5SM  SCT020 BKN200 24/17 A2997 
      RMK SLP131 57064 992 8/501 HZY=
METAR MMTO 101748Z 16014KT 7SM  BKN020TCU 15/05 A3035 
      RMK SLP138 57006 963 8/200 HZY=
METAR MMVR 101743Z 19004KT 7SM  SKC 27/17 A2996 
      RMK SLP138 57008 992 HZY=
METAR MMZH 101740Z 18010KT 7SM SCT020 31/23 A2992 RMK SLP125 M 961
8/200
      CB SW=
METAR MMCB 101755Z NIL=
METAR MMIT 101755Z NIL=
METAR MMPA 101755Z NIL=
METAR MMTB 101755Z NIL=

0000010100
924
SABZ24 SBCR 101800
METAR SBCR 101800Z 36012KT 9999 SCT025 FEW030TCU
33/22 Q1008=

0000010100
925
SABH31 MZBZ 101800
METAR MZBZ 101800Z 07004KT 9999 FEW023 28/22 A2999 Q1015 NOSIG=

0000031000
926
FTCA31 KWBC 101757 CCA
TAF COR
MUCU 101700Z 1018/1118 16012KT 9000 SCT020
      BECMG 1100/1102 36005KT
      BECMG 1115/1117 16012KT=
MUVR 101700Z 1018/1118 07013KT 9000 SCT020
      TEMPO 1019/1102 4000 SHRA BKN015
      BECMG 1103/1105 08003KT
      BECMG 1115/1117 07013KT=

0000032000
927
FTUS51 KWBC 101757 AAA
TAF AMD
KAUG 101754Z 1018/1118 22004KT 6SM -SHSN BR OVC040
      TEMPO 1018/1020 1 1/2SM -SN BKN025
     FM110300 21003KT 4SM BR BKN080
     FM110800 VRB03KT 4SM -FZDZ BR BKN020
     FM111100 04003KT 1 1/2SM -FZRA BR OVC007
     FM111600 15004KT 1/2SM -RA FG OVC004=

0000029200
928
FTUS53 KWBC 101757
TAF
KMSN 101754Z 1018/1118 16009KT 3SM BR OVC005
     FM101900 14009KT 3SM -FZRA BR OVC005
     FM102300 14006KT 3SM -RA BR OVC005
     FM110500 21004KT 2SM -DZ OVC004
     FM111000 28007KT 3SM -SN OVC006
     FM111600 29009G18KT P6SM BKN012=

0000054600
929
FTUS53 KWBC 101757 CCA
TAF COR
KBWG 101754Z 1018/1118 17008KT P6SM OVC010
     FM110200 19014G22KT 4SM -SHRA BR OVC008
     FM111300 24012G18KT P6SM SCT020 BKN150=
KJLN 101755Z 1018/1118 18015G27KT 6SM -SHRA BR FEW005 SCT020
      OVC050
      TEMPO 1018/1021 SCT007 OVC020
     FM102100 22012G20KT 6SM -SHRA BR VCTS SCT008 OVC035CB
      TEMPO 1021/1023 4SM -SHRA BR SCT008 OVC020
     FM110000 24011KT 6SM BR FEW008 BKN035
     FM110300 24010KT 6SM BR SCT007 BKN250
     FM111400 25010G18KT P6SM FEW250=

0000063900
930
FTUS54 KWBC 101757
TAF
KACV 101744Z 1018/1118 15009KT P6SM SCT003 SCT009
      TEMPO 1018/1019 BKN009
     FM102000 15009KT P6SM SCT010 BKN025
     FM110000 15011KT P6SM VCSH SCT005 BKN015
     FM110700 16012G22KT 4SM -RA BR OVC015=
KCEC 101744Z 1018/1118 16006KT 6SM BR SCT003 BKN050
     FM101900 15010KT 6SM BR SCT003 SCT025 BKN050
      TEMPO 1019/1021 5SM BR SCT003 BKN025
     FM102100 16010KT 6SM -DZ SCT012 BKN025
     FM110600 17015G25KT 4SM RA BKN005 OVC020
     FM110900 17025G35KT 4SM RA OVC005=
KUKI 101744Z 1018/1118 34003KT 6SM BR SCT035 BKN250
     FM110900 17003KT P6SM BKN025=

0000038300
931
FTUS54 KWBC 101757 CCA
TAF COR
KCOE 101754Z 1018/1118 22013G21KT P6SM SCT020 BKN050 OVC100
     FM102300 23011KT P6SM SCT025 OVC120
     FM110300 20007KT 6SM -SHRA SCT008 OVC012
     FM110600 20010KT 6SM -RA OVC006
     FM110700 20012KT 6SM RA BR OVC008 WS020/21040KT
     FM111200 20025G35KT P6SM -RA BKN010 OVC025 AMD LTD TO CLD VIS
      AND WIND=

0000089000
932
FTUS80 KWBC 101757
TAF
KACV 101744Z 1018/1118 15009KT P6SM SCT003 SCT009
      TEMPO 1018/1019 BKN009
     FM102000 15009KT P6SM SCT010 BKN025
     FM110000 15011KT P6SM VCSH SCT005 BKN015
     FM110700 16012G22KT 4SM -RA BR OVC015=
KCEC 101744Z 1018/1118 16006KT 6SM BR SCT003 BKN050
     FM101900 15010KT 6SM BR SCT003 SCT025 BKN050
      TEMPO 1019/1021 5SM BR SCT003 BKN025
     FM102100 16010KT 6SM -DZ SCT012 BKN025
     FM110600 17015G25KT 4SM RA BKN005 OVC020
     FM110900 17025G35KT 4SM RA OVC005=
KMSN 101754Z 1018/1118 16009KT 3SM BR OVC005
     FM101900 14009KT 3SM -FZRA BR OVC005
     FM102300 14006KT 3SM -RA BR OVC005
     FM110500 21004KT 2SM -DZ OVC004
     FM111000 28007KT 3SM -SN OVC006
     FM111600 29009G18KT P6SM BKN012=
KUKI 101744Z 1018/1118 34003KT 6SM BR SCT035 BKN250
     FM110900 17003KT P6SM BKN025=

00000000