0000047700
353
SAUK32 EGGY 102320
METAR EGAA 102320Z 23007KT CAVOK 02/02 Q1010=
METAR EGAC 102320Z NIL=
METAR EGFF 102320Z 23008KT 9999 BKN017 08/07 Q1011 RERA=
METAR EGGW 102320Z 20009KT 9999 FEW006 07/06 Q1012=
METAR EGLC 102320Z AUTO 21008KT 9999 -RA BKN040/// 09/06 Q1013
    RERA=
METAR EGNM 102320Z 25008KT 9000 -RADZ BKN005 06/06 Q1007=
METAR EGNX 102320Z 22016KT 9999 FEW026 BKN045 08/06 Q1009=
METAR EGPD 102320Z AUTO 27007KT 9999 NCD 03/M03 Q1005=

0000041100
354
SAUK33 EGGY 102320
METAR EGGD 102320Z 21009KT 8000 -RA FEW007 BKN018 BKN034 08/07
    Q1011=
METAR EGGP 102320Z 29007KT 9999 -SHRA FEW010 BKN039 07/06 Q1009=
METAR EGHI 102320Z NIL=
METAR EGNS 102320Z NIL=
METAR EGNT 102320Z 27008KT 9999 SCT032 04/04 Q1007=
METAR EGNV 102320Z NIL=
METAR COR EGPB 102320Z 26017G27KT 8000 -SHRA FEW010 SCT020 06/04
     Q0999 TEMPO SHRA BKN010=

0000025600
355
SAUK34 EGGY 102320
METAR EGHE 102320Z NIL=
METAR EGHK 102320Z NIL=
METAR EGHQ 102320Z NIL=
METAR EGJA 102320Z NIL=
METAR EGJB 102320Z NIL=
METAR EGJJ 102320Z NIL=
METAR EGTE 102320Z 22006KT 9999 -RA FEW020 SCT030 09/07 Q1013=

0000031700
356
SAUK35 EGGY 102320
METAR EGHH 102320Z 22008KT 9999 FEW013 BKN046 09/08 Q1013=
METAR EGKA 102320Z NIL=
METAR EGKB 102320Z NIL=
METAR EGLF 102320Z NIL=
METAR EGMC 102320Z 21009KT 9000 -RA FEW015 BKN022 08/06 Q1013=
METAR EGMD 102320Z NIL=
METAR EGMH 102320Z NIL=
METAR EGTC 102320Z NIL=

0000035300
357
SAUK36 EGGY 102320
METAR EGBE 102320Z 20008KT 9999 -RA FEW015 SCT025 BKN032 08/06
    Q1011=
METAR EGBJ 102320Z NIL=
METAR EGCN 102320Z 20015KT CAVOK 08/06 Q1009=
METAR EGSC 102320Z NIL=
METAR EGSD 102320Z NIL=
METAR EGSH 102320Z AUTO 21010KT 9999 FEW041/// 08/06 Q1012=
METAR EGVN 102320Z NIL=
METAR EGWU 102320Z NIL=

0000033600
358
SAUK37 EGGY 102320
METAR EGAE 102320Z NIL=
METAR EGNC 102320Z NIL=
METAR EGNH 102320Z NIL=
METAR EGNJ 102320Z AUTO 20013KT 9999 BKN021/// 08/07 Q1009=
METAR EGNO 102320Z NIL=
METAR EGNR 102320Z NIL=
METAR EGPE 102320Z AUTO 21010KT 9999 NCD 02/M01 Q1005=
METAR EGPI 102320Z NIL=
METAR EGPN 102320Z NIL=

0000042600
359
SAUK38 EGGY 102320
METAR EGEC 102320Z NIL=
METAR EGEO 102320Z NIL=
METAR EGPA 102320Z NIL=
METAR EGPC 102320Z AUTO 20009KT 9999 NCD 02/M00 Q1003=
METAR EGPL 102320Z AUTO 28014KT 9999 // FEW028/// BKN031/// 05/02
    Q1005=
METAR EGPM 102320Z AUTO 26013KT 6000 RA FEW007/// OVC016/// 04/03
    Q0998 RERA=
METAR EGPO 102320Z AUTO 27010KT 9999 FEW024/// 02/M00 Q1003=
METAR EGPU 102320Z NIL=

0000011100
360
SAMS33 WMKK 102300 CCA
METAR COR WMKI 102300Z 03006KT 9999 FEW005 SCT140 BKN260 23/22 Q1011=

0000036800
361
SASW32 LSSW 102320
METAR LSGC 102320Z AUTO 25001KT 7000 NCD M00/M00 Q1017=
METAR LSGS 102320Z NIL=
METAR LSZG 102320Z AUTO 12001KT 0250 FZFG BKN003 M01/M01 Q1019=
METAR LSZR 102320Z AUTO 00000KT 1100 R10/1100D BR NCD 02/01 Q1019=
METAR LSZS 102320Z NIL=
METAR LSZC 102320Z AUTO 22002KT 1900 BR OVC002 01/01 Q1019=
METAR LSZL 102320Z NIL=

0000050600
362
SAFI32 EFHK 102320
METAR EFHA 102320Z AUTO 35009KT 9999 OVC009 M06/M07
 Q0996=
EFHF 102320Z AUTO 33015KT 9999 OVC011 M02/M04 Q0993=
METAR EFKA 102320Z AUTO 04012KT 9999 -SG OVC014 
M07/M09 Q1000=
EFKK 102320Z AUTO 03009KT 9999 -SG FEW031 OVC036 M10/M11 Q1002=
EFMA 102320Z AUTO 35008KT 320V020 9999 -SHSN OVC015 M01/M01 Q0999=
METAR EFPO 102320Z AUTO 01008KT 350V050 9999 OVC009/// M04/M05 Q0998 
R12/29//95=
EFSI 102320Z AUTO 02006KT 340V070 9999 OVC009 M07/M07 Q0999=

0000083400
363
FTUS42 KWBC 102324
TAF
KCRP 102323Z 1100/1124 17008KT P6SM FEW040 BKN250
     FM110400 21004KT 4SM BR SCT005 SCT250
     FM110700 VRB03KT 1/2SM FG BKN005
     FM111300 33005KT 3SM BR SCT005
     FM111500 36011KT P6SM FEW250=
KDAL 102322Z 1100/1124 23011KT P6SM VCSH SCT035 SCT120
     FM110200 32008KT P6SM SKC=
KFPR 102322Z 1100/1124 14005KT P6SM FEW030 FEW045 BKN250
     FM110800 16005KT 5SM BR BKN010
     FM111400 18010G15KT P6SM SCT015 BKN150
     FM111600 19014G20KT P6SM SCT025 BKN080=
KFTW 102322Z 1100/1124 23011KT P6SM SCT035 SCT120
     FM110100 32008KT P6SM SKC=
KLRD 102323Z 1100/1124 VRB06KT P6SM BKN250
     FM111300 35008KT P6SM FEW250=
KTUL 102323Z 1100/1124 28015G18KT P6SM FEW025 SCT050 SCT180
     FM110200 26007KT P6SM SCT250
     FM111800 30008KT P6SM SKC=

0000022400
364
FTUS41 KWBC 102324 AAA
TAF AMD
KMDT 102321Z 1023/1118 00000KT 2SM -SHRA BR OVC006
     FM110300 15005KT 1SM -RA BR OVC010 WS020/19045KT
     FM111500 17014G24KT 3SM RA BR BKN009 OVC016 WS012/19047KT=

0000084800
365
FTUS31 KWBC 102324
TAF
KDFW 102322Z 1100/1206 23011KT P6SM VCSH SCT035 SCT120
     FM110200 32008KT P6SM SKC=
KDTW 102322Z 1100/1206 16010KT 4SM BR OVC006 WS020/19043KT
      TEMPO 1100/1104 2SM -SHRA BR BKN004
     FM110400 16014KT 2SM -RA BR OVC004 WS020/19043KT
      TEMPO 1105/1109 1SM RA BR OVC002
     FM111200 18010KT 2SM SHRA BR OVC004
     FM111700 24012G20KT 6SM BR OVC010=
KLAX 102322Z 1100/1206 26008KT P6SM SCT250
     FM110300 VRB04KT 6SM HZ SCT250
     FM110600 VRB02KT 3SM BR SCT001 SCT007
     FM111800 VRB03KT 5SM HZ SCT250
     FM112100 26009KT P6SM SCT250
     FM120300 26004KT P6SM SCT250=
KMCO 102322Z 1100/1124 14004KT P6SM SCT050 SCT200 BKN250
     FM110800 17005KT 5SM BR OVC005
     FM111400 19010G15KT P6SM SCT015 BKN150
     FM111600 20014G22KT P6SM SCT025 BKN080=

0000083400
366
FTUS44 KWBC 102324
TAF
KPMD 102322Z 1100/1124 30010KT P6SM SCT250
     FM110300 26006KT P6SM SCT250
     FM111000 VRB03KT P6SM SCT250
     FM112100 26010KT P6SM SCT250=
KSAC 102320Z 1100/1124 VRB04KT P6SM BKN250
     FM110600 VRB03KT 4SM BR BKN200
      TEMPO 1110/1114 2SM BR
     FM111700 17011KT P6SM VCSH BKN050 OVC100=
KSCK 102320Z 1100/1124 30008KT P6SM BKN250
     FM110800 VRB03KT 4SM BR BKN250
     FM111400 14004KT 2SM BR OVC200
     FM111900 15008KT P6SM OVC100=
KSLC 102322Z 1100/1206 15007KT P6SM SCT040 BKN090
     FM111400 18010KT P6SM SCT070 BKN120
     FM120200 18011KT P6SM VCSH SCT020 BKN050=
KSMF 102320Z 1100/1124 VRB04KT P6SM BKN250
     FM110600 VRB04KT 4SM BR BKN200
      TEMPO 1110/1114 1 1/2SM BR BKN003
     FM111700 18014KT P6SM VCSH BKN050 OVC100=

0000141800
367
FTUS43 KWBC 102324
TAF
KDET 102322Z 1100/1124 16010KT 5SM BR OVC006 WS020/19043KT
      TEMPO 1100/1104 2SM -SHRA BR BKN004
     FM110400 16014KT 2SM -RA BR OVC004 WS020/19043KT
      TEMPO 1106/1110 1SM RA BR OVC002
     FM111200 18010KT 2SM SHRA BR OVC004
     FM111700 24012G20KT 6SM BR OVC010=
KFAR 102322Z 1100/1124 20010KT P6SM SKC
     FM110300 27008KT P6SM BKN015
     FM111100 29008KT P6SM BKN050=
KFNT 102322Z 1100/1124 16010KT 4SM BR OVC006 WS020/19044KT
      TEMPO 1100/1104 2SM -SHRA BR BKN004
     FM110400 16014KT 2SM -RA BR OVC004 WS020/19044KT
      TEMPO 1106/1110 1SM RA BR OVC002
     FM111200 20010KT 2SM SHRA BR OVC004
     FM111700 24012G20KT 5SM BR OVC010=
KGFK 102322Z 1100/1124 24008KT P6SM SKC
      TEMPO 1100/1102 BKN015
     FM110200 29011KT P6SM BKN015
     FM111100 29008KT P6SM BKN050=
KMBS 102322Z 1100/1124 17010KT 4SM BR OVC008 WS020/20040KT
      TEMPO 1100/1104 2SM -SHRA BR BKN004
     FM110400 16014KT 2SM -RA BR OVC004 WS020/20040KT
      TEMPO 1104/1108 1SM RA BR OVC002
     FM111200 20010KT 2SM SHRA BR OVC004
     FM111700 25012G20KT 5SM BR OVC010=
KMKE 102321Z 1100/1206 16012KT 2SM -FZRA BR OVC005
     FM110300 19008KT 2SM -RA BR OVC006
     FM110800 24006KT 3SM -DZ BR OVC004
     FM111400 27010G19KT 4SM -SN OVC008
     FM111800 27013G22KT P6SM BKN012
     FM120000 27010KT P6SM BKN025=

0000100700
368
FTUS71 KWBC 102324 AAA
TAF AMD
KAOO 102321Z 1023/1118 16004KT 6SM BR OVC040
     FM110500 17010KT 4SM -RA BR BKN013 OVC025 WS019/21040KT
     FM111300 17013G27KT 3SM RA BR BKN009 OVC016 WS012/19045KT=
KBFD 102321Z 1023/1118 14007KT 1/4SM FG VCSH VV002
      TEMPO 1100/1104 1/2SM FG
     FM110400 16009KT 4SM -RA BR BKN006 OVC009 WS019/21048KT
     FM111100 17014G27KT 2SM RA BR OVC009 WS012/19049KT=
KIPT 102321Z 1023/1118 08004KT 6SM HZ VCSH OVC015
     FM110300 10004KT 5SM -DZ BR OVC018
     FM110600 09005KT 3SM -DZ BR OVC013 WS020/19045KT
     FM111500 17012G24KT 3SM RA BR BKN009 OVC016 WS012/19045KT=
KJST 102321Z 1023/1118 15008KT 3SM BR SCT015 OVC040
     FM110500 17010KT 4SM -RA BR BKN007 OVC015 WS019/21040KT
     FM111100 17016G32KT 2SM RA BR BKN009 OVC016 WS012/19049KT=
KMDT 102321Z 1023/1118 00000KT 2SM -SHRA BR OVC006
     FM110300 15005KT 1SM -RA BR OVC010 WS020/19045KT
     FM111500 17014G24KT 3SM RA BR BKN009 OVC016 WS012/19047KT=

0000142600
369
FTUS72 KWBC 102324
TAF
KACT 102322Z 1100/1124 23007KT P6SM BKN150
     FM111300 31006KT P6SM SKC=
KALI 102323Z 1100/1124 24009KT P6SM FEW045 BKN250
     FM110500 VRB03KT 3SM BR SCT250
      TEMPO 1107/1111 1/2SM FG BKN005
     FM111200 32005KT 4SM BR SCT005
     FM111400 34010KT P6SM SKC=
KCRP 102323Z 1100/1124 17008KT P6SM FEW040 BKN250
     FM110400 21004KT 4SM BR SCT005 SCT250
     FM110700 VRB03KT 1/2SM FG BKN005
     FM111300 33005KT 3SM BR SCT005
     FM111500 36011KT P6SM FEW250=
KDAB 102322Z 1100/1124 14004KT P6SM FEW020 SCT070 SCT250
     FM110800 17004KT 5SM BR OVC005
     FM111400 19010G15KT P6SM SCT015 BKN150
     FM111600 21012G19KT P6SM SCT025 BKN060=
KDAL 102322Z 1100/1124 23011KT P6SM VCSH SCT035 SCT120
     FM110200 32008KT P6SM SKC=
KDFW 102322Z 1100/1206 23011KT P6SM VCSH SCT035 SCT120
     FM110200 32008KT P6SM SKC=
KFSM 102323Z 1100/1124 02006KT 3SM BR BKN005
      TEMPO 1100/1102 1SM TSRA BKN030CB
     FM110200 28008KT P6SM BKN250
     FM112100 28015G23KT P6SM SKC=
KFTW 102322Z 1100/1124 23011KT P6SM SCT035 SCT120
     FM110100 32008KT P6SM SKC=
KLRD 102323Z 1100/1124 VRB06KT P6SM BKN250
     FM111300 35008KT P6SM FEW250=
KMCO 102322Z 1100/1124 14004KT P6SM SCT050 SCT200 BKN250
     FM110800 17005KT 5SM BR OVC005
     FM111400 19010G15KT P6SM SCT015 BKN150
     FM111600 20014G22KT P6SM SCT025 BKN080=

0000111900
370
FTUS72 KWBC 102324 RRA
TAF
KMLB 102322Z 1100/1124 15005KT P6SM BKN030 BKN045
     FM110800 16005KT 5SM BR BKN010
     FM111400 19010G15KT P6SM SCT015 BKN150
     FM111600 20013G21KT P6SM SCT025 BKN080=
KMLC 102323Z 1100/1124 21009KT P6SM FEW017 SCT023 SCT030
      TEMPO 1100/1101 1SM TSRA BKN030CB
     FM110300 28008KT P6SM SCT250
     FM111800 30015G23KT P6SM SKC=
KSFB 102322Z 1100/1124 16004KT P6SM SCT050 SCT200 BKN250
     FM110800 17005KT 5SM BR OVC005
     FM111400 19010G15KT P6SM SCT015 BKN150
     FM111600 21013G21KT P6SM SCT025 BKN060=
KTUL 102323Z 1100/1124 28015G18KT P6SM FEW025 SCT050 SCT180
     FM110200 26007KT P6SM SCT250
     FM111800 30008KT P6SM SKC=
KVCT 102323Z 1100/1124 18009KT P6SM FEW050 BKN250
     FM110300 22007KT 5SM BR SCT010
     FM110700 24005KT 1/2SM FG BKN006
     FM111200 30005KT 3SM BR SCT006
     FM111400 34008KT P6SM SCT250=
KVRB 102322Z 1100/1124 14006KT P6SM FEW030 FEW045 BKN250
     FM110800 16005KT 5SM BR BKN010
     FM111400 18011G15KT P6SM SCT015 BKN150
     FM111600 19014G20KT P6SM SCT025 BKN080=

0000076300
371
SASN32 ESWI 102320
METAR ESKN 102320Z 31004KT 260V340 9999 BKN012 M03/M05 Q1002
R26/710195=
METAR ESOE 102320Z AUTO 13006KT 9999NDV FEW007/// SCT010///
OVC021/// M02/M04 Q1001 RESG RESN=
METAR ESOK 102320Z AUTO 12009KT 9999 OVC003/// M01/M01 Q0998 RESHUP=
METAR ESOW 102320Z AUTO VRB02KT 9999NDV OVC012/// M04/M06 Q1002=
METAR ESSA 102320Z 31007KT 9999 SCT008 BKN018 M04/M05 Q1001
R01L/19//71 R08/19//58 R01R/19//68 BECMG BKN010=
METAR ESSB 102320Z AUTO 28007KT 9999NDV BKN009/// OVC018///
M03/M05 Q1002=
METAR ESSD 102320Z AUTO 09005KT 0650 R32/P1500N SN VV001 M06/M08
Q1001=
METAR ESSP 102320Z AUTO VRB02KT 9999NDV BKN020/// OVC024///
M02/M03 Q1002=
METAR ESSV 102320Z AUTO 30009KT 9999NDV OVC009/// M01/M02 Q1002=

0000011100
372
SAIO31 KWBC 102300 RRC
METAR
VRMM 102300Z 07014KT 9999 FEW018TCU BKN280 28/23 Q1011 NOSIG=

00000000