0000023800
873
SNVD17 KWNB 110500 RRC
BBXX
46060 11051 99606 71468 46/// /1702 10006 49911 90450 22200 00050
11101 318// 41101 70006 333 91202 555 11018 22019 30414 41703
60449 169018 170017 164018 168018 156018 165021 81702 90353=
0000074900
874
SNVD22 KWNB 110500 RRE
BBXX
46029 11051 99462 71245 46/// /1816 10098 20095 40058 58031 90450
22200 00092 11409 20707 326// 41406 70045 333 91219 555 11168
22180 30415 41720 60449 180157 180156 179155 179157 178158 179151=
46054 11051 99343 71205 46/// /3211 10142 40182 51004 90450 22200
00142 11306 20604 331// 41304 70028 333 91213 555 11118 22126
30357 43314 60449 323111 325111 326109 325112 325115 325112=
46025 11051 99337 71191 46/// /1305 10151 20122 40183 51013 90450
22200 00156 11202 325// 41202 70009 333 91205 555 11048 22051
30427 41106 60449 129046 120046 119049 122045 123041 115041=
46026 11051 99378 71228 46/// ///05 10091 90450 22200 11405 20401
328// 41405 70023 333 91207 555 11051 22054=
0000015100
875
SNVD03 CWAO 110500
BBXX
CFL24 11054 99438 70606 47499 62619 10020 21022 40284 57019 7//// 86/// 222// 0//// 10603 70015 333 86/18=

0000034100
876
SZIO01 AMMC 110503
CREX++
T000103 A001 D01021 D06025++
-1211670 09689190 46280 2014 01 11 04 56 3007 11 07 00 01
01097 0046 01095 0042 01095 0039 01102 0044 01101 0041 01102 0040+
-1042940 10566940 46290 2014 01 11 04 56 //// 11 07 00 01
01122 0104 ///// //// ///// //// 01077 0052 01070 0043 01121 0091++
7777

0000046700
877
SZPA01 AMMC 110503
CREX++
T000103 A001 D01021 D06025++
0136250 17293000 67590 2014 01 11 04 56 3015 11 07 00 01
01811 0027 01809 0028 01800 0023 01795 0022 01779 0009 01779 0013+
0710610 17137250 67680 2014 01 11 04 56 3013 11 07 00 01
01147 0061 01144 0061 01135 0055 01134 0057 01135 0061 01134 0063+
0698060 15820000 67950 2014 01 11 04 56 3023 11 07 00 01
00924 0029 00923 0030 00919 0027 00918 0028 00915 0027 00908 0022++
7777

0000191400
878
SZAU01 AMMC 110503
CREX++
T000103 A001 D01021 D06025++
-1927750 14705860 59260 2014 01 11 04 56 3030 11 07 00 01
01600 0204 01604 0203 01606 0200 01613 0202 01619 0202 01620 0199+
-2316110 15079000 59670 2014 01 11 04 56 3000 11 07 00 01
02203 0155 02209 0154 02213 0150 02218 0146 02221 0141 02234 0144+
-3447330 15091170 60420 2014 01 11 04 56 2960 11 07 00 01
00914 -0007 00914 -0010 00917 -0009 00907 -0021 00904 -0027 00897 -0036+
-4105000 14591500 60910 2014 01 11 04 56 2890 11 07 00 01
00732 -0046 00748 -0036 00757 -0035 00759 -0039 00769 -0035 00782 -0031+
-4254640 14793080 61170 2014 01 11 04 56 2895 11 07 00 01
01132 0058 01131 0055 01133 0055 01134 0054 01137 0055 01135 0051+
-3834390 14161360 61410 2014 01 11 04 56 2905 11 07 00 01
00355 0039 00319 0002 00350 0032 00329 0010 00318 -0002 00354 0033+
-3214890 13364170 62000 2014 01 11 04 56 2963 11 07 00 01
00847 0100 00850 0101 00856 0104 00860 0106 00863 0107 00866 0107+
-3387080 12189720 62080 2014 01 11 04 56 2947 11 07 00 01
00771 0098 00782 0108 00797 0124 00775 0101 00767 0093 00777 0103+
-3182560 11573860 62237 2014 01 11 04 56 2970 11 07 00 01
00795 0082 00791 0077 00797 0082 00794 0079 00798 0082 00793 0076+
-2422000 11339750 62385 2014 01 11 04 56 //// 11 07 00 01
01031 -0085 01010 -0107 00956 -0163 00979 -0140 01024 -0097 01005 -0117+
-2181670 11419110 62430 2014 01 11 04 56 //// 11 07 00 01
01597 -0014 01599 -0013 01609 -0004 01613 -0002 01612 -0004 01616 -0002+
-1800080 12221830 62650 2014 01 11 04 56 3043 11 07 00 01
04835 0239 04837 0236 04840 0236 04843 0236 04846 0232 04849 0234+
-1247190 13084580 63230 2014 01 11 04 56 3050 11 07 00 01
05373 0024 05377 0024 05381 0023 05385 0024 05389 0025 05393 0025+
-1386000 13641580 63511 2014 01 11 04 56 3045 11 07 00 01
01400 0047 01403 0049 01406 0050 01410 0053 01412 0053 01416 0056++
7777

0000179300
879
SZPS01 AMMC 110503
CREX++
T000103 A001 D01021 D06025++
-0204190 14737360 56130 2014 01 11 04 56 3028 11 07 00 01
01151 0071 01148 0068 01148 0068 01152 0073 01152 0073 01150 0071+
-0669280 15640860 56363 2014 01 11 04 56 //// 11 07 00 01
00879 -0073 00886 -0064 00879 -0069 00878 -0068 00872 -0071 00871 -0070+
-0942890 15995560 56670 2014 01 11 04 56 3042 11 07 00 01
00902 -0033 00896 -0039 00896 -0038 00898 -0035 00896 -0036 00891 -0041+
-1072080 16580190 57131 2014 01 11 04 56 //// 11 07 00 01
03380 2448 03379 2450 03379 2453 03379 2456 03379 2459 03379 2462+
-1551560 16718860 57210 2014 01 11 04 56 //// 11 07 00 01
01181 -0075 01163 -0090 01152 -0097 01169 -0077 01166 -0077 01146 -0093+
-1775690 16830030 57320 2014 01 11 04 56 3015 11 07 00 01
01210 -0059 01209 -0057 01208 -0056 01210 -0052 01211 -0049 01212 -0045+
-4397330 16861610 65180 2014 01 11 04 56 2890 11 07 00 01
01757 0350 01768 0355 01761 0343 01763 0338 01767 0337 01790 0355+
-2120470 -15978530 65980 2014 01 11 04 56 3013 11 07 00 01
00813 0014 00812 0015 00817 0021 00806 0011 00777 -0016 00823 0031+
-2113810 -17518140 66600 2014 01 11 04 56 //// 11 07 00 01
01496 0101 01495 0103 01499 0110 01485 0100 01486 0104 01480 0102+
-1382670 -17176110 66840 2014 01 11 04 56 3010 11 07 00 01
00980 0054 00989 0066 00973 0053 00979 0062 00978 0064 00969 0058+
-1813250 17842750 67050 2014 01 11 04 56 3033 11 07 00 01
01689 0090 01690 0094 01688 0096 01673 0085 01671 0086 01670 0089+
-1760530 17743810 67070 2014 01 11 04 56 3033 11 07 00 01
01746 -0002 01742 -0002 01738 -0002 01737 0002 01732 0001 ///// ////+
-0850250 17919500 67440 2014 01 11 04 56 3030 11 07 00 01
02243 0002 02234 -0003 02226 -0007 02231 0002 02225 0000 02225 0004++
7777

0000011100
880
UANT01 CWAO 110500
ARP SVA034 4624N04815W 0500 F330 MS61 319/59 KT
HZAK19 QXT AME 110500 F16A
0000039300
881
UDIO01 AMMC 110500
AMDAR 1105
LVR AU0078 3857S 10956E 110413 F320 MS408 302/042 TB0 S031
  333 F320 VG007=
LVR AU0078 3902S 10847E 110420 F320 MS394 304/052 TB0 S031
  333 F320 VG006=
LVR AU0078 3917S 10740E 110427 F320 MS397 306/072 TB0 S031
  333 F320 VG004=
LVR AU0078 3930S 10634E 110434 F320 MS397 308/076 TB0 S031
  333 F320 VG009=

0000806900
03419
0000009500
882
SNAA21 ENMI 110500
AAXX 11051
89504 43/// /1803 11059 21128 38453 49926 52001=
0000011200
883
SNVF25 LFPW 110500
BBXX
BATFR21 11054 99427 10086 46/// /3609 10129 20095 40203 56005
22223=
0000013400
884
SNRE20 FMEE 110500
AAXX 11054
61980 22562 10920 10293 20225 40156 81800
  333 58012 60005 81826 90710 91125 92427=
0000011100
885
UANT01 CWAO 110500
ARP UAL972 5545N04323W 0500 F370 MS59 276/34 KT
N777UA DDL UAK 110500 F16A
0000106300
886
SASA85 EGRR 110500 RRA
METAR SBBE 110500Z 10002KT CAVOK 24/23 Q1010=
METAR SBBR 110500Z 02012KT 9999 VCTS BKN020 FEW035CB 22/15 Q1018=
METAR SBCF 110500Z 11006KT CAVOK 22/17 Q1018=
METAR SBCY 110500Z 00000KT 9999 FEW020 SCT100 24/20 Q1011=
METAR SBEG 110500Z 07006KT 9999 -RA SCT008 BKN025 23/20 Q1013=
METAR SBGL 110500Z 11004KT CAVOK 25/20 Q1012=
METAR SBMA 110500Z 27002KT 9999 -RA NSC 22/22 Q1011=
METAR SBMN 110500Z 05003KT 9999 SCT010 BKN100 22/21 Q1012=
METAR SBMQ 110500Z 31002KT 9999 FEW013 BKN080 34/23 Q1010=
METAR SBNT 110500Z 11005KT 9999 SCT023 25/21 Q1012=
METAR SBPA 110500Z 30003KT CAVOK 22/20 Q1009=
METAR SBPV 110500Z 34005KT 8000 -TSRA SCT008 SCT015 FEW025CB BKN070
      2 4/23 Q1010=
METAR SBRF 110500Z 12006KT 9999 FEW023 26/21 Q1012=
METAR SBSJ 110500Z 00000KT CAVOK 21/17 Q1015=
METAR SBSP 110500Z 03004KT CAVOK 23/17 Q1016=
METAR SUMU 110500Z 34003KT CAVOK 21/18 Q1008 NOSIG=
METAR SVBC 110500Z 00000KT 9999 FEW010 23/22 Q1015=
METAR SVMG 110500Z /////KT 9999 SCT010 24/22 Q1014 NOSIG=
0000012700
887
SPSA85 EGRR 110459 RRA
SPECI SBPV 110453Z 34005KT 8000 -TSRA SCT008 SCT015 FEW025CB BKN070
      24/23 Q1010=
0000134200
888
FTSA85 EGRR 110500 RRJ
TAF SAAR 110500Z 1106/1206 18005KT CAVOK TX29/1118Z TN16/1206Z
     BECMG 1110/1112 18010KT
     BECMG 1116/1117 16010KT=
TAF SABE 110500Z 1106/1206 18015KT 9999 SCT020 TX23/1118Z TN17/1110Z
     BECMG 1108/1110 16015KT 9999 BKN020
     BECMG 1115/1117 11015KT=
TAF SAZM 110500Z 1106/1206 20010KT 9999 BKN020 TX18/1118Z TN13/1110Z=
TAF SAZN 110500Z 1106/1206 05005KT CAVOK TX32/1118Z TN15/1110Z
     BECMG 1114/1116 02015KT=
TAF SAZS 110500Z 1106/1206 VRB05KT CAVOK TX28/1118Z TN05/1110Z
     BECMG 1113/1115 05010KT=
TAF SLCB 110430Z 1106/1206 00000KT 9999 FEW027 SCT070 TX29/1119Z
     TN11/1110Z
     BECMG 1115/1117 27010KT FEW030=
TAF SLET 110430Z 1106/1206 33007KT 9999 SCT010 TX33/1119Z TN22/1110Z
     PROB40 TEMPO 1108/1112 BKN005 BKN010
     BECMG 1115/1118 33015G25KT SCT010 BKN017 FEW027TCU
     PROB40 TEMPO 1119/1122 8000 SHRA FEW030CB
     FM112300 VRB02KT 8000 SHRA SCT010 SCT017 FEW030CB=
TAF SLLP 110430Z 1106/1206 10005KT 4000E VCFG FEW002 SCT012
     TX16/1120Z TN05/1110Z
     BECMG 1111/1114 9999 NSW FEW015
     TEMPO 1117/1120 14010KT SCT017 FEW020CB SCT070=
TAF SLPS 110430Z 1106/1206 00000KT 9999 NSC TX35/1119Z TN22/1110Z
     BECMG 1115/1118 SCT020
     TEMPO 1119/1122 8000 SHRA FEW030CB
     FM112300 VRB02KT 9999 FEW017=
0000008700
889
SAIN90 VOBM 110500
METAR VOBM 110500Z 07002KT 7000 FEW018 25/10 Q1019=

0000009100
890
SAIN90 VOCL 110500
METAR VOCL 110500Z 09003KT 6000  NSC  28/21 Q1014 NOSIG=
0000010200
891
SAIN90 VOCB 110500
METAR VOCB 110500Z 07007KT 4000 HZ SCT015 BKN080 24/18 Q1018 NOSIG=
0000009200
892
SPIN90 VEAT 110500
SPECI VEAT 110500Z 00000KT 2500 HZ NSC 21/13 Q1016 NOSIG=
00000000