0000027700
873
FCUK35 EGGY 102000
TAF EGAC 102000Z NIL=
TAF EGAE 102000Z NIL=
TAF EGEC 102000Z NIL=
TAF EGEO 102000Z NIL=
TAF EGPE 101959Z 1021/1106 22008KT 9999 FEW040 PROB30 TEMPO
    1103/1106 4000 SHRASN BKN007=
TAF EGPI 102000Z NIL=
TAF EGPN 102000Z NIL=

0000051700
874
FCUK36 EGGY 102000
TAF EGPA 101959Z 1021/1106 24014KT 9999 SCT020 PROB40 TEMPO
    1021/1106 5000 SHRAGS BKN008=
TAF EGPB 101959Z 1021/1106 25014KT 9999 FEW030 PROB30 TEMPO
    1021/1106 29022G32KT 6000 SHRA BKN010=
TAF EGPC 101959Z 1021/1106 24012KT 9999 FEW030 PROB30 TEMPO
    1105/1106 4000 SHRASN BKN006=
TAF EGPL 102000Z NIL=
TAF EGPM 102000Z NIL=
TAF EGPO 101955Z 1021/1106 24008KT 9999 FEW010 SCT018CB PROB40 TEMPO
    1021/1106 3000 SHRASN BKN004=
TAF EGPU 102000Z NIL=

0000027400
875
SAPM31 MPTO 102000
METAR
MPBO 102000Z 31004KT 260V010  9000 SCT018TCU SCT090 Q1012=
MPDA 102000Z 21010KT 9999 SCT020 31/24 Q1007=
MPMG 102000Z 30010KT 9999 FEW020 SCT090 28/23 Q1008 NOSIG=
MPPA 102000Z 30010KT 9999 FEW020 SCT090 28/23 Q1008 NOSIG=

0000025800
876
FTCN34 CWAO 102000 AAA
TAF AMD CYBR 102012Z 1020/1106 29011KT 6SM BR SCT008 OVC012 TEMPO
     1020/1023 2SM -SN BR OVC005
    FM102300 30010KT 6SM BR SCT008 OVC015 TEMPO 1023/1106 3SM -SN BR
     OVC008
    RMK NXT FCST BY 110000Z=

0000022500
877
FTUS51 KWBC 102009 AAA
TAF AMD
KJST 102008Z 1020/1118 19005KT 3SM BR OVC003
     FM110500 17010KT 4SM -RA BR BKN007 OVC015 WS019/21040KT
     FM111100 17016G32KT 2SM RA BR BKN009 OVC016 WS012/19049KT=

0000060100
878
FTUS53 KWBC 102009 AAA
TAF AMD
KDPA 102008Z 1020/1118 16012G16KT 1 1/2SM RA BR OVC003
     FM110300 19012KT 1SM -DZ BR VCSH OVC004
     FM110800 22012KT 3SM BR OVC004
     FM111200 26012G18KT P6SM OVC012=
KLSE 102008Z 1020/1118 13006KT 4SM -FZDZ BR OVC008
      TEMPO 1020/1022 1 1/2SM -SN BR OVC005
     FM102200 VRB03KT 2SM -SN BR OVC010
     FM110700 28005KT 6SM -SN BR OVC008
     FM111100 29007KT 6SM BR SCT010 BKN150=
KRFD 102008Z 1020/1118 16011KT 1 1/2SM RA BR OVC003
     FM110300 20012KT 1SM -DZ BR VCSH OVC005
     FM110900 26012G18KT P6SM OVC012=

0000022600
879
FTUS54 KWBC 102009
TAF
TAF AMD KRDM 102002Z 1020/1118 25011KT P6SM OVC050
     FM102300 19010KT P6SM VCSH OVC050
     FM110600 19015G24KT P6SM SCT050 OVC100
     FM111300 20018G30KT P6SM VCSH BKN050=

0000025500
880
FTUS54 KWBC 102009 AAA
TAF AMD
KCEC 102005Z 1020/1118 16009KT 1SM BR OVC003
      TEMPO 1020/1024 4SM BR
     FM110000 16010KT 5SM BR OVC003
     FM110600 17015G25KT 4SM RA BKN005 OVC020
     FM110900 17025G35KT 4SM RA OVC005=

0000136700
881
FTUS80 KWBC 102009 AAA
TAF AMD
KARA 102007Z 1020/1118 17014G20KT P6SM FEW015 OVC040
     FM102200 18010KT P6SM VCSH SCT007 OVC050
     FM110200 18012KT 5SM BR VCSH OVC007
      TEMPO 1102/1105 3SM SHRA OVC004
     FM110500 19012KT 4SM -SHRA BR OVC004
     FM111000 27009KT 1SM BR OVC002
     FM111600 33010KT P6SM SCT006=
KCEC 102005Z 1020/1118 16009KT 1SM BR OVC003
      TEMPO 1020/1024 4SM BR
     FM110000 16010KT 5SM BR OVC003
     FM110600 17015G25KT 4SM RA BKN005 OVC020
     FM110900 17025G35KT 4SM RA OVC005=
KDPA 102008Z 1020/1118 16012G16KT 1 1/2SM RA BR OVC003
     FM110300 19012KT 1SM -DZ BR VCSH OVC004
     FM110800 22012KT 3SM BR OVC004
     FM111200 26012G18KT P6SM OVC012=
KGYY 102008Z 1020/1118 16010KT 3SM BR OVC005
     FM102030 15012G16KT 1 1/2SM RA BR OVC005
     FM110400 19012KT 1SM -DZ BR VCSH OVC005
     FM110800 22012KT 3SM BR OVC005
     FM111200 26012G18KT P6SM OVC012=
KJST 102008Z 1020/1118 19005KT 3SM BR OVC003
     FM110500 17010KT 4SM -RA BR BKN007 OVC015 WS019/21040KT
     FM111100 17016G32KT 2SM RA BR BKN009 OVC016 WS012/19049KT=
KLSE 102008Z 1020/1118 13006KT 4SM -FZDZ BR OVC008
      TEMPO 1020/1022 1 1/2SM -SN BR OVC005
     FM102200 VRB03KT 2SM -SN BR OVC010
     FM110700 28005KT 6SM -SN BR OVC008
     FM111100 29007KT 6SM BR SCT010 BKN150=

0000022600
882
FTUS80 KWBC 102009
TAF
TAF AMD KRDM 102002Z 1020/1118 25011KT P6SM OVC050
     FM102300 19010KT P6SM VCSH OVC050
     FM110600 19015G24KT P6SM SCT050 OVC100
     FM111300 20018G30KT P6SM VCSH BKN050=

0000059300
883
FTUS80 KWBC 102009 AAB
TAF AMD
KMDW 102008Z 1020/1118 16012G16KT 1 1/2SM RA BR OVC005
     FM110300 20012KT 1SM -DZ BR VCSH OVC004
     FM110800 22012KT 3SM BR OVC004
     FM111200 26012G18KT P6SM OVC012=
KORD 102008Z 1020/1124 16012G16KT 1 1/2SM RA BR OVC005
     FM110300 20012KT 1SM -DZ BR VCSH OVC004
     FM110800 22012KT 3SM BR OVC004
     FM111200 26012G18KT P6SM OVC012
     FM111500 28014G22KT P6SM BKN018=
KRFD 102008Z 1020/1118 16011KT 1 1/2SM RA BR OVC003
     FM110300 20012KT 1SM -DZ BR VCSH OVC005
     FM110900 26012G18KT P6SM OVC012=

0000146200
884
SPUS70 KWBC 102008
SPECI
KFOK 102004Z 34004KT 1SM -RA BR BKN006 BKN010 OVC014 04/02 A3039
     RMK AO2 RAB1959 P0001=
KLAR 102004Z AUTO 29026G37KT 3SM HZ FEW075 BKN090 BKN110 M04/M09
     A2965 RMK AO2 PK WND 29037/1956=
KMCW 102004Z AUTO 15009KT 1/4SM FZFG M01/M01 A2960 RMK AO2
     T10111011 TSNO $=
KMDH 102004Z AUTO 17011KT 9SM -RA BKN008 OVC012 07/06 A2986 RMK
     AO2 P0000 T00720056=
KPSF 102004Z AUTO 23007KT 10SM BKN012 BKN044 BKN080 00/M02 A3027
     RMK AO2=
KRVS 102004Z 19005KT 10SM BKN027 BKN031 14/11 A2959 RMK AO2=
KSGF 102004Z 16019KT 10SM BKN007 BKN085 08/07 A2961 RMK AO2 CIG
     005V011 T00830072=
PAMB 102004Z AUTO 04008KT 10SM SCT007 OVC014 M04/M04 A2944 RMK AO2
     TSNO $=
PASO 102004Z AUTO 00000KT 9SM SCT019 OVC037 M02/M02 A2942 RMK AO2
     TSNO=
KADG 102005Z AUTO 18007KT 3SM BR OVC004 02/01 A2999 RMK AO2
     TSNO=
KDAW 102005Z AUTO 18003KT 8SM SCT012 SCT020 OVC075 M01/M03 A3034
     RMK AO2 T10111033=
KMIV 102005Z AUTO 00000KT 2SM BR OVC002 04/04 A3034 RMK AO2
     T00440044=
KRST 102005Z 13009KT 3/4SM R31/4000V5000FT -FZRA BR OVC003 M01/M03
     A2960 RMK AO2 FZRAB1959 P0000 I1001 T10111028=
KRUE 102005Z AUTO 01003KT 1 3/4SM +RA BR FEW005 OVC010 10/09 A2975
     RMK AO2 CIG 007V013 P0008=
KRXE 102005Z AUTO 25010KT 10SM OVC015 M02/M04 A2990 RMK AO2
     T10221044=
KUTS 102005Z AUTO 17011G18KT 10SM BKN023 OVC035 19/16 A2980 RMK
     AO2=

0000009800
885
SPUS43 KWBC 102008
SPECI
KSGF 102004Z 16019KT 10SM BKN007 BKN085 08/07 A2961=

0000010300
886
SPUS41 KWBC 102009
SPECI
KCEF 102006Z AUTO 17004KT 10SM SCT007 BKN095 00/00 A3034=

0000010700
887
SABZ42 KWBC 102000 RRA
METAR
SBSJ 102000Z 06003KT 9999 TS SCT025 FEW030CB 25/14 Q1015=

0000012100
888
SACA31 KWBC 102000 RRA
METAR
MYNN 102000Z 11009KT 9999 FEW014CB SCT016TCU BKN080 25/22
     A3009=

0000023000
889
SACA33 KWBC 102000 RRA
METAR
TLPL 102000Z 08017KT 9999 BKN022 28/22 Q1014 NOSIG=
TNCM 102000Z 07012KT 040V100 9999 FEW019 27/19 Q1016 A3002
     NOSIG=
TTCP 102000Z 09010KT 9999 SCT015 28/21 Q1013 NOSIG=

0000009900
890
SAHA31 KWBC 102000 RRA
METAR
MTPP 2000Z 08013KT 9999 FEW030 32 Q1014/7 A29/96=

0000014100
891
SAJP41 KWBC 102000 RRA
METAR
RJAW 102000Z 04010KT 010V070 9999 FEW020 SCT030 17/08 Q1021 RMK
     1CU020 4CU030 A3017=

0000041500
892
SASA31 KWBC 102000 RRA
METAR
SKBQ 102000Z 03007KT 9999 FEW020 31/23 A2977=
SKCG 102000Z 32010KT 9999 FEW020 31/23 A2976=
SKCL 102000Z 00000KT 9999 FEW015 BKN100 27/20 A2987=
SKLT 102000Z 00000KT 9999 7000N VCSH BKN012 27/25 A2971 RERA=
SKRG 102000Z 04008KT 9999 VCSH BKN020 TCU 20/13 A3016 RMK
     TCUN/S/W/ VCSH/N=
SKSP 102000Z 09011KT 9999 FEW018 28/23 A2985=
SVMC 102000Z NIL=

00000000