0000010400
093
SANT31 KWBC 101700 RRC
METAR
BGJN 101720Z 11024KT 9999 FEW010 SCT160 M09/M18 Q0991=

0000010100
094
SAPA31 KWBC 101700 RRE
METAR
AYPY 101700Z 34004KT 4000M /FOG OVC003 25/25 Q1005=

0000148500
095
FTUS73 KWBC 101736
TAF
KAPN 101733Z 1018/1118 18007KT 5SM BR OVC015
     FM110000 16009KT 3SM -SNPL BR OVC008
     FM110200 15009KT 2SM -FZRAPL BR OVC008 WS020/20040KT
     FM110500 14009KT 2SM -RA BR OVC005 WS020/20040KT
     FM111100 18005KT 3SM -DZ BR OVC005=
KBIS 101732Z 1018/1118 27008KT P6SM SCT250
     FM110200 29007KT P6SM BKN050 BKN250
     FM111000 30010KT P6SM SCT250=
KBRL 101734Z 1018/1118 15010KT 3SM -RA BR OVC002
     FM102000 16009KT 1SM -RA BR OVC002
     FM110100 18003KT 1/2SM -RA FG OVC002
     FM110700 26005KT 1SM -RAFZRA BR OVC003
     FM110900 27010KT 2SM -SN BR OVC004
     FM111300 28011KT 4SM BR VCSH OVC006=
KCID 101734Z 1018/1118 14010KT 2SM -DZ BR OVC003
     FM102100 14008KT 1SM -RA BR OVC002
     FM110000 18003KT 1/2SM -RA FG OVC002
     FM110400 26005KT 1SM -RAFZRA BR OVC003
     FM110600 29011KT 1SM -SN BR OVC003
     FM111200 29012KT 4SM BR OVC004
     FM111500 29012KT 6SM BR OVC020=
KCMX 101734Z 1018/1118 18010KT P6SM SCT030
     FM102100 18009KT P6SM BKN030
     FM110400 16005KT 5SM -SN BKN015
     FM111400 28010KT P6SM BKN020=
KCOS 101730Z 1018/1118 30025G35KT P6SM FEW080 BKN150
     FM110100 31012KT P6SM SCT120 SCT250
     FM111200 36006KT P6SM SKC=
KCPR 101734Z 1018/1118 23020G30KT P6SM SCT100 BKN200
     FM102100 26020G30KT P6SM FEW120
     FM110100 26015KT P6SM SCT200
     FM110800 23020G30KT P6SM SCT200
     FM111500 22025G40KT P6SM FEW120=

0000126800
096
FTUS73 KWBC 101736 RRB
TAF
KPLN 101733Z 1018/1118 15008KT 5SM BR OVC006
      TEMPO 1018/1022 OVC004
     FM110100 13005KT 1SM -SNPL BR OVC005 WS020/20030KT
     FM110700 13006KT 2SM -FZRAPL BR OVC005 WS020/20030KT
     FM111000 16004KT 2SM -SNDZ BR OVC005=
KPUB 101730Z 1018/1118 29025G35KT P6SM FEW090 SCT150
     FM110100 28010KT P6SM SCT120 SCT250
     FM110300 28007KT P6SM SKC=
KRKS 101734Z 1018/1118 28015G25KT 6SM BLSN SCT025 BKN040
      TEMPO 1018/1020 3SM -SN BLSN BKN015
     FM102000 28020G30KT 6SM BLSN SCT030
     FM110200 25015KT P6SM VCSH BKN040=
KSAW 101734Z 1018/1118 18014KT 5SM BR OVC006
     FM110000 18010KT 5SM -SN OVC005
     FM110300 18006KT 1 1/2SM -SN OVC005
     FM111500 28010KT P6SM OVC015 AMD LTD TO CLD VIS AND WIND
      1103/1111=
KSTJ 101732Z 1018/1118 16008KT 2SM BR OVC004
     FM102100 21006KT 4SM BR OVC008
     FM110400 27006KT 4SM BR OVC006
     FM110800 26010KT P6SM SCT150=
KTVC 101733Z 1018/1118 16007KT 2SM BR OVC006
      TEMPO 1018/1022 OVC004
     FM110000 14008KT 2SM -FZRAPL BR OVC006 WS020/20030KT
     FM110300 14005KT 2SM -RA BR OVC004 WS020/20030KT
     FM111000 20004KT 2SM -DZ BR OVC004=
KWRL 101734Z 1018/1118 VRB06KT P6SM SCT080 BKN100=

0000146100
097
FTUS74 KWBC 101736
TAF
KBFL 101735Z 1018/1118 10005KT 5SM HZ SCT200
     FM102000 27004KT 6SM HZ FEW200
     FM110300 08003KT 5SM HZ FEW200=
KBUR 101733Z 1018/1118 VRB03KT P6SM SKC
     FM102100 17006KT P6SM SKC
     FM110300 09003KT P6SM SKC=
KFAT 101735Z 1018/1118 VRB03KT 3SM HZ SCT200
     FM102100 VRB03KT 6SM HZ FEW200
     FM110300 11003KT 4SM HZ FEW200=
KLAX 101733Z 1018/1124 VRB03KT 5SM HZ SCT007 SCT250
     FM102100 26008KT P6SM SCT250
     FM110300 VRB04KT 6SM HZ SKC
     FM110600 VRB02KT 5SM BR FEW001 SCT007
     FM111600 VRB03KT P6SM SKC
     FM112100 26007KT P6SM SCT250=
KLGB 101733Z 1018/1118 VRB03KT 4SM HZ SKC
     FM102100 19006KT P6SM SKC
     FM110200 VRB03KT P6SM SKC
     FM110700 VRB03KT 5SM BR SKC=
KONT 101732Z 1018/1124 VRB06KT 5SM HZ SCT250
      TEMPO 1100/1104 6SM HZ
     FM112000 25006KT 6SM HZ FEW250=
KPMD 101733Z 1018/1118 VRB03KT P6SM SKC
     FM102200 28011KT P6SM SKC
     FM110300 26006KT P6SM SKC
     FM111000 VRB03KT P6SM SKC=
KPRB 101733Z 1018/1118 VRB03KT P6SM SKC
     FM102100 05005KT P6SM SKC
     FM110100 09006KT P6SM SKC
     FM110600 VRB03KT 6SM BR SKC=
KPSP 101732Z 1018/1118 VRB06KT P6SM FEW250=
KSAN 101732Z 1018/1124 VRB04KT P6SM FEW017 FEW250
     FM102000 30007KT P6SM FEW250
     FM110200 VRB03KT P6SM FEW250
     FM110400 VRB03KT P6SM SCT005
      TEMPO 1110/1114 6SM BR
     FM112000 26007KT P6SM FEW250=

0000067300
098
FTUS74 KWBC 101736 RRA
TAF
KSBA 101733Z 1018/1118 VRB05KT P6SM SKC
     FM102100 20006KT P6SM SKC
     FM110200 VRB03KT P6SM SKC=
KSBP 101733Z 1018/1118 VRB05KT P6SM SKC
     FM102000 34009KT P6SM SKC
     FM102300 33012KT P6SM SKC
     FM110400 VRB03KT P6SM SKC
     FM111200 09003KT P6SM FEW250=
KSMX 101733Z 1018/1118 34013KT P6SM SKC
     FM102000 35013G20KT P6SM SKC
     FM110500 01009KT P6SM SKC
     FM111200 VRB05KT P6SM SKC=
KSNA 101732Z 1018/1118 VRB04KT 5SM HZ SCT250
     FM102000 22006KT P6SM FEW250
      TEMPO 1020/1023 6SM HZ
     FM110300 VRB05KT 6SM BR FEW005
     FM110700 VRB03KT 4SM HZ VCFG SCT005=

0000030100
099
FTUS75 KWBC 101736 RRA
TAF
PASN 101735Z 1018/1118 VRB05KT P6SM VCSH BKN015 BKN025
     FM110700 12012KT 4SM -SHRASN BR BKN009 OVC015
     FM111500 08010KT 3SM -SHRASN BR BKN006=
PATA 101733Z 1018/1118 VRB03KT P6SM FEW100=
PAUN 101733Z 1018/1118 09018KT P6SM SCT100 BKN200=

0000146800
100
FTUS31 KWBC 101736 RRA
TAF
KIAH 101734Z 1018/1124 16010KT P6SM BKN045 BKN250
     FM102100 17011KT P6SM VCSH BKN040
     FM110200 18006KT 4SM BR SCT007 BKN015
     FM110600 23007KT 6SM BR BKN007
     FM110900 27008KT P6SM SCT010
     FM111100 33006KT P6SM SKC=
KJFK 101733Z 1018/1124 VRB04KT 6SM BR SCT015 OVC030
      TEMPO 1018/1020 4SM -DZ BR BKN015
     FM102000 VRB04KT 6SM BR BKN015 BKN025
      TEMPO 1102/1105 -RA BKN008 OVC015
     FM110500 16008KT 3SM -RA BR BKN006 OVC015 WS020/19040KT
     FM110800 15011KT 1SM -RA BR OVC004 WS020/19055KT
     FM111400 17018KT 1SM -RA BR OVC004 WS015/19060KT
     FM111900 18023G30KT 1SM RA OVC004 WS015/19060KT=
KLAX 101733Z 1018/1124 VRB03KT 5SM HZ SCT007 SCT250
     FM102100 26008KT P6SM SCT250
     FM110300 VRB04KT 6SM HZ SKC
     FM110600 VRB02KT 5SM BR FEW001 SCT007
     FM111600 VRB03KT P6SM SKC
     FM112100 26007KT P6SM SCT250=
KLGA 101733Z 1018/1118 VRB04KT 6SM BR SCT015 OVC030
      TEMPO 1018/1020 4SM -DZ BR BKN015
     FM102000 VRB04KT 6SM BR BKN015 BKN025
      TEMPO 1102/1105 -RA BKN008 OVC015
     FM110500 15007KT 3SM -RA BR BKN006 OVC015 WS020/19040KT
     FM110800 15011KT 1SM -RA BR OVC004 WS020/19055KT
     FM111400 17016KT 1SM -RA BR OVC004 WS015/19060KT=
KMCI 101732Z 1018/1118 16006KT 1SM -DZ BR OVC002
     FM102200 21008KT 4SM BR OVC008
     FM110500 27008KT 4SM BR OVC006
     FM110900 26012KT P6SM SCT150=

0000124700
101
FTUS41 KWBC 101736
TAF
KALB 101733Z 1018/1118 18006KT P6SM SCT040 SCT080
     FM102000 19007KT P6SM SCT030 OVC050
     FM110600 16006KT 3SM -FZRAPL BR SCT050 OVC150
     FM110900 16006KT 4SM -SHRA BR OVC035
     FM111200 18010KT 4SM -SHRA BR OVC040=
KBDR 101733Z 1018/1118 VRB04KT 5SM -FZDZ BR SCT012 OVC020
      TEMPO 1018/1020 2SM -DZ BR BKN012
     FM102000 VRB02KT 6SM BR BKN012 OVC020
      TEMPO 1102/1105 -RA
     FM110500 15003KT 3SM -RA BR BKN006 OVC012
     FM110800 15008KT 1SM -RA BR OVC003 WS020/19050KT
     FM111400 17011KT 1SM -RA BR OVC004 WS015/19050KT=
KBTV 101735Z 1018/1118 19007KT P6SM OVC050
     FM110000 17007KT P6SM BKN025 OVC045
     FM110800 17010G18KT P6SM VCSH BKN018 OVC040
     FM111200 18012G22KT 6SM -RA BR BKN015 OVC035 WS020/18050KT=
KCRQ 101732Z 1018/1118 VRB05KT P6SM FEW250
     FM102000 25007KT P6SM FEW250
     FM110500 VRB03KT 5SM BR VCFG SCT002
     FM111600 VRB03KT P6SM FEW250=
KGON 101733Z 1018/1118 VRB04KT 3SM -RA BR SCT015 OVC025
     FM102000 VRB04KT 3SM BR BKN015 OVC025
     FM110600 14004KT 3SM -RA BR BKN007 OVC015
     FM110900 15008KT 1SM -RA BR OVC004 WS020/19050KT
     FM111400 16011KT 1SM -RA BR OVC004 WS020/19055KT=

0000149400
102
FTUS71 KWBC 101736 RRA
TAF
KCHO 101735Z 1018/1118 00000KT 3SM -RA BR OVC008
     FM102000 00000KT 3SM BR OVC008
     FM102300 00000KT 2SM BR OVC003
     FM110100 00000KT 2SM -RA BR OVC003
     FM111000 VRB03KT 1SM BR OVC003 WS020/20035KT
     FM111300 19006KT 1/2SM FG OVC003 WS020/20040KT
     FM111600 19008KT 3/4SM BR OVC003 WS020/20045KT
     FM111700 19008KT 1SM SHRA BR OVC003 WS020/20045KT=
KDCA 101735Z 1018/1118 VRB03KT 1SM BR OVC010
     FM102000 VRB03KT 2SM BR OVC010
     FM102300 VRB03KT 2SM -RA BR OVC008
     FM110200 00000KT 1SM -RA BR OVC003
     FM111100 19006KT 1SM -RA BR OVC003 WS020/20040KT
     FM111200 19007KT 1SM -SHRA BR OVC003 WS020/20045KT
     FM111500 18009KT 1SM BR OVC003 WS020/20045KT
     FM111700 18011KT 2SM -SHRA BR OVC003 WS020/20045KT=
KEWR 101733Z 1018/1124 VRB04KT 6SM BR BKN015 OVC030
      TEMPO 1018/1020 4SM -DZ BR
     FM102000 VRB03KT 6SM BR BKN012 BKN025
      TEMPO 1102/1105 -RA BKN008 OVC015
     FM110500 15005KT 3SM -RA BR BKN006 OVC015
     FM110800 16008KT 1SM -RA BR OVC004 WS020/19050KT
     FM111400 17014KT 1SM -RA BR OVC004 WS015/19050KT
     FM111900 18016G23KT 1SM RA OVC004 WS015/19050KT=
KGFL 101733Z 1018/1118 17003KT 4SM BR OVC011
     FM102000 18004KT P6SM SCT025 OVC040
     FM110300 VRB03KT P6SM SCT040 OVC080
     FM110800 VRB03KT 3SM -FZDZ BR BKN015 OVC025
     FM111200 16003KT 3SM -FZRAPL BR OVC020
     FM111500 18008KT 4SM -SHRA BR OVC040=

0000130000
103
FTUS73 KWBC 101736 RRA
TAF
KJAC 101734Z 1018/1118 19007KT P6SM VCSH SCT025 BKN045
     FM101900 20015G25KT P6SM VCSH SCT025 BKN045
     FM110800 19015KT 5SM -SN SCT010 OVC030
     FM111400 19015KT 3SM -SN SCT010 OVC020 AMD LTD TO CLD VIS AND
      WIND=
KJMS 101732Z 1018/1118 26010KT P6SM BKN250
     FM102000 27011KT P6SM FEW090 SCT250
     FM110300 28009KT P6SM BKN250
     FM110500 29009KT P6SM BKN110
     FM111100 30012KT P6SM SCT025 BKN050=
KMCI 101732Z 1018/1118 16006KT 1SM -DZ BR OVC002
     FM102200 21008KT 4SM BR OVC008
     FM110500 27008KT 4SM BR OVC006
     FM110900 26012KT P6SM SCT150=
KMKC 101732Z 1018/1118 16008KT 1 1/2SM -DZ BR OVC005
     FM102100 21006KT 4SM BR OVC012
     FM110600 27006KT 4SM BR OVC008
     FM110900 26010KT P6SM SCT150=
KMLI 101734Z 1018/1118 14013KT 6SM -RA BR OVC006
     FM102000 14010KT 2SM -RA BR OVC003
     FM102300 17008KT 1SM -RA BR OVC002
     FM110200 18003KT 1/2SM -RA FG OVC002
     FM110800 26005KT 1SM -RAFZRA BR OVC003
     FM111000 28011KT 2SM -SN BR OVC004
     FM111400 28011KT 4SM BR VCSH OVC006=
KMOT 101732Z 1018/1118 23011G22KT P6SM SCT025 BKN250
     FM102100 26012KT P6SM BKN025 BKN060
     FM110300 27011KT P6SM BKN250
     FM110800 27012KT P6SM SCT250=

0000149500
104
FTUS75 KWBC 101736
TAF
PABE 101735Z 1018/1118 04006KT 6SM BR OVC006
     FM110600 05010KT 4SM BR FEW006 BKN010
     FM111300 03005KT P6SM BKN025=
PABR 101733Z 1018/1118 32010KT P6SM SKC
     FM110600 31010KT P6SM SCT035 BKN050 OVC100=
PABT 101733Z 1018/1118 00000KT P6SM FEW200=
PACD 101735Z 1018/1118 19010KT 6SM BR VCSH SCT025 BKN040
     FM102200 16012KT 6SM -SHRA SCT015 BKN025
     FM110300 14015G22KT 5SM -RA BKN015 OVC025
     FM110800 20019KT 5SM -SHRASN BKN020=
PADL 101735Z 1018/1118 VRB03KT 2SM BR BKN004 OVC012
      TEMPO 1018/1021 3/4SM BR
     FM110000 01009KT 3SM BR SCT006 BKN009
     FM110300 01010KT 6SM BR BKN015 BKN035=
PADU 101735Z 1018/1118 19006KT P6SM VCSH SCT025 BKN045
     FM102000 15010KT 5SM -RA BR SCT018 BKN025
     FM102200 15009KT 4SM -RA BR BKN009 OVC015
     FM110300 21011G18KT 6SM -SHRA SCT025 BKN035
     FM111500 21018G29KT P6SM -SHRA BKN035=
PAGA 101733Z 1018/1118 VRB03KT P6SM FEW100=
PAIL 101735Z 1018/1118 35006KT 6SM BR SCT002 BKN022
     FM110200 VRB05KT 5SM BR FEW002 BKN035=
PAKN 101735Z 1018/1118 VRB04KT 6SM BR SCT003 BKN025
     FM110000 03006KT P6SM SCT035 BKN100=
PAMC 101733Z 1018/1118 00000KT P6SM VCSH SCT025 OVC050=
PAOM 101733Z 1018/1118 05010KT P6SM SCT100 BKN200=
PAOR 101733Z 1018/1118 VRB03KT 4SM -SN BKN020 OVC035=
PAOT 101733Z 1018/1118 34003KT P6SM SKC=
PASC 101733Z 1018/1118 24012KT P6SM OVC035
     FM110600 25020KT 1/2SM BLSN FEW015 BKN025 OVC035=

0000036700
105
SAAL31 DAAA 101730
METAR DAAG 101730Z VRB02KT 9999 FEW033 BKN070 17/04 Q1016=
METAR DAAT 101730Z 18008KT CAVOK 18/M04 Q1022=
METAR DABB 101730Z NIL=
METAR DABC 101730Z 24007KT CAVOK 09/01 Q1019=
METAR DAON 101730Z NIL=
METAR DAOO 101730Z 35004KT 9999 FEW023 BKN233 18/06 Q1014=
METAR DAUH 101730Z 00000KT 9999 FEW040 SCT100 18/09 Q1020=

0000016200
106
FCFR32 LFPW 101700 AAA
TAF AMD LFOT 101731Z 1018/1103 07005KT 0800 FG SCT005 BECMG 1018/1020
 0300 VV/// TEMPO 1022/1103 -DZRA BKN005 BKN015=

0000022600
107
SAIE32 EIDB 101730
METAR EICM 101730Z NIL=
METAR EIDL 101730Z NIL=
METAR EIKY 101720Z VRB01KT 9999 SCT026 BKN031 06/05 Q1010=
METAR EIME 101730Z NIL=
METAR EISG 101730Z NIL=
METAR EIWF 101730Z NIL=

0000030200
108
FTCN35 CWAO 101700 AAA
TAF AMD CYWA 101735Z 1018/1106 15005KT P6SM SCT010 OVC040 TEMPO
     1018/1102 4SM -SN OVC010
    FM110200 14005KT P6SM SCT008 BKN020 TEMPO 1102/1106 2SM -SN
     BKN008 PROB30 1102/1106 2SM -FZRA BR
    RMK FCST BASED ON AUTO OBS. NXT FCST BY 110000Z=

0000024300
109
FTCN32 CWAO 101700
TAF CYQF 101738Z 1018/1106 VRB03KT P6SM OVC050 TEMPO 1018/1020 5SM
     -SN
     BECMG 1020/1022 28008KT
    FM110300 25005KT P6SM BKN040
     BECMG 1103/1105 13008KT
    RMK NXT FCST BY 110000Z=

0000022600
110
FTCN32 CWAO 101700
TAF CYSF 101738Z 1018/1106 08006KT P6SM FEW090 BKN210
    FM102100 08008KT P6SM FEW020 BKN090 TEMPO 1021/1106 2SM -SN
     OVC020
    RMK FCST BASED ON AUTO OBS. NXT FCST BY 110000Z=

0000015900
111
FTCN32 CWAO 101700
TAF CYQL 101738Z 1018/1106 26025G35KT P6SM SCT100 BKN220
     BECMG 1102/1104 26015G25KT
    RMK NXT FCST BY 110000Z=

0000016900
112
FTCN33 CWAO 101700
TAF CYBK 101738Z 1018/1106 30012KT P6SM FEW030 TEMPO 1018/1106 5SM IC
     BECMG 1020/1022 VRB03KT
    RMK NXT FCST BY 110000Z=

00000000