0000023400
733
NOUK32 EGGY 102241
SADIS GATEWAY MONITOR
INTERNAL ALARM MESSAGE
AERODROME NOT RECEIVED

SKBO FT LAST RECEIVED AT 101000Z
VABB FT LAST RECEIVED AT 100300Z
ZSPD FT LAST RECEIVED AT 101526Z
END OF MESSAGE

0000047000
734
SAFR33 LFPW 102230
METAR LFKB 102230Z 00000KT 9999 FEW020 OVC028 12/09 Q1021 NOSIG=
METAR LFKF 102230Z AUTO 08006KT 040V110 9999 BKN024/// OVC240///
12/09 Q1020=
METAR LFKJ 102230Z 06006KT 9999 FEW010 07/06 Q1020 NOSIG=
METAR LFMP 102230Z AUTO 31003KT 6000 OVC023 09/08 Q1018=
METAR LFMV 102230Z AUTO 24001KT 8000 OVC025 09/07 Q1020=
METAR LFSL 102230Z AUTO 00000KT 9999 NSC 04/03 Q1015=
METAR LFKC 102230Z NIL=
METAR LFLC 102230Z NIL=

0000009700
735
SAKO31 RKSI 102230
METAR RKSI 102230Z 05004KT 6000 FEW030 M05/M07 Q1032 NOSIG=

0000100900
736
SAFR34 LFPW 102230
METAR LFCR 102230Z AUTO 14009KT 9999 NSC 07/03 Q1016=
METAR LFJL 102230Z AUTO 13006KT 4800 BR NSC 01/M00 Q1018=
METAR LFLP 102230Z AUTO 06003KT 8000 NSC 04/03 Q1018=
METAR LFLS 102230Z AUTO 09005KT 2100 BR NSC 02/01 Q1018=
METAR LFLY 102230Z AUTO 00000KT 1900 BR NSC 04/03 Q1018=
METAR LFMT 102230Z 06005KT 9999 OVC033 11/08 Q1019 NOSIG=
METAR LFMU 102230Z AUTO 05005KT 9999 BKN028 OVC033 11/09 Q1019=
METAR LFOB 102230Z AUTO 16004KT 140V200 9999 OVC006 05/04 Q1017=
METAR LFOH 102230Z AUTO 12005KT 090V150 7000 BKN004 OVC092 05/04
Q1016=
METAR LFOK 102230Z AUTO 05005KT 0200 0150 R10/0800U R28/0900D FG
VV/// 01/01 Q1017=
METAR LFOP 102230Z AUTO 15004KT 130V190 4400 BR OVC003 05/04 Q1016=
METAR LFPB 102230Z AUTO 12005KT 7000 OVC005 05/05 Q1017=
METAR LFQA 102230Z AUTO 07002KT 0550 FG VV/// 04/03 Q1018=
METAR LFQB 102230Z AUTO 00000KT 0250 FZFG NSC M00/M00 Q1017=
METAR LFSN 102230Z AUTO VRB01KT 0150 R03/0650D FG BKN004 00/00
Q1018=

0000098000
737
SAFR35 LFPW 102230
METAR LFMI 102230Z AUTO 12004KT 9999 OVC025 12/08 Q1019=
METAR LFMK 102230Z AUTO 10014KT 9999 FEW013 BKN022 OVC027 11/08
Q1017=
METAR LFOV 102230Z AUTO 06003KT 020V080 2100 BR BKN002 BKN011
OVC086 06/06 Q1015=
METAR LFRD 102230Z AUTO 00000KT 0250 R35/1000N FG VV/// 07/06 Q1016=
METAR LFRI 102230Z AUTO 13005KT 9999 -RA NSC 09/07 Q1015=
METAR LFRM 102230Z AUTO 04003KT 010V070 6000 -RADZ BKN007 BKN064
OVC074 07/06 Q1016=
METAR LFRN 102230Z AUTO VRB03KT 2300 BR OVC002/// ///TCU 07/07
Q1016=
METAR LFRO 102230Z AUTO 18004KT 5000 BR NSC 06/06 Q1015=
METAR LFRV 102230Z AUTO 05005KT 2700 RA BR FEW002/// SCT010///
BKN016/// ///TCU 07/07 Q1015=
METAR LFRZ 102230Z AUTO 06003KT 2700 BR BKN033 OVC046 08/08 Q1015=
METAR LFSB 102230Z 18002KT 9999 FEW033 02/01 Q1019 NOSIG=
METAR LFST 102230Z AUTO 04001KT 0650 0450 R23/1300D R05/1500N FG
NSC 01/M00 Q1019=
METAR LFTH 102230Z AUTO 00000KT 9999 OVC026 12/08 Q1020=

0000071600
738
SAFR36 LFPW 102230
METAR LFBA 102230Z AUTO 00000KT 4100 BR NSC 06/05 Q1015=
METAR LFBE 102230Z AUTO 05002KT 4100 BR NSC 04/04 Q1015=
METAR LFGJ 102230Z AUTO 00000KT 5000 BR NSC 03/02 Q1018=
METAR LFJR 102230Z AUTO 07005KT 3200 BR NSC 07/06 Q1015=
METAR LFMD 102230Z AUTO 01003KT 9999 OVC027 10/08 Q1020=
METAR LFMH 102230Z AUTO 15010KT 4900 BR NSC 07/05 Q1016=
METAR LFOT 102230Z 08005KT 6000 NSC 07/06 Q1015 NOSIG=
METAR LFPN 102230Z AUTO 11004KT 0450 R25/1500N FG VV/// 05/05 Q1017=
METAR LFRC 102230Z AUTO 19010KT 4400 BR OVC003 07/06 Q1015=
METAR LFRG 102230Z AUTO 18007KT 7000 OVC004 05/05 Q1016=
METAR LFRK 102230Z AUTO 14005KT 5000 BR SCT008 SCT038 OVC050 05/05
Q1016=

0000068500
739
SAFR37 LFPW 102230
METAR LFAQ 102230Z AUTO 18009KT 7000 OVC007 04/04 Q1017=
METAR LFAT 102230Z AUTO 13005KT 4300 BR NSC 02/02 Q1016=
METAR LFLN 102230Z AUTO VRB01KT 7000 NSC 04/03 Q1016=
METAR LFPM 102230Z AUTO 10005KT 0500 FG VV/// 06/05 Q1017=
METAR LFPT 102230Z AUTO VRB02KT 6000 OVC005 05/04 Q1017=
METAR LFRH 102230Z AUTO 02003KT 1700 -RA BR FEW048 BKN058 OVC070
08/08 Q1015=
METAR LFRQ 102230Z AUTO 14002KT 0100 R28/0650D FG VV/// 08/08 Q1015=
METAR LFRT 102230Z AUTO 17004KT 2900 BR FEW039 07/07 Q1015=
METAR LFSD 102230Z AUTO 31002KT 9999 NSC 02/01 Q1018=
METAR LFTW 102230Z AUTO 08003KT 8000 OVC025 10/05 Q1019=
METAR LFBU 102230Z NIL=

0000023900
740
SANZ31 NZKL 102230
METAR NZAA 102230Z AUTO 21011KT 9999 OVC044/// 21/13 Q1019 NOSIG=
METAR NZWN 102230Z AUTO 36011KT 9999 FEW038/// 20/11 Q1017 NOSIG=
METAR NZCH 102230Z AUTO 07010KT 9999 OVC023/// 17/12 Q1017 NOSIG=

0000010500
741
SPUS31 KWBC 102237
SPECI
KSEA 102233Z 20010KT 10SM BKN019 BKN034 OVC095 09/06 A3001=

0000052900
742
SAMS31 WMKK 102230
METAR WBGG 102230Z 15002KT 4000 BR SCT000 SCT020 BKN150 22/22 Q1012
NOSIG=
METAR WBKK 102230Z 09005KT 9999 FEW014 BKN140 BKN270 24/22 Q1011
NOSIG=
METAR WBSB 102230Z 18004KT 9999 FEW005 FEW016CB BKN280 24/24 Q1012
NOSIG=
METAR WMKK 102230Z 34003KT 9000 FEW017CB SCT140 BKN280 24/23 Q1010
NOSIG=
METAR WMKP 102230Z 36002KT 8000 -RA FEW010 SCT024 OVC260 25/24 Q1011
NOSIG=
METAR WSSL 102230Z NIL=
METAR WSSS 102230Z 36003KT 280V060 9999 FEW018 BKN300 24/23 Q1011
NOSIG=

0000010500
743
SPCN52 CWAO 102237
SPECI CWFD 102237Z AUTO 20013KT 6SM CLR M20/ A2887 RMK ICG PAST HR=

0000012700
744
SARA31 RUMS 102230
METAR UEEE 102230Z 00000MPS 2400 -SN BR OVC200 M44/M48 Q1035 NOSIG
RMK QFE767 23490145=

0000050400
745
SARS33 RUMS 102230
METAR ULLI 102230Z 35007MPS 9999 -SNRA SCT010 OVC017 M01/M02 Q0985
28620240 78////// NOSIG RMK 28L/35007G10MPS=
METAR UUBW 102230Z 19005MPS 9999 OVC007 04/02 Q0988 NOSIG=
METAR UUDD 102230Z 23003MPS 190V260 9999 BKN014 04/03 Q0987 64290195
NOSIG=
METAR UUDL 102230Z NIL=
METAR UUEE 102230Z 20004MPS 8000 OVC009 03/03 Q0986 75290151 25290151
NOSIG=
METAR UUWW 102230Z 22003MPS 9999 BKN019 OVC100 03/02 Q0987 24290045
NOSIG=
METAR UUMO 102230Z NIL=

0000022700
746
FTMO31 ZMUB 102238
TAF ZMUB 102238Z 1100/1206 VRB02MPS 3000 FU SCT100
    TEMPO 1100/1105 1600 BR
    BECMG 1106/1108 4000
    BECMG 1122/1124 3000
    TEMPO 1200/1205 1600 BR TXM22/1106Z TNM33/1123Z=

0000097300
747
SARA34 RUMS 102230
METAR UNAA 102230Z 22005MPS CAVOK M04/M09 Q1029 NOSIG RMK QFE749
20090040=
METAR UNBB 102230Z 20004MPS 7000 -SN BKN013 M09/M11 Q1030 NOSIG RMK
QFE750/1000 24400545=
METAR UNEE 102230Z 19006MPS 1600 SN OVC007 M08/M09 Q1026 NOSIG RMK
QFE747 23452045=
METAR UNKL 102230Z VRB02G05MPS 9000 -SHSN SCT033CB BKN083 M07/M12
Q1026 NOSIG RMK QFE743 29////55=
METAR UNNT 102230Z 21007MPS 8000 -SHSN DRSN FEW021 OVC047CB M07/M10
Q1027 25390139 16390136 NOSIG RMK QFE761/1014=
METAR UNOO 102230Z 21005MPS 6000 -SHSN SCT020 BKN033CB M06/M08 Q1022
25390137 NOSIG RMK QFE758=
METAR UNTT 102230Z 22007MPS 1900 SHSN SCT006 BKN016CB OVC066 M06/M08
Q1024 NOSIG RMK QFE753 21390032=
METAR USTR 102230Z 17004MPS 9999 -SHSN BKN010CB OVC050 M04/M04 Q1012
TEMPO 1500 SHSN BKN005 RMK QFE750/1000 21390050 12750029=
METAR USHH 102230Z 04003MPS 9999 -SN BKN006 OVC080 M21/M24 Q1016
TEMPO 2000 SN BKN005 RMK QBB200 QFE758 06////37=

0000080700
748
SARS32 RUMS 102230
METAR URKA 102230Z NIL=
METAR URKK 102230Z 21008G11MPS CAVOK 08/01 Q1010 TEMPO 22010G15MPS
RMK QFE755 SC065=
METAR URML 102230Z NIL=
METAR URMM 102230Z 30002MPS 6000 SCT160 M04/M04 Q1012 12CLRD70 NOSIG
RMK QFE731/0975=
METAR URMN 102230Z NIL=
METAR URMO 102230Z NIL=
METAR URMT 102230Z 19003MPS CAVOK 01/M01 Q1011 NOSIG RMK QFE719
SC0.60=
METAR URRR 102230Z 23008G11MPS 9999 OVC014 07/05 Q1008 22290045 TEMPO
24010G15MPS=
METAR URSS 102230Z 05004MPS 9999 SCT230 04/M01 Q1016 NOSIG RMK
R06/09004MPS QFE760 02000070 06//////=
METAR URWA 102230Z 20003MPS 9999 OVC036 03/M00 Q1016 NOSIG RMK
QFE764/1018 SC055=
METAR URWI 102230Z NIL=
METAR URWW 102230Z 19006G09MPS 2000 -RA BR BKN012 OVC100 02/02 Q1008
TEMPO 0500 FG OVC002 RMK 29190060=

0000011700
749
SAIO31 KWBC 102200 RRF
METAR
FMCZ 102230Z NIL=
FMEE 102230Z AUTO 12011KT 9999 NSC 26/22 Q1014=

0000053800
750
SARA36 RUMS 102230
METAR UWUU 102230Z 13002MPS 4500 BR OVC010 M02/M03 Q1007 14650440
TEMPO 1000 SN FZRA BKN003 RMK QFE745/0993=
METAR USCC 102230Z 16004MPS 3000 -SHSN BR SCT010CB OVC070 M06/M06
Q1010 09490350 TEMPO 1100 SHSN BKN005 RMK QFE737=
METAR USNN 102230Z 02001MPS 8000 -SN OVC018 M13/M15 Q1018 NOSIG RMK
QFE759 03420232=
METAR USRR 102230Z 08003MPS 7000 SCT010 M27/M30 Q1018 NOSIG RMK
QFE758 07////35=
METAR USSS 102230Z 12002MPS 5000 -SN BKN009 OVC067 M05/M07 Q1008
08590230 NOSIG RMK QFE736=

0000025100
751
SARS31 RUMS 102230
METAR ULWC 102230Z NIL=
METAR UUBP 102230Z NIL=
METAR UUOB 102230Z NIL=
METAR UUOK 102230Z NIL=
METAR UWGG 102230Z 17006MPS 3900 -SN OVC006 01/00 Q0992 TEMPO 1000
SHSNRA VV004 18690540 RMK QBB180 QFE737=

0000065000
752
SARA32 RUMS 102230
METAR UHBB 102230Z VRB01MPS CAVOK M33/M36 Q1022 NOSIG RMK QFE749/0998
36410160=
METAR UHHH 102230Z 24008G11MPS CAVOK M26/M32 Q1019 NOSIG RMK
QFE757/1010 23090060=
METAR UHMA 102230Z NIL=
METAR UHMD 102230Z NIL=
METAR UHMM 102230Z 03006MPS 9999 SCT066 BKN200 M18/M28 Q1008 NOSIG
RMK QFE741 88820555=
METAR UHPP 102230Z 04003MPS 9999 -SHSN FEW016 BKN033CB M05/M12 Q0993
NOSIG RMK MT OBSC QFE741/0989 SC05 055 055=
METAR UHSS 102230Z 03002MPS 4000 FU SCT040 M23/M25 Q1013 NOSIG RMK
QFE759/1012 01810366=
METAR UHWW 102230Z VRB01MPS 9999 SCT200 M26/M29 Q1027 NOSIG RMK
QFE769/1026 25CLRD70=

00000000