0000011800
993
SNVF25 LFPW 110400
BBXX
BATFR31 11044 99430 10056 46/// /0914 10137 20100 40202 58002
22274 00149=
0000015700
994
SSVX13 LFPW 110400
ZZYY 41971 11014 0400/ 735993 058688 6113/ 11119 40318 57008 22219
 00205 444 20130 11014 0400/ 50101 80120 80006 9/015=
0000009400
995
SIAL20 DAMM 110300 RRA
AAXX 11034
60590 42960 0//// 10104 20068 40206 56005=
0000016300
996
SSVX13 LFPW 110400
ZZYY 13591 11014 0400/ 722889 066446 6113/ 22219 00263 33300 88872
 20000 43603 444 20130 11014 0400/ 50101 80106 80011 9/015=
0000015700
997
SSVX13 LFPW 110400
ZZYY 62684 11014 0400/ 174687 004609 6113/ 11119 40150 57005 22219
 00011 444 20130 11014 0400/ 50101 80076 80006 9/015=
0000015700
998
SSVX13 LFPW 110400
ZZYY 14920 11014 0400/ 328531 067382 6113/ 11119 40254 52006 22219
 00225 444 20130 11014 0400/ 50101 80122 80015 9/015=
0000015700
999
SSVX13 LFPW 110400
ZZYY 44740 11014 0400/ 730717 030636 6113/ 11119 40147 57016 22219
 00203 444 20130 11014 0400/ 50101 80118 80026 9/015=
0000016300
000
SSVX13 LFPW 110400
ZZYY 13592 11014 0400/ 728860 053562 6113/ 22219 00236 33300 88872
 20000 43654 444 20130 11014 0400/ 50101 80112 80008 9/015=
0000015700
001
SSVX13 LFPW 110400
ZZYY 41969 11014 0400/ 741257 042488 6113/ 11119 40202 52004 22219
 00164 444 20130 11014 0400/ 50101 80118 80011 9/015=
0000011800
002
SNVF25 LFPW 110400
BBXX
BATFR44 11044 99479 70039 46/// /0403 10080 20072 40173 53006
22200 04114=
0000011800
003
SNVF25 LFPW 110400
BBXX
BATFR34 11044 99474 70059 46/// /2410 10115 20079 40168 53008
22261 04134=
0000011800
004
SNVF25 LFPW 110400
BBXX
BATFR14 11044 99322 70348 46/// /05// 10182 20124 40153 53014
22254 04205=
0000016900
005
SIGE01 FAGE 110300 RRA
AAXX 11034
68906 41397 72409 10154 20141 30073 40137 57008 72055 876//
           333 10201 20154 91013 555 20028 69925 91013=
0000009300
006
SAGD31 TGPY 110400
METAR TGPY 110400Z 06010KT 9999 FEW018 SCT045 25/22 Q1015=
0000010600
007
SMAF95 HECA 110000 RRX
AAXX 11001
63471 42980
00000 10190 20140 38870 40151 333 58007=
0000012400
008
SACN49 CWAO 110300 CCC
METAR CYYG 110300Z CCB 22004KT 15SM FEW015 BKN200 M04/M05 A3026 RMK
 SC2CI3 SLP251=
0000009600
009
SACN48 CWAO 110400
METAR CYOY 110400Z AUTO 00000KT 9SM M09/M11 A3020 RMK SLP240=
0000012400
010
SACN31 CWAO 110400
METAR CYZX 110400Z 23006KT 10SM -DZ OVC009 01/01 A3032 RMK SF8 WNDY
HILL UNAVBL SLP270=
0000011800
011
SACN44 CWAO 110400
METAR CYTH 110400Z 07006KT 3SM -SN BKN016 OVC036 M15/M16 A2950 RMK
ST6ST2 SLP013=
0000010300
012
SACN31 CWAO 110400
METAR CYZV 110400Z 00000KT 15SM OVC050 M10/M14 A3007 RMK SC8 SLP188=
00000000