0000010600
513
UANT99 KDDL 110450
ARP AAL42 51N030W 0451 F370 MS55 202/59 KT
N363AA DDL XXW 110450 F49A
0000011000
514
UANT99 KDDL 110450
ARP DAL98 5506N02431W 0450 F360 MS58 221/55 KT
N833MH QXT AOE 110451 F71A
0000011000
515
UANT99 KDDL 110451
ARP UAL23 5232N03237W 0450 F370 MS55 210/44 KT
N17126 DDL IG1 110451 F71A
0000011100
516
UANT99 KDDL 110451
ARP AWE716 4909N02846W 0451 F380 MS53 202/56 KT
N274AY DDL XXN 110451 J33A
0000030000
517
SNAA20 LIIB 110400
AAXX 11044
89646 46/// /0506 11146 29075 37663 4//// 5////=
89648 46/// /1510 11207 29076 37236 4//// 5////=
89659 46/// /2704 11165 29064 37751 4//// 5////=
89661 46/// /2207 11038 29087 39346 4//// 5////=
89666 46/// /2302 11017 29082 39809 4//// 5////=
0000011000
518
UANT01 CWAO 110450
ARP UAL27 5044N03132W 0450 F360 MS53 206/62 KT
N17122 DDL IG1 110450 F76A
0000011100
519
UANT99 KDDL 110451
ARP AWE734 4824N04336W 0451 F380 MS56 314/53 KT
N286AY DDL XXN 110451 J28A
0000032800
520
SNVD22 KWNB 110500 RRB
BBXX
46251 11051 99338 71196 46/// ///// 1//// 90439 22200 00156 11402
20802 327// 41402 70012=
46243 11051 99462 71241 46/// ///// 1//// 90446 22200 00086 11209
21007 327// 41205 70045=
46217 11051 99342 71194 46/// ///// 1//// 90439 22200 00152 11303
20702 328// 41302 70013=
0000042300
521
SNVD22 KWNB 110400 RRU
BBXX
46216 11041 99343 71198 46/// ///// 1//// 90412 22200 00152 11302
21002 326// 41301 70012=
46225 11041 99329 71174 46/// ///// 1//// 90412 22200 00157 11402
20802 328// 41402 70012=
46223 11041 99335 71178 46/// ///// 1//// 90418 22200 00158 11301
20701 326// 41301 70006=
46222 11041 99336 71183 46/// ///// 1//// 90403 22200 00158 11202
20802 327// 41201 70011=
0000011000
522
UANT99 KDDL 110451
ARP AFR007 4658N04004W 0451 F380 MS52 288/33 KT
FHPJD QXT AOW 110451 J74A
0000215900
523
SZNZ01 NZKL 110454
CREX++
T000103 A001 D01021 D06025++
-3683144 17478654 AUCT  2014 01 11 04 46 //// 11 07 00 01
05858 3171 05851 3169 05845 3168 05841 3168 05835 3168 05828 3166+
-4402404 -17636748 CHIT  2014 01 11 04 46 //// 11 07 00 01
04752 2047 04751 2050 04758 2061 04769 2076 04718 2029 04726 2041+
-4089929 17623168 CPIT  2014 01 11 04 46 //// 11 07 00 01
03810 2256 03816 2268 03804 2261 03795 2257 03811 2278 03791 2263+
-3618905 17548887 GBIT  2014 01 11 04 46 //// 11 07 00 01
06267 0064 06263 0065 06256 0062 06251 0060 06240 0054 06244 0062+
-3867541 17802288 GIST  2014 01 11 04 46 //// 11 07 00 01
04131 2737 04133 2744 04146 2762 04106 2728 04107 2733 04103 2735+
-4241288 17370277 KAIT  2014 01 11 04 46 //// 11 07 00 01
03111 2189 03112 2194 03117 2205 03131 2224 03112 2210 03102 2206+
-3755040 17815904 LOTT  2014 01 11 04 46 //// 11 07 00 01
03795 0226 03792 0228 03801 0241 03782 0227 03775 0225 03761 0215+
-3704657 17451175 MNKT  2014 01 11 04 46 //// 11 07 00 01
03164 -0140 03191 -0118 03182 -0132 03205 -0114 03185 -0140 03217 -0113+
-3947566 17692007 NAPT  2014 01 11 04 46 //// 11 07 00 01
02993 1980 02969 1962 02985 1983 02999 2003 02980 1989 02968 1983+
-3441483 17304870 NCPT  2014 01 11 04 46 //// 11 07 00 01
02269 -2692 02188 -2771 02219 -2739 02142 -2813 02165 -2788 02273 -2677+
-4581435 17062939 OTAT  2014 01 11 04 46 //// 11 07 00 01
04023 3437 04017 3435 04009 3432 04004 3432 04001 3433 03998 3435+
-2928002 -17789440 RBCT  2014 01 11 04 46 //// 11 07 00 01
06361 2059 06339 2040 06336 2040 06356 2063 06351 2061 06340 2053+
-2925114 -17790384 RFRT  2014 01 11 04 46 //// 11 07 00 01
03261 0208 03256 0207 03271 0225 03280 0237 03260 0220 03245 0208+
-4357010 17277383 SUMT  2014 01 11 04 46 //// 11 07 00 01
01701 1893 01672 1871 01669 1874 01653 1865 01648 1867 01634 1858+
-3764109 17618118 TAUT  2014 01 11 04 46 //// 11 07 00 01
05511 3985 05508 3986 05512 3994 05503 3989 05498 3987 05500 3993+
-4128448 17477985 WLGT  2014 01 11 04 46 //// 11 07 00 01
02960 2001 02960 2005 02964 2014 02960 2014 02954 2013 02955 2017++
7777
0000025900
524
SNHK22 VHHH 110445
AAXX 11041
45032 36/// /0803 10211 20105 30210 40227 57003 333 91108=
45035 36/// /0504 10230 20117 30186 40228 57004=
45039 36/// /1003 10195 20103 30219 40233 57003=
45044 36/// /1107 10196 20123 30137 40231 57003=
0000089400
525
WOIN90 VECC 110759
WOIN90 VECC 110759
FROM: ACWC KOLKATA
TO: PORT BLAIR RADIO / KOLKATA PORT WIRELESS

AURORA OBSERVATION DATED 11 - 01 - 2014

PART ONE : NO STORM WARNING AAA

 PART TWO :
 YESTERDAY'S TROUGH OF LOW PRESSURE OVER SOUTH ANDAMAN SEA AND
ADJOINING AREA NOW LIES OVER SOUTHEAST BAY AND ADJOINING ANDAMAN SEA.
WEATHER SEASONAL OVER REST BAY OF BENGAL.

 PART THREE : AREA FORECAST VALID UNTIL 11 1818 UTC

 NORTH BAY
 WIND : VARIABLE; 05 TO 10 KNOTS.
 VISIBILITY : GOOD.

 CENTRAL BAY WEST OF LONGITUDE 92 DEG..E
 WIND : NORTHEAST TO EASTERLY; 10 TO 15 KNOTS.
 VISIBILITY : GOOD.

 SOUTHWEST BAY
 WIND : MAINLY NORTHEASTERLY; 10 TO 15 KNOTS.
 VISIBILITY : GOOD.

 SOUTHEAST BAY AND ANDAMAN SEA WEST OF LONGITUDE 95 DEG.E
 WIND : MAINLY EASTERLY; 10 TO 15 KNOTS.
 VISIBILITY : GOOD BECOMING MODERATE IN RAIN.=
0000108900
526
SOVX02 EGRR 110412
KKYY 10014 1754/ 519023 022126 88871 84660 20024 32504 43707 20030
32499 43707 20035 32497 43707 20040 32496 43707 20050 32479 43703
20060 32352 43690 20069 32318 43689 20080 32286 43688 20089 32274
43687 20100 32268 43687 20109 32264 43688 20119 32257 43688 20130
32244 43685 20139 32227 43682 20149 32209 43681 20159 32156 43669
20169 32031 43644 20179 31973 43633 20189 31899 43619 20199 31841
43608 20219 31708 43584 20238 31619 43568 20258 31561 43558 20278
31482 43545 20297 31410 43534 20328 31299 43518 20358 31221 43507
20398 31114 43495 20447 30966 43478 20497 30861 43468 20546 30770
43460 20596 30693 43454 20646 30598 43448 20694 30550 43445 20744
30493 43442 20793 30437 43439 20844 30414 43441 20892 30384 43443
20942 30372 43446 20991 30384 43451 21041 30377 43454 21090 30381
43459 21140 30383 43463 21190 30386 43467 21239 30388 43471 21288
30390 43475 21338 30395 43479 21387 30397 43483 21485 30383 43486
21584 30368 43489 21683 30359 43492 21781 30352 43493 21880 30344
43494 21951 30339 43494 Q1901298=
0000138500
527
SOVX02 EGRR 110412
KKYY 11014 0113/ 546098 008986 88871 84660 20007 30540 43378 20010
30540 43378 20015 30540 43378 20020 30540 43378 20025 30539 43378
20029 30539 43378 20034 30539 43377 20039 30537 43377 20045 30534
43377 20050 30526 43377 20054 30515 43377 20059 30513 43377 20064
30506 43378 20070 30501 43378 20074 30497 43378 20078 30494 43378
20083 30493 43378 20090 30490 43378 20094 30489 43378 20100 30488
43378 20109 30486 43378 20119 30485 43378 20129 30479 43377 20139
30442 43378 20149 30371 43380 20159 30325 43382 20169 30287 43384
20179 30277 43384 20188 30268 43384 20199 30253 43385 20208 30236
43387 20218 30233 43389 20228 30234 43394 20238 30234 43397 20248
30224 43399 20258 30227 43402 20268 30227 43404 20278 30228 43405
20288 30226 43409 20297 30225 43409 20307 30226 43411 20318 30227
43411 20327 30228 43412 20337 30228 43413 20347 30230 43414 20357
30232 43415 20377 30233 43415 20397 30233 43416 20416 30238 43418
20436 30240 43421 20456 30244 43423 20476 30243 43424 20496 30243
43426 20545 30251 43429 20594 30254 43433 20643 30254 43437 20693
30250 43439 20792 30246 43443 20890 30253 43447 20989 30248 43450
21088 30249 43452 21187 30248 43453 21285 30249 43456 21384 30251
43457 21482 30248 43458 21579 30242 43459 21679 30237 43460 21778
30234 43460 21876 30228 43460 21974 30218 43459 Q1901277=
0000116300
528
SOVX02 EGRR 110413
KKYY 10014 1125/ 745110 019263 88871 84660 20004 31320 43571 20010
31320 43571 20015 31320 43571 20021 31321 43571 20025 31321 43571
20030 31321 43571 20035 31321 43571 20039 31321 43571 20050 31321
43571 20060 31321 43571 20070 31321 43571 20080 31321 43571 20089
31321 43571 20097 31322 43571 20109 31322 43571 20119 31322 43571
20129 31322 43571 20139 31322 43571 20149 31322 43571 20159 31322
43571 20168 31322 43571 20178 31322 43571 20188 31321 43571 20199
31321 43570 20218 31258 43564 20238 31246 43562 20258 31236 43562
20278 31230 43561 20297 31223 43562 20326 31206 43560 20357 31195
43559 20397 31163 43555 20446 31147 43556 20496 31129 43555 20545
31092 43550 20594 31049 43546 20644 31015 43546 20693 30995 43547
20742 30948 43543 20792 30950 43552 20842 30901 43546 20891 30886
43551 20940 30868 43554 20989 30843 43555 21039 30813 43554 21088
30778 43549 21138 30711 43539 21187 30695 43538 21237 30600 43523
21285 30555 43516 21335 30536 43514 21383 30518 43511 21483 30467
43505 21581 30433 43500 21679 30414 43499 21778 30390 43496 21876
30375 43495 21976 30358 43494 Q6900621=
0000009300
529
SACY42 EGRR 110450
METAR LCRA 110450Z 32001KT 9999 FEW035 SCT250 06/01 Q1022=
0000068100
530
SAUK39 EGRR 110450
METAR EGDR 110450Z 33007KT 9999 FEW030 05/03 Q1016 BLU=
METAR EGQL 110450Z 26012KT 9999 FEW045 02/M01 Q1008 BLU=
METAR EGQM 110450Z AUTO 27012KT 9999 NCD 04/M00 Q1008=
METAR EGQS 110450Z 25012KT CAVOK 01/M01 Q1005 BLU=
METAR EGVN 110450Z 24003KT 9999 FEW030 07/05 Q1012 BLU NOSIG=
METAR EGVO 110450Z 24011KT 5000 -RA SCT005 BKN015 08/07 Q1012 YLO1=
METAR EGXC 110450Z 27011KT 9999 FEW010 SCT045 07/06 Q1010 BLU=
METAR EGXT 110450Z AUTO 26010KT 9999 FEW037/// BKN047/// 07/06 Q1010 RERA=
METAR EGXV 110450Z AUTO 31005KT 9999 FEW050/// BKN100/// 06/03 Q1009 RERA=
METAR EGXW 110450Z 28008KT 9999 -RA SCT010 BKN040 06/05 Q1010 GRN=
0000450800
531
KSAB31 KWBC 110014
CREX++
T000119 A001 D01021 D06025++
3002717 -09011342 NWCL1 2014 01 10 23 24 2831 00 07 00 06
00073 0190 00068 0185 00070 0186 00079 0195 00084 0199 00086 0201+
2911425 -09019925 PTFL1 2014 01 10 23 24 //// 00 07 00 06
00493 0212 00493 0212 00491 0210 00491 0210 00483 0202 ///// ////+
2978856 -09042019 BYGL1 2014 01 10 23 24 2825 00 07 00 06
-90418 //// -90419 //// -90422 //// -90416 //// -90416 //// -90418 ////+
2966750 -09123761 TESL1 2014 01 10 23 24 2786 00 07 00 06
00190 0073 00193 0076 00192 0075 00192 0075 00188 0071 00190 0073+
2944958 -09133811 AMRL1 2014 01 10 23 24 2818 00 07 00 06
00429 0077 00424 0071 00426 0072 00427 0073 00428 0073 00427 0071+
2955500 -09230500 FRWL1 2014 01 10 23 24 2812 05 07 00 06
00706 0218 00717 0230 00666 0181 00623 0139 00643 0160 00652 0171+
3022364 -09322167 LCLL1 2014 01 10 23 24 2840 00 07 00 06
00398 0071 00397 0068 00400 0070 00400 0069 00400 0069 00399 0067+
3019031 -09330069 BKTL1 2014 01 10 23 24 2840 00 07 00 06
00385 0052 00386 0051 00387 0050 00388 0049 00390 0049 00391 0048+
2976817 -09334289 CAPL1 2014 01 10 23 24 2825 00 07 00 06
00493 0117 00496 0121 00485 0111 00485 0112 00493 0120 00486 0113+
2986670 -09393000 PORT2 2014 01 10 23 24 2828 00 07 00 06
00265 0155 00263 0154 00270 0162 00262 0154 00242 0135 00255 0149+
2998000 -09388170 RBBT2 2014 01 10 23 24 //// 00 07 00 06
00263 0151 00266 0152 00264 0149 00277 0161 00287 0171 00258 0141+
2972840 -09387010 SBPT2 2014 01 10 23 24 2824 00 07 00 06
00415 0168 00417 0171 00424 0179 00431 0188 00430 0188 00426 0185+
2968170 -09498500 MGPT2 2014 01 10 23 24 2813 00 07 00 06
00288 0134 00301 0144 00325 0164 00315 0151 00325 0157 00269 0098+
2972628 -09526581 NCHT2 2014 01 10 23 24 2872 00 07 00 06
00369 //// 00377 //// 00379 //// 00388 //// ///// //// ///// ////+
2968928 -09384181 TXPT2 2014 01 10 23 24 //// 00 07 00 06
///// //// 00514 0221 00515 0223 00513 0223 00515 0226 00523 0235+
2951500 -09451330 RLOT2 2014 01 10 23 24 2853 00 07 00 06
00341 0127 00340 0124 00342 0124 00342 0122 00351 0130 00343 0120+
2948000 -09491830 EPTT2 2014 01 10 23 24 //// 05 07 00 06
00372 0279 00349 0255 00383 0287 00369 0271 00374 0274 00384 0283+
2935733 -09472483 GNJT2 2014 01 10 23 24 2834 00 07 00 06
00472 0197 00467 0194 00455 0183 00459 0189 00462 0193 00457 0188+
2931000 -09479330 GTOT2 2014 01 10 23 24 2838 00 07 00 06
00424 0176 00403 0157 00395 0150 00397 0154 00392 0150 00392 0152+
2894331 -09530250 FCGT2 2014 01 10 23 24 2848 00 07 00 06
00485 0151 00487 0156 00483 0155 00478 0152 00492 0169 00495 0175+
2840830 -09671170 SDRT2 2014 01 10 23 24 2874 00 07 00 06
-00020 0065 -00024 0061 -00018 0066 -00021 0063 -00013 0071 -00020 0064+
2864000 -09659500 VCAT2 2014 01 10 23 24 2856 00 07 00 06
00143 0084 00147 0085 00148 0083 00154 0086 00161 0091 00161 0088+
2845170 -09638830 PCNT2 2014 01 10 23 24 //// 00 07 00 06
00160 //// 00161 //// 00160 //// 00161 //// 00164 //// 00163 ////+
2811830 -09702170 CPNT2 2014 01 10 23 24 2838 00 07 00 06
00021 0095 00021 0094 00022 0094 00023 0094 00025 0095 00025 0094+
2802170 -09704670 RCPT2 2014 01 10 23 24 2865 00 07 00 06
00034 0084 00035 0084 00037 0086 00039 0087 00039 0086 00041 0087+
2783830 -09707330 RTAT2 2014 01 10 23 24 2851 00 07 00 06
00266 //// 00213 //// 00249 //// 00255 //// 00248 //// 00231 ////+
2782170 -09720330 NGLT2 2014 01 10 23 24 2848 00 07 00 06
00036 -0009 00031 -0015 00037 -0010 00026 -0022 00047 -0003 00048 -0003+
2763330 -09723670 PACT2 2014 01 10 23 24 2873 00 07 00 06
00042 0085 00043 0086 00044 0086 00045 0086 00046 0087 00048 0088+
2758000 -09721670 MQTT2 2014 01 10 23 24 2862 00 07 00 06
00412 0093 00415 0098 00429 0114 00421 0107 00397 0085 00409 0098+
2748000 -09732170 IRDT2 2014 01 10 23 24 2875 00 07 00 06
-99381 //// -99376 //// -99375 //// -99374 //// -99378 //// -99380 ////+
2729500 -09740500 BABT2 2014 01 10 23 24 2881 00 07 00 06
-95840 //// -95842 //// -95844 //// -95845 //// -95845 //// -95845 ////+
2682500 -09749170 RSJT2 2014 01 10 23 24 //// 00 07 00 06
-98820 //// -98826 //// -98829 //// -98830 //// -98830 //// -98838 ////+
2607670 -09717670 PCGT2 2014 01 10 23 24 2898 00 07 00 06
00379 0000 00377 -0001 00374 -0003 00377 0000 00380 0004 00380 0005+
2606000 -09721500 PTIT2 2014 01 10 23 24 2874 00 07 00 06
00374 0080 00370 0077 00370 0079 00366 0076 00366 0078 00367 0080++
7777

0000064700
532
USAA01 NZCM 110000
TTAA 61001 89664
99997 00056 18501 00512 ///// ///// 92601 07158 18518
85255 11341 17017 70716 21114 15006 50514 33959 24513
40666 44759 24520 30855 51765 24023 25975 45585 24514
20124 43786 24513 15318 43586 26009 10592 41586 23504
88320 52361 23026
77999
31313 48008 82219=

0000069700
87361=
0000011200
87368
0000009600
87371
0000035800
87378
0000037300
87381=
0000039500
87413
0000041600
87422=
0000043800
87504
0000052100
87527
0000058300
87571
0000052200
87616
0000058400
87667=
0000060600
88239=
0000056600
90436
0000062800
91534
00000000