0000009800
313
SASA85 EGRR 110300 RRI
METAR SAWE 110300Z 25006 KT 9999 FEW020 SCT056 08/05 Q1008=
0000012800
314
SASA85 EGRR 110400
METAR SBBV 110400Z 08006KT CAVOK 25/18 Q1012=
METAR SBCG 110400Z 05003KT CAVOK 22/18 Q1014=
0000010900
315
SASA85 EGRR 110300 RRJ
METAR COR SBGO 110300Z 00000KT 9999 -TSRA SCT040CB OVC090 20/18 Q1017=
0000009200
316
SAFJ31 NFFN 110400
METAR NFFN 110400Z 16017KT 9999 FEW030 31/21 Q1004 NOSIG=
0000015400
317
SIRA23 RUNW 110300 CCA
AAXX 11031
23256 11996 52309 11324 21361 30097 40136 52009 69962 73873 80001 333
21335 48057 55000 91012 91113=
0000019600
318
UAUS31 KWBC 110354
ARP UAL418 4126N 09338W 0346 F380 MS50 236/068KT TB LGT-MOD RM
    B752 OV DSM=
ARP UAL452 3917N 09444W 0347 F350 MS50 210/095KT TB LGT RM B752 OV
    MCI=
0000025000
319
UAPA01 KWBC 110354
ARP ASA854 40N 136W 0342 F370 MS59 240/111KT TB SMTH=
ARP ASA832 3317N 13337W 0346 F350 MS52 237/044KT=
ARP DAL1219 3106N 13208W 0347 F340 MS50 250/035KT TB 1=
ARP ASA840 2347N 15322W 0347 F360 MS47 240/081KT=
0000011200
320
SNVF25 LFPW 110400
BBXX
BAREU71 11044 99384 70120 46/// /0308 10139 29075 40184 52006
22264=
0000011200
321
SNVF25 LFPW 110400
BBXX
BAREU51 11044 99400 10120 46/// ///// 10140 29082 40213 57005
22275=
0000011000
322
SAIN90 VEMN 110330
METAR VEMN 110330Z 00000KT 2500 HZ FEW100 17/12 Q1020 BECMG VIS
3000M HZ=
0000011400
323
FTIN90 VEMN 110300
TAF VEMN 110300Z 1106/1115 05005KT 5000 HZ SCT100 BECMG 1110/1112
3000 HZ=

0000011800
324
SAIN90 VEGY 110330 CCA
METAR VEGY 110330Z 09003KT 0400 -RA FEW010 BKN018 OVC080 15/14 Q1019 NOSIG =

0000011000
325
UANT01 CWAO 110353
ARP SWR23C 4519N04355W 0353 F380 MS54 302/55 KT
HBJHD QXT AOW 110353 J48A
0000008300
326
UANT01 KWBC 110354
ARP BAW34N 3440N 7117W 0342 F330 MS49 280/080KT=
0000024100
327
SMMG20 FMMI 110000 RRA
AAXX 11004
67023 11580 52006 10238 20229 30099 40105 58019 69921 7006/ 85800
  333 0//12 83820 83633=
67067 31570 10000 10202 20192 39253 48521 56011 710// 81800
  333 0//// 81820
  555 81627=
0000064200
328
UKOS04 LOWM 110300
TTBB 11038 11240
00977 02809 11922 00600 22863 03050 33810 02059 44655
12300 55650 12900 66646 13147 77639 08780 88630 08785
99544 16361 11497 19565 22420 29959 33357 38749 44329
42967 55295 49363 66262 55158 77202 63764 88194 60766
99183 62968 11173 60170 22163 62171 33101 59177
21212 00977 34002 11911 26004 22857 27005 33838 25005
44790 28506 55672 30020 66633 30518 77589 27012 88369
27514 99297 29523 11263 27015 22215 29032 33200 27532
44159 28030 55143 29021 66112 28525
31313 47908 80249
41414 87340
51515 11864 26506 22800 28005 33600 27512
61616 11942 33001 22908 26005=
0000033600
329
USOS04 LOWM 110300
TTAA 11031 11240
99977 02809 34002 00155 ///// ///// 92786 00600 27502
85470 02656 26505 70017 07912 30017 50558 19365 27516
40720 31957 28015 30916 48363 29523 25034 56962 27022
20173 63765 27532 15351 60374 29023 10605 59577 30523
88202 63764 28032
77215 29032 41507
31313 47908 80249=
0000191400
330
SZAU01 AMMC 110357
CREX++
T000103 A001 D01021 D06025++
-1927750 14705860 59260 2014 01 11 03 50 3030 11 07 00 01
01351 0181 01352 0181 01359 0186 01355 0180 01360 0183 01362 0184+
-2316110 15079000 59670 2014 01 11 03 50 2998 11 07 00 01
01827 0232 01828 0226 01824 0217 01831 0218 01820 0203 01814 0192+
-3447330 15091170 60420 2014 01 11 03 50 2960 11 07 00 01
00755 0004 00748 -0005 00740 -0017 00733 -0026 00720 -0041 00715 -0049+
-4105000 14591500 60910 2014 01 11 03 50 2890 11 07 00 01
00508 -0043 00508 -0043 00510 -0041 00504 -0048 00500 -0052 00493 -0060+
-4254640 14793080 61170 2014 01 11 03 50 2897 11 07 00 01
01007 0056 01011 0058 01012 0057 01014 0057 01024 0065 01032 0072+
-3834390 14161360 61410 2014 01 11 03 50 2905 11 07 00 01
00245 -0015 00262 0001 00281 0019 00256 -0006 00291 0028 00284 0020+
-3214890 13364170 62000 2014 01 11 03 50 2958 11 07 00 01
00654 0019 00656 0020 00656 0019 00657 0019 00658 0019 00660 0021+
-3387080 12189720 62080 2014 01 11 03 50 2943 11 07 00 01
00747 0099 00768 0120 00759 0110 00762 0112 00759 0109 00750 0099+
-3182560 11573860 62237 2014 01 11 03 50 2970 11 07 00 01
00702 0036 00717 0050 00722 0054 00725 0057 00728 0059 00741 0072+
-2422000 11339750 62385 2014 01 11 03 50 //// 11 07 00 01
00917 -0117 00961 -0075 00929 -0108 00999 -0039 00973 -0066 00958 -0082+
-2181670 11419110 62430 2014 01 11 03 50 //// 11 07 00 01
01506 -0038 01524 -0020 01542 -0003 01518 -0027 01541 -0005 01546 -0001+
-1800080 12221830 62650 2014 01 11 03 50 3043 11 07 00 01
04711 0198 04711 0199 04712 0202 04711 0202 04711 0203 04711 0203+
-1247190 13084580 63230 2014 01 11 03 50 3053 11 07 00 01
04952 0028 04961 0029 04969 0028 04977 0027 04985 0027 04993 0026+
-1386000 13641580 63511 2014 01 11 03 50 3045 11 07 00 01
01285 0024 01289 0027 01291 0028 01295 0030 01298 0032 01301 0034++
7777

0000179300
331
SZPS01 AMMC 110357
CREX++
T000103 A001 D01021 D06025++
-0204190 14737360 56130 2014 01 11 03 50 3028 11 07 00 01
01174 0110 01176 0112 01177 0113 01179 0114 01181 0115 01180 0114+
-0669280 15640860 56363 2014 01 11 03 50 //// 11 07 00 01
01033 -0054 01040 -0045 01032 -0051 01033 -0049 01028 -0052 01024 -0054+
-0942890 15995560 56670 2014 01 11 03 50 3040 11 07 00 01
00944 -0035 00939 -0040 00938 -0040 00936 -0042 00941 -0036 00935 -0041+
-1072080 16580190 57131 2014 01 11 03 50 //// 11 07 00 01
03380 2287 03379 2287 03379 2289 03379 2291 03379 2293 03379 2295+
-1551560 16718860 57210 2014 01 11 03 50 //// 11 07 00 01
01343 -0080 01348 -0074 01332 -0088 01327 -0091 01332 -0084 01319 -0095+
-1775690 16830030 57320 2014 01 11 03 50 3015 11 07 00 01
01307 -0058 01308 -0056 01314 -0049 01314 -0049 01311 -0051 01315 -0046+
-4397330 16861610 65180 2014 01 11 03 50 2885 11 07 00 01
01413 0348 01433 0363 01446 0372 01471 0393 01475 0391 01456 0368+
-2120470 -15978530 65980 2014 01 11 03 50 3013 11 07 00 01
00917 0045 00901 0029 00945 0074 00933 0063 00926 0057 00890 0021+
-2113810 -17518140 66600 2014 01 11 03 50 //// 11 07 00 01
01638 0073 01642 0078 01642 0080 01645 0084 01640 0081 01654 0097+
-1382670 -17176110 66840 2014 01 11 03 50 3010 11 07 00 01
01184 0083 01194 0095 01194 0097 01189 0094 01189 0097 01176 0086+
-1813250 17842750 67050 2014 01 11 03 50 3033 11 07 00 01
01876 0098 01876 0100 01875 0100 01874 0101 01870 0099 01866 0096+
-1760530 17743810 67070 2014 01 11 03 50 3033 11 07 00 01
01978 0030 01973 0027 01971 0027 01970 0027 01967 0027 ///// ////+
-0850250 17919500 67440 2014 01 11 03 50 3030 11 07 00 01
02467 -0012 02468 -0007 02468 -0005 02455 -0014 02461 -0005 02449 -0015++
7777

0000046700
332
SZPA01 AMMC 110357
CREX++
T000103 A001 D01021 D06025++
0136250 17293000 67590 2014 01 11 03 50 3015 11 07 00 01
02102 0091 02106 0099 02102 0097 02105 0103 02102 0103 02080 0084+
0710610 17137250 67680 2014 01 11 03 50 3013 11 07 00 01
01338 0059 01337 0061 01327 0053 01328 0056 01327 0059 01327 0061+
0698060 15820000 67950 2014 01 11 03 50 3023 11 07 00 01
01057 0062 01061 0067 01066 0073 01059 0068 01056 0066 01053 0064++
7777

00000000