0000018400
433
SSVX13 LFPW 110400
ZZYY 41800 11014 0400/ 725966 035839 6110/ 11119 40195 57013 22219
 00230 33300 88872 20000 43748 444 20100 11014 0400/ 50101 80148
 80066 9/015=
0000018400
434
SSVX13 LFPW 110400
ZZYY 62503 11014 0400/ 745997 002457 6113/ 11119 40166 52014 22219
 00134 33300 88872 20000 43543 444 20130 11014 0300/ 50101 80100
 80000 9/015=
0000112400
435
SNNO21 ENMI 110400
AAXX 11041
01001 46/// /0904 10000 21011 30126 40138 57004=
01008 46/// /2507 11005 21041 30050 40083 54000=
01010 41989 01206 11062 21130 30148 40165 55000 70200=
01026 26/// /1901 11117 21130 30030 40181 57002 333 60005=
01055 46/// /2304 11023 21077 30153 40171 57003=
01062 46/// /2202 11016 21040 30084 40097 50003=
01098 46/// /0204 11023 21110 30135 40154 54000=
01115 26/// /1107 11050 21131 30073 40095 50000 333 60005=
01152 46/// /1110 11075 21154 30100 40117 58003=
01205 46/// /3601 11006 21063 39938 49984 57012=
01212 26/// /0903 11022 21073 39971 49989 58009 333 60005=
01271 47984 30804 11108 21159 30017 40039 57001 700//=
01288 46/// /1004 11159 21185 39260 40053 50000=
01300 NIL=
01317 26/// /1801 10044 20021 39955 49970 58012 333 60015=
01367 46/// /3201 11061 21072 39536 49989 58002=
01384 46380 /0402 11023 21028 50002=
01403 46/// /2713 10060 20028 39923 49991 58003=
01415 47/64 32705 10069 20039 39994 40004 57002 700//=
01482 46/// /2509 10056 20036 39964 49973 58005=
01492 46/// /0403 11001 21016 39860 49979 50002=
0000091600
436
SNNO22 ENMI 110400
AAXX 11041
01003 NIL=
01007 46/// /1303 11022 21062 30068 40078 54000=
01028 41465 62701 11017 21025 30108 40128 53001 70322 86800=
01047 NIL=
01049 26/// /2103 11155 21172 30191 40195 54001 333 60005=
01078 46/// /3204 11031 21050 30156 40166 54001=
01102 46/// ///// 11061 21105 30042 40062 50000=
01160 46/// /0709 11055 21128 30124 40142 52001=
01218 26/// /1604 11026 21105 39970 49992 57004 333 60005=
01238 46/// /0401 11132 21145 38825 49952 58004=
01241 41886 10908 11088 21122 30007 40019 57001 70200 81072=
01281 46/// /1202 11114 21158 39901 40086 50000=
01338 46/// /3104 10015 21021 39905 49971 58004=
01359 46/// /3402 11020 21046 39049 49961 58009=
01397 46/// /3501 11099 21133 39579 40033 50004=
01400 NIL=
01427 26/// /2807 10064 20054 39990 40006 58006 333 60005=
01447 NIL=
01448 46/// /2803 10056 20041 39994 40004 57005=
0000011000
437
UANT01 CWAO 110401
ARP ACA870 4846N04132W 0401 F340 MS54 318/48 KT
CFNNQ DDL XXW 110401 F06A
0000011000
438
UANT01 CWAO 110401
ARP UAL25 4808N04453W 0401 F390 MS57 324/44 KT
N13113 DDL IG1 110401 F99A
0000011100
439
UANT01 CWAO 110401
ARP UAL928 5605N04423W 0401 F350 MS60 295/39 KT
N663UA DDL XXW 110401 F53A
0000042400
440
UAPA01 KWBC 110403
ARP ASA845 34N 151W 0353 F340B360 MS57 270/055KT=
ARP HAL20 3024N 14042W 0353 F370 MS47 261/053KT TB LGT=
ARP ASA806 3500N 14515W 0354 F360 MS53 265/071KT TB CONT LGT CHOP=
ARP ASA812 3317N 13337W 0356 F370 MS53 259/042KT=
ARP ASA867 36N 140W 0354 F350 MS53 240/079KT TB SMTH=
ARP CKS369 2700N 13812W 0358 F350 MS42 280/020KT=
ARP UAL1723 2842N 13926W 0358 F340 MS45 264/045KT=
0000152000
441
SSVX08 KARS 110401
ZZYY 48400 10014 12004 750144 144847 6111/
11119 01126 10064 29092
22219 00091
33311 88872 20000 30912 20001 30906 43226
444 20110 10014 1218/ 521// 60401=
ZZYY 13010 10014 1200/ 700000 000013 6112/
33311 88872 20001 32811 20020 32797 43447 20040 32284 43606
20060 31816 20080 31727 20100 31603 20120 31543 43564 20140 31505
20180 31441 20300 31039 20500 30713
444 20120 10014 1324/ 521//=
ZZYY 13010 11014 02004 700006 000016 6112/
11119 01712 10267 29084
22219 00280
444 20120 11014 0208/ 521// 60401=
ZZYY 15007 10014 1200/ 305994 008000 6111/
33311 88872 20020 31811 43576 20040 31711 43580 20060 31655 43575
20080 31622 20100 31591 20120 31562 20140 31535 20180 31472
20300 31130 20500 30742
444 20110 10014 1141/ 521//=
ZZYY 15007 11014 02004 306001 007996 6112/
11119 01611 10262 29074 40103
444 20120 11014 0210/ 521// 60401=
ZZYY 52007 10014 1200/ 308031 164802 6112/
33311 88872 20001 33060 43420 20025 32988 43453 20050 32895 43493
20075 32764 20100 32729 20125 32589 20150 32479 20200 32075
20250 31633 20300 31285 20500 30764
444 20120 10014 1053/ 521//=
ZZYY 14042 10014 1200/ 312115 054867 6112/
33311 88872 20001 32895 43493 20020 32890 43496 20040 32831 43501
20060 32667 43500 20080 32517 20100 32301 20120 32122 20140 31954
20180 31707 20500 30944
444 20120 10014 1144/ 521//=
ZZYY 14042 11014 03004 312115 054864 6111/
11119 01013 10272 29086 40109
22219 00289
444 20110 11014 0215/ 521// 60401=
0000220500
442
SIIN50 VIDP 110900
AAXX 11094
00010 32996 02706 10187 20068 40178
  333 58022=
42027 31596 41401 10062 21027 38474 48560 70521 83430
  333 58054=
42044 32596 40000 10060 21036 38338 48580 82420
  333 58066=
42045 32696 13603 10058 21058 38413 48545 81100
  333 58042=
42056 32996 03202 10186 20032 39728
  333 58008=
42071 31996 02907 10168 20109 40190 70500
  333 58017=
42079 NIL=
42081 32696 10000 10118 20048 38935 48511 81500
  333 58025 81635=
42083 32697 20000 10062 20009 4//// 82800
  333 58012 81835=
42099 NIL=
42101 32996 03203 10182 20071 40182
  333 58025=
42103 31995 33202 10178 20076 40185 70511 80001
  333 58024 83070=
42111 32596 63202 10160 20072 39384 40161 86800
  333 58016 83625 83830=
42114 NIL=
42123 32996 03202 10186 20026 40195
  333 58023=
42131 32996 03203 10184 20041 40188
  333 58026=
42147 21093 80503 10002 21002 37751 72277 887//
  333 59004 6004/ 88700=
42148 NIL=
42165 31995 60000 10200 20017 40184 70522 80001
  333 58034 86070=
42170 32996 33603 10190 20013 40187 80001
  333 58034 83070=
42181 31995 03210 10174 20075 40179 70500
  333 58024=
42182 31995 02908 10180 20097 40179 70500
  333 58027=
42189 31595 60000 10162 20126 40159 71022 84520
  333 58001 84625 86460=
42260 NIL=
42273 21595 83602 10146 20143 40167 76166 8652/
  333 58014 6002/ 86620 88458=
42328 32696 20503 10182 21025 40197 83030
  333 58041 83360=
42339 31995 40502 10200 21005 40180 70500 80002
  333 58047 84070=
42343 32996 03202 10176 20016 40175
  333 58035=
42348 31996 03406 10190 20013 40172 70500
  333 58030=
42369 31594 70203 10160 20131 40163 71142 85530
  333 58012 85620 87360=
42377 21594 80000 10156 20146 40170 71022 8652/
  333 58014 6990/ 86625 88460=
42379 21595 70903 10176 20130 40153 72096 85510
  333 56590 58004 6003/ 85625 87458=
42435 32996 40501 10198 21001 40204 80001
  333 58042 84070=
42452 31994 00903 10180 20083 40172 70544
  333 58034=
42463 31995 03203 10184 20111 40172 70500
  333 58026=
42475 31494 89902 10180 20170 4//// 71022 8762/
  333 56290 58/// 82710 86620 88458=
42479 NIL=
42542 NIL=
0000010900
443
UANT01 CWAO 110402
ARP BAW9E 5032N03245W 0402 F400 MS52 218/50 KT
GVIIB QXT AOW 110402 F17A
0000011000
444
UANT01 CWAO 110402
ARP SAS904 5841N03113W 0402 F390 MS53 220/34 KT
LNRKO DDL XXW 110402 J39A
0000011000
445
UANT01 CWAO 110402
ARP UAL91 6005N02626W 0402 F340 MS53 214/46 KT
N77022 DDL XXN 110402 F49A
0000010900
446
UANT01 CWAO 110402
ARP BAW94 5326N04628W 0402 F360 MS63 311/63 KT
GYMMB QXT AOE 110402 F09A
0000008900
447
SPIN90 VOBG 110400
SPECI VOBG 110400Z 16005KT 3000 HZ FEW008 20/14 Q1020=
0000008900
448
SAIN90 VIGG 110400
METAR VIGG 110400Z 10002KT 5000 HZ NSC 10/04 Q1019=

0000303800
449
SSVX08 KARS 110402
ZZYY 43001 10014 1200/ 708036 110173 6112/
33311 88872 20001 32703 43345 20040 32525 20060 31562 20080 31344
20100 31278 20120 31229 20140 31181 20300 31016 20500 30776
444 20120 10014 1054/ 521//=
ZZYY 43001 11014 0300/ 708027 110168 6111/
11119 10267 29080
22219 00270
444 20110 10014 2205/ 521//=
ZZYY 32322 10014 12004 501979 095188 6112/
11119 01810 10237 29087
22219 00237
33311 88872 20000 32366 20001 32383 43474 20020 32334 20040 32268
20060 32002 20080 31522 20100 31416 20120 31396 20140 31380
20500 30816
444 20120 10014 1253/ 521// 60401=
ZZYY 32322 11014 03004 501980 095191 6111/
11119 01712 10242 29089
22219 00241
444 20110 11014 0301/ 521// 60401=
ZZYY 32319 10014 1200/ 507990 110070 6113/
33311 88870 20020 32450 20080 32383 20100 32026 20120 31803
20180 31291 20300 31109 20500 30831
444 20130 10014 1310/ 521//=
ZZYY 15006 10014 1200/ 506029 009995 6111/
33311 88872 20001 32576 20040 32525 43611 20060 32303 20080 32018
20100 31635 20120 31471 43551 20140 31354 20180 31179 20300 30988
20500 30742
444 20110 10014 1323/ 521//=
ZZYY 13009 10014 1200/ 707921 038091 6112/
444 20120 10014 1149/ 521//=
ZZYY 41139 10014 12004 720011 037854 6111/
11119 00712 10215 29077 40201
22219 00240
33311 88872 20000 32402 20001 32404 43696 20020 32402 43706
20040 32402 43702 20060 32404 43704 20080 32410 20100 32351
20120 32230 20140 32151 20180 31985 20300 31610 20500 31215
444 20110 10014 1145/ 521// 60401=
ZZYY 15002 10014 1200/ 700000 009870 6112/
33311 88872 20001 32733 20020 32727 43504 20040 32398 43592
20060 32021 20080 31765 20100 31648 20120 31578 43568 20140 31503
20180 31397 20300 31050 20500 30705
444 20120 10014 1325/ 521//=
ZZYY 13002 10014 1200/ 720444 023132 6112/
33311 88872 20001 32153 43671 20020 32152 20040 32148 43670
20080 32043 20100 31854 20120 31779 20140 31775 20180 31731
20300 31467 20500 31069
444 20120 10014 1140/ 521//=
ZZYY 13002 10014 1200/ 720444 023132 6112/
33311 88872 20001 32153 43671 20020 32152 20040 32148 43670
20080 32043 20100 31854 20120 31779 20140 31775 20180 31731
20300 31467 20500 31069
444 20120 10014 1140/ 521//=
ZZYY 41026 10014 1200/ 711497 037983 6112/
33311 88872 20001 32570 43597 20060 32563 20080 32137 20100 31693
20120 31445 43565 20140 31329 20180 31230 20300 31062 20500 30906
444 20120 10014 1148/ 521//=
ZZYY 31004 10014 1200/ 513537 032595 6112/
33311 88872 20001 32751 43692
444 20120 10014 1152/ 521//=
ZZYY 13010 10014 1200/ 700000 000013 6112/
33311 88872 20001 32811 20020 32797 43447 20040 32284 43606
20060 31816 20080 31727 20100 31603 20120 31543 43564 20140 31505
20180 31441 20300 31039 20500 30713
444 20120 10014 1324/ 521//=
ZZYY 13001 10014 1200/ 711462 022996 6112/
33311 88872 20001 32484 43550 20020 32484 43550 20040 32396 43558
20060 31761 43573 20080 31533 20100 31428 20120 31372 20140 31336
20180 31261 20300 31119 20500 30953
444 20120 10014 1146/ 521//=
0000008000
450
UANT01 KWBC 110403
ARP TCV691 40N 060W 0355 F340 MS56 302/075KT=
0000011000
451
UANT01 CWAO 110401
ARP DLH425 4910N04437W 0401 F380 MS56 315/55 KT
DAIHY QXT AME 110401 J86A
0000011100
452
UANT01 CWAO 110403
ARP SVA036 4917N03415W 0402 F330 MS51 201/35 KT
HZAK18 QXT AME 110403 F26A
00000000