0000010100
133
SACA33 KWBC 110000 RRC
METAR
TLPL 110000Z 07018KT 9999 SCT020 25/22 Q1015 NOSIG=

0000015500
134
FTCN34 CWAO 110000
TAF CYTH 110038Z 1101/1113 06008KT 3SM -SN OVC012 TEMPO 1101/1113 1SM
     -SN VV008
    RMK NXT FCST BY 110700Z=

0000016200
135
FTCN33 CWAO 110000
TAF CYCY 110038Z 1101/1113 30008KT P6SM SCT150 TEMPO 1101/1113 5SM IC
    RMK FCST BASED ON AUTO OBS. NXT FCST BY 110700Z=

0000033000
136
FTCN32 CWAO 110000
TAF CYZH 110038Z 1101/1113 35005KT P6SM -SN OVC030 TEMPO 1101/1104
     5SM -SN BKN020
    FM110400 26006KT P6SM SCT030
     BECMG 1107/1109 VRB03KT
    FM111200 13008KT 6SM -SN SCT012 OVC080 TEMPO 1112/1113 1SM -SN
     OVC012
    RMK FCST BASED ON AUTO OBS. NXT FCST BY 110700Z=

0000027400
137
FTCN32 CWAO 110000
TAF CYPE 110038Z 1101/1113 21008KT P6SM SCT050 BKN090 TEMPO 1101/1111
     6SM -SN BKN050
     BECMG 1106/1108 VRB03KT
    FM111100 VRB03KT 6SM -SN SCT012 OVC080 TEMPO 1111/1113 1SM -SN
     OVC012
    RMK NXT FCST BY 110700Z=

0000015900
138
FTCN33 CWAO 110000
TAF CYZS 110038Z 1101/1113 31005KT P6SM FEW020 SCT050 TEMPO 1101/1113
     5SM IC BKN020
    RMK NXT FCST BY 110700Z=

0000016000
139
FTCN34 CWAO 110000
TAF CYVC 110038Z 1101/1113 28005KT P6SM SCT008 OVC012 TEMPO 1101/1103
     4SM -SN OVC008
    RMK NXT FCST BY 110700Z=

0000026300
140
FTCN32 CWAO 110000
TAF CYQU 110038Z 1101/1113 26018G28KT P6SM FEW120
     BECMG 1103/1105 24008KT
     BECMG 1108/1110 09010KT
    FM111100 09010KT 6SM -SN SCT012 OVC080 TEMPO 1111/1113 1SM -SN
     OVC012
    RMK NXT FCST BY 110700Z=

0000116700
141
SNNL53 EHDB 110500
AAXX 11051
06248 46/// /2111
333 91013 91113 91211=
06249 47/46 /2107 10053 20044 75181
333 91009 91111 91208
555 53000=
06267 47232 82108 10056 20046 75851 8////
333 81/06 85/07 88/08 91011 91111 91209
555 53000=
06273 47/30 /2107 10051 20042 72381
333 91010 91110 91207
555 53000=
06277 46/// /2209 10062 20055
333 91013 91113 91209
555 53000=
06278 46/// /2204 10046 20032
333 91007 91107 91204
555 53000=
06279 47347 82106 10049 20038 30108 40128 58010 78181 8////
333 85/07 88/08 91008 91109 91206
555 53000=
06283 46/// /2104 10034 20023
333 91007 91107 91204
555 53000=
06286 46/// /2108 10055 20042
333 91010 91110 91208
555 53000=
06319 41/56 /2204 10038 20028 30149 40151 58004 7//00
333 91005 91106 91205
555 53000=
06348 47/50 /2006 10043 20033 30141 40140 58009 71000
333 91007 91109 91206
555 53000=
06356 463// 82205 10040 20029 30145 40146 58006 8////
333 88/07 91007 91107 91205
555 53000=
06377 47958 72103 10009 20003 71010 8////
333 87/63 91003 91105 91204
555 53000=
06391 46/// /1802 10010 20008
333 91004 91104 91203
555 53000=
0000040600
142
SNNL54 EHDB 110500
AAXX 11051
06209 NIL=
06285 NIL=
06308 NIL=
06311 NIL=
06312 NIL=
06313 NIL=
06315 NIL=
06316 NIL=
06320 46/57 /2211 10057 20055 30105 40132 58009 222// 00080 10603
333 91012 91113 91211=
06321 46/58 /2111 10072 20058 30106 40130 58008 222// 00086 10604
333 91013 91114 91212=
06324 NIL=
06331 NIL=
06343 46/// /2007
333 91010 91110 91207=
0000035400
143
SAAL31 DAAA 101800
METAR DAAG 101800Z VRB02KT 9999 FEW033 BKN080 16/06 Q1016=
METAR DAAT 101800Z 15007KT CAVOK 16/M04 Q1022=
METAR DABB 101800Z 04004KT CAVOK 14/13 Q1017=
METAR DABC 101800Z 27007KT CAVOK 09/02 Q1020=
METAR DAON 101800Z NIL=
METAR DAOO 101800Z NIL=
METAR DAUH 101800Z 00000KT 9999 FEW040 SCT100 17/09 Q1020=

0000057100
144
SAIO31 KWBC 101800
METAR
FIMP 101800Z 09004KT 9999 SCT017 SCT250 27/24 Q1017=
FIMR 101800Z 10014KT 9999 BKN017 27/25 Q1017=
FJDG 101755Z 31010KT 9999 FEW020 FEW080 SCT220 26/24 A2988 RMK
     SLP115 60029 8/131 T02610242 10262 20252 403210251 50010=
FMCH NIL=
FMCV NIL=
FMCZ NIL=
FMEE NIL=
FMMI 101800Z 31002KT 9999 FEW017CB BKN230 20/20 Q1021 NOSIG=
FMMT NIL=
FMNN NIL=
FSIA 101800Z 26003KT 9999 -SHRA FEW014CB BKN080 26/23 Q1013
     NOSIG=
FSSS NIL=
VRMM NIL=
VYMD NIL=
VYYY NIL=
WBGG NIL=
WBKK NIL=
WBSB NIL=

0000111200
145
SANT31 KWBC 101800
METAR
BGBW 101750Z 04004KT 9999 FEW050 BKN072 M09/M18 Q0995 RMK 2SC
     6AC=
BGCO 101750Z AUTO 21003KT //// FEW031/// BKN044/// M09/M11
     Q1010=
BGGH 101750Z 14014KT 2500 -SN DRSN VV020 M07/M11 Q0993=
BGJN 101750Z 10025KT 9999 FEW010 SCT160 M09/M18 Q0991=
BGKK 101750Z AUTO 07027G38KT 0650NDV SN VV006/// M01/M02 Q0986=
BGSF 101750Z AUTO 08013KT 9999NDV BKN130/// M11/M20 Q0994=
BGTL 101758Z AUTO 08001KT 9999 SCT055 OVC070 M11/M17 A2910 RMK AO2
     SLP842 T11121172 11094 21147 58003=
BIAR 101800Z 28006KT 190V350 9999 BKN027 03/M02 Q0996=
BIEG 101800Z 10034G46KT 8000 RASN BKN016 BKN035 01/M01 Q0996 RMK
     R04/290095 RWY SANDED=
BIKF 101800Z 27013KT 9999 VCSH FEW011 SCT028 BKN039 01/00
     Q0989=
BIRK 101800Z 19011KT 5000 RASN FEW009 SCT014 OVC022 01/M01
     Q0989=
GVAC 101800Z 04011KT 9999 SCT014 BKN200 22/14 Q1014 NOSIG=
GVPR NIL=
LPBJ 101800Z VRB01KT 9999 FEW040 14/08 Q1013=
LPLA 101800Z 00000KT 4000 -RADZ BR SCT004 BKN008 BKN017 13/13
     Q1008=
TXKF 101755Z 06012KT 9999 FEW030 SCT055 OVC300 19/12 Q1030=

0000030400
146
SAIE32 EIDB 101800
METAR EICM 101800Z NIL=
METAR EIDL 101800Z NIL=
METAR EIKY 101750Z 20002KT 9999 SCT022 SCT031 06/05 Q1011=
METAR EIME 101800Z 28004KT 9999 -RA SCT008 BKN027 06/05 Q1008=
METAR EISG 101800Z NIL=
METAR EIWF 101800Z VRB03KT 9999 SCT027 06/05 Q1009 R21/1/////=

0000012200
147
SACN62 CYUT 101800
METAR CYUT 101800Z 33012G17KT 25SM SCT040 BKN100 M26/M31 A2937 RMK
 SC4AC3 SLP948=

0000020100
148
FTCN38 CWAO 101800
TAF CWWU 101800Z 1018/1106 28023G30KT P6SM BKN030 
    FM102200 27020G26KT P6SM SCT030 
    FM110200 27016KT P6SM FEW030 SCT045 
    RMK NXT FCST BY 111000Z=

0000016300
149
SACN62 CYUX 101800
METAR CYUX 101800Z 32012KT 15SM IC FEW007 FEW050 FEW150 BKN230
 M30/M33 A2916 RMK SF1SC1AS1CS6 SF TR SC TR WND ESTD SLP875=

0000013300
150
SACN62 CYVM 101800
METAR CYVM 101800Z 20008KT 4SM IC BKN039 OVC070 M19/M22 A2913 RMK
 SC6AC2 VIS S-WSW 7 SLP865=

0000011500
151
SACN62 CYUY 101800
METAR CYUY 101800Z 18010G16KT 6SM -SN OVC007 M06/M07 A2998 RMK SF8
 SLP176=

0000013300
152
SACN62 CYVC 101800
METAR CYVC 101800Z 19005KT 10SM -SN BKN007 OVC011 M06/M06 A2933 RMK
 SF6SC2 VIS N LWR SLP957=

00000000