0000009500
273
SALC31 TLPL 101900
METAR TLPL 101900Z 08018KT 9999 SCT027 27/21 Q1014 NOSIG=

0000010600
274
SAUS73 KWBC 101800 RRI
METAR
KBJC 101848Z 28023G35KT 60SM SCT080 BKN120 04/M12 A2967=

0000029000
275
SAIE31 EIDB 101900
METAR EIDW 101900Z 25007KT 9999 FEW017 SCT035 BKN050 05/04 Q1008
     NOSIG=
METAR EINN 101900Z NIL=
METAR EICK 101900Z 29007KT 9999 FEW017 BKN029 BKN060 05/03 Q1011
     NOSIG=
METAR EIKN 101900Z 25008KT 9999 FEW033 BKN063 03/01 Q1009 NOSIG=

0000012100
276
SAUS75 KWBC 101800 RRG
METAR
PAMC 101753Z COR 00000KT 6SM -SN BR FEW050 OVC090 M14/M17
     A2956=

0000010600
277
SACN61 CYQA 101900
METAR CYQA 101900Z AUTO 16011KT 7SM OVC007 M02/M03 A3011 RMK SLP212=

0000126700
278
SAAU31 YBBN 101900
METAR YPAD 101900Z 18009KT CAVOK 18/08 Q1017
NOSIG=
METAR YBAS 101900Z AUTO 33005KT 9999 // NCD 22/M08 Q1014=
METAR YBBN 101900Z 09005KT 9999 FEW034 BKN040 BKN072 23/18 Q1018=
METAR YBCS 101900Z 18012KT 6000 -SHRA SCT023 BKN045 24/23 Q1009=
METAR YSCB 101900Z 00000KT CAVOK 13/11 Q1020
RMK 2AC140=
METAR YPXM 101900Z NIL=
METAR YPCC 101900Z AUTO 16011KT 9999 // SCT023 SCT030 26/22 Q1011=
METAR YCFS 101900Z AUTO 33007KT 9999 // NCD 18/17 Q1018=
METAR YPDN 101900Z 17003KT 9999 FEW020 BKN350 25/23 Q1006
RMK DISTANT LIGHTNING TO W=
METAR YBCG 101900Z AUTO 25006KT 9999 // OVC057 20/19 Q1018=
METAR YHID 101900Z AUTO 09008KT //// // ////// 28/25 Q1005=
METAR YPJT 101900Z AUTO 12009KT 9999 // NCD 26/10 Q1015=
METAR YPKU 101900Z AUTO 27003KT 9999 // NCD 27/25 Q1007=
METAR YPLM 101900Z NIL=
METAR YMML 101900Z 18005KT 9999 FEW009 BKN240 17/15 Q1017
RMK HZ
FM1930 18008KT 9999 BKN008=
METAR YPPH 101900Z 09018KT CAVOK 26/10 Q1014=
METAR YSSY 101900Z 31006KT 9999 FEW040 20/17 Q1018
RMK HZ
NOSIG=
METAR YSTW 101900Z AUTO 00000KT 9999 // OVC100 18/13 Q1019=
METAR YPTN 101900Z AUTO 15001KT 9999 // NCD 25/22 Q1007=
METAR YBTL 101900Z AUTO 18006KT 9999 // SCT048 BKN055 26/22 Q1011=

0000125400
279
SAAU32 YBBN 101900
METAR YAMB 101900Z AUTO /////KT 4300 // NCD 17/16 Q1018=
METAR YMAV 101900Z AUTO 25011KT 9999 // OVC015 17/13 Q1017=
METAR YBRM 101900Z AUTO 26011KT 9999 // SCT020 29/25 Q1007=
METAR YCIN 101900Z AUTO 32004KT //// // OVC013 27/25 Q1007=
METAR YSDU 101900Z AUTO 16008KT 9999 // NCD 18/17 Q1018=
METAR YFRT 101900Z AUTO 15008KT //// // ////// 16/16 Q1020=
METAR YGEL 101900Z AUTO 13003KT 9999 // NCD 19/17 Q1010=
METAR YPGV 101900Z AUTO 12008KT 9999 // BKN007 BKN043 BKN115 25/24
Q1006=
METAR YBHM 101900Z AUTO 12020KT 9999 // ////// 26/21 Q1012=
METAR YMHB 101900Z 16004KT 9999 SCT009 BKN016 16/14 Q1014=
METAR YPKG 101900Z AUTO 11013KT 9999 // NCD 22/11 Q1019=
METAR YMLT 101900Z AUTO 36001KT 9999 // NCD 15/13 Q1012=
METAR YBMA 101900Z AUTO 16007KT 9999 // NCD 29/16 Q1010=
METAR YSNF 101900Z AUTO 13007KT 9999 // OVC061 19/11 Q1019=
METAR YPEA 101900Z AUTO 10014KT 9999 // NCD 27/10 Q1014=
METAR YPPD 101900Z AUTO 33009KT 9999 // NCD 29/27 Q1006=
METAR YSRI 101900Z AUTO 00000KT 1900 // NCD 15/15 Q1018=
METAR YBRK 101900Z AUTO 12006KT 9999 // NCD 22/20 Q1014=
METAR YWLM 101900Z AUTO 00000KT 9999 // NCD 17/16 Q1018=
METAR YPWR 101900Z AUTO 17012KT 9999 // NCD 24/09 Q1015=

0000462800
280
SNVF50 EGRR 111000
BBXX
63057 11104 99592 10015 47598 /3022 10059 20012 40013 53013 700// 22200 10706 70031=
62128 11104 99587 10014 47498 /2924 10048 20020 40038 53015 700// 22200 10607 70033=
62113 11104 99584 10002 47598 /2826 10058 20012 40052 53012 700// 22200=
62112 11104 99584 70002 47598 /2813 10071 20023 40049 53012 700// 22200=
62129 11104 99584 10003 46/// /2723 10059 20012 40046 53014 22200=
62114 11104 99583 10000 46/// /2825 10059 20021 40046 53014 22200=
62148 11104 99536 10015 46/// ///// 22200=
62144 11104 99534 10017 47598 /2917 10066 20017 40145 52043 700// 22200 10503 70013=
62142 11104 99530 10021 47997 /3120 10069 20052 40136 52034 700// 22200 10403 70013=
62145 11104 99531 10028 47497 /3120 10067 20041 40140 53040 700// 22200 10504 70018=
62154 11104 99564 10022 46/// /2916 10062 21001 40074 52015 22200=
62123 11104 99563 10022 47598 /2921 10066 20005 40077 52014 700// 22200 1//05 70023=
62127 11104 99540 10007 47999 ///// 10062 20006 40139 52030 700// 22200 10503 70016=
62165 11104 99540 10011 47598 /2915 10067 20017 40142 52032 700// 22200 10503 70016=
62131 11104 99539 10012 46/// /3116 10068 20020 40136 52032 22200=
62150 11104 99536 10007 47998 /2716 10066 20018 40155 52033 700// 22200 10603 70013=
62121 11104 99535 10027 46/// ///// 10072 20032 40123 52032 22200=
64041 11104 99607 70026 47598 /2824 40006 53012 700// 22200 10908 70040=
MWYG6 11104 99603 70040 47598 /2723 40026 52019 700// 22200=
63115 11104 99616 10013 47498 /0508 10026 21012 49993 53008 700// 22200 10806 70030=
63114 11104 99613 10017 47499 /0608 10014 21023 49991 53009 700// 22200=
63117 11104 99613 10011 47498 /0909 49997 52016 700// 22200=
63101 11104 99612 10009 46/// /0707 10025 21000 49995 52018 22200 10706 70029=
63103 11104 99612 10011 46/// ///// 10026 20004 49985 52016 22200 10806 70030=
63112 11104 99611 10010 47498 /0908 10035 20010 49989 52021 700// 22200 10706 70028=
63104 11104 99612 10016 47498 /0710 10025 21008 49992 53011 700// 22200 10706 70029=
63107 11104 99611 10017 46/// /0709 10038 49989 52013 22200=
63106 11104 99610 10017 46/// /0610 10028 52014 22200=
63105 11104 99610 10017 47499 /0707 10041 21019 49992 52014 700// 22200=
63113 11104 99610 10017 46/// /0609 10042 20005 49989 52016 22200 10706 70031=
63108 11104 99608 10017 47/99 /0710 10030 20005 49984 53017 700// 22200 10706 70028=
63055 11104 99606 10016 47598 /0808 10046 20012 49987 53014 762// 22200 10706 70030=
63056 11104 99597 10016 47498 /2921 10051 20012 40002 53015 771// 22200 10606 70031=
63109 11104 99596 10015 46/// /3023 10057 20020 40002 53013 22200=
63110 11104 99595 10015 47598 /2920 10057 20020 40013 53014 700// 22200 10606 70031=
MQSY9 11104 99593 10015 47498 /2921 10062 20016 53012 700// 22200=
62118 11104 99577 10009 47598 /2824 10062 20014 40054 52013 700// 22200 10606 70028=
ZQSD5 11104 99583 10008 47598 ///// 10066 20028 40038 52014 700// 22200 1//07 70035=
PJAI 11104 99581 70014 47598 /2820 10058 20001 40064 52021 700// 22200=
62111 11104 99580 70003 46/// /2926 10057 20009 40076 52016 22200 10605 70027=
62117 11104 99579 10000 47598 /2723 10058 20006 40047 53005 700// 22200 10605 70023=
62134 11104 99580 10014 46/// /2923 10059 20016 40048 52011 22200 10606 70029=
62102 11104 99579 10018 47598 /2822 10067 20010 40044 53011 700// 22200 10605 70027=
62143 11104 99577 10018 47497 /3014 10055 20011 40064 52010 700// 22200 10606 70028=
62155 11104 99577 10007 47598 /2925 10060 20019 40065 52013 762// 22200 10605 70027=
62116 11104 99576 10011 47598 /2823 10059 20013 40054 52009 700// 22200 10605 70027=
62164 11104 99572 10008 47598 /2821 10081 20019 40070 53014 700// 22200 00084 10605 70024=
62133 11104 99571 10009 46/// /3020 40070 52014 22200 10504 70022=
62104 11104 99574 10013 47598 /2821 10066 20008 40060 52012 700// 22200=
62140 11104 99573 10013 46/// ///21 10058 20006 40065 52012 22200=
62122 11104 99573 10016 47598 /2921 10062 21001 40064 52012 700// 22200 10605 70024=
62153 11104 99573 10020 47598 /2709 40059 52010 700// 22200 10605 70025=
62146 11104 99572 10021 47998 /2303 10059 20003 40067 52011 700// 22200 10605 70025=
62152 11104 99570 10018 47598 /2915 10065 20002 40074 52013 700// 22200 10505 70024=
62119 11104 99570 10019 47598 /2922 10069 21001 40073 52013 700// 22200 10605 70023=
62120 11104 99564 10021 47598 /2919 10061 20005 40075 52014 700// 22200=
62132 11104 99564 10020 46/// /3019 10065 21000 40088 52019 22200=
62149 11104 99537 10011 47998 /2915 10082 20025 40144 52037 700// 22200 10503 70013=
0000103700
281
UDAS02 BABJ 110949
AMDAR 1109
LVR CNFPXL 3311N 11843E 110944 F217 MS263 267/055 TB/ S//1=
LVR CNFPXL 3315N 11844E 110944 F217 MS265 269/055 TB/ S//1=
LVR CNFPXL 3319N 11844E 110945 F217 MS268 270/056 TB/ S//1=
LVR CNFPXL 3322N 11845E 110946 F217 MS270 268/057 TB/ S//1=
DES CNFPYN 3607N 10417E 110944 F140 MS193 300/022 TB/ S//1=
DES CNFPYN 3608N 10412E 110945 F124 MS198 339/012 TB/ S//1=
DES CNFPYN 3609N 10409E 110945 F114 MS170 342/014 TB/ S//1=
DES CNFPYN 3610N 10406E 110946 F107 MS153 354/010 TB/ S//1=
DES CNFOZL 2346N 11336E 110943 F157 MS045 253/040 TB/ S//1=
DES CNFOZL 2343N 11334E 110944 F157 MS045 253/040 TB/ S//1=
DES CNFOZL 2339N 11330E 110945 F157 MS043 258/039 TB/ S//1=
DES CNFOZL 2335N 11326E 110946 F149 MS020 255/039 TB/ S//1=
LVR CNFPYM 3540N 11729E 110945 F246 MS358 273/083 TB/ S//1=
LVR CNFPYM 3538N 11729E 110945 F246 MS360 271/082 TB/ S//1=
LVR CNFPYM 3536N 11730E 110946 F246 MS363 271/088 TB/ S//1=
LVR CNFPYM 3533N 11729E 110946 F246 MS360 269/080 TB/ S//1=
0000015700
282
SSVX13 LFPW 111000
ZZYY 44740 11014 1000/ 730684 030612 6113/ 11119 40165 52027 22219
 00202 444 20130 11014 1000/ 50101 80118 80019 9/015=
0000015700
283
SSVX13 LFPW 111000
ZZYY 41971 11014 1000/ 736046 058680 6113/ 11119 40318 57001 22219
 00205 444 20130 11014 1000/ 50101 80120 80003 9/015=
0000009800
284
SNVF25 LFPW 111000
BBXX
12050 11104 99336 10319 46/// ///// 40234 57012
22200=
0000015700
285
SSVX13 LFPW 111000
ZZYY 44874 11014 1000/ 745792 020842 6113/ 11119 49958 57058 22219
 00130 444 20130 11014 1000/ 50101 80118 80008 9/015=
0000011600
286
SIUG20 HUEN 110900
AAXX 11093
63682 31570 61808 10280 20178 71729 85936 333 85820 81923 555 10212=
0000015700
287
SSVX13 LFPW 111000
ZZYY 41969 11014 1000/ 741203 042442 6113/ 11119 40227 52014 22219
 00162 444 20130 11014 1000/ 50101 80118 80006 9/015=
0000015700
288
SSVX13 LFPW 111000
ZZYY 16591 11014 1000/ 343491 064648 6113/ 11119 40192 57012 22219
 00114 444 20130 11014 0959/ 50101 80118 80018 9/015=
0000011800
289
SNVF25 LFPW 111000
BBXX
BATFR44 11104 99479 70039 46/// /0801 10084 20075 40211 51023
22241 04082=
0000010900
290
UANT01 CWAO 111000
ARP THY10 5603N03815W 1000 F330 MS58 247/17 KT
TCJJL QXT AOW 111000 F23A
0000322800
291
UDIO01 AMMC 111000
AMDAR 1110
LVR AU0078 3324S 06220E 110921 F360 MS467 212/024 TB0 S031
  333 F360 VG003=
LVR AU0078 3308S 06115E 110928 F360 MS457 206/019 TB0 S031
  333 F360 VG003=
LVR AU0078 3252S 06011E 110935 F360 MS453 210/017 TB0 S031
  333 F360 VG003=
LVR AU0078 3235S 05907E 110942 F360 MS448 232/014 TB0 S031
  333 F360 VG002=
LVR AU0078 3218S 05804E 110949 F360 MS445 249/013 TB0 S031
  333 F360 VG002=
LVR SG0016 0057S 10537E 110812 F300 MS306 052/017 TB0 S031
  333 F300 VG000=
LVR SG0016 0141S 10610E 110819 F300 MS308 051/008 TB0 S031
  333 F300 VG000=
LVR SG0016 0225S 10644E 110826 F300 MS310 321/010 TB0 S031
  333 F300 VG000=
LVR SG0016 0313S 10647E 110833 F300 MS297 030/015 TB0 S031
  333 F300 VG000=
LVR SG0016 0407S 10642E 110840 F295 MS285 011/014 TB0 S031
  333 F/// VG000=
UNS SG0016 0453S 10637E 110847 F264 MS208 065/008 TB0 S031
  333 F/// VG000=
LVR SG0016 0448S 10636E 110854 F233 MS145 058/005 TB0 S031
  333 F/// VG000=
DES SG0016 0506S 10644E 110858 F182 MS050 068/012 TB0 S031
  333 F/// VG000=
LVR AU1014 0117S 10716E 110822 F320 MS354 084/014 TB0 S031
  333 F320 VG000=
LVR AU1014 0040S 10635E 110829 F320 MS359 066/015 TB0 S031
  333 F320 VG000=
DES SG0016 0514S 10649E 110900 F158 MS015 060/007 TB0 S031
  333 F/// VG000=
DES SG0016 0536S 10657E 110905 F117 PS055 037/007 TB0 S031
  333 F/// VG000=
DES SG0016 0543S 10656E 110906 F099 PS090 047/008 TB0 S031
  333 F/// VG000=
DES SG0016 0550S 10654E 110907 F080 PS121 046/008 TB0 S031
  333 F/// VG000=
DES SG0016 0555S 10654E 110909 F064 PS149 038/008 TB0 S031
  333 F/// VG001=
DES SG0016 0559S 10652E 110910 F049 PS176 049/013 TB0 S031
  333 F/// VG001=
DES SG0016 0521S 10656E 110901 F149 PS000 064/007 TB0 S031
  333 F/// VG000=
DES SG0016 0530S 10658E 110903 F137 PS018 055/007 TB0 S031
  333 F/// VG000=
DES SG0016 0603S 10648E 110911 F033 PS201 031/012 TB0 S031
  333 F/// VG001=
DES SG0016 0604S 10644E 110912 F018 PS231 329/013 TB0 S031
  333 F/// VG001=
DES SG0016 0606S 10640E 110914 F004 PS270 327/012 TB0 S031
  333 F/// VG004=
DES SG0016 0604S 10646E 110912 F025 PS215 238/013 TB0 S031
  333 F/// VG004=
DES SG0016 0604S 10645E 110912 F021 PS223 340/012 TB0 S031
  333 F/// VG001=
DES SG0016 0604S 10644E 110912 F018 PS231 329/013 TB0 S031
  333 F/// VG001=
DES SG0016 0604S 10644E 110913 F015 PS239 325/011 TB0 S031
  333 F/// VG007=
DES SG0016 0605S 10643E 110913 F013 PS243 328/013 TB0 S031
  333 F/// VG006=
DES SG0016 0605S 10642E 110913 F010 PS252 328/015 TB0 S031
  333 F/// VG006=
DES SG0016 0605S 10641E 110914 F007 PS262 332/015 TB0 S031
  333 F/// VG004=
DES SG0016 0606S 10640E 110914 F004 PS270 327/012 TB0 S031
  333 F/// VG004=
LVR AU0078 3442S 06747E 110846 F360 MS483 189/061 TB0 S031
  333 F360 VG004=
LVR AU0078 3426S 06641E 110853 F360 MS483 194/051 TB0 S031
  333 F360 VG002=
LVR AU0078 3409S 06535E 110900 F360 MS479 201/046 TB0 S031
  333 F360 VG007=
LVR AU0078 3353S 06430E 110907 F360 MS471 202/033 TB0 S031
  333 F360 VG006=
LVR AU0078 3339S 06325E 110914 F360 MS471 206/025 TB0 S031
  333 F360 VG008=

0000790700
04879
0000011500
292
SNVF25 LFPW 111000
BBXX
FVNM 11104 99477 70034 46/// /0502 10057 20050 40204 51027
22200 04084=
00000000