0000011200
193
SACN62 CYPL 101900
METAR CYPL 101900Z 19009KT 3SM -SN OVC007 M08/M09 A2954 RMK SF8
 SLP029=

0000013300
194
SACN62 CYOW 101900
METAR CYOW 101900Z 09006KT 10SM -SN OVC009 M07/M10 A3022 RMK SC8 VRY
 LGT SN WND ESTD SLP243=

0000012300
195
SACN62 CYPW 101900
METAR CYPW 101900Z VRB02KT 25SM FEW025 OVC035 04/04 A2999 RMK CF1SC8
 CF TR SLP161=

0000004200
196
SASP36 LEMM 101900
NIL=

0000014100
197
SASP37 LEMM 101900
METAR LEBG 101900Z NIL=
METAR LEHC 101900Z NIL=
METAR LEBA 101900Z 00000KT 9999 FEW080 10/08 Q1014=

0000044100
198
SAAP32 FAPR 101900
METAR FACT 101900Z 18016KT 9999 FEW025 18/12 Q1018 NOSIG=
METAR FALE 101900Z 21009KT 9999 SCT025 SCT045 23/20 Q1014 NOSIG=
METAR FAOR 101900Z 15005KT CAVOK 22/12 Q1020 NOSIG=
METAR FLKK 101900Z 24002KT 8000 -SHRA FEW056CB SCT100 20/18 Q1018=
METAR FQBR 101900Z 08007KT 9999 FEW020 28/24 Q1009=
METAR FQMA 101900Z 10007KT 9999 TS BKN020 FEW035CB 27/23 Q1011
    BECMG 4000 -TSRA RMK CB TO NW=

0000010300
199
SAAF21 LFPW 101900 CCA
METAR COR FAPE 101900Z 24014KT 9999 FEW021 19/14 Q1017 NOSIG=

0000024500
200
SASP40 LEMM 101900
METAR LEGA 101900Z NIL=
METAR LEGT 101900Z 00000KT CAVOK 10/03 Q1015=
METAR LEMO 101900Z 09001KT CAVOK 11/09 Q1013
NOSIG=
METAR LERI 101900Z NIL=
METAR LERT 101900Z 03006KT CAVOK 13/10 Q1013 NOSIG=

0000021500
201
SASP41 LEMM 101900
METAR LEAO 101900Z 00000KT CAVOK 06/06 Q1014=
METAR LEBT 101900Z NIL=
METAR LECV 101900Z NIL=
METAR LEEC 101900Z NIL=
METAR LELO 101900Z VRB01KT 1500 BR NSC 04/04 Q1017=

0000029200
202
SAIY33 LIIB 101900
METAR LIMA 101900Z NIL=
METAR LIMG 101850Z 00000KT 9999 BKN040 11/10 Q1021=
METAR LIMP 101850Z 06006KT 5000 BR FEW030 SCT050 09/08 Q1022=
METAR LIMS 101900Z NIL=
METAR LIMW 101900Z NIL=
METAR LIMZ 101850Z 26004KT 9000 SCT025 SCT040 05/05 Q1020=

0000012600
203
SACN62 CYQK 101900
METAR CYQK 101900Z 17009KT 1 1/2SM -SN BR OVC005 M06/M07 A2944 RMK
 ST8 PRESFR SLP997=

0000012500
204
SACN62 CYQB 101900
METAR CYQB 101900Z 25009KT 15SM -SHSN SCT028 OVC040 M09/M13 A3029 RMK
 SC4SC4 SLP266=

0000024300
205
SAIY34 LIIB 101900
METAR LIPC 101855Z /////KT 4000 BR BKN045 08/05 Q1021=
METAR LIPF 101900Z NIL=
METAR LIPO 101850Z 08005KT 2500 BR SCT015 BKN040 08/07 Q1021=
METAR LIPY 101850Z VRB02KT 9999 FEW010 BKN045 13/08 Q1021=

0000013800
206
SACN62 CYQI 101900
METAR CYQI 101900Z 23013G19KT 2SM -SHSN SCT006 OVC020 00/M01 A3043
 RMK SF4SC4 VIS VRB 1-3 SLP308=

0000037200
207
SAIY35 LIIB 101900
METAR LIQN 101900Z NIL=
METAR LIQW 101900Z NIL=
METAR LIRG 101900Z NIL=
METAR LIRH 101900Z NIL=
METAR LIRL 101900Z NIL=
METAR LIRM 101855Z 01003KT 5000 BR SCT020 BKN070 11/10 Q1021=
METAR LIRS 101855Z /////KT 9999 FEW030 BKN040 12/08 Q1021=
METAR LIRU 101850Z 00000KT 6000 MIFG NSC 08/08 Q1021=
METAR LIRV 101900Z NIL=

0000034800
208
SAIY36 LIIB 101900
METAR LIBC 101850Z 01005KT 6000 NSC 10/10 Q1020=
METAR LIBF 101850Z 17004KT CAVOK 10/09 Q1022=
METAR LIBG 101850Z 05004KT 8000 FEW020 10/10 Q1020=
METAR LIBP 101850Z VRB02KT 5000 BR NSC 08/05 Q1022=
METAR LIRI 101900Z NIL=
METAR LIRJ 101900Z NIL=
METAR LIRZ 101850Z VRB02KT 8000 BKN045 09/08 Q1022=

0000025900
209
SAIY37 LIIB 101900
METAR LICA 101850Z VRB02KT CAVOK 10/09 Q1022=
METAR LICD 101850Z 21014KT CAVOK 16/12 Q1022=
METAR LICG 101900Z NIL=
METAR LICR 101850Z 36011KT CAVOK 13/10 Q1021=
METAR LICT 101855Z 10002KT 9999 FEW020 12/11 Q1020=

0000019000
210
SAAY31 RUMS 101900
METAR UDYZ 101900Z VRB01MPS 2300 BR BKN010 M09/M11 Q1028 R09/000070
NOSIG=
METAR UDSG 101900Z VRB01MPS 3200 BR NSC M22/M24 Q1022 R02/CLRD70
NOSIG=

0000021300
211
SAKY31 RUMS 101900
METAR UCFM 101900Z 16001MPS 1500 R08/P2000 FU SKC M11/M16 Q1028
R08/CLRD70 TEMPO 1000 FU=
METAR UCFO 101900Z 18003MPS 6000 NSC M06/M10 Q1028 R12/CLRD70 TEMPO
1000 BR FU=

0000097100
212
SAKZ31 RUMS 101900
METAR UAAA 101900Z 14002MPS 120V220 0500 R23R/1900N R23L/1300N BR FU
FEW200 M15/M18 Q1029 8891//60 NOSIG=
METAR UACC 101900Z 19007MPS 9999 -SN DRSN OVC021 M12/M14 Q1026
R22/8/0055 NOSIG RMK QFE738/0984=
METAR UAKK 101900Z 18009MPS CAVOK M14/M17 Q1028 R23/850555 NOSIG RMK
QFE723/0965=
METAR UAOO 101900Z 16005MPS 5000 BR BKN160 M06/M07 Q1026 NOSIG RMK
QFE757/1010=
METAR UARR 101900Z 29002MPS 9999 BKN012 OVC026 00/M00 Q1010
R22/650340 TEMPO 2000 BR BKN004 RMK QFE754/1005=
METAR UATE 101900Z 15003MPS 0350 R12/0500N FZFG NSC M03/M03 Q1020
R12/0///70 TEMPO 0200 FG BKN001 RMK QFE763/1018=
METAR UATG 101900Z 26004MPS 5000 BR OVC014 01/01 Q1016 R14/19//65
NOSIG RMK QFE764/1019=
METAR UATT 101900Z 19003MPS 9999 -SN SCT008 OVC027 M01/M01 Q1009
R13/491040 NOSIG RMK QFE737/0983=
METAR UAUU 101900Z 18008MPS 5000 -SHSN BLSN OVC016CB M08/M10 Q1015
TEMPO 19012MPS 1000 SHSN BLSN BKN005CB RMK QFE745/0993=

00000000