0000026900
553
NOUK32 EGGY 110311
SADIS GATEWAY MONITOR
INTERNAL ALARM MESSAGE
AERODROME NOT RECEIVED

OSDI FT LAST RECEIVED AT 101700Z
SKBO FT LAST RECEIVED AT 101000Z
VABB FT LAST RECEIVED AT 100300Z
ZSPD FT LAST RECEIVED AT 102124Z
END OF MESSAGE

0000016200
554
SAIO31 KWBC 110300 RRA
METAR
FMCZ 110300Z 28006KT 9999 FEW021 BKN300 27/23 Q1012 NOSIG=
FMEE 110300Z 11012KT 9999 FEW026 27/21 Q1015 NOSIG=

0000067400
555
SAMS38 WMKK 110300
METAR WBGB 110300Z 30003KT 9999 FEW008 SCT014 BKN150 27/25 Q1013=
METAR WBGR 110300Z 35004KT 9999 RA SCT014 BKN150 24/23 Q1013=
METAR WBGS 110300Z 03005KT 9999 BKN016 BKN150 28/23 Q1012=
METAR WBKL 110300Z 04003KT 9999 FEW013 SCT140 BKN290 29/25 Q1012=
METAR WBKS 110300Z 07012KT 030V090 9999 SCT015 SCT140 OVC260 29/26
Q1012=
METAR WBKW 110300Z 03010KT 9999 FEW017 SCT140 BKN300 29/23 Q1011=
METAR WMKD 110300Z 01005KT 9999 FEW018 SCT160 BKN270 26/23 Q1014
NOSIG=
METAR WMKL 110300Z 03009KT 330V110 9999 FEW022 BKN140 BKN270 28/21
Q1013=
METAR WMKM 110300Z 03008KT 350V080 9999 FEW020 SCT140 BKN270 28/24
Q1013=

0000055000
556
SATH33 VTBB 110300
METAR VTBO 110300Z 06017KT 6000 FEW030 SCT200 30/21 Q1016=
METAR VTUD 110300Z 06005KT 350V150 CAVOK 23/15 Q1020
A3013 INFO E RWY30=
METAR VTUI 110300Z NIL=
METAR VTUK 110300Z 06008KT 030V110 CAVOK 24/18 Q1019 A3011
RWY03 INFO E=
METAR VTUL 110300Z 31004KT 2000 BR NSC 22/16 Q1018 A3009=
METAR VTUO 110300Z NIL=
METAR VTUQ 110300Z NIL=
METAR  VTUU 110300Z 03003KT CAVOK 25/18 Q1017 A3005 NOSIG=
METAR VTUV 110300Z NIL=
METAR VTUW 110300Z 08006KT 9999 FEW040 26/15 Q1019 A3009
RWY15 INFO C=

0000049900
557
SATH31 VTBB 110300
METAR VTCH 110300Z 27003KT 9999 FEW028 18/15 Q1020 A3012
INFO:D=
METAR VTCL 110300Z VRB02KT 2500 BR FEW010 21/19 Q1019 A3012 NOSIG
INFO: E=
METAR VTCN 110300Z VRB01KT 4000 BR NSC 21/17 Q1019=
METAR VTCP 110300Z 00000KT 2000 BR FEW015 22/19 Q1019 A3010
INFO C=
METAR VTCT 110300Z VRB02KT 0400 FG VV003 18/17 Q1020 A3014
RMK/RWY03 INFO D=
METAR VTPH 110300Z NIL=
METAR VTPO 110300Z NIL=
METAR VTPP 110300Z 02006KT 6000 FEW030 26/17 
Q1017=

0000020400
558
SABO41 SLLP 110300
METAR SLLP 110300Z 07004KT 9999 FEW015 SCT200 07/05 Q1036=
METAR SLVR 110300Z 35005KT 9999 FEW070 24/22 Q1010=
METAR SLCB 110300Z 12004KT 9999 FEW027 19/08 Q1023=

0000135500
559
FTUS80 KWBC 110306 AAC
TAF AMD
KSAN 110303Z 1103/1206 VRB04KT P6SM FEW250
     FM110700 VRB03KT P6SM SCT005
      TEMPO 1110/1114 6SM BR
     FM111800 27007KT P6SM FEW250
     FM120200 VRB04KT P6SM BKN010=
KSBY 110303Z 1103/1124 11006KT 4SM BR SCT006 BKN100
     FM110600 14005KT 1SM -DZ BR OVC005
     FM111200 18014G20KT 4SM -RA BR OVC010
     FM111900 17022KT 4SM -RA SCT012 BKN040=
KSEA 110305Z 1103/1206 19012G18KT P6SM -RA SCT017 OVC035
      TEMPO 1104/1107 2SM RA BR OVC017
     FM110700 19018G30KT 5SM -RA BR OVC015
     FM110900 20025G40KT 5SM -RA BR OVC015
     FM111400 20018G32KT P6SM -RA OVC025
     FM111900 20024G38KT P6SM -SHRA OVC017=
KTPA 110303Z 1103/1124 VRB03KT P6SM FEW200
     FM110900 15004KT 4SM BR OVC007
     FM111100 15004KT 2SM BR OVC004
     FM111400 18007KT 4SM BR BKN007 OVC015
     FM111600 19012G20KT P6SM SCT010 BKN020
     FM111800 22014G22KT P6SM SCT025 BKN150=
KZZV 110303Z 1103/1124 12005KT P6SM BKN040
     FM110500 13006KT P6SM BKN025 OVC035 WS020/22045KT
     FM110900 18010KT 4SM -RA OVC009 WS020/22050KT
     FM111900 23012G24KT P6SM BKN015 OVC025=
PACD 110303Z 1103/1124 15015G22KT P6SM VCSH SCT025 OVC040
     FM110600 14018G26KT 5SM -RA BKN028 OVC060
     FM110800 19015KT P6SM -SHRA BKN030
     FM111200 22017KT P6SM VCSH BKN040=

0000145400
560
FTUS80 KWBC 110306 AAB
TAF AMD
KMDW 110305Z 1103/1124 18012G18KT 6SM -RA BR OVC006
     FM110500 19012G18KT 1SM -DZ BR VCSH OVC004
     FM110800 22012KT 3SM BR VCSH OVC004
     FM111200 26012G18KT P6SM VCSH OVC012
     FM111500 28014G22KT P6SM BKN018
     FM112100 27014G22KT P6SM SCT020=
KMKC 110303Z 1103/1124 30006KT P6SM OVC011
     FM110600 27006KT 4SM BR VCSH BKN011
     FM110900 26010KT P6SM SCT150=
KMSP 110303Z 1103/1206 17007KT 5SM BR OVC008
      TEMPO 1104/1108 1SM BR OVC005
     FM110800 26005KT 4SM BR BKN009
     FM111000 28008KT P6SM SCT015
     FM111200 29012KT P6SM SCT250
     FM111600 30012KT P6SM SCT025 BKN040
     FM112000 27008KT P6SM SCT040 SCT250
     FM120200 23004KT P6SM SCT250=
KMSY 110303Z 1103/1124 16008KT 1/2SM FG OVC003
      TEMPO 1105/1109 2SM TSRA OVC006CB
     FM110900 21012KT 3SM -RA OVC008
     FM111300 25012KT 5SM BR OVC015
     FM111600 30010KT P6SM SCT250=
KNEW 110304Z 1103/1124 11010KT 1SM -RA BR OVC003
      TEMPO 1105/1109 2SM TSRA OVC006CB
     FM110900 22015KT 3SM -RA BR OVC002
     FM111200 27013KT 2SM BR OVC003
     FM111600 30012KT P6SM SCT250=
KORD 110305Z 1103/1206 18012G18KT 6SM -RA BR OVC006
     FM110500 19012G18KT 1SM -DZ BR VCSH OVC004
     FM110800 22012KT 3SM BR VCSH OVC004
     FM111200 26012G18KT P6SM VCSH BKN007 OVC012
     FM111500 28014G22KT P6SM BKN018
     FM112100 27014G22KT P6SM SCT020=

0000064600
561
FTUS80 KWBC 110306 AAD
TAF AMD
PADL 110304Z 1103/1124 01008KT P6SM VCSH BKN015
     FM110600 36011KT P6SM FEW015 BKN100
     FM111500 35015KT P6SM OVC060
     FM112300 35017KT 6SM -SN OVC030=
PADU 110303Z 1103/1124 19008KT P6SM -SHRA SCT015 BKN035 OVC050
     FM110600 21013G21KT P6SM BKN035
     FM111300 21018G27KT P6SM -SHRA BKN035
     FM112100 22021G33KT P6SM -SHRA SCT035 BKN045=
PAHO 110305Z 1103/1124 VRB03KT P6SM OVC025
     FM110600 VRB03KT P6SM BKN010
     FM112000 05005KT P6SM SCT010 BKN200=
PHNL 110303Z 1103/1206 03006KT P6SM FEW030 SCT050
     FM112100 13008KT P6SM VCSH SCT025 SCT040=

0000020600
562
FTCN35 CWAO 110300 AAA
TAF AMD CYKF 110307Z 1103/1105 14008KT 1SM BR OVC003 TEMPO 1103/1105
     1/4SM -RA FG VV001
    RMK FCST BASED ON AUTO OBS. NXT FCST WILL BE ISSUED AT 111045Z=

0000009300
563
SPUS43 KWBC 110306
SPECI
KPIA 110302Z 18014KT 2SM BR OVC002 04/03 A2955=

0000045500
564
SATH32 VTBB 110300
METAR VTSB 110300Z 03006KT 7000 FEW020 28/26 Q1015
A2997 INFO D / RWY 04=
METAR VTSC 110300Z NIL=
METAR VTSF 110300Z VRB03KT 9999 FEW018 BKN300
28/24 Q1015 A2998 INFO D / RWY 19=
METAR VTSG 110300Z NIL=
METAR VTSH 110300Z NIL=
METAR VTSM 110300Z 10008KT 9000 FEW020 BKN300 30/23 
Q1015 A3000=
METAR VTSR 110300Z NIL=
METAR VTST 110300Z 06009KT 9000 FEW020 SCT120 BKN300 30/20 Q1012
RWY08 INFO D=

0000119300
565
SASA31 KWBC 110300
METAR
SEGU 110300Z 23010KT 9999 SCT023 BKN100 26/21 Q1010 RMK A2986
     NOSIG=
SEQU NIL=
SKBO 110300Z VRB02KT 7000 HZ BKN015 12/11 A3031=
SKBQ NIL=
SKCG 110300Z 04003KT CAVOK 26/23 A2984=
SKCL 110300Z 04003KT 9999 FEW020 BKN090 22/19 A2996=
SKLT NIL=
SKRG 110300Z 00000KT 6000 VCFG SCT008 SCT080 15/14 A3026 RMK
     VCFG/E/S=
SKSP 110300Z 08014KT 9999 FEW018 27/23 A2992=
SMNI NIL=
SMZO 110300Z NIL=
SMZY NIL=
SOCA 110300Z AUTO 24003KT 9999 NSC 23/22 Q1012=
SPIM 110300Z 16011KT CAVOK 22/19 Q1012 NOSIG RMK SCT170 PP000=
SPQT 110300Z 00000KT 9999 FEW020 BKN100 24/23 Q1010 NOSIG RMK
     PP000=
SPQU 110300Z 13004KT 9999 SCT040 SCT050 13/10 Q1025 RMK PP000=
SPQU 110300Z NIL=
SPSO 110300Z /////KT 9999 FEW100 21/19 Q1012 RMK PP000=
SPTN 110300Z 00000KT 9999 BKN050 20/16 Q1012 RMK PP000=
SPYL NIL=
SPZO 110300Z 08004KT 9000 -RA SCT043 BKN070 10/07 Q1031 RMK
     PP008=
SVBC 110300Z 00000KT 9999 FEW010 25/21 Q1012=
SVMC NIL=
SVMG 110300Z /////KT 9999 SCT010 24/22 Q1014 NOSIG=
SVMI 110300Z 00000KT 9999 FEW016 23/18 Q1015 NOSIG=
SYCJ 110300Z 02004KT 9999 FEW016 21/21 Q1013 NOSIG=
SYTM NIL=

0000029300
566
SASA41 KWBC 110300
METAR
SEMT 110300Z 21007KT 9999 SCT023 24/22 Q1011=
SEPA NIL=
SKBG 110300Z 27003KT 9999 FEW015 20/19 A2998=
SKMD NIL=
SKPE NIL=
SKSM 110300Z 02006KT 9999 NSC 28/18 A2977=
SKVG NIL=
SMJP 110300Z 25001KT 9999 FEW025 SCT035 24/23 Q1012 NOSIG=

0000024100
567
SASA42 KWBC 110300
METAR
SCAC NIL=
SCHA NIL=
SCSE 110300Z 24002KT CAVOK 16/14 Q1011=
SCTC NIL=
SCTI NIL=
SCVD NIL=
SELT 110300Z 33002KT 9999 SCT030 10/10 Q1028=
SUAG NIL=
SUDU NIL=
SUPU NIL=
SUTB NIL=

0000004200
568
SAVN42 KWBC 110300
NIL=

0000009900
569
SAQB31 LQBK 110300 RRA
METAR LQBK 110300Z 16003KT 1500 BR NSC 06/06 Q1020 NOSIG=

0000118000
570
SASA32 KWBC 110300
METAR SCAR 110300Z 16002KT CAVOK 23/17 Q1013=
METAR SCAR 110300Z 16002KT CAVOK 23/17 Q1013=
METAR SCBA 110300Z AUTO 31017G28KT CAVOK 09/03 Q1020=
METAR SCCF 110300Z 22007KT CAVOK 14/06 Q1025=
METAR SCCH NIL=
METAR SCCI 110300Z 30006KT 9999 SCT030 OVC090 08/04 Q1010 NOSIG=
METAR SCDA 110300Z 19009KT CAVOK 22/17 Q1013=
METAR SCEL 110300Z 14006KT CAVOK 21/06 Q1013 NOSIG=
METAR SCFA 110300Z 17008KT 9999 SCT014 20/17 Q1012 NOSIG=
METAR SCGE NIL=
METAR SCIE 110300Z 24006KT CAVOK 15/10 Q1016=
METAR SCIP 110300Z VRB03KT 9999 FEW020 SCT060 23/17 Q1020 NOSIG=
METAR SCTE 110300Z 16004KT CAVOK 10/07 Q1024 NOSIG=
METAR SGAS 110300Z 05004KT CAVOK 27/22 Q1008=
METAR SGES 110300Z 09005KT CAVOK 26/21 Q1010=
METAR SLCB 110300Z 12004KT 9999 FEW027 19/08 Q1023=
METAR SLCZ NIL=
METAR SLLP 110300Z 07004KT 9999 FEW015 SCT200 07/05 Q1036=
METAR SLTJ NIL=
METAR SLTR NIL=
METAR SLVR 110300Z 35005KT 9999 FEW070 24/22 Q1010=
METAR SUAA NIL=
METAR SUCA NIL=
METAR SULS 110300Z 00000KT CAVOK 21/19 Q1010=
METAR SUMU 110300Z 00000KT CAVOK 22/19 Q1010 NOSIG=
METAR SUPE NIL=
METAR SURV NIL=
METAR SUSO NIL=

0000010400
571
SAUK36 EGGY 110250 RRB
METAR EGWU 110250Z AUTO 21006KT 9999 // BKN037/// 08/07 Q1012=

0000013900
572
SAAE32 VTBB 110300
METAR VLLB 110300Z NIL=
METAR VLLN 110300Z NIL=
METAR VLPS 110300Z NIL=
METAR VLSK 110300Z NIL=

00000000