0000010600
573
SAEO31 EETN 110320
METAR EETN 110320Z 33009KT 5000 SN OVC010 M01/M02 Q0996 R08/590295 =

0000062700
574
FTXX69 EGRR 110300
TAF AMD KQIR 1102/1205 VRB06KT 8000 -SHRA SCT030 BKN050 OVC100 QNH3003INS
     TEMPO 1106/1112 13010G15KT -TSRA SCT020CB BKN030 OVC050
     BECMG 1111/1112 28012G18KT 9999 NSW BKN050 QNH3008INS
     BECMG 1123/1124 33010G15KT 9999 SCT050 QNH3008INS T20/1111Z
     T13/1203Z AMD 110205=
TAF AMD KQIR 1103/1205 10012KT 8000 -SHRA SCT030 BKN050 OVC100 QNH3003INS
     TEMPO 1106/1112 13010G15KT -TSRA SCT020CB BKN030 OVC050
     BECMG 1111/1112 28012G18KT 9999 NSW BKN050 QNH3008INS
     BECMG 1123/1124 33010G15KT 9999 SCT050 QNH3008INS T20/1111Z
     T13/1203Z AMD 110300=

0000031500
575
SAAF17 LFPW 110300 RRA
METAR HEAX 110300Z 00000KT CAVOK 15/08 Q1022 NOSIG=
METAR HEGN 110300Z 29008KT CAVOK 12/07 Q1022 NOSIG=
METAR HELX 110300Z 00000KT CAVOK 09/07 Q1022 NOSIG=
METAR HEMM 110300Z 24006KT 9999 FEW020 12/10 Q1024 NOSIG=
METAR HESN 110300Z 36004KT CAVOK 10/04 Q1022 NOSIG=

0000008800
576
SPCN43 CWAO 110319
SPECI CYGX 110319Z 07008KT 2SM -SN OVC026 RMK SC8=

0000017000
577
SAMP31 LMMM 110330
METAR HLLT NIL=
METAR HLLB 110315Z
00000KT 9999 SCT020 BKN080 10/07 Q1025 =
METAR LMML 110315Z AUTO 21004KT CAVOK 14/13 Q1022=

0000008900
578
SAMP31 LMMM 110330 RRA
METAR HLLT 110320Z
17004KT CAVOK 11/06 Q1022=

0000010600
579
SPCN51 CWAO 110320
SPECI CWUW 110320Z AUTO 13006KT 9SM BKN003 BKN026 BKN047 M29/ A2911=

0000009500
580
SPCN46 CWAO 110320
SPECI CYBN 110320Z AUTO 15007KT 5/8SM OVC001 01/01 A2990=

0000011300
581
SALT33 EYVI 110320
METAR EYPA 110320Z AUTO 29006KT 200V360 9999 -SHRA BKN010/// 02/00
Q1005=

0000096100
582
FTUS41 KWBC 110321 AAA
TAF AMD
KART 110319Z 1103/1124 15008KT P6SM SKC
     FM110900 15011KT P6SM OVC015 WS020/19040KT
     FM111100 16015KT 3SM -RA BR OVC015 WS020/19045KT
     FM111500 17018G25KT 1SM -RA BR OVC003 WS020/20045KT
     FM111900 21017KT 1SM RA BR OVC008 WS020/20045KT=
KBUF 110319Z 1103/1124 14005KT P6SM FEW050 SCT110 OVC190
     FM110800 17014G23KT 5SM -RA BR OVC020 WS020/20045KT
     FM111300 19015KT 3SM -RA BR OVC015
     FM112000 21015KT 5SM -RA BR BKN035 OVC050=
KIAG 110319Z 1103/1124 12003KT P6SM OVC160
     FM110800 16012G20KT 5SM -RA BR OVC015 WS020/20040KT
     FM111300 19014KT 3SM -RA BR OVC007
     FM112000 21015KT 5SM -RA BR BKN035 OVC050=
KROC 110319Z 1103/1124 16007KT P6SM BKN130
     FM110600 16010KT P6SM OVC015 WS020/19040KT
     FM110900 16012KT 3SM -RA OVC007 WS020/20045KT
     FM111400 19014G21KT 2SM -RA BR OVC003
     FM111900 22015KT 5SM -RA BR BKN035 OVC050=

0000030400
583
FTUS31 KWBC 110321 AAA
TAF AMD
KBOS 110320Z 1103/1206 21005KT 2SM BR OVC007
     FM111000 17006KT 3/4SM -RA BR OVC005
     FM111400 18011G25KT 1/2SM -RA FG OVC003 WS020/19050KT
     FM112000 19022G40KT 1SM -RA OVC005 WS020/20060KT
     FM120400 20018G32KT 3/4SM RA BR OVC003=

0000025700
584
FTUS42 KWBC 110321 AAA
TAF AMD
KLCH 110320Z 1103/1124 19012G18KT P6SM OVC005
      TEMPO 1103/1105 4SM -SHRA BR OVC003
     FM110500 20010KT P6SM VCSH OVC003
     FM110900 27008KT 1SM BR OVC001
     FM111400 34008KT P6SM SCT005=

0000150900
585
FTUS71 KWBC 110321 AAA
TAF AMD
KART 110319Z 1103/1124 15008KT P6SM SKC
     FM110900 15011KT P6SM OVC015 WS020/19040KT
     FM111100 16015KT 3SM -RA BR OVC015 WS020/19045KT
     FM111500 17018G25KT 1SM -RA BR OVC003 WS020/20045KT
     FM111900 21017KT 1SM RA BR OVC008 WS020/20045KT=
KBOS 110320Z 1103/1206 21005KT 2SM BR OVC007
     FM111000 17006KT 3/4SM -RA BR OVC005
     FM111400 18011G25KT 1/2SM -RA FG OVC003 WS020/19050KT
     FM112000 19022G40KT 1SM -RA OVC005 WS020/20060KT
     FM120400 20018G32KT 3/4SM RA BR OVC003=
KBUF 110319Z 1103/1124 14005KT P6SM FEW050 SCT110 OVC190
     FM110800 17014G23KT 5SM -RA BR OVC020 WS020/20045KT
     FM111300 19015KT 3SM -RA BR OVC015
     FM112000 21015KT 5SM -RA BR BKN035 OVC050=
KIAG 110319Z 1103/1124 12003KT P6SM OVC160
     FM110800 16012G20KT 5SM -RA BR OVC015 WS020/20040KT
     FM111300 19014KT 3SM -RA BR OVC007
     FM112000 21015KT 5SM -RA BR BKN035 OVC050=
KPOU 110317Z 1103/1124 VRB03KT P6SM BKN008 OVC015
      TEMPO 1103/1107 3SM -RA BR SCT008 OVC015
     FM110700 16005KT 4SM -RA BR BKN008 OVC015
      TEMPO 1107/1109 1SM -FZRA BR OVC010
     FM110900 16008KT 3SM -RA BR OVC010
     FM111600 18010KT 3SM -RA BR OVC010 WS020/19040KT=
KROC 110319Z 1103/1124 16007KT P6SM BKN130
     FM110600 16010KT P6SM OVC015 WS020/19040KT
     FM110900 16012KT 3SM -RA OVC007 WS020/20045KT
     FM111400 19014G21KT 2SM -RA BR OVC003
     FM111900 22015KT 5SM -RA BR BKN035 OVC050=

0000053400
586
FTUS72 KWBC 110321 AAA
TAF AMD
KCSG 110317Z 1103/1124 09005KT 2SM -RADZ BR OVC002
     FM110900 15006KT 3SM -SHRA BR OVC004
     FM111500 22010G17KT 4SM -SHRA BR OVC007
     FM111800 25011G18KT 5SM -SHRA BR BKN025 PROB30 1118/1121 2SM
      TSRA BR BKN010CB
     FM112100 28012G20KT P6SM BKN050=
KLCH 110320Z 1103/1124 19012G18KT P6SM OVC005
      TEMPO 1103/1105 4SM -SHRA BR OVC003
     FM110500 20010KT P6SM VCSH OVC003
     FM110900 27008KT 1SM BR OVC001
     FM111400 34008KT P6SM SCT005=

0000027000
587
FTUS73 KWBC 110321 AAA
TAF AMD
KEVV 110320Z 1103/1124 23006KT 5SM -RA BR SCT008 OVC015
      TEMPO 1103/1105 3SM RA BR OVC025
     FM110500 16010KT 4SM -RA BR SCT008 OVC012
     FM110900 23009KT P6SM BKN015
     FM111900 25012KT P6SM SCT025=

0000152800
588
SPUS70 KWBC 110320
SPECI
KAWM 110316Z AUTO 18003KT 8SM -RA FEW033 OVC090 12/12 A2972 RMK
     AO2 LTG DSNT ALQDS TSE10 P0006=
KCEU 110316Z AUTO 07004KT 1SM BR VV002 09/07 A3010 RMK AO2
     RAB0257E10 P0001=
KCEW 110316Z AUTO 17005KT 2 1/2SM BR OVC002 19/18 A3002 RMK AO2
     T01890183=
KDNL 110316Z AUTO 00000KT 1SM BR OVC003 10/09 A3010 RMK AO2
     T01000094 TSNO=
KHAO 110316Z AUTO VRB05KT 10SM OVC031 11/08 A2979 RMK AO2
     T01060083=
KSEG 110316Z AUTO 00000KT 3/4SM BR OVC004 01/M01 A3020 RMK AO2
     UPE14 P0001 T00061006=
K2DP 110317Z AUTO 15009G15KT 12SM -RA BKN018 BKN140 18/16 A3022
     RMK AO2=
KTDR 110315Z AUTO 14009KT 3SM BR OVC002 17/ A3006 RMK AO2 $=
PANW 110313Z AUTO 02003KT 1 1/2SM BR OVC001 M07/M08 A2944 RMK AO2
     TSNO $=
PAPB 110316Z AUTO 10011KT 6SM -SN BR FEW021 BKN027 OVC065 01/M01
     A2905 RMK AO2 SNB06 P0000 T00111006 TSNO $=
KBVY 110317Z AUTO 19003KT 5SM BR OVC009 02/01 A3031 RMK AO2
     T00220006=
KIMT 110317Z AUTO 09005KT 1SM -SN BR VV015 M02/M03 A2951 RMK AO2
     P0002=
KIPT 110317Z 06010KT 1 3/4SM BR OVC008 01/M01 A3018 RMK AO2=
KMSY 110317Z 16007KT 1/8SM -RA BR SCT002 OVC006 18/18 A2992 RMK
     AO2 SFC VIS 3 TWR VSBY IN CLOUD P0006 T01830178 $=
KPYM 110316Z AUTO 00000KT 2SM BR OVC002 04/03 A3031 RMK AO2
     T00390028=
KYIP 110317Z AUTO 13006KT 2 1/2SM BR OVC002 04/02 A2978 RMK AO2
     PRESFR P0004 TSNO=
PABR 110317Z 29012KT 3SM BR OVC003 M22/M24 A2984 RMK AO2 VIS 2 NE
     T12221244=

0000011700
589
SPUS41 KWBC 110320
SPECI
KORH 110316Z AUTO 24006KT 1/2SM R11/3000V3500FT FG VV003 01/01
A3026=

0000009300
590
SPUS43 KWBC 110320
SPECI
KFAR 110316Z 23010KT 10SM BKN027 M06/M08 A2946=

0000013500
591
SPCN31 CWAO 110319
SPECI CYYJ 110319Z 13010G17KT 6SM RA BR FEW008 SCT012 OVC017 07/07
 A2971 RMK SC2SC2SC4 SLP060=

0000010800
592
SARO32 LROM 110300 CCA
METAR COR LRTM 110300Z 00000KT 3800 BR NSC M02/M02 Q1021 0719//95=

00000000