0000010400
733
SAID31 WIII 101900
METAR WARR 101900Z VRB02KT 5000 -TSRA FEW018CB SCT020 25/23 Q1009=

0000072100
734
SANL33 EHDB 101925
METAR EHAK 101925Z AUTO 22022KT 9999 NSC 07/05 Q1007=
METAR EHDV 101925Z AUTO 22018KT 9999 NSC 08/06 Q1009=
METAR EHFD 101925Z AUTO 24026KT 9999 NSC 07/06 Q1008=
METAR EHFZ 101925Z AUTO 22021KT //// // ///////// 08/06 Q1011 RE//=
METAR EHJA 101925Z AUTO 22021KT 9999 NSC 08/05 Q1010=
METAR EHJR 101925Z NIL=
METAR EHKV 101925Z AUTO 24024KT 9999 FEW018/// 09/06 Q1012=
METAR EHMA 101925Z AUTO 21015KT 9999 NSC 07/05 Q1012=
METAR EHMG 101925Z AUTO 23023KT 9999 FEW013/// 08/05 Q1011=
METAR EHPG 101925Z AUTO ///24KT 9999 FEW008/// SCT023/// 09/07 Q1013=
METAR EHQE 101925Z AUTO 23019KT 9999 FEW023/// 09/06 Q////=
METAR EHSA 101925Z NIL=
METAR EHSC 101925Z NIL=

0000008600
735
SAIN90 VOTP 111000
METAR VOTP 111000Z 03006KT 6000 FEW020 31/16 Q1012=
0000010400
736
SAIN90 VERC 110930
METAR VERC 110930Z 04010KT 1000 MIFG SCT015 OVC090 17/13 Q1016 NOSIG=
0000010400
737
SPUS42 KWBC 101928
SPECI
KMOB 101924Z 11004KT 3SM -RA BR SCT010 OVC018 15/14 A3003=

0000009900
738
SPCN52 CWAO 101928
SPECI CWFD 101928Z AUTO 20021KT 1/8SM CLR M21/ A2879 RMK ICG=

0000036800
739
SXXX32 EUMS 110506 RRP
12FFB3C8
:PRS 1 /1 M 3203 3214 3210 3218 3224 3219 3218 3218 3206 3226 3207 3219 3215 3201 3208 3182 3190 3188 3166 3174 3162 3152 3140 3146 3135 3122 3124 3127 3121 :RAD 1 /3 6155 6157 6151 6144 6128 6110 6093 6076 6070 6075 :ENC 1 /5 -144 -144 -144 -144 -144 -144 :SW1 6 /60 0 :SW2 36 /60 55 :BAT 14 /15 12.7 :NAME 12FFB3C8 /
0000010200
740
SAMF20 TFFR 101930
METAR TFFR 101930Z 07012KT 9999 SCT027 SCT036 26/21 Q1015 NOSIG=

0000062700
741
SAGR31 LGAT 101920
METAR LGAD 101920Z NIL=
METAR LGAV 101920Z VRB03KT CAVOK 10/07 Q1019 NOSIG=
METAR LGIR 101920Z 17009KT CAVOK 12/09 Q1021 NOSIG=
METAR LGKL 101920Z AUTO VRB03KT //// // ////// 10/08 Q1022
     RE//=
METAR LGKO 101920Z NIL=
METAR LGKR 101920Z 00000KT 9999 FEW018 SCT025 BKN180 11/10 Q1021
 NOSIG=
METAR LGLM 101920Z AUTO VRB03KT //// // ////// 11/09 Q1019
     RE//=
METAR LGRP 101920Z 20003KT 9999 FEW018 13/09 Q1021 NOSIG=
METAR LGSA 101920Z 26012KT 9999 FEW020 14/09 Q1020=
METAR LGSM 101920Z NIL=
METAR LGTS 101920Z 00000KT 9000 FEW010 SCT080 07/06 Q1019 NOSIG=

0000070500
742
SXXX32 EUMS 110506 RRS
26F364EA

ST STHELENA
DT 11/01/14 11/01/14
TM 05:00:00 04:45:00
RD 10000 10000 10000 10000 10000 10000 10000 10000 10000 10000 10000 10000 10000 10000 10000 10000 10000 10000 10000 10000 10000 10000 10000 10000 10000 10000 10000 10000 10000 10000
P1 00309 00518 00684 00678 00297 00338 00244 00037 00211 00602 00192 00203 00443 00373 00635 00390 00273 00489 00410 00978 00868 00038 00746 00331 01002 00589 00873 00947 00211 00520
P2 00020 00016 00017 00018 00019 00019 00018 00020 00017 00019 00018 00019 00018 00017 00018 00019 00018 00018 00018 00018 00015 00019 00016 00018 00018 00018 00016 00017 00022 00018
T1 00.0 00.0
T2 22.4 22.4
VB 12.7
0000017700
743
FTFI31 EFHK 101700 AAB
TAF AMD EFVA 101929Z 1019/1118 03012KT 8000 -SN SCT015 BKN020
     TEMPO 1019/1021 4000 BKN012 PROB30 TEMPO 1021/1115
     2000 SN=

0000010200
744
SPPR00 SPIM 101930
SPECI SPZA 101930Z 21016KT 150V250 8000 BLDU SCT150 32/19 Q1009=

0000009800
745
SAQB31 LQBK 101930
METAR LQBK 101930Z 32003KT 4000 BR BKN037 06/06 Q1021 NOSIG=

0000010800
746
SAIO31 KWBC 101900 RRD
METAR
FMMI 101930Z 02002KT 9999 FEW017 BKN230 19/19 Q1022 NOSIG=

0000010900
747
SAPA31 KWBC 101900 RRD
METAR
AYPY 101900Z 00000KT 9999 FEW003 SCT030 BKN140 25/25 Q1006=

0000038600
748
SAPL31 EPWA 101930
METAR EPGD 101930Z 29015KT 9999 BKN015 05/03 Q1004 =
METAR EPKK 101930Z 25014KT 9999 BKN060 05/M00 Q1015 =
METAR EPLL 101930Z 27015KT 9999 BKN032 06/01 Q1011 =
METAR EPPO 101930Z 26013KT 9999 BKN030 06/01 Q1012
    R10/19//95 =
METAR EPRZ 101930Z 27019KT CAVOK 06/M00 Q1013 =
METAR EPWA 101930Z 26022G35KT 9999 BKN023 06/02 Q1008 NOSIG=

0000041500
749
SAPL32 EPWA 101930
METAR EPBY 101930Z 26017KT 9999 BKN025 BKN039 06/03
    Q1008 =
METAR EPKT 101930Z 24015KT 9999 SCT045 05/M01 Q1015 =
METAR EPLB 101930Z NIL=
METAR EPMO 101930Z 26020KT 9999 -SHRA SCT020CB BKN030
    05/03 Q1007 =
METAR EPSC 101930Z 26012KT 9999 SCT020 05/03 Q1010 =
METAR EPWR 101930Z 27011KT CAVOK 07/M01 Q1015 =
METAR EPZG 101930Z 24011KT CAVOK 06/01 Q1013 =

0000010100
750
SPUS41 KWBC 101931
SPECI
KRIC 101927Z 07004KT 2 1/2SM -RA BR OVC004 04/03 A3032=

0000010200
751
SPUS41 KWBC 101931
SPECI
KDOV 101927Z AUTO 11002KT 2 1/2SM BR BKN002 04/04 A3033=

0000010700
752
SPUS41 KWBC 101931
SPECI
KGSO 101927Z 03006KT 2 1/2SM RA BR BKN004 OVC009 03/02 A3023=

00000000