0000028800
473
FTCN36 CWAO 101700
TAF CYGL 101742Z 1018/1118 22015KT 2SM -SN OVC020 TEMPO 1018/1021 6SM
     -SN OVC030
    FM102100 23012KT P6SM -SN OVC030 TEMPO 1021/1106 3SM -SN OVC015
    FM110600 15010KT 2SM -SN OVC015 TEMPO 1106/1118 6SM -SN
    RMK NXT FCST BY 110000Z=

0000016300
474
FTCN36 CWAO 101700
TAF CYVO 101743Z 1018/1106 18010G20KT 3SM -SN BR OVC008 TEMPO
     1018/1106 P6SM -SN OVC012
    RMK NXT FCST BY 110000Z=

0000025700
475
FTCN36 CWAO 101700
TAF CYVP 101742Z 1018/1106 24012KT 4SM -SN OVC030 TEMPO 1018/1021 2SM
     -SN BKN020
    FM102100 26012KT P6SM OVC030 TEMPO 1021/1024 5SM -SN BKN020
    FM110200 26008KT P6SM SCT030
    RMK NXT FCST BY 110000Z=

0000009700
476
SPAU32 YBBN 101743
SPECI YAMB 101743Z AUTO 20001KT 5000 // SCT069 18/18 Q1017=

0000010800
477
SPUS41 KWBC 101743
SPECI
KDAY 101739Z 15006KT 1/4SM R06L/P6000FT BR OVC002 04/03 A3011=

0000009700
478
SPUS41 KWBC 101743
SPECI
KRIC 101739Z 03005KT 2 1/2SM BR OVC004 03/02 A3036=

0000009200
479
SAIN90 VECC 110950
METAR VECC 110950Z 01007KT 2800 FU NSC 25/13 Q1013 NOSIG=
0000017500
480
FTCN36 CWAO 101700
TAF CYMT 101743Z 1018/1101 20012G22KT P6SM -SN OVC012 TEMPO 1018/1101
     2SM -SN OVC008
    RMK NXT FCST WILL BE ISSUED AT 111245Z=

0000020200
481
FTCN35 CWAO 101700
TAF CYXR 101743Z 1018/1101 18010KT 21/2SM -SN BR OVC006 TEMPO
     1018/1101 P6SM NSW OVC010
    RMK FCST BASED ON AUTO OBS. NXT FCST WILL BE ISSUED AT 111245Z=

0000011200
482
SAMF20 TFFR 101730
METAR TFFR 101743Z 08015KT 040V110 9999 SCT031 SCT047 27/19 Q1015
NOSIG=

0000011500
483
SAMS31 WMKK 101730 RRA
METAR WBKK 101730Z 12003KT 9999 FEW014 SCT140 BKN280 24/23 Q1010
NOSIG=

0000149500
484
SPUS70 KWBC 101744
SPECI
KACV 101740Z AUTO 15004KT 10SM SCT009 11/09 A3028 RMK AO2
     T01060089=
KCLT 101740Z 33005KT 3SM -RA BR OVC003 05/04 A3027 RMK AO2
     P0008=
KLWV 101740Z AUTO 16008KT 2 1/2SM BR OVC022 04/03 A3000 RMK AO2
     PRESFR T00440033=
KRAC 101740Z AUTO 16010KT 1/4SM FG VV002 00/M01 A2992 RMK AO2
     T00001006=
PABA 101740Z AUTO 28019KT 3SM -SN BR M26/M28 A2985 RMK AO2 P0000
     FZRANO $=
KALI 101741Z AUTO 20012KT 10SM BKN030 OVC037 23/17 A2989 RMK AO2
     TSNO $=
KAUG 101741Z AUTO 22004KT 1 3/4SM -SN SCT026 BKN039 OVC060 M07/M11
     A3037 RMK AO2 SNB1654 P0000 T10721111=
KBWG 101741Z AUTO 19006KT 10SM OVC010 10/08 A3010 RMK AO2
     T01000083=
KFCI 101742Z AUTO 00000KT 2 1/2SM BKN004 BKN013 OVC032 03/M03
     A3036 RMK AO1=
KHKY 101741Z 00000KT 2 1/2SM -RA BR BKN001 BKN017 OVC023 05/04
     A3025 RMK AO2 RAB1658 P0013=
KITR 101741Z AUTO 31027G36KT 1 3/4SM -SN BKN023 OVC035 M01/M04
     A2968 RMK AO2 PK WND 30041/1659 SNB04 P0000 T10061044=
KLXT 101741Z AUTO 00000KT 1/4SM FG VV004 03/03 A2967 RMK AO2
     RAB11E37UPB21E34 P0001 T00280028=
KOWD 101741Z 00000KT 4SM BR BKN006 BKN021 OVC028 00/M02 A3041 RMK
     AO2 T00001017=
KSGJ 101741Z 16011KT 10SM SCT033 23/19 A3015 RMK AO2 RAB17E33
     P0000=
KTOP 101741Z 13006KT 2 1/2SM BR OVC004 03/02 A2963 RMK AO2 PRESFR
     T00330022=
KXNA 101741Z 18014KT 5SM RA BR FEW014 BKN055 OVC065 09/09 A2975
     RMK AO2 PRESFR P0009=

0000009700
485
SPUS31 KWBC 101744
SPECI
KCLT 101740Z 33005KT 3SM -RA BR OVC003 05/04 A3027=

0000011800
486
SPUS41 KWBC 101744
SPECI
KBDL 101740Z 00000KT 1SM R06/3500VP6000FT -SN BR OVC009 M03/M04
A3040=

0000011700
487
SPUS43 KWBC 101744
SPECI
KDSM 101740Z 12004KT 1/4SM R31/2000V2400FT -DZ FG VV002 01/M01
A2965=

0000009900
488
FCIY35 LIIB 101700 RRA
TAF LIRM 101700Z 1018/1103 VRB03KT 4000 BR SCT015 SCT025=

0000012200
489
FCIY35 LIIB 101700 RRB
TAF LIRS 101700Z 1018/1103 12005KT 9999 SCT020 BKN030 TEMPO 1100/1103
5000 BR=

0000046600
490
FTUS31 KWBC 101745
TAF
KABQ 101741Z 1018/1118 30007KT P6SM FEW100
     FM101930 30018G28KT P6SM SCT120
     FM110200 33010KT P6SM SCT250
     FM110600 34004KT P6SM SCT250=
KATL 101743Z 1018/1124 08008KT 1 1/2SM -DZ BR OVC003
     FM110100 11008KT 1/2SM -RADZ FG OVC002
     FM110900 16009KT 1SM -RADZ BR OVC003
     FM111400 20009G18KT 2SM -SHRA OVC006
     FM111900 27013G22KT P6SM BKN025
     FM112100 27014G23KT P6SM SCT035=

0000047100
491
FTUS41 KWBC 101745
TAF
KAVP 101742Z 1018/1118 22005KT P6SM OVC035
     FM102100 22005KT P6SM SCT015 OVC020
      TEMPO 1022/1102 SCT009 BKN012
     FM110200 18004KT P6SM OVC009
     FM110600 15007KT 3SM -SHRA BR OVC008=
KSYR 101742Z 1018/1118 15008KT P6SM SCT020 BKN035
      TEMPO 1018/1020 6SM BR BKN025
     FM102300 18006KT P6SM SCT015 OVC022
     FM110700 18010KT 4SM -SHRA OVC012
     FM111200 13014KT 6SM -SHRA SCT008 OVC011=

0000097100
492
FTUS42 KWBC 101745
TAF
KAMA 101740Z 1018/1118 34014KT P6SM SKC
     FM101900 32020G35KT P6SM SKC
     FM102300 28008KT P6SM SKC=
KFTY 101743Z 1018/1118 08005KT 1 1/2SM -DZ BR OVC004
     FM110100 11005KT 1/2SM -RADZ FG OVC002
     FM110900 16007KT 1SM -RADZ BR OVC003
     FM111400 20009KT 2SM -SHRA OVC006=
KMOB 101743Z 1018/1118 12004KT 4SM BR SCT006 BKN022 OVC030
     FM102100 14010KT P6SM BKN005 OVC015
     FM110400 16012KT 4SM SHRA BR OVC005
      TEMPO 1106/1109 3SM -TSRA BKN005CB
     FM111500 27012KT 5SM BR OVC007=
KPDK 101743Z 1018/1118 08005KT 1 1/2SM -DZ BR OVC004
     FM110100 11005KT 1/2SM -RADZ FG OVC002
     FM110900 16007KT 1SM -RADZ BR OVC003
     FM111400 20009KT 2SM -SHRA OVC006=
KPNS 101743Z 1018/1118 07003KT 6SM BR OVC005
     FM102100 14010KT P6SM BKN005 OVC015
     FM110500 16012KT 4SM SHRA BR OVC005
      TEMPO 1107/1110 3SM -TSRA BKN005CB
     FM111500 27012KT 5SM BR OVC007=

00000000