0000029500
093
SATH33 VTBB 101900
METAR VTBO 101900Z NIL=
METAR VTUD 101900Z NIL=
METAR VTUI 101900Z NIL=
METAR VTUK 101900Z NIL=
METAR VTUL 101900Z NIL=
METAR VTUO 101900Z NIL=
METAR VTUQ 101900Z NIL=
METAR VTUU 101900Z NIL=
METAR VTUV 101900Z NIL=
METAR VTUW 101900Z NIL=

0000024300
094
SATH31 VTBB 101900
METAR VTCH 101900Z NIL=
METAR VTCL 101900Z NIL=
METAR VTCN 101900Z NIL=
METAR VTCP 101900Z NIL=
METAR VTCT 101900Z NIL=
METAR VTPH 101900Z NIL=
METAR VTPO 101900Z NIL=
METAR VTPP 101900Z NIL=

0000169100
095
SAUS71 KWBC 101900
METAR
KABE 101851Z 00000KT 5SM HZ OVC008 00/M03 A3036=
KACK 101853Z 16009KT 10SM OVC045 04/01 A3042=
KACY 101854Z 00000KT 2 1/2SM BR OVC003 05/05 A3036=
KAGC 101853Z 18004KT 10SM OVC015 07/04 A3018=
KAGS 101853Z 01003KT 2SM +RA BR OVC009 08/08 A3015=
KAKR 101854Z AUTO 16006KT 3SM BR OVC004 03/03 A3011=
KALB 101851Z 19008KT 10SM BKN035 OVC090 01/M04 A3033=
KAND 101856Z AUTO 07009KT 9SM OVC004 08/08 A3018=
KAOO 101853Z AUTO 01003KT 8SM SCT012 OVC031 02/M03 A3024=
KAPG 101850Z 00000 1SM -DZ BR OVC006 02/01 A3035=
KART 101856Z AUTO 18005KT 9SM BKN021 OVC043 02/M02 A3022=
KAVL 101854Z 00000KT 3SM BR OVC003 08/08 A3018=
KAVP 101854Z 24003KT 7SM BKN024 OVC043 02/M02 A3030=
KBAF 101853Z 22003KT 5SM -SN FEW012 SCT036 OVC085 M02/M04
     A3036=
KBDL 101851Z 16003KT 3SM BR BKN013 BKN070 OVC110 M02/M03 A3037=
KBDR 101852Z 00000KT 1 3/4SM BR FEW026 OVC032 01/01 A3039=
KBED 101856Z 21004KT 7SM OVC012 00/M02 A3037=
KBFD 101853Z AUTO 17005KT 8SM OVC007 01/M01 A3015=
KBGM 101853Z 19009G15KT 10SM FEW025 OVC060 00/M03 A3023=
KBGR 101853Z 21008KT 7SM -SN BKN041 OVC070 M03/M09 A3035=
KBKL 101853Z 15009KT 6SM BR FEW023 OVC048 04/02 A3010=
KBKW 101851Z AUTO 14008KT 10SM OVC025 09/06 A3016=
KBOS 101854Z 18003KT 4SM BR FEW010 BKN015 OVC030 00/M02 A3040=
KBTV 101854Z 20010KT 10SM FEW047 BKN065 OVC090 M01/M05 A3029=
KBUF 101854Z 16003KT 10SM OVC023 02/01 A3015=
KBVY 101853Z 20004KT 3SM -SN BR FEW008 OVC015 00/M02 A3039=
KBWI 101854Z 00000KT 1 1/4SM R10/5000VP6000FT BR OVC005 02/01
     A3034=
KCAE 101856Z 00000KT 4SM -RA BR OVC003 10/09 A3016=
KCAK 101851Z 18005KT 1/4SM FG VV001 04/03 A3012=

0000170900
096
SAUS71 KWBC 101900 RRA
METAR
KCAR 101854Z AUTO 17007KT 10SM CLR M08/M17 A3024=
KCEF 101858Z 18004KT 6SM -SN BR SCT007 SCT012 OVC033 M01/M01
     A3037=
KCHO 101853Z 00000KT 2SM -RA BR OVC004 02/01 A3030=
KCHS 101856Z 15012G20KT 10SM BKN020 BKN035 BKN050 22/18 A3016=
KCKB 101853Z 00000KT 10SM BKN010 OVC022 10/07 A3018=
KCLE 101851Z 18008KT 9SM SCT009 OVC047 04/02 A3012=
KCLT 101852Z 36005KT 10SM -RA BKN003 OVC008 06/05 A3022=
KCMH 101851Z 14006KT 3SM BR OVC006 06/03 A3011=
KCRW 101854Z 16005KT 10SM FEW027 BKN070 BKN240 12/09 A3013=
KCVG 101852Z 16009KT 3SM BR OVC005 08/07 A3004=
KDAN 101853Z AUTO 04004KT 5SM -RA BR OVC005 03/02 A3028=
KDAY 101856Z 15007KT 1/4SM R06L/4500VP6000FT FG OVC002 04/04
     A3006=
KDCA 101852Z 08003KT 1SM R01/4500VP6000FT -DZ BR OVC006 04/02
     A3035=
KDUJ 101856Z AUTO 12005KT 1 1/2SM BR OVC003 02/00 A3017=
KECG 101854Z 19008KT 10SM BKN075 OVC090 17/11 A3032=
KEKN 101851Z AUTO 00000KT 10SM OVC075 09/07 A3019=
KELM 101853Z 00000KT 9SM OVC065 04/M02 A3023=
KERI 101851Z 18010KT 10SM OVC014 04/01 A3014=
KEWB 101853Z 00000KT 1 1/2SM R05/5000VP6000FT -RA BR OVC018 01/01
     A3039=
KEWN 101854Z 16012KT 10SM BKN038 OVC048 21/12 A3029=
KEWR 101851Z 02003KT 1 1/2SM R04R/6000VP6000FT BR BKN006 BKN012
     OVC024 01/M01 A3038=
KFAY 101853Z AUTO 04006KT 8SM FEW038 BKN055 OVC080 13/12 A3020=
KFLO 101853Z 15014G19KT 10SM SCT028 BKN036 OVC065 22/16 A3016=
KFRG 101853Z 00000KT 3SM BR SCT018 BKN028 OVC039 02/01 A3039=
KFVE 101853Z AUTO 17004KT 10SM CLR M08/M16 A3019=
KGFL 101853Z AUTO 00000KT 8SM OVC032 M02/M05 A3032=
KGON 101856Z 04003KT 2SM -RA BR SCT013 BKN019 OVC034 02/01
     A3039=

0000170700
097
SAUS71 KWBC 101900 RRB
METAR
KGSO 101854Z 03005KT 5SM -RA BR BKN004 OVC010 03/02 A3024=
KGSP 101853Z 06007KT 1 1/4SM BR OVC004 08/07 A3019=
KHFD 101853Z 00000KT 2 1/2SM BR FEW007 OVC023 00/M02 A3039=
KHKY 101853Z 36003KT 2SM -RA BR BKN003 OVC015 06/05 A3021=
KHPN 101856Z 00000KT 5SM BR OVC007 01/M01 A3036=
KHTS 101851Z 08003KT 10SM BKN015 OVC021 09/07 A3012=
KHVN 101853Z 00000KT 1 1/2SM BR SCT013 OVC036 01/01 A3039=
KHYA 101856Z 18008KT 10SM -RA SCT021 BKN030 OVC039 04/01 A3039=
KIAD 101852Z 00000KT 1SM BR OVC005 01/01 A3033=
KIAG 101853Z 18006KT 7SM OVC016 02/M01 A3015=
KILG 101851Z 00000KT 2SM BR SCT004 OVC014 02/01 A3037=
KILM 101853Z AUTO 14012G20KT 10SM FEW034 22/14 A3023=
KINT 101854Z 03005KT 3SM -RA BR OVC003 03/02 A3025=
KIPT 101854Z 08006KT 5SM HZ BKN019 OVC040 01/M03 A3031=
KISP 101856Z 33004KT 1 1/2SM -RA BR OVC035 03/01 A3037=
KJFK 101851Z 01003KT 2SM -DZ BR FEW009 BKN014 OVC027 03/01
     A3039=
KJST 101854Z AUTO 00000KT M1/4SM FG VV002 03/03 A3018=
KLBE 101850Z 00000KT 7SM OVC009 06/06 A3021=
KLCK 101855Z AUTO 15005KT 10SM OVC007 06/04 A3011=
KLEB 101853Z 19008KT 10SM OVC030 M02/M07 A3031=
KLGA 101851Z 05005KT 2 1/2SM BR FEW007 BKN010 OVC028 00/M02
     A3038=
KLUK 101853Z 13003KT 10SM OVC008 09/07 A3007=
KLWM 101854Z 18003KT 2 1/2SM -SN OVC012 M01/M03 A3040=
KLYH 101854Z 00000KT 2SM R04/3500VP6000FT -RA BR OVC003 02/02
     A3029=
KMDT 101856Z 00000KT 2 1/2SM HZ OVC009 01/M03 A3034=
KMFD 101852Z 16011KT 2SM BR OVC002 03/03 A3009=
KMGW 101853Z 00000KT 10SM OVC013 09/07 A3019=
KMHT 101853Z 18003KT 4SM BR BKN020 BKN070 M02/M03 A3035=
KMIV 101854Z AUTO 00000KT 3SM BR OVC002 04/04 A3036=

0000170200
098
SAUS71 KWBC 101900 RRC
METAR
KMMU NIL=
KMRB 101853Z 03004KT 3SM HZ OVC008 03/00 A3030=
KMSS 101853Z AUTO 22008KT 8SM OVC018 00/M03 A3026=
KMTN NIL=
KMYR NIL=
KNKT 101854Z 16011G17KT 10SM BKN046 BKN065 OVC120 20/12 A3028=
KOQU 101852Z 05004KT 2 1/2SM -PL BR OVC022 M01/M01 A3041=
KORF 101851Z AUTO 36009KT 3SM -RA FEW036 BKN090 OVC110 06/03
     A3033=
KORH 101854Z 21009KT 1 3/4SM BR OVC005 00/M01 A3032=
KPHF 101854Z 00000KT 4SM -RA SCT060 OVC090 07/03 A3034=
KPHL 101854Z 05003KT 1 3/4SM BR BKN004 OVC025 02/01 A3037=
KPIT 101851Z 19006KT 10SM BKN008 OVC023 07/04 A3018=
KPKB 101853Z 00000KT 10SM BKN019 OVC032 09/07 A3018=
KPLB NIL=
KPOU 101853Z 00000KT 6SM HZ OVC016 00/M03 A3037=
KPQI 101855Z AUTO 14005KT 10SM CLR M09/M21 A3026=
KPSM 101858Z 20004KT 1SM R34/P6000FT -SN BR BKN017 OVC030 M02/M02
     A3037=
KPVD 101851Z 00000KT 1 1/2SM -RASN BR OVC020 M01/M02 A3040=
KPWM 101851Z 21007KT 10SM OVC070 M02/M06 A3037=
KRDG 101854Z 34003KT 3SM HZ OVC019 01/M02 A3035=
KRDU 101851Z 04006KT 2SM BR OVC005 07/06 A3025=
KRIC 101854Z 03004KT 3SM -RA BR OVC004 04/03 A3034=
KROA 101854Z 00000KT 1SM -RA BR OVC004 03/02 A3029=
KROC 101854Z 20006KT 10SM OVC024 04/M01 A3019=
KRWI 101853Z AUTO 04003KT 3SM BR BKN003 BKN065 OVC090 09/08
     A3028=
KSAV 101853Z 14008KT 10SM SCT005 BKN040 BKN050 BKN130 23/16
     A3014=
KSBY 101854Z 04003KT 1 3/4SM -RA BR BKN003 OVC030 06/04 A3035=
KSCH NIL=
KSLK 101851Z AUTO 22009KT 7SM FEW019 OVC041 M03/M06 A3017=
KSWF NIL=
KSYR 101854Z 18004KT 10SM BKN030 OVC040 03/M01 A3024=
KTEB 101851Z 01003KT 4SM HZ FEW011 OVC029 01/M02 A3038=
KTOL 101852Z 16004KT 7SM OVC005 02/01 A3005=

0000027000
099
SAUS71 KWBC 101900 RRD
METAR
KTTN 101853Z 03003KT 1SM BR OVC004 01/M01 A3037=
KUCA NIL=
KWRI 101858Z AUTO 03004KT 3SM BR OVC003 02/02 A3034=
KYNG 101851Z 17007KT 4SM BR OVC005 03/02 A3014=
KZZV 101853Z AUTO 12004KT 6SM BR OVC005 06/04 A3014=

0000011800
100
SACN62 CYXH 101900
METAR CYXH 101900Z 28008KT 30SM FEW130 BKN270 02/M04 A2946 RMK AC1CI6
 SLP002=

0000039900
101
SANK31 MNMG 101900
METAR 
MNPC 101900Z 09008KT 6000 VCRA BKN016TCU 28/25 Q1012 
                           RESHRA TCURA W/NW 82?=
MNRS 101900Z 07008KT 9999 FEW020 30/21 Q1010=
MNJG  101900Z 00000KT 9999 BKN020 23/17 Q1012=
MNJU  101900Z 06010KT 9999 SCT020 32/22 Q1012=
MNCH 101900Z 04014KT 9999 SCT025 33/18 Q1010=
MNBL  101900Z 10008KT 9999 SCT017 29/25 Q1012 76?=

0000011300
102
SACN61 CYXS 101900
METAR CYXS 101900Z AUTO 19006KT 9SM CLR M04/M05 A2970 RMK PRESRR
 SLP091=

0000037800
103
SAIN33 VECC 110950
METAR VECC 110950Z 01007KT 2800 FU NSC 25/13 Q1013 NOSIG=
METAR VEPT 110950Z 13006KT 1500 FU FEW020 SCT100 17/15 Q1015 NOSIG=
METAR VGEG 110950Z 21004KT 4000 HZ SCT300 24/15 Q1013 NOSIG=
METAR VGHS 110950Z 32005KT 4000 HZ NSC 27/10 Q1013 NOSIG=
METAR VNKT 110950Z 25004KT 6000 SCT025 BKN100 13/04 Q1018 NOSIG=
METAR VQPR 110950Z NIL=
0000005200
104
RRIN23 VECC 111000
RQRPT 513-534=

0000011500
105
SACN62 CYXL 101900
METAR CYXL 101900Z 19010KT 3SM -SN BR OVC007 M07/M09 A2954 RMK ST8
 SLP029=

0000010600
106
SACN62 CYXJ 101900
METAR CYXJ 101900Z 26003KT 15SM SCT080 M15/M18 A2946 RMK AC3 SLP031=

0000166300
107
SAUS72 KWBC 101900
METAR
KABI 101852Z 23017G24KT 10SM CLR 19/06 A2976=
KABQ 101852Z VRB03KT 10SM FEW070 07/M08 A2997=
KABY 101853Z 05004KT 2 1/2SM BR OVC004 13/13 A3013=
KACT 101851Z 20017G23KT 10SM FEW027 BKN085 21/16 A2979=
KAEX 101853Z 14012KT 5SM BR OVC004 15/14 A2991=
KAFW 101853Z 18014G18KT 8SM -RA FEW075 OVC090 17/15 A2970=
KAHN 101851Z 06006KT 1 3/4SM -RA BR OVC005 08/07 A3016=
KALI 101853Z AUTO 20014G24KT 10SM BKN038 OVC047 24/16 A2984=
KAMA 101853Z 31009G17KT 10SM CLR 11/M10 A2974=
KANB 101853Z AUTO 06009KT 4SM BR OVC005 09/08 A3009=
KAPF 101853Z 14010KT 10SM BKN039 27/21 A3006=
KATL 101852Z VRB05KT 1/4SM R09R/4500VP6000FT -DZ BR OVC002 09/08
     A3013=
KAUS 101853Z 21009G19KT 8SM FEW008 BKN012 OVC048 19/17 A2984=
KBFM 101853Z 01003KT 10SM OVC021 15/13 A3005=
KBHM 101853Z 15003KT 3SM BR OVC005 10/08 A3010=
KBNA 101853Z 16007KT 10SM OVC010 12/08 A3002=
KBPT 101853Z 17008KT 10SM OVC038 20/16 A2991=
KBQK 101855Z AUTO 13006KT 7SM OVC005 20/19 A3013=
KBRO 101853Z 17023G31KT 10SM SCT020 BKN038 26/19 A2986=
KBTR 101853Z 12009KT 10SM BKN011 OVC049 18/14 A2997=
KCEW 101853Z AUTO 06005KT 1 3/4SM BR OVC002 14/13 A3008=
KCHA 101853Z 00000KT 2 1/2SM BR OVC004 08/06 A3013=
KCLL 101853Z 19008KT 3SM -RA BR SCT010 BKN014 OVC021 18/17
     A2984=
KCNM 101853Z AUTO 26024G32KT 10SM CLR 19/M10 A2986=
KCRP 101851Z 18012KT 10SM FEW011 BKN028 BKN049 22/20 A2986=
KCSG 101851Z 11005KT 3SM BR OVC003 10/09 A3011=
KCSV 101853Z AUTO VRB04KT 10SM OVC006 09/08 A3009=
KDAB 101853Z 09006KT 10SM SCT010 BKN045 24/20 A3011=
KDAL 101853Z VRB06KT 8SM SCT018 BKN042 OVC095 18/16 A2974=

0000012900
108
SACN62 CYXT 101900
METAR CYXT 101900Z 20008KT 5SM BR SCT003 BKN006 OVC060 01/01 A2975
 RMK SF3SF4SC1 SLP085=

0000024300
109
SATH32 VTBB 101900
METAR VTSB 101900Z NIL=
METAR VTSC 101900Z NIL=
METAR VTSF 101900Z NIL=
METAR VTSG 101900Z NIL=
METAR VTSH 101900Z NIL=
METAR VTSM 101900Z NIL=
METAR VTSR 101900Z NIL=
METAR VTST 101900Z NIL=

0000084000
110
SAFR35 LFPW 101900
METAR LFMI 101900Z AUTO 09003KT 9999 OVC025 11/08 Q1019=
METAR LFMK 101900Z AUTO 10014KT 9999 OVC019 11/08 Q1017=
METAR LFOV 101900Z AUTO 09006KT 0900 FG VV/// 06/06 Q1016=
METAR LFRD 101900Z AUTO 15005KT 0750 R35/1900D FG VV/// 07/06 Q1016=
METAR LFRI 101900Z AUTO 09003KT 9999 NSC 08/06 Q1015=
METAR LFRM 101900Z AUTO 06004KT 030V090 7000 OVC006 07/06 Q1017=
METAR LFRN 101900Z AUTO 11004KT 4000 BR FEW007 OVC035 08/07 Q1016=
METAR LFRO 101900Z AUTO 15003KT 9999 NSC 07/05 Q1015=
METAR LFRV 101900Z AUTO 06006KT 1800 -RA BR OVC002 07/06 Q1015=
METAR LFRZ 101900Z AUTO 05005KT 2900 BR NSC 08/08 Q1015=
METAR LFSB 101900Z 13005KT 9999 FEW043 SCT230 05/02 Q1019 NOSIG=
METAR LFST 101900Z AUTO 24004KT 9999 NSC 02/01 Q1019=
METAR LFTH 101900Z AUTO 00000KT 8000 OVC025 12/09 Q1020=

0000068900
111
SAFR36 LFPW 101900
METAR LFBA 101900Z AUTO 08004KT 9999 NSC 09/07 Q1014=
METAR LFBE 101900Z AUTO 12002KT 9999 NSC 06/06 Q1015=
METAR LFGJ 101900Z AUTO 06003KT 9999 NSC 05/03 Q1018=
METAR LFJR 101900Z AUTO 06006KT 3400 BR NSC 08/07 Q1016=
METAR LFMD 101900Z AUTO VRB03KT 8000 OVC022 11/09 Q1020=
METAR LFMH 101900Z AUTO 12005KT 6000 NSC 07/05 Q1017=
METAR LFOT 101900Z 07007KT 0250 R20///// FG VV/// 06/06 Q1016 NOSIG=
METAR LFPN 101900Z AUTO 18003KT 140V200 9999 OVC006 06/04 Q1018=
METAR LFRC 101900Z AUTO 17010KT 9999 OVC006 06/05 Q1015=
METAR LFRG 101900Z AUTO 20009KT 8000 OVC004 05/04 Q1017=
METAR LFRK 101900Z AUTO 14006KT 7000 NSC 03/02 Q1016=

0000068600
112
SAFR37 LFPW 101900
METAR LFAQ 101900Z AUTO 21008KT 9000 OVC011 05/04 Q1017=
METAR LFAT 101900Z AUTO 15005KT 9000 OVC012 05/04 Q1017=
METAR LFLN 101900Z AUTO 09001KT 9999 NSC 06/05 Q1017=
METAR LFPM 101900Z AUTO VRB01KT 9999 OVC005 06/05 Q1018=
METAR LFPT 101900Z AUTO 20005KT 9999 OVC010 06/04 Q1018=
METAR LFRH 101900Z AUTO 14006KT 4000 -RA BR OVC003/// ///TCU 09/08
Q1015=
METAR LFRQ 101900Z AUTO 00000KT 0300 R28///// FG OVC002 08/08 Q1015=
METAR LFRT 101900Z AUTO 16004KT 3600 BR FEW009 SCT034 07/06 Q1015=
METAR LFSD 101900Z AUTO 30003KT 9999 NSC 04/02 Q1018=
METAR LFTW 101900Z AUTO 00000KT 9999 OVC025 11/04 Q1019=
METAR LFBU 101900Z NIL=

00000000