0000009800
793
SPUS44 KWBC 102244
SPECI
KPDX 102240Z 18011KT 10SM SCT020 OVC070 11/07 A3005=

0000011200
794
SPCN31 CWAO 102242
SPECI CYZF 102242Z 30004KT 8SM -SN OVC055 M23/M26 A2950 RMK SC8
 SLP017=

0000015100
795
SAES20 MSLP 102300
METAR MSLP 102250Z 22004KT 160V270 CAVOK 30/18 Q1009 A2981=
METAR MSSS 102250Z 22007KT CAVOK 28/20 Q1012 A2990=

0000072300
796
SAMX44 MMMD 102249
METAR MMCE 102244Z 36006KT 6SM SKC 24/21 A2986=
METAR MMCM 102244Z 12006KT 7SM SCT010CB  BKN090 27/22 A2994
      RMK 8/360=
METAR MMCP 102244Z 00000KT 7SM  FEW030 26/23 A2988 RMK 8/400=
METAR MMCZ 102246Z 13006KT 8SM  SCT015TCU 24/22 A2996 RMK 8/200 CB W=
METAR MMMD 102243Z 15008KT 7SM  FEW025TCU 29/19 A2990 RMK 8/200=
METAR MMMT 102147Z 00000KT 10SM  SCT040 25/20 A2985 RMK 8/100=
METAR MMTG 102241Z 00000KT 12SM  SKC 31/15 A2984 RMK ISOLD CU=
METAR MMTP 102244Z 27007KT 10SM  SCT250 29/22 A2985 RMK 8/002=
METAR MMUN 102243Z 13005KT 7SM  BKN015TCU 26/23 A2996 RMK 8/200=
METAR MMVA 102243Z 06005KT 6SM  BKN015 OVC030 22/19 A2989 
      RMK 8/6// BINOVC  HZY=

0000017300
797
SAVN24 SVMG 102300
METAR SVMG 102300Z /////KT 9999 SCT010 26/22 Q1012 NOSIG=
METAR SVCU 102300Z NIL=
METAR SVCP 102300Z NIL=
METAR SVGI 102300Z NIL=

0000011600
798
SALT34 EYVI 102250
METAR EYSA 102250Z 28017KT 9999 OVC013 02/01 Q0998 R14L/2/0295 
R14R/2/0295=

0000110500
799
SPUS70 KWBC 102250
SPECI
KELM 102246Z 00000KT 8SM BKN017 OVC050 02/M01 A3019 RMK AO2=
KGGG 102246Z 19008KT 4SM RA BR FEW008 OVC015 17/16 A2975 RMK AO2
     P0009=
KHQM 102246Z AUTO 16009KT 2 1/2SM -RA SCT012 BKN017 OVC060 A2997
     RMK AO2 P0004 TSNO $=
KPSX 102246Z AUTO 18008KT 10SM SCT024 SCT055 19/18 A2983 RMK AO2
     T01940178=
KTOI 102246Z AUTO 10003KT 1SM BR OVC003 13/12 A3005 RMK AO2
     RAB03E14 P0000 T01330122=
PACV 102246Z 04003KT 1 3/4SM R27/2800VP6000FT -SN BR BKN015 OVC026
     01/00 A2936 RMK AO2 SNE09B38 P0000 $=
PPIZ 102246Z AUTO 00000KT 1SM HZ OVC004 M22/M25 A3002 RMK AO2 TSNO
     $=
KCEC 102247Z AUTO 16010KT 7SM OVC004 10/09 A3021 RMK AO2
     T01000089=
KCUB 102247Z AUTO VRB05KT 3SM -RA BR SCT003 BKN020 OVC026 10/09
     A3015 RMK AO2 P0090 TSNO=
KSGH 102247Z AUTO 13011KT 1/4SM FG OVC001 04/04 A2994 RMK AO2
     RAB07E19 P0000=
PATQ 102247Z AUTO 31005KT 1/2SM SN OVC004 M27/M31 A2994 RMK AO2
     TSNO SNB2159 P0000=
PATQ 102247Z AUTO 31005KT 1/2SM SN OVC004 M27/M31 A2994 RMK AO2
     TSNO SNB2159 P0000=

0000010200
800
SPUS41 KWBC 102250
SPECI
KPSM 102245Z 14004KT 6SM BR SCT017 OVC090 M02/M02 A3033=

0000009600
801
SPUS43 KWBC 102250
SPECI
KPIA 102246Z 17014KT 3SM RA BR OVC003 04/03 A2964=

0000011100
802
SPUS44 KWBC 102250
SPECI
KHQM 102246Z AUTO 16009KT 2 1/2SM -RA SCT012 BKN017 OVC060 A2997=

0000010200
803
SACV20 GVSV 102300
METAR GVSV 102300Z 06010KT 9999 FEW022 BKN200 20/15 Q1017 NOSIG=

0000009800
804
SALT33 EYVI 102250
METAR EYPA 102250Z 30007KT 210V010 9999 BKN013 02/M00 Q1002=

0000023200
805
FTUS72 KWBC 102251 AAA
TAF AMD
KCSV 102248Z 1023/1118 17006G14KT 6SM BR OVC004
     FM110300 17012G22KT 4SM -SHRA BR OVC003
     FM110800 18012G22KT 2SM SHRA BR OVC002
     FM111600 25010G20KT P6SM OVC015=

0000009700
806
SPCN46 CWAO 102250
SPECI CYBN 102250Z AUTO 14008KT 3/4SM OVC002 M00/M00 A3003=

0000017500
807
FTVN21 SVVA 102230
SVVA 102230Z 1100/1200 18005KT 9999 FEW016 TEMPO 1105/1107 07006KT
9999 FEW016 TEMPO 1110/1112 02002KT 9999 FEW016 TX 31/19Z TN 21/08Z=

0000031100
808
SAHO31 MHTG 102300
METAR MHRO 102300Z 09008KT 9999 SCT020TCU 27/22 Q1012 A2989 NOSIG=
METAR MHLC 102300Z 01002KT 9999 SCT024 BKN070 25/22 Q1012 A2991
NOSIG=
METAR MHLM 102300Z 01010KT 9999 SCT030 27/23 Q1012 A2989 NOSIG=
METAR MHTG 102300Z 10004KT 9999 SCT030 25/15 Q1016 A3000 NOSIG=

0000035300
809
FTUS75 KWBC 102248
TAF
TAF AMD PAED 1022/1202 VRB06KT 9999 BKN003 OVC009 620109
      QNH2920INS
      TEMPO 1022/1103 3200 -SN BR BKN002 OVC005
      BECMG 1114/1115 VRB06KT 9999 BKN005 OVC010 620105
      QNH2912INS
      BECMG 1200/1201 VRB06KT 9999 OVC010 QNH2907INS
      TXM02/1102Z
      TNM11/1110Z AMD 102245=

0000014300
810
FTAH10 OAKB 102305

TAF OAKB 102305 1100/1124 VRB06KT CAVOK
TEMPO 1100/1105 5000 HZ

BECMG 1112/1114 5000 HZ BKN070=

0000019200
811
FTPA31 KWBC 102248
TAF
TAF AMD PGSN 102244Z 1023/1118 05014G24KT P6SM VCSH SCT020 SCT120
     FM110000 06014KT P6SM VCSH SCT020
     FM110800 06009KT P6SM VCSH FEW020=

0000019200
812
FTPQ31 KWBC 102248
TAF
TAF AMD PGSN 102244Z 1023/1118 05014G24KT P6SM VCSH SCT020 SCT120
     FM110000 06014KT P6SM VCSH SCT020
     FM110800 06009KT P6SM VCSH FEW020=

00000000