0000010000
933
SPCN49 CWAO 101733
SPECI CYHH 101733Z 25012KT 1 1/2SM -SN DRSN OVC022 RMK SN2SC6=

0000009500
934
SAHK31 VHHH 101730
METAR VHHH 101730Z 09014KT 9000 FEW022 16/11 Q1024 NOSIG=

0000012200
935
SAUK38 EGGY 101720 RRA
METAR EGPU 101720Z AUTO 24013KT 200V270 9999 -SHRA FEW036/// 05/01
     Q1005=

0000027300
936
FCNO35 ENMI 101700
TAF ENRM 101700Z 1018/1022 08015KT 9999 SCT025 BKN070=
TAF ENSO 101700Z NIL=
TAF ENVD 101700Z 1018/1024 28008KT 9999 FEW010 SCT020 TEMPO 1018/1024
         05010KT 1500 SHSN BKN005=
TAF ENNO 101700Z NIL=
TAF ENSN 101700Z NIL=

0000084600
937
SAKZ31 RUMS 101730
METAR UAAA 101730Z 15002MPS 130V190 0350 R23R/1600D R23L/1100N BR FU
FEW200 M14/M17 Q1030 8891//60 NOSIG=
METAR UACC 101730Z 19005MPS 9999 -SN BKN011 OVC032 M13/M15 Q1027
R22/8/0055 NOSIG RMK QFE739/0985=
METAR UAKK 101730Z 18009MPS CAVOK M14/M17 Q1028 R23/850555 NOSIG RMK
QFE724/0965=
METAR UAOO 101730Z NIL=
METAR UARR 101730Z NIL=
METAR UATE 101730Z 00000MPS 7000 NSC 01/00 Q1021 R12/0///70 BECMG
1000 BR SCT003 RMK QFE764/1018=
METAR UATG 101730Z 28005MPS 5000 BR OVC014 02/02 Q1016 R32/19//65
NOSIG RMK QFE764/1019=
METAR UATT 101730Z 19004MPS 9999 -SN BKN006 OVC018 M00/M00 Q1009
R13/491040 TEMPO 0500 FZDZ FZFG VV002 RMK QBB180 QFE737/0983=
METAR UAUU 101730Z 17008MPS 3600 -SHSN BLSN BKN009 OVC021CB M08/M10
Q1015 TEMPO 19012MPS 1000 SHSN BLSN BKN005CB RMK QFE745/0994=

0000024100
938
SATA31 RUMS 101730
METAR UTDD 101730Z 00000MPS M0050 R09/M0050N FZFG VV001 M07/M08 Q1030
09CLRD70 NOSIG RMK QBB030 QFE704/0938=
METAR UTDL 101730Z 08009G12MPS 4100 BR SKC M02/M07 Q1029 NOSIG RMK
QFE732/0976 8809//70=

0000023700
939
SAKY31 RUMS 101730
METAR UCFM 101730Z 04001MPS 1500 R08/P2000 BR FU SKC M12/M16 Q1029
R08/CLRD70 TEMPO 1000 FU=
METAR UCFO 101730Z 18003MPS 2000 R12/P2000 BR FU NSC M07/M10 Q1029
R12/CLRD70 TEMPO 0500 FZFG VV002=

0000019000
940
SAAY31 RUMS 101730
METAR UDYZ 101730Z 00000MPS 2300 BR BKN010 M09/M11 Q1028 R09/000070
NOSIG=
METAR UDSG 101730Z VRB02MPS 3200 BR NSC M17/M19 Q1023 R02/CLRD70
NOSIG=

0000010200
941
SANO38 ENMI 101720 RRA
METAR ENHE 101720Z 08030KT 9999 SCT035 M02/M10 Q1002 W///S6=

0000040100
942
FCNO38 ENMI 101700
TAF ENEK 101700Z 1018/1103 25025KT 9999 FEW015 BKN030 BECMG 1019/1021
         4000 -RA BKN012 TEMPO 1021/1102 2000 RADZ BR BKN007 BECMG
         1023/1101 33020KT FEW012 SCT030=
TAF ENSL 101700Z NIL=
TAF ENNE 101700Z NIL=
TAF ENHM 101700Z NIL=
TAF ENHE 101700Z 1018/1103 07030KT 9999 FEW010 BKN030 PROB30 TEMPO
         1018/1103 2500 -SHSN BKN012=

0000036000
943
FCNO34 ENMI 101700
TAF ENBN 101700Z 1018/1022 08015G25KT CAVOK TEMPO 1018/1021 07008KT=
TAF ENBV 101700Z NIL=
TAF ENFG 101700Z NIL=
TAF ENHF 101700Z 1018/1103 VRB05KT 9999 FEW020=
TAF ENRA 101700Z 1018/1022 09015G25KT CAVOK TEMPO 1018/1022 09008KT=
TAF ENSH 101700Z 1018/1021 06020KT 9999 FEW040 TEMPO 1018/1021
         06010KT=

0000010200
944
SAGL31 BGSF 101720 RRB
METAR BGJN 101720Z 11024KT 9999 FEW010 SCT160 M09/M18 Q0991=

0000015800
945
FTCZ43 LKMW 101700 AAB
TAF AMD LKKB 101700Z 1018/1118 23010KT 9999 SCT040 TEMPO
1105/1108 5000 BR TEMPO 1114/1118 7000 -RA BKN025 OVC040=

0000009300
946
SAUK37 EGGY 101720 RRA
METAR EGPN 101720Z 30003KT 9999 FEW018 05/05 Q1004=

0000007700
947
FTRS33 RUMS 101700 AAA
TAF AMD UUDL 101735Z 1018/1118 CNL=

0000011300
948
SPAU32 AMMC 101733
SPECI YPGV 101733Z AUTO 14009KT 9000 // BKN012 BKN025 OVC073 25/24
Q1006=

0000012100
949
SPUS31 KWBC 101733
SPECI
KCLT 101729Z 35006KT 1 3/4SM R18C/3500VP6000FT +RA BR OVC003 05/04
A3026=

0000047700
950
FTSA32 KWBC 101733 RRA
TAF
TAF SCIP 101620Z 1018/1118 10008KT 9999 BKN020 SCT030 TX26/1020Z
      TN20 /1110Z
      BECMG 1018/1020 SCT020
      BECMG 1101/1103 BKN020
      TEMPO 1104/1114 07010KT 7000 -SHRA SCT017 BKN025
      BECMG 1115/1117 SCT020=
TAF SCTE 101640Z 1018/1118 15012KT 9999 SCT040 TX18/1019Z
      TN08/1110Z
      BECMG 1102/1104 18003KT SCT020
      TEMPO 1108/1112 BKN013
      BECMG 1114/1116 16009KT 9999 FEW030=

0000144600
951
FTSA32 KWBC 101733
TAF
TAF SCAR 101630Z 1018/1118 21014KT CAVOK TX25/1018Z TN20/1110Z
      BECMG 1100/1102 21004KT
      BECMG 1106/1108 33004KT
      BECMG 1112/1114 21003KT
      BECMG 1116/1118 21013KT=
TAF SCBA 101640Z 1018/1118 31025G37KT 9999 FEW045 TX17/1019Z TN05/
      1110Z
      BECMG 1100/1102 30017KT CAVOK
      BECMG 1114/1116 31024KT=
TAF SCCF 101630Z 1018/1118 26021KT CAVOK TX23/1018Z TN05/1110Z
      BECMG
      TEMPO 1018/1020 26020G30KT
      BECMG 1106/1108 09010KT
      BECMG 1116/1118 26015KT=
TAF SCCI 101638Z 1018/1118 24020G30KT 9999 SCT030 TN08/1109Z
      TX12/1018Z
      BECMG 1019/1021 BKN030
      BECMG 1101/1103 31013G27KT
      BECMG 1104/1106 8000 -SHRA BKN020
      BECMG 1110/1112 28025G40KT NSW SCT040
      TEMPO 1113/1118 8000 -SHRA BKN022=
TAF SCDA 101630Z 1018/1118 21015KT CAVOK TX26/1018Z TN20/1110Z
      BECMG 1100/1102 19005KT FEW022
      BECMG 1106/1108 00000KT CAVOK
      BECMG 1112/111 4 13004KT
      BECMG 1116/1118 21012KT=
TAF SCFA 101630Z 1018/1118 21014KT 9999 FEW020 TX24/1018Z
      TN19/1110Z
      BECMG 1100/1102 19004KT SCT019
      BECMG 1106/1108 28002KT
      BECMG 1112/1114 33005KT FEW015
      BECMG 1116/1118 21011KT FEW020=
TAF SCIE 101615Z 1018/1118 20010KT CAVOK TX24/1018Z TN10/1110Z
      BECMG 1020/1022 20017KT
      BECMG 1101/1103 18008KT
      BECMG 1106/1108 VRB02KT=

0000042100
952
FTSA42 KWBC 101733
TAF
TAF SCSE 101615Z 1018/1118 28010KT CAVOK TX22/1018Z TN14/1110Z
      TEMPO 1018/1020 SCT015 BKN250
      BECMG 1101/1103 29004KT
      BECMG 1103/1105 BKN010
      TEMPO 1108/1112 03004KT 3000 BR OVC008=
TAF SCTC 101640Z 1018/1118 23009KT CAVOK TX24/1020Z TN08/1110Z
      BECMG 1102/1104 VRB02KT
      TEMPO 1107/1111 9999 BKN015
      BECMG 1116/1118 21007KT=

00000000