0000018100
933
FTTU32 LTAA 101700 AAA
TAF AMD LTBU 101818Z 1018/1118 VRB02KT 2000 BR SCT008 PROB40
 1022/1102 1200 BCFG TEMPO 1103/1107 0400 FG BKN003 BECMG 1107/1110
 6000=

0000164700
934
FTAG05 SABM 101800
TAF SAAR 101700Z 1018/1118 09010KT 9999 SCT030 FEW040CB TX32/1020Z
TN16/1109Z BECMG 1020/1022 16010KT 9999 SCT025 SCT100
TEMPO 1101/1105 7000 -TSRA FEW04CB BECMG 1109/1111 16015KT CAVOK=
TAF SABE 101700Z 1018/1118 02010KT CAVOK TX31/1021Z TN17/1109Z
BECMG 1021/1023 34010KT BECMG 1104/1106 16015KT 9999 SCT025=
TAF SACO 101700Z 1018/1118 18010G20KT VCTSRA SCT020
TX29/1118Z TN21/1110Z BKN035 FEW035 FM 2100 16010KT 9999
BKN025 BECMG 1115/1118 18010KT 9999 SCT035=
TAF SADF 101700Z 1018/1118 36005KT 9999 FEW025 TX32/1019Z TN18/1109Z
PROB30 TEMPO 1021/1104 -SHRA SCT025 FEW030CB BECMG 1106/1109
     16015KT
9999 SCT020=
TAF SAEZ 101700Z 1018/1118 25005KT 9999 SCT040 TX31/1019Z TN17/1109Z
PROB30 TEMPO 1019/1101 8000 SHRA SCT020 FEW045CB SCT060 BECMG
1101/1104 18015KT 9999 SCT040 BECMG 1116/1118 14010KT=
TAF SAME 101700Z 1018/1118 14015KT 9999 FEW040 TX32/1020Z
     TN20/1110Z=
TAF SANT 101700Z 1018/1118 05005KT 9999 SCT025 FEW035
TX30/1118Z TN21/1110Z  FM 101900 18010KT 2500 TSRA
SCT020 OVC040 FEW040CB=
TAF SAOC 101800Z NIL=
TAF SARC 101800Z NIL=
TAF SARE 101700Z 1018/1118 02010KT 9999 SCT030TCU TX37/1019Z
TN23/1109Z BECMG 1101/1103 18015G35KT 6000 TSRA SCT018 BKN035
FEW040CB=
TAF SARF 101700Z 1018/1118 02015KT 9999 SCT035TCU TX38/1019Z
TN24/1109Z BECMG 1104/1107 18015G35KT 5000 TSRA SCT018 BKN035
FEW040CB=
TAF SARI 101700Z 1018/1118 02010KT 9999 SCT030TCU SCT100 TX34/1018Z
TN22/1109Z PROB40 TEMPO 1019/1100 6000 TSRA SCT030TCU FEW040CB
BKN060 BECMG 1112/1115 18015G35KT 5000 TSRA BKN020 BKN035
     FEW040CB=
TAF SARL 101800Z NIL=

0000015300
935
SAUS72 KWBC 101800 RRE
METAR
KBQK 101815Z AUTO 13007KT 3SM OVC005 19/18 A3015=
KLRU 101815Z AUTO 28010G18KT 10SM CLR 12/M10 A3006=

0000010200
936
SAUS73 KWBC 101800 RRF
METAR
KIKK 101815Z AUTO 14010KT 5SM BR OVC009 02/01 A2989=

0000028800
937
SAUS75 KWBC 101800 RRD
METAR
PADK 101816Z AUTO 24023G29KT 10SM FEW019 SCT028 BKN035 04/01
     A2895=
PAGS 101816Z AUTO 12008KT 10SM BKN023 02/01 A2950=
PAUN 101816Z AUTO 09016KT 10SM SCT080 M14/M19 A2959=
PAVD 101816Z 10SM FEW010 BKN070 BKN090 M04/M04 A2938=

0000018000
938
FTPA31 PHFO 101800 AAA
TAF PHLI 101807Z 1018/1118 04013KT P6SM VCSH SCT022 SCT040
      TEMPO 1018/1020 BKN022
     FM111200 07010KT P6SM VCSH SCT020 SCT040=

0000005200
939
RRIN23 VIDP 110956
RQRPT 712-733=

0000005200
940
RRIN23 VIDP 110957
RQRPT 052-073=

0000008400
941
SPCN31 CWAO 101820
SPECI CYTR 101820Z 19005KT 8SM OVC010 RMK ST8=

0000017100
942
SAMP31 LMMM 101830
METAR HLLT NIL=
METAR HLLB 101817Z
00000KT 9999 SCT020 BKN080 15/09 Q1025 =
METAR LMML 101815Z 24006KT CAVOK 15/12 Q1022 NOSIG=

0000014200
943
SALT31 EYVI 101820
METAR EYVI 101820Z 27019G30KT 7000 -SHRA BKN008 OVC016CB 02/01 Q0992
     R20/2/0295 TEMPO 27026G36KT=

0000020500
944
SACA31 TNCC 101800
METAR TNCC 101800Z 11009KT 080V150 0000 SCT025 29/22 Q1013 NOSIG=
METAR TNCB 101800Z AUTO 10010KT 060V140 //// ////// 28/22 
Q1013 NOSIG=
METAR TNCE 101800Z NIL=

0000009500
945
SPCN42 CWAO 101825
SPECI CYUA 101825Z AUTO 29022KT 5/8SM -SN CLR M25/ A2975=

0000012400
946
SAUK31 EGGY 101820 CCB
METAR COR EGCC 101820Z 18012KT 9999 -RA FEW031 SCT046 07/05 Q1008
     TEMPO RA=

0000010000
947
SAUK33 EGGY 101820 RRB
METAR EGGP 101820Z 17008KT 9999 SCT026 BKN041 08/06 Q1008=

0000024000
948
FTNL32 EHDB 101800 RRA
TAF EHEH 101820Z 1018/1200 22008KT 9999 BKN012
      PROB40 TEMPO 1022/1110 BKN005
      TEMPO 1112/1115 30015G25KT 4500 -RA -SHRA SCT008 BKN012
FEW015CB
      BECMG 1114/1116 27005KT CAVOK=

0000009700
949
SAUK36 EGGY 101820 CCB
METAR COR EGSD 101820Z 20010KT CAVOK 07/06 Q1012 NOSIG=

0000040700
950
SAFI34 EFHK 101820
EFET 101820Z AUTO 00000KT 9999 -SHSN FEW010 M29/M32 Q1013=
EFIV 101820Z AUTO 24005KT 9000 -IC OVC006 M32/M36 Q1016=
EFKE 101820Z AUTO 02015KT 3900 -SN OVC040 M12/M15 Q1006=
EFKI 101820Z AUTO 05014KT 9999 -SN OVC023 M10/M12 Q0999=
EFKS 101820Z AUTO 04007G18KT 350V090 9999 -SN FEW018 OVC047 M15/M18
Q1005=
EFKT 101820Z VRB07KT CAVOK M18/M21 Q1012 R16/71//89=

0000009300
951
SPCN42 CWAO 101826
SPECI CYUA 101826Z AUTO 29022KT 1SM -SN CLR M25/ A2975=

0000033900
952
SANL31 EHDB 101825
METAR EHAM 101825Z 21014KT 9999 FEW012 BKN017 08/06 Q1014 TEMPO
BKN012=
METAR EHBK 101825Z AUTO 23009KT 9999 BKN013 BKN015 05/03 Q1017 NOSIG=
METAR EHGG 101825Z AUTO 23010KT 9999 NCD 05/04 Q1013 NOSIG=
METAR EHRD 101825Z AUTO 20011KT 170V230 7000 BKN009 OVC010 07/05
Q1015 TEMPO 9000 BKN011=

00000000