0000011000
273
UANT99 KDDL 110354
ARP VIR22N 5050N03626W 0354 F390 MS54 231/34 KT
GVUFO DDL XXH 110354 J19A
0000011100
274
UANT99 KDDL 110354
ARP UAL976 4852N03616W 0354 F320 MS51 236/25 KT
N226UA DDL XXW 110354 F38A
0000011000
275
UANT99 KDDL 110354
ARP AAL70 5049N03631W 0354 F380 MS54 229/35 KT
N755AN DDL XXW 110354 F55A
0000010900
276
UANT99 KDDL 110354
ARP KLM32 5503N02833W 0354 F380 MS55 212/57 KT
PHBFN QXT AOE 110354 F81A
0000011400
277
SAIN90 VEGY 110330
METAR VEGY 110330Z 00000KT 0400 -RA FEW010 BKN018 OVC080 15/14 Q1019 NOSIG =

0000020100
278
UGIN90 VICH 110000
PPBB 61028 42101 90/23 32003 33012 34510 90456 32508 34511 33010
     9078/ 04006 03008 91023 04015 33509 03008 91456 ///// 03510
     34505 9413/ 28592 28107=

0000105600
279
FJIN51 VECC 110355

              INDIA METEOROLOGICAL DEPARTMENT
          R/T VOLMET B/C VECC 0355 UTC 11012014

VIDP SIGMET NIL=

VECC SIGMET NIL=

MET/SPECIAL REPORT

VECC 110320Z 000/00KT VIS 1000M R19L/1200 RMID/1200 R01R/1200 MIFG
     NSC T17 DP14 QNH 1017 BECMG VIS 1500M BR = 
SPECI VECC 110350Z 000/00KT VIS 1500M BR NSC T19 DP14 QNH 1017 NOSIG=

VIDP 110330Z 270/06KT VIS 150M R28/0650 R29/0550 FG NSC T07 DP06 QNH
     1019 BECMG VIS 350M = 
VGHS 110350Z 070/03KT VIS 1500M BR NSC T17 DP13 QNH 1016 BECMG S/VIS
     2000M = 
VYYY 110330Z 050/06KT VIS 8KM NSC T25 DP22 QNH 1017 = 
VNKT 110350Z 180/04KT VIS 2000M BR FEW1500FT/450M SCT2500FT/750M
     BKN10000FT/3000M T09 DP03 QNH 1022 BECMG 00/00 0450Z 3000 HZ = 
FCST VECC 11/06 350/05KT VIS 2800M HZ NSC BECMG 11/12 000/00KT VIS
          1800M BR=

FCST VIDP 11/06 260/05KT VIS 1200M MIFG/FU NSC BECMG 11/08 330/07KT
          VIS 3000M HZ=

TAF VVTS NIL=



    DUTY ASSISTANT                    DUTY OFFICER

0000088400
280
UKIN90 VICH 110000
TTBB 61028 42101
     00989 03600 11966 11860 22956 12060 33893 08857 44872 08661
     55803 03457 66769 01059 77759 00058 88725 03159 99685 04770
     11552 18969 22514 20177 33480 19380 44316 41371 55271 44571
     66250 49370 77220 52969 88196 52770 99178 57169 11168 57569
     22158 56370 33131 62769 44122 64569 55118 63769 66107 67168
     21212 00989 32003 11909 34510 22887 32507 33844 34511 44825
     33010 55803 35005 66784 05508 77763 03008 88743 06513 99716
     08507 11704 04015 22680 03008 33665 00510 44647 33509 55630
     03008 66598 04009 77582 34505 88567 35006 99553 16004 11538
     35504 22478 32038 33449 32559 44256 30085 55249 29574 66230
     30605 77186 28592 88168 28107 99119 28568 11107 26567 22102
     27570 31313 51708 80206 41414 9//// 51515 11888 32508 22800
     01005 33600 04009=

0000085300
281
UKIN90 VICH 110000
TTBB 61028 42101
     00989 03600 11966 11860 22956 12060 33893 08857 44872 08661
     55803 03457 66769 01059 77759 00058 88725 03159 99685 04770
     11552 18969 22514 20177 33480 19380 44316 41371 55271 44571
     66250 49370 77220 52969 88196 52770 99178 57169 11168 57569
     22158 56370 33131 62769 44122 64569 55118 63769 66107 67168
     21212 00989 32003 11909 34510 22887 32507 33844 34511 44825
     33010 55803 35005 66784 05508 77763 03008 88743 06513 99716
     08507 11704 04015 22680 03008 33665 00510 44647 33509 55630
     03008 66598 04009 77582 34505 88567 35006 99553 16004 11538
     35504 22478 32038 33449 32559 44256 30085 55249 29574 66230
     30605 77186 28592 88168 28107 99119 28568 11107 26567 22102
     27570 31313 51708 80206 41414 9//// 51515 11888 325//=

0000011100
282
UANT99 KDDL 110354
ARP DAL228 4735N03232W 0352 F330 MS50 212/47 KT
N1201P QXT AOW 110354 F55A
0000011000
283
UANT99 KDDL 110354
ARP AFR055 4719N04351W 0354 F400 MS56 297/52 KT
FHPJF QXT AOE 110354 J29A
0000010900
284
UANT99 KDDL 110354
ARP DAL66 4934N02516W 0354 F360 MS61 209/51 KT
N1602 QXT AOE 110355 F62A
0000014400
285
SAYE20 OYSC 102200 RRA
METAR OYTZ 102200Z 15003KT 6000 BKN015 16/13 Q1021=
METAR OYTZ 102300Z 13006KT 6000 BKN015 16/13 Q1020=
0000172500
286
FPTH01 VTBB 110300
FORECAST ISSUED AT 1100 LST ON 20140111
3 DAYS FORECAS

BANGKOK
12 21/32 COOL WITH MORNING MIST 
13 20/32 COOL AND WINDY
14 19/33 COOL AND WINDY 
        
MAE HONG SON
12 16/28 COOL IN THE MORNING   
13 15/29 COLD IN THE MORNING   
14 15/30 COLD IN THE MORNING   
      
CHIANG RAI
12 16/29 COOL IN THE MORNING
13 16/28 COOL IN THE MORNING
14 16/28 COOL IN THE MORNING 
CHIANG MAI
12 18/30 COOL IN THE MORNING
13 16/28 COOL IN THE MORNING
14 17/29 COOL IN THE MORNING
TAK
12 19/31 COOL IN THE MORNING
13 18/30 COOL IN THE MORNING
14 18/30 COOL IN THE MORNING
PHETCHABUN
12 18/31 COOL IN THE MORNING  
13 18/31 COOL IN THE MORNING   
14 17/31 COOL IN THE MORNING   
SUKHOTHAI 
12 20/31 COOL IN THE MORNING
13 19/30 COOL IN THE MORNING
14 19/31 COOL IN THE MORNING
KHON KAEN 
12 17/30 COOL IN THE MORNING
13 14/28 COLD IN THE MORNING
14 13/27 COLD IN THE MORNING
       
UBON RATCHATHANI 
12 17/32 COOL IN THE MORNING
13 15/29 COLD IN THE MORNING
14 14/28 COLD IN THE MORNING
NAKHON RATCHASIMA
12 18/31 COOL IN THE MORNING
13 15/28 COLD IN THE MORNING
14 14/28 COLD IN THE MORNING
KANCHANABURI 
12 19/32 COOL IN THE MORNING
13 18/33 COOL IN THE MORNING
14 17/32 COOL IN THE MORNING
PATTAYA 
12 23/31 WINDY 
13 22/31 COOL AND WINDY  
14 21/30 COOL AND WINDY  
HUA HIN 
12 23/30 MORNING MIST 
13 19/30 COOL IN THE MORNING     
14 20/30 COOL IN THE MORNING  
KO SAMUI
12 24/30 COOL IN THE MORNING
13 24/30 COOL IN THE MORNING
14 24/30 COOL IN THE MORNING
SONGKHLA
12 24/30 THUNDERSHOWERS 
13 24/30 THUNDERSHOWERS
14 24/31 THUNDERSHOWERS
PHUKET
12 24/32 THUNDERSHOWERS 
13 22/32 THUNDERSHOWERS 
14 22/32 THUNDERSHOWERS   
NNNN
0000010500
287
SASY31 OSDI 110400
OSDI 110400Z 00000KT 0100 FG FEW030 M00/M00 Q1022=
OSLK 110400Z NIL=
0000020300
288
SOBR10 KWAL 110356
BAB00078 011035611":BUB 2 #1       M   0.449   0.469   0.489 :RAD 1 #1   0.363   0.343   0.362   0.340 :PRS 1 #1  -0.816  -0.816  -0.813  -0.807 :BL 11.37  32+0NP 219E
0000018400
289
SIVE20 VHHH 110300 RRA
BBXX
AMOHK02 11014 99012 11039 46/// ///// 40131=
AMOHK02 11024 99012 11039 46/// ///// 40130=
AMOHK02 11034 99013 11038 46/// ///// 40123=
0000009800
290
SAAU31 AMMC 110300 RRA
METAR YPXM 110300Z AUTO 18005KT 9999 // SCT024 28/22 Q1013=
0000215900
291
SZNZ01 NZKL 110357
CREX++
T000103 A001 D01021 D06025++
-3683144 17478654 AUCT  2014 01 11 03 49 //// 11 07 00 01
06068 3207 06067 3207 06067 3209 06066 3208 06064 3208 06063 3209+
-4402404 -17636748 CHIT  2014 01 11 03 49 //// 11 07 00 01
05020 2092 05029 2105 05015 2096 05007 2091 04997 2085 04992 2085+
-4089929 17623168 CPIT  2014 01 11 03 49 //// 11 07 00 01
04119 2276 04105 2267 04103 2269 04112 2283 04093 2269 04110 2291+
-3618905 17548887 GBIT  2014 01 11 03 49 //// 11 07 00 01
06410 0044 06407 0043 06412 0049 06406 0045 06402 0043 06396 0039+
-3867541 17802288 GIST  2014 01 11 03 49 //// 11 07 00 01
04392 2732 04362 2707 04387 2736 04375 2728 04384 2741 04370 2732+
-4241288 17370277 KAIT  2014 01 11 03 49 //// 11 07 00 01
03390 2165 03391 2171 03376 2161 03379 2169 03364 2159 03367 2168+
-3755040 17815904 LOTT  2014 01 11 03 49 //// 11 07 00 01
04004 0224 03997 0219 03985 0210 03987 0215 03986 0217 03989 0223+
-3704657 17451175 MNKT  2014 01 11 03 49 //// 11 07 00 01
02792 -0170 02802 -0167 02808 -0168 02816 -0166 02820 -0168 02819 -0175+
-3947566 17692007 NAPT  2014 01 11 03 49 //// 11 07 00 01
03343 2037 03334 2033 03322 2026 03305 2013 03319 2031 03329 2046+
-3441483 17304870 NCPT  2014 01 11 03 49 //// 11 07 00 01
02474 -2532 02412 -2595 02501 -2506 02503 -2505 02610 -2398 02538 -2470+
-4581435 17062939 OTAT  2014 01 11 03 49 //// 11 07 00 01
04322 3419 04321 3424 04315 3424 04308 3423 04302 3424 04289 3417+
-2928002 -17789440 RBCT  2014 01 11 03 49 //// 11 07 00 01
06460 2032 06465 2039 06458 2034 06451 2028 06452 2030 06471 2051+
-2925114 -17790384 RFRT  2014 01 11 03 49 //// 11 07 00 01
03406 0217 03395 0208 03398 0213 03407 0223 03394 0212 03382 0201+
-4357010 17277383 SUMT  2014 01 11 03 49 //// 11 07 00 01
02089 1893 02089 1900 02074 1892 02051 1876 02052 1884 02051 1889+
-3764109 17618118 TAUT  2014 01 11 03 49 //// 11 07 00 01
05659 3986 05656 3985 05654 3984 05653 3985 05650 3983 05650 3985+
-4128448 17477985 WLGT  2014 01 11 03 49 //// 11 07 00 01
03251 2046 03247 2045 03245 2048 03240 2047 03237 2048 03235 2050++
7777
0000025200
292
SAYE20 OYSC 110000 RRA
METAR OYTZ 110000Z 13004KT 6000 BKN015 15/12 Q1020=
METAR OYTZ 110100Z 07003KT 7000 BKN015 15/12 Q1020=
METAR OYTZ 110200Z 00000KT 7000 BKN015 15/12 Q1020=
METAR OYTZ 110300Z 07004KT 7000 BKN015 15/12 Q1020=
00000000