0000171000
773
SAUS71 KWBC 102300 RRC
METAR
KNKT 102254Z AUTO 12006KT 10SM SCT036 BKN110 17/13 A3024=
KOQU 102250Z 30003KT 1SM BR BKN015 OVC040 01/01 A3037=
KORF 102251Z AUTO 35003KT 3SM BR OVC080 06/04 A3029=
KORH 102254Z 23007KT 6SM BR OVC003 01/01 A3031=
KPHF 102254Z AUTO 09004KT 3SM BR FEW036 SCT049 OVC070 07/04
     A3028=
KPHL 102254Z 05005KT 3/4SM R09R/5500V6000FT -RA BR BKN004 OVC007
     02/01 A3033=
KPIT 102251Z 13006KT 10SM OVC011 07/05 A3007=
KPKB 102253Z 00000KT 10SM CLR 09/07 A3007=
KPLB NIL=
KPOU 102253Z 00000KT 7SM BKN018 OVC080 00/M02 A3033=
KPQI 102255Z AUTO 18004KT 10SM CLR M09/M17 A3024=
KPSM 102258Z 15004KT 6SM BR FEW018 OVC090 M02/M02 A3033=
KPVD 102251Z 00000KT 1 1/4SM -DZ BR OVC006 01/00 A3037=
KPWM 102251Z 22003KT 10SM FEW070 BKN100 M02/M04 A3034=
KRDG 102254Z 00000KT 3SM HZ OVC009 01/M02 A3030=
KRDU 102251Z 33003KT 1SM -RA BR OVC003 07/06 A3021=
KRIC 102254Z 08004KT 2 1/2SM -RA BR OVC003 04/03 A3025=
KROA 102254Z 00000KT 1SM BR OVC003 03/03 A3023=
KROC 102254Z 14004KT 10SM BKN024 OVC029 03/M01 A3013=
KRWI 102253Z AUTO 00000KT 4SM -RA BR FEW005 BKN075 OVC090 10/09
     A3023=
KSAV 102253Z 13005KT 2SM BR BKN006 OVC009 19/18 A3012=
KSBY 102254Z 11004KT 2SM -RA BR BKN049 OVC070 07/06 A3029=
KSCH NIL=
KSLK 102251Z AUTO 23008KT 7SM OVC060 M02/M04 A3015=
KSWF NIL=
KSYR 102254Z 10006KT 10SM OVC060 02/M01 A3019=
KTEB 102251Z 02003KT 1 1/2SM BR OVC003 02/M01 A3034=
KTOL 102252Z 14006KT 7SM OVC004 03/02 A2991=
KTTN 102253Z 00000KT 1 1/2SM BR OVC004 01/00 A3032=
KUCA NIL=
KWRI 102258Z AUTO 02002KT 3/4SM R06/1600FT -RA BR VV003 02/02
     A3030=
KYNG 102251Z 13007KT 1/4SM FG OVC002 04/03 A3006=

0000166700
774
SAUS72 KWBC 102300
METAR
KABI 102252Z 27013G22KT 10SM CLR 21/M09 A2973=
KABQ 102252Z 30027G41KT 10SM FEW070 FEW120 13/M12 A2985=
KABY 102253Z 05004KT 5SM BR OVC004 15/14 A3009=
KACT 102251Z 19009KT 10SM CLR 20/16 A2972=
KAEX 102253Z 18008KT 10SM BKN020 OVC037 19/17 A2984=
KAFW 102253Z 22009KT 10SM FEW035 SCT220 19/11 A2968=
KAHN 102251Z 06005KT 1SM BR OVC003 08/07 A3012=
KALI 102253Z AUTO 29008KT 10SM CLR 26/14 A2981=
KAMA 102253Z 33007KT 10SM FEW110 12/M12 A2975=
KANB 102253Z AUTO 05006KT 4SM BR OVC011 11/09 A3004=
KAPF 102253Z 11004KT 10SM CLR 25/22 A3006=
KATL 102252Z 09007KT 1/4SM R09R/P6000FT -DZ BR OVC002 09/08
     A3008=
KAUS 102253Z 21010G18KT 10SM FEW020 BKN150 BKN200 21/16 A2978=
KBFM 102253Z 00000KT 10SM -RA OVC008 15/13 A3000=
KBHM 102253Z 09004KT 8SM BKN007 BKN030 OVC045 11/09 A3003=
KBNA 102253Z 18012G23KT 10SM BKN017 OVC026 12/08 A2994=
KBPT 102253Z 16014KT 1SM R12/P6000FT -RA BR BKN012 OVC048 18/17
     A2985=
KBQK 102255Z AUTO 12005KT 7SM BKN003 19/18 A3011=
KBRO 102253Z 18014G23KT 10SM CLR 24/18 A2984=
KBTR 102253Z 13009KT 7SM -RA BKN016 BKN026 OVC035 17/15 A2993=
KCEW 102253Z AUTO 08003KT 1/4SM FG VV002 16/15 A3004=
KCHA 102253Z 00000KT 3/4SM -RA BR BKN004 OVC007 08/07 A3006=
KCLL 102253Z 20008KT 10SM FEW015 19/18 A2977=
KCNM 102253Z AUTO 25024G28KT 10SM CLR 19/M12 A2980=
KCRP 102251Z 15009KT 10SM FEW039 SCT050 23/20 A2981=
KCSG 102251Z 09005KT 3/4SM BR OVC003 11/11 A3007=
KCSV 102253Z AUTO VRB06KT 10SM OVC002 09/08 A3000=
KDAB 102253Z 10003KT 10SM FEW020 SCT070 SCT250 22/19 A3009=
KDAL 102253Z 23005KT 10SM FEW045 SCT100 SCT220 21/14 A2967=

0000168800
775
SAUS72 KWBC 102300 RRA
METAR
KDFW 102253Z 24012G20KT 10SM FEW035 SCT200 BKN250 21/12 A2967=
KDHN 102253Z COR 11004KT 1/8SM FG VV002 14/14 A3009=
KDHN 102253Z 11004KT 1/4SM FG VV002 14/14 A3009=
KDLF 102258Z AUTO 00000KT 10SM CLR 19/10 A2984=
KDMN 102253Z AUTO 27017G26KT 10SM CLR 15/M09 A2998=
KELP 102251Z 27020G30KT 10SM CLR 17/M09 A2993=
KESF 102253Z AUTO 19005KT 6SM BR OVC012 18/17 A2986=
KEYW 102253Z 11007KT 10SM FEW020 24/22 A3005=
KFLL 102253Z 13011KT 10SM SCT023 SCT200 24/22 A3008=
KFSM 102253Z 03005KT 1/4SM R25/3000VP6000FT FG BKN001 BKN090 10/09
     A2963=
KFTW 102253Z 24008KT 10SM CLR 20/11 A2968=
KFTY 102253Z 09005KT 1 1/2SM BR OVC003 09/09 A3008=
KGGG 102253Z 18009KT 4SM -RA BR FEW008 OVC015 17/16 A2973=
KGLS 102252Z 16012KT 2 1/2SM -RA BR BKN013 BKN019 OVC027 17/17
     A2984=
KGNV 102253Z 00000KT 10SM BKN050 22/19 A3007=
KGPT 102253Z 13009KT 1/2SM FG VV002 16/14 A2997=
KGUP 102253Z AUTO 29011KT 10SM CLR 10/M11 A3004=
KGWO 102253Z AUTO 16010KT 10SM SCT060 15/11 A2987=
KHOT 102253Z AUTO 00000KT 5SM -RA BR OVC008 14/13 A2974=
KHOU 102253Z 18011KT 10SM FEW018 BKN037 BKN070 21/18 A2981=
KHRL 102252Z 19014KT 10SM CLR 25/18 A2982=
KHRO 102253Z AUTO 16013KT 9SM -RA BKN070 OVC090 09/09 A2962=
KHSV 102253Z COR 13004KT 10SM SCT013 OVC030 11/08 A2999=
KHSV 102253Z 13004KT 10SM SCT013 OVC030 11/08 A2999=
KIAH 102253Z 19008G15KT 10SM BKN015 OVC030 20/18 A2981=
KINK 102253Z AUTO 27018G26KT 10SM -RA CLR 21/M11 A2980=
KJAN 102254Z 17008KT 10SM FEW015 BKN047 16/12 A2992=
KJAX 102256Z 00000KT 10SM FEW030 FEW055 SCT250 22/19 A3008=
KJBR 102253Z AUTO 19006KT 3SM RA BR OVC021 09/08 A2976=

0000171100
776
SAUS72 KWBC 102300 RRB
METAR
KLBB 102253Z 27020G23KT 10SM FEW270 16/M09 A2973=
KLCH 102253Z 17011KT 10SM FEW024 BKN039 OVC048 18/17 A2987=
KLFT 102253Z AUTO 17009KT 5SM -RA BR BKN008 BKN034 OVC060 19/18
     A2991=
KLIT 102253Z 18008KT 2 1/2SM RA BR OVC003 12/11 A2974=
KLRD 102256Z 00000KT 10SM CLR 24/13 A2986=
KLRU 102255Z AUTO 25020G26KT 10SM CLR 15/M09 A2997=
KMAF 102253Z 25018G23KT 10SM CLR 20/M07 A2980=
KMCN 102253Z 08003KT 1SM BR OVC002 11/11 A3011=
KMCO 102253Z 14005KT 10SM FEW050 SCT200 BKN250 23/19 A3008=
KMEI 102258Z 00000KT 10SM OVC006 13/12 A2997=
KMEM 102254Z 14016G21KT 10SM FEW030 BKN055 BKN120 OVC180 12/08
     A2978=
KMFE 102253Z 26004KT 10SM CLR 27/16 A2983=
KMGM 102253Z 08005KT 1SM BR OVC004 12/11 A3004=
KMIA 102253Z 11007KT 10SM SCT018 SCT050 SCT210 BKN300 25/22
     A3008=
KMKL 102253Z 16009G19KT 10SM BKN012 BKN120 11/08 A2984=
KMLB 102253Z 15004KT 10SM BKN032 BKN045 23/22 A3009=
KMLC 102253Z AUTO 22009KT 10SM CLR 16/13 A2963=
KMLU 102253Z 19007KT 1 1/2SM -RA BR FEW007 BKN024 OVC030 16/16
     A2985=
KMOB 102256Z 12008KT 10SM OVC007 16/15 A2999=
KMSL 102253Z AUTO 15006KT 9SM FEW014 OVC030 12/08 A2997=
KMSY 102253Z 13006KT 6SM BR OVC005 17/16 A2995=
KNEW 102253Z AUTO 12008KT 1/4SM FG VV002 14/13 A2996=
KNGP 102256Z 17013KT 10SM FEW045 SCT250 21/18 A2981=
KOKC 102252Z 31009KT 10SM FEW030 SCT250 13/M01 A2970=
KPBI 102253Z 13010KT 10SM FEW022 BKN200 25/21 A3008=
KPDK 102253Z 00000KT 1 1/2SM BR OVC003 08/07 A3009=
KPFN NIL=
KPIE 102253Z 19007KT 10SM SCT023 23/20 A3007=
KPNS 102253Z 00000KT 1/4SM R17/2200V2400FT FG VV002 16/15
     A3001=
KROW 102251Z 30018KT 10SM CLR 19/M13 A2980=

0000150900
777
SAUS72 KWBC 102300 RRC
METAR
KRSW 102253Z 12003KT 10SM SCT041 BKN050 OVC065 25/20 A3007=
KSAT 102251Z 24006KT 10SM BKN200 22/14 A2982=
KSFB 102253Z 18003KT 10SM CLR 24/18 A3008=
KSHV 102256Z 18013KT 10SM SCT017 BKN032 OVC065 18/14 A2975=
KSJT 102251Z 26017G25KT 10SM CLR 22/M07 A2976=
KSRQ 102253Z 21007KT 10SM BKN049 24/19 A3006=
KSSI 102253Z AUTO 12009KT 3/4SM BR OVC002 17/17 A3010=
KTCC 102253Z AUTO 32016KT 10SM FEW120 13/M12 A2973=
KTCL 102253Z 14004KT 10SM OVC013 13/10 A3000=
KTCS 102253Z AUTO 19004KT 10SM CLR 16/M12 A2992=
KTLH 102253Z 15004KT 1SM -DZ BR OVC003 20/18 A3007=
KTPA 102253Z 22003KT 10SM SCT050 BKN210 22/19 A3007=
KTRI 102253Z 00000KT 10SM FEW150 BKN200 10/07 A3004=
KTUL 102253Z 28017KT 10SM FEW050 FEW180 12/01 A2963=
KTUP 102253Z 18005KT 10SM OVC005 11/ A2993=
KTXK 102253Z 17006KT 4SM BR SCT065 SCT080 OVC100 15/14 A2972=
KTYR 102253Z 18013KT 10SM FEW006 SCT010 OVC014 17/16 A2973=
KTYS 102253Z 08003KT 10SM BKN042 BKN048 OVC250 10/07 A3002=
KVCT 102251Z 19007KT 10SM FEW060 23/19 A2982=
KVLD 102253Z 00000KT 10SM SCT030 BKN046 22/19 A3008=
KVRB 102253Z AUTO 15006KT 10SM CLR 23/21 A3010=
TIST 102253Z AUTO 09015G21KT 10SM FEW035 26/19 A3005=
TISX 102253Z 07005KT 10SM OVC060 24/20 A3005=
TJBQ 102250Z 10015KT 10SM SCT030 26/ A3006=
TJMZ NIL=
TJPS 102250Z 09005KT 10SM FEW030 SCT050 26/19 A3002=
TJSJ 102256Z 08010KT 10SM FEW023 SCT055 26/22 A3006=
TKPK 102300Z 07017KT 9999 SCT021 25/19 Q1017=
TNCM NIL=

0000011800
778
SACN62 CYYF 102300
METAR CYYF 102300Z 00000KT 15SM BKN080 OVC120 03/M01 A2987 RMK AC5AC3
 SLP128=

0000011900
779
SACN62 CYYG 102300
METAR CYYG 102300Z 20007KT 15SM SCT020 BKN031 M04/M07 A3030 RMK
 SC3SC4 SLP265=

0000010600
780
SACN62 CYYT 102300
METAR CYYT 102300Z 26013KT 15SM FEW030 M07/M10 A3016 RMK SC2 SLP225=

0000010600
781
SACN62 CYYY 102300
METAR CYYY 102300Z 21012KT 30SM SCT100 M06/M13 A3015 RMK AC3 SLP215=

0000012500
782
SACN62 CYZF 102300
METAR CYZF 102300Z 31004KT 4SM -SN BR BKN055 OVC240 M23/M26 A2950 RMK
 SC7CI1 SLP019=

0000012700
783
SACN62 CYYJ 102300
METAR CYYJ 102300Z 13008KT 30SM FEW035 BKN048 OVC070 08/06 A2994 RMK
 SC2SC4AC2 SLP138=

0000010600
784
SACN62 CYYZ 102300
METAR CYYZ 102300Z 14006KT 4SM BR OVC009 01/01 A3007 RMK ST8 SLP193=

0000014000
785
SACN62 CYZT 102300
METAR CYZT 102300Z 11017G22KT 8SM -RA SCT011 BKN016 OVC024 05/04
 A2970 RMK SF3SC3SC2 PRESFR SLP057=

0000112100
786
FTCI41 ZBBB 102300
TAF ZBHH 101922Z 1100/1124 23004MPS CAVOK TXM07/07Z TNM20/22Z=
TAF AMD ZGHA 102101Z 1100/1124 35004MPS 1700 BR -RA BKN007 OVC050
TX07/1106Z TN02/1122Z BECMG 1101/1102 3500=
TAF ZHCC 101916Z 1100/1124 36004MPS 1000 BR NSC TX06/1107Z
TNM03/23Z BECMG 1101/1102 2000 HZ=
TAF ZHHH 101941Z 1100/1124 03004MPS 1600 -RA BR FEW009 SCT011
BKN040 TX08/1107Z TNM01/21Z=
TAF ZJHK 101911Z 1100/1124 09004MPS 6000 SCT015 BKN033 TX23/1107Z
TN16/1121Z BECMG 1114/1115 2000 BR TEMPO 1118/1124 0600 FG=
TAF ZJSY 102130Z 1100/1124 08006MPS 9999 BKN050 TX26/1106Z
TN20/22Z=
TAF ZLLL 101935Z 1100/1124 35003MPS 5000 FU NSC TXM02/08Z
TNM18/23Z=
TAF ZSNJ 101949Z 1100/1124 09004MPS 3000 -RA BR SCT020 TX06/1106Z
TN01/22Z=
TAF ZSOF 101901Z 1100/1124 08004MPS 2500 BR NSC TX06/1107Z
 TN01/1123Z
BECMG 1101/1102 3500 HZ=
TAF AMD ZUCK 102216Z 1100/1124 18002MPS 3100 BR SCT030 TX07/1106Z
TN05/1122Z BECMG 1118/1119 2000 -RA BR=
TAF ZYCC 102141Z 1100/1124 24004MPS 4000 BR NSC TXM10/06Z
TNM25/22Z=
TAF ZYHB 101908Z 1100/1124 28005MPS 3000 BR NSC TXM15/06Z
TNM30/21Z=

0000166000
787
SAUS73 KWBC 102300
METAR
KABR 102253Z AUTO 00000KT 10SM CLR M01/M06 A2952=
KALN NIL=
KALO 102254Z AUTO 00000KT 1SM R12/6000VP6000FT BR OVC004 00/00
     A2955=
KAPN 102254Z AUTO 15008KT 8SM OVC009 M01/M02 A2989=
KASE 102253Z 36009KT 2 1/2SM -SN BR OVC034 M06/M08 A2987=
KATY 102253Z AUTO 00000KT 8SM CLR M04/M06 A2950=
KAXN 102253Z AUTO 18006KT 3/4SM BR OVC002 M02/M02 A2950=
KAZO 102253Z 25008KT 1 1/2SM RA BR OVC006 03/02 A2984=
KBDE 102253Z AUTO 18008KT 5SM BR OVC011 M03/M06 A2944=
KBFF 102253Z AUTO 33015G21KT 10SM BKN090 04/M08 A2966=
KBIS 102252Z 25006KT 10SM CLR M01/M07 A2948=
KBJC 102253Z 28015G20KT 75SM SCT070 BKN120 02/M09 A2974=
KBKF 102255Z 29019G25KT 70SM FEW100 FEW200 03/M10 A2972=
KBRL 102253Z AUTO 18013KT 8SM OVC004 04/04 A2955=
KBTL 102253Z 16012KT 4SM BR OVC006 03/02 A2981=
KCGI 102253Z AUTO 15017G24KT 4SM RA BR FEW034 BKN060 OVC080 07/06
     A2975=
KCID 102252Z 15005KT 3/4SM -RA BR OVC002 01/01 A2953=
KCIU 102255Z AUTO 14013KT 5SM OVC006 M02/M02 A2985=
KCMI 102253Z 16019G26KT 1 3/4SM -RA BR OVC003 04/04 A2972=
KCMX 102253Z AUTO 14007KT 9SM BKN018 OVC026 M02/M06 A2965=
KCOS 102254Z 30022G26KT 10SM SCT090 04/M14 A2972=
KCOU 102254Z 16011KT 10SM OVC007 07/06 A2957=
KCPR 102253Z 28006KT 10SM CLR M01/M08 A2969=
KCYS 102253Z 30020G34KT 10SM CLR 01/M10 A2967=
KDDC 102252Z AUTO 31022G28KT 10SM CLR 06/M03 A2966=
KDEC 102254Z 16017G25KT 7SM -RA OVC005 04/04 A2969=
KDEN 102253Z 31014KT 10SM FEW070 SCT150 SCT220 04/M09 A2972=
KDET 102253Z 16008KT 6SM BR OVC005 04/02 A2995=
KDLH 102255Z 17007KT 3/4SM R09/P6000FT -FZDZSN BR OVC002 M04/M06
     A2954=

0000171100
788
SAUS73 KWBC 102300 RRA
METAR
KDSM 102254Z 35004KT 1SM R31/P6000FT -DZ BR OVC002 01/00 A2954=
KDTW 102253Z 14006KT 5SM BR OVC006 03/02 A2995=
KEAU 102256Z 12006KT 2 1/2SM BR OVC005 M02/M03 A2960=
KEGE 102255Z 25015G21KT 10SM VCSH FEW045 BKN060 M02/M05 A2991=
KELO 102253Z AUTO 17006KT 4SM -SN OVC009 M05/M06 A2951=
KEVV 102254Z 14006KT 7SM -RA OVC012 08/07 A2987=
KFAR 102253Z 19008KT 7SM CLR M03/M06 A2947=
KFNT 102253Z 17011KT 4SM BR OVC006 03/01 A2990=
KFSD 102256Z 00000KT 5SM BR SCT009 OVC250 M01/M02 A2953=
KFWA 102254Z 15005KT 2 1/2SM -RA BR OVC005 03/02 A2986=
KGCK 102254Z 33017G23KT 10SM BKN070 06/M04 A2967=
KGFK 102253Z 19006KT 6SM BR FEW250 M05/M07 A2939=
KGJT 102253Z 08003KT 10SM OVC080 M01/M04 A2998=
KGRB 102253Z 14010KT 3SM BR OVC006 01/00 A2969=
KGRI 102253Z 32004KT 10SM BKN070 BKN100 03/M01 A2955=
KGRR 102253Z 14011KT 1SM R26L/P6000FT -RA BR OVC004 03/02
     A2981=
KGYY NIL=
KHIB 102253Z AUTO 17005KT 5SM BR OVC005 M04/M06 A2951=
KHON 102255Z AUTO 28005KT 10SM CLR 00/M04 A2954=
KHUF 102253Z 16010KT 2 1/2SM -RA BR OVC006 05/05 A2983=
KHUT 102252Z 31007KT 10SM CLR 07/M01 A2960=
KICT 102253Z 28008KT 10SM FEW150 08/00 A2961=
KIKK 102255Z AUTO 16014G21KT 4SM RA OVC004 04/03 A2972=
KIND 102254Z 15007KT 1 1/2SM R05L/6000VP6000FT -RA BR BKN003
     BKN008 OVC042 03/03 A2984=
KINL 102255Z AUTO 16005KT 2 1/2SM BR OVC004 M05/M06 A2948=
KIRK 102255Z AUTO 21004KT 1/4SM FG VV003 04/04 A2953=
KJAC NIL=
KJLN 102253Z 23009KT 10SM FEW036 OVC055 12/09 A2957=
KJMS 102256Z AUTO 26010KT 10SM CLR M01/M06 A2943=
KJXN 102256Z 15011KT 2 1/2SM BR OVC003 02/02 A2986=
KLAN 102253Z 15012KT 4SM -RA BR OVC006 02/01 A2985=

0000171300
789
SAUS73 KWBC 102300 RRB
METAR
KLAR 102253Z AUTO 29019G26KT 10SM OVC090 M03/M09 A2969=
KLBF 102253Z AUTO 25004KT 10SM BKN095 04/01 A2961=
KLBL 102255Z AUTO 32016G22KT 10SM CLR 09/M12 A2971=
KLEX 102254Z 13008KT 10SM FEW032 11/07 A2993=
KLNK 102254Z 27003KT 6SM BR OVC019 01/00 A2957=
KLOU 102253Z 13005KT 10SM OVC017 11/08 A2989=
KLOZ 102253Z AUTO 16003KT 10SM CLR 12/08 A2997=
KLSE 102253Z 08004KT 1 1/2SM -FZRA BR OVC010 00/M02 A2959=
KMBS 102253Z 13005KT 4SM -RA BR OVC009 02/00 A2989=
KMCI 102253Z 24005KT 2SM -DZ BR OVC005 04/04 A2954=
KMDW 102251Z 16013G18KT 1 3/4SM RA BR BKN006 OVC013 03/03
     A2969=
KMHK 102252Z 26004KT 7SM BKN021 OVC035 03/02 A2958=
KMKC 102254Z 24003KT 10SM FEW021 BKN029 OVC035 06/04 A2954=
KMKE 102252Z 16015KT 2SM FZRA BR OVC005 01/01 A2968=
KMKG 102255Z 14012KT 1SM R32/P6000FT RA BR OVC006 02/01 A2978=
KMLI 102252Z 14005KT 9SM -RA OVC008 03/02 A2957=
KMOT 102254Z 28015KT 10SM FEW017 M01/M06 A2943=
KMSN 102253Z 14008KT 3SM -FZRA BR OVC005 01/01 A2961=
KMSP 102253Z 16005KT 5SM BR OVC006 M01/M02 A2957=
KOFF 102258Z 28003KT 6SM OVC017 01/01 A2956=
KOMA 102252Z 00000KT 3SM -SN BR BKN011 OVC021 01/M01 A2957=
KORD 102251Z 16014KT 4SM -RA BR OVC007 03/01 A2966=
KOSH 102253Z 12010KT 3SM -FZRA BR OVC004 01/M01 A2964=
KOTM 102253Z AUTO 19005KT 1 3/4SM BR OVC003 02/01 A2952=
KOWB 102256Z 16005KT 7SM OVC014 07/07 A2989=
KPAH 102253Z 15013KT 9SM FEW065 OVC090 09/07 A2979=
KPIA 102254Z 17012KT 4SM RA BR OVC004 04/03 A2964=
KPIR 102253Z AUTO 25010KT 10SM CLR 02/M05 A2956=
KPLN 102254Z AUTO 14008KT 6SM BR OVC009 M02/M03 A2984=
KPTK 102253Z 15007KT 3/4SM R09R/5500VP6000FT BR VV002 01/01
     A2991=

0000128200
790
SAUS73 KWBC 102300 RRC
METAR
KPUB 102253Z AUTO 29022G29KT 10SM FEW100 08/M13 A2973=
KRAP 102252Z 32003KT 10SM FEW110 04/M07 A2957=
KRFD 102254Z 15012KT 4SM RA BR BKN006 BKN012 OVC018 02/01
     A2964=
KRKS 102254Z AUTO 29029G38KT 10SM BKN026 BKN034 M01/M06 A2987=
KRST 102254Z 13006KT 1/2SM R31/4500V5500FT -SN OVC002 M01/M02
     A2956=
KSAW NIL=
KSBN 102254Z 15011KT 1SM +RA BR BKN006 BKN014 OVC032 03/02
     A2980=
KSDF 102256Z 15006KT 10SM OVC017 11/08 A2989=
KSDM 102253Z 27005KT 9SM CLR 20/07 A3004=
KSGF 102252Z 16013KT 10SM FEW030 FEW070 BKN090 09/08 A2958=
KSLN 102253Z 29005KT 9SM BKN025 OVC032 03/01 A2959=
KSPI 102252Z 17013G21KT 8SM -RA OVC006 05/05 A2966=
KSTC 102253Z 18007KT 1 1/4SM BR OVC003 M03/M03 A2954=
KSTJ 102253Z 26006KT 4SM BR OVC004 03/02 A2956=
KSTL 102251Z 17010KT 3SM -RA BR FEW005 SCT028 OVC065 08/06
     A2968=
KSTP 102253Z 14004KT 5SM BR OVC006 M01/M02 A2959=
KSUS 102254Z 16011G18KT 5SM -RA BR BKN017 OVC055 08/07 A2963=
KSUX 102252Z 00000KT 2SM BR OVC008 01/M01 A2955=
KTVC 102253Z VRB05KT 3SM BR OVC007 M01/M02 A2979=
KUIN 102254Z AUTO 18013G20KT 10SM OVC007 06/05 A2956=
KWRL 102253Z AUTO 02003KT 10SM CLR M02/M07 A2971=
KYIP 102253Z AUTO 14006KT 4SM HZ OVC006 04/01 A2993=

0000169700
791
SAUS74 KWBC 102300
METAR
KACV 102253Z AUTO 00000KT 1SM R32/4000VP6000FT BR OVC002 10/09
     A3021=
KALW 102253Z 19011KT 10SM OVC090 09/01 A3002=
KBFI 102253Z 17007KT 10SM FEW021 OVC080 10/06 A3001=
KBFL 102254Z 00000KT 9SM CLR 17/05 A3020=
KBIL 102253Z 29017KT 10SM FEW095 SCT120 05/M04 A2963=
KBKE 102253Z AUTO 06007KT 10SM OVC050 03/M01 A3005=
KBLI 102253Z 15006KT 5SM -RA BKN027 BKN032 OVC055 08/05 A2996=
KBOI 102253Z 30004KT 10SM OVC070 05/M01 A3012=
KBTM 102253Z AUTO 25010KT 10SM OVC055 02/M08 A2978=
KBUR 102253Z 18006KT 10SM CLR 23/06 A3003=
KBYI 102253Z AUTO 26016G24KT 10SM CLR 06/M01 A3001=
KBZN 102256Z 26018KT 10SM SCT070 04/M07 A2975=
KCDC 102253Z AUTO 00000KT 10SM CLR 09/M05 A3008=
KCEC 102256Z AUTO 15009KT 8SM OVC004 10/09 A3021=
KCLM 102253Z AUTO 00000KT 10SM -RA SCT012 BKN018 OVC040 08/06
     A2994=
KCTB 102256Z AUTO 27016KT 10SM CLR 02/M04 A2960=
KCXL NIL=
KEKO 102256Z AUTO 23011G19KT 10SM FEW070 07/M03 A3014=
KEUG 102254Z 19010KT 10SM FEW020 BKN060 OVC085 11/08 A3010=
KFAT 102253Z VRB04KT 4SM HZ BKN200 16/06 A3021=
KFLG 102257Z VRB04KT 10SM CLR 09/M08 A3012=
KGCN 102254Z AUTO 30007KT 10SM CLR 09/M07 A3011=
KGEG 102253Z 23019KT 10SM FEW020 BKN130 BKN200 04/M01 A2988=
KGGW 102253Z AUTO 28004KT 10SM CLR M02/M07 A2952=
KGTF 102253Z 26017G23KT 10SM CLR 04/M04 A2963=
KHLN 102253Z 27018G27KT 10SM OVC060 06/M06 A2974=
KHQM 102253Z AUTO 17011KT 2 1/2SM -RA BKN012 BKN017 OVC038
     A2997=
KIDA 102253Z 21018KT 10SM SCT065 02/M02 A2992=
KIWA 102252Z 31004KT 35SM FEW250 17/M03 A3007=
KLAS 102256Z 13005KT 10SM SCT250 16/M03 A3002=
KLAX 102253Z 26006KT 8SM FEW160 SCT250 17/11 A3004=

0000170600
792
SAUS74 KWBC 102300 RRA
METAR
KLGB 102253Z 18006KT 5SM HZ CLR 18/09 A3003=
KLMT 102253Z 07003KT 10SM OVC039 07/M01 A3017=
KLVM 102253Z AUTO 25021G33KT 10SM CLR 04/M08 A2968=
KMFR 102253Z 00000KT 9SM BKN012 BKN065 BKN080 08/05 A3019=
KMLS 102253Z AUTO 26009KT 10SM BKN065 OVC080 03/M02 A2956=
KMRY 102254Z 30003KT 10SM CLR 14/09 A3018=
KMSO 102253Z 03005KT 10SM FEW044 OVC060 03/00 A2989=
KMYV 102253Z AUTO 34004KT 10SM CLR 17/05 A3019=
KNTD 102254Z AUTO 15010KT 7SM SCT220 19/13 A3002=
KOAK 102253Z 28004KT 10SM SCT250 14/08 A3020=
KOGD 102253Z 22008KT 10SM OVC095 04/M03 A3005=
KOLM 102254Z 17004KT 6SM -RA BR FEW011 BKN050 OVC060 08/07
     A3000=
KONT 102253Z 24004KT 8SM FEW250 23/03 A3003=
KOTH 102255Z 18007KT 10SM OVC034 12/10 A3013=
KPAE 102253Z 18014G20KT 10SM BKN014 OVC060 08/05 A2998=
KPDX 102253Z 18010KT 10SM -RA FEW021 BKN070 OVC080 11/07 A3005=
KPHX 102251Z VRB04KT 10SM SCT250 19/M04 A3003=
KPIH 102253Z 23020G27KT 10SM SCT033 04/M02 A2997=
KPMD 102253Z AUTO 01005KT 10SM CLR 21/M01 A3008=
KPRB 102253Z AUTO VRB06KT 10SM CLR 19/02 A3016=
KPRC 102253Z 34011KT 10SM CLR 15/M07 A3008=
KPSP 102253Z 09006KT 10SM SCT200 23/M04 A3004=
KRBL 102254Z AUTO 02003KT 10SM CLR 17/03 A3020=
KRDD 102253Z 00000KT 10SM CLR 17/04 A3019=
KRDM 102256Z 11005KT 10SM OVC049 07/M04 A3007=
KRNO 102255Z 04004KT 10SM FEW080 FEW180 OVC250 13/M01 A3022=
KRNT 102253Z 17006KT 10SM OVC024 09/06 A3001=
KSAC 102253Z 32003KT 10SM CLR 16/06 A3019=
KSAN 102251Z 29007KT 8SM SCT250 19/08 A3006=
KSBA 102253Z 13006KT 10SM CLR 18/11 A3002=
KSBD NIL=
KSBP 102256Z 34011G18KT 10SM CLR 23/03 A3009=
KSCK 102255Z 30005KT 10SM CLR 16/07 A3018=

00000000