0000035100
433
FTLJ31 LJLJ 102000
TAF LJLJ 102000Z 1021/1121 28003KT 9999 BKN035 TEMPO 1021/1109
7000 OVC017 PROB40 TEMPO 1100/1108 3500 BCFG BR SCT001 BECMG
1109/1112 25005KT SCT030 BKN200 TEMPO 1118/1121 3500 BCFG BR
SCT001=
TAF LJMB 102000Z 1021/1121 03004KT 0500 FG VV002 TEMPO 1021/1110
3500 BR BKN017 BECMG 1111/1114 20005KT CAVOK=

0000030100
434
SAVN27 SVBM 102000
METAR SVBM 102000Z 09009KT 9999 FEW016 30/17 Q1014=
METAR SVGU 102000Z 07010KT 9999 FEW020 33/16 Q1010=
METAR SVSP 102000Z 06014KT 9999 FEW050 XX/XX Q1012=
METAR SVAC 102000Z NIL=
METAR SVBI 102000Z NIL=
METAR SVSO 102000Z NIL=
METAR SVVL 102000Z NIL=

0000029100
435
FCSQ41 LZIB 102000
TAF LZPP 102100Z NIL=
TAF LZSL 102000Z 1021/1106 26005KT CAVOK
    TEMPO 1100/1106 VRB02KT 3000 BCFG SCT002=
TAF LZZI 102000Z 1021/1106 VRB02KT 9999 BKN045
    TEMPO 1022/1106 VRB02KT 2000 BR BKN003
    PROB40 TEMPO 1100/1106 1100 BCFG BKN001=

0000009700
436
SPAU32 AMMC 101959
SPECI YMAV 102000Z AUTO 27007KT 9999 // OVC013 16/13 Q1018=

0000011100
437
SAMS33 WMKK 101900 RRA
METAR WMKN 101900Z 14004KT 1500 +RA FEW005 SCT022 OVC190 23/22 Q1012=

0000064200
438
SAPR82 SPIM 102000
METAR SPHI 102000Z 20014KT CAVOK 29/22 Q1009 RMK PP000=
METAR SPIM 102000Z 16009KT 9999 SCT010 BKN170 23/19 Q1009 NOSIG RMK 
PP000=
METAR SPQT 102000Z 33007KT 9999 VCSH BKN040 26/22 Q1007 NOSIG 
RMK PP000=
METAR SPQU 102000Z 26010KT 9999 BKN033 SCT150 17/10 Q1023 NOSIG
RMK PP000=
METAR SPRU 102000Z 18009KT 9999 FEW030 24/20 Q1009 RMK PP000=
METAR SPSO 102000Z /////KT 9999 SCT080 SCT230 26/20 Q1009 
RMK BIRD HAZARD RWY 22/04 PP000=
METAR SPTN 102000Z 21012KT CAVOK 26/16 Q1008 RMK PP000=
METAR SPZO 102000Z VRB2KT 9999 VCSH FEW036TCU SCT050 BKN100 17/06 
Q1025 NOSIG RMK PP000=

0000040600
439
SANK31 MNMG 102000
METAR
MNPC  102000Z 09008KT 6000 VCRA BKN016TCU 26/25 Q1011
                           RESHRA TCURA SW/W/NW 94%=
MNRS  102000Z 07008KT 9999 FEW020 30/20 Q1009=
MNJG   102000Z 00000KT 9999 BKN020 23/17 Q1011=
MNJU   102000Z 07010KT 9999 SCT020 32/22 Q1011=
MNCH  102000Z 09010KT 9999 FEW025 34/16 Q1009=
MNBL   102000Z 09008KT 9999 SCT017 29/24 Q1011 74%=

0000008900
440
SABZ21 SBFZ 102000
METAR SBFZ 102000Z 08013KT 9999 FEW025 28/20 Q1009=

0000008900
441
SAHU31 LHBM 102000
METAR LHBP 102000Z VRB03KT CAVOK 03/01 Q1021 NOSIG=

0000020900
442
SABU31 LBSM 102000
METAR LBSF 102000Z 11003MPS 2900 BR NSC 00/00 Q1021 NOSIG=
METAR LBWN 102000Z VRB01MPS CAVOK 08/04 Q1016 NOSIG=
METAR LBBG 102000Z 26003MPS 7000 NSC 04/03 Q1018 NOSIG=

0000015400
443
SABU32 LBSM 102000
METAR LBPD 102000Z VRB02MPS 5000 BR SCT120 02/02 Q1019 NOSIG=
METAR LBGO 102000Z VRB02MPS CAVOK 05/03 Q1019 NOSIG=

0000011900
444
SASR31 WSSS 102000
METAR WSSS 102000Z 33003KT 290V020 9999 FEW018 SCT150 BKN300 24/23
Q1010 NOSIG=

0000009400
445
SANC01 NWWW 102000
METAR NWWW 102000Z AUTO 36003KT 9999 FEW062 25/15 Q1013=

0000008900
446
SABZ24 SBCT 102000
METAR SBCT 102000Z 28010KT 9999 SCT045 30/13 Q1015=

0000011000
447
SAFG20 SOCA 102000
METAR SOCA 102000Z AUTO VRB03KT 9999 FEW007 BKN054 BKN070 25/22
Q1009=

0000010100
448
SABZ24 SBPP 102000
METAR SBPP 102000Z 21004KT 9999 SCT025 FEW030TCU
29/19 Q1011=

0000017600
449
FCUK32 EGGY 101700 AAC
TAF AMD EGNH 102000Z 1020/1023 19012KT 6000 -RA BKN006 PROB40 TEMPO
    1020/1021 4000 RADZ BECMG 1021/1023 31010KT 9999 NSW SCT030=

0000058900
450
SABO41 SLLP 102000
METAR SLLP 102000Z 05010KT 9999 SCT017 FEW020CB SCT200 15/04 
Q1032=
METAR SLVR 102000Z 35011KT 9999 BKN017 31/21 Q1007=
METAR SLCB 102000Z 13005KT 9999 FEW027 FEW030CB 28/08 Q1018=
METAR SLTJ 102000Z 13010KT 9999 FEW033 32/14 Q1013=
METAR SLTR 102000Z 31007KT 9999 FEW017 31/23 Q1007=
METAR SLSU 102000Z 08004KT 9999 FEW023 23/08 Q1025=
METAR SLPS 102000Z 00000KT 9999 SCT020 FEW025TCU 34/23 
Q1005=
METAR SLCO 102000Z 30006KT 9999 FEW017 SCT080 BKN200 30/24 
Q1007=
METAR SLET 102000Z 33013G23KT 9999 FEW012 SCT017 29/22 Q1006=

0000010200
451
SAGQ20 FGSL 102000
METAR FGSL 102000Z 22005KT 6000 FEW012 BKN130 26/23 Q1012 NOSIG=

0000021500
452
FTAY31 RUMS 101900
TAF UDYZ 101930Z 1021/1121 VRB02MPS 2000 BR BKN010 TEMPO 1021/1106
0800 SN FZFG OVC003=
TAF UDSG 101940Z 1021/1121 VRB01MPS 1000 BR FEW010 TEMPO 1021/1109
0200 FZFG VV001=

00000000