0000035800
513
SAUK37 EGGY 102250
METAR EGAE 102250Z NIL=
METAR EGNC 102250Z NIL=
METAR EGNH 102250Z NIL=
METAR EGNJ 102250Z AUTO 20012KT 9999 BKN026/// 08/07 Q1009=
METAR EGNO 102250Z NIL=
METAR EGNR 102250Z NIL=
METAR EGPE 102250Z AUTO 23008KT 9999 SCT042/// BKN047/// 02/M01
    Q1005=
METAR EGPI 102250Z NIL=
METAR EGPN 102250Z NIL=

0000046800
514
SAUK38 EGGY 102250
METAR EGEC 102250Z NIL=
METAR EGEO 102250Z NIL=
METAR EGPA 102250Z AUTO 26012KT 9999 SCT026/// SCT044/// 06/03
    Q1001=
METAR EGPC 102250Z AUTO 20008KT 9999 NCD 02/M00 Q1002=
METAR EGPL 102250Z AUTO 26008KT 9999 // FEW035/// 04/02 Q1005=
METAR EGPM 102250Z AUTO 26018KT 3700 +RA FEW002/// BKN010///
    OVC029/// 04/03 Q0997=
METAR EGPO 102250Z AUTO 25006KT 9999 FEW021/// 02/M00 Q1003=
METAR EGPU 102250Z NIL=

0000039500
515
SASW32 LSSW 102250
METAR LSGC 102250Z AUTO 00000KT 6000 NCD M00/M00 Q1017=
METAR LSGS 102250Z NIL=
METAR LSZG 102250Z AUTO VRB01KT 6000 NCD 00/00 Q1019=
METAR LSZR 102250Z AUTO VRB02KT 4300 BR OVC004 03/01 Q1019=
METAR LSZS 102250Z NIL=
METAR LSZC 102250Z AUTO 25003KT 1600 BR FEW006 01/01 Q1019=
METAR LSZL 102250Z AUTO 19003KT 9999NDV OVC047 07/05 Q1022 RMK WHT=

0000018400
516
FTUS72 KWBC 102254 AAA
TAF AMD
KFSM 102252Z 1023/1118 02006KT 1/4SM FG SCT001 BKN100
      TEMPO 1100/1103 2SM TSRA BKN030CB
     FM110300 24011KT P6SM SCT100=

0000053200
517
SAFI32 EFHK 102250
METAR EFHA 102250Z AUTO 35009KT 9999 OVC008 M06/M06
 Q0996=
EFHF 102250Z AUTO 34013KT 320V020 9999 OVC012 M02/M04 Q0993=
METAR EFKA 102250Z AUTO 04009KT 9999 -SHSN OVC014 
M07/M09 Q1000=
EFKK 102250Z AUTO 03010KT 9999 -SN FEW022 SCT026 BKN035 M09/M11
Q1001=
EFMA 102250Z AUTO 34009KT 310V010 9999 -SHSN OVC016 M01/M01 Q0998=
METAR EFPO 102250Z AUTO 01008KT 340V040 9999 OVC009/// M04/M05 Q0997 
R12/29//95=
EFSI 102250Z AUTO 02007KT 340V090 9999 FEW007 OVC009 M06/M07 Q0998=

0000076000
518
SASN32 ESWI 102250
METAR ESKN 102250Z 28004KT 240V330 9999 BKN012 M03/M05 Q1002
R26/710195=
METAR ESOE 102250Z AUTO 12007KT 090V160 6000NDV SG FEW006///
OVC022/// M02/M04 Q1001 RESN=
METAR ESOK 102250Z AUTO 13010KT 9999 FZUP OVC003/// M01/M01 Q0998=
METAR ESOW 102250Z AUTO 35003KT 320V040 9999NDV OVC012/// M04/M07
Q1002=
METAR ESSA 102250Z 31009KT 9999 BKN008 BKN018 M04/M05 Q1001
R01L/19//71 R08/19//58 R01R/19//68 BECMG BKN010=
METAR ESSB 102250Z AUTO 30007KT 9999NDV SCT009/// OVC016///
M03/M05 Q1001=
METAR ESSD 102250Z AUTO 08004KT 0550 R32/1200VP1500D SN VV001
M06/M08 Q1001=
METAR ESSP 102250Z AUTO 00000KT 9999NDV OVC023/// M02/M04 Q1002=
METAR ESSV 102250Z AUTO 29010KT 9999NDV OVC009/// M01/M02 Q1002=

0000068000
519
SASN33 ESWI 102250
METAR ESNG 102250Z AUTO 04008KT 010V080 9999 NCD M17/M19 Q1011=
METAR ESNK 102250Z AUTO 33010KT 9999 -SN BKN020/// OVC034/// M10/M14
Q1004=
METAR ESNN 102250Z AUTO 32009KT 4700NDV -SN FEW013/// M10/M12
Q1004 R16/49/79=
METAR ESNO 102250Z AUTO 35011KT 9999 OVC023/// M11/M15 Q1003=
METAR ESNQ 102250Z AUTO 34003KT 9999NDV -SN VV007 M18/M20 Q1011=
METAR ESNS 102250Z AUTO 35010KT //// VV006 M12/M13 Q1005=
METAR ESNU 102250Z 35013KT 9999 -SN FEW016 OVC035 M11/M14 Q1004
R14/49//50=
METAR ESNZ 102250Z 03004KT 360V060 9999 -SN OVC042 M15/M16 Q1002=
METAR ESUT 102250Z AUTO VRB03G20KT 360V360 9999 OVC070/// M13/M19
Q1004=

0000053300
520
SASN34 ESWI 102250
METAR ESCF 102250Z AUTO VRB02KT 9999NDV BKN007/// OVC012/// M02/M03 
Q1002=
METAR ESDF 102250Z AUTO 23003KT 200V270 9999NDV SCT019/// BKN027/// 
OVC035/// 03/02 Q1004=
METAR ESIB 102250Z AUTO 22010KT 9999NDV OVC016/// 02/01 Q1000=
METAR ESMV 102250Z NIL=
METAR ESPA 102250Z 02010KT 5000 -SN VV020 M13/M15 Q1008=
METAR ESPE 102250Z AUTO 01006KT 340V050 9999NDV -SG FEW029/// 
BKN042/// M14/M18 Q1009=
METAR ESSL 102250Z AUTO 13004KT 9999NDV OVC013/// M03/M04 Q1002
R29/19//95=

0000041700
521
SASN35 ESWI 102250
METAR ESGR 102250Z NIL=
METAR ESKM 102250Z NIL=
METAR ESNL 102250Z AUTO 35007KT 9999NDV FEW022/// SCT025///
OVC036/// M13/M17 Q1006=
METAR ESNX 102250Z AUTO 03010KT 4900NDV -SN FEW007/// OVC023///
M15/M18 Q1006=
METAR ESNY 102250Z NIL=
METAR ESSF 102250Z NIL=
METAR ESSK 102250Z NIL=
METAR ESUD 102250Z AUTO 36003KT 5000 -SN FEW021/// OVC028/// M14/M17
Q1006=

0000011200
522
SABW31 VGHS 102250
METAR VGHS 102250Z 00000KT 0500 FG BKN003 14/13 Q1013 TEMPO S/VIS
0300M=

0000011700
523
FCQB31 LQBK 102300
TAF LQBK 102300Z 1100/1109 VRB02KT 0300 FG VV003 TEMPO 1100/1109 2000
BR NSC=

0000009700
524
SAUS73 KWBC 102200 RRI
METAR
KALN 102245Z 19014KT 5SM RA OVC007 05/05 A2970=

0000009900
525
SAQB31 LQMO 102300
METAR LQMO 102300Z VRB01KT 2500 BR SCT040 BKN060 07/06 Q1023=

0000096400
526
SAMX41 MMMX 102252
METAR MMMX 102244Z 21009KT 12SM SCT025TCU BKN080 20/03 A3019 NOSIG
RMK
      8/230=
METAR MMAA 102245Z 21004KT 10SM SKC 30/20 A2982=
METAR MMBT 102240Z 18008KT 7SM FEW040 29/24 A2986 RMK 8/100=
METAR MMOX 102241Z 16012KT 15SM SCT030TCU 27/05 A3004 RMK 8/200=
METAR MMPA 102240Z 00000KT 5SM SCT120 26/16 A2987 RMK 8/030 HZY=
METAR MMPB 102242Z 19014KT 8SM FEW020 19/04 A3020 RMK 8/100 HZY=
METAR MMPS 102241Z 27011KT 15SM SCT100 30/21 A2995 RMK 8/030 CU N=
METAR MMQT 102245Z 23006KT 8SM SCT020 BKN060 BKN280 21/09 A3016 RMK
8/804=
METAR MMTM 102244Z 13004KT 5SM SCT070 BKN200 23/17 A2982 RMK 8/038
HZY=
METAR MMTO 102244Z 18007KT 7SM BKN020TCU BKN070 15/06 A3026 RMK
8/230=
METAR MMVR 102244Z 11010KT 7SM SKC 25/17 A2983 RMK HZY DSNT CU
      4 QAUAS=
METAR MMZH 102249Z 2005KT 7SM SCT020TCU 30/23 A2985 RMK 8/200=
METAR MMIT 102245Z NIL=
METAR MMTB 102245Z NIL=
METAR MMCB 102245Z NIL=

0000011400
527
SAPH41 RPLC 102300
METAR RPLC 102300Z
34004KT 9999 FEW042 BKN300 20/16 Q1018 A3006 RMK NOSIG=

0000012200
528
SAEU31 BKPR 102300
BKPR 102300Z 00000KT 0200 R17/0225 FZFG BKN002 M01/M02 Q1022 NOSIG
 RMK 17010095 =

0000024100
529
FTMX55 MMMX 102254
TAF MMMY 102254Z 1100/1206 03005KT P6SM SCT250 TX25/1119Z TN15/1111Z 
         FM110400 33010KT 6SM HZ SCT020 SCT250 
         FM111800 33015KT P6SM SCT250 
         FM120400 06010KT 6SM HZ SCT250=

0000017700
530
FTCN33 CWAO 102200 AAA
TAF AMD CYPC 102254Z 1022/1024 29022KT 11/2SM BLSN FEW090 TEMPO
     1022/1024 6SM BLSN
    RMK NXT FCST WILL BE ISSUED AT 111545Z=

0000017200
531
FTCN33 CWAO 102200 AAA
TAF AMD CYWE 102254Z 1022/1102 VRB03KT P6SM IC FEW030 BKN210
    RMK FCST BASED ON AUTO OBS. NXT FCST WILL BE ISSUED AT 111345Z=

0000011700
532
SALI20 GLRB 102300
METAR GLRB 102300Z 00000KT 9000 BKN014  FEW024 CB 27/25 Q1012
RMK CB-S, BRVC=

00000000