0000009800
973
SAPA31 KWBC 101700 RRB
METAR
AGGH 101700Z 14002KT 9999 HZ FEW015 24/23 Q1005=

0000035200
974
FTFR21 LFPW 101700
TAF LFPC 101700Z 1018/1118 15005KT 8000 OVC010
  PROB30 TEMPO 1100/1102 0400 FG VV///
  TEMPO 1103/1106 4000 -RA=
TAF LFPV 101700Z 1018/1118 18004KT 9999 OVC008
 TEMPO 1019/1101 BKN015
 TEMPO 1101/1106 4000 -RADZ BKN004
 TEMPO 1106/1109 3000 BR BKN004
 TEMPO 1109/1118 BKN012=
TAF LFOA 101700Z NIL=

0000099300
975
FTFR31 LFPW 101700
TAF LFLL 101700Z 1018/1124 14005KT 4000 BR NSC BECMG 1018/1021 2000
BR PROB30 TEMPO 1021/1101 0400 BCFG BKN001 BECMG 1101/1103 18012KT
8000 NSW PROB30 TEMPO 1104/1109 BKN008 BECMG 1114/1116 VRB02KT BKN020
 BECMG 1118/1121 3000 BR BKN005=
TAF LFMN 101700Z 1018/1124 07004KT 9999 SCT015 BKN022 BECMG 1018/1020
 36010KT BKN015 PROB40 TEMPO 1019/1108 OVC012 BECMG 1107/1109 06010KT
 BECMG 1117/1119 34010KT=
TAF AMD LFPG 101706Z 1018/1124 18005KT 9999 BKN010 BECMG 1018/1020
16006KT BECMG 1019/1021 3000 BR BKN008 PROB40 TEMPO 1021/1111 BKN005
PROB40 TEMPO 1023/1110 0200 FG BKN002 BECMG 1102/1103 22010KT BECMG
1109/1111 9999 NSW SCT012 PROB40 TEMPO 1111/1116 BKN012 BECMG
1122/1124 4000 BR TX08/1113Z TN01/1124Z=
TAF LFPO 101700Z 1018/1124 17006KT 9999 BKN009 TEMPO 1018/1022 SCT009
 TEMPO 1101/1104 -RA BKN006 BECMG 1105/1107 20006KT BKN016 TEMPO
1106/1109 4000 BR BKN004 BECMG 1112/1115 SCT016 BECMG 1120/1123
02004KT BKN006=

0000048000
976
FTFR32 LFPW 101700
TAF LFQQ 101700Z 1018/1124 19008KT 8000 OVC008 BECMG 1020/1023 3000
BR OVC003 BECMG 1112/1114 30010KT 9999 NSW SCT030=
TAF LFRB 101700Z 1018/1124 18006KT 9999 BKN020 BECMG 1018/1021 5000
BKN008 TEMPO 1021/1106 3000 -RA BR BKN003 BECMG 1106/1109 BKN030
BECMG 1109/1112 08012KT=
TAF LFRS 101700Z 1018/1124 09005KT 9999 SCT020 BKN050 TEMPO 1018/1103
 5000 -RA BKN012 TEMPO 1103/1108 3000 BR BKN005 PROB30 TEMPO
1103/1108 0800 BCFG=

0000073600
977
FTFR33 LFPW 101700
TAF LFBD 101700Z 1018/1124 10005KT CAVOK BECMG 1022/1024 3000 MIFG
PROB40 TEMPO 1100/1109 0200 FG VV/// BECMG 1109/1112 3000 BR BKN005
TEMPO 1112/1124 7000 NSW BKN010=
TAF LFBO 101700Z 1018/1124 14010KT CAVOK BECMG 1022/1101 BKN012
PROB40 1104/1108 4000 BR OVC008 PROB30 1105/1108 0800 BCFG BECMG
1110/1112 BKN016 BECMG 1118/1121 OVC008 BECMG 1121/1124 3000 BR
OVC004=
TAF LFLX 101700Z 1018/1124 09005KT 9999 FEW040 BECMG 1100/1102 4000
BR BECMG 1102/1104 0800 FG BECMG 1104/1105 0200 VV/// BECMG 1107/1109
 1000 BR OVC001 BECMG 1109/1111 5000 NSW OVC002 BECMG 1111/1112 9999
OVC003 BECMG 1112/1114 OVC005=
TAF LFML 101700Z 1018/1124 VRB03KT 9000 BKN015 TX14/1113Z TN10/1101Z=

0000102200
978
FTFR34 LFPW 101700
TAF LFBH 101700Z 1018/1118 10005KT CAVOK TEMPO 1100/1106 3000 BR
PROB30 TEMPO 1103/1106 0200 FG VV/// BECMG 1106/1109 8000 BKN010=
TAF LFBI 101700Z 1018/1118 VRB03KT CAVOK BECMG 1021/1024 4000 BR
BKN003 PROB40 1100/1109 0200 FG VV/// BECMG 1115/1118 9999 NSW BKN010
=
TAF LFBL 101700Z 1018/1118 VRB03KT CAVOK BECMG 1022/1101 4000 BR
BKN003 PROB30 1103/1108 0200 FG VV/// BECMG 1109/1112 9999 NSW SCT012
 BECMG 1115/1118 BKN012=
TAF LFBP 101700Z 1018/1118 04003KT CAVOK BECMG 1021/1023 3000 BR
BECMG 1101/1103 BKN003 PROB30 TEMPO 1103/1108 0400 FG BECMG 1109/1111
 8000 SCT003 BKN018=
TAF LFBT 101700Z 1018/1118 VRB02KT CAVOK BECMG 1023/1102 28010KT 4000
 BR BKN008 BECMG 1107/1109 VRB02KT 8000 NSW BKN013 BECMG 1112/1115
BKN020=
TAF LFBZ 101700Z 1018/1118 VRB02KT CAVOK BECMG 1020/1022 27011KT 4000
 BR BKN005 BECMG 1105/1107 18004KT BKN013 BECMG 1109/1112 8000 NSW
BKN016=
TAF LFLB 101700Z 1018/1118 VRB02KT CAVOK TEMPO 1105/1109 3000 MIFG
SCT003=

0000077100
979
FTFR35 LFPW 101700
TAF LFKB 101700Z 1018/1118 14006KT 9999 FEW020 BKN030 BECMG 1020/1022
 BKN015 BECMG 1106/1108 16015KT SCT020 BKN030 TX16/1113Z TN07/1103Z=
TAF LFKC 101700Z 1018/1118 18004KT 9999 SCT020 BKN230 BECMG 1109/1112
 36003KT TX15/1112Z TN06/1106Z=
TAF LFKF 101700Z 1018/1118 06008KT 9999 BKN020 BECMG 1018/1020
06012KT TEMPO 1018/1118 SCT015 SCT030=
TAF LFKJ 101700Z 1018/1118 06006KT 9999 FEW020 PROB30 TEMPO 1018/1101
 BKN010=
TAF LFLC 101700Z 1018/1118 VRB02KT CAVOK PROB40 TEMPO 1103/1109 3000
BR PROB30 TEMPO 1105/1107 0800 BCFG BECMG 1115/1118 3000 BR BKN003=
TAF LFMP 101700Z 1018/1118 10005KT 9999 OVC025 BECMG 1019/1021 3000
BR OVC003 BECMG 1103/1105 32006KT=
TAF LFMV 101700Z 1018/1118 VRB03KT 9999 BKN015=

0000103700
980
FTFR36 LFPW 101700
TAF LFCR 101700Z 1018/1118 13006KT CAVOK PROB40 1101/1108 4000 BR
PROB30 1103/1107 0800 BCFG=
TAF LFLP 101700Z 1018/1118 VRB02KT 9999 NSC PROB30 TEMPO 1103/1108
5000 MIFG FEW003=
TAF LFLS 101700Z 1018/1118 VRB02KT 0050 FG VV/// BECMG 1100/1102 3000
 BR OVC005 BECMG 1102/1104 23008KT 7000 SCT012 BECMG 1106/1109 NSC
BECMG 1115/1117 VRB02KT CAVOK=
TAF LFLY 101700Z 1018/1118 VRB02KT 4000 BR NSC BECMG 1018/1020 2500
PROB30 TEMPO 1022/1103 0600 FG OVC003 BECMG 1103/1106 16010KT 9999
NSC BECMG 1116/1118 VRB02KT 9999 OVC009=
TAF LFMT 101700Z 1018/1118 12010KT 9999 BKN026 BECMG 1020/1022
02010KT BKN030 BECMG 1103/1105 5000 -RA SCT010 BKN020 BECMG 1112/1114
 9999 BKN030=
TAF LFMU 101700Z 1018/1118 12010KT 9999 BKN026 BECMG 1020/1022
02010KT BKN030 BECMG 1103/1105 5000 -RA SCT010 BKN020 BECMG 1115/1117
 9999 BKN030=
TAF LFTW 101700Z 1018/1118 02010KT 9999 OVC020 BECMG 1020/1022
04010KT 8000 -RA SCT010 BKN020 TEMPO 1106/1112 4000 BR BECMG
1112/1114 9999 BKN030=

0000113700
981
FTFR37 LFPW 101700
TAF LFJL 101700Z 1018/1118 VRB03KT 9999 FEW030 PROB30 TEMPO 1023/1108
 4000 BR PROB40 TEMPO 1020/1108 BKN006 TEMPO 1104/1115 -RA BKN040=
TAF LFOB 101700Z 1018/1118 18008KT 9999 OVC010 BECMG 1021/1024 2500
BR OVC003 TEMPO 1100/1107 0200 FG VV/// BECMG 1111/1114 27010KT 9999
NSW SCT012=
TAF LFOH 101700Z 1018/1118 18008KT 8000 SCT007 BECMG 1021/1024 2000
BR BKN005 PROB30 1100/1107 0200 FG VV/// BECMG 1110/1112 31010KT 9999
 NSW SCT015=
TAF LFOK 101700Z 1018/1118 VRB02KT 8000 SCT010 BECMG 1019/1022 2000
BR BKN005 TEMPO 1022/1109 0150 FG VV/// BECMG 1110/1112 7000 NSW
BKN008 TEMPO 1113/1116 SCT010=
TAF LFOP 101700Z 1018/1118 18006KT 8000 OVC008 BECMG 1020/1023 3000
BR OVC005 BECMG 1023/1102 0150 FG VV/// BECMG 1110/1112 3000 BR
OVC005 BECMG 1112/1114 31010KT 8000 NSW SCT020=
TAF AMD LFPB 101706Z 1018/1118 18005KT 9999 BKN015 BECMG 1018/1020
16006KT BECMG 1019/1021 3000 BR BKN010 PROB40 TEMPO 1021/1111 BKN007
PROB40 TEMPO 1023/1110 0300 FG BKN003 BECMG 1102/1103 22010KT BECMG
1109/1111 9999 NSW SCT012 PROB40 TEMPO 1111/1116 BKN012=
TAF LFSN 101700Z NIL=

0000091900
982
FTFR38 LFPW 101700
TAF LFRD 101700Z 1018/1118 18005KT 4000 BR OVC003 BECMG 1020/1022
2000 BR TEMPO 1022/1108 0500 FG VV/// BECMG 1109/1111 9999 NSW BKN003
 BECMG 1112/1115 05006KT BKN015=
TAF LFRN 101700Z 1018/1118 VRB03KT 5000 OVC005 BECMG 1020/1022 3000
BR OVC003 TEMPO 1100/1109 0500 FG VV/// BECMG 1108/1110 4000 BR
BKN006 BECMG 1113/1115 9999 NSW BKN015=
TAF LFRO 101700Z 1018/1118 17005KT CAVOK BECMG 1021/1024 5000 BKN015
TEMPO 1100/1107 3000 -RA BKN004 BECMG 1107/1109 03015KT 9999 SCT020
BKN040 BECMG 1115/1118 10010KT=
TAF LFRZ 101700Z 1018/1118 09003KT 8000 SCT010 BKN040 TEMPO 1018/1024
 4000 RA BKN008 BKN030 TEMPO 1100/1108 3000 BR BKN005 PROB30 TEMPO
1103/1108 0500 FG=
TAF LFSB 101700Z 1018/1118 12006KT 9999 FEW040 BKN050 TEMPO 1022/1106
 3000 BR=
TAF LFST 101700Z 1018/1118 VRB03KT 9999 FEW030 PROB30 TEMPO 1022/1108
 BKN012 TEMPO 1104/1118 -RA BKN040=

0000066800
983
FTFR39 LFPW 101700
TAF LFMH 101700Z 1018/1118 VRB02KT CAVOK BECMG 1103/1106 16008KT
PROB30  TEMPO 1104/1108 BKN008 BECMG 1112/1115 02006KT=
TAF LFMI 101700Z 1018/1118 15005KT 9999 BKN020
BECMG 1110/1112 07010KT SCT040=
TAF LFMK 101700Z 1018/1118 08015G25KT 9999 OVC020 BECMG 1102/1104
08015KT 5000 -RA BKN010 OVC020 BECMG 1113/1115 12015KT 9999 SCT030=
TAF LFSD 101700Z 1018/1118 VRB03KT 9999 SCT030 BECMG 1019/1022 3000
BR BKN004 TEMPO 1101/1106 0400 FG OVC002 BECMG 1107/1109 5000 BKN012
TEMPO 1110/1118 -RA=
TAF LFTH 101700Z 1018/1118 21005KT CAVOK BECMG 1018/1020 BKN025 BECMG
 1109/1112 09007KT CAVOK TEMPO 1112/1118 SCT025=

0000010000
984
SAIE32 EIDB 101700 RRB
METAR EISG 101700Z VRB03KT 9999 FEW010 SCT050 05/02 Q1008=

0000135500
985
SPUS70 KWBC 101714
SPECI
KCAG 101710Z AUTO 06005KT 2SM -SN BKN028 BKN035 OVC046 M07/M09
     A2991 RMK AO2 P0001 T10671094=
KEYE 101710Z AUTO 15007KT 4SM BR FEW007 OVC029 03/02 A3005 RMK AO2
     T00280017=
KFSM 101710Z 04004KT 1SM R25/3500VP6000FT +RA BR SCT002 BKN023
     OVC034 06/06 A2983 RMK AO2 P0004=
KLWV 101710Z AUTO 17010KT 3SM BR FEW021 OVC029 04/03 A3004 RMK AO2
     T00440033=
KMSL 101710Z AUTO 15007KT 7SM OVC010 11/07 A3013 RMK AO2=
KMSP 101710Z 16011KT 2 1/2SM -FZDZ BR OVC006 M03/M04 A2973 RMK AO2
     FZDZB10 PCPN VRY LGT P0000=
KOXB 101710Z AUTO 02005KT 1 3/4SM -RA BR SCT004 BKN032 OVC043
     05/03 A3039 RMK AO2 RAB00 P0001 T00500033 TSNO=
KROG 101710Z 21004KT 6SM RA BR BKN005 BKN013 OVC038 09/09 A2980
     RMK AO2 CIG 003V008 P0004=
KUZA 101710Z AUTO 02004KT 1 1/2SM -RA BR OVC003 06/05 A3027 RMK
     AO2 RAB1658 P0001 T00560050=
PATO 101710Z AUTO 28007KT 10SM OVC011 M02/M03 A2939 RMK AO2
     T10171028 TSNO=
KCSG 101711Z 09008KT 3SM BR OVC003 09/08 A3018 RMK AO2=
KPBG 101711Z AUTO 18004KT 6SM -SN OVC036 M04/M08 A3032 RMK AO2
     P0000=
KRAC 101711Z AUTO 16011KT 1SM BR OVC004 00/M01 A2995 RMK AO2
     T00001011=
KRWF 101711Z AUTO 16010KT 1 3/4SM BR OVC006 M03/M04 A2965 RMK
     AO2=
PALH 101711Z 00000KT 10SM SCT005 OVC015 M03/M04 A2942 RMK AO2=

0000010500
986
SPUS31 KWBC 101714
SPECI
KMSP 101710Z 16011KT 2 1/2SM -FZDZ BR OVC006 M03/M04 A2973=

0000011300
987
SPUS41 KWBC 101714
SPECI
KDOV 101708Z AUTO 11008KT 2 1/2SM -RA BR BKN010 OVC038 02/02 A3037=

0000009500
988
SAAG31 KWBC 101700 RRB
METAR
SABE 101700Z 05008KT 9999 FEW030 28/20 Q1007=

0000015300
989
SABZ42 KWBC 101700 RRB
METAR
SBPP 101700Z 03010KT 9999 BKN025 30/20 Q1014=
SBSJ 101700Z 04002KT 9999 SCT025 FEW030TCU 34/12 Q1014=

0000009500
990
SABZ43 KWBC 101700 RRB
METAR
SBAT 101700Z 00000KT 9999 SCT027 32/21 Q1011=

0000024900
991
SACA35 KWBC 101700 RRB
METAR
MPBO 101700Z 30006KT 230V340 9000 SCT018 SCT080 Q1015=
MPDA 101700Z 33006KT 9999 SCT020 32/22 Q1010=
MPMG 101700Z 06008KT 1600 SHRA SCT018TCU 26/24 Q1011 RWY WATER
     PATCHES TEMPO 6000 TSRA=

0000015200
992
SACA33 KWBC 101700 RRC
METAR
TNCM 101700Z 08015KT 050V110 9999 FEW017TCU SCT035 28/19 Q1017
     A3005 TEMPO SHRA RMK JP TO SE,S=

00000000