0000093800
953
SNUK41 EGRR 110500 RRA
AAXX 11054
03005 47582 /2709 10035 20007 39888 49989 53007 723//
  333 55300 20000 83/21 86/50 90710 91130=
03162 45973 /2201 11011 21016 39818 40113 53013
  333 55300 20000 8//99=
03257 45971 /3006 10036 20012 30067 40109 53019
  333 55300 20000 87/60=
03302 45969 /2808 10051 20030 30123 40137 51023
  333 55300 20000 84/58 87/62=
03414 47981 /2905 10027 20021 30046 40136 53032 723//
  333 55300 20000 8//99=
03482 47339 /2212 10072 20068 30077 40102 55005 752//
  333 86/06 85/16=
03502 45579 /2813 10065 20018 39989 40153 53027
  333 55300 20000 81/20=
03590 47262 /2112 10070 20065 30004 40114 56009 723//
  333 55300 20000 83/05 87/13=
03746 47683 /2911 10065 20058 39986 40141 53012 722//
  333 87/31=
03808 45580 /3311 10071 20022 30064 40172 53023
  333 55300 20000 84/24=
03853 45481 /2606 10061 20049 30125 40149 53022
  333 55300 20000 84/16=
0000298200
954
SNUK42 EGRR 110500
AAXX 11054
03002 47770 /2911 10045 20021 39955 49974 51003 723//
  333 81/50=
03008 46/// /2816 10055 20023 39932 40005 52007
  333 90710 91128=
03031 47220 /2908 10002 21003 39739 40071 53011 786//
  333 553// 20000 86/05=
03034 47580 /2008 10032 20016 30048 40062 50010 723//
  333 84/24 84/43=
03037 47564 /2006 10026 20012 30054 40077 52014 781//
  333 81/27 83/36 85/44=
03039 46/// /2926 11028 21033
  333 90710 91140=
03044 47684 /2209 10026 21004 39948 40048 52009 721//
  333 553// 20000 82/31 83/50=
03047 47784 /2305 10018 21025 39783 40090 52012 741//
  333 553// 20000 85/50=
03062 45682 /2409 10007 21011 30054 40059 51011
  333 553// 20000 81/36=
03065 46/// ///// 11059 21067=
03068 42784 22512 10012 21009 30048 40057 52005 81570
  333 81650=
03072 46/// /2729 11036 21060
  333 90710 91139=
03080 45983 /2609 10014 21027 39889 40063 51004
  333 84/59 83/68=
03088 45983 /2511 10014 21017 39897 40063 53002
  333 553// 20000 86/62=
03105 47768 /3012 10046 20008 30089 40106 51017 723//
  333 81/50 83/65=
03132 45782 /2610 10039 20024 30102 40116 52015
  333 88/56=
03144 47984 /2308 10020 20008 30044 40088 51008 723//
  333 553// 20000 8//99=
03148 46/// /2913 11012 21016=
03153 45974 /3104 10019 20014 39971 40111 52016
  333 553// 20000 85/61=
03155 46777 /2107 10005 21002 39800 40104 53010
  333 84/50 83/60=
03158 45984 /2509 10019 21004 39950 40090 53007
  333 553// 20000 8//99=
03210 46970 /2712 10040 20037 39965 40119 53016
  333 8//99=
03212 45/68 /2904 10033 20023 30016 40117 53015=
03214 45975 /2910 10053 20035 30098 40117 53016
  333 81/63=
03220 46550 ///// 10005 20005 30075 40110 53013
  333 81/20=
03224 47104 /2609 10008 20008 39757 40110 53012 777//
  333 87/02=
03225 46680 /2403 10020 20003 39806 40118 53015
  333 553// 20000 83/32 85/42=
03226 45582 /3501 10013 20008 39832 40113 53014
  333 81/24 86/33=
03227 46/// /2721 11014 2////
  333 90710 91125=
03230 46979 /3202 11002 21008 39843 40106 53010
  333 8//99=
03238 45962 /2709 10014 20007 39922 40099 53012
  333 8//99=
03261 46974 /3006 10027 20016 30069 40110 53022
  333 88/59=
03265 45983 /2402 10039 20021 30079 40110 52022
  333 88/60=
03266 46980 /2604 10041 20022 30089 40106 53018
  333 88/60=
03275 45974 /2809 10039 20008 39902 40096 51013
  333 88/60=
03281 46/// /3012 10030 20005=
03901 45284 /2306 10007 20004 30044 40134 53020
  333 55300 20000 85/04=
03904 45382 /2306 10017 20010 30069 40131 53016
  333 87/06=
03907 45684 /2415 10029 20018 30117 40125 53024
  333 55300 20000 87/48=
03911 46182 /2806 10007 20002 39850 40130 51019
  333 83/02 84/43 87/62=
03915 46782 /2202 10022 20005 30039 40119 51015
  333 88/56=
03916 46988 /2406 10017 21007 39920 40114 52012
  333 553// 20000 88/59=
03923 47273 /2304 10007 20006 39929 40130 52021 723//
  333 83/05 84/17=
0000417000
955
SNUK43 EGRR 110500
AAXX 11054
03301 46976 /2606 10033 20027 30065 40139 51024
  333 83/58 84/62=
03305 45580 /2510 10037 20022 39874 40141 53020
  333 81/26 83/61=
03313 46975 /2509 10048 20030 30040 40135 53019
  333 81/63=
03316 45773 /3109 10057 20044 30113 40124 51017
  333 86/50=
03318 46/// /2810 10057 20038=
03321 47560 /2709 10050 20034 30120 40132 51023 782//
  333 55300 20000 82/21 84/45 91020=
03330 47776 /3104 10029 20022 39762 40128 53024 761//
  333 87/56=
03344 45980 /2804 10030 20010 39794 40117 53020
  333 81/58 87/60=
03346 46/// /2810 10037 20023=
03351 45774 /2605 10043 20027 30082 40126 53023
  333 55300 20000 85/50 83/58=
03373 46364 /3114 10057 20046 30033 40103 53015
  333 84/09 86/21=
03379 46470 /2710 10065 20059 30029 40107 53012
  333 81/18 86/46=
03382 47782 /3105 10059 20031 30089 40098 53018 723//
  333 55300 20000 81/50 87/60=
03385 46460 /2507 10069 20062 30083 40092 53008
  333 86/10 83/41=
03391 41480 42711 10070 20055 30093 40100 53007 72051 83530
  333 81710 83645=
03392 46356 /2611 10071 20067 30096 40099 53004
  333 81/06 86/38=
03405 467// /2418 10060 20031 30033 40150 51024
  333 553// 20000 86/50 84/61=
03409 46/// /3102 10020 20011 39938 40142 52025
  333 55300 2////=
03410 46981 /2802 10017 20005 39698 40141 51026
  333 553// 20000 8//99=
03469 47262 /2610 10071 20068 30099 40103 53003 761//
  333 553// 20000 81/04 84/07 85/37=
03488 47350 /2215 10073 20066 30070 40096 56005 781//
  333 86/09 87/20=
03503 45568 /1001 10053 20043 30068 40146 53025
  333 81/20 87/36=
03520 46672 /3501 10025 20022 30019 40142 53025
  333 553// 20000 85/32=
03522 45671 /2706 10049 20040 30051 40145 53024
  333 83/32=
03529 45983 /2708 10053 20038 30093 40137 53021
  333 8//99=
03544 47783 /2508 10060 20049 39989 40121 53015 723//
  333 553// 20000 82/50=
03560 47278 /2810 10068 20060 30013 40117 53007 781//
  333 553// 20000 82/04 86/30=
03604 46982 /3008 10048 20034 30105 40160 53026
  333 84/60=
03605 46972 /3108 10048 20039 30148 40157 53027
  333 8//99=
03609 46/// /2910 10058 20056 30106 40160 53024=
03628 45970 /2606 10051 20045 30070 40143 53020
  333 55300 20000 8//99=
03647 46874 /2710 10045 20039 39869 40127 52015
  333 553// 20000 81/57=
03658 46335 /2310 10074 20068 30061 40131 53009
  333 84/06 83/14=
03660 47249 /2807 10067 20064 39877 40126 53002 761//
  333 87/03 84/14=
03672 46477 /2508 10083 20065 30085 40125 55001
  333 87/11=
03680 46/// ///// 10074 20068 39966 40122 55000
  333 553// 20000=
03684 47362 /2313 10076 20066 30010 40116 56007 723//
  333 85/08 85/14=
03693 47661 /2210 10080 20067 30123 40125 56008 723//
  333 87/34 84/50=
03707 45583 /3111 10069 20042 30152 40160 53025
  333 86/21=
03710 46470 /3107 10018 20014 39732 40161 53022
  333 553// 20000 81/16=
03743 46682 /2707 10064 20053 39978 40140 53013
  333 85/34 85/56=
03749 46379 /2909 10071 20058 30029 40140 53010
  333 81/07 86/32=
03761 41250 82411 10077 20072 39988 40133 53005 76166 885//
  333 55300 20000 84705 85615=
03768 46356 /2410 10080 20072 30051 40130 53003
  333 81/09 87/19=
03769 47458 /2106 10083 20073 30048 40130 57003 751//
  333 55300 20000 86/13=
03770 46/// ///// 10088 20072=
03781 47261 /2309 10075 20068 39922 40129 57003 723//
  333 553// 20000 85/04 83/26=
03784 46/// /2210 10084 20072 30119 40123 56006=
03797 45465 /2010 10074 20051 30073 40134 58006
  333 55300 20000 82/17 83/56 87/59=
03823 45576 /3207 10034 20029 39918 40166 53022
  333 553// 20000 85/20=
03839 46/// ///// 10041 20031
  333 553// 20000=
03857 45577 /3218 10083 20057 30080 40144 53011
  333 82/21 87/45 90710 91127=
03862 47484 /3210 10077 20062 30130 40143 53010 722//
  333 55300 20000 81/10 84/19 85/27 90710 91125=
03866 46/// /2520 10097 20086 30111 40136 54000=
03872 47473 ///// 10093 20081 30128 40133 57003 723//
  333 553// 20000 81/12 83/15 86/22 91019=
03876 46/// /2611 10091 20081 30135 40138 57002=
03895 42470 72408 10080 20072 40162 53006 875// 333 81710 87642=
0000004800
956
SREW41 EGRR 110400 CCA
03391OTR=
0000125000
957
SREW41 EGRR 110500
03002OTR 03005008 03008000 03017000 03026000 03031OTR 03034016
03037OTR 03044OTR 03047OTR 03062000 03063OTR 03066000 03068000
03075000 03080000 03088000 03091000 03100OTR 03105OTR 03111000
03132000 03134002 03136OTR 03144002 03153000 03155000 03158000
03162000 03166002 03171000 03204000 03210000 03212000 03214000
03220000 03224OTR 03225000 03226000 03230000 03238000 03240000
03257000 03261000 03265000 03266000 03275002 03281000 03292000
03301000 03302000 03305000 03313000 03316000 03318000 03321002
03330002 03344000 03346000 03351000 03354000 03373002 03377002
03379004 03382OTR 03391004 03392002 03405000 03409000 03410000
03414OTR 03462002 03469004 03482006 03488002 03502000 03503000
03520000 03522000 03529000 03535000 03544OTR 03560002 03590002
03604002 03605000 03609000 03628000 03647002 03649002 03658002
03660OTR 03672002 03684OTR 03693OTR 03707000 03710000 03716000
03740000 03743002 03746002 03749002 03761006 03768000 03769OTR
03770000 03772000 03781OTR 03797000 03803000 03808000 03809000
03823000 03827000 03839000 03840000 03853000 03857000 03862008
03866002 03872OTR 03876000 03882000 03901000 03904000 03907000
03911000 03915000 03916000 03917004 03923002=
0000005200
958
RRIN23 VECC 111005
RQRPT 813-854=

0000005200
959
RRIN23 VECC 111005
RQRPT 933-954=

0000139700
960
SAUK63 EGRR 110450 RRA
METAR EGDM 110450Z AUTO 29011KT 9999 BKN031/// 07/06 Q1013 REDZ=
METAR EGDX 110450Z AUTO 29007KT 9999 NCD 06/05 Q1014=
METAR EGDY 110450Z AUTO 26006KT 9999 SCT016/// 06/05 Q1014=
METAR EGOM 110450Z AUTO 26009KT 0400 SG BKN002/// 01/01 Q1009=
METAR EGOP 110450Z AUTO 31008KT 9999 // NCD 05/04 Q1015=
METAR EGOS 110450Z AUTO 29005KT 9999 NCD 03/02 Q1013 RERA=
METAR EGOV 110450Z AUTO 28008KT 9999 SCT080/// BKN120/// 05/03 Q1013=
METAR EGQK 110450Z AUTO 22006KT 9999 SCT130/// BKN180/// 02/M01 Q1006=
METAR EGUB 110450Z AUTO 23010KT 3500 // SCT006/// SCT014/// 07/07 Q1012=
METAR EGUW 110450Z AUTO 21012KT 9999 SCT005/// BKN013/// 07/07 Q1011 RERA=
METAR EGVP 110450Z AUTO 29009KT 9999 // FEW007/// BKN032/// 07/06 Q1013=
METAR EGWU 110450Z AUTO 25008KT 9999 // BKN011/// 08/07 Q1012=
METAR EGXD 110450Z AUTO 30006KT 9999 // OVC090/// 03/02 Q1010=
METAR EGXE 110450Z AUTO 30006KT 9999 BKN100/// 04/01 Q1010=
METAR EGXP 110450Z AUTO 31014KT 9999 // SCT009/// BKN021/// 06/05 Q1010=
METAR EGXS 110450Z AUTO 25007KT 9999 // BKN010/// SCT041/// 07/06 Q1009=
METAR EGXU 110450Z AUTO 26004KT 9999 // OVC100/// 04/02 Q1010=
METAR EGXZ 110450Z AUTO 24002KT 9999 OVC100/// 04/02 Q1010=
METAR EGYD 110450Z AUTO 27010KT 9999 // FEW018/// BKN046/// 07/06 Q1010=
METAR EGYM 110450Z AUTO 22012KT 3900 DZ BKN006/// BKN016/// 07/07 Q1010=
0000080200
961
SDTH20 VTBB 110500
FFBB 1105/ 48300 NIL=
FFBB 1105/ 48303 00000=
FFBB  1105/ 48327 00000=
FFBB 1105/ 48356 NIL=
FFBB  1105/ 48378 00000=
FFBB 1105/ 48381 00000=
FFBB 1105/ 48407 00000=
FFBB 1105/ 48413 NIL=
FFBB 1105/ 48417 00000=
FFBB 1105/ 48432 0/0/0=
FFBB 1105/ 48456 NIL=
FFBB 1105/ 48475 NIL=
FFBB 1105/ 48478 00000=
FFBB 1105/ 48517 774/3 61616 7724=
FFBB  1105/ 48551 0/0/0=
FFBB 1105/ 48565 00000=
FFBB 1105/ 48567 NIL=
FFBB  1105/ 48568 154/5 165/5 245/5 257/5 265/3 275/5 336/5 347/5
357/5 366/5 375/5 435/3 445/5 475/3 545/5 575/3 655/3 665/3 675/3
755/3 765/5 775/5 844/3 855/5 865/5 61616 1524 16134 244 25234 26134
2734 334 34123 35124 36123 371 432 4413 474 541 574 654 663 6724 751
76134 842 85124 8612=
FFBB 1105/ 48583 NIL=
0000143200
962
FTTH20 VTBB 110500
TAF VTBS 110500Z NIL=
TAF VTCC 110500Z NIL=
TAF VTCH 110500Z NIL=
TAF VTCL 110500Z NIL=
TAF VTCN 110500Z NIL=
TAF VTCP 110500Z NIL=
TAF VTCT 110500Z NIL=
TAF VTPB 110500Z NIL=
TAF VTPM 110500Z NIL=
TAF VTPO 110500Z NIL=
TAF VTPP 110500Z NIL=
TAF VTPT 110500Z NIL=
TAF VTUD 110500Z 1106/1206 06007KT 9999 FEW025
        BECMG
1122/1201 36005KT 4000 BR NSC
        BECMG 1203/1206 06006KT 9000
NSC=
TAF VTUI 110500Z 1106/1206 09007KT CAVOK
        BECMG 1122/1201
09004KT 8000 NSC
        BECMG 1203/1206 09007KT 9999 FEW025=
TAF  VTUJ  110500Z 1106/1206 04005KT 9000 FEW025
     BECMG 1113/1115 06005KT CAVOK=
TAF VTUK 110500Z 1106/1206 06008KT 9999 FEW025
        BECMG
1122/1201 36006KT 8000 NSC
        BECMG 1203/1206 06008KT CAVOK=
TAF VTUL 110500Z 1106/1206 12004KT 8000 NSC
        BECMG 1123/1202
00000KT 1000 BR NSC
        BECMG 1204/1207 12004KT 8000 NSC=
TAF  VTUO  110500Z 1106/1206 04005KT 8000 FEW025
     BECMG 1108/1110 04005KT 8000 NSC=
TAF  VTUQ  110500Z 1106/1206 04005KT 8000 FEW025
     BECMG 1107/1109 05005KT 8000 NSC=
TAF  VTUU  110500Z 1106/1206 04005KT 8000 FEW025
     BECMG 1111/1113 04005KT CAVOK=
TAF  VTUV  110500Z 1106/1206 04005KT 9000 FEW025
     BECMG 1114/1116 04007KT CAVOK=
TAF VTUW 110500Z 1106/1206 08008KT CAVOK
        BECMG 1122/1201
08006KT 9000 NSC
        BECMG 1203/1206 08007KT 9999 FEW025=
0000094000
963
SPUS70 KWBC 102014
SPECI
KBRO 102010Z 20022G33KT 10SM BKN025 27/19 A2984 RMK AO2 PK WND
     19033/2008=
KCEC 102010Z AUTO 18010KT 2SM BR OVC003 10/09 A3027 RMK AO2
     T01000094=
KSBM 102010Z AUTO 16008KT 2 1/2SM BR OVC003 00/M01 A2980 RMK AO2
     T00001006=
PAGK 102010Z AUTO 30003KT 2 1/2SM BR OVC080 M09/M11 A2934 RMK AO2
     SNE10 P0000 T10891106 TSNO=
KCGF 102009Z 17010KT 4SM HZ BKN007 OVC025 04/00 A3009=
KAND 102011Z AUTO 06007KT 3SM -RA BR OVC004 09/08 A3016 RMK AO2
     P0001=
KBFD 102011Z AUTO 15006KT 3/4SM BR OVC002 01/00 A3015 RMK AO2
     T00110000 TSNO=
KBOK 102011Z AUTO 17007KT 1 1/2SM BR OVC002 09/09 A3027 RMK AO2
     CIG 001V006 $=
KBVO 102011Z AUTO 26011G20KT 10SM FEW021 SCT028 13/08 A2959 RMK
     AO2=
KGZH 102011Z AUTO 11004KT 3SM -RA BR OVC004 15/13 A3005 RMK AO2
     RAB05 P0000 T01500133=
KJAC 102012Z 21013G22KT 10SM SCT035 BKN045 01/M08 A2981=

0000009400
964
SPUS42 KWBC 102014
SPECI
KBRO 102010Z 20022G33KT 10SM BKN025 27/19 A2984=

0000010400
965
SPUS43 KWBC 102014
SPECI
KAPN 102012Z AUTO 15012KT 7SM BKN013 OVC047 M01/M04 A2994=

0000009500
966
SABZ42 KWBC 102000 RRC
METAR
SBSC 102000Z 20007KT 9999 FEW030 32/20 Q1010=

0000021600
967
SACA35 KWBC 102000 RRA
METAR
MPBO 102000Z 31004KT 260V010 9000 SCT018TCU SCT090 Q1012=
MPDA 102000Z 21010KT 9999 SCT020 31/24 Q1007=
MPMG 102000Z 30010KT 9999 FEW020 SCT090 28/23 Q1008 NOSIG=

0000013500
968
SAAF13 LFPW 102000 RRA
METAR GOGG 102000Z VRB02KT CAVOK 24/16 Q1012=
METAR GOSS 102000Z 36004KT CAVOK 18/15 Q1013=

0000016000
969
SAZA31 FAPR 102000 RRA
METAR FABL 102000Z AUTO 23005KT 9999 ////// 22/06 Q1017=
METAR FALW 102000Z AUTO 22007KT //// // ////// 16/10 Q1017=

0000009800
970
SAAP32 FAPR 102000 RRA
METAR FABL 102000Z AUTO 23005KT 9999 ////// 22/06 Q1017=

0000022300
971
FTUS31 KWBC 102015 AAA
TAF AMD
KBNA 102012Z 1020/1118 17012KT P6SM OVC015
     FM110500 19015G25KT 3SM -SHRA BR OVC009
      TEMPO 1107/1111 2SM TSRA OVC007CB
     FM111400 26010G20KT P6SM OVC040=

0000060300
972
SAPS31 NFFN 102000
METAR NCRG 102000Z 05011KT 9999 SCT023 28/24 Q1011=
METAR NFFN 102000Z 00000KT 9999 SCT028 BKN048 26/24 Q1006 NOSIG=
METAR NFNA 102000Z 17008KT 9999 BKN020 28/23 Q1006=
METAR NGFU 102000Z 28008KT 9999 SCT019TCU BKN310 28/26 Q1006=
METAR NGTA 102000Z NIL=
METAR NIUE 102000Z 03018KT 9999 SCT018 BKN110 28/24 Q1005=
METAR NSFA 102000Z 36017KT 9999 DZ SCT017 SCT036 OVC100 28/26 Q1006=
METAR NSTU 102000Z NIL=
METAR NTAA 102000Z 22005KT 9999 FEW020 29/22 Q1013 NOSIG=
METAR NWWW 102000Z AUTO 36003KT 9999 FEW062 25/15 Q1013=
METAR PLCH 102000Z NIL=

00000000