0000011000
953
UANT99 KDDL 110503
ARP ACA870 5109N02842W 0503 F340 MS60 195/66 KT
CFNNQ DDL XXN 110503 F19A
0000011000
954
UANT99 KDDL 110503
ARP VIR76X 5045N03641W 0503 F370 MS54 202/19 KT
GVROS DDL XXH 110503 F21A
0000011000
955
UANT99 KDDL 110503
ARP UAL27 5109N02852W 0503 F360 MS58 195/63 KT
N17122 DDL IG1 110503 F83A
0000011100
956
UANT99 KDDL 110503
ARP UAL936 5102N01753W 0503 F370 MS63 244/67 KT
N668UA DDL XXW 110503 F50A
0000063800
957
SAIR34 OIII 110500
METAR OIAG 110500Z  11012KT 8000 TSSHRA SCT035CB BKN040 13/10
 Q1020=
METAR OIAM 110500Z  09012KT 4000 -RA BKN010 FEW030CB OVC070 11/11
 Q1019=
METAR OICI 110500Z 14006KT 9999 SCT035 BKN090 03/03 Q1017 A3005=
METAR OIKQ 110500Z 06014KT 8000 FEW030 SCT100 14/04 Q1022=
METAR OINN 110500Z 00000KT CAVOK 07/04 Q1018=
METAR OINR 110500Z 00000KT CAVOK 07/04 Q1017=
METAR OISL 110500Z  00000KT 9999 FEW035CB SCT040 OVC100 09/02
 Q1021=
METAR OISY 110500Z  00000KT 1000 -SN FEW030CB SCT035 OVC080 M01/M01
 Q1022=
METAR OITZ 110500Z  15010KT 9000 FEW030CB SCT035 OVC090 M03/M05
 Q1017=
0000016300
958
SSVX13 LFPW 110500
ZZYY 13595 11014 0500/ 730270 019484 6113/ 22219 00199 33300 88872
 20000 43682 444 20130 11014 0456/ 50101 80108 80023 9/015=
0000015700
959
SSVX13 LFPW 110500
ZZYY 16592 11014 0500/ 346239 066485 6113/ 11119 40160 57002 22219
 00058 444 20130 11014 0456/ 50101 80118 80016 9/015=
0000015700
960
SSVX13 LFPW 110500
ZZYY 44610 11014 0500/ 750394 040815 6113/ 11119 40076 52013 22219
 00101 444 20130 11014 0400/ 50101 80150 80002 9/015=
0000011000
961
UANT01 CWAO 110502
ARP UAL38 5444N04335W 0502 F360 MS60 304/36 KT
N41135 DDL IG1 110502 F53A
0000007900
962
UAJP71 RJFF 110459
PIREP
BRAID F230 LGTM TURB AT 0459 BY A320
0000011000
963
UANT01 CWAO 110502
ARP UAL82 5143N05445W 0502 F320 MS58 292/56 KT
N78008 DDL YQX 110502 F19A
0000047600
964
SSVX08 KARS 110501
ZZYY 52004 10014 0000/ 305008 165171 6111/
33311 88870 20001 33066 20025 33001 20075 33033 20100 32928
20150 32662 20200 32047 20250 31393 20300 31040 20500 30819
444 20110 10014 0128/ 521//=
ZZYY 52007 10014 1200/ 308031 164802 6112/
33311 88872 20001 33060 43420 20025 32988 43453 20050 32895 43493
20075 32764 20100 32729 20125 32589 20150 32479 20200 32075
20250 31633 20300 31285 20500 30764
444 20120 10014 1053/ 521//=
0000011100
965
UANT01 CWAO 110502
ARP SVA022 4745N04124W 0502 F330 MS56 322/58 KT
HZAK17 QXT AME 110502 F19A
0000013800
966
UAPA01 KWBC 110503
ARP UAL1723 2600N 14610W 0455 F360 MS44 255/062KT=
ARP DAL1149 2600N 14610W 0455 F300 MS35 253/031KT=
0000011100
967
UANT01 CWAO 110503
ARP AWE734 4850N04106W 0503 F380 MS54 298/46 KT
N286AY DDL XXN 110503 J30A
0000012000
968
SNDL22 EDZW 110500 RRA
AAXX 11051
10439 42968 11602 11011 21018 39947 40175 58009 80001
  333 81072=
0000041400
969
SNDL44 EDZW 110500 RRA
AAXX 11051
10033 42365 82309 10072 20058 30041 40082 57014 876//
  333 87707 91014 91115=
10037 46/39 /2307 10064 20052 30064 40095 5/012=
10038 41362 82306 10065 20049 30077 40099 57012 72522 886//
  333 88708=
10126 41359 82106 10059 20048 30097 40113 57011 76122 877//
  333 87707=
10136 41345 72306 10058 20045 30070 40110 57013 71022 876//
  333 87707=
0000037600
970
SNDL45 EDZW 110500 RRA
AAXX 11051
10172 42360 82404 10047 20033 30043 40116 58008 876//
  333 81707 87709=
10238 42358 82003 10050 20033 30043 40139 57014 876//
  333 85708 87710=
10246 42458 82405 10048 20039 30028 40137 57014 886//
  333 88710=
10304 46/57 /2105 10049 20027 30081 40132 5/012=
10306 46/// ///// 1//// 2//// 3//// 4//// 5////=
0000027400
971
SNDL46 EDZW 110500 RRA
AAXX 11051
10334 42465 72404 10045 20023 30057 40143 57014 8353/
  333 83612 87362=
10335 42465 42404 10044 20017 30052 40145 57012 83530
  333 83613=
10343 42462 72303 10051 20026 30075 40140 57013 8657/
  333 86613 87361=
0000024200
972
SNDL47 EDZW 110500 RRA
AAXX 11051
10476 42680 32103 10026 20007 30036 40162 57010 83502
  333 83633=
10502 42982 41403 10012 20001 39996 40164 57010 84030
  333 84360=
10516 46/// /1202 10010 20003 30054 40176 5/010=
00000000