0000009600
473
SAPK31 OPMT 110500
METAR OPMT 110455Z 00000KTS 4000 FU FEW120 11/04 Q1022 NOSIG=
0000011300
474
SMOM66 OOMS 110000 RRI
AAXX 11004
41270 36/70 /0212 10181 20067 30151 40202
333 0E017 58014 =
0000080100
475
SACA31 KWBC 102000
METAR
MBJT NIL=
MBPV 102000Z 09013KT 9999 SCT012 28/21 Q1018=
MBSC NIL=
MKJP 102000Z 14024KT 9999 FEW022 29/23 Q1013=
MKJS 102000Z 08014KT 9999 FEW022 29/25 Q1014=
MUCM 101950Z 08015KT 9999 FEW020 29/16 Q1017=
MUCU 101950Z 13017KT 9999 FEW020 29/20 Q1015=
MUHA 101955Z 15009KT 120V180 9000 SCT030 29/18 Q1016=
MUVR 101951Z VRB06KT 9000 SCT020 29/20 Q1017=
MWCB 102000Z 10010KT 9999 FEW018TCU 29/23 Q1015=
MWCR 102000Z 10008KT 080V150 9999 FEW018 29/24 Q1015 NOSIG=
MYAM NIL=
MYAT NIL=
MYBS NIL=
MYEC NIL=
MYEG NIL=
MYEH NIL=
MYEM NIL=
MYGF 102000Z COR 16008KT 9999 SCT015 BKN180 26/22 A3008=
MYGF 102000Z 16008KT 9999 SCT015 BKN180 26/22 A3008=
MYGF 102000Z 16008KT 9999 SCT015 BKN180 26/22 A3022=
MYGW NIL=
MYNN NIL=

0000067100
476
SACA33 KWBC 102000
METAR
TBPB 102000Z 05016KT 9999 FEW018 26/21 Q1013 NOSIG=
TDPD 102000Z 10012KT 9999 SCT016 26/20 Q1015=
TDPR NIL=
TFFF 102000Z AUTO 06017KT 030V090 9999 BKN034 BKN040 BKN049 27/20
     Q1014=
TFFG NIL=
TFFJ NIL=
TFFR 102000Z 08013KT 9999 SCT031 SCT056 27/20 Q1015 NOSIG=
TGPY 102000Z 12018KT 8000 -SHRA BKN016 25/23 Q1013 TEMPO SHRA=
TGPZ NIL=
TLPC 102000Z 08009KT 9999 -SHRA SCT024 27/24 Q1014 NOSIG=
TLPL NIL=
TNCA 102000Z 07014KT 9999 FEW020 29/23 Q1011 A2988=
TNCB NIL=
TNCC NIL=
TNCE NIL=
TNCM NIL=
TTCP NIL=
TTPP NIL=
TVSM NIL=
TVSU NIL=
TVSV 102000Z 08017KT 9999 SCT020 28/21 Q1014=

0000102900
477
SACA35 KWBC 102000
METAR
MGGI NIL=
MGPB 102000Z 36010KT 9999 SCT018TCU 27/22 Q1013 A2991 TCU S=
MGSJ 102000Z 18004KT 9000 FEW018 31/24 Q1011 A2985 FU=
MHLC 102000Z 01005KT 9999 SCT020 BKN070 25/22 Q1013 A2992
     NOSIG=
MHLM 102000Z 02007KT 9999 SCT030 29/21 Q1012 A2989 NOSIG=
MHTG 102000Z 09006KT 9999 BKN030 25/14 Q1017 A3003=
MNPC 102000Z 09008KT 6000 VCRA BKN016TCU 26/25 Q1011 RESHRA TCURA
     SW/W/NW 94/=
MNPC 102000Z 09008KT 6000 VCRA BKN016TCU 26/25 Q1011 RESHRA TCURA
     SW/W/NW 94%=
MPBO NIL=
MPCH NIL=
MPDA NIL=
MPMG NIL=
MPSA NIL=
MPTO 102000Z 36004KT 9999 SCT020 32/20 Q1007 NOSIG=
MRLB 102000Z 06014KT CAVOK 33/17 A2976=
MRLM 102000Z 08005KT 9999 FEW035 30/22 A2985=
MROC 102000Z 08011KT 9999 FEW030 27/11 A2994 NOSIG=
MRPV 102000Z 06014KT 9999 FEW045 25/14 A2998 NOSIG=
MSLP 101950Z 17008KT 150V210 CAVOK 32/18 Q1009 A2980=
MSSS 101950Z 08003KT CAVOK 31/17 Q1013 A2994=
MZBZ 102000Z 06005KT 9999 FEW022 BKN045 28/22 A2993 Q1013
     NOSIG=

0000060100
478
SACA41 KWBC 102000
METAR
MKBK NIL=
MUBA NIL=
MUBY NIL=
MUCA NIL=
MUCL 101951Z 09013KT 9999 FEW020 28/23 Q1016=
MUCM 101950Z 08015KT 9999 FEW020 29/16 Q1017=
MUCU 101950Z 13017KT 9999 FEW020 29/20 Q1015=
MUGM 101956Z 12021KT 9999 FEW030 29/19 A3000 RMK PK WND 12028/1909
     SLP159 T02890189=
MUGT NIL=
MUHA 101955Z 15009KT 120V180 9000 SCT030 29/18 Q1016=
MUMO NIL=
MUMZ NIL=
MUNG NIL=
MUVR 101951Z VRB06KT 9000 SCT020 29/20 Q1017=
MUVT NIL=
MYEF NIL=
MYSM NIL=
TABS NIL=
TAOA NIL=
TBBI NIL=
TDCF 102000Z 17005KT 9999 SCT019 28/17 Q1013=

0000167800
479
SAUS71 KWBC 102000 RRB
METAR
KGON 101956Z 00000KT 1 1/4SM R05/5000VP6000FT -RA BR SCT009 BKN013
     OVC035 02/02 A3039=
KGSO 101954Z 02004KT 4SM -RA BR BKN004 OVC008 03/02 A3023=
KGSP 101953Z 04007KT 1 1/4SM -RA BR OVC004 08/07 A3017=
KHFD 101953Z 00000KT 2 1/2SM BR BKN014 OVC044 01/M01 A3038=
KHKY 101953Z 00000KT 2 1/2SM -RA BR OVC003 07/06 A3020=
KHPN 101956Z 11003KT 5SM BR OVC007 01/M02 A3035=
KHTS 101951Z 08004KT 10SM BKN013 OVC026 10/08 A3008=
KHVN 101953Z 00000KT 1 1/2SM R02/5000VP6000FT BR SCT003 OVC010
     02/01 A3038=
KHYA 101956Z 18007KT 10SM -RA OVC018 03/01 A3039=
KIAD 101952Z 00000KT 1 1/2SM -DZ BR OVC005 02/01 A3032=
KIAG NIL=
KILG 101951Z 04003KT 1 3/4SM BR SCT005 OVC012 03/02 A3035=
KILM 101953Z AUTO 13011G16KT 10SM CLR 23/15 A3022=
KINT 101954Z 01006KT 1 1/2SM RA BR OVC003 03/03 A3024=
KIPT 101954Z 07006KT 5SM HZ BKN019 OVC070 01/M03 A3030=
KISP 101956Z 02003KT 1SM R06/P6000FT -DZ BR SCT018 OVC023 03/01
     A3036=
KJFK 101951Z 01005KT 1SM -DZ BR FEW003 OVC023 03/01 A3039=
KJST 101954Z AUTO 19004KT 4SM BR OVC003 04/03 A3016=
KLBE 101950Z 00000KT 8SM SCT009 BKN027 07/07 A3019=
KLCK 101955Z AUTO 14005KT 10SM BKN007 OVC040 07/05 A3007=
KLEB 101953Z 00000KT 8SM OVC030 M02/M07 A3031=
KLGA 101951Z COR 05004KT 1 1/2SM R04/5000VP6000FT BR BKN012 OVC024
     00/M02 A3038=
KLGA 101951Z 05004KT 1 1/2SM R04/5000VP6000FT UP BR BKN012 OVC024
     00/M02 A3038=
KLUK 101953Z 14006KT 10SM BKN011 OVC055 10/08 A3003=
KLWM 101954Z 00000KT 9SM OVC011 00/M03 A3038=
KLYH 101954Z 03005KT 2 1/2SM -RA BR OVC003 02/02 A3027=
KMDT 101956Z 00000KT 2 1/2SM BR OVC008 01/M02 A3033=

0000166400
480
SAUS71 KWBC 102000 RRC
METAR
KMFD 101952Z 16012KT 1/2SM FG VV002 03/03 A3006=
KMGW 101953Z 00000KT 10SM OVC017 10/07 A3016=
KMHT 101953Z 18004KT 9SM OVC020 M01/M02 A3034=
KMIV 101954Z AUTO 00000KT 1 3/4SM BR OVC002 04/04 A3034=
KMMU NIL=
KMRB 101953Z 36005KT 3SM HZ OVC009 03/01 A3029=
KMSS 101953Z AUTO 20003KT 9SM OVC018 00/M03 A3025=
KMTN NIL=
KMYR NIL=
KNKT 101954Z 14011KT 10SM FEW032 SCT042 BKN090 20/13 A3027=
KOQU 101950Z 00000KT 2 1/2SM BR SCT010 OVC020 M01/M01 A3010=
KORF 101951Z AUTO 35007KT 2 1/2SM -RA BR BKN004 OVC046 05/03
     A3033=
KORH 101954Z 22008KT 9SM OVC005 00/M01 A3032=
KPHF NIL=
KPHL 101954Z 08003KT 1 3/4SM BR SCT006 BKN015 OVC025 02/01
     A3037=
KPIT 101951Z 15006KT 10SM SCT023 BKN045 OVC100 07/05 A3014=
KPKB 101953Z 08005KT 10SM OVC029 10/07 A3014=
KPLB NIL=
KPOU 101953Z 00000KT 7SM OVC014 01/M03 A3036=
KPQI 101955Z AUTO 11003KT 10SM CLR M08/M19 A3025=
KPSM 101958Z 21004KT 10SM SCT018 BKN023 OVC070 M01/M01 A3036=
KPVD 101951Z 00000KT 1SM R05/P6000FT BR BKN014 OVC021 00/M01
     A3040=
KPWM 101951Z 23007KT 10SM SCT060 BKN070 BKN085 M02/M06 A3037=
KRDG 101954Z 00000KT 3SM HZ OVC015 01/M02 A3034=
KRDU 101951Z 00000KT 1 1/2SM -RA BR OVC004 07/06 A3024=
KRIC 101954Z 07004KT 2 1/2SM -RA BR BKN004 OVC017 04/03 A3031=
KROA 101954Z 00000KT 1SM -RA BR BKN004 OVC007 03/03 A3026=
KROC 101954Z 20006KT 10SM BKN028 OVC060 04/M01 A3018=
KRWI 101953Z AUTO 05005KT 3SM -RA BR FEW005 OVC100 09/08 A3025=
KSAV 101953Z 15004KT 10SM -RA BKN010 BKN025 BKN040 BKN130 21/18
     A3012=
KSBY 101954Z 08003KT 2 1/2SM -RA BR OVC003 07/05 A3034=
KSCH NIL=

0000050600
481
SAUS71 KWBC 102000 RRD
METAR
KSLK 101951Z AUTO 22009KT 5SM BR OVC017 M03/M05 A3016=
KSWF NIL=
KSYR 101954Z 17003KT 10SM BKN030 OVC045 03/M01 A3023=
KTEB 101951Z 00000KT 2SM -RA SCT011 OVC025 01/M02 A3037=
KTOL 101952Z 15006KT 10SM OVC007 03/02 A3000=
KTTN 101953Z 05003KT 1 1/2SM BR OVC004 01/00 A3035=
KUCA NIL=
KWRI 101958Z AUTO 33004KT 1 3/4SM BR OVC003 03/02 A3033=
KYNG 101951Z 14007KT 4SM BR OVC005 03/02 A3010=
KZZV 101953Z AUTO 14005KT 7SM OVC007 07/04 A3011=

0000171300
482
SAUS72 KWBC 102000
METAR
KABI 101952Z 26014G20KT 10SM CLR 21/M01 A2973=
KABQ 101952Z 33005KT 10SM FEW070 FEW100 09/M08 A2993=
KABY 101953Z 05005KT 2SM BR OVC004 14/13 A3011=
KACT 101951Z 22014KT 10SM FEW028 21/16 A2975=
KAEX 101953Z 15009KT 7SM OVC006 16/14 A2987=
KAFW 101953Z 21011G17KT 9SM FEW035 SCT110 18/16 A2969=
KAHN 101951Z 06005KT 3SM BR OVC005 08/07 A3015=
KALI 101953Z AUTO 20015KT 10SM BKN042 27/16 A2980=
KAMA 101953Z 32008G15KT 10SM CLR 12/M12 A2973=
KANB 101953Z AUTO 08008KT 5SM BR BKN007 OVC021 10/08 A3007=
KAPF 101953Z 15010KT 10SM CLR 28/21 A3005=
KATL 101952Z 09009KT 1/4SM -DZ BR OVC002 09/08 A3011=
KAUS 101953Z 20016G21KT 10SM FEW010 BKN020 BKN060 OVC200 20/17
     A2979=
KBFM 101953Z 00000KT 10SM OVC015 16/13 A3003=
KBHM 101953Z VRB04KT 3SM BR OVC005 11/08 A3006=
KBNA 101953Z 17010G17KT 10SM OVC014 12/09 A2998=
KBPT 101953Z 17008KT 10SM BKN036 OVC044 20/16 A2988=
KBQK 101955Z AUTO 12006KT 1 1/4SM OVC005 20/19 A3013=
KBRO 101953Z 19017G27KT 10SM FEW025 27/19 A2983=
KBTR 101953Z 15009KT 10SM BKN014 OVC049 19/14 A2995=
KCEW 101953Z AUTO 07003KT 1 1/4SM BR OVC002 14/14 A3005=
KCHA 101953Z 05003KT 2 1/2SM BR OVC004 08/07 A3009=
KCLL 101953Z 19007KT 2SM -RA BR SCT004 SCT008 OVC014 18/17
     A2981=
KCNM 101953Z AUTO 27020G28KT 10SM CLR 19/M11 A2983=
KCRP 101951Z 17011KT 10SM FEW015 BKN035 BKN050 23/20 A2982=
KCSG 101951Z 09004KT 1 3/4SM BR OVC003 11/10 A3009=
KCSV 101953Z AUTO 17006KT 10SM OVC006 09/08 A3004=
KDAB 101953Z 12006KT 10SM SCT011 SCT050 23/19 A3010=
KDAL 101953Z 21007KT 8SM FEW018 SCT042 BKN100 OVC250 19/16
     A2970=
KDFW 101953Z 21015KT 10SM FEW010 SCT040 OVC100 18/16 A2969=

0000170500
483
SAUS72 KWBC 102000 RRA
METAR
KDHN 101953Z 11004KT 1SM BR OVC002 14/13 A3010=
KDLF 101958Z AUTO VRB02KT 10SM SCT160 16/11 A2985=
KDMN 101953Z AUTO 25018G26KT 10SM CLR 14/M09 A3001=
KELP 101951Z 26019G26KT 10SM CLR 16/M10 A2996=
KESF 101953Z AUTO 16005KT 8SM OVC010 18/14 A2989=
KEYW 101953Z 11011KT 10SM FEW019 26/22 A3003=
KFLL 101953Z 13013KT 10SM SCT019 BKN065 BKN210 24/22 A3007=
KFSM 101953Z 06005KT 1SM R25/P6000FT -RA BR SCT035 BKN060 OVC070
     09/08 A2970=
KFTW 101953Z 22008KT 10SM FEW037 SCT095 18/16 A2969=
KFTY 101953Z 07006KT 1 1/2SM BR OVC002 09/09 A3011=
KGGG 101953Z 19018G24KT 10SM BKN033 BKN039 BKN080 21/14 A2975=
KGLS 101952Z 16012KT 10SM SCT039 BKN047 OVC055 18/17 A2987=
KGNV 101953Z VRB05KT 10SM FEW026 SCT039 BKN050 26/20 A3008=
KGPT 101953Z 11009KT 1 1/2SM -RA BR OVC005 16/14 A2999=
KGUP 101953Z AUTO 29020G27KT 10SM CLR 09/M08 A3003=
KGWO 101953Z AUTO 17014KT 10SM OVC047 17/09 A2994=
KHOT 101953Z AUTO 09003KT 4SM RA BR OVC004 11/11 A2979=
KHOU 101953Z 15008KT 10SM FEW017 OVC050 21/17 A2984=
KHRL 101952Z 20021G32KT 10SM FEW025 SCT031 27/18 A2982=
KHRO 101953Z AUTO 19008KT 10SM -RA FEW048 BKN065 OVC080 11/09
     A2971=
KHSV 101953Z 15008KT 10SM OVC014 12/08 A3002=
KIAH 101953Z 16010KT 10SM SCT012 OVC025 19/17 A2984=
KINK 101953Z AUTO 29014G21KT 10SM CLR 21/M07 A2983=
KJAN 101954Z 16009G17KT 10SM FEW011 OVC041 16/11 A2996=
KJAX 101956Z 14010KT 10SM SCT028 BKN050 24/19 A3009=
KJBR 101953Z AUTO 16009KT 10SM SCT029 OVC100 08/07 A2986=
KLBB 101953Z 28025G32KT 7SM CLR 16/M09 A2972=
KLCH 101953Z 17010KT 10SM BKN007 OVC042 18/17 A2989=
KLFT 101953Z 17010G18KT 10SM BKN017 OVC025 21/17 A2992=

0000012200
484
SACN62 CYPL 102000
METAR CYPL 102000Z 18007KT 1 1/2SM -SN BR OVC005 M08/M09 A2951 RMK
 FG2SF6 SLP021=

0000014300
485
SACN62 CYPW 102000
METAR CYPW 102000Z 11003KT 25SM FEW025 FEW035 BKN080 OVC220 06/04
 A2996 RMK CF1SC1AC4CS3 CF TR SLP150=

0000010600
486
SACN62 CYUT 102000
METAR CYUT 102000Z 30012KT 25SM FEW040 M28/M32 A2942 RMK SC1 SLP966=

0000012700
487
SACN62 CYQU 102000
METAR CYQU 102000Z 26017G22KT 25SM DRSN FEW060 SCT210 M02/M09 A2949
 RMK SC1CI2 SLP022=

0000081400
488
SACI31 ZBBB 102000
METAR ZBAA 102000Z 36002MPS 6000 NSC M10/M21 Q1032 NOSIG=
METAR ZBSJ 102000Z 29002MPS 1800 FU NSC M07/M14 Q1032 NOSIG=
METAR ZBTJ 102000Z 26001MPS 1100 R16R/1600VP2000N BR NSC
M03/M07
Q1032 NOSIG=
METAR ZBYN 102000Z 09001MPS 6000 NSC M10/M20 Q1028 NOSIG=
METAR ZGGG 102000Z 08002MPS 040V170 6000 BKN040 13/08 Q1024 NOSIG=
METAR ZSHC 102000Z 00000MPS 6000 -RA SCT030 05/02 Q1031 NOSIG=
METAR ZSPD 102000Z 09004MPS 050V120 CAVOK 06/M00 Q1031 NOSIG=
METAR ZSSS 102000Z 10002MPS CAVOK 06/M00 Q1031 NOSIG=
METAR ZWSH 102000Z AUTO 33004MPS //// M08/M12 Q1033=
METAR ZWWW 102000Z 27001MPS 0600 R25/1200N FZFG NSC M19/M21 Q1037
NOSIG=
METAR ZYTL 102000Z 31001MPS 3000 BR SCT033 M06/M09 Q1031 NOSIG=
METAR ZYTX 102000Z VRB01MPS 6000 NSC M17/M21 Q1031 NOSIG=

0000012600
489
SACN62 CYRL 102000 CCA
METAR CYRL 102000Z CCA 15007KT 4SM -SN BR OVC006 M07/M08 A2943 RMK
 FG2SC6 SLP993=

0000013600
490
SACN62 CYYF 102000
METAR CYYF 102000Z 19003KT 160V220 15SM BKN070 BKN120 BKN240 03/M01
 A2984 RMK AC5AC1CI1 SLP117=

0000010700
491
SACN62 CYRT 102000
METAR CYRT 102000Z 35010KT 15SM IC DRSN SKC M31/M35 A2964 RMK SLP041=

0000012900
492
SACN62 CYXY 102000
METAR CYXY 102000Z 00000KT 40SM FEW020 BKN060 BKN100 M12/M13 A2931
 RMK SF1SC5AC1 SLP982=

00000000