0000009800
033
SPUS41 KWBC 101940
SPECI
KERI 101936Z 18008KT 10SM BKN012 OVC049 04/02 A3012=

0000027800
034
FTNL31 EHDB 101700 AAA
TAF AMD EHGG 101941Z 1019/1124 22011KT 9999 SCT020 BECMG 1019/1022
BKN010 PROB30 1020/1106 6000 BKN007 BECMG 1106/1109 6000 -RADZ BKN007
TEMPO 1109/1114 3500 DZRA BECMG 1111/1114 34019G29KT 9999 NSW SCT020
BECMG 1114/1116 28013KT=

0000014900
035
FCMP31 LMMM 102000
TAF LMML 102000Z 1021/1106 21007KT CAVOK PROB30 TEMPO 1100/1106 8000
SCT012 =
TAF HLLT NIL=
TAF HLLB NIL=

0000009100
036
SPCN44 CWAO 101940
SPECI CYMJ 101940Z 27002KT 1 1/4SM BR OVC004 RMK ST8=

0000015500
037
FTSP36 LEMM 101400 AAA
TAF AMD LEMH 101940Z 1019/1115 08005KT 9999 FEW016 TX16/1113Z
TN09/1106Z PROB30 TEMPO 1019/1108 4000 BR BKN006=

0000017400
038
FTCN34 CWAO 101900
TAF CYRL 101941Z 1020/1103 17008KT 2SM -SN BR OVC004 TEMPO 1020/1103
     4SM -SN OVC008
    RMK NXT FCST WILL BE ISSUED AT 111145Z=

0000019200
039
FTCN34 CWAO 101900
TAF CYQK 101941Z 1020/1108 17012KT 11/2SM -SN BR OVC003 TEMPO
     1020/1108 3SM BR OVC007
     BECMG 1104/1106 21005KT
    RMK NXT FCST BY 110200Z=

0000025900
040
FTCN34 CWAO 101900
TAF CYTL 101941Z 1020/1108 VRB03KT 3SM -SN OVC015 TEMPO 1020/1022 6SM
     -SN SCT015 OVC025
    FM102200 VRB03KT 3SM -SN OVC015 TEMPO 1022/1108 1SM -SN BR OVC009
    RMK FCST BASED ON AUTO OBS. NXT FCST BY 110200Z=

0000009400
041
SPUS31 KWBC 101941
SPECI
KORD 101937Z 16010KT 2SM BR OVC005 02/M01 A2979=

0000010100
042
SPUS31 KWBC 101941
SPECI
KRDU 101937Z 04006KT 1 1/2SM -RA BR OVC004 07/06 A3023=

0000010300
043
SPUS41 KWBC 101941
SPECI
KINT 101937Z 03004KT 2SM RA BR BKN003 OVC009 04/03 A3024=

0000011200
044
SPUS42 KWBC 101941
SPECI
KAUS 101937Z 21009KT 10SM FEW010 BKN020 BKN060 OVC200 20/18 A2980=

0000022900
045
FTCN34 CWAO 101900
TAF CYQT 101941Z 1020/1108 20008KT 6SM BR OVC012 TEMPO 1020/1101 5SM
     -SN BR OVC009
    FM110100 16005KT 3SM BR OVC008 TEMPO 1101/1108 1SM -SN BR OVC004
    RMK NXT FCST BY 110200Z=

0000016200
046
FTCN34 CWAO 101900
TAF CYXL 101941Z 1020/1108 18008KT 2SM -SN BR OVC006 TEMPO 1020/1108
     6SM -SN BR OVC010
    RMK NXT FCST BY 110200Z=

0000029500
047
FTCN35 CWAO 101900
TAF CYTS 101941Z 1020/1108 19012KT P6SM -SN SCT015 OVC030 TEMPO
     1020/1102 5SM -SN OVC015
    FM110200 18008KT 6SM -SN OVC015 TEMPO 1102/1106 2SM -SN
    FM110600 14008KT 2SM -SN OVC010 TEMPO 1106/1108 1/2SM SN VV004
    RMK NXT FCST BY 110200Z=

0000022800
048
FTCN34 CWAO 101900
TAF CYGQ 101941Z 1020/1108 21012KT P6SM -SN OVC015 TEMPO 1020/1103
     5SM -SN OVC008
    FM110300 18005KT 2SM -SN BR OVC006 TEMPO 1103/1108 4SM BR OVC009
    RMK NXT FCST BY 110200Z=

0000021600
049
FTCN34 CWAO 101900
TAF CYHD 101941Z 1020/1108 18012KT 21/2SM -SN BR OVC005 TEMPO
     1020/1108 6SM BR OVC010
     BECMG 1100/1102 18005KT
    RMK FCST BASED ON AUTO OBS. NXT FCST BY 110200Z=

0000022800
050
FTCN35 CWAO 101900
TAF CYYU 101941Z 1020/1108 19015KT 6SM -SN OVC015 TEMPO 1020/1107 5SM
     -SN OVC008
    FM110700 14007KT 3SM -SN OVC008 TEMPO 1107/1108 11/2SM -SN OVC005
    RMK NXT FCST BY 110200Z=

0000051100
051
FTUS73 KWBC 101942 AAA
TAF AMD
KFWA 101938Z 1020/1118 16010KT 4SM BR OVC020
      TEMPO 1022/1024 2SM -SHRA SCT007 OVC015
     FM110000 16012KT 2SM -RA BR OVC005
     FM111300 24014G22KT 3SM BR VCSH BKN008 OVC015=
KLAN 101938Z 1020/1118 17009KT 5SM -RA BR OVC006
      TEMPO 1020/1024 1 1/2SM -RA BR OVC004
     FM110000 16012KT 2SM RA BR OVC009
     FM110200 16016G23KT 1 1/2SM -RA BR OVC005
     FM110500 18013G21KT 1SM -RA BR OVC003
     FM111400 22012KT 1SM BR OVC004=

0000010700
052
SANT31 KWBC 101900 RRD
METAR
GVAC 101930Z NIL=
LPBJ 101930Z NIL=
LPLA 101930Z NIL=

00000000