0000038500
933
SAID31 WIII 102000
METAR WADD 102000Z VRB01KT 9999 FEW015CB FEW017 SCT033 26/24 Q1008
NOSIG= 
METAR WAAA 102000Z 09005KT 5000 -TSRA FEW017CB BKN019 24/24 Q1010= 
METAR WIII 102000Z 22003KT 3600 BR FEW021 SCT110 25/23 Q1008 NOSIG= 
METAR WARR 102000Z 22001KT 5000 HZ FEW020 25/23 Q1009= 
METAR WIHH NIL=
METAR WIMM NIL=
METAR WABB NIL=
METAR WIDD NIL=

0000039700
934
SAPO31 LPMG 102000
METAR LPBJ 102000Z VRB02KT 9999 FEW040 12/08 Q1014=
METAR LPFR 102000Z 03003KT CAVOK 13/10 Q1013=
METAR LPMA 102000Z 34008KT 300V030 9999 FEW015 17/11 Q1015 RS29003KT
0535012KT 2334008KT=
METAR LPPR 102000Z 35004KT 330V030 CAVOK 09/08 Q1015=
METAR LPPS 102000Z 03005KT 010V080 9999 SCT014 17/15 Q1015=
METAR LPPT 102000Z 33008KT CAVOK 13/11 Q1014=

0000010100
935
SACA32 KWBC 102000 RRB
METAR
MTPP 102000Z 08013KT 9999 FEW030 32 Q1014/7 A29/96=

0000027000
936
SAIO31 KWBC 102000 RRB
METAR
WBGG 102000Z 00000KT 8000 -RA FEW000 SCT020 BKN150 23/22 Q1011
     NOSIG=
WBKK 102000Z 11004KT 070V140 9999 FEW014 SCT140 BKN280 24/23 Q1010
     NOSIG=
WBSB 102000Z 23002KT 9999 FEW005 BKN300 24/24 Q1011 NOSIG=

0000017900
937
SAID33 WIII 102000
METAR WABP NIL=
METAR WAJJ NIL=
METAR WAKK NIL=
METAR WAPP NIL=
METAR WARS NIL=
METAR WATT NIL=
METAR WALR NIL=
METAR WARQ NIL=

0000035600
938
SAPO32 LPMG 102000
METAR LPAZ 102000Z 19016KT 9999 BKN009 BKN015 16/15 Q1012=
METAR LPFL 102000Z NIL=
METAR LPHR 102000Z 18006KT 150V220 9999 SCT008 BKN012 BKN025 13/11
Q1008=
METAR COR LPLA 102000Z 21013KT 3500 -RADZ BR SCT006 BKN008 BKN017
      15/14 Q1006=
METAR LPPD 102000Z 19016KT 4000 -SHRA BKN006 BKN010 16/15 Q1010=

0000047900
939
FCMC31 GMMC 102000
TAF GMAD 102000Z 1022/1107 23008KT 8000 BKN016 BKN100 TEMPO 1022/1103
RA=
TAF GMME 102000Z 1022/1107 VRB03KT 6000 SCT013 BKN016 BKN100 TEMPO
     1022/1107 22006KT 4000 RA=
TAF GMMN 102000Z 1022/1107 32012KT 8000 BKN016 BKN100 PROB30 TEMPO
1022/1107 6000 RA=
TAF GMMX 102000Z 1022/1107 22012KT 6000 SHRA BKN020 FEW033CB SCT090=
TAF GMTT 102000Z 1022/1107 10012KT 8000 SCT016 BKN100 TEMPO 1100/1107
     3000 RA BKN016 BKN090=

0000031200
940
FCMC32 GMMC 102000
TAF GMFF 102000Z 1022/1107 12004KT 9999 SCT030 BKN100=
TAF GMFO 102000Z 1022/1107 20017KT 9999 FEW023 SCT100 TEMPO 1002/1107
22010KT RA SCT020 SCT100=
TAF GMFB 102000Z NIL=
TAF GMML 102000Z NIL=
TAF GMMW 102000Z NIL=
TAF GMMZ 102000Z NIL=
TAF GMTA 102000Z NIL=

0000019700
941
SAID32 WIII 102000
METAR WAMM NIL=
METAR WIBB NIL=
METAR WIDN NIL=
METAR WIPT NIL=
METAR WIOO NIL=
METAR WIPP NIL=
METAR WAOO NIL=
METAR WALL NIL=
METAR WADL NIL=

0000128500
942
SAAU31 YBBN 102000
METAR YPAD 102000Z 15006KT 9999 FEW016 17/09 Q1018
NOSIG=
METAR YBAS 102000Z AUTO 30006KT 9999 // NCD 20/M09 Q1014=
METAR YBBN 102000Z 17006KT 9999 FEW025 BKN060 22/18 Q1018=
METAR YBCS 102000Z 18012KT 6000 -SHRA FEW008 SCT020 BKN050 24/23
Q1010=
METAR YSCB 102000Z 00000KT CAVOK 15/13 Q1020
RMK 1AC140=
METAR YPXM 102000Z AUTO 23003KT //// // ////// 23/22 Q1010=
METAR YPCC 102000Z AUTO 16011KT 9999 // NCD 26/22 Q1010=
METAR YCFS 102000Z AUTO 36002KT 9999 // NCD 20/18 Q1019=
METAR YPDN 102000Z 12004KT CAVOK 25/23 Q1007=
METAR YBCG 102000Z AUTO 00000KT 9999 // SCT057 20/19 Q1019=
METAR YHID 102000Z AUTO 08007KT //// // ////// 28/25 Q1006=
METAR YPJT 102000Z AUTO 10011KT 9999 // NCD 24/10 Q1015=
METAR YPKU 102000Z AUTO 08001KT 9999 // NCD 27/24 Q1008=
METAR YPLM 102000Z AUTO 23005KT 9999 // NCD 28/23 Q1005=
METAR YMML 102000Z 17008KT 9999 FEW012 BKN014 17/15 Q1018
FM2000 18008KT 9999 BKN008=
METAR YPPH 102000Z 09018KT CAVOK 25/10 Q1014=
METAR YSSY 102000Z 32006KT CAVOK 21/17 Q1018
RMK HZ
NOSIG=
METAR YSTW 102000Z AUTO 00000KT 9999 // OVC115 20/15 Q1020=
METAR YPTN 102000Z AUTO 00000KT 9999 // NCD 25/23 Q1008=
METAR YBTL 102000Z 16012KT 9999 FEW014 SCT025 BKN069 26/22 Q1012
RMK HZ=

0000127800
943
SAAU32 YBBN 102000
METAR YAMB 102000Z AUTO 00000KT 9999 // NCD 19/18 Q1019=
METAR YMAV 102000Z AUTO 27007KT 9999 // OVC013 16/13 Q1018=
METAR YBRM 102000Z AUTO 25011KT 9999 // BKN022 29/24 Q1007=
METAR YCIN 102000Z AUTO 01004KT //// // BKN013 OVC018 27/25 Q1008=
METAR YSDU 102000Z AUTO 15008KT 9999 // NCD 19/17 Q1019=
METAR YFRT 102000Z AUTO 15009KT //// // ////// 16/16 Q1020=
METAR YGEL 102000Z AUTO 15008KT 9999 // NCD 18/17 Q1010=
METAR YPGV 102000Z AUTO 13004KT 9999 // SCT046 SCT068 BKN086 25/24
Q1007=
METAR YBHM 102000Z AUTO 11019KT 9999 // ////// 26/22 Q1013=
METAR YMHB 102000Z 14005KT 9999 FEW009 SCT012 BKN250 16/13 Q1014=
METAR YPKG 102000Z AUTO 13010KT 9999 // NCD 20/10 Q1019=
METAR YMLT 102000Z AUTO 31006KT 9999 // SCT105 16/15 Q1013=
METAR YBMA 102000Z AUTO 16008KT 9999 // NCD 28/17 Q1011=
METAR YSNF 102000Z 11008KT 9999 FEW025 BKN057 20/11 Q1019=
METAR YPEA 102000Z AUTO 09010G21KT 9999 // NCD 26/10 Q1014=
METAR YPPD 102000Z AUTO 31008KT 9999 // SCT013 29/27 Q1007=
METAR YSRI 102000Z AUTO 00000KT 9999 // NCD 16/16 Q1018=
METAR YBRK 102000Z 11008KT 9999 FEW016 BKN300 22/20 Q1015=
METAR YWLM 102000Z AUTO 00000KT 9999 // NCD 19/17 Q1018=
METAR YPWR 102000Z AUTO 15009KT 9999 // NCD 23/10 Q1016=

0000028000
944
SANG31 YBBN 102000
METAR AYPY 102000Z NIL=
METAR AYWK 102000Z NIL=
METAR AYVN 102000Z NIL=
METAR AYNZ 102000Z NIL=
METAR AYMH 102000Z NIL=
METAR AYGN 102000Z NIL=
METAR AYMO 102000Z NIL=
METAR AGGH 102000Z 14002KT 9999 FEW016 FEW016CB 25/23 Q1007=

0000009500
945
SAFR32 LFPW 102000 RRA
METAR LFCK 102000Z AUTO 12020KT 9999 NSC 11/07 Q1016=

0000010600
946
SAAF05 LFPW 102000 RRA
METAR DBBB 102000Z 19008KT 6000 FEW013 BKN200 28/26 Q1010 NOSIG=

0000015000
947
SAAF08 LFPW 102000 RRA
METAR DFFD 102000Z 06005KT 6000 NSC 26/04 Q1013 NOSIG=
METAR GABS 102000Z 07005KT CAVOK 28/05 Q1012 NOSIG=

0000022700
948
SAAF11 LFPW 102000 RRA
METAR FCPP 102000Z 16009KT 9999 FEW013 BKN023 27/24 Q1012 NOSIG=
METAR FKKD 102000Z 00000KT 8000 FEW016 BKN300 27/25 Q1012 NOSIG=
METAR FKKR 102000Z 00000KT CAVOK 25/03 Q1013 NOSIG=

0000022300
949
SAAF14 LFPW 102000 RRA
METAR DRRN 102000Z 06004KT 3500 DU NSC 24/M01 Q1014 NOSIG=
METAR FEFF 102000Z 00000KT 2000 BR NSC 22/19 Q1012 BECMG 6000 NSW=
METAR FTTJ 102000Z 02007KT CAVOK 22/01 Q1017 NOSIG=

0000021300
950
SAAF27 LFPW 102000 RRA
METAR DGAA 102000Z 20009KT 9999 BKN011 27/25 Q1011 NOSIG=
METAR FGBT 102000Z 23008KT 9999 FEW010 27/24 Q1011 NOSIG=
METAR GUCY 102000Z 22006KT CAVOK 27/22 Q1010 NOSIG=

0000046900
951
SANM40 FYWW 102000
METAR FYGB 102000Z AUTO 18001KT //// // ////// 23/05 Q1019=
METAR FYGO 102000Z AUTO 21005KT //// // ////// 24/16 Q1014=
METAR FYKT 102000Z AUTO 20009KT //// // ////// 26/06 Q1016=
METAR FYLZ 102000Z AUTO 16016KT //// // ////// 18/07 Q1013=
METAR FYOA 102000Z AUTO 13003KT //// // ////// 25/03 Q1012=
METAR FYOW 102000Z AUTO 18001KT //// // ////// 20/03 Q1016=
METAR FYWB 102000Z AUTO 26006KT //// // ////// 18/14 Q1013=

0000003800
952
SAUK53 EGRR 110500
NIL
00000000