0000166500
233
SAUS75 KWBC 101700
METAR
PABA 101701Z AUTO 28022KT 1 1/2SM -SN BR M25/M27 A2987=
PABE 101653Z 03010KT 10SM OVC006 M08/M09 A2946=
PABI 101653Z 00000KT 9SM -SN BKN047 BKN070 OVC090 M18/M20
     A2949=
PABR 101653Z 32011KT 10SM CLR M26/M29 A2993=
PABT 101653Z 00000KT 10SM FEW240 M33/M35 A2966=
PACV 101653Z 08005KT 3SM -SN BR FEW010 BKN034 OVC041 M01/M01
     A2936=
PACZ 101655Z AUTO 07010KT 10SM OVC039 M04/M06 A2941=
PADK 101656Z AUTO 23016KT 7SM BKN014 BKN019 OVC029 04/02 A2895=
PADL NIL=
PADU 101656Z 00000KT 10SM SCT045 OVC055 02/M02 A2933=
PAEH 101655Z AUTO 15016G24KT 10SM -SHRA OVC013 02/00 A2936=
PAEI 101658Z AUTO 00000KT 10SM BKN010 OVC060 M18/M21 A2956=
PAEN 101653Z 00000KT 1/2SM FZFG VV003 M04/M04 A2941=
PAFA 101653Z 00000KT 10SM FEW050 OVC080 M17/M20 A2957=
PAFB 101655Z 00000KT 7SM VCSH BKN070 OVC090 M19/M21 A2957=
PAGA 101658Z AUTO 00000KT 10SM CLR M22/M24 A2968=
PAGK 101653Z AUTO 00000KT 1 3/4SM -SN BR OVC031 M09/M11 A2933=
PAGS 101656Z AUTO 12009KT 9SM BKN017 OVC025 02/01 A2948=
PAGY 101653Z AUTO 20019G24KT 10SM BKN080 03/00 A2941=
PAHO 101653Z 02003KT 10SM OVC013 M01/M04 A2941=
PAIL 101653Z 34004KT 10SM OVC022 M03/M04 A2947=
PAJN 101653Z 07007KT 10SM -RA FEW011 BKN030 OVC038 02/01 A2951=
PAKN 101654Z 00000KT 7SM BKN004 OVC030 M03/M03 A2945=
PAKT 101653Z 15005KT 10SM FEW015 BKN038 BKN055 02/01 A2970=
PALU 101655Z AUTO 10005KT 10SM OVC013 M19/M20 A3004=
PAMC 101653Z 00000KT 10SM OVC055 M14/M17 A2956=
PANC 101653Z 00000KT 10SM -SN FEW005 OVC014 M03/M04 A2940=
PANT 101653Z 24004KT 10SM BKN080 02/01 A2970=
PAOM 101653Z 05010KT 10SM SCT095 M10/M15 A2963=

0000012800
234
SACN62 CYXU 101700
METAR CYXU 101700Z 18006KT 3/4SM R15/5000FT/N BR OVC002 00/M00 A3015
 RMK FG5SF3 SLP225=

0000005200
235
RRIN23 VIDP 110947
RQRPT 414-475=

0000013100
236
SACN62 CYYF 101700
METAR CYYF 101700Z 15013G20KT 15SM SCT080 BKN140 OVC200 02/M01 A2980
 RMK AC3AC2CI3 SLP106=

0000121100
237
SAUS75 KWBC 101700 RRA
METAR
PAOR 101653Z VRB03KT 3SM -SN BKN020 OVC042 M14/M17 A2938=
PAOT 101653Z 32004KT 10SM CLR M19/M24 A2977=
PAPG 101655Z 00000KT 5SM -RA BR BKN013 OVC025 02/01 A2959=
PASC 101653Z 24012KT 10SM OVC023 M31/M34 A2988=
PASI 101653Z 09005KT 10SM FEW026 BKN049 OVC060 02/01 A2958=
PASN 101653Z 23003KT 9SM BKN016 M01/M02 A2916=
PATA 101652Z 31003KT 10SM CLR M31/M34 A2965=
PATC 101655Z AUTO 02021KT 10SM CLR M18/M20 A2973=
PATK 101653Z AUTO 00000KT 10SM OVC018 M06/M08 A2940=
PAUN 101656Z AUTO 09017KT 10SM CLR M13/M19 A2958=
PAVD 101656Z 10SM FEW005 BKN050 OVC070 M04/M06 A2937=
PAYA 101653Z 25005KT 10SM BKN012 02/01 A2939=
PGRO NIL=
PGUA NIL=
PGUM 101654Z 06008KT 10SM CLR 25/22 A2988=
PHJH 101650Z 04008KT 15SM FEW015 FEW030 SCT045 20/18 A2999=
PHLI 101653Z 04014KT 10SM FEW021 22/19 A3002=
PHMK 101654Z 36005KT 10SM BKN095 21/20 A3000=
PHNL 101653Z 30003KT 10SM SCT032 20/17 A2999=
PHNY 101656Z AUTO 10008KT 10SM CLR 19/18 A3003=
PHOG 101654Z 00000KT 10SM FEW033 21/18 A2999=
PHTO 101653Z 23007KT 10SM FEW024 FEW050 17/14 A2998=
PMDY 101656Z AUTO 10012KT 9SM CLR 19/12 A3023=
PWAK 101655Z 07016KT 10SM FEW021 25/25 A2996=

0000011900
238
SACN62 CYYE 101700
METAR CYYE 101700Z 36003KT 20SM BKN040 BKN060 M17/M20 A2943 RMK
 SC6SC1 SLP003=

0000011100
239
SACN62 CYYB 101700
METAR CYYB 101700Z 15007KT 6SM BR OVC006 M06/M08 A3009 RMK ST8
 SLP217=

0000117700
240
FTMG20 FMMI 101707
TAF FMMI 101700Z 1018/1124 30010KT 9999 FEW020CB BKN023 BECMG
1020/1022 VRB03KT FEW017 BKN020 BECMG 1102/1104 06010KT BECMG
1108/1110 34010KT SCT020CB SCT023 PROB40 TEMPO 1111/1113 4000 TSRA
BECMG 1114/1116 12010KT PROB30 TEMPO 1115/1120 4000 TSRA BECMG
1120/1122 VRB03KT FEW017 BKN020=
TAF FMNN 101700Z 1018/1118 26010KT 9999 SCT020CB SCT040 PROB40 TEMPO
1018/1100 4000 TSRA BECMG 1022/1100 VRB03KT SCT020 BECMG 1102/1104
16010KT PROB40 TEMPO 1106/1118 SHRA BECMG 1108/1110 24010KT SCT020CB=
TAF FMNA 101700Z 1018/1118 28010KT 9999 SCT020CB SCT040 PROB30 TEMPO
1020/1118 4000 SHRA=
TAF FMST 101700Z 1018/1118 34010KT 9999 SCT020CB SCT040 PROB40 TEMPO
1018/1100 4000 SHRA BECMG 1020/1022 FEW020 BKN040 PROB40 TEMPO
1108/1115 4000 SHRA=
TAF FMSD 101700Z 1018/1118 10010KT 9999 SCT017 BKN040 PROB40 TEMPO
1018/1022 4000 TSRA BECMG 1022/1024 SCT017 SCT033 PROB40 TEMPO
1107/1116 4000 SHRA BECMG 1108/1110 SCT016CB SCT033=
TAF FMMS 101700Z 1018/1118 06010KT 9999 SCT017 SCT040 PROB40 TEMPO
1018/1103 4000 SHRA BECMG 1108/1110 14010KT SCT017CB SCT040 PROB40
TEMPO 1111/1118 4000 TSRA BECMG 1114/1116 08010KT=

0000044800
241
FTTH33 VTBB 101700
TAF VTUD 101700Z NIL=
TAF VTUI 101700Z NIL=
TAF VTUK 101700Z NIL=
TAF VTUL 101700Z NIL=
TAF VTUO 101700Z NIL=
TAF VTUW 101700Z NIL=
TAF VTUQ 101700Z NIL=
TAF VTUV 101700Z NIL=
TAF VTUJ 101700Z NIL=
TAF VTBO 101700Z 1018/1118 00000KT 7000 FEW030
    BECMG 1021/1023 01005KT 5000 BR
    BECMG 1101/1103 04012KT 8000 NSW
    BECMG 1104/1106 07010KT 9999
    BECMG 1111/1113 02005KT 7000=

0000033100
242
SAJP43 KWBC 101700
METAR
RJKI NIL=
RJKN NIL=
RJNF NIL=
RJNG NIL=
RJNH NIL=
RJNO NIL=
RJNT NIL=
RJNY NIL=
RJOA NIL=
RJOB NIL=
RJOC NIL=
RJOE NIL=
RJOF NIL=
RJOI 101655Z 30004KT 9999 FEW030 BKN050 01/M03 A3038 RMK SLP288
     T00111028=
RJOK NIL=
RJOM NIL=
RJOP NIL=
RJOR NIL=

0000004200
243
SAJP44 KWBC 101700
NIL=

0000022300
244
SAJP45 KWBC 101700
METAR
RJTJ NIL=
RJTK NIL=
RJTL NIL=
RJTO NIL=
RJTQ NIL=
RJTR NIL=
RJTU NIL=
RJTX NIL=
RJTY 101658Z AUTO 28004KT 10SM CLR M02/M07 A3025 RMK AO2 SLP255
     T10161069=

0000010500
245
SASA31 KWBC 101700 CCA
METAR
SPIM 101700Z 20010KT CAVOK 24/19 Q1011 NOSIG RMK PP000=

0000117700
246
SASA31 KWBC 101700
METAR
SEGU 101700Z VRB02KT 9999 SCT026 BKN100 30/20 Q1010 RMK A2983
     NOSIG=
SEQU NIL=
SKBO NIL=
SKBQ NIL=
SKCG NIL=
SKCL NIL=
SKLT NIL=
SKRG NIL=
SKSP NIL=
SMNI NIL=
SMZO 101700Z 09008KT 9999 FEW035 29/21 Q1011 NOSIG=
SMZY NIL=
SOCA 101700Z AUTO 07006KT 040V100 9999 -RA BKN014/// BKN024///
     BKN037/// ///TCU 25/23 Q1010=
SPIM 101700Z 20010KT 9999 FEW008 24/19 Q1011 NOSIG RMK PP000=
SPQT 101700Z 02005KT 9999 SCT020 SCT100 30/23 Q1010 NOSIG RMK
     PP000=
SPQU 101700Z 25009KT 200V290 9999 SCT030 19/09 Q1024 RMK PP000=
SPSO 101700Z /////KT 9999 FEW080 BKN230 26/20 Q1011 RMK BIRD
     HAZARD RWY 22/04 PP000=
SPTN 101700Z 20014KT CAVOK 29/16 Q1009 RMK PP000=
SPYL 101700Z 16011KT CAVOK 30/21 Q1010 RMK BIRD HAZARD RWY 17/35
     PP000=
SPZO 101700Z 09007KT 030V170 9999 FEW040TCU SCT050 BKN100 18/07
     Q1028 NOSIG RMK PP000=
SVBC 101700Z NIL=
SVMC 101700Z /////KT 9999 FEW026 SCT080 34/25 Q1013=
SVMG 101700Z /////KT 9999 SCT010 31/21 Q1014 NOSIG=
SVMI 101700Z 07003KT 9999 FEW016 29/26 Q1015 NOSIG=
SYCJ 101700Z 03012KT 9999 BKN024 29/21 Q1011 NOSIG=
SYTM NIL=

0000030300
247
SASA42 KWBC 101700
METAR
SCAC NIL=
SCHA NIL=
SCSE 101700Z 28010KT 9999 FEW013 SCT250 20/14 Q1014=
SCTC NIL=
SCTI NIL=
SCVD NIL=
SELT 101700Z 15009KT 9999 SCT030 18/10 Q1027=
SUAG NIL=
SUDU 101700Z 09010KT 9999 FEW023 SCT080 BKN200 28/7 Q1007=
SUPU NIL=
SUTB NIL=

0000124700
248
SASA32 KWBC 101700
METAR
SCAR 101700Z 21013KT CAVOK 24/16 Q1010=
SCBA 101700Z 30025G35KT 9999 FEW040 BKN200 14/02 Q1014=
SCCF 101700Z 27020KT CAVOK 23/06 Q1023=
SCCH NIL=
SCCI 101700Z 24022KT 9999 SCT040 BKN090 11/02 Q1008 NOSIG=
SCDA 101700Z 20013KT CAVOK 25/15 Q1011=
SCEL 101700Z 18009KT CAVOK 30/05 Q1013 NOSIG=
SCFA 101700Z 20014KT 9999 FEW030 SCT260 24/15 Q1011 NOSIG=
SCGE NIL=
SCIE 101700Z 25012KT CAVOK 21/10 Q1016=
SCIP 101700Z 10010KT 9999 SCT020 25/18 Q1021 RESHRA NOSIG=
SCTE 101700Z 14011KT 9999 BKN045 16/06 Q1022 NOSIG=
SGAS 101700Z 02014KT 9999 SCT040 36/22 Q1008=
SGES 101700Z 02013KT 9999 SCT033 FEW040TCU 34/24 Q1009=
SLCB 101700Z 29003KT 9999 FEW027 FEW030TCU 26/09 Q1022=
SLCZ NIL=
SLLP 101700Z 10012KT 060V150 9999 SCT017 FEW020CB BKN200 15/05
     Q1034=
SLTJ 101700Z 00000KT 9999 NSC 30/12 Q1015=
SLTR 101700Z 35010KT 9999 SCT017 29/24 Q1011=
SLVR 101700Z 02018KT 9999 SHRA BKN022 29/23 Q1010=
SUAA 101700Z 33005KT 9999 FEW033 29/20 Q1007=
SUCA 101700Z 19006KT 9999 FEW020 29/18 Q1005=
SULS 101700Z 29005KT CAVOK 27/20 Q1006=
SUMU 101700Z 35007KT CAVOK 27/21 Q1007 NOSIG=
SUPE NIL=
SURV NIL=
SUSO 101700Z 08014KT 9999 FEW033TCU SCT200 29/19 Q1007=

0000019400
249
SASA41 KWBC 101700
METAR
SEMT 101700Z NIL=
SEPA NIL=
SKBG NIL=
SKMD NIL=
SKPE NIL=
SKSM NIL=
SKVG NIL=
SMJP 101700Z 34006KT 9999 VCSH SCT035 30/23 Q1011 NOSIG=

0000042900
250
SAVN42 KWBC 101700
METAR
SVPC 101700Z NIL=
SVPM 101700Z 19018KT 9999 FEW030 XX/XX Q1015=
SVPR NIL=
SVSA 101700Z /////KT 9999 FEW020 31/16 Q1016=
SVSA 101700Z NIL=
SVSE NIL=
SVSO 101700Z NIL=
SVSP 101700Z 06010KT 9999 FEW040 XX/XX Q1014=
SVSR NIL=
SVST NIL=
SVSZ 101700Z 00000KT 9999 BKN020 XX/XX Q1011=
SVTM NIL=
SVVA 101700Z 09003KT CAVOK 31/19 Q1015=
SVVL 101700Z NIL=
SVVP NIL=

0000012000
251
SACN61 CYYL 101700
METAR CYYL 101700Z AUTO 05010KT 9SM -SN BKN047 OVC055 M17/M20 A2945
 RMK SLP008=

0000011200
252
SACN62 CYYT 101700
METAR CYYT 101700Z 29025G37KT 15SM BKN030 M07/M13 A3017 RMK SC6
 SLP226=

00000000