0000097800
713
FTFR38 LFPW 102300
TAF LFRD 102300Z 1100/1124 VRB03KT 0300 FG VV/// TEMPO 1100/1108 0100
 BECMG 1109/1112 05007KT 9999 NSW BKN018 BECMG 1118/1121 2000 BR
TEMPO 1121/1124 0500 BCFG=
TAF LFRN 102300Z 1100/1124 VRB03KT 1500 BR OVC003 TEMPO 1100/1102 RA
TEMPO 1102/1109 0400 FG VV/// BECMG 1109/1112 5000 BKN006 TEMPO
1115/1118 BKN013 BECMG 1121/1124 10010KT=
TAF LFRO 102300Z 1100/1124 18005KT 5000 BKN015 TEMPO 1100/1107 3000
-RA BKN003 BECMG 1107/1109 03015KT 9999 SCT020 BKN040 BECMG 1115/1118
 10010KT=
TAF LFRZ 102300Z 1100/1124 06003KT 3000 BR BKN030 TEMPO 1100/1108
BKN005 PROB30 TEMPO 1103/1108 0500 FG BECMG 1109/1112 8000 NSW BECMG
1121/1124 09012KT=
TAF LFSB 102300Z 1100/1124 VRB03KT CAVOK TEMPO 1100/1107 3000 BR NSC
BECMG 1113/1115 27006KT BKN050 TEMPO 1115/1118 -RA BKN013 BKN040=
TAF LFST 102300Z 1100/1124 VRB02KT 4000 BR NSC TEMPO 1100/1106 0200
BCFG BECMG 1106/1109 9999 -RA BKN040 BECMG 1119/1122 3000 BR BKN014=

0000044300
714
FTFR39 LFPW 102300
TAF LFMH 102300Z 1100/1124 14008KT 5000 BR NSC TEMPO 1100/1106 3000
BECMG 1106/1108 CAVOK TEMPO 1118/1121 BKN010=
TAF LFMI 102300Z 1100/1124 15005KT 9999 BKN020
BECMG 1110/1112 07010KT SCT040=
TAF LFSD 102300Z 1100/1124 VRB02KT CAVOK
TEMPO 1100/1112 2000 BR BKN004
PROB40 TEMPO 1100/1106 0500 BCFG VV///
PROB30 TEMPO 1112/1118 5000 -RA BKN005=
TAF LFMK 102300Z NIL=
TAF LFTH 102300Z NIL=

0000259300
715
SPUS70 KWBC 102314
SPECI
PABA 102309Z AUTO 27021KT 3/4SM -SN OVC022 M26/M29 A2986 RMK AO2
     P0000 FZRANO=
KDXR 102310Z 00000KT 2 1/2SM BR OVC007 01/M01 A3035 RMK AO2=
KELZ 102310Z AUTO VRB06KT 7SM OVC003 02/01 A3012 RMK AO2=
KEYE 102310Z AUTO 16005KT 3/4SM -RA BR OVC002 04/04 A2984 RMK AO2
     P0001 T00440039=
KFIG 102310Z AUTO 01006KT 7SM OVC015 01/00 A3018 RMK AO2
     T00060000=
KGSH 102310Z AUTO 16011G16KT 3SM -RA BR BKN008 BKN029 OVC055 04/03
     A2981 RMK AO2 CIG 007V011 P0003=
KHKY 102310Z AUTO 06005KT 2SM -RA BR BKN003 OVC006 07/06 A3017 RMK
     AO2 RAB2255 CIG 002V006 P0000 TSNO=
KIXD 102310Z 25006KT 2 1/2SM BR FEW002 OVC023 04/03 A2955 RMK AO2
     T00390033=
KMLC 102310Z AUTO 22006KT 10SM VCTS FEW039 15/13 A2962 RMK AO2 LTG
     DSNT SW-N TSB04=
KPSX 102310Z AUTO 20005KT 5SM BR FEW002 SCT015 18/17 A2983 RMK AO2
     T01830172=
KRSW 102310Z 17012KT 8SM -RA SCT020 BKN028 OVC050 24/21 A3008 RMK
     AO2 RAB10 P0000 T02390206=
KRUE 102310Z AUTO VRB03KT 10SM BKN004 BKN080 OVC095 09/09 A2966
     RMK AO2 RAE2259 P0000=
PALH 102310Z 02003KT 10SM BKN007 OVC014 M03/M05 A2941 RMK AO2=
PANW 102307Z AUTO 01003KT 1SM BR OVC001 M07/M08 A2948 RMK AO2 TSNO
     $=
PPIZ 102310Z AUTO 00000KT 1 1/4SM HZ OVC004 M22/M25 A3002 RMK AO2
     TSNO $=
KAGC 102311Z 12004KT 10SM SCT012 07/05 A3008 RMK AO2=
KAMG 102311Z AUTO 00000KT 1/2SM FG SCT032 BKN038 OVC055 19/18
     A3009 RMK AO2 T01940183=
KDCA 102311Z 06004KT 1 1/4SM R01/5500VP6000FT -RA BR OVC008 03/02
     A3030 RMK AO2 P0001=
KDTW 102311Z 13006KT 4SM BR OVC004 03/02 A2994 RMK AO2=
KFAY 102311Z AUTO 03006KT 1 3/4SM -RA BR SCT036 BKN070 OVC090
     13/12 A3016 RMK AO2 P0007=
KFFT 102311Z AUTO 13008KT 10SM OVC030 10/08 A2991 RMK AO2
     T01000078=
KGED 102311Z AUTO 00000KT 1/4SM -RA FG SCT003 BKN006 OVC050 06/05
     A3030 RMK AO2 P0000 T00610050=
KGON 102311Z 34003KT 1SM R05/P6000FT -RA BR OVC004 02/02 A3036 RMK
     AO2 RAB02 P0000=
KHFD 102311Z 00000KT 4SM BR OVC008 01/00 A3036 RMK AO2 CIG 007V010
     T00110000=
KHGR 102311Z 00000KT 3SM BR OVC009 02/01 A3026 RMK AO2
     T00220006=
KM19 102311Z AUTO 00000KT 1/4SM -RA FG BKN004 OVC014 07/06 A2975
     RMK AO2 P0002=
KMAI 102311Z AUTO 00000KT 3/4SM BR VV005 16/15 A3005 RMK AO2=
KMQY 102311Z 18013KT 10SM OVC015 13/09 A2997 RMK AO2 $=
KMVY 102311Z AUTO 18007KT 4SM -RA BR OVC008 06/04 A3037 RMK AO2
     CIG 007V013 P0000 $=
KTOP 102311Z 28008KT 2 1/2SM BR BKN009 OVC013 04/02 A2957 RMK AO2
     RAE01 CIG 006V012 P0000 T00390022=

0000010800
716
SPUS42 KWBC 102314
SPECI
KRSW 102310Z 17012KT 8SM -RA SCT020 BKN028 OVC050 24/21 A3008=

0000021500
717
SACA35 KWBC 102300 RRA
METAR
MPBO 102300Z 30004KT 250V350 9000 FEW018 SCT090 Q1012=
MPDA 102300Z 30004KT 250V350 9000 FEW018 SCT090 Q1012=
MPMG 102300Z 32003KT 9999 FEW020 26/23 Q1008 NOSIG=

0000140300
718
SPUS70 KWBC 102316
SPECI
KYIP 102312Z AUTO 15006KT 3SM BR OVC004 03/01 A2992 RMK AO2
     TSNO=
KFSM 102312Z 04007KT 1 3/4SM BR OVC002 11/09 A2964 RMK AO2=
KLLQ 102312Z AUTO 16008G17KT 3SM -RA BR BKN005 OVC018 13/12 A2978
     RMK AO2 P0000=
KMCW 102312Z AUTO 00000KT 1SM BR VV003 M01/M01 A2955 RMK AO2
     UPB01E03FZRAB2257E01B03E07 P0000 I1000 T10061006 TSNO=
KMEB 102312Z AUTO 05005KT 4SM -RA BR FEW003 SCT008 OVC015 13/13
     A3017 RMK AO2 P0022 T01330133=
KUGN 102312Z 14006KT 1 1/4SM -RA BR OVC002 01/01 A2966 RMK AO2
     $=
KUNO 102312Z AUTO 17007KT 1 1/4SM BR OVC002 07/06 A2969 RMK AO2
     RAE06 P0000 T00670061=
KPSX 102312Z AUTO 20005KT 3SM BR FEW002 BKN013 18/17 A2983 RMK AO2
     T01780167=
KCXO 102313Z 20005KT 3SM -RA BR BKN008 OVC014 18/18 A2981 RMK AO2
     CIG 007V011 P0004=
KDMO 102313Z AUTO 18011KT 10SM SCT010 BKN017 OVC029 09/08 A2955
     RMK AO2 T00940078=
KHIE 102313Z AUTO 00000KT 10SM FEW023 OVC040 M05/M08 A3026 RMK AO2
     T10501078=
KMFI 102313Z AUTO 10005KT 1/2SM SN FZFG FEW006 BKN009 OVC018
     M02/M03 A2960 RMK AO2 P0002 T10171028=
KMSY 102313Z 12007KT 4SM BR OVC003 17/16 A2994 RMK AO2
     T01670161=
KPHL 102313Z 05005KT 1SM R09R/5500VP6000FT -RA BR BKN004 OVC007
     02/01 A3033 RMK AO2 P0001 $=
KSMQ 102313Z AUTO 00000KT 3/4SM BR OVC007 01/00 A3032 RMK AO2
     T00060000 TSNO=

0000039500
719
FTOS31 LOWM 102300
TAF LOWW 102315Z 1100/1206 VRB02KT CAVOK TX07/1200Z TNM01/1106Z
    PROB30 TEMPO 1105/1108 0500 BCFG FEW001
    TEMPO 1108/1111 6000 SCT003
    FM111100 15006KT 4000 BR BKN005
    TEMPO 1115/1119 2500 BKN003
    PROB30 1117/1119 VRB02KT 0800 FG -DZRA BKN002 OVC080
    BECMG 1119/1121 28013KT 9999 BKN040
    TEMPO 1121/1206 30015G27KT SCT040=

0000121300
720
FTOS32 LOWM 102300
TAF LOWL 102315Z 1103/1124 VRB02KT CAVOK
    TX07/1121Z TNM01/1106Z
    PROB30 TEMPO 1103/1107 0400 FZFG BKN002
    BECMG 1111/1113 27005KT 9999 SCT050 BKN100
    TEMPO 1118/1124 -RA BKN035=
TAF LOWS 102315Z 1103/1124 15007KT CAVOK TX10/1112Z TN02/1106Z
    TEMPO 1110/1117 02005KT
    BECMG 1119/1121 32010KT 9999 -RA SCT030 BKN040=
TAF LOWI 102315Z 1103/1124 27005KT 5000 SCT005 BKN012
    TX07/1114Z TN00/1106Z
    TEMPO 1104/1110 2000 BR SCT003 BKN007
    BECMG 1110/1112 9999 FEW010 SCT120 BKN300
    BECMG 1118/1120 SCT070 BKN100
    TEMPO 1120/1124 -SHRA SCT040 BKN060=
TAF LOWG 102315Z 1103/1124 VRB02KT 2500 BR BKN008
    TX07/1112Z TN00/1106Z
    TEMPO 1103/1108 1200 BCFG BKN002
    PROB40 TEMPO 1103/1107 0300 FG VV001
    BECMG 1108/1110 3000 FZBR SCT003
    BECMG 1109/1111 9999 NSW FEW060 BKN150
    BECMG 1116/1119 1200 BCFG FEW001
    PROB40 TEMPO 1120/1123 0300 FG VV002=
TAF LOWK 102315Z 1103/1124 VRB02KT 1200 BCFG OVC004
    TX06/1112Z TN00/1124Z
    TEMPO 1103/1108 0300 FG VV002
    BECMG 1108/1111 4000 BR SCT002 BKN005
    TEMPO 1111/1117 6000 NSW SCT004 BKN007
    TEMPO 1117/1124 0400 FG VV002=

0000019900
721
FTCN34 CWAO 102300 AAA
TAF AMD CYNE 102316Z 1023/1107 VRB03KT P6SM -SN SCT006 OVC012 TEMPO
     1023/1107 2SM -SN BR OVC006
    RMK FCST BASED ON AUTO OBS. NXT FCST BY 110100Z=

0000042000
722
SALY31 HLMC 102300
METAR HLLM 102250Z 18004KT 7000 NSC 14/10 Q1024=
METAR HLLT 102250Z 16002KT CAVOK 11/06 Q1024=
METAR HLGD 102300Z NIL=
METAR HLGT 102300Z NIL=
METAR HLJA 102300Z NIL=
METAR HLKF 102300Z NIL=
METAR HLKM 102300Z NIL=
METAR HLLB 102300Z NIL=
METAR HLLS 102300Z NIL=
METAR HLMI 102300Z NIL=
METAR HLNT 102300Z NIL=
METAR HLON 102300Z NIL=
METAR HLTD 102300Z NIL=

0000010500
723
SAAB31 LATI 102320
METAR LATI 102320Z VRB02KT 4500 BR SCT035 BKN057 11/09 Q1022 NOSIG=

0000009300
724
SPUS31 KWBC 102317
SPECI
KMSY 102313Z 12007KT 4SM BR OVC003 17/16 A2994=

0000012400
725
SPUS31 KWBC 102317
SPECI
KPHL 102313Z 05005KT 1SM R09R/5500VP6000FT -RA BR BKN004 OVC007
02/01 A3033=

0000010400
726
SPUS41 KWBC 102317
SPECI
KCEF 102310Z AUTO 00000KT 8SM FEW006 OVC080 M01/M02 A3033=

0000007700
727
FCIY31 LIIB 102000 AAA
TAF AMD LIMP 102300Z 1021/1106 CNL=

0000052400
728
FTAG31 KWBC 102315
TAF
TAF SAAR 102300Z 1100/1124 14010KT 9999 FEW040CB BKN090 TX29/1118Z
      TN16/1110Z
      TEMPO 1100/1102 6000 SHRA OVC040
      BECMG 1103/1106 14010KT 9999 SCT030 BKN090=
TAF SABE 102300Z 1100/1124 20005KT 9999 SCT030 BKN090 TX27/1100Z
      TN17/1110Z
      BECMG 1104/1107 16015G25KT 9999 BKN020
      BECMG 1114/1116 11015KT=
TAF SAZS 102300Z 1100/1124 32015KT CAVOK TX30/1118Z TN05/1110Z
      BECMG 1103/1106 VRB05KT CAVOK
      BECMG 1113/1115 02010KT=

0000017100
729
FTAG41 KWBC 102315
TAF
TAF SAZN 102300Z 1100/1124 18005KT CAVOK TX33/1118Z TN12/1110Z
      BECMG 1103/1106 05010KT
      BECMG 1114/1116 02015KT=

0000009300
730
SPUS31 KWBC 102315
SPECI
KDTW 102311Z 13006KT 4SM BR OVC004 03/02 A2994=

0000009100
731
SPUS41 KWBC 102315
SPECI
KAGC 102311Z 12004KT 10SM SCT012 07/05 A3008=

0000010900
732
SPUS41 KWBC 102315
SPECI
KGON 102311Z 34003KT 1SM R05/P6000FT -RA BR OVC004 02/02 A3036=

00000000