0000023300
073
SNVD17 KWNB 110500 RRH
BBXX
51205 11051 99210 71564 46/// ///// 1//// 90451 22200 00249 11005
21004 332// 41403 70023=
46239 11051 99363 71221 46/// ///// 1//// 90459 22200 00131 11306
21003 329// 41305 70029=
0000017000
074
SOVI10 KWAL 110506
B110070A 011050601 P9751095 B\P~W@@@0ekE1@pt???CpCt>@pt3@IC?@Y4Cv5DA6bQ9JN<BM2?????@"??? nTECLAvArAzA|AyAz:AMPTEMP 26.94C  47-0NN 219E
0000029500
075
SXHW11 KWAL 110506
B1507246 011050602"
1,140111,04:00:00,15.4,65,20.5,21.4,1014.8,13.07,13.1,
1,140111,04:15:00,15.0,62,20.3,21.1,1014.8,13.07,13.0,
1,140111,04:30:00,14.1,59,20.0,21.0,1014.9,13.07,13.0,
1,140111,04:45:00,13.4,56,17.8,20.8,1015.0,13.07,13.0, 42-0NN 210W
0000191400
076
SZAU01 AMMC 110506
CREX++
T000103 A001 D01021 D06025++
-1927750 14705860 59260 2014 01 11 04 59 3030 11 07 00 01
01613 0202 01619 0202 01620 0199 01636 0210 01640 0208 01644 0207+
-2316110 15079000 59670 2014 01 11 04 59 3000 11 07 00 01
02218 0146 02221 0141 02234 0144 02230 0132 02242 0137 02244 0129+
-3447330 15091170 60420 2014 01 11 04 59 2960 11 07 00 01
00907 -0021 00904 -0027 00897 -0036 00900 -0035 00904 -0034 00910 -0030+
-4105000 14591500 60910 2014 01 11 04 59 2890 11 07 00 01
00759 -0039 00769 -0035 00782 -0031 00793 -0026 00796 -0029 00802 -0031+
-4254640 14793080 61170 2014 01 11 04 59 2895 11 07 00 01
01134 0054 01137 0055 01135 0051 01140 0055 01146 0059 01145 0056+
-3834390 14161360 61410 2014 01 11 04 59 2905 11 07 00 01
00329 0010 00318 -0002 00354 0033 00354 0032 00373 0050 00385 0061+
-3214890 13364170 62000 2014 01 11 04 59 2963 11 07 00 01
00860 0106 00863 0107 00866 0107 00869 0108 00875 0111 00879 0113+
-3387080 12189720 62080 2014 01 11 04 59 2947 11 07 00 01
00775 0101 00767 0093 00777 0103 00779 0104 00794 0119 00794 0119+
-3182560 11573860 62237 2014 01 11 04 59 2970 11 07 00 01
00794 0079 00798 0082 00793 0076 00797 0079 00789 0070 00793 0073+
-2422000 11339750 62385 2014 01 11 04 59 //// 11 07 00 01
00979 -0140 01024 -0097 01005 -0117 01097 -0027 01038 -0087 01014 -0112+
-2181670 11419110 62430 2014 01 11 04 59 //// 11 07 00 01
01613 -0002 01612 -0004 01616 -0002 01618 -0002 01614 -0007 01602 -0021+
-1800080 12221830 62650 2014 01 11 04 59 3043 11 07 00 01
04843 0236 04846 0232 04849 0234 04853 0233 04858 0233 04862 0233+
-1247190 13084580 63230 2014 01 11 04 59 3050 11 07 00 01
05385 0024 05389 0025 05393 0025 05397 0025 05401 0027 05405 0027+
-1386000 13641580 63511 2014 01 11 04 59 3045 11 07 00 01
01410 0053 01412 0053 01416 0056 01419 0057 01424 0061 01429 0065++
7777

0000179100
077
SZPS01 AMMC 110506
CREX++
T000103 A001 D01021 D06025++
-0204190 14737360 56130 2014 01 11 04 59 3028 11 07 00 01
01152 0073 01152 0073 01150 0071 01152 0073 01154 0076 01151 0073+
-0669280 15640860 56363 2014 01 11 04 59 //// 11 07 00 01
00878 -0068 00872 -0071 00871 -0070 00867 -0072 00862 -0074 00856 -0078+
-0942890 15995560 56670 2014 01 11 04 59 3043 11 07 00 01
00898 -0035 00896 -0036 00891 -0041 00895 -0036 00895 -0035 00893 -0036+
-1072080 16580190 57131 2014 01 11 04 59 //// 11 07 00 01
03379 2456 03379 2459 03379 2462 03379 2465 03380 2469 03380 2472+
-1551560 16718860 57210 2014 01 11 04 59 //// 11 07 00 01
01169 -0077 01166 -0077 01146 -0093 01164 -0072 01144 -0089 01142 -0087+
-1775690 16830030 57320 2014 01 11 04 59 3015 11 07 00 01
01210 -0052 01211 -0049 01212 -0045 01212 -0043 01212 -0041 01208 -0043+
-4397330 16861610 65180 2014 01 11 04 59 2890 11 07 00 01
01763 0338 01767 0337 01790 0355 01803 0362 01793 0347 01782 0331+
-2120470 -15978530 65980 2014 01 11 04 59 3013 11 07 00 01
00806 0011 00777 -0016 00823 0031 00815 0025 00799 0010 00781 -0006+
-2113810 -17518140 66600 2014 01 11 04 59 //// 11 07 00 01
01485 0100 01486 0104 01480 0102 01475 0101 01465 0094 01465 0097+
-1382670 -17176110 66840 2014 01 11 04 59 3010 11 07 00 01
00979 0062 00978 0064 00969 0058 00976 0069 00963 0058 00967 0065+
-1813250 17842750 67050 2014 01 11 04 59 3033 11 07 00 01
01673 0085 01671 0086 01670 0089 01666 0089 01662 0089 01647 0078+
-1760530 17743810 67070 2014 01 11 04 59 3033 11 07 00 01
01737 0002 01732 0001 01727 0000 01724 0002 01719 0001 ///// ////+
-0850250 17919500 67440 2014 01 11 04 59 3030 11 07 00 01
02231 0002 02225 0000 02225 0004 02217 0001 02206 -0006 02204 -0004++
7777

0000034100
078
SZIO01 AMMC 110506
CREX++
T000103 A001 D01021 D06025++
-1211670 09689190 46280 2014 01 11 04 59 3008 11 07 00 01
01102 0044 01101 0041 01102 0040 01112 0047 01111 0044 01116 0047+
-1042940 10566940 46290 2014 01 11 04 59 //// 11 07 00 01
01077 0052 01070 0043 01121 0091 01047 0015 01138 0104 01046 0009++
7777

0000046700
079
SZPA01 AMMC 110506
CREX++
T000103 A001 D01021 D06025++
0136250 17293000 67590 2014 01 11 04 59 3015 11 07 00 01
01795 0022 01779 0009 01779 0013 01767 0005 01759 0000 01756 0001+
0710610 17137250 67680 2014 01 11 04 59 3013 11 07 00 01
01134 0057 01135 0061 01134 0063 01123 0055 01118 0053 01126 0064+
0698060 15820000 67950 2014 01 11 04 59 3023 11 07 00 01
00918 0028 00915 0027 00908 0022 00909 0025 00904 0022 00901 0020++
7777

0000044600
080
SANK31 MNMG 101700
METAR 
MNPC 101700Z 09010KT 6000 VCRA BKN016TCU 28/24 Q1013
                                TCURA NE/E/SE/SW 76?=
MNRS 101700Z 08010KT 9999 FEW018 28/21 Q1012=
MNJG  101700Z 00000KT 9999 BKN018 20/17 Q1014=
MNJU  101700Z 06008KT 9999 SCT020 30/22 Q1013=
MNCH 101700Z 09008KT 9999 32/15 Q1012=
MNBL  101700Z 09004KT 7000 VCRA SCT018TCU 29/25 Q1014
                               TCURA NW  78?=

0000024100
081
SATA31 RUMS 101700
METAR UTDD 101700Z VRB01MPS M0050 R09/M0050N FZFG VV002 M08/M09 Q1030
09CLRD70 NOSIG RMK QBB060 QFE704/0939=
METAR UTDL 101700Z 09008G11MPS 4000 BR SKC M01/M07 Q1030 NOSIG RMK
QFE733/0977 8809//70=

0000079700
082
SAZA31 FAPR 101700
METAR FABL 101700Z 26009KT CAVOK 28/05 Q1015 NOSIG=
METAR FACT 101700Z 17017KT 9999 FEW035 20/12 Q1017 NOSIG=
METAR FAEL 101700Z 22020KT 9999 FEW035 SCT045 20/14 Q1015=
METAR FAGG 101700Z 23003KT 200V260 9999 VCSH SCT020 BKN030 17/14
     Q1018=
METAR FALA 101700Z 24006KT 200V280 CAVOK 28/08 Q1016 NOSIG=
METAR FALE 101700Z 22009KT 9000 -RA FEW015 BKN020 OVC030 24/21 Q1012
     TEMPO 5000 BKN015=
METAR FAMM 101700Z 26006KT CAVOK 31/05 Q1015 NOSIG=
METAR FAOR 101700Z 30006KT CAVOK 26/09 Q1018 NOSIG=
METAR FAPE 101700Z 24018KT 9999 FEW025 20/14 Q1015 NOSIG=
METAR FAPN 101700Z AUTO 23001KT //// // ////// 30/09 Q1011=
METAR FAPP 101700Z 08005KT 9999 FEW050TCU 25/16 Q1014 NOSIG=
METAR FAUP 101700Z 21008KT CAVOK 29/05 Q1014 NOSIG=

0000010300
083
SANO37 ENMI 101650 RRB
METAR ENNO 101650Z 28003KT 260V330 9999 BKN006 M03/M04 Q0999=

0000067000
084
FTKO31 RKSI 101700
TAF RKSI 101700Z 1018/1124 05005KT 6000 NSC
          BECMG 1102/1103 23006KT
          BECMG 1114/1115 30007KT=
TAF RKSS 101700Z 1018/1124 14006KT 4200 BR SCT030
          BECMG 1023/1024 30006KT 7000 NSW=
TAF RKPC 101700Z 1018/1124 34008KT 7000 BKN030=
TAF RKPK 101700Z 1018/1124 33006KT 9999 SCT030=
TAF RKTU NIL= 
TAF RKTN NIL= 
TAF RKJB 101700Z 1018/1124 11005KT 1800 BR FEW010 BKN025
          BECMG 1021/1022 4200 SCT030 BKN120
          BECMG 1102/1103 30007KT 6000 NSW
          BECMG 1112/1113 11005KT 4200 BR BKN025
          BECMG 1121/1122 6000 NSW=
TAF RKNY 101700Z 1018/1124 26011KT CAVOK=

0000033400
085
FCHU41 LHBM 101700
TAF LHKE 101645Z 1018/1103 28004MPS CAVOK
    TEMPO 1018/1103 VRB02MPS 5000 MIFG BR NSC=
TAF LHPR 101700Z 1018/1103 28010KT CAVOK
    BECMG 1021/1024 VRB03KT 4000 BR NSC
    TEMPO 1100/1103 1200 FZBCFG BR SCT001=
TAF LHSN 101645Z 1018/1103 28004MPS CAVOK
    BECMG 1022/1024 24003MPS=

0000011900
086
SACN62 CYPA 101700
METAR CYPA 101700Z 24005KT 15SM FEW130 BKN240 M10/M12 A2939 RMK
 AC2CI5 SLP983=

0000014300
087
SACN62 CYPW 101700
METAR CYPW 101700Z VRB02KT 25SM FEW008 FEW060 FEW160 BKN220 01/01
 A2996 RMK SF1SC1AC1CI4 SF TR SLP148=

0000011300
088
SACN62 CYND 101700
METAR CYND 101700Z 07005KT 10SM -SN OVC020 M09/M11 A3030 RMK SC8
 SLP265=

0000012300
089
SACN61 CYMO 101700
METAR CYMO 101700Z AUTO 21015G22KT 9SM -SN BKN015 OVC024 M04/M06
 A2981 RMK SLP094=

0000012000
090
SACN61 CYNE 101700
METAR CYNE 101700Z AUTO 13005KT 9SM -SN BKN006 OVC011 M11/M12 A2947
 RMK SLP000=

0000012900
091
SACN62 CYOJ 101700
METAR CYOJ 101700Z 00000KT 15SM SCT050 BKN110 BKN250 M19/M22 A2946
 RMK SC4AC2CI1 SLP012=

0000011700
092
SACN62 CYPL 101700
METAR CYPL 101700Z 21007KT 4SM -SN DRSN OVC007 M08/M10 A2957 RMK SF8
 SLP043=

00000000