0000009300
053
SPUS41 KWBC 102011
SPECI
KBDR 102007Z 12003KT 2SM BR OVC030 01/00 A3038=

0000011700
054
SPUS41 KWBC 102011
SPECI
KDOV 102008Z AUTO 09003KT 3/4SM R01/P6000FT -DZ BR VV002 04/04
A3032=

0000086800
055
SAAG31 KWBC 102000
METAR
SAAG NIL=
SAAP NIL=
SAAR 102000Z 05008KT 9999 FEW030 SCT100 31/19 Q1006=
SABE 102000Z 02010KT 9999 FEW045TCU SCT100 30/21 Q1006=
SACO 102000Z 14014KT 9999 SCT030 FEW040CB 28/19 Q1011=
SADD NIL=
SAEZ 102000Z 23007KT 9999 FEW050TCU SCT100 32/15 Q1007=
SAME 102000Z 09008KT CAVOK 30/03 Q1009=
SARC 102000Z 02007KT 9999 FEW040 SCT045TCU 35/23 Q1005=
SARE 102000Z 36006KT 9999 FEW025 SCT030TCU 34/24 Q1005=
SARF 102000Z NIL=
SARF 102000Z 34010KT 9999 SCT035 FEW035TCU 36/23 Q1005=
SARI 102000Z NIL=
SARP 102000Z 32010KT 9999 SCT030TCU 35/21 Q1009=
SASA 102000Z 05010KT 9999 FEW020TCU SCT100 BKN200 30/11 Q1009=
SASJ 102000Z NIL=
SAWE 102000Z NIL=
SAWG 102000Z 23021G31KT 9999 BKN035 SCT200 14/M01 Q1009=
SAZM 102000Z 09010KT 9999 FEW025 22/12 Q1008=
SAZS 102000Z 29022KT CAVOK 19/01 Q1017=

0000039400
056
SAAG41 KWBC 102000
METAR
SAAC NIL=
SAAV NIL=
SAGS NIL=
SANE NIL=
SANT 102000Z 18004KT 9999 FEW035 FEW045CB BKN200 36/22 Q1003=
SANU NIL=
SAOR NIL=
SARL 102000Z 11010KT 9999 TS SCT015 FEW045CB BKN100 BKN200 24/22
     Q1008=
SATM NIL=
SAVC 102000Z 05013KT 9999 SCT040 SCT200 18/02 Q1012=
SAVT NIL=
SAZB NIL=
SAZN 102000Z 23009KT CAVOK 27/M06 Q1012=

0000018400
057
SACA33 KWBC 102000 RRB
METAR
TFFF 102000Z AUTO 06017KT 030V090 9999 BKN034 BKN040 BKN049 27/ 20
     Q1014=
TTPP 102000Z 10011KT 9999 SCT020 29/20 Q1011 NOSIG=

0000010100
058
SAHA31 KWBC 102000 RRB
METAR
MTPP 102000Z 08013KT 9999 FEW030 32 Q1014/7 A29/96=

0000034600
059
SAJP31 KWBC 102000 RRA
METAR
RJAA 102000Z 35005KT 9999 FEW025 M05/M08 Q1023 NOSIG RMK 1CU025
     A3022=
RJCC 102000Z 22006KT 9999 -SHSN FEW015 BKN045 M09/M12 Q1017 RMK
     1ST015 7CU045 A3005=
RJOO 102000Z VRB01KT 9999 FEW025 01/M06 Q1028 RMK 1CU025 A3036=
RJTT 102000Z 26007KT CAVOK 00/M06 Q1023 NOSIG RMK A3022=

0000106400
060
SAPR41 KWBC 102000
METAR
SPCL 102000Z 35006KT 9999 BKN025 SCT100 30/24 Q1007 RMK BIRD
     HAZARD RWY 02/20 PP000=
SPEC NIL=
SPEI NIL=
SPEO NIL=
SPGM 102000Z /////KT 9999 SCT020 OVC090 24/21 Q1011 RMK PP000=
SPHI 102000Z 20014KT CAVOK 29/22 Q1009 RMK PP000=
SPHO 102000Z 31007KT 9999 FEW046TCU BKN100 22/13 Q1018 RMK
     PP000=
SPHY 102000Z NIL=
SPJA NIL=
SPJI 102000Z 00000KT 9999 BKN030 32/25 Q1014 RMK PP000=
SPJL 102000Z 06005KT 9999 FEW010 BKN080 13/05 Q1032 RMK PP000=
SPJN NIL=
SPJR 102000Z 36007KT 9999 VCSH SCT023 BKN037 19/10 Q1023 RMK
     PP000=
SPME 102000Z 30006KT 9999 FEW022 28/24 Q1008 RMK BIRD HAZARD RWY
     32/14 PP000=
SPMS 102000Z /////KT 4000 RA BKN013 BKN080 28/24 Q1009 RMK BIRD
     HAZARD 09/27 PP060=
SPNC NIL=
SPPY NIL=
SPRU 102000Z 18009KT 9999 FEW030 24/20 Q1009 RMK PP000=
SPST 102000Z 34008KT 9999 SCT020 BKN100 31/20 Q1006 RMK BIRD
     HAZARD RWY 17/35 PP000=
SPTU 102000Z 35003KT 9999 SCT010 32/25 Q1006 RMK BIRD HAZARD RWY
     01/19 PP000=
SPUR NIL=

0000023100
061
SASA31 KWBC 102000 RRB
METAR
SKBO 102000Z 28010KT 9999 VCSH FEW020 BKN090 17/09 A3019 RMK VC
     SH/W=
SKRG 102000Z 04008KT 9999 VCSH BKN020TCU 20/13 A3016 RMK
     TCU/N/S/W/ VCSH/N=
SKSP 102000Z NIL=

0000020300
062
SASA41 KWBC 102000 RRB
METAR
SKMD 102000Z NIL=
SKPE 102000Z 22006KT 9999 VCSH SCT017TCU SCT080 25/19 A3000 RMK
     VCSH/TCU/E/SE=
SKSM 102000Z 36008KT 9999 FEW020 34/21 A2974=

0000090300
063
SPUS70 KWBC 102012
SPECI
KJKL 102008Z AUTO 10003KT 10SM SCT027 11/08 A3006 RMK AO2
     T01110078=
KVPC 102008Z AUTO 12005KT 2 1/2SM HZ OVC006 18/08 A3010 RMK
     AO2=
PACM 102008Z AUTO 00000KT 10SM OVC016 M12/M14 A2954 RMK AO2 TSNO
     $=
PACV 102008Z 08003KT 1/4SM +SN FZFG BKN009 BKN029 OVC048 M01/M02
     A2938 RMK AO2 P0003 RVRNO $=
KIGX 102008Z AUTO 02003KT 1 3/4SM RA BR OVC003 06/05 A3024 RMK AO2
     P0004 T00610050=
KUUU 102008Z AUTO 19003KT 2 1/2SM BR SCT005 SCT016 OVC025 03/02
     A3038 RMK AO2 T00280022=
PACM 102008Z AUTO 00000KT 10SM OVC016 M12/M14 A2954 RMK AO2 TSNO
     $=
KFIT 102009Z AUTO VRB04KT 10SM BKN018 OVC050 03/M01 A3035 RMK AO2
     T00281006=
KGSP 102009Z 04006KT 10SM OVC004 08/08 A3015 RMK AO2 RAE00
     P0000=
KTAN 102008Z AUTO 27003KT 1SM BR BKN015 OVC020 02/00 A3039 RMK AO2
     RAE05 P0000 T00220000=

0000027100
064
FTUS52 KWBC 102012 AAA
TAF AMD
KCLL 102010Z 1020/1118 20006KT 2SM -RA BR SCT004 OVC012
     FM102200 21007KT P6SM VCSH BKN015 BKN250
     FM102330 22008KT P6SM BKN019 OVC027
     FM110800 30005KT P6SM BKN250
     FM111600 35006KT P6SM SCT090=

0000022200
065
FTUS54 KWBC 102012
TAF
TAF KRDM 102002Z 1020/1118 25011KT P6SM OVC050
     FM102300 19010KT P6SM VCSH OVC050
     FM110600 19015G24KT P6SM SCT050 OVC100
     FM111300 20018G30KT P6SM VCSH BKN050=

0000024300
066
FTUS51 KWBC 102012 AAA
TAF AMD
KJHW 102009Z 1020/1118 19010KT P6SM OVC005
     FM110700 16015KT 4SM -RA BR OVC007 WS020/20045KT
     FM111300 18015KT 2SM -RA BR OVC007 WS020/20055KT AMD LTD TO
      CLD VIS AND WIND=

0000019000
067
FTUS53 KWBC 102012
TAF
TAF AMD KRFD 102008Z 1020/1118 16011KT 1 1/2SM RA BR OVC003
     FM110300 20012KT 1SM -DZ BR VCSH OVC005
     FM110900 26012G18KT P6SM OVC012=

0000136600
068
FTUS80 KWBC 102012 AAA
TAF AMD
KART 102009Z 1020/1118 16009KT P6SM OVC025
     FM110900 15011KT P6SM OVC015 WS020/19040KT
     FM111100 16015KT 3SM -RA BR OVC015 WS020/19045KT
     FM111500 17018G25KT 1SM -RA BR OVC003 WS020/20045KT=
KBUF 102009Z 1020/1118 18008KT P6SM OVC025
     FM110800 17014G23KT 3SM -RA BR OVC020 WS020/20045KT
     FM111300 19015KT 5SM -RA BR OVC015=
KCLL 102010Z 1020/1118 20006KT 2SM -RA BR SCT004 OVC012
     FM102200 21007KT P6SM VCSH BKN015 BKN250
     FM102330 22008KT P6SM BKN019 OVC027
     FM110800 30005KT P6SM BKN250
     FM111600 35006KT P6SM SCT090=
KIAG 102009Z 1020/1118 20009KT P6SM OVC025
     FM110800 16012G20KT 5SM -RA BR OVC015 WS020/20040KT
     FM111300 19014KT 3SM -RA BR OVC007=
KJHW 102009Z 1020/1118 19010KT P6SM OVC005
     FM110700 16015KT 4SM -RA BR OVC007 WS020/20045KT
     FM111300 18015KT 2SM -RA BR OVC007 WS020/20055KT AMD LTD TO
      CLD VIS AND WIND=
KMCI 102011Z 1020/1118 21008KT 4SM BR OVC004
     FM110500 27008KT 4SM BR VCSH OVC006
     FM110900 26012KT P6SM SCT150=
KMLI 102010Z 1020/1118 14010KT 3SM -RA BR OVC006
     FM102300 17008KT 1SM -RA BR OVC002
     FM110200 18003KT 1/2SM -RA FG OVC002
     FM110800 26005KT 1SM -FZRASN BR OVC003
     FM111000 28011KT 2SM -SN BR OVC004
     FM111400 28011KT 4SM BR VCSH OVC006=

0000068400
069
FTUS80 KWBC 102012
TAF
TAF AMD KARA 102007Z 1020/1118 17014G20KT P6SM FEW015 OVC040
     FM102200 18010KT P6SM VCSH SCT007 OVC050
     FM110200 18012KT 5SM BR VCSH OVC007
      TEMPO 1102/1105 3SM SHRA OVC004
     FM110500 19012KT 4SM -SHRA BR OVC004
     FM111000 27009KT 1SM BR OVC002
     FM111600 33010KT P6SM SCT006=
TAF KRDM 102002Z 1020/1118 25011KT P6SM OVC050
     FM102300 19010KT P6SM VCSH OVC050
     FM110600 19015G24KT P6SM SCT050 OVC100
     FM111300 20018G30KT P6SM VCSH BKN050=
TAF AMD KRFD 102008Z 1020/1118 16011KT 1 1/2SM RA BR OVC003
     FM110300 20012KT 1SM -DZ BR VCSH OVC005
     FM110900 26012G18KT P6SM OVC012=

0000024300
070
FTUS80 KWBC 102012 AAB
TAF AMD
KROC 102009Z 1020/1118 20008KT P6SM OVC025
     FM110600 16010KT P6SM OVC015 WS020/19040KT
     FM110900 16012KT 3SM -RA OVC007 WS020/20045KT
     FM111400 19014G21KT 2SM -RA BR OVC003=

0000009100
071
SPUS41 KWBC 102013
SPECI
KGSP 102009Z 04006KT 10SM OVC004 08/08 A3015=

0000010200
072
SPUS41 KWBC 102013
SPECI
KWRI 102007Z AUTO 35003KT 1 3/4SM BR OVC002 02/02 A3033=

00000000