0000024800
393
SASW39 LSSW 110250
METAR LSMA 110250Z NIL=
METAR LSMD 110250Z NIL=
METAR LSME 110250Z NIL=
METAR LSMM 110250Z NIL=
METAR LSMP 110250Z NIL=
METAR LSMS 110250Z AUTO 11003KT 6000NDV FEW150 BKN180 03/02 Q1019
    RMK GRN=

0000018500
394
FTCN33 CWAO 110200 AAA
TAF AMD CYZF 110252Z 1102/1124 30008KT P6SM SKC
    FM110800 34008KT P6SM SCT100 TEMPO 1108/1124 4SM IC BKN100
    RMK NXT FCST BY 110600Z=

0000010500
395
SPCN47 CWAO 110251
SPECI CYWA 110251Z AUTO 12006KT 3/4SM OVC002 M03/M04 A3005 RMK ICG=

0000089800
396
FTIN90 VOTV 110900
TAF VOTV 110900Z 1112/1218 14005KT 5000 HZ FEW015 SCT100 TEMPO
1112/1115 2000 TSRA/RA SCT008 SCT012 FEW025CB OVC090 BECMG 1117/1118
00000KT 4000 HZ TEMPO 1200/1203 2000 BR/HZ FEW025CB BECMG 1204/1205
14005KT 5000 HZ TEMPO 1209/1212 2000 TSRA/RA SCT008 SCT012 FEW025CB
OVC090 BECMG 1217/1218 00000KT 4000 HZ=  

TAF VOCI 110900Z 1112/1218 22005KT 5000 HZ FEW015 SCT100 TEMPO
1112/1115 FEW025CB BECMG 1117/1118 00000KT 4000 HZ TEMPO 1200/1203
2000 BR/HZ FEW025CB BECMG 1204/1205 05005KT 5000 HZ TEMPO 1209/1212
2000 TSRA/RA SCT008 SCT012 FEW025CB OVC090 BECMG 1217/1218 00000KT
4000 HZ= 

TAF VOCL 110900Z 1112/1218 22005KT 5000 HZ FEW015 SCT100 TEMPO
1112/1115 FEW025CB BECMG 1117/1118 00000KT 4000 HZ TEMPO 1200/1203
2000 BR/HZ FEW025CB BECMG 1204/1205 22005KT 5000 HZ TEMPO 1209/1212
FEW025CB BECMG 1217/1218 00000KT 4000 HZ=
 

0000044600
397
FCIN90 VOTV 110900
TAF VOTV 110900Z 1112/1121 14005KT 5000 HZ FEW015 SCT100
TEMPO 1112/1115 2000 TSRA/RA SCT008 SCT012 FEW025CB OVC090 BECMG
1117/1118 00000KT 4000 HZ= 

TAF VOCI 110900Z 1112/1121 22005KT 5000 HZ FEW015 SCT100
TEMPO 1112/1115 FEW025CB BECMG 1117/1118 00000KT 4000 HZ= 

TAF VOCL 110900Z 1112/1121 22005KT 5000 HZ FEW015 SCT100
TEMPO 1112/1115 FEW025CB BECMG 1117/1118 00000KT 4000 HZ=


 

0000017800
398
SALV32 EVRA 110250
METAR EVLA 110250Z AUTO 29007KT 260V320 9999 FEW010 BKN014 OVC020 
02/00 Q1003=
METAR EVVA 110250Z AUTO 30009KT 9999 OVC014 02/00 Q1002=

0000015700
399
SADN33 EKCH 110250
METAR EKKA 110250Z 23010KT 9999 FEW011 BKN019 07/06 Q1005=
METAR EKSP 110250Z 24013KT 9999 SCT007 BKN020 07/05 Q1008=

0000025600
400
SAHO31 MHTG 110300
METAR MHLC 110300Z 00000KT 9999 SCT024 SCT080 22/21 Q1014 A2996
NOSIG=
METAR MHLM 110300Z 35004KT 9999 FEW026 SCT080 22/22 Q1015 A2997
NOSIG=
METAR MHTG 110300Z 10003KT 9999 BKN024 20/16 Q1019 A3009 REDZ NOSIG=

0000009300
401
SAAI41 FHAW 110250
METAR FHAW 110250Z 13010KT 9999 FEW018 24/19 Q1012 BLU=

0000008800
402
SPCN51 CWAO 110256
SPECI CWOB 110256Z AUTO 05008KT FEW001 M21/ A2925=

0000008400
403
SAAG41 SADF 110300
METAR SADF 110300Z  32004KT CAVOK 22/19 Q1011=

0000087500
404
SAMX41 MMMX 110256
METAR MMMX 110244Z 16006KT 12SM FEW080 16/05 A3028
      NOSIG RMK SLP122 52021 954 8/030 SC=
METAR MMAA 110245Z 00000KT 8SM SKC 27/22 A2989 RMK SLP122 52020 957=
METAR MMOX 110242Z 15007KT 8SM SKC 20/12 A3016 RMK SLP113
      53028 968=
METAR MMPA 110240Z 00000KT 4SM SCT120 20/19 A2990 RMK 8/030 HZY=
METAR MMQT 110245Z 00000KT 7SM SCT020 BKN090 BKN250 16/09 A3023 RMK
8/538=
METAR MMTM 110241Z 15010KT 5SM  SCT010 BKN060 BKN200 21/18 A2989 
      RMK SLP124 57061 992 8/538 HZY=
METAR MMTO 110246Z 00000KT 8SM  FEW020 SCT070 09/06 A3034 
      RMK SLP189 52028 915 8/430=
METAR MMVR 110247Z 00000KT 7SM  SKC 21/18 A2992 
      RMK SLP111 52020 991 HZY=
METAR MMZH 110245Z 00000KT 7SM SCT100 SCT250 26/22 A2989 RMK M M M
8/031=
METAR MMPB 110257Z NIL=
METAR MMIT 110257Z NIL=
METAR MMTB 110257Z NIL=

0000011300
405
SAUS75 KWBC 110200 RRF
METAR
PAOM 110153Z COR 04017KT 10SM DRSN FEW032 SCT100 M12/M19 A2964=

0000008300
406
SABZ24 SBFI 110300
METAR SBFI 110300Z 08002KT CAVOK 25/23 Q1011=

0000009600
407
SAIY31 LIIB 110250 RRA
METAR LIME 110250Z 27003KT 3000 BR BKN012 08/07 Q1021=

0000008900
408
SABZ21 SBFZ 110300
METAR SBFZ 110300Z 08011KT 9999 SCT020 27/21 Q1011=

0000008700
409
SAAL31 DAAA 110230 RRA
METAR DABB 110230Z 22003KT CAVOK 08/07 Q1017=

0000009500
410
SAVN22 SVMI 110300
METAR SVMI 110300Z 00000KT 9999 FEW016 23/18 Q1015 NOSIG=

0000011100
411
SPMG20 FMMI 110255
SPECI FMMI 110255Z 30003KT 8000 FEW007 SCT020 BKN230 17/17 Q1022
NOSIG=

0000017100
412
SANL32 EHDB 110255
METAR EHEH 110255Z AUTO 22011KT 9999 OVC007 04/02 Q1015 
GRN=
METAR EHKD 110255Z AUTO 21017KT 4400 -RA OVC005 07/06 Q1012 
YLO=

00000000