0000011000
393
UANT01 CWAO 110416
ARP UAL60 5112N03430W 0415 F360 MS55 204/43 KT
N69063 DDL XXW 110416 F63A
0000011000
394
UANT01 CWAO 110416
ARP AFR055 4806N03929W 0415 F400 MS53 275/42 KT
FHPJF QXT AOE 110416 J36A
0000015500
395
FCIN90 VIDP 110900
TAF VIDP 110900Z 1112/1121 33005KT 2500 HZ NSC
     BECMG 1113/1115 1500 HZ/FU
     BECMG 1116/1118 0800 FU/MIFG=

0000011000
396
UANT01 CWAO 110416
ARP DAL78 5059N02952W 0416 F390 MS52 217/62 KT
N855NW DDL XXW 110416 J04A
0000011100
397
UANT01 CWAO 110416
ARP DAL408 4513N04426W 0415 F350 MS58 321/63 KT
N172DN QXT AOW 110416 F04A
0000031800
398
SMVX02 DEMS 110418
BBXX AVFV 11031 99170 10823 46/// /0604 10245 29076 49150 90329 222//=
BBXX VWSK 11031 99100 10763 46/// /0804 10263 29090 49128 90309 22260=
BBXX VWSM 11031 99203 10867 46/// /3405 10218 29072 49158 90313 222//=
BBXX VWXS 11031 99090 10759 46/// /0708 10271 29059 49125 90310 22231=
0000011000
399
UANT01 CWAO 110416
ARP DAL38 4806N03507W 0416 F340 MS49 209/32 KT
N834MH QXT AOW 110416 F43A
0000011100
400
UANT01 CWAO 110416
ARP AAL174 5131N03300W 0416 F350 MS55 206/55 KT
N349AN DDL XXW 110416 F17A
0000015800
401
SNVD20 KWNB 110400 RRK
BBXX
41052 11041 99183 70648 46/// /0708 10251 40180 54000 90400 22200
00266 10903 70016 333 91210 555 11084 22091=
0000037000
402
SNVD19 KWNB 110400 RRB
BBXX
46126 11041 99540 71666 46/// /2205 10045 49832 90348 22200 00045
1//00 70001 333 91206 555 11055 22060=
46126 11041 99540 71666 46/// /2205 10045 49832 90350 22200 00045
1//00 70001 333 91206 555 11055 22060=
46126 11041 99540 71666 46/// /2205 10045 49832 90354 22200 00045
1//00 70001 333 91206 555 11052 22057=
0000024900
403
SNVD15 KWNB 110400 RRH
BBXX
41038 11041 99341 70777 46/// /2004 10147 90400 22200 00142 333
91205 555 11048 22052=
41056 11041 99183 70655 46/// /0606 10256 40181 50000 90400 22200
00266 10703 70013 333 91208 555 11067 22073=
0000034900
404
SAMG20 FMMI 110400
METAR FMNA 110400Z NIL=
METAR FMNN 110400Z NIL=
METAR FMSD 110400Z 00000KT 9999 FEW016 26/25 Q1014=
METAR FMMT 110400Z 00000KT 9999 VCSH SCT017 SCT033 27/26 Q1014 NOSIG=
METAR FMMI 110400Z 00000KT 7000  FEW008  BKN230 20/20 Q1022
NOSIG=
METAR FMNM 110400Z 26002KT 9999 FEW020  SCT230 27/24 Q1012 NOSIG=
0000011300
405
SIOM20 OOMS 110300 RRI
AAXX 11034
41263 36/// /3503 10110 20053 39612 40208
333 0E016 58001 =
0000215900
406
SZNZ01 NZKL 110418
CREX++
T000103 A001 D01021 D06025++
-3683144 17478654 AUCT  2014 01 11 04 10 //// 11 07 00 01
06025 3202 06023 3203 06020 3203 06015 3200 06012 3200 06007 3198+
-4402404 -17636748 CHIT  2014 01 11 04 10 //// 11 07 00 01
04924 2079 04926 2084 04943 2105 04928 2094 04910 2081 04919 2093+
-4089929 17623168 CPIT  2014 01 11 04 10 //// 11 07 00 01
04010 2269 03991 2255 03956 2225 03959 2233 03951 2230 03953 2237+
-3618905 17548887 GBIT  2014 01 11 04 10 //// 11 07 00 01
06364 0043 06355 0037 06360 0044 06371 0058 06361 0050 06352 0044+
-3867541 17802288 GIST  2014 01 11 04 10 //// 11 07 00 01
04285 2715 04283 2718 04267 2707 04253 2697 04244 2693 04234 2687+
-4241288 17370277 KAIT  2014 01 11 04 10 //// 11 07 00 01
03296 2181 03275 2165 03280 2175 03271 2172 03272 2178 03268 2180+
-3755040 17815904 LOTT  2014 01 11 04 10 //// 11 07 00 01
03921 0206 03928 0216 03923 0216 03910 0206 03903 0202 03919 0222+
-3704657 17451175 MNKT  2014 01 11 04 10 //// 11 07 00 01
02950 -0146 02962 -0141 02966 -0143 02988 -0127 02962 -0159 03009 -0118+
-3947566 17692007 NAPT  2014 01 11 04 10 //// 11 07 00 01
03234 2029 03237 2038 03192 1997 03179 1989 03185 2001 03174 1995+
-3441483 17304870 NCPT  2014 01 11 04 10 //// 11 07 00 01
02317 -2690 02280 -2727 02298 -2709 02306 -2700 02347 -2658 02284 -2720+
-4581435 17062939 OTAT  2014 01 11 04 10 //// 11 07 00 01
04219 3442 04215 3443 04199 3433 04185 3425 04186 3432 04189 3440+
-2928002 -17789440 RBCT  2014 01 11 04 10 //// 11 07 00 01
06444 2053 06436 2046 06437 2049 06432 2046 06428 2044 06430 2049+
-2925114 -17790384 RFRT  2014 01 11 04 10 //// 11 07 00 01
03349 0200 03359 0213 03362 0217 03374 0231 03355 0215 03356 0218+
-4357010 17277383 SUMT  2014 01 11 04 10 //// 11 07 00 01
01964 1913 01963 1919 01949 1912 01938 1907 01948 1925 01935 1919+
-3764109 17618118 TAUT  2014 01 11 04 10 //// 11 07 00 01
05625 3991 05625 3993 05631 4001 05626 3999 05626 4001 05624 4002+
-4128448 17477985 WLGT  2014 01 11 04 10 //// 11 07 00 01
03165 2050 03163 2052 03149 2042 03136 2033 03128 2030 03123 2030++
7777
0000023800
407
SWVD12 LFPW 110400
MMXX 41300 11014 0400/ 71551 05728 00011 15400 20316 30101
11130 0005/ 1024/ 30/// 14054 11174
22226 83006 10002 31163 58200 77354 92555 12922 32410
51221 70911 90706 10404 30504 50302 70201 90101=
0000009200
408
UAAK04 KAWN 110400
SIT UA /OV ANN006040/TM 0400/FL390/TP B737/TB MOD/RM ZAN=
0000011100
409
UANT99 KDDL 110415
ARP AAL100 5138N02427W 0415 F340 MS62 232/86 KT
N725AN DDL XXN 110415 F46A
0000011100
410
UANT99 KDDL 110415
ARP BAW2036 4503N03949W 0415 F390 MS48 276/44 KT
GVIIR QXT AOE 110415 F46A
0000011000
411
UANT99 KDDL 110415
ARP AFL103 5540N03713W 0415 F330 MS58 240/23 KT
VQBPK QXT AME 110415 J26A
0000010800
412
UANT99 KDDL 110415
ARP LOT7 6057N03017W 0415 F380 MS54 330/28 KT
SPLRB DDL XXW 110416 L13A
00000000