0000117700
653
SAAK31 KWBC 110200
METAR
PABR 110153Z 30012KT 7SM BKN013 OVC018 M23/M27 A2986=
PACD 110153Z 14012KT 10SM BKN070 OVC090 03/M01 A2928=
PAED 110158Z 25005KT 10SM -SN BKN011 OVC017 M04/M04 A2937=
PAEI NIL=
PAEN 110153Z 00000KT 10SM OVC006 M03/M04 A2938=
PAFA 110153Z 00000KT 10SM FEW080 M29/M33 A2958=
PAFR NIL=
PAFS 110156Z AUTO 00000KT 10SM SCT031 M17/M20 A2954=
PAFY NIL=
PAJN 110153Z 08005KT 10SM FEW018 BKN034 OVC080 02/00 A2942=
PAKN 110154Z 34004KT 10SM FEW004 SCT025 BKN130 M04/M04 A2941=
PAKT 110153Z 00000KT 10SM FEW021 BKN027 BKN047 02/01 A2944=
PANC 110153Z 35003KT 5SM -SN BR SCT006 OVC014 M04/M05 A2937=
PAOM 110153Z 04017KT 10SM FEW032 SCT100 M12/M19 A2964=
PAOR 110153Z 31003KT 2 1/2SM -SN OVC034 M17/M19 A2936=
PAOT 110153Z 01003KT 10SM CLR M18/M24 A2977=
PARY 110156Z AUTO 00000KT 10SM CLR M24/M26 A2958=
PASC 110153Z 25013KT 3SM -SN BR BKN026 OVC100 M29/M33 A2984=
PASG NIL=
PASI 110153Z 09005KT 10SM SCT014 BKN026 OVC050 02/01 A2940=
PATQ 110156Z AUTO 30005KT 10SM CLR M27/M29 A2989=
PAVD 110156Z 10SM FEW020 SCT100 BKN150 M06/M07 A2933=
PAWG 110156Z 11010KT 10SM BKN050 03/M01 A2945=
PFYU NIL=

0000012100
654
SAUK36 EGGY 110150 RRC
METAR EGWU 110150Z AUTO 20007KT 9999 // BKN040/// BKN046/// 07/06
     Q1012=

0000056800
655
SAMS31 WMKK 110200
METAR WBGG 110200Z 00000KT 9999 FEW005 SCT018 BKN150 26/24 Q1012
NOSIG=
METAR WBKK 110200Z 28001KT 9999 FEW015 SCT140 BKN270 29/24 Q1013
NOSIG=
METAR WBSB 110200Z 29002KT 9999 FEW015 FEW016CB BKN280 29/25 Q1013
NOSIG=
METAR WMKK 110200Z 10003KT 9999 FEW017CB SCT140 BKN280 27/24 Q1013
NOSIG=
METAR WMKP 110200Z 03005KT 8000 FEW020 BKN140 BKN260 26/23 Q1013
NOSIG=
METAR WSSL 110200Z 33004KT 260V010 9999 FEW018 BKN300 28/25 Q1013=
METAR WSSS 110200Z 34003KT 280V060 9999 FEW020TCU BKN300 28/24 Q1013
NOSIG=

0000047800
656
SAMS32 WMKK 110200
METAR WBGG 110200Z 00000KT 9999 FEW005 SCT018 BKN150 26/24 Q1012
NOSIG=
METAR WBKK 110200Z 28001KT 9999 FEW015 SCT140 BKN270 29/24 Q1013
NOSIG=
METAR WMKJ 110200Z 36007KT 310V050 9999 SCT018 BKN300 28/24 Q1013=
METAR WMKK 110200Z 10003KT 9999 FEW017CB SCT140 BKN280 27/24 Q1013
NOSIG=
METAR WMKP 110200Z 03005KT 8000 FEW020 BKN140 BKN260 26/23 Q1013
NOSIG=
METAR WMSA 110200Z 36001KT 9999 FEW020 SCT140 BKN280 26/23 Q1013=

0000019100
657
SAAF11 LFPW 110200 RRA
METAR FCPP 110200Z VRB02KT 8000 FEW010 26/24 Q1009 NOSIG=
METAR FKKD 110200Z 00000KT 8000 SCT013 FEW016CB BKN300 26/25 Q1010
      BECMG 4000 BR=

0000088700
658
SAMS33 WMKK 110200
METAR WMAU 110200Z 30005KT 7000 FEW020 SCT140 BKN260 26/24 Q////
QFF1013=
METAR WMBA 110200Z 06002KT 9999 FEW012 SCT160 BKN260 25/24 Q1013=
METAR WMKA 110200Z 06011G23KT 340V110 9999 FEW012 BKN140 BKN260 26/21
Q1013=
METAR WMKB 110200Z 02004KT 350V060 8000 FEW020 BKN140 BKN270 26/24
Q1013 NOSIG=
METAR WMKC 110200Z 05012KT 020V080 7000 -RA FEW008 SCT020 OVC200
26/23 Q1014=
METAR WMKD 110200Z 35003KT 9999 FEW018 SCT160 BKN270 25/23 Q1013
NOSIG=
METAR WMKE 110200Z 32004KT 4000 -RA FEW000 FEW016CB BKN020 OVC190
23/22 Q1014=
METAR WMKI 110200Z 03008KT 9999 -RA FEW032 SCT140 OVC260 24/23 Q1013=
METAR WMKL 110200Z 03009KT 330V100 9999 FEW020 BKN140 BKN270 28/22
Q1013=
METAR WMKM 110200Z 02006KT 330V070 9999 FEW019 SCT140 BKN270 27/24
Q1013=
METAR WMKN 110200Z 20002KT 8000 -RA FEW008 SCT022 OVC190 23/23 Q1014=

0000009300
659
SAAF14 LFPW 110200 RRA
METAR FEFF 110200Z VRB02KT CAVOK 20/18 Q1011 NOSIG=

0000009900
660
SAAF18 LFPW 110200 RRA
METAR FMEE 110200Z 13011KT 9999 FEW030 26/20 Q1015 NOSIG=

0000059600
661
SAMS34 WMKK 110200
METAR WBGB 110200Z 00000KT 5000 RA FEW005 SCT014 OVC140 25/24 Q1013=
METAR WBGR 110200Z 25004KT 9999 SCT014 FEW015CB SCT150 BKN300 28/25
Q1013=
METAR WBGS 110200Z 02005KT 9999 SCT014 BKN150 26/23 Q1013=
METAR WBGY 110200Z 02002KT 9999 SCT014 BKN150 25/23 Q1013=
METAR WBKL 110200Z 16001KT 9999 FEW013 SCT140 BKN290 29/26 Q1013=
METAR WBKS 110200Z 07012KT 040V100 9999 SCT015 SCT140 OVC260 29/26
Q1012=
METAR WBKT 110200Z 11007KT 050V160 9000 -RA FEW008 SCT013 BKN260
25/24 Q1013=
METAR WBKW 110200Z 03007KT 9999 FEW017 BKN140 29/24 Q1012=

0000009200
662
SAAF20 LFPW 110200 RRA
METAR FAGG 110200Z AUTO VRB02KT CAVOK 14/12 Q1018=

0000020900
663
SAAF21 LFPW 110200 RRA
METAR FAMM 110200Z AUTO 14003KT //// // ////// 20/06 Q1017=
METAR FAPE 110200Z 25012KT CAVOK 18/13 Q1017 NOSIG=
METAR FAUP 110200Z 16001KT CAVOK 19/04 Q1016 NOSIG=

0000010600
664
SAAF27 LFPW 110200 RRA
METAR FGBT 110200Z 11004KT 9999 FEW010 SCT100 26/24 Q1010 NOSIG=

0000010600
665
SAAM31 FCBB 110200
METAR FKYS 110200Z 28002KT 4000 BR SCT003 21/20 Q1015 BECMG 2000 BR=

0000009500
666
SACA32 KWBC 110200 RRA
METAR
TUPJ 110200Z 10011KT 9999 SCT019 25/20 Q1019=

0000025800
667
SAIO31 KWBC 110200 RRA
METAR
FMCZ 110200Z 26004KT 9999 FEW021 26/23 Q1012 NOSIG=
FMEE 110200Z 13011KT 9999 FEW030 26/20 Q1015 NOSIG=
FSIA 110200Z 24002KT 9999 FEW014CB SCT080 24/22 Q1011 NOSIG=
VYMD 110200Z NIL=
VYYY 110200Z NIL=

0000012300
668
SARA31 RUMS 110200
METAR UEEE 110200Z 00000MPS 3200 BR OVC200 M44/M49 Q1035 NOSIG RMK
QFE767 23490145=

0000011500
669
SPCN52 CWAO 101807
SPECI CWFD 101807Z AUTO 20016KT 3/8SM CLR M21/ A2876 RMK VSBY VRBL
0.2V2.9=

0000013600
670
SAIN31 EGGY 101800
METAR VOBL 101800Z NIL=
METAR VOCB 101800Z NIL=
METAR VOCI 101800Z NIL=
METAR VOCL 101800Z NIL=
0000078000
671
FCEE31 LOWM 101700
TAF UAII 101755Z 1019/1104 VRB01MPS 3500 FU BR BKN100
     TEMPO 1019/1024 14004MPS 1000
     TEMPO 1100/1104 18003G08MPS SCT050CB BKN100=
TAF UASP 101800Z 1019/1104 21006MPS 3100 -SHSN BLSN BKN011CB
TEMPO 1020/1103 23010MPS 0800 +SHSN BLSN VV002=
TAF UADD 101745Z 1019/1104 18002G07MPS 5000 BR NSC=
TAF UASK 101800Z 1019/1104 16005G10MPS 6000 BKN020 OVC100 TEMPO
1019/1101 20005G10MPS 3100 -SN BR SCT004 SCT011=
TAF UACK 101800Z 1019/1104 20008MPS 3000 -SHSN DRSN BKN006
BKN010CB TEMPO 1019/1022 19012G17MPS 1500 SHSN BLSN
BKN004CB TEMPO 1022/1104 18014MPS 0800 +SHSN BLSN VV003=
TAF UACP 101700Z NIL=
TAF UAOO 101751Z 1019/1104 18010MPS 5000 -SN BR OVC010 TEMPO
 1019/1104
2000 BR OVC005=
TAF UAKD 101700Z NIL=

0000011000
672
SAMS31 WMKK 101800 RRA
METAR WBGG 101800Z 27002KT 8000 -RA SCT020 BKN150 23/22 Q1012 NOSIG=

00000000