0000016700
653
SAMX41 MMMX 102004
METAR MMIT 102000Z 36007KT 7SM SKC 31/17 A2985 RMK PRESFR FU NW =
METAR MMTB 101945Z 00000KT 7SM SKC 29/18 A2983 RMK ISOLD CU =

0000012000
654
SACN61 CYPY 102000
METAR CYPY 102000Z AUTO 00000KT 6SM -SN SCT027 OVC075 M17/M19 A2947
 RMK SLP004=

0000011200
655
SACN61 CYQA 102000
METAR CYQA 102000Z AUTO 14007KT 6SM BR OVC007 M02/M03 A3008 RMK
 SLP205=

0000010600
656
SABZ19 SBMQ 102000 CCA
METAR COR SBMQ 102000Z 12005KT 9999 SCT013
BKN100 29/22 Q1008=

0000013500
657
SACN62 CYQM 102000
METAR CYQM 102000Z 23014KT 15SM FEW030 FEW120 FEW240 M03/M09 A3029
 RMK SC1AC1CI1 SC TR SLP263=

0000009500
658
SAHK31 VHHH 102000
METAR VHHH 102000Z 08008KT 9000 FEW025 15/11 Q1023 NOSIG=

0000011500
659
SACN62 CYQR 102000
METAR CYQR 102000Z 31009KT 1 1/2SM BR OVC005 M08/M09 A2943 RMK ST8
 SLP008=

0000011100
660
SACN62 CYQT 102000
METAR CYQT 102000Z 21008KT 5SM BR OVC011 M03/M05 A2966 RMK SC8
 SLP057=

0000013200
661
SACN62 CYQX 102000
METAR CYQX 102000Z 24015G21KT 20SM SCT034 BKN072 BKN240 M07/M13 A3010
 RMK SC3AC2CI1 SLP204=

0000027900
662
SACZ43 LKPW 102000
METAR LKCV 102000Z 24010KT CAVOK 05/00 Q1018 NOSIG=
METAR LKKB 102000Z 24010KT CAVOK 05/00 Q1018 NOSIG=
METAR LKLN 102000Z NIL=
METAR LKNA 102000Z 24006KT CAVOK 02/M01 Q1018 NOSIG=
METAR LKPD 102000Z 26008KT CAVOK 05/M01 Q1018 NOSIG=

0000013500
663
SNVD02 CWAO 111000
BBXX
SHIP 11104 99447 70619 46/// /2412 10020 20013 40268 57004 7//// 8//// 22224 0//// 2//// =

0000013500
664
SNVD02 CWAO 111000
BBXX
SHIP 11104 99505 71278 46/// /1601 10078 20061 49871 51008 7//// 8//// 22200 0//// 2//// =

0000013500
665
SNVD02 CWAO 111000
BBXX
SHIP 11104 99463 70725 46/// /0306 11026 21049 40165 58042 7//// 8//// 22200 0//// 2//// =

0000013500
666
SNVD02 CWAO 111000
BBXX
SHIP 11104 99474 70619 46/// /2208 11040 21079 40238 58003 7//// 8//// 22200 0//// 2//// =

0000013500
667
SNVD02 CWAO 111000
BBXX
SHIP 11104 99429 70824 46/// /2013 10055 20064 49989 58032 7//// 8//// 22200 0//// 2//// =

0000013500
668
SNVD02 CWAO 111000
BBXX
SHIP 11104 99468 70712 46/// /0602 11035 2//// 40190 57032 7//// 8//// 22200 0//// 2//// =

0000013500
669
SNVD02 CWAO 111000
BBXX
SHIP 11104 99474 70619 46/// /2403 11035 21036 40232 58003 7//// 8//// 22200 0//// 2//// =

0000013500
670
SNVD02 CWAO 111000
BBXX
SHIP 11104 99489 71235 46/// /1418 10095 20092 49909 56064 7//// 8//// 22200 0//// 2//// =

0000013500
671
SNVD02 CWAO 111000
BBXX
SHIP 11104 99487 71235 46/// /1203 10091 20090 49922 56055 7//// 8//// 22200 0//// 2//// =

0000028900
672
SXHW11 KWAL 111005
B150314C 011100523"
1,140111,09:00:00,5.0,143,12.3,22.2,1015.6,0.07,13.7,
1,140111,09:15:00,4.7,137,10.8,22.2,1015.5,0.07,13.7,
1,140111,09:30:00,4.3,141,8.6,22.2,1015.3,0.07,13.7,
1,140111,09:45:00,4.3,133,9.6,22.2,1015.3,0.07,13.7, 47+0NN 210W
00000000