0000010200
233
SANL33 EHDB 101755 RRC
METAR EHSA 101755Z AUTO 22024G28KT 9999 09/07 Q1014 W09/H16=

0000023600
234
FTUS72 KWBC 101806
TAF
TAF KDLF 1018/1124 32006KT 9999 OVC011 510002 QNH2987INS
      BECMG 1018/1019 32006KT 9999 FEW015 QNH2987INS
      BECMG 1108/1109 33006KT 9999 SKC QNH3000INS T22/1120Z
      T03/1111Z=

0000036400
235
FTUS73 KWBC 101806
TAF
TAF KOFF 1018/1124 16006KT 0400 FZFG OVC002 620029 QNH2959INS
      TEMPO 1019/1021 0800 FG
      BECMG 1021/1022 22009KT 3200 -SN BR OVC005 620057 QNH2955INS
      BECMG 1102/1103 30009KT 9999 NSW OVC015 620154 QNH2958INS
      BECMG 1105/1106 30012KT 9999 SCT015 SCT100 QNH2961INS
      T06/1121Z TM05/1112Z=

0000062000
236
FTUS73 KWBC 101806 AAA
TAF AMD
KBRL 101805Z 1018/1118 15010KT 2SM -RA BR OVC002
     FM102000 16009KT 1SM -RA BR OVC002
     FM110100 18003KT 1/2SM -RA FG OVC002
     FM110700 26005KT 1SM -FZRASN BR OVC003
     FM110900 27010KT 2SM -SN BR OVC004
     FM111300 28011KT 4SM BR VCSH OVC006=
KCID 101804Z 1018/1118 14010KT 1SM -DZ BR OVC002
     FM102100 14008KT 1SM -RA BR OVC002
     FM110000 18003KT 1/2SM -RA FG OVC002
     FM110400 26005KT 1SM -FZRASN BR OVC003
     FM110600 29011KT 1SM -SN BR OVC003
     FM111200 29012KT 4SM BR OVC004
     FM111500 29012KT 6SM BR OVC020=

0000131900
237
SACA32 KWBC 101800
METAR
MDLR 101800Z 07018KT 9999 SCT022 29/21 Q1016=
MDPC 101800Z 11012KT 9999 FEW022 27/21 Q1018=
MDPP 101800Z 12016KT 9999 SCT020 28/22 Q1018=
MDSD 101800Z 12010KT 9999 SCT022 32/24 Q1016=
MDST 101800Z 10008KT 8000 VCRA SCT018 SCT070 24/23 Q1018 RERA=
MTCH NIL=
MTPP 1800Z 09016KT 9999 FEW028 32/XX Q1015/7 A2999=
MTPP 1800Z 09016KT 9999 FEW028 32/XX Q1015.7 A2999=
TAPA 101800Z 08012KT 9999 FEW019 BKN035 27/19 Q1016 NOSIG=
TIST 101753Z 09014G23KT 10SM CLR 29/21 A3003 RMK AO2 SLP170 60002
     T02890211 10289 20256 58025=
TISX 101753Z 07019G25KT 10SM SCT029 BKN035 BKN070 28/19 A3003 RMK
     AO2 SLP168 60003 T02780194 10294 20256 58022=
TJBQ 101750Z 08023G27KT 10SM SCT020 SCT050 31/ A3006 RMK ATIS
     F=
TJMZ 101750Z 08012KT 10SM SCT040 30/19 A3002=
TJNR 101753Z AUTO 07012G19KT 10SM FEW026 BKN036 OVC065 28/21 A3007
     RMK AO2 RAB17E29 SLP182 P0000 60000 T02830211 10283 20256
     58025 TSNO=
TJPS 101750Z 13010KT 10SM FEW030 32/19 A3001=
TJSJ 101756Z 07016G25KT 10SM FEW034 SCT046 SCT065 28/22 A3005 RMK
     AO2 SLP175 60000 T02830217 10294 20250 58024=
TKPK NIL=
TKPN NIL=
TQPF 101800Z 08016KT 9999 FEW019 BKN040 27/19 Q1017=
TRPM NIL=
TUPJ 101800Z 10013G31KT 9999 VCSH SCT019 24/22 Q1018 RMK A3006=
TUPW NIL=

0000038400
238
SAHW31 KWBC 101800
METAR
PBKH NIL=
PHJR 101753Z 00000KT 10SM CLR 19/17 A3002=
PHKO 101753Z 04006KT 10SM CLR 21/15 A2998=
PHLI 101753Z 04012KT 10SM SCT021 BKN027 BKN037 23/19 A3003=
PHNL 101753Z 32003KT 10SM FEW026 SCT035 SCT041 21/17 A3000=
PHOG 101754Z 09004KT 10SM SCT030 21/18 A3000=
PHTO 101753Z 24007KT 10SM FEW026 FEW050 19/14 A3000=
PNGF NIL=

0000012200
239
SACN62 CYYY 101800
METAR CYYY 101800Z 22010G16KT 30SM FEW010 BKN100 M06/M14 A3018 RMK
 SC1AC6 SLP223=

0000170000
240
SAUS72 KWBC 101800
METAR
KABI 101752Z 23016G21KT 10SM CLR 17/10 A2981=
KABQ 101752Z 23003KT 10SM FEW070 06/M08 A3001=
KABY 101753Z 36004KT 1 1/4SM BR OVC004 13/12 A3017=
KACT 101751Z 20011KT 10SM SCT017 OVC095 19/17 A2984=
KAEX 101753Z 15012G17KT 6SM BR OVC004 15/13 A2996=
KAFW 101753Z 19009KT 8SM -RA SCT075 OVC095 17/15 A2976=
KAHN 101751Z 04005KT 3SM -RA BR OVC005 07/06 A3020=
KALI 101753Z AUTO 20015G19KT 10SM BKN030 OVC038 23/17 A2989=
KAMA 101753Z 01011KT 10SM CLR 11/M08 A2976=
KANB 101753Z AUTO 06008KT 4SM BR OVC005 08/07 A3014=
KAPF 101753Z 15007KT 10SM SCT019 27/22 A3009=
KATL 101752Z 08008KT 1/2SM -DZ BR OVC004 08/08 A3017=
KAUS 101753Z 19013KT 10SM FEW007 BKN012 OVC020 19/18 A2988=
KBFM 101753Z 00000KT 9SM FEW010 BKN033 OVC042 14/12 A3010=
KBHM 101753Z 00000KT 3SM BR OVC005 09/07 A3013=
KBNA 101753Z 16012KT 9SM OVC010 11/08 A3008=
KBPT 101753Z 15011KT 9SM BKN006 OVC038 18/16 A2996=
KBQK 101755Z AUTO 12009G15KT 3SM OVC005 20/19 A3016=
KBRO 101753Z 18018G30KT 10SM BKN016 OVC038 24/19 A2989=
KBTR 101753Z 11012KT 5SM BR OVC006 16/13 A3002=
KCEW 101753Z AUTO 07003KT 1/4SM FG VV001 13/13 A3012=
KCHA 101753Z 00000KT 2SM BR OVC004 07/06 A3016=
KCLL 101753Z 18009KT 10SM FEW010 SCT014 OVC036 18/17 A2989=
KCNM 101753Z AUTO 28017G29KT 10SM CLR 18/M11 A2990=
KCRP 101751Z 19012KT 10SM FEW009 BKN017 OVC049 21/19 A2991=
KCSG 101751Z 09006KT 1 1/4SM BR OVC003 09/09 A3015=
KCSV 101753Z AUTO 13007KT 10SM OVC006 09/07 A3012=
KDAB 101753Z 07012KT 9SM BKN008 OVC012 22/19 A3015=
KDAL 101753Z 22011KT 8SM BKN012 BKN033 OVC042 18/16 A2980=
KDFW 101753Z 20011KT 6SM -RA BR FEW015 SCT035 OVC090 18/16
     A2978=

0000082900
241
FTNV01 NVVV 101800 RRA
TAF NVSC 101805Z 1018/1118 VRB04KT 9999 SCT020 BKN040
PROB40 INTER 1018/1024 9000 -TSRA OVC018 FEW025CB
BECMG 1019/1021 12010KT=
TAF NVSS 101805Z 1018/1118 09013KT 9999 SCT020 BKN110
PROB30 INTER 1018/1024 9000 -TSRA OVC018 FEW025CB=
TAF NVSG 101805Z 1018/1118 12009KT 9999 SCT020 BKN040
PROB40 INTER 1018/1024 8000 SHRA OVC018=
TAF NVSL 101805Z 1018/1118 13010KT 9999 SCT020 BKN040
PROB30 INTER 1018/1024 9000 -SHRA OVC018
BECMG 1019/1021 13013KT=
TAF NVVV 101805Z 1018/1118 09009KT 9999 SCT020 BKN040
PROB30 INTER 1018/1024 9000 -SHRA OVC018=
TAF NVVW 101805Z 1018/1118 VRB02KT 9999 SCT020
PROB30 INTER 1018/1024 9000 -TSRA BKN018 FEW025CB
BECMG 1019/1021 14013KT=
TAF NVVA 101805Z 1018/1118 10012KT 9999 BKN020
PROB30 INTER 1018/1024 9000 -SHRA OVC018=

0000168500
242
SAUS72 KWBC 101800 RRA
METAR
KDHN 101753Z COR 00000KT 1/2SM FG OVC002 12/12 A3016=
KDHN 101753Z 00000KT 3/4SM FG OVC002 12/12 A3016=
KDLF 101758Z AUTO VRB01KT 10SM OVC011 15/11 A2992=
KDMN 101753Z AUTO 26009G15KT 10SM CLR 12/M09 A3007=
KELP 101751Z 26009KT 10SM CLR 14/M09 A3004=
KESF 101753Z AUTO 15007KT 9SM OVC006 16/13 A2997=
KEYW 101753Z 12009KT 10SM CLR 27/23 A3007=
KFLL 101753Z 13014KT 10SM SCT020 BKN250 26/22 A3010=
KFSM 101753Z 05005KT 3SM -RA BR OVC070 07/07 A2978=
KFTW 101753Z 19012G15KT 6SM -RA BR BKN080 OVC090 17/16 A2977=
KFTY 101753Z 06005KT 7SM OVC004 09/08 A3016=
KGGG 101753Z 18022G26KT 10SM FEW070 19/13 A2984=
KGLS 101752Z 14009KT 10SM OVC041 18/16 A2994=
KGNV 101753Z 14007KT 10SM FEW021 OVC029 23/20 A3012=
KGPT 101753Z 06004KT 5SM HZ OVC007 16/13 A3007=
KGUP 101753Z AUTO 26013KT 10SM CLR 05/M08 A3008=
KGWO 101753Z AUTO 16015KT 10SM CLR 16/08 A3000=
KHOT 101753Z AUTO 11003KT 1 1/2SM RA BR BKN004 OVC008 11/10
     A2988=
KHOU 101753Z 13004KT 10SM FEW020 OVC045 19/15 A2993=
KHRL 101752Z 18018G25KT 10SM BKN022 BKN029 OVC037 24/19 A2989=
KHRO 101753Z AUTO 17015KT 4SM RA BR SCT048 BKN060 OVC070 09/09
     A2977=
KHSV 101753Z 12007KT 10SM OVC010 10/07 A3010=
KIAH 101753Z 15013KT 10SM OVC055 21/16 A2992=
KINK 101753Z AUTO 28017KT 10SM -RA CLR 19/M04 A2988=
KJAN 101754Z 15009KT 10SM OVC007 13/09 A3006=
KJAX 101756Z 13009KT 10SM BKN017 24/20 A3012=
KJBR 101753Z AUTO 18012KT 10SM OVC029 07/06 A2995=
KLBB 101753Z 29025G34KT 6SM R17R/5500VP6000FT BLDU CLR 16/M09
     A2977=
KLCH 101753Z 14010KT 6SM -RA BR OVC004 16/16 A2996=
KLFT 101753Z 14005KT 10SM OVC006 17/15 A3000=

0000168000
243
SAUS72 KWBC 101800 RRB
METAR
KLIT 101753Z 11005KT 5SM -RA BR OVC007 09/07 A2990=
KLRD 101756Z 22010KT 10SM FEW019 OVC025 21/14 A2994=
KLRU 101755Z AUTO 28014KT 10SM CLR 12/M10 A3007=
KMAF 101753Z 26018G24KT 10SM CLR 17/01 A2987=
KMCN 101753Z 34004KT 6SM BR OVC004 10/09 A3018=
KMCO 101753Z 12008KT 10SM SCT023 BKN250 27/19 A3012=
KMEI 101758Z 15003KT 10SM OVC006 12/10 A3007=
KMEM 101754Z 14006KT 10SM FEW011 BKN110 OVC150 11/08 A2998=
KMFE 101753Z 18013G23KT 10SM SCT029 SCT033 25/17 A2989=
KMGM 101753Z 07005KT 2SM BR OVC004 10/09 A3014=
KMIA 101753Z 14013G22KT 10SM FEW020 SCT180 BKN220 27/22 A3010=
KMKL 101753Z 16007KT 10SM OVC008 09/07 A3000=
KMLB 101753Z 14010KT 10SM SCT012 SCT030 24/21 A3012=
KMLC 101753Z AUTO 19011G20KT 9SM -RA BKN075 OVC090 14/13 A2973=
KMLU 101753Z 14006KT 8SM OVC006 12/11 A2997=
KMOB 101756Z 13005KT 4SM HZ FEW009 SCT031 OVC041 16/13 A3008=
KMSL 101753Z AUTO 12009KT 8SM OVC012 12/08 A3007=
KMSY 101753Z 10007KT 3SM BR OVC007 16/13 A3005=
KNEW 101753Z 09007KT 6SM BR OVC004 13/11 A3006=
KNGP 101756Z 19008KT 10SM FEW007 BKN028 OVC049 19/19 A2990=
KOKC 101752Z 20012KT 8SM BKN080 BKN100 12/09 A2968=
KPBI 101753Z 15008KT 10SM SCT017 BKN040 BKN060 26/22 A3011=
KPDK 101753Z 00000KT 1 1/2SM BR OVC003 08/07 A3017=
KPFN NIL=
KPIE 101753Z 13007KT 10SM CLR 26/20 A3010=
KPNS 101753Z VRB03KT 8SM BKN004 OVC011 15/13 A3009=
KROW 101751Z 27017G24KT 10SM CLR 16/M09 A2988=
KRSW 101753Z VRB04KT 10SM CLR 24/21 A3010=
KSAT 101751Z 22007KT 10SM FEW020 SCT047 OVC055 20/17 A2990=
KSFB 101753Z 14005KT 10SM SCT022 SCT037 26/20 A3011=
KSHV 101756Z 17014G19KT 10SM OVC008 16/14 A2990=

0000132400
244
SAUS72 KWBC 101800 RRC
METAR
KSJT 101751Z 20015KT 10SM CLR 16/11 A2986=
KSRQ 101753Z 14006KT 10SM CLR 26/20 A3008=
KSSI 101753Z AUTO 13008KT 4SM BR OVC005 17/17 A3015=
KTCC 101753Z AUTO 29017KT 10SM CLR 13/M11 A2977=
KTCL 101753Z 12004KT 10SM OVC008 11/08 A3012=
KTCS 101753Z AUTO 29012KT 10SM CLR 12/M09 A3003=
KTLH 101753Z 00000KT 1 3/4SM BR OVC002 19/18 A3011=
KTPA 101753Z 23004KT 10SM FEW040 SCT120 BKN150 24/19 A3010=
KTRI 101753Z 06004KT 10SM OVC065 11/07 A3018=
KTUL 101753Z 19017KT 10SM FEW009 BKN013 OVC018 12/10 A2965=
KTUP 101753Z 18009KT 9SM OVC003 09/ A3005=
KTXK 101751Z 16004KT 4SM -RA BR FEW007 BKN011 OVC024 13/13
     A2986=
KTYR 101753Z 20014KT 10SM OVC017 17/14 A2986=
KTYS 101753Z 01004KT 10SM FEW008 SCT032 OVC055 08/06 A3016=
KVCT 101751Z 19010KT 1 3/4SM -RA BR SCT007 BKN011 OVC016 21/19
     A2991=
KVLD 101753Z 18007KT 10SM OVC010 22/19 A3012=
KVRB 101753Z 13007KT 10SM CLR 24/22 A3012=
TIST 101753Z 09014G23KT 10SM CLR 29/21 A3003=
TISX 101753Z 07019G25KT 10SM SCT029 BKN035 BKN070 28/19 A3003=
TJBQ 101750Z 08023G27KT 10SM SCT020 SCT050 31/ A3006=
TJMZ 101750Z 08012KT 10SM SCT040 30/19 A3002=
TJPS 101750Z 13010KT 10SM FEW030 32/19 A3001=
TJSJ 101756Z 07016G25KT 10SM FEW034 SCT046 SCT065 28/22 A3005=
TKPK NIL=
TNCM NIL=

0000171300
245
SAUS73 KWBC 101800
METAR
KABR 101753Z AUTO 21008KT 10SM CLR M04/M07 A2955=
KALN 101750Z 14009KT 3 RA OVC010 03/03 A2985=
KALO 101754Z AUTO 14009KT 2 1/2SM BR OVC004 M01/M01 A2970=
KAPN 101754Z AUTO 17007KT 5SM BR FEW018 OVC050 M03/M06 A3002=
KASE 101753Z 00000KT 1 1/2SM -SN BR BKN026 OVC033 M08/M11
     A2989=
KATY 101753Z AUTO 21007KT 5SM BR CLR M02/M04 A2953=
KAXN 101753Z AUTO 17012KT 3/4SM BR OVC002 M03/M04 A2956=
KAZO 101753Z 17008KT 1 1/2SM BR OVC004 01/00 A3001=
KBDE 101753Z AUTO 17009G16KT 3SM BR OVC007 M04/M06 A2951=
KBFF 101753Z AUTO 29013G22KT 10SM CLR 04/M10 A2966=
KBIS 101752Z 28012KT 10SM CLR 01/M06 A2952=
KBJC 101755Z 27034G45KT 60SM SCT040 SCT080 BKN120 02/M14 A2966=
KBKF 101755Z 29012KT 70SM FEW070 SCT110 BKN220 02/M13 A2970=
KBRL 101753Z AUTO 15012KT 2 1/2SM UP BR OVC004 02/01 A2973=
KBTL 101753Z 16009KT 5SM BR OVC005 01/M01 A3000=
KCGI 101753Z 16012KT 3SM RA BR BKN006 OVC013 07/06 A2993=
KCID 101752Z 13010KT 3/4SM BR OVC002 00/M01 A2971=
KCIU 101755Z AUTO 15010KT 2 1/2SM OVC005 M03/M04 A2995=
KCMI 101753Z 15013KT 2 1/2SM VCTS -RA BR BKN009 OVC013 03/02
     A2989=
KCMX 101753Z AUTO 19009KT 7SM CLR M03/M07 A2975=
KCOS 101754Z 30024G33KT 10SM FEW080 SCT150 03/M16 A2969=
KCOU 101754Z 15011KT 5SM TS BR OVC004 04/04 A2969=
KCPR 101753Z 23019KT 10SM CLR M03/M11 A2969=
KCYS 101753Z 30024G37KT 10SM BKN090 M01/M11 A2964=
KDDC 101752Z AUTO 31015KT 10SM CLR 06/M03 A2968=
KDEC 101754Z 16013KT 3SM BR OVC005 03/02 A2986=
KDEN 101753Z VRB05KT 10SM FEW070 FEW110 SCT220 02/M13 A2969=
KDET 101753Z 20007KT 5SM HZ OVC007 03/00 A3010=
KDLH 101755Z 17007KT 3/4SM R09/3500V4500FT BR OVC002 M06/M07
     A2964=

0000171000
246
SAUS73 KWBC 101800 RRA
METAR
KDSM 101754Z 12004KT 1/4SM R31/2600V5000FT -DZ FG VV002 01/00
     A2964=
KDTW 101753Z 17009KT 5SM BR OVC008 02/01 A3010=
KEAU NIL=
KEGE 101750Z 28008KT 6SM -SN BR FEW035 OVC050 M04/M07 A2995=
KELO 101753Z AUTO 17006KT 7SM OVC009 M07/M08 A2961=
KEVV 101754Z 13008KT 7SM SCT009 OVC036 08/06 A3000=
KFAR 101753Z 20014KT 5SM HZ SCT055 M02/M04 A2952=
KFNT 101753Z 18007KT 5SM BR OVC006 02/M01 A3004=
KFSD 101756Z 19009KT 1/2SM R03/3000V4000FT BR OVC002 M01/M01
     A2957=
KFWA 101754Z 16007KT 3SM BR OVC028 02/01 A3003=
KGCK 101754Z 31016G26KT 10SM CLR 06/M07 A2968=
KGFK NIL=
KGJT 101753Z 00000KT 10SM OVC070 M03/M06 A3003=
KGRB 101753Z 16010KT 2SM BR OVC007 M02/M03 A2987=
KGRI 101753Z 25008KT 7SM OVC006 02/M01 A2957=
KGRR 101753Z 17011KT 3SM BR OVC006 01/M01 A2999=
KGYY NIL=
KHIB 101753Z AUTO 17008KT 3SM BR OVC005 M06/M07 A2960=
KHON 101755Z AUTO 27003KT 7SM CLR M01/M04 A2956=
KHUF 101753Z 16008KT 6SM BR OVC019 04/02 A2997=
KHUT 101752Z 29013KT 6SM HZ OVC018 04/02 A2961=
KICT 101753Z 27010KT 10SM BKN017 BKN022 07/04 A2960=
KIKK 101755Z AUTO 13008KT 5SM BR SCT004 OVC015 02/01 A2991=
KIND 101754Z 14006KT 4SM BR OVC032 02/02 A3001=
KINL 101755Z AUTO 18007KT 160V220 3SM BR OVC006 M06/M07 A2955=
KIRK 101755Z AUTO 14010KT 1SM BR OVC002 01/01 A2968=
KJAC 101753Z 16007KT 120V230 7SM VCSH SCT034 BKN045 M02/M07
     A2983=
KJLN 101753Z 19014G22KT 10SM SCT016 BKN021 OVC029 12/10 A2966=
KJMS 101756Z AUTO 27012KT 10SM CLR 01/M04 A2947=
KJXN 101756Z 18010KT 5SM BR OVC005 01/00 A3004=
KLAN 101753Z 18008KT 6SM BR OVC006 01/M01 A3003=
KLAR 101753Z AUTO 28030G37KT 3SM HZ SCT110 M05/M10 A2966=

0000012700
247
SACN62 CYZT 101800
METAR CYZT 101800Z 19003KT 15SM FEW036 BKN054 OVC160 05/04 A2993 RMK
 SC2SC3AC3 SLP135=

0000011500
248
SACN62 CYAM 101800
METAR CYAM 101800Z 13006KT 2 1/2SM BR OVC004 M03/M04 A2997 RMK SF8
 SLP160=

0000011700
249
SACN62 CYBL 101800
METAR CYBL 101800Z VRB02KT 15SM BKN032 OVC220 01/01 A2996 RMK SC7CI1
 SLP151=

0000167500
250
SAUS73 KWBC 101800 RRB
METAR
KLBF 101753Z AUTO 32013KT 10SM BKN070 OVC090 05/M03 A2958=
KLBL 101755Z AUTO 32015G20KT 10SM CLR 08/M06 A2974=
KLEX 101754Z 15012KT 10SM SCT008 OVC037 10/08 A3011=
KLNK 101754Z 17004KT 4SM BR OVC004 01/00 A2960=
KLOU 101753Z 16008KT 10SM OVC009 10/07 A3008=
KLOZ 101753Z AUTO 13004KT 10SM BKN027 12/08 A3013=
KLSE 101753Z 15007KT 4SM BR OVC009 M01/M03 A2977=
KMBS 101753Z 18005KT 2 1/2SM OVC009 01/M02 A3004=
KMCI 101753Z 17009KT 3/4SM R19R/P6000FT BR BKN003 OVC035 03/M01
     A2963=
KMDW 101751Z 15007KT 3SM BR OVC007 01/01 A2990=
KMHK 101752Z 00000KT 5SM BR OVC004 03/03 A2959=
KMKC 101754Z 00000KT 1SM BR OVC007 04/03 A2964=
KMKE 101752Z 16008KT 2 1/2SM BR OVC004 00/M01 A2989=
KMKG 101755Z 15009KT 1 1/2SM BR OVC006 01/M02 A2997=
KMLI 101752Z 14011G15KT 1 1/2SM BR OVC004 01/00 A2978=
KMOT NIL=
KMSN 101753Z 16013KT 1SM R36/P6000FT BR OVC003 M01/M02 A2983=
KMSP 101753Z 16009KT 2 1/2SM -FZDZ BR OVC006 M03/M04 A2970=
KOFF 101758Z 15002KT 1/4SM FG VV002 01/01 A2960=
KOMA 101752Z 18005KT 1 3/4SM BR OVC004 01/M01 A2962=
KORD 101751Z 16010KT 2 1/2SM HZ OVC005 01/M02 A2989=
KOSH 101753Z 16008KT 2SM BR OVC008 M01/M03 A2986=
KOTM 101753Z AUTO 14009KT 1 3/4SM BR OVC002 01/00 A2969=
KOWB 101756Z 16009KT 7SM BR OVC010 08/08 A3003=
KPAH 101753Z 15011G17KT 7SM SCT011 OVC016 09/07 A2996=
KPIA 101754Z 16010KT 5SM -RA BR OVC007 02/01 A2984=
KPIR 101753Z AUTO 26008KT 10SM CLR 01/M04 A2958=
KPLN 101754Z AUTO 13005KT 4SM BR OVC007 M03/M04 A2997=
KPTK 101753Z 16007KT 1/2SM R09R/2600V3500FT FG OVC002 01/M01
     A3005=
KPUB 101753Z AUTO 28023G31KT 10SM 07/M16 A2972=

0000010600
251
SACN62 CZBF 101800
METAR CZBF 101800Z 09005KT 15SM FEW220 M10/M17 A3022 RMK CI1 SLP238=

0000023200
252
FTCN31 CWAO 101800 AAA
TAF AMD CYPR 101806Z 1018/1101 15005KT P6SM FEW025 BKN040 OVC050
     TEMPO 1018/1101 6SM BR BKN015
     BECMG 1020/1022 12012G22KT
    RMK FCST BASED ON AUTO OBS. NXT FCST BY 101900Z=

00000000