0000011900
033
SACN62 CYSJ 101900
METAR CYSJ 101900Z 23007KT 15SM BKN035 BKN130 M02/M08 A3034 RMK
 SC6AC1 SLP284=

0000013100
034
SACN62 CYQL 101900
METAR CYQL 101900Z 26026G36KT 40SM FEW090 FEW140 BKN270 04/M04 A2948
 RMK AC1AC1CI4 SLP009=

0000094200
035
SARA34 RUMS 101900
METAR UNAA 101900Z 20004MPS CAVOK M05/M11 Q1029 NOSIG RMK QFE749
20090040=
METAR UNBB 101900Z 22008MPS 7000 -SN DRSN OVC014 M08/M10 Q1029 NOSIG
RMK QFE749/0999 24424042=
METAR UNEE 101900Z 21005MPS 1900 SN OVC004 M08/M09 Q1026 NOSIG RMK
QFE746 23451050=
METAR UNKL 101900Z 22003MPS 9999 -SHSN SCT027CB BKN083 M08/M12 Q1025
NOSIG RMK QFE743 29////55=
METAR UNNT 101900Z 21007MPS 4300 -SHSN DRSN FEW016 OVC033CB M06/M08
Q1026 25490139 16390136 NOSIG RMK QFE759/1013=
METAR UNOO 101900Z 21005MPS 8000 BKN015 BKN023CB M06/M09 Q1021
25390137 NOSIG RMK QFE758=
METAR UNTT 101900Z 21007MPS 2400 -SHSN FEW008 SCT016CB OVC066 M07/M09
Q1022 NOSIG RMK QFE752=
METAR USTR 101900Z 16003MPS 8000 -SHSN BKN010 OVC016CB M03/M03 Q1012
TEMPO 1500 SHSN BKN005 RMK QFE749/0999 21390045 12750029=
METAR USHH 101900Z 04003MPS 9999 SCT023 OVC080 M22/M25 Q1016 TEMPO
BKN007 RMK QFE758 06////37=

0000010700
036
SACN62 CYRT 101900
METAR CYRT 101900Z 36015KT 15SM IC DRSN SKC M31/M35 A2962 RMK SLP036=

0000011900
037
SACN62 CYQU 101900
METAR CYQU 101900Z 25017KT 25SM FEW060 FEW200 M03/M09 A2948 RMK
 SC1CI1 SLP018=

0000015000
038
SACN62 CYSB 101900
METAR CYSB 101900Z 16010KT 1/4SM R22/1400FT/N -FZDZ FZFG VV001
 M04/M05 A3000 RMK FG8 ICE ON INDICATOR SLP181=

0000009500
039
SAIN90 VEIM 111000
METAR VEIM 111000Z 14002KT 5000 HZ FEW020 22/11 Q1015 NOSIG=
0000008700
040
SAMA20 FIMP 111000
METAR FIMP 111000Z 09010KT 9999 SCT018 29/25 Q1015=

0000011300
041
SACN62 CYXY 101900
METAR CYXY 101900Z 00000KT 30SM -SN BKN060 M12/M14 A2932 RMK SC7
 SLP983=

0000010400
042
SACN62 CYSN 101900
METAR CYSN 101900Z 19003KT 10SM OVC012 03/01 A3015 RMK SC8 SLP216=

0000013900
043
SARA35 RUMS 101900
METAR USCM 101900Z 15003MPS 3000 -SN VV007 M06/M08 Q1008 TEMPO 1000
SHSN VV003 19490532 RMK QFE719=

0000011800
044
SACN62 CYVQ 101900
METAR CYVQ 101900Z 28009KT 15SM -SN DRSN BKN080 M24/M28 A2973 RMK AC7
 SLP078=

0000010600
045
SAAF18 LFPW 101900 RRA
METAR FMEE 101848Z 12009KT 9999 FEW026 BKN300 26/23 Q1016 NOSIG=

0000068600
046
SARA32 RUMS 101900
METAR COR UHBB 101900Z VRB01MPS CAVOK M33/M35 Q1022 NOSIG RMK
QFE749/0998 36410160=
METAR UHHH 101900Z 24008MPS CAVOK M26/M32 Q1018 NOSIG RMK QFE757/1009
23090060=
METAR UHMA 101900Z 25008G13MPS 9999 SCT080 M15/M21 Q1012 NOSIG RMK
QFE755/1007=
METAR UHMD 101900Z NIL=
METAR UHMM 101900Z 04004MPS 9999 FEW200 M17/M27 Q1006 RMK QFE740
88820555=
METAR UHPP 101900Z VRB01MPS 9999 BKN033 BKN100 M06/M11 Q0991 NOSIG
RMK QFE740/0987 SC035 037 037=
METAR UHSS 101900Z 01002MPS 5000 FU SCT033 M21/M24 Q1013 NOSIG RMK MT
OBSC QFE758/1011 19810366=
METAR UHWW 101900Z VRB02MPS 9999 SKC M25/M29 Q1027 NOSIG RMK
QFE769/1026 25CLRD70=

0000015900
047
SAAF20 LFPW 101900 RRA
METAR FAEL 101900Z 24011KT 9999 SCT042 20/14 Q1017=
METAR FAGG 101900Z AUTO 26002KT 9999 FEW023 BKN059 17/13 Q1019=

0000093100
048
SARS35 RUMS 101900
METAR USPP 101900Z 15002MPS 9999 FEW024 BKN080 M04/M05 Q1007 21290250
NOSIG RMK QFE745/0993=
METAR UWKD 101900Z 16003MPS 2000 BR BCFG OVC002 M00/M00 Q1005
R11/2/0050 TEMPO 0500 FZFG RMK QBB070 QFE743/0991=
METAR UWKE 101900Z 00000MPS 0200 R21/0600D FZFG VV001 M04/M05 Q1005
NOSIG RMK  QBB040 QFE737/0983 21420542=
METAR UWKS 101900Z 18005MPS 2100 BR OVC002 00/M00 Q1002 NOSIG RMK
QBB070 QFE737 24290250=
METAR UWLW 101900Z 22005MPS 5000 BR OVC007 00/00 Q1006 20820550 NOSIG
RMK QFE749=
METAR UWOR 101900Z 17005MPS 7000 -SN OVC016 M03/M04 Q1009 25450245
NOSIG RMK QFE733/0978=
METAR UWOO 101900Z 14002MPS 3200 -SN OVC008 M02/M03 Q1008 08590332
TEMPO 1000 SN RMK QFE746/0995=
METAR UWSS 101900Z 21003MPS 9999 OVC007 01/M00 Q1008 3019//55 NOSIG
RMK  QFE743=
METAR UWWW 101900Z 22002MPS 3300 BR BKN010 OVC100 M01/M02 Q1007
23520540 33//99// NOSIG RMK QFE744/0992=

0000021700
049
SAAF21 LFPW 101900 RRA
METAR FALA 101900Z 19005KT CAVOK 26/10 Q1017 NOSIG=
METAR FAMM 101900Z AUTO 23006KT //// // ////// 26/06 Q1016=
METAR FAUP 101900Z AUTO 22004KT //// // ////// 25/05 Q1014=

0000054000
050
SARA36 RUMS 101900
METAR UWUU 101900Z 17003MPS 4500 -SN OVC008 M02/M03 Q1007 14650440
TEMPO 1000 SN FZRA BKN003 RMK QFE745/0993=
METAR USCC 101900Z 16005MPS 3000 -SHSN BR BKN010CB OVC070 M04/M05
Q1009 09490350 TEMPO 1100 SHSN BKN005 RMK QFE736=
METAR USNN 101900Z 01001MPS 9999 OVC046 M10/M12 Q1015 NOSIG RMK
QFE756 21420242=
METAR USRR 101900Z VRB01MPS 7000 SKC M26/M29 Q1017 NOSIG RMK QFE757
07////35=
METAR USSS 101900Z 09001MPS 4400 -SN BKN009 OVC067 M03/M04 Q1008
08590230 TEMPO 1600 SN RMK QFE736=

0000049600
051
SARS33 RUMS 101900
METAR ULLI 101900Z 00000MPS 9999 -RASN BKN006 OVC019 01/01 Q0982
60////// 10620245 NOSIG=
METAR UUBW 101900Z 19005MPS 9999 -RA OVC008 03/02 Q0989 NOSIG=
METAR UUDD 101900Z 20005MPS 9999 -RA BKN005 OVC016 03/03 Q0989
64290195 14290194 NOSIG=
METAR UUDL 101900Z NIL=
METAR UUEE 101900Z 19005MPS 5000 -DZ BR OVC004 03/03 Q0988 75290151
25290151 NOSIG=
METAR UUWW 101900Z 21005MPS 9999 OVC004 03/03 Q0988 24290045 NOSIG=
METAR UUMO 101900Z NIL=

0000093500
052
SARS32 RUMS 101900
METAR URKA 101900Z 19010G14MPS 9999 BKN021 08/05 Q1013 RMK
QFE755/1007=
METAR URKK 101900Z 15002MPS 130V190 CAVOK 04/02 Q1013 NOSIG RMK
QFE757 SC070=
METAR URML 101900Z 19004MPS 9999 SKC M00/M02 Q1019 NOSIG RMK
QFE764/1019 SC070=
METAR URMM 101900Z 30002MPS 9999 SKC M01/M02 Q1015 12CLRD70 NOSIG RMK
QFE733/0977=
METAR URMN 101900Z 21001MPS 9999 SCT260 01/M04 Q1015 NOSIG RMK QFE724
SC06=
METAR URMO 101900Z NIL=
METAR URMT 101900Z 21004MPS CAVOK 02/00 Q1013 NOSIG RMK QFE721
SC0.60=
METAR URRR 101900Z 20004MPS 9999 -RA SCT007 OVC016 06/05 Q1010
22290045 TEMPO 0800 FG OVC002=
METAR URSS 101900Z 05004MPS 9999 BKN220 04/00 Q1018 NOSIG RMK
R06/08004MPS QFE762 02000070 06//////=
METAR URWA 101900Z 21002MPS 9999 OVC030 04/01 Q1017 NOSIG RMK
QFE765/1020 SC055=
METAR URWI 101900Z NIL=
METAR URWW 101900Z 22003MPS 9999 BKN026 01/00 Q1012 NOSIG RMK
29190060=

00000000