0000014700
153
SAAF08 LFPW 110200 RRA
METAR DFFD 110200Z 10007KT CAVOK 24/02 Q1013 NOSIG=
METAR GABS 110200Z 01003KT CAVOK 20/08 Q1013 NOSIG=

0000011000
154
SAAF11 LFPW 110200 RRB
METAR FKYS 110200Z 28002KT 4000 BR SCT003 21/20 Q1015 BECMG 2000 BR=

0000010000
155
SAAF14 LFPW 110200 RRB
METAR DRRN 110200Z 09012KT 4000 DU NSC 22/M01 Q1014 NOSIG=

0000009800
156
SAAF27 LFPW 110200 RRB
METAR DGAA 110203Z 23006KT 9999 FEW012 27/25 Q1011 NOSG=

0000075400
157
SAEA20 HKNC 110200
METAR HKKS 110200Z 00000KT CAVOK 15/13=
METAR HKMO 110200Z 32005KT 9999 BKN018 25/22 Q1012 NOSIG=
METAR HKNK 110200Z  00000KT  CAVOK  12/09=
METAR HKEL 110200Z NIL=
METAR HKEM 110200Z NIL=
METAR HKGA 110200Z NIL=
METAR HKJK 110200Z NIL=
METAR HKKG 110200Z NIL=
METAR HKKI 110200Z NIL=
METAR HKKR 110200Z NIL=
METAR HKKT 110200Z NIL=
METAR HKLO 110200Z NIL=
METAR HKLU 110200Z NIL=
METAR HKMA 110200Z NIL=
METAR HKMB 110200Z NIL=
METAR HKME 110200Z NIL=
METAR HKML 110200Z NIL=
METAR HKMU 110200Z NIL=
METAR HKMY 110200Z NIL=
METAR HKNC 110200Z NIL=
METAR HKNI 110200Z NIL=
METAR HKNO 110200Z NIL=
METAR HKNW 110200Z NIL=
METAR HKVO 110200Z NIL=
METAR HKWJ 110200Z NIL=

0000021500
158
FTCA33 KWBC 110209
TAF
TAF TGPY 110200Z 1106/1206 09010KT 9999 SCT020
     FM111200Z 11014KT 9999 FEW020
      BECMG 1122/1124 08008KT FEW018 PROB30
      TEMPO 1200/1206 6000 SHRA SCT017=

0000023800
159
FTUS31 KWBC 110209 AAA
TAF AMD
KABQ 110207Z 1102/1124 31018G28KT P6SM FEW250
      TEMPO 1102/1103 VRB04KT
     FM110300 32011KT P6SM SCT250
     FM110600 34004KT P6SM SCT250
     FM112000 28006KT P6SM FEW250=

0000067300
160
FTUS42 KWBC 110209 AAA
TAF AMD
KBTR 110208Z 1102/1124 07008KT 5SM BR BKN005 OVC012
      TEMPO 1103/1107 2SM TSRA OVC006CB
     FM110800 23012KT 2SM RA OVC004
     FM111500 30009KT P6SM SCT250=
KLCH 110208Z 1102/1124 17010KT P6SM OVC003
      TEMPO 1102/1104 2SM -SHRA BR
     FM110400 20012KT 2SM -SHRA BR OVC003
     FM110900 27008KT 1SM BR OVC001
     FM111400 34008KT P6SM SCT005=
KMOB 110206Z 1102/1124 12005KT 2SM BR VCSH OVC003
      TEMPO 1102/1105 1/4SM FG VV002
     FM110500 16012KT 4SM SHRA BR OVC005
      TEMPO 1106/1109 3SM -TSRA BKN005CB
     FM111500 27012KT 5SM BR OVC007
     FM111900 30012KT P6SM SCT015=

0000020300
161
FTUS43 KWBC 110209 AAA
TAF AMD
KMOT 110206Z 1102/1124 29012KT P6SM BKN010
     FM110600 28010KT P6SM SCT025
     FM111000 27011KT P6SM BKN025
     FM111600 24009KT P6SM SCT030=

0000107000
162
FTUS72 KWBC 110209 AAA
TAF AMD
KABQ 110207Z 1102/1124 31018G28KT P6SM FEW250
      TEMPO 1102/1103 VRB04KT
     FM110300 32011KT P6SM SCT250
     FM110600 34004KT P6SM SCT250
     FM112000 28006KT P6SM FEW250=
KBFM 110207Z 1102/1124 00000KT 2SM BR OVC003
     FM110400 16010KT 4SM SHRA BR OVC005
      TEMPO 1106/1109 3SM -TSRA BKN005CB
     FM111500 27012KT 5SM BR OVC007
     FM111900 30012KT P6SM SCT015=
KBTR 110208Z 1102/1124 07008KT 5SM BR BKN005 OVC012
      TEMPO 1103/1107 2SM TSRA OVC006CB
     FM110800 23012KT 2SM RA OVC004
     FM111500 30009KT P6SM SCT250=
KLCH 110208Z 1102/1124 17010KT P6SM OVC003
      TEMPO 1102/1104 2SM -SHRA BR
     FM110400 20012KT 2SM -SHRA BR OVC003
     FM110900 27008KT 1SM BR OVC001
     FM111400 34008KT P6SM SCT005=
KMOB 110206Z 1102/1124 12005KT 2SM BR VCSH OVC003
      TEMPO 1102/1105 1/4SM FG VV002
     FM110500 16012KT 4SM SHRA BR OVC005
      TEMPO 1106/1109 3SM -TSRA BKN005CB
     FM111500 27012KT 5SM BR OVC007
     FM111900 30012KT P6SM SCT015=

0000049000
163
FTUS73 KWBC 110209 AAA
TAF AMD
KASE 110208Z 1102/1124 35008KT 3SM -SN SCT017 BKN035 OVC045
      TEMPO 1102/1103 1 1/2SM -SN BR OVC012
     FM110300 21005KT 3SM -SN BR SCT020 OVC035
     FM110700 21005KT P6SM VCSH SCT025 BKN040
      TEMPO 1108/1112 3SM BR SCT015 BKN020
     FM111900 01004KT P6SM SCT060=
KMOT 110206Z 1102/1124 29012KT P6SM BKN010
     FM110600 28010KT P6SM SCT025
     FM111000 27011KT P6SM BKN025
     FM111600 24009KT P6SM SCT030=

0000024300
164
FTUS73 KWBC 110209
TAF
TAF AMD KRFD 110203Z 1102/1124 16012G18KT 6SM -RA BR OVC006
     FM110300 19012KT 3/4SM -DZ BR VCSH OVC004
     FM110900 26012G18KT P6SM VCSH BKN007 OVC012
     FM111700 27013G21KT P6SM SCT015=

0000087700
165
SAHK31 VHHH 110200
METAR VHHH 110200Z 06010KT 8000 NSC 19/10 Q1025 NOSIG=
METAR RCTP 110200Z 12005KT 070V180 9999 FEW020 BKN110 21/12 Q1024
NOSIG RMK A3026=
METAR RCKH 110200Z 06006KT 020V110 7000 FEW018 22/14 Q1024 NOSIG
RMK A3026=
METAR RCSS 110200Z 10010KT 060V130 9999 FEW025 21/13 Q1025 NOSIG
RMK A3027=
METAR VMMC 110200Z 04005KT 350V060 7000 NSC 17/12 Q1025 NOSIG=
METAR RPLL 110200Z 08007KT 050V140 9000 SCT023 SCT100 28/17 Q1017
NOSIG RMK A3004=
METAR RPVM 110200Z 02016KT 8000 -RA SCT020 OVC090 25/23 Q1013 A2993=
METAR RPMD 110200Z
36006KT 5000 RA SCT016 OVC090 24/23 Q1012 A2989 MOD RA CONS LOW CLDS
MVNG S=
METAR RPLB 110200Z 06014KT 9999 FEW040 OVC280 27/18 Q1016 NOSIG=
METAR RPLI 110200Z
09012KT 9999 FEW019 27/16 Q1017 NOSIG RMK A3003=
METAR RPMZ 110200Z 00000KT 9000 FEW018 OVC120 27/25 Q1012 RERA
A2990=

0000009900
166
SPCN51 CWAO 110204
SPECI CWUW 110204Z AUTO 16007KT 9SM SCT007 SCT022 M29/ A2908=

0000009800
167
SPCN42 CWAO 110203
SPECI CYUA 110203Z AUTO 30022G27KT 5/8SM -SN CLR M24/ A2975=

0000008500
168
SPCN51 CWAO 110205
SPECI CWOB 110205Z AUTO 05005KT CLR M21/ A2923=

0000123500
169
SAAG05 SABM 110200
METAR SAAR 110200Z  18009KT 9999 TS BKN035
FEW045CB OVC100  25/23 Q1010=
METAR SABE 110200Z  32011KT CAVOK 26/17 Q1010=
METAR SACO 110200Z  14015KT 9999  FEW025 BKN100
25/19 Q1015=
METAR SADF 110200Z  02002KT CAVOK 23/18 Q1011=
METAR SAEZ 110200Z 23006KT 190V260 CAVOK 23/15 Q1010=
METAR SAME 110200Z  23003KT 9999 VCTS FEW045
FEW050CB  27/06 Q1014=
METAR SANT 110200Z  00000KT 8000 TS FEW040
SCT050CB OVC100  29/22 Q1007=
METAR SAOC 110200Z  00000KT CAVOK 20/15 Q1014=
METAR SARC 110200Z  05007KT 9999  FEW050CB BKN200
29/23 Q1006=
METAR SARE 110200Z 05005KT 8000 NSC 29/25 Q1006=
METAR SARF 110200Z 05007KT CAVOK 30/23 Q1007=
METAR SARI 110200Z  05004KT CAVOK 27/24 Q1013=
METAR SARL 110200Z NIL=
METAR SARP 110200Z  09004KT CAVOK 27/23 Q1011=
METAR SASA 110200Z  02006KT 9999  BKN020 FEW045CB
BKN100  23/16 Q1013=
METAR SASJ 110200Z NIL=
METAR SAVC 110200Z  25004KT CAVOK 14/07 Q1014=
METAR SAWE 110200Z NIL=
METAR SAWG 110200Z  25005KT 9999 -RA OVC040  08/07
Q1012=
METAR SAWH 110200Z 23012KT 9999 OVC030 07/03 Q1007=
METAR SAZM 110200Z  23008KT CAVOK 17/12 Q1014=
METAR SAZN 110200Z NIL=
METAR SAZS 110200Z  27010KT CAVOK 14/04 Q1021=

0000013400
170
SATH31 VTBB 110200 RRA
METAR VTCL 110200Z 00000KT 1000 R36/0800V1100 BR FEW008 18/18
Q1019 A3011 NOSIG
INFO: D=

0000009700
171
SPCN51 CWAO 110205
SPECI CZCP 110205Z AUTO 29023KT 1 1/4SM -SN CLR M33/ A2944=

0000009800
172
SPLT33 EYVI 110209
SPECI EYPA 110209Z AUTO VRB05KT 9999 OVC015/// 02/M00 Q1004=

00000000