0000025100
873
FTTH32 VTBB 102300
TAF VTSB 102300Z NIL=
TAF VTSM 102300Z NIL=
TAF VTSC 102300Z NIL=
TAF VTSK 102300Z NIL=
TAF VTST 102300Z NIL=
TAF VTSR 102300Z NIL=
TAF VTSF 102300Z NIL=
TAF VTSH 102300Z NIL=
TAF VTSE 102300Z NIL=

0000011700
874
SAAF13 LFPW 102300
METAR GLRB 102300Z 00000KT 9000 BKN014  FEW024 CB 27/25 Q1012
RMK CB-S, BRVC=

0000014700
875
SAAF17 LFPW 102300
METAR HLLB 102245Z
00000KT 9999 SCT020 BKN080 14/11 Q1025 =
METAR HLLT 102250Z 16002KT CAVOK 11/06 Q1024=

0000010200
876
SPUS42 KWBC 101754
SPECI
KSSI 101750Z AUTO 13009KT 3SM -RA BR OVC005 17/17 A3016=

0000020900
877
FTLC31 TLPL 101748
TAF
TLPL 101500Z 1018/1118 08020G32KT 9999 SCT024
???? TEMPO 1022/1112 SHRA BKN018=
TLPC 101500Z 1018/1118 08010G22KT 9999 SCT024
???? TEMPO 1022/1112 SHRA BKN018=

0000010100
878
SAFI32 EFHK 101750 RRA
EFMA 101750Z 34010KT 300V360 3000 -RASN OVC005 00/00 Q0995=

0000009300
879
SAUK36 EGGY 101750 RRA
METAR EGBJ 101750Z 18009KT 9999 FEW030 09/05 Q1011=

0000080200
880
SAIY31 LIIB 101750
METAR LIEA 101750Z 01002KT CAVOK 10/09 Q1020=
METAR LIEE 101750Z 15004KT CAVOK 13/12 Q1019=
METAR LIEO 101750Z VRB01KT CAVOK 09/08 Q1021=
METAR LIMC 101750Z 00000KT 9999 BKN040 10/05 Q1020 NOSIG=
METAR LIME 101750Z 13005KT 3000 BR BKN006 09/08 Q1020=
METAR LIMF 101750Z VRB02KT 6000 BKN030 08/05 Q1019=
METAR LIMJ 101750Z 16007KT 9999 SCT020 BKN040 14/10 Q1020=
METAR LIML 101750Z 12003KT 090V160 9999 SCT035 SCT045 09/07 Q1020
NOSIG=
METAR LIRA 101745Z 00000KT 8000 SCT030 BKN080 11/09 Q1021=
METAR LIRF 101750Z VRB02KT 9999 BKN030 12/09 Q1021 NOSIG=
METAR LIRN 101750Z 33005KT 300V040 5000 BR BKN030 13/08 Q1022=
METAR LIRP 101745Z 19005KT 9999 FEW025 BKN050 11/09 Q1020 NOSIG=
METAR LIRQ 101750Z 08002KT 9999 FEW024 BKN035 12/11 Q1021=

0000073400
881
SAIY32 LIIB 101750
METAR LIBD 101750Z 27004KT 8000 NSC 10/10 Q1021=
METAR LIBR 101745Z 22006KT 9999 FEW020 10/09 Q1020 NOSIG=
METAR LICC 101750Z NIL=
METAR LICJ 101750Z 07004KT CAVOK 14/11 Q1020=
METAR LIPB 101750Z 00000KT 9999 BKN120 04/04 Q1020=
METAR LIPE 101750Z 09005KT 0800 R12/0900V1200U FG BKN002 07/07
Q1021=
METAR LIPH 101745Z /////KT 2000 BR BKN015 SCT030 06/06 Q1021=
METAR LIPK 101750Z 00000KT 3000 BR BKN037 09/07 Q1020=
METAR LIPQ 101750Z 00000KT 3000 BR SCT007 BKN015 09/06 Q1020=
METAR LIPR 101745Z /////KT 8000 BKN050 10/09 Q1020=
METAR LIPX 101745Z 00000KT 1000 R04/P1500N BR SCT010 BKN045 08/06
      Q1021=
METAR LIPZ 101750Z VRB02KT 2500 BR SCT015 SCT045 07/05 Q1021=

0000008700
882
SAIY32 LIIB 101750 RRA
METAR LICC 101750Z 26010KT CAVOK 13/08 Q1021=

0000072200
883
FTNO31 ENMI 101700
TAF ENBR 101700Z 1018/1118 VRB05KT 9999 SCT008 BKN018 TEMPO 1018/1021
         4000 SHRA BKN006 SCT015CB BECMG 1020/1023 -RA BKN012 TEMPO
         1021/1118 4000 RADZ BKN006 BECMG 1103/1106 28012KT=
TAF ENGM 101700Z 1018/1118 18005KT 9999 BKN012 PROB30 TEMPO 1018/1118
         2000 -SN BR BKN006=
TAF ENVA 101700Z 1018/1118 08008KT 9999 SCT015 BKN025 TEMPO 1018/1021
         3000 -SN VV012 PROB40 1112/1118 3000 -SN VV012=
TAF ENZV 101700Z 1018/1118 25012KT 9999 FEW012 BKN030 TEMPO 1018/1021
         4000 SHRA BKN008 FEW020CB TEMPO 1021/1104 4000 RADZ BKN009
         BECMG 1102/1105 31010KT TEMPO 1104/1118 4000 SHRA BKN012CB
         BECMG 1115/1118 28020KT=

0000073300
884
SANO39 ENMI 101750
METAR ENNE 101750Z NIL=
METAR ENQR 101750Z AUTO 07010KT 050V120 9999NDV BKN052/// 06/M01
           Q0999 W///S/=
METAR ENSE 101750Z AUTO 06017KT 9999NDV FEW023/// BKN056/// 04/M01
           Q0999 W///S5=
METAR ENQC 101750Z AUTO 02009KT 350V060 9999NDV OVC027/// 06/01 Q0998
           W///S4=
METAR ENQA 101750Z AUTO 05004KT 9999NDV FEW019/// BKN044/// BKN052///
           05/02 Q0999 W04/S4=
METAR ENHM 101750Z 26016KT 9999 -SHRA FEW007 SCT032 BKN037 06/04
           Q0999 W08/S4=
METAR ENVH 101750Z AUTO 24029KT 9999NDV BKN140/// 07/05 Q1005
           W///S4=
METAR ENLA 101750Z AUTO 24025KT 9999NDV FEW013/// BKN031/// BKN120///
           08/06 Q1003 W///S4=

0000028300
885
FTCN35 CWAO 101700 AAA
TAF AMD CYAM 101755Z 1017/1102 13007KT 21/2SM -SN BR OVC005 TEMPO
     1017/1020 3SM -SN BR OVC012
    FM102000 13008KT 5SM -SN BR OVC008 TEMPO 1020/1102 P6SM NSW
     OVC012 PROB30 1020/1102 5SM -FZDZ BR
    RMK NXT FCST BY 102000Z=

0000010200
886
SACV20 GVAC 101800
METAR GVAC 101800Z 04011KT 9999 SCT014 BKN200 22/14 Q1014 NOSIG=

0000009700
887
SACS31 MROC 101800
METAR
MRPV 101800Z 07016KT 9999 FEW045 25/14 A3005 NOSIG=

0000010800
888
SABZ19 SBBE 101800
METAR SBBE 101800Z 27005KT 9999 BKN025 FEW030TCU
BKN100 28/23 Q1009=

0000028200
889
SANO34 ENMI 101750
METAR ENBN 101750Z NIL=
METAR ENBV 101750Z NIL=
METAR ENFG 101750Z NIL=
METAR ENHF 101750Z VRB01KT CAVOK M11/M13 Q1016 RMK WIND 1254FT
           08003KT=
METAR ENRA 101750Z NIL=
METAR ENSH 101750Z 05025KT 9999 FEW040 M05/M14 Q1013=

0000053300
890
SANO32 ENMI 101750
METAR ENAL 101750Z 04014KT 9999 SCT035 00/M05 Q0999=
METAR ENCN 101750Z VRB01KT 9999 FEW020 M00/M01 Q1001=
METAR ENHD 101750Z 26013KT 9999 -SHRA FEW010 SCT017 BKN030 06/05
           Q1000=
METAR ENRO 101750Z NIL=
METAR ENRY 101750Z NIL=
METAR ENSB 101750Z 22011KT 9999 -SNRA FEW020 BKN025 M01/M06 Q1006 RMK
           WIND 1400FT 22013KT=
METAR ENTC 101750Z VRB02KT CAVOK M12/M14 Q1016 NOSIG RMK WIND 2600FT
           10013KT=
METAR ENTO 101750Z 21005KT CAVOK 00/M00 Q0998=

0000010700
891
SPUS41 KWBC 101755
SPECI
KINT 101751Z 04005KT 2 1/2SM UP BR BKN005 OVC010 03/02 A3028=

0000010300
892
SPUS41 KWBC 101755
SPECI
KORH 101751Z 22008KT 1 1/2SM -SN BR OVC005 M01/M02 A3034=

00000000