0000011000
373
UANT99 KDDL 110356
ARP DLH431 5501N02947W 0356 F310 MS59 223/76 KT
DABYH QXT AME 110356 F54A
0000037900
374
SXXX32 EUMS 110354 RRX
12FD90D0
:PRS 1 /1 1273 1278 1276 1275 1283 1270 1260 1251 1235 1230 1226 1229 :RAD 1 /3 5831 5816 5792 5774 5766 5771 5776 5788 5800 5811 :ENC 3 /6 5565 5515 5495 5505 5536 5549 5533 5537 5552 5564 :RA2 3 /6 4722 4672 4657 4669 4702 4703 4679 4693 4706 4710 :SW1 54 /60 60 :SW2 24 /60 60 :BAT 5 /6 12.9 :WTP 5 /6 28.2 28.2 :NAME 12FD90D0
0000045300
375
SXXX32 EUMS 110354 RRX
224AD678
:PRS 2 /1 1929 1933 1931 1929 1927 1925 1928 1932 1935 1936 1938 1939 1942 1947 1952 1953 1954 1954 1951 1951 1952 1954 1962 1964 1963 1961 1965 1966 1975 1977 :RAD 4 /3 4748 4750 4756 4759 4770 4776 4780 4787 4795 4801 4807 4814 4823 4830 4840 4846 4849 4855 4864 4875 :ENC 4 /5 8276 8279 8289 8301 8308 8317 8330 8342 8352 8366 8372 8383 :SW1 54 /60 60 :SW2 24 /60 60 :BAT 14 /15 13.6 :NAME 224AD678 /
0000069600
376
SXXX32 EUMS 110354 RRX
229C0324
OT92 ID:MZ-NIH2-09 DT:2014 01 11 03 44
:RAD /1 06109 06106 06098 06095 06093 06088 06083 06080 06083 06076 06072 06069 06066 06062 06057 06053 06046 06045 06041 06037 06034 06031 06029 06024 06021 06018 06014 06010 06009 06006
:PR1 /1 ///// ///// ///// ///// /'/// ///// ///// ///// ///// ///// ///// ///// ///'/ ///// ///// ///// ///// ///// ///// ///// ///// ///// ///// ///// ///// ///// ///// ///// ///// //////:PR2 /1 ///// ///// ///// ///// //'// ///// '//// ///// ///// ///// ///// '//// ///// ///// ///// ///// /////(///// ///// //'// ///// ///// ///// ///// ///// ///// ///// ////' ///// //'//
:TM1 /15 /// /// /// ///
:BAT 13.7V
0000018100
377
SIGB20 GBYD 110300
AAXX 11034
61701 42960 50206 10185 20128 4//// 85030
  333 58009 85361=
61731 42960 72706 10222 20115 4//// 87070
  333 5//// 84461 84362=
0000010600
378
SIAU40 AMMC 110300 CCD
AAXX 11034
95961 35/// /2919 10153 20133 30127 40169 53001=


0000008000
379
SACY42 EGRR 110350
METAR LCRA 110350Z 32003KT CAVOK 07/01 Q1022=
0000055800
380
SAUK39 EGRR 110350
METAR EGQL 110350Z 25008KT CAVOK 00/M01 Q1007 BLU=
METAR EGQM 110350Z AUTO 26012KT 9999 FEW110/// 04/M00 Q1008=
METAR EGVN 110350Z 25007KT 7000 -RADZ FEW006 SCT010 BKN024 07/07 Q1012 GRN BECMG 9999 NSW SCT035 BLU=
METAR EGVO 110350Z 21014KT 9999 -RA SCT023 SCT027 08/07 Q1012 WHT=
METAR EGXT 110350Z AUTO 27013KT 9999 -RADZ SCT008/// BKN026/// 07/06 Q1010=
METAR EGXV 110350Z AUTO 31006KT 9999 -SHRA BKN032/// BKN037/// 07/04 Q1008=
METAR EGXW 110350Z 26008KT 8000 -RA FEW007 SCT020 OVC030 07/06 Q1009 RERA WHT=
0000012800
381
SNVF41 LFPW 110400
BBXX
61002 11044 99421 10047 46/// /1213 10131 20050 40184 57006
22200 00128 10301 70007=
0000011100
382
UANT01 CWAO 110354
ARP UAL161 4923N04817W 0354 F370 MS65 314/68 KT
N34137 DDL YYT 110354 F41A
0000011000
383
UANT99 KDDL 110356
ARP DAL98 5505N03705W 0356 F360 MS58 212/34 KT
N833MH QXT AOW 110356 F58A
0000011000
384
UANT99 KDDL 110356
ARP UAL23 5022N04336W 0356 F370 MS58 324/43 KT
N17126 DDL H03 110356 F58A
0000008600
385
SAIN90 VORY 110400
METAR VORY 110400Z 00000KT 1500 BR NSC 22/19 Q1017=
0000011100
386
UANT99 KDDL 110356
ARP AWE716 4703N03944W 0356 F370 MS50 292/38 KT
N274AY DDL XXN 110356 J14A
0000031600
387
SAPK31 OPKC 110400
METAR OPGD 110400Z NIL=
METAR OPKC 110355Z 00000KT 6000 SCT200 12/M04 Q1022 NOSIG=
METAR OPLA 110400Z NIL=
METAR OPNH 110400Z 36004KTS 2000M FU NSC 08/05 Q.1022=
METAR OPPS 110400Z NIL=
METAR OPRN 110400Z 05004KT 2000 HZ SKC 05/00 Q1021.7/30.17=
METAR OPSK 110400Z NIL=
0000024100
388
SOAT10 KWAL 110358
FA8005BC 011035837 OT12 ID:KN-BASS-01 DT:2014 01 11 03 56
:RD -3212 -3218 -3215 -3223 -3268 -3212 -3228 -3236 -3206 -3212
:PR 0387 0481 0482 0454 0418 0501 0488 0497 0451 0504
:B 13.7V
 46+0NN 219E
0000068500
389
UDNA02 EGRR 110400
AMDAR 1023
LVR EU3147   4232N 06854W 102318 F291 MS487 296/074 TB0 S031=
LVR EU3147   4257N 06738W 102325 F369 MS607 293/084 TB0 S031=
LVR EU3147   4323N 06623W 102332 F370 MS605 300/076 TB0 S031=
LVR EU3147   4351N 06509W 102339 F370 MS602 293/078 TB0 S031=
LVR EU3147   4418N 06353W 102346 F370 MS585 300/055 TB0 S031=
LVR EU3147   4444N 06238W 102353 F370 MS607 297/063 TB0 S031=
LVR EU3147   4510N 06121W 110000 F369 MS597 294/057 TB0 S031=
LVR EU3147   4534N 06002W 110007 F370 MS580 286/055 TB0 S031=
LVR EU3147   4558N 05843W 110014 F370 MS610 296/049 TB0 S031=
LVR EU3147   4620N 05725W 110021 F369 MS625 295/050 TB0 S031=
0000008000
390
SAYE20 OYIB 110400
METAR OYIB 110400Z 00000KT CAVOK 07/02 Q1022=
0000042900
391
UDNT02 EGRR 110400
AMDAR 1103
LVR EU5129   5646N 02314W 110322 F380 MS515 220/056 TB/ S031=
LVR EU5129   5654N 02128W 110329 F380 MS512 224/055 TB/ S031=
LVR EU5129   5702N 01941W 110336 F380 MS485 214/055 TB/ S031=
LVR EU5129   5717N 01754W 110343 F380 MS500 229/056 TB/ S031=
LVR EU5129   5729N 01606W 110350 F380 MS445 242/044 TB/ S031=
LVR EU5129   5740N 01418W 110357 F380 MS475 246/036 TB/ S031=
0000011000
392
UANT99 KDDL 110357
ARP UAL68 5935N01515W 0357 F350 MS46 219/34 KT
N17105 DDL VEY 110357 F81A
00000000