0000010100
753
SAUS71 KWBC 102300 RRI
METAR
KMTN 102345Z 00000KT 1SM -RA FG OVC003 03/03 A3031=

0000010000
754
SAUS73 KWBC 102300 RRJ
METAR
KGYY 102345Z 16011G22KT 4SM RA OVC008 05/04 A2970=

0000014600
755
FTCN36 CWAO 102300
TAF CYVP 102354Z 1100/1112 26010KT P6SM FEW050
     BECMG 1104/1106 26005KT
    RMK NXT FCST BY 110600Z=

0000020100
756
FTCN36 CWAO 102300
TAF CYPH 102354Z 1100/1112 26008KT P6SM FEW040
     BECMG 1102/1104 VRB03KT
     BECMG 1110/1112 08008KT
    RMK FCST BASED ON AUTO OBS. NXT FCST BY 110600Z=

0000022300
757
FTCN36 CWAO 102300
TAF CYGW 102354Z 1100/1112 21005KT 6SM -SN OVC012 TEMPO 1100/1105 5SM
     -SN OVC008
    FM110500 15005KT P6SM BKN030 TEMPO 1105/1112 P6SM -SN BKN020
    RMK NXT FCST BY 110600Z=

0000026800
758
FTCN36 CWAO 102300
TAF CYGL 102354Z 1100/1124 22008KT 2SM -SN OVC003 TEMPO 1100/1108 4SM
     -SN -FZDZ BR OVC008
    FM110800 14008KT 11/2SM -SN OVC005 TEMPO 1108/1124 3SM -SN OVC010
     BECMG 1120/1122 09010KT
    RMK NXT FCST BY 110600Z=

0000008900
759
SAQB31 LQSM 110000
METAR LQSA 110000Z VRB01KT 6000 BKN055 05/04 Q1022=

0000098800
760
SAMX42 MMGL 102353
METAR MMAS 102340Z 24010KT 10SM  FEW040 SCT070 19/M02 A3015 
      RMK SLP142 8/130=
METAR MMEP 102355Z 02004KT 12SM  SCT060 BKN100 23/14 A3008 
      RMK SLP147 54000 957 8/07/=
METAR MMGL 102346Z 26010KT 10SM  BKN040 20/02 A3009 
      RMK SLP133 52006 900 8/400 AC TCU E=
METAR MMIA 102344Z 22010KT 8SM  SCT030TCU BKN150 BKN230 25/16 A2996 
      RMK 8/239 DSNT CB S RTS=
METAR MMLO 102345Z NIL=
METAR MMMM 102350Z 16010KT 8SM  BKN030 BKN230 19/07 A3013 
      RMK SLP112 52003 966 8/508 ISOL AC=
METAR MMPN 102342Z 18010KT 8SM  SCT040CB BKN070 BKN230 20/14 A3013 
      RMK 8/963 HZY=
METAR MMPR 102349Z 20005KT 15SM  BKN140 25/18 A2988 
      RMK SLP112 57006 967 8/080=
METAR MMSP 102341Z 24010KT 15SM  SCT035 21/M02 A3010 
      RMK SLP107 52001 960 8/100=
METAR MMZC 102340Z 27020KT 10SM  SCT050 17/M02 A3017 RMK 8/500=
METAR MMZO 102345Z 18006KT 7SM SCT040 BKN250 26/20 A2984
      RMK SLP101 8/106 HZY=

0000023000
761
FTUS51 KWBC 102354
TAF
KEWN 102351Z 1100/1124 12005KT P6SM VCSH SCT035 BKN050
     FM110600 16008KT 5SM BR VCSH OVC025
     FM111400 19014G23KT P6SM BKN060
     FM112100 20016G25KT 5SM -RA VCTS BKN025CB=

0000041900
762
FTUS51 KWBC 102354 CCA
TAF COR
KRDG 102353Z 1100/1124 00000KT 2SM BR BKN006
      TEMPO 1100/1102 1SM -RA BR
     FM110200 13004KT 1SM -RA BR BKN005 OVC015
     FM110600 16005KT 2SM -RA BR BKN004 OVC010 WS020/20050KT
     FM111500 18010KT 1SM RA BR BKN003 OVC010 WS020/21050KT
     FM112100 21010G20KT 1SM RA BR BKN003 OVC012 WS020/18050KT
     FM112300 26009KT 2SM RA BR BKN004 OVC025=

0000080300
763
FTUS52 KWBC 102354 CCA
TAF COR
KPSF 102352Z 1100/1124 20006KT P6SM BKN008 OVC060
      TEMPO 1100/1104 SCT010 OVC060
     FM110400 20006KT 3SM -FZRAPL BR SCT008 OVC030
      TEMPO 1104/1108 BKN008 OVC030
     FM110900 15005KT 4SM -SHRA BR BKN008 OVC040
      TEMPO 1109/1112 1SM -FZRA BR OVC010
     FM111200 18006KT 3SM -RA BR OVC010
     FM111600 18012KT 3SM -SHRA BR OVC010 WS020/19040KT=
KPSF 102351Z 1100/1124 20006KT P6SM SCT010 OVC060
      TEMPO 1100/1104 BKN010 OVC060
     FM110400 20006KT 3SM -FZRAPL BR SCT010 OVC030
      TEMPO 1104/1108 BKN010 OVC030
     FM110900 15005KT 4SM -SHRA BR BKN010 OVC040
      TEMPO 1109/1112 1SM -FZRA BR OVC010
     FM111200 18006KT 3SM -RA BR OVC010
     FM111600 18012KT 3SM -SHRA BR OVC010 WS020/19040KT=

0000026500
764
FTUS52 KWBC 102354
TAF
KPGV 102351Z 1100/1124 11005KT P6SM -RA SCT040 OVC100
     FM110700 16008KT 5SM BR VCSH OVC025
     FM111300 19013G22KT P6SM BKN050
     FM112000 21016G26KT 5SM -RA VCTS BKN025CB AMD LTD TO CLD VIS
      AND WIND=

0000067500
765
FTUS52 KWBC 102354 AAA
TAF AMD
KBBG 102352Z 1100/1124 19011KT P6SM VCTS SCT015 OVC080CB
      WS011/23030KT
      TEMPO 1100/1102 3SM TSRA BR OVC015CB
     FM110300 25011KT 6SM BR SCT008 OVC035
     FM110500 26010KT 2SM BR SCT005
     FM111400 28010G18KT P6SM SCT250=
KPSF 102350Z 1100/1124 20006KT P6SM BKN008 OVC060
      TEMPO 1100/1104 SCT008 OVC060
     FM110400 20006KT 3SM -FZRAPL BR SCT008 OVC030
      TEMPO 1104/1108 BKN008 OVC030
     FM110900 15005KT 4SM -SHRA BR BKN008 OVC040
      TEMPO 1109/1112 1SM -FZRA BR OVC008
     FM111200 18006KT 3SM -RA BR OVC010
     FM111600 18012KT 3SM -SHRA BR OVC010 WS020/19040KT=

0000118000
766
FTUS80 KWBC 102354 CCA
TAF COR
KABE 102352Z 1100/1124 VRB03KT 2SM BR BKN007 OVC012
      TEMPO 1100/1102 1SM -RA BR
     FM110200 14005KT 1SM -RA BR BKN007 OVC015
     FM110600 16005KT 2SM -RA BR BKN004 OVC010 WS020/20050KT
     FM111500 19013KT 1SM RA BR BKN003 OVC010 WS020/21050KT
     FM112100 22012G22KT 1SM RA BR BKN003 OVC012 WS020/18050KT
     FM112300 26009KT 2SM RA BR BKN004 OVC025=
KPSF 102352Z 1100/1124 20006KT P6SM BKN008 OVC060
      TEMPO 1100/1104 SCT010 OVC060
     FM110400 20006KT 3SM -FZRAPL BR SCT008 OVC030
      TEMPO 1104/1108 BKN008 OVC030
     FM110900 15005KT 4SM -SHRA BR BKN008 OVC040
      TEMPO 1109/1112 1SM -FZRA BR OVC010
     FM111200 18006KT 3SM -RA BR OVC010
     FM111600 18012KT 3SM -SHRA BR OVC010 WS020/19040KT=
KPSF 102351Z 1100/1124 20006KT P6SM SCT010 OVC060
      TEMPO 1100/1104 BKN010 OVC060
     FM110400 20006KT 3SM -FZRAPL BR SCT010 OVC030
      TEMPO 1104/1108 BKN010 OVC030
     FM110900 15005KT 4SM -SHRA BR BKN010 OVC040
      TEMPO 1109/1112 1SM -FZRA BR OVC010
     FM111200 18006KT 3SM -RA BR OVC010
     FM111600 18012KT 3SM -SHRA BR OVC010 WS020/19040KT=

0000067900
767
FTUS80 KWBC 102354
TAF
KEWN 102351Z 1100/1124 12005KT P6SM VCSH SCT035 BKN050
     FM110600 16008KT 5SM BR VCSH OVC025
     FM111400 19014G23KT P6SM BKN060
     FM112100 20016G25KT 5SM -RA VCTS BKN025CB=
KOAJ 102351Z 1100/1124 12005KT P6SM VCSH SCT035 BKN050
     FM110500 15008KT 5SM BR VCSH OVC025
     FM111300 19015G25KT P6SM BKN050
     FM112100 20016G25KT 5SM -RA VCTS BKN025CB AMD LTD TO CLD VIS
      AND WIND=
KPGV 102351Z 1100/1124 11005KT P6SM -RA SCT040 OVC100
     FM110700 16008KT 5SM BR VCSH OVC025
     FM111300 19013G22KT P6SM BKN050
     FM112000 21016G26KT 5SM -RA VCTS BKN025CB AMD LTD TO CLD VIS
      AND WIND=

0000067500
768
FTUS80 KWBC 102354 AAA
TAF AMD
KBBG 102352Z 1100/1124 19011KT P6SM VCTS SCT015 OVC080CB
      WS011/23030KT
      TEMPO 1100/1102 3SM TSRA BR OVC015CB
     FM110300 25011KT 6SM BR SCT008 OVC035
     FM110500 26010KT 2SM BR SCT005
     FM111400 28010G18KT P6SM SCT250=
KPSF 102350Z 1100/1124 20006KT P6SM BKN008 OVC060
      TEMPO 1100/1104 SCT008 OVC060
     FM110400 20006KT 3SM -FZRAPL BR SCT008 OVC030
      TEMPO 1104/1108 BKN008 OVC030
     FM110900 15005KT 4SM -SHRA BR BKN008 OVC040
      TEMPO 1109/1112 1SM -FZRA BR OVC008
     FM111200 18006KT 3SM -RA BR OVC010
     FM111600 18012KT 3SM -SHRA BR OVC010 WS020/19040KT=

0000041900
769
FTUS80 KWBC 102354 CCB
TAF COR
KRDG 102353Z 1100/1124 00000KT 2SM BR BKN006
      TEMPO 1100/1102 1SM -RA BR
     FM110200 13004KT 1SM -RA BR BKN005 OVC015
     FM110600 16005KT 2SM -RA BR BKN004 OVC010 WS020/20050KT
     FM111500 18010KT 1SM RA BR BKN003 OVC010 WS020/21050KT
     FM112100 21010G20KT 1SM RA BR BKN003 OVC012 WS020/18050KT
     FM112300 26009KT 2SM RA BR BKN004 OVC025=

0000120400
770
SPUS70 KWBC 102354
SPECI
KAMG 102350Z AUTO 00000KT 1/4SM FG FEW010 OVC050 19/18 A3009 RMK
     AO2=
KAOO 102350Z AUTO 06003KT 5SM BR BKN014 00/M02 A3019 RMK AO2=
KBPT 102350Z 17012KT 8SM SCT006 BKN016 OVC021 18/17 A2984 RMK AO2
     RAE38 P0002=
KHKY 102350Z AUTO 00000KT 3SM BR OVC003 06/06 A3016 RMK AO2
     RAB2255E45 P0001 TSNO=
KMVY 102350Z AUTO 21004KT 5SM -RA BR OVC010 06/04 A3038 RMK AO2
     CIG 007V012 P0001 $=
KRWF 102350Z AUTO 20007KT 3SM BR OVC010 M01/M02 A2952 RMK AO2=
KSTJ 102350Z AUTO 29007KT 2 1/2SM BR BKN002 OVC010 02/02 A2957 RMK
     AO2=
KTOI 102350Z AUTO 00000KT 3/4SM BR OVC003 13/12 A3005 RMK AO2=
KYIP 102350Z AUTO 14006KT 2 1/2SM BR OVC004 03/01 A2990 RMK AO2
     TSNO=
PASO 102350Z AUTO 00000KT 1 1/2SM -SN BR BKN019 OVC025 00/M01
     A2940 RMK AO2 UPB33E46SNB46 P0001 TSNO=
KRDG 102351Z 00000KT 1 1/4SM BR OVC004 01/M01 A3030 RMK AO2 TWR
     VIS 3=
KACV 102351Z AUTO 00000KT 1 1/2SM R32/4000V5500FT BR OVC002 11/09
     A3020 RMK AO2=
KAXN 102351Z AUTO 19006KT 1 1/2SM BR OVC002 M02/M02 A2950 RMK
     AO2=
KSET 102351Z AUTO 14009KT 10SM -RA BKN010 BKN070 OVC085 06/05
     A2964 RMK AO2 P0003 TSNO=

0000011900
771
SPUS41 KWBC 102354
SPECI
KWRI 102352Z AUTO 03003KT 1 1/2SM R06/2800FT -RA BR OVC005 02/02
A3029=

0000010400
772
SPUS42 KWBC 102354
SPECI
KBPT 102350Z 17012KT 8SM SCT006 BKN016 OVC021 18/17 A2984=

00000000