0000092600
693
SARS35 RUMS 110200
METAR USPP 110200Z 10003MPS 9999 BKN015 M05/M06 Q1007 21350139 NOSIG
RMK QFE744/0992=
METAR UWKD 110200Z 16009G12MPS 5000 BR OVC004 M00/M01 Q1000
R11/2/0050 TEMPO 2000 OVC002 RMK QFE740/0987=
METAR UWKE 110200Z 17003MPS 7000 OVC006 M05/M05 Q1004 NOSIG RMK 
QBB200 QFE736/0981 21420542=
METAR UWKS 110200Z 16010MPS 6000 -SHSN OVC007CB M00/M01 Q0995 NOSIG
RMK QFE731 06590534=
METAR UWLW 110200Z 19007MPS P5000 OVC008 M00/M01 Q1001 20820550 NOSIG
RMK QFE745=
METAR UWOR 110200Z 23003MPS 9999 SCT023 OVC100 M02/M03 Q1009 25450245
NOSIG RMK QFE733/0978=
METAR UWOO 110200Z 24003MPS 0800 R26/P1500U FZFG VV002 M01/M01 Q1010
26590332 NOSIG RMK QBB070 QFE747/0996=
METAR UWSS 110200Z 19006MPS 3000 BR OVC005 00/M00 Q1002 1219//55
TEMPO 1500 BR RMK QFE739=
METAR UWWW 110200Z 18006G09MPS 150V210 9999 OVC005 M01/M02 Q1004
23520540 33//99// NOSIG RMK QFE742/0989=

0000064100
694
SARS36 RUMS 110200
METAR ULAA 110200Z 07008G12MPS 040V100 8000 DRSN OVC028 M17/M20 Q1001
BECMG 2000 SN BLSN OVC005 RMK QFE750/1000 SC053=
METAR ULMM 110200Z 00000MPS 9999 SCT004 M34/M38 Q1017 NOSIG RMK
QBB120 OBST OBSC QFE755 31450239=
METAR ULOO 110200Z NIL=
METAR ULPB 110200Z AUTO 36005MPS 1300 NCD M11/M12 Q0991=
METAR UMKK 110200Z 30003MPS 9999 OVC025 04/01 Q1006 R24/29//60 NOSIG
RMK QFE753/1005=
METAR UUOO 110200Z 25005G08MPS 9999 OVC004 02/01 Q0994 TEMPO BKN003
RMK 12290250=
METAR UUYY 110200Z 02004MPS 5000 BR SCT009 BKN016CB OVC066 M14/M16
Q1002 TEMPO 0700 +SHSN 0145//33 RMK QFE743/0990=

0000010100
695
SPAU32 YBBN 110207
SPECI YPGV 110205Z 11019KT 3000 SHRA FEW015 BKN018 26/25 Q1008=

0000090800
696
SACI41 ZBBB 110200
METAR ZBHH 110200Z 10001MPS 5000 FU NSC M13/M23 Q1029 NOSIG=
METAR ZGHA 110200Z 33004MPS 290V350 2500 -DZ BR SCT004
BKN006
OVC040 05/04 Q1031 BECMG 3000=
METAR ZHCC 110200Z 28002MPS 250V330 1000 R12/1300V1400N HZ
NSC
03/M02 Q1033 NOSIG=
METAR ZHHH 110200Z VRB01MPS 2800 BR NSC 04/02 Q1032 BECMG
TL0230
3200 BR=
METAR ZJHK 110200Z 07005MPS 040V100 8000 BKN016 BKN046 20/17 Q1023
NOSIG=
METAR ZJSY 110200Z 08006MPS CAVOK 24/17 Q1021 NOSIG=
METAR ZLLL 110200Z 08001MPS 7000 NSC M11/M21 Q1030 NOSIG=
METAR ZSNJ 110200Z 07005MPS 1400 R06/1400U -RA BR FEW020 04/02 Q1032
NOSIG=
METAR ZSOF 110200Z 10003MPS 3200 BR BKN040 05/00 Q1032 NOSIG=
METAR ZUCK 110200Z VRB01MPS 1800 -RA BR FEW006 SCT015 OVC050
06/04
Q1030 NOSIG=
METAR ZYCC 110200Z 16003MPS CAVOK M12/M20 Q1027 NOSIG=
METAR ZYHB 110200Z 20003MPS 6000 NSC M19/M23 Q1026
NOSIG=

0000010500
697
SASB31 VCRI 110210
METAR VCRI 110210Z 01004KT 340V040 7000 FEW016   23/21 Q1013 NOSIG=

0000014700
698
FTNG31 AMMC 110200
TAF AYPY 110210Z 1106/1206 34006KT 9999 -SHRA SCT016 BKN140
     INTER 1106/1112 4000 TSRA BKN008 FEW018CB=

0000073500
699
FTUS51 KWBC 110203 AAA
TAF AMD
KAOO 110200Z 1102/1124 VRB03KT 6SM -SHRA BR OVC009
     FM110500 17010KT 4SM -RA BR BKN013 OVC025 WS019/21040KT
     FM111300 17013G27KT 3SM RA BR BKN009 OVC016 WS012/19045KT=
KBVI 110202Z 1102/1124 13005KT 4SM BR BKN040
     FM110500 13006KT P6SM BKN015 OVC025 WS020/22045KT
     FM111000 18010KT 4SM -RA OVC009 WS020/22050KT
     FM112100 23012G24KT P6SM BKN015 OVC025 AMD NOT SKED
      1102/1112=
KMIV 110201Z 1102/1124 00000KT 1SM -RA BR OVC004
      TEMPO 1102/1104 1/2SM FG OVC002
     FM110400 14005KT 1SM -RA BR BKN005 OVC015
     FM110600 16005KT 2SM -RA BR BKN004 OVC010 WS020/20050KT
     FM111500 19013G24KT 1SM RA BR BKN003 OVC010 WS020/21050KT=

0000042800
700
FTUS52 KWBC 110203 AAA
TAF AMD
KELD 110201Z 1102/1124 20006KT P6SM SCT020 OVC040
      TEMPO 1102/1104 2SM SHRA BR OVC007
     FM110400 21007KT P6SM VCTS OVC010CB
     FM110600 22008KT P6SM SCT020 BKN040
     FM111000 25007KT P6SM SKC
     FM111800 27014G22KT P6SM SKC=
KIWA 110201Z 1102/1124 11005KT P6SM FEW250
     FM112000 28004KT P6SM FEW250 AMD LTD TO CLD VIS AND WIND
      1103/1113=

0000055900
701
FTUS80 KWBC 110203 AAB
TAF AMD
KPHX 110201Z 1102/1124 10004KT P6SM FEW250
     FM112200 26004KT P6SM FEW250=
KPIT 110201Z 1102/1206 11005KT P6SM OVC040
     FM110500 13006KT P6SM BKN015 OVC025 WS020/22045KT
     FM111000 18010KT 4SM -RA OVC009 WS020/22050KT
     FM112100 23012G24KT P6SM BKN015 OVC025=
PADU 110200Z 1102/1124 19008KT P6SM -SHRA SCT015 BKN025
      TEMPO 1102/1104 BKN015
     FM110600 21013G21KT P6SM BKN035
     FM111300 21018G27KT P6SM -SHRA BKN035
     FM112100 22021G33KT P6SM -SHRA SCT035 BKN045=

0000149400
702
FTUS80 KWBC 110203 AAA
TAF AMD
KAGC 110201Z 1102/1124 12005KT P6SM BKN040
     FM110600 13006KT P6SM BKN015 OVC025 WS020/22045KT
     FM111100 18010KT 4SM -RA OVC009 WS020/22050KT
     FM112200 23012G24KT P6SM BKN015 OVC025=
KAOO 110200Z 1102/1124 VRB03KT 6SM -SHRA BR OVC009
     FM110500 17010KT 4SM -RA BR BKN013 OVC025 WS019/21040KT
     FM111300 17013G27KT 3SM RA BR BKN009 OVC016 WS012/19045KT=
KBVI 110202Z 1102/1124 13005KT 4SM BR BKN040
     FM110500 13006KT P6SM BKN015 OVC025 WS020/22045KT
     FM111000 18010KT 4SM -RA OVC009 WS020/22050KT
     FM112100 23012G24KT P6SM BKN015 OVC025 AMD NOT SKED
      1102/1112=
KELD 110201Z 1102/1124 20006KT P6SM SCT020 OVC040
      TEMPO 1102/1104 2SM SHRA BR OVC007
     FM110400 21007KT P6SM VCTS OVC010CB
     FM110600 22008KT P6SM SCT020 BKN040
     FM111000 25007KT P6SM SKC
     FM111800 27014G22KT P6SM SKC=
KIWA 110201Z 1102/1124 11005KT P6SM FEW250
     FM112000 28004KT P6SM FEW250 AMD LTD TO CLD VIS AND WIND
      1103/1113=
KLUK 110202Z 1102/1124 15005KT P6SM VCSH OVC030
     FM110600 17007KT 4SM -SHRA BR OVC009
     FM111300 21010G18KT P6SM VCSH OVC012
     FM111600 25012G22KT P6SM OVC025=
KMIV 110201Z 1102/1124 00000KT 1SM -RA BR OVC004
      TEMPO 1102/1104 1/2SM FG OVC002
     FM110400 14005KT 1SM -RA BR BKN005 OVC015
     FM110600 16005KT 2SM -RA BR BKN004 OVC010 WS020/20050KT
     FM111500 19013G24KT 1SM RA BR BKN003 OVC010 WS020/21050KT=

0000209800
703
SPUS70 KWBC 110204
SPECI
KBIV 110200Z AUTO 15014KT 6SM -RA BR FEW009 SCT024 OVC050 04/04
     A2964 RMK AO2 PRESFR P0001 T00440039=
KCMX 110200Z AUTO 17007KT 4SM BR SCT010 OVC027 M03/M06 A2957 RMK
     AO2=
KCRE 110200Z 14004KT 3SM -RA BR SCT003 BKN016 OVC033 17/16 A3014
     RMK AO2 RAB0159 P0000=
KHIO 110200Z AUTO 16007KT 10SM BKN024 OVC075 10/07 A2996 RMK AO2
     T01000072=
KHKA 110200Z AUTO 28006KT 4SM RA BR BKN010 BKN017 OVC024 09/09
     A2978 RMK AO2 P0002=
KIMT 110201Z AUTO 00000KT 1 1/4SM -SN BR SCT009 BKN019 OVC023
     M02/M04 A2956 RMK AO2 P0000=
KMEB 110200Z AUTO 00000KT 1SM +RA BR SCT005 OVC011 14/14 A3014 RMK
     AO2 TSE0157 P0017 T01390139=
KORE 110200Z AUTO 00000KT 4SM BR OVC005 M01/M02 A3029 RMK AO2
     T10111017=
KPAE 110200Z 17014KT 10SM FEW023 BKN032 OVC100 07/04 A2984 RMK
     AO2=
KPBF 110200Z AUTO 12004KT 1/2SM -RA FG BKN010 BKN027 OVC080 12/11
     A2973 RMK AO2 LTG DSNT SE AND S P0001=
KPTK 110200Z 15009KT 2SM -RA BR OVC002 02/02 A2981 RMK AO2
     P0001=
KRUE 110200Z AUTO 00000KT 1/2SM +RA FG OVC012 09/09 A2966 RMK AO2
     LTG DSNT S P0006=
PASI 110200Z 10006KT 10SM SCT026 BKN050 OVC120 02/01 A2939 RMK AO2
     T00170006=
KAUW 110201Z AUTO 00000KT 1 1/4SM -SN BR BKN010 OVC015 M02/M03
     A2951 RMK AO2 P0001 T10221028=
KBOS 110201Z 00000KT 3SM BR BKN013 OVC017 02/01 A3035 RMK AO2=
KEQY 110201Z AUTO 06003KT 2 1/2SM -RA BR OVC002 07/06 A3013 RMK
     AO2 P0000=
KEWN 110201Z 13004KT 10SM FEW021 BKN028 BKN055 18/15 A3020 RMK
     AO2=
KHGR 110201Z 33004KT 1/2SM -RA FG VV004 01/01 A3021 RMK AO2 P0001
     T00060006=
KMBS 110201Z 15008KT 3SM -RA BR FEW007 BKN045 OVC060 02/02 A2976
     RMK AO2 P0001=
KPAH 110201Z 23007KT 2 1/2SM RA BR FEW007 BKN028 OVC043 10/09
     A2975 RMK AO2 P0005 T01000089=
KPQL 110201Z AUTO 15007KT 3/4SM BR VV002 17/16 A2998 RMK AO2
     T01670161 TSNO=
KPSX 110201Z AUTO 18009KT 1 1/2SM BR OVC002 17/17 A2984 RMK AO2
     T01720172=
PABR 110201Z 31011KT 7SM SCT008 OVC014 M23/M27 A2986 RMK AO2
     T12331267=

0000009500
704
SALC31 TLPL 110200
METAR TLPL 110200Z 08019KT 9999 FEW022 25/21 Q1016 NOSIG=

0000015600
705
SACN62 CYYJ 110200
METAR CYYJ 110200Z 10007KT 6SM -RA BR FEW005 FEW009 BKN016 OVC030
 07/07 A2975 RMK SF1SC2SC4SC2 SF TR PRESFR SLP076=

0000008700
706
SATD31 TTPP 110200
METAR TTPP 110200Z NIL=
METAR TTCP 110200Z NIL=

0000110400
707
FTUS52 KWBC 110154 AAA
TAF AMD
KAGS 110152Z 1102/1124 VRB04KT 1SM -RA BR OVC005
      TEMPO 1103/1107 1/4SM FG OVC003
     FM111200 20008KT 5SM BR VCSH OVC003
     FM111600 22014G22KT 3SM -SHRA OVC005
     FM112200 25011G19KT P6SM BKN035=
KCSV 110152Z 1102/1124 17008G15KT 6SM BR OVC003
     FM110600 17010G20KT 4SM -SHRA BR OVC002
     FM110800 18012G22KT 2SM SHRA BR OVC002
     FM111500 26010G20KT P6SM OVC015
     FM111800 27010G20KT P6SM BKN050=
KCUB 110153Z 1102/1124 VRB05KT 3SM -RA BR OVC005
     FM111200 19006KT 5SM BR VCSH OVC005
     FM111600 21010G20KT 3SM -SHRA OVC005
     FM112300 25011G19KT P6SM OVC035=
KDNL 110151Z 1102/1124 VRB05KT 3SM -RA BR OVC005
     FM111200 20008KT 5SM BR VCSH OVC005
     FM111600 22014G22KT 3SM -SHRA OVC005
     FM112200 25011G19KT P6SM BKN035=
KOGB 110153Z 1102/1124 VRB05KT 4SM -RA BR BKN007
      TEMPO 1103/1107 1/4SM FG OVC003
     FM110900 18006KT 3SM BR VCSH OVC004
     FM111600 21014G22KT P6SM -SHRA OVC005=
KROW 110150Z 1102/1124 26009KT P6SM FEW250
     FM111500 16005KT P6SM SKC=

0000143500
708
FTUS80 KWBC 110154 AAA
TAF AMD
KAGS 110152Z 1102/1124 VRB04KT 1SM -RA BR OVC005
      TEMPO 1103/1107 1/4SM FG OVC003
     FM111200 20008KT 5SM BR VCSH OVC003
     FM111600 22014G22KT 3SM -SHRA OVC005
     FM112200 25011G19KT P6SM BKN035=
KBNA 110151Z 1102/1124 19010G20KT P6SM SCT015 OVC025
     FM110400 19015G25KT 3SM -SHRA BR OVC008
      TEMPO 1109/1113 2SM TSRA OVC005CB
     FM111300 26012G25KT P6SM OVC025
     FM111600 27010G20KT P6SM BKN050=
KCAE 110152Z 1102/1124 VRB05KT 3SM -RA BR OVC005
     FM111200 19007KT 5SM BR VCSH OVC005
     FM111600 21012G22KT 3SM -SHRA OVC005
     FM112300 25011G19KT P6SM OVC035=
KCRE 110151Z 1102/1124 15008KT 6SM BR VCSH BKN003
     FM110800 18009KT 2SM BR BKN002
     FM111600 19012G20KT P6SM VCSH BKN018
      TEMPO 1120/1124 20020G30KT 2SM +SHRA BKN012CB=
KCSV 110152Z 1102/1124 17008G15KT 6SM BR OVC003
     FM110600 17010G20KT 4SM -SHRA BR OVC002
     FM110800 18012G22KT 2SM SHRA BR OVC002
     FM111500 26010G20KT P6SM OVC015
     FM111800 27010G20KT P6SM BKN050=
KCUB 110153Z 1102/1124 VRB05KT 3SM -RA BR OVC005
     FM111200 19006KT 5SM BR VCSH OVC005
     FM111600 21010G20KT 3SM -SHRA OVC005
     FM112300 25011G19KT P6SM OVC035=
KDNL 110151Z 1102/1124 VRB05KT 3SM -RA BR OVC005
     FM111200 20008KT 5SM BR VCSH OVC005
     FM111600 22014G22KT 3SM -SHRA OVC005
     FM112200 25011G19KT P6SM BKN035=

0000057200
709
FTUS80 KWBC 110154 AAB
TAF AMD
KOGB 110153Z 1102/1124 VRB05KT 4SM -RA BR BKN007
      TEMPO 1103/1107 1/4SM FG OVC003
     FM110900 18006KT 3SM BR VCSH OVC004
     FM111600 21014G22KT P6SM -SHRA OVC005=
KPDK 110153Z 1102/1124 10005KT 1SM -DZ BR OVC003
     FM110300 13004KT 1/2SM -RADZ FG OVC002
     FM111000 16006KT 1SM -SHRA BR OVC004
     FM111400 21009KT 2SM -SHRA BR OVC007
     FM111900 27010G18KT P6SM BKN025
     FM112100 29012G20KT P6SM SCT040=
KROW 110150Z 1102/1124 26009KT P6SM FEW250
     FM111500 16005KT P6SM SKC=

0000009300
710
SPUS42 KWBC 110154
SPECI
KFTY 110150Z 10004KT 3SM BR OVC003 09/09 A3007=

0000010700
711
SPUS42 KWBC 110154
SPECI
KSAV 110150Z 00000KT 3SM BR SCT005 BKN011 BKN070 17/16 A3012=

0000010200
712
SPUS42 KWBC 110154
SPECI
KSSI 110150Z AUTO 14008KT 9SM SCT003 OVC012 17/17 A3012=

00000000