0000081100
593
SACI41 ZBBB 102200
METAR ZBHH 102200Z 06003MPS CAVOK M21/M27 Q1027 NOSIG=
METAR ZGHA 102200Z 35003MPS 2000 -RA BR SCT003 BKN006 OVC033
05/04
Q1028 NOSIG=
METAR ZHCC 102200Z 28001MPS 1200 R12/1500N BR NSC M01/M03 Q1031
NOSIG=
METAR ZHHH 102200Z VRB01MPS 3200 -RA BR SCT015 03/02 Q1030 NOSIG=
METAR ZJHK 102200Z 09002MPS 6000 NSC 17/17 Q1020 NOSIG=
METAR ZJSY 102200Z 07006MPS 9999 BKN066 21/16 Q1019 NOSIG=
METAR ZLLL 102200Z 34002MPS CAVOK M18/M25 Q1026 NOSIG=
METAR ZSNJ 102200Z 04003MPS 3000 BR NSC 04/01 Q1031 BECMG TL2330
2800=
METAR ZSOF 102200Z 06002MPS 2500 BR NSC 03/00 Q1031 NOSIG=
METAR ZUCK 102200Z VRB01MPS 4000 BR FEW030 06/04 Q1027 NOSIG=
METAR ZYCC 102200Z 22005MPS CAVOK M18/M25 Q1027 NOSIG=
METAR ZYHB 102200Z 26004MPS CAVOK M20/M24 Q1025 NOSIG=

0000015300
594
FTRS35 RUMS 102000 AAA
TAF AMD UWOO 102205Z 1022/1121 VRB04MPS 0300 FZFG VV002 640000 TEMPO
1022/1105 16005MPS 0800 FZDZ FZFG VV002=

0000029500
595
SATH33 VTBB 102200
METAR VTBO 102200Z NIL=
METAR VTUD 102200Z NIL=
METAR VTUI 102200Z NIL=
METAR VTUK 102200Z NIL=
METAR VTUL 102200Z NIL=
METAR VTUO 102200Z NIL=
METAR VTUQ 102200Z NIL=
METAR VTUU 102200Z NIL=
METAR VTUV 102200Z NIL=
METAR VTUW 102200Z NIL=

0000024300
596
SATH31 VTBB 102200
METAR VTCH 102200Z NIL=
METAR VTCL 102200Z NIL=
METAR VTCN 102200Z NIL=
METAR VTCP 102200Z NIL=
METAR VTCT 102200Z NIL=
METAR VTPH 102200Z NIL=
METAR VTPO 102200Z NIL=
METAR VTPP 102200Z NIL=

0000012700
597
SARA31 RUMS 102200
METAR UEEE 102200Z 22001MPS 2400 -SN BR OVC200 M44/M48 Q1035 NOSIG
RMK QFE767 23490145=

0000013100
598
SACN62 CYXX 102200
METAR CYXX 102200Z 21010KT 15SM BKN025 OVC090 09/ A2998 RMK SC6AS2 DP
 4.6 VIA CYXC SLP154=

0000030400
599
SARS31 RUMS 102200
METAR ULWC 102200Z NIL=
METAR UUBP 102200Z NIL=
METAR UUOB 102200Z 25006MPS 4000 -RA BR OVC008 02/02 Q0999 29290050
NOSIG=
METAR UUOK 102200Z NIL=
METAR UWGG 102200Z 17006MPS 3600 -SN OVC006 01/00 Q0993 TEMPO 1000
SHSNRA VV004 18690540 RMK QBB180 QFE737=

0000024300
600
SATH32 VTBB 102200
METAR VTSB 102200Z NIL=
METAR VTSC 102200Z NIL=
METAR VTSF 102200Z NIL=
METAR VTSG 102200Z NIL=
METAR VTSH 102200Z NIL=
METAR VTSM 102200Z NIL=
METAR VTSR 102200Z NIL=
METAR VTST 102200Z NIL=

0000094800
601
SARS32 RUMS 102200
METAR URKA 102200Z 19009G14MPS 9999 BKN020 09/06 Q1011 RMK
QFE754/1006=
METAR URKK 102200Z 21008G11MPS CAVOK 07/01 Q1011 NOSIG RMK QFE755
SC065=
METAR URML 102200Z 19002MPS 9999 SKC M01/M02 Q1016 NOSIG RMK
QFE762/1016 SC070=
METAR URMM 102200Z 00000MPS 6000 SKC M04/M04 Q1013 12CLRD70 NOSIG RMK
QFE731/0975=
METAR URMN 102200Z 18002MPS 9999 FEW260 01/M05 Q1013 NOSIG RMK QFE723
SC06=
METAR URMO 102200Z NIL=
METAR URMT 102200Z 22003MPS CAVOK 01/M01 Q1011 NOSIG RMK QFE720
SC0.60=
METAR URRR 102200Z 22008G12MPS 9999 OVC015 07/05 Q1008 22290045 TEMPO
24010G15MPS=
METAR URSS 102200Z 05005MPS 9999 SCT230 03/M01 Q1016 NOSIG RMK
R06/07003MPS QFE761 02000070 06//////=
METAR URWA 102200Z 21003MPS 9999 OVC033 03/M00 Q1016 NOSIG RMK
QFE764/1019 SC055=
METAR URWI 102200Z NIL=
METAR URWW 102200Z 19007MPS 2000 -RA BR BKN013 OVC100 02/02 Q1009
BECMG 1000 OVC004 RMK 11190060=

0000053800
602
SARA36 RUMS 102200
METAR UWUU 102200Z 15002MPS 4500 BR OVC010 M02/M03 Q1007 14650440
TEMPO 1000 SN FZRA BKN003 RMK QFE745/0993=
METAR USCC 102200Z 16004MPS 3000 -SHSN BR SCT010CB OVC070 M05/M06
Q1010 09490350 TEMPO 1100 SHSN BKN005 RMK QFE737=
METAR USNN 102200Z 33002MPS 8000 -SN OVC018 M13/M15 Q1017 NOSIG RMK
QFE759 03420242=
METAR USRR 102200Z 08003MPS 7000 SCT010 M27/M30 Q1018 NOSIG RMK
QFE758 07////35=
METAR USSS 102200Z 10002MPS 5000 -SN BKN020 OVC067 M05/M07 Q1008
08590230 NOSIG RMK QFE736=

0000085200
603
FTPK31 OPKC 102200
TAF OPGD  1100/1124 08010G20KT 5000 HZ SCT200 TEMPO 1100/1104
36007KT 3000 FU NSC FM111500Z 06010KT 4000 FU NSC=
TAF OPKC 102200Z 1100/1206 05010G20KT 7000 NSC TEMPO 1100/1104
03010KT 4000 FU NSC FM111600Z
03010KT 6000 NSC TEMPO 1201/1205 03008KT 4000 FU NSC=
TAF OPNH 102130Z 1100/1206 36012KT 4000 HZ NSC TEMPO 1100/1105
00000KT 1000 BR NSC FM111800Z 03008KT 3000 FU NSC TEMPO
     1200/1205
00000KT 1000 BR NSC=
TAF OPPS 102100Z 1100/1206 22006KT 4000 HZ NSC BEC 1112/1115 VRB03KT
2500 BR BEC 1202/1206
VRB03KT 2000 BR=
TAF OPRN 102130Z 1100/1206 27010KT 4000 HZ FEW040 SCT100 BECMG
1101/1105 04005KT 2000 BR FEW040
SCT100=
TAF OPSK 102130Z 1100/1124 03012KT 4000 HZ NSC TEMPO 1100/1105
00000KT 1000 BR NSC FM 111800 05008KT 3000 FU NSC FM112100Z
     VRB03KT
2000 FU/BR NSC=

0000072300
604
SARA32 RUMS 102200
METAR UHBB 102200Z 00000MPS CAVOK M34/M37 Q1022 NOSIG RMK QFE749/0998
36410160=
METAR UHHH 102200Z 24008G11MPS CAVOK M26/M32 Q1018 NOSIG RMK
QFE757/1010 23090060=
METAR UHMA 102200Z 08015G20MPS 0400 R01/0450 +BLSN BKN080 M13/M16
Q1010 NOSIG RMK QFE754/1006=
METAR UHMD 102200Z NIL=
METAR UHMM 102200Z 03005MPS 9999 FEW066 SCT200 M18/M28 Q1007 NOSIG
RMK QFE740 88820555=
METAR UHPP 102200Z 10001MPS 9999 -SHSN BKN030CB BKN100 M06/M12 Q0993
NOSIG RMK MT OBSC QFE741/0989 SC05 055 055=
METAR UHSS 102200Z 00000MPS 4000 FU SCT040 M26/M29 Q1013 NOSIG RMK
QFE759/1012 01810366=
METAR UHWW 102200Z VRB01MPS 9999 SCT200 M26/M29 Q1027 NOSIG RMK
QFE769/1026 25CLRD70=

0000013900
605
SAAE32 VTBB 102200
METAR VLLB 102200Z NIL=
METAR VLLN 102200Z NIL=
METAR VLPS 102200Z NIL=
METAR VLSK 102200Z NIL=

0000014000
606
SARA35 RUMS 102200
METAR USCM 102200Z 15003MPS 5000 -SN OVC020 M07/M08 Q1008 TEMPO 1000
SHSN VV003 19490532 RMK QFE719=

0000092200
607
SARS35 RUMS 102200
METAR USPP 102200Z 14003MPS 5000 BR SCT026 BKN086 M07/M07 Q1007
21350139 NOSIG RMK QFE745/0993=
METAR UWKD 102200Z 16007MPS 5000 BR OVC003 M00/M00 Q1003 R11/2/0050
TEMPO 0900 FZFG RMK QFE742/0990=
METAR UWKE 102200Z 00000MPS 7000 OVC004 M04/M05 Q1005 NOSIG RMK 
QBB120 QFE737/0983 21420542=
METAR UWKS 102200Z 16007MPS 2700 BR OVC002 00/M00 Q1000 NOSIG RMK
QBB080 QFE736 24290250=
METAR UWLW 102200Z 17004MPS 5000 BR OVC008 01/00 Q1005 20820550 NOSIG
RMK QFE748=
METAR UWOR 102200Z 18004MPS 9999 OVC015 M02/M03 Q1009 25450245 NOSIG
RMK QFE733/0978=
METAR UWOO 102200Z 13002MPS M0300 R08/0600N FZFG VV002 M02/M02 Q1009
08590332 NOSIG RMK QBB070 QFE746/0995=
METAR UWSS 102200Z 18005MPS 6000 OVC005 01/M00 Q1007 1219//55 NOSIG
RMK   QFE743=
METAR UWWW 102200Z 17003MPS 4400 BR BKN010 OVC100 M01/M02 Q1006
23520540 33//99// NOSIG RMK QFE744/0992 650000=

0000011300
608
SACN61 CYYL 102200
METAR CYYL 102200Z AUTO 05006KT 1SM -SN OVC020 M19/M21 A2946 RMK
 SLP011=

0000010600
609
SACN62 CYYT 102200
METAR CYYT 102200Z 26009KT 15SM SCT020 M07/M10 A3016 RMK SC3 SLP226=

0000011500
610
SAAE33 VTBB 102130 RRA
METAR VVPB 102130Z 27004KT 3000 -RA BR SCT015 BKN050 19/18 Q1019
NOSIG=

0000078200
611
FTBZ42 KWBC 102203
TAF
TAF SBLO 102200Z 1100/1112 35005KT CAVOK TN22/1108Z TX28/1112Z
      BECMG 1106/1108 9999 FEW030 RMK PEL=
TAF SBPK 102200Z 1100/1124 13008KT 9999 SCT005 BKN015 TN20/1108Z
      TX27 /1117Z PROB30
      TEMPO 1106/1115 4000 TSRA BR SCT012 BKN012 FEW030CB PROB40
      11
      15/1120 3000 RA BR SCT006 BKN010 RMK PEL=
TAF SBPP 102200Z 1100/1124 30008KT 9999 FEW025 TN21/1108Z
      TX30/1117Z
      BECMG 1114/1116 SCT025 FEW030TCU PROB40
      TEMPO 1118/1124 8000 TSRA BKN025 F EW030CB RMK PEL=
TAF SBUG 102200Z 1100/1124 15006KT 9999 SCT006 BKN020 TN23/1108Z
      TX27 /1117Z PROB30
      TEMPO 1106/1115 3000 TSRA BR SCT008 BKN012 FEW030CB PROB40
      11
      15/1120 3000 RA BR SCT006 BKN010 RMK PEL=

0000048500
612
FTCA31 KWBC 102203
TAF
TAF MKJP 102200Z 1100/1124 12010KT 9999 FEW024
      BECMG 1102/1104 34005KT
      BECMG 1115/1117 14020KT=
MKJP 102200Z 1100/1124 12010KT 9999 FEW024
      BECMG 1102/1104 34005KT
      BECMG 1115/1117 14020KT=
TAF MKJS 102200Z 1100/1124 08010KT 9999 FEW024
      BECMG 1101/1103 14005KT
      BECMG 1114/1116 07012=
MKJS 102200Z 1100/1124 08010KT 9999 FEW024
      BECMG 1101/1103 14005KT
      BECMG 1114/1116 07012=

00000000