0000009400
893
SACN44 CWAO 110300
METAR CWRF 110300Z AUTO ///// M35/ A2932 RMK PRESRR SLP992=
0000011800
894
SACN45 CWAO 110300
METAR CYCB 110300Z 20008KT 3SM -SN SCT015 BKN065 M27/M32 A2938 RMK
SC2SC4 SLP954=
0000008900
895
SACN51 CWAO 110300
METAR CWPX 110300Z AUTO 19004KT M30/ A2928 RMK SLP948=
0000010900
896
SACN51 CWAO 110300
METAR CWCL 110300Z AUTO 18004KT 9SM CLR M03/M07 A2960 RMK PRESFR
SLP069=
0000009600
897
SACN51 CWAO 110300
METAR CWOB 110300Z AUTO 05008KT FEW001 M21/ A2925 RMK SLP963=
0000008900
898
SACN52 CWAO 110300
METAR CWYM 110300Z AUTO 26018KT M21/ A2911 RMK SLP929=
0000009200
899
SACN52 CWAO 110300
METAR CWTU 110300Z AUTO 29009G17KT M16/ A2943 RMK SLP033=
0000011100
900
SACN47 CWAO 110300
METAR CYWA 110300Z AUTO 12006KT 3/4SM OVC002 M03/M04 A3005 RMK ICG
SLP184=
0000008900
901
SACN51 CWAO 110300
METAR CWLI 110300Z AUTO 29019KT M33/ A2957 RMK SLP035=
0000007600
902
SACN52 CWAO 110300
METAR CWRH 110300Z AUTO 27016G22KT A2931=
0000011000
903
SACN31 CWAO 110300
METAR CYQG 110300Z 16006KT 1/2SM -RA FG VV002 03/03 A2983 RMK FG8
SLP106=
0000009600
904
SACN44 CWAO 110300
METAR CYUS 110300Z AUTO 22014KT OVC022 M33/ A2947 RMK SLP988=
0000009200
905
SACN51 CWAO 110300
METAR CWYK 110300Z AUTO 31004G26KT M21/ A2914 RMK SLP954=
0000008900
906
SACN51 CWAO 110300
METAR CWIL 110300Z AUTO 22012KT M31/ A2944 RMK SLP981=
0000009600
907
SACN44 CWAO 110300
METAR CYZU 110300Z 25005KT 15SM SKC M05/M10 A2955 RMK SLP052=
0000013900
908
SACN42 CWAO 110300
METAR CYIV 110300Z 07002KT 1 1/2SM -SN BR OVC002 M08/M09 A2943 RMK
FG3ST5 BEAM VISBL TO 400 FT SLP986=
0000010300
909
SACN47 CWAO 110300
METAR CYVV 110300Z 14009KT 4SM BR OVC007 02/01 A2983 RMK SF8 SLP111=
0000008700
910
SACN51 CWAO 110300
METAR CWVH 110300Z AUTO ///// M27/ A2956 RMK SLP050=
0000011300
911
SACN43 CWAO 110300
METAR CWHN 110300Z AUTO 30008KT 260V320 9SM OVC010 M08/M10 A2948 RMK
SLP023=
0000011500
912
SACN46 CWAO 110300
METAR CYGQ 110300Z 21004KT 8SM OVC006 M03/M04 A2955 RMK SF8 BR CIG
RAG SLP028=
00000000