0000029800
653
SANO37 ENMI 101920
METAR ENNO 101920Z NIL=
METAR ENOV 101920Z NIL=
METAR ENSD 101920Z 28008KT 260V330 9999 FEW025 BKN045 02/M02 Q0998
           RMK WIND 1138FT VRB04KT=
METAR ENSG 101920Z NIL=
METAR ENSN 101920Z NIL=
METAR ENSR 101920Z NIL=
METAR ENSS 101920Z NIL=

0000055800
654
SANO38 ENMI 101920
METAR ENDR 101920Z AUTO 06029KT M03/M08 Q1001=
METAR ENEK 101920Z 23026KT 9999 FEW010 SCT035 BKN150 07/06 Q1004
           W08/S4=
METAR ENGC 101920Z NIL=
METAR ENHE 101920Z 09027KT 9999 BKN036 M02/M10 Q1003 W///S5=
METAR ENOA 101920Z NIL=
METAR ENSL 101920Z AUTO 26017KT 9999NDV -DZ BKN048/// 07/05 Q1001
           W06/S4=
METAR ENFB 101920Z AUTO 06018KT 9999NDV BKN052/// 05/M01 Q0999
           W///S5=
METAR ENSF 101920Z AUTO 06018KT 9999NDV BKN041/// OVC058/// 05/M01
           Q0999 W///S5=

0000041600
655
SANO35 ENMI 101920
METAR ENMS 101920Z VRB06KT 9999 FEW060 M08/M17 Q1007 RMK WIND 412FT
           VRB06KT=
METAR ENRM 101920Z 07014KT CAVOK M07/M14 Q1005=
METAR ENRS 101920Z 06027KT 9999 BKN046 M03/M10 Q1010=
METAR ENSK 101920Z NIL=
METAR ENSO 101920Z NIL=
METAR ENST 101920Z 07007KT 030V120 CAVOK M08/M15 Q1008 RMK WIND 300FT
           04013G23KT 360V080=
METAR ENVD 101920Z NIL=

0000073200
656
SANO39 ENMI 101920
METAR ENNE 101920Z NIL=
METAR ENQR 101920Z AUTO 08007KT 040V140 9999NDV BKN028/// OVC050///
           06/M01 Q0999 W///S/=
METAR ENSE 101920Z AUTO 07015KT 9999NDV FEW029/// BKN045/// BKN051///
           04/M01 Q0999 W///S5=
METAR ENQC 101920Z AUTO 03012KT 9999NDV OVC017/// 05/01 Q0998
           W///S4=
METAR ENQA 101920Z AUTO 03007KT 9999NDV -SHRA FEW018/// SCT025///
           BKN029/// 05/01 Q0999 W04/S4=
METAR ENHM 101920Z AUTO 26015KT 9999NDV FEW120/// 07/05 Q0999
           W08/S4=
METAR ENVH 101920Z AUTO 23026KT 9999NDV FEW100/// BKN140/// 07/06
           Q1005 W///S4=
METAR ENLA 101920Z AUTO 23026KT 9999NDV OVC027/// 08/06 Q1003
           W///S4=

0000176300
657
SNDL46 EDZW 111000
AAXX 11101
10321 42965 82306 10041 20021 30075 40128 55003 8707/
  333 55300 20211 30206 87360=
10325 45481 72205 10043 20014 39977 40145 58001
  333 55305 83/15 87/61=
10334 NIL=
10335 NIL=
10343 NIL=
10348 45978 02506 10043 20007 30036 40144 57001
  333 55310 20590 30124 40900=
10356 45966 02405 10047 20012 39944 40144 58003
  333 55310=
10359 45971 02405 10059 20020 30081 40140 58004
  333 55310 20598 30169=
10365 45981 72103 10052 20015 30100 40147 58003
  333 55310 20502 30100 87/71 87/80=
10368 42975 12205 10037 20010 39915 40146 58003 81030
  333 55310 20679 30190 81360=
10376 45962 52406 10052 20014 30081 40150 54000
  333 55310 85/66=
10385 42982 22306 10052 20018 30083 40145 58003 82030
  333 55308 20641 30283 82363=
10396 45977 72305 10050 20025 30130 40146 55000
  333 55304 87/63=
10404 NIL=
10410 45476 72204 10051 20026 39976 40160 53004
  333 55302 82/14 87/68 87/73=
10418 45467 72305 10035 20023 39688 40162 53001
  333 55300 20304 30304 87/13 87/18 87/60=
10424 45979 82204 10052 20029 30047 40153 55001
  333 55303 20357 30309 86/60 88/62 88/70=
10433 45972 72104 10019 20001 39828 40148 58001
  333 55310 20559 30247 82/73 87/75=
10435 45961 81903 10014 20004 39870 40163 51001
  333 55303 82/65 88/74 88/77=
10441 45363 83002 10018 20008 39780 40171 53001
  333 55300 88/07=
10442 45975 31504 10029 20003 39971 40151 58003
  333 55309 20466 30170 83/73=
10444 42472 51601 10036 20018 39957 40165 52003 81131
  333 55304 20374 30264 81811 83360=
10449 45368 82203 10028 20016 39733 40165 50000
  333 55302 20204 30165 88/09 88/60=
10452 45270 72304 10002 21005 39424 40161 58005
  333 55303 20407 30327 87/05=
0000161500
658
SNDL47 EDZW 111000
AAXX 11101
10454 45980 02105 10072 21019 39855 40146 58004
  333 55309=
10458 47980 42306 10028 20003 39660 40153 58002 700//
  333 55309 20705 30275 84/62=
10460 42580 32103 10035 20014 39962 40167 58002 81250
  333 55308 20433 30187 81820 83363=
10466 46/61 /2203 10047 20014 30038 40156 58006
  333 55307 20519 30218=
10471 45979 52103 10049 20015 39993 40163 58001
  333 55310 20723 30182 40923 81/60 85/64 85/67=
10474 45967 02303 10046 20014 30023 40154 58003
  333 55310 20621 30168=
10476 NIL=
10480 45972 82306 10054 20019 39971 40156 58005
  333 55307 20528 30151 81/76 88/80=
10490 45971 02204 10047 20015 30039 40160 57003
  333 55308 20561 30176=
10495 45982 02205 10063 20013 30018 40161 58002
  333 55309=
10500 NIL=
10502 NIL=
10516 NIL=
10519 45777 72004 10055 20029 39971 40168 53007
  333 55300 84/50 87/57 87/58=
10520 45861 83101 10021 20020 30083 40178 51007
  333 553// 88/58=
10526 45566 82303 10027 20025 39513 40172 53004
  333 55300 20214 30212 87/25 88/57 88/60=
10534 47000 52105 10005 20005 39286 40179 53003 73033
  333 55300 84/00 85/60=
10537 47032 71706 10014 20014 39745 40178 51003 71000
  333 55300 87/01 87/34=
10540 45470 82503 10032 20011 39787 40172 55001
  333 55300 20317 30309 82/19 88/74 88/77=
10542 47539 83601 10016 20012 39841 40176 53002 71000
  333 55300 20249 30249 83/23 83/41 88/59=
10552 47001 82306 11007 21007 39059 48445 55000 73533
  333 55300 88/00=
10557 42/81 72206 10005 21002 39158 48446 58005 8683/
  333 55303 20452 30349 828// 85646=
0000211300
659
SNDL48 EDZW 111000
AAXX 11101
10564 45887 72104 10035 20004 39566 40172 56005
  333 55301 82/56 87/60 87/62=
10565 45960 62404 10044 20013 39863 40164 58002
  333 55308 86/64=
10569 45862 71703 10022 20006 39702 40178 58007
  333 55303 20292 30236 81/57 86/59 87/61=
10574 45282 82404 10003 21012 39113 48454 58003
  333 55306 81/05 87/58 88/70=
10577 42782 32206 10036 20004 39664 40174 57001 81502
  333 55308 20449 30165 81656=
10579 45/84 /2304 10024 21022 39409 40179 57001
  333 55306=
10582 42989 62405 10019 21028 39126 48451 58001 85042
  333 55309 20716 30271 81360 84361=
10591 45973 41604 10040 20003 39788 40178 58001
  333 55310 84/70=
10613 NIL=
10615 47581 72303 10044 20028 39596 40177 53008 75165
  333 55300 20196 30195 81/30 87/56=
10618 NIL=
10628 47650 71201 10008 20006 30047 40187 53004 76166
  333 55300 86/40 87/58=
10635 47486 82503 10012 20009 39191 48451 53007 72476
  333 55300 20124 30124 88/14=
10646 45559 80301 11007 21007 39768 40191 53003
  333 4/001 55300 81/25 88/48 88/59=
10648 47/67 92404 10037 20012 39629 40180 51007 76165
  333 55300 20096 30096=
10658 47018 83101 10000 20000 39839 40190 55000 72030
  333 55300 87/00 88/56 88/60=
10671 47735 70902 10005 20002 39763 40190 55002 71000
  333 55300 20327 30325 82/56 86/60 87/64=
10686 45158 72005 10000 21008 39432 40189 50000
  333 55306 81/03 87/73 87/80=
10704 47526 81902 10025 20021 39741 40186 53009 75765
  333 55300 20080 30080 81/31 86/41 88/48=
10706 47538 80801 10025 20024 39715 40189 51012 75165
  333 55300 81/20 84/39 88/50=
10724 47560 72404 10040 20033 39510 40181 51009 76265
  333 55300 20059 30059 81/23 87/39=
10733 47612 80301 10005 20004 39895 40194 53009 71000
  333 55300 20117 30117 88/46=
10736 47725 80601 10011 20008 39892 40195 51012 72250
  333 4/001 55300 88/50=
10739 47639 81302 10021 20015 39804 40195 53012 76265
  333 55300 20083 30080 41173 87/46 88/50=
10743 NIL=
10747 47539 83201 10000 20000 39593 40194 53009 76265
  333 4/001 55300 20138 30137 81/29 87/43 88/50=
0000170600
660
SNDL49 EDZW 111000
AAXX 11101
10756 47535 72501 10009 20006 39610 40193 53005 76165
  333 55300 20180 30180 81/32 87/50 87/56=
10761 47661 72002 10021 20015 39673 40191 55001 76165
  333 55300 20104 81/35 87/47 87/50=
10765 46/// /1402 10010 20010 39706 40192 58002=
10771 NIL=
10777 47615 71603 10004 20004 39542 40198 50000 74064
  333 55300 87/49 87/62 87/66=
10782 47945 73002 11003 21003 39589 40203 56006 71000
  333 55300 20358 30331 86/62 87/68=
10796 47950 81901 11007 21007 39457 40209 58004 71000
  333 4/003 55303 88/62 88/63 88/65=
10803 45969 72302 10066 20040 39907 40197 51020
  333 55305 20627 30473 87/60 87/61 87/63=
10818 45874 82204 10056 20030 39053 48487 53010
  333 55301 20397 30371 86/57 88/60 88/67=
10827 46/// /2503 10077 20033 39096 48488 53009
  333 55306 20612 30420=
10837 NIL=
10838 46643 31802 11002 21003 39502 40199 50002
  333 55300 82/46 83/57=
10850 47002 71402 11007 21007 39584 40203 51005 73563
  333 55300 87/00 87/57=
10853 NIL=
10856 NIL=
10857 NIL=
10860 NIL=
10863 47950 80701 10012 20011 39616 40201 51002 71000
  333 55305 20600 30385 41027 88/61 88/62=
10865 45984 80000 10054 20024 39557 40187 50000
  333 55304 87/59 88/62=
10872 47942 80302 10003 21000 39773 40209 55003 71000
  333 55301 87/59 88/79=
10875 47025 70702 11007 21007 39704 40208 58004 72030
  333 55300 20511 30490 86/01 87/60=
10945 45962 41501 10033 20033 39386 40192 53002
  333 55303 83/58 84/60=
10954 NIL=
10963 45974 82201 10046 20035 39341 40196 58002
  333 4/002 55308 20876 30507 87/58 87/66 88/69=
10982 45970 10601 10043 20035 39529 40193 57002
  333 55302 20517 30440 81/64=
0000051200
661
SNVD20 KWNB 111000 RRD
BBXX
44065 11101 99404 70737 46/// /1508 10083 40166 58039 90950 22200
00057 333 91209 555 11091 22102 30946 41509 60949 147083 145080
144081 145076 146068 144060=
44007 11101 99435 70701 46/// /0402 10025 20022 40212 58032 90950
22200 00044 10601 20401 316// 40601 70006 333 91202 555 11022
22022 30926 40503 60949 043021 049020 052023 052016 074011 047006=
44040 11101 99410 70736 46/// /0505 10023 20023 90945 22200 1//00
70002 333 91206 555 11057 22067=
0000027400
662
SXHW11 KWAL 111002
15D142A4 011100202":PRS 1 #1 1609 1597 1601 1600 1605 1602 1607 1597 1574 1581 :RAD 1 #1 7195 7184 7185 7187 7187 7183 7182 7174 7164 7169 :ENC 2 #5 5090 5081 5072 5068 :SW1 2 #60 0 :SW2 32 #60 0 :BAT 4 #5 13.0 :NAME 15D142A4  35+0NN 216W
0000270100
663
UDFR01 LFPW 111001
AMDAR 1109
DES EU0977 4255N 00849E 110945 F153 MS139 /// 256/019 TB1 S031
333 F153 VG021=
UNS EU0977 4254N 00852E 110945 F142 MS114 /// 257/020 TB1 S031
333 F142 VG010=
DES EU0977 4253N 00854E 110945 F133 MS097 /// 248/015 TB1 S031
333 F133 VG012=
DES EU0977 4252N 00857E 110946 F125 MS077 /// 253/014 TB1 S031
333 F125 VG021=
DES EU0977 4250N 00859E 110946 F115 MS052 /// 251/015 TB3 S031
333 F115 VG054=
DES EU0977 4250N 00902E 110946 F110 MS037 /// 253/016 TB0 S031
333 F110 VG003=
DES EU0977 4249N 00905E 110947 F107 MS034 /// 255/016 TB1 S031
333 F107 VG008=
DES EU0977 4247N 00907E 110947 F105 MS029 /// 256/016 TB0 S031
333 F105 VG000=
DES EU0977 4247N 00909E 110947 F104 MS029 /// 259/014 TB0 S031
333 F104 VG003=
DES EU0977 4246N 00911E 110948 F101 MS024 /// 266/014 TB1 S031
333 F101 VG026=
DES EU0977 4245N 00913E 110948 F094 MS014 /// 264/014 TB1 S031
333 F094 VG015=
DES EU0977 4244N 00915E 110948 F086 MS002 /// 265/011 TB0 S031
333 F086 VG006=
DES EU0977 4243N 00917E 110949 F078 PS020 /// 267/009 TB0 S031
333 F078 VG004=
DES EU0977 4243N 00919E 110949 F068 PS040 /// 263/011 TB1 S031
333 F068 VG015=
DES EU0977 4241N 00920E 110949 F060 PS055 /// 233/007 TB0 S031
333 F060 VG001=
DES EU0977 4241N 00922E 110950 F054 PS062 /// 185/003 TB1 S031
333 F054 VG024=
DES EU0977 4240N 00923E 110950 F047 PS075 /// 227/003 TB0 S031
333 F047 VG009=
DES EU0977 4239N 00925E 110950 F038 PS077 /// 357/003 TB1 S031
333 F038 VG014=
UNS EU0977 4238N 00926E 110951 F029 PS077 /// 156/007 TB0 S031
333 F029 VG007=
DES EU0977 4237N 00928E 110951 F025 PS067 /// 172/016 TB0 S031
333 F025 VG008=
DES EU0977 4236N 00929E 110951 F022 PS072 /// 166/018 TB0 S031
333 F022 VG000=
UNS EU0977 4235N 00930E 110952 F020 PS072 /// 169/018 TB1 S031
333 F020 VG027=
DES EU0977 4234N 00931E 110952 F017 PS080 /// 163/018 TB0 S031
333 F017 VG005=
UNS EU0977 4234N 00932E 110952 F014 PS087 /// 164/016 TB1 S031
333 F014 VG034=
DES EU0977 4232N 00932E 110953 F013 PS090 /// 155/016 TB0 S031
333 F013 VG003=
DES EU0977 4231N 00932E 110953 F012 PS095 /// 155/016 TB0 S031
333 F012 VG000=
UNS EU0977 4231N 00933E 110953 F012 PS095 /// 155/019 TB2 S031
333 F012 VG057=
UNS EU0977 4230N 00932E 110954 F012 PS095 /// 160/016 TB1 S031
333 F012 VG017=
DES EU0977 4229N 00931E 110954 F010 PS100 /// 157/019 TB1 S031
333 F010 VG051=
UNS EU0977 4229N 00930E 110954 F007 PS102 /// 137/010 TB2 S031
333 F007 VG087=
DES EU0977 4230N 00929E 110955 F005 PS107 /// 164/009 TB1 S031
333 F005 VG054=
DES EU0977 4231N 00929E 110955 F002 PS115 /// 160/006 TB0 S031
333 F002 VG016=
0000011800
664
SNVD25 LFPW 111000
BBXX
BATFR15 11104 99162 70615 46/// /0801 10239 20207 40170 53013
22200 04269=
0000011800
665
SNVD25 LFPW 111000
BBXX
BATEU01 11104 99466 70558 46/// /2923 10007 21043 40229 53004
22264 04004=
0000011800
666
SNVD25 LFPW 111000
BBXX
BATFR43 11104 99067 70814 46/// /0203 10275 20232 40098 53010
22264 04284=
0000011800
667
SNVE25 LFPW 111000
BBXX
BATFR28 11104 99022 11048 46/// /0016 10272 20230 40101 55002
22243 04279=
0000011800
668
SNVD25 LFPW 111000
BBXX
BATEU06 11104 99466 70565 46/// /2818 10000 21038 40236 50005
22224 04024=
0000167300
669
SNSQ51 LZIB 111000
AAXX 11101
11812 46/// /2501 10047 21012 39506 42807=
11813 46/// /9901 10055 20007 39857 40209=
11816 42681 70801 10043 20012 30048 40215 82548
  333 82644 86269=
11819 46/// /0000 10020 20005 39997 40219=
11826 42670 52302 10031 21007 30016 40220 82541
  333 82645 85070=
11841 42581 22503 10049 21003 39830 40211 81102
  333 81825=
11855 42665 59901 10053 20020 30050 40218 83501
  333 83643=
11856 46/// /1202 10048 20002 39898 40221=
11858 42675 79902 10069 20016 30063 40216 84541
  333 84640=
11867 42780 69901 10049 20005 39894 40215 82506
  333 82650 86070=
11880 42670 39901 10026 20016 30045 40221 82501
  333 82643=
11900 46/// /9901 10020 21003 39880 40223=
11903 42681 31601 10018 21001 39832 40222 82502
  333 82649=
11916 41/89 43005 11081 21084 37952 48462 72874 83541
  333 836// 93540
  444 36//8=
11918 42685 52404 10025 21020 39370 42798 82841
  333 81845 83360=
11927 42775 49901 10026 20014 39950 40218 82501
  333 82650 83070=
11930 42589 73208 11071 21327 37313 47984 86072
  333 86330 91016
  444 46205=
11933 42589 79902 11022 21069 38655 48469 81572
  333 81620 83358 85360=
11934 42686 79901 10024 21041 39369 42800 82542
  333 81633 83368 85070=
11938 NIL=
11952 46/// /9901 10003 21041 39358 42797=
11958 46/// /2403 11004 21005 3//// 4////=
11968 41040 51302 10009 20009 39932 40221 74044 82601
  333 82701 85070=
11976 41450 81702 10017 20004 39946 40216 71022 886//
  333 88710=
11978 41103 81103 10000 21003 30089 40224 74644 886//
  333 88702=
11993 41357 89901 10020 20004 39999 40221 71022 886//
  333 88708=
0000011100
670
UANT99 KDDL 111000
ARP UAL123 5406N02237W 0959 F340 MS63 221/81 KT
N58101 DDL H03 111000 F37A
0000010000
671
SICH01 SCSC 110900 RRF
AAXX 11094
85432 42970 00810 10068 20035 37720 48427 54000=
0000003800
672
SIVB21 BABJ 110900
NIL
00000000