0000020500
053
FTUK33 EGGY 102300 AAD
TAF AMD EGBB 110205Z 1102/1124 21010KT 4000 RA SCT005 BKN008 BECMG
    1102/1104 30007KT 9999 NSW SCT030 PROB30 1104/1109 5000 BR
    PROB30 1120/1124 5000 BR=

0000020200
054
SPUS70 KWBC 110158
SPECI
KLFK 110155Z AUTO 21007KT 10SM FEW009 BKN012 OVC024 19/17 A2980
     RMK AO2 $=
KART 110154Z AUTO VRB04KT 10SM FEW028 OVC050 03/00 A3013 RMK
     AO2=

0000010300
055
SPUS41 KWBC 110159
SPECI
KART 110154Z AUTO VRB04KT 10SM FEW028 OVC050 03/00 A3013=

0000165700
056
SAUS73 KWBC 110200
METAR
KABR 110153Z AUTO 23008KT 10SM CLR M10/M11 A2952=
KALN 110150Z 18015KT 10SM BKN019 07/06 A2958=
KALO 110154Z 00000KT 3/4SM R12/5500VP6000FT BR VV006 00/00
     A2951=
KAPN 110154Z AUTO 13009KT 2 1/2SM -FZRA BR OVC003 00/M01 A2976=
KASE 110153Z 34003KT 1 1/2SM -SN BR OVC014 M06/M07 A2996=
KATY 110153Z AUTO 25006KT 7SM CLR M09/M09 A2951=
KAXN 110153Z AUTO 24006KT 3SM BR OVC004 M02/M02 A2948=
KAZO 110153Z 17010G16KT 1 1/2SM -RA BR OVC006 04/03 A2972=
KBDE 110153Z AUTO 18005KT 3SM BR OVC005 M03/M04 A2941=
KBFF 110153Z AUTO 30006KT 10SM OVC080 03/M07 A2970=
KBIS 110152Z 26005KT 10SM FEW031 M05/M08 A2951=
KBJC NIL=
KBKF 110155Z 00000KT 25SM FEW100 M01/M11 A2979=
KBRL 110153Z AUTO 24007KT 1/2SM -RA FG VV002 04/04 A2953=
KBTL 110153Z 17013G22KT 7SM -RA OVC007 04/03 A2974=
KCGI 110153Z AUTO 12006KT 5SM RA BR FEW030 OVC070 06/06 A2973=
KCID 110152Z 21003KT 1/4SM FG VV002 01/00 A2950=
KCIU 110155Z AUTO 12010KT 5SM OVC010 M02/M03 A2973=
KCMI 110153Z 17009KT 2 1/2SM -RA BR OVC003 04/03 A2965=
KCMX 110153Z AUTO 17008KT 4SM BR BKN010 BKN027 OVC033 M03/M06
     A2958=
KCOS 110154Z 03005KT 10SM SCT070 M03/M13 A2981=
KCOU 110154Z 18008KT 10SM BKN007 BKN014 OVC025 07/06 A2955=
KCPR 110153Z 25014KT 10SM CLR M03/M08 A2973=
KCYS 110153Z 29021G31KT 10SM CLR M01/M09 A2972=
KDDC 110152Z AUTO 31010KT 10SM CLR 01/M03 A2973=
KDEC 110154Z 18010G19KT 7SM OVC003 05/05 A2963=
KDEN 110153Z 31012KT 10SM SCT150 SCT200 01/M10 A2977=
KDET 110153Z 16006KT 2 1/2SM -RA BR OVC003 04/02 A2985=
KDLH 110155Z 18007KT 1SM R09/P6000FT -FZDZ BR OVC004 M03/M05
     A2949=

0000054000
057
SATH32 VTBB 110200
METAR VTSB 110200Z 36005KT 6000 FEW020 26/26 Q1015
A2997 INFO C / RWY 22=
METAR VTSB 110200Z 36005KT 6000 FEW020 26/26 Q1015
A2997 INFO C / RWY 04=
METAR VTSC 110200Z NIL=
METAR VTSF 110200Z 19004KT 9999 FEW018 SCT022 BKN300
26/24 Q1015 A2998 INFO C / RWY 19=
METAR VTSG 110200Z NIL=
METAR VTSH 110200Z NIL=
METAR VTSM 110200Z 06010KT 9000 FEW020 BKN300 28/23 
Q1015 A3000=
METAR VTSR 110200Z NIL=
METAR VTST 110200Z 04006KT 8000 FEW020 BKN120 BKN300 26/22 Q1013
RWY08 INFO C=

0000008600
058
SAMX55 MMIO 110200
METAR MMIO 110140Z 00000KT 10SM SKC 15/08 A3010=

0000010600
059
SACN62 CYXJ 110200
METAR CYXJ 110200Z 18006KT 15SM BKN220 M07/M12 A2945 RMK CI6 SLP026=

0000010600
060
SACN62 CYXH 110200
METAR CYXH 110200Z 25003KT 15SM BKN110 M06/M09 A2967 RMK AC6 SLP085=

0000166700
061
SAUS73 KWBC 110200 RRA
METAR
KDSM 110154Z 30006KT 3/4SM R31/P6000FT -FZDZ BR OVC003 01/00
     A2955=
KDTW 110153Z 12007KT 1/4SM -RA BR OVC002 03/02 A2985=
KEAU 110156Z 04003KT 3SM -SN BR BKN020 OVC032 M02/M03 A2952=
KEGE 110150Z 26006KT 10SM VCSH SCT060 OVC090 M02/M06 A2999=
KELO 110153Z AUTO 18005KT 10SM OVC011 M04/M06 A2946=
KEVV 110154Z 13007KT 3SM +RA BR FEW042 BKN050 OVC075 08/07
     A2974=
KFAR 110153Z 21007KT 7SM CLR M07/M09 A2947=
KFNT 110153Z 18013KT 5SM -RA BR OVC007 04/03 A2979=
KFSD 110156Z 26006KT 6SM BR CLR M04/M05 A2955=
KFWA 110154Z 15005KT 1 3/4SM RA BR OVC003 03/03 A2978=
KGCK 110154Z 29008KT 10SM CLR M01/M06 A2975=
KGFK 110153Z 21007KT 9SM BKN033 OVC060 M09/M10 A2939=
KGJT 110153Z 04004KT 10SM CLR M06/M09 A3004=
KGRB 110153Z 13007KT 7SM -RA OVC008 01/01 A2955=
KGRI 110153Z AUTO 30006KT 10SM CLR M01/M04 A2962=
KGRR 110153Z 16016KT 7SM -RA BKN010 BKN014 OVC022 05/03 A2970=
KGYY NIL=
KHIB 110153Z AUTO 18005KT 3SM BR OVC003 M04/M05 A2946=
KHON 110155Z AUTO 20005KT 10SM CLR M05/M07 A2956=
KHUF 110153Z 15012KT 4SM -RA OVC004 06/ A2970=
KHUT 110152Z 30015KT 9SM -RA SCT010 BKN014 OVC025 03/01 A2967=
KICT 110153Z 31008KT 10SM SCT055 02/M02 A2967=
KIKK 110155Z AUTO 17013G17KT 10SM -RA SCT006 SCT013 OVC055 04/04
     A2962=
KIND 110154Z 14010KT 1/4SM R05L/1400V1600FT -RA FG VV002 04/04
     A2973=
KINL 110155Z AUTO 19005KT 2SM BR OVC003 M04/M06 A2944=
KIRK 110155Z AUTO 29005KT 2SM BR OVC002 04/03 A2954=
KJAC 110151Z 19008KT 10SM VCSH BKN035 M01/M04 A2991=
KJLN 110153Z 27013KT 10SM CLR 06/02 A2967=
KJMS 110156Z AUTO 28008KT 10SM CLR M03/M07 A2944=

0000170600
062
SAUS73 KWBC 110200 RRB
METAR
KJXN 110156Z 17010KT 5SM -RA BR OVC006 04/03 A2978=
KLAN 110153Z 16009KT 2SM RA BR OVC006 03/02 A2976=
KLAR 110153Z AUTO 28023G28KT 10SM CLR M05/M10 A2974=
KLBF 110153Z AUTO 29003KT 10SM CLR M07/M07 A2966=
KLBL 110155Z AUTO 27008KT 10SM CLR M02/M12 A2978=
KLEX 110154Z 17011KT 10SM OVC027 11/08 A2987=
KLNK 110154Z 28003KT 3SM BR CLR M01/M02 A2961=
KLOU 110153Z 16007KT 10SM OVC024 11/08 A2982=
KLOZ 110153Z AUTO 19009KT 10SM SCT037 12/09 A2993=
KLSE 110153Z 29004KT 2 1/2SM BR BKN004 OVC015 M01/M02 A2953=
KMBS 110153Z 15008KT 2SM -RA BR FEW026 BKN045 OVC060 02/01
     A2976=
KMCI 110153Z 28007KT 8SM OVC005 03/02 A2959=
KMDW 110151Z 18008KT 6SM -RA BR BKN006 OVC011 06/06 A2960=
KMHK 110152Z 26003KT 7SM -RA OVC020 02/01 A2963=
KMKC 110154Z 30008KT 10SM OVC011 04/02 A2959=
KMKE 110152Z 18005KT 5SM -RA BR OVC004 02/02 A2955=
KMKG 110155Z 14016G24KT 1SM R32/P6000FT -RA BR BKN007 OVC012 04/03
     A2962=
KMLI 110152Z 21007KT 2 1/2SM -RA BR OVC004 04/03 A2952=
KMOT 110154Z 29014KT 9SM OVC007 M03/M04 A2948=
KMSN 110153Z 18006KT 3SM -RA BR OVC004 02/01 A2952=
KMSP 110153Z 15003KT 5SM BR OVC006 M01/M02 A2952=
KOFF 110158Z 28003KT 10SM OVC015 01/01 A2958=
KOMA 110152Z 27005KT 7SM OVC015 01/M01 A2959=
KORD 110151Z 19007KT 6SM -RA BR OVC008 04/02 A2959=
KOSH 110153Z 13004KT 6SM -RA BR OVC009 01/00 A2952=
KOTM 110153Z AUTO 26003KT 1/4SM FG VV002 01/01 A2952=
KOWB 110156Z 17012KT 10SM SCT018 BKN048 09/09 A2976=
KPAH 110153Z VRB06G16KT 3SM +RA BR FEW009 BKN028 OVC043 10/09
     A2974=
KPIA 110154Z 18009G18KT 5SM BR OVC003 04/03 A2957=
KPIR 110153Z AUTO 27009KT 10SM SCT100 00/M06 A2957=

0000133800
063
SAUS73 KWBC 110200 RRC
METAR
KPLN 110154Z AUTO 13008KT 4SM UP BR OVC007 M01/M03 A2971=
KPTK 110153Z 16008KT 1 3/4SM -RA BR OVC002 02/02 A2981=
KPUB NIL=
KRAP 110152Z 33004KT 10SM FEW048 SCT075 OVC095 01/M05 A2961=
KRFD 110154Z 18010KT 4SM RA BR OVC006 03/02 A2956=
KRKS 110154Z AUTO 27025G31KT 10SM FEW026 OVC041 M02/M06 A2994=
KRST 110154Z 00000KT 2SM -SN BR BKN013 OVC029 M02/M03 A2951=
KSAW NIL=
KSBN 110154Z 16012G18KT 6SM RA BR OVC006 04/03 A2968=
KSDF 110156Z 15007KT 10SM BKN023 OVC028 10/08 A2982=
KSDM 110153Z 00000KT 7SM CLR 15/08 A3007=
KSGF 110152Z 23008KT 10SM FEW019 SCT028 SCT035 08/07 A2960=
KSLN 110153Z 28009KT 4SM -SN BR OVC009 01/00 A2966=
KSPI 110152Z 18019KT 10SM OVC006 05/05 A2960=
KSTC 110153Z 18003KT 1SM BR OVC002 M03/M03 A2951=
KSTJ 110153Z AUTO 31007KT 6SM BR BKN004 OVC011 01/01 A2960=
KSTL 110151Z 20009G17KT 10SM SCT009 BKN085 OVC200 08/06 A2959=
KSTP 110153Z 16004KT 5SM BR OVC008 M02/M02 A2954=
KSUS 110154Z 21005KT 10SM OVC011 08/06 A2959=
KSUX 110152Z AUTO 00000KT 2SM BR SCT080 M01/M02 A2958=
KTVC 110153Z 12005KT 3SM -RA BR BKN009 OVC013 01/M01 A2963=
KUIN 110154Z AUTO 19010KT 10SM FEW006 BKN012 OVC023 06/05
     A2953=
KWRL 110153Z AUTO 19003KT 10SM FEW100 M07/M10 A2976=
KYIP 110153Z AUTO 16008KT 1 1/2SM BR OVC002 04/02 A2984=

0000170500
064
SAUS74 KWBC 110200
METAR
KACV 110153Z AUTO 12004KT 9SM BKN046 09/08 A3019=
KALW 110153Z 21009KT 10SM BKN047 OVC060 09/02 A3001=
KBFI 110153Z 13009KT 10SM -RA FEW037 BKN055 OVC070 09/06 A2988=
KBFL 110154Z AUTO 00000KT 9SM CLR 13/04 A3020=
KBIL 110153Z 29018G25KT 10SM BKN095 BKN110 04/M06 A2970=
KBKE 110153Z AUTO 17006KT 10SM SCT060 OVC080 01/M01 A3003=
KBLI 110153Z 14010KT 9SM -RA BKN022 OVC030 08/06 A2980=
KBOI 110153Z 00000KT 10SM OVC050 06/M01 A3010=
KBTM 110153Z AUTO 25005KT 10SM BKN060 BKN095 01/M08 A2985=
KBUR 110153Z 10004KT 10SM CLR 20/06 A3005=
KBYI 110153Z AUTO 23010KT 10SM OVC047 02/M02 A3009=
KBZN 110156Z 17005KT 10SM OVC065 02/M06 A2985=
KCDC 110153Z AUTO 14008KT 10SM CLR 03/M05 A3014=
KCEC 110156Z AUTO 16009KT 9SM SCT023 SCT048 OVC060 09/09 A3017=
KCLM 110153Z AUTO 00000KT 5SM -RA BR OVC010 06/06 A2972=
KCTB 110156Z AUTO 29011KT 10SM CLR M01/M06 A2968=
KCXL NIL=
KEKO 110156Z AUTO VRB05KT 10SM FEW080 06/M02 A3017=
KEUG 110154Z 17009KT 10SM BKN037 OVC050 11/07 A3004=
KFAT 110153Z 00000KT 6SM HZ SCT200 13/05 A3021=
KFLG 110157Z 28006KT 10SM CLR 02/M07 A3017=
KGCN 110154Z AUTO 00000KT 10SM CLR M04/M10 A3019=
KGEG 110153Z 19012KT 10SM FEW020 OVC090 03/01 A2990=
KGGW 110153Z AUTO 29004KT 10SM FEW070 FEW090 M06/M08 A2959=
KGTF 110153Z 26008KT 10SM CLR 01/M06 A2971=
KHLN 110153Z 28017G23KT 10SM SCT060 05/M06 A2981=
KHQM 110153Z AUTO 14016G28KT 3SM -RA OVC010 A2981=
KIDA 110153Z 20005KT 10SM CLR M07/M09 A3000=
KIWA 110150Z 00000KT 20SM FEW250 12/M01 A3010=
KLAS 110156Z 17004KT 10SM SCT250 14/M03 A3007=
KLAX 110153Z 25004KT 8SM BKN250 15/12 A3006=
KLGB 110153Z 00000KT 5SM HZ CLR 16/11 A3005=

0000086100
065
SACI31 ZBBB 110200
METAR ZBAA 110200Z 34002MPS 310V030 CAVOK M03/M20 Q1032 NOSIG=
METAR ZBSJ 110200Z 26002MPS 1600 FU NSC M02/M12 Q1032 NOSIG=
METAR ZBTJ 110200Z 16002MPS 0400 R16R/0650N FZFG NSC M03/M06 Q1032
NOSIG=
METAR ZBYN 110200Z 06001MPS 5000 HZ NSC M06/M19 Q1030 NOSIG=
METAR ZGGG 110200Z 02002MPS 320V050 4500 HZ NSC 15/09 Q1026 NOSIG=
METAR ZSHC 110200Z 08001MPS 2500 -RA BR FEW010 BKN030 06/04
Q1032 NOSIG=
METAR ZSPD 110200Z 06007MPS 020V080 CAVOK 07/01 Q1032 NOSIG=
METAR ZSSS 110200Z 07004MPS 9999 -RA FEW023 OVC040 07/03 Q1032
 NOSIG=
METAR ZWSH 110200Z VRB03MPS 4500 FU NSC M09/M13 Q1034 NOSIG=
METAR ZWWW 110200Z 31002MPS 0400 R25/0800N FZFG BKN004 M23/M25 Q1036
NOSIG=
METAR ZYTL 110200Z 28004MPS 3000 BR NSC 02/M05 Q1032 NOSIG=
METAR ZYTX 110200Z 16002MPS 130V200 6000 NSC M06/M16 Q1031 NOSIG=

0000170300
066
SAUS74 KWBC 110200 RRA
METAR
KLMT 110153Z AUTO 00000KT 10SM BKN037 OVC065 04/01 A3016=
KLVM 110153Z AUTO 26023G28KT 10SM FEW080 03/M08 A2973=
KMFR 110153Z 00000KT 7SM FEW010 OVC055 07/05 A3015=
KMLS 110153Z AUTO 29013KT 10SM FEW055 SCT070 OVC100 03/M03
     A2961=
KMRY 110154Z 24003KT 5SM BR OVC002 11/10 A3019=
KMSO 110153Z 28005KT 10SM BKN060 BKN090 OVC110 02/M01 A2992=
KMYV 110153Z AUTO 00000KT 10SM CLR 11/05 A3018=
KNTD 110154Z 14003KT 7SM SCT220 14/12 A3004=
KOAK 110153Z 31003KT 10SM SCT250 12/07 A3019=
KOGD 110153Z 13003KT 10SM BKN060 OVC075 04/M03 A3009=
KOLM 110154Z 18010KT 5SM -RA BR FEW019 SCT028 OVC035 08/07
     A2985=
KONT 110153Z 24003KT 7SM FEW250 18/06 A3005=
KOTH 110155Z 00000KT 10SM OVC024 12/11 A3006=
KPAE 110153Z COR 16013KT 10SM FEW023 BKN032 OVC100 07/04 A2985=
KPAE 110153Z 16013KT 10SM BKN014 OVC044 07/04 A2985=
KPDX 110153Z 19013G17KT 10SM FEW020 BKN040 OVC070 11/07 A2998=
KPHX 110151Z 10004KT 10SM FEW250 16/M03 A3006=
KPIH 110153Z 21017KT 10SM BKN095 02/M03 A3006=
KPMD 110153Z AUTO 33012KT 10SM CLR 16/M03 A3010=
KPRB 110153Z AUTO 10008KT 10SM CLR 14/03 A3016=
KPRC 110153Z 21004KT 10SM CLR 06/M07 A3014=
KPSP 110153Z 00000KT 10SM CLR 18/M02 A3008=
KRBL 110154Z AUTO 00000KT 10SM CLR 12/03 A3019=
KRDD 110153Z 31003KT 10SM CLR 11/04 A3018=
KRDM 110156Z 19012G20KT 10SM OVC055 07/M04 A3001=
KRNO 110155Z 20004KT 10SM SCT180 OVC250 08/M01 A3022=
KRNT 110153Z 14003KT 9SM -RA SCT038 OVC049 08/07 A2988=
KSAC 110153Z AUTO 00000KT 10SM CLR 12/05 A3018=
KSAN 110151Z 00000KT 8SM FEW250 17/10 A3008=
KSBA 110153Z 00000KT 6SM BR CLR 15/13 A3005=
KSBD 110152Z 00000KT 7SM SKC 17/01 A3006=

0000097500
067
SAUS74 KWBC 110200 RRB
METAR
KSBP 110156Z 00000KT 10SM CLR 18/05 A3011=
KSCK 110155Z 00000KT 10SM CLR 12/07 A3019=
KSEA 110153Z 15008KT 10SM -RA SCT032 OVC046 08/05 A2988=
KSFF 110153Z 19005KT 10SM OVC090 05/01 A2994=
KSFO 110156Z 29010KT 10SM FEW007 BKN200 11/08 A3019=
KSHR 110153Z AUTO 32015KT 10SM OVC090 03/M06 A2967=
KSJC 110153Z 29005KT 10SM FEW200 SCT250 13/08 A3019=
KSLC 110153Z 13007KT 10SM BKN060 OVC075 04/M01 A3010=
KSMF 110153Z 00000KT 10SM SCT250 11/05 A3018=
KSMX 110151Z 31008KT 10SM CLR 14/08 A3010=
KSNA 110153Z 17003KT 6SM HZ FEW180 SCT250 16/11 A3006=
KSNS 110153Z 28007KT 8SM BKN005 11/09 A3018=
KTIW 110153Z 15003KT 9SM -RA BKN025 OVC032 08/06 A2987=
KTUS 110153Z 00000KT 10SM CLR 14/M06 A3011=
KTVL 110153Z AUTO 00000KT 10SM CLR 03/M03 A3025=
KTWF 110153Z 23011KT 10SM OVC050 04/M02 A3010=
KUKI 110156Z AUTO 00000KT 10SM CLR 12/02 A3018=
KYKM 110153Z 00000KT 10SM OVC075 10/01 A2991=
KYUM NIL=

0000008700
068
SAGR32 LGAT 110150 RRA
METAR LGEL 110150Z 00000KT CAVOK 08/06 Q1017=

0000014400
069
SACN62 CYXT 110200
METAR CYXT 110200Z 01007KT 10SM FEW005 SCT020 BKN040 OVC120 00/00
 A2948 RMK SF2SC1SC2AC3 PRESFR SLP993=

0000011900
070
SACN62 CYYC 110200
METAR CYYC 110200Z 36003KT 15SM FEW120 SCT220 M07/M10 A2964 RMK
 AC1CI3 SLP088=

0000011500
071
SACN62 CYXL 110200
METAR CYXL 110200Z 18006KT 2SM -SN BR OVC005 M07/M07 A2944 RMK ST8
 SLP997=

0000010600
072
SACN62 CYYE 110200
METAR CYYE 110200Z 32005KT 15SM SCT040 M17/M20 A2953 RMK SC3 SLP036=

00000000