0000011000
393
UANT99 KDDL 110357
ARP DLH411 5159N02024W 0357 F390 MS52 241/59 KT
DAIKN QXT EUA 110357 J94A
0000011000
394
UANT99 KDDL 110357
ARP AFR793 4435N01603W 0357 F370 MS63 266/77 KT
FGSQS QXT AOE 110357 F61A
0000011100
395
UANT99 KDDL 110357
ARP AAL100 5109N02840W 0357 F340 MS61 207/76 KT
N725AN DDL XXN 110357 F44A
0000011000
396
UANT99 KDDL 110357
ARP JAI227 4934N03235W 0357 F360 MS54 205/60 KT
VTJWT QXT AOW 110357 J76A
0000011000
397
UANT99 KDDL 110357
ARP AFL103 5444N04107W 0357 F330 MS58 285/22 KT
VQBPK QXT AME 110357 J23A
0000009300
398
SAYE20 OYGD 110400
METAR OYGD 110400Z 09020KT 9999 FEW025 BKN060 24/17 Q1017=
0000011100
399
UANT99 KDDL 110357
ARP BAW2036 4425N04327W 0357 F390 MS50 304/55 KT
GVIIR QXT AOE 110357 F41A
0000011000
400
UANT99 KDDL 110357
ARP BAW5CA 5144N03656W 0357 F340 MS55 230/27 KT
GVIIY QXT AOW 110358 F11A
0000011000
401
UANT01 CWAO 110354
ARP AAL42 4847N04123W 0354 F370 MS53 306/37 KT
N363AA DDL XXW 110354 F37A
0000011000
402
UANT01 CWAO 110354
ARP JAI229 5501N03854W 0354 F370 MS57 251/26 KT
VTJWS QXT AOW 110354 J28A
0000016300
403
SSVX13 LFPW 110400
ZZYY 13593 11014 0400/ 738174 018498 6113/ 22219 00169 33300 88872
 20000 43624 444 20130 11014 0400/ 50101 80118 80027 9/015=
0000016000
404
SSVX13 LFVW 110358
ZZYY 17572 11014 0400/ 537924 171831 6110/
11119 40145 54000
22219 00205
444 20100 11014 0356/ 50101 80110 80000 9/015=
0000029300
405
UAPA01 KWBC 110357
ARP ASA869 45N 153W 0348 F360B380 MS60 310/100KT TB OCNL LGT TURB=
ARP ASA870 35N 157W 0347 F370 MS57 020/010KT TB LGT TO MOD=
ARP ASA892 2133N 15128W 0350 F350 MS42 242/074KT TB SMTH=
ARP UAL1225 2957N 14023W 0353 F340 MS41 246/028KT TB CONS LGT CHOP=
0000011200
406
UANT01 CWAO 110354
ARP GTI8164 5258N05612W 0354 F360 MS65 285/69 KT
N465MC DDL YAY 110354 F49A
0000011000
407
UANT01 CWAO 110354
ARP AFL103 5434N04145W 0354 F330 MS58 303/28 KT
VQBPK QXT AME 110354 J22A
0000098000
408
SSVX07 KARS 110353
ZZYY 48733 11014 0340/ 772965 152381 6113/
11119 11255 40070
444 20130 11014 0345/ 504//=
ZZYY 48733 11014 0350/ 772965 152381 6113/
11119 11255
444 20130 11014 0345/ 504//=
ZZYY 48508 11014 0350/ 772725 159222 6113/
11119 11257 40105
444 20130 11014 0345/ 504//=
ZZYY 48507 11014 0340/ 773087 135106 6113/
11119 11314 49992
444 20130 11014 0346/ 504//=
ZZYY 48507 11014 0350/ 773087 135106 6113/
11119 11311 49991
444 20130 11014 0346/ 504//=
ZZYY 48731 11014 0300/ 774147 154956 6112/
11119 11221 40074 57014
444 20120 11014 0248/ 504//=
ZZYY 48731 11014 0350/ 774142 154959 6113/
11119 11225 40074
444 20130 11014 0345/ 504//=
ZZYY 48536 11014 0340/ 175233 148553 6111/
11119 11233
444 20110 11014 0346/ 504//=
ZZYY 48536 11014 0350/ 175233 148553 6111/
11119 11233
444 20110 11014 0346/ 504//=
ZZYY 48732 11014 0350/ 774507 131100 6112/
11119 11146 49920
444 20120 11014 0347/ 504//=
0000012200
409
SSVX12 KARS 110353
ZZYY 48600 11014 0330/ 173748 173969 6112/
11119 40225 57014
444 501// 80140 80000=
0000011000
410
UANT01 CWAO 110355
ARP UAL50 4903N04517W 0355 F340 MS62 328/68 KT
N68061 DDL XXW 110355 F42A
0000011100
411
UANT01 CWAO 110355
ARP BAW2036 4420N04358W 0355 F390 MS51 304/60 KT
GVIIR QXT AOE 110355 F40A
0000042900
412
SASD31 OEJD 110400
METAR OEDF 110400Z NIL=
METAR OEDR 110400Z 20013KT 8000 SCT040 BKN080 15/12 Q1018 NOSIG=
METAR OEJN 110400Z 04008KT 9999 FEW040 17/09 Q1017 NOSIG=
METAR OEMA 110400Z 34007KT CAVOK 11/01 Q1022 NOSIG=
METAR OERK 110400Z 17008KT 7000 SCT040 BKN080 11/09 Q1019 TEMPO 5000 RA=
METAR OYAA 110400Z 13014KT 9999 FEW018 SCT025 25/19 Q1017 NOSIG=
METAR OYSN 110400Z 19004KT CAVOK 10/04 Q1026=
00000000