0000026500
873
SAVN42 KWBC 101800 RRB
METAR
SVSE 101800Z NIL=
SVSO 101800Z 09005KT 9999 SCT023 31/22 Q1017=
SVSR 101800Z /////KT 9999 FEW016 BKN300 32/// Q1014=
SVTM 101800Z NIL=
SVVL 101800Z 02005KT 9999 SCT023 SCT100 29/14 Q1015=
SVVP 101800Z NIL=

0000010600
874
SAAF18 LFPW 101800 RRC
METAR FMEE 101807Z 12009KT 9999 FEW026 BKN300 26/23 Q1016 NOSIG=

0000010300
875
SAIN90 VOCB 110930 CCA
METAR COR VOCB 110930Z 11006KT 5000 HZ FEW015 29/16 Q1013 NOSIG=
0000010300
876
SAIN34 VOMM 110930 CCA
METAR COR VOCB 110930Z 11006KT 5000 HZ FEW015 29/16 Q1013 NOSIG=
0000010200
877
SAAB31 LATI 101820
METAR LATI 101820Z VRB02KT 9999 FEW030 BKN055 12/08 Q1022 NOSIG=

0000018700
878
FTCN36 CWAO 101800 AAA
TAF AMD CYAH 101816Z 1018/1022 21015G25KT 1SM -SN BLSN OVC020 TEMPO
     1018/1022 3SM -SN OVC030
    RMK NXT FCST WILL BE ISSUED AT 111145Z=

0000042000
879
SALY31 HLMC 101800
METAR HLLM 101750Z 12004KT 7000 NSC 15/11 Q1024=
METAR HLLT 101750Z 00000KT CAVOK 14/07 Q1024=
METAR HLGD 101800Z NIL=
METAR HLGT 101800Z NIL=
METAR HLJA 101800Z NIL=
METAR HLKF 101800Z NIL=
METAR HLKM 101800Z NIL=
METAR HLLB 101800Z NIL=
METAR HLLS 101800Z NIL=
METAR HLMI 101800Z NIL=
METAR HLNT 101800Z NIL=
METAR HLON 101800Z NIL=
METAR HLTD 101800Z NIL=

0000115500
880
FASP42 LEMM 101700 CCA
LECB GAMET VALID 102100/110300 LEMM-
LECB BARCELONA FIR BLW FL150
SECN I
SFC VIS: 1000-3000 M BR/BCFG VAL EBRO
         3000-5000 M BR E MURCIA AND LOC COT COMUNIDAD VALENCIANA
AND S CATALUNA AND MAR VCY
SIG CLD: OVC ST 005-010/015-020 HFT AGL VAL EBRO
TURB: MOD 060/090 HFT AMSL E MURCIA, ALICANTE AND VALENCIA
SECN II
PSYS: 00 L 1014 HPA GOLFO DE CADIZ EXTD 1016 PENINSULA IBERICA
AND BALEARES STNR WKN
CLD:  BKN SC 020/040 HFT AMSL E MURCIA AND LOC COT COMUNIDAD
VALENCIANA
AND COT S CATALUNA AND MAR VCY
      BKN AC AS 130-140/ABV 150 HFT AMSL W OF E002 S OF N41 AND
NE CATALUNA
WND/T:    BARCELONA      P.MALLORCA     MURCIA
       -------------- -------------- --------------
020HFT 142/008KT PS08 159/009KT PS12 063/008KT PS08
050HFT 199/012KT PS08 202/012KT PS10 236/021KT PS09
100HFT 209/021KT MS01 214/017KT PS00 199/033KT MS02
150HFT 211/024KT MS12 207/027KT MS12 209/022KT MS12
200HFT 206/026KT MS23 203/028KT MS22 196/031KT MS24
300HFT 219/056KT MS46 214/051KT MS45 203/057KT MS46
FZLVL:   95 HFT AMSL   102 HFT AMSL    90 HFT AMSL
MNM QNH:1015 HPA=

0000011700
881
SPCN51 CWAO 101816
SPECI CZCP 101816Z AUTO 29020KT 2 3/4SM CLR M28/ A2936 RMK VSBY VRBL
1.8V5.0=

0000163200
882
SPUS70 KWBC 101816
SPECI
KAHN 101812Z 06006KT 1 1/4SM -RA BR OVC005 07/06 A3019 RMK AO2
     P0001=
KAUG 101812Z AUTO VRB03KT 3SM -SN BKN034 BKN049 OVC055 M06/M09
     A3036 RMK AO2 P0000 T10611094=
KEEO 101812Z AUTO 11005KT 3SM -SN BKN030 BKN041 OVC048 M07/M09
     A2994 RMK AO2 P0000 T10671094=
KELD 101812Z AUTO 16009KT 3SM -RA BR OVC004 12/12 A2991 RMK AO2
     P0000 T01170117 TSNO=
KFCI 101813Z AUTO 00000KT 1 3/4SM OVC004 03/M02 A3035 RMK AO1
     P0001=
KHIB 101812Z AUTO 17006KT 2 1/2SM BR OVC005 M06/M07 A2959 RMK
     AO2=
KMHT 101812Z 00000KT 1/2SM R35/2800V4500FT SN FZFG VV013 M03/M04
     A3036 RMK AO2 P0001 T10281044=
KMSP 101812Z 15011KT 4SM BR OVC006 M03/M03 A2968 RMK AO2 FZDZE12
     P0000=
KOXB 101812Z AUTO 03005KT 3SM BR BKN003 OVC035 05/04 A3036 RMK AO2
     T00500039 TSNO=
KPIT 101812Z 18008KT 10SM BKN008 OVC026 06/04 A3018 RMK AO2=
PAJZ 101816Z AUTO 00000KT 7SM OVC002 M07/M07 A2953 RMK AO2 PWINO
     TSNO $=
PASC 101812Z 24011KT 10SM BKN022 OVC030 M31/M34 A2989 RMK AO2=
KMTO 101813Z AUTO 16011KT 5SM HZ OVC009 03/M01 A2989 RMK AO2 CIG
     006V011 T00331006 TSNO=
KAOH 101813Z AUTO 16010KT 2 1/2SM BR OVC005 03/02 A3006 RMK AO2
     PNO $=
KBAZ 101813Z 21009KT 8SM -RA BKN006 BKN015 OVC031 18/18 A2987 RMK
     AO2 P0000=
KDFI 101813Z AUTO 16006KT 3SM BR SCT006 OVC016 03/01 A3004 RMK AO2
     PRESFR=
KITR 101813Z AUTO 33020G40KT 1 3/4SM -SN BKN026 OVC040 M01/M05
     A2967 RMK AO2 PK WND 33040/1808 SNE1756B10 P0000
     T10061050=
KLGA 101813Z 07004KT 4SM BR FEW007 BKN010 OVC032 00/M02 A3039 RMK
     AO2=

0000009500
883
SPUS31 KWBC 101816
SPECI
KMSP 101812Z 15011KT 4SM BR OVC006 M03/M03 A2968=

0000009800
884
SPUS31 KWBC 101816
SPECI
KPIT 101812Z 18008KT 10SM BKN008 OVC026 06/04 A3018=

0000009700
885
SPUS31 KWBC 101816
SPECI
KSFO 101812Z 03003KT 9SM SCT006 BKN200 12/09 A3031=

0000013600
886
SPUS41 KWBC 101816
SPECI
KBDL 101812Z 00000KT 2 1/2SM R06/6000VP6000FT -SN BR FEW009 BKN015
OVC032 M02/M04 A3038=

0000012800
887
SAAG41 KWBC 101800 RRA
METAR
SARL 101800Z 16022KT 9999 TS SCT015 FEW045CB BKN100 BKN200 26/22
     Q1008=

0000006700
888
SASA31 KWBC 101800 RRB
METAR
SVBC 101800Z NIL=

0000084400
889
SAVN21 SVMR 101800
METAR SVJC 101800Z AUTO 08015KT 9999 FEW013 32/17 Q1012=
METAR SVLO 101800Z NIL=
METAR SVGI 101800Z NIL=
METAR SVMN 101800Z 25003KT 9999 FEW020 34/24 Q1010=
METAR SVVL 101800Z 02005KT 9999 SCT023 SCT100 29/14 Q1015=
METAR SVGU 101800Z 05007KT 9999 FEW020 33/18 Q1012=
METAR SVJM 101800Z /////KT 9999 FEW020 32/// Q1012=
METAR SVCZ 101800Z NIL=
METAR SVVP 101800Z NIL=
METAR SVVG 101800Z 25003KT 9999 SCT013 32/// Q1010=
METAR SVMD 101800Z 20006KT 9999 SCT027 SCT300 24/17 Q1020=
METAR SVCL 101800Z NIL=
METAR SVSA 101800Z /////KT 9999 FEW020 32/18 Q1013=
METAR SVGD 101800Z 05008KT 9999 SCT023 33/19 Q////=
METAR SVSR 101800Z /////KT 9999 FEW016 BKN300 32/// Q1014=
METAR SVTM 101800Z NIL=
METAR SVPA 101800Z /////KT 9999 SCT013 BKN300 33/14 Q1010=
METAR SVSE 101800Z NIL=

0000075000
890
FTUS80 KWBC 101818 AAA
TAF AMD
KCLE 101816Z 1018/1124 17008KT P6SM OVC012
      TEMPO 1018/1022 5SM BR BKN009
     FM110300 16014KT 3SM -RA BR OVC010 WS015/19045KT
     FM111600 22008KT 2SM BR OVC006
     FM112100 25016G22KT 5SM BR OVC008=
KGON 101815Z 1018/1118 VRB03KT 2SM -RA BR BKN015 OVC025
     FM102000 VRB04KT 3SM BR BKN015 OVC025
     FM110600 14004KT 2SM -RA BR BKN007 OVC015
     FM110900 15008KT 1SM -RA BR OVC004 WS020/19050KT
     FM111400 16011KT 1SM -RA BR OVC004 WS020/19055KT=
KUIN 101815Z 1018/1118 15010KT 3SM -RA BR OVC004
      TEMPO 1019/1020 2SM -TSRA BR OVC004CB
     FM110000 19011KT 4SM BR OVC007
     FM110600 26012KT 5SM BR OVC008
     FM111500 26012KT P6SM SCT015 BKN250=

0000021900
891
FTCN37 CWAO 101800 AAA
TAF AMD CWSA 101818Z 1018/1101 27012KT P6SM BKN025 TEMPO 1018/1101
     P6SM -SHSN BKN020
     BECMG 1018/1020 26017KT
    RMK FCST BASED ON AUTO OBS. NXT FCST BY 102000Z=

0000027600
892
FTCN36 CWAO 101800 AAA
TAF AMD CYVP 101819Z 1018/1106 26015G25KT 3SM -SN OVC030 TEMPO
     1018/1021 11/2SM -SN BLSN BKN020
    FM102100 26015KT P6SM OVC030 TEMPO 1021/1024 5SM -SN BKN020
    FM110200 26008KT P6SM SCT030
    RMK NXT FCST BY 110000Z=

00000000