0000015700
933
SSVX13 LFPW 110500
ZZYY 61687 11014 0500/ 144695 029810 6113/ 11119 40218 52024 22219
 00076 444 20131 11014 0457/ 50101 80090 80013 9/015=
0000009200
934
SAIN90 VEBS 110430
METAR VEBS 110430Z 09003KT 2000 HZ NSC 25/18 Q1017 NOSIG=
0000009600
935
SAIN90 VAID 110500
METAR VAID 110500Z 05008KT 1500 BR SCT005 SCT015 15/12 Q1019=
0000015700
936
SSVX13 LFPW 110500
ZZYY 62714 11014 0500/ 734326 021734 6113/ 11119 40143 57012 22219
 00192 444 20130 11014 0457/ 50101 80100 80000 9/015=
0000015700
937
SSVX13 LFPW 110500
ZZYY 62687 11014 0500/ 166054 001479 6113/ 11119 40053 57006 22219
 00075 444 20130 11014 0457/ 50101 80098 80000 9/015=
0000060800
938
SAIR32 OIII 110500
METAR OIAA 110500Z 11006KT 1800 BR SCT040 BKN100 13/12 Q1018=
METAR OIBK 110500Z 07012KT 6000 -RA FEW030CB SCT025 OVC080 13/09
Q1021=
METAR OICC 110500Z 10008KT 4000 BR FEW035CB SCT040 OVC080
M01/M03 Q1019 A3011 NOSIG=
METAR OIGG 110500Z VRB02KT 2500 BR FEW015CB BKN025
BKN090 02/02 Q1018=
METAR OIIE 110500Z 27004KT 9999 FEW040 SCT100 BKN180 M01/M05
Q1022 A3018 NOSIG=
METAR OITR 110500Z 27004KT 2500 BR SCT035 BKN140 M12/M14 Q1021
NOSIG=
METAR OIYY 110500Z 12004KT 9999 FEW030 OVC100 02/M02 Q1022=
METAR OAKN 110500Z NIL=
METAR OAKB 110500Z NIL=
0000023400
939
FTSD31 OEJD 110500 RRA
TAF OYSN 110400Z 1106/1212 04012KT 8000 SCT030 SCT060 TEMPO 1110/1118

                 22008G18KT 5000 BLDU FEW025CB BKN030
                 BECMG 1120/112 VRB03KT BECMG 1206/1208 04012KT=
0000010600
940
SAER41 OMAM 110457 RRF
METAR OMAM 110500Z 15008KT 9999NDV FEW040 BKN100 17/09 Q1020 A3014=
0000178100
941
UDAS02 BABJ 110456
AMDAR 1104
DES CNFOZL 3551N 12054E 110449 F107 MS130 275/018 TB/ S//1=
DES CNFOZL 3555N 12051E 110450 F097 MS123 273/016 TB/ S//1=
DES CNFOZL 3559N 12047E 110451 F086 MS108 284/015 TB/ S//1=
DES CNFOZL 3602N 12044E 110452 F076 MS094 295/014 TB/ S//1=
ASC CNFPYM 3646N 11643E 110451 F180 MS270 264/034 TB/ S//1=
ASC CNFPYM 3646N 11639E 110452 F199 MS288 265/052 TB/ S//1=
ASC CNFPYM 3645N 11635E 110452 F221 MS331 262/072 TB/ S//1=
ASC CNFPYM 3644N 11631E 110453 F235 MS375 263/068 TB/ S//1=
DES CNFOZM 1826N 10914E 110451 F070 PS068 034/000 TB/ S//1=
DES CNFOZM 1823N 10912E 110452 F056 PS095 019/008 TB/ S//1=
DES CNFOZM 1822N 10910E 110453 F050 PS109 029/010 TB/ S//1=
DES CNFOZM 1821N 10909E 110453 F045 PS123 035/011 TB/ S//1=
DES CNFPXL 2532N 10322E 110452 F141 MS050 281/055 TB/ S//1=
DES CNFPXL 2530N 10319E 110452 F134 MS033 275/054 TB/ S//1=
DES CNFPXL 2529N 10318E 110453 F130 MS031 277/049 TB/ S//1=
DES CNFPXL 2526N 10314E 110454 F119 MS025 260/035 TB/ S//1=
LVR CNFNXQ 3634N 11529E 110452 F236 MS366 266/074 TB/ S//1=
LVR CNFNXQ 3633N 11526E 110453 F236 MS365 267/073 TB/ S//1=
LVR CNFNXQ 3633N 11522E 110453 F236 MS365 267/074 TB/ S//1=
LVR CNFNXQ 3633N 11518E 110454 F236 MS365 268/074 TB/ S//1=
DES CNFLWN 2619N 10645E 110452 F067 MS026 061/002 TB/ S//1=
DES CNFLWN 2621N 10646E 110453 F066 MS030 039/008 TB/ S//1=
DES CNFLWN 2622N 10646E 110453 F065 MS033 040/011 TB/ S//1=
DES CNFLWN 2625N 10647E 110454 F056 MS026 026/013 TB/ S//1=
LVR CNFPYM 3644N 11627E 110453 F236 MS378 264/068 TB/ S//1=
LVR CNFPYM 3643N 11625E 110454 F236 MS378 264/067 TB/ S//1=
LVR CNFPYM 3643N 11623E 110454 F236 MS378 263/067 TB/ S//1=
LVR CNFPYM 3642N 11619E 110454 F236 MS378 263/067 TB/ S//1=
0000012800
942
SNRE15 FMEE 110500
AAXX 11054
61996 26/// /2517 10177 20093 30186 40221 53002
  333 60005 91029 90710 91129=
0000011100
943
UANT99 KDDL 110503
ARP UAL101 5359N01542W 0503 F380 MS52 238/47 KT
N14120 DDL BLY 110503 F03A
0000019600
944
SAJD20 OJAI 110500
METAR OJAI 110500Z 27006KT 2500 BR SCT200 08/07 Q1022 NOSIG=
METAR OJAM 110500Z VRB02KT 0900 DZ FG BKN012 BKN030 06/05 Q1022
NOSIG=
METAR OJAQ 110500Z NIL=
0000024400
945
SNVD15 KWNB 110500 RRD
BBXX
41009 11051 99285 70802 46/// /1507 10244 20211 40198 58011 90450
22200 00241 10904 20502 308// 40903 70018 333 91209 555 11077
22083 30448 41509 60449 151071 152068 149065 151064 152064 155067=
0000043900
946
SNVD22 KWNB 110500 RRF
BBXX
46069 11051 99337 71202 46/// /3210 10145 40180 52014 90450 22200
00142 11405 20603 3//// 41404 70026 333 91212 555 11108 22116
30403 43213 60449 320100 322102 324098 324099 323103 323102=
46088 11051 99483 71232 46/// /1506 10075 20059 40016 56053 90450
22200 00074 10403 20403 326// 40901 70013 333 91208 555 11067
22072 30412 41314 60449 151064 148074 133107 132116 132114 131110=
0000031900
947
SNVE15 KWNB 110500 RRA
BBXX
51004 11051 99175 71524 46/// /1008 10248 40126 51015 90450 22200
00250 11505 20602 333// 41504 70025 333 91209 555 11080 22085
30409 42810 60449 104075 279077 277072 278079 278083 277079=
51100 11051 99236 71539 46/// /0809 10236 40156 52015 90450 555
11098 22105=
0000069400
948
SNVD19 KWNB 110500 RRA
BBXX
46126 11051 99540 71666 46/// /1903 10042 49829 90436 22200 00045
1//00 70001 333 91204 555 11035 22038=
46126 11051 99540 71666 46/// /1903 10042 49829 90440 22200 00045
1//00 70001 333 91204 555 11035 22038=
46126 11051 99540 71666 46/// /1903 10042 49829 90442 22200 00045
1//00 70001 333 91204 555 11033 22035=
46126 11051 99540 71666 46/// /1903 10037 49827 90445 22200 00045
1//00 70001 333 91204 555 11033 22035=
46078 11051 99560 71526 46/// /2307 10037 20016 49962 58011 90450
22200 00045 11004 20602 322// 41004 70022 333 91209 555 11074
22078 30412 42212 60449 222064 209036 204046 215078 230064 230057
82210 90412=
0000024400
949
SNVD17 KWNB 110500 RRE
BBXX
51101 11051 99243 71621 46/// /0614 10224 20191 40157 51010 90450
22200 00237 11110 20707 304// 41107 70048 333 91216 555 11144
22154 30424 40519 60449 056136 054138 053144 053139 056135 048133=
0000022600
950
SNVD20 KWNB 110500 RRD
BBXX
44013 11051 99423 70707 46/// /1504 10039 20039 40254 58023 90450
22200 00046 10901 70003 333 91204 555 11037 22038 30447 41504
60449 154035 159033 147029 143023 146021 135019=
0000019600
951
SAJD20 OJAM 110500
METAR OJAI 110500Z 27006KT 2500 BR SCT200 08/07 Q1022 NOSIG=
METAR OJAM 110500Z VRB02KT 0900 DZ FG BKN012 BKN030 06/05 Q1022
NOSIG=
METAR OJAQ 110500Z NIL=
0000053800
952
SAIR33 OIII 110500
METAR OIBB 110500Z 12008KT 9999 -RA FEW030CB SCT040 OVC090 15/07
Q1019 A3009=
METAR OIBP 110500Z NIL=
METAR OICK 110500Z 12004KT 9999 FEW010 FEW030CB SCT040 OVC080 01/01
Q1020=
METAR OICS 110500Z 18002KT 3500 BR FEW020 SCT035 BKN080 M04/M04
Q1020=
METAR OIHH 110500Z 00000KT 2000 BR SCT035 OVC100 M09/M10
Q1021=
METAR OINZ 110500Z 15004KT CAVOK 03/01 Q1019=
METAR OISR 110500Z 09008KT 5000 -RA FEW030CB SCT035 OVC080 11/10
Q1022=
METAR OITL 110500Z NIL=
METAR OIZC 110500Z NIL=
00000000