0000010000
233
SPUS41 KWBC 110209
SPECI
KMDT 110205Z 00000KT 1/2SM -DZ FG OVC002 01/M01 A3024=

0000010300
234
SPUS43 KWBC 110209
SPECI
KAPN 110206Z AUTO 14008KT 3SM FZRA BR OVC003 00/00 A2976=

0000011200
235
SPUS43 KWBC 110209
SPECI
KDSM 110205Z 30006KT 1SM R31/P6000FT BR BKN003 OVC009 01/00 A2955=

0000055500
236
SABZ41 KWBC 110200
METAR
SBAA NIL=
SBAF NIL=
SBAR 110200Z 11011KT 9999 SCT015 26/22 Q1013=
SBBG NIL=
SBBH NIL=
SBBI NIL=
SBBU NIL=
SBCJ NIL=
SBCO NIL=
SBCR NIL=
SBCT 110200Z 02003KT 9999 FEW010 20/17 Q1018 RETS=
SBCV NIL=
SBCY 110200Z 10002KT 9999 FEW020 BKN100 23/20 Q1011=
SBCZ NIL=
SBDN NIL=
SBFL 110200Z 02002KT 9999 TS FEW011 SCT030 FEW035CB 27/24
     Q1013=
SBFN NIL=
SBGO 110200Z 26004KT 9999 -TSRA SCT030 FEW035CB OVC080 20/18 Q1
     017=
SBGW NIL=
SBHT NIL=
SBIH NIL=
SBIL NIL=

0000082200
237
SABZ42 KWBC 110200
METAR
SBJR NIL=
SBLO 110200Z 18001KT CAVOK 26/20 Q1014=
SBMA 110200Z 20001KT 9999 VCTS FEW020CB BKN080 24/24 Q1011=
SBME NIL=
SBMN 110200Z 12006KT 4000 -RA BKN005 BKN100 23/22 Q1013 RERA=
SBMO 110200Z 09003KT 9999 SCT020 24/22 Q1014=
SBMQ 110200Z 02005KT 9999 SCT040 BKN070 26/23 Q1011=
SBMT NIL=
SBPC NIL=
SBPK NIL=
SBPP NIL=
SBPV 110200Z 31002KT 8000 -RA VCTS SCT015 FEW025CB BKN070 24/23
     Q1010=
SBRB 110200Z 00000KT 9999 FEW017 BKN100 ///// Q1011=
SBRJ NIL=
SBSC NIL=
SBSJ 110200Z 15003KT 9999 FEW025 22/16 Q1016=
SBSM NIL=
SBSP 110200Z 04003KT CAVOK 24/18 Q1018=
SBST NIL=
SBTE 110200Z 02003KT 9999 FEW020 BKN070 26/22 Q1011=
SBTU NIL=
SBUG NIL=
SBUR NIL=
SBVH NIL=
SBVT 110200Z 00000KT 9999 FEW018 25/23 Q1016=
SBYS NIL=

0000094100
238
SAAK32 KWBC 110200
METAR
PABA 110201Z AUTO 27020KT 3/4SM -SN BR BKN019 OVC024 M24/M27
     A2983=
PABI 110153Z 00000KT 4SM -SN BR BKN033 BKN050 BKN080 M17/M19
     A2948=
PACZ 110155Z AUTO 03014G26KT 10SM -SHSN FEW014 BKN034 M09/M10
     A2939=
PADK 110156Z AUTO 21030G36KT 10SM FEW034 BKN043 OVC095 04/M02
     A2881=
PADL NIL=
PADQ 110153Z 00000KT 10SM FEW040 SCT250 M01/M05 A2941=
PAEH 110155Z AUTO 12014KT 2SM BR OVC003 M01/M01 A2933=
PAFB 110155Z 00000KT 7SM SCT100 M31/M33 A2958=
PAGA 110158Z AUTO 00000KT 10SM CLR M28/M32 A2968=
PAIM 110155Z AUTO VRB02KT 10SM CLR M23/M26 A2956=
PALU 110155Z AUTO 06007KT 10SM OVC011 M19/M20 A3000=
PASV 110155Z AUTO 28003KT 10SM -SN OVC007 M12/M13 A2936=
PASY 110155Z AUTO 35022G31KT 4SM -SN BR OVC015 00/M01 A2881=
PATC 110155Z AUTO 02029G32KT 1SM BR VV002 M18/M19 A2972=
PATL 110155Z AUTO 10003KT 10SM -SHSN OVC006 M17/M18 A2952=
PBTI NIL=

0000052900
239
SABZ43 KWBC 110200
METAR
SBAN NIL=
SBAT NIL=
SBBA NIL=
SBBQ NIL=
SBBW NIL=
SBCC NIL=
SBER NIL=
SBES NIL=
SBGA NIL=
SBIZ NIL=
SBJF NIL=
SBJP 110200Z 15003KT 9999 SCT020 24/21 Q1014=
SBKG NIL=
SBLB NIL=
SBLP NIL=
SBMK NIL=
SBMS NIL=
SBMZ NIL=
SBPB 110200Z 09013KT 9999 SCT017 28/24 Q1011=
SBPJ NIL=
SBPL 110200Z 07001KT 9999 FEW023 24/22 Q1013=
SBPN NIL=
SBQV NIL=
SBRP 110200Z 02002KT CAVOK 21/20 Q1015=
SBTF NIL=
SBTK NIL=
SBUF NIL=
SBUI NIL=
SBUL NIL=

0000060100
240
SACA31 KWBC 110200
METAR
MBJT NIL=
MBPV NIL=
MBSC NIL=
MKJP 110200Z 07007KT 9999 FEW024 27/20 Q1016=
MKJS 110200Z 26002KT 9999 FEW022 26/21 Q1016=
MUCM 110151Z 08008KT 9000 FEW020 21/18 Q1019=
MUCU 110151Z 36003KT 9000 FEW020 23/20 Q1018=
MUHA 110155Z VRB02KT 9000 FEW040 20/19 Q1018=
MUVR 110150Z 07006KT 040V100 8000 FEW020 24/22 Q1019=
MWCB NIL=
MWCR 110200Z 10004KT 9999 SKC 26/23 Q1016 NOSIG=
MYAM NIL=
MYAT NIL=
MYBS NIL=
MYEC NIL=
MYEG NIL=
MYEH NIL=
MYEM NIL=
MYGF NIL=
MYGW NIL=
MYNN 110200Z 14005KT 9999 FEW018 SCT040 24/22 A3013=

0000083900
241
SACA32 KWBC 110200
METAR
MDLR NIL=
MDPC 110200Z 10015KT 9999 FEW020 25/21 Q1019=
MDPP NIL=
MDSD 110200Z 03005KT 9999 FEW018 22/20 Q1018=
MDST 110200Z 13006KT 9999 BKN016 22/21 Q1020=
MTCH NIL=
MTPP NIL=
TAPA 110200Z 08011KT 9999 SCT019 25/20 Q1018 NOSIG=
TIST 110153Z AUTO 08008KT 10SM CLR 24/18 A3010 RMK AO2 SLP192
     T02440183 TSNO=
TISX 110153Z AUTO 06007KT 10SM CLR 23/19 A3010 RMK AO2 RAB06E19
     SLP190 P0000 T02330189 TSNO=
TJBQ NIL=
TJMZ NIL=
TJNR 110153Z AUTO 06007G14KT 10SM FEW070 26/18 A3013 RMK AO2
     SLP203 T02560178 TSNO=
TJPS 110150Z 11005KT 8SM FEW030 24/19 A3008=
TJSJ 110156Z 08012KT 10SM FEW035 SCT045 26/18 A3011 RMK AO2 SLP196
     T02560183 $=
TKPK 110200Z 07015KT 9999 SCT020 25/19 Q1018=
TKPN NIL=
TQPF NIL=
TRPM NIL=
TUPJ NIL=
TUPW NIL=

0000081800
242
SACA35 KWBC 110200
METAR
MGGI NIL=
MGPB 110200Z 00000KT 9999 BKN017 23/22 Q1014 A2994=
MGSJ 110200Z 00000KT CAVOK 24/22 Q1012 A2988=
MHLC 110200Z 00000KT 9999 SCT024 BKN070 23/21 Q1014 A2995
     NOSIG=
MHLM 110200Z 35003KT 9999 FEW026 23/23 Q1014 A2994 NOSIG=
MHTG 110200Z 01004KT 8000 VCSH BKN026 20/16 Q1018 A3006 BECMG 7000
     -DZ=
MNPC NIL=
MPBO 110200Z 00000KT 9999 FEW020 BKN090 Q1014=
MPCH NIL=
MPDA 110200Z 00000KT CAVOK Q1008=
MPMG 110200Z 33005KT 9999 FEW020 26/23 Q1011 NOSIG=
MPSA NIL=
MPTO NIL=
MRLB 110200Z 10007KT CAVOK 26/18 A2983=
MRLM NIL=
MROC 110200Z 10010G20KT 9999 FEW030 21/13 A3000 NOSIG=
MRPV NIL=
MSLP 110150Z 34004KT 230V020 CAVOK 25/19 Q1011 A2986=
MSSS 110150Z 18002KT CAVOK 22/18 Q1014 A2997=
MSSS 110150Z NIL=
MZBZ NIL=

0000054700
243
SACA41 KWBC 110200
METAR
MKBK NIL=
MUBA NIL=
MUBY NIL=
MUCA NIL=
MUCL 110151Z 11003KT 9000 FEW018 25/22 Q1017=
MUCM 110151Z 08008KT 9000 FEW020 21/18 Q1019=
MUCU 110151Z 36003KT 9000 FEW020 23/20 Q1018=
MUGM 110156Z 33004KT 9999 FEW030 24/19 A3006 RMK SLP179
     T02390189=
MUGT NIL=
MUHA 110155Z VRB02KT 9000 FEW040 20/19 Q1018=
MUMO NIL=
MUMZ NIL=
MUNG NIL=
MUVR 110150Z 07006KT 040V100 8000 FEW020 24/22 Q1019=
MUVT NIL=
MYEF NIL=
MYSM NIL=
TABS NIL=
TAOA NIL=
TBBI NIL=
TDCF NIL=

0000004200
244
SAHA31 KWBC 110200
NIL=

0000077100
245
SAJP31 KWBC 110200
METAR
RJAA 110200Z 32006KT 270V010 9999 FEW030 05/M08 Q1024 NOSIG=
RJAH 110200Z 01004KT 300V060 9999 FEW030 06/M08 Q1023=
RJCC 110200Z 13004KT 110V170 9999 -SHSN FEW020 SCT035 BKN050
     M06/M13 Q1018=
RJCH 110200Z 27015KT 5000 -SHSN FEW005 SCT012 BKN025 M05/M08
     Q1019=
RJFK 110200Z 35009KT 310V020 9999 FEW035 07/M03 Q1029=
RJFT 110200Z VRB02KT 9999 FEW040 06/M03 Q1030=
RJFU 110200Z 13005KT 9999 FEW035 SCT045 BKN070 06/01 Q1031=
RJNN NIL=
RJOO 110200Z VRB02KT 9999 FEW030 05/M06 Q1029=
RJSS 110200Z 28014KT 260V320 9999 FEW020 04/M08 Q1023=
RJTT 110200Z 06004KT 030V090 9999 FEW030 05/M05 Q1024 BECMG
     12005KT=
RODN 110158Z AUTO 07014KT 10SM CLR 18/08 A3035 RMK AO2 SLP285
     T01780083=

0000067400
246
SAJP42 KWBC 110200
METAR
RJDK NIL=
RJDM NIL=
RJDO NIL=
RJDT 110200Z 33009KT 290V040 9999 SCT035 04/M05 Q1032=
RJEB 110200Z 30003KT 2300 -SHSN FEW003 BKN004 BKN020 M08/M11
     Q1014=
RJEC 110200Z 25009KT 9999 VCSH FEW007 BKN050 M07/M14 Q1013=
RJEO NIL=
RJER NIL=
RJFA NIL=
RJFC NIL=
RJFE NIL=
RJFG 110200Z 31008KT 250V350 9999 FEW025 SCT/// 10/02 Q1029=
RJFM 110200Z VRB03KT CAVOK 09/M05 Q1030=
RJFN NIL=
RJFO 110200Z 34009KT 9999 FEW030 07/01 Q1030=
RJFR 110200Z 05007KT 9999 -SHRA FEW025 SCT030 BKN040 04/00
     Q1031=
RJFY NIL=
RJFZ NIL=
RJKA 110200Z 03010KT 9999 FEW030 SCT040 BKN050 14/05 Q1029=
RJKB NIL=

0000071700
247
SAJP41 KWBC 110200
METAR
RJAF 110200Z 32003KT 270V350 9999 VCSH FEW025 SCT050 M03/M10
     Q1022=
RJAI NIL=
RJAK NIL=
RJAM NIL=
RJAO NIL=
RJAT NIL=
RJAW NIL=
RJBD 110200Z 33011KT 9999 FEW025 SCT035 07/M02 Q1028=
RJCA NIL=
RJCB 110200Z 30004KT 240V030 9999 FEW040 SCT050 BKN060 M06/M18
     Q1014=
RJCJ NIL=
RJCK 110200Z 26011KT 210V300 9999 FEW035 SCT045 M05/M18 Q1014=
RJCM 110200Z 14003KT 110V180 9999 FEW030 M10/M14 Q1014=
RJCN 110200Z 24006KT 9999 FEW035 BKN050 M08/M14 Q1014=
RJCO NIL=
RJCR NIL=
RJCT NIL=
RJCW 110200Z 27018KT 0700 R08/0700VP1800D SHSN BLSN VV007 M10/M18
     Q1013=
RJDB NIL=
RJDC 110200Z VRB03KT 9999 FEW020 SCT030 05/M02 Q1031=

0000064000
248
SAJP44 KWBC 110200
METAR
RJOS NIL=
RJOT 110200Z 29013KT 9999 FEW025 SCT035 05/M04 Q1029=
RJOY 110200Z 25013KT 210V280 9999 FEW015 SCT030 06/M01 Q1029=
RJOZ NIL=
RJSA 110200Z 24016KT 5000 -SHSN FEW003 SCT008 BKN015 M05/M07
     Q1020=
RJSC 110200Z 21005KT 180V250 6000 -SHSN FEW003 SCT015 BKN025
     M01/M04 Q1023=
RJSD NIL=
RJSH NIL=
RJSI 110200Z VRB02KT 5000 -SHSN FEW010 SCT025 BKN030 M03/M04
     Q1022=
RJSO NIL=
RJST NIL=
RJSU NIL=
RJTA NIL=
RJTC NIL=
RJTE NIL=
RJTF 110200Z 26003KT 180V340 9999 FEW040 05/M10 Q1024=
RJTH NIL=
RJTI 110200Z VRB02KT 9999 FEW030 06/M08 Q1024=

0000068300
249
SAJP43 KWBC 110200
METAR
RJKI NIL=
RJKN NIL=
RJNF NIL=
RJNG NIL=
RJNH NIL=
RJNO NIL=
RJNT 110200Z 19004KT 150V220 9999 -SHSN FEW005 BKN025 02/M01
     Q1027=
RJNY NIL=
RJOA 110200Z 28008KT 240V310 9999 FEW025 SCT030 04/M05 Q1028=
RJOB 110200Z 27008KT 240V330 9999 FEW025 05/M03 Q1028=
RJOC 110200Z 25013KT 9999 FEW030 BKN050 06/M02 Q1029=
RJOE NIL=
RJOF NIL=
RJOI 110155Z 28009KT 9999 FEW025 06/M02 A3041 RMK SLP300
     T00611017=
RJOK 110200Z 21005KT 180V260 9999 FEW040 07/M03 Q1029=
RJOM 110200Z 29008KT 9999 FEW025 SCT035 07/M03 Q1030=
RJOP NIL=
RJOR 110200Z 23012KT 8000 -SHRA FEW010 SCT020 BKN035 03/M00
     Q1029=

0000025900
250
SAJP45 KWBC 110200
METAR
RJTJ NIL=
RJTK NIL=
RJTL NIL=
RJTO 110200Z VRB03KT 9999 FEW030 08/M02 Q1023=
RJTQ NIL=
RJTR NIL=
RJTU NIL=
RJTX NIL=
RJTY 110158Z AUTO VRB02KT 10SM CLR 06/M08 A3027 RMK AO2 SLP262
     T00621077=

0000123400
251
SASA31 KWBC 110200
METAR
SEGU 110200Z 21011KT 9999 BKN020 BKN090 27/22 Q1010 RMK A2983
     NOSIG=
SEQU NIL=
SKBO 110200Z 00000KT 7000 HZ BKN015 12/11 A3029=
SKBQ 110200Z 03011KT CAVOK 26/23 A2983=
SKCG 110200Z 002010KT CAVOK 26/23 A2983=
SKCL 110200Z 36004KT 9999 FEW020 SCT120 23/19 A2995=
SKLT NIL=
SKRG 110200Z 07004KT 8000 VCFG SCT010 SCT080 16/15 A3025 REDZ RMK
     VCFG/E/S=
SKSP 110200Z 08012KT 9999 SCT018 27/24 A2991=
SMNI NIL=
SMZO 110200Z NIL=
SMZY NIL=
SOCA 110200Z AUTO VRB01KT 9999 BKN002 BKN070 BKN086 23/22
     Q1012=
SPIM 110200Z 15013KT CAVOK 22/19 Q1012 NOSIG RMK SCT170 PP000=
SPQT 110200Z 00000KT 9999 FEW020 SCT100 25/23 Q1010 NOSIG RMK
     PP000=
SPQU 110200Z 11006KT 9999 SCT020 SCT040 13/10 Q1026 RMK PP000=
SPSO 110200Z /////KT 9999 FEW100 21/19 Q1012 RMK PP000=
SPTN 110200Z VRB02KT CAVOK 20/16 Q1012 RMK PP000=
SPYL NIL=
SPZO 110200Z 10008KT 9999 SCT043 BKN080 12/07 Q1030 RMK RA QUAD NE
     PP000=
SVBC 110200Z 00000KT 9999 FEW010 26/20 Q1012=
SVMC NIL=
SVMG 110200Z /////KT 9999 SCT010 25/22 Q1014 NOSIG=
SVMI 110200Z 07001KT 9999 FEW016 24/21 Q1014 NOSIG=
SYCJ 110200Z 01004KT 9999 FEW016 22/21 Q1012 NOSIG=
SYTM NIL=

0000032900
252
SASA41 KWBC 110200
METAR
SEMT 110200Z 22008KT 9999 SCT023 25/22 Q1011=
SEPA NIL=
SKBG 110200Z VRB02KT 9999 SCT015 20/18 A2996=
SKMD NIL=
SKPE 110200Z 13005KT 9999 FEW017 SCT080 20/17 A3007=
SKSM 110200Z 04004KT 9999 NSC 28/19 A2974=
SKVG NIL=
SMJP 110200Z 11001KT 9999 FEW025 24/23 Q1012 NOSIG=

00000000