0000009700
893
SASA42 KWBC 102000 RRA
METAR
SCTC 102000Z 23010KT 190V270 CAVOK 23/05 Q1018=

0000009500
894
SASA41 KWBC 102000 RRA
METAR
SKBG 102000Z 34007KT 9999 SCT017 25/17 A2988=

0000009600
895
SAIN90 VABP 111000
METAR VABP 111000Z 01011KT 2500 HZ FEW020 19/12 Q1016 NO SIG=
0000010700
896
SAVN42 KWBC 102000 RRA
METAR
SVPM 102000Z NIL=
SVSA 102000Z NIL=
SVSZ 102000Z NIL=

0000010400
897
SAUK36 EGGY 101950 RRB
METAR EGWU 101950Z AUTO 21008KT 9999 // OVC042/// 08/06 Q1013=

0000029500
898
SATH33 VTBB 102000
METAR VTBO 102000Z NIL=
METAR VTUD 102000Z NIL=
METAR VTUI 102000Z NIL=
METAR VTUK 102000Z NIL=
METAR VTUL 102000Z NIL=
METAR VTUO 102000Z NIL=
METAR VTUQ 102000Z NIL=
METAR VTUU 102000Z NIL=
METAR VTUV 102000Z NIL=
METAR VTUW 102000Z NIL=

0000024300
899
SATH31 VTBB 102000
METAR VTCH 102000Z NIL=
METAR VTCL 102000Z NIL=
METAR VTCN 102000Z NIL=
METAR VTCP 102000Z NIL=
METAR VTCT 102000Z NIL=
METAR VTPH 102000Z NIL=
METAR VTPO 102000Z NIL=
METAR VTPP 102000Z NIL=

0000080900
900
SACI41 ZBBB 102000
METAR ZBHH 102000Z 05001MPS CAVOK M18/M26 Q1028 NOSIG=
METAR ZGHA 102000Z 35003MPS 1600 -RA BR SCT002 BKN006 OVC033
05/04
Q1028 NOSIG=
METAR ZHCC 102000Z VRB01MPS 1500 BR NSC M01/M03 Q1032 NOSIG=
METAR ZHHH 102000Z VRB01MPS 3400 -RA BR SCT015 03/03 Q1030 NOSIG=
METAR ZJHK 102000Z 06002MPS 6000 SCT033 17/16 Q1020 NOSIG=
METAR ZJSY 102000Z 05005MPS 9999 FEW020 SCT066 21/16 Q1019 NOSIG=
METAR ZLLL 102000Z 00000MPS CAVOK M17/M24 Q1026 NOSIG=
METAR ZSNJ 102000Z 08002MPS 5000 HZ NSC 04/00 Q1031 NOSIG=
METAR ZSOF 102000Z 06002MPS 3500 BR NSC 03/00 Q1030 BECMG TL2200
2500=
METAR ZUCK 102000Z 00000MPS 4000 BR FEW030 06/04 Q1027 NOSIG=
METAR ZYCC 102000Z 22004MPS CAVOK M17/M24 Q1027 NOSIG=
METAR ZYHB 102000Z 25004MPS CAVOK M19/M24 Q1024 NOSIG=

0000009700
901
SASB31 VCRI 102010
METAR VCRI 102010Z 04006KT 9000 FEW016   23/21 Q1011 NOSIG=

0000024300
902
SATH32 VTBB 102000
METAR VTSB 102000Z NIL=
METAR VTSC 102000Z NIL=
METAR VTSF 102000Z NIL=
METAR VTSG 102000Z NIL=
METAR VTSH 102000Z NIL=
METAR VTSM 102000Z NIL=
METAR VTSR 102000Z NIL=
METAR VTST 102000Z NIL=

0000013900
903
SAAE32 VTBB 102000
METAR VLLB 102000Z NIL=
METAR VLLN 102000Z NIL=
METAR VLPS 102000Z NIL=
METAR VLSK 102000Z NIL=

0000016500
904
SATH41 VTBB 102000
METAR VTPB 102000Z NIL=
METAR VTPM 102000Z NIL=
METAR VTSE 102000Z NIL=
METAR VTSK 102000Z NIL=
METAR VTUJ 102000Z NIL=

0000009900
905
SAGQ21 FGSL 102000 RRA
METAR FGBT 102000Z 23008KT 9999 FEW010 27/24 Q1011 NOSIG=

0000050500
906
FTUS41 KWBC 102009
TAF
TAF AMD KCEF 1020/1201 VRB06KT 9999 OVC008 620089 QNH3030INS
      BECMG 1022/1023 VRB06KT 9999 OVC008 620089 QNH3029INS
      TEMPO 1100/1103 4800 -FZDZ 660001
      BECMG 1102/1103 10006KT 4800 -FZDZ OVC008 WS020/20040KT
      660001 620307 QNH3010INS
      BECMG 1107/1108 15006KT 4800 -RA BR OVC008 WS020/20040KT
      QNH3002INS
      BECMG 1110/1111 17010KT 2400 -RA BR OVC008 WS020/20050KT
      QNH2941INS T12/1121Z T00/1102Z AMD 102005=

0000027000
907
FTUS31 KWBC 102009 AAA
TAF AMD
KORD 102008Z 1020/1124 16012G16KT 1 1/2SM RA BR OVC005
     FM110300 20012KT 1SM -DZ BR VCSH OVC004
     FM110800 22012KT 3SM BR OVC004
     FM111200 26012G18KT P6SM OVC012
     FM111500 28014G22KT P6SM BKN018=

0000023100
908
FTUS43 KWBC 102009 AAA
TAF AMD
KMDW 102008Z 1020/1118 16012G16KT 1 1/2SM RA BR OVC005
     FM110300 20012KT 1SM -DZ BR VCSH OVC004
     FM110800 22012KT 3SM BR OVC004
     FM111200 26012G18KT P6SM OVC012=

0000050500
909
FTUS71 KWBC 102009
TAF
TAF AMD KCEF 1020/1201 VRB06KT 9999 OVC008 620089 QNH3030INS
      BECMG 1022/1023 VRB06KT 9999 OVC008 620089 QNH3029INS
      TEMPO 1100/1103 4800 -FZDZ 660001
      BECMG 1102/1103 10006KT 4800 -FZDZ OVC008 WS020/20040KT
      660001 620307 QNH3010INS
      BECMG 1107/1108 15006KT 4800 -RA BR OVC008 WS020/20040KT
      QNH3002INS
      BECMG 1110/1111 17010KT 2400 -RA BR OVC008 WS020/20050KT
      QNH2941INS T12/1121Z T00/1102Z AMD 102005=

0000022500
910
FTUS71 KWBC 102009 AAA
TAF AMD
KJST 102008Z 1020/1118 19005KT 3SM BR OVC003
     FM110500 17010KT 4SM -RA BR BKN007 OVC015 WS019/21040KT
     FM111100 17016G32KT 2SM RA BR BKN009 OVC016 WS012/19049KT=

0000104200
911
FTUS73 KWBC 102009 AAA
TAF AMD
KGYY 102008Z 1020/1118 16010KT 3SM BR OVC005
     FM102030 15012G16KT 1 1/2SM RA BR OVC005
     FM110400 19012KT 1SM -DZ BR VCSH OVC005
     FM110800 22012KT 3SM BR OVC005
     FM111200 26012G18KT P6SM OVC012=
KLSE 102008Z 1020/1118 13006KT 4SM -FZDZ BR OVC008
      TEMPO 1020/1022 1 1/2SM -SN BR OVC005
     FM102200 VRB03KT 2SM -SN BR OVC010
     FM110700 28005KT 6SM -SN BR OVC008
     FM111100 29007KT 6SM BR SCT010 BKN150=
KMDW 102008Z 1020/1118 16012G16KT 1 1/2SM RA BR OVC005
     FM110300 20012KT 1SM -DZ BR VCSH OVC004
     FM110800 22012KT 3SM BR OVC004
     FM111200 26012G18KT P6SM OVC012=
KORD 102008Z 1020/1124 16012G16KT 1 1/2SM RA BR OVC005
     FM110300 20012KT 1SM -DZ BR VCSH OVC004
     FM110800 22012KT 3SM BR OVC004
     FM111200 26012G18KT P6SM OVC012
     FM111500 28014G22KT P6SM BKN018=
KRFD 102008Z 1020/1118 16011KT 1 1/2SM RA BR OVC003
     FM110300 20012KT 1SM -DZ BR VCSH OVC005
     FM110900 26012G18KT P6SM OVC012=

0000025500
912
FTUS74 KWBC 102009 AAA
TAF AMD
KCEC 102005Z 1020/1118 16009KT 1SM BR OVC003
      TEMPO 1020/1024 4SM BR
     FM110000 16010KT 5SM BR OVC003
     FM110600 17015G25KT 4SM RA BKN005 OVC020
     FM110900 17025G35KT 4SM RA OVC005=

00000000