0000034700
613
SZIO01 AMMC 110936
CREX++
T000103 A001 D01021 D06025++
-1211670 09689190 46280 2014 01 11 09 29 3022 11 07 00 01
01153 0022 01150 0022 01143 0016 01146 0022 01141 0018 01139 0018+
-1042940 10566940 46290 2014 01 11 09 29 //// 11 07 00 01
01369 -0040 01366 -0042 01388 -0019 01337 -0070 01388 -0018 01352 -0053++
7777

0000179200
614
SZPS01 AMMC 110936
CREX++
T000103 A001 D01021 D06025++
-0204190 14737360 56130 2014 01 11 09 29 3027 11 07 00 01
00684 0099 00674 0091 00671 0090 00663 0085 00657 0081 00654 0081+
-0669280 15640860 56363 2014 01 11 09 29 //// 11 07 00 01
00370 -0073 00371 -0072 00372 -0070 00366 -0075 00361 -0080 00358 -0082+
-0942890 15995560 56670 2014 01 11 09 29 3043 11 07 00 01
00571 -0035 00570 -0034 00568 -0035 00570 -0032 00567 -0033 00563 -0036+
-1072080 16580190 57131 2014 01 11 09 29 //// 11 07 00 01
01902 1641 01372 1111 02414 2153 01520 1259 01797 1536 02130 1870+
-1551560 16718860 57210 2014 01 11 09 29 //// 11 07 00 01
00328 -0086 00330 -0083 00341 -0072 00329 -0083 00331 -0081 00328 -0084+
-1775690 16830030 57320 2014 01 11 09 29 3017 11 07 00 01
00396 -0093 00394 -0094 00389 -0097 00385 -0100 00381 -0103 00378 -0105+
-4397330 16861610 65180 2014 01 11 09 29 2887 11 07 00 01
02269 0388 02259 0382 02246 0372 02246 0376 02227 0360 02241 0379+
-2120470 -15978530 65980 2014 01 11 09 29 3012 11 07 00 01
00406 -0011 00436 0019 00416 -0001 00399 -0018 00392 -0025 00410 -0007+
-2113810 -17518140 66600 2014 01 11 09 29 //// 11 07 00 01
00630 0097 00631 0098 00630 0097 00634 0101 00637 0105 00632 0099+
-1382670 -17176110 66840 2014 01 11 09 29 3013 11 07 00 01
00487 0052 00489 0053 00495 0058 00488 0050 00498 0060 00497 0057+
-1813250 17842750 67050 2014 01 11 09 29 3030 11 07 00 01
00716 0109 00716 0110 00716 0110 00714 0109 00713 0109 00716 0111+
-1760530 17743810 67070 2014 01 11 09 29 3033 11 07 00 01
00648 0007 00649 0008 00651 0011 00650 0010 00651 0011 ///// ////+
-0850250 17919500 67440 2014 01 11 09 29 3028 11 07 00 01
01572 0006 01578 0011 01579 0010 01580 0010 01586 0015 01582 0009++
7777

0000010600
615
SIMU20 VMMC 110900
AAXX 11094
45011 45958 /1306 10168 20132 40214 57011 
333 59009=

0000010400
616
SAIR31 OIII 110930 RRA
METAR OIMM 110925Z 09004KT 9999 FEW040 BKN170 10/M10 Q1018 A3008=
0000015400
617
SIVD01 CWHX 110900
BBXX
VCXF 11094 99464 70484 41598 72830 11015 2102/ 40205 57003
70122 87500 22200 03005 20707 325// 40802 81016=

0000011100
618
SIVF21 ESWI 110900 RRB
BBXX
SBPQ 11091 99656 10222 46/// /0306 11162 40124 52013 22201 00007=
0000011100
619
SIVF21 ESWI 110900 RRC
BBXX
SDIA 11091 99656 10222 46/// /0307 11161 40126 52008 22201 00010=
0000049200
620
FTIN90 VIDP 110900
TAF VIDP 110900Z 1112/1218 22005KT 2500 HZ NSC
     BECMG 1113/1115 1500 HZ/FU
     BECMG 1116/1118 0800 FU/MIFG
     BECMG 1200/1202 0300 FG
     BECMG 1203/1205 1500 BR/FU
     BECMG 1206/1208 3500 HZ
     BECMG 1214/1216 00000KT 1500 FU=
TAF VIAR 110900Z 1112/1218 24003KT 5000 HZ NSC
     BECMG 1114/1116 00000KT 3000 HZ
     BECMG 1120/1122 1500 BR
     BECMG 1203/1205 30003KT 3000 HZ
     BECMG 1202/1209 5000 HZ
     BECMG 1214/1216 00000KT 3000 HZ=
0000040300
621
SAAL40 DAMM 110230
METAR DAAG 110230Z 28003KT 9999 FEW030 SCT080 10/07 Q1016=
METAR DAAT 110230Z 00000KT CAVOK 11/M04 Q1022=
METAR DABB 110230Z NIL=
METAR DABC 110230Z 19005KT CAVOK 06/01 Q1019=
METAR DABS 110230Z NIL=
METAR DAON 110230Z NIL=
METAR DAOO 110230Z 22002KT 9999 FEW026 BKN233 12/07 Q1015=
METAR DAUH 110230Z 36004KT CAVOK 09/07 Q1021=
METAR DAUZ 110230Z NIL=
0000020300
622
SAAO31 GOOY 110230
METAR FHAW 110230Z NIL=
METAR GGOV 110230Z NIL=
METAR DIAP 110230Z VRB02KT 9999 SCT012 BKN100 27/25 Q1010 NOSIG=
METAR DIBK 110230Z NIL=
METAR DIYO 110230Z NIL=
0000024200
623
SAAO30 GOOY 110230
METAR GOOY 110230Z 36010KT CAVOK 19/14 Q1014 NOSIG=
METAR GOGS 110230Z NIL=
METAR GOOK 110230Z NIL=
METAR GOSS 110230Z NIL=
METAR GOTK 110230Z NIL=
METAR GOTT 110230Z NIL=
METAR GOGG 110230Z NIL=
0000023700
624
SAAO32 GOOY 110230
METAR GABS 110230Z 03002KT  CAVOK 22/05 Q1013 NOSIG=
METAR GAGO 110230Z NIL=
METAR GAKY 110230Z NIL=
METAR GAKL 110230Z NIL=
METAR GAMB 110230Z NIL=
METAR GANR 110230Z NIL=
METAR GATB 110230Z NIL=
0000029700
625
SAAO33 GOOY 110230
METAR GQPP 110230Z NIL=
METAR GQNN 110230Z 02006KT 8000 NSC 15/14 Q1014 NOSIG=
METAR GQPA 110230Z NIL=
METAR GQNI 110230Z NIL=
METAR GQPZ 110230Z NIL=
METAR GUCY 110230Z NIL=
METAR GUXN 110230Z NIL=
METAR GULB 110230Z NIL=
METAR GUNZ 110230Z NIL=
0000008400
626
SAAL40 DAMM 110200 RRB
METAR DAUZ 110200Z 08008KT CAVOK 10/02 Q1021=
0000008000
627
SAET20 HAAB 110300
METAR HAAB 110300Z 09006KT CAVOK 12/04 Q1027=
0000009400
628
SARW20 HRYR 110300
METAR
HRYR 110300Z 00000KT 9999 FEW026 16/16 Q1020 NOSIG=
0000009700
629
SAUG20 HUEN 102300
METAR
HUEN 102300Z 36003KT 9000 FEW020 FEW022CB 20/20 Q1016=
0000022400
630
SAUG20 HUEN 110200
METAR
HUEN 110200Z 29003KT 7000 FEW019 FEW021CB20/20 Q1016=
HUEN 110100Z 35005KT 7000 FEW019 FEW021CB BKN120 20/20 Q1016=
HUEN 110000Z 32004KT 7000 FEW019 FEW021CB BKN120 21/20 Q1016=
0000008400
631
SAMC32 GMMC 110100 RRC
METAR GMFM 110100Z 19002KT CAVOK 11/04 Q1015=
0000008400
632
SAMC32 GMMC 110200 RRB
METAR GMFM 110200Z 18004KT CAVOK 11/04 Q1015=
00000000