0000009800
133
SPUS43 KWBC 101832
SPECI
KLEX 101828Z 16010KT 10SM BKN009 OVC038 11/08 A3008=

0000011600
134
SPUS43 KWBC 101832
SPECI
KMKE 101828Z 16012KT 3/4SM R01L/4000VP6000FT BR OVC003 00/M01
A2986=

0000010800
135
SPUS44 KWBC 101832
SPECI
KBFI 101828Z 18011G21KT 10SM BKN020 BKN090 OVC120 10/05 A3010=

0000009500
136
SAHK31 VHHH 101830
METAR VHHH 101830Z 08013KT 9000 FEW022 16/11 Q1023 NOSIG=

0000011200
137
SASA31 KWBC 101800 RRD
METAR
SOCA 101830Z AUTO 15004KT 130V190 9999 -RA ///TCU 24/22 Q1010=

0000025500
138
SACZ31 LKPW 101830
METAR LKKV 101830Z 26007KT 9999 BKN048 03/M01 Q1016=
METAR LKMT 101830Z 20006KT CAVOK 04/M01 Q1017 NOSIG=
METAR LKPR 101830Z 23014KT CAVOK 04/M01 Q1017 NOSIG=
METAR LKTB 101830Z 26004KT CAVOK 03/M02 Q1019 NOSIG=

0000025800
139
FTUS31 KWBC 101833 AAA
TAF AMD
KDEN 101831Z 1019/1124 30015G25KT P6SM FEW090 SCT150 BKN200
     FM110100 27009KT P6SM FEW100 SCT140 BKN200
     FM110300 24011KT P6SM SCT140 BKN200
     FM111600 28014G22KT P6SM FEW090 SCT120 BKN180=

0000025800
140
FTUS73 KWBC 101833 AAA
TAF AMD
KDEN 101831Z 1019/1124 30015G25KT P6SM FEW090 SCT150 BKN200
     FM110100 27009KT P6SM FEW100 SCT140 BKN200
     FM110300 24011KT P6SM SCT140 BKN200
     FM111600 28014G22KT P6SM FEW090 SCT120 BKN180=

0000044800
141
SAPL31 EPWA 101830
METAR EPGD 101830Z 29014KT 9999 -SHRA FEW009 BKN013CB
    05/03 Q1003 =
METAR EPKK 101830Z 24018KT 9999 BKN053 05/00 Q1015 =
METAR EPLL 101830Z 27017KT 9999 SCT025 BKN031 06/01
    Q1011 =
METAR EPPO 101830Z 26018KT 9999 BKN030 06/01 Q1011
    R10/19//95 =
METAR EPRZ 101830Z 26019KT CAVOK 06/M00 Q1012 =
METAR EPWA 101830Z 27018G28KT 240V300 9999 -SHRA SCT026CB SCT030
    06/03 Q1007 NOSIG=

0000048600
142
SAPL32 EPWA 101830
METAR EPBY 101830Z 26017KT 9999 SCT023 BKN028 OVC037
    06/03 Q1008 =
METAR EPKT 101830Z 25016KT 9999 SCT045 05/M00 Q1014 =
METAR EPLB 101830Z 25020KT 9999 BKN029 06/02 Q1007 =
METAR EPMO 101830Z 26021KT 9999 -SHRA FEW024CB BKN030
    06/03 Q1007 =
METAR EPSC 101830Z 26014KT 9999 -SHRA SCT013CB BKN021
    06/03 Q1010 =
METAR EPWR 101830Z 27011KT 9999 BKN043 07/M01 Q1015 =
METAR EPZG 101830Z 25011KT 220V290 CAVOK 07/01 Q1013 =

0000011400
143
SAIL31 BICC 101830
METAR BIKF 101830Z 27015KT 8000 -SHRASN FEW012 SCT021 BKN044 01/M00
Q0990=

0000009600
144
SPAU32 YBBN 101832
SPECI YMHB 101830Z 11004KT 9999 SCT009 BKN016 16/14 Q1013=

0000034300
145
SAIE31 EIDB 101830
METAR EIDW 101830Z 26007KT 9999 -RA SCT013 BKN030 05/05 Q1008 NOSIG=
METAR EINN 101830Z 21006KT 9999 -SHRA FEW009 SCT019CB BKN045 04/04
     Q1010 NOSIG=
METAR EICK 101830Z 29008KT 9999 FEW017 BKN030 BKN230 05/03 Q1010
     NOSIG=
METAR EIKN 101830Z 26007KT 9999 FEW035 SCT061 03/01 Q1008 NOSIG=

0000009600
146
SPAU32 AMMC 101833
SPECI YMHB 101830Z 11004KT 9999 SCT009 BKN016 16/14 Q1013=

0000043700
147
SNVZ11 SBBR 110500 RRA
BBXX
SHIP 11051 99/// 1//// 36/// /3501 10216 20202 39701 40140 57///
  333 10220 20214 553// 10004 91104=
SHIP 11051 99/// 1//// 36/// /0902 10222 20214 39712 40127 57///
  333 10225 20221 553// 10003 91105=
SHIP 11051 99/// 1//// 36/// /0903 10256 20227 30119 40147
  333 10257 20255 91105=
SHIP 11051 99/// 1//// 36/// ///// 10223 20206 39746 40099
  333 10225 20222 553// 10003=
0000037500
148
SNVD20 KWNB 110500 RRE
BBXX
44056 11051 99362 70757 46/// ///// 1//// 90453 22200 00088 10502
20502 70009=
44098 11051 99428 70702 46/// ///// 1//// 90451 22200 00059 10602
20602 70008=
44097 11051 99410 70711 46/// ///// 1//// 90455 22200 00068 10902
20901 70008=
44099 11051 99369 70757 46/// ///// 1//// 90448 22200 00065 10502
20502 70009=
0000009900
149
SAGQ21 FGSL 101800 RRA
METAR FGBT 101800Z 24007KT 9999 FEW010 29/24 Q1009 NOSIG=

0000010600
150
SANO32 ENMI 101820 RRA
METAR ENRO 101820Z 09012KT 7000 -SN SCT006 BKN016 M12/M15 Q0996=

0000130100
151
SPUS70 KWBC 101834
SPECI
KAXN 101830Z AUTO 18014KT 1/2SM FZFG OVC002 M03/M04 A2954 RMK
     AO2=
KFCI 101831Z AUTO 00000KT 2 1/2SM BKN004 OVC020 03/M02 A3034 RMK
     AO1 P0003=
KGZH 101830Z AUTO 10004KT 10SM OVC005 14/12 A3009 RMK AO2
     T01390122=
KJFK 101830Z 01003KT 3SM BR BKN017 OVC036 03/01 A3040 RMK AO2 SFC
     VIS 4 RAE17 P0000 $=
KMMK 101830Z AUTO 00000KT 2 1/2SM UP BR OVC018 M01/M02 A3039 RMK
     AO2 P0001 T10061017 TSNO=
KORD 101830Z 16008KT 1 1/4SM R10L/6000VP6000FT -DZ BR OVC006
     01/M01 A2985 RMK AO2 DZB00 P0000 T00111011 $=
KRVS 101831Z 19008KT 10SM OVC012 13/11 A2963 RMK AO2=
KSGJ 101830Z 14016KT 10SM SCT006 BKN015 22/19 A3013 RMK AO2=
KSTP 101830Z 15009KT 2SM BR OVC006 M02/M03 A2968 RMK AO2
     PRESFR=
KTOI 101830Z AUTO 07003KT 2 1/2SM BR OVC003 12/11 A3010 RMK AO2
     RAB13E26 P0000 T01170106=
PAOH 101830Z AUTO 00000KT 3SM BR FEW033 00/00 A2953 RMK AO2 TSNO
     $=
KCMI 101831Z 15016KT 2SM BR OVC005 03/02 A2984 RMK AO2 TWR VIS 2
     1/2 TSE1755RAE20 CIG 003V008 P0000=
KHWO 101831Z 13014G19KT 10SM BKN026 BKN035 27/21 A3010 RMK AO2=
KIOW 101831Z AUTO 12010KT 3/4SM BR OVC002 01/01 A2970 RMK AO2
     PRESFR=
PAHN 101831Z AUTO 06005KT 10SM OVC012 02/00 A2945 RMK AO2
     T00220000 TSNO=

0000010000
152
SPUS31 KWBC 101834
SPECI
KJFK 101830Z 01003KT 3SM BR BKN017 OVC036 03/01 A3040=

00000000