0000095800
553
SACI32 ZBBB 102200
METAR ZGKL 102200Z 06002MPS 030V090 1500 -RA BR FEW005
OVC026
07/06 Q1025 NOSIG=
METAR ZGNN 102200Z 06002MPS 2300 -RA BR FEW008 SCT011 OVC020
12/11
Q1021 NOSIG=
METAR ZGOW 102200Z 31001MPS 4000 BR NSC 12/09 Q1025 NOSIG=
METAR ZGSZ 102200Z 07003MPS 4000 BR SCT020 13/10 Q1024 NOSIG=
METAR ZLXY 102200Z 00000MPS 2700 HZ NSC M03/M07 Q1031 NOSIG=
METAR ZMUB 102200Z VRB01MPS 5000NW FU NSC M34/M38 Q1025 NOSIG
RMK
QFE661.0 65 NT=
METAR ZPPP 102200Z 20005MPS CAVOK 05/01 Q1022 NOSIG=
METAR ZSAM 102200Z 30001MPS 9999 OVC030 13/09 Q1026 NOSIG=
METAR ZSFZ 102200Z 36003MPS 320V030 9999 OVC026 11/05 Q1027 NOSIG=
METAR ZSNB 102200Z 16001MPS 4000 -RA BR NSC 05/04 Q1031 NOSIG=
METAR ZSQD 102200Z 08001MPS 2800 BR NSC M04/M07 Q1033 BECMG TL2300
1400=
METAR ZUGY 102200Z 03001MPS 7000 -DZ FEW002 BKN009 OVC026
01/00
Q1025 NOSIG=
METAR ZUUU 102200Z 00000MPS 5000 BR SCT050 05/02 Q1027 NOSIG=

0000023800
554
SAAF11 LFPW 102200 RRA
METAR FCPP 102200Z 15003KT 9999 FEW010 BKN023 27/24 Q1011 NOSIG=
METAR FKKD 102200Z 00000KT 8000 SCT016 BKN300 26/25 Q1012 NOSIG=
METAR FKYS 102200Z 00000KT 6000 NSC 19/18 Q1012 BECMG 4000 BR=

0000010500
555
SAAF14 LFPW 102200 RRA
METAR FEFF 102200Z 00000KT 6000 NSC 21/19 Q1012 BECMG 6000 NSW=

0000009500
556
SAAF18 LFPW 102200 RRA
METAR FMEE 102200Z AUTO 12012KT 9999 NSC 26/22 Q1014=

0000012400
557
SAAF20 LFPW 102200 RRA
METAR FAGG 102200Z AUTO 20003KT 170V240 9999 -RA FEW019 BKN024 16/13
     Q1020=

0000027200
558
SAAF21 LFPW 102200 RRA
METAR FALA 102200Z AUTO 17007KT //// // 23/07 Q1018=
METAR FAMM 102200Z AUTO 24004KT //// // ////// 23/06 Q1017=
METAR FAPE 102200Z 25013KT CAVOK 18/14 Q1017 NOSIG=
METAR FAUP 102200Z AUTO 21006KT //// // ////// 22/03 Q1016=

0000025900
559
SAIO31 KWBC 102200 RRA
METAR
FMCZ 102200Z NIL=
FMEE 102200Z AUTO 12012KT 9999 NSC 26/22 Q1014=
FSIA 102200Z 29006KT 9999 FEW009 FEW014CB BKN080 26/23 Q1011
     NOSIG=
VYMD 102200Z NIL=
VYYY 102200Z 36002KT 7000 NSC 21/20 Q1014=

0000009900
560
SAAF27 LFPW 102200 RRA
METAR FGBT 102200Z 15004KT 9999 FEW010 26/25 Q1011 NOSIG=

0000062200
561
SAMS38 WMKK 102200
METAR WBGB 102200Z 24004KT 9999 SCT016 BKN150 24/24 Q1011=
METAR WBGR 102200Z 04003KT 9999 SCT014 SCT150 BKN300 24/23 Q1011=
METAR WBGS 102200Z 00000KT 9999 SCT018 BKN150 23/22 Q1012=
METAR WBKL 102200Z 18001KT 9999 FEW010 BKN290 25/24 Q1011=
METAR WBKS 102200Z 06010KT 9999 SCT015 OVC260 27/25 Q1010=
METAR WBKW 102200Z 26001KT 9999 FEW017 BKN140 24/22 Q1010=
METAR WMKD 102200Z 02003KT 9999 FEW012 FEW017CB SCT160 BKN260 23/22
Q1011 NOSIG=
METAR WMKL 102200Z 04003KT 9999 FEW025 SCT140 BKN270 27/22 Q1011=
METAR WMKM 102200Z 03004KT 9999 FEW012 BKN140 24/23 Q1011=

0000009100
562
SAFP20 LFVP 102200
METAR LFVP 102200Z 26020KT 9999 FEW028 M04/M09 Q1025=

0000025900
563
SANZ31 NZKL 102200
METAR NZAA 102200Z AUTO 22009KT 9999 OVC044/// 21/12 Q1019 NOSIG=
METAR NZWN 102200Z AUTO 33008KT 300V020 9999 FEW038/// 20/11 Q1017
          NOSIG=
METAR NZCH 102200Z AUTO 07010KT 9999 OVC023/// 17/12 Q1017 NOSIG=

0000015500
564
FTPA32 KWBC 102206
TAF
TAF NFFN 102203Z 1100/1124 18015KT 9999 FEW030
      BECMG 1104/1106 17005KT
      BECMG 1122/1124 17015KT=

0000023500
565
FTSA32 KWBC 102206
TAF
TAF SCEL 102202Z 1100/1124 20013KT CAVOK TX33/1119Z TN14/1110Z
      BECMG 1101/1103 15005KT
      BECMG 1108/1110 VRB02KT
      BECMG 1114/1116 17004KT
      BECMG 1116/1118 19013KT=

0000023900
566
FTSA41 KWBC 102206
TAF
TAF SMJP 102200Z 1100/1124 VRB03KT 9999 FEW010 SCT025 TX31/1118Z
      TN22/1110Z
      TEMPO 1108/1111 3000 BR
     FM111200 08010KT 9999 SCT015
      TEMPO 1114/1118 4000 SHRA FEW018CB=

0000025400
567
FTUS53 KWBC 102206
TAF
TAF AMD KRFD 102201Z 1022/1118 15012G22KT 1 1/2SM RA BR BKN006
      OVC020
     FM110000 15012KT 3SM -RA BKN005 OVC020
     FM110300 20012KT 1SM -DZ BR VCSH OVC005
     FM110900 26012G18KT P6SM OVC012=

0000088600
568
FTUS52 KWBC 102206 AAA
TAF AMD
KDHN 102203Z 1022/1118 11003KT 1/4SM FG OVC002
     FM111200 19010KT 2SM RA BR OVC003
     FM111700 26010G15KT P6SM VCSH OVC015=
KGGG 102202Z 1022/1118 20009KT 3SM -RA BR VCSH BKN011 BKN023
      OVC030
     FM110000 19015G25KT 6SM -TSRA BR OVC015CB
     FM110300 23008KT P6SM SCT015 BKN250
     FM110600 26010KT P6SM SCT250
     FM110900 28006KT P6SM SKC=
KGNV 102205Z 1022/1118 15008KT P6SM VCSH SCT025 BKN040
      TEMPO 1022/1102 BKN025
     FM110200 14002KT 4SM BR BKN010 BKN020
     FM110600 15002KT 1SM BR BKN003 OVC006
     FM111400 19012G18KT P6SM VCSH BKN010 OVC020=
KHRL 102204Z 1022/1118 18017KT P6SM SKC
     FM110100 18008KT P6SM BKN040
     FM110600 VRB03KT 5SM BR FEW020
     FM110900 VRB03KT 1/2SM FG SCT005
      TEMPO 1110/1113 1/4SM FG VV001
     FM111400 32010KT P6SM FEW030=

0000065500
569
FTUS51 KWBC 102206 AAA
TAF AMD
KCHO 102204Z 1022/1118 00000KT 1SM BR BKN003 OVC007
     FM102300 00000KT 2SM BR OVC003
     FM110100 00000KT 2SM -RA BR OVC003
     FM111000 VRB03KT 1SM BR OVC003 WS020/20035KT
     FM111300 19006KT 1/2SM FG OVC003 WS020/20040KT
     FM111600 19008KT 3/4SM BR OVC003 WS020/20045KT
     FM111700 19008KT 1SM SHRA BR OVC003 WS020/20045KT=
KDAY 102204Z 1022/1118 15010KT 1/2SM FG OVC002
      TEMPO 1022/1024 1/4SM FG
     FM110000 15012KT 4SM BR VCSH OVC011
     FM110500 17015G23KT 4SM -RA BR OVC007
     FM111200 22015G25KT P6SM VCSH OVC013
     FM111500 24016G26KT P6SM OVC018=

0000146700
570
FTUS80 KWBC 102206 AAA
TAF AMD
KCAK 102203Z 1022/1118 17008KT 1/2SM FG OVC003
      TEMPO 1022/1102 1/4SM FG VV001
     FM110500 16012KT 2SM -RA BR OVC005 WS015/19045KT
     FM111700 22009KT 2SM BR OVC004=
KCHO 102204Z 1022/1118 00000KT 1SM BR BKN003 OVC007
     FM102300 00000KT 2SM BR OVC003
     FM110100 00000KT 2SM -RA BR OVC003
     FM111000 VRB03KT 1SM BR OVC003 WS020/20035KT
     FM111300 19006KT 1/2SM FG OVC003 WS020/20040KT
     FM111600 19008KT 3/4SM BR OVC003 WS020/20045KT
     FM111700 19008KT 1SM SHRA BR OVC003 WS020/20045KT=
KCVG 102205Z 1022/1124 16008KT 6SM BR OVC050
     FM110000 15010KT 4SM BR VCSH OVC015
     FM110600 17011KT 4SM -SHRA BR OVC008
     FM111200 22011G20KT P6SM VCSH OVC012
     FM111600 25016G25KT P6SM OVC022
     FM112300 26014KT P6SM BKN025=
KDAY 102204Z 1022/1118 15010KT 1/2SM FG OVC002
      TEMPO 1022/1024 1/4SM FG
     FM110000 15012KT 4SM BR VCSH OVC011
     FM110500 17015G23KT 4SM -RA BR OVC007
     FM111200 22015G25KT P6SM VCSH OVC013
     FM111500 24016G26KT P6SM OVC018=
KDHN 102203Z 1022/1118 11003KT 1/4SM FG OVC002
     FM111200 19010KT 2SM RA BR OVC003
     FM111700 26010G15KT P6SM VCSH OVC015=
KGGG 102202Z 1022/1118 20009KT 3SM -RA BR VCSH BKN011 BKN023
      OVC030
     FM110000 19015G25KT 6SM -TSRA BR OVC015CB
     FM110300 23008KT P6SM SCT015 BKN250
     FM110600 26010KT P6SM SCT250
     FM110900 28006KT P6SM SKC=

0000129700
571
FTUS80 KWBC 102206 AAB
TAF AMD
KGNV 102205Z 1022/1118 15008KT P6SM VCSH SCT025 BKN040
      TEMPO 1022/1102 BKN025
     FM110200 14002KT 4SM BR BKN010 BKN020
     FM110600 15002KT 1SM BR BKN003 OVC006
     FM111400 19012G18KT P6SM VCSH BKN010 OVC020=
KHRL 102204Z 1022/1118 18017KT P6SM SKC
     FM110100 18008KT P6SM BKN040
     FM110600 VRB03KT 5SM BR FEW020
     FM110900 VRB03KT 1/2SM FG SCT005
      TEMPO 1110/1113 1/4SM FG VV001
     FM111400 32010KT P6SM FEW030=
KJAX 102203Z 1022/1118 14010KT P6SM VCSH SCT035
     FM110200 14005KT 5SM BR BKN010 BKN020
     FM110600 15005KT 2SM BR BKN005 OVC010
     FM111400 19012G18KT P6SM VCSH BKN015 OVC025=
KLEX 102205Z 1022/1118 15008KT P6SM SCT008 BKN015
     FM110300 18014G22KT 5SM -SHRA BR OVC008
     FM111500 24014G22KT P6SM SCT010 BKN040=
KMFE 102204Z 1022/1118 VRB03KT P6SM SKC
     FM110100 18007KT P6SM SCT030
     FM110600 VRB04KT 5SM BR FEW020
     FM110900 24003KT 1/2SM FG SCT005
      TEMPO 1110/1113 1/4SM FG VV001
     FM111500 32010KT P6SM FEW030=
KSYR 102205Z 1022/1118 12006KT P6SM SCT025 OVC050
      TEMPO 1023/1101 OVC025
     FM110100 18006KT P6SM SCT015 OVC022
     FM110700 18010KT 4SM -SHRA OVC012
     FM111200 13014KT 6SM -SHRA SCT008 OVC011=

0000025400
572
FTUS80 KWBC 102206
TAF
TAF AMD KRFD 102201Z 1022/1118 15012G22KT 1 1/2SM RA BR BKN006
      OVC020
     FM110000 15012KT 3SM -RA BKN005 OVC020
     FM110300 20012KT 1SM -DZ BR VCSH OVC005
     FM110900 26012G18KT P6SM OVC012=

00000000