0000010900
073
SACN45 CWAO 110400
METAR CYFS 110400Z 00000KT 15SM -SN BKN100 M24/M26 A2965 RMK AC2
SLP065=
0000012200
074
SACN47 CWAO 110400
METAR CYVV 110400Z 16011KT 6SM -RA BR OVC026 03/02 A2978 RMK SC8 PCPN
VRY LGT SLP094=
0000030300
075
SAMC31 GMMC 110400
METAR GMFF 110400Z 17004KT 9999 FEW030 BKN100 10/05 Q1017 NOSIG=
METAR GMME 110400Z 21003KT 5000 SCT020 BKN100 13/11 Q1015 NOSIG=
METAR GMMN 110400Z AUTO 18006KT 9999NDV /// 12/09 Q1016=
METAR GMAD 110400Z NIL=
METAR GMMX 110400Z NIL=
METAR GMTT 110400Z NIL=
0000011000
076
UANT99 KDDL 110400
ARP DAL80 5004N03945W 0359 F360 MS53 292/17 KT
N1200K QXT AOW 110400 F58A
0000053900
077
SAMC32 GMMC 110400
METAR GMFF 110400Z 17004KT 9999 FEW030 BKN100 10/05 Q1017 NOSIG=
METAR GMFO 110400Z 21017KT 9999 SCT023 SCT100 16/04 Q1015 NOSIG=
METAR GMMZ 110400Z VRB03KT 9999 SCT030 06/04 Q1016=
METAR GMTN 110400Z AUTO 24003KT 1600NDV /// 12/11 Q1016=
METAR GMAG 110400Z NIL=
METAR GMAT 110400Z NIL=
METAR GMFK 110400Z NIL=
METAR GMFM 110400Z NIL=
METAR GMMC 110400Z NIL=
METAR GMMH 110400Z NIL=
METAR GMMI 110400Z NIL=
METAR GMML 110400Z NIL=
METAR GMMW 110400Z NIL=
METAR GMTA 110400Z NIL=
0000011100
078
UANT99 KDDL 110400
ARP AAL174 5051N03620W 0400 F350 MS55 215/26 KT
N349AN DDL XXW 110400 F15A
0000039400
079
SIIS21 LLBD 110300
AAXX 11031
40153 439// /3606 10063 20051 39120 48511 52005
  333 70000=
40179 41558 41402 10115 20107 30176 40214 52005 71000 841//
  333 70000=
40180 41660 63602 10117 20102 30169 40219 53004 70262 86100
  333 70000=
40190 439// /1301 10087 20084 39886 40225 52006
  333 70000=
40199 439// /0101 10104 20083 30202 40229 52007
  333 70000=
0000019300
080
SIAL23 DAMM 110300
AAXX 11034
60369 42960 50000 10180 20114 40159 54000 83082
  333 83360 91837=
60425 42965 60610 10133 20055 40169 53003 84032
  333 84360 83073 95990=
0000087100
081
SMMG01 FMMD 110000 RRA
AAXX 11004
67009 33580 60000 10260 20236 39984 40103 57021 86900
  333 0//00 81820 81920 86640 94976 94977 95816 95817=
67012 11580 7//// 10240 20234 30094 40105 56020 60012 7006/ 879//
  333 0//// 84820 81920 85640 94961 94962 95831 95832=
67073 33580 2//// 10236 20218 30094 40120 54000 82800
  333 0//00 81823 555 82633=
67137 31260 50000 10209 20201 38903 48512 56005 710// 82502
  333 0//00 81705 84073
  555 81617=
67143 33580 6//// 10242 20239 30110 40117 56007 86800
  333 0//// 82820 86633 92438=
67152 11380 6//// 10188 20183 39210 48511 56005 69931 7005/ 83570
  333 0//12 82713 84360 555 82820=
67157 33480 5//// 10/// 20/// 30142 40149 54000 86800
  333 0//00 82820 85633=
67161 33581 60000 10/// 20/// 30124 40133 58003 83332
  333 0//00 81820 81920 83360 94996 95816 555 82640 82073=
0000009400
082
SASC20 FSIA 110400
METAR FSIA 110400Z 00000KT 9999 FEW014CB 28/23 Q1012 NOSIG=
0000098100
083
SAYE20 OYSC 110400
METAR OYAA 110400Z 13014KT 9999 FEW018 SCT025 25/19 Q1017 NOSIG=
METAR OYAM 110400Z NIL=
METAR OYAR 110400Z NIL=
METAR OYAS 110400Z NIL=
METAR OYAT 110400Z NIL=
METAR OYDM 110400Z 00000KT CAVOK 045/04 Q////=
METAR OYGD 110400Z 09020KT 9999 FEW025 BKN060 24/17 Q1017=
METAR OYHD 110400Z 06003KT 9999 FEW030 SCT060 21/20 Q1014=
METAR OYHJ 110400Z 00000KT 9999 FEW020 SCT200 14/09 Q////=
METAR OYIB 110400Z 00000KT CAVOK 07/02 Q1022=
METAR OYKD 110400Z NIL=
METAR OYMB 110400Z NIL=
METAR OYMK 110400Z 16006KT CAVOK 23/19 Q////=
METAR OYMT 110400Z 00000KT CAVOK 13/10 Q////=
METAR OYRN 110400Z 30006KT 9999 FEW018 SCT049 20/15 Q1017=
METAR OYSD 110400Z 00000KT CAVOK 10/M06 Q////=
METAR OYSH 110400Z NIL=
METAR OYSN 110400Z 19004KT CAVOK 10/04 Q1026=
METAR OYSQ 110400Z 09020KT 9999 FEW018 BKN200 24/19 Q1015=
METAR OYSY 110400Z VRB02KT CAVOK 15/09 Q1019=
METAR OYTZ 110400Z VRB02KT 5000 BR BKN015 14/11 Q1022=
0000011000
084
SACN43 CWAO 110400
METAR CYEN 110400Z 30006KT 1/4SM FZFG VV000 M07/M07 A2957 RMK FG8
SLP045=
0000010800
085
SACN43 CWAO 110400
METAR CYGX 110400Z 04008KT 2SM -SN OVC026 M22/M25 A2958 RMK SC8
SLP036=
0000013600
086
SIXX97 HECA 110300 RRA
AAXX 11031
40747 41645 71901 11042 21047 38652 40257 55004 71072 84520 333 21046
84635 87458=
0000016000
087
FTIQ01 ORBI 110400
TAF ORBI 110400Z 1106/1206 13008KT 3000 -SHRA BR BKN30 SCT080 BECMG
1111/1113 30006KT 5000 SCT080 PROB40 1202/1204 0800 FG=
0000019100
088
SIXX97 HECA 110300 CCA
AAXX 11031
40180 41660 63602 10117 20102 30169 40219 53004 70262 86100
  333 70000=
40199 439// /0101 10104 20083 30202 40229 52007
  333 70000=
0000023000
089
SIXX97 HECA 110300 RRB
AAXX 11031
40727 41520 80000 11065 21076 38494 40280 56008 77372 8342/ 333 21098
83630 88558=
40812 41650 80101 10086 20086 39809 40190 53010 76466 8632/ 333
 20085 82935 84640 88557=
0000031700
090
SIXX96 HECA 110300 RRA
AAXX 11034
60351 42960 30000 10100 20064 40163 56005 80002
  333 83070 95990=
60445 42965 60000 10029 21004 39042 48522 55001 82032
  333 82360 85073 95990=
60581 42960 00000 10093 20065 40206 58001=
60640 42960 50606 10088 21005 40186 56008 82032
333 82360 83073=
0000012100
091
SACN49 CWAO 110400
METAR CYCX 110400Z 23004KT 15SM FEW130 M07/M08 A3028 RMK AC1
DA-2904FT FROIN SLP259=
0000012200
092
SACN42 CWAO 110400
METAR CYQD 110400Z 20003KT 15SM -SN OVC005 M08/M10 A2945 RMK ST8 PCPN
VRY LGT SLP992=
00000000