0000010100
413
SAUK33 EGGY 101950 RRB
METAR EGGP 101950Z 18008KT 150V210 9999 BKN025 08/06 Q1008=

0000009500
414
SAVN22 SVMI 102000
METAR SVMI 102000Z 05003KT 9999 SCT016 27/21 Q1013 NOSIG=

0000008700
415
SPCN44 CWAO 101954
SPECI CYPE 101954Z 23006KT 1SM -SN VV035 RMK SN8=

0000009500
416
SAQB31 LQBK 102000
METAR LQBK 102000Z 33002KT 3000 BR NSC 06/06 Q1021 NOSIG=

0000012100
417
SAFK41 EGYP 101950
METAR EGYP 101950Z 22030G40KT 9999 FEW014 SCT020 BKN045 07/M00 Q0996
 RESHRA WHT=

0000012200
418
SACI31 ZBBB 101930 CCA
METAR COR ZWWW 101930Z VRB01MPS 0600 R25/1200N FZFG NSC M19/M21
Q1037
NOSIG=

0000009300
419
SPCN52 CWAO 101953
SPECI CWGZ 101953Z 30004KT 3/4SM -SN OVC050 RMK SN5SC3=

0000010200
420
SAMF20 TFFR 102000
METAR TFFR 102000Z 08013KT 9999 SCT031 SCT056 27/20 Q1015 NOSIG=

0000050900
421
SAGR33 LGAT 101950
METAR LGBL 101950Z VRB03KT 9999 FEW020 SCT180 07/05 Q1019 NOSIG=
METAR LGHI 101950Z VRB02KT 9999 BKN018 12/11 Q1019=
METAR LGKC 101950Z NIL=
METAR LGKF 101950Z AUTO VRB01KT //// // ////// 12/09 Q1022
     RE//=
METAR LGKP 101950Z NIL=
METAR LGKZ 101950Z AUTO VRB01KT //// // ////// 08/M02 Q1019
     RE//=
METAR LGMK 101950Z NIL=
METAR LGNX 101950Z NIL=
METAR LGPA 101950Z AUTO 18008KT //// // ////// 16/13 Q1019
     RE//=
METAR LGSO 101950Z NIL=

0000075900
422
SANL33 EHDB 101955
METAR EHAK 101955Z AUTO 22023KT 9999 FEW008/// SCT009/// 07/06 Q1007=
METAR EHDV 101955Z AUTO 23019KT 9999 NSC 08/06 Q1009=
METAR EHFD 101955Z AUTO 24025KT 9999 NSC 07/06 Q1008=
METAR EHFZ 101955Z AUTO 22021KT //// // ///////// 08/06 Q1010 RE//=
METAR EHJA 101955Z AUTO 22023KT 9999 NSC 08/05 Q1010=
METAR EHJR 101955Z NIL=
METAR EHKV 101955Z AUTO 24023KT 9999 FEW018/// 09/06 Q1012=
METAR EHMA 101955Z AUTO 21015KT 9999 NSC 07/05 Q1012=
METAR EHMG 101955Z AUTO 23024KT 9999 FEW013/// 09/06 Q1011=
METAR EHPG 101955Z AUTO ///24KT 9999 FEW008/// SCT017/// 09/07 Q1013=
METAR EHQE 101955Z AUTO 23021KT 9999 FEW023/// SCT027/// BKN038///
09/06 Q////=
METAR EHSA 101955Z NIL=
METAR EHSC 101955Z NIL=

0000019900
423
SPUS70 KWBC 101958
SPECI
KCEC 101954Z AUTO 17009KT 1 1/4SM BR OVC003 10/09 A3028 RMK
     AO2=
KAGS 101955Z 34004KT 2SM -RA BR BKN005 OVC013 09/09 A3015 RMK AO2
     P0001=

0000010100
424
SABZ24 SBFL 102000
METAR SBFL 102000Z 09004KT 9999 FEW030 FEW035TCU
29/24 Q1008=

0000082700
425
SAMX44 MMMD 102000
METAR MMCE 101949Z 18006KT 6SM SCT005 25/21 A2989 RMK 8/500=
METAR MMCM 101944Z 12006KT 7SM SCT010 28/22 A2993
      RMK 8/100=
METAR MMCP 101942Z 12006KT 7SM  SCT030 29/22 A2991 RMK 8/100=
METAR MMCT 101947Z 17015KT 8SM  BKN020TCU 28/21 A2994 
      RMK 8/200 OCNL DROPS MSGTX MMMD=
METAR MMCZ 101941Z 12005KT 8SM  BKN015TCU 25/22 A2997 RMK 8/200 SC=
METAR MMMD 101943Z 12012KT 7SM  BKN025TCU 30/19 A2991 RMK 8/200=
METAR MMMT 101947Z 00000KT 8SM  OVC080 25/22 A2989 RMK 8/05/=
METAR MMTG 101952Z 06005KT 10SM  SKC 29/15 A2989 RMK ISOLD CU=
METAR MMTP 101943Z 24010KT 10SM  FEW020 30/21 A2984 RMK 8/100=
METAR MMUN 101941Z 14012KT 7SM  BKN018TCU 28/23 A2997 RMK 8/200=
METAR MMVA 101950Z 00000KT 5SM  SCT010 BKN015 OVC060 22/19 A2987 
      RMK 8/62/ VRBL CONDS=

0000011500
426
SABZ19 SBBE 102000
METAR SBBE 102000Z 03014KT 6000 -RA BKN018
FEW023TCU BKN100 26/22 Q10
08=

0000009700
427
SACS31 MROC 102000
METAR
MRPV 102000Z 06014KT 9999 FEW045 25/14 A2998 NOSIG=

0000010300
428
SASG20 GOOY 102000
METAR GOOY 102000Z 36012KT 9999  FEW010 BKN130 20/13 Q1013 NOSIG=

0000040800
429
SANK31 MNMG 102000
METAR 
MNPC  102000Z 09008KT 6000 VCRA BKN016TCU 26/25 Q1011 
                           RESHRA TCURA SW/W/NW 94?=
MNRS  102000Z 07008KT 9999 FEW020 30/20 Q1009=
MNJG   102000Z 00000KT 9999 BKN020 23/17 Q1011=
MNJU   102000Z 07010KT 9999 SCT020 32/22 Q1011=
MNCH  102000Z 09010KT 9999 FEW025 34/16 Q1009=
MNBL   102000Z 09008KT 9999 SCT017 29/24 Q1011 74?=

0000008900
430
SAEG31 HECA 102000
METAR HECA 102000Z 30003KT CAVOK 15/10 Q1023 NOSIG=

0000013200
431
FCLJ31 LJLJ 102000
TAF LJPZ 102000Z 1021/1106 12005KT 2500 BR SCT005 OVC007 TEMPO
1021/1106 5000 SCT007 OVC015=

0000019000
432
FCLJ32 LJLJ 102000
TAF LJCE 102000Z 1021/1106 25003KT 6000 NSC TEMPO 1021/1106
SCT040 BKN055 TEMPO 1022/1106 3500 BCFG BR SCT001 PROB30 TEMPO
1101/1106 0400 FG BKN001=

00000000