0000010900
913
UANT01 CWAO 110502
ARP SIA61 6103N03937W 0500 F330 MS60 240/14 KT
9VSWM QXT AME 110502 F17A
0000038500
914
SSVX13 LFPW 110500
ZZYY 61690 11014 0500/ 142782 029453 6113/ 11119 40228 52020 22219
 00093 33300 88870 20000 30932 20011 30936 20013 30928 20016 30928
 20021 30928 20026 30940 20030 30936 20035 30932 20040 30940 20045
 30936 20050 30880 20055 30802 20060 30784 20065 30784 20070 30784
 20075 30792 20079 30792 444 20131 11014 0457/ 50101 80102 80026
 9/015=
0000384300
915
SNFR30 LFPW 110500
AAXX 11054
07005 21240 81604 10048 20041 30067 40159 57004 7102/ 876//
  333 60005 87703 90710 91109=
07015 21120 82007 10037 20033 30100 40159 56005 71022 886//
  333 60005 88702 90710 91113 93100=
07020 26/// /2315 10103 20086 30135 40162 53005
  333 60005 90710 91199 00117=
07027 24937 71902 10046 20040 30078 40161 50000 710//
  333 60005 90710 91104=
07037 21/02 91607 10049 20048 39977 40164 58003 74742
  333 60005 90710 91109=
07072 24758 80801 10027 20027 30052 40170 56005 760//
  333 69925 90710 91107=
07110 22450 71903 10080 20077 30051 40167 53010 878//
  333 60005 83812 87623 90710 91108 93100=
07117 26/// /2309 10080 20063 30092 40163 53009
  333 60005 90710 91114=
07130 24120 80000 10068 20065 30111 40164 52004 710//
  333 60005 90710 91104=
07139 24902 73602 10038 20037 39988 40166 55000 744//
  333 60005 90710 91104=
07149 21230 70303 10056 20052 30053 40164 58003 72162 875//
  333 69925 85704 87650 90710 91105 93100=
07168 21957 73204 10027 20027 30019 40166 55005 710// 8703/
  333 60005 87359 90710 91108 93100=
07181 24727 80000 10023 20019 39755 40176 56006 761//
  333 69945 90710 91106=
07190 24256 80402 10008 20007 39992 40181 56013 761//
  333 69905 90710 91105=
07207 26/// /0107 10070 20064 30120 40173 53008
  333 60005 90710 91109=
07222 21115 70000 10075 20072 30132 40164 52009 71022 875//
  333 60005 82702 87612 90710 91104=
07240 21140 80201 10057 20051 30025 40163 53005 71022 8573/
  333 60005 85703 87362 90710 91105 93100=
07255 21958 80000 10059 20049 39961 40164 51011 76066 8807/
  333 69905 83358 88360 90710 91104 93100=
07280 24363 80000 10029 20023 39896 40176 56005 700//
  333 60005 90710 91102=
07299 22960 72302 10025 20013 39848 40185 56007 84031
  333 60005 84362 87071 90710 91105 93100=
07314 26/// /3112 10109 20095 30139 40167 51011
  333 60005 90710 91116=
07335 219// 61904 10056 20052 30019 40167 51012 7102/ 81038
  333 60005 81363 86268 90710 91105 93100=
07434 223// 81906 10072 20063 39695 40178 51013 886//
  333 60005 88709 90710 91110 93100=
07460 22970 80102 10054 20029 39775 40171 53010 8805/
  333 60005 88370 90710 91108 93100=
07471 24970 82504 10039 20014 39206 48794 53005 700//
  333 60005 90710 91112=
07481 22562 71711 10096 20059 39890 40179 55001 84501
  333 60005 84623 86070 90710 91118 93100=
07510 214// 82003 10088 20085 30116 40175 51012 7102/ 875//
  333 60005 87613 90710 91105=
07535 24965 /1304 10049 20039 39873 40193 53013 700//
  333 60005 90710 91106=
07558 24/69 /1307 10064 20053 39355 40196 53010 700//
  333 60005 90710 91115=
07577 24/56 /1803 10089 20072 30109 40200 58001 700//
  333 60005 90710 91106=
07591 24/// /0702 10035 21007 39183 4//// 56002 700//
  333 60005 90710 91104=
07607 24558 72404 10099 20088 30110 40182 52008 700//
  333 60005 90710 91106=
07621 24357 82503 10086 20074 39753 40189 51009 700//
  333 60005 90710 91108=
07627 22468 81601 10048 20038 39701 40204 51018 885//
  333 60005 88616 90710 91105 93100=
07630 24350 82306 10086 20074 30008 40191 51015 700//
  333 60005 90710 91110=
07643 22560 80306 10108 20080 30189 40199 55000 885//
  333 60005 85625 86633 90710 91107=
07650 22582 70907 10120 20073 30160 40199 58002 875//
  333 60005 87631 90710 91112 93100=
07661 26/// /0510 10111 20083 30042 40204 56002
  333 60005 90710 91114=
07690 22670 83309 10098 20048 30178 40210 56004 885//
  333 60005 88640 90710 91111 93100=
07747 24661 /2905 10092 20073 30138 40192 53010 700//
  333 60005 90710 91109=
07761 22480 50506 10050 20040 30190 40201 55009 81686
  333 60005 81716 85273 90710 91108 93100=
07790 22570 62103 10103 20066 30193 40208 57005 84502
  333 60005 84831 84075 90710 91107 93100=
0000152100
916
SNFR31 LFPW 110500
AAXX 11054
07024 24257 82009 10070 20064 39992 40159 53004 700//
  333 60005 90710 91114=
07031 24450 82105 10058 20054 39988 40163 57003 700//
  333 60005 90710 91107=
07100 26/// /3613 10089 20070 30086 40169 53018
  333 69925 90710 91121=
07103 26/// /2613 10102 20091 30068 40166 51010
  333 60005 90710 91116=
07107 26/// /3519 10090 20082 30145 40167 53013
  333 69985 90710 91122=
07118 24486 62307 10077 20066 30060 40166 53007 700//
  333 60005 90710 91111=
07120 24667 /2404 10066 20055 30002 40167 53008 700//
  333 60005 90710 91107=
07125 24/00 92304 10034 20028 30095 40167 53008 745//
  333 60005 90710 91105=
07134 24/01 93603 10048 20048 30042 40166 52007 745//
  333 60005 90710 91107=
07200 26/// /2605 10099 20088 30146 40169 53009
  333 60005 90710 91108=
07201 24010 80000 10062 20059 30058 40174 53010 741//
  333 60005 90710 91101=
07203 26/// /0102 10070 20067
  333 60005 90710 91105=
07205 24/01 92802 10065 20062 30120 40174 53009 745//
  333 60005 90710 91104=
07217 24233 83504 10081 20077 30163 40167 51011 710//
  333 60005 90710 91108=
07230 21/04 90000 10065 20064 30107 40166 53010 74742
  333 60005 90710 91103 93100=
07235 22650 73502 10063 20056 30099 40163 53002 875//
  333 60005 87643 90710 91106=
07300 26/// /3307 10089 20077 30129 40168 51014
  333 60005 90710 91116=
07306 21245 82603 10081 20077 30055 40164 51011 7102/ 875//
  333 60005 84704 86640 90710 91106 93100=
0000118400
917
SNFR32 LFPW 110500
AAXX 11054
07140 24156 83603 10056 20053 30007 40163 57002 700//
  333 69925 90710 91106=
07143 24134 80103 10056 20052 39972 40162 58003 758//
  333 69905 90710 91105=
07145 21740 83502 10054 20054 39950 40163 58002 76062 885//
  333 69905 88650 90710 91103 93100=
07146 24114 80000 10055 20052 39966 40163 50000 760//
  333 69905 90710 91102=
07150 24657 80302 10055 20052 30106 40167 50002 700//
  333 69925 90710 91103=
07153 24550 /0603 10052 20045 30048 40162 58004 761//
  333 60015 90710 91105=
07156 24/22 /0000 10063 20057 30067 40163 58002 710//
  333 69905 90710 91103=
07157 21050 80000 10053 20047 30029 40167 57001 72162 876//
  333 69905 82701 85702 85643 90710 91106 93100=
07245 24/42 /0801 10049 20046 30010 40164 53003 710//
  333 60005 90710 91108=
07247 24947 70000 10036 20030 30059 40163 52007 710//
  333 60005 90710 91104=
07249 24139 80403 10053 20052 30005 40159 58003 710//
  333 69905 90710 91109=
07257 24957 81501 10058 20044 39946 40163 50005 700//
  333 60005 90710 91104=
07354 22969 72408 10082 20065 39971 40162 53008 8707/
  333 60005 87361 90710 91112 93100=
0000049600
918
SNFR33 LFPW 110500
AAXX 11054
07093 24750 80803 10013 20009 39857 40177 58009 700//
  333 69905 90710 91105=
07180 21130 81002 10008 20008 39914 40179 56009 76162 885//
  333 69925 83703 87656 90710 91104 93100=
07288 22960 70000 10030 20023 39798 40178 57004 8707/
  333 60005 87360 90710 91102 93100=
07292 24967 70605 10033 20017 39842 40177 55005 700//
  333 60005 90710 91107=
07386 24958 70703 10025 20019 39935 40177 58002 700//
  333 60005 90710 91107=
0000127900
919
SNFR34 LFPW 110500
AAXX 11054
07260 24963 81401 10061 20043 39948 40164 53004 700//
  333 60005 90710 91107=
07266 24856 62402 10036 20030 39979 40168 53003 700//
  333 69905 90710 91106=
07374 24/41 /1902 10023 20019 39867 40177 53010 710//
  333 60005 90710 91104=
07379 24945 81202 10035 20026 39871 40171 55000 710//
  333 60005 90710 91103=
07385 21930 61503 10062 20058 39907 40172 55002 7102/ 83031
  333 60005 83359 85073 90710 91107 93100=
07475 22/70 71612 10059 20027 39687 40172 55000 80002
  333 60005 87070 90710 91115 93100=
07480 24969 81810 10099 20051 39935 40174 55003 700//
  333 60005 90710 91120=
07482 24/69 /1609 10094 20058 39876 40179 53002 700//
  333 60005 90710 91127=
07486 24466 82211 10084 20059 39725 40187 56002 700//
  333 60005 90710 91119=
07487 26/// /0401 10016 20012 39921 40195 55000
  333 60005 90710 91104=
07491 21130 41301 10013 20009 39908 40200 53004 7100/ 82602
  333 60005 82701 83070 90710 91104 93100=
07497 22982 40000 10038 20003 39171 48482 57010 80002
  333 60005 84070 90710 91104 93100=
07549 21984 01006 10056 20028 39432 40193 51014 700//
  333 60005 90710 91113 93100=
07570 24/43 /0000 10070 20069 39878 40218 52001 710//
  333 60005 90710 91102=
0000148000
920
SNFR35 LFPW 110500
AAXX 11054
07316 24432 72003 10090 20082 30143 40165 51011 710//
  333 60005 90710 91105=
07330 21608 71302 10050 20050 30094 40170 52012 74642 875//
  333 60005 87640 90710 91103 93100=
07361 24/70 /2207 10093 20051 39729 40164 53007 700//
  333 60005 90710 91117=
07412 24350 71801 10068 20059 30133 40171 51010 700//
  333 60005 90710 91105=
07438 24/25 /0000 10037 20031 30047 40192 53013 710//
  333 60005 90710 91102=
07500 26/// /3205 10113 20104 30141 40175 52009
  333 60005 90710 91112=
07503 264// 82904 10122 20103 30130 40177 52010
  333 60005 90710 91111=
07524 24358 80701 10077 20076 30097 40182 51010 700//
  333 60005 90710 91103=
07530 24446 81003 10050 20050 30117 40182 52011 710//
  333 60005 90710 91105=
07540 24/60 /1403 10065 20058 30058 40190 51012 700//
  333 60005 90710 91104=
07552 24984 81205 10066 20043 39502 40191 51014 700//
  333 60005 90710 91111=
07600 26/// /2204 10106 20085 30135 40187 51006
  333 60005 90710 91107=
07602 22565 81902 10110 20087 30100 40186 51009 885//
  333 60005 85623 88633 90710 91103 93100=
07603 26562 81803 10099 20090 30145 40183 51010
  333 60005 90710 91105=
07610 24457 82002 10095 20081 39965 40186 51008 700//
  333 60005 90710 91105=
07622 22457 71703 10090 20078 30032 40188 52013 876//
  333 60005 87710 90710 91104 93100=
07632 24/56 /0000 10047 20038 39980 40191 51017 700//
  333 60005 90710 91103=
0000190000
921
SNFR36 LFPW 110500
AAXX 11054
07554 24470 81703 10044 20027 39114 4//// 51012 700//
  333 60005 90710 91108=
07560 26/// /1824 10008 20008 38426 4//// 53003
  333 69925 90710 91132=
07563 24682 81005 10106 20069 30145 40204 56004 700//
  333 60005 90710 91108=
07579 24550 82702 10081 20072 30138 40206 56003 700//
  333 60005 90710 91103=
07586 26/// /1103 10105 20059 30075 40204 56003
  333 60005 90710 91108=
07588 24570 81004 10051 20028 39662 40219 51003 700//
  333 60005 90710 91111=
07635 24468 81303 10102 20078 30035 40189 51009 700//
  333 60005 90710 91109=
07638 24456 80304 10110 20084 30176 40195 53003 700//
  333 60005 90710 91110=
07641 26/// /3506 10111 20087 30103 40196 53002
  333 60005 90710 91110=
07646 24559 81003 10099 20057 30072 40200 55001 700//
  333 60005 90710 91108=
07647 24684 81006 10113 20070 30170 40198 56003 700//
  333 60005 90710 91112=
07648 24570 80806 10104 20063 30131 40203 56002 700//
  333 60005 90710 91110=
07666 26/// /1006 10123 20097 30138 40186 53006
  333 60005 90710 91110=
07667 24579 83603 10114 20086 30200 40205 56003 700//
  333 60005 90710 91104=
07675 24/56 /0000 10082 20070 30110 40211 54000 700//
  333 60005 90710 91103=
07684 24581 80102 10105 20072 30204 40209 58001 700//
  333 60005 90710 91105=
07749 26/// /3010 10107 20070 30083 40189 51009
  333 60005 90710 91113=
07754 26986 /1905 10060 20050 30131 40203 56004
  333 60005 90710 91109=
07765 24586 82803 10117 20078 30190 40211 55005 700//
  333 60005 90710 91105=
07770 26/// /0612 10122 20101 30062 40202 56005
  333 60005 90710 91119=
07775 26/// /2307 10122 20081 30118 40208 58005
  333 60005 90710 91107=
07780 24586 70609 10125 20090 30177 40205 55004 700//
  333 60005 90710 91115=
07785 26/// /0000 10115 20087 30066 40203 58004
  333 60005 90710 91103=
0000111200
922
SNFR37 LFPW 110500
AAXX 11054
07002 26/// /1710 10051 20041 30063 40147 58009
  333 60005 90710 91117=
07003 24239 81404 10043 20036 30130 40155 57006 710//
  333 60005 90710 91108=
07010 26/// /1909 10045 20033 30128 40148 58007
  333 60005 90710 91115=
07028 26/// /1405 10066 20060 30031 40159 57001
  333 69905 90710 91108=
07038 24/08 91503 10051 20051 39994 40164 58004 745//
  333 60005 90710 91105=
07040 26/// /1708 10056 20049 30105 40154 58001
  333 60005 90710 91114=
07046 24264 81908 10067 20052 30044 40159 50000 700//
  333 60005 90710 91112=
07055 21145 81902 10047 20041 30031 40168 50000 7102/ 886//
  333 60005 88703 90710 91105=
07057 24226 80000 10048 20044 30059 40168 55001 710//
  333 60005 90710 91103=
07061 24/03 /1904 10039 20039 30046 40168 55006 745//
  333 60005 90710 91107=
07075 24239 81103 10039 20032 39988 40171 56007 710//
  333 69905 90710 91107=
07169 24879 80905 10045 20032 39995 40165 56007 700//
  333 60005 90710 91108=
07283 24957 /1607 10035 20028 39605 40170 56009 700//
  333 60005 90710 91111=
0000240600
923
SIIN41 VOMM 110900
AAXX 11094
43086 32597 32303 10284 20162 39950 40126 83500
  333 58011=
43105 32597 31806 10290 20206 30132 40139 82501
  333 58005=
43128 31496 59903 10284 20163 39517 40113 70511 84401
  333 56309 58007 83615=
43149 31496 61109 10284 20192 30136 40139 70511 84830
  333 56290 58009 84618=
43150 31596 10000 10274 20201 30065 40140 70500 81500
  333 58005 81620=
43181 31596 31402 10300 20174 30101 40128 70500 83500
  333 58007=
43185 32597 51606 10278 20192 30128 40131 83531
  333 58005 83620 84360=
43189 32597 29901 10298 20198 30130 40139 81502
  333 58006=
43198 32496 31404 10300 20090 30281 40083 82501
  333 56509 58002 82615=
43201 32497 42303 10306 20136 39378 40077 84800
  333 58001 82615 83820=
43213 32597 40902 10314 20135 39797 40107 81438
  333 59001=
43220 32597 21605 10280 20194 30118 40125 82400
  333 58005=
43221 32597 11802 10296 20188 30113 40126 81500
  333 58011=
43225 32997 03202 10310 20205 30117 40122
  333 58010=
43226 32997 03204 10306 20189 30088 40117
  333 58006=
43233 32497 31104 10302 20126 39298 40083 83400
  333 58003=
43237 32997 31103 10316 20147 39718 40102 82032
  333 58004 82360 83075=
43245 32597 30502 10296 20299 30103 40130 82401
  333 58008=
43279 32497 20704 10288 20193 30116 40134 82400
  333 58010 82618=
43284 32496 22710 10312 20211 39986 40099 82500
  333 58002 82620=
43295 32997 40903 10282 20128 39102 48524 80001
  333 59009 84075=
43296 NIL=
43311 32597 50505 10320 20255 40109 85401
  333 58005 84620 83075=
43314 32997 02702 10332 20234 40107
  333 58006=
43321 31496 00705 10292 20168 39672 40112 70521 81530
  333 58010 81615=
43329 32597 30702 10294 20236 30110 40124 82501
  333 58010=
43344 31496 40706 10300 20186 30022 40121 70511 84800
  333 58010 83616=
43346 32597 30511 10276 20240 30113 40120 82501
  333 58008 82620=
43347 32597 33402 10276 20223 30107 40118 82501
  333 58008=
43348 32597 50503 10305 20215 30109 40116 84401
  333 58007=
43353 31996 32910 10308 20223 40106 70500 82011
  333 56099 58007 82359=
43361 32997 10904 10286 20221 30118 40124 80001
  333 58009=
43363 32597 20211 10280 20224 30110 40123 82800
  333 58011=
43369 32497 40903 10308 20248 40108 83401
  333 58010 83618=
43371 32997 09903 10320 20217 30028 40099
  333 58004=
0000011000
924
UANT01 CWAO 110502
ARP SWR53P 4621N04832W 0502 F370 MS63 311/52 KT
HBJHE QXT AOW 110502 J92A
0000011000
925
UANT01 CWAO 110502
ARP VIR76X 5041N03656W 0502 F370 MS54 202/16 KT
GVROS DDL XXH 110502 F20A
0000011000
926
UANT01 CWAO 110502
ARP TSC522 5058N03536W 0502 F390 MS53 224/37 KT
CGTSJ QXT AOW 110502 J24A
0000015700
927
SSVX13 LFPW 110500
ZZYY 44762 11014 0500/ 751183 006213 6113/ 11119 40168 52025 22219
 00106 444 20130 11014 0457/ 50101 80096 80000 9/015=
0000015700
928
SSVX13 LFPW 110500
ZZYY 44747 11014 0500/ 758628 045299 6113/ 11119 49959 57003 22219
 00046 444 20130 11014 0500/ 50101 80154 80000 9/015=
0000015700
929
SSVX13 LFPW 110500
ZZYY 44745 11014 0500/ 745763 050373 6113/ 11119 40244 57014 22219
 00015 444 20130 11014 0500/ 50101 80150 80000 9/015=
0000015700
930
SSVX13 LFPW 110500
ZZYY 44624 11014 0500/ 746690 020064 6113/ 11119 40077 57038 22219
 00128 444 20130 11014 0457/ 50101 80098 80016 9/015=
0000015700
931
SSVX13 LFPW 110500
ZZYY 62713 11014 0500/ 733805 019604 6113/ 11119 40156 57007 22219
 00182 444 20130 11014 0457/ 50101 80098 80000 9/015=
0000015700
932
SSVX13 LFPW 110500
ZZYY 61688 11014 0500/ 144051 029457 6113/ 11119 40224 52023 22219
 00088 444 20131 11014 0457/ 50101 80090 80010 9/015=
00000000