0000009700
033
SASB31 VCRI 110010
METAR VCRI 110010Z 36003KT 9000 FEW016   21/20 Q1011 NOSIG=

0000013400
034
SARA31 RUMS 110000
METAR UEEE 110000Z 24001MPS 1500 R23L/1500N BR OVC200 M44/M48 Q1035
NOSIG RMK QFE767 23490145=

0000055400
035
SARA36 RUMS 110000
METAR UWUU 110000Z 16003MPS 130V210 4500 BR OVC010 M02/M03 Q1007
14620342 TEMPO 1000 SN FZRA BKN003 RMK QFE745/0993 FBL ICE INC=
METAR USCC 110000Z 16004MPS 3000 -SHSN BR SCT010CB OVC070 M07/M07
Q1009 09490350 TEMPO 1100 SHSN BKN005 RMK QFE736=
METAR USNN 110000Z 03002MPS 9999 OVC016 M13/M15 Q1018 NOSIG RMK
QFE758 21420332=
METAR USRR 110000Z 08003MPS 7000 SCT050 M27/M30 Q1018 NOSIG RMK
QFE759 07////35=
METAR USSS 110000Z 13002MPS 7000 -SN BKN011 OVC067 M04/M06 Q1008
08590230 NOSIG RMK QFE736=

0000095100
036
SARS32 RUMS 110000
METAR URKA 110000Z 22009G13MPS 9999 BKN023 09/07 Q1011 RMK
QFE754/1005=
METAR URKK 110000Z 22009G12MPS CAVOK 09/00 Q1010 TEMPO 22010G15MPS
RMK QFE754 SC065=
METAR URML 110000Z 18003MPS 9999 SKC M00/M02 Q1014 NOSIG RMK
QFE761/1014 SC070=
METAR URMM 110000Z 30002MPS 7000 SCT160 M05/M05 Q1011 30CLRD70 NOSIG
RMK QFE730/0974=
METAR URMN 110000Z 19003MPS 9999 FEW260 03/M07 Q1012 NOSIG RMK QFE722
SC06=
METAR URMO 110000Z NIL=
METAR URMT 110000Z 20003MPS CAVOK 01/M01 Q1009 NOSIG RMK QFE718
SC0.60=
METAR URRR 110000Z 23010G13MPS 9999 OVC012 07/05 Q1006 22290045 TEMPO
24010G15MPS=
METAR URSS 110000Z 05005MPS 9999 SCT230 03/M02 Q1016 NOSIG RMK
R06/08005MPS QFE760 02000070 06//////=
METAR URWA 110000Z 19003MPS 9999 OVC040 01/M01 Q1015 NOSIG RMK
QFE763/1017 SC055=
METAR URWI 110000Z NIL=
METAR URWW 110000Z 20008MPS 4000 -RA BR BKN020 OVC100 03/02 Q1007
NOSIG RMK 29290060=

0000094800
037
SARS35 RUMS 110000
METAR USPP 110000Z 17003MPS 9999 BKN008 M05/M06 Q1007 21350139 NOSIG
RMK QFE745/0993=
METAR UWKD 110000Z 16009G12MPS 5000 BR OVC003 M00/M00 Q1002
R11/2/0050 TEMPO OVC003 RMK QFE741/0988=
METAR UWKE 110000Z 19004MPS 0300 R21/0800N FZFG VV001 M05/M05 Q1005
NOSIG RMK  QBB050 QFE737/0982 21420542=
METAR UWKS 110000Z 15007MPS 2200 -SHSN OVC004CB M00/M01 Q0998 NOSIG
RMK QBB120 QFE734 24290250=
METAR UWLW 110000Z 19006MPS 5000 BR OVC007 00/M00 Q1003 20820550
NOSIG RMK QFE747=
METAR UWOR 110000Z 21004MPS 9999 SCT020 OVC100 M03/M04 Q1009 25450245
NOSIG RMK QFE733/0978=
METAR UWOO 110000Z 20002MPS M0300 R08/0900N FZFG VV002 M01/M02 Q1009
08590332 NOSIG RMK QBB060 QFE746/0995=
METAR UWSS 110000Z 17007G10MPS 0800 R12/1700 FG VV002 00/00 Q1004
1219//55 NOSIG RMK QFE741=
METAR UWWW 110000Z 18004MPS 9999 OVC004 M00/M01 Q1005 23520540
33//99// TEMPO OVC004 RMK QBB140 QFE743/0991=

0000047200
038
SARS33 RUMS 110000
METAR ULLI 110000Z 34007MPS 9999 -SN BKN017 OVC066 M02/M04 Q0987
28550540 78////// NOSIG=
METAR UUBW 110000Z 21005MPS 9999 OVC012 04/02 Q0987 NOSIG=
METAR UUDD 110000Z 23003MPS 9999 OVC017 04/03 Q0987 64290195 NOSIG=
METAR UUDL 110000Z NIL=
METAR UUEE 110000Z 19004MPS 9999 OVC010 03/02 Q0985 75290151 25290151
NOSIG=
METAR UUWW 110000Z 19003MPS 9999 BKN009 OVC100 03/02 Q0986 24290045
NOSIG=
METAR UUMO 110000Z NIL=

0000029300
039
SARS31 RUMS 110000
METAR ULWC 110000Z NIL=
METAR UUBP 110000Z NIL=
METAR UUOB 110000Z 26006MPS 4000 BR OVC007 02/02 Q0998 29290050
NOSIG=
METAR UUOK 110000Z NIL=
METAR UWGG 110000Z 17006MPS 4500 -SN OVC006 01/00 Q0991 TEMPO 1000
SHSNRA VV004 18690540 RMK QFE736=

0000090300
040
SACI41 ZBBB 110000
METAR ZBHH 110000Z 05002MPS 6000 NSC M19/M24 Q1027 NOSIG=
METAR ZGHA 110000Z 34003MPS 2500 -RA BR SCT004 BKN007 OVC033
05/04
Q1030 NOSIG=
METAR ZHCC 110000Z 26001MPS 0600 R12/0900V1000N FZFG NSC
M03/M04
Q1032 BECMG 0800=
METAR ZHHH 110000Z 05002MPS 2100 -RA BR SCT015 03/02 Q1031
BECMG
TL0150 3200 BR=
METAR ZJHK 110000Z 36002MPS 6000 NSC 18/17 Q1021 NOSIG=
METAR ZJSY 110000Z 07003MPS 9999 SCT066 20/16 Q1020 NOSIG=
METAR ZLLL 110000Z 01001MPS CAVOK M18/M25 Q1028 NOSIG=
METAR COR ZSNJ 110000Z 06004MPS 1800 BR NSC 04/M00 Q1032
BECMG
TL0130 3000=
METAR ZSOF 110000Z 08002MPS 2500 BR NSC 03/00 Q1031 BECMG
AT0200
3000 BR=
METAR COR ZUCK 110000Z VRB01MPS 3000 -RA BR FEW007 SCT023 06/04
Q1028 NOSIG=
METAR ZYCC 110000Z 18003MPS CAVOK M17/M23 Q1027 NOSIG=
METAR ZYHB 110000Z 23003MPS 190V250 8000 NSC M23/M26
Q1026 NOSIG=

0000065400
041
SARS36 RUMS 110000
METAR ULAA 110000Z 07008G11MPS 9999 DRSN OVC020 M17/M20 Q1001 TEMPO
0600 SN BLSN OVC003 RMK QFE750/1000 SC050=
METAR ULMM 110000Z 00000MPS 9000 BKN003 M33/M37 Q1017 NOSIG RMK
QBB110 OBST OBSC QFE755 31450239=
METAR ULOO 110000Z NIL=
METAR ULPB 110000Z AUTO 01005MPS 330V040 1200 NCD M10/M11 Q0990=
METAR UMKK 110000Z 31004MPS 270V330 9999 BKN023CB OVC100 04/01 Q1005
R24/29//60 NOSIG RMK QFE753/1004=
METAR UUOO 110000Z 24006G09MPS 8000 -RA OVC004 02/01 Q0995 NOSIG RMK
12290250=
METAR UUYY 110000Z 02003MPS 2400 -SHSN BR BKN010CB OVC066 M15/M16
Q1003 TEMPO 0700 +SHSN 0145//33 RMK QFE743/0991=

0000008900
042
SAID32 WADL 110000
METAR WADL 110000Z 02004KT 8000 FEW016 26/24 Q1012=

0000012100
043
FTAG31 KWBC 110006
TAF
TAF SAME 102300Z 1100/1124 14005KT 9999 FEW040 TN18/1110Z
      TX32/1120Z=

0000181900
044
SPUS70 KWBC 110006
SPECI
KTDR 102359Z AUTO 13007KT 4SM BR OVC003 17/ A3007 RMK AO2 OVC V
     BKN $=
PABA 102357Z AUTO 27019KT 2 1/2SM BR OVC045 M27/M29 A2985 RMK AO2
     PK WND 27026/2320 SNE48 P0000 FZRANO=
PASC 102356Z COR 25013KT 3SM -SN BR OVC022 M30/M33 A2986 RMK AO2
     P0000=
KCEU 110002Z AUTO 07003KT 2SM BR OVC003 10/08 A3014 RMK AO2=
KFAY 110002Z AUTO 02007KT 2 1/2SM -RA BR BKN020 BKN029 OVC060
     13/12 A3016 RMK AO2 P0002=
KFTY 110002Z 09004KT 1 1/2SM BR OVC003 09/09 A3008 RMK AO2=
KGZH 110002Z AUTO 13005KT 1 1/4SM BR OVC003 14/13 A3003 RMK AO2
     T01440133=
KIAD 110002Z VRB03KT 3/4SM -DZ BR BKN003 OVC007 02/01 A3028 RMK
     AO2 SFC VIS 1 1/4 P0000=
KOVS 110002Z AUTO 03003KT 2SM -RA BR OVC007 01/00 A2956 RMK AO2
     P0000 T00110000=
KRDU 110002Z 35005KT 1/4SM -RA BR BKN003 OVC024 06/06 A3020 RMK
     AO2 SFC VIS 2 P0001=
KRHI 110002Z AUTO 13005KT 2SM -SN BR SCT004 OVC019 M04/M05 A2959
     RMK AO2 P0000 T10391050=
KSTP 110002Z 15006KT 2SM BR OVC004 M01/M02 A2957 RMK AO2=
KAUW 110003Z AUTO 09004KT 1SM -SN BR SCT009 OVC020 M02/M03 A2958
     RMK AO2 P0001 T10221028=
KCQX 110002Z AUTO VRB04KT 2 1/2SM -RA BR BKN009 OVC012 03/02 A3040
     RMK AO2 P0000 T00330022=
KDTW 110003Z 13004KT 1SM BR OVC004 03/02 A2991 RMK AO2 SFC VIS
     3=
KHQM 110003Z AUTO 16010KT 3SM -RA BKN015 BKN023 OVC037 A2992 RMK
     AO2 P0001 TSNO $=
KLCH 110003Z 17007KT 4SM -RA BR OVC004 18/17 A2986 RMK AO2 P0000
     T01780172=
KPNS 110003Z AUTO 10005KT 1SM R17/3500V5000FT -RA BR VV003 17/16
     A3001 RMK AO2 P0001 T01670156=
KUNO 110003Z AUTO 14009KT 1 3/4SM BR OVC002 07/07 A2964 RMK AO2
     T00670067=
KXNA 110003Z 24007KT 8SM -TSRA FEW012 SCT020 OVC024 11/11 A2959
     RMK AO2 LTG DSNT NE AND S AND SW P0001=

0000010600
045
SPUS31 KWBC 110006
SPECI
KIAD 110002Z VRB03KT 3/4SM -DZ BR BKN003 OVC007 02/01 A3028=

0000010600
046
SPUS31 KWBC 110006
SPECI
KRDU 110002Z 35005KT 1/4SM -RA BR BKN003 OVC024 06/06 A3020=

0000004200
047
SABO41 KWBC 110000
NIL=

0000011000
048
SABZ41 KWBC 110000 CCA
METAR
SBGO 110000Z 03012KT 8000 -TSRA SCT030 FEW035CB 21/17 Q1017=

0000056100
049
SABZ41 KWBC 110000
METAR
SBAA NIL=
SBAF NIL=
SBAR 110000Z 11013KT 9999 SCT015 27/22 Q1013=
SBBG NIL=
SBBH NIL=
SBBI NIL=
SBBU NIL=
SBCJ NIL=
SBCO NIL=
SBCR NIL=
SBCT 110000Z 07007G17KT 9000 -TSRA FEW006 SCT010 FEW025CB BKN05 0
     20/16 Q1018=
SBCV NIL=
SBCY 110000Z 00000KT 9999 SCT020 BKN100 24/20 Q1011=
SBCZ NIL=
SBDN NIL=
SBFL 110000Z 01007KT 9999 TS SCT030 FEW035CB 27/24 Q1011=
SBFN NIL=
SBGO 110000Z 03012KT 8000 -TSRA FEW035CB SCT035 21/17 Q1017=
SBGW NIL=
SBHT NIL=
SBIH NIL=
SBIL NIL=

0000035800
050
FTUS52 KWBC 110006 CCA
TAF COR
KLBT 110005Z 1100/1124 14007KT P6SM VCSH BKN019
      TEMPO 1100/1101 2SM SHRA
     FM110500 14006KT 4SM BR BKN008 OVC015
     FM110900 17007KT 3SM BR BKN004
     FM111500 20012G18KT P6SM VCSH BKN009
      TEMPO 1117/1121 21018G28KT 2SM +SHRA BKN012CB
     FM112200 25014G23KT P6SM VCSH BKN020=

0000012500
051
FTUS52 KWBC 110006 AAA
TAF AMD
KABI 110004Z 1100/1124 28006KT P6SM SKC
     FM111900 24006KT P6SM SKC=

0000035800
052
FTUS80 KWBC 110006 CCA
TAF COR
KLBT 110005Z 1100/1124 14007KT P6SM VCSH BKN019
      TEMPO 1100/1101 2SM SHRA
     FM110500 14006KT 4SM BR BKN008 OVC015
     FM110900 17007KT 3SM BR BKN004
     FM111500 20012G18KT P6SM VCSH BKN009
      TEMPO 1117/1121 21018G28KT 2SM +SHRA BKN012CB
     FM112200 25014G23KT P6SM VCSH BKN020=

00000000