0000033800
773
SANO34 ENMI 101850
METAR ENBN 101850Z 08012KT 040V110 CAVOK M06/M13 Q1006=
METAR ENBV 101850Z NIL=
METAR ENFG 101850Z NIL=
METAR ENHF 101850Z VRB01KT CAVOK M10/M11 Q1016 RMK WIND 1254FT
           06003KT=
METAR ENRA 101850Z 14008KT CAVOK M11/M19 Q1009=
METAR ENSH 101850Z 06015KT 9999 FEW040 M05/M13 Q1013=

0000010200
774
SACV20 GVBA 101900
METAR GVBA 101900Z 05009KT 9999 FEW015 BKN200 21/14 Q1014 NOSIG=

0000067500
775
SANO31 ENMI 101850
METAR ENAN 101850Z 11012KT CAVOK M05/M15 Q1015 NOSIG=
METAR ENBR 101850Z 01005KT 9000 -RADZ FEW003 SCT007 BKN015 04/03
           Q0998 TEMPO SHRA BKN008 RMK WIND 1200FT 34008KT=
METAR ENBO 101850Z 08012KT 060V120 CAVOK M07/M16 Q1011 NOSIG=
METAR ENDU 101850Z 00000KT 9999 FEW045 M22/M24 Q1017=
METAR ENGM 101850Z 17008KT 140V200 9999 -SN BKN007 M01/M02 Q0996
           NOSIG=
METAR ENOL 101850Z NIL=
METAR ENVA 101850Z 08007KT 2400 -SN FEW025 BKN031 M07/M12 Q1001 TEMPO
           8000 -SN VV012 RMK WIND 670FT 11012KT=
METAR ENZV 101850Z 26012KT 9999 -SHRA SCT010 BKN015 07/06 Q1001 TEMPO
           SHRA BKN008=

0000012100
776
SAUK33 EGGY 101850 RRA
METAR EGNS 101850Z 30004KT 270V330 9999 FEW014 BKN034 07/05 Q1007
     NOSIG=

0000059700
777
SANO32 ENMI 101850
METAR ENAL 101850Z 04013KT 9999 SCT035 M00/M05 Q0999=
METAR ENCN 101850Z 00000KT 9999 FEW026 01/01 Q1001=
METAR ENHD 101850Z 26011KT 9999 -SHRA FEW003 BKN009 06/05 Q1000=
METAR ENRO 101850Z 09012KT 7000 -SN FEW006 SCT009 BKN016 M12/M15
           Q0996=
METAR ENRY 101850Z 14007KT 9999 SCT012 00/M01 Q0998=
METAR ENSB 101850Z 22011KT 9999 FEW020 BKN025 M01/M05 Q1006 RMK WIND
           1400FT 22014KT=
METAR ENTC 101850Z 08003KT CAVOK M11/M13 Q1017 NOSIG RMK WIND 2600FT
           10013KT=
METAR ENTO 101850Z VRB02KT CAVOK M00/M01 Q0998=

0000079200
778
SAIY31 LIIB 101850
METAR LIEA 101850Z 03003KT CAVOK 09/08 Q1020=
METAR LIEE 101850Z VRB02KT CAVOK 13/12 Q1019=
METAR LIEO 101850Z 22004KT CAVOK 08/07 Q1021=
METAR LIMC 101850Z 22003KT 9999 BKN040 09/06 Q1021 NOSIG=
METAR LIME 101850Z 13005KT 2500 BR BKN005 09/08 Q1021=
METAR LIMF 101850Z 35003KT 7000 BKN030 08/05 Q1020=
METAR LIMJ 101850Z 20004KT 9999 SCT020 BKN040 14/10 Q1021=
METAR LIML 101850Z VRB02KT 9999 SCT035 SCT045 09/07 Q1021 NOSIG=
METAR LIRA 101845Z 00000KT 8000 SCT030 BKN070 11/09 Q1021=
METAR LIRF 101850Z VRB01KT 9999 BKN027 11/09 Q1022 NOSIG=
METAR LIRN 101850Z 34004KT 330V030 5000 BR BKN030 13/08 Q1022=
METAR LIRP 101845Z 13003KT 9999 FEW025 BKN050 11/09 Q1021 NOSIG=
METAR LIRQ 101850Z 09003KT 9999 FEW024 BKN035 12/11 Q1021=

0000074200
779
SAIY32 LIIB 101850
METAR LIBD 101850Z 23005KT 8000 NSC 09/09 Q1021=
METAR LIBR 101845Z 23005KT 9999 FEW020 10/09 Q1021 NOSIG=
METAR LICC 101850Z NIL=
METAR LICJ 101850Z 10003KT 070V150 CAVOK 12/09 Q1021=
METAR LIPB 101850Z 00000KT 9999 BKN120 04/04 Q1021=
METAR LIPE 101850Z 09003KT 0100 R12/0600V0700N FG BKN001 07/07
Q1021=
METAR LIPH 101845Z /////KT 1700 BR BKN015 SCT030 06/05 Q1021=
METAR LIPK 101850Z 00000KT 3000 BR BKN038 09/06 Q1021=
METAR LIPQ 101850Z VRB01KT 2000 BR SCT007 BKN015 08/06 Q1021=
METAR LIPR 101845Z /////KT 8000 BKN045 10/09 Q1020=
METAR LIPX 101845Z 00000KT 1000 R04/P1500D BR SCT010 BKN045 08/06
      Q1022=
METAR LIPZ 101850Z VRB02KT 2500 BR SCT015 SCT050 07/06 Q1021=

0000008700
780
SAIY32 LIIB 101850 RRA
METAR LICC 101850Z 27008KT CAVOK 12/08 Q1021=

0000010500
781
SACV20 GVNP 101900
METAR GVNP 101900Z 03012KT EST 9999 SCT17 BKN200 22/14 Q//// NOSIG=

0000033300
782
USLJ10 LJLM 110300
TTAA 11041 14015
99985 07012 36001 00/// ///// ///// 92820 06428
27504 85508 01419 24011 70056 05950 29509 50563 20576 28521 40725
31569 28019 30921 47161 27522 25040 55941 27033 20179 64161 28031
15355 61979 27523 10609 58580 30524 88187 66561 26525 77165 28034
40812 31313 45708 80333 =
0000020800
783
SASQ31 LZIB 101900
METAR LZIB 101900Z 29009KT CAVOK 05/01 Q1020 NOSIG=
METAR LZKZ 101900Z 00000KT 4000 BR FEW002 OVC005 01/01 Q1017=
METAR LZTT 101900Z 26018KT 9999 FEW046 02/M03 Q1015=

0000018800
784
SASQ41 LZIB 101900
METAR LZPP 101900Z 28008KT CAVOK 04/M01 Q1020=
METAR LZSL 101900Z 29007KT CAVOK 01/M02 Q1018=
METAR LZZI 101900Z VRB01KT 9999 BKN055 03/M00 Q1018=

0000009800
785
SABZ19 SBMA 101900
METAR SBMA 101900Z 14003KT 9999 SCT018 BKN090 29/22
Q1009=

0000011700
786
SACN61 CYPR 101900
METAR CYPR 101900Z AUTO 14010G15KT 9SM FEW022 SCT044 04/03 A2975 RMK
 SLP074=

0000011300
787
SABZ18 SBGR 101900
METAR SBGR 101900Z 36007KT 9999 TS SCT045 FEW060CB
BKN100 31/15 Q101
4=

0000029400
788
FTFR31 LFPW 101700 AAA
TAF AMD LFPG 101859Z 1018/1124 15005KT 6000 BKN005 BECMG 1019/1021
3000 BR PROB40 TEMPO 1023/1110 0200 FG BKN002 BECMG 1102/1103 22010KT
 BECMG 1109/1111 9999 NSW SCT012 PROB40 TEMPO 1111/1116 BKN012 BECMG
1122/1124 4000 BR TX08/1113Z TN01/1124Z=

0000023100
789
SABU31 LBSM 101900
METAR LBSF 101900Z 13003MPS 090V160 2700 BR NSC 00/00 Q1021 TEMPO
    2000 BR=
METAR LBWN 101900Z 26007MPS CAVOK 09/03 Q1016 NOSIG=
METAR LBBG 101900Z 26003MPS 6000 NSC 05/04 Q1017 NOSIG=

0000008900
790
SAHU31 LHBM 101900
METAR LHBP 101900Z 11005KT CAVOK 03/02 Q1020 NOSIG=

0000009100
791
SANC01 NWWW 101900
METAR NWWW 101900Z AUTO 01003KT 9999 NSC 19/14 Q1013=

0000020500
792
SABU32 LBSM 101900
METAR LBPD 101900Z 11002MPS 0050 R30/0700VP1500U R12/0275N FG
     FEW001 BKN003 01/01 Q1019 TEMPO 0800 FG=
METAR LBGO 101900Z VRB01MPS 6000 SKC 02/02 Q1018 NOSIG=

00000000