0000011200
113
SACN61 CYPQ 101800
METAR CYPQ 101800Z AUTO 00000KT 3SM BR OVC003 M04/M05 A3017 RMK
 SLP231=

0000025300
114
FTUS42 KWBC 101800 AAA
TAF AMD
KNEW 101758Z 1018/1118 11012KT P6SM OVC004
     FM102100 15010KT 5SM BR OVC010
      TEMPO 1105/1109 2SM TSRA OVC006CB
     FM110900 22015KT 3SM -RA BR OVC010
     FM111600 30012KT P6SM SCT250=

0000040400
115
FTUS43 KWBC 101800 CCA
TAF COR
KSGF 101758Z 1018/1118 17015G25KT 6SM -SHRA BR SCT005 BKN035
      OVC050
      TEMPO 1019/1023 5SM -SHRA BR SCT005 OVC015
     FM102300 20015KT 6SM -SHRA BR VCTS SCT008 OVC020CB
      TEMPO 1023/1102 3SM SHRA BR OVC008CB
     FM110200 25011KT 6SM BR SCT008 OVC035
     FM110500 26010KT 2SM BR SCT005
     FM111400 26010G18KT P6SM SCT250=

0000025300
116
FTUS72 KWBC 101800 AAA
TAF AMD
KNEW 101758Z 1018/1118 11012KT P6SM OVC004
     FM102100 15010KT 5SM BR OVC010
      TEMPO 1105/1109 2SM TSRA OVC006CB
     FM110900 22015KT 3SM -RA BR OVC010
     FM111600 30012KT P6SM SCT250=

0000040400
117
FTUS73 KWBC 101800 CCA
TAF COR
KSGF 101758Z 1018/1118 17015G25KT 6SM -SHRA BR SCT005 BKN035
      OVC050
      TEMPO 1019/1023 5SM -SHRA BR SCT005 OVC015
     FM102300 20015KT 6SM -SHRA BR VCTS SCT008 OVC020CB
      TEMPO 1023/1102 3SM SHRA BR OVC008CB
     FM110200 25011KT 6SM BR SCT008 OVC035
     FM110500 26010KT 2SM BR SCT005
     FM111400 26010G18KT P6SM SCT250=

0000053100
118
SACU31 MUHA 101800
METAR
MUHA 101755Z 15008KT 110V190 9000 SCT030 27/19 Q1018=
MUVR 101756Z 10005KT 030V160 9000 SCT020 30/17 Q1018=
MUSC 101750Z 09006KT 020V160 9000 BKN020 29/19 Q1018=
MUCC 101750Z 09011KT 050V120 9000 SCT020 28/22 Q1018=
MUCM 101750Z 10013KT 080V140 9999 SCT020 29/16 Q1018=
MUHG 101750Z 09016KT 050V130 9999 SCT020 30/14 Q1017=
MUCU 101750Z 14012KT 9999 FEW020 30/20 Q1017=
MUCL 101750Z 10014KT 9999 FEW020 28/22 Q1017=
MUCF 101750Z 22006KT 190V250 9999 SCT020 30/21 Q1018=

0000009900
119
SAPR01 SPIM 101800
METAR SPIM 101800Z 20010KT CAVOK 24/19 Q1011 NOSIG RMK PP000=

0000066500
120
SAMX31 KWBC 101745 RRE
METAR
MMAA 101742Z 20004KT 8SM SKC 31/21 A2992 RMK SLP138 52007 953=
MMGL 101752Z 09004KT 10SM SKC 20/04 A3018 RMK SLP141 57020 971=
MMMX 101744Z 15007KT 10SM BKN025 19/04 A3028 NOSIG RMK SLP100
     57007 970 8/100 HZY SC=
MMMY 101752Z 30003KT 5SM SKC 21/13 A2991 RMK SLP129 58001 992
     HZY=
MMMZ 101747Z 02006KT 15SM FEW210 22/14 A2996 RMK SLP146 52003 957
     8/002=
MMPR 101750Z 00000KT 15SM SKC 25/14 A2998 RMK SLP143 50000 902=
MMTM 101746Z 20010KT 5SM SCT020 BKN200 24/17 A2997 RMK SLP131
     57064 992 8/501 HZY=
MMVR 101743Z 19004KT 7SM SKC 27/17 A2996 RMK SLP138 57008 992
     HZY=

0000012700
121
SAMX41 MMMX 101758
METAR MMPA 101753Z 06005KT 5SM SCT280 25/20 A2997
      RMK SLP146 57015 992 8/008 HZY=

0000010100
122
SABZ22 SBBR 101800
METAR SBBR 101800Z 06012KT 9999 BKN040 FEW045TCU
28/15 Q1015=

0000131700
123
FASP40 LEMM 101700
LECM GAMET VALID 102100/110300 LEMM-
LECM MADRID FIR/1 BLW FL150
SECN I
SFC VIS: 1000-3000 M BR/BCFG VAL EBRO
         3000-5000 M BR SE CASTILLA LA MANCHA AND LAN GALICIA
SIG CLD: OVC ST 005-010/015-020 HFT AGL VAL EBRO
TURB:  MOD 070/ABV 150 HFT AMSL N OF N42 AND BTN W009 AND W005
SECN II
PSYS: 00 L 1014 HPA GOLFO DE CADIZ EXTD 1014 PENINSULA IBERICA
STNR WKN
CLD:  BKN SC CU 020-030/070-080 HFT AMSL LOC GALICIA, ASTURIAS
AND
      CANTABRIA, N PAIS VASCO AND MAR CANTABRICO
      BKN AC AS 080-090/120-130 HFT AMSL W OF LINE N45 W005 - N42
W009
      BKN AC AS 130-140/ABV 150 HFT AMSL SE OF LINE LEBZ-LEZG
WND/T:    LA CORUNNA     MADRID         SANTANDER      ZARAGOZA
       -------------- -------------- -------------- --------------
020HFT 068/005KT PS06 079/001KT PS06 272/013KT PS08 121/008KT PS06
050HFT 344/003KT PS02 058/003KT PS05 221/006KT PS03 187/005KT PS07
100HFT 305/008KT MS04 037/006KT MS02 225/024KT MS04 192/012KT MS02
150HFT 269/018KT MS14 208/004KT MS14 232/027KT MS15 202/019KT MS13
200HFT 269/018KT MS25 181/014KT MS24 232/031KT MS25 206/021KT MS24
300HFT 246/027KT MS49 181/017KT MS51 261/015KT MS49 211/042KT MS49
FZLVL:   70 HFT AMSL    85 HFT AMSL    80 HFT AMSL    90 HFT AMSL
MNM QNH:1015 HPA=

0000089400
124
FASP41 LEMM 101700
LECM GAMET VALID 102100/110300 LEMM-
LECM MADRID FIR/2 BLW FL150
SECN I
SFC VIS: 3000-5000 M BR ALBACETE
SIG WX: ISOL TS GOLFO DE CADIZ
SIG CLD: ISOL TCU/CB 030/120-ABV 150 HFT AMSL GOLFO DE CADIZ
SECN II
PSYS: 00 L 1014 HPA GOLFO DE CADIZ EXTD 1016 PENINSULA IBERICA
STNR WKN
CLD:  BKN AS AC 130-140/ABV 150 HFT AMSL E OF LINE LEZL-LEBA
WND/T:    GIBRALTAR      ALBACETE       BADAJOZ
       -------------- -------------- --------------
020HFT 093/015KT PS10 134/004KT PS07 095/006KT PS13
050HFT 179/010KT PS09 266/009KT PS07 016/014KT PS09
100HFT 168/002KT MS04 197/012KT MS03 030/008KT MS03
150HFT 300/005KT MS16 190/023KT MS12 288/004KT MS15
200HFT 189/014KT MS26 193/026KT MS24 225/007KT MS26
300HFT 182/019KT MS52 198/056KT MS47 181/014KT MS52
FZLVL:   80 HFT AMSL    87 HFT AMSL    86 HFT AMSL
MNM QNH:1013 HPA=

0000032800
125
SPUS70 KWBC 101758
SPECI
KCMI 101755Z 15013KT 3SM -RA BR BKN009 OVC013 03/02 A2989 RMK AO2
     TSE55 CIG 006V011 PRESFR P0000=
KAFN 101755Z AUTO 21007KT 1 1/2SM -SN BR BKN007 OVC011 M03/M04
     A3033 RMK AO2 P0000 T10281044=
PADL 101754Z 02005KT 7SM SCT004 OVC010 M03/M03 A2948 RMK
     SCTVBKN=

0000010600
126
SABZ20 SBTT 101800
METAR SBTT 101800Z 09003KT 9999 VCSH SCT020
FEW025TCU 31/24 Q1009=

0000012000
127
SPCN52 CWAO 101758
SPECI CWFD 101758Z AUTO 20013KT 2 3/4SM BKN001 M21/ A2876 RMK VSBY
VRBL 2.7V7.0=

0000008900
128
SABZ19 SBCJ 101800
METAR SBCJ 101800Z 06005KT 9999 SCT020 25/21 Q1013=

0000112100
129
FASP42 LEMM 101700
LECB GAMET VALID 102100/110300 LEMM-
LECB BARCELONA FIR BLW FL150
SECN I
SFC VIS: 1000-3000 M BR/BCFG VAL EBRO
         3000-5000 M BR LOC COT COMUNIDAD VALENCIANA AND S
CATALUNA
AND MAR VCY
SIG CLD: OVC ST 005-010/015-020 HFT AGL VAL EBRO
TURB: MOD 060/090 HFT AMSL E MURCIA, ALICANTE AND VALENCIA
SECN II
PSYS: 00 L 1014 HPA GOLFO DE CADIZ EXTD 1016 PENINSULA IBERICA
AND BALEARES STNR WKN
CLD:  BKN SC 020/040 HFT AMSL LOC COT COMUNIDAD VALENCIANA
AND S CATALUNA AND MAR VCY
      BKN AC AS 130-140/ABV 150 HFT AMSL W OF E002 S OF N41 AND
NE CATALUNA
WND/T:    BARCELONA      P.MALLORCA     MURCIA
       -------------- -------------- --------------
020HFT 142/008KT PS08 159/009KT PS12 063/008KT PS08
050HFT 199/012KT PS08 202/012KT PS10 236/021KT PS09
100HFT 209/021KT MS01 214/017KT PS00 199/033KT MS02
150HFT 211/024KT MS12 207/027KT MS12 209/022KT MS12
200HFT 206/026KT MS23 203/028KT MS22 196/031KT MS24
300HFT 219/056KT MS46 214/051KT MS45 203/057KT MS46
FZLVL:   95 HFT AMSL   102 HFT AMSL    90 HFT AMSL
MNM QNH:1015 HPA=

0000071100
130
SANL33 EHDB 101755
METAR EHAK 101755Z AUTO 23024KT 9999 NSC 07/05 Q1007=
METAR EHDV 101755Z AUTO 23017KT 9999 NSC 08/05 Q1009=
METAR EHFD 101755Z AUTO 24024KT 9999 FEW006/// 07/06 Q1008=
METAR EHFZ 101755Z AUTO 22020KT //// // ///////// 07/05 Q1011 RE//=
METAR EHJA 101755Z AUTO 22023KT 9999 NSC 07/05 Q1010=
METAR EHJR 101755Z NIL=
METAR EHKV 101755Z AUTO 24024KT 9999 FEW013/// 09/05 Q1012=
METAR EHMA 101755Z AUTO 23016KT 9999 NCD 07/05 Q1012=
METAR EHMG 101755Z AUTO 24023KT 9999 FEW016/// 08/05 Q1011=
METAR EHPG 101755Z AUTO ///21KT 9999 NSC 10/06 Q1013=
METAR EHQE 101755Z AUTO 23020KT 9999 FEW018/// 09/06 Q////=
METAR EHSA 101755Z NIL=
METAR EHSC 101755Z NIL=

0000009800
131
SAMJ41 LWSK 101800
METAR LWSK 101800Z VRB01KT 3700 BR OVC004 03/02 Q1022 NOSIG=

0000010700
132
SAMX41 MMMX 101758
METAR MMCB 101800Z 00000KT 10SM FEW030 24/11 A3010
      RMK 8/100=

00000000