0000072000
073
SAFR32 LFPW 110030
METAR LFBD 110030Z AUTO 22004KT 3900 BR BKN010 08/07 Q1015=
METAR LFBH 110030Z AUTO 23001KT 7000 NSC 09/07 Q1015=
METAR LFBI 110030Z AUTO 19003KT 9999 NSC 07/06 Q1014=
METAR LFBL 110030Z AUTO 23005KT 9999 NSC 08/05 Q1015=
METAR LFBO 110030Z AUTO 15010KT 9999 FEW016 OVC180 10/07 Q1016=
METAR LFBP 110030Z AUTO 21001KT 6000 OVC006 08/08 Q1016=
METAR LFBT 110030Z AUTO 26007KT 230V300 9999 NSC 09/06 Q1016=
METAR LFBZ 110030Z AUTO 28009KT 9999 SCT016 OVC025 12/09 Q1017=
METAR LFLB 110030Z AUTO 18003KT 2000 BR NSC 02/01 Q1018=
METAR LFLX 110030Z AUTO 09003KT 6000 NSC 06/05 Q1015=
METAR LFML 110030Z AUTO 06004KT 9999 OVC028 12/08 Q1019=
METAR LFCK 110030Z NIL=

0000050600
074
SAFR33 LFPW 110030
METAR LFKB 110030Z AUTO 22002KT 5000 BR OVC029 11/09 Q1021=
METAR LFKF 110030Z AUTO 08008KT 040V110 9999 FEW027/// BKN240///
12/09 Q1020=
METAR LFKJ 110030Z AUTO 05007KT 9999 NCD 06/05 Q1020=
METAR LFLC 110030Z AUTO 25004KT 200V300 9999 NSC 04/02 Q1015=
METAR LFMP 110030Z AUTO 31003KT 6000 SCT023 OVC190 09/07 Q1018=
METAR LFMV 110030Z AUTO 10003KT 9999 OVC028 10/07 Q1020=
METAR LFSL 110030Z AUTO VRB02KT 9999 NSC 07/06 Q1016=
METAR LFKC 110030Z NIL=

0000101800
075
SAFR34 LFPW 110030
METAR LFCR 110030Z AUTO 12008KT 9999 NSC 07/04 Q1016=
METAR LFJL 110030Z AUTO 11008KT 6000 NSC 01/00 Q1017=
METAR LFLP 110030Z AUTO 00000KT 6000 NSC 02/02 Q1018=
METAR LFLS 110030Z AUTO VRB03KT 4700 BR OVC013 05/05 Q1018=
METAR LFLY 110030Z AUTO 00000KT 2900 BR BKN014 OVC170 06/05 Q1017=
METAR LFMT 110030Z AUTO 05005KT 9999 OVC032 11/08 Q1019=
METAR LFMU 110030Z AUTO 06003KT 9999 SCT025 OVC033 11/08 Q1019=
METAR LFOB 110030Z AUTO 17006KT 6000 OVC005 05/04 Q1017=
METAR LFOH 110030Z AUTO 13005KT 9000 FEW004 BKN039 OVC052 06/04
Q1015=
METAR LFOK 110030Z AUTO 05003KT 0450 0350 R10/1300N R28///// FZFG
VV/// M00/M00 Q1016=
METAR LFOP 110030Z AUTO 13004KT 0350 R22/1300D FG VV/// 05/04 Q1016=
METAR LFPB 110030Z AUTO 06002KT 4700 -RA BR OVC004 06/05 Q1017=
METAR LFQA 110030Z AUTO 08003KT 0100 FG VV/// 01/01 Q1017=
METAR LFQB 110030Z AUTO 15002KT 1700 BR NSC 02/02 Q1016=
METAR LFSN 110030Z AUTO 16001KT 0250 R03/0900D FZFG VV/// M01/M01
Q1018=

0000092800
076
SAFR35 LFPW 110030
METAR LFMI 110030Z AUTO 11004KT 9999 OVC029 11/08 Q1019=
METAR LFMK 110030Z AUTO 09011KT 9000 FEW012 OVC029 10/08 Q1017=
METAR LFOV 110030Z AUTO 08001KT 2600 -DZ BR SCT004 BKN034 BKN045
06/06 Q1015=
METAR LFRD 110030Z AUTO VRB03KT 1700 BR OVC001 07/06 Q1015=
METAR LFRI 110030Z AUTO 00000KT 9999 NSC 08/07 Q1015=
METAR LFRM 110030Z AUTO 02003KT 5000 BR ///TCU 07/06 Q1016=
METAR LFRN 110030Z AUTO 04002KT 3100 -RA BR OVC006 07/07 Q1016=
METAR LFRO 110030Z AUTO 16003KT 4000 BR NSC 06/05 Q1015=
METAR LFRV 110030Z AUTO VRB03KT 3200 -RADZ BR FEW002/// BKN011///
BKN016/// ///TCU 07/07 Q1015=
METAR LFRZ 110030Z AUTO 09003KT 3100 BR FEW048 SCT190 BKN240 07/06
Q1015=
METAR LFSB 110030Z AUTO 17004KT 9999 NSC 03/02 Q1018=
METAR LFST 110030Z AUTO 00000KT 4400 0650 R23///// R05///// BCFG
NSC M00/M01 Q1018=
METAR LFTH 110030Z AUTO 36003KT 9999 OVC028 11/08 Q1020=

0000074600
077
SAFR36 LFPW 110030
METAR LFBA 110030Z AUTO 09005KT 9999 NSC 07/07 Q1016=
METAR LFBE 110030Z AUTO 09004KT 080V160 4000 BR NSC 04/04 Q1016=
METAR LFGJ 110030Z AUTO 08004KT 4800 BR NSC 02/01 Q1017=
METAR LFJR 110030Z AUTO VRB03KT 3300 -RA BR BKN002/// OVC074///
///TCU 07/06 Q1015=
METAR LFMD 110030Z AUTO VRB02KT 9999 OVC031 10/08 Q1021=
METAR LFMH 110030Z AUTO 15011KT 5000 BR NSC 06/05 Q1016=
METAR LFOT 110030Z AUTO 04004KT 360V070 9000 NSC 07/05 Q1015=
METAR LFPN 110030Z AUTO 09004KT 2200 -RA BR VV/// 05/05 Q1016=
METAR LFRC 110030Z AUTO 19011KT 3900 BR OVC003 07/06 Q1015=
METAR LFRG 110030Z AUTO 19008KT 9999 FEW036 OVC046 06/05 Q1015=
METAR LFRK 110030Z AUTO VRB03KT 5000 -RA BR OVC045 06/05 Q1016=

0000072300
078
SAFR37 LFPW 110030
METAR LFAQ 110030Z AUTO 18008KT 2800 BR OVC004 04/03 Q1016=
METAR LFAT 110030Z AUTO 14005KT 3900 BR BKN004 BKN009 BKN240 03/02
Q1016=
METAR LFLN 110030Z AUTO 05003KT 9999 NSC 04/03 Q1016=
METAR LFPM 110030Z AUTO VRB03KT 1700 BR VV/// 05/05 Q1017=
METAR LFPT 110030Z AUTO 09003KT 3400 BR OVC006/// ///TCU 05/04
Q1016=
METAR LFRH 110030Z AUTO VRB03KT 0100 R25/0450N R07/0400N FG VV///
08/07 Q1016=
METAR LFRQ 110030Z AUTO 23002KT 0100 R28/0700D FG VV/// 07/07 Q1016=
METAR LFRT 110030Z AUTO 24003KT 5000 BR NSC 07/06 Q1015=
METAR LFSD 110030Z AUTO 00000KT 3300 BR NSC 02/01 Q1017=
METAR LFTW 110030Z AUTO 08003KT 7000 OVC028 10/06 Q1019=
METAR LFBU 110030Z NIL=

0000037600
079
SAPO31 LPMG 110030
METAR LPBJ 110030Z NIL=
METAR LPFR 110030Z 03006KT CAVOK 10/07 Q1014=
METAR LPMA 110030Z VRB02KT CAVOK 14/06 Q1016 RS23004KT 0536003KT
2334006KT=
METAR LPPR 110030Z VRB02KT 3100 0900N R35/P2000 BR BCFG NSC 07/07
Q1016=
METAR LPPS 110030Z 31003KT 200V360 9999 FEW014 15/14 Q1017=
METAR LPPT 110030Z 33007KT CAVOK 11/09 Q1015=

0000026000
080
SAPO32 LPMG 110030
METAR LPAZ 110030Z 21023G33KT 7000 -RA BKN005 BKN012 16/14 Q1010
RERA=
METAR LPFL 110030Z NIL=
METAR LPHR 110030Z NIL=
METAR LPLA 110030Z NIL=
METAR LPPD 110030Z 20006KT 160V250 6000 RA SCT004 BKN010 14/14 Q1007=

0000012500
081
SAMO31 ZMUB 110030
METAR ZMUB 110030Z VRB01MPS 4000NW FU NSC M34/M38 Q1027 NOSIG RMK
 QFE661.9 67 NW MO=

0000030100
082
FTUS71 KWBC 110030 AAA
TAF AMD
KPSM 110027Z 1100/1124 VRB03KT 4SM BR SCT015 OVC070
     FM110200 20005KT 4SM BR OVC015
     FM110500 14005KT 1SM -FZDZ BR OVC005
     FM111100 18010KT 1/2SM -RA FG VV003 WS020/19050KT
     FM111500 20012G25KT 2SM RA BR OVC005 WS020/21060KT=

0000009500
083
SAFR32 LFPW 110030 RRA
METAR LFCK 110030Z AUTO 13018KT 9999 NSC 11/06 Q1016=

0000008900
084
SAEA20 HKNC 110000 RRC
METAR HKEL 110000Z  09012KT  CAVOK 12/09 Q1023=

0000010500
085
SPUS31 KWBC 110017
SPECI
KPIT 110013Z 09004KT 10SM SCT009 BKN060 BKN180 07/06 A3004=

0000010100
086
SAIO31 KWBC 110000 RRE
METAR
FMMI 110030Z VRB02KT 9999 FEW017 17/17 Q1020 NOSIG=

0000029400
087
SANT31 KWBC 110000 RRC
METAR
BGBW 110025Z NIL=
BGCO 110025Z NIL=
BGGH 110025Z NIL=
BGJN 110020Z AUTO 10014KT 9999NDV FEW220/// M09/M19 Q0995=
BGKK 110020Z AUTO /////KT 0200NDV +SN BKN011/// M01/M03 Q0985=
BGSF 110020Z AUTO 08010KT 9999NDV BKN240/// M14/M22 Q0996=

0000011500
088
SPCN31 CWAO 110015
SPECI CYHZ 110015Z 22015KT 15SM -SHSN OVC015 M01/M03 A3034 RMK SC8
 SLP285=

0000010700
089
SAAE33 VTBB 110030 RRA
METAR VVTS 110030Z VRB01KT 8000 FEW017 SCT040 24/20 Q1014 NOSIG =

0000017900
090
FTCN31 CWAO 110000 AAA
TAF AMD CZMT 110039Z 1100/1102 11005KT P6SM OVC025 TEMPO 1100/1102
     5SM -RA BR BKN009
    RMK NXT FCST WILL BE ISSUED AT 111615Z=

0000008800
091
SPCN44 CWAO 110039
SPECI CYUS 110039Z AUTO 22010KT BKN032 M34/ A2946=

0000050000
092
SAEE31 LOWM 110030
METAR UACK 110030Z 19008MPS 6000 -SHSN BLSN OVC039CB M09/M10
Q1020 R20/450342 NOSIG RMK QFE741/0988=
METAR UACP 110030Z NIL=
METAR UAII 110030Z 16002MPS CAVOK M04/M10 Q1024 R28/0///70
NOSIG RMK QFE730/0974=
METAR UADD 110030Z 21006MPS 9999 NSC M06/M13 Q1023 NOSIG RMK
QFE710/0947=
METAR UASK 110030Z 11004MPS 9999 BKN100 M08/M16 Q1035
R12/820350 NOSIG RMK QFE750/1001=
METAR UASP 110030Z NIL=
METAR UAOO 110030Z NIL=
METAR UAKD 110030Z NIL=

00000000