0000013400
093
SIIN50 VIDP 110300 RRA
AAXX 11034
42123 31995 02301 10048 20038 40209 71000
  333 10180 20031 58017
  555 10000=
0000011000
094
UANT99 KDDL 110400
ARP UAL74 5357N02018W 0400 F380 MS55 243/53 KT
N17133 DDL IG1 110400 F74A
0000009500
095
SAIN90 VOCI 110930
METAR VOCI 110930Z 33006KT 5000 HZ FEW020 33/17 Q1009 NOSIG=
0000011000
096
UANT99 KDDL 110400
ARP UAL966 5259N1500W 0400 F370 MS54 249/48 KT
N672UA DDL XXN 110400 F77A
0000011000
097
UANT99 KDDL 110400
ARP AFR351 5033N03240W 0400 F370 MS53 212/56 KT
FGSPL QXT AOW 110400 F20A
0000011000
098
UANT99 KDDL 110400
ARP DLH493 5803N04146W 0359 F360 MS58 248/29 KT
DAIHE QXT AOW 110400 J25A
0000044600
099
SICM20 FKKD 110300
AAXX 11034
64851 NIL=
64860 42960 70000 10186 20053 39856 40125 80002
  333 58010 87080=
64870 NIL=
64880 NIL=
64890 NIL=
64892 NIL=
64893 NIL=
64900 NIL=
64901 NIL=
64910 41450 60000 10252 20249 30094 40103 71022 81502
  333 58006 81616 86080=
64911 NIL=
64912 NIL=
64920 NIL=
64930 NIL=
64950 NIL=
64960 NIL=
64994 NIL=
64971 NIL=
64882 NIL=
64931 NIL=
64974 NIL=
0000215900
100
SZNZ01 NZKL 110403
CREX++
T000103 A001 D01021 D06025++
-3683144 17478654 AUCT  2014 01 11 03 55 //// 11 07 00 01
06062 3209 06060 3208 06058 3208 06055 3207 06052 3206 06051 3206+
-4402404 -17636748 CHIT  2014 01 11 03 55 //// 11 07 00 01
04987 2083 04962 2062 04999 2102 04979 2087 04979 2091 04982 2097+
-4089929 17623168 CPIT  2014 01 11 03 55 //// 11 07 00 01
04085 2271 04088 2278 04085 2280 04077 2276 04061 2266 04064 2273+
-3618905 17548887 GBIT  2014 01 11 03 55 //// 11 07 00 01
06393 0038 06402 0049 06413 0062 06417 0068 06410 0063 06395 0050+
-3867541 17802288 GIST  2014 01 11 03 55 //// 11 07 00 01
04370 2735 04374 2744 04356 2729 04374 2751 04351 2732 04353 2739+
-4241288 17370277 KAIT  2014 01 11 03 55 //// 11 07 00 01
03362 2168 03366 2177 03369 2185 03358 2179 03366 2193 03336 2168+
-3755040 17815904 LOTT  2014 01 11 03 55 //// 11 07 00 01
03989 0226 03972 0212 03968 0210 03972 0218 03958 0206 03979 0231+
-3704657 17451175 MNKT  2014 01 11 03 55 //// 11 07 00 01
02852 -0149 02842 -0166 02840 -0174 02872 -0149 02864 -0163 02892 -0141+
-3947566 17692007 NAPT  2014 01 11 03 55 //// 11 07 00 01
03318 2040 03328 2054 03288 2019 03282 2019 03255 1996 03269 2015+
-3441483 17304870 NCPT  2014 01 11 03 55 //// 11 07 00 01
02442 -2567 02423 -2586 02275 -2734 02200 -2809 02102 -2907 02173 -2836+
-4581435 17062939 OTAT  2014 01 11 03 55 //// 11 07 00 01
04291 3425 04278 3418 04289 3435 04277 3429 04279 3437 04254 3418+
-2928002 -17789440 RBCT  2014 01 11 03 55 //// 11 07 00 01
06465 2046 06442 2025 06452 2036 06457 2043 06456 2044 06450 2039+
-2925114 -17790384 RFRT  2014 01 11 03 55 //// 11 07 00 01
03395 0217 03399 0222 03397 0222 03382 0209 03385 0214 03379 0209+
-4357010 17277383 SUMT  2014 01 11 03 55 //// 11 07 00 01
02033 1879 02028 1880 02016 1876 02015 1881 02007 1880 02012 1892+
-3764109 17618118 TAUT  2014 01 11 03 55 //// 11 07 00 01
05650 3986 05649 3987 05651 3990 05652 3993 05650 3994 05649 3994+
-4128448 17477985 WLGT  2014 01 11 03 55 //// 11 07 00 01
03235 2055 03237 2061 03229 2058 03223 2056 03214 2051 03201 2042++
7777
0000028800
101
SXHW11 KWAL 110402
B15997E8 011040233"
1,140111,03:00:02,8.4,31,15.8,23.1,1012.9,0.00,13.6,
1,140111,03:15:02,9.7,29,17.3,22.9,1012.9,0.00,13.8,
1,140111,03:30:02,10.3,25,19.7,23.5,1012.8,0.00,13.8,
1,140111,03:45:02,9.2,26,17.6,23.5,1013.0,0.00,13.5, 46+0NN  30W
0000029100
102
SXHW11 KWAL 110402
B159A272 011040243"
1,140111,02:59:52,10.6,61,16.2,24.9,1013.8,0.00,13.7,
1,140111,03:14:52,12.0,66,20.5,25.0,1013.8,0.00,14.2,
1,140111,03:29:52,12.8,63,19.0,25.0,1014.0,0.00,13.9,
1,140111,03:44:52,11.3,57,15.4,24.8,1014.0,0.00,14.1, 46+0NN  30W
0000011200
103
SNVD25 LFPW 110400
BBXX
BATFR18 11044 99116 70476 46/// /1021 10244 40134 58027
22213 04267=
0000100300
104
SATN40 HTDA 110300
METAR
HTBU 110300Z 24003KT 9999 FEW014 FEW016CB SCT080 18/16 Q1016=
HTIR 110300Z 00000KT 9999 FEW017 SCT070 18/17 Q1020=
HTDA 110300Z 06008KT 9999 SCT024 26/23 Q1013=
HTDA 110200Z 01011KT 9999 SCT024 26/24 Q1012=
HTDA 110100Z 02007KT 9999 SCT024 26/24 Q1012=
HTMT 110300Z 33006KT 9999 SCT021 FEW022CB 26/24 Q1012=
HTSO 110300Z 11016KT 9999 BKN018 FEW020CB BKN070 20/18 Q1018=
HTTB 110300Z 00000KT 9999 FEW018 19/18 Q1019=
HTKA 110300Z 00000KT 9999 FEW018 FEW020CB SCT090 20/19 Q1018=
HTMG 110000Z 05008KT 9999 FEW024 24/19 Q1013=
HTMG 110300Z 00000KT 9999 SCT022 22/19 Q1015=
HTAR 110300Z 00000KT CAVOK 13/13 Q1019=
HTZA 110300Z 00000KT 9999 BKN018 25/23 Q1012 NOSIG=
HTMW 110300Z 12010KT 9999 FEW019 SCT230 20/19 Q1015 NOSIG=
HTKJ 110300Z 09010KT 9999 FEW020 19/17 Q1016 NOSIG =
HTDO 110300Z 00000KT 9999 FEW018 19/18 Q1016 NOSIG=
HTSU 110300Z 00000KT 9999 FEW017 BKN070 15/14 Q1021=
HTMU 110300Z 00000KT 9999 FEW018CB 19/16 Q1017=
0000011800
105
SNVF25 LFPW 110400
BBXX
BATFR22 11044 99417 10083 46/// /0707 10129 20102 40199 57005
22234 04149=
0000011800
106
SNVF25 LFPW 110400
BBXX
BATFR27 11044 99491 70024 46/// /2215 10097 20070 40150 53017
22243 04114=
0000011200
107
SNVF25 LFPW 110400
BBXX
BATFR03 11044 99497 70005 46/// /2319 10082 20069 40150 58004
22233=
0000015700
108
SSVX13 LFPW 110400
ZZYY 44612 11014 0400/ 745758 045408 6113/ 11119 40218 57001 22219
 00038 444 20130 11014 0400/ 50101 80154 80002 9/015=
0000009800
109
SNVF25 LFPW 110400
BBXX
12050 11044 99336 10319 46/// ///// 40233 52009
22200=
0000011000
110
UANT01 CWAO 110356
ARP EJM312 5451N03217W 0356 F410 MS53 224/46 KT
N312P QXT EUA 110356 A36A
0000238900
111
SNDL21 EDZW 110400
AAXX 11041
10004 46/56 /2211 10080 20073 30089 40089 58011
222// 00079
  333 55300 91113 91211=
10015 47237 72411 10068 20058 30088 40098 58010 72365
  333 55300 20000 30000 87/06 91115 91211=
10020 45263 72308 10071 20065 30045 40077 58012
  333 55300 20000 30000 87/04 87/22 87/42=
10035 41258 82406 10064 20055 30036 40095 58010 76162 877//
  333 55300 20000 30000 41230 87706 91113=
10055 45461 82206 10057 20047 30090 40100 58006
  333 55300 20000 30000 88/16 88/65=
10147 42462 82305 10057 20043 30104 40123 58008 876//
  333 55300 20000 30000 41229 87710=
10162 47450 82306 10049 20036 30045 40119 58005 71000
  333 55300 20000 30000 88/10=
10184 42665 72404 10045 20028 30105 40113 58004 875//
  333 55300 20000 30000 87637=
10200 47350 82205 10061 20050 30117 40115 58009 72365
  333 55300 20000 30000 88/07=
10224 41458 82205 10055 20041 30123 40129 58010 76022 886//
  333 55300 20000 30000 87710=
10270 46460 82202 10040 20022 30090 40146 58003
  222// 06040
  333 55300 88/16=
10338 42468 72303 10050 20032 30073 40146 58007 876//
  333 55300 20000 30000 87714=
10361 45674 71902 10038 20016 30049 40154 58006
  333 55300 20000 30000 83/47 87/71=
10393 42570 32305 10037 20014 30023 40152 50000 83500
  333 55300 20000 30000 83623=
10400 42980 01504 10018 20005 30114 40165 58008
  333 55300 20000 30000=
10469 42786 52005 10028 20009 30002 40170 58007 82501
  333 55300 82656 84073=
10488 42583 42204 10028 20002 39889 40176 58004 82501
  333 55300 20000 30000 40958 82632 83073=
10506 45159 82204 10025 20022 39580 40172 57012
  333 55300 20000 30000 88/02=
10548 47003 71502 11006 21007 39635 40193 57006 73530
  333 55300 20000 30000 87/00=
10637 41016 61001 11016 21022 30044 40187 58009 74011 84601
  333 55300 84701 84075=
10685 47257 82202 10010 20002 39497 40185 58006 71000
  333 55300 20000 30000 88/03=
10738 41959 40000 11019 21021 39714 40202 58011 74000 80001
  333 55300 84080 96011=
10763 42975 01203 11022 21023 39806 40204 57007
  333 55300 20000 30000=
10788 47913 01501 11024 21024 39768 40218 58003 72030
  333 55300 20000 30000=
10852 47932 81501 11021 21021 39622 40213 58007 72030
  333 55300 20000 30000 84/78 85/80 88/80=
10946 45962 71302 10014 20014 39353 40201 58008
  333 55300 20000 30000 86/69 87/72=
0000226700
112
SNDL22 EDZW 110400
AAXX 11041
10007 NIL=
10044 46/// /2210 10063 20049 30064 40096 58008
222// 00058
  333 55300 91211=
10046 47458 82204 10067 20054 30066 40100 58010 72365
  333 55300 87/11 88/19=
10091 45472 62511 10050 20038 30046 40097 58004
  333 55300 20000 30000 86/12 91114 91211=
10113 47334 82207 10063 20054 30090 40109 58009 72250
  333 55300 20000 30000 88/08 91113=
10124 46/// ///// 10062 20062 30063 40101 58008
222// 0////
  333 553//=
10131 47350 82206 10065 20051 30094 40109 58011 72250
  333 55300 20000 30000 88/09=
10170 42670 52004 10053 20032 30096 40112 58004 85500
  333 55300 20000 30000 85638=
10264 47457 82304 10044 20031 30021 40129 58004 71000
  333 55300 20000 30000 85/10 88/31=
10291 42464 82405 10041 20023 30069 40138 58001 885//
  333 55300 20000 30000 88616=
10315 42463 72203 10045 20025 30088 40153 57007 875//
  333 55300 20000 30000 87612=
10379 NIL=
10381 42682 72405 10043 20008 30050 40149 58003 86506
  333 55300 86640 87275=
10382 42581 72505 10049 20015 30103 40149 58003 875//
  333 55300 20000 30000 82625 86640=
10384 46/// /2303 10044 20015 30086 40147 58002
  333 55300 20000 30000=
10427 42984 02306 11012 21020 39144 48437 58007
  333 55300 20000 30000
  444 17070=
10430 45981 01502 10022 20001 39965 40162 58008
  333 55300 20000 30000=
10439 NIL=
10453 41/90 92416 11020 21020 38796 48424 58001 74944
  333 55300 91121 91218 96036=
10496 45981 82403 10037 20012 30077 40163 58002
  333 55300 20000 30000 88/65=
10499 42982 82404 10030 21001 39878 40174 58003 80007
  333 55300 20000 30000 88268=
10505 42986 52006 10041 20017 39877 40162 58008 85070
  333 55300 20000 30000 84359=
10513 42980 01204 10014 20006 30042 40167 58009
  333 55300 20000 30000=
10532 47033 20000 11010 21013 39926 40183 58008 71000
  333 55300 20000 30000 82/01=
10544 41/01 92307 10001 20001 39082 48453 58005 74744
  333 55300=
10554 42984 02406 10015 21003 39779 40176 58006
  333 55300 20000 30000=
10567 45968 72105 10013 21003 39795 40180 58007
  333 55300 20000 30000 82/67 84/69 87/73=
10578 41284 72512 11031 21032 38759 48452 58003 72822 84508
  333 55300 20000 30000 84606 87270 91117 91214=
00000000