0000035800
613
SARO31 LROM 102000
METAR LRBS 102000Z VRB02KT CAVOK 06/05 Q1016 NOSIG=
METAR LRCK 102000Z 28012KT 2000 BR SCT005 03/02 Q1016 NOSIG=
METAR LROP 102000Z 23006KT CAVOK 04/04 Q1016 8829//95 NOSIG=
METAR LRSB 102000Z 27017KT 9999 SCT086 04/M01 Q1019 NOSIG=
METAR LRTR 102000Z 07004KT 0350 R11/0375N FZFG BKN000 M01/M02 Q1022
11190095=

0000012700
614
SACN61 CYNA 102000
METAR CYNA 102000Z AUTO 29010KT 3SM -SN FEW014 BKN020 OVC027 M09/M10
 A3007 RMK SLP183=

0000047400
615
SAFR22 LFPW 102000
METAR LFBC 102000Z AUTO 00000KT 2500 BR NSC 08/07 Q1014=
METAR LFBG 102000Z AUTO 05005KT 9000 NSC 09/08 Q1014=
METAR LFBM 102000Z AUTO 08003KT 9999 NSC 08/06 Q1014=
METAR LFBY 102000Z AUTO 31002KT 5000 // ////// 08/07 Q1014=
METAR LFKS 102000Z AUTO VRB02KT 9999 OVC025 13/10 Q1021=
METAR LFMO 102000Z AUTO 05002KT 5000 BR OVC022 08/07 Q1020=
METAR LFMY 102000Z AUTO 00000KT 9999 OVC022 10/08 Q1020=
METAR LFMC 102000Z NIL=

0000012300
616
SACN61 CYMO 102000
METAR CYMO 102000Z AUTO 21011G16KT 5SM -SN BKN015 OVC020 M03/M04
 A2979 RMK SLP089=

0000040700
617
SARO32 LROM 102000
METAR LRAR 102000Z 13004KT 100V210 CAVOK 00/00 Q1022=
METAR LRBM 102000Z AUTO 13002KT 5000 BR SCT007 BKN010 03/03 Q1019=
METAR LRCL 102000Z VRB02KT 5000 BR BKN049 00/00 Q1019=
METAR LROD 102000Z AUTO 22010KT 9999 NCD 03/01 Q1020=
METAR LRSM 102000Z AUTO 24004KT 8000 BKN013 03/02 Q1019=
METAR LRTM 102000Z 24008KT 3000 BR SCT010 SCT015 00/00 Q1020
0729//95=

0000034900
618
SAFR23 LFPW 102000
METAR LFOC 102000Z AUTO 06005KT 010V080 7000 OVC003 06/05 Q1017=
METAR LFOE 102000Z AUTO 16006KT 9999 OVC004 05/05 Q1017=
METAR LFOJ 102000Z AUTO 07004KT 0650 R25///// FG OVC002 06/06 Q1017=
METAR LFRJ 102000Z AUTO 17006KT 8000 NSC 07/06 Q1015=
METAR LFRL 102000Z AUTO 16004KT 1800 // VV/// 07/06 Q1015=

0000011900
619
SACN62 CYOJ 102000
METAR CYOJ 102000Z 15002KT 15SM SCT090 BKN250 M18/M20 A2948 RMK
 AC3CI3 SLP018=

0000032400
620
SARO33 LROM 102000
METAR LRBC 102000Z 10004KT CAVOK 03/03 Q1015 1619//95=
METAR LRCV 102000Z AUTO 28014KT 9999 NCD 06/02 Q1019=
METAR LRIA 102000Z 26004KT 210V310 9999 BKN045 05/02 Q1014 1529//95=
METAR LRSV 102000Z 28012KT CAVOK 04/M03 Q1013=
METAR LRTC 102000Z AUTO 31014KT 9999 NCD 06/03 Q1015=

0000026200
621
SAFR24 LFPW 102000
METAR LFSI 102000Z AUTO 09003KT 8000 NSC 04/03 Q1018=
METAR LFSO 102000Z AUTO 12004KT 9999 NSC 04/02 Q1018=
METAR LFSX 102000Z AUTO 07003KT 5000 BR NSC 04/02 Q1018=
METAR LFYR 102000Z AUTO 00000KT 9999 NSC 03/02 Q1016=

0000048600
622
SAFR31 LFPW 102000
METAR LFLL 102000Z 14007KT 2500 BR NSC 06/05 Q1018 NOSIG=
METAR LFMN 102000Z 33007KT 9999 OVC027 10/07 Q1020 NOSIG=
METAR LFPG 102000Z 15005KT 110V190 6000 BKN004 05/03 Q1018 BECMG
3000 BR=
METAR LFPO 102000Z 11002KT 9999 OVC005 06/05 Q1018 NOSIG=
METAR LFQQ 102000Z 19011KT 9999 OVC009 05/03 Q1017 NOSIG=
METAR LFRB 102000Z 17005KT 4000 BR FEW003 SCT100 BKN160 07/07
Q1015 NOSIG=
METAR LFRS 102000Z 07003KT CAVOK 10/08 Q1015 NOSIG=

0000071100
623
SAFR32 LFPW 102000
METAR LFBD 102000Z AUTO 12005KT 9999 NSC 10/08 Q1014=
METAR LFBH 102000Z AUTO 11009KT 9999 NSC 10/08 Q1014=
METAR LFBI 102000Z AUTO 06004KT 9999 NSC 08/06 Q1015=
METAR LFBL 102000Z AUTO 06005KT 9999 NSC 09/06 Q1015=
METAR LFBO 102000Z AUTO 13012KT 9999 FEW009 BKN190 BKN210 10/07
Q1015=
METAR LFBP 102000Z 00000KT CAVOK 06/05 Q1014 BECMG 8000=
METAR LFBT 102000Z AUTO 18003KT 9999 NSC 06/04 Q1014=
METAR LFBZ 102000Z AUTO 26005KT 230V300 9999 NSC 11/10 Q1015=
METAR LFLB 102000Z AUTO 00000KT 9999 NSC 04/03 Q1019=
METAR LFLX 102000Z AUTO 08006KT 9999 NSC 07/06 Q1016=
METAR LFML 102000Z 16002KT 9999 BKN026 12/08 Q1019 NOSIG=
METAR LFCK 102000Z NIL=

0000047200
624
SAFR33 LFPW 102000
METAR LFKB 102000Z 00000KT 9999 FEW020 OVC029 12/09 Q1021 NOSIG=
METAR LFKF 102000Z AUTO 09006KT 9999 NCD 11/09 Q1021=
METAR LFKJ 102000Z 05007KT 9999 BKN013 08/07 Q1020 NOSIG=
METAR LFLC 102000Z 00000KT CAVOK 05/03 Q1016 NOSIG=
METAR LFMP 102000Z AUTO VRB03KT 9000 FEW025 10/07 Q1018=
METAR LFMV 102000Z AUTO 11002KT 8000 OVC023 09/07 Q1020=
METAR LFSL 102000Z AUTO 00000KT 9999 NSC 06/04 Q1014=
METAR LFKC 102000Z NIL=

0000094600
625
SAFR34 LFPW 102000
METAR LFCR 102000Z AUTO 11007KT 9999 NSC 10/02 Q1015=
METAR LFJL 102000Z AUTO 11006KT 9999 NSC 03/02 Q1019=
METAR LFLP 102000Z AUTO 06003KT 9999 NSC 05/03 Q1019=
METAR LFLS 102000Z AUTO 10006KT 2800 BR NSC 03/03 Q1018=
METAR LFLY 102000Z AUTO 11001KT 2000 BR NSC 05/04 Q1018=
METAR LFMT 102000Z 07007KT 8000 OVC028 11/08 Q1019 NOSIG=
METAR LFMU 102000Z AUTO 08004KT 040V110 9999 OVC020 12/09 Q1019=
METAR LFOB 102000Z AUTO 18005KT 9999 OVC010 05/03 Q1017=
METAR LFOH 102000Z AUTO 13005KT 9000 FEW004 SCT008 05/03 Q1016=
METAR LFOK 102000Z AUTO 10006KT 6000 NSC 03/03 Q1018=
METAR LFOP 102000Z AUTO 16005KT 9999 OVC007 05/04 Q1017=
METAR LFPB 102000Z AUTO 15004KT 9999 OVC008 06/04 Q1018=
METAR LFQA 102000Z AUTO VRB02KT 3600 BR FEW003 OVC010 03/03 Q1018=
METAR LFQB 102000Z AUTO 31001KT 0150 FG NSC 01/01 Q1018=
METAR LFSN 102000Z AUTO 00000KT 5000 R03/1400D BCFG NSC 02/02 Q1019=

0000087700
626
SAFR35 LFPW 102000
METAR LFMI 102000Z AUTO VRB03KT 9999 OVC025 11/08 Q1019=
METAR LFMK 102000Z AUTO 10014KT 9999 OVC021 11/08 Q1017=
METAR LFOV 102000Z AUTO 08006KT 050V110 0450 FG VV/// 06/06 Q1016=
METAR LFRD 102000Z AUTO VRB02KT 0650 R35/1700D FG VV/// 07/06 Q1015=
METAR LFRI 102000Z AUTO 10006KT 9999 NSC 09/07 Q1014=
METAR LFRM 102000Z AUTO 06004KT 030V090 6000 -RA OVC005 07/06 Q1016=
METAR LFRN 102000Z AUTO 11004KT 080V140 4300 BR OVC004 08/07 Q1015=
METAR LFRO 102000Z AUTO 15004KT 9999 NSC 06/05 Q1015=
METAR LFRV 102000Z AUTO 02004KT 1800 -RA BR OVC002/// ///TCU 07/07
Q1015=
METAR LFRZ 102000Z AUTO 05004KT 3400 BR SCT046 BKN060 OVC086 08/08
Q1015=
METAR LFSB 102000Z 16003KT 9999 FEW033 04/02 Q1019 NOSIG=
METAR LFST 102000Z AUTO 00000KT 9999 NSC 02/02 Q1019=
METAR LFTH 102000Z AUTO 00000KT 9999 OVC024 12/08 Q1020=

0000068700
627
SAFR36 LFPW 102000
METAR LFBA 102000Z AUTO 06002KT 9999 NSC 08/07 Q1015=
METAR LFBE 102000Z AUTO 07004KT 4400 BR NSC 06/05 Q1015=
METAR LFGJ 102000Z AUTO 07004KT 9999 NSC 05/03 Q1018=
METAR LFJR 102000Z AUTO 06005KT 4000 BR NSC 07/07 Q1016=
METAR LFMD 102000Z AUTO VRB02KT 9000 OVC023 11/09 Q1020=
METAR LFMH 102000Z AUTO 13005KT 6000 NSC 07/05 Q1017=
METAR LFOT 102000Z 06008KT 1500 BR OVC001 06/06 Q1016 NOSIG=
METAR LFPN 102000Z AUTO 12004KT 8000 OVC004 05/04 Q1017=
METAR LFRC 102000Z AUTO 18007KT 8000 OVC005 06/05 Q1015=
METAR LFRG 102000Z AUTO 16005KT 120V190 6000 OVC003 04/04 Q1016=
METAR LFRK 102000Z AUTO 16008KT 8000 OVC012 05/04 Q1016=

0000069000
628
SAFR37 LFPW 102000
METAR LFAQ 102000Z AUTO 21007KT 8000 OVC010 05/04 Q1017=
METAR LFAT 102000Z AUTO 16006KT 9999 BKN012 OVC018 05/03 Q1017=
METAR LFLN 102000Z AUTO VRB02KT 9999 NSC 06/04 Q1017=
METAR LFPM 102000Z AUTO 10003KT 7000 OVC003 06/05 Q1018=
METAR LFPT 102000Z AUTO 18004KT 150V210 9999 OVC007 06/04 Q1017=
METAR LFRH 102000Z AUTO VRB02KT 6000 -RA OVC003 09/08 Q1015=
METAR LFRQ 102000Z AUTO 00000KT 0350 R28/1800U FG OVC003 08/08
Q1015=
METAR LFRT 102000Z AUTO 16003KT 120V190 2800 BR BKN003 07/06 Q1015=
METAR LFSD 102000Z AUTO 32003KT 9999 NSC 04/02 Q1018=
METAR LFTW 102000Z AUTO VRB01KT 9999 OVC024 10/05 Q1019=
METAR LFBU 102000Z NIL=

0000016000
629
SAGC31 MWCR 102009
METAR MWCR 102000Z 10008KT 080V150 9999 FEW018 29/24 Q1015 NOSIG=
METAR MWCB 102000Z 10010KT 9999 FEW018TCU 29/23 Q1015=

0000025200
630
FTSN31 ESWI 101700 AAA
TAF AMD ESSA 102003Z 1020/1118 32012KT 9999 BKN008 BECMG 1020/1022
BKN010 BECMG 1022/1024 BKN015 BECMG 1101/1103 08003KT BECMG 1103/1105
4000 -SN VV012 TEMPO 1103/1118 1400 SN VV007 BECMG 1106/1108 02010KT=

0000051200
631
SAKO31 RKSI 102000
METAR RKSI 102000Z 05006KT 8000 SCT030 M04/M05 Q1032 NOSIG=
METAR RKSS 102000Z 23002KT 4500 2000NW BR FEW030 M08/M11 Q1032 
           NOSIG =
METAR RKPC 102000Z 36008KT 9999 BKN040 05/M05 Q1032 NOSIG =
METAR RKPK 102000Z 28003KT 8000 NSC M04/M07 Q1032 NOSIG =
METAR RKTU 102000Z 12001KT 4000 BR BKN040 M06/M07 Q1032 NOSIG =
METAR RKTN NIL= 
METAR RKJB 102000Z AUTO 14003KT 3000 ///052 M03/M05 Q1033 =
METAR RKNY 102000Z AUTO 26016KT 3000 NCD M02/M11 Q1028 =

0000012400
632
SACN62 CYOW 102000
METAR CYOW 102000Z 06005KT 10SM -SN OVC007 M06/M09 A3023 RMK SC8 VRY
 LGT SN SLP244=

00000000