0000065400
973
SPUS70 KWBC 101900
SPECI
KAXO 101855Z 06008KTS 2 1SM BR VV001 15/14 A2999=
K7R3 101854Z 12007KT 10SM SCT007 OVC048 18/18 A2998=
KAGS 101856Z 00000KT 1 1/2SM +RA BR OVC009 08/08 A3016 RMK AO2 CIG
     004V011 P0002=
KMIW 101856Z AUTO 16008KT 1SM -SN BR OVC002 00/00 A2963 RMK AO2
     UPE55FZRAB55E56SNB56 P0000 I1000 T00000000 TSNO=
KOWD 101856Z 00000KT 3SM BR FEW009 OVC016 01/00 A3040 RMK AO2
     T00060000=
KDNL 101857Z AUTO VRB04KT 2 1/2SM +RA BR BKN003 OVC013 08/07 A3016
     RMK AO2 P0001 T00830072 TSNO=
PABA 101857Z AUTO 27022KT 1 1/4SM -SN M26/M29 A2986 RMK AO2 PK WND
     27026/1850 SNB43 FZRANO $=

0000010200
974
SACA33 KWBC 101800 CCA
METAR
TVSV 101800Z 09016KT 9999 FEW020 SCT038 28/23 Q1014=

0000011900
975
SACN62 CYOJ 101900
METAR CYOJ 101900Z 17003KT 15SM BKN080 BKN250 M18/M20 A2948 RMK
 AC6CI1 SLP017=

0000011500
976
SACN62 CYQR 101900
METAR CYQR 101900Z 29013KT 2 1/2SM BR OVC004 M08/M09 A2943 RMK SF8
 SLP009=

0000012200
977
SACN62 CYRA 101900
METAR CYRA 101900Z 24002KT 4SM -SN BKN035 OVC080 M25/M28 A2952 RMK
 SC6AC2 SLP026=

0000013800
978
SACN62 CYQM 101900
METAR CYQM 101900Z 22016G23KT 15SM FEW030 FEW120 SCT240 M02/M09 A3029
 RMK SC1AC1CI3 SC TR SLP262=

0000012900
979
SACN62 CYWL 101900
METAR CYWL 101900Z 30008KT 15SM FEW070 SCT140 BKN200 M02/M07 A2976
 RMK AC1AC3CI3 SLP117=

0000013200
980
SACN62 CYXP 101900
METAR CYXP 101900Z 11002KT 4SM -SN FEW030 BKN090 OVC210 M18/M21 A2922
 RMK SC1AS5CI2 SLP897=

0000009700
981
SPAU32 AMMC 101903
SPECI YCIN 101900Z AUTO 32004KT //// // OVC013 27/25 Q1007=

0000012100
982
SAFI34 EFHK 101850 CCA
EFKS 101903Z 04008KT 360V090 9999 -SG FEW016 BKN044 M16/M18 Q1005
R12/72//95=

0000035300
983
FTUS80 KWBC 101903 AAA
TAF AMD
KMCK 101900Z 1019/1118 31015G27KT P6SM VCSH BKN025
     FM102300 31011KT P6SM SCT050 OVC090
     FM110300 28010KT P6SM SKC=
KRHI 101902Z 1019/1118 19007KT 2SM BR OVC005
     FM110200 12003KT 2SM -SN BR OVC006
      TEMPO 1104/1108 1SM -SN BR OVC004
     FM111200 30006KT 3SM -SN BR OVC008=

0000009600
984
SPAU32 AMMC 101903
SPECI YMHB 101900Z 16004KT 9999 SCT009 BKN016 16/14 Q1014=

0000009700
985
SPAU32 YBBN 101903
SPECI YCIN 101900Z AUTO 32004KT //// // OVC013 27/25 Q1007=

0000020600
986
SALJ31 LJLJ 101900
METAR LJLJ 101900Z VRB01KT 9999 BKN040 06/06 Q1020 NOSIG=
METAR LJMB 101900Z 36004KT 4000 BR NSC 01/01 Q1020=
METAR LJPZ 101900Z 00000KT 3000 BR OVC015 10/09 Q1021=

0000009400
987
SALJ32 LJLJ 101900
METAR LJCE 101900Z 23001KT 6000 NSC 05/04 Q1020 RMK WHT=

0000007800
988
FCEO32 EETN 101400 AAA
TAF AMD EEKA  101900Z 1015/1021 CNL=

0000021700
989
SAFR21 LFPW 101900
METAR LFOA 101900Z AUTO 09004KT 9999 NSC 06/04 Q1017=
METAR LFPC 101900Z AUTO 18004KT 150V210 9999 OVC010 05/03 Q1018=
METAR LFPV 101900Z AUTO 15003KT 9000 OVC005 05/04 Q1018=

0000035600
990
SARO31 LROM 101900
METAR LRBS 101900Z 27006KT 8000 NSC 06/05 Q1015 NOSIG=
METAR LRCK 101900Z 28016KT 2500 BR SCT004 03/03 Q1014 NOSIG=
METAR LROP 101900Z 24008KT CAVOK 05/05 Q1015 NOSIG=
METAR LRSB 101900Z 30019KT 9999 SCT086 04/00 Q1018 NOSIG=
METAR LRTR 101900Z 11004KT 0300 R11/0400V0550N FZFG BKN000 M00/M00
Q1022 11190095=

0000047100
991
SAFR22 LFPW 101900
METAR LFBC 101900Z AUTO 07002KT 9999 NSC 08/07 Q1014=
METAR LFBG 101900Z AUTO 09006KT 9000 NSC 09/08 Q1014=
METAR LFBM 101900Z AUTO 09003KT 9999 NSC 09/07 Q1014=
METAR LFBY 101900Z AUTO 00000KT 9000 // ////// 09/07 Q1014=
METAR LFKS 101900Z AUTO 26003KT 9999 OVC026 13/10 Q1021=
METAR LFMO 101900Z AUTO 06003KT 5000 BR OVC023 07/06 Q1019=
METAR LFMY 101900Z AUTO 00000KT 9000 OVC024 10/07 Q1019=
METAR LFMC 101900Z NIL=

0000043000
992
SARO32 LROM 101900
METAR LRAR 101900Z 14004KT 120V190 CAVOK 01/01 Q1021=
METAR LRBM 101900Z AUTO 14004KT 2300 -SHRA FEW002 BKN006 BKN008
03/03 Q1019=
METAR LRCL 101900Z VRB02KT 3500 BR BKN036 00/M00 Q1018=
METAR LROD 101900Z 22012KT 9000 NSC 03/02 Q1020=
METAR LRSM 101900Z AUTO 25008KT 7000 FEW007 BKN009 04/04 Q1018=
METAR LRTM 101900Z 20004KT 180V250 3500 BR SCT010 SCT015 00/00
Q1019 0729//95=

00000000