0000014000
693
FTCN33 CWAO 102300 AAA
TAF AMD CYHI 102313Z 1021/1101 FCST CNCLD DUE NO OBS
    RMK NXT FCST WILL BE ISSUED AT 111645Z=

0000009600
694
SPUS43 KWBC 102313
SPECI
KPIA 102309Z 17013KT 4SM RA BR OVC004 04/03 A2963=

0000134500
695
FASP40 LEMM 102300
LECM GAMET VALID 110300/110900 LEMM-
LECM MADRID FIR/1 BLW FL150
SECN I
SFC VIS: 0800-3000 M BR/BCFG VAL EBRO AND LOC GALICIA
         3000-5000 M BR SE CASTILLA LA MANCHA
         3000 M BR/DZ LOC COT CANTABRICA
MT OBSC: LOC CORDILLERA CANTABRICA
SIG CLD: OVC ST 005-010/015-020 HFT AGL VAL EBRO
SECN II
PSYS: 06 H 1014 HPA N47 W010 EXTD 1014 PENINSULA IBERICA STNR
INTSF
CLD:  BKN SC CU 020-030/070-080 HFT AMSL BTN LINE N40 W010 - N44
      W008 - N45 W003 AND LINE LESA - LEPP
      BKN AC AS 080-090/120-130 HFT AMSL W OF LINE N45 W010-N44
W011
      BKN AC AS 130-140/ABV 150 HFT AMSL SE OF LINE N43 W001 - N41
      W004 - N40 W004
WND/T:    LA CORUNA      MADRID         SANTANDER      ZARAGOZA
       -------------- -------------- -------------- --------------
020HFT 087/007KT PS07 119/001KT PS06 009/006KT PS07 157/004KT PS05
050HFT 075/006KT PS03 050/003KT PS06 104/005KT PS03 158/007KT PS05
100HFT 297/004KT MS04 012/012KT MS04 247/019KT MS05 072/004KT MS04
150HFT 282/010KT MS13 017/007KT MS15 235/018KT MS14 175/010KT MS13
200HFT 270/017KT MS25 230/003KT MS25 276/009KT MS24 191/019KT MS23
300HFT 312/023KT MS49 152/009KT MS51 328/003KT MS51 186/024KT MS50
FZLVL:   80 HFT AMSL    83 HFT AMSL    78 HFT AMSL    77 HFT AMSL
MNM QNH:1014 HPA=

0000008500
696
SPCN51 CWAO 102313
SPECI CWOB 102313Z AUTO 04003KT CLR M21/ A2916=

0000029200
697
FCFR22 LFPW 102300
TAF LFBM 102300Z 1100/1109 26005KT 3000 BR BKN005 BECMG 1101/1103
 0400
 FG VV///=
TAF LFBC 102300Z NIL=
TAF LFBG 102300Z NIL=
TAF LFBY 102300Z NIL=
TAF LFKS 102300Z NIL=
TAF LFMC 102300Z NIL=
TAF LFMO 102300Z NIL=
TAF LFMY 102300Z NIL=

0000015500
698
FCFR23 LFPW 102300
TAF LFOC 102300Z NIL=
TAF LFOE 102300Z NIL=
TAF LFOJ 102300Z NIL=
TAF LFRJ 102300Z NIL=
TAF LFRL 102300Z NIL=

0000022500
699
FCFR24 LFPW 102300
TAF LFSO 102300Z 1100/1109 14005KT CAVOK
PROB40 TEMPO 1100/1106 3000 BR
TEMPO 1105/1109 5000 -RA SCT040 OVC070=
TAF LFSI 102300Z NIL=
TAF LFSX 102300Z NIL=
TAF LFYR 102300Z NIL=

0000020300
700
FCFR31 LFPW 102300
TAF LFBA 102300Z NIL=
TAF LFBE 102300Z NIL=
TAF LFCK 102300Z NIL=
TAF LFPN 102300Z NIL=
TAF LFRC 102300Z NIL=
TAF LFRG 102300Z NIL=
TAF LFRK 102300Z NIL=

0000018300
701
FCFR32 LFPW 102300
TAF LFOT 102300Z 1100/1109 05005KT CAVOK TEMPO 1100/1109 -DZRA BKN015
=
TAF LFGJ 102300Z NIL=
TAF LFJR 102300Z NIL=
TAF LFMD 102300Z NIL=

0000013100
702
FCFR33 LFPW 102300
TAF LFAQ 102300Z NIL=
TAF LFRH 102300Z NIL=
TAF LFRQ 102300Z NIL=
TAF LFSL 102300Z NIL=

0000013100
703
FCFR34 LFPW 102300
TAF LFAT 102300Z NIL=
TAF LFLN 102300Z NIL=
TAF LFPM 102300Z NIL=
TAF LFRT 102300Z NIL=

0000072700
704
FTAG41 SABE 102300
TAF SABE 102300Z 1100/1124 20005KT 9999 SCT030 BKN090 TX27/1100Z
TN17/1110Z BECMG 1104/1107 16015G25KT 9999 BKN020 BECMG 1114/1116
11015KT =
TAF SADF 102300Z 1100/1124 20005KT 9999 SCT030 BKN090 TX27/1100Z
TN17/1110Z BECMG 1104/1107 16015KT 9999 BKN020 BECMG 1114/1116
11010KT =
TAF SAAR 102300Z 1100/1124 14010KT 9999 FEW040CB BKN090 TX29/1118Z
TN16/1110Z TEMPO 1100/1102 6000 SHRA OVC040 BECMG 1103/1106 14010KT
9999 SCT030 BKN090 =
TAF SAZN 102300Z 1100/1124 18005KT CAVOK TX33/1118Z TN12/1110Z BECMG
1103/1106 05010KT BECMG 1114/1116 02015KT=
TAF SAZS 102300Z 1100/1124 32015KT CAVOK TX30/1118Z TN05/1110Z
BECMG 1103/1106 VRB05KT CAVOK BECMG 1113/1115 02010KT =

0000040600
705
FTFR21 LFPW 102300
TAF LFPC 102300Z 1100/1124 15005KT 4000 BR OVC004
  PROB30 TEMPO 1102/1110 0400 FG VV///
  TEMPO 1103/1106 4000 -RA
  BECMG 1118/1120 9999 NSW SCT015=
TAF LFPV 102300Z 1100/1124 13003KT 4000 BR OVC005
 TEMPO 1100/1102 0400 FG VV///
 TEMPO 1102/1106 3000 RADZ OVC003
 PROB30 TEMPO 1106/1109 0400 FG VV///
 TEMPO 1109/1124 BKN012=
TAF LFOA 102300Z NIL=

0000069400
706
FTFR31 LFPW 102300
TAF LFLL 102300Z 1100/1206 VRB02KT 1500 BR NSC
BECMG 1101/1103 18012KT 8000 NSW
PROB30 TEMPO 1104/1109 BKN008
BECMG 1114/1116 VRB02KT BKN020
BECMG 1118/1121 3000 BR BKN005=
TAF LFPG 102300Z 1100/1206 15005KT 0500 FG VV/// BECMG 1102/1104
22005KT BECMG 1106/1108 1200 BCFG BKN004 BECMG 1109/1111 9999 NSW
SCT012 PROB40 TEMPO 1111/1116 BKN012 BECMG 1122/1124 4000 BR
TX08/1113Z TN01/1124Z=
TAF LFPO 102300Z 1100/1206 10004KT 8000 BKN003 TEMPO 1101/1106 3000
-RA  BKN006 BECMG 1105/1108 20006KT BKN016 TEMPO 1106/1109 4000 BR
BKN004  BECMG 1112/1115 SCT016 BECMG 1120/1123 02004KT BKN006 TEMPO
1200/1206 BKN003=
TAF LFMN 102300Z NIL=

0000057200
707
FTFR32 LFPW 102300
TAF LFQQ 102300Z 1100/1206 21010KT 7000 OVC007 BECMG 1102/1105 3000
BR OVC003 TEMPO 1109/1111 1200 DZ BECMG 1111/1114 30010KT 9999 NSW
SCT030 BECMG 1117/1120 VRB02KT BECMG 1121/1124 3000 BR PROB40
1200/1206 0200 FZFG VV///=
TAF LFRB 102300Z 1100/1206 18006KT 4000 BR SCT005 BKN020 TEMPO
1100/1106 0500 FG BKN001 BECMG 1106/1109 BKN030 BECMG 1109/1112
08012KT BECMG 1200/1203 BKN003=
TAF LFRS 102300Z 1100/1206 06003KT 8000 BKN040 TEMPO 1103/1108 3000
BR BKN005 PROB30 TEMPO 1103/1108 0800 BCFG BECMG 1121/1124 09012KT=

0000069600
708
FTFR33 LFPW 102300
TAF LFBD 102300Z 1100/1206 VRB02KT 1500 BCFG NSC TEMPO 1100/1109 0200
 FG VV/// BECMG 1109/1112 3000 BR BKN005 BECMG 1112/1115 12006KT 6000
 BKN010 PROB30 TEMPO 1112/1118 8000 SCT015 BECMG 1118/1121 3000 BR
BKN005 TEMPO 1121/1206 0200 FG VV///=
TAF LFBO 102300Z 1100/1206 14010KT 9999 SCT012 BKN017 BECMG 1100/1101
 BKN012 PROB40 1104/1108 4000 BR OVC008 PROB30 1105/1108 0800 BCFG
BECMG 1110/1112 BKN016 BECMG 1118/1121 OVC008 BECMG 1121/1124 3000 BR
 OVC004 PROB40 1200/1206 0400 FG VV///=
TAF LFML 102300Z 1100/1206 VRB03KT 9999 BKN025 TEMPO 1100/1109 BKN015
 TEMPO 1109/1118 07007KT SCT025 TX14/1114Z TN10/1105Z=
TAF LFLX 102300Z NIL=

0000141300
709
FTFR34 LFPW 102300
TAF LFBH 102300Z 1100/1124 VRB02KT CAVOK BECMG 1100/1103 3000 BR
PROB30 TEMPO 1103/1107 0200 FG VV/// BECMG 1109/1112 10006KT 6000
SCT010 BECMG 1112/1115 CAVOK BECMG 1118/1121 6000 BR BKN005=
TAF LFBI 102300Z 1100/1124 VRB02KT CAVOK BECMG 1100/1103 3000 BR
BKN005 TEMPO 1100/1109 0200 FG VV/// BECMG 1109/1112 6000 BKN010
PROB30 TEMPO 1112/1118 8000 SCT015 BECMG 1115/1118 08006KT=
TAF LFBL 102300Z 1100/1124 VRB03KT 7000 NSC BECMG 1100/1101 4000 BR
BKN003 PROB30 1103/1108 0200 FG VV/// BECMG 1108/1111 9999 NSW SCT012
 TEMPO 1108/1111 18010KT BECMG 1115/1118 BKN012 BECMG 1120/1122 4000
BR BKN003=
TAF LFBP 102300Z 1100/1124 VRB03KT 3000 BR SCT003 BECMG 1101/1103
BKN003 PROB30 TEMPO 1103/1108 0400 FG BECMG 1109/1111 8000 NSW SCT003
 BKN013 BECMG 1116/1118 4000 BR BKN006 BECMG 1118/1120 1500 BCFG
BKN002 TEMPO 1120/1124 0200 FG VV///=
TAF LFBT 102300Z 1100/1124 VRB02KT 7000 NSC BECMG 1100/1102 28010KT
4000 BR BKN008 PROB30 TEMPO 1103/1106 0500 FG VV/// BECMG 1107/1109
VRB02KT 8000 NSW BKN013 BECMG 1112/1115 BKN020 PROB30 TEMPO 1115/1120
 BKN005 BECMG 1120/1122 4000 BR PROB40 TEMPO 1122/1124 0800 BCFG=
TAF LFBZ 102300Z 1100/1124 27010KT 9999 BKN012 BECMG 1100/1103
VRB03KT PROB30 TEMPO 1103/1108 3000 BR BKN005 BECMG 1115/1118 09010KT
 CAVOK=
TAF LFLB 102300Z 1100/1124 VRB02KT CAVOK
PROB30 TEMPO 1100/1109 2000 BR BKN001=

0000062400
710
FTFR35 LFPW 102300
TAF LFKB 102300Z 1100/1124 28006KT 9999 FEW020 BKN030 BECMG 1107/1109
 16010KT PROB30 TEMPO 1100/1121 BKN015 TX16/1113Z TN08/1103Z=
TAF LFKJ 102300Z 1100/1124 06006KT 9999 FEW012 SCT250 PROB30 TEMPO
1106/1110 SCT013 BECMG 1111/1112 24008KT NSC=
TAF LFLC 102300Z 1100/1124 25003KT CAVOK PROB40 TEMPO 1100/1108 3000
BR BECMG 1113/1115 35005KT TEMPO 1117/1124 OVC010=
TAF LFMP 102300Z 1100/1124 VRB03KT 7000 OVC025 TEMPO 1100/1107 3000
BR OVC005 BECMG 1107/1109 32006KT OVC010 PROB30 TEMPO 1111/1119 RA=
TAF LFKC 102300Z NIL=
TAF LFKF 102300Z NIL=
TAF LFMV 102300Z NIL=

0000071100
711
FTFR36 LFPW 102300
TAF LFCR 102300Z 1100/1124 14008KT CAVOK PROB40 1101/1108 4000 BR
PROB30 1103/1107 0800 BCFG TEMPO 1111/1116 BKN013 BECMG 1118/1121
4000 BR PROB40 1121/1124 0200 FG VV///=
TAF LFLP 102300Z 1100/1124 VRB02KT CAVOK
PROB30 TEMPO 1100/1109 2000 BR BKN001=
TAF LFLS 102300Z 1100/1124 VRB02KT CAVOK
TEMPO 1100/1109 2000 BCFG OVC004=
TAF LFLY 102300Z 1100/1124 VRB02KT CAVOK
TEMPO 1100/1109 2000 BR BKN003
PROB30 TEMPO 1100/1106 0600 BCFG OVC002
BECMG 1106/1109 18012KT
BECMG 1116/1118 OVC009=
TAF LFMT 102300Z 1100/1124 04005KT 9999 OVC030 TEMPO 1100/1109 4000
-RA BR BKN010 OVC020 BECMG 1114/1116 BKN030=
TAF LFMU 102300Z NIL=
TAF LFTW 102300Z NIL=

0000083800
712
FTFR37 LFPW 102300
TAF LFJL 102300Z 1100/1124 VRB02KT 7000 NSC PROB40 TEMPO 1100/1103
3000 BR BKN006 TEMPO 1104/1112 -RA BKN040 BECMG 1109/1112 22004KT=
TAF LFOB 102300Z 1100/1124 18008KT 3000 BR OVC003 PROB30 1100/1107
0200 FG VV/// TEMPO 1102/1110 1200 DZ BECMG 1112/1114 30010KT 9999
NSW BKN015 BECMG 1115/1118 02007KT 4000 BR NSC PROB40 1122/1124 0200
FG VV///=
TAF LFOK 102300Z 1100/1124 VRB02KT 0150 FG VV/// TEMPO 1102/1110 1500
 DZ OVC002 BECMG 1110/1113 7000 NSW BKN008 TEMPO 1113/1116 SCT010
BECMG 1121/1124 0200 FG VV///=
TAF LFPB 102300Z 1100/1124 15005KT 0500 FG VV/// BECMG 1102/1104
22005KT BECMG 1106/1108 1200 BCFG BKN004 BECMG 1109/1111 9999 NSW
SCT012 PROB40 TEMPO 1111/1116 BKN012 BECMG 1122/1124 4000 BR=
TAF LFOH 102300Z NIL=
TAF LFOP 102300Z NIL=
TAF LFSN 102300Z NIL=

00000000