0000010600
173
SAUS73 KWBC 101900 RRL
METAR
KBJC 101948Z 27030G42KT 60SM SCT080 BKN120 05/M12 A2963=

0000010100
174
SABZ22 SBBR 102000
METAR SBBR 102000Z 05008KT 9999 SCT040 FEW045TCU
28/13 Q1014=

0000009500
175
SABR31 TBPB 102000
METAR TBPB 102000Z 05016KT 9999 FEW018 26/21 Q1013 NOSIG=

0000008900
176
SABZ24 SBCR 102000
METAR SBCR 102000Z 05004KT 9999 SCT025 34/21 Q1006=

0000010600
177
SABZ20 SBTT 102000
METAR SBTT 102000Z 34006KT 9999 VCSH FEW020
FEW025TCU 30/24 Q1007=

0000046700
178
SZPA01 AMMC 111003
CREX++
T000103 A001 D01021 D06025++
0136250 17293000 67590 2014 01 11 09 56 3018 11 07 00 01
01377 0040 01378 0039 01381 0039 01386 0042 01391 0045 01400 0051+
0710610 17137250 67680 2014 01 11 09 56 3013 11 07 00 01
00953 0114 00953 0112 00956 0113 00954 0109 00957 0110 00959 0109+
0698060 15820000 67950 2014 01 11 09 56 3023 11 07 00 01
00569 0026 00572 0028 00575 0031 00578 0034 00575 0030 00575 0030++
7777

0000191100
179
SZAU01 AMMC 111003
CREX++
T000103 A001 D01021 D06025++
-1927750 14705860 59260 2014 01 11 09 56 3028 11 07 00 01
02423 0206 02425 0211 02426 0216 02417 0211 02409 0207 02410 0211+
-2316110 15079000 59670 2014 01 11 09 56 3003 11 07 00 01
03330 0235 03330 0240 03317 0234 03316 0238 03301 0228 03293 0228+
-3447330 15091170 60420 2014 01 11 09 56 2952 11 07 00 01
00811 -0020 00809 -0019 00801 -0024 00796 -0027 00792 -0027 00792 -0025+
-4105000 14591500 60910 2014 01 11 09 56 2888 11 07 00 01
03016 -0007 03017 -0006 03024 0001 03013 -0010 03022 0000 03013 -0008+
-4254640 14793080 61170 2014 01 11 09 56 2895 11 07 00 01
01209 0108 01205 0105 01210 0112 01213 0116 01215 0119 01218 0124+
-3834390 14161360 61410 2014 01 11 09 56 2907 11 07 00 01
00669 0032 00658 0020 00680 0042 00660 0021 00667 0027 00653 0012+
-3214890 13364170 62000 2014 01 11 09 56 2960 11 07 00 01
01226 0131 01224 0131 01222 0130 01219 0127 01215 0124 01213 0123+
-3387080 12189720 62080 2014 01 11 09 56 2950 11 07 00 01
00937 0041 00934 0037 00937 0038 00929 0029 00964 0063 00967 0065+
-3182560 11573860 62237 2014 01 11 09 56 2973 11 07 00 01
01044 0092 01043 0091 01043 0091 01038 0086 01035 0083 01038 0085+
-2422000 11339750 62385 2014 01 11 09 56 //// 11 07 00 01
01473 -0037 01409 -0101 01409 -0101 01428 -0082 01429 -0081 01442 -0068+
-2181670 11419110 62430 2014 01 11 09 56 //// 11 07 00 01
02182 -0063 02174 -0072 02188 -0059 02172 -0076 02192 -0057 02171 -0078+
-1800080 12221830 62650 2014 01 11 09 56 3043 11 07 00 01
06952 0098 06954 0096 06955 0095 06958 0094 06963 0098 06968 0099+
-1247190 13084580 63230 2014 01 11 09 56 3050 11 07 00 01
04402 0142 04398 0142 04395 0143 04392 0144 04386 0141 04379 0138+
-1386000 13641580 63511 2014 01 11 09 56 3043 11 07 00 01
01871 0160 01872 0160 01870 0158 01869 0156 01869 0155 01868 0154++
7777

0000034500
180
SZIO01 AMMC 111003
CREX++
T000103 A001 D01021 D06025++
-1211670 09689190 46280 2014 01 11 09 56 3022 11 07 00 01
01094 0019 01104 0031 01103 0032 01098 0029 01093 0027 01092 0028+
-1042940 10566940 46290 2014 01 11 09 56 //// 11 07 00 01
01340 -0046 ///// //// ///// //// 01347 -0036 01365 -0017 01312 -0068++
7777

0000012000
181
SNSQ51 LZIB 111000 RRA
AAXX 11101
11938 42582 62203 11002 21034 39122 42793 82842
  333 81830 83360=
0000011100
182
UANT99 KDDL 111002
ARP UAL982 5000N01654W 1002 F350 MS62 229/62 KT
N229UA DDL XXW 111002 F53A
0000097500
183
UDAS02 BABJ 110954
AMDAR 1109
DES CNFOZL 2319N 11318E 110949 F132 PS005 269/029 TB/ S//1=
DES CNFOZL 2316N 11317E 110950 F126 PS015 265/026 TB/ S//1=
DES CNFOZL 2311N 11315E 110951 F118 PS028 257/023 TB/ S//1=
DES CNFOZL 2306N 11313E 110952 F118 PS028 258/024 TB/ S//1=
DES CNFPYN 3615N 10344E 110950 F085 MS125 079/009 TB/ S//1=
DES CNFPYN 3617N 10341E 110951 F085 MS125 081/010 TB/ S//1=
DES CNFPYN 3618N 10339E 110951 F085 MS125 068/011 TB/ S//1=
DES CNFPYN 3619N 10338E 110952 F085 MS125 084/006 TB/ S//1=
DES CNFLWM 2308N 11202E 110952 F251 MS165 264/059 TB/ S//1=
ASC CNFPQK 3723N 12122E 110952 F003 PS023 219/008 TB/ S//1=
ASC CNFPQK 3723N 12122E 110953 F007 PS016 236/007 TB/ S//1=
LVR CNFLWR 2830N 11558E 110944 F276 MS279 255/099 TB/ S//1=
LVR CNFLWR 2826N 11538E 110947 F276 MS283 255/097 TB/ S//1=
LVR CNFLWR 2824N 11517E 110950 F276 MS275 258/098 TB/ S//1=
LVR CNFLWR 2821N 11456E 110953 F276 MS283 257/097 TB/ S//1=
0000178100
184
UDAS02 BABJ 110952
AMDAR 1109
LVR CNFPYM 3529N 11727E 110947 F246 MS356 267/080 TB/ S//1=
LVR CNFPYM 3526N 11726E 110947 F246 MS354 268/079 TB/ S//1=
LVR CNFPYM 3523N 11725E 110948 F246 MS355 266/077 TB/ S//1=
LVR CNFPYM 3520N 11724E 110948 F246 MS355 266/076 TB/ S//1=
LVR CNFNXM 2751N 11131E 110940 F291 MS298 262/113 TB/ S//1=
LVR CNFNXM 2758N 11201E 110943 F291 MS295 262/112 TB/ S//1=
LVR CNFNXM 2800N 11232E 110946 F291 MS293 262/116 TB/ S//1=
LVR CNFNXM 2759N 11303E 110949 F291 MS294 263/113 TB/ S//1=
DES CNFOZL 2334N 11325E 110946 F145 MS018 265/040 TB/ S//1=
DES CNFOZL 2331N 11323E 110947 F138 MS008 266/037 TB/ S//1=
DES CNFOZL 2326N 11321E 110948 F138 MS008 267/035 TB/ S//1=
DES CNFOZL 2321N 11319E 110949 F136 MS004 269/032 TB/ S//1=
DES CNFPYN 3611N 10401E 110947 F094 MS141 025/018 TB/ S//1=
DES CNFPYN 3612N 10355E 110948 F089 MS138 050/009 TB/ S//1=
DES CNFPYN 3613N 10352E 110948 F085 MS128 070/009 TB/ S//1=
DES CNFPYN 3614N 10349E 110949 F085 MS125 058/010 TB/ S//1=
LVR CNFLWM 2416N 11111E 110940 F291 MS283 260/075 TB/ S//1=
LVR CNFLWM 2359N 11129E 110943 F291 MS270 259/074 TB/ S//1=
LVR CNFLWM 2340N 11138E 110946 F291 MS270 259/071 TB/ S//1=
LVR CNFLWM 2322N 11147E 110949 F291 MS270 262/066 TB/ S//1=
LVR CNFPYM 3519N 11723E 110949 F246 MS358 266/075 TB/ S//1=
LVR CNFPYM 3515N 11722E 110949 F246 MS353 264/077 TB/ S//1=
LVR CNFPYM 3512N 11721E 110950 F246 MS351 264/077 TB/ S//1=
LVR CNFPYM 3508N 11720E 110950 F246 MS350 264/075 TB/ S//1=
LVR CNFOZN 3237N 12211E 110941 F361 MS470 262/146 TB/ S//1=
LVR CNFOZN 3216N 12221E 110944 F361 MS470 262/149 TB/ S//1=
LVR CNFOZN 3155N 12231E 110947 F361 MS463 264/154 TB/ S//1=
LVR CNFOZN 3133N 12241E 110950 F361 MS458 262/154 TB/ S//1=
0000028300
185
SAUK39 EGRR 110950 RRA
METAR EGOW 110950Z 30011KT 9999 VCSH FEW012 SCT015 BKN020 05/04
   Q1017 WHT=
METAR EGQS 110950Z 25012KT 9999 FEW020CB 02/M01 Q1009 BLU=
METAR EGUY 110950Z 28012KT CAVOK 05/03 Q1017 BLU=
METAR EGWC 110950Z 00000KT CAVOK 03/03 Q1018 BLU=
0000012800
186
SNRE15 FMEE 111000
AAXX 11104
61998 26/// /2321 10089 20025 30031 40067 53006
  333 58030 60005 90710 91126=
0000024100
187
SOAT10 KWAL 111003
FA8005BC 011100337 OT12 ID:KN-BASS-01 DT:2014 01 11 10 01
:RD -3105 -3093 -3116 -3097 -3118 -3112 -3091 -3096 -3085 -3080
:PR 0543 0500 0570 0520 0588 0502 0509 0517 0597 0568
:B 13.7V
 46+1NN 219E
0000072300
188
SAIR31 OIII 111000
METAR OIAW 111000Z 12010KT 9999 FEW025CB SCT025 BKN080 14/10 Q1016=
METAR OIFM 111000Z 06004KT 2000 HZ SCT040 OVC100 02/M03 Q1018
      A3006=
METAR OIII 111000Z 19006KT 0800 +SN SCT025 OVC080 01/M01 Q1019
 A3010 TEMPO 0800 SN FEW035CB SCT030 BKN100=
METAR OIKB 111000Z 06010KT 7000 -RA FEW025CB SCT030 OVC090 16/06
Q1020 A3013 NOSIG=
METAR OIKK 111000Z NIL=
METAR OIMM 111000Z 07004KT 9999 FEW040 BKN170 10/M11 Q1018 A3008=
METAR OISS 111000Z 00000KT 1500-RA FEW030CB SCT035 OVC070 03/02
Q1020 A3012=
METAR OITT 111000Z 00000KT 6000 FEW035 BKN180 M04/M10 Q1021
A3015=
METAR OIZH 111000Z 11010KT 9999 VCRA SCT035 FEW040CB BKN090 07/M07
 Q1020 A3013 TEMPO SHRA=
0000014400
189
SPIV20 DIAP 101957
SPECI DIAP 101957Z 26004KT 9999 TS SCT012 FEW020CB 28/25 Q1011 TEMPO 
2000 TSRA BKN009 SCT020CB  BKN100=

0000071000
190
SAIY32 LIIB 101950
METAR LIBD 101950Z 24006KT 8000 NSC 08/08 Q1022=
METAR LIBR 101945Z 22003KT 9999 FEW020 09/08 Q1021 NOSIG=
METAR LICC 101950Z NIL=
METAR LICJ 101950Z 20006KT CAVOK 12/09 Q1021=
METAR LIPB 101950Z 00000KT 9999 BKN040 04/04 Q1021=
METAR LIPE 101950Z 08003KT 050V110 0100 R12/0800V1000U FG VV///
07/07 Q1022=
METAR LIPH 101945Z /////KT 1700 BR SCT015 SCT035 06/06 Q1021=
METAR LIPK 101950Z NIL=
METAR LIPQ 101950Z 00000KT 2000 BR SCT008 BKN012 09/07 Q1021=
METAR LIPR 101945Z /////KT 8000 BKN045 10/10 Q1020=
METAR LIPX 101945Z 00000KT 1000 R04/P1500N BR SCT010 BKN045 08/06
      Q1022=
METAR LIPZ 101950Z VRB02KT 2500 BR SCT015 SCT050 07/06 Q1022=

0000008700
191
SAIY32 LIIB 101950 RRA
METAR LICC 101950Z 27007KT CAVOK 11/08 Q1021=

0000049500
192
SAFI33 EFHK 101950
EFJO 101950Z AUTO 02013KT 340V050 9999 -SN FEW013 OVC075 M09/M10
Q0993=
EFLP 101950Z 36014KT 340V040 5000 -SN FEW009 SCT012 BKN016 OVC020
M05/M07 Q0988=
EFMI 101950Z AUTO VRB06KT 9999 -SG OVC011 M06/M07 Q0992=
EFSA 101950Z AUTO 36010KT 300V050 7000 -SG FEW017 SCT033 BKN041
OVC050 M08/M09 Q0991=
EFUT 101950Z AUTO 36013KT 320V020 9999 -SN FEW009 BKN011 OVC015
M04/M06 Q0989=
EFVR 101950Z AUTO 01011KT 340V050 0450 +SN OVC014 M07/M10 Q0993=

00000000