0000011100
213
SACV20 GVSV 110100
METAR GVSV 110100Z 08008KT 9999 FEW020 SCT023 BKN200 20/16 Q1017
NOSIG=

0000027400
214
SAIO31 KWBC 110000 RRG
METAR
WBGG 110030Z 17002KT 7000 FEW001 SCT018 BKN150 23/23 Q1012
     NOSIG=
WBKK 110030Z 11004KT 9999 FEW015 SCT140 BKN270 26/23 Q1012
     NOSIG=
WBSB 110030Z 22003KT 9999 FEW015 FEW016CB BKN280 26/25 Q1013
     NOSIG=

0000028300
215
FTUS43 KWBC 110042 AAA
TAF AMD
KGRR 110038Z 1101/1124 16013KT 3SM RA BR FEW010 BKN025 OVC040
     FM110300 16016KT 2SM RA BR OVC005
     FM110500 18010G16KT 1SM -RA BR OVC003
     FM111000 20009KT 1SM BR OVC003
     FM111600 26012G20KT 2SM -SN BR OVC005=

0000006700
216
SANT31 KWBC 110000 RRE
METAR
GVAC 110030Z NIL=

0000013200
217
SAPA31 KWBC 110000 RRC
METAR
PKWA 110040Z AUTO 08016KT 10SM SCT046 SCT055 31/20 A2980 RMK AO2
     T03060202=

0000030900
218
FTUS71 KWBC 110042 AAA
TAF AMD
KSLK 110039Z 1101/1124 23006KT P6SM BKN027 OVC035
      TEMPO 1101/1105 SCT025 OVC035
     FM110800 18009KT 5SM -FZRA BR BKN015 OVC020
     FM111000 20012G18KT 4SM -RA BR OVC008 WS020/22045KT
     FM111300 20012G20KT 3SM -RA BR OVC006 WS020/22050KT=

0000079600
219
FTUS73 KWBC 110042 AAA
TAF AMD
KBTL 110040Z 1101/1124 17008KT 4SM -RA BR OVC005
     FM110300 18011KT 1 1/2SM -RA BR OVC005
     FM110500 19014G21KT 1SM -RA BR OVC003
     FM111100 22012KT 1SM BR OVC003
     FM111700 26012G20KT 2SM -SN BR OVC005=
KGRR 110038Z 1101/1124 16013KT 3SM RA BR FEW010 BKN025 OVC040
     FM110300 16016KT 2SM RA BR OVC005
     FM110500 18010G16KT 1SM -RA BR OVC003
     FM111000 20009KT 1SM BR OVC003
     FM111600 26012G20KT 2SM -SN BR OVC005=
KYIP 110038Z 1101/1124 16010KT 3SM BR OVC004 WS020/19043KT
      TEMPO 1101/1104 1SM -SHRA BR BKN002
     FM110400 16014KT 2SM -RA BR OVC004 WS020/19043KT
      TEMPO 1105/1109 1SM RA BR OVC002
     FM111200 18010KT 2SM SHRA BR OVC004
     FM111700 24012G20KT 6SM BR OVC010=

0000010100
220
SAUS72 KWBC 110000 RRF
METAR
KLRU 110035Z AUTO 26015G22KT 10SM CLR 12/M09 A2999=

0000049500
221
FTUS72 KWBC 110045 AAA
TAF AMD
KFSM 110044Z 1101/1124 08004KT P6SM SCT002 OVC029
      TEMPO 1101/1102 5SM RA BKN030CB
     FM110200 28008KT P6SM BKN250
     FM112100 28015G23KT P6SM SKC=
KVCT 110042Z 1101/1124 19009KT P6SM SCT025 BKN250
      TEMPO 1101/1104 BKN015
     FM110400 22007KT 5SM BR SCT012 BKN250
      TEMPO 1104/1107 3SM BR BKN012
     FM110700 24005KT 1/2SM FG BKN006
     FM111200 30005KT 3SM BR SCT006
     FM111400 34008KT P6SM SCT250=

0000008700
222
SANT31 KWBC 110000 RRF
METAR
LPBJ 110030Z NIL=
LPLA 110030Z NIL=

0000019800
223
FTAU32 YBBN 110000 AAC
TAF AMD YGEL 110052Z 1101/1124
08018G30KT CAVOK
FM110300 07014KT CAVOK
FM110700 20018KT CAVOK
FM111200 19008KT CAVOK
FM111800 VRB03KT CAVOK
RMK=

0000035500
224
FTUS43 KWBC 110048 AAA
TAF AMD
KFOD 110047Z 1101/1124 VRB03KT 1/2SM FG OVC003
     FM110400 28005KT 5SM BR SCT005 OVC012
     FM110900 27007KT P6SM SCT020 BKN090
     FM111800 30012KT P6SM SCT030 OVC100=
KPUB 110046Z 1101/1124 29012KT P6SM FEW150 SCT200
     FM111000 26008KT P6SM FEW200
     FM112000 13008KT P6SM FEW200=

0000017400
225
FTUS73 KWBC 110048 AAA
TAF AMD
KPUB 110046Z 1101/1124 29012KT P6SM FEW150 SCT200
     FM111000 26008KT P6SM FEW200
     FM112000 13008KT P6SM FEW200=

0000085200
226
SASN31 ESWI 110050
METAR ESGG 110050Z 24013KT 9999 OVC004 04/04 Q1001 R21/29//95=
METAR ESGJ 110050Z AUTO 23010KT 9999 UP FEW004/// SCT005///
BKN007/// 02/02 Q1000=
METAR ESGP 110050Z 24012KT 9999 BKN015 OVC027 06/04 Q1002
R19/19//95=
METAR ESGT 110050Z NIL=
METAR ESMK 110050Z AUTO 26012KT 9999NDV FEW014/// SCT018/// 06/04
Q1006=
METAR ESMQ 110050Z AUTO 20004KT 9999 FEW023/// SCT028/// OVC035///
01/00 Q1004=
METAR ESMS 110050Z 25014KT 9999 OVC039 05/04 Q1007 R17/29//95=
METAR ESMT 110050Z AUTO 24015KT 9999 FEW008/// SCT013/// OVC038///
06/04 Q1005=
METAR ESMX 110050Z AUTO 22006KT 9999 FEW007/// SCT009/// BKN010///
03/02 Q1002=
METAR ESTA 110050Z AUTO 25014KT 9999 FEW010/// SCT023/// OVC038///
06/04 Q1005=
METAR ESTL 110050Z AUTO 25009KT 9999NDV FEW029/// BKN032///
BKN039/// 06/05 Q1006=

0000064400
227
SAFI31 EFHK 110050
METAR EFHK 110050Z 33013KT 9999 BKN011 M03/M05 Q0995 NOSIG=
METAR EFJY 110050Z AUTO 01009KT 9999 OVC013 M07/M09
 Q0997=
METAR EFKU 110050Z AUTO 02012KT 9999 -SHSN BKN018 
M08/M10 Q0998=
METAR EFOU 110050Z AUTO 06008G18KT 020V110 9000 -SN SCT027/// 
OVC039/// M12/M15 Q1005 12420581=
METAR EFRO 110050Z AUTO 04011KT CAVOK M17/M20 
Q1009=
METAR EFTP 110050Z AUTO 35007KT 9999 OVC007 M04/M05
 Q0997=
METAR EFTU 110050Z AUTO 02007KT 340V060 9999 -SN OVC006/// M02/M03 
Q0997 R08/19//80=
METAR EFVA 110050Z AUTO 02006KT 360V060 9999 -SN FEW014/// BKN071/// 
M08/M10 Q1001 R16/49//95=

0000009800
228
SAUS71 KWBC 110000 RRG
METAR
KSWF 110045Z 00000KT 4SM BR OVC008 00/M01 A3031=

0000004200
229
SAMX31 KWBC 110045
NIL=

0000056100
230
SADL31 EDZO 110050
METAR EDDF 110050Z 10001KT 9999 FEW026 M00/M00 Q1018 NOSIG=
METAR EDDH 110050Z 23010KT 9999 BKN013 06/04 Q1012 NOSIG=
METAR EDDK 110050Z 12003KT CAVOK 02/01 Q1017 NOSIG=
METAR EDDL 110050Z 14007KT CAVOK 02/01 Q1017 NOSIG=
METAR EDDM 110050Z VRB01KT 9999 MIFG FEW025 BKN050 M02/M02 Q1019
     NOSIG=
METAR EDDN 110050Z 10003KT CAVOK M00/M00 Q1018=
METAR EDDS 110050Z 10002KT CAVOK M01/M01 Q1018=
METAR EDDT 110050Z 25007KT 9999 FEW025 03/01 Q1015=
METAR EDDV 110050Z 24007KT 9999 FEW015 BKN032 05/04 Q1015=

0000043500
231
SADL32 EDZO 110050
METAR EDDB 110050Z 23008KT 9999 FEW046 SCT260 03/01 Q1015 NOSIG=
METAR EDDC 110050Z 24006KT 9999 FEW046 04/00 Q1016=
METAR EDDE 110050Z 22010KT CAVOK 02/01 Q1016=
METAR EDDG 110050Z 22008KT 9000 BKN009 05/03 Q1015 NOSIG=
METAR EDDP 110050Z 21009KT 9999 FEW040 BKN230 03/02 Q1017 NOSIG=
METAR EDDR 110050Z 08005KT CAVOK M00/M01 Q1017=
METAR EDDW 110050Z 23010KT 8000 BKN013 06/04 Q1013=

0000021700
232
FTUS43 KWBC 110051 AAA
TAF AMD
KDLH 110049Z 1101/1124 17006KT 3SM -SN BR OVC004
      TEMPO 1101/1104 1SM -SN BR OVC003
     FM110700 26004KT 3SM BR OVC002
     FM111500 29009KT P6SM BKN014=

00000000