0000056500
853
WOUK50 EGRR 110950
GALE WARNING SATURDAY 11 JANUARY 0949GMT 91

VIKING NORTH UTSIRE
WESTERLY GALE FORCE 8 INCREASING SEVERE GALE FORCE 9 SOON

SOUTH UTSIRE
WESTERLY GALE FORCE 8 INCREASING SEVERE GALE FORCE 9
LATER

PLYMOUTH
SOUTHEASTERLY GALE FORCE 8 EXPECTED LATER

TRAFALGAR
SOUTHERLY GALE FORCE 8 EXPECTED SOON

IRISH SEA
SOUTHEASTERLY GALE FORCE 8 EXPECTED LATER

MALIN HEBRIDES
SOUTHEASTERLY SEVERE GALE FORCE 9 EXPECTED LATER

FAEROES
WESTERLY GALE FORCE 8 INCREASING SEVERE GALE FORCE 9
IMMINENT
0000014300
854
FTUS53 KWBC 101730
TAF
KGCC 101729Z 1018/1118 28013KT P6SM BKN090=
KRAP 101729Z 1018/1118 32014G24KT P6SM SCT050 BKN120=

0000070500
855
FTUS54 KWBC 101730
TAF
KBZN 101729Z 1018/1118 27010KT P6SM BKN060
     FM110600 24010KT P6SM BKN050=
KFLG 101729Z 1018/1118 25010G15KT P6SM SCT250
     FM110100 VRB02KT P6SM SCT250=
KGCN 101729Z 1018/1118 26008KT P6SM SCT250
     FM110100 VRB02KT P6SM SCT250=
KHLN 101729Z 1018/1118 27020G28KT P6SM BKN035
     FM110200 26010G20KT P6SM BKN050=
KINW 101729Z 1018/1118 VRB04KT P6SM SCT250
      TEMPO 1021/1024 32008KT=
KLWT 101729Z 1018/1118 25015KT P6SM BKN120
     FM102000 27020G30KT P6SM BKN100
     FM110400 26015KT P6SM SCT080 BKN120
     FM111200 22020G30KT P6SM BKN120=
KPRC 101729Z 1018/1118 32008KT P6SM SCT250
     FM110100 VRB04KT P6SM SCT250=

0000010100
856
SAUK33 EGGY 102250 RRA
METAR EGNS 102250Z 30005KT 280V340 9999 FEW022 06/04 Q1009=

0000068500
857
UDEU02 EGRR 110952
AMDAR 1108
LVR EU5643   4331N 00602W 110843 F370 MS615 303/026 TB/ S031=
LVR EU5643   4244N 00635W 110850 F370 MS619 309/023 TB/ S031=
LVR EU5643   4156N 00706W 110857 F370 MS610 316/023 TB/ S031=
LVR EU5643   4106N 00732W 110904 F370 MS623 328/032 TB/ S031=
LVR EU5643   4015N 00759W 110911 F370 MS613 335/038 TB/ S031=
LVR EU5643   3923N 00824W 110918 F370 MS610 342/044 TB/ S031=
LVR EU5643   3831N 00850W 110925 F370 MS608 353/051 TB/ S031=
LVR EU5643   3737N 00916W 110932 F370 MS621 348/056 TB/ S031=
LVR EU5643   3644N 00940W 110939 F370 MS604 341/061 TB/ S031=
LVR EU5643   3552N 01007W 110946 F370 MS600 343/056 TB/ S031=
0000042900
858
UDAS02 EGRR 110952
AMDAR 1109
LVR EU0453   4436N 11036E 110911 F321 MS570 288/050 TB/ S031=
LVR EU0453   4511N 10946E 110918 F321 MS607 302/056 TB/ S031=
LVR EU0453   4544N 10855E 110925 F321 MS615 298/052 TB/ S031=
LVR EU0453   4616N 10803E 110932 F321 MS612 304/049 TB/ S031=
LVR EU0453   4649N 10710E 110939 F321 MS622 305/041 TB/ S031=
LVR EU0453   4722N 10614E 110946 F321 MS610 310/038 TB/ S031=
0000375200
859
SIRS22 RUMS 110900
AAXX 11091
22127 42998 22901 11280 21312 39961 40188 52007 82030 333 91001=
22324 41699 70305 11154 21193 30063 40116 52005 73631 82504 333 91010
91111=
22525 42/// /0706 11087 21104 39999 40012 52005 333 91011 91114=
22621 41598 80402 11117 21152 39848 49994 53007 72683 889// 333
85921=
22831 41497 80303 11126 21161 39859 49921 52024 77172 8802/ 333
88510=
22892 42597 83503 11055 21097 39963 49979 52017 885// 333 88622
91110=
22913 41497 70104 11101 21137 39901 49931 52029 70172 83530=
22917 41498 80104 11074 21095 39926 49937 52035 77172 8872/ 333 88711
333 91111=
22925 41362 83504 11093 21118 39771 49913 53028 77173 8872/ 333 86708
91112=
26069 42497 73205 11059 21074 39847 49960 52032 87900 333 85918
91110=
26072 41575 83403 11050 21063 39932 49952 52028 70272 885// 333 88621
91111 93703=
26078 NIL=
26080 41499 83306 11055 21073 39899 49932 52035 70272 886// 333 88712
91013 91113=
26099 42/// /0000 11045 21051 39666 49884 52034=
26179 41497 83207 11039 21068 39912 49944 52039 77072 885// 333 88614
91113=
26268 NIL=
26275 41497 83205 11027 21053 39916 49946 52035 77172 8872/ 333 88715
91113=
26285 41496 83105 11033 21044 39844 49924 52038 78583 889// 333 87711
91112 92980=
26291 41394 83005 11024 21030 39783 49893 52041 78682 883// 333 87707
91113=
26378 42/// 12805 11008 21018 39860 49949 52035 333 /////=
26381 41496 82905 11023 21038 39854 49930 52038 78583 883// 333 86916
91113=
26389 41396 82905 11020 21026 39654 49917 52037 71082 886// 333 91010
91110=
26393 41596 82805 11012 21015 39677 49884 52035 78582 889// 333
91110=
26477 42597 82605 10011 21018 39831 49958 52030 889//=
26479 41449 83206 11008 21011 39714 49944 51033 77172 8872/ 333 88710
91011 91112=
26499 41395 82908 11000 21011 39661 49888 52029 77172 8872/ 333 91012
91113=
26578 41465 82607 10014 21001 39764 49966 52031 70282 889// 333 88915
91011 91112=
26585 41599 73106 11002 21015 39661 49933 52033 72272 87500 333 91013
91113=
26695 41496 82806 10006 21000 39622 49922 52032 77172 8672/ 333 86712
91112=
26784 41496 82806 10018 20006 39725 49972 52033 78082 8695/ 333 84919
91011 91114=
26795 41462 82605 10008 20002 39654 49944 52030 78576 889// 333 88917
91010 91111=
26882 41462 82907 10015 20011 39700 49974 52032 76176 8677/ 333 86713
91010 91115=
27108 42/// /3102 10007 20005 39679 49857 52023=
27164 41957 80000 10002 20002 39679 49863 57003 77172 8802/=
27176 41440 81504 11005 21005 39700 49895 57009 77172 885//=
27215 41496 82802 10018 20017 39641 49842 52011 78082 889// 333
88919=
27223 41470 82202 10008 20007 39694 49837 52003 70254 883// 333
88913=
27316 42462 82602 10017 20017 39681 49850 52010 886//=
27321 41550 82103 10014 20013 39700 49848 53007 76162 8872/=
27347 41256 81802 10016 20014 39705 49857 57002 72162 886// 333
88705=
27417 41597 82604 10014 20005 39665 49866 52014 77172 885//=
27507 41356 82805 10010 20002 39668 49903 53029 77176 8872/ 333 88706
91112=
27511 41597 82602 10018 20013 39675 49867 52011 72582 883//=
27523 41496 82102 10021 20013 39704 49866 52004 76162 8872/=
27539 41497 82203 10022 20012 39710 49875 57002 72162 8752/=
27606 41397 82403 10018 20010 39655 49893 52014 60002 76165 8772/ 333
87709=
27611 41497 82604 10014 20010 39649 49879 52012 78382 889//=
27627 42497 82504 10018 20003 39620 49887 53004 889//=
27703 NIL=
27745 42398 81803 10014 20014 39758 49898 57006 886// 333 88708=
27821 41446 82503 10013 20009 39624 49902 53006 72162 886//=
27823 42499 82306 10016 20007 39653 49906 52002 8472/ 333 91110
91110=
27921 41997 82604 10016 20011 39664 49929 52007 72162 8802/ 333
91110=
0000036300
860
SXXX32 EUMS 110942
22E595B6
:PRS 1 /1 M 4014 4007 4007 4015 4007 4004 3977 4004 3996 3989 4021 3991 4010 3989 3993 4002 3/89 4022 4015 4051 4036 4049 4055 4075 4086 4093 4103 4061 4080 :RAD 1 /3 7190 7187 7188 7194 7203 7224 7248 7258 7251 7229 :ENC 2 /5 5318 5305 5309 5338 5385 5375 :SW1 42 /60 0 :SW2 12 /60 60 :BAT 14 /15 12.7 :NAME 22E595B6
0000044500
861
SXXX32 EUMS 110943
32BD7124
:PRS 1 /1 2299 2298 2302 2301 2301 2303 2301 2303 2304 2304 2307 2306 2305 2306 2304 2302 2301 2299 2299 2297 2295 2294 2292 2293 2291 2287 2278 2281 2294 2293 :RAD 3 /3 8085 8086 8088 8086 8087 8082 8077 8076 8072 8072 8071 8065 8061 8058 8063 8068 8071 8077 8079 8081 :ENC 3 /5 5088 5089 5090 5081 5077 5076 5070 5063 5064 5068 5077 5084 :SW1 44 /60 0 :SW2 14 /60 0 :BAT 14 /15 13.4 :NAME 32BD7124
0000070100
862
SXXX32 EUMS 110943 RRA
223412A2
OT12 ID:IND-SADENG DT:2014 01 11 09 42
:PRS /1 02181 02218 02152 02119 02136 02066 02187 02173 02065 02070 02128 02189 02170 02226 02156 02131 02154 02072 02139 02182 02231 02242 02171 02106 02165 02093 02148 02206 02151 02125
:ENC /1 -12659 -12633 -12729 -12729 -12716 -12759 -12676 -12689 -12739 -12739 -12729 -12679 -12683 -12639 -12703 -12723 -12699 -12743 -12736 -12659 -12609 -12599 -12666 -12719 -12689 -12746 -12689 -12623 -12686 -12706
:RAD /1 11921 11977 11866 11852 11875 11870 11930 11891 11819 11816 11884 11856 11897 11933 11875 11847 11847 11877 11867 11859 11932 11952 11930 11890 11837 11849 11824 11898 11914 11836
:BAT 12.1V
0000040700
863
SXXX32 EUMS 110945
262D700E
:PRS 1 /1 2004 1991 1972 1964 1972 1938 1910 1955 1952 1931 1939 1952 1959 1948 1949 1932 1915 1903 1873 1894 1886 1903 1908 2011 1969 1919 1932 1905 1869 1866 :RAD 1 /3 4407 4392 4388 4379 4363 4359 4365 4355 4340 4347 4357 4344 4333 4341 4340 :ENC 5 /5 4489 4498 4463 4486 4442 4466 4447 4436 4442 4428 4435 4422 :SW1 45 /60 60 :BAT 14 /15 13.5 :NAME 262D700E
0000044900
864
SXXX32 EUMS 110945 RRA
16289262
:PRS 1 /1 2182 2179 2187 2163 2180 2172 2165 2165 2177 2176 2175 2168 2180 2163 2164 2178 2182 2178 2174 2172 2182 2175 2173 2177 2181 2178 2181 2193 2183 2187 :RAD 1 /3 7634 7633 7633 7636 7636 7637 7634 7641 7642 7646 7648 7651 7654 7652 7656 7659 7664 7662 7668 7668 :ENC 5 /5 5000 4996 5005 5006 5008 5009 5016 5017 5034 5031 5031 5031 :SW1 45 /60 0 :SW2 15 /60 0 :BAT 14 /15 13.0 :NAME 16289262
0000045500
865
SXXX32 EUMS 110945 RRB
324DF524
:PRS 1 /1 2710 2717 2722 2727 2733 2739 2745 2751 2757 2763 2769 2775 2781 2786 2793 2799 2805 2811 2818 2824 2830 2837 2843 2850 2856 2863 2869 2875 2881 2887 :RAD 1 /3 2752 2773 2792 2808 2827 2846 2865 2884 2903 2924 2943 2964 2985 3006 3027 3046 3067 3088 3110 3131 :ENC 5 /5 1700 1730 1761 1794 1825 1856 1887 1922 1956 1989 2026 2063 :SW1 45 /60 0 0 :SW2 15 /60 60 60 :BAT 14 /15 12.6 :NAME 324DF524
0000041700
866
SXXX32 EUMS 110946
26CB10AC
:PRS 1 /1 -1337 -1337 -1337 -1337 -1337 -1337 -1337 -1337 -1337 -1337 -1337 -1337 -1337 -1338 -1337 -1337 -1337 -1337 -1337 -1337 -1337 -1337 -1337 -1337 -1337 -1337 -1337 -1337 -1338 -1337 :RAD 3 /3 5769 5763 5765 5765 5767 5767 5761 5760 5760 5758 :RA2 3 /3 5743 5731 5736 5733 5732 5736 5732 5730 5724 5720 :SW1 47 /60 60 :SW2 17 /60 60 :BAT 14 /15 13.0 :NAME 26CB10AC
0000045000
867
SXXX32 EUMS 110946 RRA
1227146C
:PRS 1 /1 3359 3354 3349 3343 3336 3330 3326 3322 3318 3312 3307 3305 3300 3294 3289 3286 3283 3278 3275 3272 3269 3265 3260 3256 3251 3248 3247 3243 3238 3233 :RAD 3 /3 3324 3305 3304 3293 3274 3275 3254 3242 3237 3221 3206 3178 3165 3164 3139 3153 3136 3100 3093 3086 :ENC 1 /5 4093 4065 4044 4025 4003 3986 3961 3933 3909 3887 3863 3845 :SW1 47 /60 0 :SW2 17 /60 60 :BAT 14 /15 13.1 :NAME 1227146C
0000068900
868
UDEU02 EGRR 110952 RRA
AMDAR 1109
DES EU0525   5213N 00115W 110931 F159 MS235 304/095 TB/ S031=
DES EU0525   5205N 00107W 110933 F136 MS182 300/074 TB/ S031=
DES EU0525   5201N 00052W 110934 F111 MS147 295/056 TB/ S031=
DES EU0525   5159N 00039W 110936 F092 MS132 277/033 TB/ S031=
DES EU0525   5200N 00027W 110937 F055 MS050 303/028 TB/ S031=
DES EU0525   5200N 00016W 110939 F049 MS040 312/026 TB/ S031=
DES EU0525   5159N 00006W 110940 F038 MS022 317/027 TB/ S031=
DES EU0525   5155N 00009W 110942 F029 PS002 326/017 TB/ S031=
DES EU0525   5154N 00015W 110943 F017 PS027 322/019 TB/ S031=
DES EU0525   5154N 00019W 110945 F007 PS037 289/013 TB/ S031=
0000069700
869
UDEU02 EGRR 110952 RRB
AMDAR 1109
ASC EU0066   5220N 00439E 110936 F061 MS022 260/042 TB0 S031
333 F061 VG005=
ASC EU0066   5222N 00441E 110936 F078 MS060 258/041 TB0 S031
333 F078 VG001=
ASC EU0066   5225N 00444E 110937 F096 MS097 246/042 TB0 S031
333 F096 VG004=
ASC EU0066   5228N 00447E 110937 F115 MS135 246/043 TB0 S031
333 F115 VG011=
ASC EU0066   5233N 00450E 110938 F135 MS145 265/053 TB0 S031
333 F135 VG003=
ASC EU0066   5237N 00453E 110939 F157 MS202 260/053 TB0 S031
333 F157 VG002=
LVR EU0066   5259N 00505E 110942 F232 MS363 241/063 TB0 S031
333 F232 VG002=
LVR EU0066   5353N 00537E 110949 F337 MS541 240/065 TB0 S031
333 F337 VG001=
0000011000
870
UANT99 KDDL 110949
ARP SAS936 5905N02310W 0949 F330 MS59 241/72 KT
LNRKF DDL XXW 110949 J59A
0000068900
871
UDEU02 EGRR 110952 RRC
AMDAR 1109
DES EU0164   4038N 00254W 110943 F125 MS100 342/019 TB/ S031=
DES EU0164   4034N 00257W 110944 F115 MS080 342/019 TB/ S031=
DES EU0164   4031N 00259W 110944 F104 MS050 346/017 TB/ S031=
DES EU0164   4028N 00301W 110945 F101 MS040 346/017 TB/ S031=
DES EU0164   4025N 00303W 110946 F098 MS040 350/016 TB/ S031=
DES EU0164   4023N 00305W 110946 F092 MS020 339/015 TB/ S031=
DES EU0164   4020N 00307W 110947 F085 PS000 006/010 TB/ S031=
DES EU0164   4018N 00309W 110948 F079 PS000 019/008 TB/ S031=
UNS EU0164   4016N 00311W 110948 F071 PS000 012/006 TB/ S031=
DES EU0164   4016N 00315W 110949 F064 PS010 019/003 TB/ S031=
0000068900
872
UDEU02 EGRR 110952 RRD
AMDAR 1109
DES EU0164   4113N 00237W 110937 F250 MS370 001/003 TB/ S031=
DES EU0164   4109N 00239W 110938 F231 MS320 336/003 TB/ S031=
DES EU0164   4104N 00240W 110938 F213 MS270 007/000 TB/ S031=
DES EU0164   4100N 00242W 110939 F197 MS230 237/002 TB/ S031=
DES EU0164   4056N 00243W 110940 F184 MS230 014/010 TB/ S031=
DES EU0164   4052N 00245W 110940 F169 MS190 012/011 TB/ S031=
UNS EU0164   4048N 00246W 110941 F156 MS150 004/012 TB/ S031=
DES EU0164   4044N 00249W 110942 F145 MS130 350/015 TB/ S031=
DES EU0164   4041N 00252W 110942 F135 MS120 343/020 TB/ S031=
DES EU0164   4038N 00254W 110943 F125 MS100 342/020 TB/ S031=
00000000