0000092900
193
SAMX43 MMMZ 102000
METAR MMCL 101944Z 00000KT 10SM  OVC230 25/16 A2996 RMK 8/007 ISOL
AC=
METAR MMCN 101945Z 28005KT 10SM  FEW200 26/03 A2994 RMK 8/005 HZY=
METAR MMDO 101941Z 23020KT 14SM  BKN250 20/M20 A3012 RMK 8/004=
METAR MMGM 101946Z 19009KT 10SM  SKC 25/05 A2993 RMK HZY=
METAR MMHO 101956Z  NIL=
METAR MMLM 101948Z 32008KT 12SM  SCT100 SCT200 25/01 A2996 RMK 8/032=
METAR MMLP 101941Z 04010KT 10SM  FEW040 SCT200 BKN200 21/11 A2999 
      RMK 8/538 HZY=
METAR MMLT 101944Z 02010KT 8SM  FEW100 SCT200 20/10 A3000 RMK 8/036=
METAR MMML 101949Z 00000KT 10SM  FEW200 21/M04 A3009 RMK 8/002=
METAR MMMZ 101944Z 22009KT 15SM  SCT210 25/13 A2991 RMK 8/004=
METAR MMSD 101952Z 00000KT 15SM  SCT140 25/11 A2995 RMK 8/070 CU=
METAR MMSL 101944Z 13006KT 12SM  FEW030 SCT100 BKN120 22/15 A2993 
      RMK 8/570 ISOL CI=
METAR MMTJ 101950Z 29007KT 6SM  SKC 21/03 A3011 RMK HZY ISOL CI=

0000032500
194
SAMX31 KWBC 101945 RRB
METAR
MMAA 101942Z 20006KT 10SM SKC 31/18 A2985=
MMMX 101944Z 17014KT 12SM SCT025TCU BKN200 20/02 A3020 NOSIG RMK
     8/204=
MMTM 101947Z 15006KT 5SM SCT020 BKN200 25/18 A2988 RMK 8/501
     HZY=
MMVR 101945Z 11010KT 7SM SKC 27/17 A2987 RMK HZY DSNT TCU 3,4
     QUAD=

0000009700
195
SACS31 MROC 102000
METAR
MRPV 101900Z 06014KT 9999 FEW045 25/14 A2998 NOSIG=

0000009700
196
SAUK31 EGGY 101950 CCB
METAR COR EGLL 101950Z 21008KT CAVOK 08/06 Q1013 NOSIG=

0000010800
197
SPUS41 KWBC 101955
SPECI
KRIC 101951Z 07003KT 2 1/2SM -RA BR BKN004 OVC017 04/03 A3031=

0000012900
198
SABZ24 SBPA 102000
METAR SBPA 102000Z 21014G27KT 9999 -TSRA SCT016
BKN040 FEW048CB BKN08
0
 25/20 Q1010=

0000009900
199
SAQB31 LQMO 102000
METAR LQMO 102000Z VRB01KT 3000 BR FEW040 BKN065 07/06 Q1022=

0000008900
200
SABZ21 SBNT 102000
METAR SBNT 102000Z 13015KT 9999 SCT024 28/21 Q1010=

0000013000
201
SASN35 ESWI 101950 RRA
METAR ESNX 101950Z AUTO 02009KT 340V050 7000NDV -SN FEW016///
OVC023/// M15/M18 Q1005=

0000010100
202
SAMX31 KWBC 102005
METAR MNMG 102000Z 11014KT 9999 FEW025 32/17 Q1008 A2979 NOSIG=

0000027300
203
FTRS34 RUMS 101700 CCB
TAF COR UWKE 101645Z 1018/1118 22005MPS 1000 BR OVC003 650030 TEMPO
1018/1106 18008MPS 0500 SN FZRA FZFG OVC002 640000 BECMG 1106/1107
4000 BR OVC007 TEMPO 1106/1118 18012MPS 1000 SHSN FZRA BLSN BKN003
BKN010CB 640000 530001=

0000065500
204
SAGR31 LGAT 101950
METAR LGAD 101950Z 00000KT 9999 SCT020 10/08 Q1022=
METAR LGAV 101950Z 36003KT CAVOK 10/06 Q1019 NOSIG=
METAR LGIR 101950Z NIL=
METAR LGKL 101950Z AUTO VRB03KT //// // ////// 10/08 Q1022
     RE//=
METAR LGKO 101950Z 12005KT 9999 SCT025 10/08 Q1021=
METAR LGKR 101950Z 00000KT 9999 SCT018 SCT070 BKN180 11/10 Q1021
 NOSIG=
METAR LGLM 101950Z AUTO 02005KT //// // ////// 11/09 Q1019
     RE//=
METAR LGRP 101950Z 20003KT 9999 FEW018 13/10 Q1021 NOSIG=
METAR LGSA 101950Z 26012KT 9999 FEW020 14/10 Q1021=
METAR LGSM 101950Z NIL=
METAR LGTS 101950Z 00000KT 9000 FEW010 SCT080 07/05 Q1019 NOSIG=

0000009800
205
SAMJ41 LWSK 102000
METAR LWSK 102000Z 28002KT 3500 BR OVC004 03/01 Q1023 NOSIG=

0000018100
206
FTUS54 KWBC 101954 AAA
TAF AMD
KBCE 101951Z 1020/1118 32010KT P6SM SKC
     FM102000 32015G25KT P6SM SCT040 SCT070
     FM110300 29012KT P6SM SCT040 SCT070=

0000039800
207
FTUS80 KWBC 101954 AAA
TAF AMD
KBCE 101951Z 1020/1118 32010KT P6SM SKC
     FM102000 32015G25KT P6SM SCT040 SCT070
     FM110300 29012KT P6SM SCT040 SCT070=
PANC 101953Z 1020/1124 VRB02KT 6SM -SN BR VCFG OVC015
      TEMPO 1020/1023 3SM BR BKN005
     FM102300 35003KT 6SM BR SCT005 BKN015
     FM111200 VRB03KT P6SM VCFG BKN008
     FM112200 VRB03KT P6SM BKN040=

0000023900
208
FTUS80 KWBC 101954
TAF
TAF AMD KEVW 101950Z 1020/1118 25020G30KT P6SM VCSH OVC040
     FM102100 25022G32KT 5SM -SHSN BLSN OVC020
     FM110200 24020KT P6SM VCSH BKN030
     FM111500 22015G27KT P6SM SCT050 BKN070=

0000009800
209
SPUS42 KWBC 101954
SPECI
KTUL 101950Z 20007KT 10SM SCT017 BKN180 13/10 A2957=

0000009600
210
SPCN43 CWAO 101952
SPECI CYGX 101952Z 08006KT 040V120 3SM -SN OVC075 RMK AS5=

0000010200
211
SACV20 GVAC 102000
METAR GVAC 102000Z 04006KT 9999 SCT014 BKN200 20/15 Q1015 NOSIG=

0000050100
212
SAFI32 EFHK 101950
METAR EFHA 101950Z AUTO 36010KT 9999 -SN OVC008 
M05/M06 Q0994=
EFHF 101950Z AUTO 35011KT 320V030 9999 OVC010 M01/M03 Q0990=
METAR EFKA 101950Z AUTO 02008KT 9999 OVC010 M07/M08
 Q0998=
EFKK 101950Z 03010KT 9999 -SHSN FEW014 OVC023 M08/M10 Q1000=
EFMA 101950Z AUTO 33011KT 9000 -SN OVC006 M00/M00 Q0997=
METAR EFPO 101950Z AUTO 02009KT 340V040 9999 OVC008/// M03/M05 Q0996 
R12/29//95=
EFSI 101950Z AUTO 36007KT 320V040 9999 OVC006 M06/M07 Q0997=

00000000