0000024100
213
SATA31 RUMS 101900
METAR UTDD 101900Z VRB01MPS M0050 R09/M0050N FZFG VV001 M07/M08 Q1029
09CLRD70 NOSIG RMK QBB030 QFE703/0938=
METAR UTDL 101900Z 08008G11MPS 1700 BR SKC M04/M06 Q1029 NOSIG RMK
QFE732/0976 8809//70=

0000009900
214
SACN62 CYXN 101900
METAR CYXN 101900Z 33008KT 15SM SKC M30/M33 A2966 RMK SLP045=

0000011900
215
SACN62 CYXE 101900
METAR CYXE 101900Z 23007KT 15SM FEW120 OVC280 M09/M11 A2942 RMK
 AC2CI6 SLP999=

0000011900
216
SACN62 CYWG 101900
METAR CYWG 101900Z 17013KT 1 1/4SM -SN BR OVC026 M06/M07 A2940 RMK
 SC8 SLP970=

0000169400
217
SAUS72 KWBC 101900 RRA
METAR
KDFW 101853Z 19013KT 10SM FEW035 BKN090 OVC100 18/16 A2972=
KDHN 101853Z 09007KT 1SM BR OVC002 13/13 A3011=
KDLF 101858Z AUTO 27002KT 10SM BKN170 16/12 A2989=
KDMN 101853Z AUTO 28013G20KT 10SM CLR 13/M09 A3004=
KELP 101851Z 26022G30KT 10SM CLR 15/M10 A2999=
KESF 101853Z AUTO 14007KT 8SM OVC008 17/13 A2992=
KEYW 101853Z 13010KT 10SM FEW019 26/22 A3004=
KFLL 101853Z 13013G17KT 10SM FEW018 SCT050 BKN250 26/22 A3008=
KFSM 101853Z 07005KT 1 3/4SM -RA BR FEW034 BKN060 OVC075 09/08
     A2974=
KFTW 101853Z 19011KT 8SM FEW055 SCT085 OVC100 17/16 A2972=
KFTY 101853Z 07006KT 2SM BR OVC004 09/08 A3013=
KGGG 101853Z 19016G24KT 10SM BKN031 OVC065 21/13 A2980=
KGLS 101852Z 14009KT 10SM OVC043 17/16 A2990=
KGNV 101853Z 14007KT 10SM FEW019 OVC036 25/19 A3009=
KGPT 101853Z 11007KT 5SM -RA BR OVC005 16/14 A3002=
KGUP 101853Z AUTO 26017KT 10SM CLR 08/M08 A3004=
KGWO 101853Z AUTO 16013KT 10SM SCT041 16/09 A2997=
KHOT 101853Z AUTO 10005KT 3SM RA BR BKN006 OVC011 11/10 A2983=
KHOU 101853Z 17010G15KT 8SM BKN020 OVC035 21/17 A2988=
KHRL 101852Z 18022G29KT 10SM SCT029 BKN035 26/19 A2983=
KHRO 101853Z AUTO 19009G23KT 8SM -RA FEW037 SCT050 OVC070 11/09
     A2974=
KHSV 101853Z 13008KT 10SM OVC012 11/07 A3005=
KIAH 101853Z 16012G17KT 10SM FEW020 OVC041 20/16 A2988=
KINK 101853Z AUTO 29014G21KT 10SM CLR 19/M06 A2985=
KJAN 101854Z 14006KT 10SM OVC009 14/10 A3000=
KJAX 101856Z 15012KT 10SM FEW017 BKN025 BKN080 26/19 A3010=
KJBR 101853Z AUTO 16008KT 10SM SCT023 OVC033 08/06 A2989=
KLBB 101853Z 29024G36KT 6SM BLDU CLR 15/M09 A2975=
KLCH 101853Z 17010KT 10SM BKN007 BKN012 OVC047 19/18 A2993=

0000170200
218
SAUS72 KWBC 101900 RRB
METAR
KLFT 101853Z 12008KT 10SM BKN010 BKN017 OVC048 18/16 A2994=
KLIT 101853Z 00000KT 3SM -RA BR OVC007 09/08 A2987=
KLRD 101856Z VRB03KT 10SM FEW025 22/14 A2990=
KLRU 101855Z AUTO 26014G19KT 10SM CLR 13/M10 A3003=
KMAF 101853Z 27020KT 10SM CLR 18/M01 A2983=
KMCN 101853Z 02005KT 2SM -RA BR OVC004 10/09 A3014=
KMCO 101853Z 16010KT 10SM SCT027 BKN130 BKN250 26/18 A3009=
KMEI 101858Z 16004KT 10SM OVC006 12/11 A3004=
KMEM 101854Z 15011KT 10SM SCT016 BKN110 OVC150 12/08 A2993=
KMFE 101853Z 20007G14KT 10SM SCT035 26/17 A2986=
KMGM 101853Z 09004KT 2 1/2SM -RA BR OVC002 11/09 A3009=
KMIA 101853Z 12015G21KT 10SM SCT021 BKN210 27/21 A3008=
KMKL 101853Z 16010G15KT 10SM BKN010 BKN100 10/07 A2994=
KMLB 101853Z 13010KT 10SM SCT010 25/19 A3009=
KMLC 101853Z AUTO 18009G15KT 10SM SCT065 BKN080 OVC090 14/12
     A2966=
KMLU 101853Z 16006KT 10SM OVC010 14/12 A2992=
KMOB 101856Z 14004KT 4SM -RA BR SCT010 BKN014 OVC028 15/14
     A3004=
KMSL 101853Z AUTO 14009KT 10SM OVC014 13/08 A3003=
KMSY 101853Z 12009KT 3SM BR SCT007 BKN015 OVC039 17/14 A3000=
KNEW 101853Z 12010KT 9SM OVC006 15/13 A3002=
KNGP 101856Z 18012KT 10SM FEW008 BKN032 BKN050 21/19 A2986=
KOKC 101852Z 25018KT 10SM R35R/4000VP6000FT FEW060 SCT250 14/06
     A2964=
KPBI 101853Z 14009KT 10SM -RA SCT022 BKN065 OVC170 22/21 A3009=
KPDK 101853Z 07004KT 1 1/2SM BR OVC002 08/07 A3013=
KPFN NIL=
KPIE 101853Z 15007KT 10SM CLR 27/19 A3007=
KPNS 101853Z 02003KT 6SM BR OVC004 15/13 A3004=
KROW 101851Z 27015G20KT 10SM CLR 18/M09 A2985=
KRSW 101853Z 13009KT 10SM BKN024 27/20 A3007=
KSAT 101851Z 21011KT 10SM SCT017 BKN041 OVC250 21/16 A2986=

0000147500
219
SAUS72 KWBC 101900 RRC
METAR
KSFB 101853Z COR 13006KT 10SM FEW032 27/19 A3009=
KSFB 101853Z 13006KT 10SM FEW032 27/19 A3009=
KSHV 101856Z 18009G18KT 10SM OVC008 16/14 A2985=
KSJT 101851Z 23015KT 10SM CLR 18/09 A2983=
KSRQ 101853Z 22005KT 10SM BKN021 26/20 A3006=
KSSI 101853Z AUTO 14009KT 10SM OVC008 18/17 A3012=
KTCC 101853Z AUTO 30015G22KT 10SM CLR 14/M12 A2974=
KTCL 101853Z 11005KT 10SM OVC008 12/09 A3007=
KTCS 101853Z AUTO 30009KT 10SM CLR 13/M09 A2999=
KTLH 101853Z 15003KT 1 1/2SM BR OVC002 20/18 A3008=
KTPA 101853Z 19003KT 10SM FEW035 SCT120 BKN150 25/19 A3008=
KTRI 101853Z 11005KT 10SM OVC055 12/08 A3013=
KTUL 101853Z 21009G18KT 10SM BKN011 OVC017 13/10 A2961=
KTUP 101853Z AUTO 18011KT 7SM OVC003 09/ A3001=
KTXK 101853Z 13004KT 4SM -RA BR BKN014 OVC019 13/13 A2980=
KTYR 101853Z 19012G24KT 10SM OVC020 18/14 A2981=
KTYS 101853Z 05004KT 10SM OVC050 09/06 A3011=
KVCT 101851Z 20008KT 9SM SCT006 BKN010 OVC014 21/19 A2987=
KVLD 101853Z 17006KT 10SM BKN014 OVC020 23/19 A3009=
KVRB 101853Z 12007KT 10SM CLR 24/22 A3009=
TIST 101853Z 08010G24KT 8SM FEW027 BKN044 25/21 A3003=
TISX 101853Z 06011G25KT 10SM SCT029 28/19 A3002=
TJBQ 101850Z 09020G26KT 10SM SCT020 SCT050 31/ A3006=
TJMZ 101850Z 09006KT 10SM SCT030 BKN050 28/20 A3001=
TJPS 101850Z 13010G15KT 10SM SCT030 30/22 A3001=
TJSJ 101856Z 06017KT 10SM FEW035 29/21 A3004=
TKPK 101900Z 03009KT 9999 FEW016 SCT044 25/20 Q1016=
TNCM NIL=

0000025300
220
FTMX41 KWBC 101906 CCA
TAF COR
TAF COR MMMM 101904Z 1018/1124 22010KT P6SM BKN025 TX24/1021Z
      TN03/1113Z
     FM110200 00000KT P6SM BKN025
     FM111000 00000KT 4SM HZ BR SCT020
     FM111600 12008KT P6SM SCT025 BKN200=

0000052400
221
FTUS53 KWBC 101906 AAA
TAF AMD
KAPA 101903Z 1019/1118 31018G32KT P6SM FEW090 SCT140 BKN200
     FM110200 25010KT P6SM SCT140 BKN200
     FM110900 19008KT P6SM FEW090 BKN200
     FM111600 24010KT P6SM FEW090 SCT120 BKN180=
KBRL 101902Z 1019/1118 13010KT 3SM -RA BR VCTS OVC002CB
     FM102000 16009KT 1SM -RA BR OVC002
     FM110100 18003KT 1/2SM -RA FG OVC002
     FM110700 26005KT 1SM -FZRASN BR OVC003
     FM110900 27010KT 2SM -SN BR OVC004
     FM111300 28011KT 4SM BR VCSH OVC006=

0000039000
222
FTUS80 KWBC 101906 AAB
TAF AMD
KLGA 101903Z 1019/1118 05004KT 3SM BR SCT008 OVC015
      TEMPO 1020/1024 -DZ BR BKN008
     FM110000 05005KT 3SM BR BKN008 OVC015
      TEMPO 1102/1105 -RA
     FM110500 15007KT 3SM -RA BR BKN006 OVC015 WS020/19040KT
     FM110800 15011KT 1SM -RA BR OVC004 WS020/19055KT
     FM111400 17016KT 1SM -RA BR OVC004 WS015/19060KT=

0000142800
223
FTUS80 KWBC 101906 AAA
TAF AMD
KAPA 101903Z 1019/1118 31018G32KT P6SM FEW090 SCT140 BKN200
     FM110200 25010KT P6SM SCT140 BKN200
     FM110900 19008KT P6SM FEW090 BKN200
     FM111600 24010KT P6SM FEW090 SCT120 BKN180=
KBRL 101902Z 1019/1118 13010KT 3SM -RA BR VCTS OVC002CB
     FM102000 16009KT 1SM -RA BR OVC002
     FM110100 18003KT 1/2SM -RA FG OVC002
     FM110700 26005KT 1SM -FZRASN BR OVC003
     FM110900 27010KT 2SM -SN BR OVC004
     FM111300 28011KT 4SM BR VCSH OVC006=
KCLE 101905Z 1019/1124 17009KT P6SM SCT009 OVC045
      TEMPO 1019/1023 BKN009
     FM110300 16014KT 3SM -RA BR OVC010 WS015/19045KT
     FM111600 22008KT 2SM BR OVC006
     FM112100 25016G22KT 5SM BR OVC008=
KEWR 101905Z 1019/1124 VRB04KT 2SM BR SCT006 OVC012
      TEMPO 1020/1024 -DZ BKN006 OVC012
     FM110000 VRB03KT 2SM BR BKN006 OVC012
      TEMPO 1102/1105 -RA
     FM110500 15005KT 2SM -RA BR BKN006 OVC015
     FM110800 16008KT 1SM -RA BR OVC004 WS020/19050KT
     FM111400 17014KT 1SM -RA BR OVC004 WS015/19050KT
     FM111900 18016G23KT 1SM RA OVC004 WS015/19050KT=
KGRB 101902Z 1019/1118 17009KT 3SM BR OVC006
     FM102200 15008KT 2SM -SNPL BR OVC006
      TEMPO 1022/1101 1SM -SN BR OVC004
     FM110100 14006KT 2SM -FZRA BR OVC005
     FM110400 14003KT 1SM -FZRA BR OVC004
     FM110800 27005KT 2SM -SN BR OVC006
      TEMPO 1109/1112 1SM -SN BR=

0000192700
224
SPUS70 KWBC 101906
SPECI
PABA 101857Z AUTO 27022KT 1 1/4SM -SN M26/M29 A2986 RMK AO2 PK WND
     27026/1850 SNB43 FZRANO $=
KAOH 101902Z AUTO 15010KT 3SM BR OVC003 04/02 A3003 RMK AO2 PNO
     $=
KCKV 101902Z AUTO 16007KT 10SM OVC011 10/08 A2997 RMK AO2=
KDMO 101902Z AUTO 19009KT 2 1/2SM RA BR FEW012 BKN050 OVC085 08/08
     A2961 RMK AO2 P0004 T00830083=
KDTN 101902Z 14008KT 1SM BR OVC002 13/13 A2986 RMK AO2=
KFFC 101902Z AUTO 10004KT 2SM BR OVC003 09/09 A3013 RMK AO2
     T00890089=
KGED 101902Z AUTO 00000KT 1 3/4SM -RA BR BKN002 OVC022 04/03 A3036
     RMK AO2 P0000 T00440033=
KIGX 101902Z AUTO 00000KT 3SM -RA BR OVC003 06/05 A3026 RMK AO2
     P0000 T00610050=
KPWK 101902Z 16009KT 1 1/2SM BR OVC004 01/00 A2985 RMK AO2
     P0001=
KSBY 101902Z 05004KT 2SM -RA BR BKN003 OVC032 06/04 A3035 RMK AO2
     P0000=
KUZA 101902Z AUTO 01004KT 3SM RA BR OVC003 06/05 A3022 RMK AO2
     P0001 T00560050=
KZZV 101902Z AUTO 14005KT 6SM BR OVC007 06/04 A3013 RMK AO2=
PAJZ 101906Z AUTO 30004KT 1 1/4SM BR OVC002 M07/M07 A2953 RMK AO2
     PWINO TSNO $=
KAUW 101903Z AUTO 14007KT 1 3/4SM BR OVC004 M04/M04 A2972 RMK AO2
     PRESFR T10391044 $=
KFTY 101903Z 06005KT 1 1/2SM BR OVC002 09/08 A3013 RMK AO2=
KHLN 101903Z 27016G33KT 10SM BKN027 BKN038 04/M04 A2968 RMK AO2 PK
     WND 27033/1858=
KLGA 101903Z 06005KT 1 1/2SM -DZ BR FEW007 BKN009 OVC022 00/M02
     A3038 RMK AO2 SFC VIS 2 DZB01 P0000=
KLWV 101903Z AUTO 15010KT 3SM BR FEW016 SCT028 OVC035 05/04 A2993
     RMK AO2 T00500039=
KMIE 101903Z 16010KT 6SM BR FEW006 SCT025 OVC034 04/03 A2997 RMK
     AO2 T00440028=
KMKL 101903Z 17012G16KT 10SM SCT012 BKN110 10/07 A2995 RMK AO2=
KMQY 101903Z RMK AO2 PNO $=
KDAN 101903Z AUTO 03005KT 2SM -RA BR OVC005 03/02 A3028 RMK AO2
     VIS 1V4 P0002=
KLXT 101903Z AUTO 16004KT 2 1/2SM BR OVC007 03/02 A2956 RMK AO2
     T00330022=

0000009700
225
SPUS42 KWBC 101906
SPECI
KMGM 101902Z 09005KT 3SM -RA BR OVC002 11/10 A3009=

0000125000
226
SAAK31 KWBC 101900
METAR
PABR 101853Z 31010KT 10SM SCT006 M26/M28 A2993=
PACD 101853Z 00000KT 10SM FEW040 01/M03 A2936=
PAED 101858Z 27004KT 5SM -SN BR SCT004 OVC015 M04/M04 A2941=
PAEI 101858Z AUTO 00000KT 10SM FEW045 OVC055 M18/M20 A2957=
PAEN 101853Z 00000KT 3/4SM BR VV002 M03/M04 A2943=
PAFA 101853Z 00000KT 10SM BKN085 M17/M20 A2958=
PAFR NIL=
PAFS 101856Z AUTO 00000KT 6SM -SN FEW008 BKN025 OVC047 M14/M17
     A2955=
PAFY NIL=
PAJN 101853Z 07007KT 10SM SCT017 BKN032 OVC055 02/01 A2953=
PAKN 101854Z 09003KT 10SM SCT004 OVC025 M03/M03 A2945=
PAKT 101853Z 18004KT 10SM FEW010 BKN028 03/02 A2971=
PANC 101853Z 00000KT 7SM -SN BKN005 OVC013 M03/M04 A2941=
PAOM 101853Z 06006KT 10SM OVC090 M10/M15 A2964=
PAOR 101853Z 00000KT 2SM -SN BKN022 OVC027 M16/M18 A2939=
PAOT 101853Z 02010KT 10SM CLR M17/M23 A2978=
PARY 101856Z AUTO 00000KT 10SM CLR M20/M23 A2960=
PASC 101853Z 24013KT 9SM OVC024 M31/M34 A2989=
PASG NIL=
PASI 101853Z 11005KT 10SM BKN019 OVC024 02/01 A2958=
PATQ 101856Z AUTO 30004KT 10SM CLR M31/M34 A2996=
PAVD 101856Z 10SM FEW015 BKN090 BKN120 M04/M04 A2938=
PAWG 101856Z 19006KT 10SM FEW008 BKN020 BKN050 03/M01 A2966=
PFYU 101856Z 00000KT 10SM FEW100 M37/ A2968=

0000107900
227
SABO41 KWBC 101900
METAR
SLCA 101900Z 00000KT 9999 FEW036 33/21 Q1009=
SLCN NIL=
SLCO 101900Z 35008KT 9999 SCT017 BKN080 BKN200 30/24 Q1008=
SLCO 101900Z 35008KT 9999 SCT017 BKN080 BKN200 30/24=
SLCP 101900Z 34005KT 9999 BKN017 28/24 Q1011=
SLJE 101900Z 00000KT 9999 SCT017 FEW027CB 29/24 Q1010=
SLJO 101900Z 32006KT 7000 VCSH BKN017 FEW020CB 26/25 Q1008=
SLMG 101900Z 30010KT 9999 SCT017 FEW023CB 30/24 Q1009=
SLOR 101900Z 11016KT 9999 FEW015 20/02 Q1032=
SLPO 101900Z 07010KT 9999 FEW020 17/M02 Q1034=
SLPS 101900Z 00000KT 9999 SCT020 FEW025CB 29/25 Q1006=
SLRB 101900Z 33010KT 9999 SCT020 32/24 Q1011=
SLRI 101900Z 34010KT 9999 BKN017 FEW020CB BKN200 31/23 Q1008=
SLRQ 101900Z 36006KT 9999 FEW013 SCT017 30/26 Q1007=
SLRY 101900Z 34008KT 9999 SCT015 BKN030 30/24 Q1009=
SLSA 101900Z 32012KT 9999 BKN020 30/24 Q1007=
SLSI 101900Z 36008KT 9999 SCT017 31/24 Q1010=
SLSU 101900Z 02008KT 9999 FEW023 22/10 Q1025=
SLVG NIL=
SLVM 101900Z 36010KT 9999 NSC 35/24 Q1004=
SLYA 101900Z 36010KT 9999 NSC 34/24 Q1005=
SLZO NIL=

0000066500
228
SABZ41 KWBC 101900
METAR
SBAA NIL=
SBAF NIL=
SBAR 101900Z 12013KT 9999 FEW018 SCT100 28/22 Q1011=
SBBG NIL=
SBBH NIL=
SBBI NIL=
SBBU NIL=
SBCJ 101900Z 04003KT 9999 SCT024 26/20 Q1012=
SBCO NIL=
SBCR 101900Z 29006KT 9999 SCT025 33/20 Q1007=
SBCT 101900Z 28008KT 9999 SCT045 31/11 Q1015=
SBCV NIL=
SBCY 101900Z 34005KT 9999 SCT020 32/22 Q1008=
SBCZ 101900Z 28003KT 9999 BKN030 BKN100 27/24 Q1008=
SBDN NIL=
SBFL 101900Z 36007KT 9999 FEW030 FEW035TCU 30/23 Q1009=
SBFN 101900Z 11015KT 9999 SCT021 28/20 Q1011=
SBGO 101900Z 33012KT 9999 SCT040 FEW045TCU 29/16 Q1012=
SBGW NIL=
SBHT NIL=
SBIH NIL=
SBIL NIL=

0000014200
229
SABZ42 KWBC 101900 CCA
METAR
SBSP 101900Z 21013KT 170V260 8000 TS VCSH BKN011 BKN030 FEW 040CB
     BKN100 25/19 Q1016=

0000101700
230
SABZ42 KWBC 101900
METAR
SBJR NIL=
SBLO 101900Z 05006KT 9999 FEW035 FEW040TCU 33/14 Q1012=
SBMA 101900Z 14003KT 9999 SCT018 BKN090 29/22 Q1009=
SBME NIL=
SBMN 101900Z 27002KT 9999 BKN025 FEW030TCU BKN100 28/23 Q1007=
SBMO 101900Z 11011KT 9999 SCT020 SCT080 28/22 Q1012=
SBMQ 101900Z 28004KT 9999 SCT013 BKN100 30/22 Q1011=
SBMT NIL=
SBPC NIL=
SBPK 101900Z 34006KT 9999 -TSRA BKN040 FEW040CB 22/21 Q1012=
SBPP 101900Z 36006KT 9999 BKN025 FEW030TCU 30/20 Q1012=
SBPV 101900Z 31006KT 9999 BKN025 30/22 Q1007=
SBRB 101900Z 27005KT 9999 BKN025 FEW030TCU ///// Q1008=
SBRJ 101900Z 19012KT 9999 FEW020 30/23 Q1010=
SBSC NIL=
SBSJ NIL=
SBSM NIL=
SBSP 101900Z 21013KT 170V260 9000 TS VCSH BKN011 BKN030 FEW040C B
     BKN100 25/19 Q1016=
SBST NIL=
SBTE 101900Z 30001KT 9999 SCT030 34/19 Q1007=
SBTU NIL=
SBUG 101900Z 12015G25KT 9999 VCSH BKN013 BKN080 22/20 Q1008 RET
     S=
SBUR NIL=
SBVH NIL=
SBVT 101900Z 06008KT 9999 SCT020 29/22 Q1013=
SBYS NIL=

0000090600
231
SAAK32 KWBC 101900
METAR
PABA 101901Z AUTO 27021KT 1 1/2SM -SN BR M27/M29 A2986=
PABI 101853Z 00000KT 9SM -SN OVC090 M18/M20 A2950=
PACZ 101855Z AUTO 04015G23KT 10SM BKN047 M05/M06 A2943=
PADK 101856Z AUTO 23018G29KT 10SM FEW020 SCT039 OVC060 04/01
     A2894=
PADL 101850Z 02006KT 10SM OVC010 M04/M04 A2948=
PADQ 101853Z 29004KT 10SM FEW040 M03/M05 A2947=
PAEH 101855Z AUTO 13013G23KT 10SM BKN011 01/00 A2936=
PAFB 101855Z 07003KT 13SM BKN080 M19/M22 A2958=
PAGA 101858Z AUTO 31003KT 10SM CLR M23/M26 A2969=
PAIM 101855Z AUTO 20005KT 10SM CLR M20/M26 A2957=
PALU 101855Z AUTO 09007KT 10SM OVC012 M18/M20 A3004=
PASV 101855Z AUTO VRB01KT 9SM -SHSN OVC004 M12/M13 A2939=
PASY 101856Z AUTO 02026G36KT 4SM -SN BR OVC009 00/00 A2878=
PATC 101855Z AUTO 03018KT 10SM CLR M18/M20 A2974=
PATL 101855Z AUTO 07002KT 10SM -SN BKN009 BKN120 M15/M16 A2954=
PBTI NIL=

0000058800
232
SABZ43 KWBC 101900
METAR
SBAN NIL=
SBAT NIL=
SBBA NIL=
SBBQ NIL=
SBBW NIL=
SBCC NIL=
SBER NIL=
SBES NIL=
SBGA NIL=
SBIZ NIL=
SBJF NIL=
SBJP 101900Z 11010KT 9999 SCT025 29/21 Q1011=
SBKG NIL=
SBLB NIL=
SBLP NIL=
SBMK NIL=
SBMS NIL=
SBMZ NIL=
SBPB 101900Z 07015KT 9999 FEW020 32/24 Q1008=
SBPJ NIL=
SBPL 101900Z 07008KT 9999 FEW025 30/19 Q1011=
SBPN NIL=
SBQV NIL=
SBRP 101900Z 13009KT 9999 SCT040 FEW045TCU 31/16 Q1011=
SBTF 101900Z 12005KT 9999 SCT010 BKN080 27/24 Q1008=
SBTK NIL=
SBUF NIL=
SBUI NIL=
SBUL NIL=

00000000