0000057900
733
SAUK31 EGGY 102350
METAR EGBB 102350Z 21010KT 7000 -DZ SCT019 BKN025 08/07 Q1010=
METAR COR EGCC 102350Z 26007KT 6000 SCT003 SCT007 BKN024 07/06 Q1009
     RERA TEMPO BKN010=
METAR EGKK 102350Z 21007KT 170V230 9999 BKN010 08/06 Q1014=
METAR COR EGLL 102350Z 21007KT 9999 -RA SCT039 SCT043 08/06 Q1013
     TEMPO RA=
METAR EGPF 102350Z 26005KT 9999 SCT049 02/00 Q1008=
METAR EGPH 102350Z 24006KT 9999 FEW030 BKN040 00/M01 Q1008=
METAR EGPK 102350Z 26003KT 9999 SCT038 04/02 Q1009=
METAR EGSS 102350Z 21009KT 9999 -RA SCT008 OVC014 07/06 Q1012=

0000010100
734
SABZ21 SBSV 110000
METAR SBSV 110000Z 09012KT 9999 BKN017 FEW020TCU
27/23 Q1014=

0000051100
735
SAUK32 EGGY 102350
METAR EGAA 102350Z 23005KT CAVOK 02/01 Q1010=
METAR EGAC 102350Z NIL=
METAR EGFF 102350Z 25012KT 5000 DZ FEW003 SCT011 BKN015 08/07
    Q1011=
METAR EGGW 102350Z 20008KT 9999 -DZ FEW006 SCT029 07/06 Q1012=
METAR EGLC 102350Z AUTO 21008KT 9999 -RA SCT030/// BKN045///
    09/06 Q1013=
METAR EGNM 102350Z 25004KT 200V270 9999 -RADZ BKN007 06/06 Q1007=
METAR EGNX 102350Z 23014KT 9999 FEW015 BKN030 08/06 Q1009=
METAR EGPD 102350Z 24006KT CAVOK 02/M03 Q1005=

0000036200
736
SAUK33 EGGY 102350
METAR EGGD 102350Z 21008KT 7000 -RA BKN004 OVC012 07/07 Q1011=
METAR EGGP 102350Z 30005KT 9999 VCSH FEW012 SCT038 07/06 Q1009=
METAR EGHI 102350Z NIL=
METAR EGNS 102350Z NIL=
METAR EGNT 102350Z 28008KT 9999 SCT032 04/03 Q1007=
METAR EGNV 102350Z NIL=
METAR COR EGPB 102350Z 26019KT 9999 FEW020 06/03 Q0999 NOSIG=

0000021700
737
SAUK34 EGGY 102350
METAR EGHE 102350Z NIL=
METAR EGHK 102350Z NIL=
METAR EGHQ 102350Z NIL=
METAR EGJA 102350Z NIL=
METAR EGJB 102350Z NIL=
METAR EGJJ 102350Z NIL=
METAR EGTE 102350Z NIL=

0000028200
738
SAUK35 EGGY 102350
METAR EGHH 102350Z NIL=
METAR EGKA 102350Z NIL=
METAR EGKB 102350Z NIL=
METAR EGLF 102350Z NIL=
METAR EGMC 102350Z 21009KT 9000 -RA FEW015 BKN017 08/06 Q1013=
METAR EGMD 102350Z NIL=
METAR EGMH 102350Z NIL=
METAR EGTC 102350Z NIL=

0000034300
739
SAUK36 EGGY 102350
METAR EGBE 102350Z 20006KT 9999 FEW015 SCT025 BKN032 08/06 Q1010=
METAR EGBJ 102350Z NIL=
METAR EGCN 102350Z 21012KT CAVOK 08/06 Q1009=
METAR EGSC 102350Z NIL=
METAR EGSD 102350Z NIL=
METAR EGSH 102350Z AUTO 21011KT 9999 FEW045/// 08/06 Q1011=
METAR EGVN 102350Z NIL=
METAR EGWU 102350Z NIL=

0000036300
740
SAUK37 EGGY 102350
METAR EGAE 102350Z NIL=
METAR EGNC 102350Z NIL=
METAR EGNH 102350Z NIL=
METAR EGNJ 102350Z AUTO 20012KT 9999 FEW018/// BKN027/// 08/07
    Q1008 RERA=
METAR EGNO 102350Z NIL=
METAR EGNR 102350Z NIL=
METAR EGPE 102350Z AUTO 21012KT 9999 FEW045/// 03/M00 Q1005=
METAR EGPI 102350Z NIL=
METAR EGPN 102350Z NIL=

0000044500
741
SAUK38 EGGY 102350
METAR EGEC 102350Z NIL=
METAR EGEO 102350Z NIL=
METAR EGPA 102350Z 25006KT 9999 FEW028 05/02 Q1001=
METAR EGPC 102350Z AUTO 22008KT 9999 NCD 02/M00 Q1003=
METAR EGPL 102350Z AUTO 26011KT 9999 // FEW026/// SCT035/// 04/01
    Q1005=
METAR EGPM 102350Z AUTO 27012KT 9999 BKN008/// BKN020/// 05/03 Q0997
    RERA=
METAR EGPO 102350Z AUTO 24010KT 9999 NCD 02/M00 Q1003=
METAR EGPU 102350Z NIL=

0000040600
742
SASW32 LSSW 102350
METAR LSGC 102350Z AUTO VRB01KT 9999 NSC M01/M01 Q1017=
METAR LSGS 102350Z NIL=
METAR LSZG 102350Z AUTO 04002KT 8000 BKN002 00/00 Q1019=
METAR LSZR 102350Z AUTO 20001KT 0200 R10/0700D FG VV001 02/01 Q1019=
METAR LSZS 102350Z NIL=
METAR LSZC 102350Z AUTO 23002KT 0150 FG VV002 01/01 Q1019=
METAR LSZL 102350Z AUTO 00000KT 9999NDV OVC046 06/05 Q1022 RMK WHT=

0000014100
743
SAVN23 SVBC 110000
METAR SVBC 110000Z 00000KT 9999 BKN010 27/21 Q1011=
METAR SVMT 110000Z NIL=
METAR SVHG 110000Z NIL=

0000042600
744
FTUS41 KWBC 102354 CCA
TAF COR
KABE 102352Z 1100/1124 VRB03KT 2SM BR BKN007 OVC012
      TEMPO 1100/1102 1SM -RA BR
     FM110200 14005KT 1SM -RA BR BKN007 OVC015
     FM110600 16005KT 2SM -RA BR BKN004 OVC010 WS020/20050KT
     FM111500 19013KT 1SM RA BR BKN003 OVC010 WS020/21050KT
     FM112100 22012G22KT 1SM RA BR BKN003 OVC012 WS020/18050KT
     FM112300 26009KT 2SM RA BR BKN004 OVC025=

0000049000
745
FTUS43 KWBC 102354
TAF
KOAJ 102351Z 1100/1124 12005KT P6SM VCSH SCT035 BKN050
     FM110500 15008KT 5SM BR VCSH OVC025
     FM111300 19015G25KT P6SM BKN050
     FM112100 20016G25KT 5SM -RA VCTS BKN025CB AMD LTD TO CLD VIS
      AND WIND=
KPGV 102351Z 1100/1124 11005KT P6SM -RA SCT040 OVC100
     FM110700 16008KT 5SM BR VCSH OVC025
     FM111300 19013G22KT P6SM BKN050
     FM112000 21016G26KT 5SM -RA VCTS BKN025CB AMD LTD TO CLD VIS
      AND WIND=

0000023000
746
FTUS71 KWBC 102354
TAF
KEWN 102351Z 1100/1124 12005KT P6SM VCSH SCT035 BKN050
     FM110600 16008KT 5SM BR VCSH OVC025
     FM111400 19014G23KT P6SM BKN060
     FM112100 20016G25KT 5SM -RA VCTS BKN025CB=

0000079600
747
FTUS71 KWBC 102354 CCA
TAF COR
KABE 102352Z 1100/1124 VRB03KT 2SM BR BKN007 OVC012
      TEMPO 1100/1102 1SM -RA BR
     FM110200 14005KT 1SM -RA BR BKN007 OVC015
     FM110600 16005KT 2SM -RA BR BKN004 OVC010 WS020/20050KT
     FM111500 19013KT 1SM RA BR BKN003 OVC010 WS020/21050KT
     FM112100 22012G22KT 1SM RA BR BKN003 OVC012 WS020/18050KT
     FM112300 26009KT 2SM RA BR BKN004 OVC025=
KRDG 102353Z 1100/1124 00000KT 2SM BR BKN006
      TEMPO 1100/1102 1SM -RA BR
     FM110200 13004KT 1SM -RA BR BKN005 OVC015
     FM110600 16005KT 2SM -RA BR BKN004 OVC010 WS020/20050KT
     FM111500 18010KT 1SM RA BR BKN003 OVC010 WS020/21050KT
     FM112100 21010G20KT 1SM RA BR BKN003 OVC012 WS020/18050KT
     FM112300 26009KT 2SM RA BR BKN004 OVC025=

0000073800
748
SASN32 ESWI 102350
METAR ESKN 102350Z 01003KT 320V080 9999 BKN011 M03/M05 Q1002
R26/710195=
METAR ESOE 102350Z AUTO 11005KT 9999NDV SG OVC007/// M02/M03 Q1001
RESN=
METAR ESOK 102350Z AUTO 12006KT 9999 OVC003/// M00/M00 Q0998=
METAR ESOW 102350Z AUTO 02003KT 9999NDV OVC010/// M04/M06 Q1002=
METAR COR ESSA 102350Z 31006KT 9999 BKN008 BKN018 M04/M05 Q1001
R01L/19//71 R08/19//58 R01R/19//68 TEMPO BKN018=
METAR ESSB 102350Z AUTO 29007KT 9999NDV OVC009/// M03/M05 Q1002=
METAR ESSD 102350Z AUTO 08008KT 6000 -SN FEW001/// SCT004///
BKN006/// M06/M08 Q1000=
METAR ESSP 102350Z AUTO 15004KT 9999NDV SG OVC018/// M02/M03 Q1002
RESN=
METAR ESSV 102350Z AUTO 29010KT 9999NDV OVC009/// M01/M02 Q1002=

0000050800
749
SAFI32 EFHK 102350
METAR EFHA 102350Z AUTO 35009KT 9999 OVC009 M06/M07
 Q0996=
EFHF 102350Z AUTO 33012KT 310V020 9999 OVC011 M02/M04 Q0994=
METAR EFKA 102350Z AUTO 03009KT 9999 -SN OVC013 
M07/M09 Q1000=
EFKK 102350Z AUTO 03009KT 9999 -SHSN BKN031 OVC040 M10/M11 Q1002=
EFMA 102350Z AUTO 34009KT 9000 -SHSN OVC016 M01/M01 Q0998=
METAR EFPO 102350Z AUTO 01007KT 340V040 9999 OVC009/// M04/M05 Q0998 
R12/29//95=
EFSI 102350Z AUTO 01006KT 340V050 9999 OVC009 M07/M08 Q0999=

0000068200
750
SASN33 ESWI 102350
METAR ESNG 102350Z AUTO 02008KT 9999 NCD M16/M19 Q1012=
METAR ESNK 102350Z AUTO 32010KT 9999 IC FEW020/// BKN023///
OVC035/// M10/M14 Q1005 RESG=
METAR ESNN 102350Z AUTO 32009KT 1600NDV -SN NCD M10/M12 Q1005
R16/49/79=
METAR ESNO 102350Z AUTO 35010KT 320V030 9999 OVC021/// M11/M15
Q1003=
METAR ESNQ 102350Z AUTO 34005KT 9999NDV OVC010/// M16/M17 Q1012
RESN=
METAR ESNS 102350Z AUTO 35012KT //// VV006 M12/M14 Q1005=
METAR ESNU 102350Z 34016KT 5000 -SN OVC035 M11/M14 Q1004 R14/49//50=
METAR ESNZ 102350Z 05004KT 9999 -SN OVC045 M15/M16 Q1002 RESG=
METAR ESUT 102350Z AUTO 23008KT 210V280 9999 OVC076/// M13/M19
Q1005=

0000059700
751
SASN34 ESWI 102350
METAR ESCF 102350Z AUTO 14003KT 090V170 9999NDV SCT009/// OVC013/// 
M02/M03 Q1001=
METAR ESDF 102350Z AUTO 24003KT 210V270 9999NDV SCT017/// BKN024/// 
OVC033/// 03/03 Q1005=
METAR ESIB 102350Z AUTO 21009KT 9999NDV BKN020/// OVC170/// 03/02 
Q0999=
METAR ESMV 102350Z NIL=
METAR ESPA 102350Z AUTO 03010KT 360V070 9999NDV -SG FEW023/// 
BKN031/// OVC140/// M13/M16 Q1009=
METAR ESPE 102350Z AUTO 01005KT 320V050 9999NDV -IC OVC041/// 
M14/M18 Q1009=
METAR ESSL 102350Z AUTO 13003KT 9999NDV BKN010/// OVC014///
M02/M03 Q1002 R29/19//95=

0000039000
752
SASN35 ESWI 102350
METAR ESGR 102350Z NIL=
METAR ESKM 102350Z NIL=
METAR ESNL 102350Z AUTO 35008KT 9999NDV IC OVC022/// M13/M17 Q1006
RESG=
METAR ESNX 102350Z AUTO 02010KT 4000NDV -SN ///027 M15/M18 Q1006=
METAR ESNY 102350Z NIL=
METAR ESSF 102350Z NIL=
METAR ESSK 102350Z NIL=
METAR ESUD 102350Z AUTO 35005KT 5000 -SN FEW014/// OVC028/// M14/M17
Q1006=

00000000