0000015700
093
SSVX13 LFPW 110500
ZZYY 13662 11014 0500/ 726776 026070 6113/ 11119 40173 57010 22219
 00215 444 20130 11014 0300/ 50101 80142 80015 9/015=
0000015700
094
SSVX13 LFPW 110500
ZZYY 16642 11014 0500/ 343832 053588 6113/ 11119 40117 57028 22219
 00106 444 20130 11014 0300/ 50101 80150 80013 9/015=
0000015700
095
SSVX13 LFPW 110500
ZZYY 25619 11014 0500/ 185753 091368 6113/ 11119 40057 52008 22219
 01090 444 20130 11014 0300/ 50101 80138 8//// 9/015=
0000015700
096
SSVX13 LFPW 110500
ZZYY 16617 11014 0500/ 336020 078218 6113/ 11119 40238 52005 22219
 00165 444 20130 11014 0300/ 50101 80148 80010 9/015=
0000015700
097
SSVX13 LFPW 110500
ZZYY 25624 11014 0500/ 185354 120441 6113/ 11119 40060 52002 22219
 01140 444 20130 11014 0300/ 50101 80134 8//// 9/015=
0000015700
098
SSVX13 LFPW 110500
ZZYY 41705 11014 0500/ 726568 046064 6113/ 11119 40214 57009 22219
 00237 444 20130 11014 0300/ 50101 80142 80018 9/015=
0000015700
099
SSVX13 LFPW 110500
ZZYY 64616 11014 0500/ 762532 022367 6113/ 11119 49980 52014 22219
 00083 444 20130 11014 0000/ 50101 80148 80006 9/015=
0000015700
100
SSVX13 LFPW 110500
ZZYY 16544 11014 0500/ 345301 094165 6113/ 11119 40038 54000 22219
 00098 444 20130 11014 0300/ 50101 80144 80006 9/015=
0000015700
101
SSVX13 LFPW 110500
ZZYY 25618 11014 0500/ 180137 112824 6113/ 11119 40214 57003 22219
 01146 444 20130 11014 0300/ 50101 80138 8//// 9/015=
0000015700
102
SSVX13 LFPW 110500
ZZYY 14512 11014 0500/ 317267 069408 6113/ 11119 40139 52002 22219
 00282 444 20130 11014 0300/ 50101 80136 80003 9/015=
0000015700
103
SSVX13 LFPW 110500
ZZYY 16545 11014 0500/ 339759 086064 6113/ 11119 40151 52004 22219
 00142 444 20130 11014 0300/ 50101 80144 80019 9/015=
0000015100
104
SSVX13 LFPW 110500
ZZYY 13661 11014 0500/ 722728 037783 6113/ 11119 54000 22219 00236
 444 20130 11014 0300/ 50101 80050 80000 9/015=
0000015700
105
SSVX13 LFPW 110500
ZZYY 33702 11014 0500/ 545857 048642 6113/ 11119 40003 57003 22219
 00124 444 20130 11014 0300/ 50101 80140 80011 9/015=
0000208200
106
SNRO41 YRBK 110500
AAXX 11051
15015 21998 32404 10009 21019 39594 42797 52005 700// 80001 333 60005
91007
91107 92600=
15020 22997 42801 10018 21034 39982 40185 52014 84070 333 60005 91002
91104=
15090 22597 42701 10017 21005 30094 40189 53013 84500 333 55300 0////
20000
3//// 60005 91002 91102 92600=
15108 21/91 92724 11078 21078 38019 48456 52013 74944 333 60005 91034
92723=
15120 22697 62101 11014 21018 39719 40234 52005 86500 333 55300 10104
20000
3//// 60005 91002 91103 92611=
15150 23/// /0601 11033 21033 39982 40205 52013 333 6///5 91001
91102=
15170 21597 82305 10011 21012 39421 42809 52011 700// 883// 333 60005
91010
91110=
15200 22997 71301 10008 20003 30087 40237 55000 87070 333 60005 91001
91102=
15230 22597 63200 11002 21002 39946 40250 52003 86500 333 55300 10051
20000
3//// 60005 91001 91101=
15260 22598 61201 11004 21037 39692 40246 53005 86500 333 60005 91002
91105=
15280 22999 02934 11115 21159 37451 47987 57004 333 60005 91040=
15292 22597 61401 10010 20007 39942 40246 55001 86500 333 60005 91002
91103=
15310 21494 31702 10005 20005 30120 40209 52016 72841 83600 333 55300
10219
20000 3//// 60005 91004 91104 92600=
15335 22997 02502 10046 20015 30198 40205 52016 333 6///5 91003
91105=
15346 22997 02901 11022 21049 39931 40234 53013 333 60005 91004 91104
92600=
15350 22997 02203 10004 21016 30093 40217 53018 333 60005 91005
91105=
15360 22497 82406 10025 20015 30185 40200 52019 886// 333 60005 91007
91107=
15410 22997 02804 10028 20010 30134 40233 52002 333 60005 91005
91105=
15420 22997 02501 11031 21035 30104 40221 53012 333 55300 0//// 20000
3////
60005 91002 91103 92600=
15450 22997 02402 10015 21003 39989 40232 53010 333 55300 10210 20000
3////
60005 91003 91104=
15460 21996 02602 10016 20013 30194 40219 52017 710// 333 60005 91004
91108
92600=
15470 22997 02704 10002 21002 30096 40227 53010 333 60005 91005 91107
92611=
15480 21496 32402 10033 20023 30197 40215 52020 71000 83600 333 60005
91003
91104=
0000100800
107
SSVX08 KARS 110504
ZZYY 48400 10014 12004 750144 144847 6111/
11119 01126 10064 29092
22219 00091
33311 88872 20000 30912 20001 30906 43226
444 20110 10014 1218/ 521// 60401=
ZZYY 48400 11014 04004 750111 144824 6111/
11119 03439 10065 29083
22219 00090
444 20110 11014 0415/ 521// 60401=
ZZYY 52004 10014 0000/ 305008 165171 6111/
33311 88870 20001 33066 20025 33001 20075 33033 20100 32928
20150 32662 20200 32047 20250 31393 20300 31040 20500 30819
444 20110 10014 0128/ 521//=
ZZYY 52004 11014 04004 305009 165173 6112/
11119 02807 10296 29078
22219 00313
444 20120 11014 0256/ 521// 60401=
ZZYY 52007 10014 1200/ 308031 164802 6112/
33311 88872 20001 33060 43420 20025 32988 43453 20050 32895 43493
20075 32764 20100 32729 20125 32589 20150 32479 20200 32075
20250 31633 20300 31285 20500 30764
444 20120 10014 1053/ 521//=
ZZYY 52007 11014 04004 308042 164796 6111/
11119 02306 10303 29074
22219 00314
444 20110 11014 0437/ 521// 60401=
0000011100
108
UANT01 CWAO 110505
ARP UAE212 5649N06037W 0505 F313 MS58 283/108 KT
A6ECV DDL YHO 110505 F08A
0000011000
109
UANT01 CWAO 110505
ARP KAC118 5011N04441W 0505 F330 MS61 328/84 KT
9KAOA QXT AOW 110505 F04A
0000103100
110
SNIY20 LIIB 110500
AAXX 11054
16008 42560 70000 10010 21012 38550 48508 51001 87200 333 87625
      92865=
16088 41635 80000 10070 20067 30102 40222 5//// 710// 8623/ 333
      86645=
16110 41496 80000 10090 20078 30212 40216 54001 71022 886// 333 88715
      555 0////=
16134 42980 03310 10040 21033 37847 48520 51003 333 92845 95150 444
      38160=
16153 42598 60108 10110 20060 39942 40209 58003 83530 333 83625 83358
      555 0////=
16206 42565 10606 10046 20028 30212 40221 51001 81100 333 81820=
16219 NIL=
16280 NIL=
16310 NIL=
16360 42997 00406 10106 20092 30080 40216 54000 555 0////=
16400 42498 21207 10128 20096 39926 40217 58005 82100 333 55300 82819
      555 0213/=
16420 42997 03203 10104 20066 30141 40207 58001 555 0////=
16429 NIL=
16470 NIL=
16480 42997 23104 10144 20134 30151 40212 53001 80001 555 0////=
16522 42998 00000 10112 20096 39950 40196 54000 555 0////=
16550 42898 63107 10118 20077 30031 40212 54004 86000 333 83357 83461
      555 0////=
0000015700
111
SSVX13 LFPW 110500
ZZYY 44868 11014 0500/ 734839 040180 6113/ 11119 40222 52005 22219
 00187 444 20130 11014 0300/ 50101 80142 80013 9/015=
0000015700
112
SSVX13 LFPW 110500
ZZYY 64620 11014 0500/ 757095 031289 6113/ 11119 40004 52004 22219
 00076 444 20130 11014 0300/ 50101 80100 80003 9/015=
00000000