0000021300
693
SAUS73 KWBC 102200 RRD
METAR
KCIU 102215Z AUTO 15012KT 5SM OVC008 M02/M02 A2987=
KELO 102213Z AUTO 18008KT 7SM -SN OVC009 M05/M06 A2952=
KLBL 102215Z AUTO 32018G23KT 10SM CLR 10/M12 A2970=

0000010500
694
SAUS74 KWBC 102200 RRC
METAR
KOTH 102215Z 18009G15KT 10SM SCT020 OVC040 12/10 A3014=

0000010000
695
SPCN44 CWAO 102217
SPECI CYPE 102217Z 20005KT 15SM VCSH BKN050 BKN090 RMK SC5AC2=

0000010100
696
FTPQ31 PGUM 102200 RRB
TAF PTSA 102215Z 1022/1118 05015KT P6SM VCSH SCT020 SCT130=

0000020100
697
FTCN35 CWAO 102200 AAA
TAF AMD CYZR 102218Z 1022/1103 17012KT 6SM BR OVC007 TEMPO 1022/1102
     2SM BR OVC005
    RMK FCST BASED ON AUTO OBS. NXT FCST WILL BE ISSUED AT 111245Z=

0000046400
698
FTBZ42 KWBC 102218
TAF
TAF SBMN 102200Z 1100/1124 15003KT 8000 SCT010 TN24/1107Z
      TX31/1117Z
      BECMG 1104/1106 BKN009
      BECMG 1110/1112 SCT020 PROB40 1119/1124 3000 RA BKN 009 RMK
      PDZ=
TAF SBMQ 102200Z 1100/1124 06005KT 9999 FEW017 TN25/1108Z
      TX35/1116Z
      BECMG 1104/1106 8000 SCT008
      BECMG 11111113 SCT015
      BECMG 1114/1116 09010KT BKN030
      BECMG 1121/1123 06008KT FEW025 RMK PDZ=

0000009900
699
FTPA31 KWBC 102218
TAF
PTSA 102215Z 1022/1118 05015KT P6SM VCSH SCT020 SCT130=

0000017000
700
FTPA32 KWBC 102218
TAF
TAF NIUE 102215Z 1100/1124 02015KT 9999 -SHRA SCT018 SCT045 BKN100
      TEMPO 1100/1112 36015G25KT 5000 SHRA SCT009 BKN015=

0000009900
701
FTPQ31 KWBC 102218
TAF
PTSA 102215Z 1022/1118 05015KT P6SM VCSH SCT020 SCT130=

0000029600
702
FTUS51 KWBC 102218 AAA
TAF AMD
KELM 102215Z 1022/1118 12006KT P6SM SCT020 BKN040
      TEMPO 1023/1102 BKN020
     FM110200 14008KT P6SM FEW009 OVC018
      TEMPO 1104/1108 BKN009
     FM110800 17010KT 3SM -SHRA OVC009
     FM111200 13013KT 5SM -SHRA SCT009 OVC012=

0000038000
703
FTUS52 KWBC 102218 AAA
TAF AMD
KFYV 102216Z 1022/1118 17006KT P6SM FEW080 OVC100
      TEMPO 1023/1101 2SM TSRA BKN030CB
     FM110100 24011KT P6SM SCT100
      TEMPO 1109/1113 4SM BR=
KXNA 102217Z 1022/1118 19009KT P6SM BKN014 BKN025 OVC080
      TEMPO 1023/1101 2SM TSRA BKN030CB
     FM110100 24011KT P6SM SCT100
      TEMPO 1109/1113 4SM BR=

0000009900
704
FTUS80 KWBC 102218
TAF
PTSA 102215Z 1022/1118 05015KT P6SM VCSH SCT020 SCT130=

0000091500
705
FTUS80 KWBC 102218 AAA
TAF AMD
KELM 102215Z 1022/1118 12006KT P6SM SCT020 BKN040
      TEMPO 1023/1102 BKN020
     FM110200 14008KT P6SM FEW009 OVC018
      TEMPO 1104/1108 BKN009
     FM110800 17010KT 3SM -SHRA OVC009
     FM111200 13013KT 5SM -SHRA SCT009 OVC012=
KFYV 102216Z 1022/1118 17006KT P6SM FEW080 OVC100
      TEMPO 1023/1101 2SM TSRA BKN030CB
     FM110100 24011KT P6SM SCT100
      TEMPO 1109/1113 4SM BR=
KGLS 102217Z 1022/1118 17012KT P6SM BKN025 OVC040
      TEMPO 1022/1024 2SM -RA BR BKN003
     FM110000 19010KT 5SM BR SCT015
      TEMPO 1102/1104 2SM BR SCT005
     FM110700 19010KT 5SM BR SCT003 BKN015
     FM111000 27008KT P6SM SCT009
     FM111300 31008KT P6SM SCT250=
KXNA 102217Z 1022/1118 19009KT P6SM BKN014 BKN025 OVC080
      TEMPO 1023/1101 2SM TSRA BKN030CB
     FM110100 24011KT P6SM SCT100
      TEMPO 1109/1113 4SM BR=

0000081600
706
SPUS70 KWBC 102218
SPECI
KHLG 102214Z 12006KT 10SM BKN013 07/05 A3008 RMK AO2=
KLXT 102215Z AUTO 22007KT 4SM BR OVC006 06/04 A2954 RMK AO2 CIG
     003V008 T00560044=
KVAY 102214Z AUTO 00000KT 1 1/4SM UP BR OVC003 01/01 A3033 RMK AO2
     UPB14 P0000 T00110011=
KBIV 102215Z AUTO 14009KT 2SM RA BR OVC004 02/02 A2981 RMK AO2
     P0006 T00220017=
KBKL 102215Z 15013KT 7SM FEW007 OVC060 04/03 A3001 RMK AO2 $=
KCEC 102215Z AUTO 15010KT 10SM OVC005 10/09 A3022 RMK AO2 CIG
     003V007 T01000089=
KEQY 102215Z AUTO 05005KT 2SM +RA BR SCT005 BKN015 OVC029 07/06
     A3016 RMK AO2 VIS 1 1/4V2 1/2 P0019=
KNFE 102211Z AUTO 02004KT 4SM HZ SCT003 OVC090 08/06 A3028 RMK AO2
     T00830056=
PABA 102212Z AUTO 27020KT 1 1/4SM -SN BR M26/M28 A2986 RMK AO2
     P0000 FZRANO=

0000011900
707
SPUS41 KWBC 102218
SPECI
KDOV 102213Z AUTO 01003KT 2 1/2SM R01/3500FT -RA BR OVC003 03/03
A3030=

0000010000
708
SACA33 KWBC 102200 RRC
METAR
TNCE 102200Z AUTO 05014KT //// ////// ///// Q1017=

0000013000
709
SASA31 KWBC 102200 RRD
METAR
SOCA 102200Z AUTO 14005KT 110V180 9999 FEW009 BKN015 OVC029 24/ 22
     Q1010=

0000013100
710
SACN62 CYWK 102200
METAR CYWK 102200Z 22010G16KT 12SM -SN DRSN BKN038 OVC063 M12/M16
 A2973 RMK SC5SC3 SLP118=

0000021900
711
FTXX69 EGRR 102200
TAF AMD EQBH 102145Z 1021/1118 VRB03KT 9999 FEW250
     PROB30 1021/1104 0500 FG BKN000
     BECMG 1100/1103 08012KT
     BECMG 1104/1107 SCT020
     BECMG 1108/1110 SCT120=

0000177700
712
SPUS70 KWBC 102220
SPECI
KACV 102216Z AUTO 00000KT 3/4SM R32/3000VP6000FT BR OVC002 10/09
     A3022 RMK AO2 T01000089=
KCSG 102216Z 10005KT 1 1/4SM BR OVC003 11/11 A3007 RMK AO2=
KGGG 102216Z 19010KT 2 1/2SM RA BR BKN011 BKN023 OVC030 17/16
     A2974 RMK AO2 P0003=
KMFI 102216Z AUTO 11007KT 3/4SM -SN BR OVC003 M02/M03 A2961 RMK
     AO2 FZRAE00SNB00 P0000 I1000 T10171033=
KMTW 102216Z AUTO 16013KT 1SM UP BR OVC004 01/01 A2974 RMK AO2
     P0000 FZRANO=
KOFP 102216Z AUTO 07004KT 3SM BR OVC003 04/03 A3029 RMK AO2 RAE07
     P0001 T00390033=
KPNS 102216Z 00000KT 1/2SM R17/2400V3000FT FG VV003 16/15 A3001
     RMK AO2 T01610150=
KRDG 102216Z AUTO 00000KT 3SM HZ OVC009 01/M02 A3031 RMK AO2 SFC
     VIS 5 TSNO=
KRXE 102216Z AUTO 00000KT 10SM BKN017 M01/M03 A2991 RMK AO2
     T10061033=
KSMQ 102216Z AUTO 00000KT 1 1/4SM BR OVC006 01/00 A3033 RMK AO2
     T00060000 TSNO=
KTRL 102216Z AUTO 19011KT 10SM VCTS FEW060 19/18 A2968 RMK AO2
     T01890178=
PAJZ 102220Z AUTO 00000KT 1SM BR OVC002 M07/M08 A2954 RMK AO2
     PWINO TSNO $=
PAWI 102216Z AUTO 30006KT 10SM SCT007 OVC100 M14/M24 A2995 RMK AO2
     TSNO=
KADF 102216Z AUTO 20006KT 3SM -RA BR SCT004 BKN009 OVC040 13/13
     A2974 RMK AO2 CIG 007V011 LTG DSNT S P0001=
KGMU 102217Z 04007KT 1 1/2SM BR OVC004 08/07 A3016 RMK AO2=
KOSH 102217Z 13007KT 2SM BR OVC004 00/M01 A2968 RMK AO2 PRESFR
     I1001 T00001011=
KPHF 102217Z AUTO 06005KT 3SM -RA BR OVC039 07/04 A3029 RMK AO2
     P0001 TSNO=
KRDU 102217Z 00000KT 1SM -RA BR OVC003 07/06 A3021 RMK AO2 SFC VIS
     2 1/2 P0003=
KTVC 102217Z 14005KT 3SM HZ OVC009 00/M03 A2982 RMK AO2
     T00001028=
KYIP 102217Z AUTO 15008KT 3SM HZ OVC006 04/01 A2995 RMK AO2
     TSNO=

00000000