0000048100
733
SAMS31 WMKK 101800
METAR WBGG 101800Z NIL=
METAR WBKK 101800Z 11004KT 010V150 9999 FEW014 SCT140 BKN280 24/23
Q1010 NOSIG=
METAR WBSB 101800Z 21002KT 9999 FEW005 BKN300 25/24 Q1011 NOSIG=
METAR WMKK 101800Z 36004KT 310V050 9000 FEW017CB SCT140 BKN280 25/23
Q1011 NOSIG=
METAR WMKP 101800Z 00000KT 8000 -RA FEW010 SCT024 OVC260 25/24 Q1012
NOSIG=
METAR WSSL 101800Z NIL=
METAR WSSS 101800Z 02004KT 310V050 9999 FEW018 BKN300 25/23 Q1011
NOSIG=

0000045900
734
SAMS32 WMKK 101800
METAR WBGG 101800Z NIL=
METAR WBKK 101800Z 11004KT 010V150 9999 FEW014 SCT140 BKN280 24/23
Q1010 NOSIG=
METAR WMKJ 101800Z 34001KT 9999 FEW023 SCT130 BKN280 24/23 Q1011=
METAR WMKK 101800Z 36004KT 310V050 9000 FEW017CB SCT140 BKN280 25/23
Q1011 NOSIG=
METAR WMKP 101800Z 00000KT 8000 -RA FEW010 SCT024 OVC260 25/24 Q1012
NOSIG=
METAR WMSA 101800Z 33006KT 280V030 8000 FEW017CB SCT140 BKN280 24/23
Q1012=

0000027300
735
SAVN27 SVBM 101800
METAR SVBM 101800Z 11010KT 9999 FEW016 30/18 Q1016=
METAR SVGU 101800Z 05007KT 9999 FEW020 33/18 Q1012=
METAR SVBI 101800Z NIL=
METAR SVAC 101800Z NIL=
METAR SVSP 101800Z NIL=
METAR SVSO 101800Z NIL=
METAR SVVL 101800Z NIL=

0000078500
736
SAMS33 WMKK 101800
METAR WMAU 101800Z 30008KT 8000 FEW000 SCT140 BKN270 24/23 Q////
QFF1011=
METAR WMBA 101800Z 03002KT 8000 FEW005 SCT030 BKN260 24/24 Q1012=
METAR WMKA 101800Z 32001KT 9999 FEW030 SCT140 BKN280 25/23 Q1012=
METAR WMKB 101800Z 00000KT 8000 FEW010 SCT140 BKN270 25/24 Q1012
NOSIG=
METAR WMKC 101800Z 07015KT 030V090 8000 -RA FEW008 SCT020 OVC200
26/23 Q1012=
METAR WMKD 101800Z 35005KT 310V030 9999 FEW012 SCT160 BKN260 23/22
Q1012 NOSIG=
METAR WMKE 101800Z NIL=
METAR WMKI 101800Z 02003KT 8000 -RA FEW005 SCT030 BKN260 23/23 Q1013=
METAR WMKL 101800Z 07004KT 9999 FEW026 BKN280 27/22 Q1012=
METAR WMKM 101800Z 04003KT 9999 FEW017CB SCT140 BKN270 24/23 Q1012=
METAR WMKN 101800Z 07011KT 8000 -RA SCT022 OVC190 25/24 Q1012=

0000056900
737
SAMS34 WMKK 101800
METAR WBGB 101800Z 15003KT 9999 FEW016 BKN150 25/24 Q1011=
METAR WBGR 101800Z 16003KT 9999 SCT014 SCT150 BKN300 24/24 Q1011=
METAR WBGS 101800Z 25001KT 9999 SCT018 BKN150 23/23 Q1012=
METAR WBGY 101800Z 29002KT 9999 -RA FEW004 SCT020 BKN150 23/23 Q1012=
METAR WBKL 101800Z 21001KT 9999 FEW010 BKN290 25/24 Q1010=
METAR WBKS 101800Z 08010KT 050V130 9999 -RA FEW010 SCT040 OVC260
27/25 Q1010=
METAR WBKT 101800Z 11003KT 9999 FEW014 SCT033 BKN270 26/24 Q1011=
METAR WBKW 101800Z 32006KT 9999 FEW017 BKN140 25/22 Q1010=

0000009300
738
SAAF18 LFPW 101800 RRA
METAR FIMR 101800Z 10014KT 9999 BKN017 27/25 Q1017=

0000021500
739
SAAF20 LFPW 101800 RRA
METAR FABL 101800Z 22004KT CAVOK 25/02 Q1016 NOSIG=
METAR FAEL 101800Z 23011KT 9999 FEW029 BKN033 20/14 Q1016=
METAR FAGG 101800Z 21007KT 9999 SCT020 BKN040 17/12 Q1018=

0000025500
740
SAAF21 LFPW 101800 RRA
METAR FALA 101800Z 20005KT CAVOK 27/09 Q1017 NOSIG=
METAR FAMM 101800Z 24007KT CAVOK 29/05 Q1016 NOSIG=
METAR FAPE 101800Z 24015KT CAVOK 19/13 Q1016 NOSIG=
METAR FAUP 101800Z 22005KT CAVOK 26/05 Q1014 NOSIG=

0000024300
741
SATH32 VTBB 101800
METAR VTSB 101800Z NIL=
METAR VTSC 101800Z NIL=
METAR VTSF 101800Z NIL=
METAR VTSG 101800Z NIL=
METAR VTSH 101800Z NIL=
METAR VTSM 101800Z NIL=
METAR VTSR 101800Z NIL=
METAR VTST 101800Z NIL=

0000010200
742
SACA32 KWBC 101800 RRA
METAR
TKPK 101800Z 06018KT 9999 FEW016 BKN042 26/21 Q1016=

0000012700
743
SAIO31 KWBC 101800 RRA
METAR
FMCZ 101800Z NIL=
FMEE 101800Z NIL=
VYMD 101800Z NIL=
VYYY 101800Z NIL=

0000064400
744
SAMS38 WMKK 101800
METAR WBGB 101800Z 15003KT 9999 FEW016 BKN150 25/24 Q1011=
METAR WBGR 101800Z 16003KT 9999 SCT014 SCT150 BKN300 24/24 Q1011=
METAR WBGS 101800Z 25001KT 9999 SCT018 BKN150 23/23 Q1012=
METAR WBKL 101800Z 21001KT 9999 FEW010 BKN290 25/24 Q1010=
METAR WBKS 101800Z 08010KT 050V130 9999 -RA FEW010 SCT040 OVC260
27/25 Q1010=
METAR WBKW 101800Z 32006KT 9999 FEW017 BKN140 25/22 Q1010=
METAR WMKD 101800Z 35005KT 310V030 9999 FEW012 SCT160 BKN260 23/22
Q1012 NOSIG=
METAR WMKL 101800Z 07004KT 9999 FEW026 BKN280 27/22 Q1012=
METAR WMKM 101800Z 04003KT 9999 FEW017CB SCT140 BKN270 24/23 Q1012=

0000011900
745
SACN62 CYWL 101800
METAR CYWL 101800Z 29008KT 15SM FEW070 BKN140 M04/M06 A2975 RMK
 AC2AC4 SLP115=

0000011200
746
SACN62 CYHK 101800
METAR CYHK 101800Z 27010G17KT 15SM SCT150 M35/M39 A2942 RMK AS3
 SLP971=

0000014300
747
SACN62 CYXT 101800
METAR CYXT 101800Z 19008KT 4SM -DZ BR BKN005 BKN025 BKN060 01/00
 A2976 RMK SF5SC1SC1 -DZ INTMT SLP086=

0000013400
748
SACN62 CYEG 101800
METAR CYEG 101800Z 23009KT 15SM -SN BKN034 BKN079 M03/M04 A2944 RMK
 SC6AC1 SN VRY LGT SLP011=

0000011800
749
SACN62 CYHM 101800 CCA
METAR CYHM 101800Z CCA 20006KT 4SM BR OVC005 01/M00 A3014 RMK SF8
 SLP219=

0000014900
750
SACN62 CYLJ 101800 CCA
METAR CYLJ 101800Z CCA 24007KT 15SM FEW040 SCT070 SCT250 M11/M13
 A2937 RMK SC2AC1CC1 TCU S/TR CC SLP977=

0000010700
751
SABZ18 SBGR 101800 RRA
METAR SBGR 101800Z 04004KT 9999 TS SCT040
FEW045CB 33/13 Q1015=

0000024300
752
FTCN34 CWAO 101800 AAA
TAF AMD CYQR 101807Z 1018/1106 29008KT 3/8SM FZFG OVC001 TEMPO
     1018/1020 2SM BR FEW001 BKN008
    FM102000 28010KT 6SM BR FEW008 TEMPO 1020/1022 11/2SM BR BKN008
    RMK NXT FCST BY 110000Z=

00000000