0000016500
033
SADN32 EKCH 101820
METAR EKVJ 101823Z NIL=
METAR EKSB 101823Z NIL=
METAR EKSN 101823Z NIL=
METAR EKVD 101823Z NIL=
METAR EKOD 101823Z NIL=

0000054900
034
SADN34 EKCH 101820
METAR EKGF 101820Z 23016KT 9999 SCT010 BKN014 07/05 Q1008=
METAR EKHN 101820Z AUTO 26017KT 8000NDV BKN019/// ///// Q1010=
METAR EKHR 101820Z AUTO 26017KT 9999NDV FEW017/// BKN038///
08/05 Q1008=
METAR EKHA 101820Z AUTO 24019KT 9999NDV 07/05 Q1009=
METAR EKHD 101820Z AUTO 24024KT 9999NDV 07/05 Q1005=
METAR EKTE 101820Z AUTO 23017KT 9999NDV FEW009 SCT012 07/05 Q1008=
METAR EKGC 101820Z AUTO 24021KT 9999NDV 07/05 Q1008=
METAR EKAV 101820Z AUTO 26020KT 9999NDV FEW063/// BKN170///
06/04 Q1004=

0000011800
035
SPCN31 CWAO 101819
SPECI CYWG 101819Z 18013G20KT 2SM -SN BR OVC026 M06/M08 A2942 RMK SC8
 SLP978=

0000011200
036
SPUS42 KWBC 101823
SPECI
KSAV 101819Z 14011KT 10SM SCT005 BKN020 BKN050 BKN130 21/16 A3015=

0000010500
037
SPUS44 KWBC 101823
SPECI
KTIW 101819Z 19013KT 10SM FEW009 BKN013 OVC020 08/06 A3012=

0000012900
038
SPCN31 CWAO 101819
SPECI CYEG 101819Z 24009KT 15SM SCT034 SCT077 BKN120 M03/M05 A2945
 RMK SC3AC1AC3 SLP012=

0000010700
039
SABW31 VGHS 101820
METAR VGHS 101820Z 00000KT 1200 BR NSC 16/13 Q1014 TEMPO S/VIS 1000M=

0000013300
040
SAMO31 ZMUB 101830 CCA
METAR COR ZMUB 101830Z VRB01MPS 5000NW FU NSC M32/M35 Q1024 NOSIG
 RMK
 QFE660.1 72 NT=

0000009300
041
SAEA20 HKNC 101800 RRB
METAR HKNC 101800Z 09010KT 9999 BKN019 20/12 Q1022=

0000009900
042
SPNG31 YBBN 101800 RRA
SPECI AYPY 101800Z 00000KT 2000M +FOG BKN003 25/25 Q1005=

0000009500
043
SAQB31 LQSM 101830
METAR LQSA 101830Z VRB02KT 9999 BKN060 07/04 Q1021 NOSIG=

0000013100
044
SACN62 CYXX 101800
METAR CYXX 101800Z 22007KT 15SM OVC025 07/ A3001 RMK SC8 INTMT -RA DP
 5.2 VIA CYXC SLP163=

0000066300
045
SAFI31 EFHK 101820
METAR EFHK 101820Z 35014KT 9999 FEW008 BKN014 M00/M02 Q0989 TEMPO
BKN015=
METAR EFJY 101820Z AUTO 36007KT 9999 OVC009 M06/M07
 Q0994=
METAR EFKU 101820Z AUTO 02010KT 9999 -SN OVC015 
M07/M09 Q0995=
METAR EFOU 101820Z AUTO 06009KT 030V100 9999 -SN FEW032/// OVC038/// 
M11/M13 Q1003=
METAR EFRO 101820Z AUTO 04017KT 1800 BR BKN115 
M15/M17 Q1007=
METAR EFTP 101820Z AUTO 01006KT 8000 -SG FEW008 
BKN011 OVC014 M02/M03 Q0993=
METAR EFTU 101820Z AUTO 01007KT 340V040 9999 -SN OVC009/// 00/M01 
Q0992 R08/29//95=
METAR EFVA 101820Z AUTO 03007KT 7000 SG FEW013/// OVC026/// M07/M08 
Q0998 R16/41//95=

0000048100
046
SAUK31 EGGY 101820
METAR EGBB 101820Z 17006KT CAVOK 07/06 Q1010=
METAR EGCC 101820Z 18012KT 9999 -RA FEW031 SCT046 07/05 Q1008=
METAR EGKK 101820Z 21005KT 9999 -RA FEW007TCU SCT011 BKN018 08/07
    Q1014=
METAR EGLL 101820Z 21008KT 9999 SCT040 08/06 Q1013=
METAR EGPF 101820Z 24006KT CAVOK 03/02 Q1006=
METAR EGPH 101820Z 23007KT CAVOK 05/04 Q1005=
METAR EGPK 101820Z 15002KT 9999 FEW028 04/03 Q1006=
METAR EGSS 101820Z 20007KT CAVOK 07/06 Q1013=

0000050400
047
SAUK32 EGGY 101820
METAR EGAA 101820Z 24004KT 9999 FEW030 04/03 Q1007=
METAR EGAC 101820Z 27007KT 210V010 9999 FEW010 SCT025 06/03
    Q1007=
METAR EGFF 101820Z 23006KT 9999 FEW033 08/07 Q1011=
METAR EGGW 101820Z 20006KT 170V230 9999 FEW012 07/06 Q1012=
METAR EGLC 101820Z 21010KT 9999 FEW021 09/06 Q1014=
METAR EGNM 101820Z 22006KT 180V260 9999 SCT015 07/05 Q1007=
METAR EGNX 101820Z 22015KT 9999 FEW035 07/05 Q1010=
METAR EGPD 101820Z 27006KT CAVOK 06/02 Q1003 NOSIG=

0000038200
048
SAUK33 EGGY 101820
METAR EGGD 101820Z 20006KT 9999 SCT018 BKN049 07/06 Q1011=
METAR EGGP 101820Z NIL=
METAR EGHI 101820Z VRB02KT 9999 SCT014 08/06 Q1014 =
METAR EGNS 101820Z NIL=
METAR EGNT 101820Z 23011KT 9999 FEW030 08/05 Q1005=
METAR EGNV 101820Z 18012KT 9999 FEW020 07/04 Q1006=
METAR COR EGPB 101820Z 24020KT 9999 FEW018 SCT033 07/04 Q0999 NOSIG=

0000035600
049
SAUK34 EGGY 101820
METAR EGHE 101820Z NIL=
METAR EGHK 101820Z NIL=
METAR EGHQ 101820Z 20010KT 9999 FEW018 09/07 Q1012=
METAR EGJA 101820Z NIL=
METAR EGJB 101820Z 19008KT 9999 FEW015 09/07 Q1015=
METAR EGJJ 101820Z 17011KT 4000 BR BKN003 07/07 Q1015 TEMPO 2000
    BKN002=
METAR EGTE 101820Z 20008KT 9999 FEW030 09/07 Q1012=

0000045900
050
SAUK35 EGGY 101820
METAR EGHH 101820Z 21007KT 6000 SHRA FEW014 SCT028 09/08 Q1013=
METAR EGKA 101820Z 25013KT 9999 SCT010 09/07 Q1014=
METAR EGKB 101820Z 21008KT 9999 VCSH SCT030 07/06 Q1014 =
METAR EGLF 101820Z 20010KT CAVOK 08/06 Q1013=
METAR EGMC 101820Z 21012KT 9999 SCT020 08/06 Q1013=
METAR EGMD 101820Z 22014KT 9999 FEW009 09/07 Q1015=
METAR EGMH 101820Z 21010KT 9999 FEW016 SCT022 07/06 Q1015 =
METAR EGTC 101820Z NIL=

0000033700
051
SAUK36 EGGY 101820
METAR EGBE 101820Z 20008KT CAVOK 08/05 Q1011=
METAR EGBJ 101820Z 18009KT 9999 FEW030 09/05 Q1011=
METAR EGCN 101820Z 18011KT CAVOK 07/05 Q1010=
METAR EGSC 101820Z NIL=
METAR EGSD 101820Z NIL=
METAR EGSH 101820Z 19008KT CAVOK 07/05 Q1012=
METAR EGVN 101820Z NIL=
METAR EGWU 101820Z NIL=

0000038500
052
SAUK37 EGGY 101820
METAR EGAE 101820Z 28006G16KT 230V320 CAVOK 03/02 Q1007=
METAR EGNC 101820Z NIL=
METAR EGNH 101820Z 16013KT 7000 -RA BKN021 08/07 Q1007=
METAR EGNJ 101820Z 19013KT CAVOK 07/05 Q1009=
METAR EGNO 101820Z NIL=
METAR EGNR 101820Z NIL=
METAR EGPE 101820Z 19002KT 9999 FEW040 01/M01 Q1003=
METAR EGPI 101820Z NIL=
METAR EGPN 101820Z NIL=

00000000