0000070200
373
SAFR36 LFPW 101830
METAR LFBA 101830Z AUTO 08004KT 050V110 9999 NSC 10/08 Q1014=
METAR LFBE 101830Z AUTO 00000KT 9000 NSC 07/06 Q1014=
METAR LFGJ 101830Z AUTO 05003KT 9999 NSC 06/03 Q1018=
METAR LFJR 101830Z AUTO 06006KT 2400 BR VV/// 08/07 Q1016=
METAR LFMD 101830Z AUTO VRB02KT 8000 OVC025 10/09 Q1020=
METAR LFMH 101830Z AUTO 14004KT 7000 NSC 07/05 Q1017=
METAR LFOT 101830Z 06008KT 0250 R20/1700U FG VV/// 06/06 Q1016
NOSIG=
METAR LFPN 101830Z AUTO 15005KT 120V180 9999 OVC006 06/04 Q1017=
METAR LFRC 101830Z AUTO 17011KT 9999 OVC006 06/05 Q1015=
METAR LFRG 101830Z AUTO 20008KT 9999 BKN006 04/04 Q1017=
METAR LFRK 101830Z AUTO 13006KT 9999 NSC 03/03 Q1016=

0000009800
374
SADL35 EDZO 101820 RRA
METAR EDHI 101820Z 24009KT 9999 BKN019 06/05 Q1012 RERA=

0000068300
375
SAFR37 LFPW 101830
METAR LFAQ 101830Z AUTO 19006KT 8000 OVC010 05/04 Q1018=
METAR LFAT 101830Z AUTO 15006KT 9999 OVC012 06/04 Q1017=
METAR LFLN 101830Z AUTO 10002KT 9999 NSC 06/04 Q1017=
METAR LFPM 101830Z AUTO VRB03KT 9999 OVC005 06/04 Q1018=
METAR LFPT 101830Z AUTO 19002KT 9999 OVC011 05/03 Q1017=
METAR LFRH 101830Z AUTO 13006KT 4800 -RA BR OVC002 09/08 Q1015=
METAR LFRQ 101830Z AUTO 00000KT 0500 R28///// FG OVC003 09/08 Q1015=
METAR LFRT 101830Z AUTO 16004KT 4500 BR BKN003 BKN029 OVC035 07/06
Q1015=
METAR LFSD 101830Z AUTO 32003KT 9999 NSC 05/03 Q1018=
METAR LFTW 101830Z AUTO 00000KT 9999 OVC025 11/05 Q1019=
METAR LFBU 101830Z NIL=

0000058300
376
SASP31 LEMM 101830
METAR LEMD 101830Z 35005KT CAVOK 10/05 Q1014 NOSIG=
METAR LEBL 101830Z 33001KT 7000 FEW013 10/06 Q1018 NOSIG=
METAR LEPA 101830Z 05002KT CAVOK 12/11 Q1017 NOSIG=
METAR LEZL 101830Z 00000KT CAVOK 13/09 Q1013 NOSIG=
METAR LEMG 101830Z 22002KT 9999 FEW020 13/11 Q1015 NOSIG=
METAR LEVC 101830Z VRB01KT 7000 OVC015 12/08 Q1018 NOSIG=
METAR LEAL 101830Z 06010KT 9000 FEW010 14/11 Q1017 NOSIG=
METAR LEIB 101830Z 00000KT 9999 SCT015 BKN020 14/11 Q1017 NOSIG=
METAR LEVX 101830Z VRB02KT 6000 SCT012 FEW015TCU BKN040 10/09
Q1015 NOSIG=

0000075100
377
SASP32 LEMM 101830
METAR COR LEAS 101830Z 00000KT 6000 FEW002 SCT007 BKN015 10/10
Q1016 REDZ TEMPO 4000 BR BKN007=
METAR LEBB 101830Z 00000KT CAVOK 10/09 Q1015 NOSIG=
METAR LECO 101830Z VRB01KT 9999 FEW024 10/08 Q1016=
METAR LEGE 101830Z 00000KT 7000 BKN017 09/07 Q1018=
METAR LEST 101830Z VRB01KT 9999 SCT007 08/07 Q1016 NOSIG=
METAR LEZG 101830Z VRB02KT 2900 BR BKN002 BKN004 06/06 Q1017=
METAR LESO 101830Z 00000KT CAVOK 09/08 Q1014=
METAR LEVT 101830Z 26005KT 230V300 9000 NSC 07/04 Q1015=
METAR LERS 101830Z VRB01KT 8000 BKN021 11/07 Q1018=
METAR LEMH 101830Z VRB02KT 9999 FEW014 11/10 Q1018=
METAR LEAM 101830Z 04011KT 9999 FEW020 SCT080 15/09 Q1015=
METAR LEGR 101830Z VRB01KT 9999 FEW100 12/06 Q1014=

0000017900
378
SASP33 LEMM 101830
METAR LEVD 101830Z 05003KT CAVOK 05/04 Q1014=
METAR LEVS 101830Z 34003KT CAVOK 12/00 Q1014=
METAR LESA 101830Z VRB01KT CAVOK 06/04 Q1014=

0000037900
379
SACR31 LEMM 101830
METAR GCLP 101830Z 01011KT 9999 FEW028 19/11 Q1013 NOSIG=
METAR GCXO 101830Z 31018KT 9999 FEW015 13/08 Q1015 NOSIG=
METAR GCTS 101830Z VRB02KT 9999 FEW042 19/11 Q1013 NOSIG=
METAR GCRR 101830Z 05010KT 9999 FEW021 17/13 Q1013=
METAR GCFV 101830Z 04010KT 9999 FEW020 17/12 Q1013=
METAR GCLA 101830Z 02007KT 340V050 CAVOK 21/09 Q1013=

0000024500
380
SASP34 LEMM 101830
METAR LEDA 101830Z NIL=
METAR LEJR 101830Z 00000KT CAVOK 13/11 Q1013=
METAR LELL 101830Z NIL=
METAR LEPP 101830Z 03001KT CAVOK 07/06 Q1016=
METAR LEXJ 101830Z 24003KT 220V280 9999 BKN015 12/10 Q1016=

0000008800
381
SASP39 LEMM 101830
METAR LETL 101830Z AUTO 12006KT CAVOK 06/01 Q1016=

0000009500
382
SAUK37 EGGY 101820 RRC
METAR EGPI 101820Z AUTO 30007KT 9999 NCD 04/02 Q1006=

0000010000
383
SAUK38 EGGY 101820 RRA
METAR EGPU 101820Z AUTO 23007KT 9999 NCD 03/01 Q1005 RERA=

0000008500
384
SPCN44 CWAO 101841
SPECI CYUS 101841Z AUTO 27009KT CLR M36/ A2938=

0000032200
385
FTUS73 KWBC 101842 AAA
TAF AMD
KBRL 101839Z 1019/1118 13010KT 1 1/2SM -RA BR OVC002
     FM102000 16009KT 1SM -RA BR OVC002
     FM110100 18003KT 1/2SM -RA FG OVC002
     FM110700 26005KT 1SM -FZRASN BR OVC003
     FM110900 27010KT 2SM -SN BR OVC004
     FM111300 28011KT 4SM BR VCSH OVC006=

0000014700
386
FTUS41 KWBC 101842 AAA
TAF AMD
KERI 101841Z 1019/1118 18011KT P6SM OVC015
     FM110500 17015G25KT 4SM -RA BR BKN015 OVC030=

0000014700
387
FTUS71 KWBC 101842 AAA
TAF AMD
KERI 101841Z 1019/1118 18011KT P6SM OVC015
     FM110500 17015G25KT 4SM -RA BR BKN015 OVC030=

0000027800
388
FTUS72 KWBC 101842 AAA
TAF AMD
KROW 101840Z 1019/1118 29017G27KT P6SM SKC
     FM110100 28010KT P6SM SKC
     FM111500 17005KT P6SM SKC=
KTCC 101840Z 1019/1118 29017KT P6SM FEW150
      TEMPO 1020/1024 29020G30KT
     FM110100 27011KT P6SM SCT250=

0000010700
389
SANT31 KWBC 101800 RRC
METAR
GVAC 101830Z NIL=
LPBJ 101830Z NIL=
LPLA 101830Z NIL=

0000014200
390
SAPA31 KWBC 101800 RRD
METAR
PKWA 101840Z AUTO 06017G24KT 10SM BKN026 BKN031 BKN050 27/21 A2979
     RMK AO2 T02710214=

0000009900
391
SAUS72 KWBC 101800 RRG
METAR
KBQK 101835Z AUTO 14005KT 5SM OVC005 20/19 A3014=

0000010900
392
SAUS73 KWBC 101800 RRH
METAR
KIKK 101835Z AUTO 14011KT 4SM BR BKN005 OVC010 02/01 A2986=

00000000