0000008900
193
SAMP31 LMMM 110100 RRA
METAR HLLT 110050Z
17006KT CAVOK 10/05 Q1023=

0000009300
194
SAAI41 FHAW 110050
METAR FHAW 110050Z 13009KT 9999 FEW020 24/19 Q1014 BLU=

0000035700
195
SASW31 LSSW 110050
METAR LSZH 110050Z 08002KT 0400 R14/0650N R16/0600N R28/0550N
    R34/0600N FG VV001 02/01 Q1019 BECMG 0200=
METAR LSGG 110050Z 00000KT CAVOK 01/00 Q1018 NOSIG=
METAR LSZB 110050Z AUTO VRB01KT 1600 R14/0900N FZFG FEW002 SCT120
    M01/M01 Q1018=
METAR LSZA 110050Z AUTO 16002KT 9999 BKN043 BKN047 08/06 Q1021=

0000055700
196
SASW39 LSSW 110050
METAR LSMA 110050Z AUTO 00000KT 0650NDV R01/P2000N R19/0550V0800U FG
           FEW002 BKN120 00/M00 Q1019 RMK RED=
METAR LSMD 110050Z AUTO VRB01KT 0350NDV R11/0400N R29/0550N FG VV000
           02/01 Q1019 RMK RED=
METAR LSME 110050Z AUTO 00000KT 1700NDV FG OVC002 03/03 Q1019 RMK
           AMB=
METAR LSMM 110050Z AUTO VRB01KT 4400NDV FEW110 M00/M01 Q1018 RMK GRN=
METAR LSMP 110050Z AUTO 00000KT 8000NDV SCT130 M00/M00 Q1019 RMK BLU=
METAR LSMS 110050Z AUTO VRB02KT 7000NDV NCD 03/02 Q1019 RMK GRN=

0000010200
197
SANC01 NWWW 110030
METAR NWWW 110030Z AUTO 14017KT 100V180 9999 FEW056 31/13 Q1011=

0000009400
198
SPCN46 CWAO 110051
SPECI CYBN 110051Z AUTO 15009KT 3/8SM VV001 01/01 A3000=

0000184800
199
SPUS70 KWBC 110020
SPECI
KUTS 110016Z AUTO 20011G16KT 10SM BKN010 BKN014 19/18 A2978 RMK
     AO2 CIG 006V013=
KYIP 110016Z AUTO 14007KT 1 3/4SM BR OVC002 03/02 A2988 RMK AO2
     TSNO=
KELD 110016Z AUTO 18009KT 7SM -RA OVC009 16/15 A2975 RMK AO2
     RAB2359 P0000 T01560150 TSNO=
KEST 110016Z AUTO 22003KT 1 1/4SM BR OVC004 M01/M01 A2952 RMK AO2
     T10111011=
KEYE 110016Z AUTO 15005KT 1 1/4SM -RA BR OVC003 05/04 A2981 RMK
     AO2 P0002 T00500044=
KFDY 110016Z AUTO 14011KT 1/2SM FG VV002 03/03 A2985 RMK AO2=
KFOK 110016Z 33003KT 1SM BR BKN001 BKN025 OVC031 03/01 A3036 RMK
     AO2 RAE2358 P0000=
KINT 110016Z 04005KT 4SM -RA BR OVC003 03/03 A3019 RMK AO2
     P0003=
KIOW 110016Z AUTO 00000KT 1 1/2SM BR OVC004 01/01 A2955 RMK
     AO2=
KM19 110016Z AUTO 00000KT 2 1/2SM RA BR BKN016 BKN090 07/07 A2978
     RMK AO2 P0005=
KMDH 110016Z AUTO 28011G19KT 4SM RA BR BKN009 OVC018 08/06 A2976
     RMK AO2 WSHFT 0002 PRESRR P0007 T00780061=
KCGI 110016Z AUTO 16008KT 5SM -RA BR FEW010 BKN023 OVC060 07/07
     A2974 RMK AO2 P0004 T00720067=
KAWM 110017Z AUTO 17014KT 10SM BKN024 OVC034 13/10 A2975 RMK
     AO2=
KCLM 110017Z AUTO 06003KT 6SM -RA BR OVC003 07/06 A2986 RMK AO2
     P0001 T00720061=
KDCA 110017Z 05004KT 2SM -RA BR OVC008 03/02 A3030 RMK AO2
     DZE2358RAB2358 P0004=
KLNR 110017Z AUTO 08006KT 1 3/4SM RA BR OVC009 01/00 A2954 RMK AO2
     PRESFR P0002 T00060000=
KLUK 110017Z 17009KT 140V210 10SM SCT026 OVC034 09/07 A2989 RMK
     AO2 T00940072=
KRDU 110017Z 03004KT 1 1/2SM -RA BR BKN003 OVC022 06/06 A3019 RMK
     AO2 SFC VIS 2 P0002=
KSPB 110017Z AUTO 15006KT 10SM BKN023 BKN030 OVC047 11/08 A2999
     RMK AO2 T01060078=
KSPI 110017Z 18017G27KT 10SM -RA BKN006 BKN048 OVC095 05/05 A2962
     RMK AO2 PK WND 15029/0002 P0001=

0000011200
200
SPUS41 KWBC 110020
SPECI
KDOV 110018Z AUTO 07002KT 1SM R01/2000FT -DZ BR VV001 04/04 A3028=

0000009700
201
SPUS41 KWBC 110020
SPECI
KINT 110016Z 04005KT 4SM -RA BR OVC003 03/03 A3019=

0000009500
202
SACA31 KWBC 110000 RRB
METAR
MKJS 110000Z 11010KT 9999 FEW022 26/23 Q1015=

0000033600
203
FTUS31 KWBC 110039 AAA
TAF AMD
KDTW 110038Z 1101/1206 16010KT 3SM BR OVC006 WS020/19043KT
      TEMPO 1101/1104 1SM -SHRA BR BKN004
     FM110400 16014KT 2SM -RA BR OVC004 WS020/19043KT
      TEMPO 1105/1109 1SM RA BR OVC002
     FM111200 18010KT 2SM SHRA BR OVC004
     FM111700 24012G20KT 6SM BR OVC010=

0000025100
204
FTUS43 KWBC 110039 AAA
TAF AMD
KPIA 110037Z 1101/1124 20011KT 4SM BR OVC003
     FM110600 24012KT 3SM BR OVC004
     FM111400 26012G18KT 4SM BR OVC015
     FM111700 28013G22KT P6SM BKN025
     FM112100 27012KT P6SM SCT250=

0000076300
205
FTUS73 KWBC 110039 AAA
TAF AMD
KDTW 110038Z 1101/1206 16010KT 3SM BR OVC006 WS020/19043KT
      TEMPO 1101/1104 1SM -SHRA BR BKN004
     FM110400 16014KT 2SM -RA BR OVC004 WS020/19043KT
      TEMPO 1105/1109 1SM RA BR OVC002
     FM111200 18010KT 2SM SHRA BR OVC004
     FM111700 24012G20KT 6SM BR OVC010=
KMKG 110038Z 1101/1124 14011KT 2SM RA BR OVC007
     FM110300 15014G21KT 1SM RA BR OVC005
     FM110500 18012G18KT 1/2SM -RA FG OVC003
     FM111000 21007KT 1SM BR OVC003
     FM111600 27012G20KT 2SM -SN BR OVC005=
KPIA 110037Z 1101/1124 20011KT 4SM BR OVC003
     FM110600 24012KT 3SM BR OVC004
     FM111400 26012G18KT 4SM BR OVC015
     FM111700 28013G22KT P6SM BKN025
     FM112100 27012KT P6SM SCT250=

0000017100
206
SALV32 EVRA 110050
METAR EVLA 110050Z AUTO 30006KT 9999 OVC017 02/M01 Q1002=
METAR EVVA 110050Z AUTO 30014KT 9999 FEW009 BKN016 OVC020 02/00 
Q1001=

0000015700
207
SADN33 EKCH 110050
METAR EKKA 110050Z 23011KT 9999 FEW014 BKN035 06/05 Q1005=
METAR EKSP 110050Z 25015KT 9999 FEW011 BKN018 06/05 Q1008=

0000016200
208
SAUS71 KWBC 110000 RRF
METAR
KLCK 110035Z AUTO 13007KT 10SM SCT023 SCT120 08/06 A2993=
KPQI 110035Z AUTO 17003KT 10SM SCT110 M10/M16 A3023=

0000010000
209
SAUS72 KWBC 110000 RRE
METAR
KBQK 110035Z AUTO 11005KT 10SM OVC013 18/18 A3012=

0000026300
210
SAUS73 KWBC 110000 RRG
METAR
KCIU 110035Z AUTO 12010KT 6SM OVC008 M02/M02 A2979=
KELO 110033Z AUTO 17005KT 10SM OVC013 M05/M06 A2949=
KIKK 110035Z AUTO 15014KT 5SM -RA OVC004 04/04 A2965=
KLBL 110035Z AUTO 30007KT 10SM CLR 02/M11 A2975=

0000009500
211
SAUS74 KWBC 110000 RRD
METAR
KOTH 110035Z 15004KT 10SM OVC028 12/11 A3009=

0000029500
212
SAUS75 KWBC 110000 RRE
METAR
PADK 110036Z AUTO 21018G33KT 7SM SCT018 SCT031 BKN046 03/M02
     A2888=
PAGS 110036Z AUTO 12004KT 10SM SCT017 OVC024 02/01 A2943=
PAUN 110036Z AUTO 09016KT 10SM SCT080 M14/M22 A2959=
PAVD 110036Z 10SM FEW015 FEW090 SCT100 M06/M09 A2934=

00000000