0000216100
333
SPUS70 KWBC 101908
SPECI
KAHN 101904Z 06007KT 2 1/2SM BR OVC005 08/07 A3016 RMK AO2 RAE1858
     P0000=
KHUT 101904Z 31011KT 6SM HZ BKN021 04/02 A2958 RMK AO2
     T00440017=
KLNS 101904Z 00000KT 2 1/2SM BR OVC015 02/00 A3034 RMK AO2=
KMCI 101904Z 19009KT 1SM R19R/P6000FT HZ BKN004 OVC009 04/M01
     A2955 RMK AO2 SFC VIS 4 T00441006=
KMIV 101904Z AUTO 00000KT 2SM -RA BR OVC002 04/03 A3035 RMK AO2
     RAB1859 P0000 T00390033=
KPKB 101904Z 00000KT 10SM SCT019 OVC032 10/07 A3017 RMK AO2
     T01000067=
KSRQ 101904Z VRB06KT 10SM SCT021 26/21 A3005 RMK AO2 T02610206=
KVLD 101904Z 17006KT 10SM SCT012 OVC022 23/19 A3009 RMK AO2=
PAHN 101904Z AUTO 10SM OVC015 02/00 A2945 RMK AO2 T00170000
     TSNO=
KMWA 101907Z 18010KT 4SM -RA OVC008 08/07 A2991=
PASO 101905Z AUTO 00000KT 10SM FEW023 BKN030 M01/M02 A2942 RMK AO2
     TSNO=
PAWI 101905Z AUTO 31006KT 10SM FEW007 SCT021 M14/M25 A2997 RMK AO2
     TSNO=
KADG 101905Z AUTO 17006KT 1 1/2SM BR OVC004 02/01 A3002 RMK AO2
     TSNO=
KARB 101905Z 18006KT 2 1/2SM BR OVC004 02/01 A3002 RMK AO2=
KBPK 101905Z AUTO 17007G14KT 4SM RA BR BKN009 OVC013 09/08 A2974
     RMK AO2 P0002=
KDAW 101905Z AUTO 00000KT 1 1/2SM -SN FEW017 BKN028 OVC034 M02/M04
     A3036 RMK AO2 P0000 T10171044=
KEET 101905Z AUTO 11003KT 3/4SM BR OVC002 10/10 A3007 RMK AO2
     T01000100=
KEWB 101905Z 00000KT 2 1/2SM R05/6000VP6000FT -RA BR OVC018 02/02
     A3039 RMK AO2 P0000 T00220017=
KGED 101905Z AUTO 00000KT 2SM -RA BR SCT002 BKN018 OVC024 04/03
     A3036 RMK AO2 P0001 T00440033=
KGVL 101905Z AUTO 09007KT 2SM BR OVC003 08/07 A3015 RMK AO2=
KHKY 101905Z 02003KT 3SM BR OVC003 07/06 A3021 RMK AO2 RAE05
     P0000=
KHYA 101905Z 18009KT 10SM -RA BKN023 BKN030 OVC046 04/01 A3039 RMK
     AO2 P0000 T00390011=
KM19 101905Z AUTO 18007KT 10SM SCT025 OVC031 08/06 A2989 RMK
     AO2=
KOTM 101905Z AUTO 14009KT 2 1/2SM BR OVC003 01/01 A2960 RMK AO2
     PRESFR T00110006 TSNO=
KOWD 101905Z 00000KT 3SM BR SCT009 OVC014 01/00 A3040 RMK AO2
     T00060000=
KRSW 101905Z 16008G14KT 10SM SCT024 27/20 A3007 RMK AO2
     T02670200=

0000011600
334
SPUS31 KWBC 101908
SPECI
KMCI 101904Z 19009KT 1SM R19R/P6000FT HZ BKN004 OVC009 04/M01
A2955=

0000009400
335
SPUS43 KWBC 101908
SPECI
KMWA 101907Z 18010KT 4SM -RA OVC008 08/07 A2991=

0000011600
336
SPUS43 KWBC 101908
SPECI
KSUS 101904Z 19008G14KT 5SM -RA BR BKN009 BKN015 OVC070 07/05
A2976=

0000010900
337
SABZ41 KWBC 101900 RRA
METAR
SBBG 101900Z 12007KT 9999 FEW020 SCT070 OVC080 20/19 Q1011=

0000021600
338
SACA33 KWBC 101900 RRA
METAR
TLPL 101900Z 08018KT 9999 SCT027 27/21 Q1014 NOSIG=
TTCP 101900Z 08010KT 9999 FEW015 SCT090 27/21 Q1013 NOSIG=
TTPP 101900Z 09013KT 9999 SCT018 29/21 Q1011 NOSIG=

0000021700
339
SACA35 KWBC 101900 RRA
METAR
MNPC 101900Z 09008KT 6000 VCRA BKN016TCU 28/25 Q1012 RESHRA TCURA
     W/NW 82/=
MNPC 101900Z 09008KT 6000 VCRA BKN016TCU 28/25 Q1012 RESHRA TCURA
     W/NW 82%=

0000009800
340
SAHA31 KWBC 101900 RRA
METAR
MTPP 1900Z 09011KT 9999 FEW030 32 1014/9 A29/97=

0000010200
341
SASA31 KWBC 101900 RRA
METAR
SYCJ 101900Z 02014KT 9999 SCT024 29/22 Q1010 NOOSIG=

0000009700
342
SASA42 KWBC 101900 RRA
METAR
SCTC 101900Z 23008KT 150V280 CAVOK 23/07 Q1018=

0000020300
343
FTUS31 KWBC 101909 AAA
TAF AMD
KOAK 101905Z 1019/1124 23004KT P6SM SCT200
     FM102030 27012KT P6SM SCT200
     FM110200 29007KT P6SM BKN250
     FM110900 24005KT P6SM OVC010=

0000060100
344
FTUS41 KWBC 101909 AAA
TAF AMD
KORH 101907Z 1019/1118 21009KT 4SM BR OVC005
     FM102100 21007KT P6SM OVC005
     FM110700 21005KT P6SM OVC008
     FM111200 18008KT 3/4SM -RA OVC003
     FM111400 18011G25KT 3/4SM -RA OVC003
     FM111500 19012G30KT 1/2SM -RA FG OVC001 WS020/19045KT=
KPVD 101908Z 1019/1118 00000KT 1 1/2SM -RASN BR OVC020
     FM102030 21005KT P6SM OVC020
     FM102200 20005KT P6SM OVC030
     FM102300 20004KT P6SM BKN015
     FM110800 18005KT P6SM OVC010
     FM111300 17009KT 2SM -RA OVC008
     FM111500 18013G28KT 1SM -RA BR OVC003=

0000060100
345
FTUS71 KWBC 101909 AAA
TAF AMD
KORH 101907Z 1019/1118 21009KT 4SM BR OVC005
     FM102100 21007KT P6SM OVC005
     FM110700 21005KT P6SM OVC008
     FM111200 18008KT 3/4SM -RA OVC003
     FM111400 18011G25KT 3/4SM -RA OVC003
     FM111500 19012G30KT 1/2SM -RA FG OVC001 WS020/19045KT=
KPVD 101908Z 1019/1118 00000KT 1 1/2SM -RASN BR OVC020
     FM102030 21005KT P6SM OVC020
     FM102200 20005KT P6SM OVC030
     FM102300 20004KT P6SM BKN015
     FM110800 18005KT P6SM OVC010
     FM111300 17009KT 2SM -RA OVC008
     FM111500 18013G28KT 1SM -RA BR OVC003=

0000020300
346
FTUS74 KWBC 101909 AAA
TAF AMD
KOAK 101905Z 1019/1124 23004KT P6SM SCT200
     FM102030 27012KT P6SM SCT200
     FM110200 29007KT P6SM BKN250
     FM110900 24005KT P6SM OVC010=

0000012100
347
SPCN51 CWAO 101903
SPECI CZCP 101903Z AUTO 28021KT 2 3/4SM -SN CLR M29/ A2937 RMK VSBY
VRBL 1.9V4.0=

0000012800
348
SACN62 CYYF 101900
METAR CYYF 101900Z 18008KT 15SM SCT070 BKN120 OVC200 02/M01 A2986 RMK
 AC3AC2CI3 SLP123=

0000125400
349
SAAG05 SABM 101900
METAR SAAR 101900Z  07006KT 9999  FEW030 SCT100
30/20 Q1006=
METAR SABE 101900Z  36009KT 9999  FEW035 BKN100
30/19 Q1007=
METAR SACO 101900Z  14013KT 9999  SCT030 FEW040CB
29/18 Q1011=
METAR SADF 101900Z  36010KT 9999  SCT025 FEW030TCU
 31/20 Q1006=
METAR SAEZ 101900Z 28004KT 190V330 9999 FEW050TCU SCT100 32/17 Q1007=
METAR SAME 101900Z 05008KT CAVOK 29/05 Q1010=
METAR SANT 101900Z  20003KT 9999  FEW035TCU  36/22
Q1003=
METAR SAOC 101900Z NIL=
METAR SARC 101900Z  34010KT 9999  SCT035TCU  35/23
Q1005=
METAR SARE 101900Z 02008KT 9999 FEW025 SCT030TCU 35/24 Q1005=
METAR SARF 101900Z NIL=
METAR SARI 101900Z  00000KT 9999  BKN030  31/22
Q1010 RESHRA=
METAR SARL 101900Z NIL=
METAR SARP 101900Z  32015KT 9999  SCT030TCU  35/21
Q1009=
METAR SASA 101900Z  09009KT 9999  FEW020TCU BKN100
 30/15 Q1009=
METAR SASJ 101900Z NIL=
METAR SAVC 101900Z NIL=
METAR SAWE 101900Z NIL=
METAR SAWG 101900Z  23021G31KT 9999  BKN035 SCT200
 13/M01 Q1009=
METAR SAWH 101900Z 23029G37KT 9999 FEW035 BKN040 08/03 Q1005=
METAR SAZM 101900Z  11014KT 9999  FEW025  22/11
Q1008=
METAR SAZN 101900Z  27012KT CAVOK 27/M06 Q1012=
METAR SAZS 101900Z  29022KT CAVOK 19/01 Q1017=

0000010400
350
SATH33 VTBB 101900 RRA
METAR VTUU 101900Z 03004KT 8000 NSC 20/17 Q1015 A3000
NOSIG=

0000012600
351
SAUK39 EGGY 101900
METAR EGUN 101858Z AUTO 21010KT 9999 SCT150 08/06 A2989 RMK AO2
     SLP125 T00770063=

0000071700
352
SAVN20 SVMR 101900
METAR SVCR 101900Z /////KT 9999 FEW016 35/22 Q1015=
METAR SVMC 101900Z /////KT 9999 SCT026 35/24 Q1012=
METAR SVBM 101900Z 11010KT 9999 FEW016 31/15 Q1015=
METAR SVBS 101900Z 18004KT 9999 FEW013 32/14 Q1015=
METAR SVMI 101900Z 05004KT 9999 SCT016 28/20 Q1014 NOSIG=
METAR SVFM 101900Z NIL=
METAR SVBC 101900Z NIL=
METAR SVCU 101900Z 02018KT 9999 FEW013 30/16 Q1011=
METAR SVMG 101900Z /////KT 9999 SCT010 30/19 Q1012 NOSIG=
METAR SVAC 101900Z 16005KT 9999 SCT020 32/18 Q1013=
METAR SVMT 101900Z NIL=
METAR SVBI 101900Z 07006KT 9999 FEW023 35/17 Q1010=
METAR SVCB 101900Z NIL=
METAR SVVA 101900Z 11008KT 9999 FEW016 33/19 Q1012=
METAR SVSO 101900Z NIL=

00000000