0000010000
213
SPUS41 KWBC 101805
SPECI
KINT 101801Z 04005KT 4SM BR BKN003 OVC008 03/02 A3028=

0000009800
214
SPUS42 KWBC 101805
SPECI
KFPR 101801Z 11005KT 10SM FEW020 SCT027 24/21 A3011=

0000009700
215
SPUS43 KWBC 101805
SPECI
KMKC 101801Z 00000KT 2 1/2SM BR OVC007 04/03 A2963=

0000028500
216
SAPM31 MPTO 101800
METAR
MPBO 101800Z 32004KT  260V020 9000 SCT020 SCT080 Q1014=
MPDA 101800Z 19006KT 9999 SCT020 31/23 Q1009=
MPMG 101800Z 02006KT 4800 SHRA SCT018TCU 26/24 Q1010 RWY WATER
PATCHES TEMPO TSRA=
MPPA 101800Z 34003KT 9999 SCT018CB Q1011 RERA=

0000049300
217
SAIY35 LIIB 101800
METAR LIQN 101800Z NIL=
METAR LIQW 101800Z NIL=
METAR LIRG 101755Z 03005KT 9999 SCT033 08/08 Q1022=
METAR LIRH 101755Z 07002KT 2000 BR SCT003 OVC020 09/05 Q1021=
METAR LIRL 101755Z 06003KT 9999 FEW015 BKN030 12/10 Q1021=
METAR LIRM 101755Z 04003KT 6000 SCT020 BKN070 11/10 Q1021=
METAR LIRS 101755Z /////KT 9999 FEW025 BKN035 12/08 Q1021=
METAR LIRU 101750Z 00000KT 7000 NSC 10/09 Q1021=
METAR LIRV 101755Z 11002KT 6000 BKN040 08/07 Q1020=

0000037300
218
SANK31 MNMG 101800
METAR
MNPC 101800Z 09010KT 6000 VCRA SCT016TCU 29/24 Q1013 TCURA E/S/SW 77%=
MNRS 101800Z 07010KT 9999 FEW018 29/21 Q1011=
MNJG  101800Z 36004KT 9999 BKN020 22/16 Q1013=
MNJU  101800Z 09012KT 9999 SCT020 31/22 Q1013 1AC080=
MNCH 101800Z 09010KT 9999 FEW025 33/18 Q1011 1AC090=
MNBL  101800Z 08008KT 9999 SCT018 29/24 Q1013=

0000031700
219
SAIY36 LIIB 101800
METAR LIBC 101750Z 02005KT CAVOK 10/10 Q1020=
METAR LIBF 101750Z 00000KT CAVOK 10/09 Q1021=
METAR LIBG 101800Z NIL=
METAR LIBP 101750Z VRB02KT 5000 BR NSC 09/06 Q1021=
METAR LIRI 101800Z NIL=
METAR LIRJ 101800Z NIL=
METAR LIRZ 101750Z VRB02KT 8000 BKN045 10/09 Q1021=

0000028100
220
SAIY37 LIIB 101800
METAR LICA 101750Z 20003KT CAVOK 11/09 Q1022=
METAR LICD 101750Z 21015KT CAVOK 17/12 Q1021=
METAR LICG 101755Z /////KT CAVOK 15/09 Q1020=
METAR LICR 101750Z 36015KT CAVOK 14/10 Q1020=
METAR LICT 101755Z 13003KT 9999 FEW025 13/11 Q1020=

0000017100
221
SATD31 TTPP 101800
METAR
TTPP 101800Z 13009KT 9999 -SHRA SCT016 SCT038 29/22 Q1012 NOSIG=
TTCP 101800Z 09010KT 9999 FEW015 SCT090 29/21 Q1013 NOSIG=

0000011300
222
SACN62 CYUL 101800
METAR CYUL 101800Z 09003KT 10SM -SN OVC017 M05/M08 A3030 RMK SC8
 SLP262=

0000012300
223
SACN62 CYTS 101800
METAR CYTS 101800Z 19012KT 15SM -SN BKN016 OVC028 M03/M07 A2988 RMK
 SC5SC3 SLP140=

0000010600
224
SACN62 CYTE 101800
METAR CYTE 101800Z 28017KT 15SM BKN011 M21/M24 A2919 RMK SC7 SLP891=

0000019000
225
SAAY31 RUMS 101800
METAR UDYZ 101800Z VRB01MPS 2300 BR BKN010 M09/M11 Q1028 R09/000070
NOSIG=
METAR UDSG 101800Z VRB01MPS 3200 BR NSC M19/M21 Q1023 R02/CLRD70
NOSIG=

0000020900
226
SAKY31 RUMS 101800
METAR UCFM 101800Z 11003MPS 3200 FU SKC M10/M16 Q1028 R08/CLRD70
TEMPO 1000 FU=
METAR UCFO 101800Z 17002MPS 3100 BR FU NSC M06/M10 Q1029 R12/CLRD70
TEMPO 1000 BR FU=

0000024100
227
SATA31 RUMS 101800
METAR UTDD 101800Z 00000MPS M0050 R09/M0050N FZFG VV001 M08/M10 Q1030
09CLRD70 NOSIG RMK QBB030 QFE704/0938=
METAR UTDL 101800Z 08009G13MPS 3300 BR SKC M02/M07 Q1029 NOSIG RMK
QFE732/0976 8809//70=

0000099200
228
SAKZ31 RUMS 101800
METAR UAAA 101800Z VRB01MPS 0400 R23R/1600U R23L/1100N BR FU FEW200
M14/M17 Q1030 8891//60 NOSIG=
METAR UACC 101800Z 20008MPS 9999 -SN DRSN BKN015 OVC032 M12/M15 Q1027
R22/8/0055 NOSIG RMK QFE739/0985=
METAR UAKK 101800Z 18009MPS CAVOK M14/M17 Q1028 R23/850555 NOSIG RMK
QFE724/0965=
METAR UAOO 101800Z 16005MPS 5000 BR BKN160 M05/M07 Q1026 NOSIG RMK
QFE758/1010=
METAR UARR 101800Z 29004MPS 9999 BKN008 OVC020 00/M00 Q1010
R22/650340 TEMPO 2000 BR BKN004 RMK QFE754/1005=
METAR UATE 101800Z 00000MPS 3000 BR NSC 00/M00 Q1021 R12/0///70 TEMPO
0200 FG BKN001 RMK QFE764/1018=
METAR UATG 101800Z 28005MPS 5000 BR OVC013 01/01 Q1016 R32/19//65
NOSIG RMK QFE764/1019=
METAR UATT 101800Z 18004MPS 9999 -SN BKN006 OVC014 M00/M01 Q1009
R13/491040 TEMPO 0500 FZDZ FZFG VV002 RMK QBB200 QFE737/0983=
METAR UAUU 101800Z 18008MPS 6000 -SHSN BLSN BKN008 OVC018CB M08/M11
Q1015 TEMPO 19012MPS 1000 SHSN BLSN BKN005CB RMK QFE745/0994=

0000011200
229
SAMF20 TFFR 101800
METAR TFFR 101805Z 06014KT 030V090 9999 SCT030 SCT047 27/21 Q1015
NOSIG=

0000010200
230
SAPL31 EPWA 101800 RRA
METAR EPWA 101800Z 26022G34KT 9999 BKN026 06/03 Q1007 NOSIG=

0000009800
231
SANL33 EHDB 101755 RRA
METAR EHJR 101755Z AUTO 21023G26KT  09/06 Q1012 W10/H16=

0000010200
232
SANL33 EHDB 101755 RRB
METAR EHSC 101755Z AUTO 22023G27KT 9999 08/07 Q1014 W08/H14=

00000000