0000022900
813
SAPS32 NFFN 101800
METAR NFTF 101800Z 13006KT 9999 FEW016TCU BKN280 27/25 Q1001=
METAR NFTL 101800Z NIL=
METAR NFTV 101800Z NIL=
METAR NLWW 101800Z NIL=
METAR NVSS 101800Z NIL=
METAR NVVV 101800Z NIL=

0000017300
814
FTCN34 CWAO 101800 AAA
TAF AMD CYXL 101815Z 1018/1102 18008KT 21/2SM -SN BR OVC006 TEMPO
     1018/1102 6SM -SN BR OVC012
    RMK NXT FCST BY 102000Z=

0000011300
815
SPAU32 AMMC 101815
SPECI YPGV 101815Z AUTO 11009KT 9000 // SCT005 SCT015 BKN110 25/24
Q1006=

0000041800
816
SATG20 DXXX 101800
METAR DXDP 101800Z 36004KT 7000 NSC 31/04=
METAR DXMG 101800Z 04004KT 2000 HZ NSC 33/07=
METAR DXNG 101800Z 06002KT 8000 NSC 29/03 Q1013 NOSIG=
METAR DXLK 101800Z 08004KT 8000 NSC 30/09 Q1009=
METAR DXSK 101800Z 08002KT 8000 NSC 30/09=
METAR DXAK 101800Z 00000KT 8000 NSC 31/19 Q1008=
METAR DXTA 101800Z NIL=
METAR DXXX 101800Z 19010KT 8000 FEW013 28/25 Q1009 NOSIG=

0000011000
817
SABX31 EBBR 101750 CCB
METAR COR EBOS 101750Z 19009KT 9999 FEW012 05/03 Q1016 TEMPO BKN010=

0000032700
818
SAAG41 KWBC 101800
METAR
SAAC NIL=
SAAV NIL=
SAGS NIL=
SANE NIL=
SANT 101800Z 14004KT 9999 FEW045TCU FEW200 36/22 Q1005=
SANU NIL=
SAOR NIL=
SARL 101800Z NIL=
SATM NIL=
SAVC 101800Z 07009KT 9999 SCT040 BKN200 18/02 Q1013=
SAVT NIL=
SAZB NIL=
SAZN 101800Z 27011KT CAVOK 26/M06 Q1012=

0000093800
819
SAAG31 KWBC 101800
METAR
SAAG NIL=
SAAP NIL=
SAAR 101800Z 05008KT 9999 FEW030 FEW042CB SCT100 BKN200 31/20
     Q1007=
SABE 101800Z 36008KT 9999 FEW035 30/20 Q1007=
SACO 101800Z 18009KT 9999 SCT030 FEW040CB 29/19 Q1011=
SADD NIL=
SAEZ 101800Z 31006KT 190V330 9999 FEW050TCU 32/19 Q1007=
SAME 101800Z 09006KT CAVOK 29/06 Q1010=
SARC 101800Z 32012KT 9999 SCT030 35/23 Q1005=
SARE 101800Z 34009KT 9999 SCT020 35/25 Q1005=
SARF 101800Z NIL=
SARF 101800Z 36013KT 9999 SCT025 36/23 Q1006=
SARI 101800Z NIL=
SARI 101800Z 36008KT 9999 BKN030 33/22 Q1011=
SARP 101800Z 32015KT 9999 SCT030 35/21 Q1009=
SASA 101800Z 00000KT 9999 FEW020TCU SCT100 32/17 Q1010=
SASJ 101800Z NIL=
SAWE 101800Z 05010KT 9999 FEW015 SCT020 10/08 Q1004=
SAWE 101800Z NIL=
SAWG 101800Z 23022G34KT 9999 BKN035 14/M03 Q1008=
SAZM 101800Z 14013KT 9999 FEW025 23/11 Q1008=
SAZS 101800Z 29018KT CAVOK 18/01 Q1017=

0000011300
820
SABZ41 KWBC 101800 RRA
METAR
SBBG 101800Z 10008KT 9999 -RA SCT005 BKN020 OVC070 21/21 Q1012=

0000023300
821
FTUS53 KWBC 101812 AAA
TAF AMD
KRKS 101809Z 1018/1118 28015G25KT P6SM SCT025 BKN040
      TEMPO 1018/1020 3SM -SN BLSN BKN015
     FM102000 28020G30KT 6SM BLSN SCT030
     FM110200 25015KT P6SM VCSH BKN040=

0000095100
822
FTUS54 KWBC 101812 CCA
TAF COR
KBCE 101810Z 1018/1118 30010KT P6SM SKC
     FM101900 32015G25KT P6SM SCT040 SCT070
     FM110300 29012KT P6SM SCT040 SCT070=
KCDC 101810Z 1018/1118 VRB04KT P6SM FEW050
     FM102100 VRB04KT P6SM SCT050 BKN100
     FM110300 VRB05KT P6SM SCT090 BKN150=
KENV 101810Z 1018/1118 VRB04KT P6SM SCT080 BKN120
     FM101900 28005KT P6SM SCT050 BKN080
     FM111200 22005KT P6SM SCT080 BKN120 AMD LTD TO CLD VIS AND
      WIND=
KOGD 101810Z 1018/1118 19010KT P6SM SCT020 OVC060
     FM102200 17010KT 6SM -RASN SCT010 BKN030
     FM110200 18007KT P6SM VCSH SCT020 BKN040
     FM110900 18007KT P6SM SCT040 BKN060
     FM111200 17010KT P6SM SCT060 BKN080=
KPVU 101810Z 1018/1118 12004KT P6SM SCT040 OVC070
     FM102000 16006KT 6SM -SHSN SCT030 BKN050
     FM110000 VRB04KT P6SM VCSH SCT020 BKN040
     FM110400 VRB04KT P6SM SCT040 BKN080 AMD LTD TO CLD VIS AND
      WIND=

0000023700
823
FTUS54 KWBC 101812 AAA
TAF AMD
KYKM 101811Z 1018/1118 25015G30KT P6SM FEW050 OVC080
     FM102200 24011KT P6SM VCSH OVC050
     FM110300 20011G20KT 6SM -RA BR OVC035
     FM111500 23016G30KT P6SM SCT040 BKN100=

0000140900
824
FTUS80 KWBC 101812 CCA
TAF COR
KBCE 101810Z 1018/1118 30010KT P6SM SKC
     FM101900 32015G25KT P6SM SCT040 SCT070
     FM110300 29012KT P6SM SCT040 SCT070=
KCDC 101810Z 1018/1118 VRB04KT P6SM FEW050
     FM102100 VRB04KT P6SM SCT050 BKN100
     FM110300 VRB05KT P6SM SCT090 BKN150=
KENV 101810Z 1018/1118 VRB04KT P6SM SCT080 BKN120
     FM101900 28005KT P6SM SCT050 BKN080
     FM111200 22005KT P6SM SCT080 BKN120 AMD LTD TO CLD VIS AND
      WIND=
KEVW 101810Z 1018/1118 25020G30KT P6SM VCSH OVC040
      TEMPO 1018/1020 3SM -SN BR BKN030
     FM102000 25022G32KT 5SM -SHSN BLSN OVC020
     FM110200 24020KT P6SM VCSH BKN030
     FM111500 22015G27KT P6SM SCT050 BKN070=
KLGU 101810Z 1018/1118 19010KT P6SM BKN040
     FM102200 27007KT P6SM VCSH SCT020 BKN030
     FM111500 22005KT P6SM SCT050 BKN070=
KOGD 101810Z 1018/1118 19010KT P6SM SCT020 OVC060
     FM102200 17010KT 6SM -RASN SCT010 BKN030
     FM110200 18007KT P6SM VCSH SCT020 BKN040
     FM110900 18007KT P6SM SCT040 BKN060
     FM111200 17010KT P6SM SCT060 BKN080=
KPVU 101810Z 1018/1118 12004KT P6SM SCT040 OVC070
     FM102000 16006KT 6SM -SHSN SCT030 BKN050
     FM110000 VRB04KT P6SM VCSH SCT020 BKN040
     FM110400 VRB04KT P6SM SCT040 BKN080 AMD LTD TO CLD VIS AND
      WIND=
KSGU 101810Z 1018/1118 VRB04KT P6SM SCT100 SCT150 AMD LTD TO CLD
      VIS AND WIND=

0000058300
825
FTUS80 KWBC 101812 AAA
TAF AMD
KASD 101808Z 1018/1118 14008KT P6SM OVC004
      TEMPO 1104/1108 2SM TSRA OVC006CB
     FM110800 19010KT 4SM BR OVC005
     FM111500 28009KT P6SM SCT250=
KRKS 101809Z 1018/1118 28015G25KT P6SM SCT025 BKN040
      TEMPO 1018/1020 3SM -SN BLSN BKN015
     FM102000 28020G30KT 6SM BLSN SCT030
     FM110200 25015KT P6SM VCSH BKN040=
KYKM 101811Z 1018/1118 25015G30KT P6SM FEW050 OVC080
     FM102200 24011KT P6SM VCSH OVC050
     FM110300 20011G20KT 6SM -RA BR OVC035
     FM111500 23016G30KT P6SM SCT040 BKN100=

0000011100
826
SPUS41 KWBC 101810
SPECI
KBDR 101806Z 00000KT 1 1/2SM BR BKN016 BKN036 OVC045 01/00 A3040=

0000009700
827
SPUS41 KWBC 101811
SPECI
KCAE 101807Z 36003KT 4SM -RA BR OVC003 10/09 A3019=

0000010600
828
SPUS41 KWBC 101811
SPECI
KDOV 101808Z AUTO 14001KT 2 1/2SM -RA BR BKN002 03/03 A3035=

0000150500
829
SPUS70 KWBC 101812
SPECI
KASH 101808Z 00000KT 1SM -SN BR SCT008 SCT015 BKN023 M02/M04 A3039
     RMK AO2 P0000=
KBAF 101808Z 21003KT 3/4SM R20/3500VP6000FT -SN OVC006 M03/M04
     A3038 RMK AO2 P0001 T10281044=
KCAG 101808Z AUTO 08004KT 4SM -SN BR BKN036 OVC044 M07/M09 A2991
     RMK AO2 P0000 T10671089=
KDUJ 101808Z AUTO 16003KT 2 1/2SM BR OVC003 02/00 A3018 RMK
     AO2=
KLOZ 101808Z AUTO 18005KT 10SM FEW020 SCT027 13/08 A3012 RMK AO2
     T01280078=
KPBF 101808Z AUTO 12007KT 10SM -RA BKN017 OVC100 11/09 A2990 RMK
     AO2 RAB1756 P0000=
KROG 101808Z 16015G24KT 10SM -RA FEW009 BKN030 OVC060 10/09 A2973
     RMK AO2 P0001=
KSBM 101808Z AUTO 17008KT 4SM BR OVC004 M01/M02 A2987 RMK AO2
     PRESFR T10111017=
PASI 101808Z 08005KT 4SM GS BR FEW014 BKN026 OVC036 02/01 A2958
     RMK AO2 RAB1755E02SNB1754E1755GSB02 P0004 T00220006=
PAWI 101808Z AUTO 32008KT 10SM SCT007 M14/M25 A2997 RMK AO2
     TSNO=
KDTN 101809Z 15009KT 3/4SM BR OVC002 12/12 A2990 RMK AO2=
KEEO 101809Z AUTO 12004KT 2 1/2SM -SN BKN026 BKN032 OVC042 M07/M09
     A2993 RMK AO2 P0000 T10671094=
KEWR 101809Z 00000KT 3SM BR BKN009 OVC030 01/M01 A3039 RMK AO2 SFC
     VIS 4=
KGVL 101809Z AUTO 08007KT 2SM BR OVC003 08/07 A3018 RMK AO2=
KNEW 101809Z 10006KT 7SM OVC005 14/12 A3005 RMK AO2 T01390117=
KOFP 101809Z AUTO 00000KT 1 1/2SM -RA BR OVC003 03/02 A3036 RMK
     AO2 P0001 T00280017=
KPWK 101809Z 16009KT 3SM BR OVC004 01/00 A2989 RMK AO2 PRESFR=

0000011700
830
SPUS41 KWBC 101812
SPECI
KBAF 101808Z 21003KT 3/4SM R20/3500VP6000FT -SN OVC006 M03/M04
A3038=

0000010500
831
SABZ42 KWBC 101800 RRB
METAR
SBPP 101800Z 30006KT 9999 BKN025 FEW030TCU 30/20 Q1013=

0000041100
832
SACA33 KWBC 101800 RRB
METAR
TFFF 101800Z AUTO 06015KT 030V090 9999 BKN033 BKN046 BKN056 28/ 20
     Q1014=
TFFR 101805Z 06014KT 030V090 9999 SCT030 SCT047 27/21 Q1015
     NOSIG=
TLPC 101800Z 08013G23KT 9999 FEW025 27/24 Q1014 NOSIG=
TNCM 101800Z 07014KT 9999 FEW019 SCT040 28/18 Q1017 A3003
     NOSIG=
TTPP 101800Z 13009KT 9999 -SHRA SCT016 SCT038 29/22 Q1012
     NOSIG=

00000000