0000009400
253
SPCN52 CWAO 101833
SPECI CWFD 101833Z AUTO 20019KT 1/2SM BKN006 M21/ A2878=

0000020300
254
SALJ31 LJLJ 101830
METAR LJLJ 101830Z 30002KT 9999 BKN033 06/05 Q1020 NOSIG=
METAR LJMB 101830Z 32004KT 6000 NSC 02/02 Q1020=
METAR LJPZ 101830Z 00000KT 3000 BR OVC015 10/09 Q1021=

0000008600
255
SAYE20 OYHD 111000
METAR OYHD 111000Z 19026KT 8000 FEW030 28/21 Q1015=
0000024100
256
SOAT10 KWAL 110958
FA8005BC 011095837 OT12 ID:KN-BASS-01 DT:2014 01 11 09 56
:RD -3118 -3097 -3105 -3097 -3102 -3105 -3093 -3116 -3097 -3118
:PR 0555 0540 0610 0549 0590 0543 0500 0570 0520 0588
:B 13.7V
 46+1NN 219E
0000012000
257
SICH01 SCSC 110900 RRD
AAXX 11094
85442 42465 11804 10190 20157 40115 53005 81500
  333 56400 81615=
0000010300
258
SAPK31 OPSK 110953
METAR OPSK 111000Z 36003KTS 6000 HZ SCT200  22/05 QNH.1019 RH.33 PC=
0000010000
259
SNVC25 LFPW 111000
BBXX
BAREU08 11104 99313 50721 46/// ///// 40119 52009
22244=
0000085800
260
SASN31 ESWI 110320
METAR ESGG 110320Z 24012KT 9999 OVC006 04/04 Q1001 R21/29//95=
METAR ESGJ 110320Z AUTO 24010KT 9999 DZ FEW008/// SCT010///
BKN013/// 04/04 Q1000=
METAR ESGP 110320Z 23010KT 9999 BKN013 OVC017 06/04 Q1001
R19/19//95=
METAR ESGT 110320Z NIL=
METAR ESMK 110320Z AUTO 25009KT 9999NDV FEW013/// SCT015///
BKN018/// 06/04 Q1006=
METAR ESMQ 110320Z AUTO 20005KT 9999 FEW014/// SCT032/// 02/02
Q1003=
METAR ESMS 110320Z 24011KT 9999 FEW009 BKN017 OVC037 05/04 Q1007
R17/29//95=
METAR ESMT 110320Z AUTO 23015KT 9999 BKN016/// BKN034/// 05/04
Q1004=
METAR ESMX 110320Z AUTO 23009KT 9999 FEW006/// SCT008/// BKN010///
04/03 Q1002=
METAR ESTA 110320Z AUTO 24016KT 9999 BKN009/// BKN010/// OVC038///
06/04 Q1005=
METAR ESTL 110320Z AUTO 24010KT 9999NDV FEW012/// SCT014///
OVC040/// 06/05 Q1006=

0000010100
261
SATH31 VTBB 110300 RRA
METAR VTPH 110300Z 35008KT 320V030 CAVOK 28/19 Q1016 NOSIG=

0000068600
262
SADL31 EDZO 110320
METAR EDDF 110320Z 08002KT 9999 4500W R25L/P2000N R25C/P2000N
     R25R/0900N BCFG FEW001 SCT250 M02/M02 Q1018 NOSIG=
METAR EDDH 110320Z 23010KT 9999 BKN010 06/04 Q1012 NOSIG=
METAR EDDK 110320Z 13003KT CAVOK 02/00 Q1017 NOSIG=
METAR EDDL 110320Z 15008KT CAVOK 02/01 Q1016 NOSIG=
METAR EDDM 110320Z VRB01KT 9999 1400N R26R/1300VP2000D
     R26L/1600VP2000U BCFG NSC M03/M03 Q1019 NOSIG=
METAR EDDN 110320Z 10004KT CAVOK M01/M01 Q1018=
METAR EDDS 110320Z VRB01KT 9999 3500NE BCFG MIFG NSC M02/M02
     Q1017=
METAR EDDT 110320Z 25010KT 9999 FEW025 BKN250 05/02 Q1014=
METAR EDDV 110320Z 24007KT 210V270 9999 BKN012 05/04 Q1014=

0000045500
263
SADL32 EDZO 110320
METAR EDDB 110320Z 23011KT 9999 FEW021 SCT120 BKN260 04/01 Q1015
     NOSIG=
METAR EDDC 110320Z 24006KT 9999 FEW038 BKN230 04/01 Q1016=
METAR EDDE 110320Z 22011KT CAVOK 02/00 Q1016=
METAR EDDG 110320Z 22009KT 9999 BKN011 05/03 Q1015 NOSIG=
METAR EDDP 110320Z 18007KT CAVOK 02/01 Q1016 NOSIG=
METAR EDDR 110320Z 07003KT CAVOK 00/M01 Q1017=
METAR EDDW 110320Z 22009KT 8000 BKN011 06/04 Q1013 TEMPO BKN008=

0000063000
264
SAFI31 EFHK 110320
METAR EFHK 110320Z 33012KT 9999 BKN009 M03/M05 Q0996 NOSIG=
METAR EFJY 110320Z AUTO 01006KT 9999 -SG OVC015 
M08/M10 Q0998=
METAR EFKU 110320Z AUTO 01010KT 9999 -SN OVC019 
M09/M11 Q0999=
METAR EFOU 110320Z AUTO 04007KT 360V090 9999 OVC058/// M14/M17 Q1006 
12410587=
METAR EFRO 110320Z AUTO 02013KT CAVOK M18/M21 
Q1009=
METAR EFTP 110320Z AUTO 03005KT 9999 SCT008 OVC010 
M04/M05 Q0998=
METAR EFTU 110320Z AUTO 01005KT 4500 -SN SCT005/// OVC007/// M03/M04 
Q0998 R08/19//80=
METAR EFVA 110320Z AUTO 03009KT 9999 -SN BKN029/// OVC037/// M08/M10 
Q1001 R16/49//95=

0000053800
265
SADN31 EKCH 110320
METAR EKCH 110320Z 24010KT 9999 BKN015 06/04 Q1007 NOSIG=
METAR EKBI 110320Z 23010KT 9999 SCT009 BKN018 06/05 Q1006=
METAR EKYT 110320Z 23014KT 9999 FEW008 SCT011 BKN018 07/06 Q1003=
METAR EKRK 110320Z AUTO 25013KT 9999NDV FEW011/// BKN014///
BKN037/// 06/04 Q1007=
METAR EKAH 110320Z AUTO 23006KT 160V280 9999NDV FEW014/// OVC017///
06/04 Q1006=
METAR EKEB 110320Z AUTO 23011KT 9999NDV OVC013/// 07/06 Q1007=
METAR EKRN 110320Z AUTO 26019KT 9999NDV BKN009/// BKN041///
06/06 Q1008=

0000016500
266
SADN32 EKCH 110320
METAR EKVJ 110323Z NIL=
METAR EKSB 110323Z NIL=
METAR EKSN 110323Z NIL=
METAR EKVD 110323Z NIL=
METAR EKOD 110323Z NIL=

0000052300
267
SADN34 EKCH 110320
METAR EKHN 110320Z AUTO 23008G21KT 180V300 7000NDV BKN010///
///// Q1008=
METAR EKHR 110320Z AUTO 24021KT 9999NDV FEW011/// SCT016///
BKN100/// 08/07 Q1006=
METAR EKHA 110320Z AUTO 23022KT 2200NDV 07/07 Q1006=
METAR EKHD 110320Z AUTO 24019KT 5000NDV 07/06 Q1003=
METAR EKTE 110320Z AUTO 22018KT 3800NDV -SHRA BR OVC001 07/06 Q1006=
METAR EKGC 110320Z AUTO 23021KT 9999NDV 07/07 Q1005=
METAR EKAV 110320Z AUTO 22016KT 9999NDV FEW014/// SCT022///
OVC032/// 06/04 Q1005=

0000011800
268
SPUS41 KWBC 110323
SPECI
KEWB 110319Z AUTO 14003KT 3/4SM R05/2200V3500FT BR OVC003 04/04
A3030=

0000010100
269
SPUS41 KWBC 110323
SPECI
KGSO 110319Z 03003KT 1 1/4SM -DZ BR OVC003 03/03 A3013=

0000010200
270
SPUS41 KWBC 110323
SPECI
KILG 110319Z AUTO 06004KT 1 1/2SM BR OVC002 03/03 A3023=

0000010700
271
SPUS43 KWBC 110323
SPECI
KPIA 110319Z 19012KT 3/4SM R13/P6000FT BR OVC002 04/03 A2955=

0000053600
272
SAUK31 EGGY 110320
METAR EGBB 110320Z AUTO 24007KT 9999 RA FEW030/// BKN038/// 07/06
    Q1010=
METAR EGCC 110320Z AUTO 33009KT 9999 -RA FEW016 SCT030 BKN038
    06/03 Q1011=
METAR EGKK 110320Z 20007KT 9999 SCT008 BKN011 08/07 Q1013=
METAR EGLL 110320Z 21007KT 9999 SCT023 BKN037 08/07 Q1012=
METAR EGPF 110320Z 21008KT 9999 -SHRA SCT022CB BKN041 02/00
    Q1009=
METAR EGPH 110320Z 23009KT CAVOK 00/M01 Q1008=
METAR EGPK 110320Z NIL=
METAR EGSS 110320Z 21011KT 9999 -RA BKN006 OVC013 07/06 Q1011=

00000000