0000010700
893
SPUS43 KWBC 101755
SPECI
KAPN 101752Z AUTO 17006KT 5SM BR SCT018 OVC050 M03/M06 A3002=

0000050200
894
SAFI33 EFHK 101750
EFJO 101750Z 02013KT 340V060 5000 -SN SCT012 BKN060 M09/M10 Q0992=
EFLP 101750Z AUTO 01012KT 340V040 1900 -SN FEW007 SCT010 BKN013
OVC023 M04/M05 Q0987=
EFMI 101750Z AUTO VRB06KT 7000 -SN OVC011 M06/M06 Q0991=
EFSA 101750Z AUTO 35010KT 310V040 4900 -SN FEW012 SCT018 BKN047
OVC065 M07/M08 Q0990=
EFUT 101750Z AUTO 36013KT 330V030 4800 -SN FEW009 BKN012 BKN017
M03/M04 Q0988=
EFVR 101750Z AUTO 01008KT 340V050 0350 +SN FEW013 BKN016 M07/M09
Q0992=

0000009600
895
SAIN34 VOMM 110940 RRA
METAR VOMM 110940Z 09007KT 8000 FEW020 29/19 Q1012 NOSIG=
0000110500
896
SAMX45 MMMY 101755
METAR MMMY 101752Z 30003KT 5SM  SKC 21/13 A2991 
      RMK SLP129 58001 992 HZY=
METAR MMAN 101740Z 05003KT 6SM  SKC 20/14 A2994 
      RMK SLP111 54000 956 HZY=
METAR MMMA 101740Z 15020G30KT 7SM  BKN020 24/19 A2993 
      RMK SLP173 50021 990 8/500 HZY=
METAR MMIO 101740Z 22010KT 10SM SKC 25/13 A3013=
METAR MMRX 101744Z 17008G18KT 10SM  FEW015 25/16 A2989 
      RMK SLP126 57006 993 8/500 HZY FU BLDU PRESFR=
METAR MMNL 101740Z 24005KT 5SM  OVC026 20/14 A2994 
      RMK SLP163 53002 992 8/5// HZY-BINOVC=
METAR MMCV 101746Z 17014G24KT 8SM  SKC 24/14 A2989 
      RMK SLP124 57013 992 HZY SC SE/SW ISOL CI=
METAR MMTC 101742Z 00000KT 10SM BKN080 BKN200 19/03 A3009
      RMK SLP147 52010 971 8/032 HZY=
METAR MMMV 101740Z 00000KT 8SM BKN080 20/// A3000 RMK 8/070 HZY=
METAR MMCU 101748Z 28005KT 10SM SCT200 17/00 A3011 RMK
      SLP150 57012 970 8/001=
METAR MMPG 101740Z 29005KT 7SM SCT040 BKN100 BKN200 15/12 A2997
RMK 8/571 HZY=
METAR MMCS 101744Z 28010KT 10SM SCT250 16/03 A3002 RMK SLP110
      52005 975 8/005 HZY =

0000114200
897
SAMX43 MMMZ 101800
METAR MMCL 101745Z 00000KT 10SM  OVC230 22/13 A3001 
      RMK SLP166 50010 900 8/007=
METAR MMCN 101741Z 23002KT 10SM  FEW200 21/08 A3000 
      RMK SLP159 8/001 HZY=
METAR MMDO 101741Z 15003KT 14SM  SCT250 16/M14 A3020 
      RMK SLP163 57002 967 8/004=
METAR MMGM 101741Z 00000KT 10SM  SKC 22/M01 A2999 RMK HZY=
METAR MMHO 101756Z  NIL=
METAR MMLM 101749Z 34007KT 10SM  SCT120 SCT200 23/04 A3002 
      RMK SLP166 8/032 HZY=
METAR MMLP 101744Z 35010KT 10SM  SCT040 SCT120 BKN200 20/15 A3005 
      RMK SLP224 52017 953 8/538 HZY=
METAR MMLT 101744Z 34008KT 8SM  BKN100 BKN200 19/09 A3003 
      RMK SLP169 8/038=
METAR MMML 101748Z 00000KT 10SM  SKC 17/M04 A3013 
      RMK SLP208 52026 928 ISOL-CI=
METAR MMMZ 101747Z 02006KT 15SM  FEW210 22/14 A2996 
      RMK SLP146 52003 957 8/002=
METAR MMSD 101750Z 32010KT 15SM  SCT140 BKN200 22/11 A3002 
      RMK SLP159 50011 900 8/072=
METAR MMSL 101741Z 14009KT 12SM  FEW120 SCT230 23/13 A2998 
      RMK 8/038 ISOL SC=
METAR MMTJ 101744Z 04003KT 8SM  SCT200 18/01 A3013 
      RMK SLP202 52016 911 8/009 HZY=

0000132100
898
FTCU31 MUHA 101755 COR
TAF
MUHA 101700Z 1018/1118 14012KT 9000 SCT020 
       BECMG 1103/1105 VRB02KT 
       BECMG 1115/1117 14012KT= 
MUPB 101700Z 1018/1118 13012KT 9000 FEW020 BKN200 
       TEMPO 1018/1102 4000 SHRA BKN015 
       BECMG 1103/1105 VRB03KT SCT020 
       BECMG 1115/1117 09013KT= 
MUSA 101700Z 1018/1118 11013KT 9000 SCT020 
       BECMG 1103/1105 VRB02KT 
       BECMG 1115/1117 10013KT= 
MUVR 101700Z 1018/1118 07013KT 9000 SCT020 
       TEMPO 1019/1102 4000 SHRA BKN015 
       BECMG 1103/1105 08003KT 
       BECMG 1115/1117 07013KT= 
MUNG 101700Z 1018/1024 09014KT 9000 SCT015= 
MUCL 101700Z 1018/1024 10015KT 9000 SCT020= 
MUCF 101700Z 1018/1024 21010KT 9000 SCT020= 
MUSC 101700Z 1018/1118 10013KT 9000 SCT020 
       BECMG 1103/1105 11003KT 
       BECMG 1115/1117 10013KT= 
MUCC 101700Z 1018/1118 09014KT 9000 SCT020 
       BECMG 1103/1105 07003KT 
       BECMG 1115/1117 09014KT= 
MUCM 101700Z 1018/1118 10014KT 9000 SCT020 
       BECMG 1103/1105 07004KT 
       BECMG 1115/1117 09014KT= 
MUHG 101700Z 1018/1118 10015KT 9000 SCT020 
       BECMG 1103/1105 08004KT 
       BECMG 1115/1117 09014KT= 
MUCU 101700Z 1018/1118 16012KT 9000 SCT020 
       BECMG 1100/1102 36005KT 
       BECMG 1115/1117 16012KT= 

0000017900
899
FTIY31 LIIB 101700 RRA
TAF LIRA 101700Z 1018/1118 VRB03KT 7000 SCT030 SCT060 TEMPO 1102/1106
1500 BR BKN007 BECMG 1107/1109 8000 SCT020 BECMG 1111/1113 CAVOK=

0000010000
900
SACS31 MROC 101800
METAR
MROC 101800Z 08011G21KT 9999 FEW030 27/11 A3000 NOSIG=

0000011600
901
SABZ20 SBEG 101800
METAR SBEG 101800Z 36005KT 9999 VCSH SCT017
FEW023TCU SCT100 29/24 Q1
008=

0000008900
902
SABZ21 SBNT 101800
METAR SBNT 101800Z 12018KT 9999 BKN028 30/20 Q1010=

0000011100
903
SAUK33 EGGY 101750 RRA
METAR EGNS 101750Z 31006KT 260V350 9999 -RA FEW014 07/06 Q1006 NOSIG=

0000010000
904
SAIL41 BIVM 101800
METAR
BIVM 101800Z 28014G28KT 7000 -SNRA OVC005 01/01 Q0989=

0000009000
905
SASU01 HSSS 101700
METAR HSSS 101700Z 34006KT CAVOK 21/M02 Q1017 NOSIG=

0000016600
906
FTCI41 ZBBB 101753
TAF ZPLJ 101507Z 1018/1118 04003MPS 9999 FEW040
TX17/1108Z TNM01/1100Z
BECMG 1103/1105 21006G12MPS BECMG 1111/1113 03004MPS=

0000009500
907
SANO37 ENMI 101750 RRA
METAR ENNO 101750Z 32003KT 9999 OVC005 M03/M03 Q0999=

0000040500
908
SAFI34 EFHK 101750
EFET 101750Z AUTO 00000KT CAVOK M30/M33 Q1013=
EFIV 101750Z AUTO 24002KT 9999 -IC OVC006 M31/M35 Q1015=
EFKE 101750Z AUTO 02014KT 350V050 3600 -SG BR BKN021 OVC048 M12/M15
Q1006=
EFKI 101750Z AUTO 05016KT 9999 -SN OVC026 M10/M12 Q0998=
EFKS 101750Z AUTO 04007KT 350V080 9999 -SG OVC045 M15/M18 Q1004=
EFKT 101750Z AUTO 03007KT 340V070 CAVOK M18/M21 Q1012=

0000046000
909
SASW39 LSSW 101750 RRA
METAR LSMA 101750Z AUTO 19003KT 160V240 7000NDV NCD 02/02 Q1019 RMK
           GRN=
METAR LSMD 101750Z AUTO 00000KT 6000NDV BKN075 04/04 Q1019 RMK GRN=
METAR LSME 101749Z AUTO 00000KT 0500NDV R04/0650D R22/0600V1000N FG
           NCD 03/02 Q1019 RMK RED=
METAR LSMM 101750Z AUTO 09003KT 020V140 9999NDV NCD 02/02 Q1019 RMK
           BLU=
METAR LSMP 101750Z AUTO 30001KT 9999NDV NCD 03/02 Q1019 RMK BLU=

0000039900
910
FTCA33 KWBC 101757
TAF
TAF TLPC 101500Z 1018/1118 08010G22KT 9999 SCT024
      TEMPO 1022/1112 SHRA BKN018=
TLPC 101500Z 1018/1118 08010G22KT 9999 SCT024 ????
      TEMPO 1022/1112 SHRA BKN018=
TAF TLPL 101500Z 1018/1118 08020G32KT 9999 SCT024
      TEMPO 1022/1112 SHRA BKN018=
TLPL 101500Z 1018/1118 08020G32KT 9999 SCT024 ????
      TEMPO 1022/1112 SHRA BKN018=

0000010600
911
SANO32 ENMI 101750 RRA
METAR ENRO 101750Z 09011KT 6000 -SN SCT007 BKN011 M12/M15 Q0995=

0000033600
912
SANL31 EHDB 101755
METAR EHAM 101755Z 22012KT 9999 FEW012 BKN018 08/06 Q1014 TEMPO
BKN012=
METAR EHBK 101755Z AUTO 22010KT 9999 NCD 05/03 Q1017 NOSIG=
METAR EHGG 101755Z AUTO 23011KT 9999 NCD 05/04 Q1013 NOSIG=
METAR EHRD 101755Z AUTO 21014KT 180V240 7000 FEW008 BKN010 BKN013
07/05 Q1015 TEMPO 9000 BKN011=

00000000