0000089000
613
FTUS71 KWBC 101927 AAA
TAF AMD
KERI 101924Z 1019/1118 18011KT P6SM BKN015 OVC045
      TEMPO 1019/1023 SCT015 OVC045
     FM110500 17015G25KT 4SM -RA BR BKN015 OVC030=
KHPN 101926Z 1019/1118 VRB04KT 5SM BR BKN008 OVC015
      TEMPO 1021/1024 2SM -DZ BR
     FM110000 VRB03KT 1SM BR BKN006 OVC010
      TEMPO 1102/1105 -RA
     FM110500 15003KT 3/4SM -RA BR BKN004 OVC009
     FM110800 15008KT 1/2SM -RA FG OVC003 WS020/19050KT
     FM111400 17011KT 1SM -RA BR OVC004 WS015/19050KT AMD NOT
      SKED=
KTEB 101926Z 1019/1118 VRB03KT 3SM BR FEW008 BKN012 OVC025
      TEMPO 1021/1024 2SM -DZ BR
     FM110000 VRB02KT 1SM BR SCT006 OVC012
      TEMPO 1102/1105 -RA BKN006 OVC012
     FM110500 15003KT 3/4SM -RA BR BKN005 OVC008
     FM110800 15007KT 3/4SM -RA BR OVC004 WS020/19050KT
     FM111400 17009KT 1SM -RA BR OVC004 WS015/19050KT=

0000052900
614
FTUS73 KWBC 101927 AAA
TAF AMD
KASE 101924Z 1019/1118 VRB03KT 1 1/2SM -SN BR SCT010 OVC025
     FM102000 34010G18KT 2SM -SN BLSN SCT015 BKN030
     FM110200 21005KT 3SM -SN BR SCT020 OVC030
     FM110700 21005KT P6SM VCSH SCT025 BKN040
      TEMPO 1108/1112 3SM BR SCT015 BKN020=
KPIA 101926Z 1019/1118 15010G18KT 2SM -RA BR VCTS OVC004CB
      TEMPO 1020/1022 2SM -TSRA BR
     FM110100 18012G20KT 2SM -RA BR OVC004
     FM110600 24012KT 3SM BR OVC004
     FM111400 26012G18KT P6SM OVC015=

0000009600
615
SPPR00 SPIM 101930
SPECI SPJR 101930Z 23008KT 9999 SCT025 BKN040 20/11 Q1023=

0000009500
616
SAQB31 LQSM 101930
METAR LQSA 101930Z VRB01KT 9999 BKN060 06/04 Q1021 NOSIG=

0000020600
617
FTFI31 EFHK 101700 AAA
TAF AMD EFTP 101927Z 1019/1118 02009KT 8000 -SN BKN010 TEMPO
     1019/1020 3000 BKN008 BECMG 1020/1022 9999 BKN015
     PROB30 TEMPO 1103/1115 3000 -SN BKN013=

0000010700
618
SANO38 ENMI 101920 RRA
METAR ENGC 101920Z 06016KT 9999 FEW022 BKN045 05/00 Q0999 W07/S5=

0000018200
619
SANL32 EHDB 101925
METAR EHEH 101925Z AUTO 21009KT 9999 OVC013 06/04 Q1016 
GRN 22008KT BKN011=
METAR EHKD 101925Z AUTO 21011KT 9999 OVC130 07/06 Q1013 
BLU=

0000042400
620
FTUS52 KWBC 101927 AAA
TAF AMD
KDRO 101924Z 1019/1118 31010G18KT P6SM SCT040
     FM110100 02009KT P6SM VCSH BKN050
     FM111200 24005KT P6SM VCSH SCT050 BKN090=
KGNV 101924Z 1019/1118 14008KT P6SM VCSH SCT015 SCT025 BKN040
      TEMPO 1020/1024 BKN025
     FM110200 14002KT 4SM BR BKN010 BKN020
     FM110600 15002KT 1SM BR BKN003 OVC006
     FM111400 19012G18KT P6SM VCSH BKN010 OVC020=

0000030800
621
FTUS53 KWBC 101927 AAA
TAF AMD
KASE 101924Z 1019/1118 VRB03KT 1 1/2SM -SN BR SCT010 OVC025
     FM102000 34010G18KT 2SM -SN BLSN SCT015 BKN030
     FM110200 21005KT 3SM -SN BR SCT020 OVC030
     FM110700 21005KT P6SM VCSH SCT025 BKN040
      TEMPO 1108/1112 3SM BR SCT015 BKN020=

0000150700
622
FTUS80 KWBC 101927 AAA
TAF AMD
KASE 101924Z 1019/1118 VRB03KT 1 1/2SM -SN BR SCT010 OVC025
     FM102000 34010G18KT 2SM -SN BLSN SCT015 BKN030
     FM110200 21005KT 3SM -SN BR SCT020 OVC030
     FM110700 21005KT P6SM VCSH SCT025 BKN040
      TEMPO 1108/1112 3SM BR SCT015 BKN020=
KDRO 101924Z 1019/1118 31010G18KT P6SM SCT040
     FM110100 02009KT P6SM VCSH BKN050
     FM111200 24005KT P6SM VCSH SCT050 BKN090=
KERI 101924Z 1019/1118 18011KT P6SM BKN015 OVC045
      TEMPO 1019/1023 SCT015 OVC045
     FM110500 17015G25KT 4SM -RA BR BKN015 OVC030=
KGNV 101924Z 1019/1118 14008KT P6SM VCSH SCT015 SCT025 BKN040
      TEMPO 1020/1024 BKN025
     FM110200 14002KT 4SM BR BKN010 BKN020
     FM110600 15002KT 1SM BR BKN003 OVC006
     FM111400 19012G18KT P6SM VCSH BKN010 OVC020=
KHPN 101926Z 1019/1118 VRB04KT 5SM BR BKN008 OVC015
      TEMPO 1021/1024 2SM -DZ BR
     FM110000 VRB03KT 1SM BR BKN006 OVC010
      TEMPO 1102/1105 -RA
     FM110500 15003KT 3/4SM -RA BR BKN004 OVC009
     FM110800 15008KT 1/2SM -RA FG OVC003 WS020/19050KT
     FM111400 17011KT 1SM -RA BR OVC004 WS015/19050KT AMD NOT
      SKED=
KLIT 101924Z 1019/1118 13008KT 4SM -RA BR OVC008 WS020/20045KT
      TEMPO 1019/1022 2SM RA BR OVC004
     FM102200 17008G16KT 4SM -RA BR VCTS BKN008 OVC015CB
      TEMPO 1022/1102 2SM TSRA BR OVC005CB
     FM110200 23012KT 5SM -RA BR OVC015
     FM110600 26010KT P6SM SCT100 BKN250
     FM111500 27010KT P6SM SCT250=

0000085300
623
FTUS80 KWBC 101927 AAB
TAF AMD
KPIA 101926Z 1019/1118 15010G18KT 2SM -RA BR VCTS OVC004CB
      TEMPO 1020/1022 2SM -TSRA BR
     FM110100 18012G20KT 2SM -RA BR OVC004
     FM110600 24012KT 3SM BR OVC004
     FM111400 26012G18KT P6SM OVC015=
KSSI 101925Z 1019/1118 13010KT P6SM VCSH OVC008
      TEMPO 1020/1024 5SM -RA BR OVC005
     FM110200 14005KT 3SM BR BKN005 OVC010
     FM110600 15005KT 1SM BR BKN003 OVC006
     FM111400 19010G15KT P6SM VCSH BKN010 OVC020=
KTEB 101926Z 1019/1118 VRB03KT 3SM BR FEW008 BKN012 OVC025
      TEMPO 1021/1024 2SM -DZ BR
     FM110000 VRB02KT 1SM BR SCT006 OVC012
      TEMPO 1102/1105 -RA BKN006 OVC012
     FM110500 15003KT 3/4SM -RA BR BKN005 OVC008
     FM110800 15007KT 3/4SM -RA BR OVC004 WS020/19050KT
     FM111400 17009KT 1SM -RA BR OVC004 WS015/19050KT=

0000009100
624
SPUS31 KWBC 101927
SPECI
KMCI 101923Z 19009KT 2SM OVC004 05/M01 A2954=

0000009700
625
SPUS43 KWBC 101927
SPECI
KPIA 101923Z 15009KT 6SM -RA BR OVC004 03/02 A2972=

0000008700
626
SADL33 EDZO 101920 RRA
METAR EDFM 101920Z VRB01KT CAVOK 02/01 Q1019=

0000009800
627
SAMJ41 LWSK 101930
METAR LWSK 101930Z 00000KT 3800 BR OVC004 03/02 Q1023 NOSIG=

0000008800
628
SPCN45 CWAO 101925
SPECI CYLK 101925Z 08009KT 3SM -SN OVC055 RMK SC8=

0000009400
629
SPAU32 AMMC 101924
SPECI YAMB 101924Z AUTO 20001KT 9999 // NCD 17/16 Q1018=

0000009400
630
SPAU32 YBBN 101924
SPECI YAMB 101924Z AUTO 20001KT 9999 // NCD 17/16 Q1018=

0000009500
631
SASN32 ESWI 101920 RRA
METAR ESOK 101920Z 10005KT 9999 OVC015 M02/M03 Q1000=

0000009400
632
SPAU32 AMMC 101924
SPECI YSRI 101925Z AUTO 00000KT 9999 // NCD 15/15 Q1018=

00000000