0000139800
893
FTSA85 EGRR 110501
TAF SPHI 110430Z 1106/1206 17010KT CAVOK TX30/1118Z TN20/1110Z
     FM110900 16007KT 9999 BKN015 SCT100
     TEMPO 1111/1113 5000 BR SCT006 OVC010
     FM111900 19015KT CAVOK
     FM120100 17010KT CAVOK=
TAF SPIM 110430Z 1106/1206 16007KT CAVOK TX25/1119Z TN21/1111Z
     TEMPO 1110/1113 19005KT 5000 BR SCT007 BKN130
     FM111900 16012KT CAVOK=
TAF SPQT 110500Z 1106/1206 12003KT 9999 BKN015 BKN100 TX32/1119Z
     TN23/1111Z
     BECMG 1109/1111 3000 -DZRA BR BKN008 OVC080
     BECMG 1112/1114 01005KT BKN020 BKN100
     TEMPO 1119/1122 VCSH BKN012 FEW025TCU BKN100=
TAF SPQU 110430Z 1106/1206 VRB02KT 9999 SCT040 SCT070 TX19/1119Z
     TN11/1111Z
     BECMG 1110/1112 9999 SCT020 SCT100
     FM111800 25011KT 9999 BKN030 SCT080
     FM120000 VRB02KT 8000 BKN012 SCT080=
TAF SPSO 110430Z 1106/1206 21010KT 9000 NSC TX28/1119Z TN20/1110Z
     TEMPO 1111/1114 BKN012 BKN100
     FM111800 24010KT 9999 SCT008 BKN100
     FM120000 19006KT 9999 BKN030 SCT050=
TAF SPTN 110430Z 1106/1206 VRB02KT 9999 BKN050 TX28/1118Z TN18/1110Z
     FM110800 VRB02KT 9999 BKN030
     FM111700 20012KT CAVOK
     FM112300 24005KT 9999 BKN030=
TAF SPZO 110430Z 1106/1206 07004KT 9999 SCT043 BKN070 TX20/1119Z
     TN06/1111Z
     TEMPO 1107/1110 9000 -RA SCT040 OVC070
     BECMG 1114/1116 31006KT 9999 FEW030 SCT050 BKN100=
0000174600
894
SASA85 EGRR 110500 RRB
METAR SADF 110500Z 16014G24KT CAVOK 23/14 Q1010=
METAR SAME 110500Z 18005KT CAVOK 26/06 Q1016=
METAR SBCT 110500Z 09003KT 9999 TS FEW010 FEW030CB SCT100 18/17 Q1017=
METAR SBFI 110500Z 07003KT CAVOK 25/23 Q1011=
METAR SBFL 110500Z 30003KT 9000 -TSRA BKN030 FEW040CB 22/20 Q1013=
METAR SBFZ 110500Z 07011KT 9999 SCT020 27/21 Q1010=
METAR SBGO 110500Z 33004KT 9999 SCT045 BKN100 20/18 Q1016=
METAR SBMO 110500Z 05003KT 9999 FEW020 22/21 Q1013=
METAR COR SBMQ 110500Z 31002KT 9999 FEW013 BKN080 24/23 Q1010=
METAR SBPK 110500Z 00000KT CAVOK 20/19 Q1009=
METAR SBRB 110500Z 09004KT 9999 TS FEW010 FEW025CB SCT100 ///// Q1011=
METAR SEGU 110500Z 24009KT 9999 BKN023 BKN100 25/20 Q1010 RMK A2985
      NOSIG=
METAR SELT 110500Z 33002KT 9999 BKN030 09/09 Q1029=
METAR SKBG 110500Z 00000KT 9999 FEW012 SCT100 20/19 A2999=
METAR SKBO 110500Z 04006KT 8000 BKN015 12/10 A3030 RMK HZ=
METAR SKBQ 110500Z 02008KT 9999 SCT015 26/23 A2985=
METAR SKCG 110500Z 03003KT CAVOK 26/23 A2984=
METAR SKCL 110500Z 04003KT 9999 -DZ FEW020 BKN090 21/19 A2997=
METAR SKPE 110500Z 12006KT 9999 FEW015 SCT080 19/16 A3010=
METAR SKRG 110500Z 00000KT 9999 FEW010 SCT080 15/14 A3026=
METAR SKSP 110500Z 08014KT 9999 FEW018 27/24 A2991=
METAR SPCL 110500Z 05003KT 9999 FEW020 BKN060 25/24 Q1011 RMK PP000=
METAR SPHI 110500Z 17010KT CAVOK 23/21 Q1012 RMK PP000=
METAR SPIM 110500Z 16011KT CAVOK 22/19 Q1012 NOSIG RMK BKN170 PP000=
METAR SPQT 110500Z 00000KT 9999 SCT020 BKN100 24/23 Q1010 NOSIG RMK
      PP000=
METAR SPQU 110500Z 00000KT 9999 SCT015 SCT040 12/10 Q1025 RMK PP000=
METAR SPZO 110500Z 00000KT 9999 FEW025 SCT043 BKN070 09/07 Q1031 RMK
      -SHRA BTN 0420/0440 PP002=
0000012800
895
SNRE15 FMEE 110500
AAXX 11054
61998 26/// /2716 10069 20006 30024 40061 51004
  333 58029 60005 90710 91122=
0000024100
896
SOAT10 KWAL 110503
FA8005BC 011050337 OT12 ID:KN-BASS-01 DT:2014 01 11 05 01
:RD -3177 -3227 -3185 -3208 -3184 -3195 -3154 -3165 -3203 -3168
:PR 0522 0489 0424 0459 0477 0429 0479 0500 0492 0435
:B 13.7V
 46+1NN 219E
0000011100
897
UANT99 KDDL 110501
ARP DAL408 4655N03557W 0501 F350 MS48 245/28 KT
N172DN QXT AOW 110502 F15A
0000011000
898
UANT99 KDDL 110502
ARP BAW11J 5100N01610W 0502 F390 MS52 245/50 KT
GVIIE QXT AOW 110502 F19A
0000011100
899
UANT99 KDDL 110502
ARP AAL104 4859N04010W 0502 F400 MS52 289/30 KT
N778AN DDL XXW 110502 F30A
0000046700
900
SNVD17 KWNB 110500 RRD
BBXX
46078 11051 99560 71526 46/// /2307 10037 20016 49962 58011 90450
22200 00045 11004 20602 322// 41004 70022 333 91209 555 11074
22078 30412 42212 60449 222064 209036 204046 215078 230064 230057
82210 90412=
46066 11051 99528 71550 46/// /1808 10046 49986 58015 90450 22200
00054 11105 20602 325// 41105 70024 333 91209 555 11083 22088
30435 41810 60449 185078 181078 186072 190076 189073 183074 81809
90448=
0000171100
901
SNVD15 KWNB 110500 RRC
BBXX
42003 11051 99260 70856 46/// /1506 10257 40168 58004 90450 22200
00249 10602 20502 312// 40601 70010 333 91208 555 11067 22074
30428 41508 60449 152062 149062 151067 153066 151066 142063 81507
90421=
42057 11051 99170 70815 46/// /1009 10267 20235 40152 54000 90450
22200 00275 11005 20604 311// 41003 70025 333 91210 555 11090
22096 30401 41112 60449 101084 100085 103091 105099 106099 101097
81110 90402=
42055 11051 99222 70940 46/// /1507 10234 40140 51009 90450 22200
00228 10802 20501 307// 40801 70010 333 91208 555 11076 22082
30431 41509 60449 147070 147070 149066 154061 148056 144059 81408
90448=
41047 11051 99275 70715 46/// /1208 10242 20229 40240 57006 90450
22200 00255 10805 20704 307// 40803 70023 333 91210 555 11089
22094 30417 41310 60449 120083 118082 122083 119084 115084 116084
81109 90403=
41040 11051 99145 70530 46/// /0710 10252 20199 40150 58009 90450
22200 00262 11306 20804 301// 41304 70028 333 91212 555 11102
22108 30415 40712 60449 068097 066095 063100 064103 068095 066098
80711 90412=
41048 11051 99320 70695 46/// /1208 10201 20155 40281 58009 90450
22200 00213 10803 20603 310// 40802 70016 333 91210 555 11089
22094 30400 41310 60449 124085 123084 120084 121084 119086 117088
81210 90400=
44066 11051 99396 70726 46/// /1606 10122 20115 40243 58020 90450
22200 00111 10501 20501 316// 41001 70007 333 91207 555 11066
22073 60449 157060 159062 163061 162061 161062 162064=
42039 11051 99288 70860 46/// /1507 10215 20215 40169 58007 90450
22200 00212 10501 20501 70007 333 91208 555 11071 22076 30434
41508 60449 154066 153065 151062 149060 148062 149064 81507 90435=
0000068800
902
SAIR31 OIII 110500
METAR OIAW 110500Z 10006KT 7000 FEW030CB SCT025 OVC090 12/10 Q1019=
METAR OIFM 110500Z 00000KT 0050 FG FEW040 SCT100 M04/M05 Q1020
      A3014=
METAR OIII 110500Z 15006KT 9999 FEW040 SCT100 BKN200 03/M06 Q1021
 A3016 NOSIG=
METAR OIKB 110500Z 34004KT 8000 RA FEW025CB SCT030 OVC090 13/08
Q1023 A3022 TEMPO 06012KT 7000 RA FEW025CB SCT030 OVC090=
METAR OIKK 110500Z NIL=
METAR OIMM 110500Z 00000KT 9999 FEW035 BKN180 04/M10 Q1022 A3020=
METAR OISS 110500Z 00000KT 2500 BR FEW030CB FEW035 OVC080 01/M00
Q1023 A3023=
METAR OITT 110500Z 07008KT 6000 NSC M11/M14 Q1022 A3019=
METAR OIZH 110500Z 22004KT CAVOK 01/M04 Q1024 A3026 NOSIG=
0000016000
903
ULKK01 AMMC 110000 CCA
TTCC 60232 96996 70859 765// 13514 50058 621// 31019 30372 619//
10523 20626 60178 09039 88873 839// 09527 77999=


0000066800
904
UEKK01 AMMC 110000 CCA
TTDD 6023/ 96996 11873 839// 22814 835// 33762 779// 44694 755//
55627 755// 66624 755// 77491 617// 88399 655// 99284 611// 11274
619// 22231 55980 33200 601// 44177 53581 55167 53981 21212 11919
10532 22870 09525 33846 12513 44830 15016 55810 15024 66803 14526
77782 12520 88735 13510 99664 13016 11646 15019 22622 12018 33609
13523 44596 12529 55564 06021 66546 04520 77500 31020 88479 31526
99419 25524 11390 27015 22377 22523 33357 21017 44325 11518 55319
10514 66291 10527 77274 08024 88259 11537 99251 11033 11242 08028
22232 08525 33228 09024 44223 10525 55199 09039 66168 09542 31313
48108 82315=


0000011000
905
UANT01 CWAO 110500
ARP AZA605 4735N03726W 0500 F390 MS50 251/41 KT
EIEJP QXT AOW 110500 J43A
0000011000
906
UANT01 CWAO 110500
ARP ACA846 4848N05148W 0500 F360 MS66 284/50 KT
CGFAJ DDL YYT 110500 J77A
0000011000
907
UANT01 CWAO 110501
ARP BAW114 4542N05200W 0500 F340 MS62 293/35 KT
GSTBC QXS YYT 110501 F03A
0000011000
908
UANT01 CWAO 110501
ARP BAW188 4738N05153W 0500 F400 MS60 304/57 KT
GZBJA QXT AOW 110501 L96A
0000011000
909
UANT01 CWAO 110501
ARP EIN10X 5049N04112W 0501 F380 MS58 297/38 KT
EIEAV DDL XXW 110501 J49A
0000011000
910
UANT01 CWAO 110501
ARP DLH447 5547N05400W 0501 F370 MS62 284/78 KT
DABVL QXS YHO 110501 F99A
0000011100
911
UANT01 CWAO 110501
ARP RCH570 4606N05130W 0501 F350 MS64 298/40 KT
44132A DDL XXW 110501 F07A
0000011000
912
UANT01 CWAO 110501
ARP UAL81 5154N03036W 0501 F370 MS53 226/55 KT
N14102 DDL IG1 110501 F62A
00000000