0000033800
753
SAJP43 KWBC 102000
METAR
RJKI NIL=
RJKN NIL=
RJNF NIL=
RJNG NIL=
RJNH NIL=
RJNO NIL=
RJNT NIL=
RJNY NIL=
RJOA NIL=
RJOB NIL=
RJOC NIL=
RJOE NIL=
RJOF NIL=
RJOI 101955Z 28004KT 9999 FEW030 SCT045 BKN070 02/M02 A3038 RMK
     SLP289 T00171022=
RJOK NIL=
RJOM NIL=
RJOP NIL=
RJOR NIL=

0000004200
754
SAJP44 KWBC 102000
NIL=

0000122200
755
SASA31 KWBC 102000
METAR
SEGU 102000Z 22004KT 9999 BKN040 OVC100 31/20 Q1007 RMK A2975
     NOSIG=
SEQU NIL=
SKBO 102000Z 28010KT 9999 VCSH FEW020 BKN090 17/09 A3019 RMK
     VCSH/W=
SKBQ NIL=
SKCG NIL=
SKCL NIL=
SKLT NIL=
SKRG NIL=
SKSP NIL=
SMNI NIL=
SMZO 102000Z 09005KT 9999 FEW025 28/21 Q1009 NOSIG=
SMZY NIL=
SOCA 102000Z AUTO VRB03KT 9999 FEW007 BKN054 BKN070 25/22
     Q1009=
SPIM 102000Z 16009KT 9999 SCT010 BKN170 23/19 Q1009 NOSIG RMK
     PP000=
SPQT 102000Z 33007KT 9999 VCSH BKN040 26/22 Q1007 NOSIG RMK
     PP000=
SPQU 102000Z 26010KT 9999 BKN033 SCT150 17/10 Q1023 NOSIG RMK
     PP000=
SPSO 102000Z /////KT 9999 SCT080 SCT230 26/20 Q1009 RMK BIRD
     HAZARD RWY 22/04 PP000=
SPTN 102000Z 21012KT CAVOK 26/16 Q1008 RMK PP000=
SPYL 102000Z 21012KT CAVOK 29/22 Q1007 RMK PP000=
SPZO 102000Z VRB2KT 9999 VCSH FEW036TCU SCT050 BKN100 17/06 Q1025
     NOSIG RMK PP000=
SVBC 102000Z NIL=
SVMC NIL=
SVMG 102000Z /////KT 9999 SCT010 28/21 Q1012 NOSIG=
SVMI 102000Z 05003KT 9999 SCT016 27/21 Q1013 NOSIG=
SYCJ 102000Z 01010KT 9999 SCT022 28/23 Q1010 NOSIG=
SYCJ 102000Z 01010KT 9999 SCT022 28/23 Q1010 RESH NOSIG=
SYTM NIL=

0000125300
756
SASA32 KWBC 102000
METAR
SCAR 102000Z 21011KT CAVOK 24/17 Q1009=
SCBA 102000Z 31028KT 9999 FEW040 BKN200 15/03 Q1015=
SCCF 102000Z 26017KT CAVOK 23/04 Q1021=
SCCH NIL=
SCCI 102000Z 24021KT 9999 SCT040 BKN066 11/02 Q1009 NOSIG=
SCDA 102000Z 21015KT CAVOK 24/18 Q1010=
SCEL 102000Z 22014KT 180V250 CAVOK 31/06 Q1012 NOSIG=
SCFA 102000Z 20015KT 9999 FEW025 SCT260 23/16 Q1010 NOSIG=
SCGE NIL=
SCIE 102000Z 23017KT CAVOK 22/10 Q1015=
SCIP 102000Z 10011KT 9999 SCT020 SCT040 26/18 Q1020 NOSIG=
SCTE 102000Z 13013KT 9999 SCT040 BKN200 17/05 Q1022 NOSIG=
SGAS 102000Z 01013KT 9999 FEW040 36/21 Q1005=
SGES 102000Z 02011KT 9999 SCT033 FEW040TCU 33/23 Q1007=
SLCB 102000Z 13005KT 9999 FEW027 FEW030CB 28/08 Q1018=
SLCZ NIL=
SLLP 102000Z 05010KT 9999 SCT017 FEW020CB SCT200 15/04 Q1032=
SLTJ 102000Z 13010KT 9999 FEW033 32/14 Q1013=
SLTR 102000Z 31007KT 9999 FEW017 31/23 Q1007=
SLVR 102000Z 35011KT 9999 BKN017 31/21 Q1007=
SUAA 102000Z 25004KT 9999 FEW033 29/20 Q1007=
SUCA 102000Z 29006KT 9999 FEW030 FEW040CB 31/14 Q1005=
SULS 102000Z 28006KT 9999 FEW020 30/17 Q1008=
SUMU 102000Z 21009KT CAVOK 27/20 Q1007 NOSIG=
SUPE NIL=
SURV NIL=
SUSO 102000Z 13006KT 9999 SCT030 BKN200 28/19 Q1006=

0000023100
757
SASA41 KWBC 102000
METAR
SEMT 102000Z 22006KT 9999 BKN020 SCT100 22/22 Q1008=
SEPA NIL=
SKBG NIL=
SKMD NIL=
SKPE NIL=
SKSM NIL=
SKVG NIL=
SMJP 102000Z 02004KT 9999 FEW030 SCT045 27/23 Q1009 NOSIG=

0000029600
758
SASA42 KWBC 102000
METAR
SCAC NIL=
SCHA NIL=
SCSE 102000Z 28012KT CAVOK 20/14 Q1013=
SCTC NIL=
SCTI NIL=
SCVD NIL=
SELT 102000Z 34006KT 9999 VCSH BKN030 BKN100 16/10 Q1024=
SUAG NIL=
SUDU 102000Z 03014KT 9999 FEW026 SCT080 26/20 Q1007=
SUPU NIL=
SUTB NIL=

0000029300
759
SAVN42 KWBC 102000
METAR
SVPC NIL=
SVPM NIL=
SVPR NIL=
SVSA NIL=
SVSE NIL=
SVSO 102000Z NIL=
SVSP 102000Z 06014KT 9999 FEW050 XX/XX Q1012=
SVSR 102000Z /////KT CAVOK 33/XX Q1012=
SVST NIL=
SVSZ NIL=
SVTM NIL=
SVVA NIL=
SVVL 102000Z NIL=
SVVP NIL=

0000010600
760
SACN62 CYYE 102000
METAR CYYE 102000Z 00000KT 30SM BKN040 M15/M18 A2945 RMK SC7 SLP008=

0000012900
761
SACN62 CYYD 102000
METAR CYYD 102000Z 19004KT 25SM FEW065 SCT080 BKN210 M05/M05 A2967
 RMK SC2AC2CI3 SLP072=

0000010600
762
SACN62 CYXU 102000
METAR CYXU 102000Z 17010KT 6SM BR OVC005 01/00 A3006 RMK ST8 SLP191=

0000013200
763
SACN62 CYXT 102000
METAR CYXT 102000Z 19012G18KT 6SM BR SCT005 BKN018 OVC060 02/01 A2974
 RMK SF3SC2SC3 SLP080=

0000013400
764
SACN62 CYYC 102000
METAR CYYC 102000Z 35007KT 40SM FEW038 SCT120 BKN300 01/M08 A2946 RMK
 CU1AC4CI2 CU TR SLP015=

0000007700
765
FCSP32 LEMM 101700 AAA
TAF AMD LELN 102006Z 1018/1103 CNL=

0000015100
766
SIST21 EGRR 110900 RRB
AAXX 11094
88900 45/// /1901 10022 20019 39916 49918 58003=
88903 42/// /2801 10017 20010 39925 49925 53003=
0000030000
767
SNST41 EGRR 111000
AAXX 11104
61901 469// /0909 10195 20172 39682 40186 51014 333 8//99 555
 7/090=
88878 46/// /2117 10055 20008 40076 52021=
88883 46/// /2004 10068 20038 40092 52017=
88889 41464 72120 10043 21026 39991 40077 51023 76062 878// 333 81818 87634 90710 91128=
0000335200
768
SNUK41 EGRR 111000
AAXX 11104
03005 41470 52919 10048 20007 39913 40013 53016 71522 83960
  333 55300 20036 83915 83357 90710 91128=
03026 47684 /2610 10025 21003 30074 40093 53023 741//
  333 55300 20015 81/33 83/50=
03063 47971 /2004 10002 21015 39829 40113 53026 785//
  333 55300 20048 8//99=
03066 45785 /2516 10027 21003 30090 40097 53023
  333 55303 20062 81/50=
03075 47779 /2512 10012 20001 30026 40071 52024 723//
  333 81/56 85/67=
03091 45982 /2815 10033 21019 30009 40089 53021
  333 55307 20135 8//99=
03100 45977 /2813 10044 20002 30113 40129 51026
  333 55302 20051 8//99=
03111 46980 /2618 10047 20021 30136 40148 51027
  333 8//99=
03134 45983 /2306 10022 20012 30066 40140 53029
  333 55304 20125 8//99=
03136 47480 /2312 10042 20017 30115 40148 52029 721//
  333 55300 20106 84/18=
03162 41458 72815 10016 20000 39851 40144 51023 78581 878//
  333 42997 55300 20182 82711 85815 90710 91125 91025=
03166 45982 /2411 10025 21004 30060 40131 53029
  333 55305 20093 8//99=
03171 42589 12512 10013 21009 30097 40109 53022 81830
  333 55302 20084 81820 92600=
03204 42482 12813 10046 20026 30151 40171 53029 81600
  333 55307 20197 81713=
03240 45983 /2714 10043 21007 30094 40123 53023
  333 55303 20141 82/66=
03257 45569 /3403 10031 20006 30106 40148 52025
  333 55301 20126 81/26 84/63=
03292 469// /2809 10047 20010 30119 40137 53027
  333 85/60=
03302 45470 /3011 10053 20025 30171 40185 53031
  333 55301 20143 81/16 83/19=
03354 45572 /2603 10036 20022 30027 40173 53031
  333 55310 20298 83/24=
03377 42681 32508 10047 20021 30077 40162 51033 83830
  333 55310 20359 82833=
03414 45979 /2507 10031 20016 30088 40178 53025
  333 55306 20317 8//99=
03462 45980 /2707 10040 20025 30081 40172 52038
  333 55310 20329 8//99=
03482 45977 /2908 10049 20031 30134 40161 51038
  333 8//99=
03502 45583 /3014 10052 20002 30035 40200 53031
  333 55307 20230 81/24=
03535 45972 /2302 10040 20033 30057 40176 53028
  333 553// 20300 8//99=
03590 45983 /3010 10054 20032 30051 40162 52035
  333 55309 20397 8//99=
03649 42680 12504 10047 20023 30086 40188 52032 81500
  333 55310 2//// 81630=
03680 46/// ///// 10046 20031 30022 40181 52035
  333 553// 20382=
03716 45980 /3303 10050 20041 30137 40198 53031
  333 55310 20350 8//99=
03740 469// /2207 10040 20031 30016 40196 52030
  333 55310 2//// 8//99=
03746 42980 12907 10046 20031 30039 40196 52033 80001
  333 81080=
03772 45981 /2907 10065 20034 30153 40184 51036
  333 55308 20328 8//99=
03796 46/// /3014 10069 20043 30025 40169 53028=
03803 45576 /0304 10081 20038 30171 40210 52021
  333 87/28=
03808 42581 30107 10085 20023 30100 40207 53021 83500
  333 55310 20357 83628=
03809 42580 20102 10069 20032 30115 40210 52025 82800
  333 81825=
03827 45969 /2402 10059 20045 30146 40209 52027
  333 8//99=
03840 45978 /3005 10046 20031 39894 40205 52030
  333 8//99=
03853 45975 /2503 10052 20038 30176 40200 51031
  333 55310 20389 8//99=
03874 46/// /3108 10065 20043 30182 40193 51037=
03882 45982 /3007 10068 20043 30117 40181 52038
  333 55300 20168 8//99=
03894 42484 13405 10082 20052 40211 52032 81501
  333 81710=
03917 47003 /2207 10007 20005 30095 40174 52025 734//
  333 55300 20050 87/01=
0000026200
769
SAUK63 EGRR 110950 RRA
METAR EGOW 110950Z 30011KT 9999 VCSH FEW012 SCT015 BKN020 05/04 Q1017=
METAR EGQS 110950Z 25012KT 9999 FEW020CB 02/M01 Q1009=
METAR EGUY 110950Z 28012KT CAVOK 05/03 Q1017=
METAR EGWC 110950Z 00000KT CAVOK 03/03 Q1018=
0000078500
770
FTSA85 EGRR 110958 RRC
TAF SEGU 110940Z 1112/1212 VRB03KT 9999 SCT020 BKN090
     FM111800 14004KT 9999 SCT020 SCT090
     FM120000 10005KT 9999 SCT020 BKN090 TX31/1119Z TN24/1110Z=
TAF SELT 110940Z 1112/1212 18008KT 9999 BKN030 SCT100
     FM111900 18012KT 9999 VCSH BKN030 BKN100
     FM120200 36003KT 9999 BKN030
     FM120800 15004KT 5000 BR FEW010 SCT030 BKN100 TX19/1119Z
     TN10/1211Z=
TAF SEMT 110940Z 1112/1212 21010KT 9999 BKN023
     FM111900 27101KT CAVOK
     FM120200 19006KT 9999 BKN023 TX29/1120Z TN23/1210Z=
TAF AMD SPIM 110900Z 1109/1206 16009KT 9999 BKN006 TX25/1119Z TN21/1111Z
     TEMPO 1109/1112 8000 OVC006
     PROB30 TEMPO 1110/1113 5000 BR OVC006
     BECMG 1113/1114 SCT010 SCT130
     FM111900 16012KT CAVOK=
0000161600
771
SASA85 EGRR 111000 RRB
METAR SADF 111000Z 16010KT CAVOK 18/06 Q1016=
METAR SARI 111000Z 05005KT CAVOK 23/23 Q1014=
METAR SBMA 111000Z 29003KT CAVOK 23/22 Q1012=
METAR SBMN 111000Z 08002KT 9999 FEW011 BKN100 22/21 Q1012=
METAR SBMO 111000Z 33002KT 9999 FEW020 24/22 Q1014=
METAR SBVT 111000Z 32003KT CAVOK 26/22 Q1016=
METAR COR SEGU 111000Z 22005KT 9999 FEW012 SCT026 BKN100 25/20 Q1009
      RMK A2982 NOSIG=
METAR SGAS 111000Z 00000KT 9999 SCT033 BKN083 26/24 Q1010=
METAR SGES 111000Z 00000KT 9999 SCT030 BKN080 25/22 Q1011=
METAR SKBO 111000Z 03003KT 9999 BKN015 10/09 A3028=
METAR SPCL 111000Z 03005KT 9999 SCT015 BKN070 24/23 Q1010 RMK PP000=
METAR SPHI 111000Z 19009KT CAVOK 21/19 Q1011 RMK PP000=
METAR SPHO 111000Z 00000KT 7000 BCFG SCT020 OVC060 10/09 Q1024 RMK
      RA NOCHE PP220=
METAR SPHY 111000Z 00000KT 7000 -DZ BR SCT011 OVC040 05/04 Q1035 RMK
      RA NOCHE PP080=
METAR SPIM 111000Z 16007KT 9999 BKN007 21/19 Q1010 NOSIG RMK PP000=
METAR SPJR 111000Z 00000KT 9999 SCT043 09/09 Q1026 RMK PP000=
METAR SPQT 111000Z 00000KT 8000 BKN008 OVC100 24/23 Q1010 NOSIG RMK
      PP000=
METAR SPQU 111000Z 35004KT CAVOK 10/09 Q1023 RMK PP000=
METAR SPRU 111000Z 14004KT 7000 BKN035 OVC045 20/18 Q1010 RMK BR PP000=
METAR SPSO 111000Z /////KT 9999 SCT100 20/18 Q1010 RMK PP000=
METAR SPTN 111000Z 00000KT CAVOK 19/16 Q1010 RMK PP000=
METAR COR SPZO 111000Z 00000KT 9999 FEW020 SCT036 BKN070 09/07 Q1030
      RMK PP000=
METAR SVBM 111000Z 18004KT 9999 FEW016 BKN070 19/16 Q1017=
METAR SVMI 111000Z 00000KT 9999 FEW016 22/17 Q1013 NOSIG=
0000168800
772
SASA85 EGRR 111000 RRC
METAR SABE 111000Z 14012KT CAVOK 18/05 Q1016=
METAR SAME 111000Z 18006KT CAVOK 23/03 Q1017=
METAR SBGR 111000Z 09006KT CAVOK 21/18 Q1018=
METAR SBJP 111000Z 20004KT 9999 BKN025 24/21 Q1013=
METAR SBLO 111000Z 20002KT CAVOK 24/20 Q1015=
METAR SBMQ 111000Z 28002KT 9999 FEW013 BKN080 24/23 Q1011=
METAR SBRJ 111000Z 36003KT CAVOK 28/23 Q1013=
METAR SBRP 111000Z 12005KT CAVOK 21/18 Q1016=
METAR SBSN 111000Z 15002KT 9999 -RA SCT010 SCT013 OVC100 25/21 Q1011=
METAR SBSV 111000Z 09011KT 9999 SCT017 SCT080 28/22 Q1014=
METAR SBTE 111000Z 01001KT 9999 BKN012 BKN070 25/23 Q1011=
METAR SBUG 111000Z 01004KT 4000 -TSRA BR BKN004 BKN015 FEW030CB OVC10
      0 21/20 Q1013=
METAR SCAR 111000Z 09003KT CAVOK 21/15 Q1010=
METAR SCBA 111000Z AUTO 27007KT CAVOK 05/02 Q1020=
METAR SCCI 111000Z 29016KT 9999 SCT030 OVC100 11/06 Q1006 NOSIG=
METAR SCDA 111000Z 00000KT CAVOK 21/15 Q1011=
METAR SCEL 111000Z 00000KT CAVOK 15/06 Q1012 NOSIG=
METAR SCFA 111000Z 17004KT 9999 FEW016 19/15 Q1012 NOSIG=
METAR SCIE 111000Z 22006KT CAVOK 11/09 Q1013=
METAR SCSE 111000Z 00000KT 9999 OVC011 16/14 Q1012=
METAR SCTE 111000Z 18006KT 9999 FEW010 09/08 Q1022 NOSIG=
METAR SELT 111000Z 17005KT 4000 BCFG FEW005 BKN020 11/11 Q1028=
METAR SLCB 111000Z 22004KT 8000 FEW027 FEW030CB SCT200 12/09 Q1024=
METAR SLLP 111000Z 12004KT 4000E VCFG FEW003 FEW017CB SCT200 03/02
      Q1036=
METAR SLVR 111000Z 36007KT 9999 BKN005 BKN015 23/23 Q1010=
METAR SMJP 111000Z 17003KT 9999 FEW012 SCT045 23/22 Q1013 NOSIG=
METAR SOCA 111000Z AUTO 25003KT 9999 OVC002 22/21 Q1012=
METAR SUCA 111000Z XXXXXKT 9999 FEW030 BKN200 20/08 Q1013=
00000000