0000058200
493
FTUS73 KWBC 102330 RRA
TAF
KRKS 102327Z 1100/1124 28022G34KT P6SM BKN030
     FM110600 27020G30KT P6SM SCT050
     FM111200 25015KT P6SM VCSH SCT080
     FM111800 VRB06KT P6SM SCT080=
KSAW 102327Z 1100/1124 18010KT 4SM BR OVC006
     FM110200 17009KT 2SM -SN BR OVC004
     FM110400 15006KT 1 1/2SM -SN BR OVC004
     FM111500 30010KT P6SM OVC015
     FM112100 31012KT P6SM BKN025 AMD LTD TO CLD VIS AND WIND
      1103/1111=
KWRL 102327Z 1100/1124 15008KT P6SM BKN100
     FM110200 VRB05KT P6SM SCT100
     FM111800 15008KT P6SM BKN150=

0000027300
494
FTUS73 KWBC 102330 AAA
TAF AMD
KOMA 102327Z 1023/1124 29005KT 4SM BR OVC012
      TEMPO 1101/1103 P6SM NSW SCT015 OVC040
     FM110300 31005KT P6SM SCT015 SCT040 OVC080
     FM110700 30007KT P6SM SCT100 BKN250
     FM111600 31012KT P6SM SCT250=

0000139600
495
FTUS74 KWBC 102330
TAF
KBFI 102327Z 1100/1124 17010KT P6SM SCT022 BKN050 OVC080
      TEMPO 1100/1102 -RA BKN022 OVC050
     FM110200 18012G18KT P6SM -RA BKN022 OVC035
      TEMPO 1102/1104 4SM RA BR OVC012
     FM110600 18015G28KT 6SM -RA BR OVC018
     FM110800 18020G33KT 6SM -RA BR OVC018
     FM111400 20016G28KT P6SM -RA OVC028
     FM111900 20022G35KT P6SM -SHRA OVC020=
KBLI 102327Z 1100/1124 14010KT 5SM -RA BKN025 OVC060
      TEMPO 1104/1108 2SM +RA BR OVC012
     FM110800 17025G35KT 5SM -RA BR OVC015=
KCLM 102327Z 1100/1124 VRB03KT P6SM -RA BKN011 OVC018
      TEMPO 1104/1108 2SM RA OVC008
     FM111200 29012KT P6SM -RA OVC018
     FM111600 26006KT P6SM -RA OVC025
     FM112100 26008KT 5SM -SHRA OVC015=
KHQM 102327Z 1100/1124 15012G18KT 2SM -RA BKN012 OVC020
      TEMPO 1101/1105 1SM +RA BR OVC008
     FM110500 18025G38KT 3SM RA BR OVC015
     FM110800 18030G45KT 5SM -RA BR OVC015
     FM111200 20022G35KT 5SM -RA BR BKN020 OVC050
     FM111800 22030G45KT 4SM -SHRA BR OVC015=
KOLM 102327Z 1100/1124 17008KT 5SM -RA BR FEW010 OVC050
      TEMPO 1100/1102 3SM -RA BKN010 OVC030
     FM110200 19012KT 5SM -RA BR BKN010 OVC025
      TEMPO 1102/1106 2SM +RA BR OVC006
     FM110600 20018G28KT 4SM RA BR OVC012
     FM111200 21016G26KT 5SM -RA BKN018 OVC030
     FM111900 19024G36KT 4SM -SHRA BR OVC015=

0000061000
496
FTUS74 KWBC 102330 RRA
TAF
KPAE 102327Z 1100/1124 18014G22KT P6SM -RA BKN014 OVC060
      TEMPO 1102/1106 2SM RA BR OVC012
     FM110600 19018G30KT 5SM -RA BR OVC015
     FM110800 20025G40KT 5SM -RA BR OVC015
     FM111400 19018G30KT P6SM -RA OVC025
     FM111900 18025G38KT P6SM -SHRA OVC018=
KSEA 102327Z 1100/1206 19012G18KT P6SM -RA BKN019 BKN045 OVC060
      TEMPO 1102/1106 2SM RA BR OVC012
     FM110600 19018G30KT 5SM -RA BR OVC015
     FM110900 20025G40KT 5SM -RA BR OVC015
     FM111400 20018G32KT P6SM -RA OVC025
     FM111900 20024G38KT P6SM -SHRA OVC017=

0000132100
497
FTUS75 KWBC 102330
TAF
PABE 102327Z 1100/1124 02011KT P6SM FEW006 BKN050
      TEMPO 1100/1104 BKN006
     FM111300 03018KT P6SM FEW050 SCT150=
PACD 102327Z 1100/1124 15017KT P6SM SCT040 BKN150
     FM110300 14018G26KT 5SM -RA BKN028 OVC060
     FM110800 19015KT P6SM -SHRA BKN030
     FM111200 22017KT P6SM VCSH BKN040=
PADL 102327Z 1100/1124 36008KT P6SM BKN015
     FM110600 36011KT P6SM FEW015 BKN100
     FM111500 35015KT P6SM OVC060
     FM112300 35017KT 6SM -SN OVC030=
PADU 102327Z 1100/1124 14011G20KT 6SM -RA SCT006 OVC015
      TEMPO 1100/1102 OVC006
     FM110200 21011G18KT P6SM -SHRA SCT025 BKN035
     FM110600 21013G21KT P6SM BKN035
     FM111300 21018G27KT P6SM -SHRA BKN035
     FM112100 22021G33KT P6SM -SHRA SCT035 BKN045=
PAIL 102327Z 1100/1124 VRB02KT P6SM OVC018
     FM110800 02005KT P6SM FEW020 BKN120
     FM111200 04005KT P6SM VCFG SCT010 BKN120
     FM111700 04010KT P6SM OVC080=
PAKN 102327Z 1100/1124 02006KT P6SM SCT035 BKN100
      TEMPO 1100/1102 BKN025
     FM111400 04008KT P6SM OVC060
     FM112300 06012KT 6SM -SN OVC035=
PASN 102327Z 1100/1124 14006KT P6SM BKN015
     FM110400 11013KT P6SM VCSH BKN015 OVC100
     FM110700 09017G26KT 4SM -RASN BR BKN009 OVC015
     FM111300 13010KT 5SM -SHRASN BR OVC006=

0000150400
498
FTUS72 KWBC 102330
TAF
KABQ 102329Z 1100/1124 30018G30KT P6SM FEW100
     FM110300 33011KT P6SM FEW120
     FM110600 34004KT P6SM SCT250
     FM112000 28006KT P6SM FEW250=
KAHN 102326Z 1100/1124 06005KT 1SM -DZ BR OVC003
     FM110300 09004KT 1/2SM -RADZ FG OVC002
     FM111200 15006KT 1SM -SHRA BR OVC004
     FM111500 20009KT 2SM -SHRA BR OVC007
     FM111900 27010G18KT P6SM BKN025
     FM112200 29012G20KT P6SM SCT040=
KATL 102326Z 1100/1206 09008KT 1SM -DZ BR OVC002
     FM110200 12007KT 1/2SM -RADZ FG OVC002
     FM111000 16009KT 1SM -SHRA BR OVC004
     FM111400 21010G18KT 2SM -SHRA BR OVC007
     FM111900 27013G22KT P6SM BKN025
     FM112100 29014G23KT P6SM SCT040
     FM120000 28011KT P6SM SCT250=
KCSG 102326Z 1100/1124 09005KT 1SM -DZ BR OVC003
     FM110200 12004KT 1/2SM -RADZ FG OVC002
     FM110900 15006KT 1SM -SHRA BR OVC004
     FM111500 22010G17KT 2SM -SHRA BR OVC007
     FM111800 25011G18KT 4SM -SHRA BR BKN025 PROB30 1118/1121 2SM
      TSRA BR BKN010CB
     FM112100 28012G20KT P6SM BKN050=
KFTY 102326Z 1100/1124 09005KT 1SM -DZ BR OVC003
     FM110200 12004KT 1/2SM -RADZ FG OVC002
     FM111000 16006KT 1SM -SHRA BR OVC004
     FM111400 21009KT 2SM -SHRA BR OVC007
     FM111900 27010G18KT P6SM BKN025
     FM112100 29012G20KT P6SM SCT040=
KGUP 102329Z 1100/1124 28012KT P6SM FEW250
     FM110200 25010KT P6SM SCT150
     FM111000 VRB05KT P6SM SCT250
     FM111800 22007KT P6SM SCT200=

0000130000
499
FTUS71 KWBC 102330
TAF
KACK 102327Z 1100/1124 19008KT P6SM OVC020
     FM110400 19008KT 3SM BR OVC012
     FM111100 17013G24KT 2SM -RA BR OVC008
     FM111700 18024G37KT 1SM -RA OVC005 WS020/20060KT
     FM112100 18027G42KT 3/4SM -RA OVC005 WS020/19060KT=
KBAF 102327Z 1100/1124 00000KT 4SM BR OVC020
     FM110600 00000KT 1SM -FZRA BR OVC010
     FM111200 14004KT 1/2SM -RA FG OVC008
     FM111600 18011G22KT 1/2SM RA FG OVC003 WS020/19050KT=
KBDL 102327Z 1100/1206 VRB03KT 3SM BR OVC020
     FM110600 00000KT 1SM -RA BR OVC010
     FM111200 17006KT 1/2SM -RA FG OVC008
     FM111600 18010G25KT 1/2SM -RA FG OVC003 WS020/19050KT
     FM120300 20009KT 3/4SM -RA BR OVC008
     FM120500 24008KT 5SM BR SCT008 OVC080=
KBED 102327Z 1100/1124 VRB03KT 6SM BR OVC012
     FM110600 00000KT 2SM BR OVC010
     FM111000 16004KT 1SM -RA BR OVC008
     FM111500 18013G25KT 1SM -RA BR OVC005 WS020/20050KT
     FM112100 19018G33KT 1SM -RA OVC008 WS020/20050KT=
KBOS 102327Z 1100/1206 21005KT 4SM BR OVC012
     FM110600 17005KT 2SM BR OVC008
     FM111000 17006KT 3/4SM -RA BR OVC005
     FM111400 18011G25KT 1/2SM -RA FG OVC003 WS020/19050KT
     FM112000 19022G40KT 1SM -RA OVC005 WS020/20060KT
     FM120400 20018G32KT 3/4SM RA BR OVC003=

0000093600
500
FTUS72 KWBC 102330 RRA
TAF
KLBB 102320Z 1100/1124 29011KT P6SM FEW250
     FM111800 23012KT P6SM SKC=
KMCN 102326Z 1100/1124 08005KT 1SM -DZ BR OVC002
     FM110200 09004KT 1/2SM -RADZ FG OVC002
     FM111000 15006KT 1SM -SHRA BR OVC004
     FM111500 20010G17KT 2SM -SHRA BR OVC007
     FM111800 24011G18KT 4SM -SHRA BR BKN025 PROB30 1118/1121 2SM
      TSRA BR BKN010CB
     FM112100 28012G20KT P6SM BKN050=
KPDK 102326Z 1100/1124 09005KT 1SM -DZ BR OVC003
     FM110200 12004KT 1/2SM -RADZ FG OVC002
     FM111000 16006KT 1SM -SHRA BR OVC004
     FM111400 21009KT 2SM -SHRA BR OVC007
     FM111900 27010G18KT P6SM BKN025
     FM112100 29012G20KT P6SM SCT040=
KROW 102329Z 1100/1124 29015KT P6SM FEW150
     FM110200 28010KT P6SM SKC
     FM111500 16005KT P6SM SKC=
KTCC 102329Z 1100/1124 29015KT P6SM FEW150
     FM110700 26007KT P6SM SCT250
     FM111900 22011KT P6SM SKC=

0000139000
501
FTUS73 KWBC 102330
TAF
KBJC 102328Z 1100/1124 28014G22KT P6SM FEW090 BKN200
     FM110500 27020G40KT P6SM FEW090 SCT120 BKN200
      TEMPO 1116/1120 27040G55KT=
KCMX 102327Z 1100/1124 14007KT P6SM BKN015
     FM110400 16005KT 2SM -SN BR BKN008
     FM111400 28010KT P6SM BKN015=
KCPR 102327Z 1100/1124 26017KT P6SM FEW120
     FM110800 23020G30KT P6SM SCT200
     FM111400 22025G40KT P6SM FEW120
     FM111700 22030G45KT P6SM FEW100=
KDEN 102328Z 1100/1206 30014KT P6SM FEW080 SCT120 SCT200
     FM110200 27008KT P6SM FEW100 SCT140 BKN200
     FM110300 22011KT P6SM SCT140 BKN200
     FM111500 28014G22KT P6SM FEW090 SCT120 BKN180
     FM111800 29018G30KT P6SM FEW090 SCT120 BKN180
     FM120000 29014KT P6SM SCT120 SCT180=
KHUF 102328Z 1100/1124 16012KT 2SM -RA BR OVC006
      TEMPO 1101/1103 OVC003
     FM110900 22010KT 3SM -RA BR OVC006
     FM111500 25012KT 4SM BR OVC010
     FM111800 25012G22KT P6SM OVC015=
KIND 102328Z 1100/1206 17008KT 2SM -RA BR SCT003 BKN006
     FM110900 21012KT 2SM -RA BR OVC006
     FM111400 25014G22KT 6SM -RA BR SCT007 OVC010
     FM111800 25014G24KT P6SM BKN025
     FM120000 27012KT P6SM BKN025=
KJAC 102327Z 1100/1124 22015G25KT P6SM VCSH SCT025 BKN050
     FM110800 19015KT P6SM SCT010 OVC040
     FM111400 19015KT 3SM -SN SCT010 OVC020 AMD LTD TO CLD VIS AND
      WIND=

0000010300
502
SARM31 LUKK 102330
METAR LUKK 102330Z 25009KT CAVOK 02/M02 Q1015 R26/CLRD65
NOSIG=

0000034300
503
FTCN32 CWAO 102300
TAF CYOD 102330Z 1100/1124 26008KT P6SM SCT060 BKN240 TEMPO 1100/1106
     BKN060 OVC240
     BECMG 1103/1105 VRB03KT
    FM110600 VRB03KT P6SM FEW060 SCT180 PROB30 1109/1112 1/2SM FZFG
    FM111600 11012KT 5SM -SN OVC060 TEMPO 1118/1124 2SM -SN SCT010
     OVC020
    RMK NXT FCST BY 110600Z=

0000050200
504
FTCN37 CWAO 102300
TAF CYZX 102330Z 1100/1124 20008KT P6SM -SHSN SCT012 OVC025 TEMPO
     1100/1105 4SM -SHSN BKN012
    FM110500 20008KT P6SM -RA SCT012 OVC025 TEMPO 1105/1108 4SM -RASN
     BR OVC012
    FM110800 20008KT 5SM -RA BR SCT006 OVC015 TEMPO 1108/1115 2SM -RA
     BR OVC006 PROB30 1108/1115 1SM -RA BR OVC005
    FM111500 20008KT P6SM -RA SCT008 OVC020 TEMPO 1115/1124 2SM -RA
     BR OVC008
     BECMG 1118/1120 20015G25KT
    RMK NXT FCST BY 110600Z=

0000021600
505
FTCN38 CWAO 102300
TAF CYYR 102330Z 1100/1124 24015G25KT P6SM BKN120
     BECMG 1104/1106 24010KT
    FM111900 25008KT P6SM SCT030 TEMPO 1119/1124 P6SM -SN BKN030
    RMK NXT FCST BY 110600Z=

0000043900
506
SAGR32 LGAT 102320
METAR LGAL 102320Z NIL=
METAR LGEL 102320Z NIL=
METAR LGIO 102320Z AUTO VRB01KT //// // ////// 07/06 Q1022
     RE//=
METAR LGKV 102320Z NIL=
METAR LGMT 102320Z NIL=
METAR LGPZ 102320Z AUTO VRB03KT //// // ////// 12/10 Q1023
     RE//=
METAR LGRX 102320Z NIL=
METAR LGSK 102320Z NIL=
METAR LGSR 102320Z AUTO 25011KT //// // ////// 15/12 Q1020
     RERA=
METAR LGZA 102320Z NIL=

0000010300
507
SACG20 FCBB 102330
METAR FCBB 102330Z 26003KT 230V290 7000 FEW016 24/22 Q1011 NOSIG=

0000044000
508
SAGR33 LGAT 102320
METAR LGBL 102320Z NIL=
METAR LGHI 102320Z NIL=
METAR LGKC 102320Z NIL=
METAR LGKF 102320Z AUTO VRB02KT //// // ////// 13/09 Q1022
     RE//=
METAR LGKP 102320Z NIL=
METAR LGKZ 102320Z AUTO 34011KT //// // ////// 08/M00 Q1020
     RE//=
METAR LGMK 102320Z NIL=
METAR LGNX 102320Z NIL=
METAR LGPA 102320Z AUTO 10005KT //// // ////// 14/13 Q1019
     RE//=
METAR LGSO 102320Z NIL=

0000009000
509
SACY41 EGRR 110950
METAR LCRA 110950Z 26010KT 9999 SCT045 17/07 Q1022 BLU=
0000012800
510
SNCY40 EGRR 111000
AAXX 11104
17601 42682 32610 10174 20074 30196 40227 58012 83500
  333 55308 2//// 83645=
0000139200
511
FTUS80 KWBC 102333
TAF
KALO 102332Z 1100/1124 VRB04KT 1SM BR OVC004
     FM110200 27008KT 2SM -SN BR BKN008 OVC015
     FM110600 28009KT 4SM BR SCT010 OVC018
     FM111000 30011KT P6SM SCT015 BKN035
     FM111700 30014G20KT P6SM BKN080=
KAPF 102332Z 1100/1124 10004KT P6SM SCT050 BKN200
     FM110900 13004KT 5SM BR FEW007 SCT015
     FM111500 16014G20KT P6SM SCT025
     FM111900 21013KT P6SM SCT025 BKN250=
KAUS 102331Z 1100/1206 22012KT P6SM BKN200
     FM110400 24008KT P6SM BKN250
     FM110900 32005KT P6SM SKC
     FM111600 01007KT P6SM SKC
     FM120000 08005KT P6SM SKC
     FM120300 12004KT P6SM SKC=
KBRD 102331Z 1100/1124 19009KT 2SM BR OVC004
      TEMPO 1100/1104 1SM BR OVC003
     FM110400 24004KT 1 1/2SM BR OVC002
     FM111500 29008KT P6SM OVC011=
KCNU 102330Z 1100/1124 30012KT P6SM SCT035
     FM110400 31010KT P6SM SCT025 BKN035
     FM110500 31010KT P6SM SCT015 OVC025
     FM111000 28011KT P6SM SCT025
     FM111400 29012KT P6SM SKC=
KCSM 102331Z 1100/1124 28008KT P6SM SCT120
     FM111800 31012KT P6SM SKC=
KDLH 102331Z 1100/1124 17006KT 3/4SM -FZDZSN BR OVC002
     FM110200 20005KT 1SM -SN BR OVC003
     FM110700 26004KT 3SM BR OVC002
     FM111500 29009KT P6SM BKN014=
KDRT 102331Z 1100/1124 VRB03KT P6SM BKN250
     FM110300 32004KT P6SM SCT250
     FM111800 34006KT P6SM SKC=

0000142100
512
FTUS80 KWBC 102333 RRA
TAF
KFLL 102332Z 1100/1124 12009KT P6SM SCT020 BKN200
     FM111500 16013G19KT P6SM SCT025 BKN250
     FM111900 19013G19KT P6SM SCT035 BKN050=
KFXE 102332Z 1100/1124 12009KT P6SM SCT020 BKN200
     FM111500 16014G20KT P6SM SCT025 BKN250
     FM111900 19013G19KT P6SM SCT035 BKN050=
KGAG 102331Z 1100/1124 28010KT P6SM FEW120=
KGLH 102331Z 1100/1124 15012KT P6SM BKN025 OVC045
     FM110200 18015KT 4SM -SHRA BR BKN015 OVC030
     FM110400 18017KT 3SM TSRA BR OVC007CB
     FM110800 26012KT 4SM -DZ BR OVC009
     FM111200 28011KT P6SM SCT035
     FM111400 28016G23KT P6SM SKC=
KGWO 102331Z 1100/1124 16011KT P6SM BKN045 OVC060
     FM110300 17014KT 4SM -SHRA BR BKN025 OVC040
     FM110500 18015KT 3SM TSRA BR OVC007CB
     FM110900 25010KT 4SM -DZ BR OVC008
     FM111300 28011KT P6SM SCT035
     FM111600 28012G20KT P6SM SKC=
KHBG 102331Z 1100/1124 11005KT 3SM -SHRA BR OVC009
     FM110200 14006KT 4SM -SHRA BR BKN015 OVC025
     FM110900 18012KT 1/2SM +TSRA FG OVC003CB
     FM111100 25009KT 4SM -DZ BR OVC006
     FM111500 30010KT P6SM SCT250
     FM111800 30013G20KT P6SM SKC=
KHBR 102331Z 1100/1124 28008KT P6SM SCT120
     FM111800 31012KT P6SM SKC=
KHIB 102331Z 1100/1124 17005KT 5SM BR OVC005
      TEMPO 1100/1103 1SM -SN BR OVC002
     FM110600 30003KT 3SM -SN BR OVC004
     FM111300 30008KT P6SM OVC011=

00000000