0000028000
693
SAMC31 GMMC 110330
METAR GMME 110330Z 22004KT 120V290 5000 SCT020 BKN100 14/11 Q1015
NOSIG=
METAR GMMN 110330Z 18006KT 9999 SCT016 BKN100 12/10 Q1016 NOSIG=
METAR GMAD 110330Z NIL=
METAR GMFF 110330Z NIL=
METAR GMMX 110330Z NIL=
METAR GMTT 110330Z NIL=
0000008600
694
SAKN20 HKNC 110300 RRA
METAR HKEL 110300Z  10010KT  CAVOK 10/08 Q1025=
0000031600
695
FTEA32 HKNA 102300 RRA
TAF HBBA 102100Z 1100/1206 36004KT CAVOK BECMG 1102/1104 VRB03KT 9999

     FEW024 SCT100 BECMG 1107/1109 18010G20KT 9999 SCT026 FEW028CB 
     BKN100 PROB30 TEMPO1113/1118 08012G24KT 6000 TSRA OR SHRA SCT028
     FEW030CB BKN090 BECMG 1202/1204 VRB03KT 9999 FEW024 BKN100=
0000029300
696
FTEA32 HKNA 102300 RRB
TAF HRYR 102045Z 1100/1206 00000KT 9999 FEW026 BECMG 1103/1106
VRB03KT 80
00 SCT025                    FM110800 17006KT 9999 BKN023 TEMPO 1111/
1117 08008KT TS FEW023CB BKN025              FM112100 30004KT SCT025 
BECMG 1203/1206 00000KT 8000 FEW026=
0000018500
697
FTEA32 HKNA 102300 RRC
TAF HKMO 102220Z 1100/1206 00000KT 9999 SCT020
BECMG 1109/1112 09010G20KT FEW026
BECMG 1118/1121 03010KT FEW022
BECMG 1200/1203 00000KT SCT020=
0000025600
698
SATS40 DTTA 110330
METAR DTMB 110330Z 15003KT CAVOK 11/07 Q1018 NOSIG=
METAR DTNH 110330Z AUTO 24003KT CAVOK 07/05 Q1018=
METAR DTTA 110330Z 00000KT 4000 BR SCT010 08/07 Q1018 NOSIG=
METAR DTTJ 110330Z 18005KT 7000 NSC 11/09 Q1020 NOSIG=
0000037600
699
FTEA32 HKNA 102300 RRD
TAF HUEN 102100Z 1100/1206 36005KT 9000 FEW020 FEW022CB
    TEMPO 1101/1107 VRB11KT 8000 -TSRA SCT018 FEW020CB BKN110
    BECMG 1108/1113 19012KT 9000 FEW025 FEW027CB SCT190
    FM 111600 23006KT FEW022 FEW025CB BKN160
    BECMG 1121/1124 35005KT FEW020 FEW022CB BKN130
    TEMPO 1201/1206 VRB10KT 8000 -TSRA SCT018 FEW020CB BKN110=
0000025900
700
SATS32 DTTA 110330
METAR DTMB 110330Z 15003KT CAVOK 11/07 Q1018 NOSIG=
METAR DTNH 110330Z AUTO 24003KT CAVOK 07/05 Q1018=
METAR DTTA 110330Z 00000KT 4000 BR SCT010 08/07 Q1018 NOSIG=
METAR DTTJ 110330Z 18005KT 7000 NSC 11/09 Q1020 NOSIG=
0000026300
701
FTEA32 HKNA 102328 RRE
TAF HKEL 102230Z 1100/1124 10005KT 9999 SCT018 TEMPO 
      1100/1106 VRB05KT CAVOK BECMG 1108/1111 07010KT 
       9999 SCT025 TEMPO 1112/1118 VRB10KT -TSRA
         FEW021CB BKN022 BKN080 BECMG 1120/1123 11005KT FEW018=
0000022300
702
SARE20 FMEE 110330
METAR FMCZ 110330Z VRB02KT 9999 FEW021 BKN300 27/23 Q1013 NOSIG=
METAR FMEE 110330Z 11015KT 9999 FEW026 28/21 Q1016 NOSIG=
METAR FMEP 110330Z AUTO 26003KT 210V310 9999 NCD 28/22 Q1015=
0000038700
703
SAAO33 DRRN 110325
METAR DBBB 110330Z VRB02KT 6000 SCT010 BKN200 26/26 Q1009 TEMPO 4000
BR BKN008=
METAR DFFD 110330Z 01004KT CAVOK 21/02 Q1013 NOSIG=
METAR DGAA 110325Z NIL=
METAR DNKN 110325Z NIL=
METAR DNMM 110325Z NIL=
METAR DRRN 110330Z 05006KT 4000 DU NSC 20/M00 Q1014 NOSIG=
METAR DXXX 110330Z 35001KT 8000 SCT012 26/25 Q1011 NOSIG=
METAR FTTJ 110325Z NIL=
0000023700
704
FTEA32 HKNA 102300 RRF
TAF HTDA 102200Z 1100/1206 36010KT 9999 SCTO25  
     BECMG 1103/1106 VRB15KT  
     BECMG 1109/1112 03015KT BKN026
     FM 111800 01015KT SCT024
     BECMG 1203/1206 VRB10G20KT FEW024 FEW026CB=
0000042600
705
SAAL40 DAMM 110330
METAR DAAG 110330Z 00000KT 9999 FEW030 SCT080 10/07 Q1016=
METAR DAAT 110330Z 07002KT CAVOK 11/M05 Q1022=
METAR DABB 110330Z 20003KT CAVOK 07/06 Q1016=
METAR DABC 110330Z  00000KT CAVOK 07/03 Q1020=
METAR DABS 110330Z NIL=
METAR DAON 110330Z NIL=
METAR DAOO 110330Z 12002KT 9999 FEW026 BKN100 12/08 Q1016=
METAR DAUH 110330Z 00000KT CAVOK 09/07 Q1020=
METAR DAUZ 110330Z NIL=
0000035500
706
FTUG32 HUEN 110400
HUEN 110300Z 1106/1212 VRB12KT 8000 -TS FEW018 FEW020CB BKN120
BECMG 1107/1113 18010KT 9000 FEW024 FEW026CB BKN200
FM111600 22006KT FEW021 FEW023CB SCT150
BECMG 1121/1124 36005KT FEW020 FEW022CB BKN120
TEMPO 1201/1206 VRB09KT 8000 -TS SCT018 FEW022CB BKN110
BECMG 1207/1212 17012KT 9000 FEW024 FEW027CB BKN200=
0000023600
707
SAAO32 GOOY 110330
METAR GABS 110330Z 00000KT CAVOK 19/10 Q1013 NOSIG=
METAR GAGO 110330Z NIL=
METAR GAKY 110330Z NIL=
METAR GAKL 110330Z NIL=
METAR GAMB 110330Z NIL=
METAR GANR 110330Z NIL=
METAR GATB 110330Z NIL=
0000020800
708
SAAO31 GOOY 110330
METAR FHAW 110330Z NIL=
METAR GGOV 110330Z NIL=
METAR DIAP 110330Z 10002KT 9999 SCT015 OVC150 25/25 Q1010 TEMPO 
BKN011=
METAR DIBK 110330Z NIL=
METAR DIYO 110330Z NIL=
0000024200
709
SAAO30 GOOY 110330
METAR GOOY 110330Z 36011KT CAVOK 19/15 Q1013 NOSIG=
METAR GOGS 110330Z NIL=
METAR GOOK 110330Z NIL=
METAR GOSS 110330Z NIL=
METAR GOTK 110330Z NIL=
METAR GOTT 110330Z NIL=
METAR GOGG 110330Z NIL=
0000029700
710
SAAO33 GOOY 110330
METAR GQPP 110330Z NIL=
METAR GQNN 110330Z 03005KT 8000 NSC 15/14 Q1015 NOSIG=
METAR GQPA 110330Z NIL=
METAR GQNI 110330Z NIL=
METAR GQPZ 110330Z NIL=
METAR GUCY 110330Z NIL=
METAR GUXN 110330Z NIL=
METAR GULB 110330Z NIL=
METAR GUNZ 110330Z NIL=
0000003800
711
SAAO34 GOOY 110330
NIL
0000016900
712
FTZA31 FAPR 110300
TAF FBSK 110300Z 1106/1212 11008KT CAVOK BECMG 1112/1114
    FEW030CB BECMG 1202/1204 OVC014 BECMG 1210/1212 SCT025 
    FEW030CB=
00000000