0000009600
973
SAUS74 KWBC 101700 RRE
METAR
KIWA 101747Z 15005KT 30SM SCT250 12/M02 A3015=

0000011400
974
SAPH41 RPLC 101800
METAR RPLC 101800Z
33004KT 9999 FEW042 SCT300 20/17 Q1017 A3004 RMK NOSIG=

0000010500
975
SPCN31 CWAO 101751
SPECI CYZV 101751Z 29008KT 30SM FEW020 BKN054 BKN090 RMK SC1SC6AC2=

0000011000
976
UANT99 KDDL 110506
ARP EIN10X 5059N04006W 0506 F380 MS56 295/29 KT
EIEAV DDL XXW 110506 J50A
0000011100
977
UANT99 KDDL 110506
ARP UAL928 5702N02827W 0506 F350 MS56 221/56 KT
N663UA DDL XXW 110506 F76A
0000011000
978
UANT99 KDDL 110506
ARP BAW81V 5321N03722W 0506 F350 MS56 226/29 KT
GCIVM QXT AOW 110506 F02A
0000011000
979
UANT99 KDDL 110506
ARP VIR22N 5300N02007W 0506 F390 MS54 242/59 KT
GVUFO DDL XXF 110506 J33A
0000011100
980
UANT99 KDDL 110506
ARP UAL976 5058N02037W 0506 F320 MS59 238/70 KT
N226UA DDL XXW 110506 F57A
0000011000
981
UANT99 KDDL 110506
ARP AAL70 5259N02001W 0506 F380 MS54 244/66 KT
N755AN DDL XXW 110507 F69A
0000011100
982
UANT99 KDDL 110507
ARP DAL400 4603N03939W 0506 F370 MS50 296/41 KT
N808NW DDL XXW 110507 J53A
0000009800
983
SACI44 ZSJN 101800
METAR ZSJN 101800Z 00000MPS 1800 BR NSC M07/M07 Q1033 NOSIG=

0000011000
984
SAHO31 MHTG 101800
METAR MHLC 101800Z 32004KT 9999 SCT024 SCT080 26/21 Q1015 A2998
NOSIG=

0000009400
985
SANC01 NWWW 101800
METAR NWWW 101800Z AUTO 36001KT 9999 FEW064 19/14 Q1012=

0000007700
986
FCRO32 LROM 101400 AAB
TAF AMD LRSM 101800Z 1018/1024 CNL=

0000009700
987
SAHU31 LHBM 101800
METAR LHBP 101800Z 23005KT 200V260 CAVOK 04/01 Q1020 NOSIG=

0000015300
988
FCRO33 LROM 101400 AAA
TAF AMD LRTC 101800Z 1018/1024 CNL=
TAF AMD LRCV 101800Z 1018/1024 CNL=
TAF AMD LRSV 101800Z 1018/1024 CNL=

0000010200
989
SAGQ20 FGSL 101800
METAR FGSL 101800Z 23005KT 6000 FEW013 SCT130 26/24 Q1010 NOSIG=

0000013800
990
SAFG20 SOCA 101800
METAR SOCA 101800Z AUTO 13005KT 060V180 6000 -RA FEW010///
SCT024/// BKN034/// ///TCU 24/22 Q1010=

0000028100
991
FTCN35 CWAO 101800 AAA
TAF AMD CYAM 101801Z 1018/1102 13007KT 21/2SM -SN BR OVC005 TEMPO
     1018/1020 P6SM NSW OVC012
    FM102000 13008KT 5SM -SN BR OVC008 TEMPO 1020/1102 P6SM NSW
     OVC012 PROB30 1020/1102 5SM -FZDZ BR
    RMK NXT FCST BY 102000Z=

0000041200
992
SAMX34 MMMD 101800
METAR MMCZ 101741Z 12009KT 8SM  BKN015TCU 26/21 A3002 
      RMK SLP167 57021 965 8/200 SC=
METAR MMMD 101744Z 13015KT 7SM  BKN015TCU 28/20 A2999 
      RMK SLP155 58022 987 8/200=
METAR MMTP 101749Z 00000KT 10SM  FEW030 32/22 A2990 
      RMK SLP122 52003 951 8/100=
METAR MMUN 101742Z 12008KT 7SM  BKN018 28/23 A3003 
      RMK SLP161 58011 971 8/100 MDT CU=

00000000