0000020000
793
SASP34 LEMM 110000
METAR LEDA 110000Z NIL=
METAR LEJR 110000Z NIL=
METAR LELL 110000Z NIL=
METAR LEPP 110000Z NIL=
METAR LEXJ 110000Z 23001KT 9999 SCT029 BKN039 11/09 Q1017=

0000028100
794
SACR31 LEMM 110000
METAR GCLP 110000Z VRB01KT CAVOK 15/10 Q1017 NOSIG=
METAR GCXO 110000Z NIL=
METAR GCTS 110000Z 35007KT 9999 FEW035 17/11 Q1017 NOSIG=
METAR GCRR 110000Z 36008KT 9999 FEW020 14/10 Q1017=
METAR GCFV 110000Z NIL=
METAR GCLA 110000Z NIL=

0000009700
795
SASP39 LEMM 110000
METAR LETL 110000Z AUTO 07001KT 9999 FEW079/// 04/02 Q1017=

0000022700
796
SASP35 LEMM 110000
METAR LEAB 110000Z 12005KT 8000 SCT011 07/06 Q1016 NOSIG=
METAR LEBZ 110000Z NIL=
METAR LELC 110000Z NIL=
METAR LELN 110000Z NIL=
METAR LETO 110000Z 00000KT CAVOK 07/05 Q1016 NOSIG=

0000004200
797
SACR32 LEMM 110000
NIL=

0000234700
798
SPUS70 KWBC 110004
SPECI
KAMG 110000Z AUTO 00000KT 1/4SM FG BKN008 OVC050 18/17 A3009 RMK
     AO2 T01830172=
KCEC 110000Z AUTO 15009KT 1 1/4SM BR OVC002 09/09 A3020 RMK AO2
     VIS 1/4V2 1/2 T00940089=
KFOK 110000Z 00000KT 1 1/4SM BR FEW015 BKN027 OVC031 03/02 A3035
     RMK AO2 RAE2358 P0000=
KGVL 110000Z AUTO 09008KT 1 1/4SM BR OVC002 08/08 A3011 RMK
     AO2=
KHGR 110000Z 00000KT 2SM BR OVC007 02/01 A3024 RMK AO2
     T00170011=
KIOW 110000Z AUTO 00000KT 1SM BR VV004 01/01 A2955 RMK AO2=
KLWV 110000Z AUTO 16012KT 3SM -RA BKN008 OVC060 06/ A2979 RMK AO2
     P0001 T0061 $=
KMIC 110000Z 14004KT 3SM BR OVC007 M01/M03 A2954 RMK AO2=
KOWD 110000Z 16003KT 3SM BR SCT014 OVC020 01/01 A3036 RMK AO2
     T00110006=
KPBF 110000Z AUTO 21006KT 10SM -TSRA OVC011 13/12 A2974 RMK AO2
     LTG DSNT SW-N TSB2354 P0000=
KRST 110000Z 06003KT 1 1/2SM -SN BKN036 OVC070 M01/M03 A2953 RMK
     AO2 SFC VIS 1 3/4 P0000 T10111028=
KSEG 110000Z AUTO 00000KT 3SM BR OVC013 M01/M02 A3027 RMK AO2
     T10061022=
KSTJ 110000Z AUTO 29007KT 4SM BR BKN004 OVC010 02/01 A2957 RMK AO2
     T00170011=
PASI 110000Z 07005KT 6SM RA BR OVC014 02/01 A2947 RMK AO2 P0002
     T00220006=
KARB 110000Z AUTO 15005KT 2 1/2SM BR OVC002 02/02 A2988 RMK
     AO2=
KBFM 110000Z 00000KT 9SM OVC003 15/14 A3000 RMK AO2 T01500139=
KGLS 110000Z AUTO 18012KT 5SM -RA BR FEW004 BKN015 OVC021 18/18
     A2984 RMK AO2 P0000=
KAXN 110001Z AUTO 20007KT 1SM BR OVC002 M02/M02 A2950 RMK AO2=
KBLI 110001Z 14006KT 10SM -RA SCT015 OVC040 08/06 A2991 RMK AO2
     P0001=
KFRG 110001Z 00000KT 1SM BR OVC004 02/02 A3034 RMK AO2=
KHKY 110001Z 00000KT 3SM BR OVC003 06/06 A3016 RMK AO2=
KIMT 110001Z AUTO 14006KT 3/4SM BR OVC002 M03/M04 A2964 RMK
     AO2=
KLBT 110001Z AUTO 19006KT 1 1/2SM RA BR FEW008 BKN011 OVC017 18/17
     A3014 RMK AO2 P0003 T01780172=
KMKC 110001Z 26005KT 10SM FEW008 BKN014 OVC038 06/03 A2956 RMK AO2
     T00560033=
KRSL 110002Z AUTO 29010KT 10SM -RA FEW008 BKN013 OVC022 02/01
     A2962 RMK AO2 P0000 T00220011=
KUIN 110001Z AUTO 18011KT 10SM OVC009 06/05 A2955 RMK AO2 CIG
     006V013 T00560050=
PASC 102356Z 25013KT 2 1/2SM -SN BR OVC022 M30/M33 A2986 RMK AO2
     P0000=
PAKN 110001Z 05005KT 10SM FEW004 BKN025 M02/M02 A2942 RMK AO2 PNO
     $=

0000011800
799
SPUS42 KWBC 110004
SPECI
KGLS 110000Z AUTO 18012KT 5SM -RA BR FEW004 BKN015 OVC021 18/18
A2984=

0000010600
800
SACN61 CYNM 110000
METAR CYNM 110000Z AUTO 19008KT 7SM OVC011 M04/M06 A2988 RMK SLP139=

0000011700
801
SACN61 CYNE 110000
METAR CYNE 110000Z AUTO 00000KT 2 1/2SM -SN OVC006 M10/M11 A2944 RMK
 SLP989=

0000019400
802
SACN62 CYLJ 110000
METAR CYLJ 110000Z 26010KT 15SM BKN030 BKN080 BKN240 M05/M08 A2942
 RMK SC7AC1CI1 CI TR TR AC/CI/SN COV/MUCH LOOSE/LAST STFD OBS/NXT
 111200 UTC SLP994=

0000011300
803
SACN61 CYNA 110000
METAR CYNA 110000Z AUTO 29011KT 9SM -SN OVC014 M07/M09 A3007 RMK
 SLP182=

0000011300
804
SACN62 CYND 110000
METAR CYND 110000Z 09006KT 10SM -SN OVC010 M06/M08 A3020 RMK SC8
 SLP231=

0000012000
805
SACN62 CYMX 110000
METAR CYMX 110000Z 04006KT 10SM -SN OVC016 M09/M12 A3024 RMK ST8
 PRESFR SLP248=

0000012600
806
SACN62 CYMA 110000
METAR CYMA 110000Z 30002KT 20SM SCT040 BKN070 M19/M22 A2940 RMK
 SC4AC2 SOG 36 SLP011=

0000011100
807
SACN62 CYOJ 110000
METAR CYOJ 110000Z 00000KT 1SM -SN VV018 M16/M19 A2953 RMK SN8
 SLP033=

0000013500
808
SACN62 CYPA 110000
METAR CYPA 110000Z 24002KT 15SM BKN072 BKN160 BKN250 M08/M10 A2943
 RMK AC6AC1CI1 CI TR SLP996=

0000010600
809
SACN62 CYOW 110000
METAR CYOW 110000Z 06006KT 10SM OVC015 M05/M08 A3018 RMK SC8 SLP228=

0000009200
810
SARO33 LROM 110000 CCA
METAR COR LRSV 110000Z 25006KT CAVOK 02/M04 Q1015=

0000009200
811
SAHK31 VHHH 110000
METAR VHHH 110000Z 09008KT 8000 NSC 15/11 Q1025 NOSIG=

0000019800
812
FTCN32 CWAO 110000 AAA
TAF AMD CYOJ 110004Z 1100/1107 VRB03KT P6SM OVC030 TEMPO 1100/1104
     3/4SM -SN OVC020
    FM110400 35005KT P6SM BKN050
    RMK NXT FCST BY 110100Z=

00000000