0000011500
533
SACN62 CYXL 102000
METAR CYXL 102000Z 18010KT 3SM -SN BR OVC007 M07/M08 A2951 RMK ST8
 SLP020=

0000010500
534
SACN62 CYYB 102000
METAR CYYB 102000Z 16008KT 8SM OVC009 M04/M06 A3003 RMK ST8 SLP195=

0000019300
535
SASP41 LEMM 102000
METAR LEAO 102000Z NIL=
METAR LEBT 102000Z NIL=
METAR LECV 102000Z NIL=
METAR LEEC 102000Z NIL=
METAR LELO 102000Z 00000KT 2000 BR NSC 04/04 Q1017=

0000010300
536
SPAU32 AMMC 102005
SPECI YMHB 102000Z 14005KT 9999 FEW009 SCT012 BKN250 16/13 Q1014=

0000011200
537
SACN61 CYYL 102000
METAR CYYL 102000Z AUTO 06008KT 1SM -SN VV014 M18/M21 A2943 RMK
 SLP001=

0000012700
538
SACN62 CYYJ 102000
METAR CYYJ 102000Z 24012KT 30SM FEW038 BKN110 OVC250 09/03 A3000 RMK
 SC1AC4CI3 SLP159=

0000010600
539
SACN62 CYYQ 102000
METAR CYYQ 102000Z 28006KT 15SM OVC270 M28/M31 A2969 RMK CI8 SLP059=

0000011700
540
SACN62 CYYZ 102000
METAR CYYZ 102000Z 14004KT 1 1/2SM BR OVC004 00/M01 A3012 RMK FG1ST7
 SLP210=

0000015100
541
SATD31 TTPP 102000
METAR
TTPP 102000Z 10011KT 9999 SCT020 29/20 Q1011 NOSIG=
TTCP 102000Z 09010KT 9999 SCT015 28/21 Q1013 NOSIG=

0000021500
542
FTCN34 CWAO 102000 AAA
TAF AMD CYQW 102005Z 1020/1106 25004KT P6SM SCT100 TEMPO 1020/1022
     5SM BR BKN100
     BECMG 1020/1022 29010KT
    RMK FCST BASED ON AUTO OBS. NXT FCST BY 110000Z=

0000020600
543
SAAY31 RUMS 102000
METAR UDYZ 102000Z VRB01MPS 2300 BR BKN010 M09/M11 Q1028 R09/000070
NOSIG=
METAR UDSG 102000Z VRB01MPS 0800 R02/P1500D FZFG FEW007 M21/M23 Q1022
R02/CLRD70 NOSIG=

0000026400
544
SAIY33 LIIB 102000
METAR LIMA 102000Z NIL=
METAR LIMG 102000Z NIL=
METAR LIMP 101950Z 06005KT 5000 BR FEW030 SCT050 09/08 Q1023=
METAR LIMS 102000Z NIL=
METAR LIMW 102000Z NIL=
METAR LIMZ 101950Z 24004KT 7000 SCT025 SCT040 05/05 Q1021=

0000025000
545
SAIY34 LIIB 102000
METAR LIPC 101955Z /////KT 4000 BR FEW040 BKN050 08/06 Q1021=
METAR LIPF 102000Z NIL=
METAR LIPO 101950Z 09004KT 4500 BR SCT015 BKN040 08/07 Q1022=
METAR LIPY 101950Z 16003KT 9999 FEW010 BKN045 13/09 Q1021=

0000094600
546
SAKZ31 RUMS 102000
METAR UAAA 102000Z 21002MPS 0500 R23R/1900N R23L/1500N BR FU FEW200
M15/M18 Q1029 8891//60 NOSIG=
METAR UACC 102000Z 18007MPS 9999 -SN DRSN OVC024 M11/M13 Q1026
R22/8/0055 NOSIG RMK QFE738/0984=
METAR UAKK 102000Z 19007MPS CAVOK M14/M17 Q1028 R23/850555 NOSIG RMK
QFE723/0965=
METAR UAOO 102000Z 16004MPS 5000 BR BKN160 M06/M07 Q1025 NOSIG RMK
QFE757/1009=
METAR UARR 102000Z 27002MPS 9999 BKN012 OVC026 01/M00 Q1010
R22/650340 TEMPO 2000 BR BKN004 RMK QFE754/1005=
METAR UATE 102000Z 15003MPS 0300 R12/0600V1000U FZFG NSC M03/M03
Q1020 R12/0///70 NOSIG RMK QFE763/1017=
METAR UATG 102000Z 27004MPS 5000 BR OVC014 01/01 Q1016 R14/19//65
NOSIG RMK QFE764/1019=
METAR UATT 102000Z 20003MPS 9999 -SN OVC009 M01/M01 Q1009 R13/491040
NOSIG RMK QFE737/0983=
METAR UAUU 102000Z 17007MPS 2100 -SHSN BLSN OVC021CB M08/M10 Q1015
TEMPO 19012MPS 1000 SHSN BLSN BKN005CB RMK QFE745/0993=

0000037200
547
SAIY35 LIIB 102000
METAR LIQN 102000Z NIL=
METAR LIQW 102000Z NIL=
METAR LIRG 102000Z NIL=
METAR LIRH 102000Z NIL=
METAR LIRL 102000Z NIL=
METAR LIRM 101955Z 03004KT 5000 BR SCT015 BKN070 11/10 Q1021=
METAR LIRS 101955Z /////KT 9999 SCT030 SCT040 11/08 Q1022=
METAR LIRU 101950Z 00000KT 4500 MIFG NSC 07/07 Q1022=
METAR LIRV 102000Z NIL=

0000030100
548
SAIY36 LIIB 102000
METAR LIBC 101950Z 01009KT 6000 SCT010 11/11 Q1021=
METAR LIBF 102000Z NIL=
METAR LIBG 102000Z NIL=
METAR LIBP 101950Z VRB03KT 5000 BR NSC 07/04 Q1022=
METAR LIRI 102000Z NIL=
METAR LIRJ 102000Z NIL=
METAR LIRZ 101950Z VRB02KT 9000 BKN050 10/08 Q1022=

0000027800
549
SATA31 RUMS 102000
METAR UTDD 102000Z 00000MPS M0050 R09/M0050N FZFG VV001 M07/M08 Q1029
09CLRD70 NOSIG RMK QBB030 QFE703/0937=
METAR UTDL 102000Z 08008G11MPS 0900 R08/1300V1400D FZFG BKN005
M05/M06 Q1029 TEMPO 0700 FZFG RMK QFE732/0976 QBB150 8809//70=

0000020400
550
SAKY31 RUMS 102000
METAR UCFM 102000Z 00000MPS 1100 R08/1900 BR FU SKC M12/M16 Q1027
R08/CLRD70 TEMPO 0700 FZFG=
METAR UCFO 102000Z 17004MPS 7000 NSC M05/M11 Q1028 R12/CLRD70 NOSIG=

0000026500
551
SAIY37 LIIB 102000
METAR LICA 101950Z VRB02KT 9999 FEW025 09/05 Q1022=
METAR LICD 101950Z 20013KT CAVOK 16/13 Q1022=
METAR LICG 102000Z NIL=
METAR LICR 101950Z 36013KT CAVOK 13/10 Q1021=
METAR LICT 101955Z 11002KT 9999 FEW020 13/11 Q1021=

0000008300
552
SAAG41 SAME 102000
METAR SAME 102000Z 09008KT CAVOK 30/03 Q1009=

00000000