0000218300
313
SPUS70 KWBC 101740
SPECI
KBML 101736Z AUTO 00000KT 2SM -SN BKN038 BKN046 OVC070 M11/M15
     A3030 RMK AO2 SNB21 P0000 T11111150=
KBNA 101736Z 18009KT 10SM OVC010 11/08 A3010 RMK AO2 PRESFR=
KBVO 101737Z AUTO 21007G15KT 7SM OVC006 10/10 A2967 RMK AO2 CIG
     003V010=
KCAG 101736Z AUTO 06006KT 3/4SM -SN BR VV018 M07/M09 A2992 RMK AO2
     P0001 T10721094=
KCSG 101736Z 09004KT 2SM BR OVC003 09/09 A3016 RMK AO2=
KEVV 101736Z 15009G15KT 7SM SCT009 OVC038 08/06 A3004 RMK AO2
     T00830056 $=
KFSM 101736Z 04005KT 2SM RA BR FEW031 SCT049 OVC070 07/06 A2980
     RMK AO2 PRESFR P0014=
KFTY 101736Z 05004KT 2 1/2SM BR OVC004 08/08 A3018 RMK AO2=
KHWO 101736Z 13012G19KT 10SM SCT021 BKN026 27/22 A3012 RMK AO2=
KLNR 101736Z AUTO 13006KT 3SM BR OVC006 M01/M02 A2982 RMK AO2
     T10061017=
KSGF 101736Z 16014KT 5SM -RA BR SCT006 BKN035 OVC070 06/06 A2974
     RMK AO2 P0013 T00560056=
KSSF 101736Z 18007KT 7SM FEW012 SCT022 OVC041 19/17 A2989 RMK AO2
     RAB09E29 P0000=
KWST 101736Z AUTO 35004KT 2 1/2SM UP BR OVC022 00/M01 A3042 RMK
     AO2 P0000 T00001006=
KIGX 101736Z AUTO 06004KT 2 1/2SM BR OVC003 05/04 A3029 RMK AO2
     T00500044=
KTTS 101733Z AUTO 15007KT 10SM SCT012 OVC042 24/17 A3014 RMK AO2
     $=
KAMW 101737Z AUTO 14005KT 1/4SM FZFG VV002 M01/M01 A2968 RMK AO2
     T10061011=
KBRO 101737Z 18020G30KT 10SM BKN016 BKN025 OVC036 24/19 A2990 RMK
     AO2 PK WND 17030/1733=
KTRL 101737Z AUTO 19012KT 10SM SCT006 OVC011 16/16 A2983 RMK AO2
     RAE29 P0000 T01610161=
KWLD 101737Z AUTO 22019G22KT 9SM SCT014 10/08 A2963 RMK AO2=
KHJO 101737Z AUTO 19004KT 3SM HZ CLR 07/04 A3031 RMK AO2
     T00720044=
KMAI 101737Z AUTO 00000KT 2SM BR OVC002 14/14 A3013 RMK AO2=
KMMK 101737Z AUTO 00000KT 2 1/2SM UP BR BKN020 OVC025 M01/M03
     A3041 RMK AO2 UPB08SNE08 P0000 T10111028 TSNO=
KMTO 101737Z AUTO 16011KT 3SM HZ OVC012 03/M01 A2992 RMK AO2
     UPE1655RAB1655E09 PRESFR P0000 T00281011 TSNO=
KRXE 101737Z AUTO 27006KT 10SM OVC015 M04/M06 A2992 RMK AO2
     T10441061=
KSSI 101737Z AUTO 14008KT 1 3/4SM BR BKN005 OVC009 17/17 A3016 RMK
     AO2 RAE10 P0000 T01670167=

0000009100
314
SPUS31 KWBC 101740
SPECI
KBNA 101736Z 18009KT 10SM OVC010 11/08 A3010=

0000009700
315
SPUS42 KWBC 101740
SPECI
KFTY 101736Z 05004KT 2 1/2SM BR OVC004 08/08 A3018=

0000112900
316
SAAU32 YBBN 101730
METAR YAMB 101730Z AUTO 20002KT 8000 // SCT069 18/18 Q1017=
METAR YMAV 101730Z AUTO 19006KT 9999 // OVC015 17/15 Q1016=
METAR YBRM 101730Z AUTO 28010KT 9999 // SCT020 29/25 Q1007=
METAR YCIN 101730Z NIL=
METAR YSDU 101730Z AUTO 16007KT 9999 // NCD 18/17 Q1018=
METAR YFRT 101730Z AUTO 15008KT //// // ////// 17/17 Q1019=
METAR YGEL 101730Z AUTO 15008KT 9999 // NCD 21/19 Q1011=
METAR YPGV 101730Z NIL=
METAR YBHM 101730Z AUTO 11021KT 9999 // ////// 26/23 Q1012=
METAR YMHB 101730Z 00000KT 9999 BKN011 16/14 Q1013=
METAR YPKG 101730Z AUTO 11014KT 9999 // NCD 24/11 Q1018=
METAR YMLT 101730Z AUTO 36006KT 9999 // NCD 16/14 Q1012=
METAR YBMA 101730Z AUTO 19005KT 9999 // NCD 30/16 Q1010=
METAR YSNF 101730Z AUTO 12007KT 9999 // OVC061 19/10 Q1018=
METAR YPEA 101730Z NIL=
METAR YPPD 101730Z AUTO 31008KT 9999 // NCD 28/27 Q1006=
METAR YSRI 101730Z AUTO 00000KT 3200 // NCD 16/16 Q1018=
METAR YBRK 101730Z AUTO 11006KT 9999 // NCD 22/20 Q1014=
METAR YWLM 101730Z AUTO 14004KT 9999 // NCD 19/17 Q1017=
METAR YPWR 101730Z AUTO 17014KT 9999 // NCD 25/08 Q1015=

0000009500
317
SABZ43 KWBC 101700 RRE
METAR
SBJF 101700Z 03008KT 9999 BKN020 28/17 Q1018=

0000032200
318
SAJP31 KWBC 101730 RRB
METAR
RJAA 101730Z VRB01KT 9999 FEW025 M04/M08 Q1023 NOSIG RMK 1CU025
     A3021=
RJCC 101730Z 29003KT 220V010 9999 -SHSN FEW010 SCT040 BKN070
     M09/M12 Q1017 RMK 1ST010 4CU040 7AC070 A3004=
RJTT 101730Z 27004KT 9999 FEW040 01/M07 Q1023 NOSIG RMK 1SC040
     A3021=

0000097500
319
FTFI31 EFHK 101700
TAF EFHK 101733Z 1018/1118 35014KT 8000 -SN FEW007 BKN013
     BECMG 1018/1020 01010G20KT BKN015 TEMPO 1020/1104
     4000 -SN BECMG 1104/1106 35006KT PROB40 1112/1115
     4000 -SN BKN013=
TAF EFJY 101733Z 1018/1118 36008KT 9999 BKN010 TEMPO 1018/1020
     3000 -SN BKN007 PROB30 1109/1118 3000 -SHSN BKN015=
TAF EFKU 101736Z 1018/1118 02012KT 9999 BKN015 TEMPO 1018/1103
     6000 DRSN BKN011=
TAF EFOU 101736Z 1018/1118 06012KT 9999 -SN BKN030 TEMPO
     1018/1106 3000=
TAF EFRO 101736Z 1018/1118 04016KT CAVOK TEMPO 1018/1112
     5000 DRSN=
TAF EFTP 101728Z 1018/1118 02009KT 5000 -SN BKN009 TEMPO
     1018/1020 3000 BKN012 BECMG 1020/1022 9999 BKN015
     PROB30 TEMPO 1103/1115 3000 -SN BKN013=
TAF EFTU 101733Z 1018/1118 02008KT 9999 -RA BKN008 TEMPO
     1018/1105 BKN015 BECMG 1105/1108 BKN015=
TAF EFVA 101728Z 1018/1118 03012KT 8000 -SN SCT015 BKN020
     PROB30 TEMPO 1018/1115 2000 SN=

0000018300
320
FTAU32 YBBN 101700 RRD
TAF YPTN 101738Z 1018/1118
11005KT 9999 FEW025
FM110200 12013KT 9999 SCT040
TEMPO 1104/1115 12025G40KT 1000 TSRA BKN010 SCT020CB
RMK=

0000022100
321
FTAU31 YBBN 101700 RRC
TAF YPDN 101733Z 1018/1124
16008KT 9999 SCT020
FM110600 25010KT 9999 SCT030
FM111400 17006KT 9999 SCT020
PROB30 TEMPO 1105/1118 VRB25G40KT 1000 TSRA BKN010 SCT020CB
RMK=

0000121000
322
SAAU31 YBBN 101730
METAR YPAD 101730Z 05002KT CAVOK 18/08 Q1016
NOSIG=
METAR YBAS 101730Z AUTO 32005KT 9999 // NCD 22/M10 Q1013=
METAR YBBN 101730Z 17005KT 9999 FEW034 BKN069 21/18 Q1017=
METAR YBCS 101730Z 19009KT 6000 -SHRA SCT020 BKN045 25/23 Q1009=
METAR YSCB 101730Z AUTO 00000KT 9999 // BKN120 14/12 Q1019=
METAR YPXM 101730Z NIL=
METAR YPCC 101730Z AUTO 16012KT 9999 // NCD 26/22 Q1012=
METAR YCFS 101730Z AUTO 33006KT 9999 // BKN046 19/18 Q1018=
METAR YPDN 101730Z 17004KT 9999 FEW020 BKN250 24/23 Q1006
RMK LIGHTNING TO W=
METAR YBCG 101730Z AUTO 29003KT 9999 // OVC038 20/18 Q1018=
METAR YHID 101730Z AUTO 08006KT //// // ////// 28/25 Q1005=
METAR YPJT 101730Z AUTO 10014KT 9999 // NCD 26/11 Q1015=
METAR YPKU 101730Z AUTO 36003KT 9999 // NCD 27/24 Q1008=
METAR YPLM 101730Z AUTO 33009KT 9999 // NCD 30/20 Q1006=
METAR YMML 101730Z 18003KT CAVOK 18/16 Q1017
FM2000 18008KT 9999 BKN008=
METAR YPPH 101730Z NIL=
METAR YSSY 101730Z 01004KT CAVOK 21/18 Q1017
NOSIG=
METAR YSTW 101730Z AUTO 16006KT 9999 // OVC100 19/14 Q1018=
METAR YPTN 101730Z AUTO 00000KT 9999 // NCD 26/23 Q1007=
METAR YBTL 101730Z AUTO 18005KT 9999 // NCD 25/22 Q1010=

0000025200
323
FTCN34 CWAO 101700
TAF CYDN 101741Z 1018/1106 30005KT P6SM OVC007 TEMPO 1018/1021 3SM
     -SN BR OVC010
    FM102100 30005KT P6SM OVC015 TEMPO 1021/1106 21/2SM -SN BR OVC008
    RMK FCST BASED ON AUTO OBS. NXT FCST BY 110000Z=

0000053200
324
FTCN34 CWAO 101700
TAF CYWG 101741Z 1018/1118 18012KT 6SM BR SCT040 BKN070 TEMPO
     1018/1019 2SM -SN BKN020 OVC040 PROB30 1018/1019 6SM -FZRA BR
     SCT008 OVC020
    FM101900 18008KT P6SM BKN040 TEMPO 1019/1021 2SM -SN BR BKN020
    FM102100 21005KT P6SM OVC015 TEMPO 1021/1101 OVC008
    FM110100 26008KT P6SM -SN SCT012 BKN025 TEMPO 1101/1104 2SM -SN
     OVC012
    FM110400 31010KT P6SM BKN025 TEMPO 1104/1108 5SM -SN BKN015
    FM110900 30008KT P6SM SCT030
    RMK NXT FCST BY 110000Z=

0000020900
325
FTCN34 CWAO 101700
TAF CYEN 101741Z 1018/1024 30010KT P6SM OVC025 TEMPO 1018/1024 5SM
     -SN BKN008 OVC012 PROB30 1018/1021 1/2SM FZFG VV002
    RMK NXT FCST WILL BE ISSUED AT 111145Z=

0000028100
326
FTCN34 CWAO 101700
TAF CYBR 101741Z 1018/1106 VRB03KT 1SM BR SCT020 BKN230 TEMPO
     1018/1020 3SM -SN BR BKN020
    FM102000 30007KT 6SM BR SCT006 OVC015 TEMPO 1020/1106 2SM -SN BR
     OVC006
     BECMG 1021/1023 30012KT
    RMK NXT FCST BY 110000Z=

0000015300
327
SAUS72 KWBC 101700 RRH
METAR
KBQK 101735Z AUTO 13007KT 7SM OVC005 20/19 A3017=
KLRU 101735Z AUTO 28009G14KT 10SM CLR 12/M10 A3007=

0000010200
328
SAUS73 KWBC 101700 RRG
METAR
KIKK 101735Z AUTO 13008KT 4SM BR OVC004 01/01 A2993=

0000022800
329
FTCN34 CWAO 101700
TAF CYQR 101741Z 1018/1106 29012KT 1/2SM FZFG OVC002 TEMPO 1018/1020
     2SM BR SCT005
    FM102000 24005KT 6SM BR FEW008 TEMPO 1020/1022 11/2SM BR BKN008
    RMK NXT FCST BY 110000Z=

0000024700
330
FTCN34 CWAO 101700
TAF CYQV 101741Z 1018/1106 29005KT 5SM BR OVC010 TEMPO 1018/1103 1SM
     -SN BR BKN003 OVC010
    FM110300 30007KT P6SM SCT012 TEMPO 1103/1106 BKN012
    RMK FCST BASED ON AUTO OBS. NXT FCST BY 110000Z=

0000020700
331
FTCN34 CWAO 101700
TAF CYQW 101741Z 1018/1106 VRB03KT P6SM SCT150 TEMPO 1018/1020 5SM BR
     BKN150
     BECMG 1020/1022 29010KT
    RMK FCST BASED ON AUTO OBS. NXT FCST BY 110000Z=

0000017400
332
FTCN34 CWAO 101700
TAF CYYN 101741Z 1018/1106 26012KT P6SM BKN100
    FM102100 28012KT P6SM SCT080
    RMK FCST BASED ON AUTO OBS. NXT FCST BY 110000Z=

00000000