0000023300
833
FTUS73 KWBC 101933 AAA
TAF AMD
KCMI 101929Z 1019/1118 16012G20KT 2SM -RA BR VCTS OVC004CB
     FM110100 18012G18KT 2SM -RA BR OVC004
     FM110600 24012KT 3SM BR OVC004
     FM111400 26012G18KT P6SM OVC015=

0000009100
834
SPUS41 KWBC 101932
SPECI
KLUK 101928Z 11004KT 10SM OVC010 09/07 A3005=

0000009700
835
SPUS42 KWBC 101932
SPECI
KGPT 101928Z 11011KT 1 3/4SM BR OVC005 16/14 A3000=

0000012200
836
SASA31 KWBC 101900 RRC
METAR
SOCA 101930Z AUTO 18004KT 140V200 9999 FEW007 OVC070 25/22
     Q1009=

0000029000
837
SAIE31 EIDB 101930
METAR EIDW 101930Z 26007KT 9999 FEW017 SCT035 BKN050 05/04 Q1009
     NOSIG=
METAR EINN 101930Z 25003KT 9999 FEW009 SCT020 BKN037 04/04 Q1011
     NOSIG=
METAR EICK 101930Z 28007KT 9999 FEW017 SCT060 04/03 Q1011 NOSIG=
METAR EIKN 101930Z NIL=

0000011500
838
SPCZ40 LKKV 101932
SPECI LKKV 101932Z 25009KT 9999 SCT015 BKN046 03/00 Q1017 RMK REG
QNH 1014=

0000012100
839
FCLT33 EYVI 102000
TAF EYPA 102000Z 1021/1106 28010G20KT 8000 OVC010 BECMG 1100/1102
5000 BR OVC005=

0000009800
840
SPUS31 KWBC 101933
SPECI
KJAX 101929Z 13011KT 10SM SCT025 BKN050 25/19 A3009=

0000069800
841
SXXX32 EUMS 110506 RRQ
3601E29A
OT12 ID:DJ-BOUT-08 DT:2014 01 11 04 56
:RAD /1 01889 01885 01872 01867 01871 01857 01859 01848 01848 01850 01842 01836 01836 01833 01833 01826 01813 01809 01804 01800 01800 01792 01784 01779 01778 01769 01772 01768 01761 01754
:PR1 /1 02198 02178 02183 02178 02166 02159 /2151 02123 02161 02162 02137 02133 02128 02134 02137 02114 02112 02114 02107 02100 02092 02097 02089 02084 02078 02076 02063 02067 02056 02058
:PR2 /1 00422 00427 00431 00425 00428 00406 00461 00384 00396 00417 00340 00348 00410 00355 00379 00360 00333 00344 00344 00329 00356 00339 00307 00328 00323 00297 00312 00301 00313 00276
:TM1 /15 258 258 258 257
:BAT 13.5V
0000070200
842
SXXX32 EUMS 110506 RRR
22E7E6D2
OT12 ID:ID-ROTE-11 DT:2014 01 11 05 05
:PRS /1 -10804 -10756 -10776 -10746 -10746 -10749 -10748 -10770 -10776 -10778 -10780 -10775 -10776 -10776 -10773 -10811 -10759 -10778 -10750 -10750 -10752 -10753 -10770 -10779 -145/)H210778 -10785 -10782 -10783 -10776
:PR2 /1 03753 03775 03746 03763 03779 03761 03765 03773 03766 03740 03793 03739 03765 03778 03785 03755 03762 03795 03769 03779 03797 03759 03770 03791 03747 03791 03803 03777 03765 03772
:RAD /1 05334 05315 05352 05316 05352 05348 05352 05368 05376 05324 05328 05344 05340 05344 05348 05347 05364 05336 05388 05371 05352 053/8 05364 05339 05384 05360 05343 05356 05396 05364
:BAT 12.6V/
0000007800
843
SNAL53 EUMS 110500
AAXX 11054
60619 46/// /1105 10106 21027=
0000007800
844
SNAL51 EUMS 110500
AAXX 11054
60612 46/// /0000 10071 21026=
0000009700
845
SPAU32 AMMC 101934
SPECI YPEA 101935Z AUTO 10015G25KT 9999 // NCD 26/09 Q1014=

0000010600
846
SPUS41 KWBC 101934
SPECI
KDOV 101929Z AUTO 12002KT 2 1/2SM -RA BR BKN002 04/04 A3033=

0000010400
847
SPUS41 KWBC 101934
SPECI
KILG 101930Z 03003KT 1 3/4SM BR SCT005 OVC012 03/02 A3036=

0000010600
848
SPUS41 KWBC 101934
SPECI
KPSM 101928Z 24003KT 2SM -SN BR BKN017 OVC023 M01/M01 A3037=

0000010200
849
SPUS41 KWBC 101934
SPECI
KWRI 101931Z AUTO 02002KT 2 1/2SM BR OVC003 02/02 A3034=

0000009700
850
SPUS43 KWBC 101934
SPECI
KPIA 101930Z 16011KT 5SM -RA BR OVC005 03/02 A2972=

0000016400
851
SANO33 ENMI 101920 RRA
METAR ENKR 101920Z 16009KT 1500 IC BR VV005 M21/M23 Q1015 SEASMOKE
           NORTH OF THE FIELD RMK WIND 775FT 24007KT=

0000009200
852
SPCN51 CWAO 101934
SPECI CWOB 101934Z AUTO 21002KT -SN BKN010 M19/ A2909=

00000000