0000011100
893
UANT01 CWAO 110429
ARP DAL232 5801N03028W 0428 F370 MS54 219/41 KT
N811NW DDL XXW 110429 J74A
0000011100
894
UANT01 CWAO 110429
ARP UAL992 4948N03117W 0429 F360 MS54 205/58 KT
N673UA DDL XXW 110429 F44A
0000013400
895
SNVJ21 AMMC 110400 RRA
BBXX
FHZI 11044 99637 31412 46/// /1921 10005 21005 39847 49858 57002
22243 04005 85001=

0000011000
896
UANT01 CWAO 110429
ARP VIR12E 5120N03353W 0429 F380 MS55 213/48 KT
GVLUV DDL XXF 110429 J38A
0000011000
897
UANT01 CWAO 110429
ARP KAC118 4832N05202W 0429 F330 MS60 293/53 KT
9KAOA QXT AOW 110429 F00A
0000039800
898
SWIO40 RJTD 110430
:PRS 1 #1 1752 1765 1752 1759 1761 1738 1758 1747 1749 1748 1744 1748
1735 1772 1726 1757 1742 1734 1760 1722 1743 1747 1724 1750 1730 1739
1720 1730 1733 1722 :RAD 1 #3 6143 6138 6137 6136 6133 6129 6126 6122
6121 6125 :ENC 5 #5 5121 5120 5117 5113 5102 5112 5116 5133 5149 5159
5158 5170 :SW1 30 #60 59 :SW2 60 #60 60 :BAT 14 #15 13.7 :NAME 
0650018E=
0000126700
899
FAUK50 EGRR 110430
AIRMET AREA FORECAST, CENTRAL ENGLAND,
VALID JAN  11/0600Z TO  11/1500Z.

MET-SITUATION: AT 06Z, AN OCCLUDED FRONT LIES LOWESTOFT
TO WORTHING, MOVING SE AT 20KT.

STRONG WIND WRNG: ISOL GUST 20-25KT TL 10Z, MAINLY IN
ASSOCIATION WITH SHRA.

WINDS:
1000FT: 300/20KT. PS03.
3000FT: 310/25KT. GEN MS01, BUT PS01 FAR S.
6000FT: 310/30KT. MS06.

FREEZING LEVEL: GEN 2500FT, BUT 4000FT FAR S.

WEATHER-CONDITIONS: 2 ZONES AT 06Z:

ZONE 1: SE OF A LINE NORWICH TO PORTSMOUTH. THIS LINE
MOVING SE AT 20KT:

GEN 15KM, WITH 1-3/8ST 1000FT/1500 AND 4-7/8CUSC
2500FT/7000 AND 7/8ACAS 9000FT/14000.
OCNL, 6KM IN RA, WITH 4-7/8ST 700FT/1500 AND 8/8SCAS
1500FT/16000.
ISOL, 3000M IN RADZ, WITH 7/8ST 500FT/1500 AND 8/8CUAC
1500FT/16000.

WRNG: HILL FG. MOD ICE AND MOD TURB IN CLD. OCNL MOD TURB
BLW 6000FT.


ZONE 2: REST OF REGION:

GEN 30KM, WITH 1-5/8CUSC 3000FT/7000.
ISOL, MAINLY SEA COT NW, 7KM IN SHRA, WITH 7/8CU
2000FT/12000.
ISOL LAN TL 12Z, 3000M IN BR, WITH 0-4/8ST 500FT/1500.
ISOL LAN TL 11Z, 200M IN FG OR FZFG, WITH 7/8ST SFC/500.

WRNG: HILL FG. MOD ICE AND MOD TURB IN CLD. SN MON ABOVE
1800FT.


OUTLOOK: UNTIL JAN  11/2000Z:

SIMILAR.
0000135200
900
FAUK34 EGRR 110430
AIRMET AREA FORECAST, SOUTHEAST ENGLAND,
VALID JAN  11/0600Z TO  11/1500Z.

MET-SITUATION: AT 06Z, A MOD W FLOW AFFECTS THE REGION
WITH AN OCCLUDED FRONT LYING FROM GUERNSEY TO BRIGHTON TO
LOWESTOFT, MOVING SE AT 15KT IN THE N, AND SE AT 5KT IN
THE S.

STRONG WIND WRNG: ISOL, SEA COT, MAINLY FRONT, 20-25KT
GUSTS.

WINDS:
1000FT: 270/25KT BECMG 300/15KT BY 12Z. PS04.
3000FT: 280/30KT BECMG 310/20KT BY 12Z. PS01.
6000FT: 280/35KT BECMG 300/20KT IN W BY 15Z. MS04.

FREEZING LEVEL: 4000FT.

WEATHER-CONDITIONS: 2 ZONES AT 06Z:

ZONE 1: NW OF A LINE FROM BREST TO PORTSMOUTH TO NORWICH.
THIS LINE MOVING SE AT 15KT IN THE N, AND SE AT 5KT IN
THE S:

GEN 30KM, WITH 1-5/8CUSC 3000FT/7000.
ISOL, MAINLY SEA COT, 7KM IN SHRA, WITH 7/8CU
2000FT/12000.
ISOL LAN TL 12Z, 3000M IN BR, WITH 0-4/8ST 500FT/1500.

WRNG: HILL FG. MOD ICE AND MOD TURB IN CLD.


ZONE 2: REST OF REGION:

GEN 15KM, WITH 1-3/8ST 1000FT/1500 AND 4-7/8CUSC
2500FT/7000 AND 7/8ACAS 9000FT/14000.
OCNL, 6KM IN RA, WITH 4-7/8ST 700FT/1500 AND 8/8SCAS
1500FT/16000.
ISOL, 3000M IN RADZ, WITH 7/8ST 500FT/1500 AND 8/8CUAC
1500FT/16000.

WRNG: HILL FG. MOD ICE AND MOD TURB IN CLD.


OUTLOOK: UNTIL JAN  11/2000Z:

ISOL BR DEVELOPING LAN FM 18Z, OTHERWISE SIMILAR.
0000071800
901
FAUK30 EGRR 110430
AIRMET AREA FORECAST, SOUTHWEST ENGLAND,
VALID JAN  11/0600Z TO  11/1500Z.

MET-SITUATION: AT 06Z, A LIGHT TO MOD NW FLOW COVERS THE
REGION.

STRONG WIND WRNG: NIL.

WINDS:
1000FT: 300/20KT BECMG 120/15KT SW BY 15Z. PS04.
3000FT: 300/20KT BECMG 140/15KT SW BY 15Z. PS01.
6000FT: 300/25KT BECMG 200/15KT SW BY 15Z. MS04.

FREEZING LEVEL: 4000FT.

WEATHER-CONDITIONS:  AT 06Z:

WHOLE REGION:

GEN 30KM, WITH 1-5/8CUSC 3000FT/7000.
ISOL LAN TL 12Z, 3000M IN BR, WITH 0-4/8ST 500FT/1500.
ISOL LAN TL 11Z, 200M IN FG OR FZFG, WITH 7/8ST SFC/500.

WRNG: HILL FG. MOD ICE AND MOD TURB IN CLD.


OUTLOOK: UNTIL JAN  11/2000Z:

SIMILAR.
0000131200
902
FAUK38 EGRR 110430
AIRMET AREA FORECAST, CROSS CHANNEL,
VALID JAN  11/0600Z TO  11/1500Z.

MET-SITUATION: AT 06Z, A MOD W FLOW AFFECTS THE REGION
WITH AN OCCLUDED FRONT LYING FROM GUERNSEY TO BRIGHTON TO
LOWESTOFT, MOVING SE AT 15KT IN THE N, AND SE AT 5KT IN
THE S.

STRONG WIND WRNG: ISOL, MAINLY FRONT, 20-25KT GUSTS.

WINDS:
1000FT: 250/20KT E OF FRONT, 320/15KT W OF FRONT. PS06.
3000FT: 260/25KT E OF FRONT, 320/15KT W OF FRONT. PS03.
6000FT: GEN 270/30KT BUT 300/20KT IN SW. MS02.

FREEZING LEVEL: 4500FT.

WEATHER-CONDITIONS: 2 ZONES AT 06Z:

ZONE 1: NW OF A LINE FROM BREST TO PORTSMOUTH TO NORWICH.
THIS LINE MOVING SE AT 15KT IN THE N, AND SE AT 5KT IN
THE S:

GEN 30KM, WITH 1-5/8CUSC 3000FT/7000.
ISOL, MAINLY SEA COT, 7KM IN SHRA, WITH 7/8CU
2000FT/12000.
ISOL LAN TL 12Z, 3000M IN BR, WITH 0-4/8ST 500FT/1500.

WRNG: HILL FG. MOD ICE AND MOD TURB IN CLD.


ZONE 2: REST OF REGION:

GEN 15KM, WITH 1-3/8ST 1000FT/1500 AND 4-7/8CUSC
2500FT/7000 AND 7/8ACAS 9000FT/14000.
OCNL, 6KM IN RA, WITH 4-7/8ST 700FT/1500 AND 8/8SCAS
1500FT/16000.
ISOL, 3000M IN RADZ, WITH 7/8ST 500FT/1500 AND 8/8CUAC
1500FT/16000.

WRNG: HILL FG. MOD ICE AND MOD TURB IN CLD.


OUTLOOK: UNTIL JAN  11/2000Z:

SIMILAR.
0000024900
903
SNVZ11 SBBR 110400 RRG
BBXX
SHIP 11041 99/// 1//// 36/// /2700 10164 20153 39006 40134
  333 10185 20158 553// 10004 91102=
SHIP 11041 99/// 1//// 36/// /0402 10189 20157 39369 40129 57///
  333 10190 20184 553// 10003 91107=
0000016700
904
SOVI10 KWAL 110431
B110070A 011043101"P9751095 B\P~W@@X0ekD1@qQ???CpCs>@qN3@RC?@h4Cw5DA6bS9JE2?????@"??? ?TD\LBWB[B[B^B[BZ:AMPTEMP 26.94C  47-0NN 219E
0000020600
905
SOBR10 KWAL 110431
BAB00078?011043111 :BUB 2 #1       M   0.459   0.419   0.459 :RAD 1 #1   0.386   0.373   0.370   0.365 :PRS 1 #1  -0.818  -0.816 `i Ah4;w7<}{/EHa"uy?FIS" 28+0HP 219E
0000590100
906
SIIN52 VECC 110300
AAXX 11034
41478 NIL=
41859 NIL=
41923 NIL=
42027 21595 82701 10004 21009 38474 48561 70522 8452/
  333 21003 58056 6996/
  555 00006 10036=
42101 31994 00000 10070 20061 40189 71000
  333 10186 20063 58011
  555 10000=
42111 21596 73202 10090 20082 39377 40175 70262 87800
  333 10192 20083 58000 6015/ 85625 84830
  555 00145 10015=
42165 31994 20000 10050 20026 40210 70500 80001
  333 10198 20042 58036 82070
  555 10000=
42182 31992 02705 10082 20082 40187 74442
  333 10202 20071 58010
  555 10000=
42260 31993 02703 10082 20082 40193 74244
  333 20068 58007
  555 10000=
42295 32396 83600 10036 20027 48543 88///
  333 20010 58000
  555=
42296 32492 73202 10100 20081 48533
  333 20030 58038
  555 10000=
42299 31495 70000 10062 20032 38231 48544 70522 85630
  333 20052 58017 82710 85618
  555 10000=
42314 31994 30000 10154 20117 40195 71044 83030
  333 20073 58006 83360
  555 10002=
42328 32996 30501 10076 20023 40203 83030
  333 10177 20055 58027 83360
  555 10000=
42339 31995 60503 10096 20031 40204 70500 80001
  333 10217 20093 58035 86070
  555 10000=
42348 31995 30205 10114 20027 40188 70500 80001
  333 10200 20072 58019 83070
  555 10000=
42369 21/93 90000 10134 20127 40172 74544 89///
  333 10193 20100 59006
  555 00025 10012=
42375 NIL=
42379 21594 50902 10148 20106 40173 71021 83530
  333 10195 20098 56690 59001 6998/ 83620 83360
  555 00008 10001=
42397 NIL=
42398 31595 70000 10128 20120 40201 71020 83431
  333 20087 58012
  555 10000=
42399 31496 80000 10144 20106 40187 70500 8562/
  333 20117 58009
  555 10000=
42403 31995 60000 10144 20126 40191 70511 86505
  333 20081 58004
  555 10000=
42404 31596 40501 10150 20125 40193 70511 82530
  333 20124 58002 82620 83360
  555 10000=
42410 31495 30000 10140 20126 40192 71000 81530
  333 20098 58062 81618 83359
  555 10000=
42415 32996 30000 10156 20111 40217 83050
  333 20104 58009 83360
  555 10000=
42423 31594 30000 10150 20136 40178 71044 82530
  333 20102 58015 82620 83360
  555 10005=
42475 21/92 90904 10160 20160 4//// 74344 89///
  333 10203 20150 58/// 6037/
  555 00366 10039=
42492 21494 80506 10142 20135 40178 79596 8492/
  333 20125 58005 6006/ 84618 81930 87458
  555 00062 10007=
42500 21595 80000 10128 20124 40157 76162 8452/
  333 20098 58011 6001/ 84620 88458
  555 00014 10001=
42511 NIL=
42516 32996 10000 10130 20034 38447 48543 81030
  333 20079 58019
  555 10000=
42591 21994 80000 10146 20139 40189 76096 8572/
  333 20139 58008 6032/ 81710 85618 88458
  555 00321 10032=
42619 31996 00902 10158 20133 40181 70500
  333 20095 59003
  555 10000=
42623 31995 00902 10122 20071 39307 40202 70500
  333 20045 58007
  555 10000=
42647 31995 22902 10116 20061 40180 70500
  333 20104 58024 82070
  555 10000=
42675 21493 80000 10160 20153 40161 74696 8860/
  333 20156 59001 6021/ 88710
  555 00211 10021=
42701 31994 21804 10150 20122 39427 40173 71000 82030
  333 20101 58001 82360
  555 10003=
42724 31992 00000 10136 20125 40174 74444
  333 20080 59009
  555 10000=
42731 32996 33604 10156 20061 40190 80001
222// 20000
  333 20130 58021
  555 10000=
42737 32996 00504 10100 20042 40186
  333 20076 58015
  555 10000=
42779 31996 42506 10174 20151 39450 40158 70510 80002
  333 20152 59004 84075
  555 10001=
42798 31993 00000 10164 20132 40171 74244
  333 20117 59005
  555 10000=
42809 31995 00000 10190 20138 40177 70500
  333 20108 58006
  555 10000=
42867 21994 31102 10190 20174 40156 74441 82032
  333 20160 58004 6990/ 82360 83070
  555 00000 10000=
42886 31993 00501 10178 20147 40168 74244
  333 20153 59005
  555 10000=
42895 31995 00000 10178 20124 40171 70500
  333 20130 59010
  555 10000=
42971 31994 00201 10198 20175 40172 72840
  333 20159 59004
  555 10000=
42976 31994 03402 10196 20166 40172 71000
  333 20157 59005
  555 10000=
42977 NIL=
43003 31995 00000 10150 20078 40163 70400
  333 20136 58019
  555 10000=
43049 31995 03603 10200 20190 40167 70500
  333 20/// 58007
  555 10000=
43053 32996 03602 10226 20167 40169
222// 20701
  333 20180 59006
  555 10000=
43063 31996 00000 10122 20118 39517 40162 70500
  333 20071 58004
  555 10000=
43117 32997 00702 10196 20121 40152
  333 20161 59002
  555 10000=
43128 31496 71404 10202 20177 39547 40161 70522 84530
  333 10292 20188 56290 58007 84615 85360
  555 10000=
43149 31494 29902 10234 20210 30167 40170 71000
  333 10294 20192 56600 58000 82618
  555 10000=
43157 31996 00000 10168 20130 39507 40157 74440
  333 20152 58000
  555 10000=
43185 31596 41403 10250 20204 30156 40160 70521 82530
  333 10292 20210 58000 82620 83360
  555 00000 10000=
43192 31596 40503 10200 20167 40145 70500 81430
  333 20180 58006
  555 10000=
43201 32997 02302 10196 20171 39415 40144
  333 10310 20164 58004
  555 10000=
43221 32996 00000 10230 20205 30145 40158
  333 10305 20201 59002
  555 10000=
43263 NIL=
43279 31597 30000 10234 20197 30153 40171 70500 82501
  333 10306 20197 58004 82620
  555 10001=
43285 32597 20000 10248 20221 30116 40148 82500
  333 10336 20232 58005 82620
  555 10000=
43295 31997 30902 10184 20158 39130 48531 70500 80001
  333 10297 20169 58003 83075
  555 10000=
43333 31496 50706 10288 20233 40144 70510 84401
  333 20253 56109 58004 82618 83820
  555 10000=
43339 32/97 31412 10144 20000 37729 47170 81101
  333 10193 20091 58004
  555 10017=
43347 32597 33602 10234 20216 30143 40154 82501
  333 10289 20216 58007
  555 10007=
43371 31996 00000 10238 20223 30064 40137 70500
  333 10320 20222 58009
  555 10013=
43466 NIL=
43555 NIL=
48076 NIL=
48096 NIL=
0000009200
907
SAIN90 VOCI 110430
METAR VOCI 110430Z 09003KT 4000 HZ NSC 27/20 Q1014 NOSIG=
0000020000
908
SIBW50 VECC 110300
AAXX 11034
41863 NIL=
41883 NIL=
41907 NIL=
41909 NIL=
41923 NIL=
41929 NIL=
41933 NIL=
41936 NIL=
41946 NIL=
41951 NIL=
41953 NIL=
41978 NIL=
41984 NIL=
41992 NIL=

0000009400
909
SNNL54 EHDB 110400 RRG
AAXX 11041
06316 46/// /2108
333 91010 91110 91209=
0000009400
910
SNNL54 EHDB 110400 RRH
AAXX 11041
06331 46/// /1907
333 91008 91110 91208=
0000009400
911
SNNL54 EHDB 110400 RRI
AAXX 11041
06324 46/// /2106
333 91009 91109 91206=
0000009400
912
SNNL54 EHDB 110400 RRJ
AAXX 11041
06311 46/// /2205
333 91008 91108 91205=
00000000