0000017000
273
FTAG05 SABM 101800 RRA
TAF SAZM 101700Z 1018/1118 14010KT 9999 FEW030 TX22/1118Z TN13/1110Z
BECMG 1022/1101 18020G30KT CAVOK BECMG 1115/1118 15015KT=

0000081200
274
SACI31 ZBBB 101800
METAR ZBAA 101800Z 01002MPS 6000 NSC M09/M19 Q1032 NOSIG=
METAR ZBSJ 101800Z 32002MPS 1800 FU NSC M08/M14 Q1032 NOSIG=
METAR ZBTJ 101800Z 26001MPS 1300 R16R/P2000N BR NSC M07/M09 Q1032
NOSIG=
METAR ZBYN 101800Z 10001MPS 4000 HZ NSC M09/M20 Q1029 NOSIG=
METAR ZGGG 101800Z 09002MPS 6000 BKN043 13/08 Q1024 NOSIG=
METAR ZSHC 101800Z 33002MPS 300V030 6000 -RA SCT040 06/01
Q1031 NOSIG=
METAR ZSPD 101800Z 09004MPS 050V110 CAVOK 06/M00 Q1032 NOSIG=
METAR ZSSS 101800Z 10004MPS CAVOK 06/M01 Q1031 NOSIG=
METAR ZWSH 101800Z AUTO 33004MPS //// M08/M12 Q1033=
METAR ZWWW 101800Z VRB01MPS 0600 R25/1100N FZFG NSC M18/M20 Q1038
NOSIG=
METAR ZYTL 101800Z 00000MPS 4000 BR SCT033 M05/M09 Q1031 NOSIG=
METAR ZYTX 101800Z 15002MPS 6000 NSC M15/M21 Q1031 NOSIG=

0000092600
275
SACI32 ZBBB 101800
METAR ZGKL 101800Z VRB01MPS 2000 -RA BR OVC030 08/05 Q1025 NOSIG=
METAR ZGNN 101800Z 06002MPS 2300 BR FEW011 SCT013 OVC026
12/11
Q1021 NOSIG=
METAR ZGOW 101800Z 08002MPS 020V120 8000 NSC 13/09 Q1025 NOSIG=
METAR ZGSZ 101800Z 06002MPS 3500 HZ FEW020 SCT040 15/10 Q1024 NOSIG=
METAR ZLXY 101800Z 00000MPS 2500 BR NSC M04/M07 Q1030 NOSIG=
METAR ZMUB 101800Z VRB01MPS 5000NW FU NSC M32/M35 Q1024 NOSIG
RMK
QFE660.0 68 NT=
METAR ZPPP 101800Z 20005MPS CAVOK 07/01 Q1022 NOSIG=
METAR ZSAM 101800Z VRB01MPS 9999 OVC033 13/08 Q1026 NOSIG=
METAR ZSFZ 101800Z 35003MPS 290V030 9999 OVC025 10/04 Q1028 NOSIG=
METAR ZSNB 101800Z 00000MPS 7000 NSC 05/02 Q1031 NOSIG=
METAR ZSQD 101800Z 07001MPS 3000 BR NSC M04/M06 Q1033 NOSIG=
METAR ZUGY 101800Z 03002MPS 7000 -RA FEW003 BKN010 OVC026
01/01
Q1024 NOSIG=
METAR ZUUU 101800Z 33001MPS 5000 BR SCT040 06/02 Q1027 NOSIG=

0000029500
276
SATH33 VTBB 101800
METAR VTBO 101800Z NIL=
METAR VTUD 101800Z NIL=
METAR VTUI 101800Z NIL=
METAR VTUK 101800Z NIL=
METAR VTUL 101800Z NIL=
METAR VTUO 101800Z NIL=
METAR VTUQ 101800Z NIL=
METAR VTUU 101800Z NIL=
METAR VTUV 101800Z NIL=
METAR VTUW 101800Z NIL=

0000011800
277
SACN62 CYVQ 101800
METAR CYVQ 101800Z 28011KT 10SM -SN DRSN OVC080 M24/M28 A2972 RMK AC8
 SLP074=

0000012800
278
SACN62 CYQL 101800
METAR CYQL 101800Z 26028KT 40SM FEW110 SCT170 BKN220 03/M04 A2946 RMK
 AC1AC2CI3 SLP004=

0000013300
279
SACN62 CYSB 101800
METAR CYSB 101800Z 17012KT 1/4SM R22/1200FT/N -FZDZ FZFG VV001
 M05/M05 A3001 RMK FG8 SLP187=

0000011900
280
SACN62 CYPA 101800
METAR CYPA 101800Z 22007KT 15SM FEW120 BKN250 M09/M11 A2939 RMK
 AC2CI5 SLP983=

0000010700
281
SACN62 CYRT 101800
METAR CYRT 101800Z 35018KT 15SM IC DRSN SKC M31/M35 A2960 RMK SLP030=

0000012700
282
SACN62 CYWG 101800
METAR CYWG 101800Z 17014KT 6SM -SN DRSN BKN028 OVC070 M06/M08 A2943
 RMK SC6AC2 SLP981=

0000011900
283
SACN62 CYXH 101800
METAR CYXH 101800Z 25005KT 30SM FEW130 BKN270 M00/M06 A2946 RMK
 AC1CI5 SLP003=

0000010600
284
SACN62 CYXJ 101800
METAR CYXJ 101800Z 33004KT 15SM BKN082 M16/M19 A2944 RMK AC5 SLP027=

0000011900
285
SACN62 CYXL 101800
METAR CYXL 101800Z 18008KT 2 1/2SM -SN BR OVC006 M08/M09 A2955 RMK
 ST8 SLP034=

0000010000
286
SAAL31 DAAA 101800 RRA
METAR DAOO 101800Z 06002KT 9999 FEW023 BKN233 16/07 Q1015=

0000025500
287
SANZ31 NZKL 101800
METAR NZAA 101800Z AUTO 07002KT 9999 FEW031/// OVC044/// 15/12 Q1018
          NOSIG=
METAR NZWN 101800Z AUTO 02005KT 9999 NCD 14/11 Q1017 NOSIG=
METAR NZCH 101800Z AUTO 03004KT 9999 FEW017/// 12/11 Q1016 NOSIG=

0000024300
288
SATH31 VTBB 101800
METAR VTCH 101800Z NIL=
METAR VTCL 101800Z NIL=
METAR VTCN 101800Z NIL=
METAR VTCP 101800Z NIL=
METAR VTCT 101800Z NIL=
METAR VTPH 101800Z NIL=
METAR VTPO 101800Z NIL=
METAR VTPP 101800Z NIL=

0000011900
289
SACN62 CZFA 101800
METAR CZFA 101800Z 34004KT 30SM SCT061 OVC100 M12/M13 A2929 RMK
 SC3AC5 SLP972=

0000010500
290
SABZ24 SBPP 101800 RRA
METAR SBPP 101800Z 30006KT 9999 BKN025
FEW030TCU 30/20 Q1013=

0000011900
291
SACN62 CYYG 101800
METAR CYYG 101800Z 21014KT 15SM FEW120 SCT250 M05/M11 A3034 RMK
 AC1CI3 SLP277=

0000011100
292
SACN62 CYYB 101800
METAR CYYB 101800Z 18008KT 6SM BR OVC006 M05/M07 A3006 RMK ST8
 SLP206=

00000000