0000008900
873
SAVG31 TVSV 101900
METAR TVSV 101900Z 09016KT 9999 SCT020 28/21 Q1014=

0000066300
874
SAPR82 SPIM 101900
METAR SPHI 101900Z 20015KT 9999 FEW040 29/22 Q1010 RMK PP000=
METAR SPIM 101900Z 18011KT 9999 SCT009 SCT170 24/19 Q1010 NOSIG RMK 
PP000=
METAR SPQT 101900Z 03007KT 9999 VCSH BKN030 32/23 Q1007 TEMPO
 SHRA RMK PP000=
METAR SPQU 101900Z 25011KT 220V280 9999 BKN033 SCT150 18/09 Q1023
NOSIG RMK PP000=
METAR SPRU 101900Z 17010KT 9999 FEW030 25/19 Q1010 RMK PP000=
METAR SPSO 101900Z /////KT 9999 FEW080 BKN230 27/20 Q1009 
RMK BIRD HAZARD RWY 22/04 PP000=
METAR SPTN 101900Z 22011KT CAVOK 26/16 Q1008 RMK PP000=
METAR SPZO 101900Z 11007KT 070V150 9999 VCSH SCT040TCU BKN100 16/06 
Q1026 NOSIG RMK PP000=

0000013100
875
FTHK31 VHHH 101700 AAA
TAF AMD VMMC 101900Z 1019/1124 09010KT 8000 FEW030
    TEMPO 1019/1104 36008KT 4000 HZ=

0000011800
876
SABZ18 SBGR 101900
METAR SBGR 101900Z 36007KT 9999 TS VCSH SCT045
FEW060CB BKN100 31/1
5 Q1014=

0000010600
877
SACN61 CYDQ 101900
METAR CYDQ 101900Z AUTO 25012G17KT 9SM CLR M01/M08 A2946 RMK SLP016=

0000018700
878
FTSP32 LEMM 101400 AAA
TAF AMD LEAS 101859Z 1018/1115 28007KT 9999 SCT010 TX14/1114Z
TN08/1106Z TEMPO 1018/1103 3000 -RA BKN010 TEMPO 1019/1103
1500 DZ BCFG BKN006=

0000013100
879
SACN61 CYFC 101900
METAR CYFC 101900Z AUTO 22015KT 9SM CLR M02/M12 A3032 RMK MAX WND
 23022KT AT 1836Z SLP270=

0000011600
880
SACN61 CYHD 101900
METAR CYHD 101900Z AUTO 19011KT 2 1/2SM BR OVC006 M07/M07 A2950 RMK
 SLP018=

0000016300
881
SACY31 LCLK 101900
METAR LCLK 101900Z 31005KT CAVOK 10/05 Q1021 NOSIG=
METAR LCPH 101900Z 02005KT CAVOK 11/02 Q1022=
METAR LCNC 101900Z NIL=

0000066500
882
SPUS70 KWBC 101902
SPECI
K7R3 101854Z 12007KT 10SM SCT007 OVC048 18/18 A2998=
KAXO 101855Z 06008KTS 2 1SM BR VV001 15/14 A2999=
KBAZ 101858Z 22011G19KT 10SM FEW011 BKN038 OVC060 19/18 A2984 RMK
     AO2=
KDAW 101858Z AUTO 16003KT 1 3/4SM -SN BR FEW017 OVC030 M02/M04
     A3036 RMK AO2 P0000 T10221044=
PAOH 101858Z AUTO 00000KT 2 1/2SM UP BR FEW004 SCT015 BKN035 00/00
     A2954 RMK AO2 TSNO BKN V SCT P0000 $=
KFCI 101900Z AUTO 00000KT 3SM OVC003 03/M02 A3033 RMK AO1=
KTOI 101859Z AUTO 00000KT 1SM BR OVC003 12/11 A3009 RMK AO2
     T01220111=
KLFT 101859Z VRB06KT 10SM SCT010 SCT017 BKN048 19/16 A2994 RMK
     AO2=

0000010500
883
SANK31 MNMG 101900
METAR  
MNMG 101900Z 08014KT 9999 SCT025 33/18 Q1010 A2983 NOSIG=

0000010200
884
SASR31 WSSS 101900
METAR WSSS 101900Z VRB02KT 9999 FEW018 BKN150 25/23 Q1011 NOSIG=

0000008900
885
SADO31 TDPD 101900
METAR TDCF 101900Z 10004KT 9999 SCT019 29/18 Q1014=

0000008900
886
SAJM31 MKJS 101900
METAR MKJS 101900Z 06014KT 9999 FEW022 29/25 Q1014=

0000013800
887
SACN61 CYKL 101900
METAR CYKL 101900Z AUTO /////KT 2SM -SN OVC024 M12/M14 A2956 RMK VIS
 VRB 1 1/2-3 WND MISG SLP061=

0000017600
888
SACN61 CYHE 101900
METAR CYHE 101900Z AUTO 29012G28KT 270V330 3SM -RA BR OVC034 07/06
 A2994 RMK MAX WND 28021KT AT 1805Z PRESRR PCPN 3.2MM PAST HR SLP138=

0000012900
889
SACN62 CYHM 101900
METAR CYHM 101900Z 19008KT 5SM BR SCT006 BKN013 OVC018 02/00 A3012
 RMK SF3SC2SC3 SLP212=

0000012900
890
SACN62 CYKY 101900
METAR CYKY 101900Z 21004KT 15SM FEW050 SCT100 BKN240 M11/M13 A2941
 RMK SC1AC2CI3 SLP005=

0000010700
891
SAAG41 SAEZ 101900
METAR SAEZ 101900Z 28004KT 190V330 9999 FEW050TCU SCT100 32/17 Q1007=

0000010400
892
SAAG41 SASA 101900
METAR SASA 101900Z  09009KT 9999  FEW020TCU BKN100
 30/15 Q1009=

00000000