0000011700
813
SAUK31 EGGY 101720 RRA
METAR EGKK 101720Z 22006KT 9000 -RA SCT007 BKN010 BKN027 08/07
    Q1014=

0000008800
814
SPCN45 CWAO 101727
SPECI CYLK 101727Z 09006KT 3SM -SN OVC025 RMK SC8=

0000024600
815
SADL36 EDZO 101720
METAR ETMN 101720Z 25012KT 9999 SCT017 BKN039 07/05 Q1011
      BLU=
METAR ETNL 101720Z 27013KT 9999 BKN022 06/03 Q1010 RERA
      WHT=
METAR ETSI 101720Z 20003KT 9999 FEW045 02/01 Q1019
      BLU+=

0000072100
816
SANL33 EHDB 101725
METAR EHAK 101725Z AUTO 24024KT 9999 NSC 07/05 Q1007=
METAR EHDV 101725Z AUTO 23016KT 9999 NSC 07/05 Q1009=
METAR EHFD 101725Z AUTO 25023KT 9999 FEW006/// SCT010/// 07/06 Q1008=
METAR EHFZ 101725Z AUTO 23020KT //// // ///////// 07/05 Q1011 RE//=
METAR EHJA 101725Z AUTO 21023KT 9999 NSC 07/05 Q1011=
METAR EHJR 101725Z NIL=
METAR EHKV 101725Z AUTO 24021KT 9999 FEW013/// 09/05 Q1012=
METAR EHMA 101725Z AUTO 23018KT 9999 NCD 07/05 Q1012=
METAR EHMG 101725Z AUTO 24023KT 9999 NSC 08/05 Q1011=
METAR EHPG 101725Z AUTO ///21KT 9999 FEW022/// 09/06 Q1013=
METAR EHQE 101725Z AUTO 24021KT 9999 FEW015/// 09/05 Q////=
METAR EHSA 101725Z NIL=
METAR EHSC 101725Z NIL=

0000029900
817
FTCY31 LCLK 101730
TAF LCLK 101730Z 1018/1118 33006KT 9999 FEW030
         BECMG 1108/1111 20011KT
         BECMG 1115/1118 33006KT=
TAF LCPH 101730Z 1018/1118 03006KT 9999 FEW025
         BECMG 1106/1109 27011KT
         BECMG 1115/1518 03006KT=
TAF LCNC 101730Z NIL=

0000039000
818
FTCN35 CWAO 101700
TAF CYTR 101730Z 1018/1118 20005KT P6SM FEW003 OVC020 TEMPO 1018/1102
     2SM -SNRA BR OVC003 PROB30 1018/1102 2SM -FZDZ BR
    FM110200 15008KT P6SM SCT010 BKN025 TEMPO 1102/1106 3SM -RASN
     BKN010 PROB30 1102/1106 3SM -PL
    FM110600 15010G20KT 6SM -RA BR SCT006 OVC020 TEMPO 1106/1118 2SM
     RA BKN006
    RMK NXT FCST BY 110000Z=

0000026500
819
FTCN32 CWAO 101700
TAF CYOD 101730Z 1018/1118 25008KT P6SM SCT060
    FM102100 28010KT P6SM FEW020 BKN060
    FM110600 VRB03KT P6SM FEW060 SCT180 PROB30 1109/1112 1/2SM FZFG
    FM111600 11012KT 5SM -SN OVC060
    RMK NXT FCST BY 102100Z=

0000075900
820
FTUS31 KWBC 101730
TAF
KBNA 101729Z 1018/1118 17011KT P6SM OVC008
     FM102200 18012KT P6SM SCT008 OVC015
     FM110500 19015G25KT 3SM -SHRA BR OVC009
      TEMPO 1107/1111 2SM TSRA OVC007CB
     FM111400 26010G20KT P6SM OVC040=
KMCO 101728Z 1018/1118 14008KT P6SM SCT025 BKN200
     FM110000 12004KT P6SM BKN120
     FM110800 17005KT 5SM BR OVC005
     FM111400 19010G15KT P6SM SCT015 BKN150=
KSEA 101728Z 1018/1124 19014G22KT P6SM -RA BKN011 OVC019
     FM102200 17012KT 3SM RA BR OVC012
      TEMPO 1100/1104 2SM +RA BR OVC012
     FM110600 19018G30KT 5SM -RA BR OVC015
     FM110800 20025G40KT 5SM -RA BR OVC015
     FM111400 20018G32KT P6SM -RA OVC025
     FM111900 20024G38KT P6SM -SHRA BKN035 BKN060=

0000025200
821
FTCN37 CWAO 101700
TAF CYCX 101730Z 1018/1106 22008KT P6SM FEW120 BKN250
    FM102100 22005KT P6SM FEW030 TEMPO 1021/1101 P6SM -SHSN BKN030
    FM110100 22005KT P6SM BKN030 TEMPO 1101/1106 5SM -SHSN
    RMK NXT FCST BY 110000Z=

0000008700
822
FTUS41 KWBC 101730
TAF
KPGA 101729Z 1018/1118 VRB05KT P6SM SCT250=

0000138000
823
FTUS44 KWBC 101730
TAF
KBFI 101728Z 1018/1118 18012G20KT P6SM BKN019 OVC028
     FM102200 16012KT 4SM RA BR OVC012
      TEMPO 1100/1104 3SM +RA BR OVC012
     FM110600 18015G28KT 6SM -RA BR OVC018
     FM110800 18020G33KT 6SM -RA BR OVC018=
KBLI 101728Z 1018/1118 17008KT P6SM OVC027
     FM102000 16010KT 4SM -RA BR OVC015
     FM110000 15014G22KT 4SM RA BR OVC012
      TEMPO 1104/1108 2SM +RA BR OVC012
     FM110800 17025G35KT 5SM -RA BR OVC015=
KCLM 101728Z 1018/1118 29005KT P6SM SCT050 BKN120
     FM110000 11005KT 4SM RA BR OVC011
      TEMPO 1104/1108 2SM -RA OVC008
     FM111200 29010KT P6SM -RA OVC018=
KCTB 101729Z 1018/1118 27025G35KT P6SM SCT060 BKN120
     FM110300 26015KT P6SM BKN120
     FM111100 22025G35KT P6SM BKN120=
KGTF 101729Z 1018/1118 24025G35KT P6SM SCT050 BKN120
     FM110300 22015KT P6SM BKN100
     FM111100 20020G30KT P6SM BKN100=
KHLN 101729Z 1018/1118 27020G28KT P6SM BKN035
     FM110200 26010G20KT P6SM BKN050=
KHQM 101728Z 1018/1118 20010KT 3SM -RA BR SCT025 BKN045 OVC100
      TEMPO 1018/1022 BKN015 OVC025
     FM102200 12015KT 4SM -RA BR OVC012
     FM110000 13018G22KT 3SM RA BR OVC011
     FM110300 18025G38KT 3SM RA BR OVC015
     FM110600 18030G45KT 5SM -RA BR OVC015=
KHVR 101729Z 1018/1118 24015KT P6SM BKN090 BKN150
     FM110800 20010KT P6SM BKN120=

0000048000
824
FTCN37 CWAO 101700
TAF CYZX 101730Z 1018/1118 28008KT P6SM BKN040 TEMPO 1018/1022 4SM
     -SN BKN015
     BECMG 1018/1020 22008G18KT
    FM102200 21008KT P6SM SCT012 OVC030 TEMPO 1022/1105 4SM -SN
     BKN012
    FM110500 22005KT P6SM -RA SCT012 OVC025 TEMPO 1105/1108 4SM -RASN
     BR OVC012
    FM110800 19008KT 5SM -RA BR SCT008 OVC020 TEMPO 1108/1118 2SM -RA
     BR OVC008 PROB30 1110/1115 1SM -RA BR BKN005
    RMK NXT FCST BY 110000Z=

0000073600
825
FTIS32 LLBD 101700
TAF LLHA 101722Z 1018/1118 14006KT 9999 SCT030
     TEMPO 1018/1106 9000 -RA BKN020
     BECMG 1106/1109 28008KT 9999 SCT035
     TX17/1112Z TN11/1103Z=
TAF LLSD 101715Z 1018/1118 32008KT 9999 SCT025
     BECMG 1022/1100 14005KT
     TEMPO 1100/1106 9000 -RA BKN020
     BECMG 1106/1108 28010KT 9999 SCT030
     TX18/1112Z TN10/1103Z=
TAF LLIB 101727Z 1018/1118 VRB05KT 9999 BKN030
     PROB30 1100/1106 5000 BR SCT020
     BECMG 1106/1109 32010KT SCT030
     TX15/1112Z TN08/1103Z=
TAF LLHZ 101715Z 1018/1118 32008KT 9999 SCT025
     BECMG 1022/1100 14005KT
     TEMPO 1100/1106 9000 -RA BKN020
     BECMG 1106/1108 28010KT 9999 SCT030
     TX18/1112Z TN10/1103Z=

0000049800
826
FTUS44 KWBC 101730 RRA
TAF
KOLM 101728Z 1018/1118 19006KT 4SM -RA BR FEW007 BKN027 OVC040
      TEMPO 1018/1021 SCT007 OVC015
     FM102100 20006KT 3SM RA BR OVC009
      TEMPO 1100/1104 2SM +RA BR OVC006
     FM110600 20018G28KT 4SM RA BR OVC012=
KPAE 101728Z 1018/1118 19013KT P6SM OVC018
     FM102200 17014G22KT 3SM RA BR OVC012
      TEMPO 1100/1104 2SM +RA BR OVC012
     FM110600 19018G30KT 5SM -RA BR OVC015
     FM110800 20025G40KT 5SM -RA BR OVC015=

0000035400
827
FTCN36 CWAO 101700
TAF CYBG 101730Z 1018/1118 VRB03KT P6SM FEW030 FEW120 SCT240 TEMPO
     1018/1106 BKN030
    FM110600 10005KT P6SM SCT020 BKN030 OVC050 TEMPO 1106/1114 5SM
     -SN OVC020
    FM111400 10005KT 5SM -SN BKN020 TEMPO 1114/1118 2SM -SNPL BKN010
     PROB40 1114/1118 1SM -FZRA BR
    RMK NXT FCST BY 110000Z=

0000034400
828
FTMJ31 LWSK 101730
TAF LWSK 101730Z 1018/1118 VRB02KT 3000 BR OVC004 BECMG 1021/1023
1500 BR OVC003 PROB40 TEMPO 1103/1107 0200 FZFG OVC002 BECMG
1108/1110 5000 BR OVC004=
TAF LWOH 101730Z 1018/1118 VRB02KT 5000 BR BKN020 BECMG 1021/1023
0800 FG OVC003 TEMPO 1103/1107 0200 FG OVC001 BECMG 1109/1111 3000
BR BKN004=

0000081300
829
FTUS72 KWBC 101730
TAF
KBNA 101729Z 1018/1118 17011KT P6SM OVC008
     FM102200 18012KT P6SM SCT008 OVC015
     FM110500 19015G25KT 3SM -SHRA BR OVC009
      TEMPO 1107/1111 2SM TSRA OVC007CB
     FM111400 26010G20KT P6SM OVC040=
KCSV 101729Z 1018/1118 17006KT P6SM OVC007
     FM110300 17012G22KT 4SM -SHRA BR OVC004
     FM110800 18012G22KT 2SM SHRA BR OVC003
     FM111600 25010G20KT P6SM OVC015=
KMCO 101728Z 1018/1118 14008KT P6SM SCT025 BKN200
     FM110000 12004KT P6SM BKN120
     FM110800 17005KT 5SM BR OVC005
     FM111400 19010G15KT P6SM SCT015 BKN150=
KSFB 101728Z 1018/1118 14008KT P6SM SCT025 SCT200
      TEMPO 1018/1020 BKN025
     FM110000 15004KT P6SM BKN120
     FM110800 17005KT 5SM BR OVC005
     FM111400 19010G15KT P6SM SCT015 BKN150=

0000009700
830
FTUS73 KWBC 101730
TAF
KRAP 101729Z 1018/1118 32014G24KT P6SM SCT050 BKN120=

0000126100
831
FTUS74 KWBC 101730
TAF
KBFI 101728Z 1018/1118 18012G20KT P6SM BKN019 OVC028
     FM102200 16012KT 4SM RA BR OVC012
      TEMPO 1100/1104 3SM +RA BR OVC012
     FM110600 18015G28KT 6SM -RA BR OVC018
     FM110800 18020G33KT 6SM -RA BR OVC018=
KBLI 101728Z 1018/1118 17008KT P6SM OVC027
     FM102000 16010KT 4SM -RA BR OVC015
     FM110000 15014G22KT 4SM RA BR OVC012
      TEMPO 1104/1108 2SM +RA BR OVC012
     FM110800 17025G35KT 5SM -RA BR OVC015=
KBZN 101729Z 1018/1118 27010KT P6SM BKN060
     FM110600 24010KT P6SM BKN050=
KCLM 101728Z 1018/1118 29005KT P6SM SCT050 BKN120
     FM110000 11005KT 4SM RA BR OVC011
      TEMPO 1104/1108 2SM -RA OVC008
     FM111200 29010KT P6SM -RA OVC018=
KCTB 101729Z 1018/1118 27025G35KT P6SM SCT060 BKN120
     FM110300 26015KT P6SM BKN120
     FM111100 22025G35KT P6SM BKN120=
KFLG 101729Z 1018/1118 25010G15KT P6SM SCT250
     FM110100 VRB02KT P6SM SCT250=
KGCN 101729Z 1018/1118 26008KT P6SM SCT250
     FM110100 VRB02KT P6SM SCT250=
KGTF 101729Z 1018/1118 24025G35KT P6SM SCT050 BKN120
     FM110300 22015KT P6SM BKN100
     FM111100 20020G30KT P6SM BKN100=
KHLN 101729Z 1018/1118 27020G28KT P6SM BKN035
     FM110200 26010G20KT P6SM BKN050=

0000118700
832
FTUS74 KWBC 101730 RRA
TAF
KHQM 101728Z 1018/1118 20010KT 3SM -RA BR SCT025 BKN045 OVC100
      TEMPO 1018/1022 BKN015 OVC025
     FM102200 12015KT 4SM -RA BR OVC012
     FM110000 13018G22KT 3SM RA BR OVC011
     FM110300 18025G38KT 3SM RA BR OVC015
     FM110600 18030G45KT 5SM -RA BR OVC015=
KOLM 101728Z 1018/1118 19006KT 4SM -RA BR FEW007 BKN027 OVC040
      TEMPO 1018/1021 SCT007 OVC015
     FM102100 20006KT 3SM RA BR OVC009
      TEMPO 1100/1104 2SM +RA BR OVC006
     FM110600 20018G28KT 4SM RA BR OVC012=
KPAE 101728Z 1018/1118 19013KT P6SM OVC018
     FM102200 17014G22KT 3SM RA BR OVC012
      TEMPO 1100/1104 2SM +RA BR OVC012
     FM110600 19018G30KT 5SM -RA BR OVC015
     FM110800 20025G40KT 5SM -RA BR OVC015=
KPRC 101729Z 1018/1118 32008KT P6SM SCT250
     FM110100 VRB04KT P6SM SCT250=
KSEA 101728Z 1018/1124 19014G22KT P6SM -RA BKN011 OVC019
     FM102200 17012KT 3SM RA BR OVC012
      TEMPO 1100/1104 2SM +RA BR OVC012
     FM110600 19018G30KT 5SM -RA BR OVC015
     FM110800 20025G40KT 5SM -RA BR OVC015
     FM111400 20018G32KT P6SM -RA OVC025
     FM111900 20024G38KT P6SM -SHRA BKN035 BKN060=

00000000