0000169800
253
SAUS73 KWBC 101900 RRB
METAR
KLAN 101853Z 17009KT 5SM BR OVC006 01/M01 A2999=
KLAR 101853Z AUTO 29027G35KT 3SM HZ FEW100 M04/M09 A2965=
KLBF 101853Z AUTO 34014G21KT 10SM OVC039 06/M02 A2956=
KLBL 101855Z AUTO 31017KT 10SM CLR 09/M06 A2970=
KLEX 101854Z 17013KT 10SM OVC010 11/08 A3006=
KLNK 101854Z 00000KT 4SM BR BKN004 OVC013 01/M01 A2957=
KLOU 101853Z 15005KT 10SM OVC013 11/08 A3002=
KLOZ 101853Z AUTO 19008KT 10SM OVC020 14/08 A3009=
KLSE 101853Z 00000KT 2SM BR OVC007 00/M02 A2971=
KMBS 101853Z 18009KT 8SM OVC009 01/M01 A2999=
KMCI 101853Z 18009KT 1/2SM R19R/P6000FT HZ BKN004 OVC009 04/M01
     A2956=
KMDW 101851Z 16007KT 2 1/2SM BR OVC005 02/01 A2985=
KMHK 101852Z 25003KT 10SM OVC007 03/03 A2957=
KMKC 101854Z 18005KT 9SM SCT007 OVC026 05/04 A2956=
KMKE 101852Z 15012KT 1/2SM R01L/2600V3500FT BR OVC002 00/M01
     A2983=
KMKG 101855Z 14010KT 2SM HZ OVC007 01/M02 A2991=
KMLI 101852Z 12006KT 1 1/2SM BR OVC004 01/00 A2971=
KMOT 101854Z AUTO 24015G21KT 10SM FEW095 00/M07 A2940=
KMSN 101853Z 15009KT 2SM BR OVC003 M01/M01 A2978=
KMSP 101853Z 16011G16KT 5SM BR OVC006 M02/M03 A2964=
KOFF 101858Z 14005KT 1SM BR OVC003 01/01 A2957=
KOMA 101852Z 17005KT 1 3/4SM BR OVC005 01/M01 A2958=
KORD 101851Z 16010KT 1 3/4SM BR OVC004 01/M01 A2983=
KOSH 101853Z 14010KT 2SM BR OVC007 M01/M03 A2980=
KOTM 101853Z AUTO 15007KT 1 3/4SM BR OVC003 01/01 A2962=
KOWB 101856Z 15013KT 7SM OVC010 08/08 A2997=
KPAH 101853Z 17007KT 6SM BR FEW008 BKN060 OVC080 09/07 A2993=
KPIA 101854Z 16012KT 3SM -RA BR OVC005 02/01 A2976=
KPIR 101853Z AUTO 28010KT 10SM CLR 01/M04 A2955=
KPLN 101854Z AUTO 16006KT 5SM BR OVC007 M02/M04 A2993=

0000136400
254
SAUS73 KWBC 101900 RRC
METAR
KPTK 101853Z 18007KT 1 3/4SM BR OVC002 01/00 A3002=
KPUB 101853Z AUTO 29022G27KT 10SM CLR 08/M16 A2970=
KRAP 101852Z 35008KT 10SM SCT090 06/M08 A2957=
KRFD 101854Z 14012KT 2SM BR OVC004 01/00 A2980=
KRKS 101854Z AUTO 28021G30KT 10SM SCT018 SCT075 M02/M06 A2986=
KRST 101854Z 16011KT 1SM R31/5000VP6000FT BR OVC003 M01/M03
     A2964=
KSAW 101852Z 19011KT 5SM BR OVC009 M03/M05 A2977=
KSBN 101854Z 14006KT 1SM BR OVC004 02/01 A2992=
KSDF 101856Z 14009KT 10SM OVC012 11/08 A3001=
KSDM 101853Z 31004KT 10SM CLR 21/02 A3011=
KSGF 101852Z 15013KT 5SM -RA BR FEW003 BKN044 OVC060 07/07
     A2968=
KSLN 101853Z 27009KT 7SM OVC011 03/01 A2959=
KSPI 101852Z 18010KT 3SM -RA BR OVC006 03/03 A2977=
KSTC 101853Z 16010KT 1 1/2SM BR OVC005 M03/M04 A2959=
KSTJ 101853Z 18003KT 6SM BR OVC004 02/02 A2957=
KSTL 101851Z 15012KT 3SM -RA BR OVC004 05/03 A2977=
KSTP 101853Z 15011KT 2 1/2SM BR OVC006 M02/M03 A2965=
KSUS 101854Z 19006G18KT 7SM RA SCT009 BKN015 OVC070 07/05
     A2976=
KSUX 101852Z 16007KT 3/4SM R31/3000V4500FT BR OVC002 M01/M01
     A2956=
KTVC 101853Z VRB04KT 2SM BR OVC006 00/M02 A2989=
KUIN 101854Z AUTO 16008KT 1 1/2SM VCTS -RA BR OVC002 03/02
     A2966=
KWRL 101853Z AUTO 00000KT 10SM FEW120 M04/M08 A2970=
KYIP 101853Z 18007KT 4SM HZ OVC006 03/01 A3004=

0000013900
255
SAAE32 VTBB 101900
METAR VLLB 101900Z NIL=
METAR VLLN 101900Z NIL=
METAR VLPS 101900Z NIL=
METAR VLSK 101900Z NIL=

0000167800
256
SAUS74 KWBC 101900
METAR
KACV 101853Z AUTO 15003KT 10SM CLR 12/09 A3028=
KALW 101853Z 20011KT 10SM CLR 09/01 A3004=
KBFI 101853Z 18009G18KT 10SM OVC017 09/06 A3009=
KBFL 101854Z 00000KT 7SM CLR 13/04 A3029=
KBIL 101853Z 28021G29KT 10SM SCT085 SCT180 06/M04 A2958=
KBKE 101853Z AUTO 10007KT 10SM SCT055 BKN070 OVC090 04/M02
     A3006=
KBLI 101853Z 16008KT 10SM BKN027 BKN034 OVC042 08/04 A3002=
KBOI 101853Z 35005KT 10SM OVC090 05/M01 A3010=
KBTM 101853Z AUTO 26008G16KT 10SM FEW055 BKN090 01/M06 A2974=
KBUR 101853Z 00000KT 7SM CLR 20/04 A3011=
KBYI NIL=
KBZN 101856Z 28012KT 10SM FEW100 04/M07 A2972=
KCDC 101853Z AUTO 00000KT 10SM CLR 07/M05 A3012=
KCEC 101856Z AUTO 18012KT 8SM OVC065 11/09 A3028=
KCLM 101853Z AUTO 10003KT 10SM OVC019 08/04 A3005=
KCTB 101856Z AUTO 27013KT 10SM CLR 03/M04 A2952=
KCXL NIL=
KEKO 101856Z AUTO 24013KT 10SM CLR 07/M01 A3016=
KEUG 101854Z 16006KT 5SM BR OVC070 10/08 A3022=
KFAT 101853Z VRB03KT 3SM HZ SCT200 12/04 A3029=
KFLG 101857Z 30007G17KT 260V010 10SM CLR 08/M07 A3012=
KGCN 101854Z 30013G19KT 10SM CLR 08/M06 A3012=
KGEG 101853Z 22020KT 10SM FEW019 SCT060 SCT140 BKN200 03/00
     A2986=
KGGW 101853Z AUTO 24005KT 10SM CLR M02/M07 A2949=
KGTF 101853Z 26023G29KT 10SM SCT075 05/M05 A2956=
KHLN 101853Z 26019G30KT 10SM SCT027 04/M04 A2966=
KHQM 101853Z AUTO 17008KT 3SM BR SCT030 OVC043 A3012=
KIDA 101853Z 21012KT 10SM OVC014 00/M03 A2992=
KIWA NIL=
KLAS 101856Z 00000KT 10SM SCT250 14/M04 A3009=
KLAX 101853Z 24005KT 4SM HZ SCT160 SCT220 17/10 A3012=
KLGB 101853Z 00000KT 3SM HZ CLR 17/09 A3012=
KLMT 101853Z 00000KT 10SM -RA OVC041 06/M04 A3023=

0000165900
257
SAUS74 KWBC 101900 RRA
METAR
KLVM 101853Z AUTO 29013G17KT 10SM OVC060 05/M07 A2966=
KMFR 101853Z 36004KT 3SM BR OVC004 06/04 A3027=
KMLS 101853Z AUTO 25013KT 10SM BKN075 00/M05 A2955=
KMRY 101854Z 28004KT 9SM CLR 13/08 A3029=
KMSO 101853Z 00000KT 10SM OVC060 01/M01 A2983=
KMYV 101853Z AUTO 00000KT 10SM CLR 11/04 A3031=
KNTD 101854Z 16010KT 7SM SCT220 19/12 A3011=
KOAK 101853Z 21004KT 7SM BCFG FEW010 SCT180 BKN250 12/08 A3031=
KOGD 101853Z 20004KT 10SM BKN070 OVC110 03/M03 A3005=
KOLM 101854Z 21006KT 7SM FEW007 BKN038 OVC110 07/07 A3013=
KONT 101853Z 25003KT 5SM HZ SCT250 18/07 A3010=
KOTH 101855Z 26003KT 2 1/2SM OVC070 11/11 A3024=
KPAE 101853Z 19012KT 10SM BKN010 OVC018 08/05 A3006=
KPDX 101853Z 21003KT 10SM FEW021 BKN080 BKN120 11/06 A3018=
KPHX 101851Z 12004KT 10SM SCT250 14/M03 A3012=
KPIH 101853Z 23025G30KT 10SM SCT038 03/M02 A2995=
KPMD 101853Z 30009KT 10SM CLR 16/01 A3017=
KPRB 101853Z AUTO 00000KT 10SM CLR 13/04 A3026=
KPRC 101853Z VRB06KT 10SM CLR 11/M07 A3014=
KPSP 101853Z 00000KT 10SM CLR 21/M03 A3011=
KRBL 101854Z AUTO 32005KT 10SM FEW090 11/04 A3031=
KRDD 101853Z 00000KT 10SM CLR 11/05 A3029=
KRDM 101856Z 24005KT 10SM BKN046 BKN060 OVC100 08/01 A3011=
KRNO 101855Z 23003KT 10SM FEW075 SCT150 BKN180 OVC250 07/00
     A3031=
KRNT 101853Z 17010G17KT 10SM -RA OVC019 09/06 A3010=
KSAC 101853Z 00000KT 9SM CLR 11/06 A3031=
KSAN 101851Z 31006KT 7SM FEW017 SCT250 17/09 A3013=
KSBA 101853Z 14009KT 10SM CLR 18/09 A3010=
KSBD 101858Z 00000KT 10SM FEW120 21/12 A3010=
KSBP 101856Z 34010KT 10SM CLR 21/03 A3019=
KSCK 101855Z 30005KT 10SM CLR 12/06 A3030=

0000094200
258
SAUS74 KWBC 101900 RRB
METAR
KSEA 101853Z 20011KT 10SM -RA BKN013 OVC018 09/06 A3010=
KSFF 101853Z 25007G14KT 230V300 10SM BKN080 06/01 A2990=
KSFO 101856Z 07004KT 6SM R28R/1200V1800FT BR FEW001 SCT007 BKN200
     11/09 A3031=
KSHR 101853Z AUTO 18005KT 10SM OVC070 01/M04 A2960=
KSJC 101853Z 27003KT 10SM FEW003 SCT160 BKN250 12/08 A3031=
KSLC 101853Z 13009KT 10SM BKN065 BKN090 BKN150 04/M03 A3006=
KSMF 101853Z 01003KT 10SM BKN250 11/05 A3031=
KSMX 101851Z 31013KT 10SM FEW200 21/03 A3018=
KSNA 101853Z 01003KT 5SM HZ BKN250 18/09 A3012=
KSNS 101853Z 27003KT 10SM CLR 15/06 A3027=
KTIW 101853Z 19011KT 10SM SCT008 BKN014 OVC120 08/06 A3012=
KTUS 101853Z 00000KT 10SM CLR 15/M06 A3013=
KTVL 101853Z AUTO 00000KT 10SM CLR 07/M01 A3032=
KTWF 101853Z 25020G29KT 10SM CLR 08/M03 A3004=
KUKI 101856Z AUTO 01003KT 10SM CLR 11/06 A3030=
KYKM 101853Z 28022G28KT 10SM CLR 12/M03 A2994=
KYUM NIL=

0000010500
259
SACN62 CYYB 101900
METAR CYYB 101900Z 15008KT 8SM OVC006 M04/M06 A3004 RMK ST8 SLP198=

0000014500
260
SACN62 CYYC 101900
METAR CYYC 101900Z 04009KT 40SM FEW031 FEW100 BKN150 BKN300 M01/M09
 A2945 RMK CU1AC1AC4CI1 CU TR SLP015=

0000010600
261
SACN62 CYYE 101900
METAR CYYE 101900Z 31002KT 30SM BKN040 M16/M18 A2945 RMK SC7 SLP009=

0000010600
262
SACN62 CYYQ 101900
METAR CYYQ 101900Z 29005KT 15SM OVC270 M28/M32 A2969 RMK CI8 SLP058=

0000015100
263
SACN62 CYYJ 101900
METAR CYYJ 101900Z 22005KT 160V230 30SM FEW020 FEW036 BKN120 OVC250
 09/03 A3001 RMK SC1SC1AC5CI2 SC TR SLP164=

0000013500
264
SACN62 CZFA 101900
METAR CZFA 101900Z VRB02KT 30SM FEW060 SCT120 SCT160 M13/M14 A2929
 RMK SC1AC2AC1 AC TR SLP974=

0000012500
265
SACN61 CYYL 101900
METAR CYYL 101900Z AUTO 06009KT 030V100 1 3/4SM -SN OVC023 M18/M20
 A2945 RMK SLP009=

0000168900
266
SAUS75 KWBC 101900
METAR
PABA 101901Z AUTO 27021KT 1 1/2SM -SN BR M27/M29 A2986=
PABE 101853Z 03011KT 10SM BKN006 M09/M11 A2947=
PABI 101853Z 00000KT 9SM -SN OVC090 M18/M20 A2950=
PABR 101853Z 31010KT 10SM SCT006 M26/M28 A2993=
PABT 101853Z 00000KT 10SM FEW200 M32/M35 A2967=
PACV 101853Z 00000KT 7SM FEW015 BKN029 M02/M02 A2937=
PACZ 101855Z AUTO 04015G23KT 10SM BKN047 M05/M06 A2943=
PADK 101856Z AUTO 23018G29KT 10SM FEW020 SCT039 OVC060 04/01
     A2894=
PADL 101850Z 02006KT 10SM OVC010 M04/M04 A2948=
PADU 101856Z 13007KT 10SM -SN SCT022 SCT034 BKN041 03/00 A2931=
PAEH 101855Z AUTO 13013G23KT 10SM BKN011 01/00 A2936=
PAEI 101858Z AUTO 00000KT 10SM FEW045 OVC055 M18/M20 A2957=
PAEN 101853Z 00000KT 3/4SM BR VV002 M03/M04 A2943=
PAFA 101853Z 00000KT 10SM BKN085 M17/M20 A2958=
PAFB 101855Z 07003KT 13SM BKN080 M19/M22 A2958=
PAGA 101858Z AUTO 31003KT 10SM CLR M23/M26 A2969=
PAGK 101853Z AUTO 00000KT 1 1/4SM -SN BR OVC023 M09/M11 A2934=
PAGS 101856Z AUTO 11006KT 10SM FEW017 SCT022 BKN027 02/01
     A2950=
PAGY 101853Z AUTO 20023G31KT 10SM FEW019 OVC060 03/00 A2943=
PAHO 101853Z 00000KT 10SM BKN045 OVC050 M02/M04 A2942=
PAIL 101853Z 00000KT 10SM OVC022 M03/M04 A2948=
PAJN 101853Z 07007KT 10SM SCT017 BKN032 OVC055 02/01 A2953=
PAKN 101854Z 09003KT 10SM SCT004 OVC025 M03/M03 A2945=
PAKT 101853Z 18004KT 10SM FEW010 BKN028 03/02 A2971=
PALU 101855Z AUTO 09007KT 10SM OVC012 M18/M20 A3004=
PAMC 101853Z 00000KT 8SM BR SCT022 OVC085 M16/M18 A2957=
PANC 101853Z 00000KT 7SM -SN BKN005 OVC013 M03/M04 A2941=
PANT 101853Z 00000KT 10SM BKN065 01/01 A2970=
PAOM 101853Z 06006KT 10SM OVC090 M10/M15 A2964=

0000131500
267
SAUS75 KWBC 101900 RRA
METAR
PAOR 101853Z 00000KT 2SM -SN BKN022 OVC027 M16/M18 A2939=
PAOT 101853Z 02010KT 10SM CLR M17/M23 A2978=
PAPG NIL=
PASC 101853Z 24013KT 9SM OVC024 M31/M34 A2989=
PASI 101853Z 11005KT 10SM BKN019 OVC024 02/01 A2958=
PASN 101853Z 00000KT 10SM OVC014 M02/M02 A2917=
PATA 101852Z 00000KT 10SM CLR M34/M37 A2966=
PATC 101855Z AUTO 03018KT 10SM CLR M18/M20 A2974=
PATK 101853Z 00000KT 10SM OVC018 M06/M09 A2941=
PAUN 101856Z AUTO 08015KT 10SM FEW047 M14/M20 A2960=
PAVD 101856Z 10SM FEW015 BKN090 BKN120 M04/M04 A2938=
PAYA 101853Z 06003KT 10SM SCT018 BKN024 OVC042 01/00 A2943=
PGRO NIL=
PGUA 101858Z AUTO 06014G22KT 10SM BKN020 25/23 A2988=
PGUM 101854Z 06011KT 10SM CLR 26/22 A2988=
PHJH 101850Z 02010KT 15SM VCSH FEW015 FEW030 SCT045 22/20
     A3002=
PHLI 101901Z 04014KT 10SM SCT023 24/19 A3005=
PHLI 101853Z 04014KT 10SM SCT021 BKN026 24/19 A3005=
PHMK 101854Z 02007G17KT 10SM SCT016 23/21 A3002=
PHNL 101853Z 34005KT 10SM FEW025 SCT034 SCT039 23/18 A3001=
PHNY 101856Z AUTO 06009G17KT 10SM CLR 22/17 A3005=
PHOG 101854Z 00000KT 10SM FEW021 SCT030 24/21 A3002=
PHTO 101853Z 23003KT 10SM FEW030 FEW100 23/15 A3001=
PMDY 101856Z AUTO 10013KT 7SM BKN034 BKN042 19/14 A3024=
PWAK 101855Z 08010KT 10SM FEW024 26/26 A2999=

0000012200
268
SACN62 CYYY 101900
METAR CYYY 101900Z 22011G17KT 30SM FEW010 BKN100 M05/M14 A3016 RMK
 SC1AC6 SLP219=

0000014100
269
SACN62 CYYZ 101900
METAR CYYZ 101900Z 17005KT 1SM R24R/6000FT/N R23/6000FT/U BR OVC003
 M00/M01 A3014 RMK FG1ST7 SLP217=

0000080300
270
SACI31 ZBBB 101900
METAR ZBAA 101900Z 35001MPS 6000 NSC M10/M19 Q1032 NOSIG=
METAR ZBSJ 101900Z 28001MPS 1800 FU NSC M08/M15 Q1032 NOSIG=
METAR ZBTJ 101900Z 23002MPS 1300 R16R/P2000N BR NSC M03/M08 Q1032
NOSIG=
METAR ZBYN 101900Z 12001MPS 5000 HZ NSC M09/M19 Q1029 NOSIG=
METAR ZGGG 101900Z 06002MPS 6000 BKN040 13/08 Q1024 NOSIG=
METAR ZSHC 101900Z 02002MPS 350V050 6000 -RA SCT030 05/02
Q1031 NOSIG=
METAR ZSPD 101900Z 09004MPS CAVOK 06/00 Q1031 NOSIG=
METAR ZSSS 101900Z 10004MPS CAVOK 06/M01 Q1031 NOSIG=
METAR ZWSH 101900Z AUTO 33004MPS //// M08/M12 Q1033=
METAR ZWWW 101900Z VRB01MPS 0600 R25/1100N FZFG NSC M19/M21 Q1037
NOSIG=
METAR ZYTL 101900Z 00000MPS 4000 BR SCT033 M05/M08 Q1031 NOSIG=
METAR ZYTX 101900Z 00000MPS 6000 NSC M16/M21 Q1031 NOSIG=

0000016500
271
SATH41 VTBB 101900
METAR VTPB 101900Z NIL=
METAR VTPM 101900Z NIL=
METAR VTSE 101900Z NIL=
METAR VTSK 101900Z NIL=
METAR VTUJ 101900Z NIL=

0000093200
272
SACI32 ZBBB 101900
METAR ZGKL 101900Z 04002MPS 020V080 2000 -RA BR OVC030 07/05 Q1025
NOSIG=
METAR ZGNN 101900Z 06003MPS 1900 -RA BR FEW008 SCT011 OVC020
12/11
Q1021 NOSIG=
METAR ZGOW 101900Z VRB01MPS 7000 NSC 12/09 Q1025 NOSIG=
METAR ZGSZ 101900Z 05003MPS 3500 BR SCT020 BKN050 14/10 Q1024 NOSIG=
METAR ZLXY 101900Z 00000MPS 2500 HZ NSC M03/M08 Q1030 NOSIG=
METAR ZMUB 101900Z 00000MPS 5000NW FU NSC M31/M34 Q1025 NOSIG
RMK
QFE660.4 73 NT=
METAR ZPPP 101900Z 20006MPS CAVOK 07/01 Q1022 NOSIG=
METAR ZSAM 101900Z 29001MPS 9999 OVC033 13/08 Q1026 NOSIG=
METAR ZSFZ 101900Z 34002MPS 290V040 9999 OVC025 11/04 Q1027 NOSIG=
METAR ZSNB 101900Z 00000MPS 7000 NSC 05/02 Q1031 NOSIG=
METAR ZSQD 101900Z 08001MPS 3500 BR NSC M04/M07 Q1033 NOSIG=
METAR ZUGY 101900Z 02002MPS 6000 -RA FEW003 BKN010 OVC026
01/01
Q1024 NOSIG=
METAR ZUUU 101900Z VRB01MPS 5000 BR SCT040 06/02 Q1027 NOSIG=

00000000