0000009700
873
SPCN47 CWAO 110017
SPECI CYWA 110017Z AUTO 13003KT 5/8SM OVC001 M04/M05 A3011=

0000009500
874
SALC31 TLPL 110000
METAR TLPL 110000Z 07018KT 9999 SCT020 25/22 Q1015 NOSIG=

0000010400
875
SAYG31 LYBM 110000 RRA
METAR LYPG 110000Z 31003KT 6000 FEW100 07/06 Q1023 TEMPO 3000=

0000009600
876
SANG31 YBBN 110000 RRA
METAR AGGH 110000Z 36006KT 9999 HZ FEW020 31/25 Q1007=

0000011200
877
SPCN51 CWAO 110019
SPECI CZCP 110019Z AUTO 30016G21KT 1 1/4SM -SN SCT001 BKN009 M33/
A2944=

0000057500
878
SAVN20 SVMR 110000
METAR SVCR 110000Z NIL=
METAR SVMC 110000Z NIL=
METAR SVBM 110000Z 07006KT 9999 FEW016 23/17 Q1016=
METAR SVBS 110000Z 00000KT CAVOK 26/18 Q1014=
METAR SVMI 110000Z 05001KT 9999 SCT016 25/21 Q1013 NOSIG=
METAR SVFM 110000Z NIL=
METAR SVBC 110000Z NIL=
METAR SVCU 110000Z NIL=
METAR SVMG 110000Z NIL=
METAR SVAC 110000Z NIL=
METAR SVMT 110000Z 02008KT CAVOK 26/22 Q1010=
METAR SVBI 110000Z 09003KT CAVOK 28/12 Q1009=
METAR SVCB 110000Z 09004KT CAVOK 26/// Q1010=
METAR SVVA 110000Z NIL=
METAR SVSO 110000Z NIL=

0000011300
879
SALT33 EYVI 110020
METAR EYPA 110020Z AUTO 30006KT 230V360 9999 -SHRA BKN014/// 02/00
Q1003=

0000010600
880
SPCN51 CWAO 110020
SPECI CZCP 110020Z AUTO 30016G21KT 1 1/4SM SCT001 BKN009 M33/ A2944=

0000026100
881
SAID33 WIII 110000
METAR WARQ 110000Z 00000KT 3000 HZ FEW015 25/24 Q1009= 
METAR WATT 110000Z 00000KT 9999 SCT018 28/25 Q1011 NOSIG=
METAR WABP NIL=
METAR WAJJ NIL=
METAR WAKK NIL=
METAR WAPP NIL=
METAR WARS NIL=
METAR WALR NIL=

0000003900
882
SIVD22 RJTD 110900
NIL=
0000010500
883
SPCN41 CWAO 110025
SPECI CZMT 110025Z 10004KT 15SM FEW009 BKN024 OVC030 RMK CU2SC5SC2=

0000032400
884
SANL31 EHDB 110025
METAR EHAM 110025Z 20013KT 9000 FEW010 SCT012 BKN031 06/04 Q1014
NOSIG=
METAR EHBK 110025Z AUTO 21010KT 9999 NCD 03/01 Q1016=
METAR EHGG 110025Z AUTO 22014KT 6000 FEW009 BKN011 OVC041 06/05
Q1013=
METAR EHRD 110025Z AUTO 20013KT 170V230 6000 FEW009 BKN010 06/04
Q1014 NOSIG=

0000064200
885
SAGR31 LGAT 110020
METAR LGAD 110020Z NIL=
METAR LGAV 110020Z VRB02KT CAVOK 09/06 Q1020 NOSIG=
METAR LGIR 110020Z 17010KT CAVOK 11/09 Q1021 NOSIG=
METAR LGKL 110020Z AUTO 30004KT //// // ////// 10/08 Q1022
     RE//=
METAR LGKO 110020Z NIL=
METAR LGKR 110020Z 00000KT 9999 FEW014 SCT018 BKN070 11/10 Q1021
 NOSIG=
METAR LGLM 110020Z AUTO 36005KT //// // ////// 12/10 Q1020
     RE//=
METAR LGRP 110020Z 00000KT 9999 FEW018 12/08 Q1021 NOSIG=
METAR LGSA 110020Z 26016KT 9999 FEW020 14/09 Q1020=
METAR LGSM 110020Z NIL=
METAR LGTS 110020Z 00000KT 7000 FEW010 SCT025 BKN180 05/04 Q1021
      NOSIG=

0000044700
886
SAGR32 LGAT 110020
METAR LGAL 110020Z NIL=
METAR LGEL 110020Z NIL=
METAR LGIO 110020Z AUTO 00000KT //// // ////// 06/06 Q1022
     RE//=
METAR LGKV 110020Z NIL=
METAR LGMT 110020Z NIL=
METAR LGPZ 110020Z AUTO 07005KT //// // ////// 12/10 Q1023
     RE//=
METAR LGRX 110020Z NIL=
METAR LGSK 110020Z NIL=
METAR LGSR 110020Z AUTO 23010KT 200V260 //// // //////
     15/11 Q1020 RE//=
METAR LGZA 110020Z NIL=

0000043900
887
SAGR33 LGAT 110020
METAR LGBL 110020Z NIL=
METAR LGHI 110020Z NIL=
METAR LGKC 110020Z NIL=
METAR LGKF 110020Z AUTO VRB02KT //// // ////// 14/09 Q1022
     RE//=
METAR LGKP 110020Z NIL=
METAR LGKZ 110020Z AUTO 34012KT //// // ////// 07/00 Q1020
     RE//=
METAR LGMK 110020Z NIL=
METAR LGNX 110020Z NIL=
METAR LGPA 110020Z AUTO 09004KT //// // ////// 13/13 Q1019
     RE//=
METAR LGSO 110020Z NIL=

0000019100
888
FTCN33 CWAO 110000 AAA
TAF AMD CYVM 110024Z 1100/1107 VRB03KT P6SM SCT015 BKN040 TEMPO
     1100/1107 4SM IC BKN015
    RMK FCST BASED ON AUTO OBS. NXT FCST BY 110100Z=

0000011900
889
SPUS41 KWBC 110011
SPECI
KWRI 110007Z AUTO 02004KT 1 1/2SM R06/2800FT -RA BR OVC004 02/02
A3029=

0000008900
890
SAMP31 LMMM 110030 RRA
METAR HLLT 110020Z
17006KT CAVOK 10/06 Q1023=

0000039500
891
SABX31 EBBR 110020
METAR EBAW 110020Z AUTO 22009KT 180V240 9999 OVC008/// 05/02 Q1016=
METAR EBBR 110020Z 21007KT 9999 BKN011 04/02 Q1016 NOSIG=
METAR EBCI 110020Z 19007KT 9999 FEW009 03/02 Q1016 NOSIG=
METAR EBLG 110020Z 18010KT CAVOK 03/01 Q1016 NOSIG=
METAR EBOS 110020Z 19010KT 9999 BKN008 04/02 Q1016 NOSIG=
METAR ELLX 110020Z AUTO VRB02KT 9999 NDV 02/01 Q1017=

0000047300
892
SAOS31 LOWM 110020
METAR LOWW 110020Z 15003KT CAVOK 00/M02 Q1020 NOSIG=
METAR LOWL 110020Z AUTO VRB01KT 9000 NCD M01/M01 Q1020=
METAR LOWS 110020Z AUTO 31003KT 9999 OVC060 02/02 Q1019=
METAR LOWI 110020Z AUTO VRB02KT 6000 BCFG OVC003 03/03 Q1020
    R88///////=
METAR LOWG 110020Z AUTO VRB01KT 0700 R35/0800N R17/0750N FG SCT002
    BKN008 03/03 Q1020 R88///////=
METAR LOWK 110020Z AUTO 29003KT 4200 BR OVC002 01/01 Q1021
    R88///////=

00000000