0000024100
593
SOAT10 KWAL 110458
FA8005BC 011045837 OT12 ID:KN-BASS-01 DT:2014 01 11 04 56
:RD -3185 -3220 -3206 -3209 -3202 -3177 -3227 -3185 -3208 -3184
:PR 0435 0467 0465 0501 0495 0522 0489 0424 0459 0477
:B 13.7V
 46+1NN 219E
0000012200
594
SNRE15 FMEE 110500
AAXX 11054
61997 26/// /3328 10077 20074 39867 40043 56030
  333 60045 90710 91145=
0000320700
595
UDAS02 BABJ 110448
AMDAR 1104
ASC CNFNXP 3644N 11714E 110442 F043 MS043 253/015 TB/ S//1=
ASC CNFNXP 3641N 11714E 110443 F059 MS068 270/024 TB/ S//1=
ASC CNFNXP 3639N 11715E 110443 F075 MS088 279/026 TB/ S//1=
ASC CNFNXP 3636N 11715E 110444 F090 MS115 283/028 TB/ S//1=
LVR CNFNXL 2343N 11423E 110443 F167 MS073 253/045 TB/ S//1=
ASC CNFNXL 2346N 11426E 110443 F176 MS085 259/052 TB/ S//1=
ASC CNFNXL 2350N 11428E 110444 F190 MS103 269/057 TB/ S//1=
ASC CNFNXL 2353N 11431E 110444 F202 MS108 264/067 TB/ S//1=
LVR CNFOZM 1902N 10935E 110442 F177 MS050 249/028 TB/ S//1=
DES CNFOZM 1857N 10932E 110443 F166 MS035 259/027 TB/ S//1=
DES CNFOZM 1855N 10931E 110444 F157 MS018 250/026 TB/ S//1=
DES CNFOZM 1853N 10929E 110444 F157 MS014 251/027 TB/ S//1=
ASC CNFNXN 4019N 11631E 110443 F107 MS170 278/030 TB/ S//1=
ASC CNFNXN 4020N 11631E 110443 F114 MS180 281/030 TB/ S//1=
ASC CNFNXN 4022N 11629E 110444 F130 MS213 270/036 TB/ S//1=
ASC CNFNXN 4022N 11626E 110445 F145 MS245 273/037 TB/ S//1=
DES CNFPXL 2603N 10401E 110443 F217 MS160 259/081 TB/ S//1=
LVR CNFPXL 2601N 10358E 110443 F217 MS168 261/079 TB/ S//1=
LVR CNFPXL 2600N 10356E 110444 F217 MS169 260/078 TB/ S//1=
DES CNFPXL 2557N 10352E 110445 F211 MS158 264/070 TB/ S//1=
LVR CNFLWQ 3853N 11401E 110436 F276 MS505 273/068 TB/ S//1=
ASC CNFLWQ 3836N 11348E 110439 F290 MS515 271/076 TB/ S//1=
ASC CNFLWQ 3823N 11330E 110442 F333 MS530 268/088 TB/ S//1=
LVR CNFLWQ 3811N 11313E 110445 F341 MS533 265/097 TB/ S//1=
ASC CNFPYM 3651N 11713E 110445 F001 PS043 252/009 TB/ S//1=
ASC CNFPYM 3650N 11713E 110445 F005 PS028 288/008 TB/ S//1=
DES CNFLWN 2636N 10642E 110443 F123 PS003 268/040 TB/ S//1=
DES CNFLWN 2633N 10642E 110444 F119 PS009 265/039 TB/ S//1=
DES CNFLWN 2632N 10642E 110444 F118 PS005 263/038 TB/ S//1=
DES CNFLWN 2630N 10641E 110445 F118 PS008 263/037 TB/ S//1=
DES CNFLZP 2356N 11641E 110443 F120 PS008 263/030 TB/ S//1=
DES CNFLZP 2353N 11638E 110443 F104 MS009 238/018 TB/ S//1=
DES CNFLZP 2349N 11635E 110444 F097 MS010 210/016 TB/ S//1=
DES CNFLZP 2345N 11632E 110445 F083 PS020 222/014 TB/ S//1=
ASC CNFPYM 3649N 11713E 110446 F011 PS008 277/010 TB/ S//1=
LVR CNFNXQ 3637N 11619E 110444 F236 MS375 263/069 TB/ S//1=
LVR CNFNXQ 3636N 11616E 110445 F236 MS373 269/070 TB/ S//1=
LVR CNFNXQ 3636N 11615E 110445 F236 MS373 265/069 TB/ S//1=
LVR CNFNXQ 3636N 11612E 110446 F236 MS375 264/069 TB/ S//1=
ASC CNFNXL 2356N 11434E 110445 F210 MS118 256/069 TB/ S//1=
ASC CNFNXL 2358N 11435E 110445 F212 MS124 255/070 TB/ S//1=
ASC CNFNXL 2400N 11437E 110445 F219 MS143 259/071 TB/ S//1=
ASC CNFNXL 2404N 11440E 110446 F236 MS138 259/069 TB/ S//1=
ASC CNFNXN 4021N 11623E 110445 F160 MS279 274/037 TB/ S//1=
ASC CNFNXN 4021N 11620E 110446 F175 MS301 281/048 TB/ S//1=
ASC CNFNXN 4020N 11618E 110446 F186 MS315 282/051 TB/ S//1=
ASC CNFNXN 4020N 11617E 110446 F188 MS323 281/053 TB/ S//1=
ASC CNFNXP 3633N 11715E 110445 F104 MS133 283/035 TB/ S//1=
ASC CNFNXP 3630N 11716E 110445 F114 MS143 274/026 TB/ S//1=
ASC CNFNXP 3627N 11716E 110446 F131 MS168 270/027 TB/ S//1=
ASC CNFNXP 3624N 11717E 110446 F145 MS190 276/027 TB/ S//1=
0000047400
596
SSVX08 KARS 110455
ZZYY 32322 10014 12004 501979 095188 6112/
11119 01810 10237 29087
22219 00237
33311 88872 20000 32366 20001 32383 43474 20020 32334 20040 32268
20060 32002 20080 31522 20100 31416 20120 31396 20140 31380
20500 30816
444 20120 10014 1253/ 521// 60401=
ZZYY 32319 10014 1200/ 507990 110070 6113/
33311 88870 20020 32450 20080 32383 20100 32026 20120 31803
20180 31291 20300 31109 20500 30831
444 20130 10014 1310/ 521//=
0000011100
597
UANT01 CWAO 110456
ARP AAL120 4435N04736W 0456 F350 MS63 327/53 KT
N191AN DDL XXW 110456 F49A
0000032400
598
SAGU31 MGGT 110500
METAR
METAR MGMM  110500Z 00000KT CAVOK 22/21 Q1016 A3000=
METAR MGHT  110500Z 00000KT CAVOK 11/08 QFE817.0=
METAR MGPB  110500Z 20004KT 9999 SCT017 SCT080 23/22 Q1015 A2997=
METAR MGGT 110500Z 36012KT CAVOK 15/14 Q1026 A3030=
METAR MGSJ  110500Z 00000KT CAVOK 23/22 Q1013 A2991=
0000011000
599
UANT01 CWAO 110456
ARP DLH455 5713N05552W 0456 F370 MS59 282/73 KT
DABVM QXS YHO 110456 F08A
0000008000
600
UANT01 KWBC 110457
ARP TCV691 38N 050W 0451 F340 MS57 296/060KT=
0000008400
601
UAPA01 KWBC 110457
ARP UAL166 2100N 13749E 0450 F390 MS52 240/030KT=
0000011000
602
UANT01 CWAO 110457
ARP UAL91 5903N03938W 0457 F340 MS59 224/30 KT
N77022 DDL XXN 110457 F58A
0000010900
603
UANT01 CWAO 110457
ARP BAW94 5443N03341W 0457 F360 MS57 217/46 KT
GYMMB QXT AOE 110457 F17A
0000011100
604
UANT01 CWAO 110457
ARP DAL248 5658N05513W 0457 F380 MS60 276/64 KT
N810NW DDL YHO 110457 J26A
0000010400
605
SAIN90 VEPT 110450
METAR VEPT 110450Z 12008KT 0500 FG BKN015 OVC100 15/14
Q1018 NOSIG=
0000009200
606
SPIN90 VORY 110500
SPECI VORY 110500Z 08004KT 3000 HZ SCT020 24/18 Q1017=

0000010500
607
SAIN90 VEPT 110420
METAR VEPT 110420Z 11008KT 0500 -RA BKN015 OVC080 15/13
Q1018 NOSIG=
0000011000
608
UANT01 CWAO 110457
ARP BAW17V 4850N05145W 0457 F340 MS62 289/52 KT
GYMMT QXS YAY 110457 F00A
0000011000
609
UANT01 CWAO 110457
ARP VIR46C 5310N02837W 0457 F390 MS56 210/58 KT
GVWOW DDL XXN 110457 F96A
0000011000
610
UANT01 CWAO 110457
ARP UAL36 5130N03750W 0457 F370 MS55 241/16 KT
N21108 DDL IG1 110457 F74A
0000011000
611
UANT01 CWAO 110457
ARP UAL17 4737N05200W 0457 F360 MS66 306/42 KT
N48127 DDL YYT 110457 F33A
0000016000
612
SSVX13 LFVW 110458
ZZYY 17572 11014 0500/ 537924 171831 6110/
11119 40145 54000
22219 00205
444 20100 11014 0456/ 50101 80110 80000 9/015=
00000000