0000058300
233
SAIR32 OIII 110400
METAR OIAA 110400Z 09006KT 1200 BR SCT035 13/12 Q1018=
METAR OIBK 110400Z 10020KT 6000 -RA FEW030CB SCT025 OVC080 14/08
Q1019=
METAR OICC 110400Z 13010KT 4000 -SN FEW035CB SCT040 OVC080
M01/M03 Q1019 A3009 TEMPO SN=
METAR OIGG 110400Z VRB02KT 2000 BR FEW015CB BKN020
BKN080 02/02 Q1018=
METAR OIIE 110400Z 28006KT CAVOK M01/M06 Q1021 A3017 NOSIG=
METAR OITR 110400Z 27004KT 2500 BR SCT035 BKN140 M11/M13 Q1021
NOSIG=
METAR OIYY 110400Z 15004KT 9999 SCT035 BKN100 02/M02 Q1022=
METAR OAKN 110400Z NIL=
METAR OAKB 110400Z NIL=
0000055400
234
SAIR33 OIII 110400
METAR OIBB 110400Z 12004KT 9999 FEW030CB SCT040 OVC090 15/08 Q1018
A3008=
METAR OIBP 110400Z 25004KT 8000 HZ SCT020 OVC080 14/09
Q1018 A3009=
METAR OICK 110400Z 10004KT 8000 FEW010 FEW030CB SCT035 OVC080 01/00
Q1019 RESNRA=
METAR OICS 110400Z 16002KT 2500 BR SCT015 SCT035 BKN080 M04/M04
Q1020=
METAR OIHH 110400Z NIL=
METAR OINZ 110400Z 21008KT 9999 FEW100 BKN170 02/00 Q1019=
METAR OISR 110400Z 06004KT 9999 FEW035CB SCT040 OVC080 11/09
Q1021=
METAR OITL 110400Z NIL=
METAR OIZC 110400Z NIL=
0000056200
235
SAMS31 WMKK 110930
METAR WBGG 110930Z 36006KT 330V030 9999 SCT020 BKN300 28/23 Q1009
NOSIG=
METAR WBKK 110930Z 00000KT 9999 FEW014 SCT130 OVC260 28/24 Q1009 
NOSIG=
METAR WBSB 110930Z 22008KT 4000 -SHRA FEW005 FEW015CB SCT018 BKN280
28/25 Q1009 TEMPO 3000 SHRA=
METAR WMKK 110930Z 26006KT 210V320 9999 FEW017CB BKN280 31/25 Q1008 
NOSIG=
METAR WMKP 110930Z 05012KT 9999 FEW020 BKN140 BKN270 28/23 Q1009 
NOSIG=
METAR WSSL 110930Z NIL=
METAR WSSS 110930Z 03008G19KT 330V080 9999 VCTS FEW015CB FEW017TCU 
SCT170 28/24 Q1009 TEMPO TL1015 4000 TSRA=

0000009200
236
SAIN90 VIDP 110930
METAR VIDP 110930Z 31011KT 3000 HZ NSC 18/07 Q1017 NOSIG=
0000055200
237
SNVF11 BIRK 110400
BBXX
TFBKF 11044 99635 70202 46/// ///// 22200 10605 70024=
TFBLK 11044 99657 70248 46/// ///// 22200 10807 70035=
TFGRS 11044 99663 70182 46/// ///// 22200 10706 70030=
TFGRV 11044 99638 70225 46/// ///// 22200 10805 70027=
TFGSK 11044 99641 70229 46/// ///// 22200 10807 70033=
TFHFN 11044 99642 70152 46/// ///// 22200 10807 70033=
TFKGR 11044 99657 70136 46/// ///// 22200 10811 70053=
TFSRT 11044 99633 70203 46/// ///// 22200 10809 70043=
TFSTD 11044 99664 70234 46/// ///// 22200 10807 70033=
0000061700
238
SAIR34 OIII 110400
METAR OIAG 110400Z  10014KT 9999 SCT035CB BKN040 12/10 Q1020
 RESHRA=
METAR OIAM 110400Z  11016KT 2000 TS FEW030CB SCT040 OVC070 12/11
 Q1019=
METAR OICI 110400Z 14004KT 9999 SCT035 BKN090 03/02 Q1017 A3004=
METAR OIKQ 110400Z 09010KT 8000 FEW030 16/04 Q1021=
METAR OINN 110400Z VRB02KT CAVOK 06/02 Q1018=
METAR OINR 110400Z 00000KT CAVOK 06/04 Q1017=
METAR OISL 110400Z  00000KT 9999 FEW035CB SCT040 OVC100 08/04
 Q1021=
METAR OISY 110400Z  00000KT 2000 -SN FEW030CB SCT035 OVC080 M00/M01
 Q1022=
METAR OITZ 110400Z 14010KT 9999 SCT035 OVC090 M03/M06 Q1018=
0000012800
239
SASY31 OSDI 110200
OSDI 110200Z 00000KT 0100 FG FEW030 M01/M02 Q1021=
OSLK 110200Z 05004KT CAVOK 05/M01 Q1021=
0000019400
240
SIMG20 FMMD 101500 RRC
AAXX 10154
67009 31570 70000 10270 20244 39997 40115 53009 71592 8293/
  333 10338 81820 81920 86650 94974 94975 94976 95814 95815 95816
  555 81360=
0000023500
241
SIMG21 FMMD 101500 RRC
AAXX 10154
67107 32580 62606 10205 20134 38491 48529 55001 83806
  333 10242 82820 84273 555 82623=
67131 32481 73206 10/// 20/// 30087 40092 53003 85802
  333 10/// 85827 555 81640 82073=
0000046400
242
SAIR35 OIII 110400
METAR OIAD 110400Z NIL=
METAR OIBJ 110400Z 00000KT 6000 -RA SCT035 OVC080 09/08 Q1022=
METAR OIBS 110400Z 06028KT 9999 FEW035CB OVC100 20/13 Q1020=
METAR OIHR 110400Z NIL=
METAR OIKM 110400Z 30004KT 9999 SCT040 BKN080 04/02 Q1019=
METAR OIKR 110400Z NIL=
METAR OING 110400Z 00000KT 7000 FEW030 BKN090 03/03 Q1020=
METAR OIZB 110400Z 00000KT 5000 BR NSC M02/M04 Q1026=
METAR OIZI 110400Z 00000KT CAVOK 06/01 Q1025=
0000013000
243
SIIN90 VISM 110300
AAXX 11034
42062 32996 00000 10092 20045 38716 48427
  333 10104 20054 59002
  555 10040=
0000047000
244
SAIR36 OIII 110400
METAR OIBA 110400Z  06018KT 4000 SA FEW025CB FEW030 BKN100 19/11
 Q1020=
METAR OIBV 110400Z 09014KT 9999 SCT030 OVC090 15/07 Q1019=
METAR OIFS 110400Z 00000KT 6000 FEW040 SCT080 M11/M12 Q1020 RESN=
METAR OIIP 110400Z NIL=
METAR OIMB 110400Z 05004KT 9999 FEW035 M02/M11 Q1023=
METAR OIMN 110400Z 00000KT CAVOK M06/M08 Q1022=
METAR OIMS 110400Z NIL=
METAR OIMT 110400Z NIL=
METAR OIZJ 110400Z 03004KT CAVOK 15/06 Q1021=
0000053700
245
SAIR37 OIII 110400
METAR OIBL 110400Z 02010KT 7000 -RA SCT020 BKN080 14/07 Q1021=
METAR OIBQ 110400Z  12012KT 9999 FEW030CB SCT040 OVC090 16/11
 Q1019=
METAR OIIK 110400Z 00000KT 4000 HZ NSC M01/M05 Q1021=
METAR OIMC 110400Z 00000KT 9999 FEW040 SCT200 01/M06 Q1023=
METAR OIMD 110400Z 00000KT 9999 SCT035 M02/M04 Q1020=
METAR OIMQ 110400Z 00000KT 9999 SCT035 M02/M06 Q1023=
METAR OINE 110400Z 00000KT 6000 NSC 01/00 Q1019=
METAR OITK 110400Z NIL=
METAR OITM 110400Z 00000KT 0800 FG OVC010 M09/M09 Q1021=
0000011000
246
UANT99 KDDL 110402
ARP VIR12E 5009N03918W 0402 F380 MS54 274/33 KT
GVLUV DDL XXH 110402 J34A
0000010900
247
UANT99 KDDL 110402
ARP BAW9E 5034N03234W 0402 F400 MS54 227/54 KT
GVIIB QXT AOW 110402 F18A
0000056000
248
UKSD10 OEJD 110000 RRA
TTBB 60228 40375
00931 06840 11926 07836 22889 06656 33728 05704 44721
03357 55692 03567 66651 07163 77644 07169 88627 07367
99555 15361 11522 18367 22433 30360 33381 37964 44356
40569 55340 38378 66227 54370 77209 51577 88185 55178
99100 62977
21212 00931 20008 11890 33510 22793 33512 33779 32513
44728 33517 55685 29018 66593 32027 77455 33046 88280
28566 99244 29572 11173 27570 22169 27065 33164 26074
44136 27096 55126 27082 66116 28089 77106 27571 88100
27077
31313 48008 82219
41414 00900=
0000034000
249
USSD10 OEJD 110000 RRA
TTAA 60221 40375
99931 06840 20008 00174 ///// ///// 92825 07836 20005
85518 03637 33015 70066 03763 31016 50564 21163 32039
40725 34764 31547 30921 43582 29058 25042 50773 29566
20186 52777 28071 15370 57180 26578 10623 62977 27077
88227 54370 28569
77136 27096 42119
31313 48008 82219=
0000034000
250
USSD20 OEJD 110000 RRA
TTAA 60221 40375
99931 06840 20008 00174 ///// ///// 92825 07836 20005
85518 03637 33015 70066 03763 31016 50564 21163 32039
40725 34764 31547 30921 43582 29058 25042 50773 29566
20186 52777 28071 15370 57180 26578 10623 62977 27077
88227 54370 28569
77136 27096 42119
31313 48008 82219=
0000010900
251
UANT99 KDDL 110402
ARP XLF53 4438N02830W 0402 F390 MS49 225/55 KT
CGGTS QXT AOW 110402 J07A
0000012800
252
SNRE15 FMEE 110400
AAXX 11044
61998 26/// /2415 10057 21002 30024 40061 50008
  333 58026 60005 90710 91124=
00000000