0000022900
733
SAEO32 EETN 101850
METAR EEKA 101850Z NIL=
METAR EEKE 101850Z AUTO 34011KT 310V010 9999NDV -RA BKN014 OVC020 
03/02 Q0992=
METAR EETU 101850Z 34011KT 8000 -RA OVC005 02/00 Q0983=
METAR EEPU 101850Z NIL=

0000011300
734
SAVN23 SVBC 101900
METAR SVBC 101900Z NIL=
METAR SVMT 101900Z NIL=
METAR SVHG 101900Z NIL=

0000012500
735
SABZ24 SBPA 101900
METAR SBPA 101900Z 20014G25KT 9999 VCTS FEW016
SCT040 FEW048CB BKN080
 26/21 Q1009=

0000025300
736
SADL33 EDZO 101850
METAR EDFE 101850Z NIL=
METAR EDFH 101850Z 24007KT CAVOK 03/01 Q1017=
METAR EDFM 101850Z 12003KT CAVOK 04/03 Q1019=
METAR EDLV 101850Z 22010KT CAVOK 06/04 Q1016=
METAR EDVK 101850Z 21007KT CAVOK 03/00 Q1016=

0000010200
737
SACV20 GVSV 101900
METAR GVSV 101900Z 07014KT 9999 SCT023 BKN200 22/14 Q1015 NOSIG=

0000009700
738
SACS31 MROC 101900
METAR
MROC 101900Z 07012KT 9999 FEW030 27/12 A2996 NOSIG=

0000057100
739
SANO38 ENMI 101850
METAR ENDR 101850Z AUTO 05030KT M03/M10 Q1001=
METAR ENEK 101850Z 23025KT 9999 FEW010 BKN150 07/06 Q1004 W08/S4=
METAR ENGC 101850Z NIL=
METAR ENHE 101850Z 09026KT 9999 BKN036 M02/M09 Q1003 W///S5=
METAR ENOA 101850Z 12009KT 9999 -RA OVC012 05/03 Q0998 W///S4=
METAR ENSL 101850Z AUTO 27018KT 9999NDV FEW014/// 07/05 Q1001
           W06/S4=
METAR ENFB 101850Z AUTO 06017KT 9999NDV FEW020/// BKN041/// 05/00
           Q0999 W///S5=
METAR ENSF 101850Z AUTO 06018KT 9999NDV BKN043/// 05/00 Q0999
           W///S5=

0000034500
740
FCIN90 VANP 110900 RRB
TAF VABP 110900Z 1112/1121 05010KT 1500 BR FEW020 SCT100=
TAF VAID 110900Z 1112/1121 05010KT 1500 BR FEW020 SCT100=
TAF VANP 110900Z 1112/1121 32005KT 2000 HZ FEW025=
TAF VARP 110900Z 1112/1121 27006KT 5000 HZ SCT025 BECMG 1114/1116
VRB02KT 3000 HZ FEW025 SCT100 TEMPO 1112/1121 –RA/TSRA FEW030CB =
0000005200
741
RRIN23 VECC 110959
RQRPT 293-314=

0000008300
742
SAIN90 VARK 111000
METAR VARK 111000Z 06011KT 6000 NSC 22/08 Q1015=
0000005200
743
RRIN23 VIDP 110958
RQRPT 472-493=

0000005200
744
RRIN23 VIDP 110959
RQRPT 592-633=

0000005200
745
RRIN23 VIDP 110959
RQRPT 732-753=

0000034500
746
SZIO01 AMMC 111000
CREX++
T000103 A001 D01021 D06025++
-1211670 09689190 46280 2014 01 11 09 53 3022 11 07 00 01
01109 0027 01100 0021 01100 0023 01094 0019 01104 0031 01103 0032+
-1042940 10566940 46290 2014 01 11 09 53 //// 11 07 00 01
01307 -0082 01368 -0020 01350 -0037 01340 -0046 ///// //// ///// ////++
7777

0000009200
747
SAPK31 OPPS 110959
METAR OPPS 111000Z SE-04KT 5000 HZ FEW200 20/M02 Q1020.0=
0000069800
748
SXXX32 EUMS 110951 RRX
3601E29A
OT12 ID:DJ-BOUT-08 DT:2014 01 11 09 41
:RAD /1 01134 01140 01138 01138 01139 01141 01137 01148 01152 01151 01154 01154 01163 01159 01157 01163 01163 01172 01175 01173 01177 01175 01182 01178 01177 01174 01176 01176 01179 01181
:PR1 /1 01429 01428 01431 01425 01436 01438 /1437 01439 01439 01441 01448 01444 01424 01452 01446 01453 01454 01456 01465 01467 01466 01469 01464 01463 01462 01469 01466 01471 01470 01472
:PR2 /1 00003 00003 00003 00002 00002 00003 00002 00003 00003 00003 00003 00002 00002 00002 00003 00002 00003 00002 00003 00002 00003 00002 00002 00002 00003 00002 00002 00002 00002 00003
:TM1 /15 258 259 259 259
:BAT 13.5V
0000070500
749
SXXX32 EUMS 110951 RRX
26F364EA

ST STHELENA
DT 11/01/14 11/01/14
TM 09:45:00 09:30:00
RD 10000 10000 10000 10000 10000 10000 10000 10000 10000 10000 10000 10000 10000 10000 10000 10000 10000 10000 10000 10000 10000 10000 10000 10000 10000 10000 10000 10000 10000 10000
P1 01056 01049 00910 00618 01164 00616 01021 01349 00991 01002 00431 01097 00613 00770 00604 00881 01246 00759 00836 01042 00433 00784 00500 00771 00642 00866 00762 00789 00481 00432
P2 00017 00013 00013 00013 00016 00010 00017 00019 00018 00018 00019 00014 00014 00013 00018 00018 00014 00014 00026 00014 00044 00018 00019 00021 00017 00018 00020 00010 00018 00017
T1 00.0 00.0
T2 22.6 22.5
VB 13.2
0000070200
750
SXXX32 EUMS 110951 RRX
22E7E6D2
OT12 ID:ID-ROTE-11 DT:2014 01 11 09 49
:PRS /1 -10803 -10710 -10799 -10805 -10774 -10775 -10773 -10775 -10803 -10800 -10809 -10807 -10803 -10801 -10806 -10804 -10695 -10799 -10805 -10772 -10774 -10775 -10774 -10805 -10804 -10805 -10806 -10803 -10803 -10806
:PR2 /1 04504 04555 04522 04526 04533 04568 04548 04531 04545 04586 04528 04541 04566 04559 04567 04583 04582 04561 04565 04570 04578 04581 04585 04603 04587 04603 04609 04578 04604 04615
:RAD /1 06073 06081 06097 06101 06089 06077 06113 06113 06089 06125 06113 06137 06121 06121 06129 06153 06165 06173 06161 06145 06133 06165 06157 06173 06169 06141 06141 06201 06169 06189
:BAT 12.4V/
0000067200
751
SXXX32 EUMS 110952 RRX
32CC9580
OT12 ID:ID-ENGG-07 DT:2014 01 11 09 51
:PRS /1 01876 01904 01913 01864 01882 01882 01904 01860 01880 01889 01911 01945 01878 01901 01862 01919 01824 01853 01880 01924 01833 01881 01847 01845 01887 01843 01893 01844 01891 01833
:PR2 /1 05300 05341 05344 05338 05322 05301 05342 05285 05311 05300 05301 05302 05323 05316 05291 05314 05298 05309 05284 05316 05291 05293 05289 05305 05311 05276 05299 05287 05269 05276
:RAD /1 06190 06213 06214 06226 06200 06200 06207 06191 06182 06202 06178 06228 06178 06206 06171 06192 06187 06186 06177 06196 06177 06172 06168 06183 06201 06158 06199 06163 06154 06152
:BAT 13.7V/
0000070400
752
SXXX32 EUMS 110952 RRX
26BED7DE

ST TRISTAN
DT 11/01/14 11/01/14
TM 09:45:00 09:15:00
RD 00000 00000 00000 00000 00000 00000 00000 00000 00000 00000 00000 00000 00000 00000 00000 00000 00000 00000 00000 00000 00000 00000 00000 00000 00000 00000 00000 00000 00000 00000
P1 00000 00000 00000 00000 00000 00000 00000 00000 00000 00000 00000 00000 00000 00000 00000 00000 00000 00000 00000 00000 00000 00000 00000 00000 00000 00000 00000 00000 00000 00000
P2 00000 00000 00000 00000 00000 00000 00000 00000 00000 00000 00000 00000 00000 00000 00000 00000 00000 00000 00000 00000 00000 00000 00000 00000 00000 00000 00000 00000 00000 00000
T1 00.0 00.0
T2 00.0 00.0
VB 14.3
00000000