0000063300
453
FTUS80 KWBC 101745 AAA
TAF AMD
KDBQ 101744Z 1018/1118 15013KT 3/4SM -DZ BR OVC002
     FM102100 14008KT 3/4SM -RA BR OVC002
     FM110100 18003KT 1/2SM -RA FG OVC001
     FM110500 26005KT 1SM -FZRASN BR OVC002
     FM110700 29010KT 1SM -SN BR OVC002
     FM111300 29012KT 2SM BR VCSH OVC004
     FM111600 29012KT 6SM BR OVC020=
KMLI 101743Z 1018/1118 14010KT 1 1/2SM -RA BR OVC003
     FM102300 17008KT 1SM -RA BR OVC002
     FM110200 18003KT 1/2SM -RA FG OVC002
     FM110800 26005KT 1SM -FZRASN BR OVC003
     FM111000 28011KT 2SM -SN BR OVC004
     FM111400 28011KT 4SM BR VCSH OVC006=

0000011800
454
SPCN52 CWAO 101745
SPECI CWFD 101745Z AUTO 19012KT 3/4SM FEW002 M21/ A2876 RMK VSBY VRBL
0.4V2.8=

0000009300
455
SAEO32 EETN 101750
METAR EETU 101750Z 31005KT 5000 -DZ OVC004 04/03 Q0982=

0000008700
456
SPCN31 CWAO 101744
SPECI CYTR 101744Z 20005KT 6SM BR OVC009 RMK ST8=

0000080500
457
FTCH12 SCSC 101800 RRA
TAF SCIE 101615Z 1018/1118 20010KT CAVOK TX24/1018Z TN10/1110Z
     BECMG 1020/1022 20017KT
     BECMG 1101/1103 18008KT
     BECMG 1106/1108 VRB02KT=
TAF SCTE 101640Z 1018/1118 15012KT 9999 SCT040 TX18/1019Z TN08/1110Z
     BECMG 1102/1104 18003KT SCT020
     TEMPO 1108/1112 BKN013
     BECMG 1114/1116 16009KT 9999 FEW030=
TAF SCBA 101640Z 1018/1118 31025G37KT 9999 FEW045 TX17/1019Z TN05/
     1110Z
     BECMG 1100/1102 30017KT CAVOK
     BECMG 1114/1116 31024KT=
TAF SCCI 101638Z 1018/1118 24020G30KT 9999 SCT030 TN08/1109Z
     TX12/1018Z
     BECMG 1019/1021 BKN030
     BECMG 1101/1103 31013G27KT
     BECMG 1104/1106 8000 -SHRA BKN020
     BECMG 1110/1112 28025G40KT NSW SCT040
     TEMPO 1113/1118 8000 -SHRA BKN022=

0000179800
458
SPUS70 KWBC 101746
SPECI
PAHC 101742Z AUTO 36011KT 5SM -SN FEW009 BKN022 OVC049 M14/M17
     A2956 RMK AO2 TSNO BKN V SCT P0000 $=
PAHN 101742Z AUTO 07004KT 10SM OVC009 02/01 A2944 RMK AO2 RAE24
     P0000 T00170006 TSNO=
PAJZ 101746Z AUTO 00000KT 5SM BR OVC002 M06/M07 A2953 RMK AO2
     PWINO TSNO $=
KDMO 101742Z AUTO 17013KT 2 1/2SM -TSRA BR OVC003 07/06 A2969 RMK
     AO2 LTG DSNT ALQDS RAB17 TSB26 P0005 T00670061=
KFPR 101742Z 11006KT 10SM SCT014 BKN019 BKN025 24/21 A3013 RMK AO2
     P0001=
KIJD 101742Z AUTO 00000KT 2 1/2SM -SN BR OVC006 M03/M06 A3042 RMK
     AO2 UPB1655E33SNB33 P0001 T10331056=
KMSS 101742Z AUTO 00000KT 9SM BKN014 BKN048 OVC070 M02/M05 A3027
     RMK AO2 SNE08 P0000=
KSBY 101742Z 05005KT 2SM BR OVC003 05/03 A3037 RMK AO2 RAE31
     P0000=
KSHN 101742Z AUTO 22009KT 2SM -RA BR FEW011 BKN023 OVC029 07/06
     A3009 RMK AO2 VIS 1 1/2V3 P0002 T00720061 TSNO=
KTIW 101742Z 20010G18KT 10SM OVC011 08/06 A3011 RMK AO2=
KVIH 101742Z AUTO 16015G23KT 7SM -RA OVC004 05/04 A2974 RMK AO2
     LTG DSNT S AND SW RAE1654B30 P0002 T00500044=
KVPZ 101742Z AUTO 15008KT 1 3/4SM BR OVC004 01/01 A2996 RMK AO2
     PRESFR T00060006 TSNO=
PABA 101740Z AUTO 28019KT 3SM -SN BR M26/M28 A2985 RMK AO2 P0000
     FZRANO $=
PASC 101739Z 25013KT 10SM OVC030 M31/M34 A2989 RMK AO2=
KBAF 101743Z 20004KT 1 1/2SM -SN BKN028 OVC037 M03/M05 A3038 RMK
     AO2 P0000 T10281050=
KCSG 101743Z 09004KT 1 1/2SM BR OVC003 09/09 A3016 RMK AO2=
KFST 101743Z AUTO 27020G33KT 4SM HZ FEW005 19/M04 A2993 RMK AO2 PK
     WND 27033/1735 T01891039 TSNO=
KSMF 101743Z 01003KT 3/4SM R16R/P6000FT BR SCT001 BKN250 06/05
     A3032 RMK AO2=
KSRC 101743Z AUTO 17006KT 10SM BKN011 OVC018 08/08 A2993 RMK AO2
     TSNO PRESFR=

0000011100
459
SPUS41 KWBC 101746
SPECI
KMSS 101742Z AUTO 00000KT 9SM BKN014 BKN048 OVC070 M02/M05 A3027=

0000010500
460
SPUS42 KWBC 101746
SPECI
KFPR 101742Z 11006KT 10SM SCT014 BKN019 BKN025 24/21 A3013=

0000009400
461
SPUS44 KWBC 101746
SPECI
KTIW 101742Z 20010G18KT 10SM OVC011 08/06 A3011=

0000012300
462
SACA33 KWBC 101700 RRG
METAR
TFFR 101743Z 08015KT 040V110 9999 SCT031 SCT047 27/19 Q1015
     NOSIG=

0000009500
463
SPCN51 CWAO 101746
SPECI CWOB 101746Z AUTO 26008KT BKN012 BKN058 M19/ A2906=

0000019800
464
FTCN35 CWAO 101700 AAA
TAF AMD CYXZ 101746Z 1017/1024 21010G20KT 2SM -SN OVC005 TEMPO
     1017/1018 P6SM NSW OVC008 PROB30 1017/1018 5SM -FZDZ BR
    RMK NXT FCST BY 102000Z=

0000020200
465
SPIY43 LIIB 101741
SPECI LIBV 101738Z VRB01KT 1200 0900S R32L/P2000 R14R/0200D BCFG
      SCT001 09/09 Q1018 RMK SCT VIS MIN 0900S WIND THR32 /////KT WIND THR14
      00000KT AMB=

0000010200
466
SAAB31 LATI 101750
METAR LATI 101750Z 31002KT 9999 FEW030 BKN055 12/08 Q1021 NOSIG=

0000009300
467
SADL34 EDZO 101720 RRB
METAR EDNY 101720Z VRB02KT 9000 BKN060 04/02 Q1020=

0000023000
468
FTCN36 CWAO 101700
TAF CYGW 101742Z 1018/1106 22010KT 5SM -SN OVC015 TEMPO 1018/1103 6SM
     -SN SCT015 OVC040
    FM110300 18005KT P6SM BKN030 TEMPO 1103/1106 P6SM -SN BKN020
    RMK NXT FCST BY 110000Z=

0000017700
469
FTCN36 CWAO 101700
TAF CYPH 101742Z 1018/1106 28015KT P6SM FEW040
     BECMG 1020/1022 28008KT
     BECMG 1102/1104 VRB03KT
    RMK NXT FCST BY 110000Z=

0000023400
470
FTCN35 CWAO 101700
TAF CYMO 101742Z 1018/1101 21015KT P6SM -SN SCT015 OVC030 TEMPO
     1018/1101 3SM -SN BKN015
     BECMG 1022/1024 20010KT
    RMK FCST BASED ON AUTO OBS. NXT FCST WILL BE ISSUED AT 111145Z=

0000018200
471
FTCN36 CWAO 101700
TAF CYAH 101742Z 1018/1022 21015G25KT 1SM -SN BLSN OVC020 TEMPO
     1018/1022 21/2SM -SN OVC030
    RMK NXT FCST WILL BE ISSUED AT 111145Z=

0000023000
472
FTCN36 CWAO 101700
TAF CYUY 101743Z 1018/1106 21012G22KT 3SM -SN OVC007 TEMPO 1018/1022
     P6SM -SN OVC012
    FM102200 19010KT 3SM -SN OVC008 TEMPO 1022/1106 P6SM -SN OVC012
    RMK NXT FCST BY 110000Z=

00000000