0000017100
213
FTCN33 CWAO 101800
TAF CYIO 101838Z 1019/1107 15006KT P6SM -SN FEW025 BKN050 TEMPO
     1019/1107 5SM -SN BKN020 OVC050
    RMK NXT FCST BY 110100Z=

0000016500
214
FTCN33 CWAO 101800
TAF CYRA 101838Z 1019/1101 VRB02KT 3SM -SN OVC040 TEMPO 1019/1101
     P6SM -SN
    RMK NXT FCST WILL BE ISSUED AT 111745Z=

0000017500
215
FTCN33 CWAO 101800
TAF CYXP 101838Z 1019/1023 VRB03KT P6SM FEW030 BKN090 TEMPO 1019/1023
     5SM -SN BKN030
    RMK NXT FCST WILL BE ISSUED AT 111645Z=

0000018200
216
FTCN33 CWAO 101800
TAF CYPC 101838Z 1019/1024 28025KT 1/2SM -SN BLSN OVC025 TEMPO
     1019/1024 11/2SM BLSN SCT025
    RMK NXT FCST WILL BE ISSUED AT 111545Z=

0000015200
217
FTCN33 CWAO 101800
TAF CYUX 101838Z 1019/1107 31012KT P6SM FEW007 SCT050 TEMPO 1019/1107
     5SM IC
    RMK NXT FCST BY 110100Z=

0000020900
218
FTCN31 CWAO 101800
TAF CZMT 101838Z 1019/1102 16005KT P6SM SCT015 BKN040 BKN200
    FM102300 15012KT P6SM BKN030 OVC160 TEMPO 1023/1102 BKN020
    RMK NXT FCST WILL BE ISSUED AT 111615Z=

0000015300
219
FTCN32 CWAO 101800
TAF CYQU 101838Z 1019/1107 27012KT P6SM FEW060 BKN180
     BECMG 1103/1105 24008KT
    RMK NXT FCST BY 110100Z=

0000008600
220
SAIN90 VOMD 111000
METAR VOMD 111000Z 06008KT 7000 FEW020 31/16 Q1011=
0000018900
221
FTCN34 CWAO 101800
TAF CYGX 101838Z 1019/1107 06005KT 5SM -SN OVC070 TEMPO 1019/1107
     11/2SM -SN VV015
     BECMG 1019/1021 07012KT
    RMK NXT FCST BY 110100Z=

0000019500
222
FTCN32 CWAO 101800
TAF CYOJ 101838Z 1019/1107 VRB03KT P6SM SCT050 BKN100 TEMPO 1019/1104
     5SM -SN BKN020
    FM110400 35005KT P6SM SCT050
    RMK NXT FCST BY 110100Z=

0000024000
223
FTCN32 CWAO 101800
TAF CYZH 101838Z 1019/1107 30008KT P6SM SCT080
    FM102300 28006KT P6SM BKN030 TEMPO 1023/1104 5SM -SN BKN020
    FM110400 26006KT P6SM SCT030
    RMK FCST BASED ON AUTO OBS. NXT FCST BY 110100Z=

0000020200
224
FTCN33 CWAO 101800
TAF CYSY 101838Z 1019/1024 33006KT P6SM IC SCT090 TEMPO 1019/1024 3SM
     -SN BKN090
     BECMG 1019/1021 35012KT
    RMK NXT FCST WILL BE ISSUED AT 111545Z=

0000023600
225
FTCN33 CWAO 101800
TAF CYUB 101838Z 1019/1106 30015G25KT 6SM -SN BLSN BKN030 TEMPO
     1019/1023 2SM -SN BLSN BKN020
    FM102300 30015G25KT 6SM BLSN FEW030 TEMPO 1023/1106 3SM BLSN
    RMK NXT FCST BY 110100Z=

0000016200
226
FTCN33 CWAO 101800
TAF CYCO 101838Z 1019/1107 26015G25KT 2SM -SN BLSN BKN040 TEMPO
     1019/1107 6SM -SN BLSN
    RMK NXT FCST BY 110100Z=

0000014900
227
FTCN33 CWAO 101800
TAF CYVM 101838Z 1019/1107 20008KT 4SM IC BKN040 TEMPO 1019/1107 P6SM
     NSW
    RMK NXT FCST BY 110100Z=

0000017100
228
FTCN33 CWAO 101800
TAF CYOA 101838Z 1019/1024 14006KT P6SM OVC025 TEMPO 1019/1024 2SM
     -SN BR OVC020
    RMK NXT FCST WILL BE ISSUED AT 111345Z=

0000018900
229
FTCN33 CWAO 101800
TAF CYWE 101838Z 1019/1102 VRB03KT 2SM -SN OVC030 TEMPO 1019/1102
     P6SM -SN
    RMK FCST BASED ON AUTO OBS. NXT FCST WILL BE ISSUED AT 111345Z=

0000022900
230
FTCN32 CWAO 101800
TAF CYVT 101838Z 1019/1104 31010KT 6SM -SN SCT006 OVC015 TEMPO
     1019/1022 3SM -SN OVC006
    FM102200 30010KT P6SM OVC030 TEMPO 1022/1104 5SM -SN OVC020
    RMK NXT FCST BY 110100Z=

0000015900
231
FTCN33 CWAO 101800
TAF CYEV 101838Z 1019/1107 28012KT P6SM IC DRSN BKN040 TEMPO
     1019/1107 4SM -SN BLSN
    RMK NXT FCST BY 110100Z=

0000026700
232
FTCN32 CWAO 101800
TAF CYMM 101838Z 1019/1107 31005KT P6SM SCT015 OVC030 TEMPO 1019/1024
     2SM -SN BR OVC015
    FM110000 26005KT P6SM SCT020 OVC030 TEMPO 1100/1107 5SM -SN
     OVC020
    RMK FCST BASED ON AUTO OBS. NXT FCST BY 110100Z=

00000000