0000012600
893
SACS31 MROC 101800
METAR  COR MRPV 101800Z 07016KT 9999 FEW045 25/14 A3002 VEL MAX VTO
     24KT
NOSIG=

0000015900
894
SAZS31 NSTU 101755
METAR NSTU 101754Z 36013G22KT 10SM SCT017 BKN055 OVC100 28/24 A2969
RMK SLP054 60019 8/82/ T02810239 10282 20262 52017=

0000011100
895
SPCN46 CWAO 101821
SPECI CYBN 101821Z AUTO 16007KT 4SM FEW024 SCT030 BKN064 M02/M03
A3011=

0000029000
896
SASW31 LSSW 101820
METAR LSZH 101820Z VRB02KT 9999 FEW008 SCT071 BKN240 04/03 Q1019
    NOSIG=
METAR LSGG 101820Z 00000KT CAVOK 06/04 Q1019 NOSIG=
METAR LSZB 101820Z 00000KT CAVOK 03/03 Q1018 NOSIG=
METAR LSZA 101820Z VRB01KT 9999 FEW038 BKN042 09/06 Q1020 NOSIG=

0000011100
897
SAIO31 KWBC 101800 RRE
METAR
VRMM 101800Z 07013KT 9999 FEW018TCU SCT280 28/24 Q1013 NOSIG=

0000012800
898
SAPA31 KWBC 101800 RRA
METAR
PKWA 101820Z AUTO 06017G20KT 10SM BKN026 27/21 A2979 RMK AO2
     T02700214=

0000038200
899
FTUS52 KWBC 101821 AAA
TAF AMD
KBHB 101819Z 1018/1118 24010KT 2SM -SN OVC015
     FM102100 25006KT P6SM BKN050
     FM111100 19008KT P6SM OVC025
     FM111300 18013G21KT P6SM OVC015 WS020/19040KT
     FM111400 18015G25KT 5SM -RA OVC010 WS020/20050KT
     FM111600 18018G30KT 2SM -RA BR OVC005 WS020/20050KT AMD LTD
      TO
      CLD VIS AND WIND=

0000038200
900
FTUS80 KWBC 101821 AAA
TAF AMD
KBHB 101819Z 1018/1118 24010KT 2SM -SN OVC015
     FM102100 25006KT P6SM BKN050
     FM111100 19008KT P6SM OVC025
     FM111300 18013G21KT P6SM OVC015 WS020/19040KT
     FM111400 18015G25KT 5SM -RA OVC010 WS020/20050KT
     FM111600 18018G30KT 2SM -RA BR OVC005 WS020/20050KT AMD LTD
      TO
      CLD VIS AND WIND=

0000021200
901
SAAK31 KWBC 101800 RRA
METAR
PAVD 101816Z 10SM FEW010 BKN070 BKN090 M04/M04 A2938=
PAWG 101816Z 20004KT 8SM FEW006 BKN020 BKN045 03/M01 A2965=
PFYU 101816Z 00000KT 10SM FEW100 M38/ A2967=

0000012400
902
SAAK32 KWBC 101800 RRA
METAR
PADK 101816Z AUTO 24023G29KT 10SM FEW019 SCT028 BKN035 04/01
     A2895=

0000177500
903
SAPA31 KWBC 101800
METAR AGGG NIL=
METAR AGGH 101800Z 18002KT 9999 HZ FEW015 24/23 Q1005=
METAR ANAU NIL=
METAR AYPY NIL=
METAR PGNT NIL=
METAR PGRO NIL=
METAR PGSN 101754Z 04010KT 10SM FEW020 26/23 A2989 RMK AO2 SLP143
     60000
T02560228 10261 20256 56013=
METAR PGUA 101758Z AUTO 05014KT 10SM FEW020 25/23 A2987 RMK AO2
     SLP105
T02540226 10258 20253 56015 ?=
METAR PGUM 101754Z 06010KT 10SM CLR 26/22 A2987 RMK AO2 SLP107 60000
T02560217 10256 20250 56017=
METAR PGWT NIL=
METAR PHJH 101750Z 04010KT 15SM VCSH FEW015 SCT030 SCT045 21/19 A3000
RMK VCSH E=
METAR PHJR 101753Z 00000KT 10SM CLR 19/17 A3002 RMK AO2 SLP171
     T01890172
10189 20167 51011=
METAR PHMK 101754Z 02005KT 10SM FEW017 SCT029 SCT035 22/21 A3001 RMK
     AO2
RAB07E27 SLP165 P0001 60001 T02170206 10217 20200 51008=
METAR PJON NIL=
METAR PKMJ NIL=
METAR PKMR 101752Z 05009KT 15SM FEW015 SCT300 28/22 A2974 RMK SLP073
8/101 T02760217 10276 20275 53002=
METAR PKWA 101800Z AUTO 06016KT 10SM SCT026 SCT031 SCT037 27/21 A2979
RMK AO2 T02700212=
METAR PLCH NIL=
METAR PMDY 101756Z AUTO 10011KT 10SM CLR 19/13 A3023 RMK AO2 TSNO
     55004
T01940127 10194 20188 SLP549 ?=
METAR PTKK 101750Z 06010KT 15SM FEW014 BKN280 27/23 A2978 RMK SLP088
8/101 T02740231 10283 20267 56010=
METAR PTKR 101750Z 09020KT 5SM -SHRA OVC016CB 25/24 A2973 RMK PK WND
11035/01 CB ALQDS AND OHD SLP067 60048 8/3// T02530239 10283
20250 57019=
METAR PTPN NIL=
METAR PTRO 101755Z 08011G18KT 10SM -SHRA BKN012CB OVC200 25/25 A2972
     RMK
CB VC ALQDS=
METAR PTSA NIL=
METAR PTTP 101751Z 08010KT 10SM -SHRA BKN017TCU BKN120 OVC300 27/24
A2978 RMK SHRAB39 TCU N-E-S AND OHD SLP083 60014 8/271
T02670243 10281 20258 55010=

0000018800
904
SALV32 EVRA 101820
METAR EVLA 101820Z AUTO 29012KT 270V340 9999 BKN013 OVC020 04/02 
Q0997=
METAR EVVA 101820Z AUTO 32017KT 9999 BKN013 BKN018 OVC023 04/03 
Q0994=

0000016100
905
SADN33 EKCH 101820
METAR COR EKKA 101820Z 25009KT 9999 FEW014 BKN033 06/05 Q1005=
METAR EKSP 101820Z 27012KT 9999 FEW012 BKN040 06/04 Q1008=

0000011800
906
SAEU31 BKPR 101830
BKPR 101830Z 00000KT 0100 R17/0125 FG BKN003 01/00 Q1021 NOSIG RMK
 17010095 =

0000010600
907
SAIS32 LLBG 101820
METAR LLBG 101820Z 18005KT 9999 -RA FEW025 BKN040 12/10 Q1020 NOSIG=

0000134300
908
SACA35 KWBC 101800
METAR MGGI NIL=
METAR MGPB 101800Z 36008KT 9999 SCT018TCU 26/22 Q1015 A2997 TCU S=
METAR MGSJ 101800Z 16006KT CAVOK 32/22 Q1013 A2991=
METAR MHLC 101800Z 32004KT 9999 SCT024 SCT080 26/21 Q1015 A2998
NOSIG=
METAR MHLM 101800Z 34003KT 9999 SCT028 29/22 Q1015 A2997 NOSIG=
METAR MHTG 101800Z 05008KT 9999 SCT027 25/14 Q1019 A3009 NOSIG=
METAR MNPC 101800Z 09010KT 6000 VCRA SCT016TCU 29/24 Q1013 TCURA
     E/S/SW
77%=
METAR MPBO 101800Z 32004KT 260V020 9000 SCT020 SCT080 Q1014=
METAR MPCH NIL=
METAR MPDA 101800Z 19006KT 9999 SCT020 31/23 Q1009=
METAR MPMG 101800Z 02006KT 4800 SHRA SCT018TCU 26/24 Q1010 RWY WATER
PATCHES TEMPO TSRA=
METAR MPSA NIL=
METAR MPTO 101800Z 05008KT 9999 SCT018TCU SCT100 31/21 Q1009 NOSIG=
METAR MRLB 101800Z 07015G25KT CAVOK 33/16 A2982=
METAR MRLM 101800Z 09003KT 9999 SCT045 30/21 A2991=
METAR MROC 101800Z 08011G21KT 9999 FEW030 27/11 A3000 NOSIG=
METAR COR  MRPV  101800Z 07016KT 9999 FEW045 25/14 A3002 VEL MAX VTO
     24KT
NOSIG=
METAR MRPV 101800Z 07016KT 9999 FEW045 25/14 A3005 NOSIG=
METAR MSLP 101750Z 01005KT 260V070 CAVOK 33/16 Q1011 A2987=
METAR MSSS 101750Z 33005KT CAVOK 30/20 Q1016 A3003=
METAR MSSS 101750Z 34006KT CAVOK 28/26 Q1017 A3006=
METAR MZBZ 101800Z 07004KT 9999 FEW023 28/22 A2999 Q1015 NOSIG=

0000012200
909
SAMO31 ZMUB 101830
METAR ZMUB 101830Z NRB01MPS 5000NW FU NSC M32/M35 Q1024 NOSIG RMK
 QFE660.1 72 NT=

0000037900
910
SACG21 FCBB 101800
METAR FCBB 101800Z 13004KT 060V170 8000 FEW016 SCT023 FEW030CB 25/22
           Q1012 TEMPO TS=
METAR FCPP 101800Z 17008KT 9999 SCT013 BKN023 27/24 Q1010 NOSIG=
METAR FCPD 101800Z 00000KT 9999 TS SCT020 FEW028CB BKN300 26/23
      Q1011=
METAR FCOU 101800Z 00000KT CAVOK 27/23 Q1010=
METAR FCOI 101800Z 00000KT CAVOK 26/23 Q1011=

0000044900
911
SAVN42 KWBC 101800
METAR SVPC 101800Z 03010KT 9999 FEW040 XX/XX Q////=
METAR SVPM 101800Z NIL=
METAR SVPR NIL=
METAR SVSA 101800Z /////KT 9999 FEW020 32/18 Q1013=
METAR SVSE NIL=
METAR SVSO NIL=
METAR SVSP NIL=
METAR SVVP
101800Z NIL=
METAR SVST NIL=
METAR SVSZ 101800Z 00000KT 9999 BKN020 XX/XX Q1010=
METAR SVTM NIL=
METAR SVVA 101800Z 11006KT 9999 FEW016 32/19 Q1013=
METAR SVVL NIL=
METAR SVVP NIL=

0000010600
912
SAAF11 LFPW 101800 RRA
METAR FCPP 101800Z 17008KT 9999 SCT013 BKN023 27/24 Q1010 NOSIG=

00000000