0000073000
233
FTRS36 RUMS 102000
TAF ULAA 102000Z 1021/1121 05006G12MPS 2000 SN DRSN OVC005 650050
530001 TEMPO 1021/1121 08009G16MPS 0600 +SN BLSN BKN003=
TAF ULMM 102000Z 1021/1121 VRB02MPS 9999 BKN004 BKN011 TEMPO
1021/1107 0300 FZFG VV002 TEMPO 1107/1121 07003MPS 2100 -SHSN BR
BKN010CB=
TAF UMKK 102000Z 1021/1121 28008MPS 9999 BKN010 BKN100 TEMPO
1021/1024 30007G12MPS 4000 -SHRA BKN007 BKN020CB TEMPO 1100/1110
27007G12MPS 3000 -SHRA BKN007 BKN015CB BECMG 1110/1112 24006G11MPS
TEMPO 1110/1121 25008G13MPS 2000 SHRA BKN007 BKN010CB=
TAF UUYY 102000Z 1021/1121 06006G12MPS 2500 -SN BR BKN007 BKN070
650070 TEMPO 1021/1109 0700 +SHSN BKN004 BKN007CB TEMPO 1109/1118
0500 +SHSN BLSN BKN003 BKN007CB=

0000043300
234
FCIY32 LIIB 102000
TAF LIBR 102000Z 1021/1106 VRB03KT 8000 SCT015 TEMPO 1021/1106 5000
BR=
TAF LIPB 102000Z 1021/1106 VRB03KT 9999 BKN070=
TAF LIPH 102000Z 1021/1106 VRB03KT 1500 BR SCT010 SCT030 TEMPO
1021/1106 0500 FG BKN002=
TAF LIPR 102000Z 1021/1106 VRB03KT 5000 BR BKN040 TEMPO 1021/1106
0500 FG BKN002=
TAF LIPX 102000Z 1021/1106 VRB03KT 1000 BR SCT010 BKN040 TEMPO
1021/1106 0500 FG BKN002=

0000018700
235
FCIY33 LIIB 102000
TAF LIMG 102000Z 1021/1106 NIL=
TAF LIMS 102000Z 1021/1106 NIL=
TAF LIMW 102000Z 1021/1106 NIL=
TAF LIMZ 102000Z 1021/1106 VRB03KT 8000 SCT020=

0000015500
236
FCIY34 LIIB 102000
TAF LIPC 102000Z 1021/1106 VRB03KT 3000 BR BKN030 TEMPO 1021/1106
0500 FG BKN002=
TAF LIPF 102000Z 1021/1106 NIL=

0000104100
237
FTRS32 RUMS 102000
TAF URKA 102000Z 1021/1121 21009G14MPS 9999 BKN020CB 530005 TEMPO
1021/1103 1700 SHRA BR BKN004 BKN015CB=
TAF URKK 102001Z 1021/1121 22005MPS 9999 SCT020CB TEMPO 1021/1108
24009G14MPS 2000 SHRA SCT005 BKN020CB 530002 FM110800 27006G11MPS
9999 BKN020CB TEMPO 1108/1118 3000 -SHRA BKN007 BKN020CB=
TAF URMM 101955Z 1021/1121 VRB02MPS 2100 BR BKN010 TM01/1021Z TEMPO
1021/1108 10003G08MPS 0300 FZFG OVC004 FM110800 26003G08MPS 9999
BKN020CB TEMPO 1108/1121 3000 -SHRA BKN007 BKN010CB=
TAF URRR 101958Z 1021/1121 23007G12MPS 2100 -RA BR OVC007 OVC100
530005 TEMPO 1021/1106 26011G16MPS 0800 SHRA FG BKN003 BKN020CB
FM110600 27011G16MPS 3000 BR BKN007 BKN020CB 530005 TEMPO 1106/1109
-SHRA=
TAF URSS 101933Z 1021/1121 05007MPS 9999 BKN100 BECMG 1100/1102
BKN020CB OVC100 TEMPO 1103/1109 -SHRA BECMG 1107/1109 15007G12MPS
530002 TEMPO 1109/1118 VRB08G14MPS 2000 TSRA BKN005 BKN020CB OVC100
BECMG 1116/1118 04006MPS TEMPO 1118/1121 VRB06G11MPS 5000 -SHRA
SCT007 BKN020CB OVC100=

0000009900
238
SPCN42 CWAO 102017 CCA
SPECI CYBV 102017Z CCA 15002KT 2SM -SN OVC005 RMK SN3ST5=

0000011300
239
SALT33 EYVI 102020
METAR EYPA 102020Z 31009G19KT 250V030 9999 BKN014 03/00 Q1000
R01/2///95=

0000039000
240
FCIY35 LIIB 102000
TAF LIRG 102000Z 1021/1106 NIL=
TAF LIRH 102000Z 1021/1106 NIL=
TAF LIRL 102000Z 1021/1106 NIL=
TAF LIRM 102000Z 1021/1106 VRB03KT 4000 BR SCT015 SCT025 TEMPO ?
1102/1106 0800 FG SCT005 BKN020=
TAF LIRS 102000Z 1021/1106 12004KT 9999 SCT020 BKN030 TEMPO 1103/1106
5000 BR=
TAF LIRU 102000Z 1021/1106 NIL=
TAF LIRV 102000Z 1021/1106 NIL=

0000019400
241
FCIY36 LIIB 102000
TAF LIBC 102000Z 1021/1106 NIL=
TAF AMD LIBF 101959Z 1018/1103 CNL=
TAF LIBG 102000Z 1021/1106 NIL=
TAF LIRZ 102000Z 1021/1106 VRB05KT 3000 BR BKN050=

0000018100
242
FCIY37 LIIB 102000
TAF LICD 102000Z 1021/1106 NIL=
TAF LICG 102000Z 1021/1106 NIL=
TAF LICR 102000Z 1021/1106 36008KT CAVOK=
TAF LICT 102000Z 1021/1106 NIL=

0000070700
243
FTUS31 KWBC 102021 AAA
TAF AMD
KIAH 102019Z 1020/1124 16010KT P6SM VCSH SCT012 OVC025
     FM102100 17011KT P6SM -RA BKN020 BKN040
     FM110200 18006KT 4SM BR SCT007 BKN015
     FM110600 23007KT 6SM BR BKN007
     FM110900 27008KT P6SM SCT010
     FM111100 33006KT P6SM SKC=
KIND 102020Z 1020/1124 13010KT 5SM BR OVC025
     FM102230 15012KT 3SM -RA BR OVC007
     FM110900 21012G20KT 2SM -RA BR OVC007
     FM111400 25014G22KT 6SM -RA BR SCT007 OVC010
     FM111800 25014G24KT P6SM BKN025=
KOAK 102018Z 1020/1124 23004KT P6SM SCT200
     FM102030 27012KT P6SM SCT200
     FM110200 29007KT P6SM BKN250
     FM110900 24005KT P6SM OVC010 PROB30 1119/1124 -RA=

0000031600
244
FTUS74 KWBC 102021 CCA
TAF COR
KACV 102018Z 1020/1118 25006KT 3SM BR OVC001
      TEMPO 1020/1021 6SM BR SCT001 BKN012
     FM102100 24006KT P6SM SCT002 BKN012
      TEMPO 1021/1022 5SM BR BKN002
     FM110000 20009KT P6SM VCSH SCT005 BKN015
     FM110700 16012G22KT 4SM -RA BR OVC015=

0000022400
245
FTUS74 KWBC 102021 AAA
TAF AMD
KOAK 102018Z 1020/1124 23004KT P6SM SCT200
     FM102030 27012KT P6SM SCT200
     FM110200 29007KT P6SM BKN250
     FM110900 24005KT P6SM OVC010 PROB30 1119/1124 -RA=

0000030600
246
FTUS72 KWBC 102021 AAA
TAF AMD
KIAH 102019Z 1020/1124 16010KT P6SM VCSH SCT012 OVC025
     FM102100 17011KT P6SM -RA BKN020 BKN040
     FM110200 18006KT 4SM BR SCT007 BKN015
     FM110600 23007KT 6SM BR BKN007
     FM110900 27008KT P6SM SCT010
     FM111100 33006KT P6SM SKC=

0000111800
247
FTUS73 KWBC 102021 AAA
TAF AMD
KASE 102018Z 1020/1118 35008KT 1 1/2SM -SN BKN015 OVC030
     FM110200 21005KT 2SM -SN BR SCT020 OVC030
     FM110700 21005KT P6SM VCSH SCT025 BKN040
      TEMPO 1108/1112 3SM BR SCT015 BKN020=
KBRL 102018Z 1020/1118 16009KT 2SM -RA BR VCTS OVC003CB
     FM110100 18003KT 1/2SM -RA FG OVC002
     FM110700 26005KT 1SM -FZRASN BR OVC003
     FM110900 27010KT 2SM -SN BR OVC004
     FM111300 28011KT 4SM BR VCSH OVC006=
KHUT 102018Z 1020/1118 30014KT P6SM FEW020 SCT060
     FM110000 28008KT P6SM SCT120 BKN250
     FM111700 29013G20KT P6SM SKC=
KIND 102020Z 1020/1124 13010KT 5SM BR OVC025
     FM102230 15012KT 3SM -RA BR OVC007
     FM110900 21012G20KT 2SM -RA BR OVC007
     FM111400 25014G22KT 6SM -RA BR SCT007 OVC010
     FM111800 25014G24KT P6SM BKN025=
KJLN 102019Z 1020/1118 20015G23KT P6SM OVC014
     FM102200 22012G20KT 6SM -SHRA BR VCTS SCT008 OVC015CB
     FM110000 24011KT 6SM BR FEW008 BKN050
     FM110300 24010KT 6SM BR SCT007 BKN015
     FM111200 25010KT P6SM SCT015
     FM111400 25010G18KT P6SM FEW250=

0000010500
248
SPUS31 KWBC 102020
SPECI
KCVG 102016Z 15011KT 10SM SCT008 BKN050 OVC180 09/08 A2999=

0000011900
249
SAEU31 BKPR 102030
BKPR 102030Z 00000KT 0100 R17/0125 FG OVC002 00/M01 Q1022 NOSIG RMK
 17010095 =

0000008700
250
SPCN47 CWAO 102020
SPECI CYVV 102020Z 18006KT 6SM BR OVC006 RMK ST8=

0000029100
251
FTAE31 VTBB 101700 RRC
TAF VTSS 101700Z 1018/1118 00000KT 5000 BR FEW020 SCT300
    TEMPO 1020/1102 VRB10KT 4000 SHRA SCT016 BKN110
    BECMG 1101/1103 08013KT 9999 NSW 
    TEMPO 1109/1115 VRB15KT 4000 SHRA FEW016CB BKN020 OVC110
    BECMG 1114/1116 00000KT 8000=

0000015700
252
SAUS72 KWBC 102000 RRF
METAR
KBQK 102015Z AUTO 12006KT 1 3/4SM OVC003 20/19 A3012=
KLRU 102015Z AUTO 26017G21KT 10SM CLR 15/M10 A2999=

00000000