0000013800
813
FTAH10 OAKB 102305
TAF OAKB 102305Z 1100/1124 VRB06KT CAVOK
TEMPO 1100/1105 5000 HZ
BECMG 1112/1114 5000 HZ BKN070=

0000023300
814
FTMP31 LMMM 102200 RRA
TAF HLLT 102300Z 1100/1124 VRB02KT CAVOK BECMG 1110/1112 20010KT
BECMG 1116/1118 VRB02KT=
TAF HLLB 102300Z 1100/1124 VRB02KT 9999 SCT020 BECMG 1110/1112
25010KT BECMG 1116/1118 VRB02KT=

0000010000
815
SPUS31 KWBC 102247
SPECI
KLIT 102243Z 16007KT 2 1/2SM RA BR OVC003 12/11 A2973=

0000009900
816
SAUS71 KWBC 102200 RRG
METAR
KSWF 102245Z 00000KT 6SM BR OVC015 M01/M02 A3033=

0000183200
817
FTIR31 OIII 102300
TAF OIAW 102300Z 1100/1206 10005MPS 2500 BR FEW035CB SCT040 BKN100
    TEMPO 1100/1121 15009MPS 1500 TSRA BR SCT035CB SCT040 OVC070
    PROB40 TEMPO 1100/1106 0500 FG OVC010
    BECMG 1121/1123 1200 BR BKN015
    TEMPO 1200/1206 0500 FG OVC005=
TAF OIFM 102300Z 1100/1206 22005MPS 1200 BR SCT035 BKN100
    TEMPO 1100/1104 0800 FG PROB40 0300 FZFG
    BECMG 1108/1110 15005MPS 1500 HZ FEW035CB SCT040 OVC100
    TEMPO 1112/1118 1500 SN FEW030CB SCT035 OVC080
    BECMG 1118/1120 35004MPS 1000 BR SCT030
    TEMPO 1121/1203 0500 FG SCT020 OVC090=
TAF OIII 102300Z 1100/1206 14005MPS 6000 FEW035CB SCT040 OVC100
    TEMPO 1103/1112 2000 SNRA FEW030CB SCT035 OVC080
    BECMG 1114/1116 4000 HZ SCT030 BKN100
    BECMG 1116/1118 35004MPS 3000 BR
    TEMPO 1120/1203 1500 BR=
TAF OIKB 102300Z 1100/1206 15006MPS 6000 SCT040 BKN080
    TEMPO 1103/1115 22009MPS 3000 TS/SHRA SCT035 SCT040 OVC070=
TAF OIKK 102300Z 1100/1206 13005MPS 3000 BR FEW035CB SCT040 OVC100
    TEMPO 1103/1115 1500 SNRA FEW030CB SCT035 OVC080 PROB30 0500 FG
    BECMG 1116/1118 2000 BR SCT030
    BECMG 1204/1206 6000 SCT040=
TAF OIMM 102300Z 1100/1206 18005MPS 5000 BR FEW035 BKN100
    BECMG 1103/1104 3000 HZ
    BECMG 1112/1114 6000 SCT035 SCT090
    TEMPO 1118/1206 FEW035CB SCT040 OVC090=
TAF OISS 102300Z 1100/1206 22005MPS 4000 BR HZ FEW035CB SCT040 BKN080
    TEMPO 1100/1203 17006MPS 1500 SNRA BR FEW030CB SCT035 OVC080
    PROB40 TEMPO 1118/1203 0800 FG=
TAF OITT 102300Z 1100/1206 22005MPS 4000 HZ FEW035 BKN100
    TEMPO 1100/1105 3000 BR FEW030CB SCT035 OVC080
     TEMPO 1121/1205 3000 BR SCT035 BKN080=
TAF OIZH 102300Z 1100/1206 15005MPS 6000 FEW040 SCT100
    BECMG 1105/1107 SCT040 BKN100
    TEMPO 1108/1124 22006MPS FEW035CB SC040 OVC100=

0000090900
818
FTIR32 OIII 102300
TAF OIAA 102300Z 1100/1206 15005MPS 2500 BR FEW035CB SCT040 BKN100
    TEMPO 1100/1112 20009MPS 1000 TSRA BR SCT035CB SCT040 OVC070
     PROB40 TEMPO 1100/1106 0500 FG OVC010
    BECMG 1121/1123 1200 BR BKN015
    TEMPO 1200/1206 0500 FG OVC005=
TAF OIBK 102300Z 1100/1206 08006MPS 6000 SCT030 OVC100
    TEMPO 1100/1115 08008MPS 3000 TS/SHRA SCT035 SCT040 OVC070
    BECMG 1118/1120 3000 BR
    BECMG 1203/1205 3000 HZ=
TAF OIIE 102300Z 1100/1206 14005MPS 6000 FEW035CB SCT040 OVC100
    TEMPO 1103/1112 2000 SNRA FEW030CB SCT035 OVC080
    BECMG 1114/1116 6000 SCT030 BKN100
    BECMG 1116/1118 35004MPS 3000 BR
    TEMPO 1120/1203 1500 BR=
TAF OITR 102300Z 1100/1206 26005MPS 2500 BR HZ SCT035 BKN090
    TEMPO 1100/1106 1000 BR FEW030CB SCT035 OVC080
    PROB30 0800 FG
    TEMPO 1118/1206 1000 BR SCT035 BKN080
    PROB30 0800 FG=

0000023300
819
FTMP31 LMMM 102300 RRA
TAF HLLT 102300Z 1100/1124 VRB02KT CAVOK BECMG 1110/1112 20010KT
BECMG 1116/1118 VRB02KT=
TAF HLLB 102300Z 1100/1124 VRB02KT 9999 SCT020 BECMG 1110/1112
25010KT BECMG 1116/1118 VRB02KT=

0000019600
820
FTIR33 OIII 102300
TAF OIZC 102300Z 1100/1206 04005MPS 7000 FEW040
    BECMG 1107/1109 FEW035 BKN100
    BECMG 1118/1120 SCT040
    TEMPO 1200/1206 FEW030CB SCT035 BKN080=

0000022600
821
FTMX31 KWBC 102248
TAF
TAF MMMZ 102245Z 1100/1206 26010KT P6SM BKN220 TX25/1118Z
      TN13/1112Z
     FM110400 24005KT P6SM BKN200
     FM111700 24010KT P6SM SCT200
     FM120400 24005KT P6SM SKC=

0000022900
822
FTMX42 KWBC 102248
TAF
TAF MMTJ 102245Z 1100/1206 28010KT 5SM HZ SCT200 TX21/1121Z
      TN08/1112Z
     FM110400 02005KT 5SM HZ SCT200
     FM111800 33010KT P6SM SKC
     FM120400 30005KT 6SM HZ SKC=

0000019200
823
FTUS80 KWBC 102248
TAF
TAF AMD PGSN 102244Z 1023/1118 05014G24KT P6SM VCSH SCT020 SCT120
     FM110000 06014KT P6SM VCSH SCT020
     FM110800 06009KT P6SM VCSH FEW020=

0000189200
824
SPUS70 KWBC 102248
SPECI
KBOK 102244Z AUTO VRB05KT 9SM SCT002 BKN015 OVC050 09/09 A3020 RMK
     AO2 OVC V BKN $=
KHOU 102244Z 19011G17KT 7SM SCT020 BKN037 OVC070 21/18 A2982 RMK
     AO2 RAE09 P0000=
KLFT 102244Z AUTO 18010G26KT 9SM -RA BKN010 BKN033 OVC060 19/18
     A2991 RMK AO2 PK WND 16026/2237 P0001 TSNO=
KMCW 102244Z AUTO 11003KT 1/4SM -FZRA FZFG VV002 M01/M01 A2956 RMK
     AO2 UPB36E38FZRAB38 P0000 I1001 T10111011 TSNO=
KMDH 102244Z AUTO 15009KT 4SM -RA BR BKN009 OVC070 08/06 A2975 RMK
     AO2 P0004 T00780061=
KMFI 102244Z AUTO 10006KT 1 1/2SM -SN BR BKN005 OVC011 M02/M03
     A2961 RMK AO2 FZRAE00SNB00 P0001 I1000 T10171028=
KMIV 102244Z AUTO 00000KT 3/4SM -RA BR VV005 04/04 A3031 RMK AO2
     P0004 T00440044=
KMTW 102244Z AUTO 16013KT 1SM UP BR OVC002 01/01 A2973 RMK AO2
     P0000 FZRANO=
KPHL 102244Z 05006KT 3/4SM R09R/5000V6000FT -RA BR OVC004 02/01
     A3034 RMK AO2 RAB27 P0002 $=
KNSE 102242Z 11005KT 1/8SM FG VV002 16/14 A3002 RMK AO2 T01560144
     $=
KAKH 102245Z AUTO 02006KT 3SM -RA BR OVC002 07/07 A3017 RMK AO2
     P0001=
KGZH 102245Z AUTO 13004KT 1/2SM FG OVC003 15/14 A3003 RMK AO2
     T01500139=
KISW 102245Z AUTO 11007KT 2 1/2SM -SN BR OVC005 M01/M02 A2963 RMK
     AO2 FZRAE2156SNB2156 P0005 I1000 T10111022=
KMEB 102245Z AUTO 33007KT 1 1/4SM +RA BR SCT005 BKN010 OVC020
     13/13 A3018 RMK AO2 P0015 T01330133=
KMGJ 102245Z AUTO 00000KT 9SM OVC015 00/M02 A3031 RMK AO2
     T00001022 TSNO=
KOSH 102245Z 13008KT 4SM -FZRA BR OVC004 01/M01 A2965 RMK AO2
     UPB36E39FZRAB39 P0000 I1001 T00061011=
KRHI 102246Z AUTO 14005KT 4SM BR OVC004 M04/M06 A2962 RMK AO2
     T10441056=
KVAY 102245Z AUTO 02003KT 3/4SM UP BR OVC003 01/01 A3033 RMK AO2
     UPB14RAB24E35 P0001 T00110006=
PANW 102242Z AUTO 36004KT 1SM BR OVC001 M08/M08 A2949 RMK AO2 TSNO
     $=

0000011800
825
SPUS31 KWBC 102248
SPECI
KPHL 102244Z 05006KT 3/4SM R09R/5000V6000FT -RA BR OVC004 02/01
A3034=

0000010900
826
SPUS41 KWBC 102248
SPECI
KDOV 102244Z AUTO 08003KT 4SM R01/5000FT BR OVC003 03/03 A3030=

0000010700
827
SPUS42 KWBC 102248
SPECI
KHOU 102244Z 19011G17KT 7SM SCT020 BKN037 OVC070 21/18 A2982=

0000012100
828
SAEO32 EETN 102250
METAR EETU 102250Z AUTO 31014KT 9999NDV SG OVC011/// 01/M01 Q0989
REUP RESN RERA=

0000023100
829
FTMS42 WMKK 102300 RRA
TAF WMKB 102300Z 1100/1124 07005KT 9000 FEW020 SCT140 BKN280
TEMPO 1102/1104 6000 TSRA FEW010 FEW017CB SCT023
BECMG 1106/1108 29010KT
TEMPO 1106/1110 6000 TSRA FEW010 FEW017CB SCT023=

0000026500
830
FTMX32 MMMX 102200
TAF MMPR 102252Z 1100/1206 22010KT P6SM SCT120 TX26/1120Z TN15/1112Z 
         FM110600 00000KT P6SM SKC 
         FM111200 02005KT P6SM BKN090 
         FM111800 22010KT P6SM SCT200 
         FM120300 06005KT P6SM SKC=

0000010400
831
SACV20 GVNP 102300
METAR GVNP 102300Z /////KT 9999 BKN020 BKN200 XX/XX Q////
NOSIG=

0000010200
832
SAIS32 LLBG 102250
METAR LLBG 102250Z VRB03KT 9999 FEW030 BKN045 12/10 Q1020 NOSIG=

00000000