0000011500
073
SACN61 CYKF 101800
METAR CYKF 101800Z AUTO 18006KT 1/8SM FZFG VV002 M01/M01 A3012 RMK
 SLP216=

0000012300
074
SACN62 CYIO 101800
METAR CYIO 101800Z 15007KT 15SM -SN FEW025 BKN049 M23/M26 A2905 RMK
 SC1SC5 SLP844=

0000012600
075
SACN61 CYKL 101800
METAR CYKL 101800Z AUTO /////KT 1 1/2SM -SN OVC022 M12/M15 A2956 RMK
 WND MISG SLP060=

0000017400
076
SACN61 CYHE 101800
METAR CYHE 101800Z AUTO 28020G29KT 3SM RA BR BKN036 OVC045 08/06
 A2993 RMK MAX WND 27022KT AT 1706Z PRESRR PCPN 1.5MM PAST HR SLP135=

0000016900
077
SACY31 LCLK 101800
METAR LCLK 101800Z 33005KT 9999 FEW050 11/06 Q1021 NOSIG=
METAR LCPH 101800Z 02009KT CAVOK 12/02 Q1021=
METAR LCNC 101800Z NIL=

0000011600
078
SAGR31 LGAT 101750 RRB
METAR LGKR 101750Z 00000KT 9999 FEW018 SCT025 BKN180 12/11 Q1021
 NOSIG=

0000009500
079
SAVN22 SVMI 101800
METAR SVMI 101800Z 05004KT 9999 FEW016 28/20 Q1014 NOSIG=

0000017300
080
SAVN24 SVMG 101800
METAR SVMG 101800Z /////KT 9999 SCT010 30/20 Q1012 NOSIG=
METAR SVCU 101800Z NIL=
METAR SVCP 101800Z NIL=
METAR SVGI 101800Z NIL=

0000011500
081
SACN61 CYLW 101800
METAR CYLW 101800Z AUTO 02003KT 9SM OVC110 02/M01 A2980 RMK PRESRR
 SLP108=

0000011300
082
SACN61 CYMM 101800
METAR CYMM 101800Z AUTO 31004KT 9SM -SN OVC014 M13/M15 A2941 RMK
 SLP990=

0000013000
083
SACN61 CYNM 101800
METAR CYNM 101800Z AUTO 20012G18KT 8SM -SN SCT015 BKN045 OVC065
 M06/M09 A2990 RMK SLP147=

0000011300
084
SACN62 CYND 101800
METAR CYND 101800Z 09006KT 10SM -SN OVC011 M08/M11 A3026 RMK SC8
 SLP253=

0000011200
085
SACN61 CYMO 101800
METAR CYMO 101800Z AUTO 22013G18KT 9SM OVC015 M03/M05 A2979 RMK
 SLP089=

0000145700
086
FTCH10 SCSC 101800
TAF SCAR 101630Z 1018/1118 21014KT CAVOK TX25/1018Z TN20/1110Z BECMG 
1100/1102 21004KT BECMG 1106/1108 33004KT BECMG 1112/1114 21003KT 
BECMG 1116/1118 21013KT=
TAF SCDA 101630Z 1018/1118 21015KT CAVOK TX26/1018Z TN20/1110Z BECMG 
1100/1102 19005KT FEW022 BECMG 1106/1108 00000KT CAVOK BECMG 1112/111
4 13004KT BECMG 1116/1118 21012KT=
TAF SCFA 101630Z 1018/1118 21014KT 9999 FEW020 TX24/1018Z TN19/1110Z 
BECMG 1100/1102 19004KT SCT019 BECMG 1106/1108 28002KT BECMG 
1112/1114 33005KT FEW015 BECMG 1116/1118 21011KT FEW020=
TAF SCAT 101630Z 1018/1118 27012KT CAVOK TX23/1018Z TN17/1110Z BECMG 
1100/1102 22009KT BECMG 1106/1108 35005KT OVC013 BECMG 1116/1118 
28005KT SCT017=
TAF SCCF 101630Z 1018/1118 26021KT CAVOK TX23/1018Z TN05/1110Z BECMG 
TEMPO 1018/1020 26020G30KT BECMG 1106/1108 09010KT BECMG 1116/1118 
26015KT=
TAF SCSE 101615Z 1018/1118 28010KT CAVOK TX22/1018Z TN14/1110Z TEMPO
         1018/1020 SCT015 BKN250 BECMG 1101/1103 29004KT BECMG
         1103/1105 BKN010 TEMPO 1108/1112 03004KT 3000 BR OVC008=
TAF SCIP 101620Z 1018/1118 10008KT 9999 BKN020 SCT030 TX26/1020Z TN20
/1110Z BECMG 1018/1020 SCT020 BECMG 1101/1103 BKN020 TEMPO 1104/1114 
07010KT 7000 -SHRA SCT017 BKN025 BECMG 1115/1117 SCT020=
TAF SCEL 101615Z 1018/1118 20013KT CAVOK TX31/1019Z TN14/1110Z BECMG
         1101/1103 15005KT BECMG 1108/1110 VRB02KT BECMG 1114/1116
         17004KT=

0000012900
087
SACN61 CYPR 101800
METAR CYPR 101800Z AUTO 15006KT 120V210 9SM SCT014 BKN020 OVC025
 04/03 A2976 RMK SLP078=

0000011900
088
SACN62 CYMH 101800
METAR CYMH 101800Z 24009KT 15SM FEW100 SCT300 M10/M21 A2987 RMK
 AC2CI1 SLP116=

0000016400
089
SACN62 CYOC 101800
METAR CYOC 101800Z 00000KT 20SM IC VCFG FEW022 FEW034 FEW080 M39/M43
 A2968 RMK ST2SC1AC1 SC TR AC TR FROIN VIS NE 3 SLP100=

0000008900
090
SAJM31 MKJS 101800
METAR MKJS 101800Z 06012KT 9999 SCT022 28/25 Q1015=

0000008900
091
SAEG31 HECA 101800
METAR HECA 101800Z 27007KT CAVOK 16/09 Q1022 NOSIG=

0000009800
092
SABZ19 SBMA 101800
METAR SBMA 101800Z 14003KT 9999 SCT018 BKN090 29/22
Q1009=

00000000