0000009700
213
SAUK36 EGGY 101950 CCA
METAR COR EGSH 101950Z 21009KT CAVOK 07/06 Q1012 NOSIG=

0000040200
214
SABX31 EBBR 101950
METAR EBAW 101950Z 22009KT 9000 OVC009 05/03 Q1017 NOSIG=
METAR EBBR 101950Z 21007KT 9999 OVC011 05/03 Q1017 TEMPO BKN008=
METAR EBCI 101950Z 20011KT 9999 BKN010 05/02 Q1017 NOSIG=
METAR EBLG 101950Z 19009KT 150V210 CAVOK 04/02 Q1017 NOSIG=
METAR COR EBOS 101950Z 19010KT 9999 SCT012 05/02 Q1016 NOSIG=
METAR ELLX 101950Z 26006KT CAVOK 03/02 Q1018 NOSIG=

0000050500
215
SAOS31 LOWM 101950
METAR LOWW 101950Z 23007KT CAVOK 05/00 Q1020 NOSIG=
METAR LOWL 101950Z VRB02KT 9999 FEW050 03/00 Q1021 NOSIG=
METAR LOWS 101950Z 18003KT 9999 SCT035 BKN075 03/03 Q1020 NOSIG=
METAR LOWI 101950Z 17002KT 8000 FEW003 SCT007 BKN100 03/03 Q1020
R08/29//75 BECMG SCT003 BKN007=
METAR LOWG 101950Z 02005KT 6000 FEW005 BKN006 03/03 Q1021 R17/29//95
BECMG BKN004=
METAR LOWK 101950Z VRB02KT 0500 R10/1000N R28/0800N FG VV002 02/02
Q1021 R10L/19//95 TEMPO 0600=

0000011200
216
SAOS32 LOWM 101950
METAR LOXZ 101950Z VRB01KT 20KM FEW050SC BKN080SC M01/M01 Q1020 RMK
BKN=

0000026100
217
SAEO32 EETN 101950
METAR EEKA 101950Z NIL=
METAR EEKE 101950Z AUTO 33008KT 300V010 7000NDV -DZ FEW008 BKN010 
OVC018 03/03 Q0993=
METAR EETU 101950Z AUTO 32010KT 9000NDV -RASN OVC004/// 01/00
Q0985 REDZ RERA=
METAR EEPU 101950Z NIL=

0000025900
218
SADL33 EDZO 101950
METAR EDFE 101950Z NIL=
METAR EDFH 101950Z 25008KT CAVOK 03/01 Q1017=
METAR EDFM 101950Z 17004KT CAVOK 04/03 Q1019=
METAR EDLV 101950Z 22011KT 9999 FEW012 05/03 Q1016=
METAR EDVK 101950Z 21007KT CAVOK 03/00 Q1016=

0000050300
219
SADL34 EDZO 101950
METAR EDGS 101950Z 22008KT 170V240 9999 SCT007 BKN018 02/02 Q1016=
METAR EDHL 101950Z 25009KT 9999 -RA SCT010 BKN018 06/05 Q1012=
METAR EDLP 101950Z 23008KT 9999 SCT036 03/00 Q1016=
METAR EDLW 101950Z 22009KT CAVOK 05/02 Q1016=
METAR EDMA 101950Z 16004KT CAVOK 01/01 Q1019=
METAR EDQM 101950Z AUTO 24008KT 9999NDV SCT017/// BKN025///
OVC040/// 02/00 Q1017=
METAR EDRZ 101950Z 11002KT CAVOK 02/02 Q1019=
METAR EDSB 101950Z 08002KT CAVOK 01/M00 Q1019=

0000015100
220
SADL35 EDZO 101950
METAR EDJA 101950Z VRB02KT CAVOK 01/01 Q1019=
METAR EDVE 101950Z 25010KT 9999 FEW034 BKN041 OVC050 06/02 Q1015=

0000051000
221
SANO37 ENMI 101950
METAR ENNO 101950Z NIL=
METAR ENOV 101950Z VRB02KT 9999 FEW030 M01/M06 Q0999 RMK WIND 2175FT
           05010KT=
METAR ENSD 101950Z 27008KT 9999 FEW006 SCT024 BKN045 01/M02 Q0998 RMK
           WIND 1138FT 28006KT 210V360=
METAR ENSG 101950Z NIL=
METAR ENSN 101950Z NIL=
METAR ENSR 101950Z 26002KT 7400 BCFG FEW001 M18/M20 Q1018 RMK WIND
           1119FT 15006KT=
METAR ENSS 101950Z 01010KT 9999 SCT035 M03/M09 Q1015 RMK WIND 500FT
           02015KT=

0000034800
222
SANO36 ENMI 101950
METAR ENBS 101950Z 20005KT 9000 -SHSN FEW010 SCT030 BKN050 M09/M13
           Q1014 =
METAR ENHK 101950Z NIL=
METAR ENHV 101950Z NIL=
METAR ENLK 101950Z 06011KT 9999 SCT040 M06/M14 Q1013=
METAR ENMH 101950Z NIL=
METAR ENNK 101950Z NIL=
METAR ENNM 101950Z 06015KT 9999 FEW045 SCT080 M08/M14 Q1004=

0000044900
223
SANO35 ENMI 101950
METAR ENMS 101950Z 13012KT 080V200 9999 FEW060 M08/M17 Q1007 RMK WIND
           412FT VRB07KT=
METAR ENRM 101950Z 07014KT CAVOK M07/M14 Q1005=
METAR ENRS 101950Z NIL=
METAR ENSK 101950Z 04010KT CAVOK M07/M16 Q1014=
METAR ENSO 101950Z NIL=
METAR ENST 101950Z 03006KT 340V100 CAVOK M07/M16 Q1008 RMK WIND 300FT
           03011KT 340V070=
METAR ENVD 101950Z 27004KT 2500 SHSN VV008 M08/M10 Q1015=

0000033800
224
SANO34 ENMI 101950
METAR ENBN 101950Z 06010KT 030V090 CAVOK M06/M13 Q1006=
METAR ENBV 101950Z 23012KT 9999 BKN047 M06/M07 Q1016=
METAR ENFG 101950Z NIL=
METAR ENHF 101950Z 00000KT CAVOK M11/M13 Q1016 RMK WIND 1254FT
           VRB02KT=
METAR ENRA 101950Z 13008KT CAVOK M11/M19 Q1010=
METAR ENSH 101950Z NIL=

0000010500
225
SACV20 GVNP 102000
METAR GVNP 102000Z 03010KT EST 9999 SCT17 BKN200 20/15 Q//// NOSIG=

0000076200
226
SANO39 ENMI 101950
METAR ENNE 101950Z NIL=
METAR ENQR 101950Z AUTO 07011KT 050V130 9999NDV BKN030/// BKN049///
           06/M01 Q0999 W///S/=
METAR ENSE 101950Z AUTO 08017KT 9999NDV SCT027/// BKN044/// OVC051///
           04/M02 Q0999 W///S5=
METAR ENQC 101950Z AUTO 04010KT 9999NDV FEW026/// BKN043/// 05/00
           Q0998 W///S5=
METAR ENQA 101950Z AUTO 04010KT 9999NDV -SHRA FEW023/// SCT027///
           BKN040/// 04/02 Q0999 W04/S5=
METAR ENHM 101950Z AUTO 25019KT 9999NDV FEW021/// SCT031/// BKN110///
           07/05 Q0999 W08/S4=
METAR ENVH 101950Z AUTO 23024KT 9999NDV SCT036/// BKN140/// 07/06
           Q1005 W///S4=
METAR ENLA 101950Z AUTO 24024KT 9999NDV BKN013/// 08/07 Q1002
           W///S4=

0000010100
227
SABZ20 SBEG 102000
METAR SBEG 102000Z 32005KT 9999 FEW018 FEW025TCU
29/23 Q1007=

0000067500
228
SANO38 ENMI 101950
METAR ENDR 101950Z AUTO 06030KT M03/M08 Q1001=
METAR ENEK 101950Z 23025KT 9999 FEW010 BKN030 07/06 Q1004 W08/S4=
METAR ENGC 101950Z 07015KT 9999 FEW020 BKN045 05/M01 Q0999 W07/S5=
METAR ENHE 101950Z 08026KT 9999 FEW037 M02/M12 Q1003 W///S5=
METAR ENOA 101950Z 06005KT 360V120 9999 5000E -RA SCT009 BKN013 05/04
           Q0998 W///S4=
METAR ENSL 101950Z AUTO 25016KT 9999NDV -SHRA OVC046/// 07/05 Q1001
           W06/S4=
METAR ENFB 101950Z AUTO 07018KT 9999NDV SCT040/// BKN130/// 05/M01
           Q0999 W///S5=
METAR ENSF 101950Z AUTO 07018KT 9999NDV FEW028/// BKN044/// BKN130///
           05/00 Q0999 W///S5=

0000071500
229
SANO33 ENMI 101950
METAR ENAT 101950Z 20008KT 4000 -SN OVC004 M14/M15 Q1019 RMK WIND
           700FT 17006KT=
METAR ENBL 101950Z VRB02KT 9999 FEW/// BKN040 M01/M02 Q0996=
METAR ENEV 101950Z 07015KT CAVOK M07/M16 Q1015 RMK WIND 1400FT
           08021KT=
METAR ENFL 101950Z 31008KT 9999 FEW025 01/M02 Q0998 =
METAR ENKB 101950Z 36004KT 9999 SCT017 BKN027 M03/M07 Q1000=
METAR ENKR 101950Z 16008KT 3000 IC BR SCT002 BKN005 OVC009 M21/M23
           Q1015 RESG SEASMOKE NORTH OF THE FIELD RMK WIND 775FT
           25006KT=
METAR ENML 101950Z 02003KT 320V050 9999 FEW025 M03/M07 Q1000=
METAR ENNA 101950Z VRB02KT 9999 BKN005 M14/M16 Q1018 RMK WIND 1800FT
           34007KT=

0000064200
230
SANO32 ENMI 101950
METAR ENAL 101950Z 04010KT 9999 FEW026 M01/M06 Q1000=
METAR ENCN 101950Z VRB01KT 9999 FEW014 BKN026 M00/M01 Q1001=
METAR ENHD 101950Z 27009KT 9999 -SHRA SCT008 BKN016 06/05 Q1000=
METAR ENRO 101950Z AUTO 09012KT 5000NDV -SN FEW003/// BKN006///
           OVC018/// M13/M15 Q0996=
METAR ENRY 101950Z 18006KT 140V210 9999 FEW012 01/01 Q0998=
METAR ENSB 101950Z 22008KT 9999 -SNRA FEW020 BKN025 M01/M05 Q1007 RMK
           WIND 1400FT 22017KT=
METAR ENTC 101950Z VRB02KT 9999 FEW020 M12/M14 Q1017 NOSIG RMK WIND
           2600FT 11012KT=
METAR ENTO 101950Z 24004KT CAVOK M01/M01 Q0997=

0000069400
231
SANO31 ENMI 101950
METAR ENAN 101950Z 11014KT CAVOK M06/M16 Q1016 NOSIG=
METAR ENBR 101950Z 00000KT 9999 -RADZ FEW005 SCT015 BKN027 03/03
           Q0999 TEMPO SHRA BKN008 RMK WIND 1200FT 35005KT=
METAR ENBO 101950Z NIL=
METAR ENDU 101950Z VRB01KT 9999 FEW040 M23/M26 Q1016=
METAR ENGM 101950Z 16004KT 9999 BKN005 M01/M02 Q0996 TEMPO BKN004=
METAR ENOL 101950Z 07009KT 9999 -SN FEW007 BKN009 M07/M10 Q1001 TEMPO
           1500 SN VV005=
METAR ENVA 101950Z 08010KT 9999 -SN SCT022 BKN027 M08/M13 Q1001 TEMPO
           3000 -SN VV012 RMK WIND 670FT 11014KT=
METAR ENZV 101950Z 26009KT 9999 FEW012 SCT018 BKN150 07/05 Q1001
           TEMPO SHRA BKN008=

0000016100
232
SAVN34 SVSR 102000
METAR SVSR 102000Z /////KT CAVOK 33/XX Q1012=
METAR SVVP 102000Z NIL=
METAR SVCL 102000Z NIL=
METAR SVPA 102000Z NIL=

00000000