0000011100
713
SAQB31 LQBK 101900
METAR LQBK 101900Z 28003KT 4000 -DZ BR SCT017 BKN030 06/06 Q1021
NOSIG=

0000009500
714
SAUK31 EGGY 101850 RRA
METAR EGBB 101850Z AUTO 17006KT 9999 NCD 07/06 Q1010=

0000035000
715
FTMX31 KWBC 101854 CCA
TAF COR
TAF COR MMMX 101853Z 1018/1124 15010KT P6SM BKN025 TX22/1021Z
      TN08/1112Z
     FM102200 19008G18KT P6SM BKN025
      TEMPO 1022/1101 6SM VC RA BKN025CB
     FM110300 35005KT P6SM SKC
      BECMG 1111/1112 4SM HZ
     FM111700 07006KT 6SM HZ SKC
     FM112000 13010KT P6SM SCT025=

0000025600
716
FTUS52 KWBC 101854 AAA
TAF AMD
KLNS 101852Z 1019/1118 VRB04KT 2SM BR OVC006
     FM102100 VRB03KT 3SM BR OVC011
     FM110400 15005KT 2SM -RA BR OVC010 WS020/19045KT
     FM111500 17014G24KT 3SM RA BR BKN009 OVC016 WS012/19047KT=

0000079700
717
FTUS80 KWBC 101854 AAA
TAF AMD
KBDR 101852Z 1019/1118 VRB02KT 3SM BR SCT012 OVC025
     FM110000 VRB03KT 2SM BR BKN012 OVC025
      TEMPO 1102/1105 -RA
     FM110500 15003KT 2SM -RA BR BKN006 OVC012
     FM110800 15008KT 1SM -RA BR OVC003 WS020/19050KT
     FM111400 17011KT 1SM -RA BR OVC004 WS015/19050KT=
KLNS 101852Z 1019/1118 VRB04KT 2SM BR OVC006
     FM102100 VRB03KT 3SM BR OVC011
     FM110400 15005KT 2SM -RA BR OVC010 WS020/19045KT
     FM111500 17014G24KT 3SM RA BR BKN009 OVC016 WS012/19047KT=
KMDT 101852Z 1019/1118 VRB02KT 2SM BR OVC009
      TEMPO 1020/1023 4SM HZ BKN015 OVC023
     FM102300 VRB03KT 4SM BR OVC011
     FM110300 15005KT 2SM -RA BR OVC010 WS020/19045KT
     FM111500 17014G24KT 3SM RA BR BKN009 OVC016 WS012/19047KT=

0000153100
718
SPUS70 KWBC 101854
SPECI
PAMB 101849Z AUTO 05007KT 4SM BR OVC003 M04/M04 A2944 RMK AO2 TSNO
     $=
KCAG 101850Z AUTO 08005KT 5SM -SN BR BKN028 OVC035 M06/M08 A2990
     RMK AO2 PNO $=
KFFT 101850Z AUTO 15006KT 10SM OVC010 10/08 A3004 RMK AO2=
KGPT 101850Z 10007KT 3SM -RA BR OVC005 16/14 A3002 RMK AO2
     RAB1756E08B28 P0000=
KHRL 101850Z 18023G29KT 10SM SCT029 BKN035 26/19 A2984 RMK AO2 PK
     WND 18032/1827=
KLNS 101850Z 00000KT 2 1/2SM BR SCT006 OVC013 02/M01 A3034 RMK
     AO2=
KMCB 101850Z AUTO 15011KT 10SM FEW009 OVC038 16/13 A2999 RMK
     AO2=
KMMK 101850Z AUTO 00000KT 2SM UP BR OVC014 00/M01 A3039 RMK AO2
     P0001 TSNO=
KOMA 101850Z 17005KT 1 3/4SM BR OVC005 01/M01 A2958 RMK AO2=
KRDG 101850Z 34003KT 3SM HZ OVC019 01/M02 A3035 RMK AO2 SFC VIS
     5=
K1B7 101845Z 09007KT 0SM FG OVC002 14/14 A3001=
K7R3 101827Z 12005KT 10SM OVC005 A3000=
K1B7 101820Z 09008KT 0SM FG OVC002 14/14 A3002=
KLAR 101851Z AUTO 29029G35KT 3SM HZ FEW100 M04/M09 A2965 RMK AO2
     PK WND 28039/1826=
KROG 101851Z 16011KT 10SM -RA SCT009 BKN023 OVC075 11/09 A2969 RMK
     AO2 CIG 018V036 P0004=
KABY 101851Z 04004KT 2 1/2SM BR OVC004 13/13 A3013 RMK AO2=
KADG 101851Z AUTO 19007KT 1 3/4SM BR OVC004 02/01 A3003 RMK AO2
     TSNO=
KGVL 101851Z AUTO 09007KT 2 1/2SM BR OVC003 08/07 A3016 RMK
     AO2=
KHFD 101851Z 00000KT 2 1/2SM BR SCT007 OVC023 00/M02 A3039 RMK AO2
     SNE08 P0000=
KHYR 101851Z AUTO 17008KT 2SM BR OVC006 M05/M06 A2968 RMK AO2=

0000010100
719
SPUS42 KWBC 101854
SPECI
KHRL 101850Z 18023G29KT 10SM SCT029 BKN035 26/19 A2984=

0000009700
720
SPUS42 KWBC 101854
SPECI
KGPT 101850Z 10007KT 3SM -RA BR OVC005 16/14 A3002=

0000011700
721
SPUS43 KWBC 101854
SPECI
KDSM 101850Z 11003KT 3/4SM R31/4500V6000FT -DZ BR OVC002 01/00
A2961=

0000009800
722
SPUS43 KWBC 101854
SPECI
KOMA 101850Z 17005KT 1 3/4SM BR OVC005 01/M01 A2958=

0000008800
723
SPCN45 CWAO 101850
SPECI CYLK 101850Z 11006KT 4SM -SN OVC055 RMK SC8=

0000052000
724
SAFI32 EFHK 101850
METAR EFHA 101850Z AUTO 35009KT 9000 -SN OVC009 
M05/M05 Q0993=
EFHF 101850Z 35012KT 320V030 9999 -SN BKN012 M00/M02 Q0989=
METAR EFKA 101850Z AUTO 03011KT 9999 OVC010 M07/M08
 Q0998=
EFKK 101850Z 04011KT 360V060 9999 -SHSN FEW017 BKN021 M08/M10 Q0999=
EFMA 101850Z 35012KT 310V010 5000 -RASN BKN007 OVC028 M00/M00 Q0996=
METAR EFPO 101850Z AUTO 01010KT 350V050 9999 OVC008/// M03/M05 Q0995 
R12/29//95=
EFSI 101850Z AUTO 01008KT 340V040 9999 OVC007 M06/M06 Q0997=

0000040300
725
SABX31 EBBR 101850
METAR EBAW 101850Z 21009KT 9000 BKN009 06/03 Q1017 NOSIG=
METAR EBBR 101850Z 22009KT 9999 BKN011 05/03 Q1017 TEMPO BKN008=
METAR EBCI 101850Z 20011KT 9999 BKN010 05/03 Q1017 NOSIG=
METAR EBLG 101850Z 20012KT 9999 FEW011 04/02 Q1017 NOSIG=
METAR EBOS 101850Z 19010KT 9999 BKN012 05/03 Q1017 TEMPO BKN008=
METAR ELLX 101850Z 20004KT CAVOK 02/01 Q1018 NOSIG=

0000032300
726
SAHO31 MHTG 101900
METAR MHRO 101900Z 04003KT 9999 SCT020 SCT080 27/22 Q1014 A2995
NOSIG=
METAR MHLC  101900Z 35005KT 9999 SCT020 SCT070 26/22 Q1014 A2995
NOSIG=
METAR MHLM  101900Z 02006KT 9999 SCT028 29/22 Q1013 A2991 NOSIG= 
METAR MHTG  101900Z 06006KT 9999 BKN028 25/13 Q1018 A3006 NOSIG=  

0000047700
727
SAOS31 LOWM 101850
METAR LOWW 101850Z 24006KT 9999 FEW065 04/00 Q1020 NOSIG=
METAR LOWL 101850Z 25005KT 9999 FEW050 03/M00 Q1021 NOSIG=
METAR LOWS 101850Z VRB01KT 9999 FEW025 BKN030 03/03 Q1020 NOSIG=
METAR LOWI 101850Z VRB02KT 9999 FEW005 BKN100 03/03 Q1020 R08/19//74
NOSIG=
METAR LOWG 101850Z 01006KT 4000 FZBR FEW001 M01/M01 Q1020 R17/29//95
BECMG 0400 FZFG=
METAR LOWK 101850Z VRB01KT 0500 R10/0600N R28/0650N FG VV002 03/03
Q1021 NOSIG=

0000011200
728
SAOS32 LOWM 101850
METAR LOXZ 101850Z 34004KT 20KM FEW050SC BKN080SC M01/M01 Q1020 RMK
BKN=

0000040700
729
SANO36 ENMI 101850
METAR ENBS 101850Z VRB03KT 9000 -SHSN SCT030 BKN050 M09/M13 Q1014 =
METAR ENHK 101850Z NIL=
METAR ENHV 101850Z 25004KT 9999 -SN SCT034 BKN051 M05/M08 Q1017=
METAR ENLK 101850Z 06011KT 9999 SCT040 M06/M15 Q1013=
METAR ENMH 101850Z NIL=
METAR ENNK 101850Z 03012KT 010V070 9999 FEW040 M08/M14 Q1015=
METAR ENNM 101850Z 07015KT 9999 FEW045 BKN085 M08/M14 Q1004=

0000065100
730
SANO33 ENMI 101850
METAR ENAT 101850Z 20006KT 8000 -SN OVC005 M14/M15 Q1018 RMK WIND
           700FT 18006KT=
METAR ENBL 101850Z 31006KT 9999 FEW/// SCT010 BKN030 M01/M02 Q0996=
METAR ENEV 101850Z 06018KT CAVOK M07/M15 Q1015 RMK WIND 1400FT
           07028KT=
METAR ENFL 101850Z NIL=
METAR ENKB 101850Z VRB02KT 9999 BKN020 M03/M07 Q0999=
METAR ENKR 101850Z 16008KT 3000 IC BR VV013 M20/M22 Q1015 SEASMOKE
           NORTH OF THE FIELD RMK WIND 775FT 24003KT=
METAR ENML 101850Z 01005KT 9999 FEW025 SCT080 M01/M06 Q0999=
METAR ENNA 101850Z 18002KT 9999 BKN005 M14/M15 Q1018 RMK WIND 1800FT
           02005KT=

0000009200
731
SADN34 EKCH 101850 RRA
METAR EKGF 101850Z 3019KT 9999 BKN010 07/05 Q1007=

0000044200
732
SANO35 ENMI 101850
METAR ENMS 101850Z NIL=
METAR ENRM 101850Z 07012KT CAVOK M07/M14 Q1005=
METAR ENRS 101850Z 06026G38KT 9999 BKN047 M03/M11 Q1010=
METAR ENSK 101850Z 06012KT CAVOK M06/M16 Q1014=
METAR ENSO 101850Z 26006KT 9999 BKN014 05/04 Q0999=
METAR ENST 101850Z 05008KT 340V120 CAVOK M07/M16 Q1007 RMK WIND 300FT
           05012G22KT 300V080=
METAR ENVD 101850Z 28008KT 9999 SCT015 BKN030 M10/M13 Q1015=

00000000