0000010300
953
SARM31 LUKK 110030
METAR LUKK 110030Z 26010KT CAVOK 02/M02 Q1015 R26/CLRD65
NOSIG=

0000016300
954
SACA31 TNCC 110000
METAR TNCC 110000Z 10011KT 9999 FEW014 26/22 Q1014 NOSIG=
METAR TNCB 110000Z 06011KT 020V090 9999 SCT017 26/23 Q1013 NOSIG=

0000009200
955
SARM31 LUKK 110030
METAR LUBL 110030Z AUTO 25013KT 9999 NCD 01/M03 Q1014=

0000009300
956
SPUS42 KWBC 110013
SPECI
KSAV 110009Z 13009KT 2SM BR OVC004 18/17 A3012=

0000009700
957
SPUS43 KWBC 110013
SPECI
KBTL 110009Z 17008KT 4SM -RA BR OVC005 03/02 A2980=

0000020700
958
SASQ31 LZIB 110030
METAR LZIB 110030Z 21003KT CAVOK 01/00 Q1020=
METAR LZKZ 110030Z VRB01KT 0200 R01/0500N FG SCT001 M01/M01 Q1018=
METAR LZTT 110030Z 30011KT 9999 FEW046 01/M06 Q1016=

0000017800
959
SASQ41 LZIB 110030
METAR LZPP 110030Z NIL=
METAR LZSL 110030Z 24007KT 9999 FEW042 SCT050 01/M02 Q1018=
METAR LZZI 110030Z 20002KT 9999 BKN056 02/M01 Q1019=

0000021600
960
SABU31 LBSM 110030
METAR LBSF 110030Z VRB01MPS 2000 BR NSC M02/M02 Q1022 NOSIG=
METAR LBWN 110030Z 30004MPS CAVOK 05/02 Q1019 NOSIG=
METAR LBBG 110030Z 25003MPS 230V350 CAVOK 03/02 Q1020 NOSIG=

0000009100
961
SAHU31 LHBM 110030
METAR LHBP 110030Z VRB02KT CAVOK M01/M02 Q1021 NOSIG=

0000012400
962
SAUK31 EGGY 110020 CCB
METAR COR EGCC 110020Z 28006KT 9999 FEW005 BKN031 BKN036 07/06 Q1009
     NOSIG=

0000024400
963
FTCN36 CWAO 110000 AAA
TAF AMD CYUY 110028Z 1100/1112 19012KT 6SM BR OVC004 TEMPO 1100/1108
     2SM -SN -FZDZ BR OVC002
    FM110800 15008KT 1SM -SN BR OVC004 TEMPO 1108/1112 3SM -SN OVC008
    RMK NXT FCST BY 110600Z=

0000087400
964
SANL33 EHDB 110025
METAR EHAK 110025Z AUTO 23024KT 9999 FEW006/// BKN027/// OVC031///
07/06 Q1006=
METAR EHDV 110025Z AUTO 23021KT 9999 -DZ FEW034/// 08/06 Q1008=
METAR EHFD 110025Z AUTO 24025KT 9999 FEW007/// BKN008/// OVC010///
08/07 Q1007=
METAR EHFZ 110025Z AUTO 22023KT //// // ///////// 08/07 Q1009 RE//=
METAR EHJA 110025Z AUTO 22025KT 9999 NSC 08/06 Q1009=
METAR EHJR 110025Z NIL=
METAR EHKV 110025Z AUTO 24027KT 9999 FEW010/// SCT043/// 09/07 Q1011=
METAR EHMA 110025Z AUTO 21020KT 8000 FEW006/// BKN007/// OVC009///
07/06 Q1011 REDZ=
METAR EHMG 110025Z AUTO 23027KT 9999 SCT010/// SCT014/// BKN043///
09/07 Q1010=
METAR EHPG 110025Z AUTO ///28KT 9999 FEW009/// SCT017/// 09/07 Q1012=
METAR EHQE 110025Z AUTO 22028KT 9999 SCT005/// BKN007/// BKN008///
09/07 Q////=
METAR EHSA 110025Z NIL=
METAR EHSC 110025Z NIL=

0000025000
965
SADL36 EDZO 110020
METAR ETMN 110020Z 24012KT 8000 BKN012 06/05 Q1012
      GRN=
METAR ETNL 110020Z 25009KT 9999 FEW013 BKN016 05/04 Q1012
      WHT=
METAR ETSI 110020Z AUTO 00000KT 0350 // ////// M02/M02 Q1019
      ///=

0000012000
966
SACN62 CYYY 110000 CCA
METAR CYYY 110000Z CCA 21012G18KT 30SM SCT100 M06/M13 A3014 RMK AC3
 SLP212=

0000027100
967
FTFR31 LFPW 102300 AAA
TAF AMD LFPO 110028Z 1100/1206 10004KT 6000 BKN002 TEMPO 1100/1106
1500 -RA BKN006 BECMG 1105/1108 20006KT BKN016 TEMPO 1106/1109 4000
BR BKN004 BECMG 1112/1115 SCT016 BECMG 1120/1123 02004KT BKN006 TEMPO
 1200/1206 BKN003=

0000014200
968
SAPA31 KWBC 110000 RRB
METAR
PKWA 110020Z AUTO 08015G20KT 10SM SCT033 SCT040 SCT046 31/20 A2981
     RMK AO2 T03050203=

0000008900
969
SASG20 GOOY 110030
METAR GOOY 110030Z 01009KT CAVOK 19/14 Q1014 NOSIG=

0000011000
970
SAMJ41 LWSK 110030
METAR LWSK 110030Z 00000KT 0250 R34/0400N FG OVC002 01/01 Q1024
NOSIG=

0000012200
971
SAEU31 BKPR 110030
BKPR 110030Z 00000KT 0100 R17/0150 FZFG BKN002 M01/M02 Q1023 NOSIG
 RMK 17010095 =

0000017700
972
SANL32 EHDB 110025
METAR EHEH 110025Z AUTO 20008KT 9999 OVC009 05/03 Q1016 
GRN=
METAR EHKD 110025Z AUTO 21019KT 8000 BR BKN006 OVC007 07/06 Q1012 
YLO=

00000000