0000038700
513
SAAP32 FAPR 110300
METAR FABL 110300Z 23001KT CAVOK 14/10 Q1018 NOSIG=
METAR FACT 110300Z 17009KT 9999 FEW030 16/12 Q1016 NOSIG=
METAR FALE 110300Z 26004KT 9999 BKN030 21/18 Q1016 NOSIG=
METAR FAOR 110300Z 00000KT CAVOK 18/07 Q1022 NOSIG=
METAR FQBR 110300Z VRB02KT 9999 FEW018 26/25 Q1010=
METAR FQMA 110300Z 19010KT 4000 DZ SCT010 OVC020 23/22 Q1014 NOSIG=

0000010200
514
SACG20 FCBB 110300
METAR FCBB 110300Z 31001KT 8000 FEW010 BKN018 23/22 Q1012 NOSIG=

0000009500
515
SAID32 WIDN 110300
METAR WIDN 110300Z 35007KT 9999 SCT015 29/24 Q1012 NOSIG=

0000019300
516
FTLC31 TLPL 110303
TAF
TLPL 110300Z 1106/1206 08018KT 9999 SCT024 TEMPO 1121/1206 SHRA
BKN022=
TLPC 110300Z 1106/1206 09012KT 9999 SCT024 TEMPO 1121/1206 SHRA
BKN022=

0000010600
517
SACN61 CYZY 110300
METAR CYZY 110300Z AUTO 12006KT 9SM BKN015 M04/M06 A2953 RMK SLP040=

0000011700
518
SACN62 CYYZ 110300
METAR CYYZ 110300Z 12006KT 12SM SCT014 OVC140 03/01 A2995 RMK ST4AS4
 SLP149=

0000011200
519
SACN62 CYYT 110300
METAR CYYT 110300Z 25018G23KT 15SM FEW220 M06/M09 A3011 RMK CI1
 SLP206=

0000009900
520
SACN62 CZBF 110300
METAR CZBF 110300Z 24003KT 15SM SKC M20/M23 A3019 RMK SLP228=

0000019100
521
SAIY33 LIIB 110300
METAR LIMA 110300Z NIL=
METAR LIMG 110300Z NIL=
METAR LIMP 110300Z NIL=
METAR LIMS 110300Z NIL=
METAR LIMW 110300Z NIL=
METAR LIMZ 110300Z NIL=

0000023600
522
SAIY34 LIIB 110300
METAR LIPC 110255Z /////KT 1500 BR BKN050 08/05 Q1022=
METAR LIPF 110300Z NIL=
METAR LIPO 110250Z 20002KT 4000 BR BKN040 07/07 Q1022=
METAR LIPY 110250Z VRB01KT 8000 FEW015 SCT040 09/09 Q1022=

0000032200
523
SAIY35 LIIB 110300
METAR LIQN 110300Z NIL=
METAR LIQW 110300Z NIL=
METAR LIRG 110300Z NIL=
METAR LIRH 110300Z NIL=
METAR LIRL 110300Z NIL=
METAR LIRM 110255Z 01005KT 3000 BR SCT080 07/06 Q1021=
METAR LIRS 110255Z /////KT CAVOK 05/03 Q1021=
METAR LIRU 110300Z NIL=
METAR LIRV 110300Z NIL=

0000024500
524
SAIY36 LIIB 110300
METAR LIBC 110300Z NIL=
METAR LIBF 110300Z NIL=
METAR LIBG 110300Z NIL=
METAR LIBP 110250Z VRB02KT 5000 BR NSC 04/01 Q1022=
METAR LIRI 110300Z NIL=
METAR LIRJ 110300Z NIL=
METAR LIRZ 110300Z NIL=

0000021500
525
SAIY37 LIIB 110300
METAR LICA 110250Z 13003KT 9999 FEW025 05/04 Q1022=
METAR LICD 110300Z NIL=
METAR LICG 110300Z NIL=
METAR LICR 110300Z NIL=
METAR LICT 110255Z 12009KT CAVOK 13/11 Q1019=

0000009700
526
SPUS31 KWBC 110305
SPECI
KBOS 110301Z 13003KT 1 3/4SM BR OVC006 01/00 A3032=

0000015100
527
SAKY31 RUMS 110300
METAR UCFM 110300Z NIL=
METAR UCFO 110300Z 17003MPS 5000 BR FU NSC M06/M12 Q1026 R12/CLRD70
TEMPO 1000 BR FU=

0000020400
528
SAAY31 RUMS 110300
METAR UDYZ 110300Z 00000MPS 1600 BR BKN008 M10/M11 Q1026 R09/000070
NOSIG=
METAR UDSG 110300Z 00000MPS 0100 R02/0400N FZFG VV001 M18/M20 Q1020
R02/CLRD70 NOSIG=

0000096100
529
SAKZ31 RUMS 110300
METAR UAAA 110300Z 18002MPS 0250 R23R/0350N R23L/0450N FZFG FU BKN200
M15/M17 Q1025 8891//60 NOSIG=
METAR UACC 110300Z 17008MPS 9999 -SN DRSN OVC030 M08/M10 Q1023
R22/8/0040 NOSIG RMK QFE736/0981=
METAR UAKK 110300Z 17009MPS 9999 BKN023 OVC200 M15/M18 Q1026
R23/850555 NOSIG RMK QFE722/0963=
METAR UAOO 110300Z 17005MPS 3300 BR BKN130 M06/M08 Q1022 R24/3///55
NOSIG RMK QFE754/1006=
METAR UARR 110300Z 21008MPS 9999 -FZDZ OVC004 M00/M01 Q1009
R22/750245 TEMPO 1000 FZDZ BR OVC003 RMK QBB130 QFE753/1005=
METAR UATE 110300Z 11005MPS 0450 R12/1300N FG VV001 00/00 Q1017
R12/0///70 NOSIG RMK QBB050 QFE761/1014=
METAR UATG 110300Z 19004MPS 5000 BR OVC018 01/01 Q1015 R14/19//65
NOSIG RMK QFE763/1018=
METAR UATT 110300Z 24003MPS 9999 OVC002 M01/M01 Q1011 R13/890545
NOSIG RMK QBB060 QFE738/0985=
METAR UAUU 110300Z 17006MPS 9999 BKN033CB OVC100 M08/M10 Q1013
R15/CLRD60 NOSIG RMK QFE744/0992=

0000024300
530
SATA31 RUMS 110300
METAR UTDD 110300Z VRB01MPS 0100 R09/M0050D FZFG VV002 M08/M09 Q1027
09CLRD70 NOSIG RMK QBB060 QFE702/0936=
METAR UTDL 110300Z 07007G10MPS 3500 BR OVC210 M03/M07 Q1027 NOSIG RMK
QFE730/0974 8819//65=

0000016700
531
FTCN34 CWAO 110300 AAA
TAF AMD CYBR 110305Z 1103/1112 28012KT P6SM SCT020 BKN030 OVC070
     TEMPO 1103/1112 BKN020
    RMK NXT FCST BY 110600Z=

0000009800
532
SAEA20 HKNC 110200 RRE
METAR HKVO 110200Z 00000KT 9999 -DZ SCT006 BKN018 21/20=

00000000