0000025700
113
FTCN32 CWAO 110000
TAF CYOJ 110038Z 1101/1113 VRB03KT P6SM OVC030 TEMPO 1101/1104 3SM
     -SN OVC020
    FM110400 35005KT P6SM BKN050
    FM111000 VRB03KT 6SM -SN OVC030 TEMPO 1110/1113 2SM -SN BKN010
    RMK NXT FCST BY 110700Z=

0000035000
114
FTCN31 CWAO 110000
TAF CYXT 110038Z 1101/1113 VRB03KT 4SM -SHRASN BR BKN009 TEMPO
     1101/1103 P6SM NSW SCT009 BKN020
    FM110300 01007KT 6SM -RASN BKN020 TEMPO 1103/1110 1SM -SN BKN005
     PROB30 1105/1110 1/2SM SHSN BKN003
    FM111000 01010KT P6SM BKN040 TEMPO 1110/1113 4SM -SN BKN020
    RMK NXT FCST BY 110700Z=

0000015400
115
FTCN32 CWAO 110000
TAF CYDQ 110038Z 1101/1105 26007KT P6SM SCT200
    RMK FCST BASED ON AUTO OBS. NXT FCST WILL BE ISSUED AT 111245Z=

0000025300
116
FTCN32 CWAO 110000
TAF CYMM 110038Z 1101/1113 27008KT P6SM SCT015 OVC030 TEMPO 1101/1107
     5SM -SN OVC020
    FM110700 VRB02KT 5SM -SN OVC020 TEMPO 1107/1113 1SM -SN OVC008
    RMK FCST BASED ON AUTO OBS. NXT FCST BY 110700Z=

0000023800
117
FTCN31 CWAO 110000
TAF CYYD 110038Z 1101/1106 18005KT P6SM SCT040 TEMPO 1101/1104 5SM
     -SN BKN040
    FM110400 VRB03KT P6SM -SN BKN040 TEMPO 1104/1106 2SM -SN BKN020
    RMK NXT FCST WILL BE ISSUED AT 111345Z=

0000017900
118
FTCN32 CWAO 110000
TAF CYVT 110038Z 1101/1104 32015KT 3SM -SN OVC006 TEMPO 1101/1104
     P6SM -SN SCT006 OVC015
    RMK NXT FCST WILL BE ISSUED AT 111345Z=

0000022300
119
FTCN33 CWAO 110000
TAF CYEV 110038Z 1101/1113 28012KT P6SM -SN DRSN SCT030 BKN080 TEMPO
     1101/1106 2SM -SN DRSN BKN030 OVC080
    FM110600 28007KT P6SM FEW030 SCT080
    RMK NXT FCST BY 110700Z=

0000016200
120
FTCN33 CWAO 110000
TAF CYCO 110038Z 1101/1113 27015G25KT P6SM DRSN FEW020 SCT080 TEMPO
     1101/1113 4SM BLSN
    RMK NXT FCST BY 110700Z=

0000020700
121
FTCN33 CWAO 110000
TAF CYUX 110038Z 1101/1113 32015KT P6SM SCT040 TEMPO 1101/1113 4SM IC
     BKN040
     BECMG 1105/1107 30010KT
    RMK FCST BASED ON AUTO OBS. NXT FCST BY 110700Z=

0000015800
122
FTCN34 CWAO 110000
TAF CYGX 110038Z 1101/1113 05006KT 5SM -SN OVC030 TEMPO 1101/1113
     11/2SM -SN VV015
    RMK NXT FCST BY 110700Z=

0000018300
123
FTCN33 CWAO 110000
TAF CYVM 110038Z 1101/1113 VRB03KT P6SM SCT015 BKN040 TEMPO 1101/1113
     4SM IC BKN015
    RMK FCST BASED ON AUTO OBS. NXT FCST BY 110700Z=

0000016900
124
FTCN33 CWAO 110000
TAF CYUB 110038Z 1101/1106 30015KT P6SM FEW070 SCT240 TEMPO 1101/1106
     4SM BLSN
    RMK NXT FCST WILL BE ISSUED AT 111545Z=

0000018000
125
FTCN32 CWAO 110000
TAF CYYE 110038Z 1101/1113 VRB03KT P6SM BKN050
    FM111000 VRB03KT P6SM SCT020 BKN080 TEMPO 1110/1113 BKN020
    RMK NXT FCST BY 110700Z=

0000016400
126
FTCN33 CWAO 110000
TAF CYCB 110038Z 1101/1113 26007KT P6SM -SN SCT015 BKN070 TEMPO
     1101/1113 3SM -SN OVC015
    RMK NXT FCST BY 110700Z=

0000020800
127
FTCN33 CWAO 110000
TAF CYIO 110038Z 1101/1113 17008KT P6SM -SN OVC030 TEMPO 1101/1113
     3SM -SN OVC020 PROB30 1101/1113 1SM -SHSN
    RMK FCST BASED ON AUTO OBS. NXT FCST BY 110700Z=

0000018600
128
FTCN34 CWAO 110000
TAF CYYL 110038Z 1101/1113 06008KT 4SM -SN SCT015 OVC030 TEMPO
     1101/1113 1SM -SN VV015
    RMK FCST BASED ON AUTO OBS. NXT FCST BY 110700Z=

0000012200
129
FTCN34 CWAO 110000
TAF CYPA 110038Z 1101/1113 VRB03KT P6SM SCT070 BKN150
    RMK NXT FCST BY 110700Z=

0000019100
130
FTCN34 CWAO 110000
TAF CYNE 110038Z 1101/1113 VRB03KT P6SM -SN SCT006 OVC012 TEMPO
     1101/1113 2SM -SN BR OVC006
    RMK FCST BASED ON AUTO OBS. NXT FCST BY 110700Z=

0000119000
131
SPUS70 KWBC 110016
SPECI
KAXN 110012Z AUTO 20007KT 3/4SM BR OVC002 M02/M02 A2950 RMK
     AO2=
KDAN 110012Z AUTO 07003KT 10SM OVC005 04/02 A3021 RMK AO2 RAB02E11
     P0000=
KFHR 110012Z AUTO 06005KT 10SM -RA BKN009 OVC018 07/06 A2990 RMK
     AO2 P0000 T00720056=
KLHQ 110012Z AUTO 15004KT 8SM BKN008 BKN026 07/06 A2996 RMK
     AO2=
KMVY 110012Z AUTO 19004KT 6SM -RA BR BKN006 OVC010 06/04 A3037 RMK
     AO2 P0000 $=
KOGB 110012Z AUTO 00000KT 4SM -RA BR BKN006 OVC013 13/12 A3014 RMK
     AO2 RAB04 P0000 T01280117 TSNO=
KPTW 110012Z AUTO 00000KT 3/4SM -RA BR VV003 01/01 A3032 RMK AO2
     P0001 T00060006=
KUCP 110012Z AUTO 13004KT 8SM BKN009 OVC055 05/04 A3005 RMK AO2
     TSNO BKN V SCT=
KLPR 110013Z AUTO 18012KT 2 1/2SM BR OVC003 06/04 A2995 RMK
     AO2=
KPIT 110013Z 09004KT 10SM SCT009 BKN060 BKN180 07/06 A3004 RMK
     AO2=
KVPZ 110013Z AUTO 16014G21KT 2 1/2SM -RA BR OVC004 03/03 A2973 RMK
     AO2 P0003 T00280028 TSNO=
KBIV 110013Z AUTO 15013KT 4SM RA BR SCT007 BKN012 OVC030 03/03
     A2973 RMK AO2 P0005 T00330028=
KDVN 110013Z AUTO 18009KT 4SM -RA BR OVC005 03/02 A2954 RMK AO2
     RAB2357 P0000=

0000009200
132
SABZ42 KWBC 110000 RRB
METAR
SBSP 110000Z 12004KT 9000 NSC 25/20 Q1018=

00000000