0000025500
773
FTUS42 KWBC 102245 AAA
TAF AMD
KNEW 102241Z 1023/1118 11010KT 1SM BR OVC002
      TEMPO 1105/1109 2SM TSRA OVC006CB
     FM110900 22015KT 3SM -RA BR OVC002
     FM111200 27013KT 2SM BR OVC003
     FM111600 30012KT P6SM SCT250=

0000027900
774
FTUS71 KWBC 102245 AAA
TAF AMD
KSBY 102242Z 1023/1118 12005KT 3SM -RA BR SCT006 OVC035
      TEMPO 1023/1101 1SM -RA BR OVC006
     FM110100 14005KT 2SM -RA BR OVC012
     FM110600 17012KT 3SM -DZ BR OVC015
     FM111200 18014G20KT 4SM -RA BR OVC010=

0000042300
775
FTMX53 MMMX 102245
TAF MMMZ 102245Z 1100/1206 26010KT P6SM BKN220 TX25/1118Z TN13/1112Z 
         FM110400 24005KT P6SM BKN200 
         FM111700 24010KT P6SM SCT200 
         FM120400 24005KT P6SM SKC=
TAF MMTJ 102245Z 1100/1206 28010KT 5SM HZ SCT200 TX21/1121Z
TN08/1112Z
         FM110400 02005KT 5SM HZ SCT200 
         FM111800 33010KT P6SM SKC 
         FM120400 30005KT 6SM HZ SKC=

0000014000
776
FTNG31 YBBN 102200
TAF AYPY 102245Z NIL=
TAF ANYN 102245Z NIL=
TAF AGGH 101600Z 1018/1118 09008KT 9999 SCT020 SCT120=

0000068300
777
FTNC20 NWCC 102300
TAF NWWK 102300Z 1100/1124 15020KT 9999 FEW035 BECMG 1107/1110 05005KT BECMG 1122/1124 18012KT=
TAF NWWD 102300Z 1100/1124 08006KT 9999 FEW035 BECMG 1100/1102 19015KT PROB30 TEMPO 1101/1106 19015G25KT BECMG 1106/1109 08008KT BECMG 1122/1124 19012KT=
TAF NWWW 102300Z 1100/1124 13020KT 9999 SCT045 BECMG 1108/1111 VRB03KT BECMG 1122/1124 13020KT=

TAF NLWW 102300Z 1100/1124 32010KT 9999 SCT018 PROB40 TEMPO 1100/1106 3000 SHRA BKN014 SCT018TCU TEMPO 1106/1124 3000 +SHRA BKN012 SCT016TCU PROB40 TEMPO 1109/1112 1500 TSRA BKN009 SCT015CB=
TAF NLWF 102300Z 1100/1124 24010KT 9999 FEW020 PROB30 TEMPO 1100/1103 4000 SHRA BKN014 FEW020TCU=

0000061100
778
FTAG31 KWBC 102245
TAF
TAF SACO 102300Z 1100/1124 14015KT 9999 BKN030 TX30/1118Z
      TN19/1110Z
      BECMG 1112/1114 14010KT CAVOK=
TAF SASA 102300Z 1100/1124 36005KT 5000 VCTS SHRA SCT020TCU
      FEW040CB TX28/1118Z TN19/1110Z
      BECMG 1106/1108 16015KT 2000 TS SHRA BKN010 SCT020CB
      BECMG 1113/1115 14010KT 9999 VCTS SHRA BKN020 FEW040CB=
TAF SASJ 102300Z 1100/1124 05005KT 5000 VCTS SHRA SCT020TCU
      FEW040CB TX30/1118Z TN20/1110Z
      BECMG 1109/1111 18015KT 2000 TS SHRA BKN010 SCT020CB
      BECMG 1113/1115 16010KT 9999 VCTS SHRA BKN020 FEW040CB=

0000025700
779
FTAG41 KWBC 102245
TAF
TAF SANT 102300Z 1100/1124 20010KT 3000 TS SHRA BKN020 SCT030CB
      TX25/1118Z TN20/1110Z
      BECMG 1106/1108 20020KT 2000 TS SHRA BKN010 SCT020CB
      TEMPO 1215 20015KT 8000 VCTS SHRA BKN015 FEW030CB=

0000037200
780
FTPA32 KWBC 102245
TAF
TAF NLWW 102300Z 1100/1124 32010KT 9999 SCT018 PROB40
      TEMPO 1100/1106 3000 SHRA BKN014 SCT018TCU
      TEMPO 1106/1124 3000 +SHRA BKN012 SCT016TCU PROB40
      TEMPO 1109/1112 1500 TSRA BKN009 SCT015CB=
TAF NWWW 102300Z 1100/1124 13020KT 9999 SCT045
      BECMG 1108/1111 VRB03KT
      BECMG 1122/1124 13020KT=

0000019200
781
FTPA31 KWBC 102245 AAA
TAF AMD
PGSN 102244Z 1023/1118 05014G24KT P6SM VCSH SCT020 SCT120
     FM110000 06014KT P6SM VCSH SCT020
     FM110800 06009KT P6SM VCSH FEW020=

0000019200
782
FTPQ31 KWBC 102245 AAA
TAF AMD
PGSN 102244Z 1023/1118 05014G24KT P6SM VCSH SCT020 SCT120
     FM110000 06014KT P6SM VCSH SCT020
     FM110800 06009KT P6SM VCSH FEW020=

0000018700
783
FTUS52 KWBC 102245 AAA
TAF AMD
KFSM 102242Z 1023/1118 02004KT P6SM BKN080 BKN090 OVC110
      TEMPO 1100/1103 2SM TSRA BKN030CB
     FM110300 24011KT P6SM SCT100=

0000027900
784
FTUS51 KWBC 102245 AAA
TAF AMD
KSBY 102242Z 1023/1118 12005KT 3SM -RA BR SCT006 OVC035
      TEMPO 1023/1101 1SM -RA BR OVC006
     FM110100 14005KT 2SM -RA BR OVC012
     FM110600 17012KT 3SM -DZ BR OVC015
     FM111200 18014G20KT 4SM -RA BR OVC010=

0000076600
785
FTUS80 KWBC 102245 AAA
TAF AMD
KFSM 102242Z 1023/1118 02004KT P6SM BKN080 BKN090 OVC110
      TEMPO 1100/1103 2SM TSRA BKN030CB
     FM110300 24011KT P6SM SCT100=
KNEW 102241Z 1023/1118 11010KT 1SM BR OVC002
      TEMPO 1105/1109 2SM TSRA OVC006CB
     FM110900 22015KT 3SM -RA BR OVC002
     FM111200 27013KT 2SM BR OVC003
     FM111600 30012KT P6SM SCT250=
KSBY 102242Z 1023/1118 12005KT 3SM -RA BR SCT006 OVC035
      TEMPO 1023/1101 1SM -RA BR OVC006
     FM110100 14005KT 2SM -RA BR OVC012
     FM110600 17012KT 3SM -DZ BR OVC015
     FM111200 18014G20KT 4SM -RA BR OVC010=
PGSN 102244Z 1023/1118 05014G24KT P6SM VCSH SCT020 SCT120
     FM110000 06014KT P6SM VCSH SCT020
     FM110800 06009KT P6SM VCSH FEW020=

0000010400
786
SPUS31 KWBC 102245
SPECI
KORD 102241Z 16012KT 4SM -RA BR BKN006 OVC012 03/01 A2968=

0000009800
787
SPUS31 KWBC 102245
SPECI
KTEB 102241Z 35003KT 1 1/2SM BR OVC003 02/M01 A3035=

0000010200
788
SPUS41 KWBC 102245
SPECI
KBAF 102241Z 00000KT 5SM BR SCT017 OVC080 M01/M03 A3033=

0000012100
789
SAGR31 LGAT 102220 RRA
METAR LGTS 102220Z VRB02KT 8000 FEW010 SCT025 BKN180 06/05 Q1020
      NOSIG=

0000075900
790
FTAG10 SACO 102300
TAF SACO 102300Z 1100/1124 14015KT 9999 BKN030
TX30/1118Z TN19/1110Z BECMG 1112/1114 14010KT
CAVOK=
TAF SASA 102300Z 1100/1124 36005KT 5000 VCTS SHRA
SCT020TCU FEW040CB TX28/1118Z TN19/1110Z BECMG
1106/1108 16015KT 2000 TS SHRA BKN010 SCT020CB
BECMG 1113/1115 14010KT 9999 VCTS SHRA BKN020
FEW040CB=
TAF SASJ 102300Z 1100/1124 05005KT 5000 VCTS SHRA
SCT020TCU FEW040CB TX30/1118Z TN20/1110Z BECMG
1109/1111 18015KT 2000 TS SHRA BKN010 SCT020CB
BECMG 1113/1115 16010KT 9999 VCTS SHRA BKN020
FEW040CB=
TAF SANT 102300Z 1100/1124 20010KT 3000 TS SHRA
BKN020 SCT030CB TX25/1118Z TN20/1110Z BECMG
1106/1108 20020KT 2000 TS SHRA BKN010 SCT020CB
TEMPO 1215 20015KT 8000 VCTS SHRA BKN015 FEW030CB=

0000173300
791
SPUS70 KWBC 102244
SPECI
KAXN 102240Z AUTO 18005KT 3/4SM BR OVC002 M02/M02 A2949 RMK
     AO2=
KFIG 102240Z AUTO 05005KT 9SM BKN013 OVC046 01/00 A3018 RMK AO2
     T00110000=
KHFD 102240Z 17003KT 4SM BR BKN010 OVC023 02/00 A3036 RMK AO2
     T00170000=
KHKY 102240Z AUTO 06006KT 2SM BR OVC003 07/06 A3017 RMK AO2
     TSNO=
KIAD 102240Z 00000KT 1SM -RA BR OVC003 02/01 A3029 RMK AO2 SFC VIS
     1 1/4 P0001=
KLFT 102240Z AUTO 17014G26KT 8SM -RA SCT010 BKN032 OVC060 19/18
     A2990 RMK AO2 PK WND 16026/2237 P0001 TSNO=
KPWK 102240Z 16009KT 3SM -RA BR OVC006 03/02 A2970 RMK AO2
     P0019=
KTCL 102240Z 12006KT 10SM BKN013 OVC036 12/10 A3000 RMK AO2=
KBAF 102241Z 00000KT 5SM BR SCT017 OVC080 M01/M03 A3033 RMK AO2
     T10111028=
KGMU 102241Z 06006KT 3SM -RA BR OVC004 08/07 A3016 RMK AO2 RAB18
     P0000=
KIJD 102241Z AUTO 00000KT 3SM BR OVC004 00/M02 A3036 RMK AO2
     T00001017=
KPYM 102242Z AUTO 21003KT 3/4SM BR VV003 03/02 A3036 RMK AO2
     T00280022=
KSRC 102241Z AUTO 14006KT 1/2SM +RA FG OVC001 07/07 A2974 RMK AO2
     TSNO P0005=
KTQE 102241Z AUTO 28004KT 5SM BR OVC013 02/00 A2956 RMK AO2
     UPB2156E12SNE2156 P0000 T00220000=
KTXK 102241Z 16005KT 2SM -RA BR FEW041 SCT070 OVC100 14/14 A2972
     RMK AO2 P0024=
KHFF 102235Z VRB04KT 10SM -RA BKN002 BKN019 10/09 A3019 RMK AO2
     SLP227=
KMGY 102241Z AUTO 14011KT 8SM OVC005 07/06 A2991 RMK AO2
     T00720061=
KORD 102241Z 16012KT 4SM -RA BR BKN006 OVC012 03/01 A2968 RMK AO2
     P0015 T00280006 $=
PAGA 102241Z AUTO 00000KT 1 3/4SM HZ CLR M23/M26 A2969 RMK AO2 VIS
     1V5 FZRANO PNO $=
KNSE 102242Z 11005KT 1/8SM FG VV002 16/14 A3002 RMK AO2 T01560144
     $=

0000009700
792
SPUS31 KWBC 102244
SPECI
KIAD 102240Z 00000KT 1SM -RA BR OVC003 02/01 A3029=

00000000