0000008700
013
SARH32 LDZM 101800
METAR LDLO 101800Z NIL=
METAR LDSB 101800Z NIL=

0000042100
014
SARH31 LDZM 101800
METAR LDSP 101800Z VRB03KT 9999 BKN050 12/09 Q1022 NOSIG =
METAR LDPL 101800Z 09004KT 9999 BKN053 11/09 Q1021 NOSIG =
METAR LDDU 101800Z 08006KT 9999 BKN058 11/08 Q1021 NOSIG =
METAR LDZA 101800Z 00000KT 9999 MIFG NSC 07/07 Q1020 BECMG 3000 =
METAR LDZD 101800Z 10003KT CAVOK 07/07 Q1021 NOSIG =
METAR LDRI 101800Z NIL=
METAR LDOS 101800Z 17006KT 2000 BR NSC 04/03 Q1021=

0000055400
015
FTCA31 KWBC 101800
TAF
TAF COR MUCM 101700Z 1018/1118 10014KT 9000 SCT020
      BECMG 1103/1105 07004KT
      BECMG 1115/1117 09014KT=
TAF COR MUCU 101700Z 1018/1118 16012KT 9000 SCT020
      BECMG 1100/1102 36005KT
      BECMG 1115/1117 16012KT=
TAF COR MUHA 101700Z 1018/1118 14012KT 9000 SCT020
      BECMG 1103/1105 VRB02KT
      BECMG 1115/1117 14012KT=
TAF COR MUVR 101700Z 1018/1118 07013KT 9000 SCT020
      TEMPO 1019/1102 4000 SHRA BKN015
      BECMG 1103/1105 08003KT
      BECMG 1115/1117 07013KT=

0000042400
016
SPUS70 KWBC 101800
SPECI
KBAZ 101756Z 19011KT 4SM -RA BR BKN008 BKN017 OVC027 18/18 A2988
     RMK AO2 CIG 005V013 P0000=
KBLF 101756Z AUTO 10003KT 3SM HZ FEW002 SCT028 OVC044 10/07 A3021
     RMK AO2=
KROG 101757Z 16014KT 9SM RA SCT007 BKN019 OVC060 10/09 A2974 RMK
     AO2 PRESFR P0010=
KTRL 101757Z AUTO 19011KT 10SM BKN009 BKN014 OVC019 16/16 A2982
     RMK AO2 CIG 006V011 T01610161=

0000011300
017
SPUS41 KWBC 101800
SPECI
KBDL 101756Z 00000KT 1SM -SN BR FEW009 SCT013 OVC025 M03/M04 A3039=

0000026600
018
SANO37 ENMI 101750 RRA
METAR ENNO 101750Z 32003KT 9999 OVC005 M03/M03 Q0999=
METAR ENSD 101750Z 3205KT 270V360 9999 FEW015 SCT040 BKN060 02/M03
           Q0997 RMK WIND 1138FT 29008KT 230V320=
METAR ENSN 101750Z 30001KT CAVOK M02/M02 Q0998=

0000026900
019
SAXX69 EGRR 101800
METAR EQBH 101750Z 31004KT 9999 SKC 03/M01 Q1028 BLU NOSIG RMK A3036
      PA2506 DA1765=
METAR KQTZ 101755Z 12014G20KT 3200 -DZ BR FEW015 BKN030 OVC050 10/08
      A3006 RMK SLP179 WND DATA ESTMD ALSTG/SLP ESTMD 60003 56014=

0000016300
020
SAAF18 LFPW 102300
METAR FIMP 102300Z 10005KT 9999 SCT017 SCT050 26/23 Q1016=
METAR FMMI 102300Z 31005KT 9999 FEW017 SCT230 17/17 Q1020 NOSIG=

0000009500
021
SAAF27 LFPW 102300
METAR FGSL 102300Z 22007KT 7000 FEW010 24/22 Q1012 NOSIG=

0000012900
022
SACN62 CYDA 102300
METAR CYDA 102300Z 00000KT 20SM FEW080 SCT100 BKN210 M23/M25 A2950
 RMK AC2AS2CI2 SLP033=

0000011900
023
SACN62 CYBW 102300
METAR CYBW 102300Z 27010KT 30SM FEW060 OVC200 M02/M09 A2954 RMK
 SC1CI7 SLP054=

0000013200
024
SACN62 CYCD 102300
METAR CYCD 102300Z 15003KT 15SM VCSH FEW010 FEW030 OVC080 07/06 A2992
 RMK SF1SC1AC6 SLP132=

0000039700
025
SXXX32 EUMS 110945 RRX
16590056
:PRS 1 /1 2447 2441 2445 2445 2439 2443 2440 2442 2438 2436 2442 2437 :RAD 1 /1 6752 6750 6752 6754 6745 6750 6747 6750 6746 6742 6748 6744 6751 6756 6762 6769 6783 6791 :ENC 6 /6 4965 4977 5015 5018 5020 5030 5068 5090 5070 5095 :ENB 6 /6 4966 4977 5015 5016 5021 5030 5066 5088 5067 5094 :SW1 45 /60 0 :SW2 12 /60 0 :BAT 5 /6 12.9 :NAME 16590056
0000041300
026
SXXX32 EUMS 110945 RRX
262D700E
:PRS 1 /1 2004 1991 1972 1964 1972 1938 1910 1955 1952 1931 1939 1952 1959 1948 1949 1932 1915 1903 1873 1894 1886 1903 1908 2011 1969 1919 1932 1905 1869 1866 :RAD 1 /3 4407 4392 4388 4379 4363 4359 4365 4355 4340 4347 4357 4344 4333 4341 4340 :ENC 5 /5 4489 4498 4463 4486 4442 4466 4447 4436 4442 4428 4435 4422 :SW1 45 /60 60 :BAT 14 /15 13.5 :NAME 262D700E /
0000045100
027
SXXX32 EUMS 110945 RRX
16289262
:PRS 1 /1 2182 2179 2187 2163 2180 2172 2165 2165 2177 2176 2175 2168 2180 2163 2164 2178 2182 2178 2174 2172 2182 2175 2173 2177 2181 2178 2181 2193 2183 2187 :RAD 1 /3 7634 7633 7633 7636 7636 7637 7634 7641 7642 7646 7648 7651 7654 7652 7656 7659 7664 7662 7668 7668 :ENC 5 /5 5000 4996 5005 5006 5008 5009 5016 5017 5034 5031 5031 5031 :SW1 45 /60 0 :SW2 15 /60 0 :BAT 14 /15 13.0 :NAME 16289262 /
0000045700
028
SXXX32 EUMS 110945 RRX
324DF524
:PRS 1 /1 2710 2717 2722 2727 2733 2739 2745 2751 2757 2763 2769 2775 2781 2786 2793 2799 2805 2811 2818 2824 2830 2837 2843 2850 2856 2863 2869 2875 2881 2887 :RAD 1 /3 2752 2773 2792 2808 2827 2846 2865 2884 2903 2924 2943 2964 2985 3006 3027 3046 3067 3088 3110 3131 :ENC 5 /5 1700 1730 1761 1794 1825 1856 1887 1922 1956 1989 2026 2063 :SW1 45 /60 0 0 :SW2 15 /60 60 60 :BAT 14 /15 12.6 :NAME 324DF524 /
0000050200
029
SXXX32 EUMS 110945 RRX
22BF90A6
:PRS 1 /1 1082 1082 1085 1085 1083 1084 1489 1092 1098 1098 1097 1107 1097 1098 1099 :RAD 1 /3 4273 4278 4285 4286 4287 4297 4302 4306 4308 4318 :SW/ 45 /60/60 :SW2 11 /60 60 :WTP 15 /15 29.8 :BAT 13 /15 14/3 :WAV 5 /10 6.9 6.5 6.4 :DAV 5 /10 109 112 105 :WMX 5 /10 9.2 8.4 7.8 :TPA 15 /15 2/./ :TMN 585 /760 27.1 :TMX 585 /720 28.1 :HUM 15 /15 78.4 :PRA 15 /15 1014.5/:RAC 44 /60 0.0 :RDU 44 /60 0 :RIN 44//60 0.0 :DAC 584//1440 0.4 :DDR 584 /1440 330
0000042300
030
SXXX32 EUMS 110946 RRX
26CB10AC
:PRS 1 /1 -1337 -1337 -1337 -1337 -1337 -1337 -1337 -1337 -1337 -1337 -1337 -1337 -1337 -1338 -1337 -1337 -1337 -1337 -1337 -1337 -1337 -1337 -1337 -1337 -1337 -1337 -1337 -1337 -1338 -1337 :RAD 3 /3 5769 5763 5765 5765 5767 5767 5761 5760 5760 5758 :RA2 3 /3 5743 5731 5736 5733 5732 5736 5732 5730 5724 5720 :SW1 47 /60 60 :SW2 17 /60 60 :BAT 14 /15 13.0 :NAME 26CB10AC /
0000045200
031
SXXX32 EUMS 110946 RRX
1227146C
:PRS 1 /1 3359 3354 3349 3343 3336 3330 3326 3322 3318 3312 3307 3305 3300 3294 3289 3286 3283 3278 3275 3272 3269 3265 3260 3256 3251 3248 3247 3243 3238 3233 :RAD 3 /3 3324 3305 3304 3293 3274 3275 3254 3242 3237 3221 3206 3178 3165 3164 3139 3153 3136 3100 3093 3086 :ENC 1 /5 4093 4065 4044 4025 4003 3986 3961 3933 3909 3887 3863 3845 :SW1 47 /60 0 :SW2 17 /60 60 :BAT 14 /15 13.1 :NAME 1227146C /
0000053600
032
SXXX32 EUMS 110946 RRX
3246B586
:PRS 1 /1 13278 13714 13714 13714 13714 13714 13714 13714 13370 13587 13714 13714 13698 13714 13714 :RAD 3 /3 7361 7369 7367 7369 7373 7376 7380 7388 7387 7377 :ENC 10 /15 5280 5280 :SW1 47 /60 0 :SW2 17 /60 0 :WTP 1 /15 -5.4 :BAT 13 /15 14.0 :WAV 6 /10 5.8 9.2 7.9 :DAV 6 /10 65 31 33 :WMX 6 /10 10.7 16.0 14.2 :TPA 1 /15 29.0 :TMN 586 /720 25.9 :TMX 586 /720 27.6 :HUM 1 /15 72.6 :PRA 1 /15 1010.0 :RAC 46 /60 0.0 :RDU 46 /60 0 :RIN 46 /60 0.0 :DAC 586 /1440 10.9 :DDR 586 /1440 16460
00000000