0000029500
993
FTJP31 RJTD 101700 AAA
TAF AMD RJCH 101936Z 1019/1124 29015KT 8000 -SHSN FEW005 BKN015
         TEMPO 1019/1024 0700 SHSN VV005 TEMPO 1100/1109 29018G28KT
         0800 SHSN BLSN VV005 TEMPO 1109/1118 1500 -SHSN FEW005
         BKN008 TEMPO 1118/1124 35005KT 3000 -SHSN=

0000085100
994
FADL41 EDZH 102100
EDWW GAMET VALID 102100/110300 EDZH-
BREMEN FIR BLW FL100
SECN I
MT OBSC : ABV 2000 FT AMSL
SIG CLD : 21/21 ISOL TCU/CB 1200 FT AGL / XXX NE PART
          00/03 BKN 800 FT AGL
ICE     : MOD INC ABV FZLVL
TURB    : MOD BLW 3000 FT AMSL NE PART
SIGMET APPLICABLE: AT TIME OF ISSUE NIL
SECN II
PSYS    : 00 L 981 HPA BALTIC STATES MOV NE NC
WIND/T  : NE PART                        SW PART
          2000 FT AMSL 280/30KT PS01     260/20KT PS02
          5000 FT AMSL 290/35KT MS06     260/25KT MS03
          FL100        290/35KT MS12     250/20KT MS09
CLD     : SCT/BKN CU SC 2000-3500 FT AMSL / FL060-FL070
FZLVL   : 2500-3500 FT AMSL
MNM QNH : 21/23 1008 HPA
          23/01 1008 HPA
          01/03 1007 HPA
CHECK GAFOR (VIS AND CLD BASE), AIRMET AND SIGMET-INFORMATION

0000048700
995
FTUS80 KWBC 101939 AAA
TAF AMD
KBTL 101937Z 1020/1118 16010KT 3SM -RA BR OVC008
      TEMPO 1020/1023 1 1/2SM -RA BR OVC004
     FM102300 16012KT 2SM RA BR OVC009
     FM110300 18016G23KT 1 1/2SM -RA BR OVC005
     FM110500 19014G21KT 1SM -RA BR OVC003
     FM111100 22012KT 1SM BR OVC003=
PADL 101936Z 1020/1118 VRB03KT P6SM OVC010
      TEMPO 1020/1022 2SM BR
     FM110000 01009KT 3SM BR SCT006 BKN009
     FM110300 01010KT 6SM BR BKN015 BKN035=

0000012400
996
SPCN31 CWAO 101937
SPECI CYWG 101937Z 18012G18KT 6SM BR BKN008 OVC020 M05/M07 A2939 RMK
 SF5SC3 SLP968=

0000038500
997
SAEE31 LOWM 101930
METAR UACK 101930Z 21009MPS 9999 DRSN OVC012CB M08/M10 Q1020
R20/450342 NOSIG RMK QFE741/0989=
METAR UACP 101930Z NIL=
METAR UAII 101930Z VRB01MPS 5000 BR BKN100 M07/M10 Q1027
R28/0///70 NOSIG RMK QFE732/0977=
METAR UADD 101930Z NIL=
METAR UASK 101930Z NIL=
METAR UASP 101930Z NIL=
METAR UAOO 101930Z NIL=
METAR UAKD 101930Z NIL=

0000011400
998
SPBU40 LBSM 101941
SPECI LBPD 101941Z 35004MPS 300V030 5000 BR SCT120 03/03 Q1020
     NOSIG=

0000048400
999
FCIN31 VABB 110900
TAF VAAH 110900Z 1112/1121 05008KT 4000 FU/HZ FEW100 BECMG 1112/1114
     02006KT 3000=
TAF VABB 110900Z 1112/1121 32009KT 3000 FU NSC BECMG 1116/1118
    02006KT=
TAF VECC 110900Z 1112/1121 00000KT 1800 FU/BR NSC=
TAF VIDP 110900Z 1112/1121 33005KT 2500 HZ NSC
     BECMG 1113/1115 1500 HZ/FU
     BECMG 1116/1118 0800 FU/MIFG=
TAF VOCI 110900Z 1112/1121 22005KT 5000 HZ FEW015 SCT100
    TEMPO 1112/1115 FEW025CB BECMG 1117/1118 00000KT 4000 HZ= 

0000010000
000
SAUS72 KWBC 101900 RRG
METAR
KBQK 101935Z AUTO 12008KT 10SM OVC007 20/19 A3013=

0000010700
001
SAUS73 KWBC 101900 RRI
METAR
KIKK 101935Z AUTO 13008KT 2 1/2SM -RA OVC005 02/01 A2980=

0000088000
002
SPUS70 KWBC 101942
SPECI
KCUB 101938Z AUTO 29008KT 2SM +RA BR OVC004 10/09 A3019 RMK AO2
     P0005 T01000094 TSNO=
KELZ 101938Z AUTO VRB05KT 10SM OVC009 02/M02 A3016 RMK AO2=
KEWR 101939Z 04004KT 1SM R04R/6000VP6000FT -DZ BR OVC005 01/M01
     A3038 RMK AO2 SFC VIS 1 1/4 DZB14 CIG 004V006 P0000=
KGLD 101939Z AUTO 32022G30KT 3/4SM -SN BR SCT008 OVC016 00/M01
     A2963 RMK AO2 PK WND 32033/1921 SNB1858 P0000 T00001011=
KLAF 101939Z 15011G17KT 9SM OVC014 04/02 A2987 RMK AO2
     T00390022=
KMAI 101939Z AUTO 07003KT 2 1/2SM BR OVC002 16/15 A3006 RMK
     AO2=
KMLI 101939Z VRB04KT 7SM OVC006 02/01 A2963 RMK AO2
     UPB05E15B35E38RAB17E35 P0002=
KMSY 101939Z 13008KT 4SM HZ SCT007 OVC045 18/15 A2998 RMK AO2
     T01780150=
KOAK 101924Z COR 26005KT 5SM BR BCFG FEW001 SCT007 BKN250 13/09
     A3030 RMK AO2 VIS E-SE 1/2 $=

0000023700
003
FTCN32 CWAO 101900 AAA
TAF AMD CYPE 101942Z 1019/1107 21005KT 6SM -SN BKN040 TEMPO 1019/1022
     2SM -SN
    FM102200 20005KT P6SM SCT050 BKN090 TEMPO 1022/1107 6SM -SN
     BKN050
    RMK NXT FCST BY 110100Z=

0000027200
004
FTCN32 CWAO 101900 AAA
TAF AMD CYQF 101942Z 1019/1106 25005KT P6SM SCT009 OVC060 TEMPO
     1019/1020 5SM -SN BKN009 OVC060
    FM102200 28008KT P6SM BKN040
     BECMG 1101/1103 25005KT
     BECMG 1103/1105 13008KT
    RMK NXT FCST BY 110000Z=

0000009200
005
SPCN48 CWAO 101942
SPECI CYOY 101942Z AUTO 22004KT 3SM -SN M09/M12 A3026=

0000028800
006
FTUS51 KWBC 101942 AAA
TAF AMD
KFDY 101940Z 1020/1118 17007KT 6SM BR BKN006 OVC040
      TEMPO 1020/1024 5SM BR SCT006 OVC040
     FM110200 16012KT 2SM -RA BR BKN006 OVC035 WS015/19045KT
     FM111400 23006KT 2SM BR OVC005
     FM111700 26014KT 5SM BR OVC008=

0000051100
007
FTUS53 KWBC 101942 AAA
TAF AMD
KFWA 101938Z 1020/1118 16010KT 4SM BR OVC020
      TEMPO 1022/1024 2SM -SHRA SCT007 OVC015
     FM110000 16012KT 2SM -RA BR OVC005
     FM111300 24014G22KT 3SM BR VCSH BKN008 OVC015=
KLAN 101938Z 1020/1118 17009KT 5SM -RA BR OVC006
      TEMPO 1020/1024 1 1/2SM -RA BR OVC004
     FM110000 16012KT 2SM RA BR OVC009
     FM110200 16016G23KT 1 1/2SM -RA BR OVC005
     FM110500 18013G21KT 1SM -RA BR OVC003
     FM111400 22012KT 1SM BR OVC004=

0000075000
008
FTUS80 KWBC 101942 AAA
TAF AMD
KFDY 101940Z 1020/1118 17007KT 6SM BR BKN006 OVC040
      TEMPO 1020/1024 5SM BR SCT006 OVC040
     FM110200 16012KT 2SM -RA BR BKN006 OVC035 WS015/19045KT
     FM111400 23006KT 2SM BR OVC005
     FM111700 26014KT 5SM BR OVC008=
KFWA 101938Z 1020/1118 16010KT 4SM BR OVC020
      TEMPO 1022/1024 2SM -SHRA SCT007 OVC015
     FM110000 16012KT 2SM -RA BR OVC005
     FM111300 24014G22KT 3SM BR VCSH BKN008 OVC015=
KLAN 101938Z 1020/1118 17009KT 5SM -RA BR OVC006
      TEMPO 1020/1024 1 1/2SM -RA BR OVC004
     FM110000 16012KT 2SM RA BR OVC009
     FM110200 16016G23KT 1 1/2SM -RA BR OVC005
     FM110500 18013G21KT 1SM -RA BR OVC003
     FM111400 22012KT 1SM BR OVC004=

0000010800
009
SPUS41 KWBC 101942
SPECI
KIAG 101927Z COR 19006KT 7SM SCT018 BKN025 OVC055 03/00 A3014=

0000028000
010
SAJP31 KWBC 101930 RRB
METAR
RJAA 101930Z VRB01KT 9999 FEW025 M06/M09 Q1023 NOSIG RMK 1CU025
     A3022=
RJCC 101930Z 21007KT 9999 -SHSN FEW030 BKN050 M09/M12 Q1017 RMK
     1CU030 7CU050 A3005=
RJTT 101930Z 33005KT CAVOK 01/M05 Q1023 NOSIG RMK A3021=

0000053600
011
SAMS31 WMKK 101930
METAR WBGG 101930Z 23005KT 190V260 7000 -RA FEW000 SCT020 BKN150
23/22 Q1011 NOSIG=
METAR WBKK 101930Z 11004KT 9999 FEW014 SCT140 BKN280 24/23 Q1010
NOSIG=
METAR WBSB 101930Z 22001KT 9999 FEW005 BKN300 24/24 Q1011 NOSIG=
METAR WMKK 101930Z 33004KT 280V010 9000 FEW030 SCT140 BKN280 25/23
Q1010 NOSIG=
METAR WMKP 101930Z 32001KT 8000 FEW025 SCT140 BKN260 25/24 Q1011
NOSIG=
METAR WSSL 101930Z NIL=
METAR WSSS 101930Z 33003KT 290V020 9999 FEW018 SCT150 BKN300 24/23
Q1010 NOSIG=

0000009600
012
SPCN47 CWAO 101936
SPECI CYVP 101936Z 28014G19KT 4SM -SN DRSN OVC062 RMK SC8=

00000000