0000072500
113
SAAE31 VTBB 110430
METAR VTBS 110430Z 07010G21KT 030V120 CAVOK 29/17 Q1016 NOSIG=
METAR VTBD 110430Z 07008KT 030V100 CAVOK 30/18 Q1016 NOSIG=
METAR VTCC 110430Z 20003KT 7000 FEW040 25/17 Q1020 A3013 NOSIG=
METAR VTBU 110430Z 03003KT 8000 NSC 33/16 Q1014 A2997=
METAR VTSS 110430Z 08014KT 9999 FEW018 SCT028 BKN120 29/21 Q1014
           A2994 NOSIG=
METAR VTSP 110430Z 08010KT 9999 FEW025 BKN300 30/21 Q1013 A2993
           NOSIG=
METAR VLVT 110430Z 12002KT 7000 NSC 25/17 Q1018 NOSIG=
METAR VYMD 110430Z 00000KT 7000 HZ NSC 24/16 Q1018=
METAR VYYY 110430Z 08004KT 8000 NSC 28/25 Q1016=
METAR VDPP 110430Z 04011KT CAVOK 29/17 Q1013=
METAR VDSR 110430Z VRB03KT CAVOK 29/18 Q1015 NOSIG=
0000013600
114
SNVD17 CWVR 110400
BBXX
46146 11041 99493 71237 46/// /0814 10069 40020 57067
22200 00070 10402 70009 333 91217 =

0000027400
115
SXHW11 KWAL 110437
15D142A4 011043702 :PRS 1 #1 1303 1320 1321 1329 1326 1319 1336 1337 1331 1327 :RAD 1 #1 6893 6902 6903 6903 6905 6907 6913 6913 6909 6908 :ENC 2 #5 4807 4817 4820 4821 :SW1 37 #60 0 :SW2 7 #60 2 :BAT 4 #5 13.3 :NAME 15D142A4  35+0NN 216W
0000011100
116
UANT99 KDDL 110435
ARP UAL907 5016N04415W 0435 F360 MS60 319/59 KT
N776UA DDL XXW 110435 F12A
0000011000
117
UANT99 KDDL 110435
ARP SWR23C 4655N03559W 0435 F380 MS49 243/40 KT
HBJHD QXT AOW 110435 J56A
0000011000
118
UANT99 KDDL 110435
ARP VIR34Z 4720N01640W 0435 F390 MS55 252/48 KT
GVWAG DDL XXF 110435 J71A
0000010300
119
SAIN90 VILK 110430
METAR VILK 110430Z 29003KT 0500 R27/0800 FG VV/// 14/13 Q1018 NOSIG=
0000011100
120
UANT99 KDDL 110435
ARP DAL240 4601N01250W 0435 F350 MS61 278/56 KT
N176DN QXT AOE 110435 F24A
0000010700
121
UANT99 KDDL 110435
ARP UAL992 50N030W 0435 F360 MS55 206/59 KT
N673UA DDL XXW 110435 F46A
0000011000
122
UANT99 KDDL 110435
ARP MSR986 4937N02448W 0435 F330 MS60 219/74 KT
SUGDP QXT AOE 110435 F28A
0000011000
123
UANT99 KDDL 110435
ARP DLH475 5424N03700W 0435 F370 MS55 232/33 KT
DAIKQ QXT AME 110436 J99A
0000011100
124
UANT99 KDDL 110435
ARP BAW2232 4717N01839W 0436 F400 MS54 239/46 KT
GVIIV QXT AOE 110436 F48A
0000011000
125
UANT99 KDDL 110436
ARP DLH493 5722N03249W 0436 F360 MS55 235/42 KT
DAIHE QXT AOW 110436 J31A
0000011000
126
UANT99 KDDL 110436
ARP DAL80 5133N03238W 0436 F360 MS54 209/53 KT
N1200K QXT AOW 110436 F64A
0000013400
127
SNVD22 KWNB 110500
BBXX
46232 11051 99325 71174 46/// ///// 1//// 90433 22200 00162 11303
20702 328// 41302 70015=
0000014400
128
FTTV31 NFFN 110400
TAF NGFU 110437Z 1106/1206
35010KT 9999 -SHRA SCT018 BKN040 
PROB30 TEMPO 1106/1112 7000 SHRA BKN018 BKN040
0000032800
129
SNVD22 KWNB 110400 RRQ
BBXX
46244 11041 99409 71244 46/// ///// 1//// 90421 22200 00109 11407
20903 330// 41406 70035=
46240 11041 99366 71219 46/// ///// 1//// 90421 22200 00128 11103
21001 335// 41102 70013=
46236 11041 99368 71219 46/// ///// 1//// 90422 22200 00124 11404
21002 328// 41403 70018=
0000013800
130
SNVD22 KWNB 110500 RRA
BBXX
46237 11051 99378 71226 46/// ///// 1//// 90431 22200 00110 11304
21002 327// 41303 70019=
0000013800
131
SNVD22 KWNB 110400 RRS
BBXX
46242 11041 99332 71174 46/// ///// 1//// 90357 22200 00153 11401
20701 325// 41401 70006=
0000051800
132
SNVD22 KWNB 110400 RRR
BBXX
46229 11041 99438 71246 46/// ///// 1//// 90419 22200 00092 11510
20706 329// 41508 70049=
46213 11041 99403 71247 46/// ///// 1//// 90424 22200 00118 11408
21003 330// 41408 70042=
46231 11041 99327 71174 46/// ///// 1//// 90414 22200 00155 11302
20902 328// 41302 70012=
46218 11041 99345 71208 46/// ///// 1//// 90429 22200 00136 11306
21004 331// 41304 70029=
46224 11041 99332 71175 46/// ///// 1//// 90412 22200 00157 11301
21001 326// 41301 70006=
00000000