0000011100
293
UANT01 CWAO 110359
ARP DAL178 5800N03920W 0358 F390 MS57 250/27 KT
N860NW DDL XXW 110359 J53A
0000010900
294
UANT01 CWAO 110359
ARP KLM48 5559N02951W 0359 F360 MS58 219/52 KT
PHBFK QXT AOE 110359 F58A
0000012000
295
SNDL22 EDZW 110400 RRA
AAXX 11041
10439 42470 11602 10001 21005 39951 40178 58006 81601
  333 81711=
0000040800
296
SNDL44 EDZW 110400 RRA
AAXX 11041
10033 42365 82308 10071 20059 30046 40087 57010 876//
  333 87707 91013 91114=
10037 46/43 /2409 10065 20053 30068 40099 5/009=
10038 42365 82306 10067 20050 30080 40102 57010 886//
  333 88709 91012=
10126 42360 82206 10061 20048 30102 40118 57010 876//
  333 87708=
10136 41350 72407 10061 20046 30074 40114 57011 71022 876//
  333 87709=
0000029900
297
SNDL45 EDZW 110400 RRA
AAXX 11041
10172 42460 72404 10046 20031 30048 40121 58002 875//
  333 83712 87636=
10246 42358 72504 10047 20040 30034 40143 58007 876//
  333 87707=
10304 46/57 /2105 10053 20029 30085 40136 5/011=
10306 46/// ///// 1//// 2//// 3//// 4//// 5////=
0000026200
298
SNDL46 EDZW 110400 RRA
AAXX 11041
10334 42465 72404 10047 20025 30061 40147 58008 875//
  333 87613=
10335 42463 72206 10050 20024 30057 40150 58006 875//
  333 87614=
10343 42462 72404 10053 20029 30080 40145 58007 875//
  333 87613=
0000024200
299
SNDL47 EDZW 110400 RRA
AAXX 11041
10476 42680 32303 10030 20010 30040 40166 58003 83502
  333 83643=
10502 42982 21302 10000 21009 39998 40166 57010 82030
  333 82365=
10516 46/// /1503 10016 20007 30060 40182 5/006=
0000024800
300
SNDL48 EDZW 110400 RRA
AAXX 11041
10613 46/01 /2503 10009 20008 39588 40181 5/009=
10618 41904 22501 11025 21029 39723 40194 57009 74844 82030
  333 82361=
10743 42984 11804 10004 21007 39617 40198 56007 80001
  333 81074=
0000039900
301
SNDL49 EDZW 110400 RRA
AAXX 11041
10771 46/89 /0902 11023 21024 39691 40213 5/005=
10837 41904 02302 11009 21012 39532 40207 57009 74600=
10853 41902 00000 11028 21031 39731 40216 58004 74440=
10856 41856 59901 11035 21040 39521 40218 58005 71111 81031
  333 81358 85075=
10860 46/03 /0901 11034 21035 39757 40216 5/004=
10954 46/// /2502 11013 21014 39295 48464 5/008=
0000008600
302
SAIN90 VOBM 110400
METAR VOBM 110400Z VRB02KT 6000 FEW018 21/11 Q1019=
0000009300
303
SAIN90 VEIM 110400
METAR VEIM 110400Z 07003KT 2500 HZ NSC 16/07 Q1021 NO SIG=
0000011600
304
SAIR36 OIII 110400 RRA
METAR OIIP 110400Z  00000KT 6000 FEW040 SCT100 BKN200 M04/M06 Q1020
 A3011=
0000011000
305
SIXX97 HECA 110300 RRD
AAXX 11031
37575 32999 03602 11006 21063 39625 40230 57014 333 55082=
0000012800
306
SACN31 CWAO 110400
METAR CYQQ 110400Z 16019G27KT 3SM RA BR SCT008 OVC015 06/05 A2957 RMK
SF3SC5 PRESFR SLP013=
0000008700
307
SAMA21 FIMP 110400
METAR FIMR 110400Z  10014KT 9999 BKN017 29/24 Q1017=
0000009000
308
SMKN20 HKNC 110000 CCA
AAXX 11003
63720 32982  03613  10152  20090  333=
0000011300
309
SITU10 LTAA 110300 CCA
AAXX 11034
17240 42970 02602 11039 21055 39073 40251 55001
 333 91103=
0000011300
310
SIXX98 HECA 110300 CCB
AAXX 11034
17240 42970 02602 11039 21055 39073 40251 55001
 333 91103=
0000043900
311
SNVD22 KWNB 110400 RRF
BBXX
46069 11041 99337 71202 46/// /3211 10146 40175 53009 90350 22200
00142 11306 20704 3//// 41304 70028 333 91213 555 11114 22122
30338 43313 60349 323106 324102 324101 325103 322102 321103=
46088 11041 99483 71232 46/// /1311 10083 20059 40031 56069 90350
22200 00074 10402 20402 318// 41101 70012 333 91214 555 11123
22132 30329 41314 60349 130112 131109 131108 133107 132099 131103=
0000024400
312
SNVD15 KWNB 110400 RRD
BBXX
41009 11041 99285 70802 46/// /1606 10244 20214 40204 50000 90350
22200 00241 10804 20502 307// 40803 70019 333 91208 555 11069
22074 30341 41608 60349 158065 160058 165044 169038 166037 172036=
00000000