0000023900
193
FTUS73 KWBC 110212
TAF
TAF KRFD 110203Z 1102/1124 16012G18KT 6SM -RA BR OVC006
     FM110300 19012KT 3/4SM -DZ BR VCSH OVC004
     FM110900 26012G18KT P6SM VCSH BKN007 OVC012
     FM111700 27013G21KT P6SM SCT015=

0000022700
194
FTUS73 KWBC 110212 AAA
TAF AMD
KPAH 110209Z 1102/1124 21004KT 5SM RA BR SCT007 OVC028
      TEMPO 1102/1106 2SM RA BR SCT028 OVC040
     FM110700 23011KT P6SM BKN015
     FM111200 27012KT P6SM SCT040=

0000014800
195
SAEE31 LOWM 110200 RRA
METAR UAKD 110200Z 14007MPS 2900 SN DRSN BR BKN009 OVC100 M08/M10
Q1021 R22491535 NOSIG RMK QFE732/0977=

0000015200
196
SAUS72 KWBC 110200 RRD
METAR
TJBQ 110150Z 11009KT 10SM SCT030 26/ A3012=
TNCM 110200Z 07012KT 9999 SCT019 25/20 Q1019 A3009 RERA=

0000015500
197
FCRS31 RUMS 110200 RRA
TAF ULWC 110100Z 1102/1112 19006MPS 2000 RASN BR BKN003 OVC010 TEMPO
1102/1109 0700 +SHRASN BR BKN002 BKN010CB=

0000039000
198
SAPO31 LPMG 110200
METAR LPBJ 110200Z 19004KT CAVOK 07/06 Q1015=
METAR LPFR 110200Z 03008KT CAVOK 12/08 Q1014=
METAR LPMA 110200Z 27003KT CAVOK 15/05 Q1016 RS27002KT 0529005KT
2330005KT=
METAR LPPR 110200Z 04001KT 1900 0500N R35/P2000 BR BCFG NSC 07/07
Q1015=
METAR LPPS 110200Z VRB01KT 9999 FEW014 14/13 Q1016=
METAR LPPT 110200Z 33005KT CAVOK 10/09 Q1015=

0000029100
199
SAPO32 LPMG 110200
METAR LPAZ 110200Z 22022KT 8000 -RA SCT008 BKN014 16/14 Q1008=
METAR LPFL 110200Z NIL=
METAR LPHR 110200Z NIL=
METAR LPLA 110200Z 25007G17KT 210V310 9999 SCT016 SCT038 14/11
Q1004=
METAR LPPD 110200Z 25017KT 7000 -RA SCT002 BKN008 15/15 Q1005=

0000016600
200
SAAG05 SABM 110200 RRA
METAR SARL 110200Z 07016KT 2000 +TSRA SCT015 FEW045CB OVC100 21/21
Q1009=
METAR SAZN 110200Z 18005KT CAVOK 25/M01 Q1014=

0000011100
201
SATH33 VTBB 110200 RRA
METAR VTUD 110200Z VRB03KT 8000 NSC 21/16 Q1020
A3012 INFO D RWY30=

0000010900
202
SPUS31 KWBC 110204
SPECI
KLIT 110200Z 17005KT 10SM -RA FEW010 BKN017 OVC100 13/12 A2969=

0000010000
203
SPUS42 KWBC 110204
SPECI
KSAV 110200Z 23003KT 6SM BR SCT005 BKN011 17/17 A3012=

0000010700
204
SPUS43 KWBC 110204
SPECI
KCMX 110200Z AUTO 17007KT 4SM BR SCT010 OVC027 M03/M06 A2957=

0000009700
205
SPUS43 KWBC 110204
SPECI
KPTK 110200Z 15009KT 2SM -RA BR OVC002 02/02 A2981=

0000010500
206
SPUS44 KWBC 110204
SPECI
KPAE 110200Z 17014KT 10SM FEW023 BKN032 OVC100 07/04 A2984=

0000010000
207
SPUS31 KWBC 110205
SPECI
KBOS 110201Z 00000KT 3SM BR BKN013 OVC017 02/01 A3035=

0000011100
208
SPUS43 KWBC 110205
SPECI
KMBS 110201Z 15008KT 3SM -RA BR FEW007 BKN045 OVC060 02/02 A2976=

0000164300
209
SPUS70 KWBC 110206
SPECI
KBPK 110202Z AUTO 00000KT 6SM -RA BR OVC009 09/08 A2963 RMK AO2
     RAB02 CIG 006V010 P0001=
KHIB 110202Z AUTO 18003KT 2 1/2SM BR OVC003 M04/M05 A2946 RMK
     AO2=
KSNS 110202Z 29006KT 6SM BR OVC003 11/10 A3018 RMK AO2 $=
K1M4 110203Z AUTO 15007KT 1 1/4SM -RA BR OVC003 10/10 A2996 RMK
     AO2 P0000=
KADG 110203Z AUTO 19006KT 1 1/2SM -RA BR OVC002 02/02 A2983 RMK
     AO2 P0001 TSNO=
KBLI 110203Z 13010G16KT 10SM -RA SCT022 OVC032 08/05 A2979 RMK AO2
     PRESFR P0000=
KFMY 110203Z 00000KT 10SM BKN026 22/21 A3009 RMK AO2=
KFVE 110203Z AUTO 19006KT 10SM SCT017 M08/M14 A3016 RMK AO2
     T10831139=
KGMU 110203Z 04008KT 3SM BR OVC004 08/07 A3013 RMK AO2=
KHUT 110204Z 31015KT 8SM -RA FEW010 SCT014 OVC025 02/01 A2968 RMK
     AO2 P0001 T00220006=
KIAD 110203Z 25005KT 1SM -DZ BR OVC003 01/01 A3024 RMK AO2 SFC VIS
     1 1/2 P0000=
KISW 110203Z AUTO 09003KT 2 1/2SM -SN BR FEW005 BKN016 OVC024
     00/M01 A2952 RMK AO2 P0001 T00001006=
KLBT 110203Z AUTO 15006KT 3SM -RA BR SCT007 OVC014 18/17 A3012 RMK
     AO2 P0000 T01780172=
KSTJ 110203Z AUTO 31005KT 7SM SCT004 BKN011 OVC042 01/01 A2960 RMK
     AO2 T00110006=
KTOP 110203Z AUTO 26004KT 6SM BR SCT010 OVC029 03/01 A2963 RMK AO2
     T00280011=
KVPC 110203Z AUTO 09003KT 3SM -RA OVC006 15/09 A3007 RMK AO2
     P0003=
KY50 110203Z AUTO 00000KT 1SM -FZRA OVC002 00/ A2952 RMK AO2 TSNO
     P0000 $=
PALP 110205Z 26013KT 3SM BLSN BKN009 M32/M35 A2986=
PAOO 110203Z AUTO 05023KT 2 1/2SM -SN BR FEW003 BKN024 OVC028
     M07/M09 A2935 RMK AO2 TSNO P0000 PK WND 05026/0200 $=

0000012600
210
SATH32 VTBB 110200 RRA
METAR VTSH 110200Z 12008KT 7000 FEW020 SCT120 BKN300 27/23
           Q1014 A2995=

0000004200
211
SABO41 KWBC 110200
NIL=

0000088400
212
FTUS51 KWBC 110206 AAA
TAF AMD
KDUJ 110204Z 1102/1124 12005KT P6SM BKN040
     FM110800 16011KT 5SM -RA OVC007 WS020/22045KT
     FM111300 19012KT 2SM -RA OVC005 WS020/22045KT
     FM112200 23012G24KT P6SM BKN015 OVC025=
KHLG 110203Z 1102/1124 15005KT P6SM BKN040
     FM110500 13006KT P6SM BKN015 OVC025 WS020/22045KT
     FM110900 18010KT 4SM -RA OVC009 WS020/22050KT
     FM111900 23012G24KT P6SM BKN015 OVC025=
KLBE 110202Z 1102/1124 17005KT P6SM BKN040
     FM110800 17006KT P6SM BKN015 OVC025 WS020/22045KT
     FM111300 18010KT 4SM -RA OVC009 WS020/22050KT
     FM112300 23012G24KT P6SM BKN015 OVC025 AMD NOT SKED
      1103/1111=
KZZV 110203Z 1102/1124 12005KT P6SM BKN040
     FM110500 13006KT P6SM BKN015 OVC025 WS020/22045KT
     FM110900 18010KT 4SM -RA OVC009 WS020/22050KT
     FM111900 23012G24KT P6SM BKN015 OVC025=

00000000