0000010800
013
SACN31 CWAO 110400
METAR CYFB 110400Z 00000KT 15SM FEW190 M27/M31 A2949 RMK CI1 IC
SLP993=
0000010000
014
SACN44 CWAO 110400
METAR CYED 110400Z AUTO 24007KT 9SM CLR M06/M12 A2958 RMK SLP053=
0000009600
015
SACN47 CWAO 110400
METAR CYVP 110400Z 27004KT 15SM SKC M22/M27 A2977 RMK SLP086=
0000010300
016
SACN47 CWAO 110400
METAR CYRJ 110400Z 22007KT 20SM BKN030 M05/M08 A3008 RMK SC7 SLP200=
0000008900
017
SACN51 CWAO 110400
METAR CWLX 110400Z AUTO 05006KT M27/ A2927 RMK SLP937=
0000008900
018
SACN51 CWAO 110400
METAR CWLI 110400Z AUTO 29016KT M33/ A2956 RMK SLP033=
0000009300
019
SACN51 CWAO 110400
METAR CWOB 110400Z AUTO 03005KT CLR M21/ A2927 RMK SLP969=
0000010700
020
SACN46 CWAO 110400
METAR CYBN 110400Z AUTO 16008KT 1 3/4SM OVC002 01/01 A2988 RMK
SLP128=
0000010300
021
SACN44 CWAO 110400
METAR CYPE 110400Z 21004KT 15SM FEW050 M16/M16 A2947 RMK SC2 SLP029=
0000009200
022
SACN52 CWAO 110400
METAR CWTU 110400Z AUTO 28010G23KT M15/ A2946 RMK SLP040=
0000009600
023
SACN45 CWAO 110400
METAR CYHY 110400Z 28004KT 15SM SKC M24/M29 A2964 RMK SLP061=
0000010100
024
SACN44 CWAO 110400
METAR CYUB 110400Z 28010KT 15SM DRSN SKC M29/M35 A2966 RMK SLP046=
0000010800
025
SACN51 CWAO 110400
METAR CWCA 110400Z 23010G18KT 15SM OVC040 M12/M13 A2977 RMK SC8
SLP084=
0000008700
026
SACN44 CWAO 110400
METAR CWRF 110400Z AUTO ///// M34/ A2933 RMK SLP994=
0000008900
027
SACN51 CWAO 110400
METAR CWPX 110400Z AUTO 26005KT M30/ A2927 RMK SLP944=
0000010300
028
SACN46 CWAO 110400
METAR CYYU 110400Z 14009KT 15SM OVC012 M02/M04 A2969 RMK SC8 SLP068=
0000010000
029
SACN42 CWAO 110400
METAR CYUA 110400Z AUTO 29017G22KT 3SM CLR M24/ A2975 RMK SLP082=
0000008900
030
SACN51 CWAO 110400
METAR CWUP 110400Z AUTO 25017KT M23/ A2916 RMK SLP922=
0000011500
031
SACN46 CWAO 110400
METAR CYGQ 110400Z 17003KT 5SM BR OVC006 M03/M04 A2952 RMK SF8 CIG
RAG SLP018=
0000011800
032
SACN45 CWAO 110400
METAR CYCB 110400Z 20007KT 4SM -SN SCT015 OVC060 M27/M31 A2937 RMK
SC3SC5 SLP950=
00000000