0000035900
693
FTUS52 KWBC 102357 CCA
TAF COR
KLBT 102355Z 1100/1124 14007KT P6SM VCSH BKN019
      TEMPO 1100/1101 5SM -SHRA
     FM110500 14006KT 4SM BR BKN008 OVC015
     FM110900 17007KT 3SM BR BKN004
     FM111500 20012G18KT P6SM VCSH BKN009
      TEMPO 1117/1121 21018G28KT 2SM +SHRA BKN012CB
     FM112200 25014G23KT P6SM VCSH BKN020=

0000116900
694
FTUS80 KWBC 102357 CCA
TAF COR
KCRE 102356Z 1100/1124 13008KT P6SM VCSH BKN025
     FM110400 15008KT 5SM BR BKN008
     FM110800 18009KT 2SM BR BKN006
     FM111600 19012G20KT P6SM VCSH BKN018
      TEMPO 1120/1124 20020G30KT 2SM +SHRA BKN012CB=
KFLO 102354Z 1100/1124 13006KT P6SM VCSH BKN008 BKN018
      TEMPO 1102/1105 BKN018
     FM110500 14006KT 4SM BR BKN008 OVC015
     FM110900 17007KT 3SM BR BKN004
     FM111500 20012G18KT P6SM VCSH BKN009
      TEMPO 1117/1121 21018G28KT 2SM +SHRA BKN012CB
     FM112200 25014G23KT P6SM VCSH BKN020=
KLBT 102355Z 1100/1124 14007KT P6SM VCSH BKN019
      TEMPO 1100/1101 5SM -SHRA
     FM110500 14006KT 4SM BR BKN008 OVC015
     FM110900 17007KT 3SM BR BKN004
     FM111500 20012G18KT P6SM VCSH BKN009
      TEMPO 1117/1121 21018G28KT 2SM +SHRA BKN012CB
     FM112200 25014G23KT P6SM VCSH BKN020=
KMYR 102356Z 1100/1124 13011KT P6SM VCSH BKN020
     FM110400 15008KT 5SM BR BKN008
     FM110800 18009KT 4SM BR BKN006
     FM111600 19012G20KT P6SM VCSH BKN018
      TEMPO 1120/1124 20020G30KT 2SM +SHRA BKN012CB AMD LTD TO CLD
      VIS AND WIND 1104/1111=

0000010400
695
SAFK41 EGYP 102350
METAR EGYP 102350Z 21026G38KT 9999 FEW018 BKN029 04/M03 Q1000 BLU=

0000019100
696
SANL32 EHDB 102355
METAR EHEH 102355Z AUTO 21011KT 9999 OVC010 05/03 Q1016 
GRN=
METAR EHKD 102355Z AUTO 21019KT 6000 BR SCT005 BKN007 OVC008 07/06
Q1013 REDZ 
YLO=

0000009700
697
SACS31 MROC 102354
METAR
MROC 110000Z 11013KT 9999 FEW030 22/13 A2996 NOSIG=

0000010300
698
SAIY32 LIIB 102350 RRB
METAR LIPH 102345Z /////KT 1500 BR SCT020 BKN035 06/05 Q1021=

0000012900
699
SADL34 EDZO 102350 RRA
METAR EDNY 102350Z AUTO VRB03KT 0650 0350/ R24/0900VP2000U FZFG
OVC001 M00/M01 Q1019=

0000037300
700
FTNO38 ENMI 102300
TAF ENGC 102300Z 1100/1124 08015KT 9999 -SHRA FEW015 BKN025 PROB40
         TEMPO 1100/1124 4000 RADZ BKN008 BECMG 1112/1115 VRB07KT
         BECMG 1118/1121 32030KT=
TAF ENOA 102300Z 1100/1124 09008KT 9999 -RA SCT008 BKN015 TEMPO
         1100/1124 4000 RADZ BKN008 PROB40 1102/1115 29025KT BECMG
         1115/1118 30040KT=

0000017200
701
FTAM31 FCBB 102300 RRA
TAF FOOL 102300Z 1100/1206 22008KT 9999 SCT010 FEW020CB BKN033 PROB30
         TEMPO 1101/1106 3000 TSRA BKN006 FEW016CB OVC023=

0000032600
702
FTNO33 ENMI 102300
TAF ENNA 102300Z 1100/1124 18005KT 9999 BKN010 TEMPO 1100/1115 0800
         FG BKN001 BECMG 1112/1115 SCT015=
TAF ENSB 102300Z 1100/1124 24010KT 9999 -SN FEW010 BKN020 TEMPO
         1100/1106 VRB05KT PROB30 TEMPO 1100/1124 FZDZRA=
TAF ENTC 102300Z 1100/1124 06005KT 9999 FEW008=

0000051300
703
SAOS31 LOWM 102350
METAR LOWW 102350Z 29003KT 260V330 CAVOK 03/M01 Q1020 NOSIG=
METAR LOWL 102350Z AUTO VRB02KT 9999 BR NCD M01/M01 Q1021=
METAR LOWS 102350Z AUTO 31004KT 9999 OVC070 03/02 Q1020=
METAR LOWI 102350Z AUTO 26004KT 0700 R08/P1500N FG OVC005 03/03
    Q1020 R88///////=
METAR LOWG 102350Z AUTO VRB01KT 0600 R35/0700N R17/0600N FG BKN002
    03/03 Q1020 R88///////=
METAR LOWK 102350Z AUTO 29003KT 2500 1200E R28/1200U R10/P1500N FG
    OVC002 02/02 Q1021 R88///////=

0000006100
704
SAOS32 LOWM 102350
METAR LOXZ 102350Z NIL=

0000025400
705
SANO35 ENMI 102350
METAR ENMS 102350Z NIL=
METAR ENRM 102350Z NIL=
METAR ENRS 102350Z NIL=
METAR ENSK 102350Z NIL=
METAR ENSO 102350Z NIL=
METAR ENST 102350Z NIL=
METAR ENVD 102350Z VRB03KT 9999 FEW010 BKN030 M09/M11 Q1015=

0000021700
706
SANO36 ENMI 102350
METAR ENBS 102350Z NIL=
METAR ENHK 102350Z NIL=
METAR ENHV 102350Z NIL=
METAR ENLK 102350Z NIL=
METAR ENMH 102350Z NIL=
METAR ENNK 102350Z NIL=
METAR ENNM 102350Z NIL=

0000019100
707
SANO37 ENMI 102350
METAR ENNO 102350Z NIL=
METAR ENOV 102350Z NIL=
METAR ENSD 102350Z NIL=
METAR ENSG 102350Z NIL=
METAR ENSR 102350Z NIL=
METAR ENSS 102350Z NIL=

0000044300
708
SAFI33 EFHK 102350
EFJO 102350Z AUTO 02014KT 340V060 9999 -SG OVC014 M08/M10 Q0994=
EFLP 102350Z AUTO 35013KT 320V040 6000 -SHSN OVC013 M06/M09 Q0991=
EFMI 102350Z AUTO VRB05KT 9999 -SG OVC014 M07/M08 Q0994=
EFSA 102350Z AUTO 35009KT 310V040 7000 -SN FEW018 BKN021 BKN029
M08/M09 Q0993=
EFUT 102350Z AUTO 35012KT 320V030 9999 OVC013 M06/M07 Q0992=
EFVR 102350Z AUTO 01010KT 320V050 3900 -SN OVC016 M07/M10 Q0995=

0000027500
709
SAEO32 EETN 102350
METAR EEKA 102350Z NIL=
METAR EEKE 102350Z AUTO 32009KT 280V350 8000NDV -RA SCT008 BKN011 
BKN017 02/02 Q0997=
METAR EETU 102350Z AUTO 32012KT 7000NDV -SN FEW003/// SCT007///
OVC009/// 01/M01 Q0990 RESG=
METAR EEPU 102350Z NIL=

0000028300
710
FTNO32 ENMI 102300
TAF ENAN 102300Z 1100/1124 10015KT CAVOK=
TAF ENBO 102300Z 1100/1124 09015KT CAVOK=
TAF ENDU 102300Z 1100/1124 VRB05KT 9999 FEW040=
TAF ENOL 102300Z 1100/1124 08015KT 9999 -SN FEW007 BKN020 PROB30
         TEMPO 1100/1103 2500 -SN VV010=

0000057100
711
SANO38 ENMI 102350
METAR ENDR 102350Z AUTO 07026KT M04/M09 Q1002=
METAR ENEK 102350Z 26021KT 9999 FEW010 BKN030 08/07 Q1004 W08/S4=
METAR ENGC 102350Z NIL=
METAR ENHE 102350Z 09026KT 7000 SCT009 BKN036 M04/M04 Q1003 RESN
           W///S5=
METAR ENOA 102350Z NIL=
METAR ENSL 102350Z AUTO 30025KT 9999NDV -RA FEW020/// BKN054/// 07/04
           Q1001 W05/S4=
METAR ENFB 102350Z AUTO 10018KT 9999NDV -RA OVC017/// 03/00 Q0998
           W///S5=
METAR ENSF 102350Z AUTO 11018KT 9999NDV -SHRA OVC023/// 04/00 Q0998
           W///S5=

0000067700
712
SANO33 ENMI 102350
METAR ENAT 102350Z AUTO 20005KT 3800NDV -SN BKN001/// OVC004///
           M14/M16 Q1019 RMK WIND 700FT 17008KT=
METAR ENBL 102350Z NIL=
METAR ENEV 102350Z 08013KT CAVOK M07/M15 Q1015 RMK WIND 1400FT
           07013G25KT=
METAR ENFL 102350Z NIL=
METAR ENKB 102350Z AUTO 02002KT 9999NDV FEW014/// SCT021/// M05/M08
           Q1000=
METAR ENKR 102350Z 16006KT 0900 -SN SCT001 BKN004 OVC006 M21/M23
           Q1016 SEASMOKE NORTH OF THE FIELD RMK WIND 775FT 25009KT=
METAR ENML 102350Z 02008KT CAVOK M04/M08 Q1000=
METAR ENNA 102350Z 17003KT 6000 BCFG SCT001 BKN003 M15/M17 Q1018 RMK
           WIND 1800FT 01006KT=

00000000