0000113000
093
SNNO21 ENMI 111000
AAXX 11101
01001 46/// /0202 11006 21017 30134 40146 51010=
01008 46/// /2709 11003 21049 30063 40097 51009=
01010 41689 11405 11058 21124 30156 40173 52005 70200 81100=
01026 26/// /1301 11123 21136 30038 40189 52003 333 60005=
01055 46/// /2302 11024 21087 30161 40179 52009=
01062 46/// /2105 11016 21031 30100 40113 51010=
01098 46/// /3407 11021 21046 30140 40158 50002=
01115 26/// /0904 11045 21143 30083 40105 52004 333 60005=
01152 46/// /1010 11068 21172 30113 40129 52002=
01205 46/// /0302 11010 21052 39942 49989 53004=
01212 26/// /0602 11021 21078 39973 49991 55000 333 60005=
01271 47/84 00902 11130 21163 30019 40041 58002 700//=
01288 46/// /1104 11159 21188 39268 40063 54000=
01300 NIL=
01317 26/// /2103 10045 20013 39959 49974 52003 333 60015=
01367 46/// /1001 11062 21083 39550 40003 52010=
01384 46460 /0302 11058 21070 51007=
01403 46/// /2813 10056 20019 39925 49993 55002=
01415 47973 72707 10062 20025 39998 40009 52003 723//=
01482 46/// /3503 10020 20005 39975 49985 51012=
01492 46/// /0405 11036 21056 39877 49997 53011=
0000091600
094
SNNO22 ENMI 111000
AAXX 11101
01003 NIL=
01007 46/// /2001 11009 21064 30080 40090 52009=
01028 41670 52202 11028 21040 30122 40142 52010 70222 83860=
01047 NIL=
01049 26/// /2102 11151 21167 30194 40198 58001 333 60005=
01078 46/// /1802 11039 21055 30166 40176 51007=
01102 46/// ///// 11061 21121 30050 40070 51006=
01160 46/// /0808 11052 21131 30134 40152 52007=
01218 26/// /0000 11046 21088 39975 49997 53004 333 60005=
01238 46/// /0304 11139 21155 38825 49952 56001=
01241 41488 21208 11074 21131 30011 40022 55001 70100 81770=
01281 46/// /0906 11100 21155 39905 40089 50003=
01338 46/// /2902 10010 21001 39900 49966 54001=
01359 46/// /0000 11025 21047 39048 49962 50003=
01397 46/// /3201 11112 21137 39589 40046 53003=
01400 NIL=
01427 26/// /2911 10040 20004 39995 40011 50002 333 60005=
01447 NIL=
01448 46/// /2907 10045 20015 39998 40008 50000=
0000031600
095
SNQB40 LQSM 111000
AAXX 11101
14654 42770 42301 10109 20032 39484 40223 81101 333 81850 83072=
14648 42665 80000 10104 20089 30125 40246 8257/ 333 82646 88461=
14652 42284 42507 11005 21019 37965 48529 82205 333 82803=
14542 42960 30000 10120 20058 30039 40227 58001 80006 333 83275 95900
=
0000015700
096
SSVX13 LFPW 111005
ZZYY 44868 11014 1005/ 734796 040102 6113/ 11119 40246 52017 22219
 00187 444 20130 11014 0900/ 50101 80142 80016 9/015=
0000208400
097
SNRO41 YRBK 111000
AAXX 11101
15015 22598 72403 10023 21018 39615 42816 51012 86802 333 60005 91005
91107=
15020 22597 62302 10080 21026 30000 40199 51004 83806 333 60005 91004
91104=
15090 22997 62601 10082 21007 30110 40203 50003 80006 333 55310 0////
21096
30220 60005 91003 91105=
15108 21/91 92724 11076 21076 38047 48480 52015 74944 333 60005 91034
92722=
15120 22698 61701 10033 20004 39730 40237 51005 86800 333 55300 00252
20431
30414 60005 91001 91102=
15150 22997 22602 10080 20009 39990 40204 50001 81031 333 60005 91005
91105=
15170 22598 62204 10029 21020 39430 42818 50001 86300 333 60005 91007
91107=
15200 22997 81202 10052 20043 30090 40237 50000 8807/ 333 60005 91002
91103=
15230 22598 40501 10048 20024 39947 40246 58004 82442 333 55308 00315
20862
30402 60005 91002 91102=
15260 22999 30402 10058 21015 39696 40238 50000 81041 333 60005 91003
91103
95000=
15280 21093 72718 11114 21140 37475 47012 52006 74144 82506 333 60005
91024=
15292 22998 23601 10071 20018 39940 40238 58009 80002 333 60005 91002
91103
95000=
15310 21996 11902 10051 20020 30136 40224 50002 71000 81030 333 55310
00745
21161 31077 60005 91004 91104=
15335 22997 02502 10112 21006 30213 40219 50001 333 60005 91003
91104=
15346 22997 11702 10047 21014 39944 40239 50003 80001 333 60005 91003
91103
95090=
15350 22997 22905 10109 21035 30099 40219 58002 80001 333 60005 91008
91108=
15360 22997 02806 10075 20075 30201 40215 50002 333 60005 91007
91108=
15410 22997 01601 10078 20025 30141 40238 50000 333 60005 91002
91102=
15420 22997 12201 10067 21012 30117 40230 50000 80001 333 55310 0////
21180
3//// 60005 91002 91104=
15450 22997 22003 10084 20016 39999 40236 50001 81041 333 55310 00635
21265
30160 60005 91005 91106=
15460 22997 22503 10067 20020 30207 40231 54000 80001 333 60005 91005
91107=
15470 22997 22902 10067 20032 30107 40235 50005 80002 333 60005 91004
91106=
15480 21996 52903 10063 20027 30206 40223 58002 71011 80005 333 60005
91005
91105=
0000015700
098
SSVX13 LFPW 111000
ZZYY 64663 11014 1000/ 767224 015253 6113/ 11119 40043 52004 22219
 00033 444 20130 11014 0900/ 50101 80148 80018 9/015=
0000015700
099
SSVX13 LFPW 111000
ZZYY 16546 11014 1000/ 338798 066995 6113/ 11119 40248 57006 22219
 00161 444 20130 11014 0900/ 50101 80146 80019 9/015=
0000015700
100
SSVX13 LFPW 111000
ZZYY 64666 11014 1000/ 765082 011081 6113/ 11119 40013 52012 22219
 00040 444 20130 11014 0900/ 50101 80148 80008 9/015=
0000015700
101
SSVX13 LFPW 111000
ZZYY 16544 11014 1000/ 345271 094267 6113/ 11119 40033 57008 22219
 00099 444 20130 11014 0900/ 50101 80144 80011 9/015=
0000015700
102
SSVX13 LFPW 111000
ZZYY 13666 11014 1000/ 714654 048086 6113/ 11119 40163 52014 22219
 00258 444 20130 11014 0900/ 50101 80144 80003 9/015=
0000015700
103
SSVX13 LFPW 111000
ZZYY 41632 11014 1000/ 719206 049514 6113/ 11119 40185 52008 22219
 00255 444 20130 11014 0900/ 50101 80146 80011 9/015=
0000015700
104
SSVX13 LFPW 111000
ZZYY 41637 11014 1000/ 724033 077533 6113/ 11119 40186 57004 22219
 00245 444 20130 11014 0900/ 50101 80130 80002 9/015=
0000014500
105
SSVX13 LFPW 111000
ZZYY 41739 11014 1000/ 724200 072397 6113/ 11119 40205 54000 444
 20130 11014 0900/ 50101 80142 80003 9/015=
0000015700
106
SSVX13 LFPW 111000
ZZYY 33702 11014 1000/ 545953 048633 6113/ 11119 40014 52013 22219
 00122 444 20130 11014 0900/ 50101 80140 80010 9/015=
0000015700
107
SSVX13 LFPW 111000
ZZYY 13665 11014 1000/ 717275 059160 6113/ 11119 40172 57002 22219
 00265 444 20130 11014 0900/ 50101 80144 80002 9/015=
0000015700
108
SSVX13 LFPW 111000
ZZYY 65592 11014 1000/ 760730 053097 6113/ 11119 49892 52006 22219
 00019 444 20130 11014 0900/ 50101 80130 80018 9/015=
0000015700
109
SSVX13 LFPW 111000
ZZYY 64526 11014 1000/ 766046 008434 6113/ 11119 40040 52007 22219
 00024 444 20130 11014 0900/ 50101 80142 80005 9/015=
0000015700
110
SSVX13 LFPW 111000
ZZYY 44602 11014 1000/ 754697 037787 6113/ 11119 40034 54000 22219
 00059 444 20130 11014 0900/ 50101 80138 80008 9/015=
0000015700
111
SSVX13 LFPW 111000
ZZYY 25650 11014 1000/ 179530 133272 6113/ 11119 40267 52007 22219
 01152 444 20130 11014 0900/ 50101 80132 8//// 9/015=
0000015700
112
SSVX13 LFPW 111000
ZZYY 14527 11014 1000/ 325397 062950 6113/ 11119 40193 57011 22219
 00259 444 20130 11014 0900/ 50101 80148 80029 9/015=
00000000