0000011000
673
SAMS32 WMKK 101800 RRA
METAR WBGG 101800Z 27002KT 8000 -RA SCT020 BKN150 23/22 Q1012 NOSIG=

0000004100
674
SACZ41 LKPW 101800
NIL

0000005200
675
RRIN23 VECC 110955
RQRPT 373-394=

0000005200
676
RRIN23 VECC 110956
RQRPT 513-534=

0000068500
677
SAMS38 WMKK 110200
METAR WBGB 110200Z 00000KT 5000 RA FEW005 SCT014 OVC140 25/24 Q1013=
METAR WBGR 110200Z 25004KT 9999 SCT014 FEW015CB SCT150 BKN300 28/25
Q1013=
METAR WBGS 110200Z 02005KT 9999 SCT014 BKN150 26/23 Q1013=
METAR WBKL 110200Z 16001KT 9999 FEW013 SCT140 BKN290 29/26 Q1013=
METAR WBKS 110200Z 07012KT 040V100 9999 SCT015 SCT140 OVC260 29/26
Q1012=
METAR WBKW 110200Z 03007KT 9999 FEW017 BKN140 29/24 Q1012=
METAR WMKD 110200Z 35003KT 9999 FEW018 SCT160 BKN270 25/23 Q1013
NOSIG=
METAR WMKL 110200Z 03009KT 330V100 9999 FEW020 BKN140 BKN270 28/22
Q1013=
METAR WMKM 110200Z 02006KT 330V070 9999 FEW019 SCT140 BKN270 27/24
Q1013=

0000044700
678
SPUS70 KWBC 110202
SPECI
KILG 110158Z AUTO 05004KT 1SM R01/P6000FT -RA BR SCT003 OVC007
     03/02 A3027 RMK AO2 P0001=
KJFK 110158Z 02003KT 1/2SM R04R/1200V2200FT -RA BR OVC006 03/02
     A3031 RMK AO2 SFC VIS 1 1/4 P0001 $=
KDMO 110159Z AUTO 29018G23KT 9SM FEW007 BKN011 OVC027 08/07 A2957
     RMK AO2 T00830072=
PAOH 110159Z AUTO 00000KT 1SM BR BKN004 BKN037 OVC049 00/00 A2941
     RMK AO2 TSNO BKN V OVC $=

0000011800
679
SPUS31 KWBC 110202
SPECI
KJFK 110158Z 02003KT 1/2SM R04R/1200V2200FT -RA BR OVC006 03/02
A3031=

0000009300
680
SPUS41 KWBC 110202
SPECI
KBDL 110158Z 00000KT 3SM BR OVC009 01/00 A3030=

0000012300
681
SPUS41 KWBC 110202
SPECI
KILG 110158Z AUTO 05004KT 1SM R01/P6000FT -RA BR SCT003 OVC007
03/02 A3027=

0000050500
682
SAAE33 VTBB 110200
METAR VVTS 110200Z VRB01KT 5000 FEW017 SCT040 27/20 Q1015 NOSIG =
METAR VVNB 110200Z VRB03KT 2200 BR FEW020 BKN040 16/12 Q1023 NOSIG=
METAR VVDN 110200Z 01005KT 6000 FEW015 BKN060 22/19 Q1021 NOSIG=
METAR VVPB 110200Z 29004KT 5000 BR SCT013 BKN050 20/18 Q1021 NOSIG=
METAR VVCR 110200Z 01012KT 8000 FEW017 BKN060 26/18 Q1018 NOSIG=
METAR VVCT 110200Z 08007KT 9999 FEW015 26/20 Q1015 NOSIG=
METAR VVPQ 110200Z 05006KT 020V080 9999 FEW015 27/19 Q1015 NOSIG=

0000011900
683
SACN62 CYYQ 110200
METAR CYYQ 110200Z 30004KT 15SM FEW130 BKN270 M28/M31 A2973 RMK
 AC2CI3 SLP072=

0000097100
684
SARA34 RUMS 110200
METAR UNAA 110200Z VRB01G04MPS 9999 SCT040 OVC090 M04/M09 Q1031 NOSIG
RMK QFE750 20090040=
METAR UNBB 110200Z 21004MPS 9999 -SN BKN036 M09/M11 Q1031 NOSIG RMK
QFE750/1001 24452045=
METAR UNEE 110200Z 20006MPS 3400 -SN OVC014 M08/M08 Q1028 NOSIG RMK
QFE748 23452045=
METAR UNKL 110200Z 22003MPS 4000 -SHSN SCT033CB OVC083 M07/M10 Q1027
NOSIG RMK QFE744 29////50=
METAR UNNT 110200Z 21005MPS 9999 -SN DRSN BKN014 OVC051 M07/M10 Q1028
25390137 16390136 NOSIG RMK QFE761/1015=
METAR UNOO 110200Z 18004MPS 4500 -SHSN BKN012 BKN033CB M07/M09 Q1022
25390137 NOSIG RMK QFE758=
METAR UNTT 110200Z 21007MPS 5000 -SHSN FEW006 SCT018CB OVC066 M07/M09
Q1025 NOSIG RMK QFE754 21390032=
METAR USTR 110200Z 18005MPS 9999 BKN012CB M05/M06 Q1012 TEMPO 1500
SHSN BKN005 RMK QFE749/0999 21390050 12750029=
METAR USHH 110200Z 04003MPS 9999 -SN BKN003 OVC080 M21/M24 Q1016
TEMPO 2000 SN BKN003 RMK QBB110 QFE758 06////50=

0000044100
685
SARA33 RUMS 110200
METAR UIAA 110200Z 05003MPS 9999 FEW100 SCT200 M27/M32 Q1029 NOSIG
RMK QFE712 29CLRD70=
METAR UIBB 110200Z 08001MPS 2500 BR SCT005 BKN026CB BKN100 M22/M24
Q1028 NOSIG RMK QBB150 QFE727/0970 30490240=
METAR UIII 110200Z 09002MPS 9999 FEW033 BKN200 M23/M25 Q1032 NOSIG
RMK QFE731/0975 12490340=
METAR UIUU 110200Z 00000MPS 5000 -SN SCT033 OVC100 M15/M17 Q1031
NOSIG RMK QFE728/0971 26450545=

0000096500
686
SARS32 RUMS 110200
METAR URKA 110200Z 25006G09MPS 9999 BKN033 09/07 Q1011 RMK
QFE754/1006=
METAR URKK 110200Z 23009G13MPS CAVOK 10/03 Q1010 TEMPO 22010G15MPS
RMK QFE754 SC065=
METAR URML 110200Z 17004MPS 9999 SKC 03/01 Q1013 NOSIG RMK
QFE759/1013 SC070=
METAR URMM 110200Z VRB01MPS 7000 SKC M05/M06 Q1010 30CLRD70 TEMPO
0300 FZFG OVC002 RMK QFE729/0972=
METAR URMN 110200Z 18003MPS 9999 SKC 03/M08 Q1010 NOSIG RMK QFE721
SC06=
METAR URMO 110200Z NIL=
METAR URMT 110200Z 20003MPS CAVOK 00/M02 Q1008 NOSIG RMK QFE717
SC0.60=
METAR URRR 110200Z 24010G13MPS 2500 -SHRA BKN007 SCT026CB OVC100
06/06 Q1004 22290047 NOSIG=
METAR URSS 110200Z 05005MPS 9999 BKN220 04/M02 Q1016 NOSIG RMK
R06/07005MPS QFE761 02000070 06//////=
METAR URWA 110200Z 21003MPS 9999 OVC034 02/M01 Q1013 NOSIG RMK
QFE762/1016 SC055=
METAR URWI 110200Z NIL=
METAR URWW 110200Z 20007MPS 9999 BKN020CB OVC100 03/03 Q1005 NOSIG
RMK 29290060=

0000013600
687
SARA35 RUMS 110200
METAR USCM 110200Z VRB02MPS 6000 OVC015 M07/M08 Q1008 TEMPO 0300 FZFG
VV002 19420150 RMK QFE718=

0000071800
688
SARA32 RUMS 110200
METAR UHBB 110200Z 30002MPS 260V330 CAVOK M28/M32 Q1023 NOSIG RMK
QFE749/0999 36410160=
METAR UHHH 110200Z 25008G12MPS 9999 DRSN SKC M24/M31 Q1019 NOSIG RMK
QFE758/1011 23090060=
METAR UHMA 110200Z 03005MPS 4000 VCBLSN SCT080 M14/M19 Q1012 NOSIG
RMK QFE755/1007=
METAR UHMD 110200Z NIL=
METAR UHMM 110200Z 03005G10MPS 9999 DRSN FEW066 M17/M28 Q1007 NOSIG
RMK QFE741 88820555=
METAR UHPP 110200Z 30004MPS 9999 BKN030 BKN100 M04/M14 Q0994 NOSIG
RMK MT OBSC QFE742/0989 SC05 055 055=
METAR UHSS 110200Z 02001MPS 5000 FU BKN041 M16/M18 Q1012 NOSIG RMK
QFE758/1011 01810366=
METAR UHWW 110200Z VRB02MPS 9999 SKC M13/M21 Q1026 NOSIG RMK
QFE769/1025 25CLRD70=

0000049700
689
SARS33 RUMS 110200
METAR ULLI 110200Z 35007MPS 300V060 9999 BKN016 OVC066 M03/M05 Q0989
28////// 78520345 NOSIG=
METAR UUBW 110200Z 21005MPS 9999 OVC011 04/01 Q0986 NOSIG=
METAR UUDD 110200Z 21005MPS 8000 -RA BKN011 OVC100 03/02 Q0986
14290095 NOSIG=
METAR UUDL 110200Z NIL=
METAR UUEE 110200Z 20005MPS 9999 -RA OVC006 02/02 Q0984 75290151
25290151 NOSIG=
METAR UUWW 110200Z 21005MPS 9999 -RA BKN008 OVC020 02/02 Q0985
24290045 NOSIG=
METAR UUMO 110200Z NIL=

0000040700
690
SARS31 RUMS 110200
METAR ULWC 110200Z 00000MPS 2300 -DZ BR OVC002 00/00 Q0982 TEMPO 1000
SNRA BR RMK QBB060 QFE726/0969=
METAR UUBP 110200Z NIL=
METAR UUOB 110200Z 25006MPS 7000 OVC015 03/02 Q0998 29290050 NOSIG=
METAR UUOK 110200Z 24007MPS 9999 -RA OVC014 03/02 Q0997 NOSIG=
METAR UWGG 110200Z 17005MPS 3000 -SN OVC008 01/00 Q0989 TEMPO 1000
SHSNRA VV004 18690540 RMK QFE735=

0000056000
691
SARA36 RUMS 110200
METAR UWUU 110200Z 18002MPS 140V220 4500 BR OVC008 M02/M03 Q1007
14620342 TEMPO 1000 SN FZRA BKN003 RMK QFE744/0993 FBL ICE INC=
METAR USCC 110200Z 14004MPS 5000 BR FU BKN006 OVC070 M07/M07 Q1010
09490350 TEMPO 1100 SHSN BKN005 RMK QFE737=
METAR USNN 110200Z 02002MPS 9999 OVC012 M16/M18 Q1019 NOSIG RMK
QFE759 21420332=
METAR USRR 110200Z 08003MPS 7000 -SN SCT016 OVC070 M25/M27 Q1018
NOSIG RMK QFE759 07////35=
METAR USSS 110200Z 14002MPS 9999 -SN BKN012 OVC067 M05/M07 Q1008
08450135 NOSIG RMK QFE736=

0000010100
692
SPAU32 AMMC 110208
SPECI YPGV 110205Z 11019KT 3000 SHRA FEW015 BKN018 26/25 Q1008=

00000000