0000022600
233
FTCN32 CWAO 101800
TAF CYKJ 101838Z 1019/1024 08008KT 6SM -SN BKN025 TEMPO 1019/1024 2SM
     -SN BKN020
     BECMG 1021/1023 VRB03KT
    RMK FCST BASED ON AUTO OBS. NXT FCST WILL BE ISSUED AT 110945Z=

0000013500
234
FTCN33 CWAO 101800
TAF CYHI 101838Z 1019/1101 FCST NOT AVBL DUE NO OBS
    RMK NXT FCST WILL BE ISSUED AT 111645Z=

0000011500
235
FTCN33 CWAO 101800
TAF CYZS 101838Z 1019/1107 32010KT P6SM FEW090
    RMK NXT FCST BY 110100Z=

0000017400
236
FTCN33 CWAO 101800
TAF CYAB 101838Z 1019/1021 07008KT P6SM FEW040 BKN090 TEMPO 1019/1021
     5SM IC BKN040
    RMK NXT FCST WILL BE ISSUED AT 111945Z=

0000018600
237
FTCN34 CWAO 101800
TAF CYYL 101838Z 1019/1107 06010KT 6SM -SN SCT020 OVC040 TEMPO
     1019/1107 1SM -SN VV015
    RMK FCST BASED ON AUTO OBS. NXT FCST BY 110100Z=

0000021600
238
FTCN33 CWAO 101800
TAF CYTE 101838Z 1019/1107 28015KT P6SM BKN012 TEMPO 1019/1021 5SM
     -SN BLSN BKN009
    FM102100 27010KT P6SM SCT012 TEMPO 1021/1101 BKN012
    RMK NXT FCST BY 110100Z=

0000013700
239
FTCN33 CWAO 101800
TAF CYGT 101838Z 1019/1022 29012KT P6SM FEW030 BKN080
    RMK NXT FCST WILL BE ISSUED AT 111715Z=

0000017200
240
FTCN33 CWAO 101800
TAF CYLK 101838Z 1019/1101 09005KT P6SM -SN OVC040 TEMPO 1019/1101
     2SM -SN OVC015
    RMK NXT FCST WILL BE ISSUED AT 111745Z=

0000017500
241
FTCN32 CWAO 101800
TAF CYZU 101838Z 1019/1023 27008KT P6SM SCT030 BKN070 TEMPO 1019/1023
     6SM -SN BKN030
    RMK NXT FCST WILL BE ISSUED AT 111415Z=

0000025100
242
FTCN34 CWAO 101800
TAF CYIV 101838Z 1019/1107 VRB03KT 6SM -SN OVC003 TEMPO 1019/1022
     21/2SM -SN BR SCT003 OVC008
    FM102200 VRB03KT 3SM -SN OVC010 TEMPO 1022/1107 11/2SM -SN BR
     OVC006
    RMK NXT FCST BY 110100Z=

0000013800
243
FTCN33 CWAO 101800
TAF CYCY 101838Z 1019/1107 33008KT P6SM SCT150 TEMPO 1019/1107 5SM IC
    RMK NXT FCST BY 110100Z=

0000029400
244
FTCN31 CWAO 101800
TAF CYZT 101838Z 1019/1107 25007KT P6SM SCT015 BKN030
    FM102100 12010KT P6SM -RA SCT010 OVC025 TEMPO 1021/1101 3SM -RA
     BR BKN010
    FM110100 14025G35KT 6SM -RA BR OVC020 TEMPO 1101/1107 3SM -RA BR
     BKN009
    RMK NXT FCST BY 110100Z=

0000016500
245
FTCN34 CWAO 101800
TAF CYTH 101838Z 1019/1107 07005KT 4SM -SN SCT012 OVC030 TEMPO
     1019/1107 11/2SM -SN VV015
    RMK NXT FCST BY 110100Z=

0000017400
246
FTCN33 CWAO 101800
TAF CYUT 101838Z 1019/1023 33012KT P6SM SCT040 BKN100 TEMPO 1019/1023
     5SM IC BKN040
    RMK NXT FCST WILL BE ISSUED AT 111645Z=

0000025100
247
FTCN31 CWAO 101800
TAF CYYF 101838Z 1019/1107 17012KT P6SM SCT050 BKN120 TEMPO 1019/1023
     P6SM -SHRA BKN050
    FM110300 17012G22KT P6SM SCT015 OVC040 TEMPO 1103/1107 3SM -SHRA
     BR OVC015
    RMK NXT FCST BY 110100Z=

0000019400
248
FTFR38 LFPW 101700 AAA
TAF AMD LFRD 101832Z 1018/1118 18005KT 1400 BR OVC002 TEMPO 1022/1108
 0500 FG VV/// BECMG 1109/1111 9999 NSW BKN003 BECMG 1112/1115
05006KT BKN015=

0000025800
249
FTUS80 KWBC 101833 AAA
TAF AMD
KDEN 101831Z 1019/1124 30015G25KT P6SM FEW090 SCT150 BKN200
     FM110100 27009KT P6SM FEW100 SCT140 BKN200
     FM110300 24011KT P6SM SCT140 BKN200
     FM111600 28014G22KT P6SM FEW090 SCT120 BKN180=

0000018200
250
FTAU35 YBBN 101800 AAA
TAF AMD YCIN 101833Z 1020/1114
VRB05KT 9999 BKN010
FM102300 27006KT 9999 SCT020
FM110100 27008KT CAVOK
FM110700 33010KT CAVOK
RMK=

0000009500
251
SPUS42 KWBC 101833
SPECI
KDRT 101829Z AUTO 31003KT 7SM SCT010 15/11 A2990=

0000009700
252
SPUS42 KWBC 101833
SPECI
KMOB 101829Z 11006KT 7SM SCT012 OVC028 16/13 A3006=

00000000