0000032200
653
SAAP32 FAPR 102200 RRA
METAR FABL 102200Z AUTO 22006KT 9999  20/06 Q1017=
METAR FAOR 102200Z 20005KT CAVOK 20/07 Q1021 NOSIG=
METAR FBSK 102200Z 28003KT 240V310 CAVOK 22/06 Q1014 NOSIG=
METAR FLKK 102200Z 27003KT 9999 BKN100 FEW300 20/17 Q1018=
METAR FYWH 102200Z AUTO 25008KT ////  16/00 Q1021=

0000010200
654
SAPA31 KWBC 102200 RRA
METAR
AYPY 102200Z 00000KT 9999 FEW017 BKN030 27/24 Q1008=

0000023800
655
FTCN32 CWAO 102200 AAA
TAF AMD CYVT 102217Z 1022/1104 30012KT P6SM -SN SCT006 OVC015 TEMPO
     1022/1101 3SM -SN OVC006
    FM110100 30010KT P6SM OVC030 TEMPO 1101/1104 5SM -SN OVC020
    RMK NXT FCST BY 110100Z=

0000042000
656
SALY31 HLMC 102200
METAR HLLM 102150Z 12004KT 7000 NSC 15/10 Q1024=
METAR HLLT 102150Z 17004KT CAVOK 11/07 Q1024=
METAR HLGD 102200Z NIL=
METAR HLGT 102200Z NIL=
METAR HLJA 102200Z NIL=
METAR HLKF 102200Z NIL=
METAR HLKM 102200Z NIL=
METAR HLLB 102200Z NIL=
METAR HLLS 102200Z NIL=
METAR HLMI 102200Z NIL=
METAR HLNT 102200Z NIL=
METAR HLON 102200Z NIL=
METAR HLTD 102200Z NIL=

0000008500
657
SPCN46 CWAO 102216
SPECI CYLD 102216Z 18008KT 12SM OVC005 RMK ST8=

0000009500
658
SPCN51 CWAO 102217
SPECI CWOB 102217Z AUTO 00000KT BKN001 OVC015 M19/ A2914=

0000011200
659
SPUS31 KWBC 102217
SPECI
KMIA 102213Z 10011KT 10SM BKN022 BKN060 BKN210 BKN300 26/22 A3008=

0000009700
660
SPUS42 KWBC 102217
SPECI
KNEW 102213Z 11009KT 1 1/2SM BR OVC002 14/13 A2996=

0000015900
661
FTME31 OLBA 102200
TAF OLBA 102200Z 1100/1206 VRB06KT 6000 BKN026 BECMG 1109/1112
    27012KT BECMG 1118/1121 20015KT TEMPO 1100/1206 -RA=

0000086200
662
FTUS80 KWBC 102212 AAA
TAF AMD
KCON 102208Z 1022/1118 00000KT P6SM OVC080
     FM110000 00000KT 4SM BR OVC007
     FM110600 00000KT 2SM -FZDZ BR OVC007
     FM111000 VRB03KT 1 1/2SM -FZRA BR OVC004
     FM111400 34002KT 1 1/2SM -RA BR OVC004=
KITH 102210Z 1022/1118 17008KT P6SM SCT015 BKN035
      TEMPO 1100/1102 OVC015
     FM110200 16008KT P6SM OVC012
      TEMPO 1104/1107 BKN009
     FM110700 16015KT 4SM -SHRA OVC008
     FM111500 16018KT 5SM -SHRA OVC008=
KPNS 102210Z 1022/1118 VRB03KT 2SM BR OVC002
      TEMPO 1022/1102 1/2SM FG VV003
     FM110500 16012KT 4SM SHRA BR OVC005
      TEMPO 1107/1110 3SM -TSRA BKN005CB
     FM111500 27012KT 5SM BR OVC007=
KROW 102209Z 1022/1118 29015KT P6SM FEW150
      TEMPO 1022/1101 29015G25KT
     FM110100 28010KT P6SM SKC
     FM111500 17005KT P6SM SKC=

0000011400
663
SAAG05 SABM 102200 RRA
METAR SAOC 102200Z  14005KT 9999  FEW035 FEW040CB
SCT050  26/14 Q1010=

0000010500
664
SABZ24 SBCR 102200 RRA
METAR SBCR 102200Z 02014KT 9999 SCT030
FEW035TCU 29/22 Q1007=

0000172700
665
SAPA31 KWBC 102200
METAR AGGG NIL=
METAR AGGH 102200Z 18002KT 9999 FEW019 30/25 Q1008=
METAR ANAU NIL=
METAR AYPY NIL=
METAR PGNT NIL=
METAR PGRO 102150Z 07013KT 7SM SCT023 BKN120 26/23 A2995=
METAR PGSN 102154Z 05014G24KT 10SM FEW047 27/23 A2994 RMK AO2 SLP160
T02670228=
METAR PGUA 102158Z AUTO 06013G20KT 10SM SCT019 27/23 A2994 RMK AO2
SLP129 T02650229 ?=
METAR PGUM 102154Z 06010KT 10SM CLR 27/23 A2994 RMK AO2 SLP132
T02670228=
METAR PGWT 102153Z 07017KT 7SM SCT015 SCT100 BKN150 27/23 A2993 RMK
     WIND
DATA ESTIMATED=
METAR PHJH 102150Z 02012KT 15SM FEW015 FEW030 26/20 A2997=
METAR PHJR 102153Z VRB06KT 10SM SCT040 27/18 A2998 RMK AO2 SLP158
T02720178=
METAR PHMK 102201Z 02009G15KT 10SM FEW020 24/21 A2997 RMK AO2=
METAR PHMK 102154Z 02009KT 10SM BKN020 24/20 A2998 RMK AO2 SLP153
T02440200=
METAR PJON NIL=
METAR PKMJ 102157Z 06016KT 15SM SCT050 BKN300 29/22 A2979=
METAR PKMR 102154Z 04015KT 15SM FEW015 SCT050 BKN300 29/22 A2979 RMK
SLP090 T02940224=
METAR PKWA 102200Z AUTO 06017KT 10SM SCT030 SCT041 29/21 A2983 RMK
     AO2
T02910213=
METAR PLCH 102200Z 12022KT 9999 SCT020 29/22 Q1008=
METAR PMDY 102156Z AUTO 09018G27KT 6SM HZ BKN055 21/16 A3026 RMK AO2
TSNO T02110161 PK WND 09027/2149 SLP557 ?=
METAR PTKK 102152Z 03012KT 15SM FEW014 BKN120 OVC280 28/24 A2984 RMK
SLP108 T02830241=
METAR PTKR 102150Z 09015KT 14SM -SHRA SCT016TCU BKN110 OVC290 26/24
A2982 RMK SHRAB00 TCU ALQDS SLP097 T02580241=
METAR PTPN 102155Z 05014KT 15SM SCT017 BKN300 28/25 A2982 RMK FIRST=
METAR PTRO 102150Z 07012G19KT 14SM BKN015CB BKN100 OVC270 25/25 A2980
RMK CB VC ALQDS=
METAR PTSA 102150Z 05016KT 10SM SCT023 BKN300 29/24 A2978=

0000009100
666
FTPA31 KWBC 102215
TAF
TAF PLCH 102214Z 1100/1124 12020KT 9999 SCT020=

0000044300
667
FTPA32 KWBC 102215
TAF
TAF NFTF 102212Z 1100/1124 13010KT 9999 -SHRA SCT015 BKN100
      TEMPO 1100/1112 14015G25KT 4000 TSRA BKN008 FEW018CB
      TEMPO 1112/112418025G35KT=
TAF NGTA 102214Z 1100/1124 06015KT 9999 -SHRA BKN015 OVC100
      TEMPO 1100/1112 5000 TSRA BKN015 FEW018CB=
TAF NSFA 102212Z 1100/1124 35015KT 9999 -SHRA FEW010 SCT018 SCT030
      TEMPO 1100/1118 35015G30KT 4000 TSRA BKN015 FEW017CB=

0000017000
668
FTUS54 KWBC 102215 AAA
TAF AMD
KBZN 102212Z 1022/1118 27018G25KT P6SM BKN080
     FM110200 27010KT P6SM BKN080
     FM110600 24010KT P6SM BKN050=

0000017000
669
FTUS80 KWBC 102215 AAA
TAF AMD
KBZN 102212Z 1022/1118 27018G25KT P6SM BKN080
     FM110200 27010KT P6SM BKN080
     FM110600 24010KT P6SM BKN050=

0000010100
670
SPUS31 KWBC 102215
SPECI
KBOS 102211Z 19004KT 5SM BR BKN012 OVC020 01/M01 A3036=

0000011300
671
SPUS41 KWBC 102215
SPECI
KWRI 102213Z AUTO 03003KT 1 1/4SM R06/2400FT BR OVC003 02/02 A3031=

0000009700
672
SPUS42 KWBC 102215
SPECI
KFTY 102211Z 00000KT 1 1/2SM BR OVC003 09/09 A3009=

00000000