0000010400
193
SASP36 LEMM 101800
METAR GEML 101800Z 07003KT 020V120 9000 SCT006 BKN008 15/14 Q1014=

0000016300
194
SASP37 LEMM 101800
METAR LEBG 101800Z 04006KT CAVOK 05/03 Q1014=
METAR LEHC 101800Z NIL=
METAR LEBA 101800Z 00000KT 9999 FEW080 11/08 Q1013=

0000036700
195
SAAP32 FAPR 101800
METAR FABL 101800Z 22004KT CAVOK 25/02 Q1016 NOSIG=
METAR FACT 101800Z 17015KT 9999 FEW035 18/12 Q1018 NOSIG=
METAR FALE 101800Z 21008KT 9999 -RA FEW020 OVC045 24/20 Q1013 NOSIG=
METAR FAOR 101800Z 21004KT CAVOK 24/10 Q1019 NOSIG=
METAR FQMA 101800Z 10007KT 9999 TS BKN020 FEW030CB 27/22 Q1010
    NOSIG RMK CB TO W/NW=

0000008900
196
SADO31 TDPD 101800
METAR TDPD 101800Z 10010KT 9999 BKN018 26/21 Q1016=

0000033400
197
SASP40 LEMM 101800
METAR LEGA 101800Z 18007KT 9999 FEW070 SCT110 11/04 Q1014=
METAR LEGT 101800Z 00000KT CAVOK 11/03 Q1014=
METAR LEMO 101800Z 00000KT CAVOK 12/10 Q1013
NOSIG=
METAR LERI 101800Z VRB01KT 4000 BR FEW015 OVC035 12/09 Q1017
NOSIG=
METAR LERT 101800Z 10010KT 080V140 CAVOK 15/10 Q1012 NOSIG=

0000012200
198
SACN62 CYQK 101800
METAR CYQK 101800Z 18010G19KT 1 1/2SM -SN BR OVC003 M07/M08 A2948 RMK
 ST8 SLP010=

0000011100
199
SACN62 CYQI 101800
METAR CYQI 101800Z 22010G15KT 15SM OVC020 01/M03 A3043 RMK SC8
 SLP307=

0000012900
200
SACN62 CYSJ 101800
METAR CYSJ 101800Z 25005KT 15SM BKN035 BKN130 BKN260 M02/M09 A3036
 RMK SC5AC1CC1 SLP288=

0000024300
201
SASP41 LEMM 101800
METAR LEAO 101800Z 00000KT CAVOK 07/06 Q1014=
METAR LEBT 101800Z NIL=
METAR LECV 101800Z 36004KT 9999 FEW060 10/01 Q1015=
METAR LEEC 101800Z NIL=
METAR LELO 101800Z 14003KT 2500 BR NSC 04/03 Q1016=

0000011900
202
SACN62 CYQB 101800
METAR CYQB 101800Z 22004KT 25SM BKN049 BKN180 M10/M14 A3030 RMK
 SC6CI1 SLP268=

0000013500
203
SACN62 CYQM 101800
METAR CYQM 101800Z 23015KT 15SM FEW030 FEW120 BKN240 M04/M10 A3031
 RMK SC1AC2CI4 SC TR SLP269=

0000013600
204
SACN62 CYQR 101800
METAR CYQR 101800Z 29009KT 3/8SM R13/2600V3500FT/N FZFG OVC001
 M09/M09 A2945 RMK FG5ST3 SLP013=

0000011100
205
SACN62 CYQT 101800
METAR CYQT 101800Z 18006KT 8SM OVC011 M03/M05 A2972 RMK SC8 BR
 SLP075=

0000012300
206
SACN62 CYRL 101800
METAR CYRL 101800Z 17008KT 3SM -SN BR DRSN OVC005 M07/M09 A2948 RMK
 FG2SC6 SLP009=

0000011900
207
SACN62 CYQU 101800
METAR CYQU 101800Z 27011KT 25SM FEW060 BKN180 M04/M09 A2947 RMK
 SC1CI4 SLP016=

0000011200
208
SACN62 CYQX 101800
METAR CYQX 101800Z 25015G24KT 20SM BKN032 M06/M13 A3008 RMK SC5
 SLP197=

0000009400
209
SAAG41 SABE 101800
METAR SABE 101800Z  36008KT 9999  FEW035  30/20
Q1007=

0000032400
210
SAIY33 LIIB 101800
METAR LIMA 101800Z NIL=
METAR LIMG 101750Z VRB02KT 9999 BKN030 11/10 Q1020=
METAR LIMP 101750Z 07005KT 6000 FEW030 SCT050 09/08 Q1022=
METAR LIMS 101755Z 10003KT 9999 SCT030 BKN050 10/10 Q1019=
METAR LIMW 101800Z NIL=
METAR LIMZ 101750Z 27004KT 9000 SCT025 SCT040 05/04 Q1020=

0000026700
211
SAIY34 LIIB 101800
METAR LIPC 101755Z /////KT 4000 BR BKN045 08/06 Q1020=
METAR LIPF 101755Z 00000KT 0400 FG OVC004 06/04 Q1020=
METAR LIPO 101750Z 08005KT 2500 BR SCT015 BKN040 08/07 Q1021=
METAR LIPY 101750Z VRB02KT 9999 BKN045 13/09 Q1021=

0000010600
212
SPUS41 KWBC 101805
SPECI
KBVY 101801Z 23006KT 3SM -SN BR BKN009 OVC020 M01/M03 A3040=

00000000