0000013000
093
SPUS41 KWBC 101946
SPECI
KEWB 101942Z 00000KT 2SM R05/6000VP6000FT -RA BR BKN007 BKN012
OVC019 03/02 A3038=

0000010000
094
SPUS42 KWBC 101946
SPECI
KMOB 101942Z 11006KT 4SM BR FEW009 OVC018 16/15 A3002=

0000010500
095
SPUS43 KWBC 101946
SPECI
KLEX 101942Z 16008KT 10SM FEW011 SCT080 BKN120 12/09 A3003=

0000050700
096
FTUS51 KWBC 101948 AAA
TAF AMD
KBLF 101947Z 1020/1118 15008KT P6SM SCT005 SCT025 OVC050
      WS020/21025KT
     FM110300 16010G20KT P6SM OVC012 WS010/20042KT
     FM110900 18016G25KT P6SM OVC025
     FM111500 22015G25KT 4SM SHRA OVC018=
KLWB 101946Z 1020/1118 02006KT 5SM -DZ BR SCT002 OVC017
      WS020/20025KT
     FM110400 VRB03KT 4SM -DZ BR OVC002 WS015/21040KT
     FM111500 21006KT 4SM -SHRA BR OVC010 WS015/22045KT
     FM111700 25009G20KT 4SM SHRA BR OVC015=

0000069100
097
FTUS80 KWBC 101948 AAA
TAF AMD
KBLF 101947Z 1020/1118 15008KT P6SM SCT005 SCT025 OVC050
      WS020/21025KT
     FM110300 16010G20KT P6SM OVC012 WS010/20042KT
     FM110900 18016G25KT P6SM OVC025
     FM111500 22015G25KT 4SM SHRA OVC018=
KLWB 101946Z 1020/1118 02006KT 5SM -DZ BR SCT002 OVC017
      WS020/20025KT
     FM110400 VRB03KT 4SM -DZ BR OVC002 WS015/21040KT
     FM111500 21006KT 4SM -SHRA BR OVC010 WS015/22045KT
     FM111700 25009G20KT 4SM SHRA BR OVC015=
KORF 101945Z 1020/1118 05007KT 5SM -RA BR OVC035
      TEMPO 1020/1022 2SM -RA BR BKN004
     FM110000 16008KT 5SM BR BKN025 OVC040
     FM111100 19015G22KT 4SM -RA BR OVC012=

0000128600
098
SPUS70 KWBC 101948
SPECI
PAMB 101944Z AUTO 04009KT 10SM BKN007 OVC016 M04/M04 A2944 RMK AO2
     TSNO CIG 004V008 $=
KTDR 101941Z AUTO 15009KT 12SM OVC004 18/19 A3006 RMK AO2=
KLGA 101944Z 05005KT 1 1/2SM R04/6000VP6000FT BR BKN012 BKN017
     OVC024 00/M02 A3038 RMK AO2 DZB01E44 P0000=
KUIN 101944Z AUTO 17008KT 3SM RA BR BKN004 OVC010 03/02 A2965 RMK
     AO2 LTG DSNT N-SE TSB05E32 P0024 T00330022=
KBEH 101945Z AUTO 14009KT 1 1/2SM BR OVC006 02/01 A2987 RMK
     AO2=
KBVY 101945Z 19003KT 7SM OVC015 01/M02 A3038 RMK AO2 SNE04 P0000
     T00061017=
KCQX 101945Z AUTO 19008G14KT 10SM BKN027 OVC036 03/01 A3042 RMK
     AO2 T00330006=
KEET 101945Z AUTO 11005KT 3SM BR OVC002 11/10 A3006 RMK AO2
     T01060100=
KGPT 101945Z 11008KT 2SM -RA BR OVC005 16/14 A3000 RMK AO2
     RAE19B45 P0000 T01560144=
KIMT 101945Z AUTO 15006KT 2 1/2SM BR OVC006 M03/M06 A2975 RMK
     AO2=
KLAR 101945Z AUTO 29032G39KT 1 1/4SM BLSN SCT110 M04/M09 A2964 RMK
     AO2 PK WND 29040/1921=
PABA 101945Z AUTO 27020KT 3SM HZ M26/M29 A2986 RMK AO2 SNE08 P0000
     FZRANO $=
PAMR 101945Z 00000KT 2SM -SN BR BKN006 OVC019 M03/M05 A2942 RMK
     AO2 P0000=
PATO 101945Z AUTO 29004KT 10SM OVC014 M02/M02 A2941 RMK AO2
     T10171022 TSNO=

0000013100
099
SPUS31 KWBC 101948
SPECI
KLGA 101944Z 05005KT 1 1/2SM R04/6000VP6000FT BR BKN012 BKN017
OVC024 00/M02 A3038=

0000009100
100
SPUS42 KWBC 101948
SPECI
KMGM 101944Z 08007KT 10SM OVC004 11/10 A3007=

0000011800
101
SAEO32 EETN 101950
METAR EETU 101950Z AUTO 32010KT 9000NDV -RASN OVC004/// 01/00
Q0985 REDZ RERA=

0000185100
102
SPUS70 KWBC 101952
SPECI
KACV 101948Z AUTO 24007KT 1SM R32/2000VP6000FT BR VV002 10/09
     A3027 RMK AO2=
KAGS 101948Z 33004KT 2SM -RA BR BKN003 BKN007 OVC013 09/08 A3016
     RMK AO2 P0027=
KDEQ 101948Z AUTO 18007KT 3SM -RA BR BKN008 BKN012 OVC024 14/14
     A2971 RMK AO2 P0018=
KDVN 101948Z AUTO 14012KT 3SM BR OVC004 01/00 A2964 RMK AO2=
KESF 101948Z AUTO 14007KT 8SM OVC010 18/14 A2989 RMK AO2 CIG
     008V013=
KJXN 101948Z 15008KT 1 1/2SM BR OVC003 02/01 A2995 RMK AO2
     T00170006=
KM19 101948Z AUTO 18007KT 10SM -RA BKN014 OVC025 07/06 A2986 RMK
     AO2 RAB22 P0000=
KOTM 101948Z AUTO 16013KT 2 1/2SM BR OVC003 01/01 A2957 RMK AO2
     TSNO=
KOVS 101948Z AUTO 09003KT 1 3/4SM BR OVC006 01/M01 A2969 RMK
     AO2=
KPQL 101948Z 12007KT 10SM BKN007 OVC016 17/16 A3001 RMK AO2 RAE12
     P0000=
KRWF 101948Z AUTO 18011KT 3SM BR OVC006 M01/M02 A2955 RMK AO2=
PAGN 101948Z AUTO 00000KT 10SM FEW004 BKN016 BKN080 14/14 A2956
     RMK AO2 TSNO RAE23 P0001 $=
PAGN 101948Z AUTO 00000KT 10SM FEW004 BKN016 BKN080 14/14 A2956
     RMK AO2 TSNO RAE23 P0001 $=
PALH 101948Z 00000KT 10SM SCT005 OVC010 M03/M04 A2943 RMK AO2=
KDFI 101949Z AUTO 16006KT 5SM BR BKN009 OVC027 04/02 A2999 RMK
     AO2=
KIML 101949Z AUTO 33015KT 10SM FEW027 BKN036 OVC046 03/M03 A2960
     RMK AO2 PK WND 33026/1856 SNE31 P0000=
PABA 101945Z AUTO 27020KT 3SM HZ M26/M29 A2986 RMK AO2 SNE08 P0000
     FZRANO $=
KDUJ 101949Z AUTO 13003KT 3SM BR OVC003 02/01 A3017 RMK AO2=
KGZH 101949Z AUTO 09003KT 10SM OVC005 15/13 A3005 RMK AO2
     RAB1856E26 P0000=
KHIO 101949Z 23005KT 9SM FEW020 SCT030 OVC080 10/06 A3015 RMK
     AO2=
KVPZ 101949Z AUTO 15009KT 2 1/2SM BR OVC006 02/02 A2983 RMK AO2
     TSNO=
KY50 101949Z AUTO 12004KT 1 1/4SM BR OVC004 M02/ A2975 RMK AO2
     TSNO $=

0000012200
103
SAMO31 ZMUB 102000
METAR ZMUB 102000Z VRB01MPS 5000NW FU NSC M34/M38 Q1025 NOSIG RMK
 QFE660.8 66 NT=

0000030200
104
SAHO31 MHTG 102000
METAR MHRO 102000Z 01007KT 9999 SCT020 27/22 Q1013 A2992 NOSIG=
METAR MHLC 102000Z 01005KT 9999 SCT020 BKN070 25/22 Q1013 A2992
NOSIG=
METAR MHLM 102000Z 02007KT 9999 SCT030 29/21 Q1012 A2989 NOSIG=
METAR MHTG 102000Z 09006KT 9999 BKN030 25/14 Q1017 A3003=

0000010600
105
SAIS32 LLBG 101950
METAR LLBG 101950Z 15005KT 9999 SCT038 13/10 Q1021 NOSIG RMK BKN065=

0000078800
106
SASN31 ESWI 101950
METAR ESGG 101950Z 21008KT 9999 FEW010 OVC019 01/01 Q1001
R21/29//95=
METAR ESGJ 101950Z 23006KT 9999 BKN014 M00/M00 Q1001 R01/720068=
METAR ESGP 101950Z 20007KT 9999 BKN018 OVC024 04/03 Q1001
R19/19//95=
METAR ESGT 101950Z NIL=
METAR ESMK 101950Z AUTO 27008KT 9999NDV DZ FEW021/// SCT034///
06/04 Q1004 RERA=
METAR ESMQ 101950Z AUTO 30007KT 9999 OVC016/// 02/M00 Q1003=
METAR ESMS 101950Z 26014KT 8000 BR BKN007 06/05 Q1005 R17/29//95=
METAR ESMT 101950Z AUTO 25010KT 9999 OVC027/// 06/04 Q1003=
METAR ESMX 101950Z AUTO 29006KT 260V320 9999 SCT007/// BKN010///
OVC019/// 01/M00 Q1002=
METAR ESTA 101950Z 26013KT 9999 OVC027 06/04 Q1004=
METAR ESTL 101950Z AUTO 26012KT 9999NDV FEW011/// SCT014///
BKN024/// 06/06 Q1005=

0000043900
107
SADL32 EDZO 101950
METAR EDDB 101950Z 25014KT 9999 BKN046 06/01 Q1014 NOSIG=
METAR EDDC 101950Z 24004KT 9999 BKN030 BKN060 05/00 Q1016 NOSIG=
METAR EDDE 101950Z 22010KT CAVOK 03/01 Q1017 NOSIG=
METAR EDDG 101950Z 21006KT CAVOK 06/03 Q1015 NOSIG=
METAR EDDP 101950Z 21008KT CAVOK 03/02 Q1016 NOSIG=
METAR EDDR 101950Z 08002KT CAVOK 01/M00 Q1019 NOSIG=
METAR EDDW 101950Z 23007KT 9999 SCT025 05/03 Q1013 NOSIG=

0000060900
108
SADL31 EDZO 101950
METAR EDDF 101950Z 21003KT 9999 FEW040 BKN250 04/02 Q1019 NOSIG=
METAR EDDH 101950Z 25010KT 220V290 9999 BKN017 SCT038 06/04 Q1012
NOSIG=
METAR EDDK 101950Z 14005KT CAVOK 04/02 Q1018 NOSIG=
METAR EDDL 101950Z 22010KT 9999 FEW040 BKN240 05/02 Q1017 NOSIG=
METAR EDDM 101950Z 22002KT 9999 FEW035 01/M00 Q1020 NOSIG=
METAR EDDN 101950Z VRB01KT 9999 FEW046 03/02 Q1019 NOSIG=
METAR EDDS 101950Z 25003KT 9999 FEW024 03/01 Q1019 NOSIG=
METAR EDDT 101950Z 25015KT 9999 BKN046 06/02 Q1014 NOSIG=
METAR EDDV 101950Z 24008KT 210V270 9999 BKN032 06/03 Q1015 NOSIG=

0000019300
109
SAIS31 LLBG 101950
METAR LLET 101950Z NIL=
METAR LLHA 101950Z NIL=
METAR LLIB 101950Z NIL=
METAR LLOV 101950Z NIL=
METAR LLSD 101950Z VRB03KT 9999 BKN035 14/12 Q1020=

0000008900
110
SAMP31 LMMM 102000 RRA
METAR HLLT 101950Z
13006KT CAVOK 12/08 Q1024=

0000060900
111
SADN31 EKCH 101950
METAR EKCH 101950Z 26013KT 9999 FEW010 BKN015 BKN035 06/05 Q1006
NOSIG=
METAR EKBI 101950Z 25009KT 210V280 9999 FEW020 BKN030 05/03
Q1007=
METAR EKYT 101950Z 26016KT 9999 -SHRA FEW011 SCT025TCU BKN030
06/05 Q1003=
METAR EKRK 101950Z AUTO 26012KT 230V300 9999NDV -SHRA  FEW016///
BKN023/// BKN029/// 06/04 Q1006=
METAR EKAH 101950Z AUTO 25010KT 9999NDV SCT013/// BKN035///
06/04 Q1006=
METAR EKEB 101950Z AUTO 24012KT 9999NDV SCT021/// BKN130///
BKN240/// 06/04 Q1008=
METAR EKRN 101950Z AUTO 28016KT 5000NDV -RA  SCT009/// BKN029///
06/06 Q1006=

0000019300
112
SADN32 EKCH 101950
METAR EKVJ 101953Z NIL=
METAR EKSB 101950Z 25009KT 9999 BKN040 06/03 Q1008=
METAR EKSN 101953Z NIL=
METAR EKVD 101953Z NIL=
METAR EKOD 101953Z NIL=

00000000