0000037800
953
SASW32 LSSW 101750
METAR LSGC 101750Z AUTO 00000KT 4300 BR NCD 02/01 Q1017=
METAR LSGS 101750Z 00000KT 9999 SCT100 06/04 Q1019=
METAR LSZG 101750Z AUTO 05005KT 9999 BKN031 04/02 Q1019=
METAR LSZR 101750Z 28001KT 9999 BKN080 05/03 Q1019 NOSIG RMK N=
METAR LSZS 101750Z NIL=
METAR LSZC 101750Z AUTO VRB02KT CAVOK 03/03 Q1019=
METAR LSZL 101750Z NIL=

0000049700
954
FTUS31 KWBC 101754
TAF
KLIT 101740Z 1018/1118 13008KT 4SM -RA BR OVC008 WS020/20045KT
     FM102200 17008G16KT 4SM -RA BR VCTS BKN008 OVC015CB
      TEMPO 1022/1102 2SM TSRA BR OVC005CB
     FM110200 23012KT 5SM -RA BR OVC015
     FM110600 26010KT P6SM SCT100 BKN250
     FM111500 27010KT P6SM SCT250=
KMSY 101750Z 1018/1118 12008KT 3SM BR OVC006
      TEMPO 1105/1109 2SM TSRA OVC006CB
     FM110900 21012KT 3SM -RA OVC008
     FM111600 30010KT P6SM SCT250=

0000033700
955
FTUS41 KWBC 101754
TAF
KCAE 101753Z 1018/1118 VRB05KT 3SM BR VCSH OVC005
      TEMPO 1018/1021 -RA BR
     FM102100 04005KT 2SM -DZ BR OVC007
     FM110200 VRB04KT 1SM -DZ BR OVC005
      TEMPO 1108/1112 1/2SM -DZ FG OVC003
     FM111200 17007KT 5SM BR OVC003
     FM111600 19012G20KT P6SM SCT005 OVC015=

0000032400
956
FTUS44 KWBC 101754 CCA
TAF COR
KGEG 101753Z 1018/1118 22020G28KT P6SM SCT050 BKN150 OVC200
     FM110000 21013KT P6SM SCT020 BKN040 OVC050
     FM110200 19011KT 6SM -RA SCT004 BKN008 OVC030
     FM110700 19015KT 6SM RA BKN010 OVC020 WS015/21040KT
     FM111100 20025G35KT P6SM -RA BKN010 OVC030=

0000125300
957
FTUS71 KWBC 101754
TAF
KAGS 101753Z 1018/1118 VRB05KT 3SM BR VCSH SCT004 OVC015
      TEMPO 1018/1020 2SM -RA BR BKN005
     FM102000 VRB05KT 4SM -DZ BR OVC010
     FM110200 VRB04KT 1SM -DZ BR OVC003
      TEMPO 1108/1112 1/2SM -DZ FG OVC001
     FM111200 17008KT 5SM BR OVC003
     FM111600 19014G22KT P6SM -SHRA SCT005 OVC015=
KCAE 101753Z 1018/1118 VRB05KT 3SM BR VCSH OVC005
      TEMPO 1018/1021 -RA BR
     FM102100 04005KT 2SM -DZ BR OVC007
     FM110200 VRB04KT 1SM -DZ BR OVC005
      TEMPO 1108/1112 1/2SM -DZ FG OVC003
     FM111200 17007KT 5SM BR OVC003
     FM111600 19012G20KT P6SM SCT005 OVC015=
KDAN 101751Z 1018/1118 03006KT 2SM -RA BR BKN005 OVC012
      WS020/19025KT
     FM110000 03003KT 1SM -RA BR OVC003 WS020/18035KT
     FM110600 01003KT 3/4SM -RA BR OVC002 WS018/21040KT
     FM111200 15005KT 2SM -DZ BR OVC002 WS015/21045KT
     FM111600 20010G18KT 3SM -SHRA BR OVC005=
KLYH 101751Z 1018/1118 01003KT 1 1/2SM -RA BR OVC003 WS020/19025KT
     FM110000 07005KT 1SM -RA BR OVC003 WS020/21035KT
     FM110600 00000KT 3/4SM -RA BR OVC003 WS020/20040KT
     FM111200 12003KT 2SM -DZ BR OVC003 WS018/21045KT
     FM111600 19007KT 3SM -SHRA BR OVC005 WS015/21045KT=

0000134900
958
FTUS72 KWBC 101754
TAF
KBTR 101750Z 1018/1118 07008KT 3SM BR OVC003
      TEMPO 1104/1108 2SM TSRA OVC006CB
     FM110800 23012KT 2SM RA OVC008
     FM111500 30009KT P6SM SCT250=
KGPT 101750Z 1018/1118 11003KT P6SM OVC004
     FM110000 12010KT 5SM BR OVC008
     FM110600 15010KT 4SM BR OVC008
      TEMPO 1106/1110 2SM TSRA OVC006CB
     FM111000 19010KT 5SM BR OVC008=
KHOT 101740Z 1018/1118 15007KT 2SM -RA BR OVC002 WS020/20045KT
      TEMPO 1018/1022 4SM -RA BR OVC006
     FM102200 17009KT 4SM -RA BR VCTS BKN008 OVC015CB
      TEMPO 1022/1102 2SM TSRA BR OVC005CB
     FM110200 25008KT 5SM -RA BR OVC015
     FM110600 28005KT P6SM SCT100 BKN250
     FM111500 29006KT P6SM SKC=
KHRO 101740Z 1018/1118 18012G22KT 5SM -RA BR VCTS BKN025 OVC050CB
      TEMPO 1018/1022 2SM TSRA BR OVC005CB
     FM102200 19010G20KT 2SM -RA BR VCTS OVC005CB
     FM110300 25012KT P6SM VCSH BKN007 OVC015
     FM110500 27010KT P6SM SCT025 BKN250
      TEMPO 1110/1114 BKN025
     FM111500 27010KT P6SM SCT250=
KLIT 101740Z 1018/1118 13008KT 4SM -RA BR OVC008 WS020/20045KT
     FM102200 17008G16KT 4SM -RA BR VCTS BKN008 OVC015CB
      TEMPO 1022/1102 2SM TSRA BR OVC005CB
     FM110200 23012KT 5SM -RA BR OVC015
     FM110600 26010KT P6SM SCT100 BKN250
     FM111500 27010KT P6SM SCT250=

0000061300
959
FTUS42 KWBC 101754
TAF
KBTR 101750Z 1018/1118 07008KT 3SM BR OVC003
      TEMPO 1104/1108 2SM TSRA OVC006CB
     FM110800 23012KT 2SM RA OVC008
     FM111500 30009KT P6SM SCT250=
KGPT 101750Z 1018/1118 11003KT P6SM OVC004
     FM110000 12010KT 5SM BR OVC008
     FM110600 15010KT 4SM BR OVC008
      TEMPO 1106/1110 2SM TSRA OVC006CB
     FM111000 19010KT 5SM BR OVC008=
KNEW 101750Z 1018/1118 11012KT 3SM BR OVC002
     FM102100 15010KT 5SM BR OVC010
      TEMPO 1105/1109 2SM TSRA OVC006CB
     FM110900 22015KT 3SM -RA BR OVC010
     FM111600 30012KT P6SM SCT250=

0000005200
960
RRIN23 VECC 110507
RQRPT 380-441=

0000008600
961
SAIN90 VISM 110500
METAR VISM 110500Z 00000KT 6000 FEW030 07/03 Q1020=
0000019100
962
FTUS74 KWBC 101754 AAA
TAF AMD
KSHR 101750Z 1018/1118 18006KT P6SM SCT080 BKN120
     FM101900 30012G22KT P6SM SCT080 BKN120
     FM110200 VRB04KT P6SM SCT080 BKN200=

0000041600
963
FTUS72 KWBC 101754 RRA
TAF
KMSY 101750Z 1018/1118 12008KT 3SM BR OVC006
      TEMPO 1105/1109 2SM TSRA OVC006CB
     FM110900 21012KT 3SM -RA OVC008
     FM111600 30010KT P6SM SCT250=
KNEW 101750Z 1018/1118 11012KT 3SM BR OVC002
     FM102100 15010KT 5SM BR OVC010
      TEMPO 1105/1109 2SM TSRA OVC006CB
     FM110900 22015KT 3SM -RA BR OVC010
     FM111600 30012KT P6SM SCT250=

0000032400
964
FTUS74 KWBC 101754 CCA
TAF COR
KGEG 101753Z 1018/1118 22020G28KT P6SM SCT050 BKN150 OVC200
     FM110000 21013KT P6SM SCT020 BKN040 OVC050
     FM110200 19011KT 6SM -RA SCT004 BKN008 OVC030
     FM110700 19015KT 6SM RA BKN010 OVC020 WS015/21040KT
     FM111100 20025G35KT P6SM -RA BKN010 OVC030=

0000033700
965
FTUS71 KWBC 101754 RRA
TAF
KROA 101751Z 1018/1118 VRB03KT 2SM -RA BR OVC005 WS020/20025KT
     FM110200 VRB03KT 1SM -RA BR OVC004 WS020/20035KT
     FM110600 VRB03KT 1SM -DZ BR OVC004 WS018/20045KT
     FM111200 12004KT 2SM -DZ BR OVC006 WS015/20045KT
     FM111600 18008KT 3SM -SHRA BR OVC010 WS015/20050KT=

0000017700
966
FTAE31 VTBB 101700 RRB
TAF  VTUU  101700Z 1018/1118 03005KT 9000 FEW030
     BECMG 1021/1023 06005KT 6000 FEW030
     BECMG 1101/1103 04005KT 8000 FEW030=

0000065700
967
SASN32 ESWI 101750
METAR ESKN 101750Z 33011KT 9999 BKN012 M03/M05 Q1000 R26/710195=
METAR ESOE 101750Z 03003KT 9999 BKN016 M02/M05 Q1001=
METAR ESOK 101750Z 11004KT 9999 BKN016 M03/M03 Q1000=
METAR ESOW 101750Z 35009KT 9999 BKN011 M04/M06 Q1001 R01/750184=
METAR ESSA 101750Z 31012KT 9999 BKN007 M04/M05 Q0999 R01L/19//71
R08/19//58 R01R/19//68 NOSIG=
METAR ESSB 101750Z 31012KT 9999 OVC006 M03/M04 Q0999 R30/29//69=
METAR ESSD 101750Z AUTO 02003KT 9999 SCT032/// BKN068/// M06/M10
Q1000=
METAR ESSP 101750Z 31008KT 9999 BKN014 M02/M03 Q1001 R27/19//95=
METAR ESSV 101750Z 33016KT 9999 BKN010 M00/M02 Q0999 R21/29//87=

0000067100
968
SASN33 ESWI 101750
METAR ESNG 101750Z 03011KT CAVOK M16/M19 Q1010=
METAR ESNK 101750Z AUTO 33012KT 9999 IC FEW015/// SCT019///
BKN023/// M10/M14 Q1003=
METAR ESNN 101750Z 32013KT 9999 -SN FEW019 SCT029 M09/M12 Q1003
R16/49/79=
METAR ESNO 101750Z 35011KT 310V030 7000 -SN OVC021 M11/M15 Q1001=
METAR ESNQ 101750Z AUTO 01005KT 9999NDV SG OVC010/// M15/M16 Q1011
RESN=
METAR ESNS 101750Z 35013KT 1200 R10/1500P SN VV008 M12/M13 Q1004=
METAR ESNU 101750Z 35016KT 4600 -SN VV032 M11/M14 Q1002 R14/49//50=
METAR ESNZ 101750Z 07005KT 040V100 9999 -SN BKN036 M15/M17 Q1001=
METAR ESUT 101750Z AUTO 08026G39KT 9999 BKN100/// M13/M18 Q1002=

0000010300
969
SAGL31 BGSF 101750 RRA
METAR BGGH 101750Z 14014KT 2500 -SN DRSN VV020 M07/M11 Q0993=

0000049400
970
SASN34 ESWI 101750
METAR ESCF 101750Z AUTO 34006KT 9999NDV OVC010/// M02/M03 Q1001=
METAR ESDF 101750Z 28004KT 9999 FEW016 02/00 Q1002=
METAR ESIB 101750Z AUTO 18005KT 9999NDV BKN064/// M01/M02 Q1001=
METAR ESMV 101750Z NIL=
METAR ESPA 101750Z 03010KT 350V060 2500 SN VV013 M12/M14 Q1007=
METAR ESPE 101750Z AUTO 01010KT 350V050 9999NDV -IC FEW022/// 
SCT040/// BKN054/// BKN066/// M14/M17 Q1008=
METAR ESSL 101750Z 35006KT 9999 OVC010 M03/M04 Q1001 R29/19//95=

0000040400
971
SASN35 ESWI 101750
METAR ESGR 101750Z NIL=
METAR ESKM 101750Z NIL=
METAR ESNL 101750Z AUTO 34012KT 6000NDV BR SCT022/// OVC033///
M14/M17 Q1004=
METAR ESNX 101750Z AUTO 02010KT 6000NDV -SN FEW011/// OVC022///
M15/M18 Q1005=
METAR ESNY 101750Z NIL=
METAR ESSF 101750Z NIL=
METAR ESSK 101750Z NIL=
METAR ESUD 101750Z AUTO 01003KT 9999 IC OVC027/// M14/M17 Q1005
RESG=

0000009500
972
SAUK32 EGGY 101750 RRA
METAR EGFF 101750Z AUTO 20006KT 9999 NCD 08/06 Q1011=

00000000