0000011000
673
UANT01 CWAO 110421
ARP DLH491 5759N03936W 0421 F370 MS59 248/34 KT
DAIKI QXT AME 110421 J22A
0000015600
674
ULOS04 LOWM 110300
TTCC 11033 11240
70829 57382 31020 50041 59981 33024 30365 56182 32527
88999
77394 33033 41006
31313 47908 80249=
0000028000
675
UEOS04 LOWM 110300
TTDD 1103/ 11240
11915 60577 22749 56182 33503 60181 44348 53983 55266
56982
21212 11896 30023 22794 33021 33749 32017 44721 31019
55573 31526 66511 33524 77481 32023 88394 33033 99339
33531 11309 33026 22266 32030
31313 47908 80249=
0000015400
676
SMRO48 YRBK 110000 CCA
AAXX 11001
15162 03/// /2202 10010 21007 39479 42808 51007 6///1 333 4//// 55000
6///7
91004 91104 555 6////=
0000015600
677
SNDL21 EDZW 110400 CCA
AAXX 11041
10035 41258 82406 10064 20055 30036 40095 58010 72162 877//
  333 55300 20000 30000 41230 87706 91113=
0000096700
678
SNGL61 EKMI 110400
AAXX 11044
04211 45/76 /1915 11059 21127 39794 49953 52009 =
04213 46/// /1513 11080 21188 39836 49947 57009 =
04220 45984 50905 11104 21170 39903 49956 52002
  333 55300 20004 85/69 =
04221 45984 51011 11089 21224 39912 49950 57006
  333 81/63 85/66 =
04224 45984 71106 11102 21184 39919 49953 52001
  333 85/67 87/70 =
04231 45984 70607 11153 21236 39890 49966 57003
  333 87/70 =
04234 45/84 /1011 11080 21182 39923 49934 52001 =
04241 47/83 /0814 11084 21135 39901 49941 54000 70075 =
04250 45984 10905 11075 21155 39819 49925 57005
  333 55300 20000 81/68 =
04260 47984 51106 11099 21162 39891 49939 57012 70087
  333 85/66 =
04270 45784 80805 11097 21192 39913 49953 57004
  333 88/56 =
04272 45/84 03205 11100 21130 39875 49949 57004 =
04320 45/84 03114 11137 21182 30006 40022 57006
  333 55300 20011 =
04339 NIL =
04360 NIL =
04390 45/84 02513 11055 21151 39825 49919 57004 =
0000068400
679
SNNO49 ENMI 110400 RRA
AAXX 11041
01027 26/// ///// 11106 21128 333 60005=
01084 26/// /2601 11237 21262 333 60005=
01117 26/// /1005 11078 21159 333 60005=
01153 26/// ///// 11080 21179 333 60005=
01270 26/// ///// 11101 21159 333 60005=
01272 26/// ///// 11107 21147 333 60005=
01308 26/// ///// 10000 21008 333 69915=
01342 26/// ///// 10016 20007 333 69925=
01371 26/// ///// 11075 21085 333 60005=
01381 26/// ///// 11066 21088 333 60005=
01382 26/// ///// 11049 21084 333 60005=
01387 26/// ///// 11043 21088 333 60005=
01413 26/// ///// 10053 20035 333 60005=
01464 26/// /2801 10009 21001 333 60005=
01485 46/// /3603 11014 21018=
0000011000
680
UANT01 CWAO 110422
ARP UAL36 5007N04500W 0421 F370 MS62 322/57 KT
N21108 DDL IG1 110422 F63A
0000081200
681
UKOS02 LOWM 110300
TTBB 11038 11120
00953 02001 11910 00300 22892 01818 33864 00416 44832 02450 55772
01458 66648 09316 77619 12322 88589 12960 99586 13161 11578 13956
22495 21959 33449 27134 44422 29750 55359 38742 66347 40917 77293
51136 88271 54556 99250 58132 11245 58941 22220 59165 33196 62964
44143 56778 55128 59577 66117 55382 77100 59377
21212 00953 23002 11883 16501 22851 16508 33827 17006 44814 18004
55807 22003 66789 28506 77738 27515 88657 29023 99624 30021 11552
29017 22518 27022 33396 26018 44374 24519 55293 26517 66221 25537
77200 26026 88192 24527 99185 25531 11169 28027 22145 26518 33135
28014 44126 27018 55120 29016 66113 27016 77100 29522
31313 47908 80308
41414 861//
51515 11841 17507 22800 25504 33600 29521
61616 11918 25002 22884 16501=
0000392300
682
SIIN90 VANP 110300 RRB
AAXX 11034
42946 32696 81802 10210 20164 40159 84130 333 20177 59003 555 10000=
42943 32996 01803 10184 20088 10156 333 20150 59014 555 10000=
42935 32996 02302 10164 20103 39521 40181 333 20158 58010 555 10000=
42939 32995 40000 10176 20156 40149 80001 333 20160 58003 555 10000=
42937 32996 02902 10170 20127 40164 333 20106 58016 555 10000=
42931 32996 03204 10144 20056 40176 333 20132 58013 555 10000=
42871 32596 52302 10200 20171 4//// 85500 333 20148 58/// 555 10003=
43029 32996 01603 10226 20208 40173 333 20205 58030 555 10000=
42855 32996 32997 0//// 10160 20112 4//// 333 20114 5//// 555 10000=
42770 22997 62701 10150 20113 40182 86220 333 20120 58000 6007/ 555 
00070 10007=
42679 21695 60000 10174 20157 40169 86300 333 20154 58000 6005/ 555 
00054 10005=
42715 31594 83201 10166 20156 39489 40151 74424 86520 333 10252 20123

59005 555 10009=
42771 32795 42301 10180 20164 40140 84040 333 20190 59007 555 10004=
42567 21/92 90502 10146 20143 40168 74544 89/// 333 20125 59004 6013/

555 00132 10025=
42662 31/93 90501 10136 20117 40172 74544 89/// 333 20105 58016 555 
10001=
42557 32596 83602 10124 20105 40184 74344 89/// 333 20115 58016 555 
10002=
42665 31/91 90501 10126 20124 40170 74744 89/// 333 20124 58018 555 
10000=
42559 32595 80000 10122 20111  40180 8452/ 333 20098 58017 84620
88460 
555 10000=
42754 31991 90000 10114 20107 39515 40177 74741 8//// 333 20067 58018

555 10000=
42571 21592 80501 10156 20149 40159 74444 8653/ 333 20137 59005 6004/

555 00042 10010"LOWER MINIMUM 120"=
42574 21595 80000 10154 20154 4//// 71040 8553/ 333 20110 5//// 6015/

555 00154 10024=
42577 21592 80000 10154 20147 40154 74444 8653/ 333 20130 58000 6005/

555 00052 10030=
42671 31/92 90000 10128 20124 39532 40173 74344 89/// 333 20108 58007

555 10003= 
42674 31/92 93202 10136 20132 40154 74344 333 20094 58003 555 10004= 
42672 31/93 80000 10124 20124 40170 74244 333 20/// 58009 555 10014= 
42467 32995 03202 10126 20126 40177 333 20114 58004 555 10019= 
42361 31/93 93204 10106 20090 40191 74544 89/// 333 20098 58011 555 
10005=
42667 31090 90206 10122  20122 39570 40170 74944 333 20119 58018 555 
10012 =
42675 21493 80000 10160 20153 40161 74696  8860/ 333 20156 59001 
6021/ 
88710 555 00211 10021=
42562 32892 80201 10140 20122 40164 74000 333 10187 20124 58000 555 
10011=
42459 32995 83202 10100 20080 40128 333 10210 20074 59006 555 10021=
42456 32994 00501 10100 20096 40174 333 10174 20074 59031 555 10002=
42460 32994 02701 10108 20104 40190 333 10172 20080 59002 555 10011=
42661 31/92 90901 10122 20118 39609 40179 74344 89/// 333 20078 58021

555 10000=
42763 21595 73202 10150 20143 39817 40172 70522 85530 333 20130 58016

6992/ 555 00002 10001=
42767 32896 83202 10144 20131 38961 48470 88060 333 20114 58009 555 
10003=
42860 32996 53201 10144 20104 39407 40155 83065 333 20130 58008 555 
10000=
42874 31995 20000 10196 20145 40149 70500 80001 333 20175 59009 82075

555 10000=
43041 31995 01802 10170 20147 39540 40172 71000 333 20120 59006 555 
10000=
42693 31994 00902 10166 20146 39461 40157 71020 333 20142 59005 555 
10004=
42872 31994 21804 10210 20149 40150 70511 80001 333 20156 59006 82075

555 10000=
42779 31996 42506 10174 20151 39450 40158 70510 80002 333 20152 59004

84075 555 10001=
42876 31995 20000 10186 20173 4//// 70500 80001 333 20158 58/// 555 
10000=
42783 31996 00000 10184 20153 40145 70500 333 20142 58005 555 10000=
42948 31996 00000 10190 20153 40160 70500 333 20160 59002 555 10000=
42782 31994 01402 10194 20171 4//// 71044 333 20159 58/// 555 10001=
42867 21994 31102 10190 20174 40156 74441 82032 333 20160 58004
6990/ 82360 83070 555 00000 10000=
42933 32997 52903 10165 20073 40162 80008 333 20151 58015 85270 555
10000 =
0000200800
683
TCIN50 DEMS 110300

*SATELLITE BULLETIN BASED ON INSAT PIC OF 110300 UTC (.) *

*REGION COVERED BETWEEN LAT 50.0N TO 30.0S AND LONG 40.0E TO 125.0E
(.) *

*SALIENT FEATURES:- *
*WESTERN DISTURBANCE*:-

*BKN M/LAYERED CLOUDS OVER E J&K HP UTRKND TIBET ADJ CHINA IN ASSW WD
OVER
THE AREA (.) *

*FOG**:-*

*BKN FOG/LOW CLOUDS OVER  MP ADJ SE RAJ   W UP  E VID TLNGN (.)*

*LLC**:- **BKN LOW/MED CLOUDS WITH EMBDD MOD TO INT CONVTN OVER SE
BAY ADJ
INDIAN OCEAN BET LAT 2.0N TO 10.0N LONG 87.0E TO 93.0E (.) *

*NORTH:- *

*BKN  LOW/MED CLOUDS WITH EMBD ISOL WK CONVTN OVER E UP (.) *

*EAST**:-  *

*BKN LOW/MED CLOUDS WITH EMBDD WK TO MOD CONVTN OVER BHR N  JHRKND
EXT N
CHTGH N GWB  SHWB  SKM NW BD NEPAL BHUTAN (.) SCT LOW/MED CLOUDS OVER
REST
PARTS OF THE REGION (.)*

*WEST:**-*

*SCT LOW/MED CLOUDS OVER SW RAJ GUJ (.)   *

*SOUTH:**-*

*SCT LOW/MED CLOUDS WITH EMBDD WK TO MOD CONVTN OVER NICOBAR IDS (.)
SCT
LOW/MED CLOUDS OVER REST PARTS OF THE REGION(.) *

*BAY OF BENGAL & ANDAMAN SEA **:-*

*SCT LOW/MED CLOUDS WITH EMBDD ISOL WK CONVTN OVER REST S BAY (.)*

*ARABIAN  SEA :-**  SCT LOW/MED CLOUDS WITH EMBDD ISOL WK TO MOD
CONVTN
OVER  SE ARSEA BET LAT 5.0N TO 10.0N LONG 64.0E TO 70.0E (.) *

*OUTSIDE INDIA **:-*

*CLOUD DESCRIPTIONS OUTSIDE INDIA:-*

*VORTEX (COLIN) OVER S INDIAN OCEAN CENTRED NEAR 15.9S/80.8E (.)
INTENSITY
 T3.0 (.) ASSTD BKN LOW/MED CLOUDS WITH EMBDD MOD TO INT CONVEN OVER
S
INDIAN OCEAN BET LAT 14.0S TO 19.0S LONG 78.0E TO 84.0E(.)*

*BKN LOW/MED CLOUDS WITH EMBDD MOD TO INT CONVTN OVER SUMATRA S
MALAYA
PENINSULA S CHINA SEA SOUTH OF LAT 7.0 SULU SEA PHILIPPINES MINDANAO
BORNEO
CELEBES SEA/IDS JAVA SEA INDIAN OCEAN BET LAT 2.0S TO 12.0S LONG
47.0E TO
80.0E (.) *

*BKN M/LAYERED CLOUDS OVER CENTRAL SAUDI ARABIA PERSIAN GULF IRAQ
IRAN ADJ
AFGAN IN ASSW ANOTHER WD OVER THE AREA (.) *
*TOO: 11/0930EF=     *=
0000012200
684
SNVX21 EDZW 110400
BBXX
DBBH 11041 99183 30118 41/97 /1409 10180 20164 40129 57008
7//// 22282 04181 =
0000020500
685
SZSR01 WSSS 110424
CREX++
T000103 A001 D01021 D06025++
0126166 10385160 00044 2014 01 11 03 42 //// 11 07 00 06
01398 -0002 01373 0003 01347 0007 01319 0009 01295 0005 01270 0010++
7777
0000215900
686
SZNZ01 NZKL 110424
CREX++
T000103 A001 D01021 D06025++
-3683144 17478654 AUCT  2014 01 11 04 16 //// 11 07 00 01
06006 3199 06000 3197 05996 3196 05994 3197 05989 3195 05983 3192+
-4402404 -17636748 CHIT  2014 01 11 04 16 //// 11 07 00 01
04915 2093 04897 2079 04878 2064 04876 2067 04858 2052 04865 2063+
-4089929 17623168 CPIT  2014 01 11 04 16 //// 11 07 00 01
03945 2235 03952 2246 03938 2238 03941 2246 03940 2249 03931 2246+
-3618905 17548887 GBIT  2014 01 11 04 16 //// 11 07 00 01
06347 0042 06349 0047 06356 0057 06352 0056 06344 0051 06339 0049+
-3867541 17802288 GIST  2014 01 11 04 16 //// 11 07 00 01
04229 2687 04236 2698 04228 2695 04225 2697 04201 2677 04197 2678+
-4241288 17370277 KAIT  2014 01 11 04 16 //// 11 07 00 01
03260 2177 03258 2181 03261 2189 03263 2196 03246 2185 03226 2170+
-3755040 17815904 LOTT  2014 01 11 04 16 //// 11 07 00 01
03910 0216 03910 0221 03894 0208 03899 0217 03892 0213 03901 0227+
-3704657 17451175 MNKT  2014 01 11 04 16 //// 11 07 00 01
02988 -0146 03002 -0137 02992 -0154 03032 -0120 03016 -0142 03028 -0136+
-3947566 17692007 NAPT  2014 01 11 04 16 //// 11 07 00 01
03193 2019 03185 2017 03160 1996 03165 2007 03154 2000 03126 1978+
-3441483 17304870 NCPT  2014 01 11 04 16 //// 11 07 00 01
02306 -2698 02344 -2659 02265 -2738 02293 -2708 02389 -2612 02354 -2646+
-4581435 17062939 OTAT  2014 01 11 04 16 //// 11 07 00 01
04189 3447 04185 3448 04178 3447 04171 3445 04166 3446 04161 3446+
-2928002 -17789440 RBCT  2014 01 11 04 16 //// 11 07 00 01
06403 2024 06431 2054 06422 2047 06418 2046 06423 2053 06409 2040+
-2925114 -17790384 RFRT  2014 01 11 04 16 //// 11 07 00 01
03338 0202 03378 0245 03343 0212 03341 0213 03331 0205 03337 0213+
-4357010 17277383 SUMT  2014 01 11 04 16 //// 11 07 00 01
01923 1913 01923 1921 01908 1912 01897 1908 01886 1904 01885 1910+
-3764109 17618118 TAUT  2014 01 11 04 16 //// 11 07 00 01
05622 4003 05621 4003 05619 4004 05617 4005 05612 4003 05603 3997+
-4128448 17477985 WLGT  2014 01 11 04 16 //// 11 07 00 01
03121 2031 03110 2025 03100 2019 03095 2019 03093 2021 03100 2033++
7777
0000024100
687
SOAT10 KWAL 110423
FA8005BC 011042337 OT12 ID:KN-BASS-01 DT:2014 01 11 04 21
:RD -3231 -3218 -3212 -3219 -3172 -3224 -3196 -3186 -3214 -3228
:PR 0480 0548 0446 0436 0423 0465 0454 0490 0411 0465
:B 13.7V
 46+0NN 219E
0000011000
688
UANT99 KDDL 110421
ARP VIR46C 5143N03647W 0421 F390 MS55 233/29 KT
GVWOW DDL XXW 110421 F87A
0000011000
689
UANT99 KDDL 110421
ARP SWR17P 4856N02106W 0421 F390 MS59 236/74 KT
HBJHJ QXT AOE 110421 J75A
0000011100
690
UANT99 KDDL 110421
ARP DAL176 5048N03632W 0421 F370 MS55 221/27 KT
N1604R QXT AOW 110422 F34A
0000011100
691
UANT99 KDDL 110422
ARP AWE730 5133N03244W 0422 F370 MS53 214/56 KT
N273AY DDL XXN 110422 J84A
0000011000
692
UANT99 KDDL 110422
ARP DAL78 5111N02829W 0422 F390 MS52 214/65 KT
N855NW DDL XXW 110422 J06A
00000000