0000045900
833
SANO35 ENMI 101750
METAR ENMS 101750Z VRB07KT 9999 FEW060 M08/M17 Q1007 RMK WIND 412FT
           VRB07KT=
METAR ENRM 101750Z NIL=
METAR ENRS 101750Z 06026G39KT 9999 BKN047 M03/M10 Q1009=
METAR ENSK 101750Z 07014KT CAVOK M06/M16 Q1014=
METAR ENSO 101750Z 27011KT 9999 FEW008 SCT012 BKN015 05/05 Q0999=
METAR ENST 101750Z 04011KT 010V080 CAVOK M07/M15 Q1007 RMK WIND 300FT
           02010KT 330V060 =
METAR ENVD 101750Z NIL=

0000073000
834
SANO31 ENMI 101750
METAR ENAN 101750Z 13013KT CAVOK M05/M16 Q1015 NOSIG=
METAR ENBR 101750Z 35004KT 9999 -SHRA FEW004 SCT009 FEW012CB BKN018
           04/04 Q0998 TEMPO SHRA BKN008 RMK WIND 1200FT 31009KT=
METAR ENBO 101750Z 09018KT 060V120 CAVOK M07/M16 Q1010 NOSIG=
METAR ENDU 101750Z VRB01KT 9999 FEW045 M22/M25 Q1016=
METAR ENGM 101750Z 17007KT 140V200 9999 FEW006 BKN010 M01/M02 Q0997
           TEMPO SCT010=
METAR ENOL 101750Z 06010KT 9000 -SN FEW006 SCT010 BKN020 M07/M09
           Q1000 TEMPO 1500 SN VV005=
METAR ENVA 101750Z 08008KT 9999 -SN BKN027 M07/M12 Q1001 TEMPO 3000
           -SN VV012 RMK WIND 670FT 11012KT=
METAR ENZV 101750Z 26007KT 9999 BKN016 07/05 Q1001 NOSIG=

0000045800
835
SAIN31 VABB 110940
METAR VAAH 110940Z 04009KT 3000 FU NSC 22/10 Q1015 NOSIG=
METAR VABB 110940Z 32011KT 4000 FU NSC 25/07 Q1013 NOSIG=
METAR VANP 110940Z 20007KT 4000 HZ FEW020 27/16 Q1013 NOSIG=
METAR VOHS 110940Z VRB04KT 5000 HZ SCT020 30/11 Q1014 NOSIG=
METAR VOMM 110940Z 09007KT 8000 FEW020 29/19 Q1012 NOSIG=
METAR VOTR 110940Z 07007KT 7000 FEW016 30/19 Q1012 NOSIG=
METAR VOTV 110940Z 17004KT 6000 FEW020 30/24 Q1009 NOSIG=
0000009900
836
SACN62 CZBF 102300
METAR CZBF 102300Z 00000KT 15SM SKC M17/M19 A3021 RMK SLP238=

0000018800
837
SACN62 CZFA 102300
METAR CZFA 102300Z 00000KT 30SM FEW045 FEW060 SCT082 SCT150 M14/M15
 A2927 RMK SC1SC1AC1AC1 CLIMAT -9.8/-14.0/0.0 LAST OBS/NEXT
 111500UTC SLP969=

0000165500
838
SAUS75 KWBC 102300
METAR
PABA 102301Z AUTO 27019KT 1SM -SN OVC022 M26/M29 A2986=
PABE 102253Z 02011KT 10SM FEW006 BKN045 BKN090 M11/M12 A2946=
PABI 102253Z COR 00000KT 9SM -SN BKN060 BKN085 M17/M20 A2950=
PABI 102253Z 00000KT 9SM -SN OVC060 M17/M20 A2950=
PABR 102253Z 31011KT 10SM SCT007 SCT120 M25/M28 A2990=
PABT 102253Z 00000KT 10SM FEW045 SCT130 SCT180 M29/M32 A2967=
PACV 102253Z 05003KT 2 1/2SM R27/2800VP6000FT -SN BR SCT014 BKN021
     OVC037 01/M01 A2935=
PACZ 102255Z AUTO 06015G25KT 5SM BR FEW004 BKN031 BKN100 M06/M07
     A2943=
PADK 102256Z AUTO 23021G25KT 10SM FEW033 SCT039 BKN060 04/M01
     A2892=
PADL NIL=
PADU 102256Z 13014KT 6SM -RA BR BKN006 OVC014 03/01 A2919=
PAEH 102255Z AUTO 14021G25KT 1/2SM SN BR VV005 01/M01 A2934=
PAEI 102255Z 00000KT 10SM SCT080 M22/M25 A2957=
PAEN 102253Z 01003KT 10SM OVC006 M03/M03 A2942=
PAFA 102253Z 00000KT 10SM FEW080 M24/M28 A2958=
PAFB 102255Z 00000KT 7SM FEW001 FEW080 M24/M27 A2959=
PAGA 102258Z AUTO 00000KT 3SM HZ CLR M23/M27 A2969=
PAGK 102253Z AUTO 00000KT 3SM BR OVC085 M09/M11 A2934=
PAGS 102256Z AUTO 13008KT 10SM FEW021 SCT025 BKN033 03/01
     A2947=
PAGY 102253Z AUTO 20017G24KT 10SM FEW055 OVC075 04/M01 A2940=
PAHO 102253Z 00000KT 10SM SCT040 01/M03 A2941=
PAIL 102253Z 00000KT 10SM OVC016 M03/M03 A2947=
PAJN 102253Z 11009KT 7SM -RA SCT013 BKN034 BKN060 OVC160 02/00
     A2949=
PAKN 102254Z 36004KT 10SM FEW004 BKN025 M02/M02 A2944=
PAKT 102253Z VRB04KT 9SM -RA BKN015 BKN044 OVC055 04/02 A2960=
PALU 102255Z AUTO 05011KT 10SM OVC009 M18/M20 A3002=
PAMC 102253Z 33003KT 10SM OVC021 M16/M19 A2957=

0000050400
839
FTHU31 LHBM 102300
TAF LHBP 102300Z 1100/1124 VRB03KT CAVOK
    BECMG 1100/1103 7000 SCT030
    BECMG 1106/1109 16008KT 9999 BKN020
    TEMPO 1111/1121 5000 -RADZ BR BKN007 OVC015=
TAF LHPA 102245Z 1100/1124 VRB02MPS 5000 BR NSC
    TEMPO 1100/1106 1500 BR BCMIFG BKN010
    PROB30 TEMPO 1100/1106 0600 FZFG BKN004
    TEMPO 1106/1109 6000 NSW SCT015
    BECMG 1109/1112 20004MPS CAVOK
    PROB30 TEMPO 1118/1124 8000 -RA BKN030 BKN080
    BECMG 1121/1124 30005MPS=

0000010600
840
SACN61 CYZY 102300
METAR CYZY 102300Z AUTO 13004KT 9SM FEW065 M04/M06 A2962 RMK SLP070=

0000024200
841
SALJ31 LJLJ 102300
METAR LJLJ 102300Z 31004KT 280V340 9999 SCT030 BKN050 07/05
Q1021 NOSIG=
METAR LJMB 102300Z AUTO 22005KT 4300 BR OVC002/// 03/02 Q1021=
METAR LJPZ 102300Z AUTO 00000KT 3600 BR OVC012/// 09/09 Q1022=

0000009600
842
SALJ32 LJLJ 102300
METAR LJCE 102300Z AUTO 00000KT 0400 FG VV001 03/02 Q1021=

0000009500
843
SATU31 LTAA 102250 RRA
METAR LTAZ 102250Z 10004KT 9999 BKN009 M02/M02 Q1022=

0000058400
844
FTIS31 LLBD 102300
TAF LLBG 102300Z 1100/1200 16004KT 9999 SCT030
     TEMPO 1100/1108 9000 -RA BKN020
     BECMG 1108/1110 28008KT SCT035
     BECMG 1116/1118 16004KT BKN025
     TX19/1112Z TN09/1103Z=
TAF LLOV 102301Z 1100/1200 VRB04KT 8000 SCT030
     TEMPO 1100/1108 4000 -RA SCT020 BKN030
     BECMG 1108/1111 01007KT 9999 FEW040
     BECMG 1118/1120 5000 BR
     TX14/1112Z TN07/1103Z=
TAF LLET 102301Z 1100/1200 02010KT 9999 SCT040
     TEMPO 1100/1108 9000 -RA BKN030
     BECMG 1108/1111 03012KT FEW050
     TX18/1112Z TN10/1103Z=

0000026000
845
SAFR21 LFPW 102300
METAR LFOA 102300Z AUTO 11006KT 9999 NSC 05/04 Q1016=
METAR LFPC 102300Z AUTO 16005KT 140V200 0500 R25///// FG OVC002
04/03 Q1017=
METAR LFPV 102300Z AUTO 09003KT 0800 0700 R27/1900D R09/1700U FG
VV/// 05/05 Q1016=

0000051000
846
SAFR22 LFPW 102300
METAR LFBC 102300Z AUTO 21003KT 0300 R24/0900U FG BKN011 05/05
Q1015=
METAR LFBG 102300Z AUTO 13002KT 4000 BR NSC 08/07 Q1015=
METAR LFBM 102300Z AUTO 30006KT 0300 R27/1500U FG VV/// 04/04 Q1015=
METAR LFBY 102300Z AUTO VRB03KT 6000 // OVC011/// 09/09 Q1016=
METAR LFKS 102300Z AUTO VRB02KT 9999 OVC028 13/08 Q1021=
METAR LFMO 102300Z AUTO VRB01KT 5000 BR OVC027 08/07 Q1020=
METAR LFMY 102300Z AUTO VRB03KT 9999 OVC027 11/07 Q1020=
METAR LFMC 102300Z NIL=

0000035900
847
SAFR23 LFPW 102300
METAR LFOC 102300Z AUTO 07005KT 010V090 0250 R28///// FG OVC002
06/05 Q1016=
METAR LFOE 102300Z AUTO 14004KT 2200 BR OVC003 05/05 Q1017=
METAR LFOJ 102300Z AUTO 07005KT 2400 BR VV/// 06/05 Q1016=
METAR LFRJ 102300Z AUTO 20005KT 5000 BR NSC 07/06 Q1015=
METAR LFRL 102300Z AUTO 18004KT 1500 // VV/// 08/07 Q1015=

0000025900
848
SAFR24 LFPW 102300
METAR LFSI 102300Z AUTO 09005KT 8000 NSC 02/01 Q1018=
METAR LFSO 102300Z AUTO 14005KT 9999 NSC 02/02 Q1018=
METAR LFSX 102300Z AUTO 06005KT 8000 NSC 02/00 Q1018=
METAR LFYR 102300Z AUTO VRB02KT 9999 NSC 05/05 Q1015=

0000035800
849
SARO31 LROM 102300
METAR LRBS 102300Z VRB02KT CAVOK 03/02 Q1018 NOSIG=
METAR LRCK 102300Z 26006KT 2000 BR NSC 02/01 Q1017 NOSIG=
METAR LROP 102300Z 31003KT 8000 NSC 01/01 Q1018 8819//95 NOSIG=
METAR LRSB 102300Z 30012KT 9999 SCT036 03/M02 Q1020 NOSIG=
METAR LRTR 102300Z 10004KT 0250 R11/0325N FZFG BKN000 M01/M01 Q1022
11190095=

0000062400
850
SAFR31 LFPW 102300
METAR LFLL 102300Z 18003KT 2000 0900N R36L///// R18R/////
R36R///// R18L///// BCFG BR NSC 06/05 Q1017 NOSIG=
METAR LFMN 102300Z 33008KT 9999 OVC027 10/06 Q1021 NOSIG=
METAR LFPG 102300Z 13007KT 100V160 0500 R27L/1200U R09R/////
R26R/1800N R08L///// R26L/1400U R08R/2000D R27R/1200N R09L///// FG
VV/// 05/04 Q1017 NOSIG=
METAR LFPO 102300Z 08004KT 6000 OVC003 06/05 Q1016 NOSIG=
METAR LFQQ 102300Z 19008KT 9999 OVC009 05/03 Q1017 NOSIG=
METAR LFRB 102300Z 18005KT 3500 BR FEW006 BKN061 07/07 Q1015 NOSIG=
METAR LFRS 102300Z 00000KT 9999 SCT046 BKN066 09/08 Q1015 NOSIG=

0000043200
851
SARO32 LROM 102300
METAR LRAR 102300Z AUTO 15004KT 4500 R09////// R27/P2000 SCT056
///// Q1022=
METAR LRBM 102300Z AUTO VRB02KT 4000 BR FEW010 BKN029 03/02 Q1020=
METAR LRCL 102300Z 20006KT 9999 SCT051 01/M00 Q1020=
METAR LROD 102300Z AUTO 22008KT 9999 NCD 01/00 Q1021=
METAR LRSM 102300Z AUTO 22006KT 9999 SCT065 M00/M00 Q1020=
METAR LRTM 102300Z VRB02KT 3000 BR FEW010 BKN048 00/00 Q1020
0729//95=

0000033500
852
SARO33 LROM 102300
METAR LRBC 102300Z AUTO 31006KT 260V340 9999 NCD 04/00 Q1017=
METAR LRCV 102300Z AUTO 27008KT 9999 NCD 03/M00 Q1020=
METAR LRIA 102300Z 27006KT 240V300 CAVOK 04/M01 Q1016 1529//95=
METAR LRSV 102300Z AUTO 27010KT 9999 NCD 02/M03 Q1015=
METAR LRTC 102300Z AUTO 33010KT 9999 NCD 05/02 Q1017=

00000000