0000103700
873
UDAS02 BABJ 110941
AMDAR 1109
ASC CNFOZN 3401N 12131E 110929 F308 MS458 267/110 TB/ S//1=
ASC CNFOZN 3340N 12140E 110932 F340 MS476 259/125 TB/ S//1=
LVR CNFOZN 3319N 12150E 110935 F361 MS488 259/137 TB/ S//1=
LVR CNFOZN 3258N 12201E 110938 F361 MS478 260/142 TB/ S//1=
ASC CNFPYM 3628N 11716E 110937 F121 MS149 287/029 TB/ S//1=
ASC CNFPYM 3625N 11717E 110938 F138 MS184 292/028 TB/ S//1=
ASC CNFPYM 3622N 11717E 110938 F157 MS229 285/028 TB/ S//1=
ASC CNFPYM 3619N 11718E 110939 F171 MS226 290/040 TB/ S//1=
LVR CNFPYN 3541N 10551E 110930 F256 MS388 252/062 TB/ S//1=
LVR CNFPYN 3549N 10530E 110933 F256 MS395 248/062 TB/ S//1=
LVR CNFPYN 3555N 10508E 110936 F256 MS395 247/059 TB/ S//1=
DES CNFPYN 3556N 10504E 110937 F250 MS383 249/059 TB/ S//1=
LVR CNFPXL 3236N 11836E 110938 F177 MS163 269/041 TB/ S//1=
LVR CNFPXL 3239N 11835E 110939 F177 MS163 270/036 TB/ S//1=
LVR CNFPXL 3242N 11837E 110939 F177 MS160 265/042 TB/ S//1=
LVR CNFPXL 3246N 11838E 110940 F177 MS163 268/044 TB/ S//1=
0000035500
874
UDAS02 BABJ 110940
AMDAR 1109
LVR CNFLWM 2446N 11027E 110934 F291 MS275 258/088 TB/ S//1=
LVR CNFLWM 2431N 11049E 110937 F291 MS278 256/080 TB/ S//1=
LVR CNFPXL 3226N 11840E 110936 F177 MS158 265/040 TB/ S//1=
LVR CNFPXL 3229N 11839E 110937 F177 MS160 268/041 TB/ S//1=
LVR CNFPXL 3232N 11838E 110937 F177 MS160 266/042 TB/ S//1=
0000144400
875
FTUS80 KWBC 101730
TAF
KBFI 101728Z 1018/1118 18012G20KT P6SM BKN019 OVC028
     FM102200 16012KT 4SM RA BR OVC012
      TEMPO 1100/1104 3SM +RA BR OVC012
     FM110600 18015G28KT 6SM -RA BR OVC018
     FM110800 18020G33KT 6SM -RA BR OVC018=
KBLI 101728Z 1018/1118 17008KT P6SM OVC027
     FM102000 16010KT 4SM -RA BR OVC015
     FM110000 15014G22KT 4SM RA BR OVC012
      TEMPO 1104/1108 2SM +RA BR OVC012
     FM110800 17025G35KT 5SM -RA BR OVC015=
KBNA 101729Z 1018/1118 17011KT P6SM OVC008
     FM102200 18012KT P6SM SCT008 OVC015
     FM110500 19015G25KT 3SM -SHRA BR OVC009
      TEMPO 1107/1111 2SM TSRA OVC007CB
     FM111400 26010G20KT P6SM OVC040=
KBZN 101729Z 1018/1118 27010KT P6SM BKN060
     FM110600 24010KT P6SM BKN050=
KCKV 101729Z 1018/1118 17010KT P6SM OVC007
     FM110300 18015G25KT 4SM -SHRA BR OVC007
      TEMPO 1106/1110 2SM TSRA OVC005CB
     FM111300 27012G22KT P6SM OVC040=
KCLM 101728Z 1018/1118 29005KT P6SM SCT050 BKN120
     FM110000 11005KT 4SM RA BR OVC011
      TEMPO 1104/1108 2SM -RA OVC008
     FM111200 29010KT P6SM -RA OVC018=
KCSV 101729Z 1018/1118 17006KT P6SM OVC007
     FM110300 17012G22KT 4SM -SHRA BR OVC004
     FM110800 18012G22KT 2SM SHRA BR OVC003
     FM111600 25010G20KT P6SM OVC015=
KCTB 101729Z 1018/1118 27025G35KT P6SM SCT060 BKN120
     FM110300 26015KT P6SM BKN120
     FM111100 22025G35KT P6SM BKN120=

0000143300
876
FTUS80 KWBC 101730 RRA
TAF
KFLG 101729Z 1018/1118 25010G15KT P6SM SCT250
     FM110100 VRB02KT P6SM SCT250=
KGCC 101729Z 1018/1118 28013KT P6SM BKN090=
KGCN 101729Z 1018/1118 26008KT P6SM SCT250
     FM110100 VRB02KT P6SM SCT250=
KGLD 101726Z 1018/1118 33020G31KT P6SM VCSH BKN050
     FM102100 29015G25KT P6SM SCT050 BKN090
     FM110000 29013KT P6SM SKC=
KGTF 101729Z 1018/1118 24025G35KT P6SM SCT050 BKN120
     FM110300 22015KT P6SM BKN100
     FM111100 20020G30KT P6SM BKN100=
KHLN 101729Z 1018/1118 27020G28KT P6SM BKN035
     FM110200 26010G20KT P6SM BKN050=
KHQM 101728Z 1018/1118 20010KT 3SM -RA BR SCT025 BKN045 OVC100
      TEMPO 1018/1022 BKN015 OVC025
     FM102200 12015KT 4SM -RA BR OVC012
     FM110000 13018G22KT 3SM RA BR OVC011
     FM110300 18025G38KT 3SM RA BR OVC015
     FM110600 18030G45KT 5SM -RA BR OVC015=
KHVR 101729Z 1018/1118 24015KT P6SM BKN090 BKN150
     FM110800 20010KT P6SM BKN120=
KINW 101729Z 1018/1118 VRB04KT P6SM SCT250
      TEMPO 1021/1024 32008KT=
KISM 101728Z 1018/1118 14008KT P6SM SCT025 BKN200
      TEMPO 1018/1020 BKN025
     FM110000 12004KT P6SM BKN120
     FM110800 17005KT 5SM BR OVC005
     FM111400 19010G15KT P6SM SCT015 BKN150=
KLEE 101728Z 1018/1118 15006KT P6SM SCT025 SCT200
     FM110000 15004KT P6SM BKN120
     FM110800 17005KT 5SM BR OVC005
     FM111400 19010G15KT P6SM SCT015 BKN150=

0000147500
877
FTUS80 KWBC 101730 RRB
TAF
KLWT 101729Z 1018/1118 25015KT P6SM BKN120
     FM102000 27020G30KT P6SM BKN100
     FM110400 26015KT P6SM SCT080 BKN120
     FM111200 22020G30KT P6SM BKN120=
KMCK 101726Z 1018/1118 31015G27KT P6SM BKN045
     FM102300 31011KT P6SM SCT050 OVC090
     FM110300 28010KT P6SM SKC=
KMCO 101728Z 1018/1118 14008KT P6SM SCT025 BKN200
     FM110000 12004KT P6SM BKN120
     FM110800 17005KT 5SM BR OVC005
     FM111400 19010G15KT P6SM SCT015 BKN150=
KOLM 101728Z 1018/1118 19006KT 4SM -RA BR FEW007 BKN027 OVC040
      TEMPO 1018/1021 SCT007 OVC015
     FM102100 20006KT 3SM RA BR OVC009
      TEMPO 1100/1104 2SM +RA BR OVC006
     FM110600 20018G28KT 4SM RA BR OVC012=
KPAE 101728Z 1018/1118 19013KT P6SM OVC018
     FM102200 17014G22KT 3SM RA BR OVC012
      TEMPO 1100/1104 2SM +RA BR OVC012
     FM110600 19018G30KT 5SM -RA BR OVC015
     FM110800 20025G40KT 5SM -RA BR OVC015=
KPGA 101729Z 1018/1118 VRB05KT P6SM SCT250=
KPRC 101729Z 1018/1118 32008KT P6SM SCT250
     FM110100 VRB04KT P6SM SCT250=
KRAP 101729Z 1018/1118 32014G24KT P6SM SCT050 BKN120=
KSEA 101728Z 1018/1124 19014G22KT P6SM -RA BKN011 OVC019
     FM102200 17012KT 3SM RA BR OVC012
      TEMPO 1100/1104 2SM +RA BR OVC012
     FM110600 19018G30KT 5SM -RA BR OVC015
     FM110800 20025G40KT 5SM -RA BR OVC015
     FM111400 20018G32KT P6SM -RA OVC025
     FM111900 20024G38KT P6SM -SHRA BKN035 BKN060=

0000133400
878
FTUS80 KWBC 101730 RRC
TAF
KSFB 101728Z 1018/1118 14008KT P6SM SCT025 SCT200
      TEMPO 1018/1020 BKN025
     FM110000 15004KT P6SM BKN120
     FM110800 17005KT 5SM BR OVC005
     FM111400 19010G15KT P6SM SCT015 BKN150=
PAAQ 101728Z 1018/1118 36004KT P6SM VCFG BKN035
     FM102100 35003KT P6SM BKN025 OVC040
     FM110300 02004KT P6SM BKN040 OVC060=
PACV 101728Z 1018/1118 08005KT 6SM -SHSN BKN040
      TEMPO 1018/1022 2SM -SN BR BKN018 BKN028
     FM102200 VRB03KT P6SM VCSH BKN040
      TEMPO 1022/1102 3SM -SHSN BKN018 BKN028=
PADQ 101728Z 1018/1118 27006KT P6SM SCT040 BKN100
     FM110900 18005KT 6SM -SN BKN025
     FM111700 11011KT 5SM -SN OVC012=
PAEN 101728Z 1018/1118 VRB03KT 2SM BR BKN006 OVC015
      TEMPO 1018/1022 1/2SM FZFG BKN002
     FM110000 02004KT 6SM BR SCT008 BKN025
     FM110900 36003KT 3/4SM BR BKN005=
PAGK 101728Z 1018/1118 00000KT 4SM BR OVC035
      TEMPO 1018/1022 1SM -SN BR BKN015
     FM102200 00000KT P6SM BKN025
     FM110900 00000KT P6SM BKN012 BKN040=
PAGS 101728Z 1018/1118 13009KT P6SM -SHRA BKN025 OVC040
      TEMPO 1018/1020 BKN015 OVC030
     FM110000 21005KT P6SM VCSH SCT020 OVC040
     FM110900 VRB03KT P6SM BCFG SCT003 BKN030
     FM111500 33005KT P6SM BCFG SCT003 BKN060 AMD LTD TO CLD VIS
      AND WIND=

0000107000
879
FTUS80 KWBC 101730 RRE
TAF
PASI 101728Z 1018/1118 09005KT P6SM -SHRA FEW015 BKN035 OVC060
     FM102000 21007KT P6SM VCSH SCT030 BKN045
     FM110300 VRB04KT P6SM SCT030 BKN050
     FM111200 30006KT P6SM VCSH BKN025 OVC040=
PATK 101728Z 1018/1118 VRB03KT P6SM BKN018
     FM110400 35002KT P6SM SCT025 BKN060=
PAVD 101728Z 1018/1118 00000KT P6SM VCSH BKN050
      TEMPO 1018/1022 5SM -SHSN BKN030 OVC050 AMD LTD TO CLD VIS
      AND WIND=
PAWG 101728Z 1018/1118 VRB04KT P6SM VCSH SCT008 BKN025 OVC035
     FM102100 12006KT P6SM VCSH SCT025 OVC040
     FM110300 09006KT P6SM SCT040 BKN100
     FM110600 06008KT P6SM FEW050 BKN200
     FM111500 30006KT P6SM SCT050 BKN100 AMD LTD TO CLD VIS AND
      WIND 1106/1115=
PAYA 101728Z 1018/1118 VRB04KT P6SM -SHSN SCT004 BKN015 OVC025
      TEMPO 1018/1021 2SM -SHSN BR BKN004 OVC012
     FM102100 10004KT P6SM -SHSN SCT010 OVC030
     FM110900 VRB04KT P6SM VCSH FEW010 OVC025
     FM111500 00000KT P6SM VCSH FEW010 BKN035 AMD LTD TO CLD VIS
      AND WIND 1101/1110=

0000148100
880
FTUS80 KWBC 101730 RRD
TAF
PAGY 101728Z 1018/1118 21016G24KT P6SM VCSH SCT025 OVC070
     FM110000 20012G20KT P6SM VCSH SCT025 OVC050
     FM110600 VRB02KT P6SM VCSH SCT025 OVC050
     FM111000 04005KT P6SM BKN025 OVC050
     FM111500 03008KT P6SM FEW025 BKN050 AMD LTD TO CLD VIS AND
      WIND=
PAHO 101728Z 1018/1118 24002KT P6SM VCSH BKN012
     FM110200 VRB03KT P6SM SCT025 BKN200=
PAJN 101728Z 1018/1118 08008KT P6SM -SHRA FEW010 BKN035 OVC050
     FM102100 10009KT P6SM -SHRA SCT015 BKN030 OVC040
     FM110300 09006KT P6SM VCSH SCT010 BKN040
     FM110600 VRB02KT 3SM BCFG SCT003 BKN040
     FM111500 00000KT P6SM BCFG FEW003 BKN070=
PAKT 101728Z 1018/1118 14007KT P6SM VCSH SCT015 BKN040 OVC060
     FM110300 VRB03KT P6SM SCT045 OVC150
     FM110900 33008KT P6SM VCSH SCT040 OVC080
     FM111600 32007KT P6SM SCT050 BKN100 AMD LTD TO CLD VIS AND
      WIND 1106/1115=
PANC 101728Z 1018/1124 VRB02KT 6SM -SN BR VCFG OVC015
      TEMPO 1018/1020 3SM BR BKN005
     FM102300 35003KT 6SM BR SCT005 BKN015
     FM111200 VRB03KT P6SM VCFG BKN008
     FM112200 VRB03KT P6SM BKN040=
PAPG 101728Z 1018/1118 VRB03KT P6SM -SHRA SCT010 BKN015 OVC025
      TEMPO 1018/1021 4SM -SHRA BR BKN012 OVC020
     FM102100 25005KT P6SM VCSH FEW010 BKN025 OVC035
     FM110400 VRB03KT P6SM BCFG SCT008 BKN050
     FM110900 00000KT 3SM BR SCT005 SCT070
     FM111600 00000KT 5SM BR FEW005 SCT050 AMD NOT SKED 1106/1115=

0000257900
881
SPUS70 KWBC 101730
SPECI
PAKW 101726Z AUTO 15004KT 10SM FEW012 SCT024 SCT050 02/01 A2966
     RMK AO2 RAB1654E16 P0002 T00220011 TSNO=
KAFN 101726Z AUTO 20006KT 3/4SM -SN BR OVC007 M03/M05 A3035 RMK
     AO2 P0001 T10331050=
KAGS 101726Z 35008KT 3SM -RA BR BKN004 OVC010 08/08 A3021 RMK AO2
     CIG 003V007 P0008=
KBAF 101726Z 21003KT 2SM -SN SCT020 BKN030 OVC045 M03/M06 A3040
     RMK AO2 P0000 T10331056=
KBUY 101726Z AUTO 36004KT 2 1/2SM -RA BR OVC003 03/02 A3030 RMK
     AO2 RAE1659B06 P0001 T00330017=
KHBG 101726Z AUTO 11005KT 2 1/2SM BR OVC002 12/11 A3011 RMK AO2
     VIS 1 3/4V4 T01170111=
KIWI 101726Z AUTO VRB03KT 3SM -SN BKN014 BKN028 OVC036 M02/M05
     A3041 RMK AO2 SNB13 P0000 T10221050=
KIXD 101726Z 00000KT 1 1/4SM -RA BR BKN003 OVC007 03/03 A2967 RMK
     AO2 UPE20RAB06 P0000 T00280028=
KLNR 101726Z AUTO 11005KT 2 1/2SM BR OVC006 M01/M02 A2983 RMK AO2
     T10111017=
KLWC 101726Z AUTO 13007KT 2SM BR BKN004 OVC009 03/02 A2966 RMK AO2
     T00330022=
KNEW 101726Z 10005KT 3SM BR OVC002 12/12 A3009 RMK AO2
     T01220117=
KPNC 101727Z AUTO 22008G18KT 8SM SCT012 10/08 A2965 RMK AO2
     TSNO=
KVSF 101726Z AUTO 00000KT 1 1/2SM -SN BR BKN023 BKN060 M07/M09
     A3037 RMK AO2 SNB16 P0000 T10671089=
KBTL 101727Z 17010KT 7SM OVC005 01/M01 A3003 RMK AO2 T00111006=
KFSM 101727Z 06006KT 1 1/2SM R25/5000VP6000FT -RA BR FEW002 BKN047
     OVC070 07/06 A2981 RMK AO2 P0013=
KHWV 101727Z AUTO 00000KT 3SM BR SCT026 OVC037 01/M01 A3042 RMK
     AO2 RAE10 P0000 T00111006 TSNO=
KLPR 101727Z AUTO 18007KT 7SM BKN009 OVC015 04/01 A3016 RMK AO2
     CIG 007V012 P0001=
KMCB 101727Z AUTO 15008KT 3SM BR OVC002 12/12 A3007 RMK AO2
     T01220117=
KMEI 101727Z 14003KT 10SM OVC006 11/09 A3011 RMK AO2=
KROG 101727Z 19006KT 8SM -RA BKN007 BKN012 OVC022 09/09 A2979 RMK
     AO2 CIG 005V008 P0005=
KTUL 101727Z 18018G24KT 10SM OVC015 12/09 A2967 RMK AO2
     T01170094=
PAGN 101727Z AUTO 00000KT 10SM FEW004 SCT013 BKN046 21/21 A2955
     RMK AO2 TSNO RAB1658E08 P0000 $=
PADL 101722Z 36004KT 2SM BR BKN004 OVC011 M03/M04 A2948=
PAGN 101727Z AUTO 00000KT 10SM FEW004 SCT013 BKN046 21/21 A2955
     RMK AO2 TSNO RAB1658E08 P0000 $=
PAIG 101727Z AUTO 00000KT 10SM FEW004 OVC026 M03/M03 A2947 RMK AO2
     TSNO $=
PAKN 101727Z 00000KT 10SM SCT004 OVC025 M03/M03 A2945 RMK AO2 PNO
     $=
PARS 101727Z AUTO 00000KT 10SM FEW004 SCT015 M13/M15 A2954 RMK AO2
     TSNO SNE22 P0000 $=
PASO 101727Z AUTO 00000KT 10SM SCT025 M01/M02 A2941 RMK AO2
     TSNO=

0000009100
882
SPUS31 KWBC 101730
SPECI
KJAX 101726Z 12010KT 10SM BKN017 24/20 A3014=

0000011000
883
SPUS41 KWBC 101730
SPECI
KBAF 101726Z 21003KT 2SM -SN SCT020 BKN030 OVC045 M03/M06 A3040=

0000009300
884
SPUS42 KWBC 101730
SPECI
KNEW 101726Z 10005KT 3SM BR OVC002 12/12 A3009=

0000009400
885
SPUS42 KWBC 101730
SPECI
KTUL 101727Z 18018G24KT 10SM OVC015 12/09 A2967=

0000009100
886
SPUS43 KWBC 101730
SPECI
KBTL 101727Z 17010KT 7SM OVC005 01/M01 A3003=

0000010200
887
SAPF20 NTAA 101730
METAR NTAA 101730Z 00000KT 9999 FEW020 SCT130 28/22 Q1013 NOSIG=

0000025900
888
SABU31 LBSM 101730
METAR LBSF 101730Z 09004MPS 050V110 0200 R27/0250N BCFG SCT003 00/00
    Q1020 TEMPO 0500 BCFG=
METAR LBWN 101730Z 27008G13MPS CAVOK 11/03 Q1014 NOSIG=
METAR LBBG 101730Z 25004MPS 7000 NSC 04/04 Q1016 TEMPO 5000 BR=

0000009700
889
SAHU31 LHBM 101730
METAR LHBP 101730Z 24007KT 210V270 CAVOK 04/02 Q1020 NOSIG=

0000009100
890
SANC01 NWWW 101730
METAR NWWW 101730Z AUTO 00000KT 9999 NSC 20/14 Q1012=

0000009300
891
SAGR31 LGAT 101720 RRA
METAR LGAD 101720Z 00000KT 9999 SCT020 12/09 Q1021=

0000016900
892
SACY31 LCLK 101730
METAR LCLK 101730Z 33004KT 9999 FEW050 12/05 Q1020 NOSIG=
METAR LCPH 101730Z 02008KT CAVOK 13/01 Q1021=
METAR LCNC 101730Z NIL=

00000000