0000034900
993
SAFR23 LFPW 101900
METAR LFOC 101900Z AUTO 04003KT 6000 SCT007 OVC100 06/05 Q1017=
METAR LFOE 101900Z AUTO 17007KT 9999 OVC006 05/05 Q1017=
METAR LFOJ 101900Z AUTO 08005KT 0200 R25/0900N FG VV/// 06/05 Q1017=
METAR LFRJ 101900Z AUTO 16005KT 9999 NSC 07/05 Q1015=
METAR LFRL 101900Z AUTO 18003KT 6000 // FEW002 07/07 Q1015=

0000032400
994
SARO33 LROM 101900
METAR LRBC 101900Z VRB02KT CAVOK 03/03 Q1014 1619//95=
METAR LRCV 101900Z AUTO 27014KT 9999 NCD 06/02 Q1018=
METAR LRIA 101900Z 30004KT 240V340 9999 BKN040 05/03 Q1013 1529//95=
METAR LRSV 101900Z 28016KT CAVOK 05/M03 Q1013=
METAR LRTC 101900Z AUTO 31016KT 9000 NCD 07/04 Q1014=

0000026200
995
SAFR24 LFPW 101900
METAR LFSI 101900Z AUTO 09003KT 2100 BR NSC 03/03 Q1018=
METAR LFSO 101900Z AUTO 14005KT 9999 NSC 04/03 Q1018=
METAR LFSX 101900Z AUTO 08003KT 9999 NSC 03/02 Q1018=
METAR LFYR 101900Z AUTO 00000KT 9999 NSC 05/03 Q1017=

0000048400
996
SAFR31 LFPW 101900
METAR LFLL 101900Z 15006KT 3000 BR NSC 08/07 Q1018 NOSIG=
METAR LFMN 101900Z 34007KT 9999 FEW016 BKN028 11/07 Q1020 NOSIG=
METAR COR LFPG 101900Z 17003KT 120V200 6000 BKN005 05/04 Q1018 NOSIG=
METAR LFPO 101900Z VRB02KT 9999 OVC007 06/04 Q1018 NOSIG=
METAR LFQQ 101900Z 19010KT 9999 BKN010 05/04 Q1017 NOSIG=
METAR LFRB 101900Z 17005KT 9999 FEW020 SCT100 BKN140 07/06 Q1014
NOSIG=
METAR LFRS 101900Z 09005KT CAVOK 10/08 Q1015 NOSIG=

0000070100
997
SAFR32 LFPW 101900
METAR LFBD 101900Z AUTO 11005KT 9999 NSC 10/08 Q1014=
METAR LFBH 101900Z AUTO 09005KT 9999 NSC 10/08 Q1015=
METAR LFBI 101900Z AUTO 06003KT 9999 NSC 08/06 Q1015=
METAR LFBL 101900Z AUTO 07006KT 9999 NSC 10/06 Q1015=
METAR LFBO 101900Z AUTO 13014KT 9999 FEW009 SCT180 BKN200 11/07
Q1015=
METAR LFBP 101900Z 10003KT CAVOK 07/06 Q1014 NOSIG=
METAR LFBT 101900Z AUTO 16003KT 9999 NSC 07/05 Q1014=
METAR LFBZ 101900Z 27006KT CAVOK 10/08 Q1014 BECMG 8000=
METAR LFLB 101900Z AUTO 14002KT 6000 NSC 04/03 Q1018=
METAR LFLX 101900Z AUTO 07006KT 9999 NSC 08/06 Q1016=
METAR LFML 101900Z VRB02KT 9999 BKN026 13/08 Q1019 NOSIG=
METAR LFCK 101900Z NIL=

0000048500
998
SAFR33 LFPW 101900
METAR LFKB 101900Z VRB03KT 9999 FEW020 OVC030 13/09 Q1021 NOSIG=
METAR LFKF 101900Z AUTO 08006KT 9999 SCT025/// 12/10 Q1021=
METAR LFKJ 101900Z 04006KT 9999 FEW020 08/07 Q1020 NOSIG=
METAR LFLC 101900Z 25003KT CAVOK 06/03 Q1016 NOSIG=
METAR LFMP 101900Z AUTO 07004KT 9999 BKN026 BKN160 11/07 Q1018=
METAR LFMV 101900Z AUTO VRB03KT 9999 OVC024 10/07 Q1019=
METAR LFSL 101900Z AUTO 11002KT 9999 NSC 05/04 Q1014=
METAR LFKC 101900Z NIL=

0000093700
999
SAFR34 LFPW 101900
METAR LFCR 101900Z AUTO 13006KT 9999 NSC 09/02 Q1015=
METAR LFJL 101900Z AUTO 09004KT 9999 NSC 03/02 Q1019=
METAR LFLP 101900Z AUTO VRB02KT 9999 NSC 06/04 Q1019=
METAR LFLS 101900Z AUTO 11003KT 2000 R09/0900U BR SCT006 03/03
Q1018=
METAR LFLY 101900Z AUTO 00000KT 2100 BR NSC 06/05 Q1018=
METAR LFMT 101900Z 07005KT 9999 BKN028 12/08 Q1019 NOSIG=
METAR LFMU 101900Z AUTO 05006KT 9999 OVC029 12/08 Q1018=
METAR LFOB 101900Z AUTO 20005KT 170V230 9999 OVC011 06/04 Q1018=
METAR LFOH 101900Z AUTO 14004KT 9999 NSC 05/03 Q1016=
METAR LFOK 101900Z AUTO 13004KT 9000 FEW016 03/03 Q1018=
METAR LFOP 101900Z AUTO 14005KT 8000 SCT008 03/03 Q1017=
METAR LFPB 101900Z AUTO 15004KT 110V220 9999 OVC010 06/04 Q1018=
METAR LFQA 101900Z AUTO 00000KT 9999 OVC013 03/02 Q1018=
METAR LFQB 101900Z AUTO 00000KT 0200 FG NSC 02/02 Q1018=
METAR LFSN 101900Z AUTO VRB01KT 7000 NSC 02/02 Q1019=

0000009900
000
SAMT20 GQPP 101900
METAR COR GQPP 101900Z 25006KT 8000 FEW010 19/14 Q1014 NOSIG=

0000033700
001
SAAE33 VTBB 101900
METAR VVTS 101900Z VRB02KT 9999 FEW017 SCT040 23/20 Q1012 NOSIG =
METAR VVNB 101900Z 29004KT 2600 BR FEW020 BKN050 15/11 Q1021 NOSIG=
METAR VVDN 101900Z NIL=
METAR VVPB 101900Z NIL=
METAR VVCR 101900Z 35005KT 9999 FEW017 24/18 Q1016 NOSIG=
METAR VVCT 101900Z NIL=
METAR VVPQ 101900Z NIL=

0000011700
002
SACN62 CYBK 101900
METAR CYBK 101900Z 27006KT 180V280 20SM BKN020 M31/M35 A2967 RMK SC6
 SLP049=

0000012900
003
SACN62 CYDB 101900
METAR CYDB 101900Z VRB02KT 30SM FEW003 SCT030 BKN120 M21/M23 A2930
 RMK ST1SC2AC3 SLP004=

0000015200
004
SACN62 CYBW 101900
METAR CYBW 101900Z 30008KT 30SM FEW050TCU SCT160 SCT190 BKN220
 M01/M09 A2945 RMK TCU1AC3AC1CS3 TCU TR W SLP017=

0000010600
005
SACN62 CYHK 101900
METAR CYHK 101900Z 25011KT 15SM FEW150 M36/M40 A2942 RMK AS2 SLP972=

0000012200
006
SACN62 CYHZ 101900
METAR CYHZ 101900Z 23013G19KT 15SM BKN034 BKN120 M02/M08 A3038 RMK
 SC6AC1 SLP299=

0000051900
007
SAMS31 WMKK 101900
METAR WBGG 101900Z 22003KT 6000 -RA FEW000 SCT020 BKN150 23/23 Q1011
NOSIG NOSIG=
METAR WBKK 101900Z 13004KT 9999 FEW014 SCT140 BKN280 24/23 Q1010
NOSIG=
METAR WBSB 101900Z 19002KT 9999 FEW005 BKN300 25/24 Q1011 NOSIG=
METAR WMKK 101900Z 34004KT 290V030 9000 FEW017CB SCT140 BKN280 25/23
Q1011 NOSIG=
METAR WMKP 101900Z 00000KT 8000 FEW012 SCT025 BKN260 25/24 Q1012
NOSIG=
METAR WSSL 101900Z NIL=
METAR WSSS 101900Z VRB02KT 9999 FEW018 BKN150 25/23 Q1011 NOSIG=

0000011900
008
SACN62 CYPA 101900
METAR CYPA 101900Z 22005KT 15SM FEW120 BKN250 M08/M11 A2938 RMK
 AC1CI6 SLP978=

0000011500
009
SACN62 CYMA 101900
METAR CYMA 101900Z 31002KT 2 1/2SM -SN VV020 M17/M19 A2939 RMK SN8
 SLP000=

0000049500
010
SAMS32 WMKK 101900
METAR WBGG 101900Z 22003KT 6000 -RA FEW000 SCT020 BKN150 23/23 Q1011
NOSIG NOSIG=
METAR WBKK 101900Z 13004KT 9999 FEW014 SCT140 BKN280 24/23 Q1010
NOSIG=
METAR WMKJ 101900Z 34003KT 9999 FEW023 SCT130 BKN300 23/23 Q1011=
METAR WMKK 101900Z 34004KT 290V030 9000 FEW017CB SCT140 BKN280 25/23
Q1011 NOSIG=
METAR WMKP 101900Z 00000KT 8000 FEW012 SCT025 BKN260 25/24 Q1012
NOSIG=
METAR WMSA 101900Z 30007KT 8000 FEW025 SCT140 BKN280 24/23 Q1011=

0000072200
011
SAMS33 WMKK 101900
METAR WMAU 101900Z 30005KT 8000 FEW000 SCT140 BKN270 24/23 Q////
QFF1010=
METAR WMBA 101900Z 03001KT 8000 FEW007 SCT030 BKN260 24/23 Q1011=
METAR WMKA 101900Z 00000KT 9999 FEW030 SCT140 BKN280 24/23 Q1012=
METAR WMKB 101900Z 05001KT 8000 FEW025 BKN270 25/24 Q1011 NOSIG=
METAR WMKC 101900Z 08014KT 8000 FEW010 SCT020 OVC200 26/23 Q1012=
METAR WMKD 101900Z 36003KT 9999 FEW012 SCT160 BKN260 23/22 Q1011
NOSIG=
METAR WMKE 101900Z NIL=
METAR WMKI 101900Z 04004KT 8000 -RA FEW005 SCT030 BKN260 23/23 Q1012=
METAR WMKL 101900Z 08006KT 9999 FEW026 SCT140 BKN270 27/22 Q1012=
METAR WMKM 101900Z 03004KT 9999 FEW017CB SCT140 BKN270 24/23 Q1011=
METAR WMKN 101900Z NIL=

0000058500
012
SAMS34 WMKK 101900
METAR WBGB 101900Z 11003KT 9999 FEW016 BKN150 25/24 Q1011=
METAR WBGR 101900Z 19001KT 9999 SCT014 SCT150 BKN300 24/24 Q1010=
METAR WBGS 101900Z 27001KT 9999 SCT018 BKN150 23/23 Q1011=
METAR COR WBGY 101900Z 00000KT 9999 -RA FEW004 SCT020 BKN150 23/23
Q1011=
METAR WBKL 101900Z 00000KT 9999 FEW010 SCT140 BKN290 25/24 Q1010=
METAR WBKS 101900Z 05014G24KT 010V080 9999 -RA FEW014 SCT140 OVC250
26/23 Q1010=
METAR WBKT 101900Z 17001KT 9999 FEW013 SCT033 BKN270 25/24 Q1011=
METAR WBKW 101900Z 06002KT 9999 FEW017 BKN140 25/22 Q1009=

00000000