0000011100
473
SPUS31 KWBC 101720
SPECI
KRDU 101716Z 02003KT 3SM -RA BR SCT005 BKN032 OVC045 06/04 A3031=

0000010400
474
SPUS31 KWBC 101720
SPECI
KSTL 101716Z 16011KT 3SM -RA BR BKN009 OVC070 04/02 A2987=

0000010500
475
SPUS41 KWBC 101720
SPECI
KAGC 101716Z 19008KT 10SM SCT027 BKN033 OVC050 06/03 A3021=

0000010100
476
SPUS43 KWBC 101720
SPECI
KPIA 101716Z 14011G17KT 10SM FEW007 OVC014 03/01 A2987=

0000021000
477
SAVN42 KWBC 101700 RRB
METAR
SVSA 101700Z /////KT 9999 FEW020 32/27 Q1014=
SVSE 101700Z NIL=
SVSR 101700Z /////KT 9999 FEW016 BKN300 31/// Q1015=
SVTM 101700Z NIL=
SVVP 101700Z NIL=

0000015000
478
SAUS72 KWBC 101700 RRF
METAR
KBQK 101715Z AUTO 13007KT 7SM OVC005 20/19 A3018=
KLRU 101715Z AUTO 28008KT 10SM CLR 11/M10 A3007=

0000068200
479
FTIE31 EIDB 101700
TAF EINN 101700Z 1018/1118 27006KT 9999 FEW018 SCT025 PROB30 TEMPO
     1018/1021 SCT012 SCT018CB BECMG 1021/1023 23005KT BECMG
     1108/1111 15005KT BECMG 1116/1118 13008KT=
TAF EIDW 101700Z 1018/1118 29007KT 9999 BKN015 BECMG 1018/1019
     25007KT FEW015 SCT025 BECMG 1116/1118 17005KT=
TAF EICK 101700Z 1018/1118 28008KT 9999 FEW015 SCT025 BECMG 1103/1105
     VRB03KT PROB30 TEMPO 1106/1110 3000 BR BKN004 BECMG 1114/1116
     13008KT=
TAF EIKN 101700Z 1018/1118 25007KT 9999 SCT012 SCT020 PROB30 TEMPO
     1018/1102 SCT008 SCT018CB TEMPO 1107/1111 3000 BR BKN005 BECMG
     1110/1112 19005KT BECMG 1115/1118 15008KT=

0000010200
480
SAUS73 KWBC 101700 RRE
METAR
KIKK 101715Z AUTO 13009KT 3SM BR OVC004 01/01 A2995=

0000034200
481
SAUS75 KWBC 101700 RRB
METAR
PADK 101716Z AUTO 23015G25KT 5SM BKN014 OVC020 04/02 A2895=
PAGS 101716Z AUTO 13009KT 10SM BKN015 BKN021 OVC032 02/01
     A2949=
PAUN 101716Z AUTO 09018KT 10SM FEW044 M13/M19 A2958=
PAVD 101716Z 10SM FEW005 BKN050 OVC070 M04/M05 A2937=
PGUA 101655Z 05016KT 10SM FEW024 25/22 A2988=

0000009600
482
FCUK32 EGGY 101700 RRA
TAF EGNS 101700Z 1018/1022 30010KT 9999 FEW012 BKN045=

0000014300
483
SPSP32 LEMM 101714 CCB
SPECI COR LEAS 101714Z 34004KT 270V050 4500 -RADZ FEW001 SCT002
BKN006 11/11 Q1015 TEMPO 1500 BCFG=

0000008800
484
SPCN44 CWAO 101720
SPECI CYMJ 101720Z 32005KT 0SM FZFG VV000 RMK FG8=

0000017900
485
SAMP31 LMMM 101730
METAR HLLT NIL=
METAR HLLB 101720Z
00000KT 9999 SCT020 BKN080 16/08 Q1024 =
METAR LMML 101715Z 25006KT 230V290 CAVOK 15/12 Q1022 NOSIG=

0000010900
486
SALT32 EYVI 101720
METAR EYKA 101720Z 27024G35KT 9999 -RA OVC014 03/01 Q0992
R08/290095=

0000108000
487
FTAM31 FCBB 101700
TAF FCBB 101700Z 1018/1124 18004KT 9000 SCT020 FEW030CB
         PROB30 TEMPO 1019/1023 4000 TSRA BECMG 1100/1102 SCT015
         BECMG 1111/1113 SCT020 FEW030CB BECMG 1118/1120 FEW016=
TAF FEFF NIL=
TAF FKKD 101700Z 1018/1124 VRB06KT 8000 SCT016 FEW020CB
         TEMPO 1104/1108 2000 BR BKN013 FEW020CB
         PROB30 TEMPO 1104/1107 0900 FG PROB30 TEMPO 1109/1116
         5000 HZ=
TAF FOOL 101700Z 1018/1124 22006KT 9999 SCT010 FEW020CB BKN033 TEMPO
         TS PROB30 TEMPO 1100/1105 3000 TSRA BKN006 FEW016CB OVC023=
TAF FZAA 101600Z 1018/1124 24004KT 9999 SCT020 PROB30 TEMPO 1023/1104
         6000 -TSRA FEW028CB BECMG 1106/1108 BKN018 BECMG 1110/1112
         30008KT SCT025 FEW030CB TEMPO 1115/1120 TS=
TAF FGSL 101700Z 1018/1124 23006KT 8000 FEW013
         TEMPO 1021/1104 SCT012 FEW020CB PROB30 TS
         TEMPO 1104/1108 4000 BR FEW012=
TAF FPST 101600Z 1018/1124 22008KT 9999 FEW020CB SCT040 TEMPO
         1103/1106 TS PROB30 TEMPO 1114/1118 8000 SHRA FEW017CB
   BKN030=
TAF FNLU NIL=

0000087900
488
FTPA31 KWBC 101721
TAF
PGRO 101720Z 1018/1118 NIL=
PGSN 101720Z 1018/1118 03009KT P6SM SCT020 SCT120
     FM110000 06014KT P6SM VCSH SCT020
     FM110800 06009KT P6SM VCSH FEW020=
PGUM 101720Z 1018/1124 06008KT P6SM FEW020
     FM110000 06014KT P6SM SCT020
     FM110800 06008KT P6SM FEW020=
PGWT 101720Z 1018/1118 NIL=
PKMJ 101720Z 1018/1118 06014KT P6SM VCSH FEW015 SCT050=
PKWA 101720Z 1018/1118 07015G22KT P6SM VCSH SCT025=
PTKK 101720Z 1018/1118 05011KT P6SM VCSH SCT014 SCT120=
PTPN 101720Z 1018/1118 NIL=
PTRO 101720Z 1018/1118 08015G22KT P6SM SHRA SCT015CB OVC120
      TEMPO 1018/1021 07015G28KT 3SM +SHRA FEW008 BKN014CB OVC080
     FM110000 08013G24KT P6SM VCSH SCT016CB BKN050 BKN120=
PTSA 101720Z 1018/1118 NIL=
PTYA 101720Z 1018/1118 06011KT P6SM VCSH SCT018 BKN120
     FM110000 07012G22KT P6SM SCT020 BKN120=

0000087900
489
FTPQ31 KWBC 101721
TAF
PGRO 101720Z 1018/1118 NIL=
PGSN 101720Z 1018/1118 03009KT P6SM SCT020 SCT120
     FM110000 06014KT P6SM VCSH SCT020
     FM110800 06009KT P6SM VCSH FEW020=
PGUM 101720Z 1018/1124 06008KT P6SM FEW020
     FM110000 06014KT P6SM SCT020
     FM110800 06008KT P6SM FEW020=
PGWT 101720Z 1018/1118 NIL=
PKMJ 101720Z 1018/1118 06014KT P6SM VCSH FEW015 SCT050=
PKWA 101720Z 1018/1118 07015G22KT P6SM VCSH SCT025=
PTKK 101720Z 1018/1118 05011KT P6SM VCSH SCT014 SCT120=
PTPN 101720Z 1018/1118 NIL=
PTRO 101720Z 1018/1118 08015G22KT P6SM SHRA SCT015CB OVC120
      TEMPO 1018/1021 07015G28KT 3SM +SHRA FEW008 BKN014CB OVC080
     FM110000 08013G24KT P6SM VCSH SCT016CB BKN050 BKN120=
PTSA 101720Z 1018/1118 NIL=
PTYA 101720Z 1018/1118 06011KT P6SM VCSH SCT018 BKN120
     FM110000 07012G22KT P6SM SCT020 BKN120=

0000023500
490
FTUS51 KWBC 101721
TAF
KJHW 101720Z 1018/1118 19010KT P6SM OVC015
     FM110700 16015KT 4SM -RA BR OVC007 WS020/20045KT
     FM111300 18015KT 2SM -RA BR OVC007 WS020/20055KT AMD LTD TO
      CLD VIS AND WIND=

0000137800
491
FTUS52 KWBC 101721
TAF
KABI 101720Z 1018/1118 22018G25KT P6SM BKN150
     FM101900 25018G25KT P6SM SKC
     FM110000 28007KT P6SM SKC=
KCPS 101720Z 1018/1118 16014KT 3SM -RA BR OVC009
     FM110300 20012KT 4SM BR OVC007
     FM110700 25011KT 5SM BR OVC012
     FM111500 27013KT P6SM SCT015 BKN250=
KCSM 101720Z 1018/1118 30016G24KT P6SM SKC
     FM110000 28008KT P6SM SCT120=
KGAG 101720Z 1018/1118 34021G33KT P6SM SKC
     FM110000 28009KT P6SM SCT120=
KGNV 101720Z 1018/1118 14008KT P6SM VCSH BKN015 BKN025
     FM110200 14002KT 4SM BR BKN006 OVC012
     FM110600 15002KT 1SM BR BKN003 OVC006
     FM111400 19012G18KT P6SM VCSH BKN010 OVC020=
KHBR 101720Z 1018/1118 24011KT P6SM SKC
     FM101900 31017G25KT P6SM SCT120
     FM110000 29008KT P6SM SCT120=
KPNC 101720Z 1018/1118 22013G18KT P6SM OVC010
     FM101900 29014G21KT P6SM SCT120
     FM110000 27008KT P6SM SCT120=
KSJT 101720Z 1018/1118 22012G18KT P6SM SCT120
     FM101900 24018G25KT P6SM SKC
     FM102300 26008KT P6SM SKC=
KSPS 101720Z 1018/1118 21011KT P6SM FEW010 BKN120
     FM102100 31014G21KT P6SM SCT120
     FM110100 28007KT P6SM SCT120=
KTRI 101720Z 1018/1118 07003KT P6SM OVC050
      TEMPO 1018/1022 BKN030
     FM110000 00000KT P6SM OVC030
     FM110900 14003KT 5SM BR VCSH OVC030
     FM111500 21010KT 3SM RA BR OVC015=

0000135400
492
FTUS53 KWBC 101721
TAF
KCGI 101720Z 1018/1118 16008KT 6SM -SHRA BR SCT009 OVC015
      TEMPO 1018/1022 3SM SHRA BR OVC009
     FM102200 17011KT 4SM SHRA BR OVC006
     FM110600 26010KT P6SM SCT015=
KCNU 101720Z 1018/1118 20015KT 1/2SM FG OVC004
      TEMPO 1018/1020 2SM BR OVC008
     FM102000 23013G22KT 5SM BR BKN015
     FM110000 27009KT P6SM SCT020 OVC100
     FM111000 28011KT P6SM SKC=
KCOU 101720Z 1018/1118 15013KT 3SM -RA BR VCTS OVC003CB
     FM110100 19011KT 4SM BR OVC007
     FM110600 25011KT 5SM BR OVC010
     FM111500 26014KT P6SM SCT015 BKN250=
KEVV 101720Z 1018/1118 15007KT P6SM VCSH OVC040
      TEMPO 1019/1022 6SM -SHRA BR BKN015
     FM110000 16011KT 5SM SHRA BR SCT008 OVC012
     FM110900 24010KT P6SM BKN015=
KFWA 101720Z 1018/1118 16009KT 2SM -DZ BR BKN004 OVC015
     FM101900 16010KT 4SM BR SCT007 OVC020
      TEMPO 1019/1023 OVC007
     FM102300 16012KT 2SM -RA BR OVC005
     FM111300 24014G22KT 3SM BR VCSH BKN008 OVC015=
KGRI 101720Z 1018/1118 25009KT 6SM BR OVC005
     FM102100 30011KT P6SM SCT009 OVC060
     FM110300 28011KT P6SM SCT060
     FM111600 29015G24KT P6SM SCT070=
KHUT 101720Z 1018/1118 28011KT 5SM BR SCT005 OVC010
     FM101900 29013KT P6SM BKN020
     FM110000 28008KT P6SM SCT120 BKN250
     FM111700 29013G20KT P6SM SKC=

00000000