0000070300
373
SASN33 ESWI 102320
METAR ESNG 102320Z AUTO 03009KT 360V080 9999 NCD M16/M19 Q1011=
METAR ESNK 102320Z AUTO 33010KT 9999 IC SCT019/// BKN033/// M10/M14
Q1005 RESG=
METAR ESNN 102320Z AUTO 34010KT 2200NDV -SN FEW008/// SCT014///
M10/M12 Q1004 R16/49/79=
METAR ESNO 102320Z AUTO 35013KT 9999 OVC021/// M11/M15 Q1003=
METAR ESNQ 102320Z AUTO 32004KT 9999NDV -SN FEW007/// BKN011///
OVC013/// M17/M19 Q1012=
METAR ESNS 102320Z AUTO 35012KT //// VV006 M12/M13 Q1005=
METAR ESNU 102320Z 34014KT 9999 -SN OVC036 M11/M15 Q1004 R14/49//50=
METAR ESNZ 102320Z 04005KT 9999 -SN OVC043 M15/M16 Q1002=
METAR ESUT 102320Z AUTO 27006G17KT 220V340 9999 OVC074/// M13/M19
Q1005=

0000050200
374
SASN34 ESWI 102320
METAR ESCF 102320Z AUTO 14004KT 9999NDV OVC011/// M02/M03 Q1002=
METAR ESDF 102320Z AUTO VRB02KT 9999NDV FEW012/// BKN022/// 
OVC041/// 03/03 Q1005=
METAR ESIB 102320Z AUTO 21011KT 9999NDV OVC018/// 03/02 Q1000=
METAR ESMV 102320Z NIL=
METAR ESPA 102320Z 03009KT 9000 SN BKN034 M13/M16 Q1008=
METAR ESPE 102320Z AUTO 02005KT 330V060 9999NDV -IC BKN043/// 
M14/M18 Q1009=
METAR ESSL 102320Z AUTO 15004KT 9999NDV OVC012/// M02/M04 Q1002
R29/19//95=

0000038000
375
SASN35 ESWI 102320
METAR ESGR 102320Z NIL=
METAR ESKM 102320Z NIL=
METAR ESNL 102320Z AUTO 35008KT 9999NDV BKN022/// OVC037///
M13/M17 Q1006=
METAR ESNX 102320Z AUTO 02009KT 5000NDV -SN ///027 M15/M18 Q1006=
METAR ESNY 102320Z NIL=
METAR ESSF 102320Z NIL=
METAR ESSK 102320Z NIL=
METAR ESUD 102320Z AUTO 36005KT 6000 -SN OVC026/// M14/M17 Q1006=

0000144900
376
FTUS73 KWBC 102324
TAF
TAF AMD KBKF 1023/1123 30015G25KT 9999 FEW120 SCT200 520009
      QNH2967INS
      TEMPO 1023/1101 31025G35KT 530009
      BECMG 1100/1101 30012G18KT 9999 FEW070 SCT200 QNH2960INS
      BECMG 1108/1109 23012KT 9999 SCT100 QNH2979INS TX12/1121Z
      TNM02/1110Z AMD 102320=
KDET 102322Z 1100/1124 16010KT 5SM BR OVC006 WS020/19043KT
      TEMPO 1100/1104 2SM -SHRA BR BKN004
     FM110400 16014KT 2SM -RA BR OVC004 WS020/19043KT
      TEMPO 1106/1110 1SM RA BR OVC002
     FM111200 18010KT 2SM SHRA BR OVC004
     FM111700 24012G20KT 6SM BR OVC010=
KDTW 102322Z 1100/1206 16010KT 4SM BR OVC006 WS020/19043KT
      TEMPO 1100/1104 2SM -SHRA BR BKN004
     FM110400 16014KT 2SM -RA BR OVC004 WS020/19043KT
      TEMPO 1105/1109 1SM RA BR OVC002
     FM111200 18010KT 2SM SHRA BR OVC004
     FM111700 24012G20KT 6SM BR OVC010=
KFAR 102322Z 1100/1124 20010KT P6SM SKC
     FM110300 27008KT P6SM BKN015
     FM111100 29008KT P6SM BKN050=
KFNT 102322Z 1100/1124 16010KT 4SM BR OVC006 WS020/19044KT
      TEMPO 1100/1104 2SM -SHRA BR BKN004
     FM110400 16014KT 2SM -RA BR OVC004 WS020/19044KT
      TEMPO 1106/1110 1SM RA BR OVC002
     FM111200 20010KT 2SM SHRA BR OVC004
     FM111700 24012G20KT 5SM BR OVC010=
KGFK 102322Z 1100/1124 24008KT P6SM SKC
      TEMPO 1100/1102 BKN015
     FM110200 29011KT P6SM BKN015
     FM111100 29008KT P6SM BKN050=

0000118000
377
FTUS73 KWBC 102324 RRA
TAF
KMBS 102322Z 1100/1124 17010KT 4SM BR OVC008 WS020/20040KT
      TEMPO 1100/1104 2SM -SHRA BR BKN004
     FM110400 16014KT 2SM -RA BR OVC004 WS020/20040KT
      TEMPO 1104/1108 1SM RA BR OVC002
     FM111200 20010KT 2SM SHRA BR OVC004
     FM111700 25012G20KT 5SM BR OVC010=
KMKE 102321Z 1100/1206 16012KT 2SM -FZRA BR OVC005
     FM110300 19008KT 2SM -RA BR OVC006
     FM110800 24006KT 3SM -DZ BR OVC004
     FM111400 27010G19KT 4SM -SN OVC008
     FM111800 27013G22KT P6SM BKN012
     FM120000 27010KT P6SM BKN025=
KMSN 102321Z 1100/1124 13008KT 4SM -FZDZ BR OVC006
     FM110500 21005KT 2SM -DZ BR OVC004
     FM111000 28006KT 3SM -SN OVC006
     FM111600 30009G18KT P6SM BKN012=
KRAP 102323Z 1100/1124 31008KT P6SM BKN100
     FM110400 32016KT P6SM SCT050 BKN080
     FM111500 15008KT P6SM SCT100 BKN250=
KYIP 102322Z 1100/1124 16010KT 4SM BR OVC006 WS020/19043KT
      TEMPO 1100/1104 2SM -SHRA BR BKN004
     FM110400 16014KT 2SM -RA BR OVC004 WS020/19043KT
      TEMPO 1105/1109 1SM RA BR OVC002
     FM111200 18010KT 2SM SHRA BR OVC004
     FM111700 24012G20KT 6SM BR OVC010=

0000137200
378
FTUS74 KWBC 102324 RRA
TAF
KPIH 102322Z 1100/1124 24018G28KT P6SM SCT030 OVC200
     FM110500 22015G23KT P6SM SCT010 BKN050
     FM111400 19020G30KT P6SM VCSH BKN050
     FM111700 19028G38KT P6SM VCSH SCT050 BKN100=
KPMD 102322Z 1100/1124 30010KT P6SM SCT250
     FM110300 26006KT P6SM SCT250
     FM111000 VRB03KT P6SM SCT250
     FM112100 26010KT P6SM SCT250=
KPRB 102322Z 1100/1124 05005KT P6SM SCT250
     FM110200 09006KT P6SM SCT250
     FM110600 VRB03KT 6SM BR SCT250
     FM112000 31008KT P6SM SCT250=
KRBL 102320Z 1100/1124 VRB04KT P6SM BKN200
     FM111600 17013G23KT P6SM VCSH OVC035
      TEMPO 1118/1122 3SM -RA OVC015=
KRDD 102320Z 1100/1124 VRB04KT P6SM BKN200
     FM111500 18012KT P6SM -SHRA OVC035
      TEMPO 1118/1122 18015G25KT 3SM -RA OVC015=
TAF KRDM 102320Z 1100/1124 27010KT P6SM VCSH BKN050 OVC070
     FM110600 19015G24KT P6SM SCT050 OVC100
     FM111500 22018G30KT P6SM VCSH BKN050
     FM111800 23022G34KT P6SM VCSH BKN050=
KSAC 102320Z 1100/1124 VRB04KT P6SM BKN250
     FM110600 VRB03KT 4SM BR BKN200
      TEMPO 1110/1114 2SM BR
     FM111700 17011KT P6SM VCSH BKN050 OVC100=
KSBA 102322Z 1100/1124 14007KT P6SM SCT250
     FM110200 VRB03KT P6SM SCT250
     FM111300 VRB03KT 4SM BR SCT250
     FM111800 VRB03KT 5SM HZ SCT250
     FM112100 22006KT P6SM SCT250=

0000090700
379
FTUS74 KWBC 102324 RRB
TAF
KSBP 102322Z 1100/1124 34012G18KT P6SM SCT250
     FM110200 33010KT P6SM SCT250
     FM110600 VRB04KT P6SM SCT250
     FM111500 33005KT P6SM SCT250
     FM112100 30012KT P6SM SCT250=
KSCK 102320Z 1100/1124 30008KT P6SM BKN250
     FM110800 VRB03KT 4SM BR BKN250
     FM111400 14004KT 2SM BR OVC200
     FM111900 15008KT P6SM OVC100=
KSLC 102322Z 1100/1206 15007KT P6SM SCT040 BKN090
     FM111400 18010KT P6SM SCT070 BKN120
     FM120200 18011KT P6SM VCSH SCT020 BKN050=
KSMF 102320Z 1100/1124 VRB04KT P6SM BKN250
     FM110600 VRB04KT 4SM BR BKN200
      TEMPO 1110/1114 1 1/2SM BR BKN003
     FM111700 18014KT P6SM VCSH BKN050 OVC100=
KSMX 102322Z 1100/1124 32013G20KT P6SM SCT250
     FM110300 36009KT P6SM SCT250
     FM110600 03007KT P6SM SCT250
     FM111500 VRB03KT P6SM SCT250
     FM112000 31012KT P6SM SCT250=

0000133200
380
FTUS74 KWBC 102324
TAF
KBUR 102322Z 1100/1124 18006KT P6SM SCT250
     FM110300 VRB03KT P6SM SCT250
     FM112000 17005KT P6SM SCT250=
KBYI 102322Z 1100/1124 26018G25KT P6SM FEW050 OVC200
     FM110200 24015G23KT P6SM VCSH OVC040
     FM111000 22012G18KT P6SM SCT040
     FM111900 20018G28KT P6SM BKN040=
KCDC 102322Z 1100/1124 VRB04KT P6SM SCT060 SCT150
     FM111800 21010KT P6SM SCT060 SCT150=
KEKO 102321Z 1100/1124 23010G18KT P6SM BKN070
     FM110130 VRB05KT P6SM BKN070
     FM111500 18011KT P6SM SCT080
     FM112000 23015G25KT P6SM VCSH BKN060=
KIDA 102322Z 1100/1124 22015G25KT P6SM SCT050 OVC200
     FM110200 21012G20KT P6SM FEW015 OVC040
     FM110800 21012KT 6SM -SN OVC008
     FM111500 21020G30KT P6SM VCSH SCT015 BKN050=
KLAX 102322Z 1100/1206 26008KT P6SM SCT250
     FM110300 VRB04KT 6SM HZ SCT250
     FM110600 VRB02KT 3SM BR SCT001 SCT007
     FM111800 VRB03KT 5SM HZ SCT250
     FM112100 26009KT P6SM SCT250
     FM120300 26004KT P6SM SCT250=
KLGB 102322Z 1100/1124 18006KT 5SM HZ SCT250
     FM110200 VRB03KT 5SM BR SCT250
     FM110700 VRB03KT 2SM BR BKN007
     FM111800 VRB04KT 5SM BR SCT010 SCT250
     FM112100 21005KT 5SM HZ SCT250=
KOGD 102322Z 1100/1124 19007KT P6SM SCT030 OVC080
     FM111500 17010KT P6SM SCT060 BKN120=

0000012300
381
SAUS72 KWBC 102300 RRF
METAR
TNCM 102300Z 07011KT 040V100 9999 FEW019 26/18 Q1018 A3006 NOSI
     G=

0000007700
382
SASU01 HSSS 102330
METAR HSSS 102330Z 34010KT CAVOK Q1017=

0000010600
383
SPCN31 CWAO 102324
SPECI CYYZ 102324Z 12007KT 4SM BR OVC007 02/01 A3006 RMK ST8 SLP188=

0000140700
384
SPUS70 KWBC 102326
SPECI
KAMG 102322Z AUTO 00000KT 2 1/2SM BR FEW021 BKN032 OVC055 20/19
     A3009 RMK AO2 T02000189=
KCVG 102322Z 15013KT 10SM OVC016 09/08 A2990 RMK AO2=
KDCA 102322Z 06004KT 1 1/4SM R01/2800VP6000FT -RA BR BCFG OVC010
     03/02 A3030 RMK AO2 BCFG E-SE ALG RIVER P0002=
KDEC 102322Z 17016G25KT 6SM -RA BR OVC003 05/04 A2968 RMK AO2
     P0003=
KEWR 102322Z 02004KT 3/4SM R04R/6000VP6000FT -DZ BR OVC003 01/01
     A3034 RMK AO2 TWR VIS 1 P0000=
KHKY 102322Z AUTO 06005KT 2SM -RA BR OVC006 06/06 A3017 RMK AO2
     RAB2255 P0000 TSNO=
KILN 102322Z AUTO 13009KT 9SM SCT004 06/06 A2993 RMK AO2
     T00610061=
KM19 102322Z AUTO 31012KT 3/4SM RA BR OVC004 06/06 A2977 RMK AO2
     P0006=
KMFI 102322Z AUTO 09006KT 1 1/4SM -SN BR SCT010 OVC018 M02/M03
     A2959 RMK AO2 P0002 T10171028=
KOSH 102322Z 14008KT 4SM BR OVC004 01/M01 A2963 RMK AO2 FZRAE16
     P0001 I1000 T00061006=
KTYR 102322Z 18010G19KT 10SM SCT009 BKN016 OVC023 17/16 A2973 RMK
     AO2=
PALP 102322Z 25014KT 3SM BLSN FEW021 SCT120 M33/M37 A2989=
KGVL 102323Z AUTO 09009KT 1SM BR VV002 08/08 A3012 RMK AO2
     P0001=
KMSP 102323Z 00000KT 5SM BR OVC008 M01/M02 A2956 RMK AO2 $=
KPSX 102323Z AUTO 20005KT 3/4SM BR FEW002 BKN009 17/16 A2983 RMK
     AO2 T01670161=
KRDU 102323Z 05005KT 1SM -RA BR OVC003 06/06 A3021 RMK AO2 SFC VIS
     2 1/2 P0003=

0000031600
385
SANL31 EHDB 102325
METAR EHAM 102325Z 21015KT 9000 SCT009 BKN012 06/04 Q1014 NOSIG=
METAR EHBK 102325Z AUTO 21010KT 9999 NCD 03/02 Q1017=
METAR EHGG 102325Z AUTO 23014KT 5000 BR BKN008 OVC010 06/05 Q1013=
METAR EHRD 102325Z AUTO 20014KT 160V230 7000 SCT009 BKN011 OVC014
06/04 Q1015 NOSIG=

0000081800
386
FTUS31 KWBC 102327
TAF
KMEM 102323Z 1100/1124 15012G20KT P6SM VCSH SCT030 BKN050
     FM110230 18015G22KT 3SM -RA BR VCTS OVC005CB
     FM110800 24014KT P6SM BKN012 OVC100
     FM111100 26010KT P6SM SCT020
     FM111500 28012G20KT P6SM SCT025=
KONT 102326Z 1100/1206 25005KT P6SM FEW250
     FM110500 VRB03KT 5SM BR HZ FEW250
      TEMPO 1110/1114 3SM BR
     FM112200 26006KT P6SM FEW250=
KSAN 102326Z 1100/1206 VRB04KT P6SM FEW250
     FM110400 VRB03KT P6SM SCT005
      TEMPO 1110/1114 6SM BR
     FM111800 27007KT P6SM FEW250
     FM120200 VRB04KT P6SM BKN010=
KTPA 102324Z 1100/1124 15005KT P6SM SCT030 BKN150
     FM110800 15005KT 4SM BR BKN010
     FM111000 15004KT 2SM BR OVC005
     FM111500 18013G20KT P6SM BKN025
     FM111800 20014G22KT P6SM SCT025=

0000050300
387
FTUS42 KWBC 102327
TAF
KPIE 102324Z 1100/1124 13006KT P6SM SCT030 BKN150
     FM110800 15004KT 4SM BR BKN010
     FM111000 16005KT 2SM BR OVC005
     FM111500 19014G22KT P6SM BKN025
     FM111800 21016G25KT P6SM SCT025=
KRSW 102324Z 1100/1124 12006KT P6SM SCT040 OVC060
      TEMPO 1100/1101 18012KT 4SM SHRA BKN030
     FM110800 14003KT 3SM BR OVC010
     FM111000 15003KT 2SM BR OVC007
     FM111500 18010G17KT P6SM BKN025
     FM111700 23018G22KT P6SM SCT030=

0000047600
388
FTUS44 KWBC 102327
TAF
KGGW 102324Z 1100/1124 VRB05KT P6SM SCT200 WS015/30025KT
     FM110300 29010KT P6SM SCT060 BKN200 WS015/29030KT
     FM111500 13012KT P6SM VCSH BKN035
     FM112100 19015KT P6SM BKN040=
KRNO 102326Z 1100/1124 VRB04KT P6SM FEW080 BKN200
     FM111300 20008KT P6SM SCT080 SCT140 BKN200
     FM111600 18014G20KT P6SM SCT060 BKN140
     FM111900 19024G40KT P6SM SCT050 BKN120
     FM112200 26022G35KT P6SM FEW060 SCT100=

0000048700
389
FTUS72 KWBC 102327 RRA
TAF
KTPA 102324Z 1100/1124 15005KT P6SM SCT030 BKN150
     FM110800 15005KT 4SM BR BKN010
     FM111000 15004KT 2SM BR OVC005
     FM111500 18013G20KT P6SM BKN025
     FM111800 20014G22KT P6SM SCT025=
KTUP 102323Z 1100/1124 18007KT P6SM BKN005 OVC200
     FM110200 19012G20KT P6SM VCSH BKN005 BKN025
     FM110600 21014KT 3SM -RA BR VCTS OVC005CB
     FM111100 25010KT P6SM BKN012 OVC100
     FM111300 30012G18KT P6SM SCT020=

0000035400
390
FTUS73 KWBC 102327
TAF
KLBF 102323Z 1100/1124 31007KT P6SM SCT100 SCT250
     FM111200 29011KT P6SM SCT250=
KLNK 102326Z 1100/1124 29005KT 4SM BR OVC015
      TEMPO 1100/1103 P6SM NSW SCT015 OVC040
     FM110300 31005KT P6SM SCT015 SCT040 OVC080
     FM110700 30007KT P6SM SCT100 BKN250
     FM111600 31012KT P6SM SCT250=

0000117900
391
FTUS74 KWBC 102327
TAF
KGGW 102324Z 1100/1124 VRB05KT P6SM SCT200 WS015/30025KT
     FM110300 29010KT P6SM SCT060 BKN200 WS015/29030KT
     FM111500 13012KT P6SM VCSH BKN035
     FM112100 19015KT P6SM BKN040=
KONT 102326Z 1100/1206 25005KT P6SM FEW250
     FM110500 VRB03KT 5SM BR HZ FEW250
      TEMPO 1110/1114 3SM BR
     FM112200 26006KT P6SM FEW250=
KPSP 102326Z 1100/1124 VRB06KT P6SM FEW250=
KRNO 102326Z 1100/1124 VRB04KT P6SM FEW080 BKN200
     FM111300 20008KT P6SM SCT080 SCT140 BKN200
     FM111600 18014G20KT P6SM SCT060 BKN140
     FM111900 19024G40KT P6SM SCT050 BKN120
     FM112200 26022G35KT P6SM FEW060 SCT100=
KSAN 102326Z 1100/1206 VRB04KT P6SM FEW250
     FM110400 VRB03KT P6SM SCT005
      TEMPO 1110/1114 6SM BR
     FM111800 27007KT P6SM FEW250
     FM120200 VRB04KT P6SM BKN010=
KSNA 102326Z 1100/1124 22006KT 5SM HZ FEW250
     FM110700 VRB03KT 3SM BR VCFG SCT005
     FM111600 22006KT 5SM HZ FEW010=
KTVL 102326Z 1100/1124 VRB04KT P6SM BKN180
     FM111100 19010G20KT P6SM SCT050 BKN120
     FM111700 19016G25KT P6SM SCT040 BKN080
     FM112000 20020G35KT P6SM VCSH SCT025 OVC050=

0000016600
392
FTUS41 KWBC 102327
TAF
KCRQ 102326Z 1100/1124 VRB05KT P6SM FEW250
     FM110500 VRB03KT 5SM BR VCFG SCT002
     FM111600 24005KT P6SM FEW250=

00000000