0000011800
153
SAEO31 EETN 101950
METAR EETN 101950Z 35012KT 320V020 9999 OVC010 01/M00 Q0990 
R08/290195 NOSIG=

0000011200
154
SABW31 VGHS 101950
METAR VGHS 101950Z 00000KT 0600 FG BKN006 15/13 Q1014 TEMPO S/VIS
0400M=

0000083200
155
FADL41 EDZF 102100
EDGG GAMET VALID 102100/110300 EDZF-
LANGEN FIR BLW FL150
SECN I
SFC VIS : 23/03 LCA 2000-4000 M BR
          01/03 LCA 0300-0700 M FG S OF N51
MT OBSC : ABV 2500-3000 FT AMSL NE PART
          23/03 ABV 1500 FT AMSL W PART
SIG CLD : 23/03 BKN/OVC 400-800/2000 FT AGL W PART
SIGMET APPLICABLE: AT TIME OF ISSUE NIL
SECN II
PSYS    : 00 H 1022 HPA ALPS STNR NC
WIND/T  : 2000 FT AMSL 230/10KT PS03
          5000 FT AMSL 250/15KT MS02
          FL100        270/30KT MS08
CLD     : FEW/SCT SC 3500-4500 FT AMSL/FL055-FL065
FZLVL   : NEAR SFC AND 3500-4000 FT AMSL N PART
          NEAR SFC AND 5000-7000 FT AMSL S PART
MNM QNH : 21/23 1015 HPA
          23/01 1015 HPA
          01/03 1015 HPA
CHECK GAFOR (VIS AND CLD BASE), AIRMET AND SIGMET-INFORMATION

0000004600
156
SAMX31 KWBC 101945 RRA
NIL=

0000010000
157
SALT32 EYVI 101950
METAR EYKA 101950Z 28018KT 9999 OVC016 03/00 Q0996 R08/290095=

0000008900
158
SABZ24 SBFI 102000
METAR SBFI 102000Z 32004KT 9999 SCT040 32/24 Q1009=

0000011000
159
UANT99 KDDL 110508
ARP KLM678 5650N01901W 0508 F410 MS50 240/61 KT
PHAOK QXT AOE 110508 J17A
0000041600
160
SAFI34 EFHK 101950
EFET 101950Z AUTO 04003KT 9999 -SHSN FEW249 M30/M33 Q1013=
EFIV 101950Z AUTO 24003KT 9999 -IC OVC005 M32/M35 Q1016=
EFKE 101950Z 02015KT 6000 -SG OVC054 M13/M15 Q1007=
EFKI 101950Z 06013KT 9999 -SN BKN022 BKN032 M10/M12 Q0999=
EFKS 101950Z 04007KT 350V110 9999 -SG FEW015 SCT017 BKN053 M16/M18
Q1005 R12/72//95=
EFKT 101950Z AUTO 02008KT 350V060 CAVOK M19/M21 Q1012=

0000010700
161
SAUK33 EGGY 101950 RRA
METAR EGNS 101950Z 32004KT 290V350 9999 FEW035 07/05 Q1007 NOSIG=

0000033400
162
SASW39 LSSW 101950 RRA
METAR LSMD 101950Z AUTO 00000KT 0350NDV R11/0350V0650D
           R29/0900VP2000U FG FEW007 03/03 Q1020 RMK RED=
METAR LSME 101950Z AUTO 00000KT 0500NDV R04/0600N R22/0650V0800D FG
           FEW007 01/01 Q1020 RMK RED=
METAR LSMP 101950Z AUTO VRB01KT 9999NDV NCD 02/01 Q1019 RMK BLU=

0000083500
163
SAMX42 MMGL 101956
METAR MMAS 101941Z 23013KT 10SM  FEW050 20/M03 A3017 RMK 8/100=
METAR MMEP 101948Z 18007KT 12SM  SKC 27/09 A3006=
METAR MMGL 101946Z 00000KT 10SM  BKN080 23/02 A3011 RMK 8/030 CI=
METAR MMIA 101944Z 23006KT 8SM  SCT030 BKN230 26/09 A3000 
      RMK 8/109 RTS=
METAR MMLO 101944Z 24012KT 10SM  SCT030 SCT220 22/02 A3015 RMK 8/502=
METAR MMMM 101945Z 21006KT 8SM  BKN030 BKN230 21/06 A3015 RMK 8/108=
METAR MMPN 101950Z 15007KT 15SM  SCT040TCU SCT100 BKN230 22/11 A3015 
      RMK 8/279 HZY=
METAR MMPR 101946Z 19005KT 15SM  SKC 26/16 A2993 RMK AC/SSW=
METAR MMSP 101942Z 23014KT 15SM  SCT025 21/M04 A3012 RMK 8/500 AC
ISOL=
METAR MMZC 101945Z 25016G31KT 10SM  FEW040 19/M01 A3016 RMK 8/100=
METAR MMZO 101945Z 13010KT 8SM  SCT025 BKN250 27/21 A2985 
      RMK 8/109 HZY=

0000033700
164
SANL31 EHDB 101955
METAR EHAM 101955Z 21015KT 9000 FEW009 BKN012 07/05 Q1014 NOSIG=
METAR EHBK 101955Z AUTO 21009KT 9999 NSC 04/02 Q1017 BECMG SCT015=
METAR EHGG 101955Z AUTO 21009KT 9999 SCT010 05/04 Q1013 NOSIG=
METAR EHRD 101955Z AUTO 20011KT 160V240 8000 FEW009 BKN010 OVC013
06/05 Q1015 TEMPO 9000 BKN011=

0000031300
165
FTUS31 KWBC 101957 AAA
TAF AMD
KATL 101955Z 1020/1124 08008KT 1SM -DZ BR OVC002
     FM110100 11008KT 1/2SM -RADZ FG OVC002
     FM110900 16009KT 1SM -RADZ BR OVC003
     FM111400 20009G18KT 2SM -SHRA OVC006
     FM111900 27013G22KT P6SM BKN025
     FM112100 27014G23KT P6SM SCT035=

0000031300
166
FTUS72 KWBC 101957 AAA
TAF AMD
KATL 101955Z 1020/1124 08008KT 1SM -DZ BR OVC002
     FM110100 11008KT 1/2SM -RADZ FG OVC002
     FM110900 16009KT 1SM -RADZ BR OVC003
     FM111400 20009G18KT 2SM -SHRA OVC006
     FM111900 27013G22KT P6SM BKN025
     FM112100 27014G23KT P6SM SCT035=

0000009700
167
SPAU32 AMMC 101956
SPECI YMAV 101957Z AUTO 27007KT 9999 // OVC013 16/13 Q1018=

0000022200
168
SPUS70 KWBC 101956
SPECI
KINT 101952Z 01005KT 1 3/4SM -RA BR OVC003 03/03 A3024 RMK AO2
     P0008=
KUIN 101952Z AUTO 18008KT 4SM -RA BR OVC005 03/03 A2965 RMK AO2
     LTG DSNT N TSB05E32 P0025=

0000010100
169
SPUS41 KWBC 101956
SPECI
KINT 101952Z 01005KT 1 3/4SM -RA BR OVC003 03/03 A3024=

0000009500
170
SPUS42 KWBC 101956
SPECI
KSHV 101940Z COR 18014KT 10SM SCT012 17/14 A2981=

0000008900
171
SABZ21 SBAR 102000
METAR SBAR 102000Z 11014KT 9999 SCT018 28/22 Q1011=

0000058200
172
SAGR32 LGAT 101950
METAR LGAL 101950Z 34006KT 9999 FEW020 SCT200 08/06 Q1020=
METAR LGEL 101950Z 00000KT CAVOK 09/07 Q1019=
METAR LGIO 101950Z AUTO VRB01KT //// // ////// 06/05 Q1022
     RE//=
METAR LGKV 101950Z NIL=
METAR LGMT 101950Z /////KT 9999 FEW020 13/09 Q1020 RMK R32 14006KT=
METAR LGPZ 101950Z AUTO VRB02KT //// // ////// 11/10 Q1023
     RE//=
METAR LGRX 101950Z 00000KT 9999 BKN040 09/08 Q1022 NOSIG=
METAR LGSK 101950Z NIL=
METAR LGSR 101950Z AUTO 20006KT 120V310 //// // //////
     15/10 Q1020 RE//=
METAR LGZA 101950Z NIL=

00000000