0000083700
753
FTUS52 KWBC 101727
TAF
KBHB 101726Z 1018/1118 24010KT 6SM -SN OVC025
     FM110000 25006KT P6SM BKN050
     FM111100 19008KT P6SM OVC025
     FM111300 18013G21KT P6SM OVC015 WS020/19040KT
     FM111400 18015G25KT 5SM -RA OVC010 WS020/20050KT
     FM111600 18018G30KT 2SM -RA BR OVC005 WS020/20050KT AMD LTD
      TO
      CLD VIS AND WIND=
KFVE 101726Z 1018/1118 19006KT P6SM SCT120 BKN220
     FM110800 VRB03KT P6SM OVC090
     FM111300 17005KT P6SM OVC045
     FM111500 16007KT 5SM -SNPL OVC020
     FM111700 15009KT 3SM -FZRAPL OVC015=
KPQI 101726Z 1018/1118 20005KT P6SM BKN120
     FM110800 VRB03KT P6SM OVC090
     FM111300 16005KT P6SM OVC045
     FM111500 16008KT 5SM -FZRASNPL OVC030
     FM111700 16009G16KT 3SM -FZRA BR OVC015 AMD LTD TO CLD VIS
      AND
      WIND=

0000110900
754
FTUS53 KWBC 101727
TAF
KBWG 101724Z 1018/1118 17008KT P6SM OVC008
     FM110200 19014G22KT 4SM -SHRA BR OVC010
     FM111300 24012G18KT P6SM SCT020 BKN150=
KFSD 101724Z 1018/1118 19008KT 1 1/2SM BR OVC004
     FM101900 21005KT 3SM BR OVC005
     FM102030 24003KT 5SM BR FEW007 SCT015 BKN200
     FM102300 28007KT P6SM SCT015 SCT100
     FM110100 29008KT P6SM SKC
     FM111600 30013G19KT P6SM SCT050=
KHON 101724Z 1018/1118 23005KT P6SM FEW090 BKN200
     FM102100 29008KT P6SM SKC=
KSDF 101724Z 1018/1124 16006KT P6SM OVC008
      TEMPO 1019/1022 SCT008 BKN050
     FM110200 18011G21KT 5SM -SHRA BR OVC010
     FM111400 25015G22KT P6SM SCT010 BKN040=
KSUX 101724Z 1018/1118 17011KT 2SM BR OVC006
     FM101930 24006KT 3SM -SN BR SCT004 OVC008
      TEMPO 1021/1023 1 1/2SM -SN BR BKN006
     FM102300 29008KT 4SM BR BKN015 BKN080
     FM110100 30009KT P6SM SKC
     FM111600 31015G20KT P6SM SCT050=
KYNG 101724Z 1018/1118 16008KT 4SM BR BKN006 OVC020
     FM110500 16012KT 2SM -RA BR OVC005 WS015/19040KT
     FM111700 22009KT 2SM BR OVC004=

0000133800
755
FTUS80 KWBC 101727
TAF
KAND 101724Z 1018/1118 04006KT 5SM -RA BR OVC006
     FM110000 03005KT 3/4SM -RA BR OVC003
     FM110600 04003KT 2SM SHRA BR OVC004 WS020/20030KT
     FM111500 14005KT 4SM SHRA BR OVC005 WS020/20045KT=
KAVL 101724Z 1018/1118 15004KT 3SM -RA BR OVC004
     FM110000 16006KT 3/4SM -SHRA BR OVC004
     FM110600 16007KT 1SM SHRA BR OVC003 WS020/20035KT
     FM111200 16007KT 2SM SHRA BR OVC008 WS020/20045KT
     FM111700 20008KT 5SM -SHRA OVC008=
KBGR 101726Z 1018/1118 23006KT P6SM OVC045
     FM102300 00000KT P6SM BKN060
     FM111300 18006KT P6SM OVC025
     FM111500 17010G18KT 6SM -RA OVC015
     FM111700 17015G25KT 3SM -RA BR OVC008 WS020/34040KT=
KBHB 101726Z 1018/1118 24010KT 6SM -SN OVC025
     FM110000 25006KT P6SM BKN050
     FM111100 19008KT P6SM OVC025
     FM111300 18013G21KT P6SM OVC015 WS020/19040KT
     FM111400 18015G25KT 5SM -RA OVC010 WS020/20050KT
     FM111600 18018G30KT 2SM -RA BR OVC005 WS020/20050KT AMD LTD
      TO
      CLD VIS AND WIND=
KBWG 101724Z 1018/1118 17008KT P6SM OVC008
     FM110200 19014G22KT 4SM -SHRA BR OVC010
     FM111300 24012G18KT P6SM SCT020 BKN150=
KCAK 101724Z 1018/1118 17008KT 1/2SM FG VV001
     FM110500 16012KT 2SM -RA BR OVC005 WS015/19045KT
     FM111700 22009KT 2SM BR OVC004=

0000145900
756
FTUS80 KWBC 101727 RRA
TAF
KCAR 101726Z 1018/1118 20005KT P6SM SCT120 BKN220
     FM110800 VRB03KT P6SM OVC090
     FM111300 16005KT P6SM OVC045
     FM111500 16007KT 5SM -FZRAPLSN OVC030
     FM111700 16009G16KT 3SM -FZRA BR OVC015=
KCLE 101724Z 1018/1124 17008KT P6SM OVC012
     FM110300 16014KT 3SM -RA BR OVC010 WS015/19045KT
     FM111600 22008KT 2SM BR OVC006
     FM112100 25016G22KT 5SM BR OVC008=
KCLT 101724Z 1018/1118 02008KT 4SM -RA BR OVC003
     FM102200 04006KT 2SM -DZ OVC003
     FM110300 03003KT 3/4SM -SHRA BR OVC003 WS020/20035KT
     FM110800 14004KT 3SM SHRA BR OVC004 WS020/20035KT
     FM111400 18010KT 4SM SHRA BR OVC005 WS020/20040KT=
KERI 101724Z 1018/1118 18011KT P6SM OVC025
     FM110500 17015G25KT 4SM -RA BR BKN015 OVC030=
KFDY 101724Z 1018/1118 17007KT 5SM BR BKN005 OVC025
     FM110200 16012KT 2SM -RA BR OVC005 WS015/19045KT
     FM111400 23006KT 2SM BR OVC005
     FM111700 26014KT 5SM BR OVC008=
KFSD 101724Z 1018/1118 19008KT 1 1/2SM BR OVC004
     FM101900 21005KT 3SM BR OVC005
     FM102030 24003KT 5SM BR FEW007 SCT015 BKN200
     FM102300 28007KT P6SM SCT015 SCT100
     FM110100 29008KT P6SM SKC
     FM111600 30013G19KT P6SM SCT050=
KFVE 101726Z 1018/1118 19006KT P6SM SCT120 BKN220
     FM110800 VRB03KT P6SM OVC090
     FM111300 17005KT P6SM OVC045
     FM111500 16007KT 5SM -SNPL OVC020
     FM111700 15009KT 3SM -FZRAPL OVC015=

0000131900
757
FTUS80 KWBC 101727 RRB
TAF
KGMU 101724Z 1018/1118 03006KT 3SM -RA BR OVC005
     FM110000 03005KT 3/4SM -RA BR OVC003
     FM110600 04003KT 2SM SHRA BR OVC004 WS020/20030KT
     FM111500 14005KT 4SM SHRA BR OVC005 WS020/20045KT=
KGSP 101724Z 1018/1118 03006KT 5SM -RA BR OVC005
     FM110000 03005KT 3/4SM -RA BR OVC003
     FM110600 04003KT 2SM SHRA BR OVC004 WS020/20030KT
     FM111500 14005KT 4SM SHRA BR OVC005 WS020/20045KT=
KHKY 101724Z 1018/1118 03004KT 2SM -RA BR OVC003
     FM110000 05004KT 1/2SM -RADZ FG OVC002
     FM110600 00000KT 3/4SM SHRA BR OVC003 WS020/20030KT
     FM111300 14004KT 3SM SHRA BR OVC003 WS020/20045KT
     FM111700 22011KT 3SM SHRA OVC005=
KHON 101724Z 1018/1118 23005KT P6SM FEW090 BKN200
     FM102100 29008KT P6SM SKC=
KHUL 101726Z 1018/1118 21005KT P6SM BKN100
     FM110800 VRB03KT P6SM OVC080
     FM111200 16005KT P6SM OVC045
     FM111430 17008KT 5SM -FZRAPL OVC030
     FM111600 16009G15KT 3SM -FZRA BR OVC010 WS020/20040KT=
KLEX 101724Z 1018/1118 15008KT P6SM SCT008 OVC025
     FM110300 18014G22KT 5SM -SHRA BR OVC008
     FM111500 24014G22KT P6SM SCT010 BKN040=
KMFD 101724Z 1018/1118 16010KT 1 1/2SM BR OVC003
     FM110300 16014KT 2SM -RA BR OVC005 WS015/19045KT
     FM111500 22008KT 2SM BR OVC004=

0000116100
758
FTUS80 KWBC 101727 RRC
TAF
KPQI 101726Z 1018/1118 20005KT P6SM BKN120
     FM110800 VRB03KT P6SM OVC090
     FM111300 16005KT P6SM OVC045
     FM111500 16008KT 5SM -FZRASNPL OVC030
     FM111700 16009G16KT 3SM -FZRA BR OVC015 AMD LTD TO CLD VIS
      AND
      WIND=
KSDF 101724Z 1018/1124 16006KT P6SM OVC008
      TEMPO 1019/1022 SCT008 BKN050
     FM110200 18011G21KT 5SM -SHRA BR OVC010
     FM111400 25015G22KT P6SM SCT010 BKN040=
TAF KSNY 101722Z 1018/1118 29022G31KT P6SM FEW200
     FM110200 29015KT P6SM BKN250=
KSUX 101724Z 1018/1118 17011KT 2SM BR OVC006
     FM101930 24006KT 3SM -SN BR SCT004 OVC008
      TEMPO 1021/1023 1 1/2SM -SN BR BKN006
     FM102300 29008KT 4SM BR BKN015 BKN080
     FM110100 30009KT P6SM SKC
     FM111600 31015G20KT P6SM SCT050=
KTOL 101724Z 1018/1118 17007KT 6SM BR BKN007 OVC025
     FM110200 16010KT 2SM -RA BR OVC005 WS015/19045KT
     FM111400 23006KT 2SM BR OVC005
     FM111700 26014KT 5SM BR OVC008=
KYNG 101724Z 1018/1118 16008KT 4SM BR BKN006 OVC020
     FM110500 16012KT 2SM -RA BR OVC005 WS015/19040KT
     FM111700 22009KT 2SM BR OVC004=

0000019400
759
FTUS80 KWBC 101727 AAA
TAF AMD
KLNS 101724Z 1017/1112 VRB04KT 2SM -FZDZ OVC008
     FM102100 VRB03KT 3SM BR OVC012
     FM110400 00000KT 2SM -RA BR OVC012 WS020/19045KT=

0000010700
760
SPUS43 KWBC 101727
SPECI
KMKC 101723Z 00000KT 1SM BR SCT005 BKN012 OVC021 03/02 A2967=

0000009800
761
SPUS43 KWBC 101727
SPECI
KLEX 101723Z 15007KT 10SM SCT022 OVC038 09/07 A3013=

0000009900
762
SPUS43 KWBC 101727
SPECI
KSTP 101723Z 15010KT 1 3/4SM BR OVC008 M03/M04 A2974=

0000012400
763
SAAK31 KWBC 101700 RRB
METAR
PAJN 101653Z COR 07007KT 10SM -RA FEW011 BKN030 OVC038 02/01
     A2951=

0000008900
764
FCDL34 EDZO 101700 RRA
TAF EDGS 101700Z 1018/1103 22007KT 9999 BKN035=

0000027700
765
FTDL31 EDZO 101700 RRA
TAF EDDK 101700Z 1018/1124 21005KT 9999 FEW030 BECMG 1018/1021
     14004KT BECMG 1113/1116 28007KT PROB30 TEMPO 1115/1118 RA=
TAF EDDL 101700Z 1018/1124 19007KT 9999 FEW030 BECMG 1113/1116
     27007KT PROB30 TEMPO 1115/1117 RA=

0000017600
766
FTDL32 EDZO 101700 RRA
TAF EDDG 101700Z 1018/1118 21005KT 9999 FEW030 PROB40 TEMPO 1103/1118
     BKN014 BECMG 1113/1116 28008KT PROB30 TEMPO 1115/1118 RA=

0000033400
767
FTDL33 EDZO 101700 RRA
TAF EDLP 101700Z 1018/1118 20007KT 9999 SCT025 BECMG 1116/1118
     27010KT=
TAF EDLV 101700Z 1018/1118 19005KT 9999 FEW030 BECMG 1113/1116
     26010KT PROB30 TEMPO 1115/1117 RA=
TAF EDLW 101700Z 1018/1118 21009KT 9999 FEW030 BECMG 1113/1116
     27007KT PROB30 TEMPO 1115/1117 RA=

0000033400
768
FTDL34 EDZO 101700 RRA
TAF EDLP 101700Z 1018/1118 20007KT 9999 SCT025 BECMG 1116/1118
     27010KT=
TAF EDLV 101700Z 1018/1118 19005KT 9999 FEW030 BECMG 1113/1116
     26010KT PROB30 TEMPO 1115/1117 RA=
TAF EDLW 101700Z 1018/1118 21009KT 9999 FEW030 BECMG 1113/1116
     27007KT PROB30 TEMPO 1115/1117 RA=

0000013100
769
FTAE34 VTBB 101700 RRA
TAF VVCR 101700Z 1018/1118 03008KT 9999 FEW015 SCT060
         BECMG 1101/1102 03014KT=

0000014600
770
FTAM31 FCBB 101700 RRA
TAF FEFF 101700Z 1018/1124 VRB02KT 3000 BR NSC BECMG 1018/1020 CAVOK
         TEMPO 1104/1107 3000 BR=

0000010200
771
SAGQ21 FGSL 101730
METAR FGSL 101730Z 23006KT 6000 FEW013 SCT130 26/24 Q1009 NOSIG=

0000012900
772
SAFG20 SOCA 101730
METAR SOCA 101730Z AUTO 05005KT 9999 -RA FEW043/// SCT052///
OVC066/// ///CB 25/23 Q1010=

00000000