0000008900
173
SABZ42 KWBC 110200 RRA
METAR
SBPK 110200Z 05005KT CAVOK 21/19 Q1010=

0000011200
174
SACA33 KWBC 110200 RRA
METAR
TLPC 110200Z 11010G24 9999 SHRA BKN020 24/21 Q1016 TEMPO SHRA=

0000049200
175
SAJP31 KWBC 110200 RRA
METAR
RJAA 110200Z 32006KT 270V010 9999 FEW030 05/M08 Q1024 NOSIG RMK
     1CU030 A3024=
RJCC 110200Z 13004KT 110V170 9999 -SHSN FEW020 SCT035 BKN050
     M06/M13 Q1018 RMK 1CU020 3CU035 7CU050 A3006=
RJFK 110200Z 35009KT 310V020 9999 FEW035 07/M03 Q1029 RMK 1CU035
     A3040=
RJOO 110200Z VRB02KT 9999 FEW030 05/M06 Q1029 RMK 1CU030 A3039=
RJTT 110200Z 06004KT 030V090 9999 FEW030 05/M05 Q1024 BECMG
     12005KT RMK 1CU030 A3024=

0000008900
176
SASA42 KWBC 110200 RRA
METAR
SCTC 110200Z VRB03KT CAVOK 13/08 Q1020=

0000028100
177
FTUK34 EGGY 110200
TAF EGVN 110146Z 1103/1203 23005KT 9999 BKN030 TEMPO 1103/1105 7000
    -RA BKN012 PROB30 TEMPO 1103/1105 3000 -RADZ SCT006 PROB30 TEMPO
    1106/1109 SCT010 BECMG 1120/1123 6000 BR PROB30 1123/1203 2500
    MIFG=
TAF EGWU 110200Z NIL=

0000200700
178
SPUS70 KWBC 110210
SPECI
KABY 110206Z 00000KT 1/2SM FG VV003 15/14 A3009 RMK AO2=
KFAY 110206Z AUTO 00000KT 1 1/2SM -RA BR FEW006 BKN013 OVC027
     17/16 A3012 RMK AO2 VIS 3/4V2 1/2 P0008=
KFLD 110206Z AUTO 17008KT 7SM RA BKN009 OVC013 02/00 A2951 RMK AO2
     CIG 007V011 P0001 T00170000=
KGWO 110206Z AUTO 17017G27KT 10SM BKN019 OVC075 16/13 A2981 RMK
     AO2 PK WND 18027/0159 T01610133 TSNO=
KMIV 110206Z AUTO 00000KT 1/2SM -RA FG SCT005 OVC039 05/05 A3026
     RMK AO2 RAB05 P0000 T00500050=
KPDK 110206Z 00000KT 1SM BR OVC003 08/07 A3007 RMK AO2 RAE0154=
KRDG 110206Z AUTO 00000KT 3/4SM -RA BR VV003 01/M01 A3025 RMK AO2
     P0001 TSNO RVRNO=
KRHI 110206Z AUTO 08005KT 1 1/4SM -SN BR BKN014 OVC021 M04/M05
     A2951 RMK AO2 P0001 T10391050=
KSGH 110206Z AUTO 15011KT 1 1/4SM BR OVC001 06/06 A2985 RMK
     AO2=
PAMB 110206Z AUTO 05007KT 1SM -SN BR FEW004 OVC010 M04/M04 A2939
     RMK AO2 TSNO P0000 $=
PAOO 110206Z AUTO 04023KT 1 1/4SM -SN BR FEW003 SCT018 BKN022
     M07/M09 A2935 RMK AO2 TSNO BKN V SCT P0000 PK WND 04027/0206
     $=
KCEW 110207Z AUTO 15004KT 1 3/4SM BR OVC002 17/17 A3003 RMK AO2
     T01720167=
KCRE 110207Z 15003KT 2 1/2SM -RA BR SCT003 BKN014 OVC030 17/16
     A3015 RMK AO2 RAB0159 P0000=
KEET 110207Z AUTO 13005KT 1 1/2SM BR OVC002 11/11 A2999 RMK AO2
     T01110111=
KGRD 110207Z AUTO 04003KT 2 1/2SM BR OVC002 08/07 A3013 RMK AO2
     RAE04 P0001=
KMVY 110207Z AUTO 00000KT 10SM SCT010 OVC029 06/04 A3034 RMK AO2
     $=
KOKB 110207Z AUTO 00000KT 2SM BR CLR 13/11 A3006 RMK AO2 TSNO=
KPSF 110207Z AUTO 00000KT 3SM BR OVC008 M01/M02 A3024 RMK AO2 CIG
     007V012=
KSPI 110207Z 18018G25KT 10SM OVC004 05/05 A2959 RMK AO2=
KSPW 110207Z AUTO 28007KT 3SM BR OVC005 M01/M02 A2953 RMK AO2 CIG
     004V008 T10061017=
KSTL 110207Z 22010KT 10SM BKN009 OVC085 08/06 A2960 RMK AO2=
KTVC 110207Z VRB06KT 6SM -RA BR SCT010 SCT014 OVC050 02/00 A2962
     RMK AO2 P0001 T00170000 $=

0000014400
179
SAUK39 EGGY 110200
METAR EGUN 110158Z AUTO 21010KT 9999 -RA FEW025 OVC039 07/07 A2985
      RMK AO2 SLP112 P0002 T00740074=

0000008900
180
FCTU33 LTAA 110200 RRA
TAF LTBZ 110140Z 1103/1112 VRB02KT 9999 OVC006=

0000009300
181
SPUS42 KWBC 110210
SPECI
KPDK 110206Z 00000KT 1SM BR OVC003 08/07 A3007=

0000009800
182
SPUS31 KWBC 110211
SPECI
KSTL 110207Z 22010KT 10SM BKN009 OVC085 08/06 A2960=

0000010400
183
SPUS43 KWBC 110211
SPECI
KTOL 110207Z 14004KT 2SM +RA BR FEW002 OVC005 03/03 A2983=

0000013900
184
SPMG20 FMMI 110210
SPECI FMMI 110210Z 30005KT 1500W R11/1300V1500 PRFG FEW007 SCT020
BKN230 17/17 Q1021 TEMPO 1500 BR=

0000083000
185
SAAG31 KWBC 110200
METAR
SAAG NIL=
SAAP NIL=
SAAR 110200Z 18009KT 9999 TS BKN035 FEW045CB OVC100 25/23
     Q1010=
SABE 110200Z 32011KT CAVOK 26/17 Q1010=
SACO 110200Z 14015KT 9999 FEW025 BKN100 25/19 Q1015=
SADD NIL=
SAEZ 110200Z 23006KT 190V260 CAVOK 23/15 Q1010=
SAME 110200Z 23003KT 9999 VCTS FEW045 FEW050CB 27/06 Q1014=
SARC 110200Z 05007KT 9999 FEW050CB BKN200 29/23 Q1006=
SARE 110200Z 05005KT 8000 NSC 29/25 Q1006=
SARF 110200Z 05007KT CAVOK 30/23 Q1007=
SARI 110200Z 05004KT CAVOK 27/24 Q1013=
SARP 110200Z 09004KT CAVOK 27/23 Q1011=
SASA 110200Z 02006KT 9999 BKN020 FEW045CB BKN100 23/16 Q1013=
SASJ 110200Z NIL=
SAWE 110200Z NIL=
SAWG 110200Z 25005KT 9999 -RA OVC040 08/07 Q1012=
SAZM 110200Z 23008KT CAVOK 17/12 Q1014=
SAZS 110200Z 27010KT CAVOK 14/04 Q1021=

0000030700
186
SAAG41 KWBC 110200
METAR
SAAC NIL=
SAAV NIL=
SAGS NIL=
SANE NIL=
SANT 110200Z 00000KT 8000 TS FEW040 SCT050CB OVC100 29/22
     Q1007=
SANU NIL=
SAOR NIL=
SARL 110200Z NIL=
SATM NIL=
SAVC 110200Z 25004KT CAVOK 14/07 Q1014=
SAVT NIL=
SAZB NIL=
SAZN 110200Z NIL=

0000016000
187
SACA33 KWBC 110200 RRB
METAR
TLPL 110200Z 08019KT 9999 FEW022 25/21 Q1016 NOSIG=
TNCM 110200Z 07012KT 9999 SCT019 25/20 Q1019 A3009 RERA=

0000014100
188
SAJP41 KWBC 110200 RRA
METAR
RJAW 110200Z 06012KT 020V080 9999 FEW020 BKN030 19/06 Q1022 RMK
     1CU020 7CU030 A3021=

0000065500
189
SAPR41 KWBC 110200
METAR
SPCL 110200Z 06003KT 030V100 9999 FEW017 SCT100 26/24 Q1010 RMK
     PP000=
SPEC NIL=
SPEI NIL=
SPEO NIL=
SPGM NIL=
SPHI 110200Z 17010KT CAVOK 23/21 Q1011 RMK PP000=
SPHO NIL=
SPHY NIL=
SPJA NIL=
SPJI NIL=
SPJL 110200Z VRB01KT 9999 SCT020 10/07 Q1035 RMK PP000=
SPJN NIL=
SPJR NIL=
SPME 110200Z VRB02KT 9999 FEW012 BKN027 25/24 Q1011 RMK BIRD
     HAZARD RWY 32/14 PP000=
SPMS NIL=
SPNC NIL=
SPPY NIL=
SPRU 110200Z 15007KT 9000 OVC027 22/20 Q1011 RMK BR PP000=
SPST 110200Z 01006KT 9999 SCT020 25/20 Q1009 RMK BIRD HAZARD RWY
     17/35 PP000=
SPTU NIL=
SPUR NIL=

0000006700
190
SASA41 KWBC 110200 RRA
METAR
SKMD 110200Z NIL=

0000048700
191
FTUS42 KWBC 110212 AAA
TAF AMD
KGPT 110209Z 1102/1124 12010KT 1/2SM FG VV002
      TEMPO 1102/1104 1/2SM FG
     FM110600 15010KT 1SM BR OVC002
      TEMPO 1106/1110 TSRA OVC002CB
     FM111000 19010KT 5SM BR OVC003
     FM111500 30010G18KT P6SM SKC=
KNEW 110211Z 1102/1124 11010KT 1SM BR OVC002
      TEMPO 1105/1109 2SM TSRA OVC006CB
     FM110900 22015KT 3SM -RA BR OVC002
     FM111200 27013KT 2SM BR OVC003
     FM111600 30012KT P6SM SCT250=

0000048700
192
FTUS72 KWBC 110212 AAA
TAF AMD
KGPT 110209Z 1102/1124 12010KT 1/2SM FG VV002
      TEMPO 1102/1104 1/2SM FG
     FM110600 15010KT 1SM BR OVC002
      TEMPO 1106/1110 TSRA OVC002CB
     FM111000 19010KT 5SM BR OVC003
     FM111500 30010G18KT P6SM SKC=
KNEW 110211Z 1102/1124 11010KT 1SM BR OVC002
      TEMPO 1105/1109 2SM TSRA OVC006CB
     FM110900 22015KT 3SM -RA BR OVC002
     FM111200 27013KT 2SM BR OVC003
     FM111600 30012KT P6SM SCT250=

00000000