0000013200
053
SAPA31 KWBC 101900 RRE
METAR
PKWA 101940Z AUTO 06019KT 10SM SCT024 SCT041 27/21 A2981 RMK AO2
     T02710214=

0000010600
054
SPUS41 KWBC 101947
SPECI
KPSM 101943Z 21004KT 7SM FEW009 SCT018 OVC023 M01/M01 A3037=

0000009700
055
SPUS42 KWBC 101947
SPECI
KNEW 101943Z 12009KT 8SM SCT006 OVC040 14/12 A2999=

0000009700
056
SAMX55 MMIO 102000
METAR MMIO 101940Z 26008KT 10SM SKC 27/14 A3006 RMK PRESFR=

0000009800
057
SPCN49 CWAO 101946
SPECI CYLU 101946Z 24010G15KT 1/8SM -SN +BLSN VV001 RMK SN8=

0000023300
058
FTUS31 KWBC 101948 AAA
TAF AMD
KORF 101945Z 1020/1118 05007KT 5SM -RA BR OVC035
      TEMPO 1020/1022 2SM -RA BR BKN004
     FM110000 16008KT 5SM BR BKN025 OVC040
     FM111100 19015G22KT 4SM -RA BR OVC012=

0000023300
059
FTUS71 KWBC 101948 AAA
TAF AMD
KORF 101945Z 1020/1118 05007KT 5SM -RA BR OVC035
      TEMPO 1020/1022 2SM -RA BR BKN004
     FM110000 16008KT 5SM BR BKN025 OVC040
     FM111100 19015G22KT 4SM -RA BR OVC012=

0000009500
060
SAUS71 KWBC 101900 RRG
METAR
KSWF 101945Z 00000KT 7SM OVC015 00/M02 A3036=

0000015100
061
SAES20 MSLP 102000
METAR MSLP 101950Z 17008KT 150V210 CAVOK 32/18 Q1009 A2980=
METAR MSSS 101950Z 08003KT CAVOK 31/17 Q1013 A2994=

0000008600
062
SAIN90 VAUD 111000
METAR VAUD 111000Z 06007KT 3000 HZ NSC 18/04 Q1018=
0000010200
063
SAAB31 LATI 101950
METAR LATI 101950Z 18002KT 7000 FEW030 BKN060 12/08 Q1022 NOSIG=

0000008800
064
SPCN48 CWAO 101945
SPECI CYOY 101945Z AUTO 22004KT 3SM M09/M12 A3026=

0000018000
065
FTSP36 LEMM 101400 AAB
TAF AMD LEIB 101944Z 1019/1115 06008KT 9999 FEW012 TX17/1113Z
TN08/1106Z TEMPO 1019/1109 BKN010 PROB30 TEMPO 1104/1109
4000 BR BKN008=

0000024700
066
FTMX42 KWBC 101945 CCA
TAF COR
TAF COR MMZC 101943Z 1018/1124 24020G30KT P6SM SCT200 TX21/1021Z
      TN03/1112Z
      BECMG 1100/1101 24010G20KT
     FM110300 20010KT P6SM SKC
     FM111700 15015KT P6SM SCT030 BKN080=

0000060400
067
FTUS80 KWBC 101945 AAA
TAF AMD
KELP 101942Z 1020/1118 26020G30KT P6SM SKC
     FM110200 28009KT P6SM SKC=
KJAX 101944Z 1020/1118 14010KT P6SM VCSH SCT015 SCT025 BKN040
      TEMPO 1020/1024 BKN025
     FM110200 14005KT 5SM BR BKN010 BKN020
     FM110600 15005KT 2SM BR BKN005 OVC010
     FM111400 19012G18KT P6SM VCSH BKN015 OVC025=
KTOL 101942Z 1020/1118 17007KT 6SM BR BKN005 OVC035
      TEMPO 1020/1024 5SM BR SCT005 OVC035
     FM110200 16010KT 2SM -RA BR BKN005 OVC035 WS015/19045KT
     FM111400 23006KT 2SM BR OVC005
     FM111700 26014KT 5SM BR OVC008=

0000009300
068
SPUS43 KWBC 101945
SPECI
KMDW 101941Z 16004KT 2SM BR OVC007 03/02 A2981=

0000009300
069
SPUS43 KWBC 101945
SPECI
KOMA 101941Z 17006KT 2SM BR OVC006 01/00 A2957=

0000013800
070
FTCN36 CWAO 101900 AAA
TAF AMD CYHA 101945Z 1019/1022 27015KT P6SM FEW020
    RMK NXT FCST WILL BE ISSUED AT 111445Z=

0000011800
071
SPUS31 KWBC 101943
SPECI
KEWR 101939Z 04004KT 1SM R04R/6000VP6000FT -DZ BR OVC005 01/M01
A3038=

0000010000
072
SPUS31 KWBC 101943
SPECI
KMSY 101939Z 13008KT 4SM HZ SCT007 OVC045 18/15 A2998=

00000000