0000007700
793
FCSW31 LSSW 101400 AAA
TAF AMD LSGS 101901Z 1019/1024 CNL=

0000010600
794
SACN62 CYXU 101900
METAR CYXU 101900Z 18010KT 6SM BR OVC007 01/00 A3008 RMK SC8 SLP200=

0000011800
795
SAFG20 SOCA 101900
METAR SOCA 101900Z AUTO 18007KT 140V220 9999 FEW007 BKN070 OVC080
25/23 Q1009=

0000012300
796
SAEQ01 SEQU 101900 CCA
METAR COR SEGU 101900Z 24005KT 9999 SCT040 BKN100 31/20 Q1009 RMK 
A2979 NOSIG=

0000010200
797
SAAT31 TAPA 101900
METAR TAPA 101900Z 08013KT 9999 FEW020 SCT036 27/19 Q1016 NOSIG=

0000008900
798
SABZ24 SBCT 101900
METAR SBCT 101900Z 28008KT 9999 SCT045 31/11 Q1015=

0000010100
799
SABZ24 SBPP 101900
METAR SBPP 101900Z 36006KT 9999 BKN025 FEW030TCU
30/20 Q1012=

0000010300
800
SAGQ20 FGSL 101900
METAR FGSL 101900Z 21005KT 6000 FEW013 25/24 Q1011 TEMPO 4000 HZ=

0000011300
801
SACN61 CYZY 101900
METAR CYZY 101900Z AUTO 14005KT 9SM CLR M06/M06 A2962 RMK PRESRR
 SLP071=

0000010200
802
SAPF20 NTAA 101900
METAR NTAA 101900Z 26004KT 9999 FEW020 SCT150 29/22 Q1013 NOSIG=

0000011200
803
SACN62 CYYT 101900
METAR CYYT 101900Z 26017G25KT 15SM SCT028 M06/M12 A3016 RMK SC4
 SLP223=

0000007700
804
FCSW31 LSSW 101400 AAB
TAF AMD LSGC 101901Z 1019/1024 CNL=

0000018200
805
SANL32 EHDB 101855
METAR EHEH 101855Z AUTO 22009KT 9999 OVC012 06/04 Q1016 
GRN 22008KT BKN011=
METAR EHKD 101855Z AUTO 22011KT 9999 FEW190 07/06 Q1013 
BLU=

0000038800
806
SAMX31 KWBC 101845 RRC
METAR
MMAA 101843Z 19005KT 8SM SKC 31/20 A2989=
MMMX 101844Z 19010KT 12SM BKN025 BKN200 19/03 A3025 NOSIG RMK
     8/104 ISOL TCU=
MMMZ 101842Z 17007KT 15SM FEW210 24/13 A2994 RMK 8/002=
MMTM 101849Z 16009KT 5SM SCT020 BKN200 25/17 A2992 RMK 8/501
     HZY=
MMVR 101844Z 17008KT 7SM SKC 28/16 A2991 RMK HZY DSNT TCU 3,4
     QUAD=

0000011500
807
SAPR01 SPIM 101900
METAR SPIM 101900Z 18011KT 9999 SCT009 SCT170 24/19 Q1010 NOSIG RMK 
PP000=

0000009800
808
SABZ19 SBMQ 101900
METAR SBMQ 101900Z 28004KT 9999 SCT013 BKN100 30/22
Q1011=

0000010100
809
SABZ22 SBBR 101900
METAR SBBR 101900Z 05009KT 9999 SCT040 FEW045TCU
29/13 Q1014=

0000023000
810
FTFR34 LFPW 101700 AAA
TAF AMD LFBT 101857Z 1018/1118 VRB02KT CAVOK BECMG 1023/1102 28010KT
4000 BR BKN008 PROB30 TEMPO 1103/1106 0500 FG VV/// BECMG 1107/1109
VRB02KT 8000 NSW BKN013 BECMG 1112/1115 BKN020=

0000010100
811
SABZ24 SBFL 101900
METAR SBFL 101900Z 36007KT 9999 FEW030 FEW035TCU
30/23 Q1009=

0000010100
812
SABR31 TBPB 101900
METAR TBPB 101900Z 06017KT 9999 -SHRA SCT018 26/18 Q1013 NOSIG=

00000000