0000016300
913
SSVX13 LFPW 111000
ZZYY 13595 11014 1000/ 730277 019466 6113/ 22219 00199 33300 88872
 20000 43682 444 20130 11014 1000/ 50101 80108 80027 9/015=
0000015700
914
SSVX13 LFPW 111000
ZZYY 62684 11014 1000/ 174686 004825 6113/ 11119 40163 52008 22219
 00010 444 20130 11014 1000/ 50101 80076 80003 9/015=
0000039800
915
SAPL31 EPWA 101900
METAR EPGD 101900Z 29013KT 9999 BKN015 05/03 Q1003 =
METAR EPKK 101900Z 24017KT 9999 BKN060 05/00 Q1015 =
METAR EPLL 101900Z 26017KT 9999 BKN030 BKN042 06/01
    Q1011 =
METAR EPPO 101900Z 26016KT 9999 BKN030 06/01 Q1011
    R10/19//95 =
METAR EPRZ 101900Z 27017KT CAVOK 06/M00 Q1013 =
METAR EPWA 101900Z 26023G36KT 9999 BKN023 06/02 Q1008 NOSIG=

0000045300
916
SAPL32 EPWA 101900
METAR EPBY 101900Z 26016KT 9999 BKN025 BKN037 06/03
    Q1008 =
METAR EPKT 101900Z 24014KT 9999 SCT045 05/M01 Q1015 =
METAR EPLB 101900Z 25019G29KT 9999 BKN033 06/02 Q1007 =
METAR EPMO 101900Z 26020KT 9999 SCT030 06/03 Q1007 =
METAR EPSC 101900Z 26011KT 9999 -SHRA SCT019CB BKN040
    05/03 Q1010 =
METAR EPWR 101900Z 26011KT 9999 BKN048 07/M01 Q1015 =
METAR EPZG 101900Z 24009KT CAVOK 07/01 Q1013 =

0000050800
917
SAYG31 LYBM 101900
METAR LYBE 101900Z 14002KT 6000 NSC 07/06 Q1022 NOSIG=
METAR LYBT 101900Z 21001KT 5000 BR NSC 06/06 Q1023 NOSIG=
METAR LYKV 101900Z VRB01KT 9999 BKN033 07/00 Q1022 NOSIG=
METAR LYNI 101900Z 33007KT CAVOK 08/02 Q1022 NOSIG=
METAR LYPG 101900Z VRB01KT 9999 SCT090 07/07 Q1022 NOSIG=
METAR LYPR 101900Z NIL=
METAR LYTV 101900Z VRB01KT CAVOK 08/07 Q1021=
METAR LYUZ 101900Z VRB02KT 8000 BKN020 04/03 Q1021=
METAR LYVR 101900Z 20003KT CAVOK 05/01 Q1022 NOSIG=

0000036100
918
SAIL31 BICC 101900
METAR BIAR 101900Z 32005KT 260V050 9999 BKN030 03/M02 Q0995=
METAR BIEG 101900Z 10028G43KT 9999 -RASN SCT013 BKN035 BKN060 01/M01
Q0996 RMK
R04/790131 RWY SANDED=
METAR BIKF 101900Z 26014KT 9999 VCSH FEW017 SCT023 BKN031 02/01 
Q0990=
METAR BIRK 101900Z 26008KT 9999 RASN FEW012 SCT018 OVC030 01/00
    Q0990=

0000012900
919
SACN62 CYLL 101900
METAR CYLL 101900Z 26011KT 15SM FEW050 BKN075 BKN250 M07/M07 A2938
 RMK SC1AC5CI1 SLP990=

0000011200
920
SACN61 CYMO 101900
METAR CYMO 101900Z AUTO 22011G18KT 9SM OVC015 M03/M05 A2978 RMK
 SLP086=

0000011300
921
SACN61 CYMM 101900
METAR CYMM 101900Z AUTO 32004KT 3SM -SN OVC020 M12/M14 A2941 RMK
 SLP991=

0000011900
922
SACN62 CYMH 101900
METAR CYMH 101900Z 26004KT 15SM SCT100 BKN250 M11/M21 A2987 RMK
 AC3CI3 SLP117=

0000016400
923
SACN62 CYOC 101900
METAR CYOC 101900Z 00000KT 20SM IC VCFG FEW018 FEW034 FEW080 M40/M44
 A2970 RMK ST1SC1AC1 AC TR FROIN VIS NE-E 1 W 2 SLP107=

0000010200
924
SABZ19 SBOI 101900
METAR SBOI 101900Z 18004KT 3000 -RA FEW010 OVC100
24/22 Q1010=

0000104300
925
SAPR76 SPIM 101900
METAR SPCL 101900Z 34007KT 9999 BKN020 SCT100 29/23 Q1009 RMK 
BIRD HAZARD RWY 02/20 PP000=
METAR SPGM 101900Z /////KT 9999 SCT020 OVC080 24/21 Q1012
RMK PP000=
METAR SPHO 101900Z 04007KT 9999 FEW046TCU BKN110 23/13 Q1019 RMK
PP000=
METAR SPHY 101900Z 30006KT 9000 SCT012 SCT040 16/13 Q1029 RMK PP000=
METAR SPJI 101900Z 00000KT 9999 BKN030 32/25 Q1016 RMK PP000=
METAR SPJL 101900Z 06010KT 9999 FEW010 BKN080 12/08 Q1033 RMK PP000=
METAR SPJR 101900Z 21003KT 9999 SCT025 BKN040 20/11 Q1024 RMK PP000=
METAR SPLO 101900Z 17007KT CAVOK 26/20 Q1008 RMK PP000=
METAR SPME 101900Z 32008KT 9999 FEW020 28/21 Q1008
RMK BIRD HAZARD RWY 32/14 PP000=
METAR SPMS 101900Z /////KT 9999 SCT017 SCT080 30/24 Q1009 RMK
BIRD HAZARD 09/27 PP000=
METAR SPST 101900Z 35012KT 9999 SCT020 SCT100 32/22 Q1007 
RMK BIRD HAZARD RWY 17/35 PP000=
METAR SPTU 101900Z 36004KT 9999 SCT010 BKN040 30/25 Q1007 RMK BIRD
HAZARD RWY 01/19 PP000=
METAR SPYL 101900Z 19012KT CAVOK 32/22 Q1009 RMK PP000=

0000033400
926
SAEQ01 SEQU 101900
METAR SEQM 101900Z 33009KT 300V360 9999 VCSH BKN026TCU BKN080 19/11 
    Q1022 RMK A3018 TEMPO -RA=
METAR SEGU 101900Z 24005KT 9999 SCT026 BKN100 31/20 Q1009 RMK 
A2979 NOSIG=
METAR SEMT 101900Z 19008KT 9999 OVC020 28/22 Q1009=
METAR SELT 101900Z 18008KT 9999 BKN030 BKN100 21/09 Q1025=

0000046300
927
FTUS31 KWBC 101900 AAA
TAF AMD
KJFK 101858Z 1019/1124 VRB04KT 4SM BR SCT008 OVC015
      TEMPO 1020/1024 2SM -DZ BR BKN008
     FM110000 VRB04KT 3SM BR BKN008 OVC015
      TEMPO 1102/1105 -RA BKN008 OVC015
     FM110500 16008KT 3SM -RA BR BKN006 OVC015 WS020/19040KT
     FM110800 15011KT 1SM -RA BR OVC004 WS020/19055KT
     FM111400 17018KT 1SM -RA BR OVC004 WS015/19060KT
     FM111900 18023G30KT 1SM RA OVC004 WS015/19060KT=

0000046300
928
FTUS71 KWBC 101900 AAA
TAF AMD
KJFK 101858Z 1019/1124 VRB04KT 4SM BR SCT008 OVC015
      TEMPO 1020/1024 2SM -DZ BR BKN008
     FM110000 VRB04KT 3SM BR BKN008 OVC015
      TEMPO 1102/1105 -RA BKN008 OVC015
     FM110500 16008KT 3SM -RA BR BKN006 OVC015 WS020/19040KT
     FM110800 15011KT 1SM -RA BR OVC004 WS020/19055KT
     FM111400 17018KT 1SM -RA BR OVC004 WS015/19060KT
     FM111900 18023G30KT 1SM RA OVC004 WS015/19060KT=

0000031200
929
FTUS72 KWBC 101900 AAA
TAF AMD
KJBR 101857Z 1019/1118 17012G20KT P6SM BKN035
     FM102100 17012G20KT P6SM VCSH BKN025
     FM102300 21015G25KT 3SM -RA BR VCTS OVC005CB
     FM110700 24012KT P6SM BKN012 OVC070
     FM111000 25010KT P6SM SCT020
     FM111500 27012G20KT P6SM SCT025=

0000052700
930
FTUS73 KWBC 101900 AAA
TAF AMD
KAXN 101858Z 1019/1118 17012KT 1SM BR OVC002
     FM102000 18009KT 2SM BR BKN006 OVC015
     FM102200 20006KT 5SM BR SCT012 BKN100
     FM110300 27006KT P6SM SCT200
     FM111000 31010KT P6SM SCT025 BKN040
     FM111600 30010KT P6SM SCT250=
KLSE 101858Z 1019/1118 15006KT 2SM BR OVC007
      TEMPO 1019/1022 1 1/2SM -FZDZ BR OVC005
     FM102200 VRB03KT 2SM -SN BR OVC010
     FM110700 28005KT 6SM -SN BR OVC008
     FM111100 29007KT 6SM BR SCT010 BKN150=

0000084100
931
SATU31 LTAA 101850
METAR LTAC 101850Z 19003KT 140V240 4900 BR OVC008 M03/M03 Q1022
 NOSIG=
METAR LTAF 101850Z 12003KT 5000 HZ NSC 07/02 Q1020 NOSIG=
METAR LTAI 101850Z 34005KT 3600 BR FEW030 07/06 Q1022 NOSIG=
METAR LTAJ 101850Z 30003KT CAVOK M01/M05 Q1020 NOSIG=
METAR LTAZ 101850Z VRB02KT 9999 BKN009 M01/M02 Q1023=
METAR LTBA 101850Z 26006KT 6000 NSC 09/08 Q1019 NOSIG=
METAR LTBJ 101850Z 00000KT 6000 NSC 05/04 Q1021 NOSIG=
METAR LTBS 101850Z 03004KT CAVOK 08/07 Q1022 NOSIG=
METAR LTCG 101850Z 00000KT 6000 NSC 06/02 Q1017 NOSIG=
METAR LTCS 101850Z 06004KT 290V090 CAVOK 05/M06 Q1021=
METAR LTFC 101850Z 00000KT 0300 R05/0450U R23/0350U FZFG NSC M03/M03
 Q1022=
METAR LTFE 101850Z 13003KT 090V190 9999 FEW032 BKN180 10/08 Q1022
 NOSIG=
METAR LTFJ 101850Z 25011KT CAVOK 10/03 Q1019 NOSIG=

0000023000
932
SAMX31 KWBC 101845 RRD
METAR
MMGL 101854Z 00000KT 10SM SCT100 23/02 A3014 RMK 8/030 CI=
MMPR 101845Z 21006KT 15SM SKC 26/16 A2996=
MMVR 101844Z 17008KT 7SM SKC 28/16 A2991 RMK HZY DSNT TCU 3/4
     QUAD=

00000000