0000046600
813
SAFI32 EFHK 101750
METAR EFHA 101750Z AUTO 36011KT 5000 -SN OVC008 
M04/M05 Q0992=
EFHF 101750Z 35012KT 320V040 9999 -SN BKN010 00/M01 Q0988=
METAR EFKA 101750Z AUTO 02011KT 9999 OVC011 M06/M08
 Q0997=
EFKK 101750Z 04011KT 9999 -SHSN SCT016 BKN023 M08/M10 Q0999=
METAR EFMA 101754Z NIL=
METAR EFPO 101750Z AUTO 01009KT 340V040 9999 OVC008/// M03/M04 Q0994 
R12/29//95=
EFSI 101750Z AUTO 36009KT 330V040 9999 OVC007 M06/M07 Q0996=

0000040300
814
SABX31 EBBR 101750
METAR EBAW 101750Z 22010KT 9999 BKN009 06/03 Q1017 TEMPO BKN008=
METAR EBBR 101750Z 22008KT 9999 BKN012 05/03 Q1017 TEMPO BKN008=
METAR EBCI 101750Z 22010KT 9999 BKN010 05/03 Q1018 NOSIG=
METAR EBLG 101750Z 20010KT 9999 FEW011 04/02 Q1017 NOSIG=
METAR EBOS 101750Z 19008KT 9999 FEW011 05/03 Q1016 NOSIG=
METAR ELLX 101750Z 22003KT CAVOK 03/02 Q1018 NOSIG=

0000040400
815
FTNO38 ENMI 101700
TAF ENGC 101700Z 1018/1118 05015KT 9999 FEW012 BKN025 TEMPO 1018/1118
         4000 RADZ BKN008 BECMG 1021/1024 VRB08KT BECMG 1102/1106
         28020KT PROB40 1112/1118 28030KT=
TAF ENOA 101700Z 1018/1118 VRB08KT 9999 FEW009 BKN020 TEMPO 1018/1118
         4000 RADZ BKN008 BECMG 1021/1024 28020KT BECMG 1100/1103
         29030KT BECMG 1112/1115 30040KT=

0000019100
816
FTAF34 OEJD 101600 RRB
TAF HKMO 101650Z 1018/1124 03010KT 9999 FEW022
BECMG 1100/1106 00000KT SCT020
BECMG 1109/1112 09010G20KT FEW026
BECMG 1118/1124 03010KT FEW022=

0000052900
817
SAOS31 LOWM 101750
METAR LOWW 101750Z 26007KT CAVOK 06/00 Q1020 NOSIG=
METAR LOWL 101750Z 21003KT 180V240 9999 FEW050 04/M00 Q1020 NOSIG=
METAR LOWS 101750Z 21003KT 190V260 9999 FEW025 BKN035 05/03 Q1020
NOSIG=
METAR LOWI 101750Z VRB01KT 9999 FEW007 SCT050 BKN100 03/03 Q1020
R08/19//74 NOSIG=
METAR LOWG 101750Z VRB01KT 0900 R17/0600V1500D R35/0550V1200N BCFG
FEW060 01/01 Q1019 R17/29//95 BECMG 0400 FG SCT001=
METAR LOWK 101750Z VRB02KT 0450 R10/0450N R28/0650N FG VV002 03/03
Q1020 NOSIG=

0000011100
818
SAOS32 LOWM 101750
METAR LOXZ 101750Z VRB02KT 25KM FEW050SC BKN080SC 00/M01 Q1019 RMK
BKN=

0000027500
819
FTNO32 ENMI 101700
TAF ENAN 101700Z 1018/1118 10015KT CAVOK=
TAF ENBO 101700Z 1018/1118 09015KT CAVOK=
TAF ENDU 101700Z 1018/1118 VRB05KT 9999 FEW040=
TAF ENOL 101700Z 1018/1118 08012KT 9999 -SN FEW007 BKN020 TEMPO
         1018/1103 1500 SN VV005=

0000058200
820
SANO38 ENMI 101750
METAR ENDR 101750Z AUTO 06028KT M03/M08 Q1001=
METAR ENEK 101750Z 24026KT 9999 FEW015 BKN140 07/06 Q1004 W08/S4=
METAR ENGC 101750Z 05016KT 9999 BKN022 BKN050 06/01 Q0999 W07/S4=
METAR ENHE 101750Z NIL=
METAR ENOA 101750Z 08013KT 9999 FEW010 BKN025 05/03 Q0998 W///S4=
METAR ENSL 101750Z 25021KT 9999 SCT013 BKN150 07/05 Q1001 W06/S4=
METAR ENFB 101750Z AUTO 05015KT 9999NDV FEW024/// BKN040/// BKN058///
           06/01 Q0999 W///S5=
METAR ENSF 101750Z AUTO 05017KT 9999NDV BKN044/// BKN052/// 06/00
           Q0999 W///S5=

0000062900
821
SANO33 ENMI 101750
METAR ENAT 101750Z 19006KT 140V210 9999 -SN OVC004 M13/M15 Q1018 RMK
           WIND 700FT 18006KT=
METAR ENBL 101750Z NIL=
METAR ENEV 101750Z 07016KT CAVOK M07/M15 Q1015 RMK WIND 1400FT
           08026KT=
METAR ENFL 101750Z NIL=
METAR ENKB 101750Z 03006KT 9999 FEW010 SCT015 BKN022 M03/M06 Q0999=
METAR ENKR 101750Z 16007KT 2700 IC BR VV002 M20/M22 Q1015 SEASMOKE
           NORTH OF THE FIELD RMK WIND 775FT 24002KT=
METAR ENML 101750Z 02003KT 9999 FEW025 BKN060 M01/M05 Q0999=
METAR ENNA 101750Z VRB01KT 9999 BKN006 M14/M15 Q1018 RMK WIND 1800FT
           01005KT=

0000022200
822
SAEO32 EETN 101750
METAR EEKA 101750Z NIL=
METAR EEKE 101750Z AUTO 34010KT 310V020 9999NDV -RA OVC013 03/03 
Q0990=
METAR EETU 101750Z 31005KT 5000 -DZ OVC004 04/03 Q0982=
METAR EEPU 101750Z NIL=

0000025000
823
SADL33 EDZO 101750
METAR EDFE 101750Z NIL=
METAR EDFH 101750Z 25007KT 9999 FEW025 SCT270 03/01 Q1017=
METAR EDFM 101750Z 00000KT 9999 FEW037 04/02 Q1019=
METAR EDLV 101750Z 21007KT CAVOK 06/04 Q1016=
METAR EDVK 101750Z NIL=

0000090200
824
SAMX42 MMGL 101754
METAR MMAS 101749Z 22010KT 14SM  SKC 18/M01 A3024 
      RMK SLP163 ISOL CU AC=
METAR MMEP 101754Z 12003KT 12SM  SKC 25/11 A3011 RMK SLP165 57013
952=
METAR MMGL 101752Z 09004KT 10SM  SKC 20/04 A3018 RMK SLP141 57020
971=
METAR MMIA 101740Z 00000KT 8SM  BKN250 25/16 A3006 RMK 8/005 RTS=
METAR MMLO 101744Z 00000KT 10SM  FEW020 SCT220 21/03 A3024 
      RMK SLP140 52006 967 8/502=
METAR MMMM 101745Z 23005KT 8SM  SCT030 21/07 A3022 
      RMK SLP126 54000 980 8/500 CI=
METAR MMPN 101741Z 10006KT 15SM  SCT020TCU 20/10 A3022 RMK 8/200 AC=
METAR MMPR 101750Z 00000KT 15SM  SKC 25/14 A2998 RMK SLP143 50000
902=
METAR MMSP 101741Z 26015KT 15SM  SKC 19/07 A3020 
      RMK SLP138 57003 965 CI E=
METAR MMZC 101748Z 25022KT 10SM  SKC 18/M01 A3022=
METAR MMZO 101743Z 12010KT 10SM  FEW100 SCT270 27/21 A2991 
      RMK SLP121 8/039=

0000009500
825
SAQB31 LQSM 101800
METAR LQSA 101800Z VRB02KT 9999 BKN060 07/04 Q1021 NOSIG=

0000029000
826
SADL35 EDZO 101750
METAR EDJA 101750Z 20003KT CAVOK 01/00 Q1019=
METAR EDMO 101750Z 19003KT CAVOK 00/M01 Q1019=
METAR EDTL 101750Z 14006KT CAVOK 06/04 Q1019=
METAR EDTY 101750Z VRB02KT CAVOK 04/M00 Q1019=
METAR EDVE 101750Z 25009KT 9999 SCT029 BKN058 06/02 Q1014=

0000055300
827
SADL34 EDZO 101750
METAR EDGS 101750Z 23006KT 9999 FEW035 02/01 Q1016=
METAR EDHL 101750Z 25010KT 9999 SCT017 BKN040 06/04 Q1011=
METAR EDLP 101750Z 23008KT 9999 FEW033 03/M00 Q1016=
METAR EDLW 101750Z 22010KT 9999 BKN040 05/02 Q1016=
METAR EDMA 101750Z VRB02KT CAVOK 00/M00 Q1019=
METAR EDNY 101750Z 03002KT 9999 SCT060 OVC070 04/03 Q1019=
METAR EDQM 101750Z AUTO 22005KT 9999NDV BKN012/// BKN018///
OVC024/// 02/M00 Q1017=
METAR EDRZ 101750Z 22005KT CAVOK 03/01 Q1018=
METAR EDSB 101750Z VRB02KT CAVOK 04/01 Q1019=

0000039200
828
SANO36 ENMI 101750
METAR ENBS 101750Z NIL=
METAR ENHK 101750Z NIL=
METAR ENHV 101750Z 28006KT 9999 -SN SCT034 BKN049 M04/M07 Q1016=
METAR ENLK 101750Z 06014KT 9999 FEW040 M06/M14 Q1013=
METAR ENMH 101750Z 22007KT 9999 SCT040 M06/M07 Q1016 RESHSN=
METAR ENNK 101750Z 03013KT 9999 FEW040 M08/M14 Q1015=
METAR ENNM 101750Z 06015KT 9999 FEW040 BKN090 M08/M14 Q1004=

0000014900
829
FTCI41 ZBBB 101753
TAF ZPLJ 101507Z 101818 04003MPS 9999 FEW040 TX17/08Z
TNM01/00Z
BECMG 0305 21006G12MPS BECMG 1113 03004MPS=

0000043900
830
SANO37 ENMI 101750
METAR ENNO 101750Z NIL=
METAR ENOV 101750Z NIL=
METAR ENSD 101750Z NIL=
METAR ENSG 101750Z 23010KT 9999 VCSH FEW010 BKN030 M00/M01 Q0994 RMK
           WIND 4226FT 29034KT=
METAR ENSN 101750Z NIL=
METAR ENSR 101752Z VRB02KT 6500 -BCFG FEW001 M19/M21 Q1018 RMK WIND
           1119FT 15003KT=
METAR ENSS 101750Z 05011KT 1000 SHSN VV002 M05/M06 Q1015 RMK WIND
           500FT 06011KT=

0000014300
831
SAVN31 SVVA 101800
METAR SVVA 101800Z 11006KT 9999 FEW016 32/19 Q1013=
METAR SVPC 101800Z 03010KT 9999 FEW040 XX/XX Q////=

0000027300
832
FTNO33 ENMI 101700
TAF ENNA 101700Z 1018/1118 18005KT 9999 BKN010 TEMPO 1018/1115 0800
         FG BKN001=
TAF ENSB 101700Z 1018/1118 24010KT 9999 -SN FEW010 BKN020 TEMPO
         1018/1024 VRB05KT=
TAF ENTC 101700Z 1018/1118 06005KT 9999 FEW008=

00000000