0000027500
773
FTEO31 EETN 101700
TAF EETN  101730Z 1018/1118 36016G26KT 9999 BKN006 SCT012CB
     TEMPO 1018/1021 1200 +SHSNRA BKN004 SCT012CB TEMPO 1021/1104
     1000 +SN VV004 BECMG BECMG 1104/1106 32010KT BKN012 TEMPO
     1113/1118 VRB02KT 2000 SHSN SCT012CB=

0000015500
774
FCOS43 LOWM 101700
TAF LOXA 101700Z NIL=
TAF LOXE 101700Z NIL=
TAF LOXN 101700Z NIL=
TAF LOXT 101700Z NIL=
TAF LOXZ 101700Z NIL=

0000037100
775
SAHU41 LHBM 101730
METAR LHKE 101715Z 27003MPS CAVOK 06/01 Q1020 NOSIG RMK BLU=
METAR LHPA 101715Z 24003MPS 8000 NSC 03/01 Q1020 NOSIG RMK BLU=
METAR LHPP 101715Z 07004KT CAVOK 06/05 Q1021=
METAR LHPR 101715Z 25003KT CAVOK 05/00 Q1020=
METAR LHSN 101715Z 28004MPS CAVOK 06/01 Q1019 CAVOK RMK BLU=
METAR LHUD 101715Z 24005KT CAVOK 03/01 Q1021=

0000010200
776
SPCN46 CWAO 101731
SPECI CYBN 101731Z AUTO 15008KT 4SM OVC024 OVC072 M02/M03 A3013=

0000016400
777
SAPA31 KWBC 101700 RRD
METAR
AYPY 101700Z 34004KT 4000M +FOG OVC003 25/25 Q1005=
PGSN 101729Z 04011KT 10SM SCT020 SCT036 26/23 A2989 RMK AO2=

0000010200
778
SASR31 WSSS 101730
METAR WSSS 101730Z VRB04KT 9999 FEW018 BKN300 25/23 Q1012 NOSIG=

0000010500
779
SAID31 WIII 101730
METAR WIII 101730Z 23004KT 5000 HZ SCT021 BKN100 26/23 Q1009 NOSIG=

0000011100
780
SPCN49 CWAO 101727
SPECI CYTQ 101727Z 27027G33KT 5/8SM BLSN FEW070 SCT220 RMK
BLSN1AC2CI0=

0000009400
781
SPCN52 CWAO 101728
SPECI CWFD 101728Z AUTO 20015KT 3/8SM OVC011 M20/ A2875=

0000031500
782
FTCN34 CWAO 101700 AAA
TAF AMD CYMJ 101728Z 1018/1102 31005KT 5SM BR OVC010 TEMPO 1018/1021
     1/4SM FZFG VV001
    FM102100 26008KT 6SM BR OVC010 TEMPO 1021/1024 2SM BR OVC003
     PROB40 1021/1024 1/2SM FZFG VV001
    FM110000 26008KT P6SM SCT010 BKN080
    RMK NXT FCST BY 110000Z=

0000026400
783
FTCN35 CWAO 101700 AAA
TAF AMD CYKF 101729Z 1017/1102 17008KT 1/4SM FZFG VV001 TEMPO
     1017/1019 1SM -FZDZ BR OVC004
    FM101900 18010KT 3/4SM BR OVC002 TEMPO 1019/1102 2SM BR OVC005
    RMK FCST BASED ON AUTO OBS. NXT FCST BY 102000Z=

0000011900
784
SPUS41 KWBC 101729
SPECI
KCEF 101725Z 18005KT 1 3/4SM -SN BR FEW003 BKN008 OVC013 M02/M02
A3040=

0000010200
785
SPUS43 KWBC 101729
SPECI
KSUS 101725Z 20006KT 10SM -RA BKN010 OVC080 05/04 A2984=

0000020600
786
FTCN38 CWAO 101700 AAA
TAF AMD CYDP 101729Z 1017/1024 27018G28KT P6SM -SN FEW030 BKN080
     TEMPO 1017/1024 5SM -SN BKN030
     BECMG 1019/1021 24010KT
    RMK NXT FCST BY 102000Z=

0000009400
787
SPAU32 AMMC 101729
SPECI YSRI 101730Z AUTO 00000KT 3200 // NCD 16/16 Q1018=

0000016100
788
FTCN33 CWAO 101700 AAA
TAF AMD CYOA 101729Z 1017/1024 18006KT P6SM OVC025 TEMPO 1017/1024
     2SM -SN OVC020
    RMK NXT FCST BY 101900Z=

0000091700
789
FTPQ31 PGUM 101700
TAF PGUM 101720Z 1018/1124 06008KT P6SM FEW020
     FM110000 06014KT P6SM SCT020
     FM110800 06008KT P6SM FEW020=
TAF PGSN 101720Z 1018/1118 03009KT P6SM SCT020 SCT120
     FM110000 06014KT P6SM VCSH SCT020
     FM110800 06009KT P6SM VCSH FEW020=
TAF PGRO 101720Z 1018/1118 NIL=
TAF PGWT 101720Z 1018/1118 NIL=
TAF PTRO 101720Z 1018/1118 08015G22KT P6SM SHRA SCT015CB OVC120
      TEMPO 1018/1021 07015G28KT 3SM +SHRA FEW008 BKN014CB OVC080
     FM110000 08013G24KT P6SM VCSH SCT016CB BKN050 BKN120=
TAF PTYA 101720Z 1018/1118 06011KT P6SM VCSH SCT018 BKN120
     FM110000 07012G22KT P6SM SCT020 BKN120=
TAF PTKK 101720Z 1018/1118 05011KT P6SM VCSH SCT014 SCT120=
TAF PTPN 101720Z 1018/1118 NIL=
TAF PTSA 101720Z 1018/1118 NIL=
TAF PKWA 101720Z 1018/1118 07015G22KT P6SM VCSH SCT025=
TAF PKMJ 101720Z 1018/1118 06014KT P6SM VCSH FEW015 SCT050=

0000010800
790
SPPR00 SPIM 101730
SPECI SPZO 101730Z 34012KT 9999 FEW040TCU SCT050 BKN100
18/06 Q1027=

0000005900
791
FCOS32 LOWM 101700
TAF LOXZ 101700Z NIL=

0000050200
792
FTSW31 LSSW 101700
TAF LSZH 101725Z 1018/1124 VRB03KT 9999 FEW009 SCT070 TX08/1115Z
     TN02/1106Z BECMG 1022/1101 3000 MIFG FEW004 BECMG 1101/1104
     1000 BCFG SCT100 PROB40 TEMPO 1104/1108 0300 FG VV001 BECMG
     1108/1111 8000 BKN110 BECMG 1115/1118 6000 BKN020 TEMPO
     1117/1124 -RA BKN010=
TAF LSGG 101725Z 1018/1124 05007KT CAVOK TX08/1113Z TN03/1103Z
     PROB40 1103/1110 5000 BR OVC005 PROB30 1102/1105 1500 BCFG
     SCT003 BECMG 1115/1118 9999 BKN090=

00000000