0000011600
413
SPUS43 KWBC 101917
SPECI
KPIA 101913Z 15009KT 2SM R13/5000VP6000FT -RA BR OVC004 03/02
A2974=

0000010100
414
SPUS31 KWBC 101914
SPECI
KMIA 101910Z 12012G20KT 10SM BKN021 BKN210 27/21 A3008=

0000010100
415
SPUS41 KWBC 101914
SPECI
KGSO 101910Z 01005KT 1 1/4SM +RA BR OVC004 02/02 A3024=

0000009800
416
SPUS42 KWBC 101914
SPECI
KOPF 101910Z 13013KT 10SM BKN025 BKN031 27/22 A3008=

0000013100
417
SAAG41 KWBC 101900 RRA
METAR
SARL 101900Z 14013KT 9999 SCT015 FEW045CB BKN100 KN200 23/22 Q1008
     RETSRA=

0000018200
418
SAVN42 KWBC 101900 RRA
METAR
SVSA 101900Z NIL=
SVSE 101900Z NIL=
SVSR 101900Z /////KT 9999 FEW016 BKN300 32/// Q1014=
SVTM 101900Z NIL=
SVVP 101900Z NIL=

0000016000
419
SAZA31 FAPR 101900 RRA
METAR FABL 101900Z AUTO 24007KT 9999 ////// 24/06 Q1016=
METAR FALW 101900Z AUTO 21009KT //// // ////// 17/10 Q1017=

0000015200
420
SAAP32 FAPR 101900 RRA
METAR FABL 101900Z AUTO 24007KT 9999 ////// 24/06 Q1016=
METAR FBSK 101900Z 21007KT CAVOK 29/04 Q1012 NOSIG=

0000007700
421
FCRS31 RUMS 101700 AAB
TAF AMD ULWC 101915Z 1018/1103 CNL=

0000058900
422
SAPS31 NFFN 101900
METAR NCRG 101900Z 06005KT 9999 FEW021 28/24 Q1011=
METAR NFFN 101900Z 15003KT 9999 -RA SCT028 BKN048 24/24 Q1006 NOSIG=
METAR NFNA 101900Z 17008KT 9999 BKN020 27/23 Q1005=
METAR NGFU 101900Z NIL=
METAR NGTA 101900Z NIL=
METAR NIUE 101900Z 03014KT 9999 SCT018 SCT030 BKN110 28/26 Q1006=
METAR NSFA 101900Z 01011KT 9999 FEW017CB FEW018 BKN040 OVC100 26/24 
Q1006=
METAR NSTU 101900Z NIL=
METAR NTAA 101900Z 26004KT 9999 FEW020 SCT150 29/22 Q1013 NOSIG=
METAR NWWW 101900Z AUTO 01003KT 9999 NSC 19/14 Q1013=
METAR PLCH 101900Z NIL=

0000064700
423
FTUS71 KWBC 101915 AAA
TAF AMD
KAND 101912Z 1019/1118 06006KT P6SM OVC005
      TEMPO 1022/1024 4SM -RA BR
     FM110000 03005KT 3/4SM -RA BR OVC003
     FM110600 04003KT 2SM SHRA BR OVC004 WS020/20030KT
     FM111500 14005KT 4SM SHRA BR OVC005 WS020/20045KT=
KISP 101913Z 1019/1118 VRB04KT 3SM BR SCT015 OVC030
      TEMPO 1020/1024 2SM -DZ BR BKN015
     FM110000 VRB04KT 2SM BR BKN012 OVC025
      TEMPO 1102/1105 -RA BKN008 OVC015
     FM110500 16008KT 2SM -RA BR BKN006 OVC015 WS020/19040KT
     FM110800 15013KT 1SM -RA BR OVC004 WS020/19055KT
     FM111400 17016KT 1SM -RA BR OVC004 WS015/19060KT=

0000035000
424
FTUS72 KWBC 101915 AAA
TAF AMD
KMKL 101912Z 1019/1118 17010G16KT P6SM SCT020 BKN100
      TEMPO 1019/1021 BKN020
     FM110000 16012G20KT P6SM VCSH BKN025
     FM110300 18014G22KT 4SM -RA BR VCTS OVC007CB
     FM111000 22014KT P6SM BKN012 OVC080
     FM111200 26012KT P6SM SCT020
     FM111500 27012G18KT P6SM SCT025=

0000022600
425
SAPS32 NFFN 101900
METAR NFTF 101900Z 14007KT 9999 FEW010 BKN270 28/26 Q1002=
METAR NFTL 101900Z NIL=
METAR NFTV 101900Z NIL=
METAR NLWW 101900Z NIL=
METAR NVSS 101900Z NIL=
METAR NVVV 101900Z NIL=

0000017700
426
SACY31 LCLK 111000
METAR LCLK 111000Z 17010KT 130V220 9999 FEW025 18/07 Q1022 NOSIG=
METAR LCPH 111000Z 28008KT 9999 BKN030 18/09 Q1023=
METAR LCNC 111000Z NIL=

0000009700
427
SPCN42 CWAO 101914
SPECI CYUA 101914Z AUTO 29022KT 2 3/4SM -SN CLR M25/ A2975=

0000011500
428
SPCN51 CWAO 101914
SPECI CWOB 101914Z AUTO 23003KT -SN BKN005 BKN015 BKN047 BKN074 M19/
A2908=

0000040400
429
SAXX69 EGRR 101900 RRA
METAR KQIR 101858Z 00000KT 9999 FEW140 18/12 A3015 RMK AO2A WND DATA
      ESTMD SLP212 T01790124 VISNO RWY16 CHINO RWY16 $=
METAR KQSA 101858Z VRB02KT 9999 CLR M01/M10 A3028 RMK AO2A SLP324 WND
      DATA ESTMD ALSTG/SLP ESTMD=
METAR KQTZ 101855Z 10013G22KT 3200 -RA BR FEW010 SCT015 OVC030 10/08
      A3004 RMK SLP172 WND DATA ESTMD ALSTG/SLP ESTMD=

0000010400
430
SAAG05 SABM 101900 RRC
METAR SAOC 101900Z  14010KT 9999  FEW030 SCT100
28/13 Q1009=

0000009400
431
SAUS73 KWBC 101900 RRE
METAR
KALN 101855Z 16010KT 7SM OVC010 05/05 A2977=

0000035000
432
FTUS52 KWBC 101915 AAA
TAF AMD
KMKL 101912Z 1019/1118 17010G16KT P6SM SCT020 BKN100
      TEMPO 1019/1021 BKN020
     FM110000 16012G20KT P6SM VCSH BKN025
     FM110300 18014G22KT 4SM -RA BR VCTS OVC007CB
     FM111000 22014KT P6SM BKN012 OVC080
     FM111200 26012KT P6SM SCT020
     FM111500 27012G18KT P6SM SCT025=

00000000