0000008800
413
FCIY31 LIIB 101700
TAF LIMP 101700Z 1018/1103 VRB03KT 4000 BR SCT040=

0000012500
414
SPCN31 CWAO 101716
SPECI CYWG 101716Z 18015KT 6SM -SN BR BKN028 OVC070 M07/M09 A2945 RMK
 SC5AC3 SLP989=

0000020400
415
SAEA20 HKNC 101700 RRA
METAR HKEL 101700Z 00000KT 9999 FEW018CB SCT270 17/11=
METAR HKML 101700Z 09010KT 9999 FEW022 27/23 Q1012=
METAR HKNC 101700Z 08008KT 9999 BKN020 21/14 Q1021=

0000046900
416
FCIY32 LIIB 101700
TAF LIBR 101700Z 1018/1103 18005KT 8000 SCT015 BECMG 1019/1021
VRB03KT 5000 BR=
TAF LIPB 101700Z 1018/1103 VRB03KT 9999 SCT040 BKN070=
TAF LIPH 101700Z 1018/1103 VRB03KT 0500 FG BKN003 TEMPO 1018/1021
1500 BR BKN015=
TAF LIPR 101700Z 1018/1103 VRB03KT 8000 BKN030 BECMG 1018/1020 2000
BR TEMPO 1020/1103 0500 FG BKN002=
TAF LIPX 101700Z 1018/1103 VRB03KT 1000 BR SCT010 BKN040 TEMPO
1018/1103 0500 FG SCT005 BKN015=

0000019700
417
FCIY33 LIIB 101700
TAF LIMG 101700Z 1018/1103 VRB05KT 9999 BKN040=
TAF LIMS 101700Z 1018/1103 NIL=
TAF LIMW 101700Z 1018/1103 NIL=
TAF LIMZ 101700Z 1018/1103 VRB03KT CAVOK=

0000015500
418
FCIY34 LIIB 101700
TAF LIPC 101700Z 1018/1103 VRB03KT 1500 BR SCT030 TEMPO 1018/1103
0500 FG BKN002=
TAF LIPF 101700Z 1018/1103 NIL=

0000015700
419
FCRM31 LUKK 101700
TAF LUKK 101720Z 1018/1103 30012KT 9999 SCT020=
TAF LUBL 101720Z NIL=
TAF LUBM 101720Z NIL=
TAF LUCH 101720Z NIL=

0000031500
420
FCIY35 LIIB 101700
TAF LIRG 101700Z 1018/1103 NIL=
TAF LIRH 101700Z 1018/1103 NIL=
TAF LIRL 101700Z 1018/1103 NIL=
TAF LIRM 101700Z 1018/1103 NIL=
TAF LIRS 101700Z 1018/1103 NIL=
TAF LIRU 101700Z 1018/1103 VRB04KT 6000 BKN030 BECMG 1019/1021 1500
BR=
TAF LIRV 101700Z 1018/1103 NIL=

0000023200
421
FCIY36 LIIB 101700
TAF LIBC 101700Z 1018/1103 02008KT 9999 FEW020=
TAF LIBF 101700Z 1018/1103 VRB06KT CAVOK=
TAF LIBG 101700Z 1018/1103 VRB05KT 9999 SCT025=
TAF LIRZ 101700Z 1018/1103 VRB05KT 3000 BR BKN050=

0000078700
422
FTAO33 DRRN 101700
TAF DBBB 101640Z 1018/1124 22010KT 8000 FEW013 BECMG 1103/1105
32002KT 3000 BR BKN010 BECMG 1108/1110 22010KT 8000 NSW FEW013=
TAF DFFD 101700Z 1018/1124 08010KT 8000 NSC TEMPO 1017/1021 4500 HZ
TEMPO 1106/1109 3500 HZ TEMPO 1117/1121 4500 HZ=
TAF DGAA 101442Z 1018/1124 20010KT 9999 FEW015 BECMG 1100/1103
26010KT TEMPO CAVOK TEMPO
1106/1108 5000 BR FM111200 19010KT 9999 FEW035=
TAF DNKN 101700Z NIL=
TAF DNMM 101700Z NIL=
TAF DRRN 101700Z 1018/1124 08012KT 3500 DU NSC TEMPO 1106/1109 1400=
TAF DXXX 101710Z 1018/1124 20010KT 9999 FEW013 BECMG 1021/1024
VRB03KT TEMPO 1106/1108 3000 BR BECMG 1109/1112 19010KT=
TAF FTTJ 101700Z 1018/1124 36008KT 4000 HZ NSC BECMG 1108/1110
06012KT CAVOK BECMG 1116/1118 34006KT 4000 HZ=

0000021500
423
FCIY37 LIIB 101700
TAF LICD 101700Z 1018/1103 18014KT CAVOK=
TAF LICG 101700Z 1018/1103 NIL=
TAF LICR 101700Z 1018/1103 36010KT CAVOK BECMG 1019/1021 VRB05KT=
TAF LICT 101700Z 1018/1103 NIL=

0000089500
424
FTIY31 LIIB 101700
TAF LIEE 101700Z 1018/1118 VRB05KT 9999 SCT030=
TAF LIEO 101700Z 1018/1118 VRB05KT 9999 FEW030 BECMG 1106/1109
10010KT=
TAF LIMC 101700Z 1018/1124 VRB05KT 8000 BKN040 TEMPO 1108/1112 3000
DZ=
TAF LIME 101700Z 1018/1118 VRB05KT 9999 BKN040 TEMPO 1018/1023 3000
BR=
TAF LIMF 101700Z 1018/1118 VRB05KT 9999 BKN030=
TAF LIMJ 101700Z 1018/1118 15006KT 9999 SCT020 BKN040=
TAF LIML 101700Z 1018/1118 VRB05KT 9999 SCT020 BKN040=
TAF LIRA 101700Z NIL=
TAF LIRF 101700Z 1018/1124 VRB05KT 9999 BKN030 BECMG 1020/1022 4000
BR TEMPO 1100/1106 1200 BCFG BECMG 1107/1109 9999=
TAF LIRN 101700Z 1018/1118 VRB04KT 6000 SCT025 TEMPO 1100/1105 2000
BR=
TAF LIRP 101700Z 1018/1118 VRB05KT 9999 SCT025 BKN050 TEMPO 1022/1106
3000 MIFG BR BECMG 1107/1109 11008KT=
TAF LIRQ 101700Z 1018/1118 VRB05KT 7000 FEW018 BKN040 TEMPO 1100/1107
1500 BR=

0000015500
425
FTAU33 YBBN 101700 RRB
TAF YMLT 101717Z 1018/1112
VRB05KT 9999 FEW005
FM110000 31012KT 9999 FEW035
PROB30 1018/1020 0500 FG
RMK=

0000102400
426
FTIY32 LIIB 101700
TAF LIBD 101700Z 1018/1118 VRB06KT 7000 NSC TEMPO 1022/1105 3000 BR=
TAF LIBP 101700Z 1018/1118 VRB04KT 4000 BR SCT020 TEMPO 1020/1106
2000 BECMG 1108/1110 7000=
TAF LICA 101700Z 1018/1118 VRB05KT 9999 SCT030 BECMG 1106/1108
09012KT=
TAF LICC 101700Z 1018/1118 25008KT CAVOK=
TAF LICJ 101700Z 1018/1118 09008KT CAVOK=
TAF LIEA 101700Z 1018/1118 VRB05KT 9999 FEW030 TEMPO 1100/1107 1500
BR=
TAF LIPE 101700Z 1018/1118 VRB04KT 0400 FG BKN004 BECMG 1106/1108
2000 BR SCT040=
TAF LIPK 101700Z 1018/1118 VRB04KT 3000 BR BKN012 TEMPO 1018/1107
0600 FG BKN005 BECMG 1108/1110 6000=
TAF LIPO 101700Z 1018/1118 VRB05KT 3000 BR BKN040 TEMPO 1100/1106
1200 BCFG=
TAF LIPQ 101700Z 1018/1118 VRB04KT 1500 BR BKN006 BECMG 1019/1021
0500 FG OVC002 BECMG 1108/1110 2000 BR BKN010=
TAF LIPY 101700Z 1018/1118 VRB05KT 7000 BKN040 TEMPO 1022/1106 2000
BR=
TAF LIPZ 101700Z 1018/1124 VRB04KT 2000 BR SCT010 SCT040 TEMPO
1018/1106 0800 FG BKN005 BECMG 1111/1113 4000=

0000046200
427
FTAU32 YBBN 101700 RRB
TAF YBCS 101711Z 1018/1118
16010KT 9999 -SHRA SCT025 BKN045
FM110000 13014KT 9999 -SHRA SCT025 SCT050
FM110900 16010KT 9999 -SHRA SCT020 BKN045
INTER 1018/1118 4000 SHRA BKN020
RMK=
TAF YBTL 101718Z 1017/1118
11010KT 9999 -SHRA SCT020 BKN040
FM110100 08016KT 9999 -SHRA SCT025 BKN045
FM111000 12012KT 9999 -SHRA SCT020 BKN040
TEMPO 1017/1102 3000 SHRA BKN014
INTER 1102/1110 4000 SHRA BKN016
RMK=

0000016300
428
SANL32 EHDB 101655 CCA
METAR COR EHEH 101655Z AUTO 23010KT 9999 SCT068 BKN081 06/04 Q1016 
BLU 23010KT 9999 FEW025 SCT060 BECMG FM1800 BKN009=

0000009600
429
SANG31 YBBN 101700 RRA
METAR AGGH 101700Z 14002KT 9999 HZ FEW015 24/23 Q1005=

0000048400
430
FTRA32 RUMS 101700
TAF UHHH 101646Z 1018/1124 24010MPS CAVOK 530002=
TAF UHMA 101630Z 1018/1118 36011G16MPS 9999 DRSN SCT030 650309 530003
550309 TEMPO 1018/1118 05016G21MPS 2000 BLSN SCT010 BKN030=
TAF UHMM 101650Z 1018/1124 05006G13MPS 9999 DRSN SCT030 OVC070 530009
530906 TEMPO 1024/1118 34004G09MPS=
TAF UHPP 101650Z 1018/1124 36005G12MPS 9999 -SHSN BKN015CB OVC100
650150 550009 TEMPO 1018/1023 1000 SHSN BKN003 TEMPO 1023/1124 2000
SHSN BKN004=

0000053300
431
FTRS31 RUMS 101700
TAF ULLI 101659Z 1018/1118 VRB02MPS 3000 -SNRA BR OVC004 TM01/1021Z
TEMPO 1018/1021 1000 SHSNRA BKN003 BKN012CB BECMG 1021/1022
35008G13MPS 2000 SHSN BLSN BKN004 BKN012CB 530003 TEMPO 1021/1109
33010G15MPS 0700 +SHSN BLSN BKN002 BKN015CB TEMPO 1109/1115
33010G15MPS 1000 BKN003 BKN012CB=
TAF UWGG 101659Z 1018/1118 18005G10MPS 2100 -SHSNRA OVC007 SCT012CB
650070 530003 TEMPO 1018/1106 16007G14MPS 0700 +SHSNRA VV004
FM110600 23006G14MPS 2100 -SHSNRA BKN009 SCT012CB 650090 530003=

0000046700
432
FTRS35 RUMS 101700
TAF UWLW 101645Z 1018/1118 23003MPS 2100 -SNRA BR OVC005 650050 TEMPO
1018/1103 0400 FZDZ FZFG VV002 BECMG 1019/1021 18008MPS=
TAF UWOO 101700Z 1018/1118 15005MPS 1000 SNRA BR OVC003 640000 TEMPO
1018/1104 VRB03MPS 0300 FZDZ FZFG VV001=
TAF UWWW 101700Z 1018/1118 VRB03MPS 1500 BR OVC003 TEMPO 1018/1106
0300 FZDZ FZFG VV001 640000 BECMG 1100/1102 18009MPS TEMPO
1106/1118 16013MPS 0400 +SHSNRA VV002 BKN010CB 530003=

00000000