0000010100
033
SPUS43 KWBC 110149
SPECI
KPTK 110145Z 14008KT 1 1/2SM -RA BR OVC002 02/02 A2981=

0000009600
034
SPUS44 KWBC 110149
SPECI
KHQM 110145Z AUTO 14011G18KT 3SM -RA OVC010 A2981=

0000125900
035
SPUS70 KWBC 110150
SPECI
KAOH 110146Z AUTO 17013KT 2 1/2SM -RA BR OVC002 06/04 A2981 RMK
     AO2 PNO $=
KFDY 110146Z AUTO 15014KT 2 1/2SM -RA BR OVC002 04/04 A2980 RMK
     AO2 PK WND 16026/0102 P0004=
KIND 110146Z 14009KT 1/4SM R05L/1200V1600FT -RA FG VV002 04/04
     A2975 RMK AO2 P0002=
KIXD 110146Z 28009KT 4SM BR OVC004 02/02 A2960 RMK AO2 RAB09E22
     P0000 T00220017=
KLLQ 110146Z AUTO 18010G19KT 7SM -RA OVC007 16/15 A2973 RMK AO2
     LTG DSNT W-N TSB20E40RAB14 P0000=
KSTJ 110146Z AUTO 31009KT 5SM BR OVC004 02/01 A2960 RMK AO2
     T00170006=
KTXK 110146Z 20005KT 7SM OVC008 16/15 A2972 RMK AO2 CIG
     006V012=
KUUU 110146Z AUTO 13003KT 1 1/4SM BR OVC004 05/04 A3033 RMK AO2
     RAB01E31 P0000 T00500044=
PAGK 110146Z AUTO 32004KT 3SM BR OVC047 M10/M12 A2930 RMK AO2
     SNE43 P0001 T11001117 TSNO=
KCXO 110146Z 20007KT 10SM BKN014 OVC019 19/18 A2982 RMK AO2=
KAGS 110147Z 34004KT 2SM VCTS +RA BR BKN004 BKN009 OVC016 09/09
     A3011 RMK AO2 TSB47 P0024=
KBMI 110147Z 18015KT 2 1/2SM -RA BR OVC001 03/02 A2961 RMK AO2
     P0001=
KELZ 110147Z AUTO 18008KT 10SM OVC005 03/02 A3007 RMK AO2=
KY50 110147Z AUTO 00000KT 1 1/4SM UP OVC002 00/ A2954 RMK AO2 TSNO
     P0000 $=

0000011700
036
SPUS31 KWBC 110150
SPECI
KIND 110146Z 14009KT 1/4SM R05L/1200V1600FT -RA FG VV002 04/04
A2975=

0000011100
037
SPUS31 KWBC 110150
SPECI
KLIT 110146Z 14009KT 6SM -RA BR SCT025 BKN055 OVC100 13/12 A2968=

0000033600
038
SARO31 LROM 110200
METAR LRBS 110200Z VRB02KT CAVOK 01/M01 Q1019 NOSIG=
METAR LRCK 110200Z 25008KT 1500 BR NSC 01/00 Q1019 NOSIG=
METAR LROP 110200Z 21004KT CAVOK 00/M01 Q1019 8819//95 NOSIG=
METAR LRSB 110200Z 31008KT CAVOK 02/M03 Q1021 NOSIG=
METAR LRTR 110200Z 10003KT 2500 BR BKN049 00/M00 Q1023 11190095=

0000049100
039
SAFR22 LFPW 110200
METAR LFBC 110200Z AUTO VRB02KT 9999 FEW016 10/09 Q1016=
METAR LFBG 110200Z AUTO 14003KT 4500 BR NSC 07/07 Q1016=
METAR LFBM 110200Z AUTO 29005KT 7000 OVC014 09/09 Q1017=
METAR LFBY 110200Z AUTO 23002KT 9999 // OVC030/// 11/09 Q1017=
METAR LFKS 110200Z AUTO 26003KT 220V290 9999 OVC026 12/08 Q1021=
METAR LFMO 110200Z AUTO 00000KT 5000 BR OVC024 08/07 Q1020=
METAR LFMY 110200Z AUTO 08005KT 9999 OVC030 11/07 Q1020=
METAR LFMC 110200Z NIL=

0000042800
040
SARO32 LROM 110200
METAR LRAR 110200Z AUTO 15004KT 5000 R09////// R27/P2000 BKN050
///// Q1023=
METAR LRBM 110200Z AUTO VRB02KT 3600 BR FEW032 SCT220 M00/M00 Q1020=
METAR LRCL 110200Z 29006KT CAVOK M01/M02 Q1020=
METAR LROD 110200Z AUTO 14004KT 090V190 9999 NCD 00/M01 Q1021=
METAR LRSM 110200Z AUTO 21008KT 9999 NCD M01/M01 Q1020=
METAR LRTM 110200Z 00000KT 5000 BR SCT048 M00/M00 Q1021 0729//95=

0000040900
041
SAFR23 LFPW 110200
METAR LFOC 110200Z AUTO 03003KT 340V070 3200 -DZ BR OVC002///
///TCU 06/05 Q1016=
METAR LFOE 110200Z AUTO 14003KT 0700 R22/1900D FG OVC002 05/05
Q1016=
METAR LFOJ 110200Z AUTO 04007KT 0700 R25///// FG VV/// 05/05 Q1015=
METAR LFRJ 110200Z AUTO 20008KT 9999 BKN034 BKN041 BKN062 07/07
Q1015=
METAR LFRL 110200Z AUTO 18005KT 4300 // FEW001 OVC036 08/08 Q1015=

0000033400
042
SARO33 LROM 110200
METAR LRBC 110200Z AUTO 27006KT 230V290 9999 NCD 05/M01 Q1018=
METAR LRCV 110200Z AUTO 26010KT 9999 NCD 02/M01 Q1021=
METAR LRIA 110200Z 25006KT CAVOK 04/M01 Q1017 1529//95=
METAR LRSV 110200Z AUTO 29008KT 9999 FEW055 02/M03 Q1016=
METAR LRTC 110200Z AUTO 23004KT 6000 FEW065 03/01 Q1019=

0000025900
043
SAFR24 LFPW 110200
METAR LFSI 110200Z AUTO 09005KT 9999 NSC 04/02 Q1016=
METAR LFSO 110200Z AUTO 00000KT 8000 NSC 02/02 Q1016=
METAR LFSX 110200Z AUTO 06004KT 9999 NSC 02/01 Q1017=
METAR LFYR 110200Z AUTO VRB01KT 9999 NSC 05/04 Q1015=

0000053900
044
SAFR31 LFPW 110200
METAR LFLL 110200Z 15008KT 120V180 9999 FEW020 BKN150 09/06 Q1017
NOSIG=
METAR LFMN 110200Z 33009KT 9999 OVC033 10/05 Q1021 NOSIG=
METAR LFPG 110200Z 10005KT 1500 -RA BR FEW001 BKN002 05/04 Q1016
TEMPO 0500 FG VV///=
METAR LFPO 110200Z 06003KT 020V090 1500 BR OVC003 06/05 Q1016
TEMPO BKN002=
METAR LFQQ 110200Z AUTO 19008KT 7000 OVC006 04/03 Q1016=
METAR LFRB 110200Z 18007KT 5000 BR FEW006 SCT025 BKN066 07/07
Q1015 NOSIG=
METAR LFRS 110200Z AUTO 05002KT 2100 BR NSC 08/07 Q1015=

0000077200
045
SAFR32 LFPW 110200
METAR LFBD 110200Z AUTO 23005KT 3200 1200 R23/1600U R05/////
R29///// BR BKN012 08/07 Q1016=
METAR LFBH 110200Z AUTO 00000KT 5000 BR NSC 09/07 Q1015=
METAR LFBI 110200Z AUTO 00000KT 8000 NSC 07/06 Q1015=
METAR LFBL 110200Z AUTO 21005KT 110V240 9999 NSC 08/05 Q1015=
METAR LFBO 110200Z AUTO 17007KT 9999 BKN016 09/07 Q1017=
METAR LFBP 110200Z AUTO 24004KT 5000 BR BKN016 OVC022 09/08 Q1017=
METAR LFBT 110200Z AUTO 25004KT 220V280 7000 OVC013 09/07 Q1017=
METAR LFBZ 110200Z AUTO 28006KT 9999 BKN021 OVC027 12/09 Q1017=
METAR LFLB 110200Z AUTO 15002KT 2800 BR NSC 02/02 Q1018=
METAR LFLX 110200Z AUTO 18003KT 7000 NSC 06/05 Q1015=
METAR LFML 110200Z AUTO 09006KT 9999 OVC029 13/07 Q1020=
METAR LFCK 110200Z NIL=

0000049600
046
SAFR33 LFPW 110200
METAR LFKB 110200Z VRB02KT 9999 OVC028 12/09 Q1021 NOSIG=
METAR LFKF 110200Z AUTO 06008KT 030V110 9999 OVC029/// 13/08 Q1020=
METAR LFKJ 110200Z AUTO 04007KT 9999 BKN017/// 06/05 Q1020=
METAR LFLC 110200Z AUTO 34003KT 280V060 7000 NSC 03/02 Q1015=
METAR LFMP 110200Z AUTO 35006KT 340V040 7000 NSC 09/07 Q1018=
METAR LFMV 110200Z AUTO 15003KT 9999 OVC031 09/07 Q1020=
METAR LFSL 110200Z AUTO VRB01KT 9999 NSC 05/04 Q1016=
METAR LFKC 110200Z NIL=

0000167100
047
SAUS72 KWBC 110200 RRA
METAR
KDLF 110158Z AUTO 19007KT 10SM CLR 14/09 A2986=
KDMN 110153Z AUTO 19004KT 10SM CLR 09/M09 A3005=
KELP 110151Z 27023KT 10SM CLR 14/M09 A2996=
KESF 110153Z AUTO 19006G14KT 10SM OVC010 19/17 A2983=
KEYW 110153Z AUTO 11011KT 10SM CLR 24/22 A3008=
KFLL 110153Z 11008KT 10SM SCT018 BKN190 24/23 A3011=
KFSM 110153Z 27008KT 10SM FEW075 BKN100 11/08 A2970=
KFTW 110153Z 33010KT 10SM CLR 14/04 A2976=
KFTY 110153Z 09004KT 3SM BR OVC003 09/08 A3006=
KGGG 110153Z 21009KT 10SM BKN012 BKN018 17/16 A2974=
KGLS 110152Z AUTO 20012KT 8SM BKN003 OVC032 17/17 A2986=
KGNV 110153Z 00000KT 9SM SCT023 BKN028 OVC065 21/20 A3012=
KGPT 110153Z 14007KT 1/2SM FG VV002 14/13 A2997=
KGUP 110153Z AUTO 27010KT 10SM CLR 03/M09 A3010=
KGWO 110153Z AUTO 16022G30KT 10SM SCT019 BKN036 OVC075 16/13
     A2980=
KHOT 110153Z AUTO 19007KT 10SM OVC007 14/13 A2968=
KHOU 110153Z 20008KT 10SM OVC014 21/18 A2983=
KHRL 110152Z 18007KT 10SM CLR 19/18 A2987=
KHRO 110153Z AUTO 24012G32KT 3SM RA FEW015 BKN037 BKN055 11/08
     A2965=
KHSV 110153Z 12003KT 8SM OVC010 10/08 A2996=
KIAH 110153Z 21007KT 10SM BKN015 OVC027 21/19 A2983=
KINK 110153Z AUTO 25016KT 10SM -RA CLR 15/M09 A2983=
KJAN 110154Z 16010KT 10SM OVC009 16/13 A2989=
KJAX 110156Z 08003KT 10SM FEW100 16/16 A3011=
KJBR 110153Z AUTO 13009KT 2SM -RA BR OVC080 07/06 A2973=
KLBB 110153Z 30014KT 10SM FEW190 11/M09 A2978=
KLCH 110153Z 17010G19KT 9SM OVC003 18/18 A2984=
KLFT 110153Z AUTO 18009G19KT 10SM OVC006 19/18 A2989=
KLIT 110153Z 16007KT 6SM -RA BR SCT025 BKN055 OVC100 12/11
     A2969=
KLRD 110156Z 00000KT 10SM CLR 17/13 A2989=

0000169000
048
SAUS72 KWBC 110200 RRB
METAR
KLRU 110155Z AUTO 27017G23KT 10SM CLR 11/M09 A3000=
KMAF 110153Z 25014KT 10SM CLR 15/M08 A2981=
KMCN 110153Z AUTO 00000KT 1/2SM FG VV002 11/11 A3009=
KMCO 110153Z 13006KT 10SM SCT070 BKN210 22/19 A3013=
KMEI 110158Z 15003KT 7SM OVC006 13/13 A2994=
KMEM 110154Z 17011G19KT 10SM FEW015 OVC025 13/10 A2974=
KMFE 110153Z 14005KT 10SM CLR 20/18 A2988=
KMGM 110153Z 09004KT 1SM BR VV002 12/11 A3002=
KMIA 110153Z 09007KT 10SM SCT017 SCT024 SCT190 BKN300 25/22
     A3011=
KMKL 110153Z AUTO 17009G17KT 10SM SCT012 OVC037 12/09 A2977=
KMLB 110153Z 09004KT 4SM BR OVC070 22/21 A3013=
KMLC 110153Z AUTO 33006KT 10SM FEW075 SCT100 08/02 A2975=
KMLU 110153Z 18010G18KT 10SM BKN007 OVC011 17/16 A2980=
KMOB 110156Z 13006KT 1/4SM FG VV002 14/14 A2998=
KMSL 110153Z AUTO 15011KT 9SM BKN013 OVC055 12/09 A2992=
KMSY 110153Z 14005KT 1/8SM FG VV001 16/16 A2994=
KNEW 110153Z AUTO 14005KT 1 1/4SM BR OVC002 13/13 A2996=
KNGP 110156Z 18007KT 9SM FEW035 SCT250 17/16 A2985=
KOKC 110152Z 20004KT 10SM CLR 03/M04 A2974=
KPBI 110153Z 13007KT 10SM FEW022 SCT200 24/21 A3011=
KPDK 110153Z VRB03KT 3/4SM -RA BR OVC003 08/07 A3007=
KPFN NIL=
KPIE 110153Z 06004KT 10SM CLR 19/18 A3010=
KPNS 110153Z AUTO 12007KT 1/2SM R17/1800V2400FT FG VV002 17/16
     A3000=
KROW 110151Z 24015KT 10SM CLR 12/M11 A2985=
KRSW 110153Z 00000KT 3SM BR FEW009 SCT028 BKN036 21/21 A3010=
KSAT 110151Z 22008KT 10SM SCT170 BKN250 19/14 A2985=
KSFB 110153Z 11003KT 10SM OVC070 21/20 A3013=
KSHV 110156Z 21009KT 10SM BKN008 OVC013 17/16 A2974=
KSJT 110151Z 23009KT 10SM CLR 12/M05 A2979=
KSRQ 110153Z 06004KT 10SM CLR 21/19 A3008=

0000108200
049
SAUS72 KWBC 110200 RRC
METAR
KSSI 110153Z AUTO 14009KT 9SM FEW003 OVC012 17/17 A3011=
KTCC 110153Z AUTO 33011KT 10SM CLR 08/M11 A2983=
KTCL 110153Z 00000KT 6SM -RA BR OVC009 13/12 A2997=
KTCS 110153Z AUTO 36006G18KT 10SM CLR 13/M11 A3000=
KTLH 110153Z 18006KT 3SM BR OVC002 18/17 A3008=
KTPA 110153Z 00000KT 10SM FEW280 22/19 A3011=
KTRI 110153Z 03003KT 10SM CLR 07/06 A3001=
KTUL 110153Z 21005KT 10SM CLR 07/00 A2969=
KTUP 110153Z 19014G18KT 10SM OVC007 12/ A2986=
KTXK 110153Z 19007KT 6SM BR BKN008 OVC013 16/15 A2972=
KTYR 110153Z 22008KT 10SM OVC012 17/16 A2976=
KTYS 110153Z 24003KT 10SM -RA OVC032 08/07 A3000=
KVCT 110151Z 21007KT 9SM CLR 21/18 A2985=
KVLD 110153Z 18004KT 10SM BKN050 19/17 A3008=
KVRB 110153Z 15004KT 10SM CLR 22/22 A3013=
TIST 110153Z AUTO 08008KT 10SM CLR 24/18 A3010=
TISX 110153Z AUTO 06007KT 10SM CLR 23/19 A3010=
TJBQ NIL=
TJMZ NIL=
TJPS 110150Z 11005KT 8SM FEW030 24/19 A3008=
TJSJ 110156Z 08012KT 10SM FEW035 SCT045 26/18 A3011=
TKPK 110200Z 07015KT 9999 SCT020 25/19 Q1018=
TNCM NIL=

0000029300
050
FTUS51 KWBC 110157 AAA
TAF AMD
KMHT 110155Z 1102/1124 00000KT 3SM BR OVC015
     FM110600 00000KT 2SM BR OVC015
     FM111000 00000KT 1SM -FZRA BR OVC008
     FM111500 17004KT 3/4SM -RA BR OVC004 WS020/20045KT
     FM112000 18013G25KT 1SM -RA OVC008 WS020/20050KT=

0000019800
051
FTUS53 KWBC 110157 AAA
TAF AMD
KBIS 110153Z 1102/1124 28007KT P6SM FEW025
      TEMPO 1102/1105 BKN015
     FM111000 31010KT P6SM BKN100
     FM111900 25010KT P6SM BKN035=

0000100200
052
FTUS80 KWBC 110157 AAA
TAF AMD
KBIS 110153Z 1102/1124 28007KT P6SM FEW025
      TEMPO 1102/1105 BKN015
     FM111000 31010KT P6SM BKN100
     FM111900 25010KT P6SM BKN035=
KMHT 110155Z 1102/1124 00000KT 3SM BR OVC015
     FM110600 00000KT 2SM BR OVC015
     FM111000 00000KT 1SM -FZRA BR OVC008
     FM111500 17004KT 3/4SM -RA BR OVC004 WS020/20045KT
     FM112000 18013G25KT 1SM -RA OVC008 WS020/20050KT=
KMKE 110155Z 1102/1206 19008KT 5SM -RA BR OVC004
     FM110415 21006KT 2SM -DZ BR OVC004
     FM110800 24006KT 3SM -DZ BR OVC004
     FM111400 27010G19KT 4SM -SN OVC008
     FM111800 27013G22KT P6SM BKN012
     FM120000 27010KT P6SM BKN025=
KRDU 110155Z 1102/1124 VRB02KT 2SM -RADZ BR OVC003 WS018/19030KT
     FM110400 VRB03KT 1/2SM -DZ FG VV002 WS014/19035KT
     FM111100 18010KT P6SM OVC006
     FM111300 19014G22KT P6SM BKN009 OVC020
     FM111700 20017G28KT 5SM -SHRA BR BKN012 OVC025
     FM112200 25016G23KT P6SM FEW025 BKN100=

00000000