0000015400
393
SACN62 CYMH 102000
METAR CYMH 102000Z 25009G16KT 15SM BKN100 OVC200 M12/M20 A2988 RMK
 AC5CI3 LAST STAFFED OB/NEXT 131200 UTC SLP121=

0000015800
394
SACN62 CYOC 102000
METAR CYOC 102000Z 00000KT 20SM IC VCFG FEW018 FEW034 FEW080 M40/M44
 A2972 RMK ST1SC1AC1 AC TR FROIN VIS NE 2 SLP114=

0000010400
395
SACN61 CYPR 102000
METAR CYPR 102000Z AUTO 13009KT 9SM FEW029 04/02 A2973 RMK SLP070=

0000011200
396
SACN61 CYQW 102000
METAR CYQW 102000Z AUTO 25004KT 5SM BR OVC095 M09/M10 A2942 RMK
 SLP000=

0000013100
397
SACN61 CYPQ 102000
METAR CYPQ 102000Z AUTO 00000KT 5SM BR OVC005 M01/M02 A3015 RMK PCPN
 0.5MM PAST HR SLP222=

0000011100
398
SACN62 CYQI 102000
METAR CYQI 102000Z 23012KT 2SM -SN OVC005 00/M00 A3043 RMK SF8
 SLP306=

0000039400
399
SAHU41 LHBM 102000
METAR LHKE 101945Z 22002MPS CAVOK 02/00 Q1021 NOSIG RMK BLU=
METAR LHPA 101945Z 17002MPS 4000 BR FEW083 M01/M01 Q1021 NOSIG RMK
     GRN=
METAR LHPP 101945Z 10005KT CAVOK 05/04 Q1022=
METAR LHPR 101945Z 23004KT CAVOK 04/M01 Q1021=
METAR LHSN 101945Z 24004MPS CAVOK 04/00 Q1020 NOSIG RMK BLU=
METAR LHUD 101945Z 17004KT 8000 FEW200 01/M00 Q1022=

0000086900
400
SACH10 SCSC 102000
METAR SCFA 102000Z 20015KT 9999 FEW025 SCT260 23/16 Q1010 NOSIG=
METAR SCAR 102000Z 21011KT CAVOK 24/17 Q1009=
METAR SCBA 102000Z 31028KT 9999 FEW040 BKN200 15/03 Q1015=
METAR SCCF 102000Z 26017KT CAVOK 23/04 Q1021=
METAR SCIE 102000Z 23017KT CAVOK 22/10 Q1015=
METAR SCAT 102000Z 27011KT 240V310 CAVOK 22/14 Q1013=
METAR SCDA 102000Z 21015KT CAVOK 24/18 Q1010=
METAR SCSE 102000Z 28012KT CAVOK 20/14 Q1013=
METAR SCJO 102000Z 17011KT 9999 FEW030 19/08 Q1021=
METAR SCTE 102000Z 13013KT 9999 SCT040 BKN200 17/05 Q1022 NOSIG=
METAR SCNT 102000Z NIL=
METAR SCCI 102000Z 24021KT 9999 SCT040 BKN066 11/02 Q1009 NOSIG=
METAR SCEL 102000Z 22014KT 180V250 CAVOK 31/06 Q1012 NOSIG=
METAR SCIP 102000Z 10011KT 9999 SCT020 SCT040 26/18 Q1020 NOSIG=
METAR SCPQ 102000Z AUTO 13007KT 070V190 9999 BKN047 15/07 Q1022=

0000012200
401
SACN62 CYZF 102000
METAR CYZF 102000Z 31004KT 5SM -SN FEW007 OVC055 M23/M26 A2949 RMK
 SC1SC7 SLP014=

0000011200
402
SACN62 CYYT 102000
METAR CYYT 102000Z 28019G25KT 15SM FEW025 M07/M13 A3017 RMK SC2
 SLP226=

0000007700
403
FCDL34 EDZO 101700 RRC
TAF AMD EDLN 101957Z 1019/1024 CNL=

0000031300
404
FTUS80 KWBC 101957 AAA
TAF AMD
KATL 101955Z 1020/1124 08008KT 1SM -DZ BR OVC002
     FM110100 11008KT 1/2SM -RADZ FG OVC002
     FM110900 16009KT 1SM -RADZ BR OVC003
     FM111400 20009G18KT 2SM -SHRA OVC006
     FM111900 27013G22KT P6SM BKN025
     FM112100 27014G23KT P6SM SCT035=

0000010600
405
SPUS41 KWBC 101957
SPECI
KDOV 101954Z AUTO 00000KT 1 1/4SM -RA BR BKN002 04/04 A3033=

0000018900
406
SANL32 EHDB 101955
METAR EHEH 101955Z AUTO 21010KT 9999 OVC012 06/03 Q1016 
GRN 22008KT BKN011=
METAR EHKD 101955Z AUTO 22013KT 9999 FEW005 BKN130 08/07 Q1013 
BLU=

0000009000
407
SADL34 EDZO 101950 RRA
METAR EDNY 101950Z VRB03KT 7000 NSC 03/01 Q1019=

0000023400
408
SAMX31 KWBC 101945 RRC
METAR
MMMY 101947Z 10006KT 6SM SKC 24/12 A2983 RMK HZY=
MMMZ 101944Z 22009KT 15SM SCT210 25/13 A2991 RMK 8/004=
MMVR 101945Z 11010KT 7SM SKC 27/17 A2987 RMK HZY DSNT TCU 3/4
     QUAD=

0000017300
409
SAVN24 SVMG 102000
METAR SVMG 102000Z /////KT 9999 SCT010 28/21 Q1012 NOSIG=
METAR SVCU 102000Z NIL=
METAR SVCP 102000Z NIL=
METAR SVGI 102000Z NIL=

0000011500
410
SAPR01 SPIM 102000
METAR SPIM 102000Z 16009KT 9999 SCT010 BKN170 23/19 Q1009 NOSIG RMK 
PP000=

0000011000
411
SABH31 MZBZ 102000
METAR MZBZ 102000Z 06005KT 9999 FEW022 BKN045 28/22 A2993 Q1013
NOSIG=

0000008900
412
SABZ19 SBCJ 102000
METAR SBCJ 102000Z 04003KT 9999 FEW027 25/20 Q1012=

00000000