0000011000
833
UANT01 CWAO 110935
ARP DLH499 5425N04645W 0935 F350 MS60 288/74 KT
DABYG QXT AME 110935 F98A
0000010900
834
UANT01 CWAO 110935
ARP SWR39 5638N05455W 0935 F350 MS58 290/75 KT
HBJMO QXS YHO 110935 J39A
0000043700
835
SIXX40 ETGT 110900 RRC
AAXX 11094
40255 42960 00000 10120 20067 39514 40240 52011=
40260 42960 00206 10106 21041 39437 40234 52009=
40270 41525 40000 10089 20071 39327 40242 52007 71022 84200 333
84825=
40272 41550 42905 10100 20084 39395 40250 52007 71022 84200 333
84825=
40310 42560 62809 10084 20039 39006 48537 54002 87800 333 83825
83630=
40340 42560 20000 10154 20100 40247 52006 82100 333 82830=
0000014000
836
SSVX12 KARS 110934
ZZYY 48600 11014 0840/ 173737 173980 6113/
11119 40215 57006
444 20130 11014 0826/ 501// 80140 80000=
0000017000
837
SACN41 CWAO 110200 CCA
METAR CZMT 110200Z CCA 13011G18KT 15SM -RA BKN009 BKN014 OVC020 04/02
A2931 RMK SC4SC2SC2 PRESFR LAST OBS/NEXT 111500 UTC SLP925=
0000010300
838
SACN48 CWAO 110200
METAR CYPX 110200Z 22009KT 15SM BKN022 M23/M25 A2970 RMK SC6 SLP062=
0000010800
839
SACN47 CWAO 110200
METAR CYRJ 110200Z 21011G17KT 30SM BKN040 M05/M09 A3007 RMK SC7
SLP199=
0000013600
840
SACN40 CWAO 110200
METAR CYWH 110200Z 11009KT 5SM -RA BR SCT004 BKN011 OVC035 08/07
A2973 RMK SF3SC2SC2 PRESFR SLP068=
0000011400
841
SACN45 CWAO 110200
METAR CYZS 110200Z 30010KT 15SM FEW210 M29/M33 A2955 RMK CI1 WND ESTD
SLP016=
0000011000
842
SACN43 CWAO 110200
METAR CYEN 110200Z 28011KT 1/4SM FZFG VV001 M06/M06 A2953 RMK FG8
SLP033=
0000011500
843
SACN47 CWAO 110200
METAR CYVV 110200Z 15013KT 4SM BR BKN007 OVC012 02/01 A2987 RMK
SF7SC1 SLP126=
0000012700
844
SACN45 CWAO 110200
METAR CYBB 110200Z 23023G28KT 6SM IC DRSN BKN030 M33/M36 A2950 RMK
SC4 WX CALL-OUT SLP991=
0000014000
845
SACN40 CWAO 110200 RRA
METAR CYWH 110200Z 11009KT 5SM -RA BR SCT004 BKN011 OVC035 08/07
A2973 RMK SF3SC2SC2 PRESFR SLP068=
0000010700
846
SACN44 CWAO 110200 RRA
METAR CYXH 110200Z 25003KT 15SM BKN110 M06/M09 A2967 RMK AC6 SLP085=
0000010700
847
SACN49 CWAO 110200 RRA
METAR CYYG 110200Z 22008KT 15SM OVC011 M03/M05 A3027 RMK SC8 SLP255=
0000011800
848
SACN45 CWAO 110200 RRA
METAR CYZS 110200Z 30010KT 15SM FEW210 M29/M33 A2955 RMK CI1 WND ESTD
SLP016=
0000012300
849
SACN43 CWAO 110200 CCA
METAR CYEN 110200Z CCA 28011KT 1/4SM FZFG DRSN VV001 M06/M06 A2953
RMK FG8 SLP033=
0000018700
850
SACN47 CWAO 110200 RRA
METAR CYRJ 110200Z 21011G17KT 30SM BKN040 M05/M09 A3007 RMK SC7 SLP199=
METAR CYYY 110200Z 22011G16KT 30SM SCT100 M06/M12 A3013 RMK AC3
 SLP208=
0000011200
851
SACN43 CWAO 110200 RRA
METAR CYEN 110200Z 28011KT 1/4SM FZFG VV001 M06/M06 A2953 RMK FG8 SLP033=
0000013200
852
SACN42 CWAO 110200 RRA
METAR CYZT 110200Z 11023G33KT 6SM -RA BR OVC010 04/04 A2942 RMK SC8
 PRESSFR PRESFR SLP963=
00000000