0000148500
273
SNFR31 LFPW 110400
AAXX 11044
07024 24256 71910 10065 20062 39987 40155 50000 700//
  333 60005 90710 91114=
07031 24556 82204 10057 20053 39989 40165 50001 700//
  333 69925 90710 91113=
07100 26/// /3515 10095 20084 30079 40162 53009
  333 69925 90710 91121=
07103 26/// /2409 10101 20090 30066 40164 53007
  333 60005 90710 91110=
07107 26/// /2107 10085 20076 30140 40162 53007
  333 60005 90710 91110=
07118 24585 /2205 10071 20064 30057 40164 53004 700//
  333 60005 90710 91108=
07120 24964 /2103 10055 20046 39997 40163 52004 700//
  333 60005 90710 91106=
07125 24/00 91903 10052 20046 30090 40162 55000 745//
  333 60005 90710 91106=
07134 24001 /3603 10049 20049 30038 40161 55000 744//
  333 60005 90710 91107=
07200 26/// /2104 10092 20083 30141 40164 53004
  333 60005 90710 91106=
07201 24/03 90000 10061 20058 30053 40169 53005 745//
  333 60005 90710 91102=
07203 26/// /2902 10074 20071
  333 60005 90710 91107=
07205 24/01 92901 10069 20066 30115 40169 52005 745//
  333 60005 90710 91105=
07217 24121 83403 10081 20077 30160 40164 52012 710//
  333 60005 90710 91106=
07230 24/16 /0401 10065 20064 30102 40161 53003 710//
  333 69905 90710 91103=
07235 24256 80303 10066 20059 30097 40161 56002 700//
  333 69905 90710 91106=
07300 26/// /3210 10091 20075 30126 40165 53013
  333 60005 90710 91119=
07306 24350 71501 10076 20068 30052 40161 53006 700//
  333 60005 90710 91102=
0000114800
274
SNFR32 LFPW 110400
AAXX 11044
07140 24130 80504 10056 20053 30007 40163 50000 761//
  333 69905 90710 91108=
07143 24128 80202 10056 20052 39975 40165 51003 710//
  333 69905 90710 91103=
07145 24/50 /0000 10052 20052 39954 40168 50000 700//
  333 69965 90710 91102=
07146 24120 80701 10055 20052 39969 40167 56002 750//
  333 69945 90710 91103=
07150 24241 80000 10054 20050 30107 40168 56003 761//
  333 69945 90710 91102=
07153 24150 63401 10052 20045 30055 40169 55000 760//
  333 69925 90710 91106=
07156 24/18 /0000 10062 20056 30071 40167 56006 710//
  333 69905 90710 91102=
07157 21050 81502 10052 20046 30029 40167 56004 76066 876//
  333 69945 82701 87640 90710 91105 93100=
07245 24/50 /0405 10056 20053 30002 40156 58003 700//
  333 60005 90710 91109=
07247 24960 80704 10045 20041 30053 40157 50003 700//
  333 60005 90710 91106=
07249 24035 80504 10054 20053 30008 40162 50003 710//
  333 69905 90710 91107=
07257 24959 81702 10061 20044 39947 40163 53004 700//
  333 60005 90710 91107=
07354 24969 82307 10078 20063 39967 40158 51009 700//
  333 60005 90710 91109=
0000045400
275
SNFR33 LFPW 110400
AAXX 11044
07093 24856 81203 10010 20001 39861 40181 58006 700//
  333 69925 90710 91107=
07180 24118 81502 10002 20002 39915 40181 58009 710//
  333 69905 90710 91105=
07288 26/// /0101 10028 20021 39800 40181 56004
  333 60005 90710 91103=
07292 24969 70706 10031 20013 39840 40176 58009 700//
  333 60005 90710 91108=
07386 24457 /0904 10019 20015 39936 40178 56004 700//
  333 60005 90710 91107=
0000119500
276
SNFR34 LFPW 110400
AAXX 11044
07260 24969 81403 10066 20044 39945 40161 53001 700//
  333 60005 90710 91108=
07266 24057 63202 10035 20029 39975 40164 55002 700//
  333 69905 90710 91109=
07374 24/38 /0000 10019 20015 39862 40172 53003 710//
  333 60005 90710 91103=
07379 24958 83401 10036 20024 39870 40170 55000 700//
  333 60005 90710 91104=
07385 24/31 /1704 10064 20057 39904 40168 57008 710//
  333 60005 90710 91108=
07475 24969 81508 10058 20038 39683 40167 58003 700//
  333 60005 90710 91115=
07480 24967 81711 10090 20056 39934 40173 56007 700//
  333 60005 90710 91118=
07482 24/67 /1712 10091 20058 39873 40177 58002 700//
  333 60005 90710 91120=
07486 24464 82306 10084 20059 39725 40187 55002 700//
  333 60005 90710 91114=
07487 26/// /0202 10020 20019 39920 40193 55004
  333 60005 90710 91104=
07491 24917 /0000 10021 20017 39905 40196 56001 710//
  333 60005 90710 91102=
07497 26/// /0103 10031 20002 39175 48483 56011
  333 60005 90710 91104=
07549 24969 /1005 10060 20030 39430 40189 52018 700//
  333 60005 90710 91109=
07570 24/40 /0000 10070 20067 39878 40218 55000 710//
  333 60005 90710 91104=
0000143200
277
SNFR35 LFPW 110400
AAXX 11044
07316 24336 81803 10090 20081 30140 40162 53009 710//
  333 60005 90710 91104=
07330 24/01 /0000 10048 20044 30090 40166 53010 745//
  333 60005 90710 91102=
07361 24/70 /2105 10095 20053 39724 40159 51003 700//
  333 60005 90710 91121=
07412 24458 82002 10075 20066 30131 40169 53011 700//
  333 60005 90710 91107=
07438 24/46 /0000 10045 20039 30043 40188 53013 710//
  333 60005 90710 91102=
07500 26/// /2909 10109 20100 30139 40173 51013
  333 60005 90710 91112=
07503 265// 83009 10118 20102 30127 40174 53010
  333 60005 90710 91113=
07524 24457 81001 10065 20065 30094 40179 51012 700//
  333 60005 90710 91102=
07530 24533 80703 10039 20038 30113 40178 51011 710//
  333 60005 90710 91106=
07540 24/58 /1002 10055 20048 30057 40189 53019 700//
  333 60005 90710 91103=
07552 24974 81106 10071 20042 39500 40187 53016 700//
  333 60005 90710 91114=
07600 26/// /2205 10110 20086 30134 40186 51009
  333 60005 90710 91106=
07602 24581 82101 10117 20087 30098 40184 51011 700//
  333 60005 90710 91109=
07603 26564 82204 10104 20093 30142 40180 51012
  333 60005 90710 91106=
07610 24557 82103 10095 20083 39963 40184 51011 700//
  333 60005 90710 91105=
07622 24/58 /2402 10092 20075 30028 40184 52014 700//
  333 60005 90710 91108=
07632 24/59 /0000 10054 20045 39977 40187 53019 700//
  333 60005 90710 91104=
0000190000
278
SNFR36 LFPW 110400
AAXX 11044
07554 24470 81503 10041 20023 39110 4//// 53007 700//
  333 60005 90710 91109=
07560 26/// /1820 10007 20007 38423 4//// 55000
  333 60005 90710 91133=
07563 24580 81303 10105 20068 30145 40204 51003 700//
  333 60005 90710 91109=
07579 24550 80301 10079 20068 30138 40206 51001 700//
  333 60005 90710 91102=
07586 26/// /1204 10103 20061 30076 40205 51003
  333 60005 90710 91108=
07588 24470 81102 10049 20029 39661 40219 56003 700//
  333 60005 90710 91108=
07635 24468 81006 10100 20078 30033 40187 51010 700//
  333 60005 90710 91113=
07638 24563 80407 10110 20082 30172 40191 54000 700//
  333 60005 90710 91111=
07641 26/// /0107 10108 20084 30098 40191 58002
  333 60005 90710 91113=
07646 24659 80904 10099 20061 30071 40199 58002 700//
  333 60005 90710 91107=
07647 24569 80908 10111 20076 30170 40198 58001 700//
  333 60005 90710 91111=
07648 24570 81004 10105 20066 30131 40203 50001 700//
  333 60005 90710 91107=
07666 26/// /1207 10122 20094 30136 40184 53006
  333 60005 90710 91115=
07667 24582 80203 10113 20085 30201 40206 54000 700//
  333 60005 90710 91105=
07675 24/56 /2401 10083 20072 30110 40211 54000 700//
  333 60005 90710 91104=
07684 24675 80103 10110 20069 30204 40209 57003 700//
  333 60005 90710 91105=
07749 26/// /2909 10106 20071 30081 40187 53007
  333 60005 90710 91112=
07754 26986 /1606 10055 20045 30131 40203 50002
  333 60005 90710 91108=
07765 24586 83302 10118 20083 30189 40210 58006 700//
  333 60005 90710 91105=
07770 26/// /0612 10120 20096 30062 40202 56007
  333 60005 90710 91120=
07775 26/// /2307 10123 20082 30120 40210 58004
  333 60005 90710 91108=
07780 24586 70709 10124 20087 30176 40204 57007 700//
  333 60005 90710 91116=
07785 26/// /2601 10120 20088 30070 40206 50001
  333 60005 90710 91103=
0000110000
279
SNFR37 LFPW 110400
AAXX 11044
07002 26/// /1707 10045 20035 30070 40154 55002
  333 60005 90710 91113=
07003 24240 81504 10039 20033 30134 40159 55001 710//
  333 60005 90710 91108=
07010 26/// /2009 10044 20034 30131 40151 58004
  333 60005 90710 91115=
07028 26/// /1306 10066 20059 30031 40159 58001
  333 69905 90710 91110=
07038 24108 81303 10052 20051 39997 40167 50001 744//
  333 60005 90710 91104=
07040 26/// /1709 10054 20047 30109 40158 52002
  333 60005 90710 91115=
07046 24258 81705 10066 20051 30044 40159 57002 700//
  333 60005 90710 91109=
07055 24124 81702 10046 20040 30031 40168 58002 710//
  333 60005 90710 91104=
07057 24114 81901 10046 20042 30057 40166 57004 710//
  333 60005 90710 91103=
07061 24/03 /2103 10038 20038 30045 40167 57007 745//
  333 60005 90710 91107=
07075 24723 81504 10041 20032 39988 40171 58009 761//
  333 69925 90710 91109=
07169 24876 80804 10043 20030 39995 40165 58010 700//
  333 69905 90710 91106=
07283 24961 /1703 10041 20034 39609 40173 55006 700//
  333 60005 90710 91109=
0000015700
280
SSVX13 LFPW 110400
ZZYY 62687 11014 0400/ 166053 001491 6113/ 11119 40050 57010 22219
 00076 444 20130 11014 0357/ 50101 80098 80000 9/015=
0000038500
281
SSVX13 LFPW 110400
ZZYY 61690 11014 0400/ 142776 029462 6113/ 11119 40220 52014 22219
 00093 33300 88870 20000 30932 20011 30936 20013 30932 20016 30924
 20021 30930 20025 30932 20030 30936 20035 30932 20040 30928 20045
 30936 20049 30876 20054 30804 20059 30792 20064 30782 20069 30784
 20074 30790 20079 30796 444 20131 11014 0357/ 50101 80102 80027
 9/015=
0000015700
282
SSVX13 LFPW 110400
ZZYY 61688 11014 0400/ 144049 029461 6113/ 11119 40218 52021 22219
 00088 444 20131 11014 0357/ 50101 80090 80010 9/015=
0000015700
283
SSVX13 LFPW 110400
ZZYY 44610 11014 0400/ 750394 040815 6113/ 11119 40069 52007 22219
 00102 444 20130 11014 0400/ 50101 80150 80002 9/015=
0000015700
284
SSVX13 LFPW 110400
ZZYY 44624 11014 0400/ 746683 020065 6113/ 11119 40095 57037 22219
 00128 444 20130 11014 0357/ 50101 80098 80015 9/015=
0000015700
285
SSVX13 LFPW 110400
ZZYY 44745 11014 0400/ 745765 050371 6113/ 11119 40246 57014 22219
 00015 444 20130 11014 0400/ 50101 80150 80000 9/015=
0000015700
286
SSVX13 LFPW 110400
ZZYY 61687 11014 0400/ 144689 029810 6113/ 11119 40212 52020 22219
 00076 444 20131 11014 0357/ 50101 80090 80011 9/015=
0000015700
287
SSVX13 LFPW 110400
ZZYY 62713 11014 0400/ 733811 019611 6113/ 11119 40161 57003 22219
 00182 444 20130 11014 0357/ 50101 80098 80000 9/015=
0000015700
288
SSVX13 LFPW 110400
ZZYY 44762 11014 0400/ 751181 006219 6113/ 11119 40161 52023 22219
 00106 444 20130 11014 0357/ 50101 80096 80000 9/015=
0000015700
289
SSVX13 LFPW 110400
ZZYY 44747 11014 0400/ 758625 045281 6113/ 11119 49962 54000 22219
 00046 444 20130 11014 0400/ 50101 80154 80000 9/015=
0000015700
290
SSVX13 LFPW 110400
ZZYY 16592 11014 0400/ 346248 066485 6113/ 11119 40164 52001 22219
 00058 444 20130 11014 0356/ 50101 80118 80023 9/015=
0000015700
291
SSVX13 LFPW 110400
ZZYY 62714 11014 0400/ 734324 021735 6113/ 11119 40147 57017 22219
 00192 444 20130 11014 0357/ 50101 80100 80000 9/015=
0000011000
292
UANT01 CWAO 110359
ARP DLH471 5503N03849W 0358 F380 MS55 245/32 KT
DAIHB QXT AOW 110359 J53A
00000000