0000072300
513
SARS36 RUMS 102000
METAR ULAA 102000Z 08008MPS 9999 DRSN OVC030 M17/M20 Q1003 NOSIG RMK
QFE751/1002 SC050=
METAR ULMM 102000Z 00000MPS 9999 BKN003 M33/M37 Q1017 NOSIG RMK
QBB090 OBST OBSC QFE755 31450239=
METAR ULOO 102000Z 30005MPS P6000 -SHRA BKN005 BKN011CB OVC020 03/03
Q0982 19290055 NOSIG RMK OBST OBSC QFE733=
METAR ULPB 102000Z AUTO 01005MPS 350V060 1200 NCD M08/M09 Q0989=
METAR UMKK 102000Z 32007G12MPS 290V350 6000 -SHRA SCT010 OVC023CB
04/01 Q1002 R24/29//60 NOSIG RMK QFE751/1001=
METAR UUOO 102000Z 21007G11MPS 7000 -RA OVC004 02/01 Q0999 NOSIG RMK
12290250=
METAR UUYY 102000Z 03003MPS 4900 -SN BKN009 OVC066 M16/M18 Q1005
TEMPO 1000 SN BR 0145//33 RMK QFE745/0993=

0000053600
514
SAMS31 WMKK 102000
METAR WBGG 102000Z 00000KT 8000 -RA FEW000 SCT020 BKN150 23/22 Q1011
NOSIG=
METAR WBKK 102000Z 11004KT 070V140 9999 FEW014 SCT140 BKN280 24/23
Q1010 NOSIG=
METAR WBSB 102000Z 23002KT 9999 FEW005 BKN300 24/24 Q1011 NOSIG=
METAR WMKK 102000Z 33005KT 300V020 9000 FEW030 SCT140 BKN280 24/23
Q1010 NOSIG=
METAR WMKP 102000Z 00000KT 8000 FEW025 SCT140 BKN260 25/24 Q1011
NOSIG=
METAR WSSL 102000Z NIL=
METAR WSSS 102000Z 33003KT 290V020 9999 FEW018 SCT150 BKN300 24/23
Q1010 NOSIG=

0000048900
515
SAMS32 WMKK 102000
METAR WBGG 102000Z 00000KT 8000 -RA FEW000 SCT020 BKN150 23/22 Q1011
NOSIG=
METAR WBKK 102000Z 11004KT 070V140 9999 FEW014 SCT140 BKN280 24/23
Q1010 NOSIG=
METAR WMKJ 102000Z 33001KT 9999 FEW023 BKN300 23/22 Q1010=
METAR WMKK 102000Z 33005KT 300V020 9000 FEW030 SCT140 BKN280 24/23
Q1010 NOSIG=
METAR WMKP 102000Z 00000KT 8000 FEW025 SCT140 BKN260 25/24 Q1011
NOSIG=
METAR WMSA 102000Z 32004KT 260V010 8000 FEW008 BKN270 24/22 Q1010=

0000075600
516
SAMS33 WMKK 102000
METAR WMAU 102000Z 29004KT 8000 FEW000 SCT140 BKN270 24/23 Q////
QFF1010=
METAR WMBA 102000Z 03001KT 8000 -RA FEW006 SCT030 BKN260 24/23 Q1011=
METAR WMKA 102000Z 00000KT 9999 FEW030 SCT140 BKN280 24/23 Q1012=
METAR WMKB 102000Z 04003KT 8000 FEW025 SCT150 BKN270 25/24 Q1011
NOSIG=
METAR WMKC 102000Z 07014KT 050V110 9000 FEW010 SCT020 OVC200 26/23
Q1011=
METAR WMKD 102000Z 01003KT 9999 FEW012 SCT160 BKN260 23/22 Q1011
NOSIG=
METAR WMKE 102000Z NIL=
METAR WMKI 102000Z 03003KT 7000 -RA FEW005 SCT028 BKN260 23/23 Q1011=
METAR WMKL 102000Z NIL=
METAR WMKM 102000Z 04002KT 9999 FEW017CB SCT140 BKN280 24/23 Q1010=
METAR WMKN 102000Z 10003KT 8000 -RA FEW005 SCT022 OVC190 23/23 Q1011
RERA=

0000051000
517
SAMS38 WMKK 102000
METAR WBGB 102000Z 00000KT 9999 FEW016 BKN150 25/24 Q1011=
METAR WBGR 102000Z 19001KT 9999 SCT014 SCT150 BKN300 24/23 Q1010=
METAR WBGS 102000Z 30002KT 9999 SCT018 BKN150 23/23 Q1011=
METAR WBKL 102000Z NIL=
METAR WBKS 102000Z NIL=
METAR WBKW 102000Z 33002KT 9999 FEW017 BKN140 24/22 Q1009=
METAR WMKD 102000Z 01003KT 9999 FEW012 SCT160 BKN260 23/22 Q1011
NOSIG=
METAR WMKL 102000Z NIL=
METAR WMKM 102000Z 04002KT 9999 FEW017CB SCT140 BKN280 24/23 Q1010=

0000048200
518
SAMS34 WMKK 102000
METAR WBGB 102000Z 00000KT 9999 FEW016 BKN150 25/24 Q1011=
METAR WBGR 102000Z 19001KT 9999 SCT014 SCT150 BKN300 24/23 Q1010=
METAR WBGS 102000Z 30002KT 9999 SCT018 BKN150 23/23 Q1011=
METAR WBGY 102000Z 30001KT 9999 -RA FEW004 SCT020 OVC160 23/23 Q1011=
METAR WBKL 102000Z NIL=
METAR WBKS 102000Z NIL=
METAR WBKT 102000Z 08005KT 8000 -RA FEW008 SCT033 BKN260 26/24 Q1011=
METAR WBKW 102000Z 33002KT 9999 FEW017 BKN140 24/22 Q1009=

0000042600
519
SAAM31 FCBB 102000
METAR FCBB 102000Z VRB02KT 8000 FEW030CB 25/23 Q1013 NOSIG=
METAR FCPP 102000Z 16009KT 9999 FEW013 BKN023 27/24 Q1012 NOSIG=
METAR FKKD 102000Z 00000KT 8000 FEW016 BKN300 27/25 Q1012 NOSIG=
METAR FKYS NIL=
METAR FKKR 102000Z 00000KT CAVOK 25/03 Q1013 NOSIG=
METAR FKKL NIL=
METAR FKKN NIL=
METAR FEFF 102000Z 00000KT 2000 BR NSC 22/19 Q1012 BECMG 6000 NSW=
METAR FEFT NIL=

0000009200
520
SAMT20 GQPP 102000
METAR GQPP 102000Z 25004KT 8000 NSC 18/15 Q1015 NOSIG=

0000025300
521
SANZ31 NZKL 102000
METAR NZAA 102000Z AUTO 18005KT 150V210 9999 OVC044/// 19/13 Q1019
          NOSIG=
METAR NZWN 102000Z AUTO 05006KT 9999 NCD 17/12 Q1017 NOSIG=
METAR NZCH 102000Z AUTO 07012KT 9999 SCT020/// 17/12 Q1016 NOSIG=

0000010000
522
SAUK37 EGGY 101950 RRA
METAR EGPI 101950Z AUTO 32015KT 9999 NCD 04/02 Q1007 RERA=

0000010000
523
SAUK38 EGGY 101950 RRA
METAR EGPU 101950Z AUTO 21004KT 9999 NCD 02/01 Q1006 RERA=

0000004200
524
SASP36 LEMM 102000
NIL=

0000004200
525
SASP37 LEMM 102000
NIL=

0000013200
526
SACN62 CYXP 102000
METAR CYXP 102000Z 00000KT 7SM -SN FEW030 BKN090 OVC210 M19/M22 A2924
 RMK SC1AS5CI2 SLP905=

0000012800
527
SACN62 CYVT 102000
METAR CYVT 102000Z 31010KT 12SM -SN DRSN BKN010 OVC080 M08/M11 A2933
 RMK SC5AC3 SLP960=

0000022300
528
SASP40 LEMM 102000
METAR LEGA 102000Z NIL=
METAR LEGT 102000Z NIL=
METAR LEMO 102000Z 00000KT CAVOK 10/10 Q1013
NOSIG=
METAR LERI 102000Z NIL=
METAR LERT 102000Z 04003KT CAVOK 13/10 Q1013 NOSIG=

0000010300
529
SACN61 CYXS 102000
METAR CYXS 102000Z AUTO 17008KT 9SM CLR M03/M05 A2969 RMK SLP087=

0000011100
530
SACN62 CYVO 102000
METAR CYVO 102000Z 19010KT 6SM BR OVC008 M06/M07 A2999 RMK ST8
 SLP183=

0000038500
531
SAAP32 FAPR 102000
METAR FACT 102000Z 17015KT 9999 FEW035 18/13 Q1018 NOSIG=
METAR FALE 102000Z 20007KT 9999 SCT030 23/20 Q1015 NOSIG=
METAR FAOR 102000Z 18006KT 140V220 CAVOK 23/10 Q1020 NOSIG=
METAR FBSK 102000Z 17004KT CAVOK 27/04 Q1014 NOSIG=
METAR FQBR 102000Z 07007KT 9999 FEW020 28/24 Q1009=
METAR FQMA 102000Z 07012KT 9999 BKN020 27/23 Q1010 NOSIG=

0000014700
532
SACN62 CYXC 102000
METAR CYXC 102000Z 34003KT 20SM FEW050 SCT080 BKN110 OVC230 01/M04
 A2964 RMK SC1AC2AC3CI2 SH ALDQS SLP067=

00000000