0000029100
333
SXHW11 KWAL 110405
B15017A0 011040503"
1,140111,03:00:00,12.3,74,18.0,11.2,1013.5,6.03,13.7,
1,140111,03:15:00,12.1,75,16.8,11.3,1013.7,6.03,13.8,
1,140111,03:30:00,11.7,76,16.3,11.3,1013.9,6.03,13.8,
1,140111,03:45:00,11.0,79,15.8,11.3,1014.0,6.03,13.1, 42+0NN 210W
0000011000
334
UANT99 KDDL 110403
ARP DAL14 4755N02130W 0403 F340 MS61 229/61 KT
N839MH QXT AOE 110403 F88A
0000011000
335
UANT99 KDDL 110403
ARP VIR46C 5052N04040W 0403 F390 MS55 269/28 KT
GVWOW DDL XXW 110403 F84A
0000067100
336
SXXX32 EUMS 110355 RRX
366C76AC
OT12 ID:IR-CHAB-07 DT:2014 01 11 03 54
:RAD /1 01742 01733 01718 01711 01716 01697 01684 01696 01677 01692 01676 01675 01655 01664 01653 01652 01647 01652 01651 01653 01635 01637 01627 01620 01635 01618 01609 01603 01584 01591
:PR1 /1 02211 02212 02195 02195 02183 02180 02168 02165 02158 02165 02155 02145 02135 02136 02132 02113 02110 02113 02098 02099 02092 02082 02079 02063 02082 02064 02066 02045 02030 02011
:PR2 /1 01754 01750 01736 01736 01711 01708 01708 01696 01699 01686 01684 01687 01677 01679 01670 01666 01665 01653 01640 01644 01634 01630 01636 01630 01627 01626 01615 01602 01600 01599
:BAT 13.5V
0000215900
337
SZNZ01 NZKL 110406
CREX++
T000103 A001 D01021 D06025++
-3683144 17478654 AUCT  2014 01 11 03 58 //// 11 07 00 01
06055 3207 06052 3206 06051 3206 06048 3206 06046 3205 06042 3204+
-4402404 -17636748 CHIT  2014 01 11 03 58 //// 11 07 00 01
04979 2087 04979 2091 04982 2097 04989 2109 04959 2083 04965 2092+
-4089929 17623168 CPIT  2014 01 11 03 58 //// 11 07 00 01
04077 2276 04061 2266 04064 2273 04055 2269 04048 2267 04059 2284+
-3618905 17548887 GBIT  2014 01 11 03 58 //// 11 07 00 01
06417 0068 06410 0063 06395 0050 06384 0041 06390 0049 06399 0061+
-3867541 17802288 GIST  2014 01 11 03 58 //// 11 07 00 01
04374 2751 04351 2732 04353 2739 04344 2734 04344 2739 04316 2715+
-4241288 17370277 KAIT  2014 01 11 03 58 //// 11 07 00 01
03358 2179 03366 2193 03336 2168 03354 2192 03333 2175 03313 2161+
-3755040 17815904 LOTT  2014 01 11 03 58 //// 11 07 00 01
03972 0218 03958 0206 03979 0231 03955 0210 03940 0198 03950 0211+
-3704657 17451175 MNKT  2014 01 11 03 58 //// 11 07 00 01
02872 -0149 02864 -0163 02892 -0141 02866 -0174 02895 -0151 02882 -0170+
-3947566 17692007 NAPT  2014 01 11 03 58 //// 11 07 00 01
03282 2019 03255 1996 03269 2015 03265 2016 03276 2032 03266 2027+
-3441483 17304870 NCPT  2014 01 11 03 58 //// 11 07 00 01
02200 -2809 02102 -2907 02173 -2836 02267 -2743 02243 -2767 02418 -2591+
-4581435 17062939 OTAT  2014 01 11 03 58 //// 11 07 00 01
04277 3429 04279 3437 04254 3418 04264 3434 04254 3430 04247 3429+
-2928002 -17789440 RBCT  2014 01 11 03 58 //// 11 07 00 01
06457 2043 06456 2044 06450 2039 06456 2047 06453 2046 06439 2034+
-2925114 -17790384 RFRT  2014 01 11 03 58 //// 11 07 00 01
03382 0209 03385 0214 03379 0209 03372 0204 03386 0220 03379 0215+
-4357010 17277383 SUMT  2014 01 11 03 58 //// 11 07 00 01
02015 1881 02007 1880 02012 1892 01975 1862 02004 1898 01994 1894+
-3764109 17618118 TAUT  2014 01 11 03 58 //// 11 07 00 01
05652 3993 05650 3994 05649 3994 05649 3996 05650 3999 05646 3997+
-4128448 17477985 WLGT  2014 01 11 03 58 //// 11 07 00 01
03223 2056 03214 2051 03201 2042 03195 2041 03181 2030 03184 2039++
7777
0000011000
338
UANT99 KDDL 110403
ARP SAS946 6102N02949W 0403 F370 MS56 207/29 KT
LNRKN DDL XXN 110403 J06A
0000011000
339
UANT99 KDDL 110403
ARP SAS926 5739N01429W 0403 F390 MS45 228/29 KT
LNRKG DDL TRE 110403 J09A
0000010800
340
SMKN20 HKNC 110000 CCB
AAXX 11004
63717 32980 20000 10129 20119 48552 82030 3338011 82358=
0000046500
341
SABY31 UMMN 110400
METAR UMBB 110400Z 26008G13MPS 9999 OVC024CB 05/03 Q1009 NOSIG=
METAR UMGG 110400Z 27012G16MPS 9999 -SHRA OVC026CB 04/01 Q0998
R28/290250 NOSIG=
METAR UMII 110400Z NIL=
METAR UMMG 110400Z 29009G12MPS 9999 BKN011 OVC066 03/01 Q1005=
METAR UMMM 110400Z 28007G12MPS 9999 BKN033 02/M01 Q1000 NOSIG RMK
QFE730 =
METAR UMMS 110400Z 29007G10MPS 250V310 9999 BKN018 02/M00 Q0999
R31/290060 NOSIG=
METAR UMOO 110400Z NIL=
0000021500
342
SARE20 FMEE 110400
METAR FMCZ 110404Z 27005KT 9999 FEW021 BKN300 28/23 Q1013 NOSIG=
METAR FMEE 110404Z 10016KT 9999 FEW026 29/21 Q1015 NOSIG=
METAR FMEP 110400Z AUTO VRB02KT 9999 NCD 28/22 Q1015=
0000011000
343
UANT99 KDDL 110403
ARP SWR17P 4837N02501W 0403 F390 MS58 217/71 KT
HBJHJ QXT AOE 110403 J74A
0000029300
344
SABC40 FBSK 110400
METAR FBSK 110400Z 25004KT CAVOK 20/09 Q1016 NOSIG=
METAR FBFT 110400Z /////KT 9999 FEW030CB SCT065 20/17 Q1015=
METAR FBMN 110400Z 06005KT CAVOK 22/17 Q1014=
METAR FBKE 110400Z 02004KT CAVOK 21/19 Q1017=
METAR FBSP 110400Z 00000KT CAVOK 23/21 Q1015=
0000039700
345
SXXX32 EUMS 110357 RRX
16590056
:PRS 1 /1 2589 2585 2587 2587 2581 2581 2579 2584 2579 2579 2576 2580 :RAD 1 /1 6886 6883 6880 6883 6875 6876 6875 6880 6873 6872 6869 6874 6871 6865 6864 6858 6853 6843 :ENC 6 /6 5091 5082 5050 5043 5058 5033 5015 5025 5028 5004 :ENB 6 /6 5087 5079 5048 5042 5056 5031 5013 5024 5025 5001 :SW1 57 /60 0 :SW2 24 /60 0 :BAT 5 /6 12.7 :NAME 16590056
0000009600
346
SAIN33 VECC 110350 RRA
METAR VECC 110350Z 00000KT 1500 BR NSC 19/14 Q1017 NOSIG=
0000008600
347
SAIN90 VECC 110400
METAR VEJS 110400Z 00000KT 0800 BR NSC 18/13 Q1017=
0000019200
348
UGIN90 VIJP 110000
PPBB 61008 42339 
90/23 00000 01014 35514 90457 01515 34517 35019 
91024 35014 35020 32534 9238/ 31061 30123 938//
28624 9417/ 28644 27119 9523/ 28095 28070=
0000037000
349
SXXX32 EUMS 110357 RRX
22E595B6
:PRS 1 /1 M 3196 3187 3183 3142 3147 3148 3129 3160 3124 3133 3166 3132 3151 3147 3124 3181 3174 3185 3172 3129 3131 3129 3120 3121 3143 3134 3130 3132 3113 :RAD 1 /3 6336 6320 6319 6323 6327 6323 6307 6309 6310 6307 :ENC 2 /5 4458 4439 4448 4451 4427 4425 :SW1 57 /60 60 :SW2 27 /60 60 :BAT 14 /15 13.9 :NAME 22E595B6 /
0000067100
350
SXXX32 EUMS 110358 RRX
16F152DA
OT12 ID:IR-JASK-09 DT:2014 01 11 03 48
:RAD /1 03418 03412 03411 03410 03395 03390 03385 03368 03346 03352 03340 03325 03316 03311 03318 03304 03310 03321 03309 03314 03313 03309 03318 03307 03319 03314 03297 03292 03272 03262
:PR1 /1 00663 00672 00663 00659 00657 00646 00633 00630 00610 00609 00596 00570 00574 00565 00557 00553 00565 00562 00571 00561 00568 00561 00557 00556 00561 00560 00556 00549 00533 00522
:PR2 /1 02263 02265 02263 02251 02249 02246 02234 02220 02218 02200 02192 02177 02164 02164 02160 02158 02161 02162 02154 02165 02159 02163 02162 02171 02166 02158 02149 02138 02128 02114
:BAT 13.5V
0000013500
351
SNVD02 CWAO 110400
BBXX
SHIP 11044 99487 71235 46/// /1004 10074 20073 40046 56065 7//// 8//// 22200 0//// 2//// =

0000013500
352
SNVD02 CWAO 110400
BBXX
SHIP 11044 99463 70725 46/// /0103 11073 21095 40234 58017 7//// 8//// 22200 0//// 2//// =

00000000