0000064700
433
FTUS51 KWBC 101915 AAA
TAF AMD
KAND 101912Z 1019/1118 06006KT P6SM OVC005
      TEMPO 1022/1024 4SM -RA BR
     FM110000 03005KT 3/4SM -RA BR OVC003
     FM110600 04003KT 2SM SHRA BR OVC004 WS020/20030KT
     FM111500 14005KT 4SM SHRA BR OVC005 WS020/20045KT=
KISP 101913Z 1019/1118 VRB04KT 3SM BR SCT015 OVC030
      TEMPO 1020/1024 2SM -DZ BR BKN015
     FM110000 VRB04KT 2SM BR BKN012 OVC025
      TEMPO 1102/1105 -RA BKN008 OVC015
     FM110500 16008KT 2SM -RA BR BKN006 OVC015 WS020/19040KT
     FM110800 15013KT 1SM -RA BR OVC004 WS020/19055KT
     FM111400 17016KT 1SM -RA BR OVC004 WS015/19060KT=

0000094800
434
FTUS80 KWBC 101915 AAA
TAF AMD
KAND 101912Z 1019/1118 06006KT P6SM OVC005
      TEMPO 1022/1024 4SM -RA BR
     FM110000 03005KT 3/4SM -RA BR OVC003
     FM110600 04003KT 2SM SHRA BR OVC004 WS020/20030KT
     FM111500 14005KT 4SM SHRA BR OVC005 WS020/20045KT=
KISP 101913Z 1019/1118 VRB04KT 3SM BR SCT015 OVC030
      TEMPO 1020/1024 2SM -DZ BR BKN015
     FM110000 VRB04KT 2SM BR BKN012 OVC025
      TEMPO 1102/1105 -RA BKN008 OVC015
     FM110500 16008KT 2SM -RA BR BKN006 OVC015 WS020/19040KT
     FM110800 15013KT 1SM -RA BR OVC004 WS020/19055KT
     FM111400 17016KT 1SM -RA BR OVC004 WS015/19060KT=
KMKL 101912Z 1019/1118 17010G16KT P6SM SCT020 BKN100
      TEMPO 1019/1021 BKN020
     FM110000 16012G20KT P6SM VCSH BKN025
     FM110300 18014G22KT 4SM -RA BR VCTS OVC007CB
     FM111000 22014KT P6SM BKN012 OVC080
     FM111200 26012KT P6SM SCT020
     FM111500 27012G18KT P6SM SCT025=

0000011100
435
SPUS31 KWBC 101915
SPECI
KPHL 101911Z 03004KT 1 1/2SM BR SCT004 BKN015 OVC025 02/00 A3037=

0000010600
436
SPUS41 KWBC 101915
SPECI
KDOV 101913Z AUTO 00000KT 2 1/2SM -DZ BR BKN002 04/04 A3034=

0000010400
437
SAAL31 DAAA 101830 CCA
METAR COR DAOO 101830Z 06002KT 9999 FEW023 BKN233 16/07 Q1015=

0000016900
438
SAAL31 DAAA 101800 CCA
METAR COR DAOO 101800Z 06002KT 9999 FEW023 BKN233 16/07 Q1015=
METAR COR DAON 101800Z 18003KT 8000 SCT026 BKN100 18/02 Q1014=

0000014000
439
FCGL31 BGSF 101900 RRA
TAF BGGH 101900Z 1019/1101 15016KT 8000 -SN SCT020 BKN040 TEMPO 
1019/1101 0800 SHSN DRSN VV006=

0000013000
440
SPCZ40 LKKV 101914
SPECI LKKV 101914Z 24006KT 200V270 9999 -SHRA SCT016 BKN043 03/M01
Q1017 RMK REG QNH 1014=

0000010700
441
SAAL31 DAAA 101900 RRA
METAR DAOO 101900Z 02002KT 9999 FEW023 SCT100 BKN233 15/08 Q1015=

0000010000
442
SAAL31 DAAA 101900 RRB
METAR DAON 101900Z 28005KT 9999 SCT026 BKN100 17/02 Q1014=

0000032100
443
SAAF17 LFPW 101900 RRA
METAR HEAX 101900Z 36005KT 9999 FEW020 16/10 Q1022 NOSIG=
METAR HEGN 101900Z 29013KT CAVOK 15/08 Q1021 NOSIG=
METAR HELX 101900Z 00000KT CAVOK 14/09 Q1021 NOSIG=
METAR HEMM 101900Z 29004KT 9999 BKN020 13/10 Q1024 NOSIG=
METAR HESN 101900Z 35005KT CAVOK 15/02 Q1022 NOSIG=

0000009800
444
SAAF20 LFPW 101900 RRB
METAR FABL 101900Z AUTO 24007KT 9999 ////// 24/06 Q1016=

0000025900
445
FTCN35 CWAO 101900 AAA
TAF AMD CYKF 101916Z 1019/1102 18006KT 1/8SM FZFG VV001 TEMPO
     1019/1022 11/2SM BR OVC005
    FM102200 18010KT 1SM BR OVC003 TEMPO 1022/1102 5SM BR OVC006
    RMK FCST BASED ON AUTO OBS. NXT FCST BY 102000Z=

0000175200
446
SPUS70 KWBC 101916
SPECI
KAKR 101912Z AUTO 15004KT 2 1/2SM BR OVC004 03/03 A3011 RMK AO2
     TSNO=
KBVY 101912Z 20006KT 3SM BR OVC014 00/M02 A3038 RMK AO2 SNE04
     P0000 T00001022=
KDCA 101912Z 05003KT 3/4SM R01/4000V4500FT -RA BR OVC006 04/02
     A3034 RMK AO2 DZE09RAB09 P0001=
KGLR 101912Z AUTO 17008KT 1/2SM FZFG OVC002 M03/M04 A2988 RMK AO2
     T10331039=
KGON 101912Z 00000KT 2SM BR BKN011 OVC019 02/01 A3039 RMK AO2
     RAE10 P0000=
KLSE 101912Z 12004KT 3SM BR OVC007 00/M02 A2970 RMK AO2 CIG
     005V010 T00001022=
KSGR 101912Z 17009G17KT 10SM FEW017 SCT022 OVC055 21/18 A2985 RMK
     AO2 RAE07 P0000=
PABA 101910Z AUTO 27021KT 2SM HZ M26/M29 A2986 RMK AO2 VIS 1 1/2V2
     1/2 SNE08 P0000 FZRANO $=
KMCB 101913Z AUTO 16010KT 10SM BKN011 OVC039 16/13 A2998 RMK AO2
     CIG 010V014 T01610128=
KMIV 101913Z AUTO 00000KT 1 3/4SM -RA BR OVC002 04/04 A3035 RMK
     AO2 RAB1859 P0000 T00390039=
KMPV 101913Z AUTO 15012KT 10SM BKN024 BKN055 OVC075 M03/M07 A3028
     RMK AO2=
KOWD 101913Z 00000KT 3SM BR BKN008 OVC014 01/00 A3039 RMK AO2 CIG
     006V010 T00060000=
KPAH 101913Z 15009KT 7SM BKN010 BKN060 OVC080 09/07 A2992 RMK AO2
     RAB1854E03 P0000 T00890067=
KAMW 101913Z AUTO 14004KT 1/2SM FZFG OVC002 M01/M01 A2961 RMK AO2
     I1001 T10061006=
KAOH 101913Z AUTO 15011KT 2 1/2SM BR OVC003 04/02 A3002 RMK AO2
     PNO $=
KCOT 101913Z AUTO 23004KT 10SM BKN027 22/14 A2986 RMK AO2=
KDNL 101913Z AUTO 02004KT 2SM -RA BR SCT003 BKN013 OVC046 08/08
     A3015 RMK AO2 P0009 T00830078 TSNO=
KFMY 101913Z 13008KT 10SM SCT025 27/20 A3006 RMK AO2=
PAGK 101913Z AUTO 00000KT 1 1/2SM -SN BR BKN031 OVC070 M09/M11
     A2934 RMK AO2 P0000 T10891106 TSNO=

0000010200
447
SPUS41 KWBC 101916
SPECI
KAKR 101912Z AUTO 15004KT 2 1/2SM BR OVC004 03/03 A3011=

0000009400
448
SPUS41 KWBC 101916
SPECI
KBVY 101912Z 20006KT 3SM BR OVC014 00/M02 A3038=

0000010000
449
SPUS41 KWBC 101916
SPECI
KGON 101912Z 00000KT 2SM BR BKN011 OVC019 02/01 A3039=

0000009600
450
SABZ43 KWBC 101900 RRB
METAR
SBLB 101900Z 10010KT CAVOK 27/21 Q1014 W///S3=

0000009500
451
SPCN42 CWAO 101915
SPECI CYFO 101915Z 17003KT 12SM BKN009 OVC025 RMK SC6SC2=

0000010000
452
SPUS41 KWBC 101913
SPECI
KGSO 101909Z 02006KT 1 3/4SM RA BR OVC004 02/02 A3024=

00000000