0000011100
733
UANT99 KDDL 110423
ARP DAL171 5602N02836W 0423 F370 MS56 219/64 KT
N801NW DDL XXW 110423 J20A
0000011100
734
UANT99 KDDL 110423
ARP UAL992 4936N03231W 0423 F360 MS54 203/50 KT
N673UA DDL XXW 110423 F42A
0000011100
735
UANT99 KDDL 110423
ARP AWE754 5010N02836W 0423 F390 MS55 210/63 KT
N288AY DDL XXN 110423 J42A
0000010900
736
UANT99 KDDL 110423
ARP BAW94 5353N04136W 0423 F360 MS57 294/28 KT
GYMMB QXT AOE 110423 F12A
0000011100
737
UANT99 KDDL 110423
ARP DAL178 5804N03258W 0423 F390 MS55 221/40 KT
N860NW DDL XXW 110423 J57A
0000011100
738
UANT99 KDDL 110423
ARP DAL186 4938N02433W 0423 F350 MS61 223/56 KT
N177DZ QXT AOE 110423 F22A
0000011000
739
UANT99 KDDL 110423
ARP DLH429 4853N02122W 0423 F370 MS63 222/80 KT
DAIKP QXT EUA 110423 J10A
0000023300
740
SNVE15 KWNB 110400 RRE
BBXX
51208 11041 99223 71596 46/// ///// 1//// 90407 22200 00243 11306
20805 330// 41303 70029=
51202 11041 99214 71577 46/// ///// 1//// 90407 22200 00245 11004
21004 308// 41102 70021=
0000032200
741
SNVD15 KWNB 110400 RRK
BBXX
44100 11041 99363 70756 46/// ///// 1//// 90404 22200 00088 10502
20502 312// 41101 70010=
44095 11041 99358 70753 46/// ///// 1//// 90417 22200 00101 10603
20603 307// 41301 70016=
41115 11041 99184 70673 46/// ///// 1//// 90411 22200 11002 21002
301// 41101 70011=
0000127000
742
SIIN90 VILK 110300
AAXX 11034
42260 31993 02703 10082 20082 40193 74244
  333 20068 58007
  555 10000=
42262 31993 03205 10084 20067 40186 74241
  333 10166 20062 58002
  555 10000=
42484 22696 60000 10144 20137 40137
  333 10206 20120 59013 6004/
  555 00042 10008=
42469 22996 80502 10132 20128 40188
  333 10172 20122 58011 6990/
  555 10021=
42271 21995 50000 10130 20120 40170 76000 82021
  333 10210 20120 59005 6003/
  555 00032 10009=
42370 21/91 80000 10134 20130 40164 88700
  333 10183 20/// 59025 6991/
  555 00001 10004=
42367 21/92 92702 10136 20125 40182 74544 89///
  333 10194 20072 59002 6004/
  555 00036 10030=
42589 21995 61402 10158 20151 4//// 70500 86060
  333 10214 20146 58/// 6018/
  555 00182 10030=
42473 21995 60000 10150 20143 40176 71100 86600
  333 10170 20/// 59007 6001/ 86630
  555 00012 10030=
42267 32996 00000 10114 20077 40217
  333 10178 20073 59005
  555 10000=
42143 22996 20902 10110 20098 40177 80001
  333 10205 20065 58002 6009/
  555 00094 10094=
42266 22994 43601 10124 20113 40164 71000
  333 10195 20110 58002 6990/
  555 10002=
42468 21990 82702 10102 20102 40186 74544 89///
  333 10160 20070 59014 6002/
  555 00020 10018=
0000032800
743
SNVD17 KWNB 110400 RRI
BBXX
52211 11041 99153 11457 46/// ///// 1//// 90418 22200 00281 10605
20605 306// 41102 70025=
51206 11041 99198 71550 46/// ///// 1//// 90403 22200 00253 11105
20904 309// 41103 70024=
46114 11041 99367 71223 46/// ///// 1//// 90408 22200 00126 11406
21003 330// 41405 70029=
0000040900
744
SNVD20 KWNB 110400 RRP
BBXX
44096 11041 99370 70758 46/// ///// 1//// 90417 22200 00069 10902
20501 311// 40901 70008=
44099 11041 99369 70757 46/// ///// 1//// 90418 22200 00064 10602
20602 70009=
44039 11041 99411 70727 46/// /0902 10031 20029 90400 333 91203
555 11031 22036=
44060 11041 99413 70721 46/// /0402 10040 20038 40264 90400 22200
00042 333 91203 555 11021 22026=
0000032800
745
SNVD22 KWNB 110400 RRO
BBXX
46215 11041 99352 71209 46/// ///// 1//// 90405 22200 00136 11304
21002 327// 41303 70020=
46219 11041 99332 71199 46/// ///// 1//// 90410 22200 00143 11305
20704 330// 41303 70024=
46211 11041 99469 71242 46/// ///// 1//// 90413 22200 00080 11510
20807 329// 41507 70048=
0000066100
746
UDAF01 FAPR 110424
AMDAR 1104
LVR AFZA62 0812N 01406E 110334 F390 MS545 184/034 TB0 S031 333 F/// VG000=
LVR AFZA62 0723N 01420E 110342 F390 MS549 178/034 TB0 S031 333 F/// VG000=
LVR AFZA62 0634N 01434E 110349 F390 MS552 180/031 TB0 S031 333 F/// VG000=
LVR AFZA62 0545N 01448E 110356 F390 MS557 174/034 TB0 S031 333 F/// VG000=
LVR AFZA62 0456N 01503E 110403 F390 MS557 165/034 TB0 S031 333 F/// VG000=
LVR AFZA62 0407N 01517E 110410 F390 MS555 162/033 TB0 S031 333 F/// VG000=
LVR AFZA62 0318N 01530E 110417 F390 MS559 166/024 TB0 S031 333 F/// VG000=
LVR AFZA62 0228N 01545E 110424 F390 MS554 127/022 TB0 S031 333 F/// VG000=
0000066100
747
UDAF01 FAPR 110420
AMDAR 1104
DES AFZA60 2613S 02812E 110416 F077 PS165 230/005 TB0 S031 333 F/// VG018=
DES AFZA60 2612S 02812E 110417 F074 PS169 220/004 TB0 S031 333 F/// VG018=
DES AFZA60 2611S 02812E 110418 F071 PS177 136/003 TB0 S031 333 F/// VG018=
DES AFZA60 2610S 02813E 110418 F067 PS185 077/005 TB0 S031 333 F/// VG018=
DES AFZA60 2609S 02813E 110418 F064 PS192 050/008 TB0 S031 333 F/// VG018=
DES AFZA60 2608S 02813E 110419 F061 PS194 015/013 TB1 S031 333 F/// VG024=
DES AFZA60 2607S 02814E 110419 F057 PS183 013/018 TB1 S031 333 F/// VG024=
DES AFZA60 2606S 02814E 110420 F054 PS182 010/007 TB1 S031 333 F/// VG024=
0000066100
748
UDAF01 FAPR 110424
AMDAR 1104
LVR AFZA22 1904N 02533W 110334 F320 MS409 287/057 TB0 S031 333 F/// VG012=
LVR AFZA22 1930N 02617W 110342 F320 MS411 286/052 TB0 S031 333 F/// VG012=
LVR AFZA22 1956N 02701W 110349 F320 MS411 285/055 TB0 S031 333 F/// VG012=
LVR AFZA22 2022N 02747W 110356 F320 MS412 282/057 TB0 S031 333 F/// VG012=
LVR AFZA22 2047N 02832W 110403 F320 MS417 278/053 TB0 S031 333 F/// VG012=
LVR AFZA22 2113N 02918W 110410 F320 MS416 273/051 TB0 S031 333 F/// VG012=
LVR AFZA22 2140N 03005W 110417 F320 MS426 262/038 TB0 S031 333 F/// VG012=
LVR AFZA22 2208N 03052W 110424 F320 MS425 260/038 TB0 S031 333 F/// VG011=
0000056100
749
SNVZ11 SBBR 110400 RRF
BBXX
SHIP 11041 99/// 1//// 36/// /3100 10186 20181 39992 40119
  333 10189 20184 553// 10003 91101=
SHIP 11041 99/// 1//// 36/// /1100 10213 20195 39946 40090 57///
  333 10219 20213 553// 10002 91100=
SHIP 11041 99/// 1//// 36/// /0901 10221 20199 39553 49944 52///
  333 10221 20207 553// 10003 91104=
SHIP 11041 99/// 1//// 16/// /3601 10216 20205 39978 40124 6994/
  333 10217 20215 553// 10002 91103=
SHIP 11041 99/// 1//// 36/// /3404 10265 20224 30097 40097
  333 10266 20264 553// 10004 91109=
0000011100
750
UANT01 CWAO 110423
ARP AAL104 4728N04804W 0423 F400 MS58 307/67 KT
N778AN DDL YYT 110423 F26A
0000011000
751
UANT01 CWAO 110423
ARP ACA830 4847N04117W 0423 F370 MS54 304/41 KT
CGFAF DDL XXW 110423 J67A
0000022400
752
UAPA01 KWBC 110424
ARP ASA854 43N 131W 0413 F370 MS59 240/096KT TB SMTH=
ARP ASA826 3024N 14042W 0417 F360 MS43 267/056KT TB OCNL LGT CHOP=
ARP WJA1863 34N 145W 0416 F350 MS53 256/069KT TB INTMT LGT CHOP=
00000000