0000053800
113
SADN34 EKCH 101950
METAR EKGF 101950Z 22019 CAVOK 07/05 Q1007=
METAR EKHN 101950Z AUTO 26018G28KT 210V270 7000NDV SCT014///
BKN030/// ///// Q1010=
METAR EKHR 101950Z AUTO 26019KT 9999NDV FEW031/// 07/05 Q1008=
METAR EKHA 101950Z AUTO 24022KT 9999NDV 07/05 Q1009=
METAR EKHD 101950Z AUTO 28025KT 9999NDV 07/05 Q1005=
METAR EKTE 101950Z AUTO 22020KT 9999NDV FEW014 07/05 Q1008=
METAR EKGC 101950Z AUTO 23018KT 9999NDV 07/06 Q1008=
METAR EKAV 101950Z AUTO 26020KT 9999NDV BKN016/// BKN053///
06/05 Q1004=

0000009800
114
SABZ21 SBSV 102000
METAR SBSV 102000Z 08012KT 9999 SCT017 BKN070 28/24
Q1012=

0000054100
115
SAKO31 RKSI 111000
METAR RKSI 111000Z 21003KT 9999 SCT040 BKN180 00/M11 Q1030 NOSIG=
METAR RKSS 111000Z 27002KT 9999 SCT030 BKN150 01/M16 Q1030 NOSIG =
METAR RKPC 111000Z 18004KT 9999 FEW030 SCT130 BKN180 05/M05 Q1031 
           NOSIG =
METAR RKPK 111000Z 32002KT CAVOK 03/M07 Q1029 NOSIG =
METAR RKTU 111000Z 22003KT 9999 SCT040 BKN230 M02/M10 Q1030 NOSIG =
METAR RKTN 111000Z 33005KT CAVOK 01/M09 Q1029 NOSIG =
METAR RKJB 111000Z 27001KT 8000 NSC 01/M05 Q1031 NOSIG =
METAR RKNY 111000Z 26007KT CAVOK 02/M19 Q1026 NOSIG =

0000010500
116
SANK31 MNMG 102000
METAR  
MNMG 102000Z 11014KT 9999 FEW025 32/17 Q1008 A2979 NOSIG=

0000053000
117
SADR31 MDSD 102000
METAR
METAR MDPP 102000Z 10010KT 9999 SCT020 29/23 Q1017=
METAR MDST 102000Z 16008KT 9999 BKN022 27/22 Q1017=
METAR MDPC 102000Z 09015KT 9999 FEW022 27/22 Q1017=
METAR MDBH 102000Z 13014KT 9999 FEW023 30/21 Q1015=
METAR MDJB 102000Z 03006KT 9999 SCT020 31/22 Q1016=
METAR MDSD 102000Z 07008KT 9999 FEW024 31/24 Q1015=
METAR MDLR 102000Z 07018KT 9999 SCT022 28/20 Q1016= 
METAR MDCY 102000Z 04010KT 9999 SCT020 27/24 Q1017=
METAR MDAB 102000Z 13005KT 9999 BKN020 27/24 Q1017=

0000042800
118
SAGL31 BGSF 101950
METAR BGSF 101950Z AUTO 08013KT 9999NDV  NCD M13/M20 Q0995=
METAR BGBW 101950Z 03007KT 9999 FEW050 BKN064 BKN074 M08/M18 
Q0995 RMK 2SC 5AC 6AC =
METAR BGGH 101950Z 15017KT 2000 -SN DRSN SCT010 BKN025 OVC035 
M07/M12 Q0993=
METAR BGJN 101950Z 11025KT 9999 FEW010 SCT160 M08/M19 Q0993 RMK 
LAST=
METAR BGKK 101950Z AUTO 05018G30KT 020V090 0900NDV  SN VV005/// 
M01/M02 Q0985=

0000033200
119
FTUS51 KWBC 101951 AAA
TAF AMD
KDAN 101949Z 1020/1118 03006KT 4SM -RA BR OVC005 WS020/19025KT
     FM110000 03003KT 1SM -RA BR OVC003 WS020/18035KT
     FM110600 01003KT 3/4SM -RA BR OVC002 WS018/21040KT
     FM111200 15005KT 2SM -DZ BR OVC002 WS015/21045KT
     FM111600 20010G18KT 3SM -SHRA BR OVC005=

0000010400
120
SPUS31 KWBC 101951
SPECI
KJFK 101947Z 01004KT 1SM -DZ BR FEW003 OVC023 03/01 A3039=

0000010600
121
SPUS31 KWBC 101951
SPECI
KTEB 101947Z 00000KT 2 1/2SM -RA SCT011 OVC025 01/M02 A3037=

0000010400
122
SPUS41 KWBC 101951
SPECI
KILG 101947Z 05004KT 1 3/4SM BR BKN005 OVC012 03/02 A3036=

0000009700
123
SPUS41 KWBC 101951
SPECI
KINT 101947Z 02004KT 3SM -RA BR OVC003 04/03 A3025=

0000011600
124
SALT34 EYVI 101950
METAR EYSA 101950Z 28020KT 9000 OVC008 03/02 Q0994 R14L/2/0295 
R14R/2/0295=

0000014200
125
SALT31 EYVI 101950
METAR EYVI 101950Z 28017G28KT 7000 -SHRA BKN008 OVC015CB 02/01 Q0994
     R20/2/0295 TEMPO 27026G36KT=

0000033500
126
SASW31 LSSW 101950
METAR LSZH 101950Z 17001KT 9999 R14/P2000N R16/1100U R28/P2000N
    R34/0800U BCFG FEW036 SCT230 03/02 Q1019 BECMG 5000=
METAR LSGG 101950Z 30001KT CAVOK 04/03 Q1019 NOSIG=
METAR LSZB 101950Z VRB01KT CAVOK 01/01 Q1019 NOSIG=
METAR LSZA 101950Z 15002KT 9999 FEW038 BKN042 08/06 Q1021 NOSIG=

0000030200
127
SASW39 LSSW 101950
METAR LSMA 101950Z AUTO 00000KT 3500NDV NCD 01/00 Q1019 RMK GRN=
METAR LSMD 101950Z NIL=
METAR LSME 101950Z NIL=
METAR LSMM 101950Z AUTO VRB02KT 5000NDV NCD 00/M00 Q1019 RMK GRN=
METAR LSMP 101950Z NIL=
METAR LSMS 101950Z VRB01KT 9999 SCT100 05/03 Q1019=

0000008800
128
SPCN46 CWAO 101951
SPECI CYFR 101951Z 00000KT 5SM -SN OVC050 RMK SC7=

0000034100
129
FTUS52 KWBC 101951 AAA
TAF AMD
KBCB 101948Z 1020/1118 00000KT 2SM -RA BR OVC004 WS020/22025KT
     FM110100 10003KT 1SM -DZ BR OVC002 WS020/21030KT
     FM110600 10003KT 2SM -DZ BR OVC002 WS015/20045KT
     FM111200 14005KT 4SM -RA BR OVC005 WS015/21045KT
     FM111600 23007KT 4SM -SHRA BR OVC008 WS015/22045KT=

0000081400
130
FTUS80 KWBC 101951 AAA
TAF AMD
KBCB 101948Z 1020/1118 00000KT 2SM -RA BR OVC004 WS020/22025KT
     FM110100 10003KT 1SM -DZ BR OVC002 WS020/21030KT
     FM110600 10003KT 2SM -DZ BR OVC002 WS015/20045KT
     FM111200 14005KT 4SM -RA BR OVC005 WS015/21045KT
     FM111600 23007KT 4SM -SHRA BR OVC008 WS015/22045KT=
KDAN 101949Z 1020/1118 03006KT 4SM -RA BR OVC005 WS020/19025KT
     FM110000 03003KT 1SM -RA BR OVC003 WS020/18035KT
     FM110600 01003KT 3/4SM -RA BR OVC002 WS018/21040KT
     FM111200 15005KT 2SM -DZ BR OVC002 WS015/21045KT
     FM111600 20010G18KT 3SM -SHRA BR OVC005=
KEVW 101950Z 1020/1118 25020G30KT P6SM VCSH OVC040
     FM102100 25022G32KT 5SM -SHSN BLSN OVC020
     FM110200 24020KT P6SM VCSH BKN030
     FM111500 22015G27KT P6SM SCT050 BKN070=

0000011300
131
SPUS43 KWBC 101951
SPECI
KMKE 101947Z 16012KT 1/2SM R01L/4500V5000FT BR OVC002 00/M01 A2980=

0000027300
132
FTRS34 RUMS 101700 CCA
TAF COR UWKE 101645Z 1018/1118 22005MPS 1000 BR OVC003 650050 TEMPO
1018/1106 18008MPS 0500 SN FZRA FZFG OVC002 640000 BECMG 1106/1107
4000 BR OVC007 TEMPO 1106/1118 18012MPS 1000 SHSN FZRA BLSN BKN003
BKN010CB 640000 530001=

00000000