0000022500
553
SASA41 KWBC 101700 RRB
METAR
SKMD 101700Z 00000KT 9999 6000S SCT020 SCT080 24/15 A3004 RMK
     HZ=
SKPE 101700Z 24003KT 9999 SCT015 SCT080 22/18 A3009=
SKSM 101700Z 27004KT 9999 FEW020 31/21 A2983=

0000008700
554
SPCN43 CWAO 101746
SPECI CYEN 101746Z 29011KT 8SM OVC020 RMK SC8 FG=

0000009700
555
SADL33 EDZO 101720 CCA
METAR COR EDVK 101720Z 21006KT 9999 FEW035 04/00 Q1016=

0000011100
556
SAQB31 LQBK 101800
METAR LQBK 101800Z 31004KT 3000 -RA BR FEW020 BKN043 06/05 Q1020
NOSIG=

0000084000
557
SPUS70 KWBC 101752
SPECI
KBED 101748Z 25003KT 7SM OVC016 M01/M04 A3040 RMK AO2=
KBLF 101748Z AUTO 08003KT 1SM HZ FEW002 BKN030 OVC044 09/07 A3021
     RMK AO2 RAB09E27 P0000=
KIND 101748Z 14005KT 4SM BR OVC032 02/02 A3002 RMK AO2=
KMHT 101748Z 24003KT 3/4SM R35/3000VP6000FT -SN BKN019 BKN050
     OVC070 M03/M06 A3038 RMK AO2 SNB41 P0000=
PASO 101749Z AUTO 16003KT 10SM SCT017 BKN022 00/M02 A2941 RMK AO2
     TSNO=
KAKH 101749Z AUTO 02007KT 2 1/2SM BR OVC004 05/04 A3024 RMK AO2
     RAB1658E39 P0007=
KBFI 101749Z 18011G23KT 10SM SCT019 BKN090 OVC110 09/05 A3008 RMK
     AO2 PK WND 17026/1712=
KCGI 101749Z 16013KT 2 1/2SM -RA BR OVC006 07/06 A2994 RMK AO2 VIS
     1 3/4V4 RAB33 PRESFR P0004=
KMWL 101749Z AUTO 18005KT 4SM BR FEW002 SCT080 OVC100 14/14 A2977
     RMK AO2 RAE10 P0000=

0000009300
558
SPUS31 KWBC 101752
SPECI
KIND 101748Z 14005KT 4SM BR OVC032 02/02 A3002=

0000009200
559
SPUS41 KWBC 101752
SPECI
KBED 101748Z 25003KT 7SM OVC016 M01/M04 A3040=

0000010100
560
SPUS41 KWBC 101752
SPECI
KGSO 101748Z 02009KT 1 1/4SM +RA BR OVC004 02/01 A3027=

0000009800
561
SAIS32 LLBG 101750
METAR LLBG 101750Z 22005KT 9999 DZ BKN024 13/10 Q1020 NOSIG=

0000020900
562
SAIS31 LLBG 101750
METAR LLET 101750Z NIL=
METAR LLHA 101750Z NIL=
METAR LLIB 101750Z NIL=
METAR LLOV 101750Z NIL=
METAR LLSD 101750Z 06004KT 8000 +SHRA FEW010TCU BKN030 14/11 Q1019=

0000008300
563
SAFI01 MBPV 101800
MBPV 101800Z 10009KT 9999 SCT012 29/20 Q1019=

0000009200
564
SAIL41 BIIS 101800
METAR
BIIS 101800Z VRB07KT 9999 SCT050 05/M05 Q0991=

0000009400
565
SPAU32 AMMC 101752
SPECI YSRI 101753Z AUTO 00000KT 9999 // NCD 15/15 Q1018=

0000073600
566
SASN31 ESWI 101750
METAR ESGG 101750Z 18005KT 9999 BKN015 01/M00 Q1001 R21/29//95=
METAR ESGJ 101750Z 28002KT 3700 SG FEW009 SCT011 BKN017 M01/M01
Q1000 R01/790142=
METAR ESGP 101750Z 20005KT 9999 BKN019 03/01 Q1001 R19/19//95=
METAR ESGT 101750Z NIL=
METAR ESMK 101750Z 26009KT 9999 BKN031 06/04 Q1003=
METAR ESMQ 101750Z 27005KT 9999 BKN018 01/M01 Q1002=
METAR ESMS 101750Z 27014KT 7000 -SHRA BKN007 BKN013CB 06/05 Q1004
R17/29//95=
METAR ESMT 101750Z 24007KT 9999 OVC023 05/03 Q1003=
METAR ESMX 101750Z 27006KT 9999 FEW008 BKN010 01/M00 Q1001=
METAR ESTA 101750Z 26013KT 9999 FEW017 OVC034 06/04 Q1003=
METAR ESTL 101750Z AUTO 26011KT 8000NDV DZ FEW010/// SCT016///
OVC034/// 06/06 Q1004=

0000063900
567
SADL31 EDZO 101750
METAR EDDF 101750Z 20007KT CAVOK 06/03 Q1018 NOSIG=
METAR EDDH 101750Z 24008KT 9999 -SHRA FEW014TCU BKN017 06/04 Q1012
TEMPO 27015G25KT 4500 SHRA BKN010=
METAR EDDK 101750Z 19006KT 9999 FEW033 04/01 Q1017 NOSIG=
METAR EDDL 101750Z 21007KT 9999 FEW046 05/02 Q1017 NOSIG=
METAR EDDM 101750Z 22003KT 9999 FEW042 03/M01 Q1020 NOSIG=
METAR EDDN 101750Z 23006KT CAVOK 05/02 Q1018 NOSIG=
METAR EDDS 101750Z 28001KT CAVOK 04/00 Q1019 NOSIG=
METAR EDDT 101750Z 25012KT 9999 BKN048 06/01 Q1013 TEMPO
     26015G25KT=
METAR EDDV 101750Z 24010KT 210V270 9999 FEW025 BKN031 06/03 Q1014
NOSIG=

0000012200
568
SAMO31 ZMUB 101800
METAR ZMUB 101800Z VRB01MPS 5000NW FU NSC M32/M35 Q1024 NOSIG RMK
 QFE660.0 68 NT=

0000044600
569
SADL32 EDZO 101750
METAR EDDB 101750Z 25016KT CAVOK 06/01 Q1014 NOSIG=
METAR EDDC 101750Z 24005KT CAVOK 04/M01 Q1015 NOSIG=
METAR EDDE 101750Z 23008KT 9999 FEW030 BKN058 03/01 Q1016 NOSIG=
METAR EDDG 101750Z 21008KT 9999 FEW025 BKN045 06/03 Q1015 NOSIG=
METAR EDDP 101750Z 23013KT CAVOK 04/02 Q1016 NOSIG=
METAR EDDR 101750Z VRB03KT CAVOK 03/00 Q1018 NOSIG=
METAR EDDW 101750Z 23009KT 9999 SCT032 06/04 Q1013 NOSIG=

0000038100
570
FTCN36 CWAO 101700 AAA
TAF AMD CYUL 101752Z 1018/1118 VRB03KT P6SM -SN OVC020 TEMPO
     1018/1022 2SM -SN BR OVC009
    FM102200 VRB03KT P6SM OVC020
    FM111100 10008KT 5SM -FZDZ BR SCT003 OVC020 PROB40 1111/1113 2SM
     -FZRA BR OVC003
    FM111300 12015KT 11/2SM -RA BR OVC005
    FM111700 16015KT 3SM RA BR OVC012
    RMK NXT FCST BY 102100Z=

0000017100
571
FTCY31 LCLK 101730 CCA
TAF COR LCPH 101730Z 1018/1118 03006KT 9999 FEW025
             BECMG 1106/1109 27011KT
             BECMG 1115/1118 03006KT=

0000055000
572
SADN31 EKCH 101750
METAR EKCH 101750Z 27013KT 9999 FEW010 BKN013 06/05 Q1005 BECMG
SCT012=
METAR EKBI 101750Z 25013KT 9999 -SHRA SCT012 BKN030 06/04 Q1006=
METAR EKYT 101750Z 24010KT 9999 FEW010 BKN035 06/05 Q1003=
METAR EKRK 101750Z AUTO 27015KT 9999NDV -SHRA  FEW009/// SCT015///
BKN018/// BKN032/// 06/05 Q1005=
METAR EKAH 101750Z AUTO 26011KT 5000NDV BKN012/// 06/04 Q1005=
METAR EKEB 101750Z AUTO 24014KT 9999NDV OVC037/// 07/04 Q1007=
METAR EKRN 101750Z AUTO 28013KT 9999NDV -RA  BKN008/// 06/06
Q1005 RERA=

00000000