0000022300
713
FCDL34 EDZO 101700
TAF EDBC 101700Z 1018/1103 24012G22KT CAVOK BECMG 1019/1022 23007KT=
TAF EDHL 101700Z 1018/1021 25010KT 9999 SCT015 BKN020 PROB30 TEMPO
     1018/1021 27015G25KT 4500 SHRA BKN012CB=

0000017000
714
FCDL35 EDZO 101700
TAF EDHI 101700Z 1018/1021 25010KT 9999 SCT015 BKN020 TEMPO 1018/1021
     27015G25KT=
TAF EDTL 101700Z 1018/1024 17003KT CAVOK=

0000016400
715
FCBX31 EBBR 101700
TAF EBAW 101703Z 1018/1103 22009KT 9999 SCT009 TEMPO
    1018/1103 BKN009=
TAF EBCI 101703Z 1018/1103 22008KT 9999 BKN008=

0000062100
716
FTBX31 EBBR 101700
TAF EBBR 101703Z 1018/1124 22008KT 9999 SCT012 TEMPO 1018/1113
    BKN012 =
TAF EBLG 101703Z 1018/1124 21007KT 9999 SCT008
    PROB40 TEMPO 1018/1113 BKN008 PROB30 1121/1124 0500 FG=
TAF EBOS 101703Z 1018/1124 21012KT 9999 SCT012 PROB40 TEMPO
     1018/1108 BKN012 TEMPO 1108/1110 27015G25KT 4500 -RADZ BKN008 
     BECMG 1109/1111 30014KT BECMG 1118/1121 23004KT=
TAF ELLX 101700Z 1018/1124 VRB02KT 9999 BKN020
    PROB30 TEMPO 1023/1106 0700 FG
    TEMPO 1106/1111 4500 -RADZ BKN007 BKN020
    BECMG 1112/1115 24005KT CAVOK
    TEMPO 1117/1120 4000 BR BKN015=

0000064600
717
FTDL31 EDZO 101700
TAF EDDF 101700Z 1018/1124 19005KT 9999 SCT040 BECMG 1102/1105
     13004KT BKN012 TEMPO 1107/1117 4000 -RA BR BKN008 BECMG
     1112/1115 24007KT BECMG 1118/1121 BKN025=
TAF EDDH 101700Z 1018/1124 25010KT 9999 SCT015 BKN020 TEMPO 1018/1020
     27015G25KT PROB30 TEMPO 1021/1107 BKN008 BECMG 1107/1110 BKN014
     TEMPO 1110/1118 26015G30KT 4500 RA BKN008 TEMPO 1118/1124
     31020G35KT 3500 SHRA BKN012CB=
TAF EDDK 101700Z NIL=
TAF EDDL 101700Z NIL=
TAF EDDM 101700Z 1018/1124 10004KT CAVOK PROB30 TEMPO 1102/1108 0500
     FZFG VV002 BECMG 1110/1113 27006KT PROB30 TEMPO 1116/1120 RA=

0000080900
718
FTDL32 EDZO 101700
TAF EDDB 101700Z 1018/1118 25015G25KT 9999 BKN040 BECMG 1018/1020
     24010KT=
TAF EDDC 101700Z 1018/1118 26008KT 9999 FEW045 BECMG 1019/1021
     20008KT=
TAF EDDG 101700Z NIL=
TAF EDDN 101700Z 1018/1118 14004KT CAVOK BECMG 1111/1113 4000 RA
     BKN014=
TAF EDDP 101700Z 1018/1118 23010KT CAVOK=
TAF EDDS 101700Z 1018/1118 13004KT 9999 BKN035=
TAF EDDT 101700Z 1018/1118 24009KT 9999 BKN040=
TAF EDDV 101700Z 1018/1118 25010KT 9999 SCT015 BKN020 PROB30 TEMPO
     1021/1107 BKN012 BECMG 1109/1112 BKN014 TEMPO 1112/1118
     26015G30KT 4500 RA BKN008=
TAF EDDW 101700Z 1018/1118 25010KT 9999 SCT015 BKN020 TEMPO 1018/1020
     26015G25KT PROB30 TEMPO 1021/1107 BKN008 BECMG 1106/1109 BKN014
     TEMPO 1109/1118 26015G30KT 4500 RA BKN008=

0000097400
719
FTDL33 EDZO 101700
TAF EDDE 101700Z 1018/1118 22010KT CAVOK TEMPO 1116/1118 25015G25KT=
TAF EDDR 101700Z 1018/1118 VRB03KT 9999 SCT025 BECMG 1102/1105 4000
     BR BKN008 TEMPO 1106/1114 2500 -DZ BR BKN004 BECMG 1110/1114
     24007KT=
TAF EDFH 101700Z 1018/1118 20005KT 9999 SCT015 BECMG 1101/1104 3500
     BR BKN006 TEMPO 1106/1115 1200 -DZ BR BKN002 BECMG 1110/1114
     27007KT=
TAF EDNY 101700Z 1018/1118 VRB03KT 9999 BKN055 BECMG 1022/1101 2500
     BR PROB40 TEMPO 1104/1108 0300 FZFG VV002=
TAF EDOP 101700Z 1018/1118 23011KT 9999 BKN025 PROB40 TEMPO 1102/1107
     BKN012 PROB30 TEMPO 1115/1118 RA BKN014=
TAF EDRZ 101700Z 1018/1118 VRB03KT 9999 SCT025 BECMG 1102/1105 4000
     BR BKN008 TEMPO 1106/1114 2500 -DZ BR BKN004 BECMG 1110/1114
     24007KT=
TAF EDSB 101700Z 1018/1118 VRB03KT 9999 SCT035 BECMG 1100/1103 3500
     BR BKN008 TEMPO 1104/1112 1200 -RA BR BKN003 BECMG 1115/1118
     23006KT 9999 BKN015=

0000059500
720
FTDL34 EDZO 101700
TAF EDNY 101700Z 1018/1118 VRB03KT 9999 BKN055 BECMG 1022/1101 2500
     BR PROB40 TEMPO 1104/1108 0300 FZFG VV002=
TAF EDOP 101700Z 1018/1118 23011KT 9999 BKN025 PROB40 TEMPO 1102/1107
     BKN012 PROB30 TEMPO 1115/1118 RA BKN014=
TAF EDRZ 101700Z 1018/1118 VRB03KT 9999 SCT025 BECMG 1102/1105 4000
     BR BKN008 TEMPO 1106/1114 2500 -DZ BR BKN004 BECMG 1110/1114
     24007KT=
TAF EDSB 101700Z 1018/1118 VRB03KT 9999 SCT035 BECMG 1100/1103 3500
     BR BKN008 TEMPO 1104/1112 1200 -RA BR BKN003 BECMG 1115/1118
     23006KT 9999 BKN015=

0000040900
721
SABX31 EBBR 101720
METAR EBAW 101720Z 21009KT 9999 BKN009 06/03 Q1017 TEMPO BKN008=
METAR EBBR 101720Z 21008KT 9999 BKN013 05/03 Q1017 TEMPO BKN008=
METAR EBCI 101720Z 21009KT 9999 BKN009 05/03 Q1018 NOSIG=
METAR EBLG 101720Z 21009KT 9999 FEW011 05/02 Q1017 NOSIG=
METAR EBOS 101720Z 19008KT 9999 FEW011 06/03 Q1016 NOSIG=
METAR ELLX 101720Z VRB03KT 9999 SCT025 04/02 Q1018 NOSIG=

0000051800
722
SAOS31 LOWM 101720
METAR LOWW 101720Z 24008KT CAVOK 05/01 Q1020 NOSIG=
METAR LOWL 101720Z 25006KT 9999 SCT050 05/M00 Q1020 NOSIG=
METAR LOWS 101720Z 17003KT 9999 FEW025 BKN035 04/03 Q1020 NOSIG=
METAR LOWI 101720Z VRB01KT 9999 -DZ FEW007 SCT050 BKN100 04/03 Q1020
R08/19//74 NOSIG=
METAR LOWG 101720Z VRB02KT 9000 0800NE R17/P1500N R35/1100V1500D BCFG
FEW060 02/02 Q1019 R17/29//95 BECMG 0500 BCFG=
METAR LOWK 101720Z VRB01KT 0600 R10/0550N R28/0600N FG VV002 03/02
Q1020 TEMPO 0500=

0000006100
723
SAOS32 LOWM 101720
METAR LOXZ 101720Z NIL=

0000075400
724
SASN31 ESWI 101720
METAR ESGG 101720Z 19005KT 9999 BKN015 01/M00 Q1001 R21/29//95=
METAR ESGJ 101720Z 00000KT 6000 SG FEW008 SCT014 BKN017 M01/M01
Q1000 R01/790142=
METAR ESGP 101720Z 20005KT 9999 BKN021 OVC220 02/01 Q1001
R19/19//95=
METAR ESGT 101720Z 17005KT 9999 SCT019 M01/M02 Q1001=
METAR ESMK 101720Z 27007KT 9999 BKN030 06/04 Q1003=
METAR ESMQ 101720Z 25005KT CAVOK 01/M01 Q1001=
METAR ESMS 101720Z 26016G27KT 6000 SHRA BKN006CB 06/05 Q1004
R17/29//95=
METAR ESMT 101720Z 24004KT 9999 OVC029 04/03 Q1002=
METAR ESMX 101720Z 29004KT 9999 OVC010 01/M00 Q1001=
METAR ESTA 101720Z 26011KT 9999 SCT016 OVC032 06/04 Q1003=
METAR ESTL 101720Z AUTO 27010KT 9999NDV FEW011/// OVC028/// 06/06
Q1003 REUP REDZ=

0000011500
725
FTGL31 BGSF 101700 RRA
TAF BGSF 101700Z 1018/1124 06010KT 9999 FEW100 TEMPO 1022/1106 
BKN060=

0000011700
726
SPCN52 CWAO 101722
SPECI CWFD 101722Z AUTO 21014KT 1 1/4SM CLR M20/ A2875 RMK VSBY VRBL
0.3V9.+=

0000034200
727
FTAF34 OEJD 101600
TAF HUEN 101515Z 1018/1124 22006KT 9000 FEW021 FEW023CB SCT140
BECMG 1021/1024 36005KT FEW019 FEW021CB BKN120
TEMPO 1101/1107 VRB10KT 9000 -TSRA SCT017 FEW019CB BKN100
BECMG 1108/1113 18011KT FEW024 FEW026CB BKN200
FM111600 23006KT SCT022 FEW024CB BKN160
BECMG 1121/1124 FEW020 FEW022CB BKN130=

0000063300
728
SADL31 EDZO 101720
METAR EDDF 101720Z 21008KT CAVOK 06/02 Q1019 NOSIG=
METAR EDDH 101720Z 24010KT 9999 FEW012 BKN025 BKN048 07/04 Q1012
TEMPO 27015G25KT 4500 SHRA BKN010=
METAR EDDK 101720Z 19005KT 9999 FEW033 05/02 Q1017 NOSIG=
METAR EDDL 101720Z 21008KT CAVOK 05/02 Q1017 NOSIG=
METAR EDDM 101720Z 21005KT 9999 FEW042 04/01 Q1020 NOSIG=
METAR EDDN 101720Z 20003KT 9999 FEW040 BKN051 05/02 Q1018 NOSIG=
METAR EDDS 101720Z VRB01KT CAVOK 03/01 Q1019 NOSIG=
METAR EDDT 101720Z 25012KT 9999 BKN048 06/01 Q1013 TEMPO
     26015G25KT=
METAR EDDV 101720Z 24009KT 9999 FEW025 BKN031 06/03 Q1014 NOSIG=

0000047600
729
SADL32 EDZO 101720
METAR EDDB 101720Z 25016KT 9999 BKN048 06/01 Q1013 TEMPO
     25015G25KT=
METAR EDDC 101720Z 25006KT 9999 FEW045 04/M01 Q1015 NOSIG=
METAR EDDE 101720Z 23007KT 9999 FEW033 BKN052 04/01 Q1016 NOSIG=
METAR EDDG 101720Z 21007KT 9999 BKN025 06/03 Q1015 NOSIG=
METAR EDDP 101720Z 22011KT CAVOK 03/02 Q1016 NOSIG=
METAR EDDR 101720Z 24004KT CAVOK 04/01 Q1018 NOSIG=
METAR EDDW 101720Z 24009KT 9999 FEW022 BKN038 07/04 Q1013 NOSIG=

0000054900
730
SADN31 EKCH 101720
METAR EKCH 101720Z 27015KT 8000 -SHRA FEW010 BKN030 06/04 Q1005
NOSIG=
METAR EKBI 101720Z 25014KT 9999 -SHRA SCT012 BKN030 06/04 Q1006=
METAR EKYT 101720Z 26012KT 9999 -SHRA FEW025TCU BKN030 06/05
Q1003=
METAR EKRK 101720Z AUTO 27016KT 8000NDV -SHRA   FEW009/// SCT014///
BKN017/// BKN021/// 06/05 Q1005=
METAR EKAH 101720Z AUTO 26010KT 9999NDV BKN013/// 06/04 Q1005=
METAR EKEB 101720Z AUTO 25014KT 9999NDV OVC038/// 07/04 Q1007=
METAR EKRN 101720Z AUTO 27019KT 9999NDV BKN015/// 06/06 Q1005=

0000016500
731
SADN32 EKCH 101720
METAR EKVJ 101723Z NIL=
METAR EKSB 101723Z NIL=
METAR EKSN 101723Z NIL=
METAR EKVD 101723Z NIL=
METAR EKOD 101723Z NIL=

0000051800
732
SADN34 EKCH 101720
METAR EKGF 101720Z 25018KT 9999 FEW012 07/05 Q1007=
METAR EKHN 101720Z AUTO 26020KT 8000NDV BKN037/// ///// Q1010=
METAR EKHR 101720Z AUTO 26019KT 9999NDV BKN036/// 08/04 Q1008=
METAR EKHA 101720Z AUTO 25020KT 9999NDV 07/05 Q1008=
METAR EKHD 101720Z AUTO 25022KT 9999NDV 07/05 Q1005=
METAR EKTE 101720Z AUTO 23018KT 9999NDV FEW012 SCT023 07/05 Q1008=
METAR EKGC 101720Z AUTO 25023KT 9999NDV 07/05 Q1008=
METAR EKAV 101720Z AUTO 26017KT 9999NDV FEW028/// 06/04 Q1004=

00000000