0000066800
773
USAA01 NZCM 110000
TTAA 61001 89664
99997 00056 18501 00512 ///// ///// 92601 07158 18518
85255 11341 17017 70716 21114 15006 50514 33959 24513
40666 44759 24520 30855 51765 24023 25975 45585 24514
20124 43786 24513 15318 43586 26009 10592 41586 23504
88320 52361 23026
77999
31313 48008 82219=

0000069700
87361=
0000011200
87368=
0000015000
87382
0000012800
87386=
0000045700
87427
0000045800
87444
0000047900
87464
0000052000
87476
0000050000
87490
0000045900
87515
0000054200
87561
0000056300
87628
0000058400
87682=
0000058500
88276
0000052400
88542=
0000071100
91350
0000073000
774
USAA01 NZCM 110000
TTAA 61001 89664
99997 00056 18501 00512 ///// ///// 92601 07158 18518
85255 11341 17017 70716 21114 15006 50514 33959 24513
40666 44759 24520 30855 51765 24023 25975 45585 24514
20124 43786 24513 15318 43586 26009 10592 41586 23504
88320 52361 23026
77999
31313 48008 82219=

0000069700
87361=
0000011200
87368=
0000015000
87382
0000012800
87386
0000045600
87406
0000047700
87410
0000049800
87416
0000051900
87420
0000047800
87441=
0000045900
87536
0000052100
87559
0000054200
87603
0000052200
87665
0000060500
87771
0000062600
87959
0000062600
88131
0000054400
88410
0000056500
88641=
0000058700
91351
0000064500
775
SMVA10 EHDB 110000
BBXX
UCUD 11001 99105 70173 41998 93600 10260 40031 54000 70020 22222
04240 20000=
A8UL3 11004 99198 10589 41498 20413 10195 20126 40187 57010 70222
82100 22253 00260 20303 80153=
9V2003 11003 99265 10566 41698 61112 10185 20098 40205 50002 70022
83118 22232 00240 20203 80135=
A8HS3 11003 99133 10496 41497 20814 10260 20246 40170 55005 70211
8219/ 22224 04253 20702 80250=
9V2004 11004 99009 10586 41498 60117 10260 20232 40098 56020 70222
82279 22244 00270 21004 304// 41004 5//// 80240=
PHAC 11003 99039 30012 41397 21808 10250 20219 40127 58005 70200
821// 22233 20301 80228 42888=
0000077100
776
USAA01 NZCM 110000
TTAA 61001 89664
99997 00056 18501 00512 ///// ///// 92601 07158 18518
85255 11341 17017 70716 21114 15006 50514 33959 24513
40666 44759 24520 30855 51765 24023 25975 45585 24514
20124 43786 24513 15318 43586 26009 10592 41586 23504
88320 52361 23026
77999
31313 48008 82219=

0000069700
87361=
0000011200
87368
0000009600
87371
0000035800
87378
0000037300
87381
0000039400
87385
0000039400
87407
0000041500
87411
0000014600
87417
0000045700
87421
0000049900
87440
0000052000
87462
0000050000
87472
0000005900
87495=
0000058400
87712=
0000056500
88271
0000058600
88538
0000064800
89057
0000073100
89646
0000066900
90334
0000062800
91378
0000066800
777
USAA01 NZCM 110000
TTAA 61001 89664
99997 00056 18501 00512 ///// ///// 92601 07158 18518
85255 11341 17017 70716 21114 15006 50514 33959 24513
40666 44759 24520 30855 51765 24023 25975 45585 24514
20124 43786 24513 15318 43586 26009 10592 41586 23504
88320 52361 23026
77999
31313 48008 82219=

0000069700
87361=
0000011200
87368=
0000015000
87382
0000012800
87386=
0000045700
87427
0000045800
87444=
0000048000
87537
0000058300
87569
0000050100
87626
0000052200
87673
0000054300
87808
0000056400
87995
0000060600
88173
0000064700
88420
0000062700
88643=
0000066900
91331
0000064700
778
USAA01 NZCM 110000
TTAA 61001 89664
99997 00056 18501 00512 ///// ///// 92601 07158 18518
85255 11341 17017 70716 21114 15006 50514 33959 24513
40666 44759 24520 30855 51765 24023 25975 45585 24514
20124 43786 24513 15318 43586 26009 10592 41586 23504
88320 52361 23026
77999
31313 48008 82219=

0000069700
87361=
0000011200
87368
0000009600
87371
0000035800
87378
0000037300
87381=
0000039500
87413
0000041600
87422=
0000043800
87504=
0000052200
87720=
0000066800
88282
0000060600
88545
0000060700
89072
0000060700
89635
0000066900
90325
0000069000
91386
0000070900
779
USAA01 NZCM 110000
TTAA 61001 89664
99997 00056 18501 00512 ///// ///// 92601 07158 18518
85255 11341 17017 70716 21114 15006 50514 33959 24513
40666 44759 24520 30855 51765 24023 25975 45585 24514
20124 43786 24513 15318 43586 26009 10592 41586 23504
88320 52361 23026
77999
31313 48008 82219=

0000069700
87361=
0000011200
87368
0000009600
87371
0000035800
87378
0000037300
87381
0000039400
87385=
0000043700
87428
0000047800
87442
0000056100
87461
0000047900
87477
0000056200
87486=
0000052200
87707=
0000050300
88274
0000054400
88540
0000058600
89044
0000058600
89627
0000069000
90326
0000058700
91380
0000011100
780
UANT99 KDDL 110426
ARP UAL101 5338N02423W 0426 F380 MS56 220/57 KT
N14120 DDL IG1 110426 F89A
0000120000
781
FTSA85 EGRR 110423 RRA
TAF SELT 110400Z 1106/1206 03003KT 8000 BCFG FEW010 BKN100
     FM111300 19006KT 9999 BKN030 SCT100
     FM111900 18012KT 9999 VCSH BKN030 BKN100
     FM120200 36003KT 9999 BKN030 TX20/1119Z TN11/1111Z=
TAF SEMT 110400Z 1106/1206 19005KT 9999 BKN023
     FM111300 20010KT 9999 BKN023
     FM111900 22010KT CAVOK
     FM120200 18006KT 9999 BKN023 TX30/1120Z TN23/1110Z=
TAF SKRG 110400Z 110606 VRB02KT 9999 SCT018 SCT090
     TEMPO 1106/1109 6000 VCFG SCT012
     PROB40 TEMPO 1108/1112 2000 BR DZ SCT010
     TEMPO 1113/1118 09010KT FEW020 SCT200
     TEMPO 1119/1123 09007KT SCT020TCU
     PROB40 1119/1122 8000 VCSH SCT017CB
     TEMPO 1202/1206 8000 VCFG BKN015 TX22/1118Z TN12/1111Z=
TAF SKSP 110400Z 110606 08010KT 9999 FEW018 SCT200
     TEMPO 1106/1112 SCT018
     PROB30 TEMPO 1110/1113 -DZ SCT017
     TEMPO 1117/1123 FEW018
     PROB40 1119/1202 SCT018 TX30/1118Z TN26/1111Z=
TAF SMJP 110400Z 1106/1206 04003KT 9000 SCT010 SCT035 TX31/1118Z
     TN23/1110Z
     TEMPO 1109/1111 3500 BR
     BECMG 1111/1113 10012KT FEW015 BKN020
     TEMPO 1116/1120 5000 SHRA
     FM120200 00000KT 9999 FEW008 SCT030=
0000133900
782
FTSA85 EGRR 110423 RRB
TAF SBEG 110400Z 1106/1206 06005KT 9999 SCT010 TN22/1107Z TX30/1117Z
     BECMG 1108/1110 2000 BR BKN005
     BECMG 1111/1113 08005KT 9999 SCT010
     BECMG 1 115/1117 04005KT SCT020 FEW025TCU
     PROB30 1118/1120 TS SCT020 FEW025CB
     BECMG 1 122/1124 00000KT FEW015
     RMK PEH=
TAF SBRB 110400Z 1106/1206 00000KT 9999 FEW015 TN23/1107Z TX29/1118Z
     BECMG 1108/1110 36003KT 5000 BR BKN005
     BECMG 1111/1113 34005KT 9999 SCT015
     BECMG 1116/1118 30005KT SCT020 FEW025TCU
     BECMG 1121/1123 36003KT FEW 020
     RMK PEH=
TAF SKBO 110400Z 110606 VRB02KT 9999 SCT020 SCT080
     TEMPO 1106/1109 7000 BKN020
     PROB30 1106/1108 DZ BKN015
     TEMPO 1110/1112 3000 BR SCT015
     TEMPO 1113/1117 05012KT FEW020
     TEMPO 1119/1123 07007KT SCT023
     PROB40 1119/1122 29006KT VCSH SCT017TCU TX20/1118Z TN05/1111Z=
TAF SKBQ 110400Z 110606 04010KT 9999 FEW015
     TEMPO 1106/1112 CAVOK
     PROB30 TEMPO 1110/1112 5000 BR FEW010
     TEMPO 1117/1123 VRB02KT FEW020
     PROB40 TEMPO 1121/1204 CAVOK TX32/1118Z TN24/1111Z=
TAF SKCG 110400Z 110606 VRB02KT 9999 FEW020
     TEMPO 1106/1112 00000KT CAVOK
     PROB30 TEMPO 1110/1112 FEW010
     TEMPO 1116/1122 32007KT FEW020
     TEMPO 1200/1206 03005KT CAVOK TX32/1118Z TN23/1111Z=
0000117100
783
FTSA85 EGRR 110423 RRC
TAF SBBV 110400Z 1106/1206 07008KT CAVOK TN24/1107Z TX32/1118Z
     BECMG 1112/1114 SCT030
     BECMG 1116/1118 05010KT SCT040 FEW050TCU
     BECMG 1121/1123 0700 5KT CAVOK
     RMK PEH=
TAF SBCY 110400Z 1106/1206 00000KT 9999 FEW020 TN23/1107Z TX32/1118Z
     BECMG 1111/1113 33005KT
     BECMG 1116/1118 30008KT SCT020 FEW025TCU
     PROB30 11 19/1122 5000 TS SCT020 FEW025CB
     BECMG 1122/1124 06003KT FEW020
     RMK PEH=
TAF SBMQ 110400Z 1106/1206 36005KT 9999 FEW015 TN24/1107Z TX35/1116Z
     BECMG 1109/1111 06005KT 5000 BKN010
     BECMG 1113/1115 08005KT SCT020
     BECMG 1 121/1123 05005KT FEW015
     BECMG 1203/1205 01005KT
     RMK PEH=
TAF SBPV 110400Z 1106/1206 00000KT 9999 FEW015 TN23/1107Z TX31/1118Z
     BECMG 1111/1113 36005KT BKN015
     BECMG 1116/1118 SCT020 FEW025TCU
     PROB30 111 9/1122 5000 TS SCT020 FEW025CB
     BECMG 1122/1124 00000KT FEW015
     RMK PEH=
TAF SBSL 110400Z 1106/1206 07005KT 9999 SCT015 TN25/1107Z TX31/1116Z
     BECMG 1112/1114 09010KT BKN017
     BECMG 1116/1118 04008KT
     BECMG 1122/1124 060 05KT FEW017
     RMK PEH=
0000135400
784
FTSA85 EGRR 110423 RRD
TAF SBMN 110400Z 1106/1206 09003KT 9999 SCT010 TN23/1107Z TX30/1117Z
     BECMG 1108/1110 16003KT
     BECMG 1112/1114 13005KT SCT015
     BECMG 1116/1118 090 05KT SCT020 FEW025TCU
     PROB30 1118/1120 TS SCT020 FEW025CB
     BECMG 1122/1124 07003KT FEW015
     RMK PEH=
TAF SBSN 110400Z 1106/1206 07005KT 9999 FEW015 TN26/1107Z TX33/1118Z
     BECMG 1112/1114 09008KT BKN020
     BECMG 1116/1118 SCT020 FEW025TCU
     PROB30 112 0/1122 TS SCT020 FEW025CB
     BECMG 1122/1124 14003KT FEW020
     RMK PEH=
TAF SBTT 110400Z 1106/1206 00000KT 9999 FEW010 TN23/1110Z TX30/1117Z
     BECMG 1109/1111 09003KT
     BECMG 1113/1115 36003KT BKN015
     BECMG 1116/1118 290 05KT SCT020 FEW025TCU
     BECMG 1121/1123 06003KT FEW015
     RMK PEH=
TAF SKCL 110400Z 110606 VRB02KT 9999 FEW018 SCT090
     PROB30 1107/1109 8000 -DZ FEW010 BKN080
     TEMPO 1110/1112 5000 BR SCT010
     TEMPO 1113/1118 8000 SCT015 1119/1123 32006KT SCT023
     PROB40 1119/1122 VCSH SCT020TCU TX29/1119Z TN19/1111Z=
TAF SKLT 110400Z 110606 00000KT 9999 SCT015 SCT200
     PROB30 1106/1109 8000 DZRA SCT015CB
     TEMPO 1110/1112 2000 BR DZ SCT010
     TEMPO 1114/1118 VRB02KT BKN018
     TEMPO 1117/1123 25005KT SCT018TCU
     PROB40 1118/1121 5000 TSRA SCT015CB TX30/1118Z TN23/1111Z=
0000028400
785
SAPK31 OPKC 110430
METAR OPGD 110430Z NIL=
METAR OPKC 110425Z 36004KT 6000 SCT200 15/M04 Q1023 NOSIG=
METAR OPLA 110425Z 35005KT 2000 FU NSC 06/01 Q1020/A30.10=
METAR OPNH 110430Z NIL=
METAR OPPS 110430Z NIL=
METAR OPRN 110430Z NIL=
METAR OPSK 110430Z NIL=
0000024100
786
SOAT10 KWAL 110428
FA8005BC 011042837 OT12 ID:KN-BASS-01 DT:2014 01 11 04 26
:RD -3224 -3196 -3186 -3214 -3228 -3228 -3202 -3206 -3213 -3202
:PR 0465 0454 0490 0411 0465 0432 0397 0431 0465 0433
:B 13.7V
 46+0NN 219E
0000116100
787
UDAS02 BABJ 110418
AMDAR 1104
ASC CNFLWQ 4015N 11609E 110414 F155 MS268 273/036 TB/ S//1=
ASC CNFLWQ 4015N 11608E 110414 F157 MS268 270/038 TB/ S//1=
ASC CNFLWQ 4014N 11604E 110414 F174 MS295 274/046 TB/ S//1=
LVR CNFLWQ 4013N 11600E 110415 F177 MS300 276/048 TB/ S//1=
ASC CNFLWT 3146N 11854E 110414 F013 PS013 124/017 TB/ S//1=
ASC CNFLWT 3147N 11856E 110415 F035 MS019 128/014 TB/ S//1=
LVR CNFOZM 2404N 11409E 110344 F321 MS355 258/071 TB/ S//1=
LVR CNFOZM 2345N 11359E 110347 F321 MS358 258/069 TB/ S//1=
LVR CNFOZM 2327N 11348E 110350 F321 MS358 256/065 TB/ S//1=
LVR CNFOZM 2313N 11333E 110353 F321 MS360 255/062 TB/ S//1=
LVR CNFOZM 2259N 11318E 110356 F321 MS358 254/060 TB/ S//1=
LVR CNFOZM 2244N 11302E 110359 F321 MS360 256/057 TB/ S//1=
DES CNFOZM 2229N 11247E 110402 F312 MS340 251/054 TB/ S//1=
LVR CNFOZM 2215N 11232E 110405 F301 MS305 254/054 TB/ S//1=
LVR CNFPYL 3615N 10732E 110407 F276 MS440 263/082 TB/ S//1=
LVR CNFPYL 3632N 10721E 110410 F276 MS444 259/083 TB/ S//1=
LVR CNFPYL 3649N 10711E 110413 F276 MS449 263/088 TB/ S//1=
DES CNFPYL 3706N 10702E 110416 F256 MS395 275/087 TB/ S//1=
0000122300
788
UDAS02 BABJ 110419
AMDAR 1104
ASC CNFLWT 3149N 11857E 110416 F053 MS034 191/014 TB/ S//1=
ASC CNFLWT 3150N 11857E 110416 F067 MS040 199/007 TB/ S//1=
ASC CNFLWT 3151N 11856E 110416 F070 MS043 220/010 TB/ S//1=
ASC CNFLWT 3153N 11854E 110417 F088 MS045 252/026 TB/ S//1=
LVR CNFOZM 2200N 11217E 110408 F301 MS305 252/051 TB/ S//1=
LVR CNFOZM 2146N 11202E 110411 F301 MS306 252/048 TB/ S//1=
LVR CNFOZM 2131N 11146E 110414 F301 MS308 254/047 TB/ S//1=
LVR CNFOZM 2118N 11129E 110417 F301 MS308 254/045 TB/ S//1=
LVR CNFLWQ 4012N 11556E 110415 F177 MS300 276/046 TB/ S//1=
LVR CNFLWQ 4011N 11552E 110416 F177 MS298 276/047 TB/ S//1=
ASC CNFLWQ 4010N 11548E 110417 F186 MS311 277/051 TB/ S//1=
ASC CNFLWQ 4009N 11543E 110417 F201 MS343 272/056 TB/ S//1=
ASC CNFOZN 3615N 12023E 110417 F002 PS000 287/005 TB/ S//1=
LVR CNFOZL 3719N 12437E 110409 F256 MS408 269/087 TB/ S//1=
LVR CNFOZL 3714N 12418E 110412 F256 MS403 272/092 TB/ S//1=
LVR CNFOZL 3709N 12359E 110415 F256 MS396 272/096 TB/ S//1=
LVR CNFOZL 3701N 12342E 110418 F256 MS396 274/097 TB/ S//1=
ASC CNFOZN 3614N 12023E 110417 F011 MS019 204/006 TB/ S//1=
ASC CNFOZN 3614N 12023E 110418 F013 MS025 214/006 TB/ S//1=
0000013600
789
SNVD17 CWVR 110400
BBXX
46204 11041 99514 71288 46/// /1418 10057 49848 57090
22200 0//// 10809 70047 333 91224 =

0000034300
790
SNVD15 KWNB 110200 RRS
BBXX
42369 11021 99272 70903 46/// /1406 1//// 90220=
42375 11021 99285 70883 46/// /1307 1//// 90220 22200 10401 70007
555 11060 22065=
42392 11021 99272 70900 46/// ///// 1//// 90220 22200 10502 70009=
42887 11021 99282 70885 46/// /1607 10221 20189 90220 22200 10502
70009 555 11054 22059=
0000011000
791
UANT99 KDDL 110427
ARP ACA870 4949N03622W 0427 F340 MS52 224/22 KT
CFNNQ DDL XXW 110427 F11A
0000011000
792
UANT99 KDDL 110427
ARP ACA874 5358N01939W 0426 F340 MS60 259/56 KT
CGHKR DDL XXW 110427 J65A
00000000