0000011400
913
SAAG05 SABM 101900 RRD
METAR SASJ 101900Z  05007KT 9999  FEW025 FEW040CB
BKN200  33/17 Q1006=

0000035600
914
FTUS53 KWBC 101936 AAA
TAF AMD
KMKG 101934Z 1020/1118 15010KT 2SM BR OVC005
      TEMPO 1020/1022 3/4SM -FZRA BR OVC003
     FM102200 15011KT 1/2SM RA OVC005
     FM110100 16014G22KT 1/2SM RA FG OVC003
     FM110500 18012G18KT 1/2SM -RA FG OVC003
     FM111000 21007KT 1SM BR OVC003
     FM111400 25011KT 2SM -SN BR OVC005=

0000047300
915
FTUS52 KWBC 101936 AAA
TAF AMD
KFYV 101933Z 1020/1118 17007KT 5SM -RA BR SCT015 OVC060
      TEMPO 1020/1021 P6SM NSW BKN060
     FM102100 19011G18KT P6SM SCT015 BKN060
     FM110000 24011KT P6SM SCT100
      TEMPO 1109/1113 4SM BR=
KXNA 101934Z 1020/1118 20011KT 4SM -RA BR SCT015 OVC060
      TEMPO 1020/1021 P6SM NSW BKN060
     FM102100 19011G18KT P6SM SCT015 BKN060
     FM110000 24011KT P6SM SCT100
      TEMPO 1109/1113 4SM BR=

0000078000
916
FTUS80 KWBC 101936 AAA
TAF AMD
KFYV 101933Z 1020/1118 17007KT 5SM -RA BR SCT015 OVC060
      TEMPO 1020/1021 P6SM NSW BKN060
     FM102100 19011G18KT P6SM SCT015 BKN060
     FM110000 24011KT P6SM SCT100
      TEMPO 1109/1113 4SM BR=
KMKG 101934Z 1020/1118 15010KT 2SM BR OVC005
      TEMPO 1020/1022 3/4SM -FZRA BR OVC003
     FM102200 15011KT 1/2SM RA OVC005
     FM110100 16014G22KT 1/2SM RA FG OVC003
     FM110500 18012G18KT 1/2SM -RA FG OVC003
     FM111000 21007KT 1SM BR OVC003
     FM111400 25011KT 2SM -SN BR OVC005=
KXNA 101934Z 1020/1118 20011KT 4SM -RA BR SCT015 OVC060
      TEMPO 1020/1021 P6SM NSW BKN060
     FM102100 19011G18KT P6SM SCT015 BKN060
     FM110000 24011KT P6SM SCT100
      TEMPO 1109/1113 4SM BR=

0000009400
917
SPUS41 KWBC 101936
SPECI
KLWM 101932Z VRB05KT 4SM HZ OVC011 00/M03 A3039=

0000004200
918
SAHA31 KWBC 101930
NIL=

0000004200
919
SAJP31 KWBC 101930
NIL=

0000004200
920
SAJP41 KWBC 101930
NIL=

0000004200
921
SAJP42 KWBC 101930
NIL=

0000004200
922
SAJP43 KWBC 101930
NIL=

0000004200
923
SAJP44 KWBC 101930
NIL=

0000004200
924
SAJP45 KWBC 101930
NIL=

0000010000
925
SPUS31 KWBC 101937
SPECI
KLIT 101933Z 12004KT 1 3/4SM RA BR OVC005 09/08 A2983=

0000009500
926
SPUS31 KWBC 101937
SPECI
KMSP 101933Z 16008KT 5SM BR OVC008 M02/M03 A2962=

0000010400
927
SPUS42 KWBC 101937
SPECI
KSAV 101933Z 18009KT 9SM BKN010 BKN040 BKN130 21/17 A3013=

0000009100
928
SPUS43 KWBC 101937
SPECI
KSDF 101933Z 16006KT 10SM OVC015 11/08 A2999=

0000007800
929
SNAL54 EUMS 110500
AAXX 11054
60621 46/// /1111 10135 21043=
0000019800
930
FTCN35 CWAO 101900
TAF CYLD 101939Z 1020/1102 18010KT P6SM OVC006 TEMPO 1020/1102 5SM
     -SN OVC005 PROB30 1022/1102 2SM -FZDZ BR
    RMK NXT FCST WILL BE ISSUED AT 111245Z=

0000015300
931
FTCN35 CWAO 101900
TAF CYXZ 101939Z 1020/1024 20008KT P6SM OVC005 TEMPO 1020/1024 OVC008
    RMK NXT FCST WILL BE ISSUED AT 111245Z=

0000027000
932
SAIO31 KWBC 101900 RRF
METAR
WBGG 101930Z 23005KT 190V260 7000 -RA FEW000 SCT020 BKN150 23/22
     Q1011 NOSIG=
WBKK 101930Z 11004KT 9999 FEW014 SCT140 BKN280 24/23 Q1010
     NOSIG=
WBSB 101930Z 22001KT 9999 FEW005 BKN300 24/24 Q1011 NOSIG=

00000000