0000049900
693
SAUK32 EGGY 101850
METAR EGAA 101850Z 25004KT 9999 MIFG NSC 03/02 Q1008=
METAR EGAC 101850Z 24007KT CAVOK 06/03 Q1007=
METAR EGFF 101850Z 21007KT 9999 -SHRA FEW030 SCT045 09/07 Q1011=
METAR EGGW 101850Z 20006KT 150V220 9999 SCT009 07/06 Q1012=
METAR EGLC 101850Z 22009KT CAVOK 09/06 Q1014=
METAR EGNM 101850Z 21006KT 180V240 9999 SCT015 SCT040 07/05
    Q1007=
METAR EGNX 101850Z 22015KT 9999 FEW035 07/05 Q1010=
METAR EGPD 101850Z 25005KT CAVOK 06/02 Q1003 NOSIG=

0000041800
694
SAUK33 EGGY 101850
METAR EGGD 101850Z 20007KT 9999 FEW023 BKN049 07/06 Q1011=
METAR EGGP 101850Z 16008KT 9999 SCT026 BKN033 07/05 Q1008=
METAR EGHI 101850Z 20004KT 9999 SCT013 08/07 Q1014 =
METAR EGNS 101850Z NIL=
METAR EGNT 101850Z 23012KT 200V260 9999 FEW030 08/06 Q1005=
METAR EGNV 101850Z 19015KT 9999 SCT021 07/04 Q1006=
METAR COR EGPB 101850Z 24015KT 9999 FEW015 07/03 Q0999 NOSIG=

0000032800
695
SAUK34 EGGY 101850
METAR EGHE 101850Z NIL=
METAR EGHK 101850Z NIL=
METAR EGHQ 101850Z NIL=
METAR EGJA 101850Z NIL=
METAR EGJB 101850Z 18008KT 9999 FEW015 09/07 Q1015=
METAR EGJJ 101850Z 16010KT 4000 BR BKN003 07/07 Q1015 TEMPO 2000
    BKN002=
METAR EGTE 101850Z 19007KT 9999 FEW040 09/07 Q1012=

0000041600
696
SAUK35 EGGY 101850
METAR EGHH 101850Z NIL=
METAR EGKA 101850Z 25013KT 9999 SCT030 09/07 Q1014=
METAR EGKB 101850Z 20008KT 9999 VCSH SCT030 07/06 Q1014 =
METAR COR EGLF 101850Z 20008KT 9999 FEW022 08/06 Q1014=
METAR EGMC 101850Z 21013KT CAVOK 09/06 Q1013=
METAR EGMD 101850Z 23011KT 9999 FEW012 09/07 Q1015=
METAR EGMH 101850Z 22010KT 9999 FEW018 07/06 Q1015 =
METAR EGTC 101850Z NIL=

0000038500
697
SAUK36 EGGY 101850
METAR EGBE 101850Z 20008KT CAVOK 08/05 Q1011=
METAR EGBJ 101850Z 18008KT 9999 FEW030 09/05 Q1011=
METAR EGCN 101850Z 19011KT 9999 -SHRA SCT045 07/05 Q1010=
METAR EGSC 101850Z 19006KT 160V240 9999 FEW025 07/06 Q1012=
METAR EGSD 101850Z NIL=
METAR EGSH 101850Z 20009KT CAVOK 07/05 Q1012=
METAR EGVN 101850Z NIL=
METAR EGWU 101850Z NIL=

0000041600
698
SAUK37 EGGY 101850
METAR EGAE 101850Z NIL=
METAR EGNC 101850Z NIL=
METAR EGNH 101850Z 17014KT 5000 -RADZ FEW008 BKN014 08/07 Q1007=
METAR EGNJ 101850Z 20013KT CAVOK 07/05 Q1009=
METAR EGNO 101850Z NIL=
METAR EGNR 101850Z 15008KT 9999 SCT030 07/05 Q1008=
METAR EGPE 101850Z 22005KT 9999 FEW040 02/00 Q1004=
METAR EGPI 101850Z NIL=
METAR EGPN 101850Z 13001KT 9999 FEW048 04/04 Q1004=

0000044300
699
SAUK38 EGGY 101850
METAR EGEC 101850Z NIL=
METAR EGEO 101850Z NIL=
METAR EGPA 101850Z 24012KT 9999 VCSH FEW018 SCT032 05/03 Q1000=
METAR EGPC 101850Z 24010KT 9999 FEW025 03/01 Q1002=
METAR EGPL 101850Z AUTO 27019KT 9999 // FEW032/// 05/01 Q1004=
METAR COR EGPM 101850Z 21010KT 9999 -RA FEW010 SCT025 06/03 Q0998
     NOSIG=
METAR EGPO 101850Z 22008KT 9999 FEW014 FEW018CB 04/03 Q1002=
METAR EGPU 101850Z NIL=

0000064400
700
SAFI31 EFHK 101850
METAR EFHK 101850Z 35015KT 9999 -SN FEW009 BKN013 M01/M02 Q0990 TEMPO
BKN015=
METAR EFJY 101850Z AUTO 01007KT 9999 OVC009 M06/M07
 Q0994=
METAR EFKU 101850Z AUTO 02013KT 9999 -SN OVC015 
M07/M09 Q0995=
METAR EFOU 101850Z AUTO 06009KT 010V100 9000 -SG OVC037/// M11/M13 
Q1003=
METAR EFRO 101850Z AUTO 04019KT CAVOK M16/M18 
Q1007=
METAR EFTP 101850Z AUTO 02007KT 9999 -SN FEW009 
BKN011 OVC014 M02/M03 Q0993=
METAR EFTU 101850Z AUTO 02008KT 340V050 9999 OVC009/// 00/M01 Q0993 
R08/150095=
METAR EFVA 101850Z AUTO 03008KT 8000 SG FEW017/// OVC030/// M07/M09 
Q0999 R16/41//95=

0000042200
701
SASW32 LSSW 101850
METAR LSGC 101850Z AUTO 00000KT 6000 NCD 01/01 Q1018=
METAR LSGS 101850Z 00000KT 9999 SCT100 05/03 Q1019=
METAR LSZG 101850Z AUTO 00000KT 9999 NCD 04/02 Q1019=
METAR LSZR 101850Z 00000KT 9999 BKN070 05/03 Q1019 NOSIG RMK O=
METAR LSZS 101850Z NIL=
METAR LSZC 101850Z AUTO 27003KT 3900 BR NCD 01/01 Q1019=
METAR LSZL 101850Z AUTO VRB02KT 9999NDV OVC044 07/04 Q1021 RMK WHT=

0000010200
702
SACV20 GVAC 101900
METAR GVAC 101900Z 05008KT 9999 SCT014 BKN200 21/15 Q1015 NOSIG=

0000062700
703
SASN32 ESWI 101850
METAR ESKN 101850Z 32010KT 9999 BKN012 M03/M04 Q1001 R26/710195=
METAR ESOE 101850Z NIL=
METAR ESOK 101850Z 11004KT 9999 BKN015 M02/M03 Q1000=
METAR ESOW 101850Z 35007KT 9999 BKN012 M04/M06 Q1001 R01/750184=
METAR ESSA 101850Z 30012KT 9999 OVC007 M04/M05 Q1000 R01L/19//71
R08/19//58 R01R/19//68 NOSIG=
METAR ESSB 101850Z 30011KT 9999 OVC007 M03/M05 Q1000 R30/29//67=
METAR ESSD 101850Z AUTO 36003KT 9999 SCT019/// OVC039/// M06/M10
Q1000=
METAR ESSP 101850Z 30007KT 9999 BKN014 M02/M03 Q1001 R27/19//95=
METAR ESSV 101850Z 31013KT 9999 BKN010 M00/M02 Q1000 R21/29//87=

0000059000
704
FTUS41 KWBC 101854 AAA
TAF AMD
KBDR 101852Z 1019/1118 VRB02KT 3SM BR SCT012 OVC025
     FM110000 VRB03KT 2SM BR BKN012 OVC025
      TEMPO 1102/1105 -RA
     FM110500 15003KT 2SM -RA BR BKN006 OVC012
     FM110800 15008KT 1SM -RA BR OVC003 WS020/19050KT
     FM111400 17011KT 1SM -RA BR OVC004 WS015/19050KT=
KMDT 101852Z 1019/1118 VRB02KT 2SM BR OVC009
      TEMPO 1020/1023 4SM HZ BKN015 OVC023
     FM102300 VRB03KT 4SM BR OVC011
     FM110300 15005KT 2SM -RA BR OVC010 WS020/19045KT
     FM111500 17014G24KT 3SM RA BR BKN009 OVC016 WS012/19047KT=

0000059000
705
FTUS71 KWBC 101854 AAA
TAF AMD
KBDR 101852Z 1019/1118 VRB02KT 3SM BR SCT012 OVC025
     FM110000 VRB03KT 2SM BR BKN012 OVC025
      TEMPO 1102/1105 -RA
     FM110500 15003KT 2SM -RA BR BKN006 OVC012
     FM110800 15008KT 1SM -RA BR OVC003 WS020/19050KT
     FM111400 17011KT 1SM -RA BR OVC004 WS015/19050KT=
KMDT 101852Z 1019/1118 VRB02KT 2SM BR OVC009
      TEMPO 1020/1023 4SM HZ BKN015 OVC023
     FM102300 VRB03KT 4SM BR OVC011
     FM110300 15005KT 2SM -RA BR OVC010 WS020/19045KT
     FM111500 17014G24KT 3SM RA BR BKN009 OVC016 WS012/19047KT=

0000069200
706
SASN33 ESWI 101850
METAR ESNG 101850Z 03009KT 350V080 CAVOK M16/M19 Q1010=
METAR ESNK 101850Z 33011KT 9999 -SN OVC017 M10/M14 Q1004=
METAR ESNN 101850Z 34013KT 9999 IC SCT022 OVC030 M10/M13 Q1003
RESN R16/49/79=
METAR ESNO 101850Z AUTO 35012KT 6000 -SN BKN021/// OVC035/// M12/M15
Q1002=
METAR ESNQ 101850Z AUTO 02006KT 9999NDV IC OVC009/// M15/M16 Q1011
RESN RESG=
METAR ESNS 101850Z 35012KT 1000 R28/P1500N SN VV009 M12/M13 Q1004=
METAR ESNU 101850Z 35014KT 4700 -SN VV030 M11/M14 Q1002 R14/49//50=
METAR ESNZ 101850Z 08003KT 030V100 9999 -SN BKN040 M15/M17 Q1001=
METAR ESUT 101850Z AUTO VRB08G26KT 060V330 9999 SCT078/// BKN100///
M13/M19 Q1003=

0000047900
707
SASN34 ESWI 101850
METAR ESCF 101850Z AUTO 36002KT 9999NDV OVC010/// M02/M03 Q1001=
METAR ESDF 101850Z AUTO 24003KT 9999NDV NCD 01/M00 Q1003=
METAR ESIB 101850Z AUTO 17005KT 9999NDV OVC020/// 00/M01 Q1001=
METAR ESMV 101850Z NIL=
METAR ESPA 101850Z 03010KT 3400 SN VV033 M12/M15 Q1007=
METAR ESPE 101850Z AUTO 01009KT 6000NDV -SG SCT039/// OVC052/// 
M14/M17 Q1008=
METAR COR ESSL 101851Z 33004KT 9999 OVC010 M03/M04 Q1001 RESN RESG
R29/19//95=

0000040000
708
SASN35 ESWI 101850
METAR ESGR 101850Z NIL=
METAR ESKM 101850Z NIL=
METAR ESNL 101850Z 34009KT 8000 -SG SCT022 OVC033 M13/M17 Q1004=
METAR ESNX 101850Z AUTO 02009KT 6000NDV -SN SCT015/// BKN022///
OVC028/// M15/M18 Q1005=
METAR ESNY 101850Z NIL=
METAR ESSF 101850Z NIL=
METAR ESSK 101850Z NIL=
METAR ESUD 101850Z AUTO 36003KT 9999 -SN OVC027/// M14/M17 Q1005
RESG=

0000082600
709
SAMX44 MMMD 101900
METAR MMCE 101841Z 17004KT 6SM SCT005 24/21 A2994 RMK 8/500=
METAR MMCM 101840Z 00000KT 7SM SCT010 27/22 A2997 RMK 8/100=
METAR MMCP 101848Z 12006KT 6SM  SCT020 SCT260 27/22 A2994 RMK 8/109=
METAR MMCT 101845Z 13008KT 8SM  BKN020 29/21 A2999 
      RMK 8/100 MSGTX MMMD=
METAR MMCZ 101841Z 14009KT 8SM  BKN015TCU 26/21 A2999 RMK 8/200 SC=
METAR MMMD 101850Z 13011KT 7SM  BKN020TCU 29/20 A2994 RMK 8/200=
METAR MMMT 101846Z 00000KT 10SM  BKN040 BKN070 26/19 A2993 
      RMK 8/57/ VC HZ=
METAR MMTG 101842Z 16007KT 10SM  SKC 28/16 A2995=
METAR MMTP 101844Z 24010KT 10SM  FEW020 30/22 A2988 RMK 8/100=
METAR MMUN 101841Z 14010KT 7SM  SCT018 28/22 A2999 RMK 8/100 MDT CU=
METAR MMVA 101844Z 00000KT 7SM  SCT007 BKN015 OVC060 22/19 A2991 
      RMK 8/62/ VRBL CONDS=

0000010800
710
SABZ21 SBSV 101900
METAR SBSV 101900Z 06012KT 9999 SCT017 FEW020TCU
BKN070 28/24 Q1011=

0000009600
711
SAUS71 KWBC 101800 RRI
METAR
KSWF 101845Z 00000KT 7SM OVC012 M01/M03 A3037=

0000014300
712
SAVN31 SVVA 101900
METAR SVVA 101900Z 11008KT 9999 FEW016 33/19 Q1012=
METAR SVPC 101900Z 08012KT 9999 FEW040 XX/XX Q////=

00000000