0000038600
353
FTUS71 KWBC 101912 AAA
TAF AMD
KRWI 101908Z 1019/1118 03004KT 4SM -RA BR SCT005 OVC050
      TEMPO 1019/1023 6SM -RA BR BKN005 BKN050
     FM102300 06004KT 5SM -RADZ BR BKN005 OVC009
     FM110400 VRB05KT 1SM -DZ BR OVC003
     FM110700 18010KT P6SM OVC008
     FM111300 19013G24KT P6SM BKN009 OVC020
     FM111700 20017G28KT 5SM -SHRA BR BKN012 OVC025=

0000008900
354
SPCN42 CWAO 101911
SPECI CYUA 101911Z AUTO 29022KT 3SM CLR M25/ A2975=

0000010600
355
SPCN51 CWAO 101911
SPECI CWOB 101911Z AUTO 24003KT -SN SCT005 BKN047 BKN074 M19/ A2908=

0000012100
356
SAUS72 KWBC 101900 RRD
METAR
TNCM 101900Z 06012KT 9999 FEW019 SCT040 28/18 Q1016 A3002
     NOSIG=

0000009300
357
SATH33 VTBB 101900 RRB
METAR VTUK 101900Z 06005KT CAVOK 20/18 Q1017 A3003=

0000012300
358
SAEQ01 SEQU 101900 CCB
METAR COR SEGU 101900Z 24005KT 9999 SCT040 BKN100 31/20 Q1008 RMK 
A2976 NOSIG=

0000010100
359
SAUS73 KWBC 101900 RRD
METAR
KOFF 101858Z COR 14005KT 1SM BR OVC003 01/01 A2957=

0000009900
360
SAGQ21 FGSL 101900 RRA
METAR FGBT 101900Z 22007KT 9999 FEW010 28/25 Q1011 NOSIG=

0000058600
361
SABO41 SLLP 101900
METAR SLLP 101900Z 02011KT 9999 -SHRA SCT017 FEW020CB BKN200
14/04 Q1033=
METAR SLVR 101900Z 35013KT 9999 BKN017 30/21 Q1008=
METAR SLCB 101900Z 03004KT 9999 FEW027 FEW030TCU 27/06
Q1020=
METAR SLTJ 101900Z 15010KT 9999 FEW033 31/13 Q1014=
METAR SLTR 101900Z 32012KT 9999 FEW017 30/24 Q1009=
METAR SLSU 101900Z 02008KT 9999 FEW023 22/10 Q1025=
METAR SLPS 101900Z 00000KT 9999 SCT020 FEW025CB 29/25
Q1006=
METAR SLET 101900Z 34013G24KT 9999 FEW012 SCT017 30/22 Q1007=
METAR SLCO 101900Z 35008KT 9999 SCT017 BKN080 BKN200 30/24=

0000010700
362
SPIN90 VECC 111000 RRA
SPECI VEJS 111000Z 04006KT 1000 FU SCT015 SCT025 BKN100 24/12 Q1014=
0000009500
363
SAIN90 VEIM 111002
METAR VEIM 111000Z 14002KT 5000 HZ FEW020 22/11 Q1015 NOSIG=
0000005200
364
RRIN23 VECC 111001
RQRPT 773-814=

0000011700
365
SAIN90 VEGY 111000
SPECI VEGY 111000Z 10003KT 1300 TS  BKN018 FEWCB030  BKN080 16/15 Q1015 NOSIG =

0000041200
366
SAIN34 VOMM 110500
METAR VOBL 110500Z 15004KT 090V240 8000 FEW015 26/18 Q1020 NOSIG=
METAR VOCB 110500Z 07007KT 4000 HZ SCT015 BKN080 24/18 Q1018 NOSIG=
METAR VOCI 110500Z 08004KT 4000 HZ NSC 28/20 Q1014 BECMG 5000 HZ=
METAR VOCL 110500Z 09003KT 6000 NSC 28/21 Q1014 NOSIG=
METAR VOMD 110500Z 04008KT 4000 HZ FEW020 27/19 Q1016=
METAR VOML 110500Z 32005KT 6000 FEW020 28/22 Q1014 NOSIG=
0000029600
367
FTCN37 CWAO 101900 AAA
TAF AMD CYQI 101909Z 1019/1106 23012G22KT 3SM -SHSN OVC020 TEMPO
     1019/1023 1SM -SHSN VV010
    FM102300 22012KT P6SM SCT008 OVC020 TEMPO 1023/1104 5SM -SHRA BR
     BKN008
    FM110400 20012KT 3SM -DZ BR OVC005
    RMK NXT FCST BY 110000Z=

0000032700
368
FTSW31 LSSW 101700 AAA
TAF AMD LSZH 101909Z 1019/1124 VRB03KT 9999 MIFG FEW008 SCT040
     TX08/1115Z TN02/1106Z BECMG 1019/1021 2500 BCFG BECMG 1021/1023
     1000 PRFG PROB40 TEMPO 1021/1106 0300 FG VV001 BECMG 1108/1111
     8000 BKN110 BECMG 1115/1118 6000 BKN020 TEMPO 1117/1124 -RA
     BKN010=

0000010100
369
SAMX31 KWBC 101905
METAR MNMG 101900Z 08014KT 9999 SCT025 33/18 Q1010 A2983 NOSIG=

0000013600
370
SAIN31 EGGY 101900
METAR VOBL 101900Z NIL=
METAR VOCB 101900Z NIL=
METAR VOCI 101900Z NIL=
METAR VOCL 101900Z NIL=
0000013900
371
SAOS33 LOWM 101900
METAR LOAN 101900Z NIL=
METAR LOAV 101900Z NIL=
METAR LOIH 101900Z NIL=
METAR LOWZ 101900Z NIL=

0000064900
372
SAEE31 LOWM 101900
METAR UACK 101900Z 23006MPS 9999 DRSN BKN014CB OVC040
M08/M10 Q1021 R20/450342 NOSIG RMK QFE742/0989=
METAR UACP 101900Z NIL=
METAR UAII 101900Z 00000MPS 5000 BR BKN100 M07/M10 Q1027
R28/0///70 NOSIG RMK QFE733/0977=
METAR UADD 101900Z 20005MPS 9999 NSC M08/M14 Q1027 NOSIG RMK
QFE713/0950=
METAR UASK 101900Z 14006MPS 9999 BKN049 OVC130 M07/M15 Q1036
R12/820350 NOSIG RMK QFE751/1001=
METAR UASP 101900Z 21003MPS 9999 -SHSN BKN024CB M09/M12
Q1029 R21/451045 NOSIG RMK QFE760/1014=
METAR UAOO 101900Z 16005MPS 5000 BR BKN160 M06/M07 Q1026
NOSIG RMK QFE757/1010=
METAR UAKD 101900Z NIL=

00000000