0000016800
853
NOUK34 EGGY 110027
SADIS GATEWAY MONITORING
  FOLLOWING AN INVESTIGATION THE BULLETIN BELOW IS UNAVAILABLE 
VABB FT LAST RECEIVED AT 100300Z
  

0000010000
854
SAIS32 LLBG 110020
METAR LLBG 110020Z 17005KT 9999 BKN038 12/10 Q1021 RERA NOSIG=

0000009900
855
SAEA20 HKNC 102300 RRC
METAR HKMO 102300Z 00000KT 9999 FEW019 25/22 Q1012 NOSIG=

0000008900
856
SAJM31 MKJS 110000
METAR MKJS 110000Z 11010KT 9999 FEW022 26/23 Q1015=

0000010600
857
SALT31 EYVI 110020
METAR EYVI 110020Z 28015KT 8000 OVC011 02/00 Q0999 R20/2/0295 NOSIG=

0000017000
858
SAMP31 LMMM 110030
METAR HLLT NIL=
METAR HLLB 110015Z
00000KT 9999 SCT020 BKN080 14/11 Q1025 =
METAR LMML 110015Z AUTO 24006KT CAVOK 14/13 Q1022=

0000109000
859
SPUS70 KWBC 110010
SPECI
KEKQ 110006Z AUTO 17011KT 10SM SCT017 13/10 A2996 RMK AO2=
KFWN 110006Z AUTO 00000KT 9SM OVC008 01/M02 A3030 RMK AO2
     T00111017=
KHWO 110006Z 12004KT 10SM BKN016 24/22 A3010 RMK AO2=
KZZV 110006Z AUTO 11006KT 8SM SCT024 06/05 A2997 RMK AO2=
PAMO 110006Z AUTO 07013KT 10SM SCT025 M13/M17 A2952 RMK AO2 PWINO
     TSNO $=
KBUY 110007Z AUTO 01005KT 7SM -RA OVC004 03/02 A3019 RMK AO2 P0000
     T00330022=
KDNL 110007Z AUTO 00000KT 1 3/4SM -RA BR OVC003 09/09 A3013 RMK
     AO2 RAB2354 P0002 T00940089 TSNO=
KDTN 110007Z 17007KT 4SM -RA BR OVC013 16/14 A2974 RMK AO2
     P0001=
KFOK 110007Z 33004KT 1 1/4SM BR FEW001 BKN025 OVC031 03/02 A3035
     RMK AO2 RAE2358 P0000=
KHGR 110007Z 00000KT 1 3/4SM BR OVC007 02/01 A3024 RMK AO2
     T00170011=
KHOT 110007Z AUTO 14004KT 7SM BKN014 BKN033 OVC100 13/13 A2969 RMK
     AO2=
KRAC 110007Z AUTO 16015G21KT 2SM -RA BR OVC002 02/01 A2965 RMK AO2
     P0002 T00170011=
KUTS 110007Z AUTO 20012G18KT 10SM BKN009 BKN014 18/17 A2978 RMK
     AO2 CIG 005V011=

0000094500
860
SAAG31 KWBC 110000
METAR
SAAG NIL=
SAAP NIL=
SAAR 110000Z 05005KT 9999 TS SCT032 FEW045CB BKN100 28/21
     Q1008=
SABE 110000Z 34008KT 9999 FEW045CB SCT100 27/18 Q1008=
SACO 110000Z 16008KT 9999 FEW040CB FEW100 SCT200 27/18 Q1013=
SADD NIL=
SAEZ 110000Z 00000KT 9999 FEW050CB 27/15 Q1009=
SAME 110000Z 18003KT 9999 FEW045 FEW050CB 28/07 Q1012=
SARC 110000Z 05002KT 9999 FEW050CB SCT200 31/24 Q1006=
SARE 110000Z 07004KT 6000 NSC 31/25 Q1006=
SARF 110000Z 05004KT 9999 FEW025 31/24 Q1006=
SARI 110000Z 00000KT CAVOK 28/24 Q1012=
SARP 110000Z 14002KT 9999 -TSRA SCT020 FEW040CB OVC050 31/23
     Q1009=
SASA 110000Z 32001KT 9999 FEW020 FEW045CB BKN200 25/16 Q1011=
SASJ 110000Z NIL=
SAWE 110000Z 23013KT 9999 FEW020 SCT060 11/06 Q1007=
SAWG 110000Z 25011KT 9999 -RA FEW035 BKN050 09/06 Q1011=
SAZM 110000Z 25004KT 8000 FEW025 SCT100 19/11 Q1012=
SAZS 110000Z 32011KT CAVOK 16/05 Q1019=

0000033100
861
SAAG41 KWBC 110000
METAR
SAAC NIL=
SAAV NIL=
SAGS NIL=
SANE NIL=
SANT 110000Z 18004KT 5000 TSHZ SCT030 FEW045CB BKN100 31/23
     Q1004=
SANU NIL=
SAOR NIL=
SARL 110000Z NIL=
SATM NIL=
SAVC 110000Z 05008KT CAVOK 17/04 Q1013=
SAVT NIL=
SAZB NIL=
SAZN 110000Z 00000KT CAVOK 25/03 Q1012=

0000016000
862
SPIY40 LIIB 110014
SPECI LIPC 110011Z /////KT 0300 R11/0800 FG SCT003 BKN010 08/06 Q1022
      RMK OVC VIS MIN 0300 WIND THR11 28002KT RED=

0000016300
863
SACA33 KWBC 110000 RRB
METAR
TLPC 110000Z 09007KT 9999 SCT023 25/21 Q1016 TEMPO SHRA=
TVSV 110000Z 1110000Z 08014KT 9999 SCT018 26/21 Q1015=

0000012900
864
SACA35 KWBC 110000 RRA
METAR
MZBZ 110000Z 03005KT 9999 FEW021 BKN045 24/22 A2993 Q1013 RESHR A
     NOSIG=

0000026300
865
SASW31 LSSW 110020
METAR LSZH 110020Z NIL=
METAR LSGG 110020Z 00000KT CAVOK 02/01 Q1019 NOSIG=
METAR LSZB 110020Z AUTO 00000KT 0800 R14/1000D FZFG FEW120 M01/M01
    Q1019=
METAR LSZA 110020Z AUTO 36002KT 9999 BKN042 SCT047 08/06 Q1021=

0000025800
866
FTUS42 KWBC 110018 AAA
TAF AMD
KLCH 110017Z 1100/1124 17010KT 5SM -SHRA BR OVC004
      TEMPO 1100/1102 2SM -SHRA BR
     FM110400 20012KT 2SM -SHRA BR OVC003
     FM110900 27008KT 1SM BR OVC001
     FM111400 34008KT P6SM SCT005=

0000050400
867
FTUS71 KWBC 110018
TAF
TAF AMD KWRI 1100/1124 VRB06KT 2400 -RA BR OVC003 620604
      QNH3026INS
      BECMG 1102/1103 13012KT 4800 -RA BKN006 OVC030 620901
      QNH3000INS
      BECMG 1108/1109 17014KT 8000 -RA BKN010 OVC040
      WS020/19050KT
      QNH2983INS
      BECMG 1113/1114 18010G20KT 8000 -SHRA OVC010
      WS020/20060KT
      QNH2954INS
      BECMG 1120/1121 20025G35KT 3200 -TSRA OVC005CB
      QNH2941INS
      T16/1117Z T01/1100Z AMD 110008=

0000025800
868
FTUS72 KWBC 110018 AAA
TAF AMD
KLCH 110017Z 1100/1124 17010KT 5SM -SHRA BR OVC004
      TEMPO 1100/1102 2SM -SHRA BR
     FM110400 20012KT 2SM -SHRA BR OVC003
     FM110900 27008KT 1SM BR OVC001
     FM111400 34008KT P6SM SCT005=

0000019300
869
SALV32 EVRA 110020
METAR EVLA 110020Z AUTO 29007KT 260V330 9999 BKN020 BKN023 02/M01 
Q1002=
METAR EVVA 110020Z AUTO 31012KT 8000 -RA BKN010 BKN015 OVC022 02/01 
Q1000=

0000015200
870
SAUS71 KWBC 110000 RRE
METAR
KLCK 110015Z AUTO 13007KT 10SM OVC023 08/06 A2994=
KPQI 110015Z AUTO 00000KT 10SM CLR M10/M17 A3024=

0000020600
871
SAUS73 KWBC 110000 RRE
METAR
KCIU 110015Z AUTO 12008KT 5SM OVC006 M02/M02 A2980=
KELO 110013Z AUTO 18006KT 10SM OVC015 M05/M06 A2950=
KLBL 110015Z AUTO 31006KT 9SM CLR 02/M12 A2974=

0000009500
872
SAUS74 KWBC 110000 RRC
METAR
KOTH 110015Z 16004KT 10SM OVC028 12/11 A3010=

00000000