0000011700
893
SPUS43 KWBC 110129
SPECI
KPTK 110125Z 14008KT 3/4SM R09R/2600V5000FT -RA BR VV002 02/02
A2982=

0000151400
894
SPUS70 KWBC 110130
SPECI
KAEX 110126Z 16006KT 10SM BKN009 OVC018 18/17 A2982 RMK AO2
     RAB06E24 CIG 006V014 P0000=
KCMI 110126Z 21017G20KT 3SM RA BR OVC003 04/04 A2968 RMK AO2 WSHFT
     0110 P0007 $=
KDFI 110126Z AUTO 18005KT 2SM RA BR OVC004 03/03 A2983 RMK AO2
     P0004=
KGED 110126Z AUTO 15006KT 3SM BR BKN044 OVC070 07/06 A3027 RMK AO2
     T00720061=
KGLH 110126Z AUTO 16013KT 10SM OVC014 15/13 A2977 RMK AO2=
KLLQ 110126Z AUTO 19010G18KT 7SM VCTS -RA OVC007 16/15 A2974 RMK
     AO2 LTG DSNT W-N TSB20RAB14 CIG 005V010 P0000=
KTXK 110126Z 20008KT 7SM OVC010 16/15 A2971 RMK AO2 CIG
     005V012=
KAND 110127Z AUTO 07006KT 2SM BR OVC004 08/08 A3012 RMK AO2=
KCKV 110127Z AUTO 16011G18KT 10SM FEW017 SCT120 11/08 A2980 RMK
     AO2=
KEWN 110127Z 14003KT 10SM FEW024 BKN031 17/15 A3021 RMK AO2=
KFWN 110127Z AUTO 00000KT 1SM BR OVC004 00/M01 A3028 RMK AO2
     T00001006=
KGLR 110128Z AUTO 15010KT 3SM FZRA BR BKN003 OVC014 M01/M02 A2971
     RMK AO2 CIG 003V007 P0003 I1003 T10111017=
KIJD 110127Z AUTO 00000KT 3/4SM BR VV003 00/M01 A3034 RMK AO2
     I1000 T00001006 $=
KMCB 110127Z AUTO 16010KT 4SM BR OVC002 16/16 A2992 RMK AO2
     T01610156=
KSMQ 110127Z AUTO 00000KT 3/4SM -RA BR VV007 01/00 A3029 RMK AO2
     UPB0054E03RAB03 P0001 T00060000 TSNO=
KTKI 110127Z 32012KT 10SM CLR 16/09 A2974 RMK AO2 WSHFT 0107=
PABA 110127Z AUTO 27023KT 3/4SM -SN BR BKN024 BKN030 OVC070
     M25/M27 A2983 RMK AO2 SNB0026 P0000 FZRANO=

0000010500
895
SPUS42 KWBC 110131
SPECI
KSHV 110127Z 20010KT 10SM BKN006 BKN013 OVC018 17/16 A2973=

0000011100
896
SPUS43 KWBC 110131
SPECI
KFNT 110127Z 17015KT 6SM -RA BR SCT007 BKN055 OVC070 04/02 A2979=

0000010000
897
SAUK35 EGGY 110150 RRA
METAR EGHH 110150Z 22008KT 9999 FEW030 BKN049 09/07 Q1013=

0000010400
898
SAUK36 EGGY 110150 RRA
METAR EGCN 110150Z 25010KT 9999 -RA SCT030 SCT042 08/06 Q1009=

0000011400
899
SAPH41 RPLC 110200
METAR RPLC 110200Z
04007KT 9999 FEW042 BKN300 25/16 Q1019 A3008 RMK NOSIG=

0000250900
900
SPUS70 KWBC 110134
SPECI
KADG 110130Z AUTO 18006KT 1 1/2SM -RA BR OVC002 02/02 A2983 RMK
     AO2 P0002 TSNO=
KARB 110130Z AUTO 16004KT 2 1/2SM -RA BR OVC002 02/02 A2984 RMK
     AO2 P0002=
KBEH 110130Z AUTO 15011KT 4SM RA BR BKN009 OVC050 04/04 A2967 RMK
     AO2 PRESFR P0006=
KCEU 110130Z AUTO 07005KT 1 3/4SM BR OVC003 09/08 A3013 RMK
     AO2=
KCRG 110130Z 00000KT 9SM BKN003 18/16 A3012 RMK AO2 T01780161=
KGLS 110130Z AUTO 19009KT 2 1/2SM BR BKN003 BKN012 OVC034 18/18
     A2986 RMK AO2 VIS 1 1/2V5=
KHKY 110130Z 00000KT 1 1/2SM RA BR OVC002 06/06 A3016 RMK AO2
     RAB0055 P0002=
KNSE 110123Z 14007KT 1/2SM -DZ FG VV002 16/16 A3000 RMK AO2
     RAE22DZB22 P0000 T01610156 $=
KOWD 110130Z AUTO 00000KT 1 3/4SM BR BKN010 OVC014 02/01 A3034 RMK
     AO2 CIG 006V012 T00170011=
KRAC 110130Z AUTO 17013KT 2SM -RA BR OVC002 02/01 A2957 RMK AO2
     P0005 T00170011=
KSBM 110130Z AUTO 16006KT 6SM -RA BR OVC005 02/02 A2957 RMK AO2
     CIG 003V008 PRESFR P0010 T00170017=
KUCP 110130Z AUTO VRB05KT 8SM SCT007 05/04 A3000 RMK AO2 TSNO=
PAHC 110130Z AUTO 36012KT 4SM -SN FEW025 BKN035 OVC065 M16/M20
     A2955 RMK AO2 TSNO BLSNB0058E30 P0000 $=
KBWI 110131Z 07005KT 2SM -RA BR OVC003 02/02 A3025 RMK AO2
     P0003=
KFFT 110131Z AUTO 15006KT 10SM OVC031 10/08 A2986 RMK AO2
     T01000078=
KHQM 110131Z AUTO 13013KT 2 1/2SM -RA OVC010 A2983 RMK AO2 P0004
     TSNO $=
KILN 110131Z AUTO 14009KT 10SM BKN029 OVC034 07/07 A2986 RMK AO2
     T00720067=
KISW 110131Z AUTO 10003KT 1 3/4SM -SN BR OVC006 00/M01 A2955 RMK
     AO2 FZRAE0057SNB0057 CIG 004V010 P0004 I1000 T00001006=
KMEI 110131Z 14006KT 6SM BR BKN006 OVC012 13/13 A2994 RMK AO2
     RAE29 CIG 005V009 P0001=
KMTO 110131Z AUTO 17009KT 4SM -RA OVC003 04/M01 A2969 RMK AO2
     P0010 T00441011 TSNO=
KOFP 110131Z AUTO 00000KT 1 1/2SM BR OVC003 04/04 A3023 RMK AO2
     RAE11 P0002 T00390039=
KPBF 110131Z AUTO 12005KT 3SM +RA BR BKN009 OVC016 13/12 A2974 RMK
     AO2 LTG DSNT ALQDS TSB0057E25 P0011=
KPWK 110131Z 19007KT 5SM -RA BR BKN009 BKN014 OVC019 04/03 A2962
     RMK AO2 P0014=
KRUE 110131Z AUTO 00000KT 3SM -RA BR BKN012 OVC017 09/09 A2966 RMK
     AO2 RAB0057 P0003=
KSSI 110131Z AUTO 13007KT 1SM BR VV005 17/17 A3011 RMK AO2
     T01720167=
KTVR 110131Z AUTO 17005KT 9SM SCT028 BKN035 OVC046 16/16 A2985 RMK
     AO2 T01610156 TSNO=
PAGA 110131Z AUTO 00000KT 5SM -SN CLR M27/M29 A2968 RMK AO2 SNB19
     FZRANO PNO $=

0000011800
901
SPUS42 KWBC 110134
SPECI
KGLS 110130Z AUTO 19009KT 2 1/2SM BR BKN003 BKN012 OVC034 18/18
A2986=

0000009500
902
SAVN22 SVMI 110200
METAR SVMI 110200Z 07001KT 9999 FEW016 24/21 Q1014 NOSIG=

0000029000
903
FTCN35 CWAO 110100 AAA
TAF AMD CYQG 110157Z 1101/1124 17007KT 1/2SM -RA FG VV001 TEMPO
     1101/1109 1SM -RA BR OVC002
    FM110900 20012KT 1SM -RA BR OVC003
     BECMG 1115/1117 24012G22KT
    FM111900 25015G30KT P6SM -SHRA OVC012
    RMK NXT FCST BY 110600Z=

0000010500
904
SABZ22 SBBR 110200
METAR SBBR 110200Z 19002KT 9999 VCTS SCT035
FEW040CB 23/16 Q1019=

0000010500
905
SABZ19 SBMA 110200
METAR SBMA 110200Z 20001KT 9999 VCTS FEW020CB
BKN080 24/24 Q1011=

0000010600
906
SANO38 ENMI 110150 RRA
METAR ENGC 110150Z 09019KT 9999 -SHRA BKN012 02/00 Q0997 W06/S5=

0000009700
907
SPUS31 KWBC 110135
SPECI
KBWI 110131Z 07005KT 2SM -RA BR OVC003 02/02 A3025=

0000010600
908
SPCN51 CWAO 110157
SPECI CWUW 110157Z AUTO 14007KT 9SM BKN006 BKN020 BKN089 M29/ A2908=

0000009800
909
SABZ24 SBPA 110200
METAR SBPA 110200Z 02005KT 9999 FEW040 OVC100 23/21
Q1011=

0000010200
910
SASP31 LEMM 110130 RRA
METAR LEBL 110130Z 32007KT 5000 BR SCT025 10/06 Q1018 NOSIG=

0000008400
911
SAEA20 HKNC 110100 RRD
METAR HKNK 110100Z  00000KT  CAVOK  12/09=

0000017000
912
SANL32 EHDB 110155
METAR EHEH 110155Z AUTO 19006KT 9999 BKN009 03/02 Q1015 
GRN=
METAR EHKD 110155Z AUTO 21019KT 8000 BR OVC007 07/06 Q1012 
GRN=

00000000