0000044300
173
SAMS32 WMKK 101700
METAR WBGG 101700Z 24003KT 9999 SCT020 BKN150 23/23 Q1013 NOSIG=
METAR WBKK 101700Z 09004KT 060V120 9999 FEW014 SCT140 BKN280 24/23
Q1011 NOSIG  NOSIG=
METAR WMKJ 101700Z 32002KT 9999 FEW023 SCT140 BKN300 24/23 Q1012=
METAR WMKK 101700Z 34003KT 8000 FEW030 SCT140 BKN280 25/24 Q1012
NOSIG=
METAR WMKP 101700Z NIL=
METAR WMSA 101700Z 32005KT 250V010 8000 FEW017CB SCT140 BKN280 25/23
Q1012=

0000014000
174
SACN62 CYLL 101700
METAR CYLL 101700Z 25012KT 1 1/2SM BR VCFG FEW001 SCT100 BKN230
 M09/M10 A2937 RMK ST2AC2CI2 SLP989=

0000011700
175
SAMS33 WMKK 101600 CCA
METAR COR WMKI 101600Z 03007KT 9000 -RA FEW005 SCT030 BKN260 24/23
Q1013=

0000011900
176
SACN62 CYQK 101700
METAR CYQK 101700Z 17012KT 1 1/2SM -SN BR OVC003 M07/M08 A2951 RMK
 ST8 SLP020=

0000077400
177
SAMS33 WMKK 101700
METAR WMAU 101700Z 32005KT 9999 FEW000 SCT140 BKN270 24/23 Q////
QFF1012=
METAR WMBA 101700Z 03002KT 8000 FEW008 SCT030 BKN260 24/24 Q1012=
METAR WMKA 101700Z 35001KT 9999 FEW030 SCT140 BKN280 25/23 Q1013=
METAR WMKB 101700Z 00000KT 7000 -RA FEW005 SCT140 BKN260 25/24 Q1013
TEMPO 6000 RA=
METAR WMKC 101700Z 07014KT 9000 FEW008 SCT020 OVC200 26/23 Q1013=
METAR WMKD 101700Z 34005KT 320V030 9999 FEW010 SCT160 BKN260 23/22
Q1013 NOSIG=
METAR WMKE 101700Z NIL=
METAR WMKI 101700Z 04004KT 9000 -RA FEW005 SCT030 BKN260 23/23 Q1013=
METAR WMKL 101700Z 04006KT 9999 FEW026 BKN280 27/22 Q1013=
METAR WMKM 101700Z 04002KT 9999 FEW030 BKN140 24/23 Q1013=
METAR WMKN 101700Z 06011KT 9999 -RA SCT022 OVC190 25/24 Q1013=

0000044000
178
SAMS34 WMKK 101700
METAR WBGB 101700Z 15003KT 9999 FEW016 BKN150 25/24 Q1012=
METAR WBGR 101700Z NIL=
METAR WBGS 101700Z 06003KT 9999 SCT018 BKN150 23/23 Q1012=
METAR WBGY 101700Z 00000KT 9999 -RA FEW004 SCT020 BKN150 23/23 Q1012=
METAR WBKL 101700Z NIL=
METAR WBKS 101700Z 06011KT 9000 -RA FEW010 SCT040 BKN140 27/25 Q1010=
METAR WBKT 101700Z NIL=
METAR WBKW 101700Z 34006KT 9999 FEW017 BKN140 25/22 Q1010=

0000020900
179
SAIO31 KWBC 101700 RRA
METAR
FMCZ 101700Z NIL=
FMEE 101700Z 11011KT 9999 FEW026 BKN300 27/23 Q1015 NOSIG=
FSIA 101700Z 26003KT 9999 -SHRA FEW014CB BKN080 26/24 Q1013 TEMPO
     8000=

0000054800
180
SAMS38 WMKK 101700
METAR WBGB 101700Z 15003KT 9999 FEW016 BKN150 25/24 Q1012=
METAR WBGR 101700Z NIL=
METAR WBGS 101700Z 06003KT 9999 SCT018 BKN150 23/23 Q1012=
METAR WBKL 101700Z NIL=
METAR WBKS 101700Z 06011KT 9000 -RA FEW010 SCT040 BKN140 27/25 Q1010=
METAR WBKW 101700Z 34006KT 9999 FEW017 BKN140 25/22 Q1010=
METAR WMKD 101700Z 34005KT 320V030 9999 FEW010 SCT160 BKN260 23/22
Q1013 NOSIG=
METAR WMKL 101700Z 04006KT 9999 FEW026 BKN280 27/22 Q1013=
METAR WMKM 101700Z 04002KT 9999 FEW030 BKN140 24/23 Q1013=

0000009900
181
SAAF13 LFPW 101700 RRA
METAR GLRB 101700Z 23007KT 9999 SCT017 29/25 Q1008 NOSIG=

0000032100
182
SAAF17 LFPW 101700 RRA
METAR HEAX 101700Z 36003KT 9999 FEW020 16/10 Q1021 NOSIG=
METAR HEGN 101700Z 31012KT CAVOK 17/07 Q1020 NOSIG=
METAR HELX 101700Z 27005KT CAVOK 15/09 Q1020 NOSIG=
METAR HEMM 101700Z 33004KT 9999 FEW020 16/10 Q1023 NOSIG=
METAR HESN 101700Z 01004KT CAVOK 16/02 Q1021 NOSIG=

0000010600
183
SAAF18 LFPW 101700 RRA
METAR FMEE 101700Z 11011KT 9999 FEW026 BKN300 27/23 Q1015 NOSIG=

0000023500
184
SAAF20 LFPW 101700 RRA
METAR FABL 101700Z 26009KT CAVOK 28/05 Q1015 NOSIG=
METAR FAEL 101700Z 22020KT 9999 FEW035 SCT045 20/14 Q1015=
METAR FAGG 101700Z 23003KT 200V260 9999 VCSH SCT020 BKN030 17/14
     Q1018=

0000026900
185
SAAF21 LFPW 101700 RRA
METAR FALA 101700Z 24006KT 200V280 CAVOK 28/08 Q1016 NOSIG=
METAR FAMM 101700Z 26006KT CAVOK 31/05 Q1015 NOSIG=
METAR FAPE 101700Z 24018KT 9999 FEW025 20/14 Q1015 NOSIG=
METAR FAUP 101700Z 21008KT CAVOK 29/05 Q1014 NOSIG=

0000080100
186
FASW41 LSSW 101639
LSAS GAMET VALID 101800/102400 LSZH-
WESTERN SWITZERLAND
SECN I
HAZARDOUS WX NIL
SECN II
W/T:  5000FT 210/25KT PS05   10000FT  260/25KT MS04
FZLVL: FL075
MNM QNH: 1018 HPA
EASTERN SWITZERLAND
SECN I
HAZARDOUS WX NIL
SECN II
W/T: 5000FT 260/15KT PS01   10000FT  270/45KT MS07
FZLVL: FL055
MNM QNH: 1019 HPA
WESTERN ALPINE SWITZERLAND
SECN I
TURB: MOD FL070/FL140
SECN II
W/T: 8000FT 260/20KT MS02   13000FT  280/30KT MS11
FZLVL: FL075
EASTERN ALPINE SWITZERLAND
SECN I
TURB: MOD FL070/FL140
SECN II
W/T: 8000FT 270/25KT MS03   13000FT 290/45KT MS11
FZLVL: FL055
SOUTHERN SWITZERLAND
SECN I
HAZARDOUS WX NIL
SECN II
W/T: 5000FT VRB/05KT PS03   10000FT 290/25KT MS04
FZLVL: FL075
MNM QNH: 1019 HPA  =

0000016000
187
SACN62 CYXC 101700
METAR CYXC 101700Z 00000KT 20SM FEW010 FEW040 SCT120 BKN150 OVC240
 M06/M07 A2963 RMK SF1SC1AC3AC1CI3 SF TR SH W SLP073=

0000012600
188
SACN62 CYYD 101700
METAR CYYD 101700Z 08003KT 080V250 1/2SM FZFG BKN080 M08/M08 A2968
 RMK FG5AC2 SLP075=

0000012200
189
SACN62 CYYY 101700
METAR CYYY 101700Z 22014G20KT 15SM FEW010 SCT100 M07/M15 A3019 RMK
 SC1AC3 SLP229=

0000012900
190
SACN62 CYXP 101700
METAR CYXP 101700Z 00000KT 15SM FEW030 SCT090 OVC210 M18/M22 A2918
 RMK SC1AS3CI4 SLP884=

0000013900
191
SACN62 CYTS 101700
METAR CYTS 101700Z 19011G16KT 15SM -SN SCT013 OVC030 M05/M08 A2991
 RMK SC4SC4 PCPN VRY LGT SLP150=

0000013100
192
SACN62 CYWK 101700
METAR CYWK 101700Z 22011G17KT 10SM -SN DRSN BKN022 OVC110 M14/M18
 A2974 RMK SC6AC2 SLP128=

00000000