0000010000
193
SPCN45 CWAO 102015
SPECI CYPC 102015Z 29024KT 3/8SM -SN BLSN OVC022 RMK BLSN6SC2=

0000141300
194
FTUS80 KWBC 102018 AAA
TAF AMD
KAZO 102015Z 1020/1118 16007KT 2SM -RA BR OVC006
      TEMPO 1020/1022 OVC004
     FM102200 16012KT 2SM RA BR OVC009
     FM110300 17012G19KT 1/2SM -RA FG OVC003
     FM111000 20010KT 1SM BR OVC003=
KDHN 102017Z 1020/1118 08004KT 1/2SM FG OVC002
      TEMPO 1020/1022 1/4SM FG
     FM110300 15003KT 1/4SM FG OVC002
     FM111200 19010KT 2SM RA BR OVC003
     FM111700 26010G15KT P6SM VCSH OVC015=
KMKC 102017Z 1020/1118 20008KT 4SM BR OVC008
     FM102200 21006KT 4SM BR OVC012
     FM110600 27006KT 4SM BR VCSH OVC008
     FM110900 26010KT P6SM SCT150=
KRIL 102017Z 1020/1118 VRB03KT P6SM VCSH BKN035 OVC050
      TEMPO 1020/1024 4SM -SN FEW025 BKN035 OVC050
     FM110200 VRB04KT P6SM VCSH SCT020 BKN050=
KSFO 102016Z 1020/1124 36004KT P6SM FEW006 SCT200
     FM102200 29012KT P6SM FEW012 BKN200
     FM110300 29006KT P6SM FEW012 BKN250
      TEMPO 1103/1105 BKN012
     FM110500 27004KT P6SM OVC010
     FM111700 23012KT P6SM BKN100
     FM111900 26008KT P6SM OVC060 PROB30 1119/1124 -RA=
KSGF 102016Z 1020/1118 16015G23KT P6SM VCSH BKN007 BKN090
      TEMPO 1020/1022 SCT007 BKN090
     FM102200 20015KT 6SM -SHRA BR VCTS SCT007 OVC015CB
      TEMPO 1023/1102 3SM SHRA BR OVC007CB
     FM110200 25011KT 6SM BR SCT008 BKN050
     FM110500 26010KT 3SM BR BKN007
     FM111400 26010G18KT P6SM SCT250=

0000009800
195
SAAB31 LATI 102020
METAR LATI 102020Z 11003KT 5000 BR BKN055 11/08 Q1022 NOSIG=

0000009900
196
SPCN51 CWAO 102018
SPECI CWSW 102018Z 16009KT 15SM -SN SCT030 OVC060 RMK SC4SC3=

0000009700
197
SPCN43 CWAO 102018
SPECI CYPG 102018Z 28002KT 6SM BR BKN014 BKN082 RMK SC6AC2=

0000010300
198
SPUS41 KWBC 102019
SPECI
KCAE 102015Z 30004KT 3SM RA BR BKN008 OVC012 09/08 A3017=

0000011100
199
SPUS43 KWBC 102019
SPECI
KMKE 102015Z 16011KT 1SM R01L/5000VP6000FT BR OVC002 01/00 A2978=

0000010000
200
SPUS43 KWBC 102019
SPECI
KMOT 102015Z AUTO 26016G26KT 10SM SCT016 00/M04 A2939=

0000010300
201
SAMP31 LMMM 102030 RRA
METAR HLLB 102021Z
00000KT 9999 SCT020 BKN080 16/11 Q1025 =

0000010700
202
SAMS33 WMKK 102000 RRA
METAR WMKL 102000Z 08004KT 9999 FEW026 SCT140 BKN280 27/22 Q1011=

0000010700
203
SAMS38 WMKK 102000 RRC
METAR WMKL 102000Z 08004KT 9999 FEW026 SCT140 BKN280 27/22 Q1011=

0000033400
204
SASW31 LSSW 102020
METAR LSZH 102020Z 00000KT 5000 R14/0750N R16/0700N R28/P2000N
    R34/0900U PRFG FEW032 SCT230 01/01 Q1019 BECMG 3000=
METAR LSGG 102020Z 00000KT CAVOK 04/03 Q1019 NOSIG=
METAR LSZB 102020Z VRB01KT CAVOK 00/00 Q1019 NOSIG=
METAR LSZA 102020Z VRB01KT 9999 FEW038 BKN042 08/06 Q1021 NOSIG=

0000011100
205
SAIO31 KWBC 102000 RRC
METAR
VRMM 102000Z 08014KT 9999 SCT018TCU BKN280 28/24 Q1012 NOSIG=

0000013500
206
SAPA31 KWBC 102000 RRD
METAR
PKWA 102020Z AUTO 06017G20KT 10SM SCT024 SCT032 27/21 A2983 RMK
     AO2 T02730213=

0000089200
207
FTUS53 KWBC 102021 AAA
TAF AMD
KASE 102018Z 1020/1118 35008KT 1 1/2SM -SN BKN015 OVC030
     FM110200 21005KT 2SM -SN BR SCT020 OVC030
     FM110700 21005KT P6SM VCSH SCT025 BKN040
      TEMPO 1108/1112 3SM BR SCT015 BKN020=
KBRL 102018Z 1020/1118 16009KT 2SM -RA BR VCTS OVC003CB
     FM110100 18003KT 1/2SM -RA FG OVC002
     FM110700 26005KT 1SM -FZRASN BR OVC003
     FM110900 27010KT 2SM -SN BR OVC004
     FM111300 28011KT 4SM BR VCSH OVC006=
KHUT 102018Z 1020/1118 30014KT P6SM FEW020 SCT060
     FM110000 28008KT P6SM SCT120 BKN250
     FM111700 29013G20KT P6SM SKC=
KJLN 102019Z 1020/1118 20015G23KT P6SM OVC014
     FM102200 22012G20KT 6SM -SHRA BR VCTS SCT008 OVC015CB
     FM110000 24011KT 6SM BR FEW008 BKN050
     FM110300 24010KT 6SM BR SCT007 BKN015
     FM111200 25010KT P6SM SCT015
     FM111400 25010G18KT P6SM FEW250=

0000031600
208
FTUS54 KWBC 102021 CCA
TAF COR
KACV 102018Z 1020/1118 25006KT 3SM BR OVC001
      TEMPO 1020/1021 6SM BR SCT001 BKN012
     FM102100 24006KT P6SM SCT002 BKN012
      TEMPO 1021/1022 5SM BR BKN002
     FM110000 20009KT P6SM VCSH SCT005 BKN015
     FM110700 16012G22KT 4SM -RA BR OVC015=

0000137500
209
FTUS80 KWBC 102021 AAA
TAF AMD
KASE 102018Z 1020/1118 35008KT 1 1/2SM -SN BKN015 OVC030
     FM110200 21005KT 2SM -SN BR SCT020 OVC030
     FM110700 21005KT P6SM VCSH SCT025 BKN040
      TEMPO 1108/1112 3SM BR SCT015 BKN020=
KBRL 102018Z 1020/1118 16009KT 2SM -RA BR VCTS OVC003CB
     FM110100 18003KT 1/2SM -RA FG OVC002
     FM110700 26005KT 1SM -FZRASN BR OVC003
     FM110900 27010KT 2SM -SN BR OVC004
     FM111300 28011KT 4SM BR VCSH OVC006=
KHUT 102018Z 1020/1118 30014KT P6SM FEW020 SCT060
     FM110000 28008KT P6SM SCT120 BKN250
     FM111700 29013G20KT P6SM SKC=
KIAH 102019Z 1020/1124 16010KT P6SM VCSH SCT012 OVC025
     FM102100 17011KT P6SM -RA BKN020 BKN040
     FM110200 18006KT 4SM BR SCT007 BKN015
     FM110600 23007KT 6SM BR BKN007
     FM110900 27008KT P6SM SCT010
     FM111100 33006KT P6SM SKC=
KIND 102020Z 1020/1124 13010KT 5SM BR OVC025
     FM102230 15012KT 3SM -RA BR OVC007
     FM110900 21012G20KT 2SM -RA BR OVC007
     FM111400 25014G22KT 6SM -RA BR SCT007 OVC010
     FM111800 25014G24KT P6SM BKN025=
KJLN 102019Z 1020/1118 20015G23KT P6SM OVC014
     FM102200 22012G20KT 6SM -SHRA BR VCTS SCT008 OVC015CB
     FM110000 24011KT 6SM BR FEW008 BKN050
     FM110300 24010KT 6SM BR SCT007 BKN015
     FM111200 25010KT P6SM SCT015
     FM111400 25010G18KT P6SM FEW250=

0000022400
210
FTUS80 KWBC 102021 AAB
TAF AMD
KOAK 102018Z 1020/1124 23004KT P6SM SCT200
     FM102030 27012KT P6SM SCT200
     FM110200 29007KT P6SM BKN250
     FM110900 24005KT P6SM OVC010 PROB30 1119/1124 -RA=

0000031600
211
FTUS80 KWBC 102021 CCA
TAF COR
KACV 102018Z 1020/1118 25006KT 3SM BR OVC001
      TEMPO 1020/1021 6SM BR SCT001 BKN012
     FM102100 24006KT P6SM SCT002 BKN012
      TEMPO 1021/1022 5SM BR BKN002
     FM110000 20009KT P6SM VCSH SCT005 BKN015
     FM110700 16012G22KT 4SM -RA BR OVC015=

0000010800
212
SPUS31 KWBC 102021
SPECI
KBOS 102017Z 13003KT 4SM BR FEW007 BKN030 OVC035 00/M02 A3039=

00000000