0000026800
853
FTUS31 KWBC 101818 AAA
TAF AMD
KCLE 101816Z 1018/1124 17008KT P6SM OVC012
      TEMPO 1018/1022 5SM BR BKN009
     FM110300 16014KT 3SM -RA BR OVC010 WS015/19045KT
     FM111600 22008KT 2SM BR OVC006
     FM112100 25016G22KT 5SM BR OVC008=

0000031400
854
FTUS41 KWBC 101818 AAA
TAF AMD
KGON 101815Z 1018/1118 VRB03KT 2SM -RA BR BKN015 OVC025
     FM102000 VRB04KT 3SM BR BKN015 OVC025
     FM110600 14004KT 2SM -RA BR BKN007 OVC015
     FM110900 15008KT 1SM -RA BR OVC004 WS020/19050KT
     FM111400 16011KT 1SM -RA BR OVC004 WS020/19055KT=

0000012000
855
FTUS42 KWBC 101818
TAF
KELP 101814Z 1018/1118 26011G18KT P6SM SKC
     FM110100 28009KT P6SM SKC=

0000053300
856
FTUS71 KWBC 101818 AAA
TAF AMD
KCLE 101816Z 1018/1124 17008KT P6SM OVC012
      TEMPO 1018/1022 5SM BR BKN009
     FM110300 16014KT 3SM -RA BR OVC010 WS015/19045KT
     FM111600 22008KT 2SM BR OVC006
     FM112100 25016G22KT 5SM BR OVC008=
KGON 101815Z 1018/1118 VRB03KT 2SM -RA BR BKN015 OVC025
     FM102000 VRB04KT 3SM BR BKN015 OVC025
     FM110600 14004KT 2SM -RA BR BKN007 OVC015
     FM110900 15008KT 1SM -RA BR OVC004 WS020/19050KT
     FM111400 16011KT 1SM -RA BR OVC004 WS020/19055KT=

0000027500
857
FTUS72 KWBC 101818
TAF
KDMN 101814Z 1018/1118 27013G23KT P6SM SKC
     FM110100 28010KT P6SM SKC=
KELP 101814Z 1018/1118 26011G18KT P6SM SKC
     FM110100 28009KT P6SM SKC=
KTCS 101814Z 1018/1118 27012KT P6SM SKC
     FM110100 29008KT P6SM SKC=

0000026600
858
FTUS73 KWBC 101818 AAA
TAF AMD
KUIN 101815Z 1018/1118 15010KT 3SM -RA BR OVC004
      TEMPO 1019/1020 2SM -TSRA BR OVC004CB
     FM110000 19011KT 4SM BR OVC007
     FM110600 26012KT 5SM BR OVC008
     FM111500 26012KT P6SM SCT015 BKN250=

0000010800
859
SAIO31 KWBC 101800 RRD
METAR
FMEE 101807Z 12009KT 9999 FEW026 BKN300 26/23 Q1016 NOSIG=

0000015200
860
SAUS71 KWBC 101800 RRF
METAR
KLCK 101815Z AUTO 16007KT 10SM OVC005 06/03 A3014=
KPQI 101815Z AUTO 13006KT 10SM CLR M09/M28 A3027=

0000020900
861
SAUS73 KWBC 101800 RRE
METAR
KCIU 101815Z AUTO 16008KT 3SM OVC005 M03/M04 A2994=
KELO 101813Z AUTO 18006KT 7SM OVC009 M07/M08 A2959=
KLBL 101815Z AUTO 31011G15KT 10SM CLR 08/M06 A2972=

0000009500
862
SAUS74 KWBC 101800 RRC
METAR
KOTH 101815Z 00000KT 10SM OVC070 11/11 A3023=

0000010100
863
SAUS75 KWBC 101800 RRC
METAR
PABT 101753Z COR 00000KT 10SM FEW240 M32/M35 A2967=

0000019100
864
FTCN36 CWAO 101800 AAA
TAF AMD CYKQ 101818Z 1018/1022 19015KT 2SM -SN BLSN OVC015 TEMPO
     1018/1022 6SM -SN SCT015 OVC030
    RMK NXT FCST WILL BE ISSUED AT 121645Z=

0000012000
865
FTUS52 KWBC 101818
TAF
KDMN 101814Z 1018/1118 27013G23KT P6SM SKC
     FM110100 28010KT P6SM SKC=

0000026600
866
FTUS53 KWBC 101818 AAA
TAF AMD
KUIN 101815Z 1018/1118 15010KT 3SM -RA BR OVC004
      TEMPO 1019/1020 2SM -TSRA BR OVC004CB
     FM110000 19011KT 4SM BR OVC007
     FM110600 26012KT 5SM BR OVC008
     FM111500 26012KT P6SM SCT015 BKN250=

0000051100
867
FTUS80 KWBC 101818
TAF
KDMN 101814Z 1018/1118 27013G23KT P6SM SKC
     FM110100 28010KT P6SM SKC=
KELP 101814Z 1018/1118 26011G18KT P6SM SKC
     FM110100 28009KT P6SM SKC=
TAF KEVW 101810Z 1018/1118 25020G30KT P6SM VCSH OVC040
      TEMPO 1018/1020 3SM -SN BR BKN030
     FM102000 25022G32KT 5SM -SHSN BLSN OVC020
     FM110200 24020KT P6SM VCSH BKN030
     FM111500 22015G27KT P6SM SCT050 BKN070=
KTCS 101814Z 1018/1118 27012KT P6SM SKC
     FM110100 29008KT P6SM SKC=

0000164100
868
SPUS70 KWBC 101818
SPECI
KDAN 101814Z AUTO 33004KT 2 1/2SM -RA BR OVC003 03/02 A3031 RMK
     AO2 P0000=
PAMB 101814Z AUTO 04007KT 1/2SM FZFG OVC003 M04/M04 A2943 RMK AO2
     TSNO $=
PAMR 101814Z 36003KT 2SM -SN BR BKN004 OVC016 M02/M05 A2941 RMK
     AO2 P0000=
KPWK 101814Z 16010KT 2 1/2SM BR OVC006 01/00 A2989 RMK AO2
     P0001=
KRHI 101814Z AUTO 20008KT 1 3/4SM BR OVC004 M06/M07 A2975 RMK AO2
     T10561067=
KLOU 101814Z 15005KT 10SM OVC011 10/08 A3006 RMK AO2=
KLSE 101815Z 15006KT 2 1/2SM BR OVC008 M01/M03 A2975 RMK AO2
     T10061028=
KMIE 101814Z 17008KT 6SM BR SCT024 OVC034 04/03 A3001 RMK AO2
     T00440028=
KGED 101814Z AUTO 02003KT 1 3/4SM -RA BR BKN003 OVC017 04/03 A3037
     RMK AO2 P0002 T00390028=
KHGR 101814Z 00000KT 4SM HZ SCT010 SCT075 03/00 A3031 RMK AO2
     T00280000=
PASC 101812Z 24011KT 10SM BKN022 OVC030 M31/M34 A2989 RMK AO2=
KAKH 101815Z AUTO 03007KT 3SM BR OVC004 06/05 A3022 RMK AO2
     RAB00E11 P0000=
KCEW 101815Z AUTO 00000KT 1/4SM FG VV002 13/13 A3011 RMK AO2
     T01330128=
KMFR 101815Z 02003KT 3SM BR OVC004 06/04 A3027 RMK AO2
     T00560039=
KDHN 101815Z 07003KT 3/4SM BR OVC002 13/13 A3014 RMK AO2=
KERI 101815Z 19008KT 10SM OVC016 04/01 A3015 RMK AO2=
KFCI 101816Z AUTO 07003KT 2SM OVC004 03/M02 A3034 RMK AO1
     P0002=
KGNV 101815Z 14006KT 10SM OVC033 24/20 A3011 RMK AO2 T02390200=
PARS 101815Z AUTO 00000KT 10SM FEW004 SCT019 SCT050 M13/M15 A2954
     RMK AO2 TSNO $=
PASI 101815Z 09006KT 10SM -RA FEW015 BKN025 OVC033 02/01 A2958 RMK
     AO2 RAB1755E02B09SNB1754E1755GSB02E09 P0004 T00220011=

0000009100
869
SPUS31 KWBC 101818
SPECI
KLOU 101814Z 15005KT 10SM OVC011 10/08 A3006=

0000010500
870
SPUS41 KWBC 101818
SPECI
KPVD 101814Z 00000KT 1 3/4SM -RASN BR OVC024 M01/M02 A3042=

0000014300
871
SASA31 KWBC 101800 RRC
METAR
SVBC 101800Z 36010KT 9999 FEW010 33/20 Q1013=
SVMG 101800Z /////KT 9999 SCT010 30/20 Q1012=

0000013200
872
SASA32 KWBC 101800 RRA
METAR
SLLP 101800Z 13012KT 080V180 9999 VCTS SCT017 FEW020CB BKN200 1
     6/02 Q1034=

00000000