0000025100
953
FTCN35 CWAO 101900
TAF CYKF 101938Z 1020/1105 18006KT 1/8SM FZFG VV001 TEMPO 1020/1022
     11/2SM BR OVC005
    FM102200 18010KT 1SM BR OVC003 TEMPO 1022/1105 5SM BR OVC006
    RMK FCST BASED ON AUTO OBS. NXT FCST BY 110200Z=

0000016300
954
FTCN35 CWAO 101900
TAF CYGK 101938Z 1020/1104 18010KT 4SM BR OVC015 TEMPO 1020/1104 P6SM
     NSW BKN025 OVC040
    RMK NXT FCST BY 110200Z=

0000017000
955
FTCN36 CWAO 101900
TAF CYBC 101938Z 1020/1108 25015KT P6SM OVC140
     BECMG 1021/1023 24007KT
    RMK FCST BASED ON AUTO OBS. NXT FCST BY 110200Z=

0000023100
956
FTCN35 CWAO 101900
TAF CYQA 101938Z 1020/1103 16010KT 3SM -SN OVC005 TEMPO 1020/1103 6SM
     BR OVC008 PROB30 1020/1103 1SM -FZDZ BR OVC002
    RMK FCST BASED ON AUTO OBS. NXT FCST WILL BE ISSUED AT 111245Z=

0000026100
957
FTCN36 CWAO 101900
TAF CYGV 101938Z 1020/1108 27012G22KT P6SM -SN OVC025 TEMPO 1020/1106
     21/2SM -SN BLSN OVC020
     BECMG 1021/1023 27010KT
    FM110600 27007KT 6SM -SN OVC030
    RMK FCST BASED ON AUTO OBS. NXT FCST BY 110200Z=

0000022500
958
FTCN36 CWAO 101900
TAF CYRJ 101938Z 1020/1103 25007KT P6SM SCT030 BKN110 TEMPO 1020/1022
     BKN020
    FM102200 21007KT P6SM OVC020 TEMPO 1022/1103 BKN025
    RMK NXT FCST WILL BE ISSUED AT 111245Z=

0000030700
959
FTCN35 CWAO 101900
TAF CYTZ 101938Z 1020/1120 19006KT 4SM BR OVC005 TEMPO 1020/1106 P6SM
     NSW OVC012
    FM110600 12008KT 1SM -RA BR OVC003
    FM110900 16008KT 1/2SM -RA FG VV002
    FM111400 20010KT 11/2SM -RA BR OVC003
    RMK FCST BASED ON AUTO OBS. NXT FCST BY 110200Z=

0000016700
960
FTCN35 CWAO 101900
TAF CYSN 101938Z 1020/1102 18006KT P6SM OVC012 TEMPO 1020/1102 5SM BR
     OVC008
    RMK NXT FCST WILL BE ISSUED AT 111345Z=

0000019500
961
FTCN37 CWAO 101900
TAF CWSA 101938Z 1020/1101 27017KT P6SM BKN025 TEMPO 1020/1101 P6SM
     -SHSN BKN020
    RMK FCST BASED ON AUTO OBS. NXT FCST WILL BE ISSUED AT 110845Z=

0000012300
962
SATU33 LTAA 101850 CCA
METAR COR LTCI 101850Z 13003KT 6000 FEW040 BKN100 M08/M09 Q1020 TEMPO
 4000 BR=

0000032000
963
FTUS73 KWBC 101939 AAA
TAF AMD
KBTL 101937Z 1020/1118 16010KT 3SM -RA BR OVC008
      TEMPO 1020/1023 1 1/2SM -RA BR OVC004
     FM102300 16012KT 2SM RA BR OVC009
     FM110300 18016G23KT 1 1/2SM -RA BR OVC005
     FM110500 19014G21KT 1SM -RA BR OVC003
     FM111100 22012KT 1SM BR OVC003=

0000027200
964
FTCN35 CWAO 101900
TAF CYZR 101938Z 1020/1103 18010KT P6SM OVC010 TEMPO 1020/1102 3SM BR
     OVC006
    FM110200 18012KT 11/2SM -RA BR OVC005 TEMPO 1102/1103 3SM BR
     OVC010
    RMK FCST BASED ON AUTO OBS. NXT FCST WILL BE ISSUED AT 111245Z=

0000036400
965
FTUS75 KWBC 101939
TAF
TAF AMD PAED 1019/1118 VRB06KT 4800 -SN SCT008 OVC015 600157
      QNH2938INS
      BECMG 1021/1022 VRB06KT 9999 NSW BKN010 600106 QNH2940INS
      BECMG 1101/1102 VRB06KT 4800 BR BKN003 600037 QNH2941INS
      BECMG 1116/1117 VRB06KT 9999 NSW BKN012 600127 QNH2945INS
      TXM01/1102Z TNM11/1110Z AMD 101933=

0000028500
966
FTCN36 CWAO 101900
TAF CYBX 101938Z 1020/1108 25010G20KT P6SM FEW020 SCT100
    FM102200 26012KT P6SM FEW020 BKN050 TEMPO 1022/1104 4SM -SN
     BKN020
    FM110400 26012KT P6SM SCT020 OVC040 TEMPO 1104/1108 2SM -SN
     OVC020
    RMK NXT FCST BY 110200Z=

0000021600
967
FTUS75 KWBC 101939 AAA
TAF AMD
PADL 101936Z 1020/1118 VRB03KT P6SM OVC010
      TEMPO 1020/1022 2SM BR
     FM110000 01009KT 3SM BR SCT006 BKN009
     FM110300 01010KT 6SM BR BKN015 BKN035=

0000016600
968
FTCN35 CWAO 101900
TAF CYVV 101938Z 1020/1024 18010KT 6SM BR OVC015 TEMPO 1020/1024 4SM
     -SN BR
    RMK NXT FCST WILL BE ISSUED AT 111145Z=

0000023600
969
FTCN36 CWAO 101900
TAF CYWK 101938Z 1020/1108 24012G22KT 2SM -SN OVC015 TEMPO 1020/1101
     6SM -SN SCT015 OVC030
    FM110100 24012KT 4SM -SN OVC020 TEMPO 1101/1108 P6SM -SN OVC030
    RMK NXT FCST BY 110200Z=

0000013300
970
FTCN37 CWAO 101900
TAF CYGR 101938Z 1020/1103 25020G30KT P6SM FEW240
    RMK NXT FCST WILL BE ISSUED AT 111145Z=

0000022300
971
FTCN35 CWAO 101900
TAF CYPQ 101938Z 1020/1103 00000KT 2SM BR OVC005 TEMPO 1020/1103 6SM
     BR OVC008 PROB30 1020/1103 4SM -FZDZ BR
    RMK FCST BASED ON AUTO OBS. NXT FCST WILL BE ISSUED AT 111045Z=

0000015700
972
FTCN36 CWAO 101900
TAF CYGP 101938Z 1020/1108 26010KT P6SM BKN030
    FM110000 26006KT P6SM FEW030 BKN100
    RMK NXT FCST BY 110200Z=

00000000