0000073800
053
FTUS80 KWBC 101800 CCA
TAF COR
KBBG 101759Z 1018/1118 18009KT 6SM -SHRA SCT007 OVC035
      TEMPO 1018/1022 3SM -SHRA BR SCT007 OVC020
     FM102200 20010KT 6SM -SHRA BR VCTS SCT007 OVC025CB
      TEMPO 1100/1102 3SM SHRA BR OVC008CB
     FM110200 25011KT 6SM BR SCT008 OVC035
     FM110500 26010KT 2SM BR SCT005
     FM111400 28010G18KT P6SM SCT250=
KSGF 101758Z 1018/1118 17015G25KT 6SM -SHRA BR SCT005 BKN035
      OVC050
      TEMPO 1019/1023 5SM -SHRA BR SCT005 OVC015
     FM102300 20015KT 6SM -SHRA BR VCTS SCT008 OVC020CB
      TEMPO 1023/1102 3SM SHRA BR OVC008CB
     FM110200 25011KT 6SM BR SCT008 OVC035
     FM110500 26010KT 2SM BR SCT005
     FM111400 26010G18KT P6SM SCT250=

0000025300
054
FTUS80 KWBC 101800 AAA
TAF AMD
KNEW 101758Z 1018/1118 11012KT P6SM OVC004
     FM102100 15010KT 5SM BR OVC010
      TEMPO 1105/1109 2SM TSRA OVC006CB
     FM110900 22015KT 3SM -RA BR OVC010
     FM111600 30012KT P6SM SCT250=

0000009300
055
SAEQ01 SEQU 101800 RRA
METAR SEMT 101800Z 20010KT 9999 OVC020 28/22 Q1010=

0000010200
056
SAPF20 NTAA 101800
METAR NTAA 101800Z VRB02KT 9999 FEW020 SCT130 28/22 Q1013 NOSIG=

0000055800
057
SAGR31 LGAT 101750
METAR LGAD 101750Z 00000KT 9999 SCT020 12/10 Q1022=
METAR LGAV 101750Z 09006KT CAVOK 11/07 Q1018 NOSIG=
METAR LGIR 101750Z 19005KT CAVOK 12/10 Q1021 NOSIG=
METAR LGKL 101750Z 00000KT CAVOK 13/09 Q1021=
METAR LGKO 101750Z 15003KT 9999 SCT025 11/08 Q1021=
METAR LGKR 101750Z NIL=
METAR LGLM 101750Z 00000KT 9999 BKN016 13/10 Q1018=
METAR LGRP 101750Z VRB03KT 9999 FEW018 13/09 Q1020 NOSIG=
METAR LGSA 101750Z NIL=
METAR LGSM 101750Z NIL=
METAR LGTS 101750Z 17002KT 9000 FEW020 SCT080 08/06 Q1018 NOSIG=

0000010000
058
SAAG41 SAEZ 101800
METAR SAEZ 101800Z 31006KT 190V330 9999 FEW050TCU 32/19 Q1007=

0000009300
059
SAGR31 LGAT 101750 RRA
METAR LGSA 101750Z 26012KT 9999 FEW020 14/08 Q1020=

0000064000
060
FCKZ31 RUMS 101700
TAF UAOO 101751Z 1019/1104 18010MPS 5000 -SN BR OVC010 TEMPO
1019/1104 2000 BR OVC005=
TAF UARR 101751Z 1019/1104 29005MPS 1800 -FZDZ BR OVC004 TEMPO
1021/1101 0800 FZFG VV002 TEMPO 1101/1104 0500 FZFG VV002=
TAF UATE 101752Z 1019/1104 VRB02MPS 0800 FG BKN002 TEMPO 1021/1103
0300 FZFG VV001=
TAF UATG 101751Z 1019/1104 26008MPS 3000 BR OVC010 TEMPO 1020/1024
0400 DZ FG VV002 TEMPO 1100/1104 0300 DZ FG VV001=
TAF UAUU 101800Z 1019/1104 17006MPS 3000 -SHSN BLSN SCT006 BKN010CB
TEMPO 1019/1101 16011MPS 0800 +SHSN BLSN VV003 TEMPO 1101/1104
17010MPS 1100 SHSN BLSN BKN006 BKN010CB=

0000019400
061
FCTA31 RUMS 101700
TAF UTDD 101755Z 1019/1107 VRB03MPS 0200 FZFG VV002=
TAF UTDL 101735Z 1019/1104 07005G10MPS 2000 BR NSC 530009 TEMPO
1019/1104 07007MPS 0800 FZFG VV002=

0000011900
062
SACN61 CYHD 101800
METAR CYHD 101800Z AUTO 19010G15KT 2 1/2SM BR OVC006 M07/M08 A2954
 RMK SLP032=

0000011600
063
SACN61 CYGV 101800
METAR CYGV 101800Z AUTO 27012G17KT 9SM -SN OVC055 M09/M12 A3006 RMK
 SLP184=

0000010600
064
SACN62 CYEK 101800
METAR CYEK 101800Z 34012KT 15SM FEW270 M31/M35 A2966 RMK CI1 SLP045=

0000009900
065
SAGR32 LGAT 101750 RRA
METAR LGRX 101750Z 00000KT 9999 SCT040 10/08 Q1022 NOSIG=

0000043400
066
SAHU41 LHBM 101800
METAR LHBC 101745Z 27013KT CAVOK 05/02 Q1020=
METAR LHKE 101745Z 26003MPS CAVOK 05/01 Q1021 NOSIG RMK BLU=
METAR LHPA 101745Z 21002MPS 6000 NSC 03/02 Q1020 BECMG 3000 BR RMK
     WHT=
METAR LHPP 101745Z 08001KT CAVOK 06/05 Q1021=
METAR LHPR 101745Z 28010KT CAVOK 06/00 Q1020=
METAR LHSN 101745Z 27004MPS CAVOK 06/01 Q1020 NOSIG RMK BLU=
METAR LHUD 101745Z 24002KT CAVOK 02/01 Q1021=

0000012400
067
SABZ19 SBOI 101800
METAR SBOI 101800Z 16010G22KT 2500 -RA BR SCT010
FEW023TCU OVC100 24/
21
 Q1010=

0000012800
068
SAGQ21 FGSL 101800
METAR FGBT 101800Z NIL=
METAR FGSL 101800Z 23005KT 6000 FEW013 SCT130 26/24 Q1010 NOSIG=

0000010100
069
SABZ24 SBCT 101800
METAR SBCT 101800Z 33006KT 9999 SCT035 FEW040TCU
31/11 Q1016=

0000086100
070
SACH10 SCSC 101800
METAR SCFA 101800Z 20014KT 9999 FEW025 SCT260 24/15 Q1011 NOSIG=
METAR SCAR 101800Z 21012KT CAVOK 25/18 Q1010=
METAR SCBA 101800Z 31027G37KT 9999 FEW040 BKN200 15/02 Q1014=
METAR SCCF 101800Z 26020KT CAVOK 23/05 Q1022=
METAR SCIE 101800Z 24015KT CAVOK 22/11 Q1015=
METAR SCAT 101800Z 28007KT CAVOK 22/14 Q1014=
METAR SCDA 101800Z 21013KT CAVOK 25/15 Q1011=
METAR SCSE 101800Z 28011KT CAVOK 21/14 Q1013=
METAR SCJO 101800Z 19009KT 9999 BKN035 SCT200 19/07 Q1021=
METAR SCTE 101800Z 12013KT 9999 SCT040 16/06 Q1022 NOSIG=
METAR SCNT 101800Z 29018KT 9999 SCT033 OVC090 11/03 Q1012=
METAR SCCI 101800Z 24022KT 9999 FEW025 SCT040 BKN100 10/02 Q1009 
NOSIG=
METAR SCEL 101800Z NIL=
METAR SCIP 101800Z 10010KT 9999 SCT020 26/18 Q1021 NOSIG=
METAR SCPQ 101800Z 15009KT 100V180 9999 BKN040 15/07 Q1022=

0000010800
071
SABA31 MYNN 101755
METAR MYNN 101800Z 12012KT 9999 SCT016TCU SCT035 BKN080 28/23
A3013=

0000010200
072
SAAT31 TAPA 101800
METAR TAPA 101800Z 08012KT 9999 FEW019 BKN035 27/19 Q1016 NOSIG=

00000000