0000021700
973
SAFR21 LFPW 101730
METAR LFOA 101730Z AUTO 10005KT 9999 NSC 07/05 Q1017=
METAR LFPC 101730Z AUTO 18005KT 9999 OVC011 06/04 Q1018=
METAR LFPV 101730Z AUTO 16003KT 120V190 9999 OVC007 05/04 Q1017=

0000042900
974
SAFR22 LFPW 101730
METAR LFBC 101730Z AUTO 08003KT 9999 NSC 10/08 Q1013=
METAR LFBG 101730Z AUTO 04005KT 9999 NSC 11/08 Q1015=
METAR LFBM 101730Z AUTO 09004KT 9999 NSC 10/08 Q1014=
METAR LFKS 101730Z AUTO VRB02KT 9999 OVC028 13/10 Q1020=
METAR LFMO 101730Z AUTO 00000KT 7000 NSC 07/05 Q1019=
METAR LFMY 101730Z AUTO 00000KT 9999 OVC023 10/07 Q1019=
METAR LFBY 101730Z NIL=
METAR LFMC 101730Z NIL=

0000022800
975
FTAU31 AMMC 101700 RRB
TAF YPDN 101733Z 1018/1124 16008KT 9999 SCT020
     FM110600 25010KT 9999 SCT030
     FM111400 17006KT 9999 SCT020 PROB30
     TEMPO 1105/1118 VRB25G40KT 1000 TSRA BKN010 SCT020CB=

0000033200
976
SAFR23 LFPW 101730
METAR LFOC 101730Z AUTO 09004KT 360V110 9999 OVC005 06/05 Q1017=
METAR LFOE 101730Z AUTO 12005KT 9999 BKN010 05/04 Q1017=
METAR LFOJ 101730Z AUTO 06006KT 7000 NSC 05/05 Q1017=
METAR LFRJ 101730Z AUTO 19005KT 9999 NSC 07/05 Q1014=
METAR LFRL 101730Z AUTO 18003KT 9999 // NSC 08/06 Q1015=

0000038800
977
SARO31 LROM 101730
METAR LRBS 101730Z 27005KT 5000 BR NSC 05/04 Q1014 NOSIG=
METAR LRCK 101730Z 27019KT 2000 BR SCT004 BKN005 04/03 Q1012 TEMPO
1500 BR=
METAR LROP 101730Z 24006KT 7000 NSC 04/03 Q1014 NOSIG=
METAR COR LRSB 101730Z 31014KT 9999 BKN086 04/02 Q1017 NOSIG=
METAR LRTR 101730Z 22004KT 2000 0800E R11/0750VP2000D PRFG BR NSC
03/02 Q1020 11190095=

0000027100
978
SAFR24 LFPW 101730
METAR LFSI 101730Z AUTO VRB01KT 1300 R29///// BR NSC 05/03 Q1018=
METAR LFSO 101730Z AUTO 14004KT 9999 NSC 05/03 Q1018=
METAR LFSX 101730Z AUTO 06001KT 9999 NSC 06/04 Q1019=
METAR LFYR 101730Z AUTO 06002KT 9999 NSC 05/04 Q1017=

0000040900
979
SARO32 LROM 101730
METAR LRAR 101730Z 23003KT CAVOK 02/02 Q1020=
METAR LRBM 101730Z AUTO 08002KT 1400 -SHRA NCD 02/02 Q1018=
METAR LRCL 101730Z VRB02KT 2000 BR FEW008 01/00 Q1017=
METAR LROD 101730Z 19010KT 5000 BR NSC 03/02 Q1019=
METAR LRSM 101730Z 24004KT 8000 BKN009 OVC011 04/04 Q1018 0129//95=
METAR LRTM 101730Z 26004KT 220V280 3000 BR SCT012 BKN015 01/01
Q1017 0729//95=

0000009700
980
SAKO31 RKSI 101730
METAR RKSI 101730Z 26005KT 9999 SCT030 M05/M07 Q1031 NOSIG=

0000048900
981
SAFR31 LFPW 101730
METAR LFLL 101730Z 15007KT 4000 BR NSC 08/07 Q1018 NOSIG=
METAR LFMN 101730Z 34004KT 320V020 9999 FEW016 BKN023 BKN250 12/08
Q1019 NOSIG=
METAR LFPG 101730Z 19005KT 9999 OVC008 06/04 Q1018 NOSIG=
METAR LFPO 101730Z VRB02KT 9999 BKN009 06/04 Q1018 NOSIG=
METAR LFQQ 101730Z 19008KT 9999 BKN010 06/04 Q1017 NOSIG=
METAR LFRB 101730Z 18004KT 9999 FEW033 BKN160 OVC220 08/06 Q1014
NOSIG=
METAR LFRS 101730Z 08005KT CAVOK 10/09 Q1015 NOSIG=

0000029500
982
SARO33 LROM 101730
METAR LRBC 101730Z 31006KT 9999 FEW019 03/03 Q1013=
METAR LRCV 101730Z 26014KT CAVOK 07/03 Q1017=
METAR LRIA 101730Z 27004KT 210V320 9999 BKN040 05/04 Q1012=
METAR LRSV 101730Z 28012KT CAVOK 05/01 Q1012=
METAR LRTC 101730Z 32008KT CAVOK 08/04 Q1012=

0000064800
983
SAFR32 LFPW 101730
METAR LFBD 101730Z AUTO 11006KT 9999 NSC 11/08 Q1014=
METAR LFBH 101730Z AUTO 08007KT 9999 NSC 10/08 Q1015=
METAR LFBI 101730Z AUTO 08003KT 9999 NSC 09/07 Q1016=
METAR LFBL 101730Z AUTO 07004KT 9999 3500 NSC 11/06 Q1015=
METAR LFBO 101730Z AUTO 13013KT 9999 NSC 11/07 Q1015=
METAR LFBP 101730Z 14002KT CAVOK 09/07 Q1013 NOSIG=
METAR LFBT 101730Z AUTO 00000KT 9999 NSC 07/05 Q1014=
METAR LFBZ 101730Z VRB02KT CAVOK 11/07 Q1014 NOSIG=
METAR LFLB 101730Z AUTO 00000KT 9999 NSC 06/05 Q1018=
METAR LFLX 101730Z AUTO 08006KT 9999 NSC 09/06 Q1016=
METAR LFCK 101730Z NIL=
METAR LFML 101730Z NIL=

0000045100
984
SAFR33 LFPW 101730
METAR LFKB 101730Z 00000KT 9999 FEW020 BKN031 13/10 Q1020 NOSIG=
METAR LFKF 101730Z AUTO 07006KT 9999 FEW022/// 12/10 Q1020=
METAR LFKJ 101730Z 05004KT 9999 FEW023 11/09 Q1020 NOSIG=
METAR LFMP 101730Z 09005KT 9999 BKN026 12/08 Q1018 NOSIG=
METAR LFMV 101730Z AUTO 09002KT 9999 BKN024 08/07 Q1019=
METAR LFSL 101730Z AUTO 00000KT 9999 NSC 07/04 Q1014=
METAR LFKC 101730Z NIL=
METAR LFLC 101730Z NIL=

0000092400
985
SAFR34 LFPW 101730
METAR LFCR 101730Z AUTO 10006KT 9999 NSC 12/01 Q1015=
METAR LFJL 101730Z AUTO 07003KT 9999 NSC 03/02 Q1019=
METAR LFLP 101730Z AUTO 00000KT 9999 NSC 07/04 Q1018=
METAR LFLS 101730Z AUTO 09003KT 1200 R09///// BCFG NSC 04/04 Q1018=
METAR LFLY 101730Z AUTO 13002KT 4700 BR NSC 07/05 Q1018=
METAR LFMT 101730Z 06005KT 9999 BKN028 12/08 Q1019 NOSIG=
METAR LFMU 101730Z AUTO 06006KT 9999 OVC029 12/08 Q1018=
METAR LFOB 101730Z AUTO 20006KT 9999 OVC011 06/04 Q1018=
METAR LFOH 101730Z AUTO 17007KT 9999 BKN008 06/04 Q1016=
METAR LFOK 101730Z AUTO 12002KT 9999 NSC 05/05 Q1018=
METAR LFOP 101730Z AUTO 15004KT 9999 OVC011 05/04 Q1017=
METAR LFPB 101730Z AUTO 16005KT 9999 OVC013 06/04 Q1018=
METAR LFQA 101730Z AUTO 00000KT 9999 FEW012 BKN230 05/03 Q1018=
METAR LFQB 101730Z AUTO 32002KT 3200 BR NSC 04/03 Q1018=
METAR LFSN 101730Z AUTO VRB01KT 9999 NSC 04/03 Q1019=

0000082100
986
SAFR35 LFPW 101730
METAR LFMI 101730Z AUTO 15002KT 9999 BKN026 10/07 Q1019=
METAR LFMK 101730Z AUTO 10011KT 9999 FEW017 OVC022 11/08 Q1017=
METAR LFOV 101730Z AUTO 09005KT 0450 FG VV/// 06/06 Q1016=
METAR LFRD 101730Z AUTO 16004KT 2800 BR OVC002 07/06 Q1016=
METAR LFRI 101730Z AUTO 08004KT 9999 NSC 09/07 Q1015=
METAR LFRM 101730Z AUTO 07003KT 9999 OVC007 08/07 Q1017=
METAR LFRN 101730Z AUTO 11005KT 5000 BR OVC006 08/07 Q1016=
METAR LFRO 101730Z AUTO 16003KT 9999 NSC 08/06 Q1015=
METAR LFRV 101730Z AUTO 06003KT 1900 -RADZ BR BKN002 OVC023 08/07
Q1015=
METAR LFRZ 101730Z AUTO 06005KT 4200 BR NSC 09/08 Q1015=
METAR LFSB 101730Z 11005KT CAVOK 06/03 Q1019 NOSIG=
METAR LFST 101730Z AUTO 00000KT 9999 NSC 05/03 Q1019=
METAR LFTH 101730Z AUTO 00000KT 9999 OVC025 13/08 Q1019=

0000009800
987
SADL34 EDZO 101720 RRA
METAR COR EDLP 101720Z 23007KT 9999 FEW033 03/M00 Q1016=

0000069700
988
SAFR36 LFPW 101730
METAR LFBA 101730Z AUTO 10006KT 9999 NSC 10/08 Q1014=
METAR LFBE 101730Z AUTO 12003KT 9999 NSC 09/06 Q1014=
METAR LFGJ 101730Z AUTO 36003KT 9999 NSC 07/04 Q1018=
METAR LFJR 101730Z AUTO 05003KT 010V070 6000 NSC 08/07 Q1016=
METAR LFMD 101730Z AUTO VRB02KT 5000 BR BKN024 10/08 Q1019=
METAR LFMH 101730Z AUTO VRB01KT 8000 NSC 08/05 Q1017=
METAR LFOT 101730Z AUTO 05008KT 0200 R20/0800U FG VV/// 07/06 Q1016=
METAR LFPN 101730Z AUTO 14003KT 100V170 9999 OVC008 06/04 Q1017=
METAR LFRC 101730Z AUTO 18010KT 9999 OVC006 06/06 Q1015=
METAR LFRG 101730Z AUTO 20007KT 9999 SCT007 05/04 Q1017=
METAR LFRK 101730Z AUTO 17005KT 9999 NSC 05/03 Q1016=

0000072000
989
SAFR37 LFPW 101730
METAR LFAQ 101730Z AUTO 18006KT 150V210 8000 OVC009 05/04 Q1017=
METAR LFAT 101730Z AUTO 14005KT 9999 OVC014 06/04 Q1017=
METAR LFBU 101730Z AUTO 05007KT 9999 NSC 09/07 Q1015=
METAR LFLN 101730Z AUTO 06002KT 9999 NSC 07/05 Q1017=
METAR LFPM 101730Z AUTO 00000KT 9999 OVC006 06/04 Q1018=
METAR LFPT 101730Z AUTO 21003KT 170V230 9999 BKN012 05/03 Q1017=
METAR LFRH 101730Z AUTO 12003KT 4100 -RA BR SCT002 BKN016 BKN032
08/08 Q1015=
METAR LFRQ 101730Z AUTO VRB02KT 3500 BR OVC003 09/08 Q1014=
METAR LFRT 101730Z AUTO VRB03KT 4000 BR OVC003 07/06 Q1015=
METAR LFSD 101730Z AUTO 00000KT 9999 NSC 05/03 Q1018=
METAR LFTW 101730Z AUTO 00000KT 9999 OVC024 11/04 Q1019=

0000058400
990
SASP31 LEMM 101730
METAR LEMD 101730Z 33002KT CAVOK 11/03 Q1014 NOSIG=
METAR LEBL 101730Z 07003KT 9999 FEW013 11/06 Q1018 NOSIG=
METAR LEPA 101730Z 05006KT CAVOK 13/11 Q1017 NOSIG=
METAR LEZL 101730Z 36002KT CAVOK 13/08 Q1013 NOSIG=
METAR LEMG 101730Z 09001KT 9999 SCT030 14/11 Q1015 NOSIG=
METAR LEVC 101730Z 00000KT 7000 OVC015 12/09 Q1018 NOSIG=
METAR LEAL 101730Z 07012KT 9000 FEW010 14/11 Q1017 NOSIG=
METAR LEIB 101730Z VRB01KT 9999 BKN015 14/11 Q1016 NOSIG=
METAR LEVX 101730Z 29003KT 260V320 6000 SCT012 FEW015TCU BKN040
11/09 Q1015 NOSIG=

0000075000
991
SASP32 LEMM 101730
METAR LEAS 101730Z VRB04KT 1000 0500W R29/P2000 R11/0750D -RADZ
BCFG SCT001 SCT002 BKN006 11/11 Q1015 NOSIG=
METAR LEBB 101730Z VRB01KT CAVOK 10/09 Q1014 NOSIG=
METAR LECO 101730Z NIL=
METAR LEGE 101730Z 00000KT 7000 BKN017 10/07 Q1018=
METAR LEST 101730Z VRB01KT 9999 FEW015 08/08 Q1015 NOSIG=
METAR LEZG 101730Z 11004KT 080V140 4000 BR BKN002 BKN004 06/05
Q1017=
METAR LESO 101730Z 00000KT CAVOK 11/10 Q1014=
METAR LEVT 101730Z 23008KT CAVOK 08/05 Q1015=
METAR LERS 101730Z VRB01KT 7000 SCT022 10/07 Q1018=
METAR LEMH 101730Z 10003KT 9999 FEW011 12/10 Q1018=
METAR LEAM 101730Z 05010KT 010V070 9999 FEW020 BKN080 15/10 Q1015
RERA=
METAR LEGR 101730Z 20004KT 9999 FEW100 13/06 Q1014=

0000017900
992
SASP33 LEMM 101730
METAR LEVD 101730Z 09001KT CAVOK 06/05 Q1014=
METAR LEVS 101730Z 00000KT CAVOK 11/03 Q1014=
METAR LESA 101730Z VRB01KT CAVOK 08/04 Q1014=

00000000