0000015700
853
SSVX13 LFPW 110500
ZZYY 64667 11014 0500/ 763163 029213 6113/ 11119 49956 52011 22219
 00064 444 20130 11014 0500/ 50101 80154 80000 9/015=
0000011000
854
UANT01 CWAO 110459
ARP UAL29 5053N04030W 0459 F390 MS54 287/36 KT
N78004 DDL XXW 110459 F32A
0000011000
855
UANT01 CWAO 110500
ARP ACA830 5018N03404W 0459 F370 MS54 214/48 KT
CGFAF DDL XXW 110500 J70A
0000215900
856
SZNZ01 NZKL 110503
CREX++
T000103 A001 D01021 D06025++
-3683144 17478654 AUCT  2014 01 11 04 55 //// 11 07 00 01
05802 3161 05796 3161 05788 3158 05783 3159 05777 3159 05773 3160+
-4402404 -17636748 CHIT  2014 01 11 04 55 //// 11 07 00 01
04702 2032 04721 2055 04722 2059 04735 2076 04729 2074 04714 2063+
-4089929 17623168 CPIT  2014 01 11 04 55 //// 11 07 00 01
03764 2257 03757 2256 03749 2253 03753 2262 03746 2261 03750 2270+
-3618905 17548887 GBIT  2014 01 11 04 55 //// 11 07 00 01
06233 0068 06224 0063 06211 0054 06196 0044 06194 0046 06184 0040+
-3867541 17802288 GIST  2014 01 11 04 55 //// 11 07 00 01
04057 2710 04065 2723 04069 2732 04048 2716 04067 2741 04026 2705+
-4241288 17370277 KAIT  2014 01 11 04 55 //// 11 07 00 01
03065 2189 03061 2190 03043 2178 03055 2195 03027 2171 03019 2169+
-3755040 17815904 LOTT  2014 01 11 04 55 //// 11 07 00 01
03754 0228 03736 0215 03752 0235 03742 0230 03722 0215 03722 0220+
-3704657 17451175 MNKT  2014 01 11 04 55 //// 11 07 00 01
03232 -0118 03209 -0145 03233 -0127 03218 -0146 03246 -0123 03235 -0139+
-3947566 17692007 NAPT  2014 01 11 04 55 //// 11 07 00 01
02975 2012 03004 2047 02976 2024 02966 2020 02945 2004 02941 2006+
-3441483 17304870 NCPT  2014 01 11 04 55 //// 11 07 00 01
02214 -2727 02279 -2660 02229 -2707 02206 -2727 02235 -2696 02183 -2744+
-4581435 17062939 OTAT  2014 01 11 04 55 //// 11 07 00 01
03989 3443 03985 3444 03984 3447 03980 3448 03976 3448 03976 3452+
-2928002 -17789440 RBCT  2014 01 11 04 55 //// 11 07 00 01
06318 2043 06312 2041 06333 2065 06327 2062 06305 2043 06290 2032+
-2925114 -17790384 RFRT  2014 01 11 04 55 //// 11 07 00 01
03236 0212 03232 0211 03249 0233 03238 0225 03216 0206 03228 0221+
-4357010 17277383 SUMT  2014 01 11 04 55 //// 11 07 00 01
01576 1826 01562 1818 01560 1823 01545 1814 01555 1831 01551 1833+
-3764109 17618118 TAUT  2014 01 11 04 55 //// 11 07 00 01
05484 3993 05483 3996 05477 3995 05473 3994 05468 3994 05461 3990+
-4128448 17477985 WLGT  2014 01 11 04 55 //// 11 07 00 01
02934 2014 02931 2015 02927 2015 02907 1999 02907 2004 02906 2006++
7777
0000011000
857
UANT99 KDDL 110500
ARP UAL29 5054N04024W 0500 F390 MS54 287/33 KT
N78004 DDL XXW 110500 F33A
0000011000
858
UANT99 KDDL 110500
ARP UAL60 5237N02435W 0500 F360 MS57 224/61 KT
N69063 DDL XXN 110500 F76A
0000012000
859
SMSQ50 LZIB 110000 CCA
AAXX 11001
11918 16/// /2506 10016 21038 39360 42789 52003 60001
  333 55008=
0000012000
860
SMSQ51 LZIB 110000 CCA
AAXX 11001
11918 16/// /2506 10016 21038 39360 42789 52003 60001
  333 55008=
0000028800
861
SXHW11 KWAL 110502
B15997E8 011050233"
1,140111,04:00:02,8.8,28,19.4,23.0,1012.9,0.00,13.3,
1,140111,04:15:02,9.0,26,19.6,22.6,1012.9,0.00,13.3,
1,140111,04:30:02,9.6,38,23.8,22.2,1013.1,0.01,13.3,
1,140111,04:45:02,10.9,41,20.0,21.8,1013.3,0.01,13.3, 45+0NN  30W
0000028900
862
SXHW11 KWAL 110502
B159A272 011050243"
1,140111,03:59:52,11.1,57,15.7,24.7,1013.9,0.00,13.8,
1,140111,04:14:52,10.5,54,14.7,24.4,1013.8,0.00,13.5,
1,140111,04:29:52,9.0,73,14.2,24.1,1014.0,0.00,13.4,
1,140111,04:44:52,9.5,77,13.8,23.7,1014.3,0.00,13.4, 46+0NN  30W
0000107500
863
SAYE20 OYSC 110500
METAR OYAA 110500Z 13014KT 8000 VCRA SCT018 BKN025 26/19 Q1017=
METAR OYAM 110500Z NIL=
METAR OYAR 110500Z NIL=
METAR OYAS 110500Z NIL=
METAR OYAT 110500Z NIL=
METAR OYDM 110500Z 08002KT CAVOK 10/04 Q////=
METAR OYGD 110500Z 09018KT 9999 FEW025 BKN060 24/17 Q1017=
METAR OYHD 110500Z 10005KT 9999 SCT030 SCT060 23/20 Q1015=
METAR OYHJ 110500Z 00000KT 9999 FEW020 SCT100 15/09 Q////=
METAR OYIB 110500Z 00000KT CAVOK 11/04 Q1023=
METAR OYKD 110500Z NIL=
METAR OYMB 110500Z NIL=
METAR OYMK 110500Z 17008KT CAVOK 24/19 Q////=
METAR OYMT 110500Z 00000KT CAVOK 17/10 Q////=
METAR OYRN 110500Z 32004KT 300V360 9999 FEW020 23/14 Q1018=
METAR OYSD 110500Z 00000KT CAVOK 13/M03 Q////=
METAR OYSH 110500Z 00000KT 8000 SCT030 11/07 Q////=
METAR OYSN 110500Z 20003KT 160V230 CAVOK 13/09 Q1027=
METAR OYSQ 110500Z 08022KT 9999 FEW018 BKN200 24/19 Q1016=
METAR OYSY 110500Z 04004KT CAVOK 19/10 Q1019=
METAR OYTZ 110500Z 09004KT 7000 FEW015 SCT0200 15/11 Q1022=
METAR OYSH 110400Z 00000KT 8000 SCT030 09/05 Q////=
0000011800
864
SNVA25 LFPW 110500
BBXX
BATFR55 11054 99084 30427 46/// /0110 10280 20217 40147 52028
22262 04294=
0000011800
865
SNVD25 LFPW 110500
BBXX
BATFR43 11054 99074 70800 46/// /3412 10264 20239 40106 58005
22254 04274=
0000011800
866
SNVD25 LFPW 110500
BBXX
BATEU01 11054 99461 70537 46/// /2831 11007 21071 40221 58018
22264 04002=
0000008800
867
SPIN90 VILK 110500
SPECI VIRB 110500Z VRB02KT 0500 FG VV/// 15/14 Q1018=
0000009300
868
SAIN90 VIDN 110500
METAR VIDN 110500Z 33003KT 6000 SCT040 SCT080 13/10 Q1018=
0000011800
869
SNVE25 LFPW 110500
BBXX
BATFR28 11054 99035 11053 46/// /0412 10284 20227 40117 58017
22253 04277=
0000011800
870
SNVD25 LFPW 110500
BBXX
BATEU06 11054 99472 70588 46/// /2518 11016 21053 40223 58001
22224 04022=
0000011000
871
UANT99 KDDL 110500
ARP DLH425 5133N03233W 0500 F380 MS53 215/44 KT
DAIHY QXT EUA 110500 J96A
0000011100
872
UANT99 KDDL 110501
ARP DAL230 5713N01135W 0501 F390 MS50 235/38 KT
N819NW DDL TRE 110501 J92A
00000000