0000009400
953
SNAA01 KARS 110200 RRH
AAXX 1102/
89799 46/// ///// 11244 4//// 5//// 90240=
0000057100
954
SIGR22 LGAT 110300
AAXX 11034
16614 46/// /9903 10014 20003 39445 40247 52004 333 91109=
16627 NIL=
16667 42460 70000 10114 20090 30211 40216 51001 87600 333 82715
      86620 91105 555 40000 47693 44240 50000 50102 70000 77/I/
      7/I//=
16675 46/// /3002 10047 2//// 30199 40213 52006 333 91105=
16710 46/// /2302 10020 20020 39459 40254 52001 333 91104=
16723 NIL=
16738 46/// /3503 10124 20107 30000 40200 52003 333 91106=
16746 42560 12614 10136 20093 30025 40207 58001 81200 333 91121
      555 40000 47549 44200 50000 50114=
0000056600
955
SITS20 DTTA 110300
AAXX 11034
60715 31440 50000 10080 20072 30178 40185 56002 71011 83702
  333 59016 83710 91000 91104=
60723 NIL=
60725 32958 61902 10044 20041 30020 40197 58007 84082
  333 84360 83070=
60735 32962 42103 10104 20052 30119 40192 56006 80002
  333 84070=
60745 NIL=
60748 NIL=
60750 32960 31902 10095 20060 30182 40208 58005 80002
  333 83070=
60760 NIL=
60765 NIL=
60767 32958 42303 10076 20040 30065 40214 56007 80002
  333 84070=
60769 32957 41804 10116 20092 30201 40205 57005 83032
  333 83360=
0000059800
956
SITS21 DTTA 110300
AAXX 11034
60710 32560 30406 10101 20078 30109 40190 51011 81280
  333 81820 83360=
60714 32562 73504 10107 20098 30189 40198 51009 82282
  333 82820 84360=
60720 NIL=
60728 NIL=
60729 NIL=
60731 25960 /2104 10071 20051 30181 40188 56004
  333 59019 60007 91005 91110=
60732 NIL=
60734 NIL=
60738 NIL=
60739 NIL=
60740 32960 40000 10108 20062 30189 40191 56006 82082
  333 82360 83070=
60742 NIL=
60764 NIL=
60770 NIL=
60772 26/// ///05 10122 20065 39952 40210 56010
  333 59029 60007 91007 91109=
60775 NIL=
60780 NIL=
0000008600
957
SAMA20 FIMP 110400
METAR FIMP 110400Z 09009KT 9999 SCT017 28/24 Q1017=
0000102100
958
SITU63 LTAA 110300
AAXX 11034
17015 4//// /1505 10044 20008 30202 40215 52008=
17066 4//// /3401 10073 20020 30129 40212 52007=
17094 42970 00101 11102 21117 38840 48524 57001=
17208 NIL=
17255 NIL=
17261 NIL=
17262 NIL=
17265 42980 00000 10020 21056 39421 40221 55007=
17271 42960 03504 10039 21085 39243 40206 56008
 333 91107=
17275 NIL=
17282 NIL=
17285 NIL=
17287 NIL=
17291 42660 51705 10096 20071 30203 40216 57010 81130
 333 81835 85360=
17296 42970 01201 10057 20053 30224 40228 55001
 333 92408=
17297 42670 42403 10128 20127 30185 40219 57004 84200
 333 84840 91104 92418=
17298 42670 43001 10081 20080 30197 40217 58004 84200
 333 84840 91102 92408=
17302 42970 03605 10096 20022 30165 40222 56005
 333 91110 92418=
17340 42970 00401 10070 21048 30208 40217 55002
 333 92418=
17352 42960 00403 10030 21024 30191 40216 55002=
17355 NIL=
17371 42970 01301 11010 21013 30122 40234 53001=
17380 4//// /0304 10115 20057 30029 40212 57003=
0000011100
959
UANT99 KDDL 110359
ARP BAW2232 4627N02625W 0359 F400 MS54 223/65 KT
GVIIV QXT AOE 110359 F44A
0000014800
960
SACN46 CWAO 110300 CCA
METAR CYQK 110300Z CCA 18005KT 3/4SM -SN BR OVC002 M05/M06 A2938 RMK
 ST8 VIS VRB 1/2-1 CIG VRB 1-3 SLP975=
0000044700
961
SXXX32 EUMS 110354
224AD678
:PRS 2 /1 1929 1933 1931 1929 1927 1925 1928 1932 1935 1936 1938 1939 1942 1947 1952 1953 1954 1954 1951 1951 1952 1954 1962 1964 1963 1961 1965 1966 1975 1977 :RAD 4 /3 4748 4750 4756 4759 4770 4776 4780 4787 4795 4801 4807 4814 4823 4830 4840 4846 4849 4855 4864 4875 :ENC 4 /5 8276 8279 8289 8301 8308 8317 8330 8342 8352 8366 8372 8383 :SW1 54 /60 60 :SW2 24 /60 60 :BAT 14 /15 13.6 :NAME 224AD678
0000053700
962
SIMA20 FIMP 110300
AAXX 11034
61974 22470 60000 10245 20233 40120 85942
  333 59005 60007 819// 82817 83650 94329=
61986 21475 70907 10284 20256 40133 70382 84806
  333 58003 69907 84818 86275 94322=
61988 22475 30913 10275 20239 40167 83802
  333 58019 60007 82818 91023=
61989 22480 51014 10275 20242 40173 85802
  333 58015 60007 85818=
61990 21468 20910 10274 20240 40165 71500 82200
  333 58019 60007 82817 94322=
61995 22475 31204 10238 20219 39681 83200
  333 58016 60007 83817 91117 94322=
0000011300
963
SACN47 CWAO 110300 RRA
METAR CYYY 110300Z 22011G18KT 30SM BKN100 M06/M11 A3014 RMK AC5
 SLP209=
0000014200
964
SACN42 CWAO 110300 RRA
METAR CYZT 110300Z 11026G41KT 6SM -RA BR BKN011 OVC042 04/04 A2935
 RMK SC5SC3 PRESSFR PRESFR SLP938=
0000036400
965
SXXX32 EUMS 110357
22E595B6
:PRS 1 /1 M 3196 3187 3183 3142 3147 3148 3129 3160 3124 3133 3166 3132 3151 3147 3124 3181 3174 3185 3172 3129 3131 3129 3120 3121 3143 3134 3130 3132 3113 :RAD 1 /3 6336 6320 6319 6323 6327 6323 6307 6309 6310 6307 :ENC 2 /5 4458 4439 4448 4451 4427 4425 :SW1 57 /60 60 :SW2 27 /60 60 :BAT 14 /15 13.9 :NAME 22E595B6
0000042500
966
SACN41 CWAO 110300 RRA
METAR CYCD 110300Z 16005KT 6SM -RA BR FEW008 SCT013 OVC020 05/05
 A2971 RMK SF1SC3SC4 PRESFR SLP061=
METAR CYXT 110300Z 34013KT 10SM FEW005 SCT025 BKN050 OVC110 01/M00
 A2940 RMK SF1SC2SC2AC3 PRESFR SLP964=
METAR CYYD 110300Z 10002KT 25SM FEW065 OVC120 M04/M05 A2943 RMK
 SC2AC6 PRESFR SLP991=
METAR CYYF 110300Z 22004KT 15SM SCT075 OVC120 02/M00 A2982 RMK AC3AC5
 SLP112=
0000041400
967
SACN31 CWAO 110300 RRA
METAR CYQM 110300Z 22008KT 15SM FEW050 SCT130 M06/M08 A3025 RMK
 SC2AC2 SLP250=
METAR CYXX 110300Z 03007KT 4SM -RA OVC025 05/ A2977 RMK SC8 DP 4.1
 VIA CYXC SLP083=
METAR CYYC 110300Z VRB02KT 15SM SKC M08/M10 A2965 RMK SLP091=
METAR CYYQ 110300Z 30004KT 15SM IC SCT270 M28/M31 A2973 RMK CI3
 SLP071=
METAR CYZF 110300Z 32007KT 15SM SKC M27/M30 A2954 RMK SLP032=
0000044600
968
SXXX32 EUMS 110358
32BD7124
:PRS 1 /1 1896 1894 1893 1893 1893 1892 1891 1890 1891 1892 1893 1893 1892 1893 1890 1890 1888 1887 1889 1888 1885 1877 1873 1874 1873 1873 1871 1871 1871 1868 :RAD 3 /3 7675 7676 7675 7676 7672 7671 7663 7659 7654 7650 7653 7655 7656 7649 7641 7638 7641 7650 7650 7651 :ENC 3 /5 4672 4671 4669 4665 4654 4646 4651 4652 4640 4639 4646 4647 :SW1 59 /60 0 :SW2 29 /60 60 :BAT 14 /15 13.4 :NAME 32BD7124
0000070100
969
SXXX32 EUMS 110358 RRA
223412A2
OT12 ID:IND-SADENG DT:2014 01 11 03 57
:PRS /1 01445 01445 01431 01406 01357 01333 01454 01496 01430 01346 01324 01439 01411 01403 01372 01425 01441 01486 01432 01362 01411 01468 01468 01433 01344 01433 01451 01436 01451 01494
:ENC /1 -13499 -13513 -13536 -13553 -13566 -13579 -13526 -13473 -13518 -13573 -13613 -13519 -13526 -13543 -13563 -13523 -13496 -13479 -13499 -13589 -13553 -13509 -13459 -13479 -13566 -13519 -13519 -13516 -13489 -13459
:RAD /1 11171 11195 11143 11146 11115 11092 11184 11185 11123 11111 11074 11117 11164 11178 11125 11151 11174 11236 11202 11151 11152 11182 11247 11175 11160 11167 11182 11140 11166 11236
:BAT 13.4V
0000010800
970
UANT99 KDDL 110359
ARP LOT7 6013N03430W 0359 F380 MS55 353/27 KT
SPLRB DDL XXW 110359 L94A
0000011800
971
SNVA25 LFPW 110400
BBXX
BATFR55 11044 99085 30429 46/// /3608 10280 20217 40140 53026
22262 04294=
0000032900
972
SIIS21 LLBD 110300
AAXX 11034
40153 43/// /3611 10063 20051 39120 48511 52005 =
40179 41558 41404 10115 20107 30176 40214 52005 71000 841// =
40180 41660 69903 10117 20102 30169 40219 53004 70262 86100 =
40190 46/// /1301 10087 20084 39886 40225 52006 =
40199 43/// /0101 10104 20083 30202 40229 52007 =
00000000