0000010000
053
SACN51 CWAO 110400
METAR CWUW 110400Z AUTO 15006KT 9SM FEW003 M28/ A2912 RMK SLP942=
0000011200
054
SACN51 CWAO 110400
METAR CWCL 110400Z AUTO 16005KT 7SM OVC000 OVC068 M03/M07 A2954 RMK
SLP046=
0000003900
055
UAPF01 NTAA 110400
NIL=
0000008900
056
SACN51 CWAO 110400
METAR CWKM 110400Z AUTO 27019KT M25/ A2978 RMK SLP091=
0000009200
057
SACN52 CWAO 110400
METAR CWKP 110400Z AUTO 25034G41KT M35/ A2920 RMK SLP948=
0000009900
058
SACN51 CWAO 110400
METAR CWYK 110400Z AUTO 32018G32KT M22/ A2923 RMK PRESRR SLP987=
0000009200
059
SACN51 CWAO 110400
METAR CWKW 110400Z AUTO 25030G35KT M22/ A2929 RMK SLP981=
0000010400
060
SAAE31 VTBB 110930 RRA
METAR VTBU 110930Z 28010KT 7000 FEW025 SCT300 32/17 Q1011 A2987=

0000011500
061
SACN44 CWAO 110400
METAR CYOD 110400Z 29006KT 15SM BKN015 BKN130 M08/M10 A2955 RMK
SC4AC1 SLP048=
0000011300
062
SACN43 CWAO 110400
METAR CWHN 110400Z AUTO 29006KT 260V330 9SM BKN010 M09/M11 A2950 RMK
SLP033=
0000010300
063
SACN43 CWAO 110400
METAR CYXD 110400Z AUTO 23005KT 9SM FEW069 M04/M12 A2959 RMK SLP057=
0000040900
064
SNVD20 KWNB 110400 RRD
BBXX
44065 11041 99404 70737 46/// /1003 10057 40245 58021 90350 22200
00052 333 91203 555 11033 22038 30250 41103 60349 101030 093023
097022 105028 104030 098028=
44007 11041 99435 70701 46/// /2804 10017 20001 40260 58011 90350
22200 00043 10602 20401 316// 40602 70009 333 91206 555 11044
22045 30300 42408 60349 275042 271045 252056 252057 248064 246068=
0000027400
065
SXHW11 KWAL 110402
15D142A4 011040202":PRS 1 #1 1349 1355 1357 1359 1370 1349 1349 1359 1369 1361 :RAD 1 #1 6929 6936 6934 6937 6940 6931 6933 6936 6942 6942 :ENC 2 #5 4845 4843 4855 4856 :SW1 2 #60 0 :SW2 32 #60 0 :BAT 4 #5 13.3 :NAME 15D142A4  35+0NN 216W
0000009300
066
SAIN90 VEIM 110401
METAR VEIM 110400Z 07003KT 2500 HZ NSC  16/07 Q1021 NOSIG=
0000011400
067
SAIN90 VIDN 110400
METAR VIDN 110400Z 30004KT 6000 FEW020 FEW035 SCT040 BKN080 11/09
     Q1018=
0000139800
068
SIIN90 VOMM 110300
AAXX 11034
43278 32597 30000 10244 20207 30156 40163 82501
  333 10297 20209 58007
  555 10000=
43341 32996 00000 10141 20129 38980 48503
  333 10275 20095 58006
  555 10000=
43342 32596 60000 10226 20192 39956 40165 83530
  333 10324 20200 58011
  555 10000=
43340 32696 60501 10160 20143 38643 48660 85031
  333 10230 20138 58000
  555 10000=
43318 32996 01101 10166 20123 38295 48534
  333 10170 20104 58007
  555 10003=
43379 32898 20208 10240 20222 30143 40146 82070
  333 10298 20214 58006
  555 10020=
43277 32597 41802 10240 20210 30066 40167 82110
  333 10310 20170 58009
  555 10000=
43317 32597 40000 10128 20088 37813 4//// 8////
  333 10190 20072 58///
  555 10000=
43331 31596 13404 10222 20200 30116 40161 70510
  333 10301 20195 58004
  555 10001=
43302 32597 70000 10206 20197 39682 40125 82343
  333 10326 20176 59002
  555 10000=
43301 32997 10702 10208 20169 39638 40174 80001
  333 10310 20165 58015
  555 10000=
43330 32597 30501 10238 20211 30077 40161 83500
  333 10300 20222 58007
  555 10001=
43207 32996 23202 10236 20215 30152 40155 80002
  333 10308 20205 58011
  555 10000=
43376 32597 30000 10250 20220 30081 40139 83500
  333 10307 20234 59004
  555 10029=
43358 32597 60502 10240 20210 30055 40175 80001
  333 10310 20185 58017
  555 10006=
0000014000
069
SIIN42 VOMM 110300 RRA
AAXX 11034
43376 32597 30000 10250 20220 30081 40139 83500
  333 10307 20234 59004
  555 10029=
0000016000
070
SIIN90 VOMP 110300
AAXX 11034
43185 31596 41403 10250 20204 30156 40160 70521 82530
  333 10292 20210 58000 82620 83360
  555 00000 10000=
0000027400
071
SWIN55 VICH 110330
VICH  18.2  -2  6.2  1  0.0 (TRACE)  .17:40  07:21  14:01  03:04  .
MAINLY CLEAR SKY.FOG OR MIST WOULD OCCUR DURING NIGHT AND
MORNING.TODAY'S MAX. TEMP. WILL BE AROUND 18 DEG. CEL. AND MIN. TEMP.
ON SUNDAY WILL BE AROUND 4 DEG. CEL.=
0000012600
072
SIIN44 DEMS 110300 RRB
AAXX 11034
43376 32597 30000 10250 20220 30081 40139 83500
  333 10307 20234 59004=
00000000