0000042800
473
SAID31 WIII 101830
METAR WIMM 101830Z 26004KT 4800 HZ BKN017 24/24 Q1012= 
METAR WADD 101830Z VRB02KT 9999 FEW015CB FEW017 26/23 Q1009 NOSIG= 
METAR WAAA 101830Z 11008KT 5000 -TSRA FEW018CB SCT019 25/25 Q1010= 
METAR WIII 101830Z 00000KT 5000 HZ SCT021 BKN100 25/23 Q1009 NOSIG= 
METAR WARR 101830Z VRB02KT 5000 -TSRA FEW018CB SCT020 25/23 Q1009= 
METAR WIHH NIL=
METAR WABB NIL=
METAR WIDD NIL=

0000017900
474
SAID33 WIII 101830
METAR WABP NIL=
METAR WAJJ NIL=
METAR WAKK NIL=
METAR WAPP NIL=
METAR WARS NIL=
METAR WATT NIL=
METAR WALR NIL=
METAR WARQ NIL=

0000005200
475
RRIN23 VECC 110958
RQRPT 013-034=

0000010400
476
SAIN90 VILK 111000
METAR VIRB 111000Z 36003KT 0800 -DZ SCT008 BKN015 OVC080 17/15 Q1015=
0000005200
477
RRIN23 VECC 110958
RQRPT 133-154=

0000019700
478
SAID32 WIII 101830
METAR WAMM NIL=
METAR WIBB NIL=
METAR WIDN NIL=
METAR WIPT NIL=
METAR WIOO NIL=
METAR WIPP NIL=
METAR WAOO NIL=
METAR WALL NIL=
METAR WADL NIL=

0000016500
479
FTAU33 YBBN 101800 AAD
TAF AMD YCFS 101840Z 1018/1112
35005KT 9999 -SHRA SCT030 BKN060
BECMG 1023/1101 07010KT 9999 -SHRA SCT030 BKN060
RMK=

0000123400
480
SAAU31 YBBN 101830
METAR YPAD 101830Z 19009KT CAVOK 19/06 Q1017
NOSIG=
METAR YBAS 101830Z AUTO 31005KT 9999 // NCD 21/M08 Q1014=
METAR YBBN 101830Z 19003KT 9999 FEW034 BKN070 21/18 Q1017=
METAR YBCS 101830Z 18014KT 9999 -SHRA SCT023 BKN060 24/23 Q1009=
METAR YSCB 101830Z AUTO 10001KT 9999 // SCT120 14/12 Q1020=
METAR YPXM 101830Z NIL=
METAR YPCC 101830Z AUTO 15012KT 9999 // SCT022 BKN030 26/22 Q1011=
METAR YCFS 101830Z AUTO 33006KT 9999 // NCD 18/18 Q1018=
METAR YPDN 101830Z 16005KT 9999 FEW015 BKN250 25/23 Q1006=
METAR YBCG 101830Z AUTO 26005KT 9999 // BKN046 OVC055 20/19 Q1018=
METAR YHID 101830Z AUTO 09008KT //// // ////// 28/25 Q1005=
METAR YPJT 101830Z AUTO 12010KT 9999 // NCD 26/10 Q1015=
METAR YPKU 101830Z AUTO 27004KT 9999 // NCD 27/24 Q1007=
METAR YPLM 101830Z AUTO 29007KT 6000 // NCD 30/16 Q1005=
METAR YMML 101830Z 20005KT CAVOK 18/15 Q1017
RMK HZ
FM2000 18008KT 9999 BKN008=
METAR YPPH 101830Z 08017KT CAVOK 26/10 Q1014=
METAR YSSY 101830Z 32004KT CAVOK 21/17 Q1018
NOSIG=
METAR YSTW 101830Z AUTO 16005KT 9999 // BKN100 18/13 Q1019=
METAR YPTN 101830Z AUTO 17004KT 9999 // NCD 25/23 Q1007=
METAR YBTL 101830Z AUTO 17006KT 9999 // NCD 25/22 Q1011=

0000113200
481
SAAU32 YBBN 101830
METAR YAMB 101830Z AUTO 00000KT 0500 // ////// 17/17 Q1018
RMK CLD:SKY MAY BE OBSC=
METAR YMAV 101830Z AUTO 26010KT 9999 // OVC015 17/13 Q1017=
METAR YBRM 101830Z AUTO 27011KT 9999 // SCT020 29/25 Q1007=
METAR YCIN 101830Z NIL=
METAR YSDU 101830Z AUTO 15008KT 9999 // NCD 17/17 Q1018=
METAR YFRT 101830Z AUTO 15009KT //// // ////// 17/17 Q1019=
METAR YGEL 101830Z AUTO 15008KT 9999 // NCD 19/18 Q1010=
METAR YPGV 101830Z NIL=
METAR YBHM 101830Z AUTO 11021KT 9999 // ////// 26/22 Q1012=
METAR YMHB 101830Z 11004KT 9999 SCT009 BKN016 16/14 Q1013=
METAR YPKG 101830Z AUTO 11013KT 9999 // NCD 22/11 Q1019=
METAR YMLT 101830Z AUTO 01004KT 9999 // NCD 15/14 Q1012=
METAR YBMA 101830Z AUTO 18007KT 9999 // SCT094 29/16 Q1010=
METAR YSNF 101830Z AUTO 11009KT 9999 // OVC063 19/11 Q1018=
METAR YPEA 101830Z NIL=
METAR YPPD 101830Z AUTO 33008KT 9999 // NCD 29/27 Q1006=
METAR YSRI 101830Z NIL=
METAR YBRK 101830Z AUTO 12008KT 9999 // NCD 22/20 Q1014=
METAR YWLM 101830Z AUTO 13002KT 9999 // NCD 18/17 Q1018=
METAR YPWR 101830Z AUTO 17012KT 9999 // NCD 24/09 Q1015=

0000028800
482
SAHK31 VHHH 101830
METAR VHHH 101830Z 08013KT 9000 FEW022 16/11 Q1023 NOSIG=
METAR RCTP 101830Z 04010KT 9999 FEW020 16/12 Q1023 NOSIG RMK A3022
=
METAR RCKH 101830Z NIL=
METAR RCSS 101830Z NIL=
METAR VMMC 101830Z 07010KT 040V110 9000 SCT025 16/11 Q1023 NOSIG=

0000010300
483
SAIN90 VILK 110500
METAR VILK 110500Z 30007KT 0700 R27/1000 FG VV/// 14/12 Q1018 NOSIG=
0000005200
484
RRIN23 VIDP 110507
RQRPT 440-461=

0000014000
485
FTCN37 CWAO 101800 AAA
TAF AMD CYAW 101840Z 1014/1102 FCST CNCLD DUE END OF FLYING PROGRAM
    RMK NXT FCST BY 131115Z=

0000009500
486
SAFR32 LFPW 101830 RRA
METAR LFCK 101830Z AUTO 11020KT 9999 NSC 11/06 Q1016=

0000010600
487
SAFR33 LFPW 101830 RRA
METAR LFKB 101837Z VRB02KT 9999 FEW020 BKN030 13/10 Q1021 NOSIG=

0000114000
488
SPUS70 KWBC 101840
SPECI
KRWI 101836Z AUTO 05004KT 4SM BR BKN003 OVC060 09/08 A3028 RMK AO2
     RAB1758E08 P0000 T00890078=
KSTL 101836Z 16010KT 3SM -RA BR BKN004 OVC030 04/03 A2979 RMK AO2
     P0001=
KBAF 101836Z 22003KT 2SM -SN OVC006 M03/M04 A3037 RMK AO2 P0001
     T10281044=
KBMG 101836Z 15009KT 5SM BR FEW006 OVC042 06/03 A2997 RMK AO2
     T00560033=
KFWN 101837Z AUTO 17003KT 10SM OVC009 00/M03 A3035 RMK AO2
     T00001028=
KMCK 101837Z AUTO 29013KT 5SM -SN BKN027 OVC035 03/M02 A2959 RMK
     AO2 SNB30 P0000 T00281017=
KMIE 101837Z 16011KT 6SM BR FEW007 BKN028 OVC036 04/03 A2999 RMK
     AO2 T00440028=
KTKI 101837Z 19013KT 10SM -RA SCT013 SCT075 OVC085 17/16 A2974 RMK
     AO2 P0002=
KTXK 101837Z 13004KT 2SM RA BR BKN013 OVC022 13/13 A2983 RMK AO2
     P0002=
KVPZ 101837Z AUTO 15008KT 3SM BR OVC003 01/01 A2990 RMK AO2
     T00110011 TSNO=
KBKL 101837Z 15010KT 5SM BR SCT021 OVC048 04/02 A3011 RMK AO2=
KDNL 101837Z AUTO 01006KT 3SM -RA BR BKN013 OVC019 08/07 A3016 RMK
     AO2 P0005 T00830072 TSNO=
KERI 101837Z 19009KT 10SM OVC014 04/01 A3014 RMK AO2=

0000010400
489
SPUS31 KWBC 101840
SPECI
KSTL 101836Z 16010KT 3SM -RA BR BKN004 OVC030 04/03 A2979=

0000009600
490
SPUS41 KWBC 101840
SPECI
KBAF 101836Z 22003KT 2SM -SN OVC006 M03/M04 A3037=

0000028000
491
SAJP31 KWBC 101830 RRB
METAR
RJAA 101830Z 23002KT 9999 FEW025 M05/M08 Q1022 NOSIG RMK 1CU025
     A3021=
RJCC 101830Z 24007KT 6000 -SHSN FEW010 BKN030 M08/M12 Q1017 RMK
     1ST010 6CU030 A3004=
RJTT 101830Z 29006KT CAVOK 01/M06 Q1023 NOSIG RMK A3021=

0000009900
492
SAIQ01 ORBI 110500
METAR ORBM 110500Z 00000KT 8000 SCT060 BKN120 07/03 Q1020 NOSIG=
00000000