0000009600
593
SAUS74 KWBC 101800 RRE
METAR
KIWA 101847Z 00000KT 30SM SCT250 14/M03 A3014=

0000011800
594
SAEU31 BKPR 101900
BKPR 101900Z 00000KT 0100 R17/0125 FG BKN003 01/00 Q1022 NOSIG RMK
 17010095 =

0000010900
595
SAPM31 MPTO 101900
METAR 
MPTO 101900Z 04007KT 9999 SCT018TCU SCT100  31/20 Q1008 NOSIG=

0000009400
596
SPAU32 YBBN 101851
SPECI YAMB 101851Z AUTO 00000KT 9999 // NCD 17/17 Q1018=

0000008300
597
SAEA20 HKNC 101800 RRE
METAR HKNK 101800Z 36005KT  CAVOK  20/11=

0000030900
598
FTUS51 KWBC 101848 AAA
TAF AMD
KBLF 101845Z 1019/1118 10003KT 3SM BR SCT002 SCT025 OVC040
     FM102100 15008KT 4SM -DZ BR SCT005 OVC015 WS020/21025KT
     FM110300 16010G20KT P6SM OVC012 WS010/20042KT
     FM110900 18016G25KT P6SM OVC025
     FM111500 22015G25KT 4SM SHRA OVC018=

0000030900
599
FTUS80 KWBC 101848 AAA
TAF AMD
KBLF 101845Z 1019/1118 10003KT 3SM BR SCT002 SCT025 OVC040
     FM102100 15008KT 4SM -DZ BR SCT005 OVC015 WS020/21025KT
     FM110300 16010G20KT P6SM OVC012 WS010/20042KT
     FM110900 18016G25KT P6SM OVC025
     FM111500 22015G25KT 4SM SHRA OVC018=

0000132700
600
SPUS70 KWBC 101848
SPECI
KCPS 101845Z 16014G21KT 9SM -RA SCT006 BKN024 OVC033 04/04 A2979
     RMK AO2 PRESFR P0007=
KCUB 101844Z AUTO 00000KT 5SM -RA BR OVC004 12/11 A3018 RMK AO2
     RAB40 P0000 T01170106 TSNO=
KIML 101844Z AUTO 32025G32KT 1 3/4SM -SN BKN019 OVC025 02/M02
     A2961 RMK AO2 PK WND 33032/1836 SNB38 P0000=
KLFT 101844Z 12006KT 10SM BKN010 OVC017 18/16 A2995 RMK AO2 CIG
     008V013 PRESFR=
KLXT 101844Z AUTO 15003KT 3/4SM BR OVC007 03/03 A2959 RMK AO2
     RAE18 PRESFR P0001 T00330028=
KOWD 101844Z 00000KT 2 1/2SM UP BR BKN008 OVC019 01/M01 A3040 RMK
     AO2 UPB11SNE1754 P0002 T00061006=
KNSE 101842Z 09005KT 7SM OVC003 15/13 A3006 RMK AO2 T01500133
     $=
KHWO 101845Z 14012KT 10SM SCT026 BKN035 27/21 A3010 RMK AO2=
KIOW 101845Z AUTO 13010KT 3/4SM BR OVC002 01/01 A2968 RMK AO2
     PRESFR=
KOFP 101845Z AUTO VRB03KT 1 1/4SM -RA BR OVC003 03/02 A3035 RMK
     AO2 UPB12E13 P0005 T00280022=
KPBF 101845Z AUTO 12006KT 10SM -RA SCT019 BKN049 OVC090 11/09
     A2987 RMK AO2 RAB1756E16B43 P0000=
KSHN 101845Z AUTO 22007KT 8SM BKN015 OVC023 07/06 A3010 RMK AO2
     RAE08B29E43 P0001 T00720061 TSNO=
KSLN 101845Z 26008KT 7SM OVC011 03/01 A2959 RMK AO2 T00280011=
PABR 101845Z 31008KT 10SM SCT006 M26/M28 A2993 RMK AO2
     T12561283=

0000011300
601
SAFR31 LFPW 101830 CCA
METAR COR LFPG 101848Z 17004KT 060V190 7000 BKN005 05/04 Q1018
NOSIG=

0000015100
602
SAES20 MSLP 101900
METAR MSLP 101850Z 16007KT 120V220 CAVOK 31/19 Q1010 A2984=
METAR MSSS 101850Z 33003KT CAVOK 31/20 Q1015 A2998=

0000011900
603
FCDN34 EKCH 101800 AAA
TAF AMD EKGF 101848Z 1018/1022 26020KT 9999 SCT020 TEMPO 1018/1022 
BKN012=

0000009200
604
SAQB31 LQMO 101900
METAR LQMO 101900Z VRB02KT 5000 BR SCT035 07/06 Q1022=

0000188100
605
SPUS70 KWBC 101852
SPECI
KNSE 101842Z 09005KT 7SM OVC003 15/13 A3006 RMK AO2 T01500133
     $=
KNSE 101842Z 09005KT 7SM OVC003 15/13 A3006 RMK AO2 T01500133
     $=
KCVG 101848Z 16009KT 3SM BR OVC005 08/07 A3004 RMK AO2 SFC VIS 6
     BINOVC=
KFDY 101848Z AUTO 17011KT 6SM BR SCT007 BKN032 OVC060 03/02 A3005
     RMK AO2=
KHKY 101848Z 02003KT 2SM -RA BR BKN003 OVC015 06/05 A3022 RMK AO2
     P0004=
KJFK 101848Z 02003KT 2SM -DZ BR FEW009 BKN014 OVC027 03/01 A3039
     RMK AO2 SFC VIS 2 1/2 RAE17DZB42 P0000 $=
KMAI 101848Z AUTO 06004KT 2 1/2SM BR OVC002 15/14 A3008 RMK AO2
     VIS 2V3=
KRUE 101848Z AUTO VRB04KT 4SM RA BR BKN011 BKN070 OVC090 09/09
     A2977 RMK AO2 P0009=
KVPZ 101848Z AUTO 14008KT 2 1/2SM BR OVC004 01/01 A2989 RMK AO2
     TSNO=
PAEG 101848Z AUTO 00000KT 10SM BKN024 OVC033 M24/M27 A2958 RMK AO2
     TSNO=
KCGI 101850Z 17012KT 5SM -RA BR SCT007 BKN019 OVC070 07/06 A2991
     RMK AO2 P0010=
KDAW 101849Z AUTO VRB03KT 1 3/4SM -SN FEW017 BKN030 BKN043 M02/M05
     A3035 RMK AO2 SNB37 P0000=
KDCA 101849Z 08003KT 1 1/4SM R01/4500VP6000FT -DZ BR OVC006 04/02
     A3035 RMK AO2 RAE48DZB48 P0002=
KDEQ 101849Z AUTO 18008KT 2SM -RA BR SCT006 BKN013 OVC032 14/13
     A2976 RMK AO2 PRESFR P0017=
KEWB 101849Z 00000KT 1 3/4SM -RA BR OVC018 01/01 A3039 RMK AO2
     P0001=
KEWR 101849Z 02003KT 1 1/2SM R04R/6000VP6000FT BR BKN006 BKN012
     OVC024 01/M01 A3038 RMK AO2 CIG 005V007=
KEYE 101849Z AUTO 13007KT 4SM BR BKN007 OVC031 03/02 A2995 RMK
     AO2=
KFSM 101849Z 06003KT 1 3/4SM -RA BR FEW036 BKN048 OVC070 09/08
     A2975 RMK AO2 P0004=
KGRB 101849Z 17010KT 3SM BR OVC008 M01/M03 A2983 RMK AO2=
KTKI 101849Z 19012G18KT 10SM BKN013 OVC090 18/16 A2973 RMK AO2
     RAE39 P0002=
KTXK 101849Z 13003KT 4SM -RA BR OVC016 13/13 A2981 RMK AO2 PRESFR
     P0002=

0000009300
606
SPUS31 KWBC 101852
SPECI
KCVG 101848Z 16009KT 3SM BR OVC005 08/07 A3004=

0000011100
607
SPUS31 KWBC 101852
SPECI
KJFK 101848Z 02003KT 2SM -DZ BR FEW009 BKN014 OVC027 03/01 A3039=

0000009300
608
SAAI41 FHAW 101850
METAR FHAW 101850Z 13013KT 9999 FEW022 25/19 Q1012 BLU=

0000011400
609
SAPH41 RPLC 101900
METAR RPLC 101900Z
34004KT 9999 FEW042 SCT300 20/17 Q1017 A3002 RMK NOSIG=

0000083700
610
SASN31 ESWI 101850
METAR ESGG 101850Z 20008KT 9999 FEW016 M00/M01 Q1001 R21/29//95=
METAR ESGJ 101850Z 26008KT 9999 FEW006 SCT007 OVC009 M00/M01 Q1001
RESG R01/790142=
METAR ESGP 101850Z 18006KT 9999 SCT019 BKN190 03/01 Q1001
R19/19//95=
METAR ESGT 101850Z 17006KT 9999 SCT020 BKN060 00/M01 Q1001=
METAR ESMK 101850Z AUTO 27009KT 9999NDV -RA FEW024/// SCT036///
06/04 Q1004=
METAR ESMQ 101850Z AUTO 26003KT 9999 SCT020/// M01/M02 Q1002=
METAR ESMS 101850Z 27012KT 6000 -SHRA BKN008 BKN017CB 05/05 Q1005
R17/29//95=
METAR ESMT 101850Z AUTO 25009KT 9999 FEW018/// OVC026/// 05/04
Q1003=
METAR ESMX 101850Z 26005KT 9999 FEW010 BKN013 01/M01 Q1002=
METAR ESTA 101850Z 26014KT 9999 FEW017 OVC028 06/04 Q1004=
METAR ESTL 101850Z AUTO 27011KT 9999NDV FEW013/// SCT025///
OVC031/// 06/05 Q1004=

0000036100
611
FTMX51 MMMX 101853 COR
TAF COR MMMX 101853Z 1018/1124 15010KT P6SM BKN025 TX22/1021Z
TN08/1112Z
         FM102200 19008G18KT P6SM BKN025 
         TEMPO 1022/1101 6SM VC RA BKN025CB 
         FM110300 35005KT P6SM SKC 
         BECMG 1111/1112 4SM HZ 
         FM111700 07006KT 6SM HZ SKC 
         FM112000 13010KT P6SM SCT025=

0000012200
612
SAMO31 ZMUB 101900
METAR ZMUB 101900Z 00000MPS 5000NW FU NSC M31/M34 Q1025 NOSIG RMK
 QFE660.4 73 NT=

00000000