0000010800
173
SIAA22 EGRR 110900
AAXX 11091
89063 41698 60602 11012 21018 39991 40003 57013 70272 84550=
0000153300
174
UDAS02 BABJ 110943
AMDAR 1109
DES CNFPYN 3558N 10457E 110938 F224 MS325 287/052 TB/ S//1=
DES CNFPYN 3559N 10450E 110939 F198 MS286 269/037 TB/ S//1=
LVR CNFPYN 3600N 10446E 110939 F197 MS285 272/036 TB/ S//1=
LVR CNFPYN 3601N 10442E 110940 F197 MS288 272/034 TB/ S//1=
DES CNFOZL 2429N 11359E 110934 F240 MS153 258/074 TB/ S//1=
DES CNFOZL 2425N 11359E 110935 F225 MS125 252/071 TB/ S//1=
DES CNFOZL 2418N 11358E 110936 F203 MS125 266/069 TB/ S//1=
DES CNFOZL 2412N 11357E 110937 F180 MS091 261/057 TB/ S//1=
DES CNFOZL 2410N 11357E 110937 F173 MS073 261/055 TB/ S//1=
DES CNFOZL 2406N 11356E 110938 F165 MS068 261/048 TB/ S//1=
DES CNFOZL 2402N 11353E 110939 F157 MS045 253/044 TB/ S//1=
DES CNFOZL 2359N 11349E 110940 F157 MS043 253/043 TB/ S//1=
ASC CNFPYM 3615N 11718E 110939 F186 MS248 277/054 TB/ S//1=
ASC CNFPYM 3614N 11718E 110939 F189 MS253 277/057 TB/ S//1=
ASC CNFPYM 3612N 11719E 110940 F202 MS284 277/059 TB/ S//1=
ASC CNFPYM 3608N 11719E 110940 F218 MS298 274/076 TB/ S//1=
LVR CNFLWR 2858N 11716E 110932 F276 MS288 253/099 TB/ S//1=
LVR CNFLWR 2851N 11657E 110935 F276 MS280 256/097 TB/ S//1=
LVR CNFLWR 2844N 11637E 110938 F276 MS278 257/098 TB/ S//1=
LVR CNFLWR 2837N 11618E 110941 F276 MS271 258/099 TB/ S//1=
LVR CNFPXL 3249N 11839E 110940 F177 MS163 272/043 TB/ S//1=
LVR CNFPXL 3249N 11840E 110940 F177 MS164 272/043 TB/ S//1=
LVR CNFPXL 3253N 11840E 110941 F177 MS163 274/045 TB/ S//1=
ASC CNFPXL 3256N 11841E 110941 F188 MS185 276/049 TB/ S//1=
0000024900
175
SNHK22 VHHH 110945
AAXX 11091
45032 36/// /1002 10173 20115 30193 40210 54000=
45035 36/// /0603 10187 20123 30171 40213 52001=
45039 36/// /1002 10166 20110 30202 40218 52001=
45044 36/// /1104 10167 20120 30120 40215 52002=
0000011000
176
UANT01 CWAO 110948
ARP TAY010 5136N04826W 0948 F340 MS62 294/66 KT
OOTSC QXT AME 110948 F26A
0000011000
177
UANT01 CWAO 110949
ARP KLM686 5358N05225W 0948 F370 MS62 277/67 KT
PHBFC QXS YAY 110949 F72A
0000010700
178
SIXX40 ETGT 110900 CCA
AAXX 11094
40199 42665 40502 10178 20099 30223 40249 57003 84241 =
0000012600
179
SIHU21 HABP 110900 CCA
AAXX 11091
12843 41670 71001 10031 20015 30048 40223 50001 70322 8754/
  333 87636=
0000011000
180
UANT01 CWAO 110949
ARP BAW274 5424N05730W 0949 F370 MS62 295/71 KT
GCIVT QXS YHO 110949 F59A
0000011100
181
UANT01 CWAO 110950
ARP BAW9172 4832N04740W 0950 F410 MS59 295/50 KT
GZBJB QXT AOW 110950 L26A
0000217100
182
SZNZ01 NZKL 110954
CREX++
T000103 A001 D01021 D06025++
-3683144 17478654 AUCT  2014 01 11 09 46 //// 11 07 00 01
03961 3186 03962 3188 03961 3187 03960 3185 03961 3187 03962 3187+
-4402404 -17636748 CHIT  2014 01 11 09 46 //// 11 07 00 01
04614 1954 04636 1972 04639 1971 04645 1974 04674 1999 04686 2007+
-4089929 17623168 CPIT  2014 01 11 09 46 //// 11 07 00 01
03510 2309 03494 2288 03516 2305 03555 2340 03564 2345 03571 2347+
-3618905 17548887 GBIT  2014 01 11 09 46 //// 11 07 00 01
05009 -0013 05002 -0020 05001 -0022 05006 -0018 05012 -0013 05008 -0018+
-3867541 17802288 GIST  2014 01 11 09 46 //// 11 07 00 01
03487 2782 03485 2777 03497 2785 03496 2781 03500 2782 03505 2784+
-4241288 17370277 KAIT  2014 01 11 09 46 //// 11 07 00 01
03069 2242 03058 2227 03060 2223 03070 2228 03066 2219 03070 2218+
-3755040 17815904 LOTT  2014 01 11 09 46 //// 11 07 00 01
02775 0198 02774 0195 02785 0205 02773 0190 02789 0204 02782 0195+
-3704657 17451175 MNKT  2014 01 11 09 46 //// 11 07 00 01
02570 -0155 02565 -0153 02548 -0163 02560 -0144 02551 -0146 02552 -0138+
-3947566 17692007 NAPT  2014 01 11 09 46 //// 11 07 00 01
02524 2040 02500 2011 02534 2041 02532 2034 02536 2034 02535 2030+
-3441483 17304870 NCPT  2014 01 11 09 46 //// 11 07 00 01
-04483 -8095 -04566 -8176 -04576 -8185 -04580 -8187 -04609 -8214 -04638 -8242+
-4581435 17062939 OTAT  2014 01 11 09 46 //// 11 07 00 01
04607 3400 04611 3398 04615 3395 04621 3395 04630 3397 04633 3394+
-2928002 -17789440 RBCT  2014 01 11 09 46 //// 11 07 00 01
05482 2014 05473 2005 05465 1995 05487 2017 05498 2027 05468 1997+
-2925114 -17790384 RFRT  2014 01 11 09 46 //// 11 07 00 01
02393 0203 02377 0187 02396 0205 02384 0192 02383 0191 02394 0201+
-4357010 17277383 SUMT  2014 01 11 09 46 //// 11 07 00 01
01739 1873 01762 1890 01742 1863 01761 1875 01738 1845 01748 1848+
-3764109 17618118 TAUT  2014 01 11 09 46 //// 11 07 00 01
04321 3990 04316 3985 04324 3992 04319 3987 04303 3970 04311 3978+
-4128448 17477985 WLGT  2014 01 11 09 46 //// 11 07 00 01
02914 2019 02910 2010 02920 2016 02921 2013 02924 2012 02928 2011++
7777
0000024100
183
SOAT10 KWAL 110953
FA8005BC 011095337 OT12 ID:KN-BASS-01 DT:2014 01 11 09 51
:RD -3118 -3079 -3106 -3098 -3077 -3118 -3097 -3105 -3097 -3102
:PR 0589 0591 0569 0554 0601 0555 0540 0610 0549 0590
:B 13.7V
 46+1NN 219E
0000080800
184
SIAA01 KARS 110900 RRA
AAXX 1109/
89869 46/// ///// 11056 39922 4//// 5//// 90930=
89866 46/// ///// 11026 39877 4//// 5//// 90940=
89866 46/// ///// 11030 39877 4//// 5//// 90910=
89799 46/// ///// 11213 4//// 5//// 90940=
89828 46/// ///// 11151 36546 4//// 5//// 90940=
89879 46/// ///// 10024 39894 4//// 5//// 90940=
89108 46/// ///// 11198 37009 4//// 5//// 90930=
89108 46/// ///// 11198 37009 4//// 5//// 90940=
89108 46/// ///// 11198 37009 4//// 5//// 90910=
89329 46/// ///// 11125 38809 4//// 5//// 90930=
89329 46/// ///// 11125 38809 4//// 5//// 90940=
89329 46/// ///// 11129 38814 4//// 5//// 90910=
89314 46/// ///// 11108 38290 4//// 5//// 90930=
89314 46/// ///// 11108 38289 4//// 5//// 90940=
89314 46/// ///// 11118 38291 4//// 5//// 90910=
0000077100
185
SASP32 LEMM 101800
METAR LEAS 101800Z 33003KT 280V060 1400 0500W R29/P2000 R11/0800U
-RADZ BCFG FEW001 BKN002 OVC007 11/11 Q1016 NOSIG=
METAR LEBB 101800Z 00000KT CAVOK 11/09 Q1014 NOSIG=
METAR LECO 101800Z 00000KT 9999 FEW024 10/08 Q1016=
METAR LEGE 101800Z 00000KT 7000 BKN017 09/07 Q1018=
METAR LEST 101800Z VRB01KT 9999 FEW020 08/07 Q1016 NOSIG=
METAR LEZG 101800Z 11003KT 080V160 2900 BR BKN002 BKN004 06/06
Q1017=
METAR LESO 101800Z 00000KT CAVOK 10/09 Q1014=
METAR LEVT 101800Z 23009KT CAVOK 07/04 Q1015=
METAR LERS 101800Z 00000KT 7000 BKN021 10/07 Q1018=
METAR LEMH 101800Z 08003KT 9999 FEW012 12/10 Q1018=
METAR LEAM 101800Z 05012KT 9999 FEW020 SCT080 15/09 Q1014=
METAR LEGR 101800Z VRB01KT 9999 FEW100 12/05 Q1014=

0000010300
186
SACN61 CYZY 101800
METAR CYZY 101800Z AUTO 14006KT 9SM CLR M09/M10 A2960 RMK SLP064=

0000017900
187
SASP33 LEMM 101800
METAR LEVD 101800Z 08003KT CAVOK 06/04 Q1014=
METAR LEVS 101800Z 33002KT CAVOK 12/01 Q1014=
METAR LESA 101800Z VRB02KT CAVOK 07/04 Q1014=

0000023700
188
SASP34 LEMM 101800
METAR LEDA 101800Z NIL=
METAR LEJR 101800Z 01004KT CAVOK 13/11 Q1012=
METAR LELL 101800Z NIL=
METAR LEPP 101800Z 00000KT CAVOK 08/06 Q1016=
METAR LEXJ 101800Z VRB02KT 9999 BKN014 11/10 Q1015=

0000037900
189
SACR31 LEMM 101800
METAR GCLP 101800Z 01010KT 9999 FEW032 19/11 Q1013 NOSIG=
METAR GCXO 101800Z 30017KT 9999 FEW014 14/09 Q1014 NOSIG=
METAR GCTS 101800Z VRB02KT 9999 FEW042 20/12 Q1013 NOSIG=
METAR GCRR 101800Z 06009KT 9999 FEW021 17/13 Q1013=
METAR GCFV 101800Z 03009KT 9999 FEW020 17/12 Q1013=
METAR GCLA 101800Z 02010KT 350V070 CAVOK 21/10 Q1013=

0000008800
190
SASP39 LEMM 101800
METAR LETL 101800Z AUTO 12007KT CAVOK 07/01 Q1016=

0000014500
191
SANO37 ENMI 101750 RRB
METAR ENOV 101750Z VRB03KT 9999 -SHSN FEW016 SCT035 M00/M03 Q0998 RMK
           WIND 2175FT 36007KT=

0000010600
192
SAUK38 EGGY 101750 RRA
METAR EGPU 101750Z AUTO 21008KT 9999 FEW037/// 03/01 Q1005 RERA=

00000000