0000034000
353
FTCN32 CWAO 110200
TAF CYEG 110242Z 1103/1124 20006KT P6SM FEW060 SCT250
     BECMG 1107/1109 14010KT
    FM111000 14012KT P6SM -SN BKN100 TEMPO 1110/1112 4SM -SN
    FM111400 14015KT 4SM -SN SCT020 OVC060 TEMPO 1114/1120 2SM -SN
     VV012
    FM112000 28015KT P6SM BKN060 BKN120
    RMK NXT FCST BY 110600Z=

0000037900
354
FTUS51 KWBC 110242 AAA
TAF AMD
KRDG 110241Z 1103/1124 00000KT 2SM BR BKN006
      TEMPO 1103/1106 3/4SM -RA BR OVC003
     FM110600 16005KT 2SM -RA BR BKN004 OVC010 WS020/20050KT
     FM111500 18010KT 1SM RA BR BKN003 OVC010 WS020/21050KT
     FM112100 21010G20KT 1SM RA BR BKN003 OVC012 WS020/18050KT
     FM112300 26009KT 2SM RA BR BKN004 OVC025=

0000021600
355
FTUS53 KWBC 110242 AAA
TAF AMD
KTVC 110240Z 1103/1124 14006KT 6SM -RA BR SCT008 OVC015
      WS020/20030KT
     FM111000 22005KT 2SM -RASN BR OVC008
     FM111400 27008KT 3SM -SN BR OVC008=

0000056300
356
FTUS52 KWBC 110242 AAA
TAF AMD
KHIE 110238Z 1103/1124 00000KT P6SM SCT030 BKN035 OVC060
     FM110600 00000KT 3SM -FZDZ BR OVC015
     FM111000 00000KT 1SM -FZRA BR OVC005 WS020/19045KT
     FM111300 14008G18KT 2SM -RA BR OVC008 WS020/19045KT
     FM111600 18008G18KT 3SM RA BR OVC010 WS020/19055KT=
KLBT 110239Z 1103/1124 18007KT 6SM BR BKN005
     FM110500 14006KT 3SM BR BKN004 OVC015
     FM111500 20012G18KT P6SM VCSH BKN009
      TEMPO 1117/1121 21018G28KT 2SM +SHRA BKN012CB
     FM112200 25014G23KT P6SM VCSH BKN020=

0000135700
357
FTUS80 KWBC 110242 AAA
TAF AMD
KBNA 110239Z 1103/1124 19010G20KT P6SM SCT015 OVC035
     FM110500 19015G25KT 3SM -SHRA BR VCTS OVC008CB
      TEMPO 1109/1113 2SM TSRA OVC005CB
     FM111300 26012G25KT P6SM OVC025
     FM111600 27010G20KT P6SM BKN050=
KFKL 110239Z 1103/1124 12006KT P6SM BKN004
     FM110700 16011KT 4SM -RA OVC010 WS020/22045KT
     FM111100 17012KT 2SM -RA OVC006 WS020/22050KT
     FM112000 23012G24KT P6SM BKN015 OVC025 AMD LTD TO CLD VIS AND
      WIND=
KHIE 110238Z 1103/1124 00000KT P6SM SCT030 BKN035 OVC060
     FM110600 00000KT 3SM -FZDZ BR OVC015
     FM111000 00000KT 1SM -FZRA BR OVC005 WS020/19045KT
     FM111300 14008G18KT 2SM -RA BR OVC008 WS020/19045KT
     FM111600 18008G18KT 3SM RA BR OVC010 WS020/19055KT=
KLBT 110239Z 1103/1124 18007KT 6SM BR BKN005
     FM110500 14006KT 3SM BR BKN004 OVC015
     FM111500 20012G18KT P6SM VCSH BKN009
      TEMPO 1117/1121 21018G28KT 2SM +SHRA BKN012CB
     FM112200 25014G23KT P6SM VCSH BKN020=
KRDG 110241Z 1103/1124 00000KT 2SM BR BKN006
      TEMPO 1103/1106 3/4SM -RA BR OVC003
     FM110600 16005KT 2SM -RA BR BKN004 OVC010 WS020/20050KT
     FM111500 18010KT 1SM RA BR BKN003 OVC010 WS020/21050KT
     FM112100 21010G20KT 1SM RA BR BKN003 OVC012 WS020/18050KT
     FM112300 26009KT 2SM RA BR BKN004 OVC025=

0000043800
358
FTUS80 KWBC 110242 AAB
TAF AMD
KSAV 110239Z 1103/1124 14003KT 1SM BR BKN005
     FM110300 16004KT 3/4SM BR OVC004
     FM111200 19009KT 4SM BR OVC004
     FM111700 21014G22KT 6SM SHRA SCT015 BKN040
     FM112300 26012G17KT P6SM SCT040 SCT120=
KTVC 110240Z 1103/1124 14006KT 6SM -RA BR SCT008 OVC015
      WS020/20030KT
     FM111000 22005KT 2SM -RASN BR OVC008
     FM111400 27008KT 3SM -SN BR OVC008=

0000019600
359
FTUS80 KWBC 110242
TAF
TAF AMD KEVW 110238Z 1103/1124 25014KT P6SM VCSH SCT025 BKN060
     FM110400 25011KT P6SM SCT030 BKN080
     FM111700 22018G27KT P6SM SCT050 BKN120=

0000193500
360
SPUS70 KWBC 110242
SPECI
K1M4 110238Z AUTO 14005KT 4SM BR OVC003 10/10 A2995 RMK AO2 RAE29
     P0001=
KAWM 110238Z AUTO 27005KT 2 1/2SM VCTS RA BR FEW010 BKN014 OVC030
     12/12 A2975 RMK AO2 LTG DSNT SE-SW TSE08B16 P0026=
KCRE 110238Z 16003KT 2 1/2SM BR BKN003 OVC017 17/16 A3014 RMK AO2
     RAB0159E31 P0000=
KDFI 110238Z AUTO 16003KT 3SM -RA BR OVC004 04/03 A2979 RMK AO2
     P0008=
KHDO 110238Z AUTO 00000KT 2 1/2SM BR CLR 13/12 A2989 RMK AO2 VIS 1
     1/4V5 T01330117=
KJFK 110238Z 00000KT 1/2SM R04R/1400V2000FT -RA BR OVC003 03/02
     A3029 RMK AO2 SFC VIS 1 1/2 P0001 $=
KLSE 110238Z 31005KT 1 3/4SM BR BKN004 OVC012 M01/M02 A2951 RMK
     AO2 I1001 T10061017 $=
KPAH 110238Z 22011G21KT 2 1/2SM +RA BR FEW006 BKN038 OVC050 10/08
     A2976 RMK AO2 WSHFT 0224 P0021 T01000083=
KRST 110238Z 00000KT 1 1/4SM -SN OVC026 M02/M03 A2949 RMK AO2
     P0001 T10171033=
KTOP 110238Z AUTO 27005KT 5SM BR BKN026 OVC032 02/01 A2963 RMK AO2
     T00220011=
KTQE 110238Z AUTO 27004KT 5SM BR FEW009 BKN080 00/M02 A2959 RMK
     AO2 T00001017=
PADL 110228Z 03007KT 4SM -SN BR OVC010 M05/M05 A2944 RMK VIS 3 V
     5=
KAGS 110239Z 00000KT 4SM -RA BR OVC006 10/09 A3010 RMK AO2 LTG
     DSNT NE TSE02 P0002=
KAXN 110239Z AUTO 25007KT 3/4SM BR OVC002 M02/M02 A2947 RMK
     AO2=
KBFM 110239Z 14004KT 1 1/2SM VCTS RA BR OVC003 16/16 A2998 RMK AO2
     P0022 T01610156=
KBRD 110239Z AUTO 22005KT 1/4SM HZ VV002 11/M03 A2947 RMK AO2=
KEET 110239Z AUTO 00000KT 2 1/2SM BR OVC002 12/11 A2998 RMK AO2
     RAB25E36 P0001 T01170111=
KEST 110239Z AUTO 24005KT 1 1/4SM BR OVC003 M01/M02 A2951 RMK AO2
     I1001 T10111017=
KHAO 110239Z AUTO 15006KT 10SM OVC029 10/08 A2982 RMK AO2
     T01000078=
KLOZ 110239Z AUTO 19008KT 10SM OVC029 13/09 A2992 RMK AO2
     T01330094=
KMVY 110239Z AUTO 19003KT 9SM FEW008 BKN031 OVC050 06/04 A3033 RMK
     AO2 $=

0000011800
361
SPUS31 KWBC 110242
SPECI
KJFK 110238Z 00000KT 1/2SM R04R/1400V2000FT -RA BR OVC003 03/02
A3029=

0000009400
362
SPUS43 KWBC 110242
SPECI
KDSM 110238Z 29005KT 5SM BR OVC003 01/M01 A2954=

0000009500
363
SACA31 KWBC 110200 RRA
METAR
MYGF 110240Z 14005KT 9999 SCT014 25/23 A3014=

0000011600
364
SPUS41 KWBC 110241
SPECI
KPVD 110237Z 00000KT 1/4SM R05/2000V2400FT -DZ FG VV003 01/01
A3032=

0000008900
365
SABA31 MYGF 110239
METAR MYGF 110240Z 14005KT 9999 SCT014 25/23 A3014=

0000054500
366
FTUS31 KWBC 110242 AAA
TAF AMD
KBMG 110240Z 1103/1124 14008KT 1/4SM -RA FG OVC003
     FM110300 17010KT 1SM -RA BR OVC003
     FM110900 22010KT 3SM -RA BR OVC006
     FM111200 25012KT 4SM -RA BR OVC009
     FM111800 25012G22KT P6SM OVC015 AMD LTD TO CLD VIS AND WIND
      TIL 111400=
KBNA 110239Z 1103/1124 19010G20KT P6SM SCT015 OVC035
     FM110500 19015G25KT 3SM -SHRA BR VCTS OVC008CB
      TEMPO 1109/1113 2SM TSRA OVC005CB
     FM111300 26012G25KT P6SM OVC025
     FM111600 27010G20KT P6SM BKN050=

0000027100
367
FTUS42 KWBC 110242 AAA
TAF AMD
KSAV 110239Z 1103/1124 14003KT 1SM BR BKN005
     FM110300 16004KT 3/4SM BR OVC004
     FM111200 19009KT 4SM BR OVC004
     FM111700 21014G22KT 6SM SHRA SCT015 BKN040
     FM112300 26012G17KT P6SM SCT040 SCT120=

0000060100
368
FTUS71 KWBC 110242 AAA
TAF AMD
KRDG 110241Z 1103/1124 00000KT 2SM BR BKN006
      TEMPO 1103/1106 3/4SM -RA BR OVC003
     FM110600 16005KT 2SM -RA BR BKN004 OVC010 WS020/20050KT
     FM111500 18010KT 1SM RA BR BKN003 OVC010 WS020/21050KT
     FM112100 21010G20KT 1SM RA BR BKN003 OVC012 WS020/18050KT
     FM112300 26009KT 2SM RA BR BKN004 OVC025=
KSAV 110239Z 1103/1124 14003KT 1SM BR BKN005
     FM110300 16004KT 3/4SM BR OVC004
     FM111200 19009KT 4SM BR OVC004
     FM111700 21014G22KT 6SM SHRA SCT015 BKN040
     FM112300 26012G17KT P6SM SCT040 SCT120=

0000027900
369
FTUS72 KWBC 110242 AAA
TAF AMD
KBNA 110239Z 1103/1124 19010G20KT P6SM SCT015 OVC035
     FM110500 19015G25KT 3SM -SHRA BR VCTS OVC008CB
      TEMPO 1109/1113 2SM TSRA OVC005CB
     FM111300 26012G25KT P6SM OVC025
     FM111600 27010G20KT P6SM BKN050=

0000021600
370
FTUS73 KWBC 110242 AAA
TAF AMD
KTVC 110240Z 1103/1124 14006KT 6SM -RA BR SCT008 OVC015
      WS020/20030KT
     FM111000 22005KT 2SM -RASN BR OVC008
     FM111400 27008KT 3SM -SN BR OVC008=

0000008700
371
SANT31 KWBC 110200 RRD
METAR
LPBJ 110230Z NIL=
LPLA 110230Z NIL=

0000012200
372
SAPA31 KWBC 110200 RRD
METAR
PKWA 110240Z AUTO 07014KT 10SM CLR 31/20 A2974 RMK AO2
     T03080200=

00000000