0000009700
993
SAJM31 MKJS 110200 CCA
METAR COR MKJS 110200Z 26002KT 9999 FEW022 26/21 Q1016=

0000017100
994
SACY31 LCLK 110200
METAR LCLK 110200Z 32004KT CAVOK 09/06 Q1021 NOSIG=
METAR LCPH 110200Z AUTO 02008KT 9999 NCD 10/06 Q1022=
METAR LCNC 110200Z NIL=

0000011000
995
SAAG41 SASA 110200
METAR SASA 110200Z  02006KT 9999  BKN020 FEW045CB
BKN100  23/16 Q1013=

0000008400
996
SAAG41 SAZS 110200
METAR SAZS 110200Z  27010KT CAVOK 14/04 Q1021=

0000008400
997
SAAG41 SAVC 110200
METAR SAVC 110200Z  25004KT CAVOK 14/07 Q1014=

0000020400
998
SABO41 SLLP 110200
METAR SLLP 110200Z 11004KT 9999 FEW015 SCT200 09/06 Q1035=
METAR SLVR 110200Z 36005KT 9999 FEW070 24/23 Q1010=
METAR SLCB 110200Z 17004KT 9999 FEW027 20/07 Q1023=

0000008400
999
SAAG41 SABE 110200
METAR SABE 110200Z  32011KT CAVOK 26/17 Q1010=

0000025500
000
SACZ31 LKPW 110200
METAR LKKV 110200Z 24003KT 9999 BKN016 01/M00 Q1017=
METAR LKMT 110200Z 23006KT CAVOK 01/M01 Q1019 NOSIG=
METAR LKPR 110200Z 22010KT CAVOK 02/M00 Q1018 NOSIG=
METAR LKTB 110200Z VRB02KT CAVOK 02/M01 Q1019 NOSIG=

0000032100
001
SAIL31 BICC 110200
METAR BIAR 110200Z VRB09G22KT 9999 -SN BKN033 02/M03 Q0996=
METAR BIEG 110200Z 04015G26KT 2500 -SN VV008 01/M00 Q0997 RMK
R04/790194   RWY
SANDED=
METAR BIKF 110200Z 26013KT 9999 FEW037 BKN095 02/M03 Q0993=
METAR BIRK 110200Z 29009KT 9999 FEW015 SCT050 BKN070 02/M03 Q0993=

0000033300
002
FTUS31 KWBC 110203 AAA
TAF AMD
KPHX 110201Z 1102/1124 10004KT P6SM FEW250
     FM112200 26004KT P6SM FEW250=
KPIT 110201Z 1102/1206 11005KT P6SM OVC040
     FM110500 13006KT P6SM BKN015 OVC025 WS020/22045KT
     FM111000 18010KT 4SM -RA OVC009 WS020/22050KT
     FM112100 23012G24KT P6SM BKN015 OVC025=

0000042900
003
FTUS41 KWBC 110203 AAA
TAF AMD
KAGC 110201Z 1102/1124 12005KT P6SM BKN040
     FM110600 13006KT P6SM BKN015 OVC025 WS020/22045KT
     FM111100 18010KT 4SM -RA OVC009 WS020/22050KT
     FM112200 23012G24KT P6SM BKN015 OVC025=
KLUK 110202Z 1102/1124 15005KT P6SM VCSH OVC030
     FM110600 17007KT 4SM -SHRA BR OVC009
     FM111300 21010G18KT P6SM VCSH OVC012
     FM111600 25012G22KT P6SM OVC025=

0000108200
004
FTUS71 KWBC 110203 AAA
TAF AMD
KAGC 110201Z 1102/1124 12005KT P6SM BKN040
     FM110600 13006KT P6SM BKN015 OVC025 WS020/22045KT
     FM111100 18010KT 4SM -RA OVC009 WS020/22050KT
     FM112200 23012G24KT P6SM BKN015 OVC025=
KAOO 110200Z 1102/1124 VRB03KT 6SM -SHRA BR OVC009
     FM110500 17010KT 4SM -RA BR BKN013 OVC025 WS019/21040KT
     FM111300 17013G27KT 3SM RA BR BKN009 OVC016 WS012/19045KT=
KLUK 110202Z 1102/1124 15005KT P6SM VCSH OVC030
     FM110600 17007KT 4SM -SHRA BR OVC009
     FM111300 21010G18KT P6SM VCSH OVC012
     FM111600 25012G22KT P6SM OVC025=
KMIV 110201Z 1102/1124 00000KT 1SM -RA BR OVC004
      TEMPO 1102/1104 1/2SM FG OVC002
     FM110400 14005KT 1SM -RA BR BKN005 OVC015
     FM110600 16005KT 2SM -RA BR BKN004 OVC010 WS020/20050KT
     FM111500 19013G24KT 1SM RA BR BKN003 OVC010 WS020/21050KT=
KPIT 110201Z 1102/1206 11005KT P6SM OVC040
     FM110500 13006KT P6SM BKN015 OVC025 WS020/22045KT
     FM111000 18010KT 4SM -RA OVC009 WS020/22050KT
     FM112100 23012G24KT P6SM BKN015 OVC025=

0000030200
005
FTUS73 KWBC 110203
TAF
TAF KOFF 1102/1208 27006KT 9999 OVC010 620406 QNH2956INS
      BECMG 1105/1106 28006KT 9999 SCT030 QNH2964INS
      BECMG 1114/1115 28009KT 9999 SCT065 510152 QNH2967INS
      BECMG 1119/1120 28009KT 9999 SCT065 QNH2968INS T06/1122Z
      TM05/1111Z=

0000025900
006
FTUS74 KWBC 110203 AAA
TAF AMD
KIWA 110201Z 1102/1124 11005KT P6SM FEW250
     FM112000 28004KT P6SM FEW250 AMD LTD TO CLD VIS AND WIND
      1103/1113=
KPHX 110201Z 1102/1124 10004KT P6SM FEW250
     FM112200 26004KT P6SM FEW250=

0000009500
007
SABR31 TBPB 110200
METAR TBPB 110200Z 06013KT 9999 BKN016 25/21 Q1015 NOSIG=

0000080500
008
SAMX41 MMMX 110158
METAR MMMX 110144Z 20004KT 12SM SCT025 16/05 A3026
      NOSIG RMK 8/400 AC=
METAR MMAA 110145Z 25003KT 8SM SKC 28/22 A2986=
METAR MMBT 110140Z 00000KT 7SM FEW070 26/22 A2990
      RMK 8/020=
METAR MMOX 110143Z 13016KT 8SM SKC 21/12 A3013 RMK ISOL SC=
METAR MMPA 110140Z 00000KT 4SM  SCT120 20/19 A2990 RMK 8/030 HZY=
METAR MMQT 110145Z 00000KT 7SM SCT020 BKN090 BKN250 17/09 A3019 RMK
8/538=
METAR MMTM 110143Z 14010KT 5SM  SCT010 BKN060 BKN200 21/18 A2987 
      RMK 8/538 HZY=
METAR MMTO 110145Z 19003KT 8SM  SCT020 SCT070 12/06 A3032 RMK 8/430=
METAR MMVR 110145Z 12005KT 7SM  SKC 22/18 A2989 RMK HZY=
METAR MMZH 110147Z 00000KT 7SM SKC 27/23 A2988 RMK CU NE=
METAR MMPB 110157Z NIL=
METAR MMIT 110157Z NIL=
METAR MMTB 110157Z NIL=

0000009100
009
SPUS42 KWBC 110137
SPECI
KFTW 110133Z 34013G22KT 10SM CLR 16/07 A2975=

0000011200
010
SAID31 WIII 110200
METAR WIII 110200Z 28005KT 9000 FEW020CB FEW022 31/24 Q1010 RMK CB TO
W=

0000095900
011
SANL33 EHDB 110155
METAR EHAK 110155Z AUTO 23021KT 5000 FEW002/// BKN004/// BKN005///
07/06 Q1005=
METAR EHDV 110155Z AUTO 23023KT 6000 DZ FEW005/// SCT011/// BKN025///
08/07 Q1007=
METAR EHFD 110155Z AUTO 24024KT 9999 FEW006/// SCT007/// BKN009///
08/07 Q1007=
METAR EHFZ 110155Z AUTO 23023KT //// // ///////// 08/07 Q1009 RE//=
METAR EHJA 110155Z AUTO 22022KT 8000 -RA FEW006/// SCT029///
BKN033/// 07/06 Q1009 RERA REDZ=
METAR EHJR 110155Z NIL=
METAR EHKV 110155Z AUTO 25029KT 9999 FEW010/// BKN013/// BKN018///
09/07 Q1010=
METAR EHMA 110155Z AUTO 21020KT 5000 FEW005/// BKN007/// OVC008///
07/06 Q1011=
METAR EHMG 110155Z AUTO 23025KT 9999 FEW009/// SCT015/// BKN019///
09/07 Q1010=
METAR EHPG 110155Z AUTO ///28KT 9999 DZ FEW007/// SCT009/// BKN010///
09/07 Q1011=
METAR EHQE 110155Z AUTO 23026KT 9999 FEW008/// SCT011/// BKN015///
09/07 Q////=
METAR EHSA 110155Z NIL=
METAR EHSC 110155Z NIL=

0000022500
012
SAPM31 MPTO 110200
METAR
MPBO 110200Z 00000KT 9999 FEW020 BKN090 Q1014=
MPDA 110200Z 00000KT CAVOK Q1008=
MPMG 110200Z 33005KT 9999 FEW020 26/23 Q1011 NOSIG=
MPPA  110200Z 36006KT 9999 FEW030 Q1011=

00000000