0000091800
793
SAUS74 KWBC 102300 RRB
METAR
KSEA 102253Z 20011G17KT 10SM BKN019 BKN044 OVC055 09/06 A3001=
KSFF 102253Z 23011KT 10SM FEW025 SCT110 07/00 A2991=
KSFO 102256Z 01003KT 10SM FEW012 BKN200 16/08 A3019=
KSHR 102253Z AUTO 31013KT 10SM OVC085 03/M05 A2962=
KSJC 102253Z 32005KT 10SM SCT180 BKN250 17/07 A3019=
KSLC 102253Z 13006KT 10SM SCT070 BKN095 BKN150 06/M03 A3008=
KSMF 102253Z 00000KT 10SM BKN250 17/05 A3019=
KSMX 102251Z 30016KT 10SM FEW200 19/09 A3008=
KSNA 102253Z 22006KT 6SM HZ FEW250 20/09 A3003=
KSNS 102253Z 26011KT 10SM CLR 18/08 A3016=
KTIW 102253Z 19006KT 10SM -RA SCT012 BKN042 OVC070 08/06 A3000=
KTUS 102253Z 28007KT 10SM CLR 18/M07 A3007=
KTVL 102253Z AUTO 00000KT 10SM CLR 12/M04 A3023=
KTWF 102253Z 27017G27KT 10SM BKN065 OVC080 07/M03 A3005=
KUKI 102256Z AUTO 00000KT 10SM CLR 18/03 A3019=
KYKM 102253Z 26010KT 10SM OVC070 12/M02 A2992=
KYUM NIL=

0000020900
794
FTSR31 WSSS 101700 RRB
TAF WABB 101700Z 1018/1124 28007KT 8000 SCT018
TEMPO 1019/1023 RA FEW017CB
BECMG 1100/1102 23010KT
TEMPO 1104/1108 7000 -SHRA FEW017CB
BECMG 1111/1113 33006KT=

0000011000
795
UANT99 KDDL 110506
ARP VIR28U 4659N02004W 0506 F370 MS61 236/75 KT
GVROY DDL XXF 110506 F51A
0000010500
796
SAUK31 EGGY 101750 CCA
METAR COR EGLL 101750Z 21009KT 180V250 CAVOK 08/06 Q1013 NOSIG=

0000133600
797
FTUS52 KWBC 101754 RRA
TAF
KHOT 101740Z 1018/1118 15007KT 2SM -RA BR OVC002 WS020/20045KT
      TEMPO 1018/1022 4SM -RA BR OVC006
     FM102200 17009KT 4SM -RA BR VCTS BKN008 OVC015CB
      TEMPO 1022/1102 2SM TSRA BR OVC005CB
     FM110200 25008KT 5SM -RA BR OVC015
     FM110600 28005KT P6SM SCT100 BKN250
     FM111500 29006KT P6SM SKC=
KHRO 101740Z 1018/1118 18012G22KT 5SM -RA BR VCTS BKN025 OVC050CB
      TEMPO 1018/1022 2SM TSRA BR OVC005CB
     FM102200 19010G20KT 2SM -RA BR VCTS OVC005CB
     FM110300 25012KT P6SM VCSH BKN007 OVC015
     FM110500 27010KT P6SM SCT025 BKN250
      TEMPO 1110/1114 BKN025
     FM111500 27010KT P6SM SCT250=
KHUM 101750Z 1018/1118 07010KT 4SM BR OVC004
      TEMPO 1102/1106 1SM TSRA OVC004CB
     FM110800 19010KT 2SM BR OVC002
     FM111500 28009KT P6SM SCT250=
KMCB 101750Z 1018/1118 15008KT 3SM BR OVC002
      TEMPO 1105/1109 2SM TSRA OVC006CB
     FM111000 23010KT 5SM -RA BR OVC008
     FM111500 30008KT P6SM SCT250=
KOGB 101753Z 1018/1118 VRB05KT P6SM SCT006 BKN090
      TEMPO 1018/1022 5SM -RA BR BKN035
     FM102200 04005KT 5SM BR BKN035
     FM110600 VRB04KT 4SM -DZ BR BKN007 BKN025
      TEMPO 1108/1112 1SM -DZ BR OVC004
     FM111200 17008KT 5SM BR OVC003
     FM111600 19014G22KT P6SM SCT005 OVC015=

0000128800
798
FTUS52 KWBC 101754
TAF
KAGS 101753Z 1018/1118 VRB05KT 3SM BR VCSH SCT004 OVC015
      TEMPO 1018/1020 2SM -RA BR BKN005
     FM102000 VRB05KT 4SM -DZ BR OVC010
     FM110200 VRB04KT 1SM -DZ BR OVC003
      TEMPO 1108/1112 1/2SM -DZ FG OVC001
     FM111200 17008KT 5SM BR OVC003
     FM111600 19014G22KT P6SM -SHRA SCT005 OVC015=
KBCB 101751Z 1018/1118 00000KT 2SM -RA BR BKN002 OVC010
      WS020/22025KT
     FM110100 10003KT 1SM -DZ BR OVC002 WS020/21030KT
     FM110600 10003KT 2SM -DZ BR OVC002 WS015/20045KT
     FM111200 14005KT 4SM -RA BR OVC005 WS015/21045KT
     FM111600 23007KT 4SM -SHRA BR OVC008 WS015/22045KT=
KCUB 101753Z 1018/1118 VRB05KT 4SM BR VCSH OVC004
      TEMPO 1018/1021 2SM -RA BR
     FM102100 04005KT 2SM -DZ BR OVC007
     FM110200 VRB04KT 1SM -DZ BR OVC005
      TEMPO 1108/1112 1/2SM -DZ FG OVC003
     FM111200 17006KT 5SM BR OVC003
     FM111600 19010G18KT P6SM SCT005 OVC015=
KDNL 101753Z 1018/1118 VRB05KT 4SM BR VCSH SCT005 OVC010
      TEMPO 1018/1020 2SM -RA BR OVC010
     FM102000 04005KT 3SM -DZ BR OVC007
     FM110200 VRB04KT 1SM -DZ BR OVC003
      TEMPO 1108/1112 1/2SM -DZ FG OVC001
     FM111200 17008KT 5SM BR OVC003
     FM111600 19014G22KT P6SM -SHRA SCT005 OVC015=

0000039500
799
FTUS52 KWBC 101754 RRB
TAF
KPBF 101740Z 1018/1118 17010G16KT P6SM VCSH SCT025 BKN100
      TEMPO 1020/1024 5SM -RA BR BKN025
     FM110000 18010G20KT 4SM -RA BR VCTS BKN008 OVC015CB
      WS020/20040KT
      TEMPO 1100/1104 2SM TSRA BR OVC005CB
     FM110400 20012KT 5SM -RA BR OVC015
     FM110800 26010KT P6SM BKN100 BKN250
     FM111500 27012KT P6SM SCT250=

0000019100
800
FTUS54 KWBC 101754 AAA
TAF AMD
KSHR 101750Z 1018/1118 18006KT P6SM SCT080 BKN120
     FM101900 30012G22KT P6SM SCT080 BKN120
     FM110200 VRB04KT P6SM SCT080 BKN200=

0000137300
801
FTUS51 KWBC 101754
TAF
KBLF 101751Z 1018/1118 00000KT 1/4SM -DZ FG SCT005 BKN015 OVC025
     FM102100 15008KT 4SM -DZ BR SCT005 OVC015 WS020/21025KT
     FM110300 16010G20KT P6SM OVC012 WS010/20042KT
     FM110900 18016G25KT P6SM OVC025
     FM111500 22015G25KT 4SM SHRA OVC018=
KDAN 101751Z 1018/1118 03006KT 2SM -RA BR BKN005 OVC012
      WS020/19025KT
     FM110000 03003KT 1SM -RA BR OVC003 WS020/18035KT
     FM110600 01003KT 3/4SM -RA BR OVC002 WS018/21040KT
     FM111200 15005KT 2SM -DZ BR OVC002 WS015/21045KT
     FM111600 20010G18KT 3SM -SHRA BR OVC005=
KLWB 101751Z 1018/1118 36004KT P6SM -DZ OVC002 WS020/20025KT
     FM110400 VRB03KT 4SM -DZ BR OVC002 WS015/21040KT
     FM111500 21006KT 4SM -SHRA BR OVC010 WS015/22045KT=
KLYH 101751Z 1018/1118 01003KT 1 1/2SM -RA BR OVC003 WS020/19025KT
     FM110000 07005KT 1SM -RA BR OVC003 WS020/21035KT
     FM110600 00000KT 3/4SM -RA BR OVC003 WS020/20040KT
     FM111200 12003KT 2SM -DZ BR OVC003 WS018/21045KT
     FM111600 19007KT 3SM -SHRA BR OVC005 WS015/21045KT=
KROA 101751Z 1018/1118 VRB03KT 2SM -RA BR OVC005 WS020/20025KT
     FM110200 VRB03KT 1SM -RA BR OVC004 WS020/20035KT
     FM110600 VRB03KT 1SM -DZ BR OVC004 WS018/20045KT
     FM111200 12004KT 2SM -DZ BR OVC006 WS015/20045KT
     FM111600 18008KT 3SM -SHRA BR OVC010 WS015/20050KT=

0000126200
802
FTUS80 KWBC 101754
TAF
KAGS 101753Z 1018/1118 VRB05KT 3SM BR VCSH SCT004 OVC015
      TEMPO 1018/1020 2SM -RA BR BKN005
     FM102000 VRB05KT 4SM -DZ BR OVC010
     FM110200 VRB04KT 1SM -DZ BR OVC003
      TEMPO 1108/1112 1/2SM -DZ FG OVC001
     FM111200 17008KT 5SM BR OVC003
     FM111600 19014G22KT P6SM -SHRA SCT005 OVC015=
KASD 101750Z 1018/1118 14008KT 4SM BR OVC003
      TEMPO 1104/1108 2SM TSRA OVC006CB
     FM110800 19010KT 4SM BR OVC005
     FM111500 28009KT P6SM SCT250=
KBCB 101751Z 1018/1118 00000KT 2SM -RA BR BKN002 OVC010
      WS020/22025KT
     FM110100 10003KT 1SM -DZ BR OVC002 WS020/21030KT
     FM110600 10003KT 2SM -DZ BR OVC002 WS015/20045KT
     FM111200 14005KT 4SM -RA BR OVC005 WS015/21045KT
     FM111600 23007KT 4SM -SHRA BR OVC008 WS015/22045KT=
KBLF 101751Z 1018/1118 00000KT 1/4SM -DZ FG SCT005 BKN015 OVC025
     FM102100 15008KT 4SM -DZ BR SCT005 OVC015 WS020/21025KT
     FM110300 16010G20KT P6SM OVC012 WS010/20042KT
     FM110900 18016G25KT P6SM OVC025
     FM111500 22015G25KT 4SM SHRA OVC018=
KBTR 101750Z 1018/1118 07008KT 3SM BR OVC003
      TEMPO 1104/1108 2SM TSRA OVC006CB
     FM110800 23012KT 2SM RA OVC008
     FM111500 30009KT P6SM SCT250=

0000146100
803
FTUS80 KWBC 101754 RRA
TAF
KCAE 101753Z 1018/1118 VRB05KT 3SM BR VCSH OVC005
      TEMPO 1018/1021 -RA BR
     FM102100 04005KT 2SM -DZ BR OVC007
     FM110200 VRB04KT 1SM -DZ BR OVC005
      TEMPO 1108/1112 1/2SM -DZ FG OVC003
     FM111200 17007KT 5SM BR OVC003
     FM111600 19012G20KT P6SM SCT005 OVC015=
KCUB 101753Z 1018/1118 VRB05KT 4SM BR VCSH OVC004
      TEMPO 1018/1021 2SM -RA BR
     FM102100 04005KT 2SM -DZ BR OVC007
     FM110200 VRB04KT 1SM -DZ BR OVC005
      TEMPO 1108/1112 1/2SM -DZ FG OVC003
     FM111200 17006KT 5SM BR OVC003
     FM111600 19010G18KT P6SM SCT005 OVC015=
KDAN 101751Z 1018/1118 03006KT 2SM -RA BR BKN005 OVC012
      WS020/19025KT
     FM110000 03003KT 1SM -RA BR OVC003 WS020/18035KT
     FM110600 01003KT 3/4SM -RA BR OVC002 WS018/21040KT
     FM111200 15005KT 2SM -DZ BR OVC002 WS015/21045KT
     FM111600 20010G18KT 3SM -SHRA BR OVC005=
KDNL 101753Z 1018/1118 VRB05KT 4SM BR VCSH SCT005 OVC010
      TEMPO 1018/1020 2SM -RA BR OVC010
     FM102000 04005KT 3SM -DZ BR OVC007
     FM110200 VRB04KT 1SM -DZ BR OVC003
      TEMPO 1108/1112 1/2SM -DZ FG OVC001
     FM111200 17008KT 5SM BR OVC003
     FM111600 19014G22KT P6SM -SHRA SCT005 OVC015=
KGPT 101750Z 1018/1118 11003KT P6SM OVC004
     FM110000 12010KT 5SM BR OVC008
     FM110600 15010KT 4SM BR OVC008
      TEMPO 1106/1110 2SM TSRA OVC006CB
     FM111000 19010KT 5SM BR OVC008=

0000132900
804
FTUS80 KWBC 101754 RRB
TAF
KHOT 101740Z 1018/1118 15007KT 2SM -RA BR OVC002 WS020/20045KT
      TEMPO 1018/1022 4SM -RA BR OVC006
     FM102200 17009KT 4SM -RA BR VCTS BKN008 OVC015CB
      TEMPO 1022/1102 2SM TSRA BR OVC005CB
     FM110200 25008KT 5SM -RA BR OVC015
     FM110600 28005KT P6SM SCT100 BKN250
     FM111500 29006KT P6SM SKC=
KHRO 101740Z 1018/1118 18012G22KT 5SM -RA BR VCTS BKN025 OVC050CB
      TEMPO 1018/1022 2SM TSRA BR OVC005CB
     FM102200 19010G20KT 2SM -RA BR VCTS OVC005CB
     FM110300 25012KT P6SM VCSH BKN007 OVC015
     FM110500 27010KT P6SM SCT025 BKN250
      TEMPO 1110/1114 BKN025
     FM111500 27010KT P6SM SCT250=
KHUM 101750Z 1018/1118 07010KT 4SM BR OVC004
      TEMPO 1102/1106 1SM TSRA OVC004CB
     FM110800 19010KT 2SM BR OVC002
     FM111500 28009KT P6SM SCT250=
KLIT 101740Z 1018/1118 13008KT 4SM -RA BR OVC008 WS020/20045KT
     FM102200 17008G16KT 4SM -RA BR VCTS BKN008 OVC015CB
      TEMPO 1022/1102 2SM TSRA BR OVC005CB
     FM110200 23012KT 5SM -RA BR OVC015
     FM110600 26010KT P6SM SCT100 BKN250
     FM111500 27010KT P6SM SCT250=
KLWB 101751Z 1018/1118 36004KT P6SM -DZ OVC002 WS020/20025KT
     FM110400 VRB03KT 4SM -DZ BR OVC002 WS015/21040KT
     FM111500 21006KT 4SM -SHRA BR OVC010 WS015/22045KT=

0000119000
805
FTUS80 KWBC 101754 RRC
TAF
KLYH 101751Z 1018/1118 01003KT 1 1/2SM -RA BR OVC003 WS020/19025KT
     FM110000 07005KT 1SM -RA BR OVC003 WS020/21035KT
     FM110600 00000KT 3/4SM -RA BR OVC003 WS020/20040KT
     FM111200 12003KT 2SM -DZ BR OVC003 WS018/21045KT
     FM111600 19007KT 3SM -SHRA BR OVC005 WS015/21045KT=
KMCB 101750Z 1018/1118 15008KT 3SM BR OVC002
      TEMPO 1105/1109 2SM TSRA OVC006CB
     FM111000 23010KT 5SM -RA BR OVC008
     FM111500 30008KT P6SM SCT250=
KMSY 101750Z 1018/1118 12008KT 3SM BR OVC006
      TEMPO 1105/1109 2SM TSRA OVC006CB
     FM110900 21012KT 3SM -RA OVC008
     FM111600 30010KT P6SM SCT250=
KNEW 101750Z 1018/1118 11012KT 3SM BR OVC002
     FM102100 15010KT 5SM BR OVC010
      TEMPO 1105/1109 2SM TSRA OVC006CB
     FM110900 22015KT 3SM -RA BR OVC010
     FM111600 30012KT P6SM SCT250=
KOGB 101753Z 1018/1118 VRB05KT P6SM SCT006 BKN090
      TEMPO 1018/1022 5SM -RA BR BKN035
     FM102200 04005KT 5SM BR BKN035
     FM110600 VRB04KT 4SM -DZ BR BKN007 BKN025
      TEMPO 1108/1112 1SM -DZ BR OVC004
     FM111200 17008KT 5SM BR OVC003
     FM111600 19014G22KT P6SM SCT005 OVC015=

0000032400
806
FTUS80 KWBC 101754 CCA
TAF COR
KGEG 101753Z 1018/1118 22020G28KT P6SM SCT050 BKN150 OVC200
     FM110000 21013KT P6SM SCT020 BKN040 OVC050
     FM110200 19011KT 6SM -RA SCT004 BKN008 OVC030
     FM110700 19015KT 6SM RA BKN010 OVC020 WS015/21040KT
     FM111100 20025G35KT P6SM -RA BKN010 OVC030=

0000068700
807
FTUS80 KWBC 101754 RRD
TAF
KPBF 101740Z 1018/1118 17010G16KT P6SM VCSH SCT025 BKN100
      TEMPO 1020/1024 5SM -RA BR BKN025
     FM110000 18010G20KT 4SM -RA BR VCTS BKN008 OVC015CB
      WS020/20040KT
      TEMPO 1100/1104 2SM TSRA BR OVC005CB
     FM110400 20012KT 5SM -RA BR OVC015
     FM110800 26010KT P6SM BKN100 BKN250
     FM111500 27012KT P6SM SCT250=
KROA 101751Z 1018/1118 VRB03KT 2SM -RA BR OVC005 WS020/20025KT
     FM110200 VRB03KT 1SM -RA BR OVC004 WS020/20035KT
     FM110600 VRB03KT 1SM -DZ BR OVC004 WS018/20045KT
     FM111200 12004KT 2SM -DZ BR OVC006 WS015/20045KT
     FM111600 18008KT 3SM -SHRA BR OVC010 WS015/20050KT=

0000019100
808
FTUS80 KWBC 101754 AAA
TAF AMD
KSHR 101750Z 1018/1118 18006KT P6SM SCT080 BKN120
     FM101900 30012G22KT P6SM SCT080 BKN120
     FM110200 VRB04KT P6SM SCT080 BKN200=

0000166300
809
SPUS70 KWBC 101754
SPECI
KAFN 101750Z AUTO 20007KT 1SM -SN BR SCT007 OVC011 M03/M04 A3033
     RMK AO2 P0002=
KAUG 101750Z AUTO 22006KT 1SM -SN BKN024 BKN039 OVC060 M07/M10
     A3037 RMK AO2 SNB1654 P0000=
KBVY 101750Z 23004KT 1 1/2SM -SN BR OVC009 M01/M03 A3040 RMK AO2
     UPB32E34SNB21E32B34 P0000=
KEEO 101750Z AUTO 00000KT 1 3/4SM -SN BKN022 BKN029 OVC036 M07/M10
     A2995 RMK AO2 SNB1654 P0002=
KHFD 101750Z 00000KT 3/4SM -SN BR BKN007 OVC016 M01/M03 A3041 RMK
     AO2 P0002=
KMIV 101750Z AUTO 04003KT 3SM -RA BR OVC002 03/03 A3037 RMK AO2
     P0002=
KPBF 101750Z AUTO 10006KT 10SM BKN015 OVC100 09/08 A2991 RMK AO2
     RAB27E36 P0001=
KSSI 101750Z AUTO 13009KT 3SM -RA BR OVC005 17/17 A3016 RMK AO2
     RAE10B40 P0000=
KTXK 101750Z 16004KT 3SM -RA BR SCT007 BKN011 OVC024 13/13 A2986
     RMK AO2 RAB09 PRESFR P0007=
K1B7 101745Z 08008KT 1/4SM -RA FG BKN002 14/14 A3006/=
KAXO 101745Z 06008KTS 2SM OVC005 15/14 A3006=
K7R3 101750Z 13006KT 10SM HZ OVC005 17/M A3003=
KGEZ 101751Z AUTO 15010KT 5SM BR FEW007 BKN027 OVC036 05/03 A3003
     RMK AO2=
KGVL 101751Z AUTO 08007KT 2 1/2SM BR OVC003 08/07 A3019 RMK AO2
     RAE1659 P0000=
KINT 101751Z 04005KT 2 1/2SM UP BR BKN005 OVC010 03/02 A3028 RMK
     AO2 UPE1655B35RAB09E35 P0001=
KIWI 101751Z AUTO 23005KT 2SM -SN BKN014 OVC027 M02/M05 A3040 RMK
     AO2 SNB13 P0000=
KMMK 101751Z AUTO 00000KT 3SM UP BR FEW018 OVC026 M01/M02 A3040
     RMK AO2 UPB08SNE08 P0000 TSNO=
KDMO 101751Z AUTO 16023G30KT 3SM -RA BR BKN003 OVC050 07/06 A2966
     RMK AO2 PK WND 17030/1746 LTG DSNT N-E RAB17 TSB26E50 PRESFR
     P0006=

0000010300
810
SPUS41 KWBC 101754
SPECI
KBVY 101750Z 23004KT 1 1/2SM -SN BR OVC009 M01/M03 A3040=

0000009100
811
SPUS41 KWBC 101754
SPECI
KBUF 101750Z 20006KT 10SM OVC015 02/00 A3018=

0000008600
812
SAMX55 MMIO 101800
METAR MMIO 101740Z 22010KT 10SM SKC 25/13 A3013=

00000000