0000091000
813
SAMX45 MMMY 101858
METAR MMMY 101846Z 06003KT 5SM  SKC 23/12 A2987 RMK HZY=
METAR MMAN 101843Z 10008KT 6SM  SKC 24/15 A2990 RMK HZY=
METAR MMMA 101842Z 15020G30KT 7SM  FEW020 25/19 A2990 
      RMK 8/100 BLDU PRESFR=
METAR MMIO 101840Z 21008KT 10SM SKC 26/13 A3010=
METAR MMRX 101843Z 16008G18KT 10SM  SCT025 25/16 A2986 
      RMK 8/500 HZY FU BLDU PRESFR=
METAR MMNL 101842Z 31005KT 7SM  BKN030 21/14 A2991 RMK 8/500 ISOL CI=
METAR MMCV 101843Z 18014G24KT 8SM  SKC 26/15 A2984 
      RMK HZY SC SE/SW ISOL CI PRESFR=
METAR MMTC 101840Z 00000KT 10SM SCT080 BKN200 20/01 A3007
      RMK 8/032 HZY=
METAR MMMV 101840Z 00000KT 8SM BKN080 21/// A2992 RMK 8/070 HZY=
METAR MMCU 101844Z 00000KT 10SM SCT200 18/00 A3008 RMK 8/001=
METAR MMPG 101840Z 28005KT 8SM SCT100 BKN200 18/13 A2992
RMK 8/071 HZY=
METAR MMCS 101845Z 25010KT 10SM SCT250 16/02 A3000 RMK 8/005 =

0000017300
814
SAVN24 SVMG 101900
METAR SVMG 101900Z /////KT 9999 SCT010 30/19 Q1012 NOSIG=
METAR SVCU 101900Z NIL=
METAR SVCP 101900Z NIL=
METAR SVGI 101900Z NIL=

0000068300
815
SAGR31 LGAT 101850
METAR LGAD 101850Z 00000KT 9999 SCT020 11/09 Q1022=
METAR LGAV 101850Z VRB02KT CAVOK 10/07 Q1019 NOSIG=
METAR LGIR 101850Z 17009KT CAVOK 12/09 Q1021 NOSIG=
METAR LGKL 101850Z AUTO VRB03KT //// // ////// 11/09 Q1022
     RE//=
METAR LGKO 101850Z 13004KT 9999 SCT025 10/08 Q1021=
METAR LGKR 101850Z 00000KT 9999 FEW018 SCT025 BKN180 11/10 Q1021
 NOSIG=
METAR LGLM 101850Z AUTO VRB02KT //// // ////// 11/08 Q1018
     RE//=
METAR LGRP 101850Z 20004KT 9999 FEW018 13/09 Q1021 NOSIG=
METAR LGSA 101850Z 26012KT 9999 FEW020 14/09 Q1020=
METAR LGSM 101850Z NIL=
METAR LGTS 101850Z 00000KT 9000 FEW010 SCT080 07/05 Q1019 NOSIG=

0000190500
816
UDEU02 EGRR 111002 RRA
AMDAR 1109
ASC EU0726   5558N 00323W 110940 F011 PS012 249/024 TB/ S031=
ASC EU0726   5557N 00324W 110940 F019 PS007 276/028 TB/ S031=
ASC EU0726   5556N 00325W 110940 F024 PS000 285/032 TB/ S031=
ASC EU0726   5555N 00326W 110940 F031 MS015 285/034 TB/ S031=
ASC EU0726   5554N 00327W 110940 F038 MS035 288/034 TB/ S031=
ASC EU0726   5553N 00329W 110940 F049 MS062 286/030 TB/ S031=
ASC EU0726   5552N 00330W 110940 F062 MS095 294/034 TB/ S031=
ASC EU0726   5551N 00331W 110940 F074 MS107 292/030 TB/ S031=
ASC EU0726   5550N 00332W 110940 F085 MS130 296/029 TB/ S031=
ASC EU0726   5548N 00334W 110940 F107 MS182 282/035 TB/ S031=
ASC EU0726   5545N 00330W 110941 F123 MS222 288/037 TB/ S031=
ASC EU0726   5542N 00327W 110941 F144 MS267 282/039 TB/ S031=
ASC EU0726   5539N 00323W 110941 F163 MS312 282/040 TB/ S031=
ASC EU0726   5535N 00319W 110942 F180 MS357 288/041 TB/ S031=
ASC EU0726   5532N 00314W 110942 F193 MS367 294/053 TB/ S031=
ASC EU0726   5529N 00307W 110942 F209 MS390 300/052 TB/ S031=
ASC EU0726   5526N 00300W 110943 F222 MS400 295/057 TB/ S031=
ASC EU0726   5524N 00253W 110943 F237 MS430 297/061 TB/ S031=
ASC EU0726   5522N 00245W 110943 F249 MS437 293/061 TB/ S031=
ASC EU0726   5520N 00237W 110944 F262 MS452 286/061 TB/ S031=
ASC EU0726   5518N 00229W 110944 F275 MS462 279/058 TB/ S031=
ASC EU0726   5516N 00220W 110944 F284 MS457 280/054 TB/ S031=
ASC EU0726   5513N 00212W 110945 F295 MS467 280/054 TB/ S031=
ASC EU0726   5511N 00204W 110945 F303 MS470 284/061 TB/ S031=
ASC EU0726   5508N 00155W 110945 F309 MS477 284/072 TB/ S031=
ASC EU0726   5506N 00146W 110946 F324 MS462 273/048 TB/ S031=
ASC EU0726   5504N 00138W 110946 F330 MS460 274/035 TB/ S031=
ASC EU0726   5501N 00130W 110946 F330 MS462 275/033 TB/ S031=
ASC EU0726   5459N 00122W 110947 F336 MS477 263/027 TB/ S031=
0000006100
817
AAUK99 EGRR 111000
Socket stay alive message.
0000010000
818
SIUK21 EGRR 110900 RRA
AAXX 11094
03874 46/// /3109 10055 20039 30171 40182 52037=
0000013800
819
SIUK42 EGRR 110900 RRA
AAXX 11094
03044 47422 /3011 10010 21001 39977 40078 53021 767//
  333 553// 20000 84/13 83/19=
0000151500
820
FAUK71 EGRR 111000
AIRMET AREA FORECAST, SCOTTISH REGION,
VALID JAN  11/1100Z TO  11/1900Z.

MET-SITUATION: AT 12Z: A MODERATE UNSTABLE NORTHWESTERLY
FLOW COVERS MOST SCOTLAND. A RIDGE BUILDS FM S.

STRONG WIND WRNG: WDSPR GUSTS 20KT SEA COT, WITH FRQ MEAN
20KT GUSTS 30KT SEA COT MAINLY N AND E. ISOL GUSTS 40KT
SEA COT FAR N.

WINDS:
1000FT: 280/25KT, BECMG 230/15KT SW FM 17Z. PS04.
3000FT: 270/20KT S, BUT 290/40KT N. MS02.
6000FT: 290/30KT, BECMG 250/15KT SW FM 17Z. MS08.

FREEZING LEVEL: 1500-2500FT.

WEATHER-CONDITIONS: 2 ZONES AT 12Z:

ZONE 1: S OF A LINE FM CAMPBELTOWN TO PRESTWICK TO
ABERDEEN. THIS LINE SLOW MOVING IN THE E, BUT MOVING N AT
15KT IN THE W.

GEN 30KM, WITH 1-5/8CUSC 3000FT/4000-6000.
ISOL, MAINLY SEA COT, TL 12Z, 5000M IN SHRA OR SHRAGS,
WITH 6/8CB 2000FT/13000.
ISOL LAN FM 17Z, 3000M IN BR, WITH 0-2/8SC 4000FT/5000.

WRNG: HILL FG. MOD ICE AND MOD TURB IN CLD. SEV ICE AND
SEV TURB IN CB. ISOL MOD TURB BLW 6000FT N. SN MON ABOVE
1500FT.


ZONE 2: REST OF REGION.

GEN 40KM, WITH 1-4/8CUSC 3000FT/7000.
ISOL, BUT OCNL SEA COT, 5000M IN SHRA OR SHRAGS, WITH 5-
7/8CB 2000FT/13000.
ISOL, 2000M IN HVY SHRASN OR TSGS, WITH 3/8ST 700FT/1500
AND 7/8CB 1500FT/18000.

WRNG: HILL FG. MOD ICE AND MOD TURB IN CLD. TS. SEV ICE
AND SEV TURB IN CB. OCNL MOD TURB BLW 6000FT N. ISOL SEV
TURB BLW 6000FT SHETLAND FM 18Z. SN MON ABOVE 800FT.


OUTLOOK: UNTIL JAN  12/0100Z:

SIMILAR.
0000143200
821
FAUK55 EGRR 111000
AIRMET AREA FORECAST, NORTHERN REGION,
VALID JAN  11/1100Z TO  11/1900Z.

MET-SITUATION: AT 12Z, A MOD TO STRONG W-NW FLOW COVERS
THE REGION.

STRONG WIND WRNG: SEA COT NE OCNL MEAN 20KT WITH OCNL,
BECMG FM 16Z ISOL, GUST 30KT.

WINDS:
1000FT: GEN 290/25KT, BUT NW 230/20KT, AND FAR S BECMG
110/10KT BY 18Z. PS02.
3000FT: GEN 300/30KT MS02, BUT W BECMG 190/15KT PS02 BY
18Z.
6000FT: GEN 310/30KT MS09, BUT W BECMG 210/20KT MS02 BY
18Z.

FREEZING LEVEL: GEN 2500FT, BUT W BECMG 5000FT BY 18Z.

WEATHER-CONDITIONS: 2 ZONES AT 12Z:

ZONE 1: S OF A LINE DONEGAL TO PRESTWICK MOVING N AT
15KT.

GEN 30KM, WITH 1-5/8CUSC 3000FT/4000-6000.
ISOL N, MAINLY SEA COT, TL 12Z, 5000M IN SHRA OR SHRAGS,
WITH 6/8CB 2000FT/13000.
ISOL LAN FM 17Z, 3000M IN BR, WITH 0-2/8SC 4000FT/5000.

WRNG: HILL FG. MOD ICE AND MOD TURB IN CLD. SEV ICE AND
SEV TURB IN CB. ISOL MOD TURB BLW 6000FT FAR N. SN MON
ABOVE 1500FT.


ZONE 2: REST OF REGION.

GEN 40KM, WITH 1-4/8CUSC 3000FT/7000.
OCNL 5000M IN SHRA OR SHRAGS, WITH 5-7/8CB 2000FT/13000.
ISOL, 2000M IN HVY SHRASN OR TSGS, WITH 3/8ST 700FT/1500
AND 7/8CB 1500FT/18000.

WRNG: HILL FG. MOD ICE AND MOD TURB IN CLD. TS. SEV ICE
AND SEV TURB IN CB. OCNL MOD TURB BLW 6000FT N. SN MON
ABOVE 800FT.


OUTLOOK: UNTIL JAN  12/0100Z:

ISOL 200M FG LAN FM 19Z, OTHERWISE SIMILAR.
0000090400
822
FAUK45 EGRR 111000
AIRMET AREA FORECAST, SOUTHERN REGION,
VALID JAN  11/1100Z TO  11/1900Z.

MET-SITUATION: AT 12Z, AN OCCLUDED FRONT LIES N4500
W00500 TO LORIENT TO RENNES TO ROUEN AND IS GEN SLOW
MOVING BUT MOVING NE AT 15KT IN THE W. AT THE SAME TIME,
THE REGION LIES IN A LIGHT TO MOD NW AIRFLOW.

STRONG WIND WRNG: NIL.

WINDS:
1000FT: GEN 300-330/15KT BUT 130-150/20KT FAR W. PS04.
3000FT: GEN 300-330/20KT BUT 140-170/20KT FAR W. MS01 NE,
PS03 SW.
6000FT: GEN 280-310/25KT BUT 160-200/20KT FAR W. MS07 NE,
MS01 SW.

FREEZING LEVEL: 2500FT NE, 5500FT SW.

WEATHER-CONDITIONS:  AT 12Z:

WHOLE REGION:

GEN 30KM, WITH 1-5/8CUSC 3000FT/4000-6000.
ISOL LAN FM 17Z, 3000M IN BR, WITH 0-2/8SC 4000FT/5000.

WRNG: HILL FG. MOD ICE AND MOD TURB IN CLD.


OUTLOOK: UNTIL JAN  12/0100Z:

ISOL 200M FG/FZFG LAN. OTHERWISE, SIMILAR.
0000014400
823
SNVF51 EGRR 111000
BBXX
64045 11104 99591 70117 46/// /2917 10062 20001 40081 51024 22200
00096 10909 70045 333 90710 91126=
0000012800
824
SNVF51 EGRR 111000
BBXX
62105 11104 99550 70132 46/// /2508 10077 21011 40143 53014 22200
00107 10808 70040=
0000012800
825
SNVF51 EGRR 111000
BBXX
62107 11104 99501 70061 46/// /0104 10094 20032 40213 51021 22200
00104 11005 70023=
0000012800
826
SNVF51 EGRR 111000
BBXX
62001 11104 99452 70050 46/// /0607 10120 20071 40215 53027 22200
00128 10803 70016=
0000012800
827
SNVF51 EGRR 111000
BBXX
62301 11104 99524 70047 46/// /3013 10070 20019 40199 53032 22200
00096 10503 70016=
0000014400
828
SNVF51 EGRR 111000
BBXX
62163 11104 99475 70084 46/// /0818 10105 20071 40195 52013 22200
00121 10806 70031 333 90710 91125=
0000083600
829
SAUK63 EGRR 110950
METAR EGDM 110950Z 29007KT CAVOK 05/03 Q1019=
METAR EGDR 110950Z 01002KT 9999 FEW025 07/03 Q1020 NOSIG=
METAR EGDX 110950Z 33003KT 9999 FEW020 05/04 Q1019=
METAR EGQL 110950Z 25012KT 9999 FEW020 01/M01 Q1010 NOSIG=
METAR EGQM 110950Z AUTO 27014KT 9999 FEW160/// 04/M01 Q1012=
METAR EGUB 110950Z 16003KT 9999 FEW012 05/04 Q1018 NOSIG=
METAR EGVN 110950Z 25004KT 9999 FEW030 05/02 Q1018 NOSIG=
METAR EGVO 110950Z 27007KT CAVOK 05/03 Q1018=
METAR EGWU 110950Z 31006KT 9999 FEW020 06/03 Q1018 NOSIG=
METAR EGXC 110950Z 27009KT CAVOK 05/02 Q1015=
METAR EGXT 110950Z AUTO 27007KT 9999 NCD 04/03 Q1016=
METAR EGXV 110950Z AUTO 26009KT 9999 FEW080/// SCT120/// 04/02 Q1014=
METAR EGXW 110950Z 25008KT 9999 FEW033 05/02 Q1015=
METAR EGYD 110950Z 27012KT 9999 FEW018 04/02 Q1016 NOSIG=
0000010600
830
SAGI32 EGRR 110950
METAR LXGB 110950Z 06004KT 9999 FEW011 SCT025 BKN100 15/12 Q1019 NOSIG=
0000068900
831
UDEU02 EGRR 111002 RRB
AMDAR 1108
LVR EU9962   5938N 01409E 110855 F370 MS495 280/023 TB/ S031=
LVR EU9962   5902N 01528E 110902 F370 MS498 296/030 TB/ S031=
LVR EU9962   5824N 01645E 110909 F370 MS525 302/039 TB/ S031=
LVR EU9962   5745N 01801E 110916 F370 MS525 309/046 TB/ S031=
LVR EU9962   5704N 01914E 110923 F390 MS519 301/050 TB/ S031=
LVR EU9962   5622N 02021E 110930 F390 MS550 307/052 TB/ S031=
LVR EU9962   5542N 02134E 110937 F390 MS553 309/059 TB/ S031=
LVR EU9962   5503N 02252E 110944 F390 MS550 310/061 TB/ S031=
LVR EU9962   5412N 02341E 110951 F390 MS555 311/064 TB/ S031=
LVR EU9962   5318N 02411E 110958 F390 MS545 308/066 TB/ S031=
0000042900
832
UDNT02 EGRR 111002
AMDAR 1109
LVR EU0230   5900N 03956W 110922 F350 MS592 243/029 TB/ S031=
LVR EU0230   5915N 03807W 110929 F350 MS575 234/030 TB/ S031=
LVR EU0230   5928N 03615W 110936 F350 MS580 231/032 TB/ S031=
LVR EU0230   5940N 03423W 110943 F350 MS592 228/029 TB/ S031=
LVR EU0230   5949N 03230W 110950 F350 MS587 231/039 TB/ S031=
LVR EU0230   5958N 03033W 110957 F350 MS580 223/037 TB/ S031=
00000000