0000010000
793
SANP31 VNKT 110950
METAR VNKT 110950Z 25004KT 6000 SCT025 BKN100 13/04 Q1018 NOSIG=

0000010900
794
SAMX31 KWBC 101705 RRA
METAR MMMD 101723Z 13013KT 7SM BKN015TCU 27/20 A3000 RMK 8/200 HZY=

0000044200
795
SARH31 LDZM 101730
METAR LDSP 101730Z VRB02KT 9999 BKN048 12/09 Q1021 NOSIG =
METAR LDPL 101730Z 09004KT 9999 BKN053 11/09 Q1020 NOSIG =
METAR LDDU 101730Z 07006KT 9999 BKN057 11/09 Q1021 NOSIG =
METAR LDZA 101730Z 00000KT 9999 R23/0750VP2000D MIFG NSC 07/07 Q1020
BECMG 3000 =
METAR LDZD 101730Z 10004KT 9999 FEW030 09/09 Q1021 NOSIG =
METAR LDRI 101730Z NIL=
METAR LDOS 101730Z 19006KT 6000 NSC 05/04 Q1021=

0000082500
796
SATU31 LTAA 101720
METAR LTAC 101720Z VRB03KT 4900 BR OVC008 M03/M03 Q1022 NOSIG=
METAR LTAF 101720Z 29004KT 5000 HZ NSC 11/01 Q1020 NOSIG=
METAR LTAI 101720Z 35005KT 6000 FEW030 08/07 Q1021 BECMG TL1800 4000
 BR=
METAR LTAJ 101720Z 35003KT 300V360 CAVOK 04/M05 Q1020 NOSIG=
METAR LTAZ 101720Z NIL=
METAR LTBA 101720Z 24008KT 220V290 CAVOK 10/06 Q1018 NOSIG=
METAR LTBJ 101720Z 00000KT 6000 NSC 07/04 Q1020 NOSIG=
METAR LTBS 101720Z 02005KT CAVOK 09/08 Q1021 NOSIG=
METAR LTCG 101720Z 18003KT 6000 NSC 07/02 Q1017 TEMPO FM1800 3200 BR=
METAR LTCS 101720Z 03003KT CAVOK 07/M08 Q1021=
METAR LTFC 101720Z 00000KT 0300 R05/0375U R23/0400U FZFG VV001
 M02/M02 Q1021=
METAR LTFE 101720Z 17001KT 9999 FEW034 BKN200 11/08 Q1021 NOSIG=
METAR LTFJ 101720Z 22005KT CAVOK 10/01 Q1017 NOSIG=

0000055100
797
FCRO32 LROM 101700
TAF LRAR 101700Z 1018/1103 VRB04KT 5000 BR NSC BECMG 1019/1021 1500
BR BKN005 TEMPO 1023/1103 0600 FG OVC002=
TAF AMD LRBM 101610Z 1016/1024 VRB04KT 0800 FG VV002 TEMPO 1016/1020
0350 -DZ FG VV001=
TAF LRCL 101700Z 1018/1103 VRB04KT 5000 BR SCT035 TEMPO 1020/1103
1500 BR BKN005=
TAF LROD 101700Z 1018/1103 21010KT 5000 BR NSC BECMG 1018/1020 1500
BR BKN005 TEMPO 1022/1103 0600 FG OVC002=
TAF LRSM 101700Z NIL=
TAF LRTM 101700Z 1018/1103 VRB04KT 3000 BR BKN045 TEMPO 1020/1103
1500 BR BKN005=

0000024300
798
FCRO33 LROM 101700
TAF LRBC 101701Z 1018/1103 29006KT CAVOK TEMPO 1100/1103 3000 BR=
TAF LRCV 101700Z NIL=
TAF LRIA 101700Z 1018/1103 24005KT CAVOK TEMPO 1100/1103 3000 BR=
TAF LRSV 101700Z NIL=
TAF LRTC 101700Z NIL=

0000073300
799
FTRO31 LROM 101700
TAF LRBS 101700Z 1018/1118 25006KT 4000 BR NSC TEMPO 1023/1106 1500
BR BKN005 BECMG 1107/1109 9999 NSW=
TAF LRCK 101700Z 1018/1118 28020KT 1500 BR BKN005 PROB30 TEMPO
1018/1022 0800 FG BKN003 BECMG 1021/1023 29010KT TEMPO 1100/1105 0600
FG OVC002 BECMG 1105/1107 3000 BKN010 BECMG 1107/1110 CAVOK=
TAF LROP 101700Z 1018/1118 25006KT 5000 BR NSC TEMPO 1023/1106 1500
BR BKN005 BECMG 1107/1109 9999 NSW=
TAF LRSB 101700Z 1018/1118 29014KT 9999 BKN080 BECMG 1102/1104
VRB04KT TEMPO 1102/1107 5000 BR=
TAF LRTR 101700Z 1018/1118 VRB04KT 3000 BR NSC BECMG 1019/1021 0800
FG BKN002 PROB30 TEMPO 1100/1106 0350 FG OVC002 BECMG 1106/1108 3000
BR BKN010 BECMG 1109/1111 5000 BKN020=

0000056000
800
SATU32 LTAA 101720
METAR LTAG 101720Z 06003KT CAVOK 06/M01 Q1019 NOSIG=
METAR LTAN 101720Z NIL=
METAR LTAP 101720Z 25011KT CAVOK M01/M03 Q1020 NOSIG=
METAR LTAT 101720Z 22004KT CAVOK M06/M08 Q1021 NOSIG=
METAR LTAU 101720Z 25004KT 4800 BR SCT004 BKN200 M03/M04 Q1022 NOSIG=
METAR LTBF 101720Z NIL=
METAR LTBU 101720Z 28007KT 1600 BCFG BKN007 07/07 Q1018=
METAR LTCC 101720Z 28005KT CAVOK 01/M05 Q1020 NOSIG=
METAR LTCE 101720Z 29003KT 230V320 2500 BR NSC M21/M23 Q1022 NOSIG=
METAR LTCJ 101720Z 02004KT CAVOK M01/M03 Q1020=

0000008900
801
SATU35 LTAA 101720
METAR LCEN 101720Z 31006KT CAVOK 09/05 Q1020 NOSIG=

0000010600
802
SAAE33 VTBB 101700 RRA
METAR VVCR 101700Z 36009KT 9999 FEW017 SCT060 25/19 Q1017 NOSIG=

0000009500
803
SANO31 ENMI 101720 RRA
METAR ENAN 101720Z 11015KT CAVOK M05/M17 Q1015 NOSIG=

0000012200
804
SAIO31 KWBC 101700 RRE
METAR
FMMI 101730Z 32003KT 9999 VCTS FEW017CB BKN230 21/20 Q1021
     NOSIG=

0000010200
805
SAQB31 LQBK 101730
METAR LQBK 101730Z 35004KT 5000 -RA BR BKN047 06/05 Q1020 NOSIG=

0000008700
806
SAGR32 LGAT 101720 RRA
METAR LGEL 101720Z 03004KT CAVOK 11/08 Q1018=

0000025000
807
SANL32 EHDB 101725
METAR COR EHEH 101725Z AUTO 22008KT 9999 FEW013 BKN070 BKN081 05/04
Q1016 
BLU 23010KT  FEW013 SCT060 BECMG SCT010 BKN050=
METAR EHKD 101725Z AUTO 23010KT 9999 FEW200 07/05 Q1013 
BLU 22008KT 9999 FEW020=

0000028500
808
FARH41 LDZM 101800
LDZO GAMET VALID 101900/110100 LDZA-
LDZO ZAGREB FIR BLW FL100
SECN I
SFC VIS:  OCNL 500-5000M  FG,BR W, C, E,N
MT OBSC:  ALL MT PASSES C
SIG CLD:  LOC BKN 500/2000FT AMSL W,C,E,N
SIGMET APPLICABLE: CHECK AIRMET AND SIGMET INFORMATION=

0000010200
809
SPCN47 CWAO 101727
SPECI CYWA 101727Z AUTO 15004KT 9SM BKN015 OVC053 M07/M09 A3020=

0000078000
810
SPUS70 KWBC 101728
SPECI
KFOE 101724Z 13005KT 3/4SM R31/3500V4000FT BR VV002 02/02 A2965
     RMK AO2 T00220017=
KGRD 101724Z AUTO 36006KT 4SM -RA BR OVC003 06/05 A3026 RMK AO2
     P0004=
KIPT 101724Z 08006KT 6SM HZ BKN023 OVC031 00/M03 A3035 RMK AO2=
PAGK 101724Z AUTO 00000KT 2SM -SN BR OVC033 M09/M11 A2933 RMK AO2
     P0000 T10891106 TSNO=
KCEC 101725Z AUTO 16006KT 2SM BR OVC003 09/09 A3028 RMK AO2
     T00940094=
KFFT 101725Z AUTO 17007KT 10SM OVC007 09/08 A3012 RMK AO2
     T00890078=
KHIB 101725Z AUTO 17009KT 3SM BR OVC005 M06/M08 A2962 RMK AO2=
KSLK 101724Z AUTO 23008KT 3SM BR FEW009 SCT029 OVC070 M03/M06
     A3018 RMK AO2 SNE23 P0000=
KTQE 101725Z AUTO 16009KT 2SM BR OVC003 01/M01 A2964 RMK AO2
     T00111006=

0000010300
811
SPUS41 KWBC 101728
SPECI
KBDL 101724Z 14003KT 2 1/2SM -SN BR OVC009 M03/M05 A3041=

0000011400
812
SAMX34 MMMD 101727
METAR MMMD 101723Z SPECI 13013KT 7SM  BKN015TCU 27/20 A3000 RMK 8/200
HZY=

00000000