0000064900
493
FTUS43 KWBC 101745
TAF
KPIA 101744Z 1018/1118 15012G20KT 6SM BR VCTS OVC008CB
      TEMPO 1018/1020 2SM -TSRA BR
     FM102000 16012G20KT 2SM -RA BR VCTS OVC004CB
     FM110100 18012G20KT 2SM -RA BR OVC004
     FM110600 24012KT 3SM BR OVC004
     FM111400 26012G18KT P6SM OVC015=
KSGF 101742Z 1018/1118 17015G25KT 4SM SHRA BR BKN005 OVC010
      TEMPO 1019/1023 6SM -SHRA BR SCT005 OVC025
     FM102300 20015KT 6SM -SHRA BR VCTS SCT008 OVC020CB
      TEMPO 1023/1102 3SM SHRA BR OVC008CB
     FM110200 25011KT 6SM BR SCT008 OVC035
     FM110500 26010KT 2SM BR SCT005
     FM111400 26010G18KT P6SM SCT250=

0000032200
494
FTUS43 KWBC 101745 AAA
TAF AMD
KMLI 101743Z 1018/1118 14010KT 1 1/2SM -RA BR OVC003
     FM102300 17008KT 1SM -RA BR OVC002
     FM110200 18003KT 1/2SM -RA FG OVC002
     FM110800 26005KT 1SM -FZRASN BR OVC003
     FM111000 28011KT 2SM -SN BR OVC004
     FM111400 28011KT 4SM BR VCSH OVC006=

0000022200
495
FTUS44 KWBC 101745
TAF
KBIL 101743Z 1018/1118 27021G35KT P6SM SCT080 BKN200
     FM110200 27014G24KT P6SM SCT080 BKN200=
KLBB 101741Z 1018/1118 30014G24KT P6SM SKC
     FM110000 29007KT P6SM SKC=

0000110400
496
FTUS71 KWBC 101745
TAF
KAVP 101742Z 1018/1118 22005KT P6SM OVC035
     FM102100 22005KT P6SM SCT015 OVC020
      TEMPO 1022/1102 SCT009 BKN012
     FM110200 18004KT P6SM OVC009
     FM110600 15007KT 3SM -SHRA BR OVC008=
KBGM 101742Z 1018/1118 19008KT P6SM BKN035
     FM102000 19007KT P6SM SCT015 OVC022
      TEMPO 1022/1102 SCT009 BKN012
     FM110300 17008KT P6SM SCT007 OVC009
     FM110800 17012KT 4SM -SHRA OVC006=
TAF KECG 101740Z 1018/1118 15004KT P6SM OVC050
     FM102000 16006KT 5SM -RA BR OVC030
     FM110500 18008KT 4SM -DZ BR OVC010
     FM111400 18015G22KT 4SM BR BKN010=
KELM 101742Z 1018/1118 12006KT P6SM SCT015 BKN035
     FM102100 19008KT P6SM SCT015 OVC020
      TEMPO 1101/1104 BKN009
     FM110400 17010KT 6SM BR OVC009
      TEMPO 1108/1112 3SM -SHRA
     FM111300 13013KT 5SM -SHRA SCT009 OVC012=
KSYR 101742Z 1018/1118 15008KT P6SM SCT020 BKN035
      TEMPO 1018/1020 6SM BR BKN025
     FM102300 18006KT P6SM SCT015 OVC022
     FM110700 18010KT 4SM -SHRA OVC012
     FM111200 13014KT 6SM -SHRA SCT008 OVC011=

0000031300
497
FCDN31 EKCH 101700
TAF EKRK 101740Z 1018/1103 27015KT 9999 SCT012 BKN020 TEMPO 
1018/1021 SHRA BKN008 BKN015TCU TEMPO 1021/1103 BKN008=
TAF EKEB 101740Z 1018/1023 26015KT 9999 BKN025=
TAF EKRN 101740Z 1018/1022 28020KT 9999 BKN025 TEMPO 1018/1022 
27020G30KT 4000 SHRA BKN008 SCT015TCU=

0000147300
498
FTUS72 KWBC 101745
TAF
KABQ 101741Z 1018/1118 30007KT P6SM FEW100
     FM101930 30018G28KT P6SM SCT120
     FM110200 33010KT P6SM SCT250
     FM110600 34004KT P6SM SCT250=
KAHN 101743Z 1018/1118 05007KT 2SM -RADZ BR OVC004
     FM110400 09003KT 1SM -RADZ BR OVC003
     FM111400 19008KT 2SM -SHRA BR OVC005=
KAMA 101740Z 1018/1118 34014KT P6SM SKC
     FM101900 32020G35KT P6SM SKC
     FM102300 28008KT P6SM SKC=
KATL 101743Z 1018/1124 08008KT 1 1/2SM -DZ BR OVC003
     FM110100 11008KT 1/2SM -RADZ FG OVC002
     FM110900 16009KT 1SM -RADZ BR OVC003
     FM111400 20009G18KT 2SM -SHRA OVC006
     FM111900 27013G22KT P6SM BKN025
     FM112100 27014G23KT P6SM SCT035=
KBFM 101743Z 1018/1118 03004KT P6SM FEW010 BKN030 OVC040
     FM102100 14010KT P6SM BKN005 OVC015
     FM110400 16012KT 4SM SHRA BR OVC005
      TEMPO 1106/1109 3SM -TSRA BKN005CB
     FM111500 27012KT 5SM BR OVC007=
KCSG 101743Z 1018/1118 09008KT 2SM -DZ BR OVC003
     FM110000 15007KT 1SM -RADZ BR OVC003
     FM111200 18008KT 1SM SHRA BR OVC005
     FM111700 26010G19KT 3SM -SHRA BR OVC007=
KFTY 101743Z 1018/1118 08005KT 1 1/2SM -DZ BR OVC004
     FM110100 11005KT 1/2SM -RADZ FG OVC002
     FM110900 16007KT 1SM -RADZ BR OVC003
     FM111400 20009KT 2SM -SHRA OVC006=
KGUP 101741Z 1018/1118 25012KT P6SM SCT100
      TEMPO 1020/1024 25014G24KT
     FM110200 29010KT P6SM SCT150
     FM111000 VRB05KT P6SM SCT250=

0000116700
499
FTUS72 KWBC 101745 RRA
TAF
KLBB 101741Z 1018/1118 30014G24KT P6SM SKC
     FM110000 29007KT P6SM SKC=
KMCN 101743Z 1018/1118 04006KT 4SM -RADZ OVC004
     FM110500 14004KT 1SM -RADZ BR OVC002
     FM111200 18010KT 1SM -SHRA BR OVC004
     FM111700 23011G20KT 2SM SHRA OVC007=
KMOB 101743Z 1018/1118 12004KT 4SM BR SCT006 BKN022 OVC030
     FM102100 14010KT P6SM BKN005 OVC015
     FM110400 16012KT 4SM SHRA BR OVC005
      TEMPO 1106/1109 3SM -TSRA BKN005CB
     FM111500 27012KT 5SM BR OVC007=
KPDK 101743Z 1018/1118 08005KT 1 1/2SM -DZ BR OVC004
     FM110100 11005KT 1/2SM -RADZ FG OVC002
     FM110900 16007KT 1SM -RADZ BR OVC003
     FM111400 20009KT 2SM -SHRA OVC006=
KPNS 101743Z 1018/1118 07003KT 6SM BR OVC005
     FM102100 14010KT P6SM BKN005 OVC015
     FM110500 16012KT 4SM SHRA BR OVC005
      TEMPO 1107/1110 3SM -TSRA BKN005CB
     FM111500 27012KT 5SM BR OVC007=
KROW 101741Z 1018/1118 30015G25KT P6SM SKC
     FM110100 28010KT P6SM SKC=
KTCC 101741Z 1018/1118 27017KT P6SM SKC
     FM102100 29024G30KT P6SM FEW150
     FM110100 27018G20KT P6SM SKC
     FM110300 28014KT P6SM SKC=

0000137100
500
FTUS73 KWBC 101745
TAF
KCMI 101744Z 1018/1118 14010KT 4SM BR OVC015
      TEMPO 1018/1020 2SM -RA BR
     FM102000 16012G20KT 2SM -RA BR VCTS OVC004CB
     FM110100 18012G20KT 2SM -RA BR OVC004
     FM110600 24012KT 3SM BR OVC004
     FM111400 26012G18KT P6SM OVC015=
KDEC 101744Z 1018/1118 16012G20KT 4SM BR VCTS OVC007CB
      TEMPO 1018/1020 2SM -RA BR
     FM102000 17012G20KT 2SM -RA BR VCTS OVC004CB
     FM110100 18012G20KT 2SM -RA BR OVC004
     FM110600 24012KT 3SM BR OVC004
     FM111400 26012G18KT P6SM OVC015=
KJLN 101742Z 1018/1118 17015G27KT 6SM -SHRA BR FEW005 SCT015
      OVC040
      TEMPO 1018/1021 SCT007 OVC015
     FM102100 22012G20KT 6SM -SHRA BR VCTS SCT008 OVC035CB
      TEMPO 1021/1023 4SM -SHRA BR SCT008 OVC020
     FM110000 24011KT 6SM BR FEW008 BKN035
     FM110300 24010KT 6SM BR SCT007 BKN250
     FM111400 25010G18KT P6SM FEW250=
KLOZ 101742Z 1018/1118 VRB03KT P6SM OVC021
     FM102000 20005KT P6SM SCT015 OVC050
     FM110000 20005KT P6SM VCSH SCT015 OVC050
     FM110700 18008KT 4SM -RA BR OVC015=
KPIA 101744Z 1018/1118 15012G20KT 6SM BR VCTS OVC008CB
      TEMPO 1018/1020 2SM -TSRA BR
     FM102000 16012G20KT 2SM -RA BR VCTS OVC004CB
     FM110100 18012G20KT 2SM -RA BR OVC004
     FM110600 24012KT 3SM BR OVC004
     FM111400 26012G18KT P6SM OVC015=

0000032200
501
FTUS73 KWBC 101745 AAA
TAF AMD
KMLI 101743Z 1018/1118 14010KT 1 1/2SM -RA BR OVC003
     FM102300 17008KT 1SM -RA BR OVC002
     FM110200 18003KT 1/2SM -RA FG OVC002
     FM110800 26005KT 1SM -FZRASN BR OVC003
     FM111000 28011KT 2SM -SN BR OVC004
     FM111400 28011KT 4SM BR VCSH OVC006=

0000065300
502
FTUS73 KWBC 101745 RRA
TAF
KSGF 101742Z 1018/1118 17015G25KT 4SM SHRA BR BKN005 OVC010
      TEMPO 1019/1023 6SM -SHRA BR SCT005 OVC025
     FM102300 20015KT 6SM -SHRA BR VCTS SCT008 OVC020CB
      TEMPO 1023/1102 3SM SHRA BR OVC008CB
     FM110200 25011KT 6SM BR SCT008 OVC035
     FM110500 26010KT 2SM BR SCT005
     FM111400 26010G18KT P6SM SCT250=
KSPI 101744Z 1018/1118 16014G22KT 4SM BR VCTS OVC004CB
      TEMPO 1018/1020 2SM -TSRA BR
     FM102000 17014G22KT 2SM -RA BR VCTS OVC004CB
     FM110100 18014G22KT 2SM -RA BR OVC004
     FM110600 24012KT 3SM BR OVC004
     FM111400 26012G18KT P6SM OVC015=

0000115900
503
FTUS74 KWBC 101745
TAF
KBIL 101743Z 1018/1118 27021G35KT P6SM SCT080 BKN200
     FM110200 27014G24KT P6SM SCT080 BKN200=
KLMT 101742Z 1018/1118 22010G18KT P6SM BKN050 BKN150
     FM110400 18006KT P6SM BKN050 BKN080
     FM111200 20020G30KT P6SM BKN035 OVC050=
KLVM 101743Z 1018/1118 22033G40KT P6SM VCSH BKN060 OVC150
     FM110400 23036G45KT P6SM BKN080=
KMFR 101742Z 1018/1118 34003KT 4SM BR OVC005
     FM102200 34005KT P6SM BKN035 OVC080
     FM110400 15006KT P6SM SCT025 OVC050
     FM111000 15010KT P6SM VCSH SCT025 OVC040 WS020/20050KT
     FM111400 16015G25KT P6SM VCSH BKN025 OVC040=
KMLS 101743Z 1018/1118 25010KT P6SM SCT040 OVC150
     FM101900 25015G25KT P6SM SCT040 OVC150
     FM110300 25012KT P6SM SCT080 BKN200=
KOTH 101742Z 1018/1118 17006KT P6SM -SHRA BKN024 OVC050
     FM102000 20012G18KT P6SM -SHRA FEW010 BKN018 OVC025
     FM110000 20018G28KT P6SM -RA OVC020
     FM110300 20025G35KT 4SM -RA BR OVC015
     FM111200 21028G40KT 2SM RA BR OVC012=
KSHR 101743Z 1018/1118 18010KT P6SM SKC
     FM101900 30015G25KT P6SM SCT080 BKN200
     FM110200 VRB06KT P6SM SCT080 BKN200=

0000159800
504
SAFC21 OEJD 110500
METAR
OEAB 110500Z 22008KT 9999 BKN010 SCT015 12/11 Q1025 NOSIG=
OEAH 110500Z 16008KT 9999 RA BKN050 SCT100 14/12 Q1019 RERA  NOSIG=
OEAO NIL=
OEBA 110500Z 31006KT 0100 FG SCT030 11/10 Q1022 NOSIG=
OEBH 110500Z 30003KT CAVOK 12/09 Q1020 NOSIG=
OEDF 110500Z 16010KT 9999 SCT040 BKN090 15/11 Q1019 NOSIG=
OEDM 110500Z 33005KT CAVOK 08/05 Q1021=
OEDR 110500Z 24008KT 9999 BKN040 OVC080  15/12 Q1019 NOSIG=
OEGN 110500Z 17009KT 9999 FEW030 SCT100 27/22 Q1016 NOSIG=
OEGS 110500Z 33010KT CAVOK 10/07 Q1020=
OEGT 110500Z 26002KT 9999 SCT030 BKN100 07/04 Q1022 NOSIG=
OEHL 110500Z 30002KT 9999 SCT045 07/03 Q1021 NOSIG=
OEJN 110500Z 03008KT 9999 FEW040 18/10 Q1018 NOSIG=
OEKJ 110500Z 15008KT 7000 FEW030 BKN080 12/10 Q1021=
OEKK NIL=
OEKM 110500Z 21006KT 9999 BKN020 12/09 Q1024 NOSIG=
OEMA 110500Z 03004KT 7000 SKC 12/01 Q1023 NOSIG=
OEMK 110500Z 03002KT CAVOK 17/11 Q1017=
OENG 110500Z 22004KT 9999 FEW030 BKN090 14/02 Q1020 NOSIG=
OEPA NIL=
OERF 110500Z 28009KT CAVOK 09/06 Q1018=
OERK 110500Z 18007KT 7000 SCT040 BKN080 12/10 Q1020 TEMPO 5000 RA=
OERR 110500Z 32009KT 9999 BKN040 06/05 Q1019 NOSIG=
OERY NIL=
OESH 110500Z 21006KT 9999 FEW040 17/05 Q1018 NOSIG=
OESK 110500Z 30014KT 9999 BKN010 SCT040 07/02 Q1021 NOSIG=
OETB 110500Z 00000KT 6000 NSC 04/01 Q1023 NOSIG=
OETF 110500Z VRB02KT 5000 BR SCT010 FEW030 08/07 Q1022 NOSIG=
OETR 110500Z 31014KT 6000 BR SCT020 BKN030 OVC100 03/03 Q1020=
OEWD NIL=
OEWJ 110500Z 01006KT 9999 FEW030 13/08 Q1021 NOSIG=
OEYN 110500Z 00000KT CAVOK 13/08 Q1018 NOSIG=
0000182200
505
SASD20 OEJD 110500
METAR OEAB 110500Z 22008KT 9999 BKN010 SCT015 12/11 Q1025 NOSIG=
METAR OEAH 110500Z 16008KT 9999 RA BKN050 SCT100 14/12 Q1019 RERA  NOSIG=
METAR OEAO 110500Z NIL=
METAR OEBA 110500Z 31006KT 0100 FG SCT030 11/10 Q1022 NOSIG=
METAR OEBH 110500Z 30003KT CAVOK 12/09 Q1020 NOSIG=
METAR OEDF 110500Z 16010KT 9999 SCT040 BKN090 15/11 Q1019 NOSIG=
METAR OEDM 110500Z 33005KT CAVOK 08/05 Q1021=
METAR OEDR 110500Z 24008KT 9999 BKN040 OVC080  15/12 Q1019 NOSIG=
METAR OEGN 110500Z 17009KT 9999 FEW030 SCT100 27/22 Q1016 NOSIG=
METAR OEGS 110500Z 33010KT CAVOK 10/07 Q1020=
METAR OEGT 110500Z 26002KT 9999 SCT030 BKN100 07/04 Q1022 NOSIG=
METAR OEHL 110500Z 30002KT 9999 SCT045 07/03 Q1021 NOSIG=
METAR OEJN 110500Z 03008KT 9999 FEW040 18/10 Q1018 NOSIG=
METAR OEKJ 110500Z 15008KT 7000 FEW030 BKN080 12/10 Q1021=
METAR OEKK 110500Z NIL=
METAR OEKM 110500Z 21006KT 9999 BKN020 12/09 Q1024 NOSIG=
METAR OEMA 110500Z 03004KT 7000 SKC 12/01 Q1023 NOSIG=
METAR OEMK 110500Z 03002KT CAVOK 17/11 Q1017=
METAR OENG 110500Z 22004KT 9999 FEW030 BKN090 14/02 Q1020 NOSIG=
METAR OEPA 110500Z NIL=
METAR OERF 110500Z 28009KT CAVOK 09/06 Q1018=
METAR OERK 110500Z 18007KT 7000 SCT040 BKN080 12/10 Q1020 TEMPO 5000 RA=
METAR OERR 110500Z 32009KT 9999 BKN040 06/05 Q1019 NOSIG=
METAR OERY 110500Z NIL=
METAR OESH 110500Z 21006KT 9999 FEW040 17/05 Q1018 NOSIG=
METAR OESK 110500Z 30014KT 9999 BKN010 SCT040 07/02 Q1021 NOSIG=
METAR OETB 110500Z 00000KT 6000 NSC 04/01 Q1023 NOSIG=
METAR OETF 110500Z VRB02KT 5000 BR SCT010 FEW030 08/07 Q1022 NOSIG=
METAR OETR 110500Z 31014KT 6000 BR SCT020 BKN030 OVC100 03/03 Q1020=
METAR OEWD 110500Z NIL=
METAR OEWJ 110500Z 01006KT 9999 FEW030 13/08 Q1021 NOSIG=
METAR OEYN 110500Z 00000KT CAVOK 13/08 Q1018 NOSIG=
0000010200
506
SASD32 OEJD 110500
METAR OETF 110500Z VRB02KT 5000 BR SCT010 FEW030 08/07 Q1022 NOSIG=
0000010100
507
SPUS31 KWBC 101749
SPECI
KEWR 101745Z 00000KT 3SM BR SCT009 OVC029 01/M01 A3040=

0000009000
508
SPUS42 KWBC 101749
SPECI
KBPT 101745Z 13009KT 9SM OVC006 18/15 A2996=

0000009800
509
SPUS42 KWBC 101749
SPECI
KOPF 101745Z 14015KT 10SM SCT021 SCT026 27/22 A3011=

0000009400
510
SPUS43 KWBC 101749
SPECI
KGRR 101745Z 17010KT 3SM BR OVC006 01/M01 A3000=

0000011700
511
SPCN52 CWAO 101749
SPECI CWFD 101749Z AUTO 19014KT 1 5/8SM CLR M21/ A2876 RMK VSBY VRBL
0.6V7.0=

0000061300
512
SAUK20 EGGY 101750
METAR EGRE 101750Z AUTO 04015KT 9999 FEW022/// SCT026/// OVC043///
     08/01 Q0999 W///S5=
METAR EGRK 101750Z AUTO 27012KT 9999 FEW018/// 07/04 Q0999 W///S4=
METAR EGRM 101750Z AUTO 24016KT 9999 NCD 07/04 Q1001 W///S4=
METAR EGRO 101750Z AUTO 26023KT 9999 SCT014/// BKN019/// 07/04 Q1002
     W///S4=
METAR EGRP 101750Z AUTO 24024KT 9999 OVC016/// ///// Q1003 W///S4=
METAR EGRS 101750Z AUTO 24023KT 9999 BKN017/// 08/05 Q1003 W///S4=
METAR EGRV 101750Z AUTO 22025KT 9999 NCD 07/05 Q1009 W///S4=
METAR EGRW 101750Z AUTO 21023KT 9999 NCD 07/05 Q1010 W///S3=

00000000