0000094600
493
SACI32 ZBBB 102000
METAR ZGKL 102000Z VRB01MPS 1600 -RA BR FEW008 OVC026 07/06 Q1025
NOSIG=
METAR ZGNN 102000Z 04002MPS 2000 -RA BR FEW008 SCT011 OVC020
12/11
Q1021 NOSIG=
METAR ZGOW 102000Z VRB01MPS 6000 NSC 12/09 Q1025 NOSIG=
METAR ZGSZ 102000Z 08003MPS 4000 BR SCT020 14/10 Q1024 NOSIG=
METAR ZLXY 102000Z 00000MPS 2500 HZ NSC M03/M07 Q1030 NOSIG=
METAR ZMUB 102000Z VRB01MPS 5000NW FU NSC M34/M38 Q1025 NOSIG
RMK
QFE660.8 66 NT=
METAR ZPPP 102000Z 21005MPS CAVOK 05/01 Q1021 NOSIG=
METAR ZSAM 102000Z VRB01MPS 9999 OVC030 13/08 Q1025 NOSIG=
METAR ZSFZ 102000Z 36003MPS 310V040 9999 BKN025 11/05 Q1027 NOSIG=
METAR ZSNB 102000Z 14001MPS 6000 NSC 05/03 Q1030 NOSIG=
METAR ZSQD 102000Z 00000MPS 3500 BR NSC M04/M06 Q1033 BECMG TL2130
2500=
METAR ZUGY 102000Z 04002MPS 010V080 6000 -RA FEW003 BKN010
OVC026
01/00 Q1024 NOSIG=
METAR ZUUU 102000Z 32001MPS 4500 BR SCT040 06/02 Q1027 NOSIG=

0000009000
494
SPUS42 KWBC 102007
SPECI
KNEW 102003Z 12007KT 8SM OVC004 14/12 A2999=

0000015000
495
SACA32 KWBC 102000 RRA
METAR
MTPP 2000Z 08013KT 9999 FEW030 32 Q1014/7 A29/96=
TJPS 101950Z 11010G15KT 10SM SCT030 30/22 A3000=

0000015700
496
SAIO31 KWBC 102000 RRA
METAR
FMCZ 102000Z NIL=
FMEE 102000Z AUTO 12010KT 9999 NSC 25/22 Q1016=
VYMD 102000Z NIL=
VYYY 102000Z NIL=

0000010200
497
SAPA31 KWBC 102000 RRA
METAR
PKMJ 101957Z 06015KT 15SM FEW015 BKN300 28/23 A2978=

0000016200
498
SAAF18 LFPW 102000 RRA
METAR FMEE 102000Z AUTO 12010KT 9999 NSC 25/22 Q1016=
METAR FMMI 102000Z 36002KT 9999 FEW017 BKN230 19/19 Q1021 NOSIG=

0000009800
499
SAAF20 LFPW 102000 RRA
METAR FAGG 102000Z AUTO VRB02KT 9999 FEW039 16/12 Q1020=

0000027700
500
SAAF21 LFPW 102000 RRA
METAR FALA 102000Z 19005KT CAVOK 24/11 Q1018 NOSIG=
METAR FAMM 102000Z AUTO 22005KT //// // ////// 24/06 Q1017=
METAR FAPE 102000Z 24018KT 9999 FEW018 19/15 Q1017 NOSIG=
METAR FAUP 102000Z AUTO 24003KT //// // ////// 24/05 Q1015=

0000008400
501
SAAG41 SAZS 102000
METAR SAZS 102000Z  29022KT CAVOK 19/01 Q1017=

0000009100
502
SAFP20 LFVP 102000
METAR LFVP 102000Z 26024KT 9999 BKN026 M04/M09 Q1025=

0000012700
503
SARA31 RUMS 102000
METAR UEEE 102000Z 23002MPS 5000 -SN BR OVC200 M43/M48 Q1034 NOSIG
RMK QFE767 23490145=

0000013900
504
SARA35 RUMS 102000
METAR USCM 102000Z 15003MPS 4500 -SN VV006 M06/M07 Q1008 TEMPO 1000
SHSN VV003 19490532 RMK QFE718=

0000095200
505
SARS35 RUMS 102000
METAR USPP 102000Z 14003MPS 5000 IC FEW017 SCT076 M06/M07 Q1007
21290250 NOSIG RMK QFE744/0993=
METAR UWKD 102000Z 15004MPS 0900 R11/P1500 FZFG VV002 M00/M00 Q1004
R11/2/0050 TEMPO 0500 FZFG RMK QBB080 QFE743/0991=
METAR UWKE 102000Z 00000MPS 5000 BR OVC003 M04/M05 Q1005 TEMPO 0500
FZFG VV002 RMK  QBB100 QFE737/0983 21420542=
METAR UWKS 102000Z 17005MPS 1600 BR OVC002 00/M00 Q1001 NOSIG RMK
QBB070 QFE737 24290250=
METAR UWLW 102000Z 19004MPS 5000 BR OVC007 00/00 Q1006 20820550 NOSIG
RMK QFE749=
METAR UWOR 102000Z 18005MPS 4000 -SN OVC016 M02/M03 Q1009 25450245
NOSIG RMK QFE733/09784=
METAR UWOO 102000Z 13002MPS 2000 SN OVC005 M02/M03 Q1008 08590332
TEMPO 1000 SN RMK QBB150 QFE746/0994=
METAR UWSS 102000Z 19004MPS 6000 OVC005 01/00 Q1008 3019//55 NOSIG
RMK   QFE742=
METAR UWWW 102000Z 19003MPS 3800 BR BKN011 OVC100 M01/M02 Q1007
23520540 33//99// NOSIG RMK QFE744/0992=

0000045100
506
SARA33 RUMS 102000
METAR UIAA 102000Z 00000MPS 9999 FEW050CB SCT100 M21/M25 Q1022 NOSIG
RMK QFE708 29CLRD70=
METAR UIBB 102000Z 08001MPS 5000 BR FEW003 M23/M25 Q1028 TEMPO 0300
FG VV002 RMK QFE728/0970 30490530=
METAR UIII 102000Z 22001MPS 9999 FEW050CB SCT100 OVC200 M14/M16 Q1031
NOSIG RMK QFE728/0971 30490340=
METAR UIUU 102000Z 27003MPS 250V310 5000 -SN SCT033 OVC100 M12/M14
Q1028 NOSIG RMK QFE726/0968 26490842=

0000030300
507
SARS31 RUMS 102000
METAR ULWC 102000Z NIL=
METAR UUBP 102000Z NIL=
METAR UUOB 102000Z 24006G09MPS 7000 -RA OVC011 03/03 Q1000 29290050
NOSIG=
METAR UUOK 102000Z NIL=
METAR UWGG 102000Z 16007MPS 2000 SN OVC005 01/00 Q0995 TEMPO 1000
SHSNRA VV004 18620145 RMK QBB160 QFE739=

0000050400
508
SARS33 RUMS 102000
METAR ULLI 102000Z 00000MPS 5000 -RASN BKN005 OVC013 01/01 Q0983
60////// 10620245 NOSIG RMK OBST OBSC=
METAR UUBW 102000Z 20005MPS 9999 OVC007 04/02 Q0989 NOSIG=
METAR UUDD 102000Z 20006MPS 9999 OVC005 03/03 Q0989 64290195 14290194
NOSIG=
METAR UUDL 102000Z NIL=
METAR UUEE 102000Z 20004MPS 5000 -DZ BR OVC005 04/03 Q0987 75290151
25290151 NOSIG=
METAR UUWW 102000Z 20004MPS 9999 BKN006 OVC023 03/03 Q0988 24290045
NOSIG=
METAR UUMO 102000Z NIL=

0000092700
509
SARS32 RUMS 102000
METAR URKA 102000Z 19009G13MPS 9999 BKN024 09/06 Q1012 RMK
QFE755/1007=
METAR URKK 102000Z 00000MPS CAVOK 03/01 Q1012 NOSIG RMK QFE756 SC065=
METAR URML 102000Z 17003MPS 9999 SKC M00/M02 Q1018 NOSIG RMK
QFE763/1018 SC070=
METAR URMM 102000Z 26002MPS 9999 SKC M02/M02 Q1014 12CLRD70 NOSIG RMK
QFE732/0977=
METAR URMN 102000Z 20003MPS 9999 SCT260 02/M04 Q1015 NOSIG RMK QFE724
SC06=
METAR URMO 102000Z NIL=
METAR URMT 102000Z 19005MPS CAVOK 01/M01 Q1012 NOSIG RMK QFE721
SC0.60=
METAR URRR 102000Z 22004MPS 9999 -RA FEW008 OVC016 06/06 Q1010
22290045 TEMPO 0800 FG OVC002=
METAR URSS 102000Z 04005MPS 9999 BKN230 04/M00 Q1017 NOSIG RMK
R06/09006MPS QFE761 02000070 06//////=
METAR URWA 102000Z 23003MPS 9999 OVC036 04/01 Q1017 NOSIG RMK
QFE764/1019 SC055=
METAR URWI 102000Z NIL=
METAR URWW 102000Z 21005MPS 9999 OVC026 02/00 Q1010 NOSIG RMK
29190060=

0000095600
510
SARA34 RUMS 102000
METAR UNAA 102000Z 21004MPS CAVOK M05/M10 Q1029 NOSIG RMK QFE749
20090040=
METAR UNBB 102000Z 21007MPS 7000 -SN DRSN BKN019 M08/M10 Q1030 NOSIG
RMK QFE749/0999 24424042=
METAR UNEE 102000Z 20006MPS 2600 -SN OVC007 M08/M09 Q1026 NOSIG RMK
QFE746 23451050=
METAR UNKL 102000Z VRB02G05MPS 9999 -SHSN SCT021CB BKN083 M08/M12
Q1026 NOSIG RMK QFE743 29////55=
METAR UNNT 102000Z 21006MPS 9000 -SHSN DRSN SCT016 OVC030CB M07/M09
Q1027 25490139 16390136 NOSIG RMK QFE760/1013=
METAR UNOO 102000Z 23006MPS 8000 SCT016 BKN026CB M06/M08 Q1021
25390137 NOSIG RMK QFE758=
METAR UNTT 102000Z 21007MPS 1400 R21/P1500D SHSN FEW008 SCT016CB
OVC066 M07/M08 Q1023 NOSIG RMK QFE752=
METAR USTR 102000Z 17004MPS 8000 -SHSN BKN013 OVC017CB M04/M04 Q1012
TEMPO 1500 SHSN BKN005 RMK QFE749/0999 21390045 12750029=
METAR USHH 102000Z 04002MPS 9999 SCT015 OVC080 M22/M25 Q1016 TEMPO
BKN007 RMK QFE758 06////37=

0000056400
511
SARA36 RUMS 102000
METAR UWUU 102000Z 17002MPS 140V200 4500 -SN OVC008 M02/M03 Q1007
14650440 TEMPO 1000 SN FZRA BKN003 RMK QFE745/0993=
METAR USCC 102000Z 16004MPS 5000 -SHSN BR BKN010CB OVC070 M05/M06
Q1010 09490350 TEMPO 1100 SHSN BKN005 RMK QFE737=
METAR USNN 102000Z 00000MPS 9999 SCT013 OVC065 M11/M12 Q1016 NOSIG
RMK QFE758 03420242=
METAR USRR 102000Z 07001MPS 7000 SCT047 M27/M30 Q1017 NOSIG RMK
QFE758 07////35=
METAR USSS 102000Z 14002MPS 5000 -SN BKN007 BKN011 OVC067 M03/M04
Q1008 08590230 TEMPO BKN004 RMK QFE736=

0000067800
512
SARA32 RUMS 102000
METAR UHBB 102000Z 00000MPS CAVOK M32/M35 Q1022 NOSIG RMK QFE749/0998
36410160=
METAR UHHH 102000Z 23007MPS CAVOK M26/M32 Q1018 NOSIG RMK QFE757/1009
23090060=
METAR UHMA 102000Z 36006MPS 9999 SCT080 M15/M21 Q1012 NOSIG RMK
QFE755/1007=
METAR UHMD 102000Z NIL=
METAR UHMM 102000Z 04004MPS 9999 FEW200 M17/M27 Q1006 RMK QFE740
88820555=
METAR UHPP 102000Z VRB01MPS 9999 BKN033 BKN100 M05/M11 Q0992 NOSIG
RMK QFE740/0987 SC05 055 055=
METAR UHSS 102000Z 02001MPS 5000 FU SCT031 M21/M23 Q1013 NOSIG RMK MT
OBSC QFE758/1011 01810366=
METAR UHWW 102000Z VRB01MPS 9999 SKC M24/M27 Q1027 NOSIG RMK
QFE769/1025 25CLRD70=

00000000