0000114100
933
FTUS80 KWBC 101757 CCA
TAF COR
KBWG 101754Z 1018/1118 17008KT P6SM OVC010
     FM110200 19014G22KT 4SM -SHRA BR OVC008
     FM111300 24012G18KT P6SM SCT020 BKN150=
KCOE 101754Z 1018/1118 22013G21KT P6SM SCT020 BKN050 OVC100
     FM102300 23011KT P6SM SCT025 OVC120
     FM110300 20007KT 6SM -SHRA SCT008 OVC012
     FM110600 20010KT 6SM -RA OVC006
     FM110700 20012KT 6SM RA BR OVC008 WS020/21040KT
     FM111200 20025G35KT P6SM -RA BKN010 OVC025 AMD LTD TO CLD VIS
      AND WIND=
KJLN 101755Z 1018/1118 18015G27KT 6SM -SHRA BR FEW005 SCT020
      OVC050
      TEMPO 1018/1021 SCT007 OVC020
     FM102100 22012G20KT 6SM -SHRA BR VCTS SCT008 OVC035CB
      TEMPO 1021/1023 4SM -SHRA BR SCT008 OVC020
     FM110000 24011KT 6SM BR FEW008 BKN035
     FM110300 24010KT 6SM BR SCT007 BKN250
     FM111400 25010G18KT P6SM FEW250=
KSFF 101753Z 1018/1118 23012G18KT P6SM SCT025 SCT060 BKN150
     FM102200 22009KT P6SM SCT030 BKN040 OVC120
     FM110300 22009KT 6SM -RA SCT007 OVC012
     FM110700 20010KT 5SM RA OVC015 WS020/21040KT
     FM111100 20025G35KT P6SM -RA BKN010 OVC030=

0000044500
934
FTUS80 KWBC 101757 AAA
TAF AMD
KAUG 101754Z 1018/1118 22004KT 6SM -SHSN BR OVC040
      TEMPO 1018/1020 1 1/2SM -SN BKN025
     FM110300 21003KT 4SM BR BKN080
     FM110800 VRB03KT 4SM -FZDZ BR BKN020
     FM111100 04003KT 1 1/2SM -FZRA BR OVC007
     FM111600 15004KT 1/2SM -RA FG OVC004=
KJCT 101756Z 1018/1118 23012G18KT P6SM SCT025 BKN120
     FM102000 24012G18KT P6SM SKC
     FM110000 VRB03KT P6SM SKC=

0000010600
935
SAUK36 EGGY 101750 RRB
METAR EGWU 101750Z 21008KT 9999 FEW040 BKN080 09/05 Q1013 NOSIG=

0000010900
936
SASW32 LSSW 101750 RRA
METAR LSZL 101750Z AUTO VRB02KT 9999NDV BKN045 06/04 Q1020 RMK WHT=

0000023000
937
SANL32 EHDB 101755
METAR EHEH 101755Z AUTO 21006KT 9999 OVC011 05/04 Q1016 
GRN 23010KT  FEW013 SCT060 BECMG SCT010 BKN050=
METAR EHKD 101755Z AUTO 23011KT 9999 SCT180 07/05 Q1013 
BLU 22008KT 9999 FEW020=

0000010700
938
SABW31 VGHS 101750
METAR VGHS 101750Z 00000KT 1200 BR NSC 16/13 Q1015 TEMPO S/VIS 1000M=

0000054600
939
SADR31 MDSD 101800
METAR
METAR MDPP 101800Z 12016KT 9999 SCT020 28/22 Q1018=
METAR MDST 101800Z 10008KT 8000 VCRA SCT018 SCT070 24/23 Q1018 RERA=
METAR MDPC 101800Z 11012KT 9999 FEW022 27/21 Q1018=
METAR MDBH 101800Z 13010KT 9999 FEW023 31/21 Q1016=
METAR MDJB 101800Z 05010KT 9999 SCT020 31/22 Q1017=
METAR MDSD 101800Z 12010KT 9999 SCT022 32/24 Q1016=
METAR MDLR 101800Z 07018KT 9999 SCT022 29/21 Q1016=
METAR MDCY 101800Z 04010KT 9999 SCT020 29/24 Q1017=
METAR MDAB 101800Z 09005KT 9999 BKN022 27/24 Q1018=

0000010900
940
SAPM31 MPTO 101800
METAR 
MPTO 101800Z 05008KT 9999 SCT018TCU SCT100  31/21 Q1009 NOSIG=

0000013200
941
SPUS41 KWBC 101753
SPECI
KBDL 101749Z 00000KT 1SM R06/3500VP6000FT -SN BR SCT009 BKN013
OVC023 M03/M04 A3039=

0000010800
942
SPUS44 KWBC 101753
SPECI
KBFI 101749Z 18011G23KT 10SM SCT019 BKN090 OVC110 09/05 A3008=

0000065400
943
SAFI31 EFHK 101750
METAR EFHK 101750Z 34016KT 9999 -SN FEW007 SCT012 BKN015 M00/M01
Q0989 TEMPO BKN012=
METAR EFJY 101750Z AUTO 35008KT 9999 OVC010 M06/M07
 Q0993=
METAR EFKU 101750Z AUTO 03010KT 9999 -SG OVC014 
M07/M09 Q0995=
METAR EFOU 101750Z AUTO 06009KT 020V090 9999 -SN OVC035/// M11/M13 
Q1003=
METAR EFRO 101750Z AUTO 04018KT 7000 OVC110 M15/M17
 Q1007=
METAR EFTP 101750Z AUTO 02007KT 9999 -SG FEW009 
OVC014 M02/M02 Q0993=
METAR EFTU 101750Z AUTO 01008KT 9999 -SG OVC008/// 00/M01 Q0992 
R08/29//95=
METAR EFVA 101750Z AUTO 03007KT 360V060 8000 SG FEW013/// OVC025/// 
M07/M08 Q0998 R16/41//95=

0000050000
944
SAUK31 EGGY 101750
METAR EGBB 101750Z 19007KT CAVOK 07/06 Q1010=
METAR EGCC 101750Z 18011KT 9999 -RA FEW029 SCT037 BKN047 07/05
    Q1009=
METAR EGKK 101750Z 22006KT 190V250 9000 -RA FEW008 BKN019 08/07
    Q1014=
METAR EGLL 101750Z 21009KT 180V250 CAVOK 08/06 Q1013=
METAR EGPF 101750Z 23005KT CAVOK 04/03 Q1006=
METAR EGPH 101750Z 24006KT CAVOK 05/03 Q1005=
METAR EGPK 101750Z 15002KT 9999 FEW028 05/03 Q1006=
METAR EGSS 101750Z 19008KT 9999 FEW017 07/05 Q1013=

0000047000
945
SAUK32 EGGY 101750
METAR EGAA 101750Z 22003KT CAVOK 04/03 Q1007=
METAR EGAC 101750Z 28009KT 240V310 9999 FEW010 SCT025 06/03
    Q1007=
METAR EGFF 101750Z NIL=
METAR EGGW 101750Z 19006KT 150V210 9999 FEW009 07/06 Q1012=
METAR EGLC 101750Z 21008KT 9999 FEW021 10/06 Q1014=
METAR EGNM 101750Z 21004KT 140V270 9999 SCT015 07/05 Q1007=
METAR EGNX 101750Z 22016KT 9999 FEW035 07/05 Q1010=
METAR EGPD 101750Z 27005KT CAVOK 06/03 Q1003 NOSIG=

0000045300
946
SAUK33 EGGY 101750
METAR EGGD 101750Z 19007KT 160V220 9999 SCT018 08/06 Q1011=
METAR EGGP 101750Z 17007KT 140V220 9999 FEW029 SCT040 08/06
    Q1008=
METAR EGHI 101750Z 19004KT 9999 FEW013 07/06 Q1014 =
METAR EGNS 101750Z NIL=
METAR EGNT 101750Z 21009KT 180V240 9999 FEW030 08/05 Q1005=
METAR EGNV 101750Z 18009KT 9999 SCT023 08/04 Q1007=
METAR COR EGPB 101750Z 25019KT 9999 -SHRA FEW018 SCT043 07/04 Q0999
     NOSIG=

0000038400
947
SAUK34 EGGY 101750
METAR EGHE 101750Z NIL=
METAR EGHK 101750Z NIL=
METAR EGHQ 101750Z 20010KT 9999 FEW020 09/07 Q1012=
METAR EGJA 101750Z 18014KT 9999 BKN004 08/08 Q1015=
METAR EGJB 101750Z 19008KT 9999 FEW015 09/07 Q1015=
METAR EGJJ 101750Z 16010KT 4000 BR BKN003 07/06 Q1015 TEMPO 2000
    BKN002=
METAR EGTE 101750Z 20009KT 9999 FEW045 09/07 Q1012=

0000048900
948
SAUK35 EGGY 101750
METAR EGHH 101750Z 21007KT 9999 FEW014 SCT042 09/08 Q1013=
METAR EGKA 101750Z 22013KT 9999 SCT010 09/07 Q1014=
METAR EGKB 101750Z 21010KT 9999 VCSH SCT030 07/06 Q1014 =
METAR EGLF 101750Z 19009KT CAVOK 08/06 Q1013=
METAR EGMC 101750Z 20010KT 9999 FEW007 BKN022 08/06 Q1014=
METAR EGMD 101750Z 23014KT 9999 FEW009 SCT019 09/07 Q1015=
METAR EGMH 101750Z 20011KT 9999 FEW022 07/06 Q1015 =
METAR EGTC 101750Z 21009KT 9999 FEW022 08/06 Q1012=

0000039400
949
SAUK36 EGGY 101750
METAR EGBE 101750Z 19008KT CAVOK 07/05 Q1011=
METAR EGBJ 101750Z NIL=
METAR EGCN 101750Z 18012KT CAVOK 07/05 Q1010=
METAR EGSC 101750Z 18007KT 9999 FEW025 SCT040 07/05 Q1012=
METAR COR EGSD 101750Z 20009KT CAVOK 07/06 Q1012 NOSIG=
METAR COR EGSH 101750Z 19007KT 170V230 CAVOK 07/05 Q1012 NOSIG=
METAR EGVN 101750Z NIL=
METAR EGWU 101750Z NIL=

0000049200
950
SAUK37 EGGY 101750
METAR EGAE 101750Z 21006KT CAVOK 06/04 Q1007=
METAR EGNC 101750Z 20009KT 9000 -RA SCT008 BKN014 07/06 Q1005=
METAR EGNH 101750Z 16013KT 9999 BKN029 08/07 Q1007=
METAR EGNJ 101750Z 20012KT CAVOK 07/05 Q1009=
METAR EGNO 101750Z NIL=
METAR EGNR 101750Z 15011KT 9999 SCT030 09/07 Q1008=
METAR EGPE 101750Z 20006KT 9999 FEW045 03/00 Q1003=
METAR EGPI 101750Z 31007KT 9999 FEW020 03/01 Q1006=
METAR EGPN 101750Z 30003KT 9999 FEW048 05/05 Q1004=

0000041900
951
SAUK38 EGGY 101750
METAR EGEC 101750Z NIL=
METAR EGEO 101750Z NIL=
METAR EGPA 101750Z 24009KT 9999 FEW012 05/03 Q1000=
METAR EGPC 101750Z 23011KT 9999 FEW025 04/01 Q1001=
METAR EGPL 101750Z AUTO 25018KT 9999 // FEW038/// 06/M01 Q1003=
METAR COR EGPM 101750Z 19009KT 9999 FEW010 06/04 Q0998 NOSIG=
METAR EGPO 101750Z 21007KT 9999 VCSH FEW009 FEW018CB 04/03 Q1002=
METAR EGPU 101750Z NIL=

0000059100
952
FTTH33 VTBB 101700 RRB
TAF  VTUO  101700Z 1018/1118 06005KT 9999 FEW030
     BECMG 1021/1023 04005KT 7000 FEW030
     BECMG 1101/1103 06005KT 9000 FEW030=
TAF  VTUQ  101700Z 1018/1118 06005KT 8000 FEW030
     BECMG 1021/1023 09005KT 6000 FEW030
     BECMG 1101/1103 06005KT 8000 FEW030=
TAF  VTUV  101700Z 1018/1118 03005KT 9999 FEW030
     BECMG 1021/1023 06005KT 7000 FEW030
     BECMG 1101/1103 04005KT 9000 FEW030=
TAF  VTUJ  101700Z 1018/1118 03005KT 9000 FEW030
     BECMG 1021/1023 04005KT 6000 FEW030
     BECMG 1101/1103 04005KT 8000 FEW030=

00000000