0000011000
213
UANT01 CWAO 110357
ARP AFR055 4726N04313W 0357 F400 MS55 303/51 KT
FHPJF QXT AOE 110357 J30A
0000011000
214
UANT01 CWAO 110358
ARP DAL78 5020N03346W 0357 F390 MS52 211/43 KT
N855NW DDL XXW 110358 J97A
0000011100
215
UANT01 CWAO 110358
ARP DAL408 4433N04736W 0357 F350 MS63 323/64 KT
N172DN QXT AOW 110358 F97A
0000015700
216
SSVX13 LFPW 110400
ZZYY 64667 11014 0400/ 763169 029208 6113/ 11119 49951 52011 22219
 00063 444 20130 11014 0400/ 50101 80154 80002 9/015=
0000011000
217
UANT01 CWAO 110358
ARP DAL38 4720N03837W 0358 F340 MS50 285/26 KT
N834MH QXT AOW 110358 F40A
0000037700
218
FTIN90 VEPT 110407
TAF VEPT 110300Z 1106/1212 00000KT 0500 FG SCT020 FEW030CB BKN100 OVC250 BECMG 1109/1112 1000 MIFG SCT020 FEW030CB BKN100 BECMG 1203/1206 0500 FG BECMG 1209/1212 1200 BR=

TAF VEGY 110300Z 1106/1212 00000KT 0500 FG SCT020 FEW030CB BKN100 OVC250 BECMG 1109/1112 1000 MIFG SCT020 FEW030CB BKN100 BECMG 1203/1206 0500 FG BECMG 1209/1212 1200 BR=
0000009200
219
SAIN90 VOCI 110400
METAR VOCI 110400Z 09003KT 4000 HZ NSC 26/19 Q1015 NOSIG=
0000172800
220
SIIN63 VOMM 110300
AAXX 11034
42182 31992 02705 10082 20082 40187 74442
  333 10202 20071 58010
  555 10000=
42807 31995 00000 10178 20151 40177 71000
  333 20132 59003
  555 10000=
43057 31995 10000 10184 20047 40164 70500 80001
  333 20160 58021
  555 10000=
43128 31496 71404 10202 20177 39547
40161 70522 84530 333 10292 20188 56290 58007
84615 85360 555 10000=
43266 32496 60212 10276 20238 40144 83360 333 10309 20256
57981 58012 555 10000=
43279 31597 30000 10234 20197 30153 40171 70500 82501 333 10306
20197 58004 82620 555 10001=
43295 31997 30902 10184 20158 39130 48531 70500 80001
333 10297 20169 58003 83075 555 10000=
43311 32597 50505 10276 20238 40135 85400 333 10334 20264
58007 85620 555 10000=
43314 32597 51403 10256 20220 40141 83501 333 10345 20246
58008 555 10000=
43315 31996 10503 10254 20218 40138 70500 80001 333 10336
20234 58006 555 10000=
43320 31996 10904 10240 20222 40141 70522 80001 333 10320
20222 58009 555 10000=
43335 NIL=
43336 31996 00000 10248 20208 40147 70500 333 10337 20220
58010 555 10000=
43337 NIL=
43352 32597 40000 10250 20220 40136 81101 333 10320 20230
58006 555 10000=
43353 31995 40703 10256 20207 40147 70100 83071 333 10330 20216 56099
58007 82458 555 10000=
43354 32597 30000 10246 20206 40141 83500 333 10335 20210
58009 555 10000=
43355 32997 00000 10240 20193 40173 333 10342 20223 58000
555 10000=
43357 NIL=
43369 32597 33602 10278 20255 40129 82502 333 10315 20263
58006 82620 555 10002=
43371 31996 00000 10238 20223 30064 40137 70500 333 10320
20222 58009 555 10013=
43372 31595 10000 10264 20219 40138 70500 81500 333 10309
20229 58014 81618 555 10010=

0000011000
221
UANT01 CWAO 110358
ARP SAS946 6055N03116W 0358 F370 MS55 201/23 KT
LNRKN DDL XXW 110358 J01A
0000011100
222
UANT01 CWAO 110358
ARP AAL174 5047N03641W 0358 F350 MS55 217/26 KT
N349AN DDL XXW 110358 F14A
0000011000
223
UANT01 CWAO 110358
ARP BAW5CA 5146N03645W 0358 F340 MS55 225/27 KT
GVIIY QXT AOW 110358 F12A
0000036600
224
SSVX08 KARS 110358
ZZYY 14041 11014 0300/ 307896 055084 6113/
11119 10267 29086
444 20130 11014 0215/ 521//=
ZZYY 14042 10014 1200/ 312115 054867 6112/
33311 88872 20001 32895 43493 20020 32890 43496 20040 32831 43501
20060 32667 43500 20080 32517 20100 32301 20120 32122 20140 31954
20180 31707 20500 30944
444 20120 10014 1144/ 521//=
0000011100
225
UANT01 CWAO 110358
ARP DAL402 4644N04132W 0358 F370 MS50 307/46 KT
N173DZ QXT AOW 110358 F67A
0000011100
226
UANT01 CWAO 110359
ARP UAL952 5547N05345W 0359 F350 MS61 288/88 KT
N642UA DDL YHO 110359 F21A
0000011000
227
UANT01 CWAO 110359
ARP DLH439 5504N04255W 0358 F350 MS59 303/30 KT
DAIKK QXT AME 110359 J64A
0000047100
228
SNAU06 AMMC 110400
AAXX 11044
94850 154// 72416 10176 20133 30155 40200 55000 60001=
94951 15/// /0513 10211 20145 30114 40129 55009 60001=
94954 15/// /2518 10157 20128 30077 40187 51001 60001=
94956 154// 82812 10171 20130 30155 40181 53006 60001=
94975 11781 31615 10224 20099 30093 40125 56012 60001 70511 81102=
94983 15/// /0210 10179 20136 30118 40142 58009 60001=
94998 11570 83037 10067 20033 39844 49854 55004 69921 78082 888//=

0000037800
229
SATS40 DTTA 110400
METAR DTKA NIL=
METAR DTMB 110400Z 19006KT CAVOK 11/06 Q1018 NOSIG=
METAR DTNH 110400Z 20002KT CAVOK 06/05 Q1018=
METAR DTTA 110400Z 00000KT 4000 BR SCT010 08/07 Q1018 NOSIG=
METAR DTTF NIL=
METAR DTTJ 110400Z 16005KT 7000 NSC 11/09 Q1019 NOSIG=
METAR DTTR NIL=
METAR DTTX NIL=
METAR DTTZ 110400Z 27005KT 9999 FEW030 09/04 Q1020 NOSIG=
0000012500
230
SACN31 CWAO 110400
METAR CYQY 110400Z 21005KT 15SM FEW030 FEW084 FEW210 M05/M07 A3026
RMK CU1AC1CI1 SLP250=
0000009600
231
SACN48 CWAO 110400
METAR CYPX 110400Z 23006KT 15SM SKC M24/M26 A2973 RMK SLP073=
0000065500
232
SAIR31 OIII 110400
METAR OIAW 110400Z 12008KT 5000 BR FEW030CB SCT020 OVC090 11/10
Q1019=
METAR OIFM 110400Z 24004KT 0100 FG FEW040 BKN100
     M06/M06 Q1020 A3013=
METAR OIII 110400Z 06004KT 9999 FEW040 SCT100 BKN200 02/M06 Q1020
 A3015 NOSIG=
METAR OIKB 110400Z 34006KT 9999 FEW030 SCT090 BKN200 12/06 Q1022
A3019 NOSIG=
METAR OIKK 110400Z NIL=
METAR OIMM 110400Z 00000KT 7000 FEW035 BKN180 M01/M10 Q1022 A3018=
METAR OISS 110400Z 26004KT 2500 BR FEW030CB FEW035 OVC080 01/M00
Q1023 A3022 RESN=
METAR OITT 110400Z 06006KT 6000 NSC M11/M14 Q1021 A3016=
METAR OIZH 110400Z 00000KT CAVOK M01/M04 Q1023 A3021 NOSIG=
00000000