0000018800
153
FTCN33 CWAO 101700
TAF CYQH 101738Z 1018/1106 VRB03KT P6SM BKN030 TEMPO 1018/1024 4SM
     -SN OVC020
    FM110000 VRB03KT P6SM BKN060
    RMK NXT FCST BY 110000Z=

0000019500
154
FTCN33 CWAO 101700
TAF CYMA 101738Z 1018/1106 24003KT P6SM -SN SCT040 OVC070 TEMPO
     1018/1106 5SM -SN OVC030
     BECMG 1102/1104 01005KT
    RMK NXT FCST BY 110000Z=

0000029500
155
FTCN33 CWAO 101700
TAF CYRB 101738Z 1018/1118 32010KT P6SM -SN OVC025 TEMPO 1018/1106
     4SM -SN OVC020
     BECMG 1022/1024 25008KT
    FM110600 25008KT P6SM SCT020 BKN040 TEMPO 1106/1115 5SM IC BKN020
    FM111500 13010KT P6SM FEW020
    RMK NXT FCST BY 110000Z=

0000013500
156
FTCN33 CWAO 101700
TAF CYGH 101738Z 1018/1024 FCST NOT AVBL DUE NO OBS
    RMK NXT FCST WILL BE ISSUED AT 111515Z=

0000016500
157
FTCN33 CWAO 101700
TAF CYWJ 101738Z 1018/1024 31007KT P6SM -SN BKN080 TEMPO 1018/1024
     3SM -SN
    RMK NXT FCST WILL BE ISSUED AT 111515Z=

0000013700
158
FTCN33 CWAO 101700
TAF CYDA 101738Z 1018/1024 VRB03KT P6SM FEW040 SCT100
    RMK NXT FCST WILL BE ISSUED AT 111645Z=

0000014600
159
FTCN33 CWAO 101700
TAF CYRT 101738Z 1018/1106 35015KT P6SM IC SKC
     BECMG 1019/1021 32008KT
    RMK NXT FCST BY 110000Z=

0000023900
160
FTCN33 CWAO 101700
TAF CYHY 101738Z 1018/1106 00000KT 2SM -SN OVC030 TEMPO 1018/1024
     P6SM -SN
     BECMG 1019/1021 29010KT
    FM110000 29010KT P6SM SCT030 TEMPO 1100/1106 BKN030
    RMK NXT FCST BY 110000Z=

0000022200
161
FTCN33 CWAO 101700
TAF CYZF 101738Z 1018/1118 09005KT 2SM -SN OVC012 TEMPO 1018/1024
     P6SM -SN SCT012 OVC030
    FM110000 32007KT P6SM SCT030 TEMPO 1100/1118 BKN030
    RMK NXT FCST BY 110000Z=

0000019800
162
FTCN33 CWAO 101700
TAF CYOC 101738Z 1018/1102 VRB03KT P6SM IC FEW015 SCT030 TEMPO
     1018/1021 3SM -SN BKN015
    FM102100 VRB03KT P6SM SCT030
    RMK NXT FCST BY 110000Z=

0000013800
163
FTCN33 CWAO 101700
TAF CYHK 101738Z 1018/1106 27012KT P6SM FEW150 TEMPO 1018/1106 5SM IC
    RMK NXT FCST BY 110000Z=

0000015000
164
FTCN33 CWAO 101700
TAF CYVQ 101738Z 1018/1106 28010KT P6SM -SN OVC080 TEMPO 1018/1106
     5SM -SN
    RMK NXT FCST BY 110000Z=

0000015900
165
FTCN33 CWAO 101700
TAF CYDB 101738Z 1018/1106 VRB03KT P6SM FEW015 OVC040 TEMPO 1018/1022
     5SM BR BKN012
    RMK NXT FCST BY 110000Z=

0000018000
166
FTCN36 CWAO 101700
TAF CYFB 101738Z 1018/1118 VRB03KT P6SM FEW100
    FM110300 33005KT P6SM FEW020 TEMPO 1103/1114 4SM IC BKN020
    RMK NXT FCST BY 110000Z=

0000020500
167
FTCN33 CWAO 101700
TAF CYXY 101738Z 1018/1106 VRB03KT P6SM SCT020 OVC060 TEMPO 1018/1023
     5SM -SN BR FEW005 BKN020
    FM110000 VRB03KT P6SM BKN040
    RMK NXT FCST BY 110000Z=

0000011100
168
SPCN46 CWAO 101737
SPECI CYSP 101737Z 21012G18KT 170V250 15SM DRSN OVC018 RMK SC8 CIG
RAG=

0000136500
169
FTUS31 KWBC 101739
TAF
KBHM 101735Z 1018/1118 12007KT 3SM -DZ BR OVC005
     FM110400 18013G20KT 2SM -RA BR OVC004=
KFLL 101735Z 1018/1118 14014G23KT P6SM SCT020 BKN250
     FM110000 13008KT P6SM FEW020 BKN050 OVC100
     FM111500 17015G22KT P6SM SCT025 BKN050=
KMIA 101735Z 1018/1118 12013KT P6SM SCT020 BKN220
     FM110000 12007KT P6SM FEW025 SCT050 OVC100
     FM111500 15015G22KT P6SM SCT025 BKN050=
KOAK 101738Z 1018/1124 VRB03KT P6SM SCT200
     FM101900 26012KT P6SM SCT200
     FM110200 29007KT P6SM BKN250
     FM110900 24005KT P6SM OVC010=
KORD 101736Z 1018/1124 15010KT 2SM BR OVC003
     FM102100 16011KT 1SM RA BR OVC004
     FM110300 20012KT 2SM -DZ BR VCSH OVC004
     FM110800 22012KT 3SM BR OVC004
     FM111200 26012G18KT P6SM OVC012
     FM111500 28014G22KT P6SM BKN018=
KPBI 101735Z 1018/1118 13010KT P6SM VCSH SCT025 BKN035 BKN100
      TEMPO 1018/1020 BKN025
     FM110300 13008KT P6SM SCT025 BKN050
     FM111400 16015G25KT P6SM SCT025 BKN050=
KPHX 101738Z 1018/1118 22004KT P6SM FEW250
     FM102000 25005KT P6SM FEW250
     FM110500 10005KT P6SM FEW250=
KPIT 101738Z 1018/1124 17005KT 6SM BR BKN006 OVC015
     FM102100 18008KT P6SM OVC012
     FM110900 18010KT 5SM -RA OVC015
     FM111300 18010KT 4SM -RA OVC009
     FM111800 20009KT P6SM VCSH BKN015 OVC025=

0000060400
170
FTUS41 KWBC 101739
TAF
KAGC 101738Z 1018/1118 18007KT P6SM BKN015 OVC025
     FM102100 18008KT P6SM OVC015
     FM110900 18009KT 5SM -RA OVC015
     FM111300 18011KT 4SM -RA OVC009=
KCRW 101737Z 1018/1118 13005KT 6SM BR SCT030 OVC050
     FM111000 16010KT 5SM -SHRA OVC050
     FM111400 23012G22KT 4SM -SHRA OVC020
     FM111700 22011G19KT 6SM -SHRA OVC025=
KHTS 101737Z 1018/1118 16004KT 6SM BR OVC016
     FM102000 13005KT 6SM BR OVC022
     FM110800 16010G19KT 4SM -RA OVC025
     FM111400 21012G22KT 3SM -RA OVC015
     FM111700 22012G21KT 6SM -RA OVC015=

0000149800
171
FTUS43 KWBC 101739
TAF
KAZO 101736Z 1018/1118 16007KT 1 1/2SM BR OVC004
     FM102000 16007KT 2SM -PL BR OVC009
     FM102200 16012KT 2SM RA BR OVC009
     FM110300 17012G19KT 1/2SM -RA FG OVC003
     FM111000 20010KT 1SM BR OVC003=
KDLH 101736Z 1018/1118 19011KT 3/4SM -FZDZSN BR OVC002
     FM102200 20007KT 2SM -FZDZSN BR OVC004
     FM110200 20005KT 1SM -SN BR OVC003
     FM110700 26004KT 3SM BR OVC002
     FM111500 29009KT P6SM BKN014=
KGRB 101737Z 1018/1118 18008KT 2SM BR OVC006
     FM102200 15008KT 2SM -SNPL BR OVC006
      TEMPO 1022/1101 1SM -SN BR OVC004
     FM110100 14006KT 2SM -FZRA BR OVC005
     FM110400 14003KT 1SM -FZRA BR OVC004
     FM110800 27005KT 2SM -SN BR OVC006
      TEMPO 1109/1112 1SM -SN BR=
KGRR 101736Z 1018/1118 16009KT 2SM BR OVC006
     FM102030 14008KT 1SM RA BR OVC005
     FM102200 14010KT 2SM RA BR OVC009
     FM110100 16012G19KT 1 1/2SM RA BR OVC005
     FM110500 18010G16KT 1SM -RA BR OVC003
     FM111000 20009KT 1SM BR OVC003=
KINL 101736Z 1018/1118 19006KT 2SM BR OVC006
     FM102000 18007KT 4SM BR OVC009
      TEMPO 1021/1101 2SM -SN BR OVC007
     FM110100 18006KT 1SM -SN BR OVC004
     FM110800 27004KT 3SM BR OVC003
     FM111300 29008KT P6SM OVC006=
KMDW 101736Z 1018/1118 15010KT 2SM BR OVC003
     FM102100 16011KT 1SM RA BR OVC004
     FM110300 20012KT 2SM -DZ BR VCSH OVC004
     FM110800 22012KT 3SM BR OVC004
     FM111200 26012G18KT P6SM OVC012=

0000031600
172
FTUS31 KWBC 101739 RRA
TAF
KSFO 101738Z 1018/1124 30005KT P6SM OVC006
     FM101900 31006KT P6SM SCT200
     FM102200 29012KT P6SM FEW012 BKN200
     FM110300 29006KT P6SM FEW012 BKN250
      TEMPO 1103/1105 BKN012
     FM110500 27004KT P6SM OVC010
     FM111700 23012KT P6SM BKN100=

00000000