0000008900
133
SABZ21 SBFZ 101800
METAR SBFZ 101800Z 09013KT 9999 SCT025 30/21 Q1009=

0000009100
134
SAFP20 LFVP 101800
METAR LFVP 101800Z 26021KT 9999 BKN026 M03/M09 Q1025=

0000009600
135
SPAU32 AMMC 101802
SPECI YMHB 101800Z 00000KT 9999 SCT009 BKN014 16/14 Q1013=

0000052400
136
SPUS70 KWBC 101802
SPECI
KCGF 101800Z 20010KT 4SM HZ BKN008 OVC020 04/00 A3015=
KEWR 101758Z 02003KT 2 1/2SM BR BKN009 OVC029 01/M01 A3040 RMK AO2
     TWR VIS 3=
KSUX 101759Z 16009KT 1 1/4SM R31/3500V5000FT BR OVC003 M01/M01
     A2961 RMK AO2 T10061006=
KAFN 101759Z AUTO 19008KT 3SM -SN BR OVC009 M03/M04 A3032 RMK AO2
     P0000 T10281044=
KLWC 101759Z AUTO 13005KT 2SM BR OVC003 04/03 A2962 RMK AO2 PRESFR
     T00390028=
KUGN 101759Z 14008KT 3/4SM BR OVC002 00/M01 A2988 RMK AO2=

0000010500
137
SPUS31 KWBC 101802
SPECI
KEWR 101758Z 02003KT 2 1/2SM BR BKN009 OVC029 01/M01 A3040=

0000011200
138
SASR31 WSSS 101800
METAR WSSS 101800Z 02004KT 310V050 9999 FEW018 BKN300 25/23 Q1011
NOSIG=

0000012700
139
SACN62 CYPW 101800
METAR CYPW 101800Z 00000KT 25SM BKN035 BKN080 OVC220 02/02 A2997 RMK
 SC5AC2CI1 SLP154=

0000009500
140
SATU31 LTAA 101750 RRA
METAR LTAZ 101750Z 10005KT 9999 BKN009 M01/M02 Q1022=

0000026300
141
SACZ31 LKPW 101800
METAR LKKV 101800Z 25007KT 9999 BKN044 03/M01 Q1016=
METAR LKMT 101800Z 21007KT CAVOK 02/M01 Q1017 NOSIG=
METAR LKPR 101800Z 23013KT CAVOK 04/M01 Q1017 NOSIG=
METAR LKTB 101800Z 23004KT 190V250 CAVOK 04/M02 Q1018 NOSIG=

0000038500
142
SAPL31 EPWA 101800
METAR EPGD 101800Z 29015KT 9999 -SHRA FEW009 BKN013CB
    05/03 Q1003 =
METAR EPKK 101800Z 24013KT 9999 SCT040 BKN053 05/01
    Q1015 =
METAR EPLL 101800Z 27017G31KT 9999 SCT028 BKN034 06/01
    Q1010 =
METAR EPPO 101800Z 26018KT CAVOK 06/01 Q1011 R10/19//95 =
METAR EPRZ 101800Z 26020KT CAVOK 06/00 Q1012 =
METAR EPWA 101800Z NIL=

0000011000
143
SAPR76 SPIM 101800 RRA
METAR SPHY 101800Z 28005KT 9000 SCT012 SCT040 15/11 Q1031 RMK PP000=

0000047500
144
SAPL32 EPWA 101800
METAR EPBY 101800Z 26018KT 9999 SCT022 BKN032 OVC039
    06/03 Q1007 =
METAR EPKT 101800Z 24016KT 9999 SCT040 05/M00 Q1014 =
METAR EPLB 101800Z 26021KT 9999 SCT027 BKN033 06/02
    Q1006 =
METAR EPMO 101800Z 26023KT 9999 FEW023 BKN034 06/03
    Q1006 =
METAR EPSC 101800Z 25011KT 9999 SCT021 BKN023 06/03
    Q1010 =
METAR EPWR 101800Z 27012KT 9999 BKN043 07/M01 Q1015 =
METAR EPZG 101800Z 25014KT CAVOK 07/00 Q1013 =

0000035400
145
SAIL31 BICC 101800
METAR BIAR 101800Z 28006KT 190V350 9999 BKN027 03/M02 Q0996=
METAR BIEG 101800Z 10034G46KT 8000 RASN BKN016 BKN035 01/M01 Q0996
RMK
R04/290095 RWY SANDED=
METAR BIKF 101800Z 27013KT 9999 VCSH FEW011 SCT028 BKN039 01/00 
Q0989=
METAR BIRK 101800Z 19011KT 5000 RASN FEW009 SCT014 OVC022 01/M01
    Q0989=

0000010400
146
SAIL41 BIHN 101800
METAR
BIHN 101800Z 08030G47KT 8000 RA BKN012 OVC020 04/// Q0993=

0000052800
147
SAYG31 LYBM 101800
METAR LYBE 101800Z 21006KT 7000 NSC 07/06 Q1022 NOSIG=
METAR LYBT 101800Z VRB02KT 5000 BR NSC 06/06 Q1022 NOSIG=
METAR LYKV 101800Z VRB02KT 9999 BKN033 08/M01 Q1022 NOSIG=
METAR LYNI 101800Z VRB01KT 9999 FEW043 08/02 Q1022 NOSIG=
METAR LYPG 101800Z 30003KT 9999 FEW040 SCT080 09/08 Q1021 NOSIG=
METAR LYPR 101800Z NIL=
METAR LYTV 101800Z VRB01KT 9999 FEW043 10/09 Q1021=
METAR LYUZ 101800Z VRB02KT 8000 BKN020 04/03 Q1021=
METAR LYVR 101800Z 20003KT CAVOK 05/02 Q1021 NOSIG=

0000011100
148
FCDN32 EKCH 101800
TAF EKSB 101800Z 1018/1022 26012KT 9999 BKN020 TEMPO 1020/1022 
BKN012=

0000011100
149
FCDN34 EKCH 101800
TAF EKGF 101800Z 1018/1022 26020KT 9999 SCT020 TEMPO 1020/1022 
BKN012=

0000009600
150
SPAU32 YBBN 101802
SPECI YMHB 101800Z 00000KT 9999 SCT009 BKN014 16/14 Q1013=

0000009500
151
SAVG31 TVSV 101800
METAR TVSV 101800Z 09016KT 9999 FE020 SCT038 28/23 Q1014=

0000033800
152
SAIE31 EIDB 101800
METAR EIDW 101800Z 28005KT 9999 -RA SCT013 BKN030 05/05 Q1008 NOSIG=
METAR EINN 101800Z 17002KT 9999 FEW018 SCT050 03/02 Q1010 NOSIG=
METAR EICK 101800Z 29007KT 260V330 9999 FEW017 SCT032 05/02 Q1010
     NOSIG=
METAR EIKN 101800Z 26005KT 9999 FEW018CB SCT024 BKN055 03/02 Q1008
     NOSIG=

00000000