0000068200
273
SASN33 ESWI 101950
METAR ESNG 101950Z 03009KT CAVOK M16/M19 Q1011=
METAR ESNK 101950Z 33012KT 9999 -SN OVC018 M10/M15 Q1004=
METAR ESNN 101950Z AUTO 34011KT 9999NDV SG BKN022/// M10/M13 Q1003
RESN R16/49/79=
METAR ESNO 101950Z AUTO 36011KT 4400 -SN SCT021/// BKN055///
OVC082/// M12/M14 Q1002=
METAR ESNQ 101950Z AUTO 01006KT 9999NDV -SN VV004 M16/M17 Q1011=
METAR ESNS 101950Z 35013KT 1200 R10/1500P SN VV008 M12/M13 Q1004=
METAR ESNU 101950Z 34015KT 6000 -SN OVC018 M11/M14 Q1003 R14/49//50=
METAR ESNZ 101950Z VRB01KT 9999 -SN FEW019 BKN031 M15/M17 Q1002=
METAR ESUT 101950Z AUTO VRB08G25KT 360V360 9999 BKN074/// OVC100///
M13/M19 Q1003=

0000057200
274
SASN34 ESWI 101950
METAR ESCF 101950Z AUTO 02003KT 9999NDV -SN BKN008/// OVC013/// 
M02/M03 Q1002=
METAR ESDF 101950Z AUTO VRB02KT 9999NDV SCT019/// BKN034/// 01/00 
Q1004=
METAR ESIB 101950Z AUTO 18003KT 9999NDV BKN016/// OVC060/// 00/M01 
Q1001=
METAR ESMV 101950Z NIL=
METAR ESPA 101950Z 02009KT 1800 1100// R14/P1500N R32/P1500N SN 
VV027 M13/M15 Q1008=
METAR ESPE 101950Z AUTO 01009KT 6000NDV -SN FEW042/// SCT052/// 
OVC064/// M14/M17 Q1008=
METAR ESSL 101950Z 02004KT 9999 BKN009 OVC013 M03/M04 Q1002 RESG
RESN R29/19//95=

0000029700
275
SASN35 ESWI 101950
METAR ESGR 101950Z NIL=
METAR ESKM 101950Z NIL=
METAR ESNL 101950Z NIL=
METAR ESNX 101950Z NIL=
METAR ESNY 101950Z NIL=
METAR ESSF 101950Z NIL=
METAR ESSK 101950Z NIL=
METAR ESUD 101950Z AUTO 36004KT 9999 -SN FEW021/// OVC027/// M14/M17
Q1006=

0000011300
276
SAVN23 SVBC 102000
METAR SVBC 102000Z NIL=
METAR SVMT 102000Z NIL=
METAR SVHG 102000Z NIL=

0000017600
277
SAUS71 KWBC 101900 RRH
METAR
KAGS 101949Z 33005KT 2SM -RA BR BKN003 BKN007 OVC013 09/08
     A3016=
KMTN 101945Z 00000KT 1 1/4SM DZ OVC003 03/03 A3036=

0000419800
278
USIN50 VECC 110000
TTAA 61001 42182
     99984 06414 00000 00142 ///// ///// 92788 10265 34021 85487 05859
     33519 70038 03979 33521 50563 14994 29553 40728 25786 28575 30932
     37780 29113 25056 44777 28626 20202 54372 28639 15384 61774 27622
     10629 67171 27586 88122 68371 28103 77202 28640 42425 77273 29137
     43724 31313 48008 80003=
TTAA 11001 42314 NIL=
TTAA 61001 42339
     99994 05417 00000 00170 ///// ///// 92817 08659 00515 85509 04262
     05017 70072 03173 36013 50070 13378 31549 40736 23178 30579 30943
     34969 29623 25067 45364 29123 20212 56563 28644 15391 65762 27121
     10635 699// 27073 88144 67162 27119 77199 28644 42125 31313 51708
     80006=
TTAA 61027 42348
     99973 09448 00000 00160 ///// ///// 92802 07672 02514 85489 01260
     31517 70020 06958 12503 50563 07345 40729 22743 88999 77999
    =
TTAA 11001 42361 NIL=
TTAA 6102/ 42369
     99000 13006 00000 00120  ///// 92761 030// 85445 00056 70999
     00050 50569 00049 88999 77999=
TTAA 11001 42379 NIL=
TTAA 11001 42397 NIL=
TTAA 11001 42410 NIL=
TTAA 11001 42475 NIL=
TTAA 61001 42492
99009 14208 36000 00130 14013 07512 92791 14427 08007
85502 10035 04007 70084 00500 25509 50571 17159 26058
40735 26721 26051 30938 35557 28131 25062 45158 27631
20209 53558 27145 15389 62757 28125 88999 66186 26649=
TTAA 11001 42498 NIL=
TTAA 11001 42591 NIL=
TTAA 11001 42623 NIL=
TTAA 61001 42647 99009 12056 31504 00128 10856 35511 92786
13061 01016 85488 06257 01517 70087 08690 29028 50579 06980 
30045 40749 16370 30582 30959 32566 28077 25085 42965 27574 
20232 54366 27577 15410 69557 26581 10646 78956 27568 88999 
77389 30086=
TTAA 61001 42667 99953 12603 05004 00/// ///// ///// 92777
11022 02007 85486 11257 25511 70088 04499 24537 50576 07797 
28556 40747 14785 30093 30958 31768 29089 25083 42364 28094 
20230 54363 27096 15409 68360 25598 10649 75160 26559 88999 
77175 26602 77486 28563=
TTAA 11001 42675 NIL=
TTAA 11001 42706 NIL=
TTAA 11001 42724 NIL=
TTAA 11001 42798 NIL=
TTAA 61001 42809
     99015 12013 00000 00129 17641 06504 92796 17258 26502 85513 14066
     14003 70113 03872 23021 50576 11587 25045 40745 18988 28572 30956
     30589 27093 25082 42174 26597 20229 54366 25597 15408 64959 26585
     10648 77157 26057 88999 77178 26600=
TTAA 11001 42867 NIL=
TTAA 11001 42875 NIL=
TTAA 11001 42909 NIL=
TTAA 61001 42971
99009 17620 04002 00123 21057 13505 92794 17462 17506 
85514 15065 22510 70130 07499 27021 50581 06997 27545 
40752 14195 29572 30964 30789 27572 25090 41985 26568 
20237 54781 26070 15415 67577 26069 10655 78174 25036 
88999 77219 26573=
TTAA 61002 43003
 99011 17259 36003 00105 14074 00505 92759 13075 36010 85467
 12885 27506 70077 05281 27518 50576 07178 31541 40746 19174
 30038 30956 32771 27046 25081 45168 29025 20226 561// /////
 88999 77378 30572 41631 31313 59002 80055=
TTAA 11001 43014 NIL=
TTAA 11001 43049 NIL=
TTAA 11001 43110 NIL=
TTAA 61001 43128
99951 19219 00000 00/// ///// ///// 92763 17419 14516 
85489 17458 31503 70120 10478 25519 50584 02576 31528 
40758 15172 30036 30970 31375 26032 25097 42167 27548 
20244 54559 26538 15423 69358 25530 10660 77758 26524 
88122 77159 26039 77999=
TTAA 61001 43150 99007 22036 31504 00100 22838 02503 92776 17024
10002 85498 16061 18007 70121 08676 25518 50583 02386 29030 40757
14978 29041 30969 31382 27536 25095 42775 27040 20243 54568 28046
15422 69767 27042 10659 78166 24026 88102 79565 23524 77999=
TTAA 11001 43185 NIL=
TTAA 11001 43237 NIL=
TTAA 61001 43279
99013 21017 00000 00113 22631 04503 92790 17423 08511 
85516 18068 08006 70150 07260 17511 50588 05969 33522 
40761 14575 34515 30973 31574 02506 25100 41569 28505 
20248 54964 25508 15427 68763 24514 88999 77999=
TTAA 11001 43295 NIL=
TTAA 61001 43353
99012 24237 00000 00109 24811 10002 92787 21027 16507
85512 16839 07008 70138 08059 12009 50587 04179 04516
40759 15177 04018 30970 30771 05506 25097 42162 14002
20244 54757 13502 15423 67958 29004 88999 77999=
TTAA 61001 43371
99004 23616 04506 00092 24225 10002 92775 20436 09503 
85504 17056 11002 70142 09260 09516 50587 03584 05026 
40760 14995 04022 30972 30789 06515 25099 41974 05507 
20247 54961 14009 15426 67360 07009 10662 80561 25008 
88999 77999=

0000012400
279
SAUS72 KWBC 101900 RRH
METAR
KPBI 101853Z COR 14009KT 10SM -RA SCT022 BKN065 OVC170 26/21
     A3009=

0000009500
280
SASN32 ESWI 101950 RRA
METAR ESOK 101950Z 12006KT 9999 OVC014 M02/M03 Q0999=

0000014900
281
SAUS73 KWBC 101900 RRK
METAR
KALN 101945Z 17010G18KT 7SM -RA OVC007 05/05 A2976=
KGYY 101945Z 14012KT 3 BR OVC006 03/02 A2981=

0000012800
282
SAUK31 EGGY 101950 CCA
METAR COR EGCC 101950Z 19011KT 9999 -RA FEW025 SCT033 BKN039 07/05
     Q1008 NOSIG=

0000202400
283
SPUS70 KWBC 101954
SPECI
KTAN 101950Z AUTO 00000KT 1 1/2SM -RA BR SCT016 OVC021 02/00 A3038
     RMK AO2 P0003=
KTUL 101950Z 20007KT 10SM SCT017 BKN180 13/10 A2957 RMK AO2 $=
KADG 101950Z AUTO 17009KT 2SM BR OVC004 02/01 A2999 RMK AO2
     TSNO=
KARB 101950Z 15008KT 1 3/4SM BR OVC004 02/01 A2998 RMK AO2=
KBRL 101950Z AUTO 16009KT 1 3/4SM RA BR OVC004 02/01 A2965 RMK AO2
     LTG DSNT E-S P0008 I1000=
KBUY 101950Z AUTO 33005KT 1 3/4SM RA BR OVC004 03/02 A3024 RMK AO2
     P0005=
KCEU 101950Z AUTO 06005KT 3SM BR OVC003 10/08 A3017 RMK AO2
     RAE07B30E47 P0001=
KFIG 101950Z AUTO 36004KT 1 1/4SM BR OVC007 00/00 A3022 RMK
     AO2=
KGLD 101950Z AUTO 32024G34KT 3/4SM -SN BR FEW008 BKN013 OVC020
     00/M01 A2963 RMK AO2 PK WND 31034/1943 SNB1858 P0001=
KGLR 101950Z AUTO 19007KT 1 1/4SM BR OVC003 M03/M04 A2987 RMK
     AO2=
KJST 101950Z AUTO 18005KT 3SM BR OVC003 04/03 A3017 RMK AO2=
KOFP 101950Z AUTO 00000KT 3SM -RA BR OVC003 03/03 A3033 RMK AO2
     P0005=
KPAH 101950Z 15007KT 7SM BKN010 OVC085 09/07 A2991 RMK AO2
     RAB1854E03 CIG 008V012 P0000=
KRHI 101951Z AUTO 17005KT 2SM BR OVC004 M05/M06 A2969 RMK AO2=
KRUE 101950Z AUTO 30009KT 2 1/2SM RA BR FEW003 SCT009 OVC014 09/08
     A2977 RMK AO2 PRESRR P0010=
PACV 101950Z 05003KT 6SM -SN BR FEW023 BKN048 OVC065 M02/M02 A2938
     RMK AO2 SNB10 P0000 $=
KACV 101951Z AUTO 24006KT 2SM R32/2000VP6000FT BR OVC001 10/09
     A3027 RMK AO2 VIS 3/4V4=
KALO 101951Z AUTO 13004KT 2 1/2SM UP BR OVC004 00/M01 A2960 RMK
     AO2 CIG 003V007 P0004 TSNO=
KCEC 101951Z AUTO 17010KT 2 1/2SM BR BKN003 OVC008 11/09 A3028 RMK
     AO2=
KRKS 101952Z AUTO 29025G33KT 10SM BKN026 BKN034 M01/M06 A2984 RMK
     AO2 PK WND 29035/1911=
KROG 101951Z 16018G27KT 10SM SCT009 BKN085 11/09 A2962 RMK AO2 PK
     WND 15027/1946 RAE34 P0000=
KTOI 101951Z AUTO 07004KT 3/4SM BR OVC003 12/11 A3007 RMK AO2
     RAB20E31 P0000=
KGRI 101951Z 25010KT 7SM BKN012 OVC065 02/M01 A2952 RMK AO2=

0000103800
284
SAMX41 MMMX 101954
METAR MMMX 101944Z 17014KT 12SM SCT025TCU BKN200 20/02 A3020
      NOSIG RMK 8/204=
METAR MMAA 101942Z 20006KT 10SM SKC 31/18 A2985=
METAR MMBT 101940Z 00000KT 7SM FEW060 30/24 A2989
      RMK 8/100=
METAR MMCB 102000Z 00000KT 10SM SCT030 SCT070 26/10 A3002
      RMK 8/170=
METAR MMOX 101941Z 18009KT 15SM SCT030 25/05 A3009 RMK 8/100=
METAR MMPA 101944Z 00000KT 5SM SCT280 27/19 A2991
      RMK 8/008 HZY=
METAR MMPB 101945Z 16013KT 8SM  SCT020 21/05 A3023 RMK 8/100 HZY=
METAR MMPS 101941Z 26010KT 15SN SKC 31/19 A2998
      RMK CU N=
METAR MMQT 101945Z 27010KT 8SM SCT020 BKN070 22/08 A3020 RMK 8/800
CI=
METAR MMTM 101947Z 15006KT 5SM  SCT020 BKN200 25/18 A2988 
      RMK 8/501 HZY=
METAR MMTO 101945Z 17013KT 7SM  BKN020TCU 15/05 A3028 RMK 8/200=
METAR MMVR 101945Z 11010KT 7SM  SKC 27/17 A2987 
      RMK HZY DSNT TCU 3,4 QUAD=
METAR MMZH 101949Z 18006KT 7SM SCT020TCU SCT250 30/23 A2986 RMK
8/202=
METAR MMIT 101955Z NIL=
METAR MMTB 101955Z NIL=

0000011300
285
SMOM10 OOMS 110000 RRK
AAXX 11004
41270 36/70 /0212 10181 20067 30151 40202
333 0E017 58014 =
0000018800
286
FTGG31 UGTB 110500
TAF UGTB 110500Z 1106/1206 31008KT CAVOK TX11/1111Z TNM04/1203Z BECMG
    1108/1110 31018G28KT TEMPO 1112/1118 31028G40KT TEMPO 1200/1206
    BKN015=
0000011700
287
SACN61 CYZY 102000
METAR CYZY 102000Z AUTO 20005KT 140V220 9SM FEW038 M05/M06 A2962 RMK
 SLP070=

0000016300
288
SACY31 LCLK 102000
METAR LCLK 102000Z 32006KT CAVOK 10/03 Q1021 NOSIG=
METAR LCPH 102000Z 03007KT CAVOK 10/03 Q1022=
METAR LCNC 102000Z NIL=

0000027200
289
FTCN32 CWAO 102000 AAA
TAF AMD CYQF 102002Z 1020/1106 23005KT P6SM SCT008 OVC060 TEMPO
     1020/1022 5SM -SN BKN008 OVC060
    FM102200 28008KT P6SM BKN040
     BECMG 1101/1103 25005KT
     BECMG 1103/1105 13008KT
    RMK NXT FCST BY 110000Z=

0000072000
290
SPUS70 KWBC 102002
SPECI
PABA 101956Z AUTO 27022KT 2 1/2SM HZ M26/M29 A2986 RMK AO2 VIS 2V3
     SNE08 P0000 FZRANO $=
K1B7 101945Z 08003KT 0SM FG BKN002 15/15 A2998=
KBAZ 101958Z 22010KT 10SM BKN015 BKN026 20/17 A2980 RMK AO2=
KCEU 101958Z AUTO 07005KT 2 1/2SM -RA BR BKN005 OVC009 10/08 A3016
     RMK AO2 RAB54 P0000=
KSLE 101958Z 21008KT 10SM SCT007 BKN030 BKN080 11/08 A3016 RMK AO2
     T01110078=
KTOI 101958Z AUTO 07003KT 1/2SM FG OVC002 12/12 A3007 RMK AO2
     T01220117=
PADU 101958Z 15007KT 9SM -RA SCT016 OVC024 03/M01 A2929 RMK AO2
     RAB58SNE58 P0000=
KPYM 101959Z AUTO 22003KT 5SM -RA BR BKN009 OVC018 02/01 A3039 RMK
     AO2 CIG 005V011 P0000 T00220006=

0000007900
291
SAEA20 HKNC 101900 RRC
METAR HKEM 101900Z 00000KT SKC 19/12=

0000010500
292
SAAG41 SAWG 102000
METAR SAWG 102000Z  23021G31KT 9999  BKN035 SCT200
 14/M01 Q1009=

00000000