0000009800
673
SAAB31 LATI 102220
METAR LATI 102220Z 00000KT 4500 BR BKN055 11/09 Q1022 NOSIG=

0000009000
674
SPCN46 CWAO 102215
SPECI CYKZ 102215Z 14004KT 1SM BR OVC002 RMK FG2ST6=

0000015400
675
SAAF13 LFPW 102200 RRA
METAR GBYD 102200Z 33004KT CAVOK 20/17 Q1013=
METAR GVAC 102200Z 04009KT 9999 SCT014 BKN200 20/15 Q1016 NOSIG=

0000009800
676
SAAF20 LFPW 102200 RRB
METAR FABL 102200Z AUTO 22006KT 9999 ////// 20/06 Q1017=

0000029300
677
FTSA31 TTPP 102200
TAF SYCJ 102200Z NIL=
TAF
SMJP 102200Z 1100/1124 VRB03KT 9999 FEW010 SCT025 TX31/1118Z
TN22/1110Z 
      TEMPO 1108/1111 3000 BR 
      FM111200 08010KT 9999 SCT015 
      TEMPO 1114/1118 4000 SHRA FEW018CB=
TAF
SOCA 102200Z 1100/1124 NIL=

0000041400
678
FTCA31 TTPP 102200
TAF TTPP 102200Z NIL=
TAF TTCP 102200Z NIL=
TAF
TGPY 102200Z 1100/1124 NIL=
TAF
TBPB 102200Z 1100/1124 06018KT 9999 SCT018 
      TEMPO 1100/1112 8000 SHRA BKN014 BKN035=
TAF TLPL 102200Z NIL=
TAF 
TNCC 102200Z 1100/1124 09011KT 9999 SCT018 
      TEMPO 1104/1112 BKN014=
TAF 
TNCA 102200Z 1100/1124 08013KT 9999 SCT018 
      TEMPO 1104/1112 BKN014=

0000177400
679
SPUS70 KWBC 102216
SPECI
KCLE 102212Z 16009KT 5SM HZ BKN007 OVC060 05/02 A3005 RMK AO2
     T00500022=
KDMO 102212Z AUTO 19012KT 10SM SCT009 OVC017 09/08 A2956 RMK AO2
     RAE04 P0000 T00940083=
KDTN 102212Z 15007KT 10SM BKN022 OVC065 17/14 A2976 RMK AO2=
KEQY 102212Z AUTO VRB04KT 1 3/4SM +RA BR BKN003 BKN015 OVC034
     07/06 A3018 RMK AO2 VIS 1 1/4V2 1/2 PRESRR P0017=
KGLS 102212Z 17010KT 2 1/2SM -RA BR FEW003 BKN025 OVC041 17/17
     A2985 RMK AO2 RAB01 P0000=
KLNS 102212Z 08004KT 2 1/2SM BR OVC007 02/00 A3030 RMK AO2=
KM19 102212Z AUTO 15003KT 1/4SM RA FG OVC018 07/06 A2977 RMK AO2
     OVC V BKN P0003=
KSSI 102212Z AUTO 12007KT 5SM BR BKN003 18/17 A3010 RMK AO2
     T01830172=
KTOI 102212Z AUTO 08004KT 2SM -RA BR OVC002 13/12 A3005 RMK AO2
     RAB03 P0000 T01330122=
KUNO 102211Z AUTO 18008KT 1 1/4SM -RA BR OVC003 06/06 A2973 RMK
     AO2 P0002 T00610061=
PABA 102212Z AUTO 27020KT 1 1/4SM -SN BR M26/M28 A2986 RMK AO2
     P0000 FZRANO=
PAEG 102212Z AUTO 00000KT 10SM BKN025 M26/M29 A2959 RMK AO2
     T12561294 TSNO=
KAKH 102213Z AUTO 03006KT 2SM -RA BR OVC002 07/06 A3017 RMK AO2
     P0000=
KDPA 102213Z 16012G18KT 2 1/2SM RA BR OVC004 02/02 A2969 RMK AO2
     P0009=
KFCI 102214Z AUTO 09004KT 3SM OVC003 04/M01 A3027 RMK AO1=
KIGX 102213Z AUTO 34003KT 5SM BR OVC004 06/05 A3022 RMK AO2 RAE00
     P0000 T00560050=
KLNR 102213Z AUTO 09012KT 1 1/2SM -RA BR BKN003 OVC009 01/00 A2960
     RMK AO2 CIG 002V007 P0001 T00060000=
KMIA 102213Z 10011KT 10SM BKN022 BKN060 BKN210 BKN300 26/22 A3008
     RMK AO2=
KNEW 102213Z 11009KT 1 1/2SM BR OVC002 14/13 A2996 RMK AO2
     T01440133=
KSPW 102214Z AUTO 21003KT 1/4SM FZFG VV003 M01/M02 A2955 RMK AO2
     T10061017=

0000010000
680
SPUS31 KWBC 102216
SPECI
KCLE 102212Z 16009KT 5SM HZ BKN007 OVC060 05/02 A3005=

0000011700
681
SPUS42 KWBC 102216
SPECI
KGLS 102212Z 17010KT 2 1/2SM -RA BR FEW003 BKN025 OVC041 17/17
A2985=

0000009800
682
SPUS42 KWBC 102216
SPECI
KSSI 102212Z AUTO 12007KT 5SM BR BKN003 18/17 A3010=

0000010100
683
SACA33 KWBC 102200 RRB
METAR
TNCC 102200Z 10007KT 9999 FEW014 26/22 Q1013 NOSIG=

0000013500
684
SAJP43 KWBC 102200 RRA
METAR
RJOI 102155Z COR 29006KT 9999 FEW030 BKN070 01/M02 A3040 RMK
     SLP293 T00111022=

0000010200
685
SASA31 KWBC 102200 RRC
METAR
SKBO 102200Z 27010KT 9999 FEW020 BKN080 16/10 A3019=

0000009500
686
SPCN51 CWAO 102216
SPECI CWOB 102216Z AUTO 00000KT SCT001 OVC015 M19/ A2914=

0000144200
687
FTBZ31 KWBC 102218
TAF
TAF SBBE 102200Z 1100/1124 09005KT 9999 SCT010 TN24/1107Z
      TX31/1116Z PROB30 1100/1106 5000 RA BKN008
      BECMG 1110/1112 03010KT BKN015
      BECMG 1115/1 117 36010KT SCT030 FEW035TCU PROB30 1118/1120
      5000 TSRA SCT020 FEW025CB
      BECMG 1121/1123 03008KT FEW030 RMK PDZ=
TAF SBBV 102200Z 1100/1124 07005KT CAVOK TN24/1109Z TX33/1117Z
      BECMG 1111/1113 07010KT SCT025
      BECMG 1116/1118 09010KT SCT040 FEW050TCU
      BECMG 1122/1 124 08005KT FEW045 RMK PDZ=
TAF SBEG 102200Z 1100/1124 09005KT 8000 SCT010 TN24/1107Z
      TX31/1117Z
      BECMG 1105/1107 SCT008
      BECMG 1112/1114 SCT020
      BECMG 1116/1118 SCT020 FEW02 5TCU PROB40 1119/1124 03005KT
      3000 RA BKN009 RMK PDZ=
TAF SBSL 102200Z 1100/1124 06010KT 9999 BKN017 TN26/1108Z
      TX31/1116Z PROB30 1100/1106 5000 RA BKN017
      BECMG 1111/1113 04012KT
      BECMG 1120/1122 070 08KT FEW017 RMK PDZ=
TAF SBSN 102200Z 1100/1124 09003KT 9999 SCT017 TN27/1108Z
      TX34/1118Z
      BECMG 1104/1106 SCT010
      BECMG 1115/1117 SCT020 FEW030TCU
      BECMG 1121/1123 09 003KT FEW020 RMK PDZ=
TAF SBTT 102200Z 1100/1124 00000KT 8000 SCT010 TN23/1109Z
      TX30/1118Z
      BECMG 1110/1112 03005KT BKN009
      BECMG 1113/1115 34003KT SCT012
      BECMG 1117/1 119 12003KT SCT020 FEW025TCU PROB40 1120/1123
      5000 SHRA SCT015 FEW025TCU RMK PDZ=

0000007500
688
FTCA33 KWBC 102218
TAF
TAF TGPY 102200Z 1100/1124 NIL=

0000033700
689
FTUS42 KWBC 102218 AAA
TAF AMD
KGLS 102217Z 1022/1118 17012KT P6SM BKN025 OVC040
      TEMPO 1022/1024 2SM -RA BR BKN003
     FM110000 19010KT 5SM BR SCT015
      TEMPO 1102/1104 2SM BR SCT005
     FM110700 19010KT 5SM BR SCT003 BKN015
     FM111000 27008KT P6SM SCT009
     FM111300 31008KT P6SM SCT250=

0000029600
690
FTUS71 KWBC 102218 AAA
TAF AMD
KELM 102215Z 1022/1118 12006KT P6SM SCT020 BKN040
      TEMPO 1023/1102 BKN020
     FM110200 14008KT P6SM FEW009 OVC018
      TEMPO 1104/1108 BKN009
     FM110800 17010KT 3SM -SHRA OVC009
     FM111200 13013KT 5SM -SHRA SCT009 OVC012=

0000033700
691
FTUS72 KWBC 102218 AAA
TAF AMD
KGLS 102217Z 1022/1118 17012KT P6SM BKN025 OVC040
      TEMPO 1022/1024 2SM -RA BR BKN003
     FM110000 19010KT 5SM BR SCT015
      TEMPO 1102/1104 2SM BR SCT005
     FM110700 19010KT 5SM BR SCT003 BKN015
     FM111000 27008KT P6SM SCT009
     FM111300 31008KT P6SM SCT250=

0000016200
692
SAUS71 KWBC 102200 RRE
METAR
KLCK 102215Z AUTO 13004KT 10SM BKN008 OVC080 07/05 A3001=
KPQI 102215Z AUTO 18006KT 10SM FEW038 M09/M24 A3025=

00000000