0000063000
393
FTUS80 KWBC 101912 AAA
TAF AMD
KFMH 101909Z 1019/1118 18006KT P6SM -SHSN OVC020
     FM102000 21007KT P6SM OVC020
     FM110500 19005KT P6SM OVC025
     FM110800 18007KT P6SM OVC040
     FM111200 17011G22KT P6SM OVC008
     FM111500 18017G31KT 1SM -RA BR OVC003=
KRWI 101908Z 1019/1118 03004KT 4SM -RA BR SCT005 OVC050
      TEMPO 1019/1023 6SM -RA BR BKN005 BKN050
     FM102300 06004KT 5SM -RADZ BR BKN005 OVC009
     FM110400 VRB05KT 1SM -DZ BR OVC003
     FM110700 18010KT P6SM OVC008
     FM111300 19013G24KT P6SM BKN009 OVC020
     FM111700 20017G28KT 5SM -SHRA BR BKN012 OVC025=

0000184900
394
SPUS70 KWBC 101912
SPECI
KAGS 101908Z 32008KT 1 1/2SM RA BR BKN005 BKN009 OVC013 09/08
     A3015 RMK AO2 P0016=
KCEC 101908Z AUTO 18009KT 5SM BR FEW004 OVC065 11/09 A3029 RMK AO2
     T01060094=
KCRS 101908Z AUTO 19011KT 10SM BKN010 OVC014 17/16 A2979 RMK AO2
     CIG 006V011 PRESFR T01720161=
KDEQ 101908Z AUTO 18008G14KT 1 3/4SM RA BR BKN007 BKN011 OVC030
     14/13 A2974 RMK AO2 P0003 T01390133=
KGVL 101908Z AUTO 09008KT 1 1/2SM BR OVC003 08/08 A3015 RMK
     AO2=
KLLQ 101908Z AUTO 19010G17KT 10SM BKN016 BKN050 OVC060 14/11 A2988
     RMK AO2 RAE07 P0000=
KMFI 101908Z AUTO 16008KT 1SM BR OVC002 M03/M04 A2972 RMK AO2
     I1000 T10281039=
KMMK 101908Z AUTO 00000KT 1 1/2SM BR OVC013 00/M01 A3038 RMK AO2
     UPE1857 P0000 T00001011 TSNO=
KOFP 101908Z AUTO 00000KT 1 1/2SM RA BR BKN003 OVC009 03/02 A3034
     RMK AO2 P0002 T00280022=
KTIW 101908Z 20009KT 10SM FEW010 BKN024 OVC110 08/06 A3010 RMK
     AO2=
KVPZ 101908Z AUTO 15010KT 1 3/4SM BR OVC004 02/02 A2988 RMK AO2
     T00170017 TSNO=
KVTA 101908Z AUTO 17004KT 6SM BR OVC005 06/03 A3011 RMK AO2
     T00560033=
PADU 101908Z 12007KT 10SM -SN FEW017 SCT022 BKN029 03/00 A2931 RMK
     AO2 P0000=
PAMB 101908Z AUTO 04007KT 10SM BKN005 OVC018 M04/M04 A2944 RMK AO2
     TSNO CIG 003V007 $=
PAOH 101908Z AUTO 00000KT 4SM BR FEW004 SCT015 BKN029 00/00 A2954
     RMK AO2 TSNO UPE02 P0000 $=
KBOK 101909Z AUTO 17007KT 1 1/4SM BR OVC002 09/09 A3028 RMK AO2
     $=
KHQM 101909Z AUTO 17006KT 3SM BR FEW021 BKN028 OVC044 A3011 RMK
     AO2 RAB00E09 P0000 TSNO $=
KJXN 101909Z 17008KT 3SM BR OVC004 02/01 A2997 RMK AO2
     T00170006=
KMCK 101909Z AUTO 29012KT 9SM OVC035 02/M01 A2959 RMK AO2 SNE06
     P0000 T00221006=
KOSH 101909Z 14007KT 5SM HZ OVC008 M01/M03 A2979 RMK AO2
     T10061033=

0000009400
395
SPUS41 KWBC 101912
SPECI
KORH 101908Z 22010KT 3SM BR OVC005 00/M01 A3032=

0000009100
396
SPUS42 KWBC 101912
SPECI
KSHV 101908Z 17011KT 10SM OVC010 17/14 A2984=

0000010500
397
SPUS44 KWBC 101912
SPECI
KTIW 101908Z 20009KT 10SM FEW010 BKN024 OVC110 08/06 A3010=

0000010200
398
SAAG31 KWBC 101900 RRA
METAR
SAWE 101900Z 02010KT 9999 FEW015 SCT020 10/07 Q1004=

0000081700
399
SABZ41 KWBC 101900 RRB
METAR
SBAA 101900Z 02004KT 9999 SCT025 SCT100 ///// Q////=
SBAF 101900Z 18007KT 9999 FEW025 35/21 Q1010=
SBBH 101900Z 08009KT 9999 SCT030 29/16 Q1014=
SBBI 101900Z 32004KT 9999 SCT030 FEW035TCU 33/14 Q1015=
SBBU 101900Z 03006KT 9999 SCT030 33/20 Q1012=
SBCO 101900Z 20010KT 9999 VCTS SCT040 FEW045CB BKN100 28/// Q10
     09=
SBCO 101900Z 20010KT 9999 VCTS SCT040 FEW045CB BKN100 28///
     Q1009=
SBDN 101900Z 02008KT CAVOK 35/12 Q1010=
SBGW 101900Z 35004KT 9999 TS SCT025 FEW030CB 28/18 Q1014=
SBHT 101900Z 09006KT 9999 SCT020 BKN100 29/23 Q1009=
SBIH 101900Z 12005KT 9999 SCT023 30/23 Q1007=
SBIL 101900Z 06004KT 9999 VCSH SCT018 SCT030TCU BKN090 26/22 Q1
     013=
SBIL 101900Z 06004KT 9999 VCSH SCT018 SCT030TCU BKN090 26/22
     Q1013=

0000081700
400
SABZ42 KWBC 101900 RRB
METAR
SBJR 101900Z 13007KT 9999 FEW030 34/23 Q1010=
SBME 101900Z 08013KT 9999 FEW030 29/23 Q1012=
SBMT 101900Z 27012G22KT 9999 TS BKN045 FEW050CB 27/19 Q1014=
SBPC 101900Z 07004KT 9999 SCT020 32/19 Q1018=
SBSC 101900Z 16009KT 9999 FEW035 33/20 Q1010=
SBSM 101900Z 16010KT 2500 TSRA BKN007 BKN010 FEW040CB 22/21 Q10
     12=
SBSM 101900Z 16010KT 2500 TSRA BKN007 BKN010 FEW040CB 22/21
     Q1012=
SBSP 101900Z 21013KT 170V260 8000 TS VCSH BKN011 BKN030 FEW040CB
     BKN100 25/19 Q1016=
SBTU 101900Z 03006KT 9999 SCT020 FEW023TCU BKN070 29/23 Q1010=
SBUR 101900Z 30009KT 8000 -TSRA SCT030 FEW050CB BKN100 23/19 Q1014
     RERA=
SBVH 101900Z 21002KT 6000 -TSRA BKN020 FEW025CB 23/22 Q1011=
SBYS 101900Z 00000KT 9999 SCT048 FEW050TCU 34/15 Q1012=

0000119100
401
SABZ43 KWBC 101900 RRA
METAR
SBAN 101900Z 07002KT 9999 VCSH SCT035 FEW040TCU 26/18 Q1015 RET
     S=
SBAN 101900Z 07002KT 9999 VCSH SCT035 FEW040TCU 26/18 Q1015
     RETS=
SBAT 101900Z 00000KT 9999 SCT022 33/21 Q1008=
SBBQ 101900Z 04006KT 9999 FEW020 27/15 Q1019=
SBBW 101900Z 03010KT 9999 TS VCSH BKN020 FEW025CB 24/18 Q1011=
SBCC 101900Z 01005KT 9999 SCT020 FEW025TCU 28/19 Q1010=
SBES 101900Z 07021KT 9999 FEW030 29/21 Q1012=
SBIZ 101900Z 13005KT 9999 FEW020 SCT090 31/22 Q1008=
SBJF 101900Z 04008KT 9999 BKN020 29/19 Q1017=
SBKG 101900Z 11013KT CAVOK 28/17 Q1012=
SBLP 101900Z 36007KT 9999 BKN030 31/20 Q1011=
SBMK 101900Z 07008KT 9999 SCT048 29/13 Q1013=
SBMS 101900Z 02012KT 9999 FEW025 30/24 Q1008=
SBPJ 101900Z 09003KT 9999 SCT025 FEW027TCU SCT100 26/19 Q1010 R
     ETS=
SBPJ 101900Z 09003KT 9999 SCT025 FEW027TCU SCT100 26/19 Q1010
     RETS=
SBPN 101900Z 13004KT 9999 FEW025 BKN080 23/20 Q1010=
SBQV 101900Z 14010KT 9999 SCT020 BKN070 25/19 Q1016=
SBTK 101900Z 17001KT 9999 SCT025 FEW030TCU 29/23 Q1009=
SBUF 101900Z 09007KT 9999 FEW022 35/18 Q1010=
SBUL 101900Z 09012G25KT 6000 -TSRA SCT030 FEW040CB 27/17 Q1015=

0000028000
402
SAJP31 KWBC 101900 RRA
METAR
RJAA 101900Z VRB01KT 9999 FEW025 M04/M08 Q1023 NOSIG RMK 1CU025
     A3021=
RJCC 101900Z 23005KT 9999 -SHSN FEW030 SCT050 M10/M13 Q1017 RMK
     1CU030 3CU050 A3004=
RJTT 101900Z 32008KT CAVOK 01/M05 Q1022 NOSIG RMK A3021=

0000010200
403
SPCN51 CWAO 101912
SPECI CWOB 101912Z AUTO 24003KT BKN005 BKN047 BKN074 M19/ A2908=

0000009300
404
SPCN42 CWAO 101912
SPECI CYUA 101912Z AUTO 29022KT 3SM -SN CLR M25/ A2975=

0000009900
405
SPCN52 CWAO 101912
SPECI CWFD 101912Z AUTO 20020KT 5/8SM CLR M21/ A2879 RMK ICG=

0000080900
406
SAVN21 SVMR 101900
METAR SVJC 101900Z AUTO 08025KT 9999 FEW013 32/17 Q1011=
METAR SVLO 101900Z NIL=
METAR SVGI 101900Z NIL=
METAR SVMN 101900Z 25004KT 9999 FEW020 34/// Q1010=
METAR SVVL 101900Z NIL=
METAR SVGU 101900Z 05006KT 9999 FEW020 33/19 Q1012=
METAR SVJM 101900Z /////KT 9999 SCT020 33/// Q1011=
METAR SVCZ 101900Z NIL=
METAR SVVP 101900Z NIL=
METAR SVVG 101900Z 31003KT 9999 SCT013 31/21 Q1013=
METAR SVMD 101900Z 23008KT 9999 SCT027 SCT300 24/17 Q1019=
METAR SVCL 101900Z 09008KT 9999 SCT013 ///// Q1010=
METAR SVSA 101900Z NIL=
METAR SVGD 101900Z 05006KT 9999 SCT020 34/19 Q////=
METAR SVSR 101900Z /////KT 9999 FEW016 BKN300 32/// Q1014=
METAR SVTM 101900Z NIL=
METAR SVPA 101900Z /////KT 9999 SCT013 BKN300 34/11 Q1010=
METAR SVSE 101900Z NIL=

0000018900
407
SAAG05 SABM 101900 RRB
METAR SARL 101900Z 14013KT 9999 SCT015 FEW045CB BKN100 KN200 23/22
Q1008 RETSRA=
METAR SAWE 101900Z  02010KT 9999  FEW015 SCT020
10/07 Q1004=

0000011000
408
UANT99 KDDL 110508
ARP DLH437 5504N03717W 0507 F370 MS57 238/32 KT
DAIGV QXT AOW 110508 J39A
0000042000
409
SALY31 HLMC 101900
METAR HLLM 101850Z 11004KT 7000 NSC 14/10 Q1024=
METAR HLLT 101850Z 10004KT CAVOK 14/07 Q1024=
METAR HLGD 101900Z NIL=
METAR HLGT 101900Z NIL=
METAR HLJA 101900Z NIL=
METAR HLKF 101900Z NIL=
METAR HLKM 101900Z NIL=
METAR HLLB 101900Z NIL=
METAR HLLS 101900Z NIL=
METAR HLMI 101900Z NIL=
METAR HLNT 101900Z NIL=
METAR HLON 101900Z NIL=
METAR HLTD 101900Z NIL=

0000022500
410
SACA31 TNCC 101900
METAR TNCC 101900Z 09009KT 9999 FEW025 28/21 Q1013 NOSIG=
METAR TNCB 101900Z 09011KT 050V140 9999 SCT019 28/23 Q1012 
RERA NOSIG=
METAR TNCE 101900Z 07015KT 9999 BKN020 26/19 Q1017=

0000010200
411
SAAB31 LATI 101920
METAR LATI 101920Z 17003KT 7000 FEW030 BKN060 12/08 Q1022 NOSIG=

0000010900
412
SPUS41 KWBC 101917
SPECI
KBDL 101913Z 14003KT 5SM BR FEW006 BKN020 OVC070 M01/M03 A3036=

00000000