0000011300
793
SAVN23 SVBC 101800
METAR SVBC 101800Z NIL=
METAR SVMT 101800Z NIL=
METAR SVHG 101800Z NIL=

0000129700
794
SPUS70 KWBC 101814
SPECI
KALO 101810Z AUTO 14007KT 1 1/2SM R12/6000VP6000FT BR OVC004
     M01/M01 A2969 RMK AO2 T10061011 TSNO=
KBPT 101810Z 15009KT 8SM SCT006 OVC036 18/16 A2995 RMK AO2=
KHKY 101810Z 00000KT 2 1/2SM BR OVC001 06/04 A3023 RMK AO2 RAE10
     P0001=
KHOU 101810Z 16005G14KT 10SM BKN022 BKN041 OVC049 21/16 A2992 RMK
     AO2=
KLWM 101810Z 21005KT 3SM -SN OVC013 M01/M04 A3041 RMK AO2 P0000
     T10111044=
KMCB 101810Z AUTO 16009KT 10SM OVC005 14/12 A3003 RMK AO2 CIG
     003V008 T01440122=
KMKC 101810Z 00000KT 4SM BR OVC007 04/03 A2962 RMK AO2 CIG 005V012
     PRESFR T00390028=
KSTP 101810Z 15009KT 1 3/4SM BR OVC006 M03/M04 A2970 RMK AO2=
KUNO 101810Z AUTO 16010KT 1 1/4SM -RA BR OVC002 04/04 A2982 RMK
     AO2 P0003 T00440039=
KBUY 101811Z AUTO 34005KT 3SM -RA BR OVC003 03/02 A3027 RMK AO2
     P0000 T00330017=
KIOW 101811Z AUTO 12007KT 3/4SM BR OVC002 01/01 A2972 RMK AO2=
KLNR 101811Z AUTO 13008KT 4SM BR OVC008 00/M02 A2978 RMK AO2
     T00001017=
KOSU 101811Z 16009KT 1SM BR OVC002 03/03 A3012 RMK AO2
     T00330033=
KPTK 101811Z 16008KT 1SM R09R/3500V5000FT BR OVC002 01/00 A3004
     RMK AO2=
KSHN 101811Z AUTO 22008KT 2SM BR SCT010 OVC017 07/06 A3010 RMK AO2
     RAE08 P0001 T00720061 TSNO=

0000009600
795
SPUS41 KWBC 101814
SPECI
KLWM 101810Z 21005KT 3SM -SN OVC013 M01/M04 A3041=

0000009700
796
SPUS42 KWBC 101814
SPECI
KBPT 101810Z 15009KT 8SM SCT006 OVC036 18/16 A2995=

0000009700
797
SPUS42 KWBC 101814
SPECI
KMGM 101810Z 07006KT 1 3/4SM BR OVC002 10/09 A3012=

0000010800
798
SPUS42 KWBC 101814
SPECI
KHOU 101810Z 16005G14KT 10SM BKN022 BKN041 OVC049 21/16 A2992=

0000009300
799
SPUS43 KWBC 101814
SPECI
KMKC 101810Z 00000KT 4SM BR OVC007 04/03 A2962=

0000009900
800
SPUS43 KWBC 101814
SPECI
KSTP 101810Z 15009KT 1 3/4SM BR OVC006 M03/M04 A2970=

0000010500
801
SAAG31 KWBC 101800 RRA
METAR
SASJ 101800Z 09006KT 9999 FEW025 SCT040TCU 33/17 Q1007=

0000010700
802
SABZ43 KWBC 101800 CCA
METAR
SBUL 101800Z 08007KT 9999 TS SCT030 FEW040CB 28/15 Q1015=

0000010200
803
SACA31 KWBC 101800 RRA
METAR
MYGF 101800Z 15010KT 9999 SCT015 BKN120 26/22 A3011=

0000012100
804
SAAG05 SABM 101800 RRC
METAR SARL 101800Z 16022KT 9999 TS SCT015 FEW045CB BKN100 BKN200
26/22 Q1008=

0000019900
805
SAAP32 FAPR 101800 RRA
METAR FBSK 101800Z 23009KT CAVOK 32/01 Q1012 NOSIG=
METAR FVHA 101800Z 36004KT 340V040 9999 FEW025CB BKN090 20/19
             Q1020 NOSIG RMK QFE 852.2=

0000116000
806
FTUS31 KWBC 101815 AAA
TAF AMD
KEWR 101812Z 1018/1124 VRB04KT 5SM BR SCT008 BKN015 OVC030
      TEMPO 1018/1020 3SM -DZ BR BKN008 OVC015
     FM102000 VRB03KT 4SM BR BKN010 BKN025
      TEMPO 1102/1105 -RA BKN008 OVC015
     FM110500 15005KT 3SM -RA BR BKN006 OVC015
     FM110800 16008KT 1SM -RA BR OVC004 WS020/19050KT
     FM111400 17014KT 1SM -RA BR OVC004 WS015/19050KT
     FM111900 18016G23KT 1SM RA OVC004 WS015/19050KT=
KLGA 101812Z 1018/1118 VRB04KT 5SM BR SCT015 OVC030
      TEMPO 1018/1020 3SM -DZ BR BKN015
     FM102000 VRB04KT 6SM BR BKN015 BKN025
      TEMPO 1102/1105 -RA BKN008 OVC015
     FM110500 15007KT 3SM -RA BR BKN006 OVC015 WS020/19040KT
     FM110800 15011KT 1SM -RA BR OVC004 WS020/19055KT
     FM111400 17016KT 1SM -RA BR OVC004 WS015/19060KT=
KTEB 101812Z 1018/1118 VRB04KT 6SM BR BKN012 OVC025
      TEMPO 1018/1020 3SM -DZ BR
     FM102000 VRB02KT 6SM BR BKN012 BKN025
      TEMPO 1102/1105 -RA BKN008 OVC015
     FM110500 15003KT 3SM -RA BR BKN006 OVC015
     FM110800 15007KT 1SM -RA BR OVC004 WS020/19050KT
     FM111400 17009KT 1SM -RA BR OVC004 WS015/19050KT=

0000040300
807
FTUS41 KWBC 101815 AAA
TAF AMD
KHPN 101813Z 1018/1118 VRB04KT 5SM BR SCT008 OVC015
      TEMPO 1018/1020 3SM -DZ BR BKN008
     FM102000 VRB03KT 6SM BR BKN008 OVC015
      TEMPO 1102/1105 -RA
     FM110500 15003KT 3SM -RA BR BKN004 OVC009
     FM110800 15008KT 1/2SM -RA FG OVC003 WS020/19050KT
     FM111400 17011KT 1SM -RA BR OVC004 WS015/19050KT AMD NOT
      SKED=

0000117600
808
FTUS71 KWBC 101815 AAA
TAF AMD
KEWR 101812Z 1018/1124 VRB04KT 5SM BR SCT008 BKN015 OVC030
      TEMPO 1018/1020 3SM -DZ BR BKN008 OVC015
     FM102000 VRB03KT 4SM BR BKN010 BKN025
      TEMPO 1102/1105 -RA BKN008 OVC015
     FM110500 15005KT 3SM -RA BR BKN006 OVC015
     FM110800 16008KT 1SM -RA BR OVC004 WS020/19050KT
     FM111400 17014KT 1SM -RA BR OVC004 WS015/19050KT
     FM111900 18016G23KT 1SM RA OVC004 WS015/19050KT=
KHPN 101813Z 1018/1118 VRB04KT 5SM BR SCT008 OVC015
      TEMPO 1018/1020 3SM -DZ BR BKN008
     FM102000 VRB03KT 6SM BR BKN008 OVC015
      TEMPO 1102/1105 -RA
     FM110500 15003KT 3SM -RA BR BKN004 OVC009
     FM110800 15008KT 1/2SM -RA FG OVC003 WS020/19050KT
     FM111400 17011KT 1SM -RA BR OVC004 WS015/19050KT AMD NOT
      SKED=
KLGA 101812Z 1018/1118 VRB04KT 5SM BR SCT015 OVC030
      TEMPO 1018/1020 3SM -DZ BR BKN015
     FM102000 VRB04KT 6SM BR BKN015 BKN025
      TEMPO 1102/1105 -RA BKN008 OVC015
     FM110500 15007KT 3SM -RA BR BKN006 OVC015 WS020/19040KT
     FM110800 15011KT 1SM -RA BR OVC004 WS020/19055KT
     FM111400 17016KT 1SM -RA BR OVC004 WS015/19060KT=

0000038700
809
FTUS71 KWBC 101815 AAB
TAF AMD
KTEB 101812Z 1018/1118 VRB04KT 6SM BR BKN012 OVC025
      TEMPO 1018/1020 3SM -DZ BR
     FM102000 VRB02KT 6SM BR BKN012 BKN025
      TEMPO 1102/1105 -RA BKN008 OVC015
     FM110500 15003KT 3SM -RA BR BKN006 OVC015
     FM110800 15007KT 1SM -RA BR OVC004 WS020/19050KT
     FM111400 17009KT 1SM -RA BR OVC004 WS015/19050KT=

0000061800
810
FTUS71 KWBC 101815
TAF
TAF KWRI 1018/1124 VRB06KT 9999 OVC004 620604 QNH3031INS
      TEMPO 1018/1020 SCT003 OVC050
      BECMG 1019/1020 VRB06KT 4800 BR OVC007 620703 QNH3031INS
      BECMG 1020/1021 12009KT 6000 BR OVC005 620802 QNH3026INS
      BECMG 1023/1024 13012KT 4800 -RA BKN006 OVC030 620901
      QNH3000INS
      BECMG 1108/1109 17014KT 8000 -RA BKN010 OVC040 WS020/19050KT
      QNH2983INS
      BECMG 1113/1114 18010G20KT 8000 -SHRA OVC010 WS020/20060KT
      QNH2954INS
      BECMG 1120/1121 20025G35KT 3200 -TSRA OVC005CB QNH2941INS
      T16/1117Z T02/1018Z=

0000014800
811
FTUS73 KWBC 101815 CCA
TAF COR
KLAR 101814Z 1018/1118 28029G36KT 3SM BLSN SCT110 BKN150
     FM110200 28021G30KT P6SM SCT250=

0000058400
812
SAPS31 NFFN 101800
METAR NCRG 101800Z 07003KT 9999 FEW018 26/25 Q1011=
METAR NFFN 101800Z 12004KT 9999 SCT028 BKN048 24/23 Q1005 NOSIG=
METAR NFNA 101800Z 16006KT 9999 BKN020 26/23 Q1005=
METAR NGFU 101800Z NIL=
METAR NGTA 101800Z NIL=
METAR NIUE 101800Z 03012KT 9999 SCT018 BKN030 27/24 Q1006=
METAR NSFA 101800Z 36016KT 9999 DZ FEW019CB FEW020 SCT036 OVC130 
27/26 Q1006=
METAR NSTU 101800Z NIL=
METAR NTAA 101800Z VRB02KT 9999 FEW020 SCT130 28/22 Q1013 NOSIG=
METAR NWWW 101800Z AUTO 36001KT 9999 FEW064 19/14 Q1012=
METAR PLCH 101800Z NIL=

00000000