0000012600
933
SAZS31 NSTU 101855
METAR NSTU 101854Z 36009KT 10SM SCT017 SCT045 OVC100 28/24 A2971 RMK
SLP061 T02830243=

0000010600
934
SACN61 CYBC 101900
METAR CYBC 101900Z AUTO 25016KT 9SM OVC140 M07/M11 A3014 RMK SLP209=

0000011200
935
SACN61 CYPQ 101900
METAR CYPQ 101900Z AUTO 00000KT 3SM BR OVC003 M03/M03 A3016 RMK
 SLP226=

0000011500
936
SACN61 CYZE 101900
METAR CYZE 101900Z AUTO 20011G16KT 6SM BR OVC009 M01/M02 A2999 RMK
 SLP168=

0000050700
937
SACU31 MUHA 101900
METAR
MUHA 101855Z 15008KT 9000 SCT030 29/19 Q1017=
MUVR 101850Z 04008KT 010V090 9000 SCT020 30/18 Q1017=
MUSC 101850Z 07010KT 9000 BKN020 28/21 Q1017=
MUCC 101850Z 09013KT 9000 SCT020 29/21 Q1017=
MUCM 101850Z 09012KT 060V130 9999 SCT020 30/17 Q1017=
MUHG 101850Z 09014KT 070V130 9999 FEW020 30/16 Q1016=
MUCU 101850Z 13014KT 9999 FEW020 29/19 Q1016=
MUCL 101851Z 10014KT 9999 FEW020 28/22 Q1016=
MUCF 101850Z 25007KT 220V280 9999 SCT020 30/21 Q1016=

0000014600
938
SANO31 ENMI 101850 RRA
METAR ENOL 101850Z 06008KT 9999 -SN FEW007 SCT010 BKN020 M07/M10
           Q1001 TEMPO 1500 SN VV005=

0000065700
939
SATU32 LTAA 101850
METAR LTAG 101850Z 06005KT CAVOK 03/M02 Q1020 NOSIG=
METAR LTAN 101850Z 14004KT 3200 BR OVC007 M01/M02 Q1022 BECMG 2000
 OVC004=
METAR LTAP 101850Z 24009KT CAVOK M01/M04 Q1021 NOSIG=
METAR LTAT 101850Z 23005KT CAVOK M07/M09 Q1021 NOSIG=
METAR LTAU 101850Z VRB01KT 3800 BR BKN016 M03/M04 Q1022 NOSIG=
METAR LTBF 101850Z 02003KT 1200 R36/1300U R18/1500U BR NSC M00/M00
 Q1020 NOSIG=
METAR LTBU 101850Z 28008KT 3500 BR FEW010 08/08 Q1019=
METAR LTCC 101850Z 26003KT CAVOK M01/M05 Q1021 NOSIG=
METAR LTCE 101850Z 00000KT 2500 BR NSC M23/M24 Q1022 NOSIG=
METAR LTCJ 101850Z 03006KT CAVOK M02/M03 Q1021=

0000013500
940
SABA31 MYNN 101857
METAR MYNN 101900Z 12014KT 9000 -SHRA BKN014TCU BKN035 BKN080
25/22 A3010 RMKS TCU/N-NE-E RB40=

0000057800
941
SATU33 LTAA 101850
METAR LTAR 101850Z 16005KT CAVOK M05/M10 Q1020=
METAR LTAY 101850Z 00000KT CAVOK 01/M04 Q1021=
METAR LTBR 101850Z 08014KT CAVOK 04/M02 Q1020 NOSIG=
METAR LTBY 101850Z 11009KT 6000 OVC009 M01/M03 Q1022=
METAR LTCA 101850Z 24006KT CAVOK M05/M08 Q1022 NOSIG=
METAR LTCD 101850Z 00000KT CAVOK M09/M13 Q1023 NOSIG=
METAR LTCF 101850Z 00000KT CAVOK M20/M22 Q1022=
METAR LTCI 101850Z 13003KT 6000 FEW040 BKN100 M08/M09 Q1020 NOSIG=
METAR LTDA 101850Z VRB02KT CAVOK 05/01 Q1021=
METAR LTFH 101850Z VRB01KT CAVOK 02/01 Q1016 NOSIG=

0000059100
942
SATU34 LTAA 101850
METAR LTAL 101850Z NIL=
METAR LTAS 101850Z NIL=
METAR LTAW 101850Z NIL=
METAR LTBD 101850Z NIL=
METAR LTBH 101850Z NIL=
METAR LTBO 101850Z NIL=
METAR LTCK 101850Z NIL=
METAR LTCL 101850Z NIL=
METAR LTCM 101850Z NIL=
METAR LTCN 101850Z NIL=
METAR LTCO 101850Z 00000KT 1700 BCFG FEW006 M22/M25 Q1022=
METAR LTCP 101850Z NIL=
METAR LTCR 101850Z NIL=
METAR LTCT 101850Z NIL=
METAR LTCU 101850Z NIL=
METAR LTCV 101850Z NIL=
METAR LTFD 101850Z 10003KT 6000 NSC 06/03 Q1020=
METAR LTFG 101850Z 13003KT 9999 SCT035 11/08 Q1021=

0000008900
943
SATU35 LTAA 101850
METAR LCEN 101850Z 28009KT CAVOK 09/04 Q1021 NOSIG=

0000009800
944
SAMJ41 LWSK 101900
METAR LWSK 101900Z 00000KT 3600 BR OVC004 03/02 Q1023 NOSIG=

0000011200
945
SACN61 CYQW 101900
METAR CYQW 101900Z AUTO 20003KT 5SM BR FEW160 M10/M11 A2942 RMK
 SLP000=

0000024200
946
SAUS71 KWBC 101800 RRJ
METAR
KMMU 101845Z 00000KT 7SM OVC010 00/M02 A3039=
KMTN 101845Z 00000KT 2SM BR OVC003 02/02 A3037=
KMYR 101845Z 14013KT 10SM BKN030 19/16 A3020=
KSCH 101845Z 00000KT 10SM OVC031 00/M04 A3032=

0000012900
947
SAXX69 EGRR 101900
METAR EQBH 101850Z 02003KT 9999 SKC 02/M01 Q1028 BLU NOSIG RMK A3036
      PA2526 DA1641=

0000005900
948
FTTM31 YBBN 101900
TAF WPDL 101900Z NIL=

0000028600
949
FTAU35 YBBN 101900
TAF AMD YCIN 101833Z 1020/1114
VRB05KT 9999 BKN010
FM102300 27006KT 9999 SCT020
FM110100 27008KT CAVOK
FM110700 33010KT CAVOK
RMK=
TAF YFRT 101833Z 1020/1114
14010KT 9999 BKN010
FM102300 13014KT CAVOK
FM110700 13018KT CAVOK
RMK=

0000011300
950
SPAU32 AMMC 101900
SPECI YPGV 101900Z AUTO 12008KT 9999 // BKN007 BKN043 BKN115 25/24
Q1006=

0000010800
951
SARM31 LUKK 101900
METAR LUKK 101900Z 32007KT 9999 BKN049 07/02 Q1012
R26/CLRD65 NOSIG=

0000009400
952
SPAU32 AMMC 101900
SPECI YAMB 101900Z AUTO ///01KT 4300 // NCD 17/16 Q1018=

00000000