0000041300
773
SAAE33 VTBB 101800
METAR VVTS 101800Z 09004KT 070V140 9999 FEW017 SCT040 23/21 Q1013
      NOSIG =
METAR VVNB 101800Z 28004KT 2600 BR FEW020 BKN050 16/11 Q1021 NOSIG=
METAR VVDN 101800Z 34004KT 4000 BR SCT013 BKN060 21/19 Q1019 NOSIG=
METAR VVPB 101800Z 27008KT 3000 -RA BR BKN020 BKN050 19/18 Q1020
NOSIG=
METAR VVCR 101800Z NIL=
METAR VVCT 101800Z NIL=
METAR VVPQ 101800Z NIL=

0000081000
774
SACI41 ZBBB 101800
METAR ZBHH 101800Z 09002MPS CAVOK M20/M26 Q1028 NOSIG=
METAR ZGHA 101800Z 34004MPS 1600 -RA BR SCT003 BKN007 OVC033
05/04
Q1028 NOSIG=
METAR ZHCC 101800Z 00000MPS 1500 BR NSC 00/M02 Q1032 NOSIG=
METAR ZHHH 101800Z 03002MPS 3000 -RA BR SCT018 04/03 Q1030 NOSIG=
METAR ZJHK 101800Z 09002MPS 6000 SCT033 17/16 Q1020 NOSIG=
METAR ZJSY 101800Z 07004MPS 9999 BKN066 21/16 Q1020 NOSIG=
METAR ZLLL 101800Z 01002MPS CAVOK M16/M24 Q1025 NOSIG=
METAR ZSNJ 101800Z 11003MPS 5000 HZ NSC 05/M01 Q1031 NOSIG=
METAR ZSOF 101800Z 06002MPS 3500 BR NSC 04/M00 Q1031 BECMG TL2000
2500=
METAR ZUCK 101800Z 28002MPS 4000 BR SCT023 OVC050 06/03 Q1027 NOSIG=
METAR ZYCC 101800Z 21004MPS CAVOK M18/M24 Q1027 NOSIG=
METAR ZYHB 101800Z 25006MPS CAVOK M17/M23 Q1024 NOSIG=

0000009400
775
SAAG41 SARI 101800
METAR SARI 101800Z  36008KT 9999  BKN030  33/22
Q1011=

0000123000
776
SAAG05 SABM 101800
METAR SAAR 101800Z  05008KT 9999  FEW030 FEW042CB
SCT100 BKN200  31/20 Q1007=
METAR SABE 101800Z  36008KT 9999  FEW035  30/20
Q1007=
METAR SACO 101800Z  18009KT 9999  SCT030 FEW040CB
29/19 Q1011=
METAR SADF 101800Z  36010KT 9999  SCT025  31/19
Q1007=
METAR SAEZ 101800Z 31006KT 190V330 9999 FEW050TCU 32/19 Q1007=
METAR SAME 101800Z 09006KT CAVOK 29/06 Q1010=
METAR SANT 101800Z  14004KT 9999  FEW045TCU FEW200
 36/22 Q1005=
METAR SAOC 101800Z NIL=
METAR SARC 101800Z  32012KT 9999  SCT030  35/23
Q1005=
METAR SARE 101800Z 34009KT 9999 SCT020 35/25 Q1005=
METAR SARF 101800Z NIL=
METAR SARI 101800Z NIL=
METAR SARL 101800Z NIL=
METAR SARP 101800Z  32015KT 9999  SCT030  35/21
Q1009=
METAR SASA 101800Z  00000KT 9999  FEW020TCU SCT100
 32/17 Q1010=
METAR SASJ 101800Z NIL=
METAR SAVC 101800Z  07009KT 9999  SCT040 BKN200
18/02 Q1013=
METAR SAWE 101800Z NIL=
METAR SAWG 101800Z  23022G34KT 9999  BKN035
14/M03 Q1008=
METAR SAWH 101800Z 23025G31KT 9999 FEW035 SCT045 08/02 Q1005=
METAR SAZM 101800Z  14013KT 9999  FEW025  23/11
Q1008=
METAR SAZN 101800Z  27011KT CAVOK 26/M06 Q1012=
METAR SAZS 101800Z  29018KT CAVOK 18/01 Q1017=

0000010000
777
SAAG41 SAWE 101800
METAR SAWE 101800Z  05010KT 9999  FEW015 SCT020
10/08 Q1004=

0000009700
778
SAAF21 LFPW 101800 CCA
METAR COR FAUP 101800Z 21004KT CAVOK 26/05 Q1014 NOSIG=

0000152800
779
SPUS70 KWBC 101808
SPECI
KAUG 101804Z AUTO 22004KT 2 1/2SM -SN BKN026 BKN037 OVC049 M07/M10
     A3037 RMK AO2 P0000 T10671100=
KBTL 101804Z 17009KT 4SM BR OVC004 01/00 A3000 RMK AO2
     T00110000=
KCSG 101804Z 09007KT 3SM BR OVC003 09/09 A3014 RMK AO2=
KHAO 101804Z AUTO 07/06 A3011 RMK AO2 PWINO $=
KHOT 101804Z AUTO 12004KT 2SM RA BR OVC006 11/10 A2988 RMK AO2 CIG
     002V011 P0003=
KIOW 101804Z AUTO 12008KT 1SM BR OVC002 01/01 A2972 RMK AO2
     PRESFR=
KITR 101804Z AUTO 32029G36KT 10SM OVC036 01/M06 A2967 RMK AO2 PK
     WND 31036/1801 SNE1756 P0000 T00061061=
KOTM 101804Z AUTO 15008KT 2SM BR OVC002 01/01 A2967 RMK AO2
     T00110006 TSNO=
KAKH 101805Z AUTO 03008KT 2 1/2SM -RA BR OVC004 06/04 A3023 RMK
     AO2 RAB00 P0000=
KAND 101805Z AUTO 04007KT 5SM -RA BR OVC004 08/07 A3020 RMK AO2
     P0000=
KASD 101805Z AUTO 12005KT 7SM OVC004 15/13 A3005 RMK AO2 T01500133
     TSNO=
KGFL 101805Z AUTO 21004KT 8SM SCT011 OVC032 M02/M05 A3033 RMK
     AO2=
KIWI 101805Z AUTO VRB03KT 5SM -SN BKN014 BKN039 OVC050 M02/M05
     A3039 RMK AO2 P0000 T10221050=
KJEF 101805Z 19004KT 2SM -TSRA BR OVC011 06/04 A2975 RMK AO2 LTG
     DSNT ALQDS RAB1758 PRESRR P0003=
KLAR 101805Z AUTO 28033G38KT 2 1/2SM HZ SCT110 M05/M10 A2966 RMK
     AO2 PK WND 28038/1804 VIS 1 1/4V4=
KTQE 101805Z AUTO 15008KT 3SM BR OVC004 01/M01 A2961 RMK AO2
     T00111006=
KUUU 101805Z AUTO 00000KT 2 1/2SM -RA BR BKN014 OVC020 03/02 A3040
     RMK AO2 P0000 T00280017=

0000034100
780
SAXX69 EGRR 101800 RRA
METAR KQIR 101758Z 10004KT 9999 CLR 18/13 A3014 RMK AO2A WND DATA ESTMD
      DZB1740E1753 SLP208 P0000 60000 T01830126 10203 20181 50002
      VISNO RWY16 CHINO RWY16 $=
METAR KQSA 101758Z 26004KT 9999 CLR 00/M09 A3027 RMK AO2A SLP321 WND
      DATA ESTMD ALSTG/SLP ESTMD 10064 21007 51009=

0000014800
781
SAUK39 EGGY 101800 RRA
METAR EGUN 101758Z AUTO 21009KT 9999 FEW180 08/06 A2990 RMK AO2
     SLP129 T00780060 10087 20072 58002=

0000014800
782
FTUS53 KWBC 101815 CCA
TAF COR
KLAR 101814Z 1018/1118 28029G36KT 3SM BLSN SCT110 BKN150
     FM110200 28021G30KT P6SM SCT250=

0000117600
783
FTUS80 KWBC 101815 AAA
TAF AMD
KEWR 101812Z 1018/1124 VRB04KT 5SM BR SCT008 BKN015 OVC030
      TEMPO 1018/1020 3SM -DZ BR BKN008 OVC015
     FM102000 VRB03KT 4SM BR BKN010 BKN025
      TEMPO 1102/1105 -RA BKN008 OVC015
     FM110500 15005KT 3SM -RA BR BKN006 OVC015
     FM110800 16008KT 1SM -RA BR OVC004 WS020/19050KT
     FM111400 17014KT 1SM -RA BR OVC004 WS015/19050KT
     FM111900 18016G23KT 1SM RA OVC004 WS015/19050KT=
KHPN 101813Z 1018/1118 VRB04KT 5SM BR SCT008 OVC015
      TEMPO 1018/1020 3SM -DZ BR BKN008
     FM102000 VRB03KT 6SM BR BKN008 OVC015
      TEMPO 1102/1105 -RA
     FM110500 15003KT 3SM -RA BR BKN004 OVC009
     FM110800 15008KT 1/2SM -RA FG OVC003 WS020/19050KT
     FM111400 17011KT 1SM -RA BR OVC004 WS015/19050KT AMD NOT
      SKED=
KLGA 101812Z 1018/1118 VRB04KT 5SM BR SCT015 OVC030
      TEMPO 1018/1020 3SM -DZ BR BKN015
     FM102000 VRB04KT 6SM BR BKN015 BKN025
      TEMPO 1102/1105 -RA BKN008 OVC015
     FM110500 15007KT 3SM -RA BR BKN006 OVC015 WS020/19040KT
     FM110800 15011KT 1SM -RA BR OVC004 WS020/19055KT
     FM111400 17016KT 1SM -RA BR OVC004 WS015/19060KT=

0000014800
784
FTUS80 KWBC 101815 CCA
TAF COR
KLAR 101814Z 1018/1118 28029G36KT 3SM BLSN SCT110 BKN150
     FM110200 28021G30KT P6SM SCT250=

0000028100
785
FTUS80 KWBC 101815
TAF
TAF COR KEVW 101810Z 1018/1118 25020G30KT P6SM VCSH OVC040
      TEMPO 1018/1020 3SM -SN BR BKN030
     FM102000 25022G32KT 5SM -SHSN BLSN OVC020
     FM110200 24020KT P6SM VCSH BKN030
     FM111500 22015G27KT P6SM SCT050 BKN070=

0000038700
786
FTUS80 KWBC 101815 AAB
TAF AMD
KTEB 101812Z 1018/1118 VRB04KT 6SM BR BKN012 OVC025
      TEMPO 1018/1020 3SM -DZ BR
     FM102000 VRB02KT 6SM BR BKN012 BKN025
      TEMPO 1102/1105 -RA BKN008 OVC015
     FM110500 15003KT 3SM -RA BR BKN006 OVC015
     FM110800 15007KT 1SM -RA BR OVC004 WS020/19050KT
     FM111400 17009KT 1SM -RA BR OVC004 WS015/19050KT=

0000011000
787
SPUS43 KWBC 101815
SPECI
KPTK 101811Z 16008KT 1SM R09R/3500V5000FT BR OVC002 01/00 A3004=

0000013200
788
SPSP32 LEMM 101815
SPECI LEAS 101815Z VRB02KT 3500 -DZ FEW002 SCT007 BKN015 10/10
Q1016 TEMPO 1000 BCFG BKN005=

0000007700
789
FCSP31 LEMM 101700 AAA
TAF AMD LEBG 101815Z 1018/1103 CNL=

0000076700
790
SAVN20 SVMR 101800
METAR SVCR 101800Z NIL=
METAR SVMC 101800Z /////KT 9999 SCT026 25/24 Q1012=
METAR SVBM 101800Z 11010KT 9999 FEW016 30/16 Q1015=
METAR SVBS 101800Z NIL=
METAR SVMI 101800Z 05004KT 9999 FEW016 28/20 Q1014 NOSIG=
METAR SVFM 101800Z NIL=
METAR SVBC 101800Z 36010KT 9999 FEW010 33/20 Q1013=
METAR SVCU 101800Z 02015KT 9999 FEW013 30/14 Q1012=
METAR SVMG 101800Z /////KT 9999 SCT010 30/20 Q1012=
METAR SVAC 101800Z 02006KT 9999 SCT020 32/18 Q1014=
METAR SVMT 101800Z 02010KT 9999 SCT013 32/13 Q1010=
METAR SVBI 101800Z 11009KT 9999 FEW023 35/18 Q1012=
METAR SVCB 101800Z 07013KT 9999 SCT013 30/// Q1010=
METAR SVVA 101800Z 11006KT 9999 FEW016 32/19 Q1013=
METAR SVSO 101800Z 09005KT 9999 SCT023 31/22 Q1017=

0000007700
791
FCFR34 LFPW 101400 AAA
TAF AMD LFAT 101801Z 1018/1024 CNL=

0000023100
792
SAAF13 LFPW 101800 RRB
METAR GOGG 101800Z 34004KT CAVOK 27/15 Q1011=
METAR GOGS 101800Z 34012KT CAVOK 23/17 Q1011=
METAR GOSS 101800Z 02008KT CAVOK 20/15 Q1012=
METAR GOTT 101800Z 02004KT CAVOK 32/13 Q1009=

00000000