0000033900
053
NOUK32 EGGY 110041
SADIS GATEWAY MONITOR
INTERNAL ALARM MESSAGE
AERODROME NOT RECEIVED

OPKC SA LAST RECEIVED AT 102355Z
OSDI SA LAST RECEIVED AT 102100Z
OSDI FT LAST RECEIVED AT 101700Z
SKBO FT LAST RECEIVED AT 101000Z
VABB FT LAST RECEIVED AT 100300Z
ZSPD FT LAST RECEIVED AT 102124Z
END OF MESSAGE

0000025200
054
SAAE32 VTBB 110000 RRA
METAR VLLB 110000Z 36002KT 0800 FG VV/// 16/15 Q1019 NOSIG=
METAR VLLN 110000Z 00000KT 0100 FG VV/// 16/16 Q1019 NOSIG=
METAR VLPS 110000Z 36002KT 5000 BR SCT200 19/17 Q1017 NOSIG=
METAR VLSK 110000Z NIL=

0000019100
055
SAIE32 EIDB 110030
METAR EICM 110030Z NIL=
METAR EIDL 110030Z NIL=
METAR EIKY 110030Z NIL=
METAR EIME 110030Z NIL=
METAR EISG 110030Z NIL=
METAR EIWF 110030Z NIL=

0000028900
056
SAIE31 EIDB 110030
METAR EIDW 110030Z 25010KT 9999 FEW025 02/02 Q1011 NOSIG=
METAR EINN 110030Z 22007KT 9999 FEW018CB BKN024 04/04 Q1013 TEMPO
     1200 BKN004=
METAR EICK 110030Z 30005KT 9999 -SHRA SCT016 BKN070 03/01 Q1013
     NOSIG=
METAR EIKN 110030Z NIL=

0000167600
057
SPUS70 KWBC 110014
SPECI
KACV 110010Z AUTO 00000KT 2 1/2SM BR SCT002 OVC048 11/09 A3020 RMK
     AO2 T01060094=
KASX 110010Z AUTO VRB03KT 10SM OVC009 M02/M04 A2959 RMK AO2=
KELM 110010Z 00000KT 7SM OVC015 02/M01 A3018 RMK AO2=
KMAI 110010Z AUTO 11003KT 3/4SM BR VV003 16/16 A3005 RMK AO2=
KMFI 110010Z AUTO 08008KT 3SM -SN BR OVC008 M02/M03 A2955 RMK AO2
     CIG 004V012 P0000 T10171028=
KMGY 110010Z AUTO 15010KT 10SM BKN020 BKN090 OVC120 07/07 A2988
     RMK AO2 T00720067=
KMIE 110010Z 19010KT 2SM RA BR OVC003 04/04 A2984 RMK AO2 P0003
     T00440039=
KRDG 110010Z 00000KT 1SM -RA BR VV005 01/M01 A3030 RMK AO2 TWR VIS
     3 P0000 RVRNO=
KUGN 110010Z 15008KT 2SM -RA BR OVC002 01/01 A2963 RMK AO2 P0015
     $=
KDCU 110011Z AUTO 14008KT 8SM FEW017 BKN021 OVC031 10/08 A2999 RMK
     AO2=
KENW 110011Z 16011KT 2SM RA BR OVC003 03/01 A2962 RMK AO2 CIG
     002V007 P0003 T00280011=
KFIG 110011Z AUTO 04006KT 7SM SCT010 BKN015 01/00 A3016 RMK AO2
     T00060000=
KHOU 110011Z 19008KT 10SM OVC014 21/18 A2982 RMK AO2=
KIXD 110011Z 23007KT 8SM BKN007 BKN013 OVC038 03/03 A2957 RMK AO2
     CIG 005V009 T00330028=
KLGA 110011Z 05005KT 1SM R04/P6000FT -DZ BR OVC005 01/M01 A3034
     RMK AO2 P0000=
KMKC 110011Z 26005KT 10SM FEW009 OVC016 05/03 A2956 RMK AO2
     T00500033=
KRHI 110011Z AUTO 12005KT 3SM BR FEW004 OVC019 M04/M05 A2959 RMK
     AO2 SNE03 P0000 T10391050=
KTOI 110011Z AUTO 10003KT 1/2SM FG OVC002 13/12 A3004 RMK AO2
     T01330122=
PAOO 110011Z AUTO 05022G26KT 2 1/2SM -SN BR FEW003 SCT031 BKN038
     M06/M08 A2937 RMK AO2 TSNO BKN V OVC P0000 PK WND 05026/0011
     $=

0000023400
058
SACZ31 LKPW 110030
METAR LKKV 110030Z NIL=
METAR LKMT 110030Z 23009KT CAVOK 00/M03 Q1018 NOSIG=
METAR LKPR 110030Z 23012KT CAVOK 02/M00 Q1017 NOSIG=
METAR LKTB 110030Z 09003KT 040V150 CAVOK 01/M01 Q1019 NOSIG=

0000039100
059
SAPL31 EPWA 110030
METAR EPGD 110030Z 29011KT 260V320 9999 BKN009 05/04
    Q1007 =
METAR EPKK 110030Z 24011KT 9999 BKN046 04/M00 Q1016 =
METAR EPLL 110030Z 27015KT CAVOK 05/00 Q1013 =
METAR EPPO 110030Z 25011KT 9999 BKN045 06/01 Q1013
    R10/19//95 =
METAR EPRZ 110030Z 26017KT CAVOK 06/M01 Q1015 =
METAR EPWA 110030Z 26020KT 9999 BKN030 05/01 Q1011 NOSIG=

0000037600
060
SAPL32 EPWA 110030
METAR EPBY 110030Z 25013KT 9999 BKN035 06/02 Q1011 =
METAR EPKT 110030Z 25010KT 9999 BKN040 04/M01 Q1016 =
METAR EPLB 110030Z NIL=
METAR EPMO 110030Z 26019KT 9999 BKN028 05/02 Q1010=
METAR EPSC 110030Z 24008KT 9999 SCT011 BKN042 04/02
    Q1012 =
METAR EPWR 110030Z 26006KT 9999 BKN043 04/M00 Q1017 =
METAR EPZG 110030Z NIL=

0000009500
061
SACA32 KWBC 110000 RRA
METAR
TKPN 110000Z 10017KT 9999 FEW019 26/21 Q1017=

0000025400
062
SALJ31 LJLJ 110030
METAR LJLJ 110030Z 00000KT 9999 SCT030 BKN050 06/05 Q1020 NOSIG=
METAR LJMB 110030Z AUTO VRB01KT 3500 BR BKN004/// 03/03 Q1020=
METAR LJPZ 110030Z AUTO 30002KT 3200 BR FEW003/// BKN007///
BKN050/// 09/09 Q1022=

0000011200
063
SALJ32 LJLJ 110030
METAR LJCE 110030Z AUTO 00000KT 0550 FG BKN001/// BKN003///
03/03 Q1021=

0000026100
064
SAFR21 LFPW 110030
METAR LFOA 110030Z AUTO 11004KT 9999 NSC 06/04 Q1015=
METAR LFPC 110030Z AUTO 17003KT 0250 R25/1200D FG VV/// 04/03 Q1017=
METAR LFPV 110030Z AUTO 09003KT 060V120 1500 1400 R27/////
R09///// -RA BR OVC002 05/05 Q1016=

0000037400
065
SARO31 LROM 110030
METAR LRBS 110030Z 27006KT 6000 NSC 02/01 Q1019 TEMPO 3000 BR=
METAR LRCK 110030Z 27007KT 1200 R18/0600D MIFG BR FEW000 01/01
Q1018 TEMPO 0800 FG=
METAR LROP 110030Z 27006KT 6000 NSC M00/M01 Q1019 8819//95 TEMPO
3000 BR=
METAR LRSB 110030Z NIL=
METAR LRTR 110030Z 10003KT 0800 R11/0900N FZFG SCT000 M01/M01 Q1022
11190095=

0000004100
066
SARO32 LROM 110030
NIL

0000004100
067
SARO33 LROM 110030
NIL

0000046400
068
SAFR22 LFPW 110030
METAR LFBC 110030Z AUTO 26004KT 7000 BKN016 09/09 Q1015=
METAR LFBG 110030Z AUTO VRB01KT 4700 BR NSC 08/07 Q1015=
METAR LFBM 110030Z AUTO 00000KT 3500 BR OVC012 06/06 Q1016=
METAR LFKS 110030Z AUTO 26003KT 220V300 9999 BKN023 OVC029 13/07
Q1021=
METAR LFMO 110030Z AUTO 11002KT 4500 BR OVC028 08/07 Q1020=
METAR LFMY 110030Z AUTO 08004KT 9999 OVC027 10/08 Q1020=
METAR LFBY 110030Z NIL=
METAR LFMC 110030Z NIL=

0000039600
069
SAFR23 LFPW 110030
METAR LFOC 110030Z AUTO 04004KT 0400 R28///// FG VV/// ///TCU
06/05 Q1016=
METAR LFOE 110030Z AUTO 11005KT 2900 BR OVC003/// ///TCU 05/05
Q1016=
METAR LFOJ 110030Z AUTO 05004KT 3700 BR NSC 05/05 Q1015=
METAR LFRJ 110030Z AUTO 21006KT 7000 FEW044 OVC050 07/06 Q1015=
METAR LFRL 110030Z AUTO 18005KT 0200 R23/0650D R05/0750N // VV///
08/07 Q1015=

0000009100
070
SAKO31 RKSI 110030
METAR RKSI 110030Z 15002KT CAVOK M01/M04 Q1033 NOSIG=

0000025900
071
SAFR24 LFPW 110030
METAR LFSI 110030Z AUTO 09006KT 9999 NSC 02/02 Q1017=
METAR LFSO 110030Z AUTO 13005KT 9999 NSC 02/01 Q1017=
METAR LFSX 110030Z AUTO 07005KT 8000 NSC 02/00 Q1017=
METAR LFYR 110030Z AUTO VRB02KT 9999 NSC 05/04 Q1015=

0000056900
072
SAFR31 LFPW 110030
METAR LFLL 110030Z 15006KT 5000 SCT013 BKN200 07/06 Q1017 NOSIG=
METAR LFMN 110030Z 33009KT 9999 OVC029 10/05 Q1021 NOSIG=
METAR LFPG 110030Z VRB02KT 0600 R27L/1800N R09R///// R26R/////
R08L/1600U R26L///// R08R/1200U R27R/1700U R09L///// FG VV///
05/04 Q1017 NOSIG=
METAR LFPO 110030Z 08004KT 2000 -RA BR OVC002 06/05 Q1016 NOSIG=
METAR LFQQ 110030Z AUTO 20010KT 9000 OVC008 04/03 Q1016=
METAR LFRB 110030Z 18006KT 5000 BR FEW006 BKN047 08/07 Q1015 NOSIG=
METAR LFRS 110030Z VRB02KT 5000 -RA NSC 09/08 Q1015 NOSIG=

00000000