0000078300
233
SACA31 KWBC 101900
METAR
MBJT NIL=
MBPV 101900Z 09013KT 9999 SCT012 28/20 Q1018=
MBSC NIL=
MKJP 101900Z 15020KT 9999 FEW024 30/24 Q1013=
MKJS 101900Z 06014KT 9999 FEW022 29/25 Q1014=
MUCM 101850Z 09012KT 060V130 9999 SCT020 30/17 Q1017=
MUCU 101850Z 13014KT 9999 FEW020 29/19 Q1016=
MUHA 101855Z 15008KT 9000 SCT030 29/19 Q1017=
MUVR 101850Z 04008KT 010V090 9000 SCT020 30/18 Q1017=
MWCB 101900Z 11012KT 9999 SCT018TCU 29/24 Q1016=
MWCR 101900Z 10008KT 080V140 9999 FEW018 29/23 Q1015 NOSIG=
MYAM NIL=
MYAT NIL=
MYBS NIL=
MYEC NIL=
MYEG NIL=
MYEH NIL=
MYEM NIL=
MYGF 101900Z 15010KT 9999 FEW015 SCT080 BKN180 A3009=
MYGW NIL=
MYNN 101900Z 12014KT 9000 -SHRA BKN014TCU BKN035 BKN080 25/22
     A3010 RMKS TCU/N-NE-E RB40=

0000062600
234
SACA33 KWBC 101900
METAR
TBPB 101900Z 06017KT 9999 -SHRA SCT018 26/18 Q1013 NOSIG=
TDPD 101900Z 10013KT 9999 BKN016 26/21 Q1015=
TDPR NIL=
TFFF 101900Z AUTO 06016KT 030V090 9999 BKN033 BKN039 28/20
     Q1014=
TFFG NIL=
TFFJ NIL=
TFFR 101900Z 07013KT 030V100 9999 SCT029 SCT047 27/20 Q1015
     NOSIG=
TGPY 101900Z 13017KT 9999 BKN018 26/23 Q1013 NOSIG=
TGPZ NIL=
TLPC NIL=
TLPL NIL=
TNCA 101900Z 12010KT 9999 BKN022 27/23 Q1012 A2989=
TNCB NIL=
TNCC NIL=
TNCE NIL=
TNCM NIL=
TTCP NIL=
TTPP NIL=
TVSM NIL=
TVSU NIL=
TVSV 101900Z 09016KT 9999 SCT020 28/21 Q1014=

0000100300
235
SACA35 KWBC 101900
METAR
MGGI NIL=
MGPB 101900Z 36010KT 9999 SCT018TCU 26/22 Q1014 A2994 TCU SSE=
MGSJ 101900Z 15010KT CAVOK 31/23 Q1011 A2985=
MHLC 101900Z 35005KT 9999 SCT020 SCT070 26/22 Q1014 A2995
     NOSIG=
MHLM 101900Z 02006KT 9999 SCT028 29/22 Q1013 A2991 NOSIG=
MHTG 101900Z 06006KT 9999 BKN028 25/13 Q1018 A3006 NOSIG=
MNPC NIL=
MPBO 101900Z 33008KT 290V040 9000 SCT020TCU SCT080 Q1014=
MPCH NIL=
MPDA 101900Z 17006KT 9999 SCT020 31/24 Q1008=
MPMG 101900Z 33007KT 9999 SCT018TCU 27/24 Q1010 NOSIG=
MPSA NIL=
MPTO 101900Z 04007KT 9999 SCT018TCU SCT100 31/20 Q1008 NOSIG=
MRLB 101900Z 07014KT CAVOK 33/16 A2979=
MRLM 101900Z 07004KT 9999 FEW040 30/21 A2987=
MROC 101900Z 07012KT 9999 FEW030 27/12 A2996 NOSIG=
MRPV 101900Z 06014KT 9999 FEW045 25/14 A2998 NOSIG=
MSLP 101850Z 16007KT 120V220 CAVOK 31/19 Q1010 A2984=
MSSS 101850Z 33003KT CAVOK 31/20 Q1015 A2998=
MZBZ 101900Z 06006KT 9999 FEW023 SCT045 27/22 A2995 Q1014
     NOSIG=

0000060900
236
SACA41 KWBC 101900
METAR
MKBK NIL=
MUBA NIL=
MUBY NIL=
MUCA NIL=
MUCL 101851Z 10014KT 9999 FEW020 28/22 Q1016=
MUCM 101850Z 09012KT 060V130 9999 SCT020 30/17 Q1017=
MUCU 101850Z 13014KT 9999 FEW020 29/19 Q1016=
MUGM 101856Z 12019KT 9999 FEW030 29/19 A3001 RMK PK WND 12026/1851
     SLP164 T02890194=
MUGT NIL=
MUHA 101855Z 15008KT 9000 SCT030 29/19 Q1017=
MUMO NIL=
MUMZ NIL=
MUNG NIL=
MUVR 101850Z 04008KT 010V090 9000 SCT020 30/18 Q1017=
MUVT NIL=
MYEF NIL=
MYSM NIL=
TABS NIL=
TAOA NIL=
TBBI NIL=
TDCF 101900Z 10004KT 9999 SCT019 29/18 Q1014=

0000019000
237
SAHA31 KWBC 101900
METAR
KQHA NIL=
MTCA NIL=
MTCH NIL=
MTEG NIL=
MTJA NIL=
MTJE NIL=
MTPP 1900Z 09011KT 9999 FEW030 32 1014.9 A29.97=
MTPX NIL=
MTTP NIL=

0000042700
238
SAJP31 KWBC 101900
METAR
RJAA 101900Z VRB01KT 9999 FEW025 M04/M08 Q1023 NOSIG=
RJAH 101900Z 03002KT 9999 FEW020 M07/M09 Q1022=
RJCC 101900Z 23005KT 9999 -SHSN FEW030 SCT050 M10/M13 Q1017=
RJCH NIL=
RJFK NIL=
RJFT NIL=
RJFU NIL=
RJNN NIL=
RJOO NIL=
RJSS NIL=
RJTT 101900Z 32008KT CAVOK 01/M05 Q1022 NOSIG=
RODN 101858Z AUTO 05005KT 10SM CLR 08/06 A3031 RMK AO2 SLP272
     T00790057=

0000004200
239
SAJP41 KWBC 101900
NIL=

0000032700
240
SAJP42 KWBC 101900
METAR
RJDK NIL=
RJDM NIL=
RJDO NIL=
RJDT NIL=
RJEB NIL=
RJEC NIL=
RJEO NIL=
RJER NIL=
RJFA NIL=
RJFC NIL=
RJFE NIL=
RJFG NIL=
RJFM NIL=
RJFN NIL=
RJFO NIL=
RJFR 101900Z 21005KT 9999 FEW025 BKN050 04/M03 Q1029=
RJFY NIL=
RJFZ NIL=
RJKA NIL=
RJKB NIL=

0000033100
241
SAJP43 KWBC 101900
METAR
RJKI NIL=
RJKN NIL=
RJNF NIL=
RJNG NIL=
RJNH NIL=
RJNO NIL=
RJNT NIL=
RJNY NIL=
RJOA NIL=
RJOB NIL=
RJOC NIL=
RJOE NIL=
RJOF NIL=
RJOI 101855Z 27006KT 9999 FEW030 SCT050 02/M02 A3038 RMK SLP288
     T00171022=
RJOK NIL=
RJOM NIL=
RJOP NIL=
RJOR NIL=

0000004200
242
SAJP44 KWBC 101900
NIL=

0000166800
243
SAUS73 KWBC 101900
METAR
KABR 101853Z AUTO 24005KT 10SM OVC100 M01/M05 A2952=
KALN NIL=
KALO 101854Z AUTO 14008KT 1/2SM R12/2800V3000FT UP FZFG OVC002
     M01/M01 A2964=
KAPN 101854Z AUTO 17006KT 6SM HZ OVC049 M02/M04 A2998=
KASE 101853Z 01006KT 1 1/2SM -SN BKN037 OVC043 M07/M10 A2986=
KATY 101853Z AUTO 22007KT 5SM BR FEW080 M02/M03 A2951=
KAXN 101853Z AUTO 18012KT 1/2SM FZFG OVC002 M03/M03 A2953=
KAZO 101853Z 16006KT 1 1/2SM BR OVC004 02/00 A2995=
KBDE 101853Z AUTO 18010G16KT 3SM BR OVC006 M04/M06 A2948=
KBFF 101853Z AUTO 29015G22KT 10SM CLR 05/M10 A2963=
KBIS 101852Z 28010KT 10SM CLR 02/M06 A2949=
KBJC NIL=
KBKF 101855Z 28023G33KT 70SM FEW070 FEW110 SCT220 03/M12 A2969=
KBRL 101853Z AUTO 14011KT 5SM -RA BR OVC004 02/01 A2966=
KBTL 101853Z 16011KT 4SM BR OVC004 02/00 A2995=
KCGI 101853Z 17012KT 5SM -RA BR BKN010 BKN033 OVC070 07/06
     A2991=
KCID 101852Z 15008KT 3/4SM BR OVC002 01/M01 A2966=
KCIU 101855Z AUTO 15008KT 3SM OVC006 M02/M03 A2992=
KCMI 101853Z 15017KT 2 1/2SM -RA BR OVC005 03/02 A2982=
KCMX 101853Z AUTO 17007KT 9SM CLR M02/M07 A2972=
KCOS 101854Z 31025G35KT 10SM SCT080 SCT180 04/M15 A2967=
KCOU 101854Z 17013KT 4SM -RA BR SCT009 BKN037 OVC055 06/05
     A2966=
KCPR 101853Z 22021G27KT 10SM CLR M02/M11 A2966=
KCYS 101853Z 30031G44KT 10SM FEW080 01/M11 A2961=
KDDC 101852Z AUTO 31021G30KT 10SM CLR 08/M08 A2963=
KDEC 101854Z 17015G23KT 4SM -RA BR OVC005 04/03 A2981=
KDEN 101853Z 29020G25KT 10SM FEW070 SCT110 SCT220 04/M11 A2966=
KDET 101853Z 18007KT 5SM BR OVC007 03/01 A3006=
KDLH 101855Z 18008KT 3/4SM R09/5000V5500FT BR OVC002 M04/M07
     A2961=

0000022300
244
SAJP45 KWBC 101900
METAR
RJTJ NIL=
RJTK NIL=
RJTL NIL=
RJTO NIL=
RJTQ NIL=
RJTR NIL=
RJTU NIL=
RJTX NIL=
RJTY 101858Z AUTO 36003KT 10SM CLR M03/M07 A3025 RMK AO2 SLP255
     T10271074=

0000012500
245
SASA31 KWBC 101900 CCA
METAR
SEGU 101900Z 24005KT 9999 SCT040 BKN100 31/20 Q1009 RMK A2979
     NOSIG=

0000023700
246
SASA41 KWBC 101900
METAR
SEMT 101900Z 19008KT 9999 OVC020 28/22 Q1009=
SEPA NIL=
SKBG NIL=
SKMD NIL=
SKPE NIL=
SKSM NIL=
SKVG NIL=
SMJP 101900Z 36006KT 9999 -SHRA FEW020 SCT030 26/23 Q1009
     NOSIG=

0000170900
247
SAUS73 KWBC 101900 RRA
METAR
KDSM 101854Z 13004KT 3/4SM R31/5000V6000FT -DZ BR OVC002 01/00
     A2961=
KDTW 101853Z 18006KT 4SM BR OVC008 02/01 A3005=
KEAU 101856Z 15011KT 2SM BR OVC005 M03/M04 A2970=
KEGE 101850Z 25009KT 8SM VCSH FEW030 OVC050 M03/M07 A2991=
KELO 101853Z AUTO 18008KT 7SM OVC009 M06/M07 A2958=
KEVV 101854Z 13005KT 6SM -RA BR BKN009 OVC060 08/06 A2996=
KFAR 101853Z 18014KT 5SM HZ CLR M02/M05 A2949=
KFNT 101853Z 19008KT 6SM HZ OVC008 02/M01 A3002=
KFSD 101856Z VRB05KT 1/2SM R03/P6000FT BR OVC004 00/M01 A2953=
KFWA 101854Z 16008KT 4SM BR OVC024 03/01 A2999=
KGCK 101854Z 30024G32KT 10SM CLR 07/M08 A2964=
KGFK 101853Z 18011KT 5SM BR SCT250 M04/M07 A2940=
KGJT 101853Z 33003KT 10SM OVC070 M02/M06 A3000=
KGRB 101853Z 16011KT 3SM BR OVC008 M01/M03 A2983=
KGRI 101853Z 26008KT 7SM OVC009 02/M01 A2953=
KGRR 101853Z 15010KT 4SM BR OVC006 02/M01 A2994=
KGYY NIL=
KHIB 101853Z AUTO 17007KT 2 1/2SM BR OVC005 M05/M07 A2958=
KHON 101855Z AUTO 29007KT 10SM CLR 00/M04 A2954=
KHUF 101853Z 15009KT 7SM OVC016 05/03 A2992=
KHUT 101852Z 31012KT 6SM BR BKN014 OVC021 03/01 A2959=
KICT 101853Z 29015G23KT 10SM BKN019 06/02 A2959=
KIKK 101855Z AUTO 14010KT 5SM BR OVC005 02/01 A2985=
KIND 101854Z 14011KT 5SM BR BKN030 OVC060 03/02 A2995=
KINL 101855Z AUTO 18007KT 3SM BR OVC006 M06/M07 A2953=
KIRK 101855Z AUTO 14009KT 1SM UP BR OVC002 02/01 A2964=
KJAC 101851Z 20010KT 10SM VCSH SCT035 BKN048 BKN055 00/M08
     A2981=
KJLN 101853Z COR 19017G23KT 10SM SCT027 12/09 A2961=
KJLN 101853Z 19017G23KT 10SM FEW120 12/09 A2961=
KJMS 101856Z AUTO 27011KT 10SM CLR 01/M04 A2944=
KJXN 101856Z 17008KT 4SM BR OVC005 02/01 A2998=

0000003800
248
SNVC20 EHDB 110500
NIL
0000119900
249
SASA31 KWBC 101900
METAR
SEGU 101900Z 24005KT 9999 SCT026 BKN100 31/20 Q1009 RMK A2979
     NOSIG=
SEQU NIL=
SKBO 101900Z 25011KT 9999 FEW020 BKN090 18/08 A3020=
SKBQ NIL=
SKCG NIL=
SKCL NIL=
SKLT NIL=
SKRG NIL=
SKSP NIL=
SMNI NIL=
SMZO 101900Z 07004KT 9999 FEW035 29/20 Q1010 NOSIG=
SMZY NIL=
SOCA 101900Z AUTO 18007KT 140V220 9999 FEW007 BKN070 OVC080 25/23
     Q1009=
SPIM 101900Z 18011KT 9999 SCT009 SCT170 24/19 Q1010 NOSIG RMK
     PP000=
SPQT 101900Z 03007KT 9999 VCSH BKN030 32/23 Q1007 TEMPO SHRA RMK
     PP000=
SPQU 101900Z 25011KT 220V280 9999 BKN033 SCT150 18/09 Q1023 NOSIG
     RMK PP000=
SPSO 101900Z /////KT 9999 FEW080 BKN230 27/20 Q1009 RMK BIRD
     HAZARD RWY 22/04 PP000=
SPTN 101900Z 22011KT CAVOK 26/16 Q1008 RMK PP000=
SPYL 101900Z 19012KT CAVOK 32/22 Q1009 RMK PP000=
SPZO 101900Z 11007KT 070V150 9999 VCSH SCT040TCU BKN100 16/06
     Q1026 NOSIG RMK PP000=
SVBC 101900Z NIL=
SVMC 101900Z /////KT 9999 SCT026 35/24 Q1012=
SVMG 101900Z /////KT 9999 SCT010 30/19 Q1012 NOSIG=
SVMI 101900Z 05004KT 9999 SCT016 28/20 Q1014 NOSIG=
SYCJ 101900Z 02014KT 9999 SCT024 29/22 Q1010 NOSIG=
SYTM NIL=

0000126800
250
SASA32 KWBC 101900
METAR
SCAR 101900Z 21012KT CAVOK 24/18 Q1010=
SCBA 101900Z 32027G40KT 280V340 9999 FEW040 BKN200 15/04 Q1014=
SCCF 101900Z 25016KT CAVOK 23/05 Q1022=
SCCH NIL=
SCCI 101900Z 23021KT 9999 SCT040 BKN070 11/02 Q1008 NOSIG=
SCDA 101900Z 20013KT CAVOK 25/16 Q1010=
SCEL 101900Z 21014KT 180V240 CAVOK 30/04 Q1012 NOSIG=
SCFA 101900Z 20014KT 9999 FEW025 SCT260 24/16 Q1010 NOSIG=
SCGE NIL=
SCIE 101900Z 24017KT CAVOK 22/10 Q1015=
SCIP 101900Z 10011KT 9999 SCT020 26/19 Q1021 NOSIG=
SCTE 101900Z 15013KT 9999 SCT040 SCT200 17/05 Q1022 NOSIG=
SGAS 101900Z VRB15KT 9999 SCT040 37/21 Q1006=
SGES 101900Z 36013KT 9999 BKN033 FEW040TCU 34/24 Q1008=
SLCB 101900Z 03004KT 9999 FEW027 FEW030TCU 27/06 Q1020=
SLCZ NIL=
SLLP 101900Z 02011KT 9999 -SHRA SCT017 FEW020CB BKN200 14/04
     Q1033=
SLTJ 101900Z 15010KT 9999 FEW033 31/13 Q1014=
SLTR 101900Z 32012KT 9999 FEW017 30/24 Q1009=
SLVR 101900Z 35013KT 9999 BKN017 30/21 Q1008=
SUAA 101900Z 26004KT 9999 FEW033 29/19 Q1007=
SUCA 101900Z 29006KT 9999 FEW030 FEW040CB 30/15 Q1005=
SULS 101900Z 30005KT CAVOK 30/17 Q1006=
SUMU 101900Z 30006KT CAVOK 28/20 Q1007 NOSIG=
SUPE NIL=
SURV NIL=
SUSO 101900Z 03007KT 9999 SCT033TCU SCT200 28/19 Q1007=

0000029100
251
SASA42 KWBC 101900
METAR
SCAC NIL=
SCHA NIL=
SCSE 101900Z 28012KT CAVOK 20/14 Q1013=
SCTC NIL=
SCTI NIL=
SCVD NIL=
SELT 101900Z 18008KT 9999 BKN030 BKN100 21/09 Q1025=
SUAG NIL=
SUDU 101900Z 04012KT 9999 FEW026 BKN200 27/20 Q1007=
SUPU NIL=
SUTB NIL=

0000043000
252
SAVN42 KWBC 101900
METAR
SVPC 101900Z 08012KT 9999 FEW040 XX/XX Q////=
SVPM 101900Z NIL=
SVPR NIL=
SVSA 101900Z /////KT 9999 FEW020 31/22 Q1013=
SVSE NIL=
SVSO 101900Z NIL=
SVSP 101900Z 04014KT 9999 FEW040 XX/XX Q1012=
SVSR 101900Z /////KT 9999 FEW016 BKN300 32/XX Q1014=
SVST NIL=
SVSZ 101900Z NIL=
SVTM NIL=
SVVA 101900Z 11008KT 9999 FEW016 33/19 Q1012=
SVVL 101900Z NIL=
SVVP NIL=

00000000