0000011800
073
SPUS31 KWBC 101943
SPECI
KOAK 101924Z COR 26005KT 5SM BR BCFG FEW001 SCT007 BKN250 13/09
A3030=

0000010600
074
SPUS41 KWBC 101943
SPECI
KDOV 101939Z AUTO 00000KT 1 3/4SM -RA BR SCT002 04/04 A3033=

0000010100
075
SPUS41 KWBC 101943
SPECI
KGSO 101939Z 02005KT 1 1/2SM +RA BR OVC004 03/02 A3023=

0000009000
076
SPUS43 KWBC 101943
SPECI
KMLI 101939Z VRB04KT 7SM OVC006 02/01 A2963=

0000017100
077
FTCN35 CWAO 101900
TAF CYSP 101943Z 1020/1022 20012G22KT P6SM OVC015 TEMPO 1020/1022 5SM
     -SN OVC009
    RMK NXT FCST WILL BE ISSUED AT 111445Z=

0000017400
078
FTCN34 CWAO 101900
TAF CYPL 101943Z 1020/1102 18008KT 2SM -SN BR OVC005 TEMPO 1020/1102
     6SM -SN OVC008
    RMK NXT FCST WILL BE ISSUED AT 111245Z=

0000024400
079
FTMX52 MMMX 101943 COR
TAF COR MMZC 101943Z 1018/1124 24020G30KT P6SM SCT200 TX21/1021Z
TN03/1112Z
         BECMG 1100/1101 24010G20KT 
         FM110300 20010KT P6SM SKC 
         FM111700 15015KT P6SM SCT030 BKN080=

0000010600
080
SPCN51 CWAO 101943
SPECI CWOB 101943Z AUTO 20002KT -SN BKN002 OVC008 OVC017 M19/ A2909=

0000128500
081
SPUS70 KWBC 101944
SPECI
KAUW 101940Z AUTO 16007KT 2SM BR OVC004 M03/M04 A2971 RMK AO2
     I1000 T10331044=
KBPK 101940Z AUTO 17008KT 1 3/4SM +RA BR BKN009 BKN012 OVC025
     09/08 A2974 RMK AO2 P0013=
KCDW 101940Z 00000KT 2SM UP OVC010 M01/M03 A3037 RMK AO2 UPB34
     P0000=
KDUJ 101940Z AUTO 12004KT 2 1/2SM BR OVC003 02/01 A3017 RMK
     AO2=
KUUU 101940Z AUTO 19004KT 3SM -RA BR FEW008 BKN017 OVC023 03/02
     A3038 RMK AO2 P0000 T00330022=
KUZA 101940Z AUTO 01007KT 4SM -RA BR BKN004 OVC010 06/05 A3020 RMK
     AO2 P0008 T00610050=
KAOH 101941Z AUTO 15012KT 3SM BR OVC003 04/02 A3000 RMK AO2 PNO
     $=
KDNL 101941Z AUTO 00000KT 3SM -RA BR SCT003 OVC013 09/08 A3015 RMK
     AO2 P0015 T00890083 TSNO=
KGMU 101941Z 05006KT 4SM BR OVC004 08/07 A3017 RMK AO2 RAE38
     P0000=
KHFD 101941Z 00000KT 2 1/2SM BR SCT016 OVC044 00/M02 A3039 RMK AO2
     T00001017=
KIJD 101941Z AUTO 00000KT 3SM BR OVC013 M01/M03 A3038 RMK AO2
     T10061028=
KMDW 101941Z 16004KT 2SM BR OVC007 03/02 A2981 RMK AO2 $=
KOMA 101941Z 17006KT 2SM BR OVC006 01/00 A2957 RMK AO2
     T00110000=
KRME 101941Z 10006KT 10SM SCT030 BKN036 OVC080 00/M04 A3028 RMK
     AO2 T00001039=
K7R3 101934Z 15007KT 10SM SCT011 OVC048 20/18 A2996=

0000005200
082
RRIN23 VIDP 110508
RQRPT 640-721=

0000012500
083
SAIN90 VIDP 110500
METAR VIDP 110500Z 27008KT 0700 R28/1000 R29/1000 MIFG NSC 10/07
      Q1019 BECMG 0800=
0000009100
084
SPUS42 KWBC 101944
SPECI
KSHV 101940Z 18014KT 10SM SCT012 17/14 A2981=

0000013300
085
FCNT31 KWBC 101945 AAA
TAF AMD
TAF AMD BGBW 101940Z 1019/1023 06010KT 9999 BKN070
     TEMPO 1019/1023 BKN045=

0000028600
086
FTUS31 KWBC 101945 AAA
TAF AMD
KJAX 101944Z 1020/1118 14010KT P6SM VCSH SCT015 SCT025 BKN040
      TEMPO 1020/1024 BKN025
     FM110200 14005KT 5SM BR BKN010 BKN020
     FM110600 15005KT 2SM BR BKN005 OVC010
     FM111400 19012G18KT P6SM VCSH BKN015 OVC025=

0000012800
087
FTUS42 KWBC 101945 AAA
TAF AMD
KELP 101942Z 1020/1118 26020G30KT P6SM SKC
     FM110200 28009KT P6SM SKC=

0000028800
088
FTUS43 KWBC 101945 AAA
TAF AMD
KTOL 101942Z 1020/1118 17007KT 6SM BR BKN005 OVC035
      TEMPO 1020/1024 5SM BR SCT005 OVC035
     FM110200 16010KT 2SM -RA BR BKN005 OVC035 WS015/19045KT
     FM111400 23006KT 2SM BR OVC005
     FM111700 26014KT 5SM BR OVC008=

0000036500
089
FTUS72 KWBC 101945 AAA
TAF AMD
KELP 101942Z 1020/1118 26020G30KT P6SM SKC
     FM110200 28009KT P6SM SKC=
KJAX 101944Z 1020/1118 14010KT P6SM VCSH SCT015 SCT025 BKN040
      TEMPO 1020/1024 BKN025
     FM110200 14005KT 5SM BR BKN010 BKN020
     FM110600 15005KT 2SM BR BKN005 OVC010
     FM111400 19012G18KT P6SM VCSH BKN015 OVC025=

0000028800
090
FTUS71 KWBC 101945 AAA
TAF AMD
KTOL 101942Z 1020/1118 17007KT 6SM BR BKN005 OVC035
      TEMPO 1020/1024 5SM BR SCT005 OVC035
     FM110200 16010KT 2SM -RA BR BKN005 OVC035 WS015/19045KT
     FM111400 23006KT 2SM BR OVC005
     FM111700 26014KT 5SM BR OVC008=

0000011300
091
SAUS75 KWBC 101900 RRD
METAR
PAPG 101855Z 00000KT 10SM -RA SCT021 BKN032 OVC044 03/01 A2961=

0000252200
092
SPUS70 KWBC 101946
SPECI
K7R3 101934Z 15007KT 10SM SCT011 OVC048 20/18 A2996=
KACV 101942Z AUTO 26007KT 1/4SM R32/1200V3000FT FG VV002 10/09
     A3028 RMK AO2 T01000089=
KAMG 101942Z AUTO 12003KT 4SM BR SCT009 BKN015 OVC036 21/19 A3009
     RMK AO2 RAB06E25 P0000 T02110194=
KEWB 101942Z 00000KT 2SM R05/6000VP6000FT -RA BR BKN007 BKN012
     OVC019 03/02 A3038 RMK AO2 P0001 T00280022=
KFCI 101943Z AUTO 04005KT 3SM OVC003 03/M02 A3031 RMK AO1
     P0002=
KGLD 101942Z AUTO 32024G30KT 3/4SM -SN BR BKN008 OVC013 00/M01
     A2963 RMK AO2 PK WND 32033/1921 SNB1858 P0000 T00001011=
KGVL 101942Z AUTO 07008KT 1 1/2SM BR OVC003 08/08 A3014 RMK
     AO2=
KOWD 101942Z 06003KT 2 1/2SM BR SCT007 OVC022 01/01 A3039 RMK AO2
     T00110006=
KVPZ 101942Z AUTO 15010KT 1 3/4SM BR OVC006 02/02 A2984 RMK AO2
     CIG 004V008 T00220022 TSNO=
PACV 101942Z 00000KT 2 1/2SM -SN BR FEW023 BKN048 OVC060 M02/M03
     A2938 RMK AO2 SNB10 P0000 $=
PASI 101942Z 09006KT 10SM SCT019 BKN030 OVC042 02/01 A2957 RMK AO2
     T00220011=
KAMW 101943Z AUTO 09003KT 1SM BR OVC002 00/M01 A2957 RMK AO2 I1001
     T00001006=
KBMI 101943Z 18011KT 1SM R29/6000VP6000FT -RA BR OVC003 01/01
     A2977 RMK AO2 P0002 WSHFT 1851=
KCSG 101943Z 10004KT 2 1/2SM BR OVC003 11/10 A3010 RMK AO2=
KELM 101943Z 20009KT 10SM SCT029 OVC060 04/M02 A3023 RMK AO2=
KEQY 101943Z AUTO 01003KT 6SM -RA BR OVC005 07/06 A3020 RMK AO2
     CIG 003V007 P0006=
KEVV 101943Z 15008KT 6SM -RA BR OVC010 08/06 A2995 RMK AO2
     RAE1856B33 P0001 T00830061=
KFIT 101943Z AUTO 19006KT 10SM SCT018 OVC050 03/M01 A3035 RMK AO2
     T00281011=
KISW 101943Z AUTO 13007KT 1 3/4SM BR OVC004 M02/M03 A2974 RMK AO2
     I1001 T10221028=
KLNS 101943Z 00000KT 2SM BR OVC013 02/00 A3033 RMK AO2=
KLWV 101943Z AUTO 17010KT 2 1/2SM -RA BR FEW037 OVC075 06/04 A2991
     RMK AO2 RAB11 P0001 T00560044=
KMGW 101943Z 00000KT 10SM OVC015 10/07 A3017 RMK AO2=
KNEW 101943Z 12009KT 8SM SCT006 OVC040 14/12 A2999 RMK AO2
     T01440122=
KPBF 101943Z AUTO 17010KT 4SM -RA BR SCT015 BKN022 OVC039 13/12
     A2983 RMK AO2 P0001=
KTOI 101943Z AUTO 08003KT 1 1/4SM BR OVC003 12/11 A3007 RMK AO2
     RAB20E31 P0000 T01220111=
KUNO 101943Z AUTO 16013KT 3SM RA BR OVC003 06/05 A2974 RMK AO2
     P0015 T00560050=
PATQ 101943Z AUTO 29005KT 10SM SCT004 M31/M34 A2996 RMK AO2 TSNO
     SNB14E24 P0000 $=
PATQ 101943Z AUTO 29005KT 10SM SCT004 M31/M34 A2996 RMK AO2 TSNO
     SNB14E24 P0000 $=

00000000