0000005200
553
RRIN23 VIDP 111001
RQRPT 212-273=

0000005200
554
RRIN23 VECC 111001
RQRPT 953-974=

0000008000
555
SAIN90 VOBG 111000
METAR VOBG 111000Z 07003KT CAVOK 28/11 Q1015=
0000008800
556
SAIN90 VILD 111000
METAR VILD 111000Z 27002KT 5000 HZ NSC 19/3 Q1019=

0000010600
557
SPUS44 KWBC 101922
SPECI
KHQM 101918Z AUTO 19007KT 3SM BR FEW021 BKN030 OVC036 A3010=

0000016900
558
SACA33 KWBC 101900 RRD
METAR
TNCB 101900Z 09011KT 050V140 9999 SCT019 28/23 Q1012 RERA
     NOSIG=
TNCE 101900Z 07015KT 9999 BKN020 26/19 Q1017=

0000010200
559
SPCN49 CWAO 101919
SPECI CYTQ 101919Z 27024G30KT 6SM BLSN FEW005 BKN070 RMK SF1AC4=

0000074400
560
SASN31 ESWI 101920
METAR ESGG 101920Z 20006KT 9999 BKN013 00/M00 Q1001 R21/29//95=
METAR ESGJ 101920Z 25005KT 9999 FEW010 BKN013 M00/M01 Q1001
R01/720068=
METAR ESGP 101920Z NIL=
METAR ESGT 101920Z NIL=
METAR ESMK 101920Z AUTO 27009KT 9999NDV FEW015/// SCT032///
BKN037/// 06/04 Q1004=
METAR ESMQ 101920Z AUTO 28005KT 9999 OVC016/// 01/M01 Q1003=
METAR ESMS 101920Z 27016KT 9999 BKN007 BKN020TCU 06/05 Q1005
R17/29//95=
METAR ESMT 101920Z AUTO 25009KT 9999 OVC026/// 06/03 Q1003=
METAR ESMX 101920Z AUTO 27007KT 9999 FEW008/// BKN009/// OVC012///
01/M01 Q1002=
METAR ESTA 101920Z 26012KT 9999 OVC027 06/04 Q1004=
METAR ESTL 101920Z AUTO 27012KT 9999NDV FEW011/// SCT021///
OVC027/// 06/06 Q1004=

0000058700
561
SADL31 EDZO 101920
METAR EDDF 101920Z VRB02KT CAVOK 04/02 Q1019 NOSIG=
METAR EDDH 101920Z 24010KT 9999 FEW016 SCT024 BKN038 06/04 Q1012
NOSIG=
METAR EDDK 101920Z 16006KT CAVOK 03/02 Q1017 NOSIG=
METAR EDDL 101920Z 21010KT 9999 FEW040 SCT250 05/02 Q1017 NOSIG=
METAR EDDM 101920Z 20004KT 9999 FEW035 01/00 Q1020 NOSIG=
METAR EDDN 101920Z 00000KT 9999 SCT025 03/02 Q1019 NOSIG=
METAR EDDS 101920Z 22002KT CAVOK 03/01 Q1019 NOSIG=
METAR EDDT 101920Z 26012KT 9999 BKN048 06/01 Q1014 NOSIG=
METAR EDDV 101920Z 24009KT 9999 FEW027 BKN037 06/03 Q1014 NOSIG=

0000011100
562
SPCN46 CWAO 101922
SPECI CYBN 101922Z AUTO 15008KT 4SM BKN017 BKN029 OVC058 M01/M02
A3010=

0000009900
563
SPCN51 CWAO 101922
SPECI CWUW 101922Z AUTO 13012KT 9SM FEW086 FEW095 M28/ A2894=

0000045200
564
SADL32 EDZO 101920
METAR EDDB 101920Z 25015KT 9999 BKN048 05/01 Q1014 NOSIG=
METAR EDDC 101920Z 25007KT 9999 FEW048 BKN062 05/00 Q1016 NOSIG=
METAR EDDE 101920Z 22010KT CAVOK 03/01 Q1017 NOSIG=
METAR EDDG 101920Z 21006KT CAVOK 06/03 Q1015 NOSIG=
METAR EDDP 101920Z 22009KT CAVOK 03/02 Q1016 NOSIG=
METAR EDDR 101920Z 08002KT 9999 FEW015 SCT270 01/M00 Q1019 NOSIG=
METAR EDDW 101920Z 23009KT 9999 FEW020 05/03 Q1013 NOSIG=

0000014300
565
SALT31 EYVI 101921
METAR COR EYVI 101920Z 27017KT 7000 -SHRA BKN009 OVC017CB 02/01
     Q0993 R20/2/0295 TEMPO 27026G36KT=

0000009900
566
SAIQ01 ORBI 110500
METAR ORNI 110500Z 23012KT 7000 FEW020 BKN030 09/08 Q1018 NOSIG=
0000045700
567
SXXX32 EUMS 110500 RRC
324DF524
:PRS 1 /1 3728 3720 3713 3705 3697 3690 3682 3674 3667 3659 3651 3643 3635 3626 3618 3610 3601 3593 3584 3576 3567 3558 3549 3539 3531 3522 3513 3505 3495 3487 :RAD 1 /3 3726 3704 3681 3659 3633 3606 3580 3551 3524 3497 3468 3439 3411 3382 3353 3326 3299 3269 3239 3209 :ENC 5 /5 2654 2615 2573 2529 2483 2437 2393 2348 2302 2255 2206 2155 :SW1 60 /60 0 0 :SW2 30 /60 60 60 :BAT 14 /15 13.4 :NAME 324DF524 /
0000362900
568
SNVD01 KWBC 110500 RRD
BBXX
42057 11051 99170 70815 46/// /1009 10267 20235 40152 54000 90450
 22200 00275 11005 20604 311// 41003 70025 333 91210 555 11090
 22096 30401 41112 60449 101084 100085 103091 105099 106099 101097
 81110 90402=
46078 11051 99560 71526 46/// /2307 10037 20016 49962 58011 90450
 22200 00045 11004 20602 322// 41004 70022 333 91209 555 11074
 22078 30412 42212 60449 222064 209036 204046 215078 230064 230057
 82210 90412=
46066 11051 99528 71550 46/// /1808 10046 49986 58015 90450 22200
 00054 11105 20602 325// 41105 70024 333 91209 555 11083 22088
 30435 41810 60449 185078 181078 186072 190076 189073 183074 81809
 90448=
46025 11051 99337 71191 46/// /1305 10151 20122 40183 51013 90450
 22200 00156 11202 325// 41202 70009 333 91205 555 11048 22051
 30427 41106 60449 129046 120046 119049 122045 123041 115041=
46026 11051 99378 71228 46/// ///05 10091 90450 22200 11405 20401
 328// 41405 70023 333 91207 555 11051 22054=
46054 11051 99343 71205 46/// /3211 10142 40182 51004 90450 22200
 00142 11306 20604 331// 41304 70028 333 91213 555 11118 22126
 30357 43314 60449 323111 325111 326109 325112 325115 325112=
46029 11051 99462 71245 46/// /1816 10098 20095 40058 58031 90450
 22200 00092 11409 20707 326// 41406 70045 333 91219 555 11168
 22180 30415 41720 60449 180157 180156 179155 179157 178158
 179151=
BATEU01 11054 99461 70537 46/// /2831 11007 21071 40221 58018
 22264 04002=
BATEU06 11054 99472 70588 46/// /2518 11016 21053 40223 58001
 22224 04022=
46060 11051 99606 71468 46/// /1702 10006 49911 90450 22200 00050
 11101 318// 41101 70006 333 91202 555 11018 22019 30414 41703
 60449 169018 170017 164018 168018 156018 165021 81702 90353=
44007 11051 99435 70701 46/// /2603 10017 20000 40256 58013 90450
 22200 00043 10602 20301 315// 40602 70009 333 91204 555 11027
 22027 30424 42406 60449 260025 260034 249046 240043 247041
 264037=
44065 11051 99404 70737 46/// /1304 10063 40233 58029 90450 22200
 00052 333 91205 555 11048 22055 30350 41305 60449 128043 123040
 114037 110036 110033 108031=
BATFR18 11054 99118 70475 46/// /0921 10254 40129 56031 22213
 04264=
BATFR14 11054 99320 70351 46/// /05// 10177 20117 40161 52021
 22254 04207=
46061 11051 99602 71468 46/// /0504 10015 49914 58012 90450 22200
 00050 333 91204 555 11036 22037=
BAREU13 11054 99523 70362 46/// ///// 4//// 22264=
BAREU00 11054 99492 70467 46/// ///// 40147 52012 22253=
BAREU12 11054 99405 70730 46/// ///// 40232 57028 22264=
44058 11051 99376 70763 46/// /1903 10066 40206 90450 333 91204
 555 11036 22039=
46075 11051 99539 71608 46/// /1411 10036 49893 58039 90450 22200
 00050 11106 20604 3//// 41104 70028 333 91214 555 11122 22129
 30433 41314 60449 138113 135113 132109 131106 130100 134099 81412
 90442=
46042 11051 99368 71225 46/// /3308 10110 40231 53008 90450 22200
 00126 11205 20402 331// 41205 70027 333 91210 555 11084 22088
 30354 43310 60449 328080 330079 326079 331079 330076 331085=
46001 11051 99563 71479 46/// ///// 1//// 49956 56009 90450 22200
 00048 11004 70020=
44059 11051 99368 70763 46/// /1704 10141 40197 90450 333 91205
 555 11045 22049=
44020 11051 99414 70702 46/// ///// 10048 40252 58020 90450 22200
 00017 10201 20301 70004=
44014 11051 99366 70748 46/// ///// 10150 20136 40232 58028 90450
 22200 10502 70009=
41008 11051 99314 70809 46/// /1704 10165 20165 40183 58012 90450
 22200 00143 10803 20401 309// 40803 70015 333 91205 555 11051
 22060 30356 41806 60449 174044 174043 180043 184043 183046
 181049=
0000355100
569
SNVD01 KWBC 110500 RRE
BBXX
46015 11051 99428 71248 46/// /1813 10101 40163 56020 90450 22200
 00098 11408 20604 330// 41407 70042 333 91217 555 11138 22147
 30448 41817 60449 181129 180129 179129 177131 179127 181127=
46087 11051 99485 71247 46/// /1309 10076 20072 49992 56071 90450
 22200 00076 333 91213 555 11097 22104 30351 40915 60449 126090
 113102 090102 082108 081099 090117=
46028 11051 99357 71219 46/// /3307 10128 40214 51012 90450 22200
 00135 11506 20502 332// 41505 70029 333 91209 555 11070 22074
 30411 43309 60449 334067 338072 338070 336074 333074 334076=
46013 11051 99382 71233 46/// /3103 10096 40231 50003 90450 22200
 00108 11305 20401 3//// 41305 70025 333 91205 555 11035 22036
 30429 43105 60449 307034 308032 311035 318035 323035 324034=
41013 11051 99334 70777 46/// /1711 10214 20196 40191 58017 90450
 22200 00196 10805 20805 318// 41401 70025 333 91214 555 11122
 22133 30437 41715 60449 169115 169121 169108 168107 167121
 169120=
44009 11051 99385 70747 46/// ///// 10100 20096 40218 58034 90450
 22200 00065 10501 70007=
44017 11051 99407 70720 46/// /1805 10091 20090 40242 58021 90450
 22200 00072 10501 20501 316// 40901 70007 333 91206 555 11059
 22068 30441 41806 60449 176053 177052 176053 175049 171046
 173046=
46086 11051 99325 71180 46/// /1802 10151 40189 53011 90450 22200
 00162 11403 330// 41403 70014 333 91202 555 11022 22022 30437
 41603 60449 182021 172024 172023 160020 179020 189019=
46050 11051 99446 71245 46/// /1914 10097 40114 56030 90450 22200
 00092 11310 20707 326// 41307 70048 333 91218 555 11154 22165
 60449 191143 189146 189142 189145 190143 189143=
46027 11051 99419 71244 46/// /1809 10091 40209 56014 90450 22200
 00096 11507 20602 330// 41507 70037 333 91211 555 11095 22101
 30449 41611 60449 176088 175089 178084 180083 181081 180079=
44027 11051 99443 70673 46/// /2701 10023 20015 40257 58007 90450
 22200 00056 10702 20401 3//// 40702 70011 333 91202 555 11010
 22010 30350 42903 60449 263011 290014 294015 287020 296021
 291024=
42056 11051 99198 70849 46/// /1209 10274 20229 40162 51005 90450
 22200 00275 10903 20703 312// 40902 70016 333 91210 555 11091
 22097 30433 41210 60449 123083 121083 116084 116082 120081 119077
 81209 90434=
44042 11051 99380 70763 46/// /1602 10062 40197 90450 333 91203
 555 11028 22030=
44041 11051 99372 70768 46/// /1701 10073 90450 333 91202 555
 11016 22018=
44063 11051 99390 70764 46/// /3302 10019 40196 90450 333 91202
 555 11018 22020=
44062 11051 99386 70764 46/// /0102 10025 40209 90450 333 91202
 555 11020 22021=
44064 11051 99370 70760 46/// /1506 10126 40205 90450 333 91207
 555 11070 22077=
42002 11051 99258 70937 46/// /2004 10234 20232 40148 53012 90450
 22200 00231 10803 20401 311// 40803 70013 333 91205 555 11036
 22038 30356 42007 60449 199035 183045 192047 193048 200054
 199060=
42040 11051 99292 70882 46/// /1809 10212 40149 58005 90450 22200
 00198 333 91210 555 11088 22097 30434 41711 50148 60449 176087
 173088 165075 167072 174066 172058 70426 81810 90435=
42058 11051 99149 70749 46/// /0911 10273 20231 40134 51003 90450
 22200 00272 10807 20807 70033 333 91214 555 11122 22131 30355
 40916 60449 086116 083128 087123 085122 088125 086128 80814
 90434=
41049 11051 99275 70629 46/// /0608 10228 40263 58006 90450 22200
 00247 10805 20804 304// 41403 70023 333 91210 555 11089 22094
 30420 40711 60449 064084 070089 072085 072091 071086 063087 80710
 90416=
0000188200
570
SNVD01 KWBC 110500 RRF
BBXX
41041 11051 99143 70461 46/// /0709 10249 20247 40146 56023 90450
 22200 00258 10906 20804 305// 40904 70028 333 91211 555 11093
 22098 30426 40511 60449 074088 067087 060088 063090 069087 068089
 80710 90449=
42012 11051 99301 70876 46/// /1807 10194 20194 40148 57009 90450
 22200 00178 10601 20601 70007 333 91208 555 11073 22081 30359
 41609 60449 174067 173067 173066 172071 166075 163066=
42059 11051 99151 70675 46/// /0809 10266 40167 58003 90450 22200
 00271 10805 20805 70025 333 91211 555 11095 22101 30426 40811
 60449 081090 086090 081093 081093 082089 082090 80810 90411=
42019 11051 99279 70954 46/// /2207 10213 40122 51010 90450 22200
 00207 10603 20603 317// 40702 70015 333 91208 555 11072 22079
 30417 42209 60449 221066 218065 216070 216071 215068 214071=
42036 11051 99285 70845 46/// /1404 10208 20204 40176 58008 90450
 22200 00206 10501 20401 320// 40501 70004 333 91205 555 11047
 22051 30448 41405 60449 135044 129040 128038 131035 135033
 132036=
41012 11051 99300 70805 46/// /1507 10200 20200 40193 58010 90450
 22200 00173 10804 20602 308// 40803 70019 333 91208 555 11077
 22088 30445 41508 60449 152068 154059 160052 165045 162048
 157044=
41044 11051 99216 70586 46/// /0609 10241 40212 58007 90450 22200
 00257 10905 20604 300// 40903 70025 333 91210 555 11092 22097
 30434 40411 60449 063087 053087 045082 046077 046075 059078 80410
 90434=
42020 11051 99270 70967 46/// /2006 10208 20208 40124 51010 90450
 22200 00206 10702 20602 311// 40701 70011 333 91207 555 11068
 22072 30430 41908 60449 195063 195067 194066 192067 191069
 195065=
42035 11051 99292 70944 46/// /2005 10155 20154 40110 54000 90450
 22200 00122 10602 20501 318// 40601 70009 333 91206 555 11062
 22074 30412 42007 60449 195053 189051 191051 196063 195061
 196055=
0000074100
571
SNVD80 KWBC 110500
BBXX
WCF3012 11054 99431 70824 43/// /1518 10032 40059 2221/ 00426=
WYQ4356 11054 99461 70840 43/// /1414 10011 40022 2227/ 00001=
SHIP 11054 99430 70879 46/// /2208 10039 20035 4//// 5//// 7////
 8//// 22200 0//// 2////=
SHIP 11054 99433 70798 46/// /0205 10024 20024 40114 58044 7////
 8//// 22200 0//// 2////=
VOPM 11054 99430 70879 46/// /2208 10039 20035 4//// 5//// 7////
 8//// 22200 0//// 2////=
CG2350 11054 99433 70798 46/// /0205 10024 20024 40114 58044 7////
 8//// 22200 0//// 2////=
SHIP 11054 99429 70824 46/// /1512 10035 20044 40062 58049 7////
 8//// 22200 0//// 2////=
VCBZ 11054 99429 70824 46/// /1512 10035 20044 40062 58049 7////
 8//// 22200 0//// 2////=
0000023200
572
SNVD11 KWBC 110500
BBXX
BATFR43 11054 99074 70800 46/// /3412 10264 20239 40106 58005
 22254 04274=
PHSG 11054 99050 71339 41395 81220 10250 20235 40110 5/000 70300
 8777/ 22214 00240 20202 323// 40304 80240=
00000000