0000190500
833
UDEU02 EGRR 111002 RRC
AMDAR 1109
ASC EU0422   5003N 01945E 110941 F018 PS022 261/021 TB/ S031=
ASC EU0422   5003N 01943E 110941 F028 PS005 251/025 TB/ S031=
ASC EU0422   5003N 01941E 110941 F035 MS015 257/025 TB/ S031=
ASC EU0422   5003N 01939E 110941 F041 MS032 254/026 TB/ S031=
ASC EU0422   5003N 01937E 110941 F046 MS042 257/022 TB/ S031=
ASC EU0422   5003N 01935E 110941 F051 MS052 259/022 TB/ S031=
ASC EU0422   5003N 01933E 110941 F057 MS067 263/019 TB/ S031=
ASC EU0422   5003N 01931E 110941 F065 MS085 285/018 TB/ S031=
ASC EU0422   5003N 01929E 110941 F077 MS092 299/024 TB/ S031=
ASC EU0422   5003N 01926E 110941 F101 MS072 283/030 TB/ S031=
ASC EU0422   5004N 01922E 110942 F114 MS095 298/030 TB/ S031=
ASC EU0422   5004N 01916E 110942 F122 MS095 290/035 TB/ S031=
ASC EU0422   5005N 01911E 110942 F139 MS127 277/036 TB/ S031=
ASC EU0422   5005N 01904E 110943 F154 MS157 276/029 TB/ S031=
ASC EU0422   5006N 01858E 110943 F170 MS185 266/034 TB/ S031=
ASC EU0422   5006N 01852E 110943 F194 MS240 261/043 TB/ S031=
ASC EU0422   5006N 01846E 110944 F216 MS292 279/041 TB/ S031=
ASC EU0422   5007N 01840E 110944 F232 MS330 286/050 TB/ S031=
ASC EU0422   5007N 01834E 110944 F243 MS357 285/048 TB/ S031=
ASC EU0422   5008N 01828E 110945 F255 MS390 282/049 TB/ S031=
ASC EU0422   5008N 01822E 110945 F268 MS422 280/052 TB/ S031=
ASC EU0422   5008N 01816E 110945 F278 MS442 275/047 TB/ S031=
ASC EU0422   5009N 01809E 110946 F286 MS462 277/047 TB/ S031=
ASC EU0422   5009N 01803E 110946 F292 MS480 279/049 TB/ S031=
ASC EU0422   5010N 01756E 110946 F297 MS492 281/051 TB/ S031=
ASC EU0422   5010N 01749E 110947 F308 MS517 278/050 TB/ S031=
ASC EU0422   5011N 01742E 110947 F318 MS547 275/049 TB/ S031=
ASC EU0422   5011N 01735E 110947 F328 MS572 272/050 TB/ S031=
ASC EU0422   5011N 01728E 110948 F337 MS597 270/049 TB/ S031=
0000012000
834
SAQT31 OTBD 111000
METAR OTBD 111000Z 20005KT 150V250 7000 -RA FEW018 SCT090 OVC120
17/15 Q1019 NOSIG=
0000030300
835
FTIN32 VECC 110900
TAF
TAF VHHH 110900Z NIL=
TAF VTBD 110900Z NIL=
TAF VTBU 110900Z NIL=
TAF VTCC 110900Z NIL=
TAF VTSP 110900Z NIL=
TAF VTSS 110900Z NIL=
TAF VVNB 110900Z NIL=
TAF VVTS 110900Z NIL=
TAF VYYY 110900Z NIL=
TAF WMKK 110900Z NIL=
TAF WSAP 110900Z NIL=
TAF WSSS 110900Z NIL=

0000009300
836
SAMV31 VRMM 111000
METAR VRMM 111000Z 07012KT 9999 FEW018 31/24 Q1010 NOSIG=

0000009300
837
SAUK35 EGGY 101850 RRA
METAR EGHH 101850Z 22005KT 9999 FEW014 08/06 Q1013=

0000020100
838
SAUK36 EGGY 101850 RRA
METAR EGVN 101850Z 21007KT 9999 -DZ OVC070 08/06 Q1012 BECMG SCT020=
METAR EGWU 101850Z 22009KT 9999 -RA FEW015 BKN040 OVC080 08/05 Q1013
    TEMPO SCT012=

0000010000
839
SAVG31 TVSV 101800 CCA
METAR TVSV 101800Z 09016KT 9999 FEW020 SCT038 28/23 Q1014=

0000007700
840
FCIY33 LIIB 101700 AAC
TAF AMD LIMG 101900Z 1018/1103 CNL=

0000012700
841
SACI44 ZSJN 101900
METAR ZSJN 101900Z VRB01MPS 1600 R19/1400U BR NSC M07/M08 Q1033
BECMG
TL2030 1400 BR=

0000013700
842
SACN61 CYAY 101900
METAR CYAY 101900Z AUTO 24022G27KT 9SM BKN110 M11/M15 A2993 RMK MAX
 WND 24024KT AT 1842Z SLP137=

0000011300
843
SACN62 CYCS 101900
METAR CYCS 101900Z 29018KT 8SM DRSN FEW040 M31/M35 A2961 RMK SC1
 SLP028=

0000011700
844
SACN61 CYDN 101900
METAR CYDN 101900Z AUTO 28003KT 220V360 9SM OVC011 M09/M11 A2939 RMK
 SLP978=

0000018900
845
SACN62 CYBD 101900
METAR CYBD 101900Z 30005KT 15SM FEW022TCU SCT036TCU BKN068TCU BKN200
 04/02 A2986 RMK TCU1TCU2TCU2CI1 TR SF  VIS E6 IN LO CLD   OCNL
 -SHRA SLP114=

0000008900
846
SAJM31 MKJP 101900
METAR MKJP 101900Z 15020KT 9999 FEW024 30/24 Q1013=

0000009400
847
SAAG41 SAZM 101900
METAR SAZM 101900Z  11014KT 9999  FEW025  22/11
Q1008=

0000008400
848
SAAG41 SAZS 101900
METAR SAZS 101900Z  29022KT CAVOK 19/01 Q1017=

0000010400
849
SAAG41 SADF 101900
METAR SADF 101900Z  36010KT 9999  SCT025 FEW030TCU
 31/20 Q1006=

0000012900
850
SAGQ21 FGSL 101900
METAR FGBT 101900Z NIL=
METAR FGSL 101900Z 21005KT 6000 FEW013 25/24 Q1011 TEMPO 4000 HZ=

0000010500
851
SAID31 WIII 101900
METAR WIII 101900Z 00000KT 3900 BR FEW021 SCT100 25/23 Q1009 NOSIG=

0000011400
852
SABZ24 SBUG 101900
METAR SBUG 101900Z 12015G25KT 9999 VCSH BKN013
BKN080 22/20 Q1008 RET
S=

00000000