0000015000
733
SACN51 CWAO 110100 RRA
METAR CWAE 110100Z 18002KT 15SM SCT018 OVC025 01/00 A2977 RMK SC3SC5
WND ESTD/LAST OBS/NEXT 111500UTC SLP099=
0000011800
734
SACN45 CWAO 110100 RRA
METAR CYZS 110100Z 32005KT 15SM FEW210 M28/M31 A2953 RMK CI1 WND ESTD
SLP010=
0000055200
735
SIEG22 HECA 110300
AAXX 11034
62305 NIL=
62306 32560 62406 10117 20095 40245 57002 86500=
62318 32960 00000 10110 20080 40229 57002=
62337 32560 40000 10093 20089 40210 57002 84500=
62366 31920 00000 10102 20078 40242 52004 71000=
62393 32960 02701 10054 20037 40255 54000=
62405 32960 00000 10091 20070 40228 52002=
62414 32960 03604 10098 20040 40227 52003=
62417 32960 00000 10050 20022 40257 52001=
62463 32960 02908 10120 20073 40222 52005=
62465 32960 00000 10137 20065 40220 52003=
62440 NIL=
62419 NIL=
0000010800
736
SACN31 CWAO 110200
METAR CYFB 110200Z 35002KT 15SM FEW095 M26/M33 A2945 RMK AC0 IC
SLP979=
0000009600
737
SACN48 CWAO 110200
METAR CYOY 110200Z AUTO 00000KT 9SM M09/M11 A3022 RMK SLP251=
0000010300
738
SACN41 CWAO 110200
METAR CYQH 110200Z 00000KT 20SM OVC030 M09/M12 A2926 RMK SC6 SLP958=
0000008700
739
SACN44 CWAO 110200
METAR CWRF 110200Z AUTO ///// M35/ A2925 RMK SLP969=
0000010000
740
SACN44 CWAO 110200
METAR CYED 110200Z AUTO 26008KT 9SM CLR M07/M12 A2958 RMK SLP056=
0000012600
741
SACN31 CWAO 110200
METAR CYZX 110200Z 23005KT 8SM -SHSN OVC012 01/M01 A3032 RMK SC8 WNDY
HILL UNAVBL SLP269=
0000010300
742
SACN47 CWAO 110200
METAR CYVP 110200Z 25007KT 15SM FEW055 M21/M26 A2972 RMK SC1 SLP070=
0000010800
743
SACN45 CWAO 110200
METAR CYFS 110200Z 33002KT 4SM -SN OVC100 M22/M24 A2967 RMK AC6
SLP070=
0000010900
744
SACN51 CWAO 110200
METAR CWCA 110200Z 21007KT 15SM -SN OVC040 M12/M14 A2978 RMK SC7
SLP086=
0000010300
745
SACN44 CWAO 110200
METAR CYPE 110200Z 19007KT 15SM BKN050 M13/M14 A2950 RMK SC5 SLP035=
0000012700
746
SAIR33 OIII 110930 RRA
METAR OIBP 110934Z 11004KT 3500 1500SE +SHRA SCT020 FEW030CB 
OVC080 15/12 Q1019 A3011=

0000010700
747
SAIN90 VIBN 110930
METAR VIBN 110930Z 09005KT 1600 BR SCT020 FEW030CB BKN100 18/17
Q1015=
0000009200
748
SACN51 CWAO 110200
METAR CWKM 110200Z AUTO 27020G25KT M25/ A2980 RMK SLP097=
0000008900
749
SACN51 CWAO 110200
METAR CWLX 110200Z AUTO 09007KT M26/ A2923 RMK SLP923=
0000008900
750
SACN51 CWAO 110200
METAR CWUP 110200Z AUTO 25016KT M23/ A2911 RMK SLP907=
0000009600
751
SACN44 CWAO 110200
METAR CYUS 110200Z AUTO 22011KT OVC024 M32/ A2946 RMK SLP987=
0000007800
752
SACN51 CWAO 110200
METAR CWRX 110200Z AUTO 30012KT M26/ A2927=
00000000