0000046000
853
SADL32 EDZO 102250
METAR EDDB 102250Z 24009KT 9999 -RA FEW027 BKN040 BKN052 05/02 Q1015
     NOSIG=
METAR EDDC 102250Z 25008KT 9999 FEW042 BKN054 05/01 Q1016=
METAR EDDE 102250Z 22008KT CAVOK 02/M00 Q1017=
METAR EDDG 102250Z 23010KT 9999 FEW009 BKN011 05/04 Q1016 NOSIG=
METAR EDDP 102250Z 23011KT 9999 SCT040 04/02 Q1017 NOSIG=
METAR EDDR 102250Z 08003KT CAVOK 00/M01 Q1018=
METAR EDDW 102250Z 23009KT 9999 SCT025 04/03 Q1013=

0000009500
854
SPCN42 CWAO 102248
SPECI CYUA 102248Z AUTO 30022KT 3/4SM -SN CLR M24/ A2977=

0000023200
855
FTID32 WIOO 102250
TAF WIOO 102300Z 1100/1124 00000KT 7000 SCT011 
BECMG 1100/1102 05005KT 9999
TEMPO 1107/1109 30010KT 5000 -RA FEW010CB BKN010
BECMG 1110/1112 30005KT NSW BKN011
BECMG 1013/1015 00000KT =

0000018700
856
FTEU31 BKPR 102300
TAF BKPR 102300Z 1100/1124 VRB03KT 0100 FZFG BKN002 TEMPO 1108/1110
 0250 FG BKN003 BECMG 1110/1112 3000 BR SCT008 TEMPO 1112/1116 7000
 NSW NSC=

0000008300
857
SAFI01 MBPV 102300
MBPV 102300Z 08009KT 9999 SCT018 26/21 Q1018=

0000064400
858
SAUK20 EGGY 102250
METAR EGRE 102250Z AUTO 06021KT 9999 FEW026/// 04/M02 Q0998 W///S5=
METAR EGRK 102250Z AUTO 25026KT 9999 FEW031/// 07/02 Q0998 W///S5=
METAR EGRM 102250Z AUTO 27023KT 9999 RA FEW022/// 06/01 Q1001 RERA
     W///S4=
METAR EGRO 102250Z AUTO 28023KT //// // ///////// 08/04 Q1002 W///S4=
METAR EGRP 102250Z AUTO 27010G20KT 190V330 9999 FEW011/// ///// Q1003
     W///S4=
METAR EGRS 102250Z AUTO 28019KT 9999 FEW012/// 08/06 Q1004 W///S4=
METAR EGRV 102250Z AUTO 23021KT 9999 SCT040/// SCT047/// 08/06 Q1008
     W///S4=
METAR EGRW 102250Z AUTO 21023KT 9999 RA SCT041/// 08/06 Q1009 W///S3=

0000047400
859
SAUK21 EGGY 102250
METAR EGRF 102250Z AUTO 28026KT 9999 FEW024/// 07/02 Q0996 W///S5=
METAR EGRG 102250Z AUTO 11025KT 3900 -RA SCT013/// 03/02 Q0997 RERA
     W///S5=
METAR EGRI 102250Z AUTO 24025KT 9999 NCD 07/01 Q0997=
METAR EGRL 102250Z AUTO 26016G28KT 120V020 9999 NCD 07/01 Q0999
     W///S4=
METAR EGRN 102250Z AUTO 26025KT 9999 BKN008/// 08/07 Q1004=
METAR EGRT 102250Z AUTO /////KT 9999 FEW026/// BKN033/// 08/05 Q1008
     W///S4=

0000012700
860
SALV31 EVRA 102250
METAR EVRA 102250Z 29010KT 240V350 9999 -RA SCT007 OVC015 03/02 Q0995
R36/290158 NOSIG=

0000011100
861
SALT32 EYVI 102250
METAR EYKA 102250Z AUTO 27015KT 9999 OVC014/// 02/M00 Q1000
R08/290095=

0000019500
862
SAFA31 EKCH 102250
METAR EKVG 102250Z AUTO 07002KT 9999NDV FEW023/// SCT041///
BKN150/// 03/02 Q0995 RMK BKN020/// BKN037/// BKN130/// BKN150///
WIND 850FT 27009KT 230V300=

0000023300
863
FTAF33 OEJD 102200 RRA
TAF HLLB 102300Z 1100/1124 VRB02KT 9999 SCT020 BECMG 1110/1112
25010KT BECMG 1116/1118 VRB02KT=
TAF HLLT 102300Z 1100/1124 VRB02KT CAVOK BECMG 1110/1112 20010KT
BECMG 1116/1118 VRB02KT=

0000070000
864
FTAG41 SARE 102300
TAF SARE 102300Z 1100/1124 02010KT 9999 SCT030TCU
TX28/1119Z TN24/1109Z
BECMG 1105/1107 8000 TSRA SCT025 FEW040CB SCT090
BECMG 1118/1120 18010KT 9999 FEW030=
TAF SARF 102300Z 1100/1124 02015KT CAVOK TX29/1119Z TN24/1109Z
BECMG 1113/1115 8000 TSRA SCT025 FEW040CB SCT090
BECMG 1118/1120 18010KT BECMG 1122/1124 9999 FEW030 SCT090=
TAF SARP 102300Z 1100/1124 36010KT 9999 SCT035TCU
TX28/1119Z TN22/1109Z
BECMG 1114/1116 8000 TSRA SCT020 FEW040CB SCT090
BECMG 1118/1120 18010KT BECMG 1122/1124 9999 FEW030 SCT090=
TAF SARI 102300Z 1100/1124 02010KT CAVOK TX30/1118Z TN20/1109Z
BECMG 1117/1119 18010KT 8000 TSRA BKN020 BKN035 FEW040CB BKN090=

0000010600
865
SAEO31 EETN 102250
METAR EETN 102250Z 35008KT 2700 SN OVC006 M00/M01 Q0993 R08/290195 =

0000031000
866
FTKY31 RUMS 102200
TAF UCFM 102150Z 1100/1124 12006MPS 1500 BR FU NSC TEMPO 1100/1105
0800 FZFG FEW003 BECMG 1105/1106 30006MPS 6000 NSW FM111300
14006MPS 2000 BR FU SCT050=
TAF UCFO 102200Z 1100/1124 27005MPS 1500 BR SCT050 TEMPO 1100/1106
0300 FZFG VV001 BECMG 1112/1114 27005MPS =

0000004600
867
SAMX31 KWBC 102245 RRB
NIL=

0000013500
868
SPCN31 CWAO 102244
SPECI CYXX 102244Z 19008KT 10SM -RA BKN025 OVC090 08/ A2996 RMK
 SC7AS1 DP 4.8 VIA CYXC SLP147=

0000009700
869
SAUS73 KWBC 102200 RRH
METAR
KGYY 102245Z 15012KT 3SM RA OVC006 04/03 A2973=

0000021000
870
SAMP31 LMMM 102300
METAR HLLT 102250Z
16002KT CAVOK 11/06 Q1024=
METAR HLLB 102245Z
00000KT 9999 SCT020 BKN080 14/11 Q1025 =
METAR LMML 102245Z AUTO 23008KT 190V260 CAVOK 15/12 Q1022=

0000018800
871
FTPA31 KWBC 102251
TAF
TAF PGSN 102244Z 1023/1118 05014G24KT P6SM VCSH SCT020 SCT120
     FM110000 06014KT P6SM VCSH SCT020
     FM110800 06009KT P6SM VCSH FEW020=

0000018800
872
FTPQ31 KWBC 102251
TAF
TAF PGSN 102244Z 1023/1118 05014G24KT P6SM VCSH SCT020 SCT120
     FM110000 06014KT P6SM VCSH SCT020
     FM110800 06009KT P6SM VCSH FEW020=

00000000