0000048100
513
SAUK21 EGGY 101750
METAR EGRF 101750Z AUTO 21020KT 9999 FEW019/// SCT035/// 07/03 Q0997
     W///S5=
METAR EGRG 101750Z AUTO 08014KT 9999 BKN019/// BKN024/// 06/02 Q0998
     RERA W///S5=
METAR EGRI 101750Z AUTO 26023KT 9999 -RA FEW023/// 06/02 Q0996 RERA=
METAR EGRL 101750Z AUTO 26014KT 9999 NCD 07/04 Q1000 W///S4=
METAR EGRN 101750Z AUTO 24024KT 9999 SCT038/// SCT045/// 08/06 Q1005=
METAR EGRT 101750Z AUTO /////KT 9999 NCD 07/04 Q1009 W///S3=

0000012700
514
SALV31 EVRA 101750
METAR EVRA 101750Z 31015KT 270V350 9999 -RA BKN008 OVC013 04/03 Q0988
R36/290158 NOSIG=

0000025000
515
FTAF34 OEJD 101600 RRA
TAF HTKJ 101600Z 1018/1118 11015KT 9999 FEW028
     BECMG 1021/1024 08009KT FEW024
     BECMG 1102/1106 09005KT FEW022
     BECMG 1108/1112 12010KT FEW034CB SCT035
     BECMG 1114/1118 10010KT FEW028=

0000008500
516
SPCN44 CWAO 101749
SPECI CYUS 101749Z AUTO 26005KT CLR M36/ A2938=

0000015500
517
SAFA31 EKCH 101750
METAR EKVG 101750Z AUTO 14010KT 4400NDV -RA  BKN012/// OVC024///
04/02 Q0994 RERA RMK BKN010/// WIND 850FT 15017KT=

0000011700
518
SALT32 EYVI 101750
METAR EYKA 101750Z 27022G34KT 230V320 9999 -RA OVC015 03/01 Q0993
R08/290095=

0000004600
519
SAMX31 KWBC 101745 RRC
NIL=

0000011800
520
SAEU31 BKPR 101800
BKPR 101800Z 00000KT 0100 R17/0150 FG BKN003 02/00 Q1021 NOSIG RMK
 17010095 =

0000096100
521
SPUS70 KWBC 101750
SPECI
KAAO 101746Z AUTO 24007KT 10SM OVC016 07/04 A2960 RMK AO2=
KCEC 101746Z AUTO 16009KT 10SM SCT002 OVC065 09/09 A3027 RMK AO2
     T00940089=
KCEU 101746Z AUTO 06005KT 2SM HZ OVC003 10/07 A3023 RMK AO2 RAE36
     P0001=
KFCI 101747Z AUTO 00000KT 1 3/4SM BKN004 OVC013 03/M03 A3035 RMK
     AO1 P0001=
KITR 101746Z AUTO 31030G36KT 3SM -SN BKN027 OVC037 M01/M05 A2968
     RMK AO2 PK WND 30041/1659 SNB04 P0000 T10061050=
KJCT 101746Z AUTO 22009G15KT 7SM SCT025 19/13 A2989 RMK AO2
     TSNO=
KVLD 101746Z 17007KT 10SM OVC010 22/19 A3013 RMK AO2 CIG
     008V013=
PAGK 101746Z AUTO 00000KT 1 1/2SM -SN BR OVC029 M09/M11 A2933 RMK
     AO2 P0001 T10891106 TSNO=
KOMA 101747Z 18004KT 1 3/4SM BR OVC004 01/M01 A2963 RMK AO2=
KPTK 101747Z 17007KT 1/2SM R09R/2200V3000FT FG VV002 00/00 A3005
     RMK AO2=
KUNO 101748Z AUTO 17007KT 1SM -RA BR VV002 04/03 A2985 RMK AO2
     RAB10 P0005=

0000012200
522
SALT34 EYVI 101750
METAR EYSA 101750Z 28023KT 9999 BKN010 OVC018 03/02 Q0991 R14L/2/0295
R14R/2/0295=

0000011200
523
SAEO31 EETN 101750
METAR EETN 101750Z 01011KT 8000 DZ OVC006 02/01 Q0987 R08/290195 
NOSIG=

0000011000
524
SALT33 EYVI 101750
METAR EYPA 101750Z 30010KT 240V010 9999 OVC015 03/01 Q0998
R01/2///95=

0000104900
525
FTCA32 KWBC 101751
TAF
TAF TIST 101740Z 1018/1118 07015G25KT P6SM SCT030
     FM102200 07010KT P6SM FEW030
     FM111300 08016G23KT P6SM SCT025=
TAF TISX 101740Z 1018/1118 08015G25KT P6SM SCT030
     FM102200 07010KT P6SM FEW030
     FM111300 09016G23KT P6SM SCT025=
TAF TJBQ 101740Z 1018/1118 08022G27KT P6SM SCT020 SCT100
     FM102330 09010KT P6SM FEW030
     FM111400 08018G25KT P6SM SCT025=
TAF TJMZ 101740Z 1018/1118 12011KT P6SM SCT040
     FM102200 07005KT P6SM FEW040
     FM111530 06005KT P6SM SCT025 SCT040 AMD NOT SKED 1023/1113=
TAF TJPS 101740Z 1018/1118 12005KT P6SM FEW030
     FM102200 07010KT P6SM FEW030
     FM111500 13012KT P6SM SCT030 SCT060=
TAF TJSJ 101740Z 1018/1118 07017G24KT P6SM FEW026 SCT030 SCT040
     FM102200 08010KT P6SM VCSH FEW030 SCT045
     FM111300 07015G23KT P6SM SCT025=
TAF TKPK 101740Z 1018/1118 04013KT P6SM VCSH SCT015 SCT045
      TEMPO 1018/1020 VRB18KT -SHRA BKN015
     FM102200 07010KT P6SM FEW022
     FM111300 06016G21KT P6SM SCT022=

0000017800
526
FTCA33 KWBC 101751
TAF
TAF TNCM 101740Z 1018/1118 08015KT P6SM VCSH FEW017 SCT035
     FM102200 07010KT P6SM FEW022
     FM111300 09015G20KT P6SM SCT022=

0000109700
527
FTUS71 KWBC 101751
TAF
KAOO 101738Z 1018/1118 VRB03KT P6SM OVC013
     FM110500 17010KT 4SM -RA BR BKN013 OVC025 WS019/21040KT
     FM111300 17013G27KT 3SM RA BR BKN009 OVC016 WS012/19045KT=
KBFD 101738Z 1018/1118 19007KT P6SM VCSH OVC009
     FM110400 16009KT 4SM -RA BR BKN006 OVC009 WS019/21048KT
     FM111100 17014G27KT 2SM RA BR OVC009 WS012/19049KT=
KIPT 101738Z 1018/1118 07004KT 6SM HZ VCSH BKN022 OVC035
     FM110300 10004KT 6SM -DZ BR OVC018
     FM110600 09005KT 5SM -DZ BR OVC013 WS020/19045KT
     FM111500 17012G24KT 3SM RA BR BKN009 OVC016 WS012/19045KT=
KJST 101738Z 1018/1118 19005KT 1/4SM FG VV002
     FM102300 17006KT 1 1/2SM -SHRA BR BKN007 OVC015
     FM110500 17010KT 4SM -RA BR BKN007 OVC015 WS019/21040KT
     FM111100 17016G32KT 2SM RA BR BKN009 OVC016 WS012/19049KT=
KMDT 101738Z 1018/1118 VRB02KT 2SM BR OVC009
      TEMPO 1018/1019 4SM -FZDZ BKN015 OVC023
     FM102100 VRB03KT 4SM BR OVC011
     FM110300 15005KT 2SM -RA BR OVC010 WS020/19045KT
     FM111500 17014G24KT 3SM RA BR BKN009 OVC016 WS012/19047KT=

0000119000
528
FTUS72 KWBC 101751 RRA
TAF
TAF TIST 101740Z 1018/1118 07015G25KT P6SM SCT030
     FM102200 07010KT P6SM FEW030
     FM111300 08016G23KT P6SM SCT025=
TAF TISX 101740Z 1018/1118 08015G25KT P6SM SCT030
     FM102200 07010KT P6SM FEW030
     FM111300 09016G23KT P6SM SCT025=
TAF TJBQ 101740Z 1018/1118 08022G27KT P6SM SCT020 SCT100
     FM102330 09010KT P6SM FEW030
     FM111400 08018G25KT P6SM SCT025=
TAF TJMZ 101740Z 1018/1118 12011KT P6SM SCT040
     FM102200 07005KT P6SM FEW040
     FM111530 06005KT P6SM SCT025 SCT040 AMD NOT SKED 1023/1113=
TAF TJPS 101740Z 1018/1118 12005KT P6SM FEW030
     FM102200 07010KT P6SM FEW030
     FM111500 13012KT P6SM SCT030 SCT060=
TAF TJSJ 101740Z 1018/1118 07017G24KT P6SM FEW026 SCT030 SCT040
     FM102200 08010KT P6SM VCSH FEW030 SCT045
     FM111300 07015G23KT P6SM SCT025=
TAF TKPK 101740Z 1018/1118 04013KT P6SM VCSH SCT015 SCT045
      TEMPO 1018/1020 VRB18KT -SHRA BKN015
     FM102200 07010KT P6SM FEW022
     FM111300 06016G21KT P6SM SCT022=
TAF TNCM 101740Z 1018/1118 08015KT P6SM VCSH FEW017 SCT035
     FM102200 07010KT P6SM FEW022
     FM111300 09015G20KT P6SM SCT022=

0000031600
529
FTUS74 KWBC 101751 AAA
TAF AMD
KLVM 101748Z 1018/1118 26024G34KT P6SM VCSH BKN060
     FM110300 23026G38KT P6SM BKN080
     FM110900 23038G52KT P6SM BKN080=
KMLS 101749Z 1018/1118 20006KT P6SM BKN120
     FM102000 25015G25KT P6SM SCT040 OVC120
     FM110300 25012KT P6SM SCT080 BKN200=

0000029600
530
FTUS41 KWBC 101751
TAF
KMDT 101738Z 1018/1118 VRB02KT 2SM BR OVC009
      TEMPO 1018/1019 4SM -FZDZ BKN015 OVC023
     FM102100 VRB03KT 4SM BR OVC011
     FM110300 15005KT 2SM -RA BR OVC010 WS020/19045KT
     FM111500 17014G24KT 3SM RA BR BKN009 OVC016 WS012/19047KT=

0000031800
531
FTUS42 KWBC 101751
TAF
KSHV 101750Z 1018/1118 17010G18KT 6SM BR OVC006
     FM102000 18014G22KT P6SM VCTS OVC009CB
      TEMPO 1022/1102 VRB10G25KT 4SM -TSRA BR BKN015CB
     FM110200 23012G18KT 5SM -TSRA BR OVC009CB
     FM110600 28010G16KT 6SM BR SCT250
     FM111200 27007KT P6SM SKC=

0000149100
532
FTUS72 KWBC 101751
TAF
KGGG 101750Z 1018/1118 17017G24KT P6SM FEW013 SCT080 BKN110
      TEMPO 1018/1019 BKN015
     FM102000 18016G24KT P6SM VCSH BKN015
     FM110000 19015G25KT 6SM -TSRA BR OVC015CB
     FM110300 23008KT P6SM SCT015 BKN250
     FM110600 26010KT P6SM SCT250
     FM110900 28006KT P6SM SKC=
KMLU 101750Z 1018/1118 16008KT P6SM OVC004
      TEMPO 1018/1020 4SM BR FEW006 SCT009 BKN015
     FM102100 18010KT P6SM VCSH OVC015
     FM110300 19012G18KT P6SM VCTS OVC015CB
      TEMPO 1104/1108 VRB15G30KT 2SM TSRA BR OVC007CB
     FM110800 26010KT 5SM -TSRA BR OVC009CB
     FM111200 29011KT P6SM BKN250=
KSHV 101750Z 1018/1118 17010G18KT 6SM BR OVC006
     FM102000 18014G22KT P6SM VCTS OVC009CB
      TEMPO 1022/1102 VRB10G25KT 4SM -TSRA BR BKN015CB
     FM110200 23012G18KT 5SM -TSRA BR OVC009CB
     FM110600 28010G16KT 6SM BR SCT250
     FM111200 27007KT P6SM SKC=
KTXK 101750Z 1018/1118 18014G22KT 5SM -RA BR VCTS OVC009CB
      TEMPO 1018/1022 2SM -TSRA BR BKN005CB
     FM102200 20013G20KT 5SM -TSRA BR OVC009CB
     FM110300 24010KT 5SM -RA BR VCTS OVC015CB
     FM110600 28008G16KT P6SM SCT015 SCT250
     FM110900 27008KT P6SM SKC=
KTYR 101750Z 1018/1118 19015G25KT 6SM -TSRA BR OVC015CB
      TEMPO 1020/1024 2SM -TSRA BR BKN005CB
     FM110000 22010KT 5SM -RA BR VCTS OVC015CB
     FM110300 25008KT P6SM SCT015 BKN250
     FM110600 27010KT P6SM BKN250
     FM110900 VRB05KT P6SM SKC=

00000000