0000011900
073
SACN62 CYXY 110200
METAR CYXY 110200Z 00000KT 15SM FEW025 SCT060 M16/M19 A2923 RMK
 SC1SC3 SLP959=

0000012300
074
SACN62 CYXU 110200
METAR CYXU 110200Z 16012KT 1 1/2SM BR OVC002 02/02 A2991 RMK FG1ST7
 PRESFR SLP138=

0000014300
075
SACN62 CYYB 110200
METAR CYYB 110200Z 14008KT 6SM -SN OVC005 M02/M03 A2992 RMK SF8 VIS
 LWR NE PCPN VRY LGT PRESFR SLP154=

0000011800
076
SACN62 CYYF 110200
METAR CYYF 110200Z 16002KT 15SM SCT075 OVC110 02/M00 A2985 RMK AC3AC5
 SLP122=

0000027200
077
FTNU31 TNCC 110400
TAF TNCC 110400Z 1106/1206 09011KT 9999 SCT020
    TEMPO 1104/1116 BKN015=
TAF TNCA 110400Z 1106/1206 08014KT 9999 SCT020
    TEMPO 1104/1116 BKN015=
TAF TNCB 110400Z 1106/1206 08012KT 9999 SCT020
    TEMPO 1104/1116 BKN015=

0000036700
078
FTUS51 KWBC 110200 AAA
TAF AMD
KBLF 110159Z 1102/1124 15008KT P6SM OVC004 WS010/20035KT
     FM111000 18015G25KT P6SM OVC025
     FM111600 23015G25KT 3SM SHRA OVC018=
KJST 110159Z 1102/1124 15008KT 3SM BR OVC004
     FM110500 17010KT 4SM -RA BR BKN007 OVC015 WS019/21040KT
     FM111100 17016G32KT 2SM RA BR BKN009 OVC016 WS012/19049KT=

0000022100
079
FTUS53 KWBC 110200 AAA
TAF AMD
KMSN 110159Z 1102/1124 18006KT 3SM -RA BR OVC004
     FM110300 19005KT 2SM -DZ BR OVC004
     FM111000 28006KT 3SM -SN OVC006
     FM111600 30009G18KT P6SM BKN012=

0000021300
080
FTUS52 KWBC 110200 AAA
TAF AMD
KHUM 110158Z 1102/1124 15010KT 4SM BR OVC002
      TEMPO 1102/1106 1SM TSRA OVC004CB
     FM110800 19010KT 2SM BR OVC002
     FM111500 28009KT P6SM SCT250=

0000097500
081
FTUS80 KWBC 110200 AAA
TAF AMD
KBLF 110159Z 1102/1124 15008KT P6SM OVC004 WS010/20035KT
     FM111000 18015G25KT P6SM OVC025
     FM111600 23015G25KT 3SM SHRA OVC018=
KHUM 110158Z 1102/1124 15010KT 4SM BR OVC002
      TEMPO 1102/1106 1SM TSRA OVC004CB
     FM110800 19010KT 2SM BR OVC002
     FM111500 28009KT P6SM SCT250=
KJST 110159Z 1102/1124 15008KT 3SM BR OVC004
     FM110500 17010KT 4SM -RA BR BKN007 OVC015 WS019/21040KT
     FM111100 17016G32KT 2SM RA BR BKN009 OVC016 WS012/19049KT=
KMSN 110159Z 1102/1124 18006KT 3SM -RA BR OVC004
     FM110300 19005KT 2SM -DZ BR OVC004
     FM111000 28006KT 3SM -SN OVC006
     FM111600 30009G18KT P6SM BKN012=
PAAQ 110159Z 1102/1124 36004KT P6SM VCFG SCT008 OVC015
      TEMPO 1102/1106 BKN008
     FM111900 02004KT P6SM BKN040 OVC060=
PANC 110159Z 1102/1206 VRB03KT 5SM -SN BR SCT005 OVC015
     FM111200 VRB03KT 1SM BR BKN005 OVC012
     FM112200 VRB03KT P6SM BKN040=

0000028900
082
FTLV31 EVRA 110200
TAF EVRA 110207Z 1103/1203 29007KT 9999 BKN010 OVC015 TEMPO
     1103/1105 BKN007 OVC015 BECMG 1105/1106 BKN015
     OVC025 TEMPO 1112/1114 BKN012 OVC020 BECMG 1114/1116
     23007KT BKN010 OVC015 TEMPO 1116/1203 3000 RA
     BR BKN005 OVC015=

0000025300
083
SPUS70 KWBC 110200
SPECI
KMEB 110157Z AUTO 11003KT 3/4SM +RA BR SCT005 OVC009 14/14 A3014
     RMK AO2 TSE57 P0013 T01390139=
KPAH 110157Z 22007G15KT 2 1/2SM RA BR FEW013 BKN030 OVC041 10/09
     A2974 RMK AO2 P0002 T01000089=

0000170600
084
SAUS75 KWBC 110200
METAR
PABA 110201Z AUTO 27020KT 3/4SM -SN BR BKN019 OVC024 M24/M27
     A2983=
PABE 110153Z 02009KT 10SM SCT050 SCT090 BKN180 M12/M13 A2943=
PABI 110153Z 00000KT 4SM -SN BR BKN033 BKN050 BKN080 M17/M19
     A2948=
PABR 110153Z 30012KT 7SM BKN013 OVC018 M23/M27 A2986=
PABT 110153Z 00000KT 10SM FEW050 SCT170 M31/M34 A2966=
PACV 110153Z 00000KT 9SM FEW001 BKN027 M02/M02 A2931=
PACZ 110155Z AUTO 03014G26KT 10SM -SHSN FEW014 BKN034 M09/M10
     A2939=
PADK 110156Z AUTO 21030G36KT 10SM FEW034 BKN043 OVC095 04/M02
     A2881=
PADL NIL=
PADU 110156Z 15006KT 10SM -RA SCT010 BKN015 BKN022 04/01 A2907=
PAEH 110155Z AUTO 12014KT 2SM BR OVC003 M01/M01 A2933=
PAEI NIL=
PAEN 110153Z 00000KT 10SM OVC006 M03/M04 A2938=
PAFA 110153Z 00000KT 10SM FEW080 M29/M33 A2958=
PAFB 110155Z 00000KT 7SM SCT100 M31/M33 A2958=
PAGA 110158Z AUTO 00000KT 10SM CLR M28/M32 A2968=
PAGK 110153Z AUTO 31004KT 3SM -SN BR OVC049 M10/M12 A2930=
PAGS 110156Z AUTO 11006KT 10SM BKN035 BKN041 OVC070 02/01
     A2939=
PAGY 110153Z AUTO 21021G26KT 10SM OVC060 03/M01 A2934=
PAHO 110153Z 00000KT 10SM SCT020 BKN050 M02/M04 A2938=
PAIL 110153Z 35004KT 10SM OVC012 M04/M05 A2944=
PAJN 110153Z 08005KT 10SM FEW018 BKN034 OVC080 02/00 A2942=
PAKN 110154Z 34004KT 10SM FEW004 SCT025 BKN130 M04/M04 A2941=
PAKT 110153Z 00000KT 10SM FEW021 BKN027 BKN047 02/01 A2944=
PALU 110155Z AUTO 06007KT 10SM OVC011 M19/M20 A3000=
PAMC 110153Z 31003KT 10SM OVC023 M17/M19 A2956=
PANC 110153Z 35003KT 5SM -SN BR SCT006 OVC014 M04/M05 A2937=
PANT 110153Z AUTO 10007KT 10SM FEW040 SCT050 03/00 A2940=
PAOM 110153Z 04017KT 10SM FEW032 SCT100 M12/M19 A2964=

0000132500
085
SAUS75 KWBC 110200 RRA
METAR
PAOR 110153Z 31003KT 2 1/2SM -SN OVC034 M17/M19 A2936=
PAOT 110153Z 01003KT 10SM CLR M18/M24 A2977=
PAPG NIL=
PASC 110153Z 25013KT 3SM -SN BR BKN026 OVC100 M29/M33 A2984=
PASI 110153Z 09005KT 10SM SCT014 BKN026 OVC050 02/01 A2940=
PASN 110153Z 12006KT 7SM BKN017 BKN240 01/M01 A2910=
PATA 110152Z 00000KT 10SM CLR M33/M36 A2964=
PATC 110155Z AUTO 02029G32KT 1SM BR VV002 M18/M19 A2972=
PATK 110153Z 00000KT 10SM OVC016 M07/M09 A2937=
PAUN 110156Z AUTO 10013KT 10SM CLR M15/M22 A2958=
PAVD 110156Z 10SM FEW020 SCT100 BKN150 M06/M07 A2933=
PAYA 110153Z AUTO 00000KT 10SM BKN003 M01/M01 A2935=
PGRO 110151Z COR 06014G24KT 7SM SCT025 SCT120 27/23 A2993=
PGUA 110158Z AUTO 05015G20KT 10SM CLR 29/23 A2992=
PGUM 110154Z 07016KT 10SM SCT034 BKN046 29/22 A2991=
PHJH 110150Z 02015KT 15SM FEW020 FEW035 25/18 A2988=
PHLI 110153Z 03015KT 10SM SCT023 BKN041 25/19 A2993=
PHMK 110154Z 02009G15KT 10SM CLR 25/21 A2989=
PHNL 110153Z 06008KT 10SM -RA FEW022 SCT045 BKN070 24/19 A2988=
PHNY 110156Z AUTO 16009KT 10SM FEW022 SCT028 25/18 A2993=
PHOG 110154Z 02010KT 10SM FEW035 26/20 A2988=
PHTO 110153Z 05007KT 10SM FEW025 SCT050 BKN120 24/19 A2991=
PMDY 110156Z AUTO 10015KT 5SM HZ CLR 22/17 A3013=
PWAK 110155Z 07010KT 10SM FEW024 29/29 A2997=

0000029100
086
SAAE32 VTBB 110200
METAR VLLB 110200Z 02002KT 1000 BCFG OVC006 17/15 Q1020 NOSIG=
METAR VLLN 110200Z 00000KT 0200 FG VV// 16/16 Q1020 NOSIG=
METAR VLPS 110200Z 36002KT 8000 SCT200 23/17 Q1018 NOSIG=
METAR VLSK 110200Z 04004KT 4000 BR FEW040 FEW100 21/16 Q1018 NOSIG=

0000042100
087
FTCN37 CWAO 110200 AAA
TAF AMD CYHZ 110207Z 1102/1124 21010G20KT P6SM -SHSN OVC007 TEMPO
     1102/1104 P6SM NSW OVC010
    FM110400 21012KT P6SM OVC007 TEMPO 1104/1108 11/2SM -SN -FZDZ BR
     OVC004
    FM110800 21010KT 1SM -SN -FZDZ BR OVC003
    FM111300 20012KT 3/4SM -DZ BR OVC002
    FM111700 20015KT 1SM -RA BR OVC003
     BECMG 1118/1120 19020G30KT
    RMK NXT FCST BY 110300Z=

0000099400
088
SACI32 ZBBB 110200
METAR ZGKL 110200Z 05002MPS 010V080 2000 -RA BR FEW004
SCT010
OVC026 07/06 Q1028 NOSIG=
METAR ZGNN 110200Z 07003MPS 2000 BR SCT013 OVC026 14/11 Q1024 NOSIG=
METAR ZGOW 110200Z VRB01MPS 4000 HZ NSC 15/09 Q1027 NOSIG=
METAR ZGSZ 110200Z 27002MPS 5000 HZ NSC 16/10 Q1026 NOSIG=
METAR ZLXY 110200Z 28001MPS 3000 HZ NSC 00/M07 Q1033 NOSIG=
METAR ZMUB 110200Z VRB01MPS 2000NW 3600SE FU NSC M33/M37 Q1028
NOSIG
RMK QFE662.7 67 NW SE MO=
METAR ZPPP 110200Z 21007MPS CAVOK 10/02 Q1025 NOSIG=
METAR ZSAM 110200Z 28002MPS 240V330 CAVOK 16/10 Q1027 NOSIG=
METAR ZSFZ 110200Z 35003MPS 290V040 9999 OVC027 13/06 Q1028 NOSIG=
METAR ZSNB 110200Z VRB01MPS 1600 -RA BR FEW009 BKN020 OVC050
06/05
Q1032 NOSIG=
METAR ZSQD 110200Z 00000MPS 1200 R17/1100N BR NSC 01/M04 Q1034
BECMG
TL0300 1600=
METAR ZUGY 110200Z 04002MPS 360V090 9999 FEW006 BKN015 OVC030
02/01
Q1027 NOSIG=
METAR ZUUU 110200Z 00000MPS 3000 BR NSC 07/03 Q1030 NOSIG=

0000010600
089
SACN62 CYYT 110200
METAR CYYT 110200Z 25021KT 15SM SKC M06/M09 A3011 RMK PRESFR SLP205=

0000013700
090
SACN62 CYYZ 110200
METAR CYYZ 110200Z 11006KT 12SM R24R/5000VP6000FT/U SCT005 OVC014
 02/01 A2998 RMK SF3ST5 SLP159=

0000009900
091
SACN62 CYZF 110200
METAR CYZF 110200Z 30009KT 15SM SKC M27/M29 A2953 RMK SLP031=

0000010600
092
SACN62 CYYG 110200
METAR CYYG 110200Z 22008KT 15SM OVC011 M03/M05 A3027 RMK SC8 SLP255=

00000000