0000037600
013
SAPL32 EPWA 110200
METAR EPBY 110200Z 24009KT 9999 SCT026 BKN047 05/02
    Q1012 =
METAR EPKT 110200Z 22008KT 9999 FEW045 03/M01 Q1016 =
METAR EPLB 110200Z NIL=
METAR EPMO 110200Z 26017KT 9999 BKN023 05/02 Q1011=
METAR EPSC 110200Z 23006KT 9999 BKN017 05/03 Q1012 =
METAR EPWR 110200Z 25006KT 9999 SCT040 05/M00 Q1017 =
METAR EPZG 110200Z NIL=

0000025000
014
SAIE31 EIDB 110200
METAR EIDW 110200Z 24010KT 9999 FEW035 02/01 Q1012 NOSIG=
METAR EINN 110200Z 27005KT 9999 FEW014 FEW018CB 03/02 Q1014 NOSIG=
METAR EICK 110200Z 28004KT 9999 FEW016 03/01 Q1014 NOSIG=
METAR EIKN 110200Z NIL=

0000010000
015
SASA31 KWBC 110100 RRB
METAR SKLT 110100Z 00000KT 9999 SCT010 BKN080 25/24 A2979=

0000010100
016
SAMX31 KWBC 110205
METAR MNMG 110200Z 10006KT 9999 FEW023 26/21 Q1011 A2986 NOSIG=

0000009600
017
SABA31 MYNN 110158
METAR MYNN 110200Z 14005KT 9999 FEW018 SCT040 24/22 A3013=

0000035400
018
FTPA31 KWBC 110203
TAF
TAF AYPY 110210Z 1106/1206 34006KT 9999 -SHRA SCT016 BKN140
      INTER 1106/1112 4000 TSRA BKN008 FEW018CB=
TAF PGUA 1102/1208 06015G25KT 9999 SCT020 SCT030 QNH2981INS
      TEMPO 1102/1109 9000 -SHRA SCT015 BKN025
      BECMG 1108/1109 06015G25KT 9999 FEW020 QNH2985INS TX29/1105Z
      TN25/1117Z=

0000027000
019
FTUS51 KWBC 110148 AAA
TAF AMD
KDAY 110145Z 1102/1124 15012KT 4SM BR VCSH OVC025
      TEMPO 1103/1104 1/2SM FG BKN002
     FM110400 17015G23KT 4SM -RA BR OVC007
     FM111200 22015G25KT P6SM VCSH OVC011
     FM111500 24016G26KT P6SM OVC015=

0000074400
020
FTUS52 KWBC 110148 AAA
TAF AMD
KMCN 110145Z 1102/1124 11004KT 1/2SM -RADZ FG OVC002
     FM110900 15006KT 1SM -SHRA BR OVC004
     FM111400 20010G17KT 2SM -SHRA BR OVC007
     FM111800 24011G18KT 4SM -SHRA BR BKN025 PROB30 1118/1121 2SM
      TSRA BR BKN010CB
     FM112100 28012G20KT P6SM BKN050=
KTXK 110145Z 1102/1124 20010KT P6SM VCTS OVC015CB
      TEMPO 1102/1104 VRB20G40KT 2SM TSRAGS BR BKN010 OVC020CB
     FM110500 24010KT P6SM OVC025
     FM110700 27010KT P6SM SKC
     FM111600 28012G20KT P6SM SKC=
KTYR 110146Z 1102/1124 20012KT P6SM SCT008 OVC015
      TEMPO 1102/1104 OVC006
     FM110400 22010KT P6SM SCT025 BKN050
     FM110700 27006KT P6SM SKC
     FM111600 30012KT P6SM SKC=

0000133200
021
FTUS80 KWBC 110148 AAA
TAF AMD
KBTR 110145Z 1102/1124 07008KT P6SM BKN006 OVC012
      TEMPO 1103/1107 2SM TSRA OVC006CB
     FM110800 23012KT 2SM RA OVC004
     FM111500 30009KT P6SM SCT250=
KCLM 110147Z 1102/1124 VRB03KT P6SM -RA SCT005 BKN010 OVC018
      TEMPO 1102/1104 3SM -RA BR OVC005
     FM110400 VRB03KT 4SM -RA BR OVC006
     FM111200 29012KT P6SM -RA OVC018
     FM111600 26006KT P6SM -RA OVC025
     FM112100 26008KT 5SM -SHRA OVC015=
KCVG 110146Z 1102/1206 15010KT P6SM VCSH OVC025
     FM110600 17011KT 4SM -SHRA BR OVC008
     FM111200 22011G20KT P6SM VCSH OVC012
     FM111600 25016G25KT P6SM OVC025
     FM112300 26014KT P6SM BKN025=
KDAY 110145Z 1102/1124 15012KT 4SM BR VCSH OVC025
      TEMPO 1103/1104 1/2SM FG BKN002
     FM110400 17015G23KT 4SM -RA BR OVC007
     FM111200 22015G25KT P6SM VCSH OVC011
     FM111500 24016G26KT P6SM OVC015=
KGPT 110147Z 1102/1124 12010KT 1/4SM FG VV002
      TEMPO 1102/1104 1/2SM FG
     FM110600 15010KT 1SM BR OVC002
      TEMPO 1106/1110 TSRA OVC002CB
     FM111000 19010KT 5SM BR OVC003
     FM111500 30010G18KT P6SM SKC=
KLUK 110146Z 1102/1124 15005KT P6SM VCSH OVC035
     FM110600 17007KT 4SM -SHRA BR OVC009
     FM111300 21010G18KT P6SM VCSH OVC012
     FM111600 25012G22KT P6SM OVC025=

0000074400
022
FTUS80 KWBC 110148 AAB
TAF AMD
KMCN 110145Z 1102/1124 11004KT 1/2SM -RADZ FG OVC002
     FM110900 15006KT 1SM -SHRA BR OVC004
     FM111400 20010G17KT 2SM -SHRA BR OVC007
     FM111800 24011G18KT 4SM -SHRA BR BKN025 PROB30 1118/1121 2SM
      TSRA BR BKN010CB
     FM112100 28012G20KT P6SM BKN050=
KTXK 110145Z 1102/1124 20010KT P6SM VCTS OVC015CB
      TEMPO 1102/1104 VRB20G40KT 2SM TSRAGS BR BKN010 OVC020CB
     FM110500 24010KT P6SM OVC025
     FM110700 27010KT P6SM SKC
     FM111600 28012G20KT P6SM SKC=
KTYR 110146Z 1102/1124 20012KT P6SM SCT008 OVC015
      TEMPO 1102/1104 OVC006
     FM110400 22010KT P6SM SCT025 BKN050
     FM110700 27006KT P6SM SKC
     FM111600 30012KT P6SM SKC=

0000009400
023
SPUS42 KWBC 110147
SPECI
KGPT 110143Z 14008KT 1/4SM FG VV002 14/14 A2997=

0000127600
024
SPUS70 KWBC 110148
SPECI
KCGI 110145Z AUTO 12005KT 4SM -RA BR FEW016 SCT030 OVC070 06/05
     A2975 RMK AO2 P0011 T00560050=
KDFI 110144Z AUTO 17005KT 2SM RA BR OVC004 04/03 A2982 RMK AO2
     P0010=
KLFT 110144Z AUTO 18010G16KT 10SM OVC006 19/18 A2989 RMK AO2 CIG
     004V009 TSNO=
KMBS 110144Z 14010KT 1 3/4SM RA BR FEW008 BKN043 OVC055 02/01
     A2977 RMK AO2 PRESFR P0008=
KMCW 110145Z AUTO 00000KT 1/2SM -SN FZFG VV007 M01/M01 A2953 RMK
     AO2 SNB34 P0000 T10111011 TSNO=
KSGF 110144Z 22007KT 10SM FEW013 SCT024 BKN031 08/07 A2960 RMK AO2
     RAE0054 TSE42 P0000 T00830072=
KBJJ 110145Z AUTO 14010KT 2SM BR SCT002 BKN080 OVC100 04/03 A2991
     RMK AO2=
KHQM 110145Z AUTO 14011G18KT 3SM -RA OVC010 A2981 RMK AO2 P0007
     TSNO $=
KPTK 110145Z 14008KT 1 1/2SM -RA BR OVC002 02/02 A2981 RMK AO2
     RAB0057 P0002=
KCEW 110145Z AUTO 11003KT 2 1/2SM BR OVC003 16/16 A3003 RMK AO2
     RAB00E20B28E37 P0001 T01610156=
KEET 110145Z AUTO 11003KT 2SM BR OVC003 11/11 A3000 RMK AO2
     RAB18E33 P0001 T01110111=
KRDU 110145Z 00000KT 1/4SM -RA BR OVC003 06/05 A3017 RMK AO2 SFC
     VIS 3 RAE05B38DZB05E38 P0000=
KTOP 110145Z AUTO 28005KT 6SM BR FEW007 BKN030 OVC039 03/01 A2962
     RMK AO2 T00280011=

0000011600
025
SPUS43 KWBC 110148
SPECI
KMBS 110144Z 14010KT 1 3/4SM RA BR FEW008 BKN043 OVC055 02/01
A2977=

0000010500
026
SPUS43 KWBC 110148
SPECI
KSGF 110144Z 22007KT 10SM FEW013 SCT024 BKN031 08/07 A2960=

0000010600
027
SACH10 SCSC 110200 RRA
METAR SCIP 110200Z 08009KT 9999 SCT020 SCT040 23/18 Q1020 NOSIG=

0000024400
028
SALJ31 LJLJ 110200
METAR LJLJ 110200Z 00000KT 9999 SCT030 BKN040 06/05 Q1020 NOSIG=
METAR LJMB 110200Z AUTO VRB02KT 3100 BR BKN002/// 03/02 Q1021=
METAR LJPZ 110200Z AUTO 00000KT 3300 BR FEW005/// OVC050///
09/09 Q1022=

0000009600
029
SALJ32 LJLJ 110200
METAR LJCE 110200Z AUTO 00000KT 0400 FG VV001 03/03 Q1021=

0000024700
030
SAFR21 LFPW 110200
METAR LFOA 110200Z AUTO 12004KT 9999 NSC 06/05 Q1015=
METAR LFPC 110200Z AUTO VRB02KT 0350 R25/1600D FG VV/// 04/04 Q1016=
METAR LFPV 110200Z AUTO 10003KT 070V130 3200 -RADZ BR BKN002
OVC058 05/05 Q1015=

0000028100
031
FTAT31 TAPA 110151
TAF TAPA 110200Z 1106/1206 08012KT 9999 SCT019 
    PROB40 TEMPO 1114/1121 SHRA BKN015KT=
TAF AMD TRPG 110200Z 1100/1112 CNL=
TAF AMD TKPN 110200Z 1100/1112 CNL=
TAF AMD TQPF 110200Z 1100/1112 CNL=
TAF AMD TUPJ 110200Z 1100/1112 CNL=

0000009900
032
SPUS31 KWBC 110149
SPECI
KRDU 110145Z 00000KT 1/4SM -RA BR OVC003 06/05 A3017=

00000000