0000008800
713
SADJ20 HDAM 110313
METAR
HDAM 110300Z 00000KT 9999 SCT020 22/21 Q1017=
0000010500
714
SAAO34 GOOY 110300 RRA
METAR GVAC 110300Z 02005KT 9999 SCT013 SCT015 19/15 Q1016
NOSIG=
0000010400
715
SAUG20 HUEN 110300
METAR
HUEN 110300Z 36004KT 9000 FEW019 FEW021CB SCT120 20/20 Q1017=
0000009300
716
SAAO21 DRRN 110200 RRA
METAR DNAA 110200Z 07008KT 8000 NSC 20/04 Q1013 NOSIG=
0000008600
717
SAET20 HAAB 110400
METAR HAAB 110400Z 06010KT 9999 FEW025 12/05 Q1028=
0000009700
718
SAAO21 DRRN 110300 CCA
METAR COR DNAA 110300Z 05006KT 8000 NSC 21/02 Q1013 NOSIG=
0000010100
719
SARW20 HRYR 110400
METAR
HRYR 110400Z 00000KT 7000 SCT026 SCT300 16/16 Q1020 NOSIG=
0000026200
720
SAAO34 GOOY 110130
METAR GBYD 110130Z NIL=
METAR GFLL 110130Z NIL=
METAR GLRB 110130Z 00000KT 9000 BKN014  FEW024CB 25/24
Q1011 RMK CB-S, BRVC=
METAR GVAC 110130Z NIL=
METAR GVBA 110130Z NIL=
METAR GVNP 110130Z NIL=
METAR GVSV 110130Z NIL=
0000040200
721
SAAO34 GOOY 110200
METAR GBYD 110200Z 01006KT CAVOK 18/14 Q1013=
METAR GFLL 110200Z NIL=
METAR GLRB 110200Z 00000KT 9000 BKN014  FEW024CB 25/24
Q1011 RMK CB-S, BRVC=
METAR GVAC 110200Z 04005KT 9999 BKN014 BKN200 20/15 Q1016 NOSIG=
METAR GVBA 110200Z NIL=
METAR GVNP 110200Z /////KT 9999 BKN018 ///// Q//// 
NOSIG=
METAR GVSV 110200Z 07008KT 9999 SCT023 BKN200 20/15 Q1017 NOSIG=
0000078800
722
SATN40 HTDA 110100
METAR
HTAR 110100Z 00000KT CAVOK 15/15 Q1017=
HTZA 110100Z 01005KT 9999 FEW018 26/23 Q1011 NOSIG=
HTMW 110100Z 00000KT 9999 FEW019 SCT230 19/18 Q1014 NOSIG=
HTMT 110100Z 36008KT 9999 FEW021 26/23 Q1011=
HTKA 110100Z 00000KT 9999 FEW019 FEW021CB SCT090 21/20 Q1017=
HTIR 110100Z 00000KT 9999 SCT017 BKN070 19/17 Q1019=
HTSO 110100Z 00000KT 9999 SCT018 FEW020CB BKN070 20/19 Q1017=
HTBU 110100Z 00000KT 9999 FEW013 FEW015CB 17/16 Q1015=
HTKJ 110100Z 01010KT 9999 FEW022 21/16 Q1014 NOSIG=
HTTB 110100Z 00000KT 9999 FEW018 19/19 Q1018=
HTMU 110100Z 00000KT 9999 FEW019CB 20/16 Q1016=
HTMG 100100Z 00000KT 9999 FEW024 24/20 Q1014=
HTMG 110100Z 00000KT 9999 FEW024 24/20 Q1014=
HTSU 110100Z 00000KT 9999 FEW017 BKN080 15/14 Q1021=
0000074600
723
SATN40 HTDA 110200
METAR
HTAR 110200Z 00000KT 9999 FEW030 15/15 Q1018=
HTSU 110200Z 00000KT 9999 FEW017 BKN070 15/15 Q1021=
HTDO 110200Z 00000KT 9999 FEW018 19/18 Q1016 NOSIG=
HTZA 110200Z 00000KT 9999 FEW018 26/23 Q1009 NOSIG=
HTBU 110200Z 24005KT 9999 FEW014 FEW016CB 18/16 Q1015=
HTSO 110200Z 00000KT 9999 BKN018 FEW020CB BKN070 20/19 Q1017=
HTIR 110200Z 00000KT 9999 SCT017 BKN070 19/17 Q1019=
HTKA 110200Z 00000KT 9999 FEW018 FEW020CB BKN090 21/20 Q1017=
HTMT 110200Z 36012KT 9999 FEW021 26/24 Q1012=
HTTB 110200Z 00000KT 9999 FEW018 19/18 Q1018=
HTMW 110200Z 12008KT 9999 FEW019 SCT230 20/19 Q1015 NOSIG=
HTMG 110200Z 00000KT 9999 FEW023 23/19 Q1014=
HTMU 110200Z 00000KT 9999 FEW018CB 19/16 Q1017=
0000026900
724
SAAO34 GOOY 110230
METAR GBYD 110230Z NIL=
METAR GFLL 110230Z NIL=
METAR GLRB 110230Z 00000KT 9000 BKN013  FEW023CB 25/23
Q1010 RMK CB-S, BRVC=
METAR GVAC 110230Z NIL=
METAR GVBA 110230Z NIL=
METAR GVNP 110230Z NIL=
METAR GVSV 110230Z NIL=
0000025900
725
FTZR31 FZAA 110400
TAF FZAA 110400Z 1106/1212 23004KT 9999 BKN016 BECMG 1111/1113
  30008KT SCT022 FEW030CB TEMPO 1115/1121 TS FM120200
         00000KT 8000 BKN016 BECMG 1206/1208 21004KT BKN018 BECMG
     1209/1211 32008KT 9999 SCT023=
0000031400
726
SAAO34 GOOY 110300
METAR GBYD 110300Z 02006KT CAVOK 19/13 Q1012=
METAR GFLL 110300Z NIL=
METAR GLRB 110300Z NIL=
METAR GVAC 110300Z NIL=
METAR GVBA 110300Z NIL=
METAR GVNP 110300Z /////KT 9999 BKN019  ///// Q////
NOSIG=
METAR GVSV 110300Z 07006KT 9999 SCT023 BKN200 19/15 Q1016 NOSIG=
0000028100
727
FTCV20 GVAC 110400
TAF GVAC 110400Z 1106/1212 03006KT 9999 SCT013 SCT015 BECMG 1110/1112
03012KT BKN014=
TAF GVNP 110400Z 1106/1212 02006KT 9999 SCT016 BECMG 1110/1112
02012KT FEW016=
TAF GVSV 110400Z 1106/1212 06006KT 9999 SCT022 BECMG 1110/1112
06014KT=
0000010300
728
SAMG30 FMMI 110400
METAR FMMI 110400Z 00000KT 7000  FEW008  BKN230 20/20 Q1022
NOSIG=
0000008400
729
SAAL41 DAMM 110300 RRH
METAR DAUE 110300Z /////KT CAVOK 10/07 Q1020=
0000010300
730
SAMG20 FMMI 110400
METAR FMMI 110400Z 00000KT 7000  FEW008  BKN230 20/20 Q1022
NOSIG=
0000013700
731
SMTU63 LTAA 110000 CCA
AAXX 11004
17298 12670 33301 10085 20084 30201 40221 52002 60001 83200
 333 83840 91105 92408=
0000019600
732
SACN48 CWAO 110100 RRA
METAR CYPX 110100Z 24008KT 15SM BKN012 M21/M24 A2968 RMK SC7 SLP055=
METAR CYUY 110100Z 18008KT 2 1/2SM -FZDZ -SN BR VV003 M04/M04 A2993
 RMK FG8 SLP155=
00000000