0000011700
213
SACN62 CYVR 101700
METAR CYVR 101700Z 33005KT 20SM BKN037 OVC053 06/05 A2997 RMK SC6SC2
 SLP150=

0000170900
214
SAUS72 KWBC 101700 RRB
METAR
KLFT 101653Z VRB04KT 10SM OVC004 16/14 A3006=
KLIT 101653Z 13007KT 4SM BR OVC008 08/07 A2996=
KLRD 101656Z 27006KT 10SM OVC025 19/15 A2997=
KLRU 101655Z AUTO 27009KT 10SM CLR 09/M10 A3008=
KMAF 101653Z 24017G22KT 10SM CLR 15/03 A2990=
KMCN 101653Z 02005KT 4SM -RA BR OVC006 09/08 A3022=
KMCO 101653Z 16006KT 10SM FEW020 SCT220 26/18 A3015=
KMEI 101658Z 00000KT 10SM OVC004 11/09 A3013=
KMEM 101654Z 16008KT 10SM FEW009 SCT100 OVC150 09/07 A3003=
KMFE 101653Z 18011KT 10SM SCT023 SCT031 23/17 A2993=
KMGM 101653Z 06006KT 2SM BR OVC004 10/09 A3018=
KMIA 101653Z 13012G21KT 10SM FEW018 BKN220 27/22 A3013=
KMKL 101653Z 15006KT 10SM OVC008 10/07 A3006=
KMLB 101653Z 10005KT 8SM BKN008 BKN035 OVC090 24/22 A3015=
KMLC 101653Z AUTO 18012G20KT 10SM OVC095 14/12 A2977=
KMLU 101653Z 16007KT 7SM OVC004 11/10 A3004=
KMOB 101656Z 07003KT 3SM BR OVC006 13/12 A3013=
KMSL 101653Z AUTO 13005KT 7SM OVC008 11/07 A3015=
KMSY 101653Z 11006KT 3SM BR OVC006 15/13 A3010=
KNEW 101653Z 11007KT 5SM BR OVC003 12/12 A3011=
KNGP 101656Z 18007KT 5SM -RA BR SCT005 BKN015 OVC032 19/18
     A2993=
KOKC 101652Z 21016G21KT 8SM SCT010 OVC130 12/10 A2971=
KPBI 101653Z COR 15011KT 10SM SCT017 BKN021TCU BKN032 26/22
     A3014=
KPBI 101653Z 15011KT 10SM SCT017 BKN021TCU BKN032 26/21 A3014=
KPDK 101653Z 08004KT 1SM BR OVC004 07/06 A3022=
KPFN NIL=
KPIE 101653Z 16007KT 10SM CLR 25/21 A3014=
KPNS 101653Z 07003KT 8SM FG OVC003 13/12 A3014=
KROW 101651Z 30014G20KT 10SM CLR 15/M09 A2990=
KRSW 101653Z 10005KT 10SM CLR 24/21 A3014=
KSAT 101651Z 20005KT 2 1/2SM R12R/5000VP6000FT -RA BR FEW007
     BKN020 OVC030 19/17 A2995=

0000142700
215
SAUS72 KWBC 101700 RRC
METAR
KSFB 101653Z VRB03KT 10SM SCT018 BKN028 25/21 A3015=
KSHV 101656Z 13005KT 4SM BR OVC004 14/13 A2995=
KSJT 101651Z 21012KT 8SM FEW120 14/12 A2990=
KSRQ 101653Z 12008KT 10SM CLR 25/19 A3012=
KSSI 101653Z AUTO 13010KT 1 1/2SM -RA BR SCT008 OVC013 17/17
     A3019=
KTCC 101653Z AUTO 27016KT 10SM CLR 11/M08 A2979=
KTCL 101653Z VRB03KT 10SM OVC006 11/08 A3017=
KTCS 101653Z AUTO 30009KT 10SM CLR 10/M09 A3005=
KTLH 101653Z 00000KT 3/4SM BR OVC002 18/17 A3015=
KTPA 101653Z COR 17004KT 10SM FEW040 SCT120 BKN150 24/19 A3014=
KTPA 101653Z 17004KT 10SM CLR 24/19 A3014=
KTRI 101653Z 08003KT 10SM FEW005 OVC065 09/07 A3024=
KTUL 101653Z 19010KT 10SM FEW008 BKN012 OVC085 09/08 A2972=
KTUP 101653Z 19010KT 10SM OVC003 09/ A3011=
KTXK 101653Z 19011KT 8SM OVC005 13/12 A2989=
KTYR 101653Z 18013KT 10SM OVC015 16/14 A2990=
KTYS 101653Z 00000KT 10SM BKN007 OVC028 07/05 A3022=
KVCT 101651Z 16011KT 10SM FEW009 BKN032 OVC055 21/19 A2994=
KVLD 101653Z 16009KT 10SM OVC006 22/19 A3016=
KVRB 101653Z 13006KT 10SM BKN023 BKN030 BKN049 24/22 A3016=
TIST NIL=
TISX NIL=
TJBQ 101650Z 08022G27KT 10SM SCT020 SCT100 30/ A3009=
TJMZ 101650Z 12011KT 10SM SCT040 30/18 A3005=
TJPS 101650Z 12005KT 10SM FEW030 32/19 A3004=
TJSJ 101656Z 07019G24KT 10SM FEW026 SCT032 SCT040 29/22 A3007=
TKPK 101700Z 04013KT 9999 BKN015 SCT045 25/22 Q1017=
TNCM NIL=

0000012400
216
SACN62 CYWG 101700
METAR CYWG 101700Z 18011G16KT 6SM BR SCT037 OVC068 M07/M09 A2945 RMK
 SC4AC4 SLP988=

0000011900
217
SACN62 CYXE 101700
METAR CYXE 101700Z 23007KT 15SM FEW130 BKN280 M13/M14 A2944 RMK
 AC1CI5 SLP008=

0000014000
218
SACN62 CYWL 101700
METAR CYWL 101700Z 00000KT 15SM MIFG FEW009 FEW070 SCT140 M06/M07
 A2971 RMK SF1AC1AC3 SF TR SLP106=

0000100800
219
FTSR31 WSSS 101700
TAF WSSS 101700Z 1018/1124 35007KT 9999 FEW018CB SCT020
TEMPO 1106/1110 3000 TSRA SCT015CB BKN018=
TAF WSAP 101700Z 1018/1124 35007KT 9999 FEW018CB SCT020
TEMPO 1106/1110 3000 TSRA SCT015CB BKN018=
TAF WSSL 101700Z 1018/1124 35007KT 9999 FEW018CB SCT020
TEMPO 1106/1110 3000 TSRA SCT015CB BKN018=
TAF WAAA 101700Z 1018/1124 09004KT 7000 SCT019 
TEMPO 1018/1021 5000 RA FEW017CB 
BECMG 1102/1104 32010KT 9000 
TEMPO 1106/1109 6000 RA FEW017CB 
BECMG 1111/1113 12004KT 8000=
TAF WABB 101700Z NIL=
TAF WADD 101700Z 1018/1118 27010KT 9999 SCT016 
TEMPO 1018/1023 VRB05KT 7000 -TSRA FEW015CB SCT015 
TEMPO 1105/1110 FEW015CB SCT015=
TAF WARR 101700Z NIL=
TAF WIHH 101700Z NIL=
TAF WIII 101700Z 1018/1124 25007KT 5000 HZ SCT020 
BECMG 1102/1104 24010KT 9999 SCT021 
TEMPO 1106/1110 4000 TSRA FEW020CB SCT021 
BECMG 1112/1114 22005KT 7000 SCT020=
TAF WIMM 101700Z 1018/1118 25004KT 4000 HZ BKN017
BECMG 1102/1104 33006KT 6000 SCT017=

0000167700
220
SAUS73 KWBC 101700
METAR
KABR 101653Z AUTO 22009KT 9SM CLR M06/M08 A2956=
KALN 101650Z 15008KT 3 -RA OVC010 03/03 A2991=
KALO 101654Z AUTO 13009KT 1 1/2SM BR OVC005 M01/M02 A2976=
KAPN 101654Z AUTO 18007KT 5SM BR OVC016 M04/M06 A3006=
KASE 101653Z 00000KT 1SM -SN BR OVC015 M09/M11 A2989=
KATY 101653Z AUTO 21010KT 4SM BR CLR M03/M04 A2955=
KAXN 101653Z AUTO 17012KT 3/4SM BR OVC002 M03/M04 A2959=
KAZO 101653Z 17008KT 1 1/2SM BR OVC004 01/00 A3005=
KBDE 101653Z AUTO 18010KT 3SM BR OVC007 M05/M06 A2954=
KBFF 101653Z AUTO 29017G23KT 10SM CLR 02/M11 A2968=
KBIS 101652Z 27009KT 10SM CLR 00/M07 A2953=
KBJC 101653Z 29019G35KT 60SM FEW040 SCT080 BKN120 02/M14 A2966=
KBKF 101655Z 34005KT 70SM FEW070 SCT110 BKN220 00/M13 A2971=
KBRL 101653Z AUTO 15010KT 1 1/4SM -RA BR OVC002 01/01 A2981=
KBTL 101653Z 18010KT 4SM BR OVC003 01/M01 A3006=
KCGI 101653Z 13008KT 10SM OVC009 06/05 A2999=
KCID 101652Z 13011KT 2SM BR OVC004 00/M01 A2977=
KCIU 101655Z AUTO 16009KT 1 3/4SM OVC004 M03/M03 A2999=
KCMI 101653Z 13008KT 2 1/2SM -RA BR BKN011 OVC016 02/01 A2997=
KCMX 101653Z AUTO 19010KT 9SM CLR M04/M08 A2978=
KCOS 101654Z 30024G34KT 10SM FEW080 BKN150 02/M16 A2970=
KCOU 101654Z 14011KT 1 3/4SM BR OVC002 04/03 A2975=
KCPR 101653Z 22017KT 10SM FEW100 SCT120 M04/M12 A2969=
KCYS 101653Z 30023G33KT 10SM CLR M02/M12 A2966=
KDDC 101652Z AUTO 33009KT 9SM OVC070 03/M02 A2970=
KDEC 101654Z 17010KT 3SM -RA BR OVC007 03/01 A2995=
KDEN 101653Z VRB03KT 10SM FEW070 SCT110 SCT220 M01/M12 A2969=
KDET 101653Z 19009KT 7SM OVC009 02/M01 A3014=
KDLH 101655Z 18008KT 3/4SM R09/4000V4500FT -SN BR OVC002 M06/M08
     A2967=

0000166900
221
SAUS73 KWBC 101700 RRA
METAR
KDSM 101654Z 12007KT 1/4SM R31/1800V2000FT -DZ FG VV002 01/M01
     A2971=
KDTW 101653Z 15008KT 5SM BR OVC008 02/00 A3014=
KEAU 101656Z 16009KT 3SM BR OVC006 M04/M04 A2980=
KEGE 101650Z 30007G14KT 5SM VCSH BR SCT035 OVC050 M05/M08
     A2995=
KELO 101653Z AUTO 18009G15KT 3SM -SN OVC009 M08/M09 A2965=
KEVV 101654Z 14006KT 6SM HZ OVC040 08/05 A3007=
KFAR 101653Z 17011KT 4SM BR SCT075 M03/M05 A2953=
KFNT 101653Z 17006KT 4SM BR OVC006 01/M01 A3009=
KFSD 101656Z 18012KT 3/4SM R03/3500V4500FT BR OVC003 M01/M02
     A2961=
KFWA 101654Z 16008KT 3/4SM -DZ BR OVC003 02/01 A3009=
KGCK 101654Z 31010KT 10SM CLR 04/M03 A2971=
KGFK 101653Z 19017KT 4SM BR BKN028 BKN033 OVC048 M06/M07 A2945=
KGJT 101653Z 04005KT 7SM BKN070 M04/M06 A3002=
KGRB 101653Z 18010KT 2SM BR OVC008 M02/M04 A2993=
KGRI 101653Z 22007KT 6SM BR OVC005 01/M01 A2961=
KGRR 101653Z 16009KT 2SM BR OVC006 01/M01 A3004=
KGYY NIL=
KHIB 101653Z AUTO 17004KT 2 1/2SM BR OVC005 M06/M08 A2963=
KHON 101655Z AUTO 23005KT 5SM BR CLR M03/M05 A2959=
KHUF 101653Z 15006KT 5SM BR OVC028 03/01 A3004=
KHUT 101652Z 27008KT 4SM BR BKN005 OVC014 04/03 A2962=
KICT 101653Z 23012G18KT 10SM BKN009 BKN013 07/06 A2962=
KIKK 101655Z AUTO 14009KT 4SM BR OVC004 01/00 A2999=
KIND 101654Z 13010KT 3SM BR OVC028 01/01 A3006=
KINL 101655Z AUTO 18005KT 2 1/2SM BR OVC006 M06/M07 A2959=
KIRK 101655Z AUTO 12008KT 1 1/2SM BR OVC003 01/01 A2973=
KJAC 101655Z 00000KT 10SM VCSH BKN025 BKN045 M04/M06 A2980=
KJLN 101653Z 17017G30KT 7SM -RA FEW018 BKN055 OVC065 12/10
     A2968=
KJMS 101656Z AUTO 27008KT 10SM CLR 00/M04 A2948=

0000166700
222
SAUS73 KWBC 101700 RRB
METAR
KJXN 101656Z 18010KT 1 1/2SM BR OVC002 01/M01 A3008=
KLAN 101653Z 16007KT 1 1/2SM BR OVC002 M01/M02 A3008=
KLAR 101653Z AUTO 28027G36KT 5SM HZ SCT100 M06/M11 A2966=
KLBF 101653Z AUTO 29011KT 10SM OVC090 02/M03 A2958=
KLBL 101655Z AUTO 31014G18KT 10SM CLR 06/M03 A2976=
KLEX 101654Z 14007KT 10SM OVC022 09/07 A3016=
KLNK 101654Z 16006KT 2 1/2SM BR OVC003 00/M01 A2966=
KLOU 101653Z 13006KT 9SM OVC007 08/07 A3012=
KLOZ 101653Z AUTO 00000KT 10SM OVC021 10/06 A3019=
KLSE 101653Z 16009KT 5SM HZ OVC009 M01/M04 A2983=
KMBS 101653Z 17006KT 2 1/2SM BR OVC007 00/M02 A3008=
KMCI 101653Z 14008KT 3/4SM R19R/2800VP6000FT -DZ BR OVC002 02/M01
     A2968=
KMDW 101651Z 16008KT 3SM BR OVC005 01/00 A2998=
KMHK 101652Z 00000KT 1 3/4SM BR OVC004 02/02 A2962=
KMKC 101654Z 00000KT 1SM BR OVC005 03/02 A2969=
KMKE 101652Z 15008KT 4SM BR OVC005 00/M02 A2996=
KMKG 101655Z 15007KT 1 1/2SM BR OVC005 00/M02 A3001=
KMLI 101652Z 14014KT 6SM BR OVC006 01/M01 A2984=
KMOT 101654Z AUTO 23017G22KT 10SM SCT110 M01/M07 A2943=
KMSN 101653Z 16011KT 1SM R36/4500VP6000FT BR OVC003 M01/M02
     A2989=
KMSP 101653Z 16011KT 3SM BR OVC006 M03/M04 A2974=
KOFF 101658Z 17004KT 1/4SM FZFG VV002 00/00 A2966=
KOMA NIL=
KORD 101651Z 16008KT 1 1/2SM BR OVC003 01/M01 A2995=
KOSH 101653Z 17009KT 2SM BR OVC008 M01/M03 A2991=
KOTM 101653Z AUTO 14010KT 1 1/4SM BR OVC002 01/00 A2974=
KOWB 101656Z 16010KT 6SM BR BKN010 OVC034 08/08 A3009=
KPAH 101653Z 16007G15KT 10SM BKN015 OVC023 09/06 A3003=
KPIA 101654Z 16007KT 7SM BKN004 OVC015 02/01 A2990=
KPIR 101653Z AUTO 26005KT 10SM CLR M02/M05 A2959=

0000146300
223
SAUS73 KWBC 101700 RRC
METAR
KPLN 101654Z AUTO 14006KT 4SM BR OVC006 M04/M06 A3001=
KPTK 101653Z 17005KT 1/4SM R09R/1400V1600FT FG VV002 00/M01
     A3010=
KPUB 101653Z AUTO 29021G32KT 10SM CLR 06/M17 A2974=
KRAP 101652Z 30009KT 10SM CLR 04/M07 A2961=
KRFD 101654Z 16011KT 1 1/2SM BR OVC002 00/M01 A2992=
KRKS 101654Z AUTO 30016G23KT 3SM -SN OVC015 M04/M07 A2987=
KRST 101654Z 17012KT 1 1/4SM R31/5000VP6000FT BR OVC003 M02/M04
     A2975=
KSAW 101650Z 20013KT 3SM BR OVC005 M05/M07 A2985=
KSBN 101654Z 16008KT 3/4SM BR OVC004 01/00 A3004=
KSDF 101656Z 14009KT 8SM SCT008 OVC050 09/07 A3011=
KSDM 101653Z 14007KT 6SM HZ CLR 14/04 A3010=
KSGF 101652Z 16016KT 3SM RA BR SCT003 BKN029 OVC065 06/05
     A2978=
KSLN 101653Z 15005KT 4SM BR BKN005 OVC011 02/01 A2961=
KSPI 101652Z 15015G24KT 7SM BKN008 OVC014 02/01 A2990=
KSTC 101653Z 16012KT 1 1/4SM BR OVC005 M04/M05 A2967=
KSTJ 101653Z 13004KT 1 1/2SM R35/5500VP6000FT BR OVC003 01/01
     A2967=
KSTL 101651Z 16009G18KT 2SM -RA BR BKN009 OVC070 03/02 A2989=
KSTP 101653Z 16011KT 2SM BR OVC008 M03/M05 A2976=
KSUS 101654Z 16006KT 10SM FEW010 SCT070 OVC090 04/03 A2986=
KSUX 101652Z 15009KT 2SM BR BKN005 OVC009 M01/M01 A2966=
KTVC 101653Z 16006KT 2SM BR OVC006 M02/M04 A3000=
KUIN 101654Z AUTO 14012KT 5SM -RA BR OVC005 02/00 A2980=
KWRL 101653Z AUTO 20006KT 10SM FEW075 BKN095 M07/M09 A2971=
KYIP 101653Z 17008KT 5SM HZ OVC006 03/00 A3013=

0000166700
224
SAUS74 KWBC 101700
METAR
KACV 101653Z AUTO 16005KT 4SM BR BKN005 OVC011 10/09 A3027=
KALW 101653Z 20014G21KT 10SM CLR 09/02 A3001=
KBFI 101653Z 18011G24KT 10SM BKN019 BKN120 09/05 A3007=
KBFL 101654Z 00000KT 5SM HZ CLR 09/04 A3029=
KBIL 101653Z 24012KT 10SM SCT075 BKN160 01/M07 A2961=
KBKE 101653Z AUTO 00000KT 10SM CLR 01/M02 A3002=
KBLI 101653Z 17008G15KT 10SM OVC027 08/04 A2998=
KBOI 101653Z 00000KT 10SM FEW110 04/M01 A3006=
KBTM 101653Z AUTO 29003KT 10SM OVC090 M02/M07 A2973=
KBUR 101653Z 00000KT 7SM CLR 14/04 A3011=
KBYI NIL=
KBZN 101656Z 11004KT 10SM FEW060 BKN070 OVC095 00/M07 A2971=
KCDC 101653Z AUTO 14008KT 10SM CLR 04/M04 A3011=
KCEC 101651Z AUTO 15008KT 3/4SM BR OVC002 09/09 A3027=
KCLM 101653Z AUTO 29008KT 10SM BKN120 08/04 A3000=
KCTB 101656Z AUTO 27015KT 10SM CLR 01/M06 A2950=
KCXL NIL=
KEKO 101656Z AUTO 24010KT 10SM CLR 03/M02 A3016=
KEUG 101654Z 16003KT 4SM BR OVC060 09/08 A3022=
KFAT 101653Z 00000KT 3SM HZ CLR 08/04 A3029=
KFLG 101657Z VRB06KT 10SM CLR 05/M07 A3013=
KGCN NIL=
KGEG 101653Z 21016KT 10SM FEW025 SCT055 BKN200 02/M01 A2982=
KGGW 101653Z AUTO 23005KT 10SM FEW080 M06/M09 A2950=
KGTF 101653Z 22013KT 10SM CLR 03/M05 A2955=
KHLN 101653Z 27014G21KT 10SM FEW041 03/M03 A2965=
KHQM 101653Z AUTO 20011KT 3SM BR BKN046 OVC100 A3010=
KIDA 101653Z 22012KT 10SM OVC012 M01/M03 A2991=
KIWA NIL=
KLAS 101656Z 15003KT 10SM SCT250 09/M06 A3011=
KLAX 101653Z COR 00000KT 4SM HZ SCT160 SCT220 14/08 A3013=
KLGB 101653Z 30003KT 2 1/2SM HZ CLR 11/08 A3013=
KLMT 101653Z 23003KT 10SM BKN048 04/M03 A3021=
KLVM 101653Z AUTO 26018KT 10SM OVC070 03/M07 A2966=

0000170100
225
SAUS74 KWBC 101700 RRA
METAR
KMFR 101653Z 00000KT 3SM BR OVC004 05/04 A3026=
KMLS 101653Z AUTO 19005KT 10SM OVC090 M03/M08 A2958=
KMRY 101654Z 09006KT 10SM CLR 11/05 A3027=
KMSO 101653Z VRB04KT 7SM -SN OVC042 M01/M02 A2980=
KMYV 101653Z AUTO 35004KT 6SM BR CLR 07/06 A3030=
KNTD 101654Z 08004KT 7SM FEW008 SCT120 SCT220 14/07 A3012=
KOAK 101653Z 00000KT 9SM FEW010 SCT180 BKN250 09/07 A3029=
KOGD 101653Z 20005KT 10SM OVC060 02/M04 A3003=
KOLM 101654Z 20008KT 4SM BR FEW007 BKN027 OVC038 07/06 A3013=
KONT 101653Z VRB03KT 6SM HZ SCT250 14/06 A3011=
KOTH 101655Z 00000KT 10SM BKN024 OVC070 10/09 A3023=
KPAE 101653Z 19013KT 10SM OVC018 07/05 A3004=
KPDX 101653Z 00000KT 9SM OVC070 09/07 A3018=
KPHX 101651Z 10005KT 10SM FEW250 11/M02 A3012=
KPIH 101653Z 23022KT 10SM SCT034 01/M03 A2994=
KPMD 101653Z 00000KT 10SM CLR 08/M01 A3021=
KPRB 101653Z AUTO 00000KT 10SM CLR 06/02 A3026=
KPRC 101653Z 32008KT 10SM CLR 08/M08 A3016=
KPSP 101653Z 00000KT 9SM CLR 13/M01 A3012=
KRBL 101654Z AUTO 33005KT 10SM CLR 05/03 A3031=
KRDD 101653Z 00000KT 10SM CLR 02/00 A3030=
KRDM 101656Z 17004KT 10SM FEW055 06/M02 A3007=
KRNO 101655Z 00000KT 10SM FEW075 SCT150 BKN180 OVC250 00/M02
     A3028=
KRNT 101653Z 16013KT 10SM BKN019 OVC025 08/06 A3008=
KSAC 101653Z 00000KT 5SM BR CLR 06/04 A3030=
KSAN 101651Z 00000KT 7SM FEW017 SCT250 14/08 A3012=
KSBA 101653Z 00000KT 10SM SCT200 18/06 A3010=
KSBD 101651Z 00000KT 10SM FEW200 10/02 A3013=
KSBP 101656Z 14003KT 10SM CLR 14/04 A3021=
KSCK 101655Z 00000KT 9SM CLR 07/04 A3029=
KSEA 101653Z 19017G22KT 10SM -RA BKN011 OVC019 08/06 A3009=
KSFF 101653Z VRB05KT 10SM FEW025 SCT060 04/00 A2986=

0000082200
226
SAUS74 KWBC 101700 RRB
METAR
KSFO 101656Z 31004KT 8SM FEW003 OVC006 11/09 A3029=
KSHR 101653Z AUTO 16005KT 10SM BKN070 OVC085 M01/M07 A2963=
KSJC 101653Z 00000KT 10SM FEW010 BKN160 OVC250 08/04 A3029=
KSLC 101653Z 14012KT 10SM BKN060 BKN070 BKN200 02/M04 A3005=
KSMF 101653Z 00000KT 3/4SM R16R/P6000FT BR SCT001 BKN250 03/03
     A3030=
KSMX 101651Z 32013KT 10SM CLR 16/03 A3020=
KSNA 101653Z 00000KT 4SM HZ SCT250 13/09 A3012=
KSNS 101653Z 12004KT 10SM CLR 07/03 A3028=
KTIW 101653Z 19011G25KT 7SM SCT007 OVC014 08/06 A3009=
KTUS 101653Z 17003KT 10SM CLR 09/M04 A3016=
KTVL 101653Z AUTO 17004KT 10SM CLR M01/M05 A3030=
KTWF 101653Z 24016KT 10SM CLR 05/M03 A3002=
KUKI 101656Z AUTO 00000KT 10SM CLR 04/03 A3031=
KYKM 101653Z 31015G34KT 10SM OVC080 12/M03 A2992=
KYUM NIL=

0000012800
227
SACN62 CYYC 101700
METAR CYYC 101700Z 23002KT 40SM FEW090 SCT150 BKN300 00/M10 A2941 RMK
 AC1AC3CI1 SLP000=

0000011900
228
SACN62 CYXL 101700
METAR CYXL 101700Z 18008KT 2 1/2SM -SN BR OVC007 M08/M09 A2959 RMK
 ST8 SLP047=

0000010600
229
SACN62 CYXH 101700
METAR CYXH 101700Z 21006KT 30SM SCT270 M02/M07 A2946 RMK CI4 SLP002=

0000009800
230
SAFR23 LFPW 101700 RRA
METAR LFOE 101700Z AUTO 14005KT 9999 OVC011 06/05 Q1017=

0000009900
231
SACN62 CYXN 101700
METAR CYXN 101700Z 34011KT 15SM SKC M30/M33 A2961 RMK SLP028=

0000010300
232
SACN61 CYXS 101700
METAR CYXS 101700Z AUTO 16005KT 9SM CLR M05/M05 A2966 RMK SLP078=

00000000