0000026700
813
SACZ43 LKPW 110000
METAR LKCV 110000Z 24008KT CAVOK 04/01 Q1018 NOSIG=
METAR LKKB 110000Z 25009KT CAVOK 04/01 Q1017=
METAR LKLN 110000Z NIL=
METAR LKNA 110000Z 23005KT 9999 BKN048 01/M01 Q1018=
METAR LKPD 110000Z 26007KT CAVOK 04/M01 Q1018=

0000009500
814
SPCN46 CWAO 110004
SPECI CYBN 110004Z AUTO 15005KT 5/8SM OVC001 00/00 A3002=

0000018200
815
SAKY31 RUMS 110000
METAR UCFM 110000Z 14003MPS 3800 FU SKC M09/M16 Q1024 R08/CLRD70
NOSIG=
METAR UCFO 110000Z 14003MPS 9999 SKC M08/M13 Q1026 R12/CLRD70 NOSIG=

0000024400
816
SATA31 RUMS 110000
METAR UTDD 110000Z VRB01MPS M0050 R09/M0050N FZFG VV001 M08/M10 Q1027
09CLRD70 NOSIG RMK QBB030 QFE702/0936=
METAR UTDL 110000Z 07007G11MPS 3100 BR SCT230 M03/M06 Q1027 NOSIG RMK
QFE731/0974 8819//65=

0000012500
817
FTUS72 KWBC 110006 AAA
TAF AMD
KABI 110004Z 1100/1124 28006KT P6SM SKC
     FM111900 24006KT P6SM SKC=

0000020000
818
FTUS75 KWBC 110006
TAF
TAF AMD PASC 102359Z 1100/1124 25013KT 4SM -SN BR SCT020 BKN030
      TEMPO 1100/1102 2SM -SN BR BKN017
     FM110200 25018KT 3SM BR BLSN BKN017 OVC035=

0000014600
819
SACN62 CYYD 110000
METAR CYYD 110000Z 18004KT 25SM FEW035 FEW065 SCT150 OVC210 M03/M05
 A2958 RMK SC1SC1AC1CI5 PRESFR SLP038=

0000014200
820
SACN62 CYYC 110000
METAR CYYC 110000Z 05003KT 40SM FEW023 FEW120 BKN220 M04/M09 A2960
 RMK CF1AC1CI6 CF TR PRESRR SLP077=

0000011200
821
SACN62 CYYT 110000
METAR CYYT 110000Z 26014G21KT 15SM FEW030 M06/M10 A3015 RMK SC1
 SLP220=

0000013700
822
SACN62 CYYJ 110000
METAR CYYJ 110000Z 14006KT 12SM -RA FEW010 BKN035 OVC054 07/06 A2990
 RMK SF1SC5SC3 SF TR SLP125=

0000010600
823
SACN62 CYYZ 110000
METAR CYYZ 110000Z 15005KT 4SM BR OVC005 02/01 A3006 RMK ST8 SLP186=

0000044700
824
SAHW31 KWBC 110000
METAR
PBKH NIL=
PHJR 102353Z VRB03KT 10SM FEW037 SCT085 BKN110 22/20 A2992=
PHKO 102353Z 32013KT 10SM CLR 28/19 A2986=
PHLI 102353Z 03015KT 10SM CLR 26/19 A2995=
PHNL 102353Z COR 31009G17KT 8SM FEW025 SCT035 BKN100 24/19
     A2990=
PHNL 102353Z 31009G17KT 8SM BKN100 24/19 A2990=
PHOG 102354Z 36010KT 10SM FEW035 27/20 A2990=
PHTO 102353Z 05007KT 10SM FEW021 SCT050 26/20 A2990=
PNGF NIL=

0000050600
825
SAIO31 KWBC 110000
METAR
FIMP 110000Z 10005KT 9999 SCT017 SCT250 26/24 Q1015=
FIMR NIL=
FJDG 102355Z 31012G20KT 9999 FEW020 BKN050 OVC080 26/25 A2980 RMK
     SLP088 60009 8/87/ T02630250 10269 20258 56003=
FMCH NIL=
FMCV NIL=
FMCZ NIL=
FMEE NIL=
FMMI 110000Z VRB03KT 9999 FEW017 17/17 Q1020 NOSIG=
FMMT NIL=
FMNN NIL=
FSIA 110000Z 28006KT 9999 FEW014CB BKN080 26/23 Q1010 NOSIG=
FSSS NIL=
VRMM NIL=
VYMD NIL=
VYYY NIL=
WBGG NIL=
WBKK NIL=
WBSB NIL=

0000094600
826
SANT31 KWBC 110000
METAR
BGBW 102355Z NIL=
BGCO 102350Z AUTO 00000KT //// BKN033/// M08/M10 Q1010=
BGGH 102350Z 12010KT 9999 SCT045 M07/M15 Q0993=
BGJN 102350Z AUTO 10013KT 9999NDV BKN220/// M09/M19 Q0995=
BGKK 102350Z AUTO VRB77GP99KT 0500NDV SN BKN012/// M01/M03
     Q0985=
BGSF 102350Z AUTO 06011KT 9999NDV BKN230/// M15/M22 Q0996=
BGTL 102358Z AUTO 12014KT 9999 CLR M13/M17 A2921 RMK AO2 SLP880
     T11341167 11075 21134 52032=
BIAR 110000Z 15007KT 100V200 9999 -SG FEW040 OVC047 02/M03
     Q0996=
BIEG 110000Z 07018G30KT 7000 -SN SCT012 OVC022 01/M01 Q0997 RMK
     R04/790195 RWY SANDED=
BIKF 110000Z 27015KT 9999 FEW038 BKN065 02/M03 Q0992=
BIRK 110000Z 28011KT 3000 -SN FEW010 BKN017 OVC025 00/M01
     Q0992=
GVAC NIL=
GVPR NIL=
LPBJ NIL=
LPLA 110000Z 25016KT 200V280 9999 FEW016 SCT020 BKN038 14/11
     Q1005=
TXKF 102355Z 07012KT 9999 SCT026 BKN036 BKN300 18/12 Q1031=

0000181500
827
SAPA31 KWBC 110000
METAR AGGG NIL=
METAR AGGH 110000Z 36006KT 9999 HZ FEW020 31/25 Q1007=
METAR ANAU NIL=
METAR AYPY NIL=
METAR PGNT NIL=
METAR PGRO 102355Z 06014G21KT 7SM SCT028 SCT120 27/24 A2997=
METAR PGSN 110001Z 05017G23KT 10SM SCT019 BKN026 OVC042 26/22 A2995
     RMK
AO2=
METAR PGSN 102354Z 07011G20KT 10SM SCT019 SCT029 OVC070 26/23 A2995
     RMK
AO2 PK WND 07029/2305 RAB06E18B44E54 SLP163 P0001 60001
T02560228 10283 20250 50011=
METAR PGUA 102358Z AUTO 06016G23KT 10SM FEW019 28/23 A2996 RMK AO2
SLP136 T02800234 10281 20253 51014 ?=
METAR PGUM 102354Z 06016KT 10SM FEW027 SCT034 28/22 A2995 RMK AO2
     SLP135
60000 T02830217 10289 20256 50012=
METAR PGWT 102359Z 09016G23KT 7SM VCSH FEW005 FEW012 SCT020 BKN080
     27/24
A2994 RMK VCSH NW WIND DATA ESTIMATED=
METAR PHJH 102350Z 02015G22KT 15SM FEW020 FEW035 26/19 A2990=
METAR PHJR 102353Z VRB03KT 10SM FEW037 SCT085 BKN110 22/20 A2992 RMK
     AO2
RAB16E43 SLP137 P0006 60006 T02220200 10272 20189 56030=
METAR PHMK 102354Z 02010G17KT 10SM FEW050 24/20 A2991 RMK AO2 SLP129
T02440200 10256 20217 58034=
METAR PJON NIL=
METAR PKMJ NIL=
METAR PKMR 102352Z 03011KT 15SM SCT015 SCT050 BKN300 30/23 A2977 RMK
SLP083 8/801 T03010226 10301 20275 58005=
METAR PKWA 110000Z AUTO 07017G21KT 10SM SCT039 BKN046 OVC060 31/20
     A2981
RMK AO2 T03050202=
METAR PLCH 110000Z 12017KT 9999 FEW020 30/23 Q1006=
METAR PMDY 102356Z AUTO 10016G23KT 6SM HZ CLR 23/17 A3018 RMK AO2
     TSNO
58025 T02270166 10227 20194 SLP531 ?=
METAR PTKK 102350Z 03010KT 15SM FEW014 BKN120 OVC280 29/24 A2983 RMK
SLP105 8/171 T02920243 10294 20267 50003=
METAR PTKR NIL=
METAR PTPN NIL=
METAR PTRO 102356Z 08011G17KT 14SM BKN015CB BKN110 OVC290 27/25 A2974
// END PART 01 //=

0000041900
828
SAAL31 DAAA 110000
METAR DAAG 110000Z 25003KT 190V280 9999 FEW030 SCT080 14/07 Q1017=
METAR DAAT 110000Z 05009KT CAVOK 14/M02 Q1022=
METAR DABB 110000Z 18003KT CAVOK 09/08 Q1017=
METAR DABC 110000Z 23002KT CAVOK 07/02 Q1020=
METAR DAON 110000Z 24006KT 9999 FEW030 BKN100 18/15 Q1015=
METAR DAOO 110000Z 02002KT 9999 FEW026 SCT100 12/07 Q1015=
METAR DAUH 110000Z 04006KT CAVOK 13/07 Q1020=

0000009100
829
SAAG41 SAEZ 110000
METAR SAEZ 110000Z 00000KT 9999 FEW050CB 27/15 Q1009=

0000010200
830
SAAG41 SABE 110000
METAR SABE 110000Z  34008KT 9999  FEW045CB SCT100
27/18 Q1008=

0000021900
831
SAIE32 EIDB 110000
METAR EICM 110000Z NIL=
METAR EIDL 110000Z NIL=
METAR EIKY 110000Z NIL=
METAR EIME 110000Z 22009KT 9999 FEW025 02/02 Q1011=
METAR EISG 110000Z NIL=
METAR EIWF 110000Z NIL=

0000013000
832
SACN62 CYEV 110000
METAR CYEV 110000Z 28010G16KT 4SM -SN DRSN SCT029 OVC080 M25/M28
 A2973 RMK SC4AC4 SLP077=

00000000