0000011000
373
UANT01 CWAO 110446
ARP AFR007 4650N04059W 0446 F380 MS52 307/44 KT
FHPJD QXT AOW 110446 J73A
0000298800
374
SSVX08 KARS 110446
ZZYY 23003 10014 12004 301518 080513 6111/
11119 00312 10271 29085
22219 00290
33311 88872 20000 32896 20001 32891 43507 20020 32873 43507
20040 32831 43523 20060 32756 43524 20080 32480 20100 32219
20120 31814 20140 31622 20180 31422 20300 31155 20500 30961
444 20110 10014 1206/ 521// 60401=
ZZYY 23003 11014 02004 301518 080518 6111/
11119 00108 10282 29079
22219 00286
444 20110 11014 0217/ 521// 60401=
ZZYY 23003 11014 03004 301517 080514 6112/
11119 03607 10282 29078
22219 00287
444 20120 11014 0257/ 521// 60401=
ZZYY 53005 10014 1200/ 307994 080453 6112/
33311 88872 20001 32922 43401 20020 32914 43409 20040 32846 43404
20060 32696 43404 20080 32486 20120 32049 20140 31916 20180 31626
20500 30920
444 20120 10014 1346/ 521//=
ZZYY 53005 11014 03004 308000 080455 6112/
11119 02510 10265 29086 40122
22219 00289=
ZZYY 56053 10014 1200/ 316003 080522 6111/
33311 88872 20001 32839 43483 20020 32837 43485 20040 32776 43486
20060 32703 43482 20080 32607 20100 32357 20120 32243 20140 32145
20180 31894 20300 31471 20500 30994
444 20110 10014 1032/ 521//=
ZZYY 56053 11014 0300/ 316010 080519 6112/
11119 10263 29097
22219 00284
444 20120 11014 0302/ 521//=
ZZYY 23004 10014 12004 100061 090182 6111/
11119 00702 10291 29068
22219 00297
33311 88872 20000 32965 20001 32930 43404 20080 32865 20100 32838
20120 31960 20180 31439 20300 31155 20500 30972
444 20110 10014 1216/ 521// 60401=
ZZYY 23004 11014 02004 100075 090185 6111/
11119 02106 10278 29082
22219 00286
444 20110 11014 0212/ 521// 60401=
ZZYY 23004 11014 03004 100072 090180 6113/
11119 02106 10281 29082
22219 00288
444 20130 11014 0256/ 521// 60401=
ZZYY 53006 10014 1200/ 311932 080401 6111/
33311 88872 20001 32903 43460 20020 32901 43478 20040 32844 43489
20060 32794 43490 20080 32709 20100 32347 20120 31991 20140 31839
20180 31573 20300 31247 20500 30912
444 20110 10014 1033/ 521//=
ZZYY 23001 10014 1200/ 100066 080606 6111/
33311 88872 20001 32869 43524 20060 32776 43537 20080 32582
20100 32117 20120 31830 20140 31638 20180 31388 20300 31123
20500 31006
444 20110 10014 1035/ 521//=
ZZYY 23010 10014 1200/ 304025 080469 6112/
33311 88872 20001 32895 20020 32896 43440 20040 32840 43499
20060 32447 43536 20080 32201 20100 31989 20120 31800 20140 31604
20300 31126 20500 30929
444 20120 10014 1035/ 521//=
ZZYY 23010 11014 03004 304019 080466 6112/
11119 03508 10281 29083
22219 00288
444 20120 11014 0258/ 521// 60401=
ZZYY 23002 10014 12004 101541 080591 6112/
11119 03212 10284 29080
22219 00289
33311 88872 20000 32894 20001 32885 20020 32883 43490
20040 32851 43525 20060 32723 43554 20080 32215 20100 31838
20120 31698 20140 31586 20180 31498 20300 31154 20500 31001
444 20120 10014 1206/ 521// 60401=
ZZYY 23002 11014 03004 101549 080589 6111/
11119 03413 10280 29081
22219 00288
444 20110 11014 0257/ 521// 60401=
0000011000
375
UANT01 CWAO 110447
ARP ACA848 4926N04807W 0446 F350 MS64 316/63 KT
CGFAH DDL YYT 110447 J21A
0000011000
376
UANT01 CWAO 110447
ARP KAC118 4924N04822W 0447 F330 MS61 311/67 KT
9KAOA QXT AOW 110447 F03A
0000058900
377
SAER10 OMAM 110430
METAR OMAD 110430Z NIL=
METAR OMAH 110430Z AUTO 00000KT /////NDV //// ///// 17/12 Q1021 A3017=
METAR OMAM 110430Z 14008KT CAVOK 17/08 Q1020 A3012=
METAR OMDL 110430Z 06008KT 8000NDV SCT025 20/16 Q1020 A3014=
METAR OMDM 110430Z 06004KT 7000 OVC120 16/10 Q1022 A3018=
METAR OMLW 110430Z 14007KT CAVOK 15/07 Q1020=
METAR OMMZ 110430Z AUTO 14005KT /////NDV //// ///// 15/04 Q1021 A3015=
METAR OMSN 110430Z AUTO 07016KT /////NDV //// ///// 21/14 Q1020 A3014=
METAR OMSW 110430Z NIL=
METAR OMTH 110430Z 10009KT 9999 FEW025 BKN090 17/10 Q1022=
0000024100
378
SOAT10 KWAL 110448
FA8005BC 011044837 OT12 ID:KN-BASS-01 DT:2014 01 11 04 46
:RD -3191 -3167 -3179 -3202 -3197 -3185 -3190 -3203 -3200 -3176
:PR 0457 0459 0489 0492 0476 0498 0466 0477 0446 0425
:B 13.7V
 46+1NN 219E
0000034300
379
SIVD15 KWNB 110300 RRS
BBXX
42369 11031 99272 70903 46/// /1506 1//// 90240=
42375 11031 99285 70883 46/// /1308 1//// 90240 22200 10401 70007
555 11066 22072=
42392 11031 99272 70900 46/// ///// 1//// 90240 22200 10502 70009=
42887 11031 99282 70885 46/// /1606 10222 20181 90240 22200 10602
70010 555 11047 22051=
0000020900
380
SNVD20 KWNB 110500
BBXX
44059 11051 99368 70763 46/// /1704 10138 40199 90440 333 91205
555 11044 22048=
44058 11051 99376 70763 46/// /1903 10064 40208 90440 333 91204
555 11035 22038=
0000029800
381
SNVD15 KWNB 110400 RRP
BBXX
41056 11041 99183 70655 46/// /0507 10254 40178 90430 333 91209
555 11074 22080=
41056 11041 99183 70655 46/// /0606 10256 40180 90420 333 91207
555 11064 22069=
41056 11041 99183 70655 46/// /0606 10257 40181 90410 333 91207
555 11065 22070=
0000091700
382
SNVD20 KWNB 110400 RRU
BBXX
41052 11041 99183 70648 46/// /0808 10261 40178 90430 333 91210
555 11092 22099=
41052 11041 99183 70648 46/// /0707 10256 40179 90420 333 91209
555 11077 22084=
41052 11041 99183 70648 46/// /0707 10252 40179 90410 333 91208
555 11075 22081=
41053 11041 99185 70661 46/// /1007 10262 40181 90430 333 91210
555 11075 22081=
41053 11041 99185 70661 46/// /0808 10263 40182 90420 333 91210
555 11086 22093=
41053 11041 99185 70661 46/// /0708 10264 40183 90410 333 91210
555 11093 22101=
42085 11041 99179 70665 46/// /0607 10254 40178 90430 333 91209
555 11080 22087=
42085 11041 99179 70665 46/// /0507 10254 40178 90420 333 91209
555 11079 22086=
42085 11041 99179 70665 46/// /0507 10254 40178 90410 333 91209
555 11080 22087=
44030 11041 99432 70704 46/30 /2303 10021 40252 90404 22200 00052
10502 70008 333 91204 555 11037 22040=
0000074900
383
UDEU02 EGRR 110451
AMDAR 1104
ASC EU0151   5539N 01116E 110439 F260 MS417 275/067 TB/ S031=
ASC EU0151   5539N 01109E 110440 F251 MS397 275/062 TB/ S031=
ASC EU0151   5539N 01102E 110440 F229 MS347 274/051 TB/ S031=
ASC EU0151   5540N 01055E 110441 F208 MS302 275/043 TB/ S031=
ASC EU0151   5540N 01049E 110442 F192 MS260 277/045 TB/ S031=
ASC EU0151   5541N 01042E 110442 F171 MS217 282/037 TB/ S031=
ASC EU0151   5541N 01036E 110443 F156 MS212 276/041 TB/ S031=
ASC EU0151   5542N 01030E 110444 F138 MS162 272/036 TB/ S031=
ASC EU0151   5542N 01024E 110444 F122 MS127 263/038 TB/ S031=
ASC EU0151   5542N 01018E 110445 F108 MS100 258/035 TB/ S031=
ASC EU0151   5543N 01013E 110446 F100 MS082 260/029 TB/ S031=
0000011000
384
UANT99 KDDL 110446
ARP FWI511 4529N01103W 0446 F360 MS62 283/46 KT
FHPTP QXT AOE 110446 J66A
0000011000
385
UANT99 KDDL 110447
ARP UAL36 5059N04000W 0446 F370 MS54 288/24 KT
N21108 DDL IG1 110447 F70A
0000011100
386
UANT99 KDDL 110447
ARP UAL918 5010N02840W 0447 F390 MS55 212/59 KT
N796UA DDL XXW 110447 F46A
0000011100
387
UANT99 KDDL 110447
ARP SVA036 5039N02441W 0447 F330 MS60 217/85 KT
HZAK18 QXT EUA 110447 F35A
0000011100
388
UANT99 KDDL 110447
ARP DAL228 4854N02134W 0447 F330 MS60 221/62 KT
N1201P QXT AOW 110447 F67A
0000011000
389
UANT99 KDDL 110447
ARP ACA864 5051N03620W 0447 F370 MS55 221/29 KT
CGHLM DDL XXW 110447 J11A
0000011100
390
UANT99 KDDL 110447
ARP UAL110 5258N02011W 0447 F380 MS55 239/66 KT
N33103 DDL IG1 110447 F66A
0000011000
391
UANT99 KDDL 110447
ARP DLH463 4820N01350W 0447 F380 MS57 263/49 KT
DAIMC QXT EUA 110447 J91A
0000011100
392
UANT99 KDDL 110447
ARP UAL972 5525N04639W 0447 F370 MS63 292/56 KT
N777UA DDL UAK 110447 F15A
00000000