0000057900
473
FTRO31 LROM 102300
TAF LRBS 102300Z 1100/1124 VRB03KT CAVOK TEMPO 1102/1107 3000 BR=
TAF LRCK 102300Z 1100/1124 27005KT 1500 BR NSC PROB30 TEMPO 1100/1105
0600 FG OVC002 BECMG 1105/1107 3000 BECMG 1107/1109 9999 NSW=
TAF LROP 102300Z 1100/1124 VRB03KT CAVOK TEMPO 1102/1107 3000 BR=
TAF LRSB 102300Z 1100/1124 29012KT CAVOK TEMPO 1102/1107 5000 BR
BECMG 1106/1108 VRB04KT=
TAF LRTR 102300Z 1100/1124 VRB04KT 0150 FZFG VV001 BECMG 1106/1108
3000 BR BKN010 BECMG 1109/1111 5000 BKN020 BECMG 1116/1118 1500 BR
BKN005 TEMPO 1120/1124 0600 FG VV001=

0000075500
474
SATU31 LTAA 102320
METAR LTAC 102320Z VRB01KT 4900 BR OVC007 M03/M03 Q1022 NOSIG=
METAR LTAF 102320Z 04006KT CAVOK 04/M01 Q1021 NOSIG=
METAR LTAI 102320Z 34005KT 9999 SCT020 06/04 Q1022 NOSIG=
METAR LTAJ 102320Z 00000KT CAVOK M02/M05 Q1021 NOSIG=
METAR LTAZ 102320Z NIL=
METAR LTBA 102320Z 21007KT 190V260 4000 BR NSC 10/07 Q1021 NOSIG=
METAR LTBJ 102320Z 12001KT 3600 BR NSC 05/04 Q1021 NOSIG=
METAR LTBS 102320Z 06005KT CAVOK 06/05 Q1022 NOSIG=
METAR LTCG 102320Z VRB01KT CAVOK 06/M01 Q1016 NOSIG=
METAR LTCS 102320Z 34006KT CAVOK 03/M06 Q1021=
METAR LTFC 102320Z NIL=
METAR LTFE 102320Z 10003KT 350V140 6000 FEW035 BKN100 08/07 Q1022
 NOSIG=
METAR LTFJ 102320Z 19005KT 150V220 9999 SCT012 08/01 Q1021 NOSIG=

0000064400
475
SATU32 LTAA 102320
METAR LTAG 102320Z 03006KT CAVOK 01/M03 Q1021 NOSIG=
METAR LTAN 102320Z NIL=
METAR LTAP 102320Z 00000KT CAVOK M06/M07 Q1022 NOSIG=
METAR LTAT 102320Z 22005KT CAVOK M09/M10 Q1022 NOSIG=
METAR LTAU 102320Z 00000KT 2900 BR OVC002 M04/M04 Q1022 TEMPO FM0000
 0800 FZFG=
METAR LTBF 102320Z NIL=
METAR LTBU 102320Z VRB02KT 0400 R05/0200D R23/0450D BCFG NSC 03/03
 Q1021=
METAR LTCC 102320Z 33005KT CAVOK M04/M06 Q1020 NOSIG=
METAR LTCE 102320Z 00000KT 0700 0250W R26L/1200D R08R/0225N
 R26R/0275N R08L/0375N BCFG NSC M27/M29 Q1021 NOSIG=
METAR LTCJ 102320Z 16003KT 6000 NSC M02/M02 Q1021=

0000008900
476
SATU35 LTAA 102320
METAR LCEN 102320Z 28009KT CAVOK 07/03 Q1021 NOSIG=

0000017500
477
FCRO33 LROM 102300
TAF LRBC 102300Z NIL=
TAF LRCV 102300Z NIL=
TAF LRIA 102300Z 1100/1109 26006KT CAVOK=
TAF LRSV 102300Z NIL=
TAF LRTC 102300Z NIL=

0000019700
478
FCSP32 LEMM 102300 AAA
TAF AMD LEAB 102328Z 1100/1109 13004KT 9999 SCT010 TEMPO
1100/1109 2500 BR BKN014 TEMPO 1104/1109 0800 FG OVC005
PROB40 TEMPO 1106/1109 0100 FG OVC001=

0000056000
479
SAGR31 LGAT 102320
METAR LGAD 102320Z NIL=
METAR LGAV 102320Z VRB03KT CAVOK 10/07 Q1019 NOSIG=
METAR LGIR 102320Z 17008KT CAVOK 12/09 Q1021 NOSIG=
METAR LGKL 102320Z AUTO 30004KT 280V350 //// // //////
     10/08 Q1022 RE//=
METAR LGKO 102320Z NIL=
METAR LGKR 102320Z 00000KT 9999 FEW014 SCT018 BKN070 11/10 Q1022
 NOSIG=
METAR LGLM 102320Z AUTO VRB02KT //// // ////// 10/08 Q1020
     RE//=
METAR LGRP 102320Z NIL=
METAR LGSA 102320Z 27014KT 9999 FEW020 14/10 Q1020=
METAR LGSM 102320Z NIL=
METAR LGTS 102320Z NIL=

0000132400
480
FTUS31 KWBC 102330
TAF
KABQ 102329Z 1100/1124 30018G30KT P6SM FEW100
     FM110300 33011KT P6SM FEW120
     FM110600 34004KT P6SM SCT250
     FM112000 28006KT P6SM FEW250=
KATL 102326Z 1100/1206 09008KT 1SM -DZ BR OVC002
     FM110200 12007KT 1/2SM -RADZ FG OVC002
     FM111000 16009KT 1SM -SHRA BR OVC004
     FM111400 21010G18KT 2SM -SHRA BR OVC007
     FM111900 27013G22KT P6SM BKN025
     FM112100 29014G23KT P6SM SCT040
     FM120000 28011KT P6SM SCT250=
KBMG 102328Z 1100/1124 17007KT 2SM -RA BR BKN006 OVC015
     FM110900 22010KT 3SM -RA BR OVC006
     FM111200 25012KT 4SM -RA BR OVC009
     FM111800 25012G22KT P6SM OVC015 AMD LTD TO CLD VIS AND WIND
      1102/1114=
KBOS 102327Z 1100/1206 21005KT 4SM BR OVC012
     FM110600 17005KT 2SM BR OVC008
     FM111000 17006KT 3/4SM -RA BR OVC005
     FM111400 18011G25KT 1/2SM -RA FG OVC003 WS020/19050KT
     FM112000 19022G40KT 1SM -RA OVC005 WS020/20060KT
     FM120400 20018G32KT 3/4SM RA BR OVC003=
KDEN 102328Z 1100/1206 30014KT P6SM FEW080 SCT120 SCT200
     FM110200 27008KT P6SM FEW100 SCT140 BKN200
     FM110300 22011KT P6SM SCT140 BKN200
     FM111500 28014G22KT P6SM FEW090 SCT120 BKN180
     FM111800 29018G30KT P6SM FEW090 SCT120 BKN180
     FM120000 29014KT P6SM SCT120 SCT180=

0000055900
481
FTUS31 KWBC 102330 RRA
TAF
KIND 102328Z 1100/1206 17008KT 2SM -RA BR SCT003 BKN006
     FM110900 21012KT 2SM -RA BR OVC006
     FM111400 25014G22KT 6SM -RA BR SCT007 OVC010
     FM111800 25014G24KT P6SM BKN025
     FM120000 27012KT P6SM BKN025=
KSEA 102327Z 1100/1206 19012G18KT P6SM -RA BKN019 BKN045 OVC060
      TEMPO 1102/1106 2SM RA BR OVC012
     FM110600 19018G30KT 5SM -RA BR OVC015
     FM110900 20025G40KT 5SM -RA BR OVC015
     FM111400 20018G32KT P6SM -RA OVC025
     FM111900 20024G38KT P6SM -SHRA OVC017=

0000122400
482
FTUS41 KWBC 102330
TAF
KBAF 102327Z 1100/1124 00000KT 4SM BR OVC020
     FM110600 00000KT 1SM -FZRA BR OVC010
     FM111200 14004KT 1/2SM -RA FG OVC008
     FM111600 18011G22KT 1/2SM RA FG OVC003 WS020/19050KT=
KBDL 102327Z 1100/1206 VRB03KT 3SM BR OVC020
     FM110600 00000KT 1SM -RA BR OVC010
     FM111200 17006KT 1/2SM -RA FG OVC008
     FM111600 18010G25KT 1/2SM -RA FG OVC003 WS020/19050KT
     FM120300 20009KT 3/4SM -RA BR OVC008
     FM120500 24008KT 5SM BR SCT008 OVC080=
KBED 102327Z 1100/1124 VRB03KT 6SM BR OVC012
     FM110600 00000KT 2SM BR OVC010
     FM111000 16004KT 1SM -RA BR OVC008
     FM111500 18013G25KT 1SM -RA BR OVC005 WS020/20050KT
     FM112100 19018G33KT 1SM -RA OVC008 WS020/20050KT=
KORH 102327Z 1100/1124 22005KT 6SM BR OVC004
     FM110300 22005KT 2SM BR OVC003
     FM110700 19008KT 1/2SM -RA FG OVC002
     FM111400 18011G25KT 1/2SM -RA FG OVC001 WS020/19050KT
     FM112000 19018G33KT 1/2SM -RA OVC003 WS020/20055KT=
KPVD 102327Z 1100/1124 20004KT 1SM -DZ BR OVC006
     FM110700 17005KT 1/2SM -RA FG OVC003
     FM111400 18013G28KT 1SM -RA BR OVC003 WS020/19050KT
     FM111900 18020G36KT 2SM -RA OVC003 WS020/20060KT=

0000056900
483
FTUS42 KWBC 102330
TAF
KFTY 102326Z 1100/1124 09005KT 1SM -DZ BR OVC003
     FM110200 12004KT 1/2SM -RADZ FG OVC002
     FM111000 16006KT 1SM -SHRA BR OVC004
     FM111400 21009KT 2SM -SHRA BR OVC007
     FM111900 27010G18KT P6SM BKN025
     FM112100 29012G20KT P6SM SCT040=
KPDK 102326Z 1100/1124 09005KT 1SM -DZ BR OVC003
     FM110200 12004KT 1/2SM -RADZ FG OVC002
     FM111000 16006KT 1SM -SHRA BR OVC004
     FM111400 21009KT 2SM -SHRA BR OVC007
     FM111900 27010G18KT P6SM BKN025
     FM112100 29012G20KT P6SM SCT040=

0000026900
484
FTUS43 KWBC 102330 CCA
TAF COR
KSGF 102328Z 1100/1124 17013KT P6SM SCT025 OVC080
      TEMPO 1100/1102 3SM SHRA BR OVC015CB
     FM110200 25011KT 6SM BR SCT008 BKN080
     FM110500 26010KT 3SM BR BKN007
     FM111400 27010G18KT P6SM SCT250=

0000045800
485
FTUS43 KWBC 102330
TAF
KCPR 102327Z 1100/1124 26017KT P6SM FEW120
     FM110800 23020G30KT P6SM SCT200
     FM111400 22025G40KT P6SM FEW120
     FM111700 22030G45KT P6SM FEW100=
KSAW 102327Z 1100/1124 18010KT 4SM BR OVC006
     FM110200 17009KT 2SM -SN BR OVC004
     FM110400 15006KT 1 1/2SM -SN BR OVC004
     FM111500 30010KT P6SM OVC015
     FM112100 31012KT P6SM BKN025 AMD LTD TO CLD VIS AND WIND
      1103/1111=

0000027300
486
FTUS43 KWBC 102330 AAA
TAF AMD
KOMA 102327Z 1023/1124 29005KT 4SM BR OVC012
      TEMPO 1101/1103 P6SM NSW SCT015 OVC040
     FM110300 31005KT P6SM SCT015 SCT040 OVC080
     FM110700 30007KT P6SM SCT100 BKN250
     FM111600 31012KT P6SM SCT250=

0000032400
487
FTUS44 KWBC 102330 RRA
TAF
KPAE 102327Z 1100/1124 18014G22KT P6SM -RA BKN014 OVC060
      TEMPO 1102/1106 2SM RA BR OVC012
     FM110600 19018G30KT 5SM -RA BR OVC015
     FM110800 20025G40KT 5SM -RA BR OVC015
     FM111400 19018G30KT P6SM -RA OVC025
     FM111900 18025G38KT P6SM -SHRA OVC018=

0000009500
488
SPCN47 CWAO 102329
SPECI CYWA 102329Z AUTO 12005KT 5SM OVC004 M04/M05 A3011=

0000009700
489
SPAU32 AMMC 102329
SPECI YMAV 102330Z AUTO 22007KT 9999 // OVC013 18/13 Q1020=

0000147500
490
FTUS44 KWBC 102330
TAF
KBFI 102327Z 1100/1124 17010KT P6SM SCT022 BKN050 OVC080
      TEMPO 1100/1102 -RA BKN022 OVC050
     FM110200 18012G18KT P6SM -RA BKN022 OVC035
      TEMPO 1102/1104 4SM RA BR OVC012
     FM110600 18015G28KT 6SM -RA BR OVC018
     FM110800 18020G33KT 6SM -RA BR OVC018
     FM111400 20016G28KT P6SM -RA OVC028
     FM111900 20022G35KT P6SM -SHRA OVC020=
KBLI 102327Z 1100/1124 14010KT 5SM -RA BKN025 OVC060
      TEMPO 1104/1108 2SM +RA BR OVC012
     FM110800 17025G35KT 5SM -RA BR OVC015=
KCLM 102327Z 1100/1124 VRB03KT P6SM -RA BKN011 OVC018
      TEMPO 1104/1108 2SM RA OVC008
     FM111200 29012KT P6SM -RA OVC018
     FM111600 26006KT P6SM -RA OVC025
     FM112100 26008KT 5SM -SHRA OVC015=
KHQM 102327Z 1100/1124 15012G18KT 2SM -RA BKN012 OVC020
      TEMPO 1101/1105 1SM +RA BR OVC008
     FM110500 18025G38KT 3SM RA BR OVC015
     FM110800 18030G45KT 5SM -RA BR OVC015
     FM111200 20022G35KT 5SM -RA BR BKN020 OVC050
     FM111800 22030G45KT 4SM -SHRA BR OVC015=
KLBB 102320Z 1100/1124 29011KT P6SM FEW250
     FM111800 23012KT P6SM SKC=
KOLM 102327Z 1100/1124 17008KT 5SM -RA BR FEW010 OVC050
      TEMPO 1100/1102 3SM -RA BKN010 OVC030
     FM110200 19012KT 5SM -RA BR BKN010 OVC025
      TEMPO 1102/1106 2SM +RA BR OVC006
     FM110600 20018G28KT 4SM RA BR OVC012
     FM111200 21016G26KT 5SM -RA BKN018 OVC030
     FM111900 19024G36KT 4SM -SHRA BR OVC015=

0000099500
491
FTUS71 KWBC 102330 RRA
TAF
KHYA 102327Z 1100/1124 20007KT P6SM OVC012
     FM110400 20005KT 6SM BR OVC008
     FM111100 18010G19KT 2SM -RA BR OVC005
     FM111500 18017G32KT 1/2SM -RA FG OVC003 WS020/20050KT
     FM112300 18030G43KT 1/2SM -RA OVC003 WS020/19065KT=
KMHT 102327Z 1100/1124 00000KT P6SM OVC040
     FM110600 00000KT 2SM BR OVC015
     FM111000 00000KT 1SM -FZRA BR OVC008
     FM111500 17004KT 3/4SM -RA BR OVC004 WS020/20045KT
     FM112000 18013G25KT 1SM -RA OVC008 WS020/20050KT=
KORH 102327Z 1100/1124 22005KT 6SM BR OVC004
     FM110300 22005KT 2SM BR OVC003
     FM110700 19008KT 1/2SM -RA FG OVC002
     FM111400 18011G25KT 1/2SM -RA FG OVC001 WS020/19050KT
     FM112000 19018G33KT 1/2SM -RA OVC003 WS020/20055KT=
KPVD 102327Z 1100/1124 20004KT 1SM -DZ BR OVC006
     FM110700 17005KT 1/2SM -RA FG OVC003
     FM111400 18013G28KT 1SM -RA BR OVC003 WS020/19050KT
     FM111900 18020G36KT 2SM -RA OVC003 WS020/20060KT=

0000026900
492
FTUS73 KWBC 102330 CCA
TAF COR
KSGF 102328Z 1100/1124 17013KT P6SM SCT025 OVC080
      TEMPO 1100/1102 3SM SHRA BR OVC015CB
     FM110200 25011KT 6SM BR SCT008 BKN080
     FM110500 26010KT 3SM BR BKN007
     FM111400 27010G18KT P6SM SCT250=

00000000