0000015300
973
FTCN36 CWAO 101900
TAF CYYY 101938Z 1020/1108 22012G22KT P6SM BKN100
    FM110600 21012KT P6SM BKN030
    RMK NXT FCST BY 110200Z=

0000015400
974
FTCN36 CWAO 101900
TAF CYKL 101938Z 1020/1108 FCST NOT AVBL DUE WND SENSOR INOPV
    RMK FCST BASED ON AUTO OBS. NXT FCST BY 110200Z=

0000021400
975
FTCN36 CWAO 101900
TAF CYNA 101938Z 1020/1108 29012KT 6SM -SN BKN012 OVC020 TEMPO
     1020/1108 21/2SM -SN
     BECMG 1104/1106 28008KT
    RMK FCST BASED ON AUTO OBS. NXT FCST BY 110200Z=

0000011500
976
FTCN37 CWAO 101900
TAF CZBF 101938Z 1020/1104 VRB03KT P6SM FEW220
    RMK NXT FCST BY 110200Z=

0000031200
977
FTCN38 CWAO 101900
TAF CYAY 101938Z 1020/1108 28018G28KT P6SM FEW020 SCT120
    FM102300 26015KT P6SM FEW020 BKN050 TEMPO 1023/1104 4SM -SN
     BKN020
    FM110400 26015KT 6SM -SN SCT020 OVC040 TEMPO 1104/1108 2SM -SN
     OVC020
    RMK FCST BASED ON AUTO OBS. NXT FCST BY 110200Z=

0000028000
978
FTCN38 CWAO 101900
TAF CZUM 101938Z 1020/1108 25012G22KT 6SM -SN BKN040 TEMPO 1020/1102
     2SM -SN BKN020
     BECMG 1022/1024 25010KT
    FM110200 25010KT P6SM BKN030 TEMPO 1102/1108 5SM -SN BKN020
    RMK FCST BASED ON AUTO OBS. NXT FCST BY 110200Z=

0000017900
979
FTCN38 CWAO 101900
TAF CYDP 101938Z 1020/1024 24010KT P6SM -SN FEW030 BKN080 TEMPO
     1020/1024 5SM -SN BKN030
    RMK NXT FCST WILL BE ISSUED AT 111045Z=

0000028200
980
FTCN38 CWAO 101900
TAF CYCA 101938Z 1020/1108 ADVISORY OFFSITE 22015KT P6SM BKN040
    FM110100 22015KT P6SM -SN SCT015 OVC050 TEMPO 1101/1104 4SM -SN
     OVC015
    FM110400 22015KT P6SM FEW020 SCT040 TEMPO 1104/1108 5SM -SN
    RMK NXT FCST BY 110200Z=

0000023700
981
FTCN38 CWAO 101900
TAF CYDF 101938Z 1020/1108 24015G25KT P6SM -SN BKN030 OVC060 TEMPO
     1020/1101 21/2SM -SN BLSN OVC020
    FM110100 23015KT 6SM -SN OVC015 TEMPO 1101/1108 2SM -SN
    RMK NXT FCST BY 110200Z=

0000020200
982
FTCN38 CWAO 101900
TAF CYMH 101938Z 1020/1104 24007KT P6SM FEW060 SCT100
    FM110100 25010KT P6SM FEW020 OVC050 TEMPO 1101/1104 4SM -SN
     OVC020
    RMK NXT FCST BY 110200Z=

0000100500
983
FADL41 EDZM 102100
EDMM GAMET VALID 102100/110300 EDZM-
MUNCHEN FIR BLW FL150
SECN I
MT OBSC : ABV 3000 FT AMSL
ICE     : 21/24 LOC MOD 4000 FT AMSL/FL060 E OF E012
          LOC MOD FL060/110 S OF N4830
TURB    : MOD ABV FL100
SIGMET APPLICABLE: AT TIME OF ISSUE NIL
SECN II
PSYS    : 00 UPPER TROUGH NE GERMANY MOV SLOW E WKN
          00 H 1025 HPA LIPB STNR NC
          00 WARM FRONT LINE LOWW-LSZH MOV N SLOW WKN
WIND/T N OF N50 : 3000 FT AMSL 260/25KT PS00
          5000 FT AMSL 270/20KT MS03
          FL100        270/25KT MS08
WIND/T S OF N50 : 3000 FT AMSL 220/10KT PS03
          5000 FT AMSL 270/15KT MS01
          FL100        270/3KT MS08
CLD     : BKN SC 4500 FT AMSL/FL060
          OVC SC 4500 FT AMSL/FL110 S OF N48
FZLVL   : RANGE BTN 3000 FT AMSL N BOUNDARY AND FL065 S BOUNDARY
MNM QNH : 21/23 1015 HPA
          23/01 1016 HPA
          01/03 1016 HPA
CHECK GAFOR (VIS AND CLD BASE), AIRMET AND SIGMET-INFORMATION

0000009800
984
SPCN49 CWAO 101936
SPECI CYLU 101936Z 24015G23KT 1/4SM -SN +BLSN VV030 RMK SN8=

0000010300
985
SPCN43 CWAO 101935
SPECI CYGX 101935Z 08008KT 050V120 1 1/4SM -SN OVC075 RMK SN2AS2=

0000017300
986
SAUS71 KWBC 101900 RRF
METAR
KLCK 101935Z AUTO 14006KT 10SM BKN007 BKN032 OVC042 07/05
     A3008=
KPQI 101935Z AUTO 12007KT 10SM CLR M08/M19 A3026=

0000009800
987
SAUS72 KWBC 101900 RRF
METAR
KLRU 101935Z AUTO 24015KT 10SM CLR 14/M10 A3000=

0000021200
988
SAUS73 KWBC 101900 RRH
METAR
KCIU 101935Z AUTO 16008KT 4SM OVC006 M02/M02 A2990=
KELO 101932Z AUTO 18006G15KT 7SM OVC009 M06/M07 A2957=
KLBL 101935Z AUTO 31020G26KT 10SM CLR 10/M08 A2969=

0000010500
989
SAUS74 KWBC 101900 RRD
METAR
KOTH 101935Z 22003KT 2 1/2SM BKN025 OVC070 11/11 A3022=

0000029500
990
SAUS75 KWBC 101900 RRC
METAR
PADK 101936Z AUTO 23024G31KT 10SM FEW022 SCT028 OVC065 04/01
     A2895=
PAGS 101936Z AUTO 14008KT 10SM FEW016 OVC025 03/01 A2950=
PAUN 101936Z AUTO 08016KT 10SM FEW070 M14/M20 A2961=
PAVD 101936Z 10SM FEW015 BKN090 BKN120 M04/M06 A2939=

0000021300
991
SAAK31 KWBC 101900 RRB
METAR
PAVD 101936Z 10SM FEW015 BKN090 BKN120 M04/M06 A2939=
PAWG 101936Z 19004KT 10SM FEW008 BKN020 BKN050 04/M01 A2965=
PFYU 101936Z 00000KT 10SM FEW100 M37/ A2968=

0000012400
992
SAAK32 KWBC 101900 RRB
METAR
PADK 101936Z AUTO 23024G31KT 10SM FEW022 SCT028 OVC065 04/01
     A2895=

00000000