0000018800
133
SALV32 EVRA 101950
METAR EVLA 101950Z AUTO 29013G24KT 250V340 9999 FEW010 BKN012 OVC015 
03/01 Q0998=
METAR EVVA 101950Z AUTO 32015KT 9999 BKN016 OVC022 04/02 Q0996=

0000015700
134
SADN33 EKCH 101950
METAR EKKA 101950Z 25011KT 9999 FEW012 BKN036 07/05 Q1006=
METAR EKSP 101950Z 26013KT 9999 FEW012 BKN035 06/03 Q1008=

0000202400
135
SPUS70 KWBC 101950
SPECI
KBRD 101946Z AUTO 18010KT 1 1/4SM HZ OVC004 M01/M04 A2955 RMK
     AO2=
KCKB 101946Z 00000KT 10SM SCT020 SCT070 11/07 A3015 RMK AO2 $=
KFOK 101946Z 33003KT 1 3/4SM BR FEW010 BKN015 OVC040 04/03 A3039
     RMK AO2 RAE22 P0000=
KGSH 101946Z AUTO 15010KT 2 1/2SM BR SCT017 OVC033 03/02 A2991 RMK
     AO2=
KHIB 101946Z AUTO VRB06KT 3SM BR OVC005 M04/M06 A2955 RMK AO2=
KHOT 101946Z AUTO 09005KT 4SM RA BR OVC004 11/11 A2977 RMK AO2
     P0013=
KIND 101946Z 14009KT 5SM BR BKN028 BKN041 OVC170 03/03 A2992 RMK
     AO2=
KJST 101946Z AUTO 19005KT 1SM BR VV003 03/03 A3017 RMK AO2
     T00330033=
KLNR 101946Z AUTO 11007KT 2SM BR OVC006 00/M01 A2970 RMK AO2
     T00001011=
KMIA 101946Z 13014G22KT 10SM SCT021 BKN220 27/21 A3008 RMK AO2=
KMIE 101946Z 16011KT 7SM SCT006 BKN031 04/03 A2994 RMK AO2
     T00440028=
KMMK 101946Z AUTO 00000KT 1 1/2SM BR FEW013 OVC034 01/M01 A3038
     RMK AO2 UPE1857 P0000 T00061006 TSNO=
KOXB 101946Z AUTO 06005KT 3SM BR SCT036 BKN043 OVC070 06/05 A3034
     RMK AO2 RAB32E44 P0000 T00610050 TSNO=
KRST 101946Z 14009KT 3/4SM R31/4000V5000FT BR OVC003 M01/M02 A2961
     RMK AO2 FZRAB22E29 P0000 I1003 T10111022=
KSBY 101946Z 07003KT 2 1/2SM -RA BR OVC003 07/05 A3034 RMK AO2
     P0000=
KBPK 101947Z AUTO 17007KT 2SM +RA BR SCT009 BKN015 OVC065 09/08
     A2974 RMK AO2 P0018=
KGED 101947Z AUTO 10004KT 1 1/2SM RA BR BKN003 BKN025 OVC055 06/04
     A3035 RMK AO2 P0003 T00560044=
KHFD 101947Z 00000KT 2 1/2SM BR BKN014 OVC044 01/M02 A3038 RMK
     AO2=
KIGX 101947Z AUTO 04004KT 2 1/2SM -RA BR OVC004 06/06 A3024 RMK
     AO2 P0001 T00610056=
KILG 101947Z 05004KT 1 3/4SM BR BKN005 OVC012 03/02 A3036 RMK
     AO2=
KINT 101947Z 02004KT 3SM -RA BR OVC003 04/03 A3025 RMK AO2
     P0007=
KJFK 101947Z 01004KT 1SM -DZ BR FEW003 OVC023 03/01 A3039 RMK AO2
     SFC VIS 2 P0000 $=
KMKE 101947Z 16012KT 1/2SM R01L/4500V5000FT BR OVC002 00/M01 A2980
     RMK AO2 SFC VIS 3/4=

0000010700
136
SPUS31 KWBC 101950
SPECI
KIND 101946Z 14009KT 5SM BR BKN028 BKN041 OVC170 03/03 A2992=

0000010100
137
SPUS31 KWBC 101950
SPECI
KMIA 101946Z 13014G22KT 10SM SCT021 BKN220 27/21 A3008=

0000011300
138
SALT33 EYVI 101950
METAR EYPA 101950Z 30008G20KT 240V050 9999 OVC011 03/01 Q1000
R01/2///95=

0000033200
139
FTUS71 KWBC 101951 AAA
TAF AMD
KDAN 101949Z 1020/1118 03006KT 4SM -RA BR OVC005 WS020/19025KT
     FM110000 03003KT 1SM -RA BR OVC003 WS020/18035KT
     FM110600 01003KT 3/4SM -RA BR OVC002 WS018/21040KT
     FM111200 15005KT 2SM -DZ BR OVC002 WS015/21045KT
     FM111600 20010G18KT 3SM -SHRA BR OVC005=

0000010000
140
SPCN51 CWAO 101950
SPECI CWUW 101950Z AUTO 12011KT 9SM FEW083 M28/ A2895 RMK ICG=

0000009900
141
SAUS73 KWBC 101900 RRJ
METAR
KSAW 101946Z 19010KT 5SM BR OVC009 M03/M05 A2974=

0000009700
142
SACS31 MROC 102000
METAR
MROC 102000Z 08011KT 9999 FEW030 27/11 A2994 NOSIG=

0000009300
143
SAUS74 KWBC 101900 RRE
METAR
KIWA 101947Z VRB03KT 20SM SKC 14/M03 A3011=

0000011900
144
SAEU31 BKPR 102000
BKPR 102000Z 00000KT 0100 R17/0125 FG OVC002 00/M01 Q1022 NOSIG RMK
 17010095 =

0000008300
145
SAFI01 MBPV 102000
MBPV 102000Z 09013KT 9999 SCT012 28/21 Q1018=

0000017900
146
SAMP31 LMMM 102000
METAR HLLT NIL=
METAR HLLB 101950Z
00000KT 9999 SCT020 BKN080 15/11 Q1025 =
METAR LMML 101945Z 25003KT 200V290 CAVOK 14/11 Q1023 NOSIG=

0000009100
147
SPUS41 KWBC 101949
SPECI
KBVY 101945Z 19003KT 7SM OVC015 01/M02 A3038=

0000009700
148
SPUS42 KWBC 101949
SPECI
KGPT 101945Z 11008KT 2SM -RA BR OVC005 16/14 A3000=

0000068600
149
SAUK20 EGGY 101950
METAR EGRE 101950Z AUTO 06018KT 9999 FEW022/// SCT026/// BKN043///
     05/M01 Q0999 W///S5=
METAR EGRK 101950Z AUTO 24018KT 9999 FEW015/// 07/04 Q0999 W///S4=
METAR EGRM 101950Z AUTO 25017KT 9999 FEW016/// SCT033/// 07/05 Q1001
     RERA W///S4=
METAR EGRO 101950Z AUTO 27020KT //// // ///////// 07/05 Q1002 W///S4=
METAR EGRP 101950Z AUTO 25020KT 8000 -RA FEW012/// SCT015///
     BKN022/// ///// Q1003 RERA W///S4=
METAR EGRS 101950Z AUTO 25025KT 9999 FEW013/// SCT023/// 08/06 Q1003
     RERA W///S4=
METAR EGRV 101950Z AUTO 22025KT 9999 NCD 07/05 Q1009 W///S4=
METAR EGRW 101950Z AUTO 21022KT 9999 NCD 08/05 Q1010 W///S3=

0000050100
150
SAUK21 EGGY 101950
METAR EGRF 101950Z AUTO 24022KT 9999 FEW019/// 06/03 Q0996 RERA
     W///S5=
METAR EGRG 101950Z AUTO 09019KT 9999 FEW020/// SCT023/// BKN030///
     06/01 Q0998 W///S4=
METAR EGRI 101950Z AUTO 25027KT 9999 SCT030/// 08/02 Q0996=
METAR EGRL 101950Z AUTO 25013KT 230V290 9999 RA NCD 07/04 Q1000
     W///S4=
METAR EGRN 101950Z AUTO 25027KT 9000 -RA SCT028/// BKN032/// 08/06
     Q1004=
METAR EGRT 101950Z AUTO /////KT 9999 NCD 07/04 Q1009 W///S3=

0000013100
151
SALV31 EVRA 101950
METAR EVRA 101950Z 31013G24KT 270V340 9999 -RA BKN011 OVC016 03/02 
Q0991 R36/290158 NOSIG=

0000013500
152
SAFA31 EKCH 101950
METAR EKVG 101950Z AUTO 31001KT 9999NDV OVC049/// 02/01 Q0994
RMK OVC044/// WIND 850FT 23003KT=

00000000