0000075300
053
SARS36 RUMS 101900
METAR ULAA 101900Z 07008G11MPS 8000 -SN DRSN OVC021 M17/M20 Q1003
BECMG 1400 SN BLSN OVC005 RMK QFE751/1002 SC050=
METAR ULMM 101900Z 00000MPS 9999 BKN003 M32/M36 Q1016 NOSIG RMK
QBB090 OBST OBSC QFE755 31450239=
METAR ULOO 101900Z 29004MPS 6000 -SHRA SCT005 BKN010CB OVC020 03/03
Q0982 19290055 NOSIG RMK OBST OBSC QFE732=
METAR ULPB 101900Z AUTO 01005MPS 1100 NCD M07/M08 Q0989=
METAR UMKK 101900Z 31007MPS 270V350 8000 -SHRA BKN021CB OVC100 04/00
Q1001 R24/29//60 NOSIG RMK QFE750/1000=
METAR UUOO 101900Z 20007G12MPS 8000 -RA OVC005 02/01 Q0999 TEMPO
20010G15MPS BKN004 RMK 12290250=
METAR UUYY 101900Z 03003MPS 7000 BKN009 OVC066 M16/M18 Q1006 TEMPO
1000 SN BR 0145//33 RMK QFE745/0994=

0000009100
054
SAFP20 LFVP 101900
METAR LFVP 101900Z 27025KT 9999 BKN026 M04/M09 Q1025=

0000011300
055
SPUS43 KWBC 101905
SPECI
KMKE 101901Z 16013KT 1/4SM R01L/2800V3500FT BR OVC002 00/M01 A2984=

0000009700
056
SPUS43 KWBC 101905
SPECI
KPIA 101901Z 16011KT 3SM -RA BR OVC004 02/02 A2975=

0000009000
057
SPCN44 CWAO 101905
SPECI CYMJ 101905Z 30003KT 3/8SM FZFG VV004 RMK FG8=

0000010100
058
SAAG41 SARI 101900
METAR SARI 101900Z  00000KT 9999  BKN030  31/22
Q1010 RESHRA=

0000099500
059
FTUS31 KWBC 101906 AAA
TAF AMD
KCLE 101905Z 1019/1124 17009KT P6SM SCT009 OVC045
      TEMPO 1019/1023 BKN009
     FM110300 16014KT 3SM -RA BR OVC010 WS015/19045KT
     FM111600 22008KT 2SM BR OVC006
     FM112100 25016G22KT 5SM BR OVC008=
KEWR 101905Z 1019/1124 VRB04KT 2SM BR SCT006 OVC012
      TEMPO 1020/1024 -DZ BKN006 OVC012
     FM110000 VRB03KT 2SM BR BKN006 OVC012
      TEMPO 1102/1105 -RA
     FM110500 15005KT 2SM -RA BR BKN006 OVC015
     FM110800 16008KT 1SM -RA BR OVC004 WS020/19050KT
     FM111400 17014KT 1SM -RA BR OVC004 WS015/19050KT
     FM111900 18016G23KT 1SM RA OVC004 WS015/19050KT=
KLGA 101903Z 1019/1118 05004KT 3SM BR SCT008 OVC015
      TEMPO 1020/1024 -DZ BR BKN008
     FM110000 05005KT 3SM BR BKN008 OVC015
      TEMPO 1102/1105 -RA
     FM110500 15007KT 3SM -RA BR BKN006 OVC015 WS020/19040KT
     FM110800 15011KT 1SM -RA BR OVC004 WS020/19055KT
     FM111400 17016KT 1SM -RA BR OVC004 WS015/19060KT=

0000037600
060
FTUS41 KWBC 101906
TAF
TAF KCEF 1019/1201 06006KT 9000 -SN BR OVC008 620082 QNH3030INS
      BECMG 1102/1103 10006KT 9000 BR OVC008 WS020/20040KT
      QNH3010INS
      BECMG 1107/1108 15006KT 4800 -RA BR OVC008 WS020/20040KT
      QNH3002INS
      BECMG 1110/1111 17010KT 4800 -RA BR OVC008 WS020/20050KT
      QNH2941INS T12/1121Z T00/1102Z=

0000034800
061
FTUS43 KWBC 101906 AAA
TAF AMD
KGRB 101902Z 1019/1118 17009KT 3SM BR OVC006
     FM102200 15008KT 2SM -SNPL BR OVC006
      TEMPO 1022/1101 1SM -SN BR OVC004
     FM110100 14006KT 2SM -FZRA BR OVC005
     FM110400 14003KT 1SM -FZRA BR OVC004
     FM110800 27005KT 2SM -SN BR OVC006
      TEMPO 1109/1112 1SM -SN BR=

0000009800
062
SANL33 EHDB 101855 RRA
METAR EHJR 101855Z AUTO 21023G27KT  09/06 Q1011 W10/H15=

0000010200
063
SANL33 EHDB 101855 RRB
METAR EHSC 101855Z AUTO 22023G27KT 9999 07/07 Q1014 W08/H15=

0000010200
064
SANL33 EHDB 101855 RRC
METAR EHSA 101855Z AUTO 22022G26KT 9999 09/07 Q1014 W09/H17=

0000111000
065
SACA32 KWBC 101900
METAR
MDLR 101900Z 07016KT 9999 SCT022 29/20 Q1016=
MDPC 101900Z 10012KT 9999 FEW022 27/22 Q1017=
MDPP 101900Z 09018KT 9999 SCT020 28/23 Q1017=
MDSD 101900Z 15010KT 9999 SCT024 32/25 Q1016=
MDST 101900Z 13006KT 9999 BKN020 27/21 Q1017=
MTCH NIL=
MTPP 1900Z 09011KT 9999 FEW030 32 1014.9 A29.97=
TAPA 101900Z 08013KT 9999 FEW020 SCT036 27/19 Q1016 NOSIG=
TIST 101853Z 08010G24KT 8SM FEW027 BKN044 25/21 A3003 RMK AO2
     RAB34E44 SLP169 P0000 T02500206=
TISX 101853Z 06011G25KT 10SM SCT029 28/19 A3002 RMK AO2 SLP163
     T02780194=
TJBQ 101850Z 09020G26KT 10SM SCT020 SCT050 31/ A3006 RMK RWY 8
     ATIS G=
TJMZ 101850Z 09006KT 10SM SCT030 BKN050 28/20 A3001=
TJPS 101850Z 13010G15KT 10SM SCT030 30/22 A3001=
TJSJ 101856Z 06017KT 10SM FEW035 29/21 A3004 RMK AO2 SLP171
     T02890211=
TKPK 101900Z 03009KT 9999 FEW016 SCT044 25/20 Q1016=
TKPN 101900Z 10018KT 9999 FEW015TCU SCT048 27/22 Q1016=
TQPF 101900Z 07015KT 9999 FEW021 SCT045 27/17 Q1017=
TRPM NIL=
TUPJ 101900Z 10013KT 9999 SCT019 28/21 Q1017 RMK A3004=
TUPW NIL=

0000014700
066
SACA32 KWBC 101900 CCA
METAR
TJNR 101853Z AUTO 07010G18KT 10SM FEW039 SCT065 28/21 A3006 RMK
     AO2 SLP178 T02830211 TSNO=

0000043200
067
SAHW31 KWBC 101900
METAR
PBKH NIL=
PHJR 101853Z 00000KT 10SM CLR 23/18 A3002=
PHKO 101853Z 35006KT 10SM CLR 25/15 A2998=
PHLI 101901Z 04014KT 10SM SCT023 24/19 A3005=
PHLI 101853Z 04014KT 10SM SCT021 BKN026 24/19 A3005=
PHNL 101853Z 34005KT 10SM FEW025 SCT034 SCT039 23/18 A3001=
PHOG 101854Z 00000KT 10SM FEW021 SCT030 24/21 A3002=
PHTO 101853Z 23003KT 10SM FEW030 FEW100 23/15 A3001=
PNGF NIL=

0000099500
068
FTUS71 KWBC 101906 AAA
TAF AMD
KCLE 101905Z 1019/1124 17009KT P6SM SCT009 OVC045
      TEMPO 1019/1023 BKN009
     FM110300 16014KT 3SM -RA BR OVC010 WS015/19045KT
     FM111600 22008KT 2SM BR OVC006
     FM112100 25016G22KT 5SM BR OVC008=
KEWR 101905Z 1019/1124 VRB04KT 2SM BR SCT006 OVC012
      TEMPO 1020/1024 -DZ BKN006 OVC012
     FM110000 VRB03KT 2SM BR BKN006 OVC012
      TEMPO 1102/1105 -RA
     FM110500 15005KT 2SM -RA BR BKN006 OVC015
     FM110800 16008KT 1SM -RA BR OVC004 WS020/19050KT
     FM111400 17014KT 1SM -RA BR OVC004 WS015/19050KT
     FM111900 18016G23KT 1SM RA OVC004 WS015/19050KT=
KLGA 101903Z 1019/1118 05004KT 3SM BR SCT008 OVC015
      TEMPO 1020/1024 -DZ BR BKN008
     FM110000 05005KT 3SM BR BKN008 OVC015
      TEMPO 1102/1105 -RA
     FM110500 15007KT 3SM -RA BR BKN006 OVC015 WS020/19040KT
     FM110800 15011KT 1SM -RA BR OVC004 WS020/19055KT
     FM111400 17016KT 1SM -RA BR OVC004 WS015/19060KT=

0000037600
069
FTUS71 KWBC 101906
TAF
TAF KCEF 1019/1201 06006KT 9000 -SN BR OVC008 620082 QNH3030INS
      BECMG 1102/1103 10006KT 9000 BR OVC008 WS020/20040KT
      QNH3010INS
      BECMG 1107/1108 15006KT 4800 -RA BR OVC008 WS020/20040KT
      QNH3002INS
      BECMG 1110/1111 17010KT 4800 -RA BR OVC008 WS020/20050KT
      QNH2941INS T12/1121Z T00/1102Z=

0000062400
070
FTUS73 KWBC 101906 AAA
TAF AMD
KBRL 101902Z 1019/1118 13010KT 3SM -RA BR VCTS OVC002CB
     FM102000 16009KT 1SM -RA BR OVC002
     FM110100 18003KT 1/2SM -RA FG OVC002
     FM110700 26005KT 1SM -FZRASN BR OVC003
     FM110900 27010KT 2SM -SN BR OVC004
     FM111300 28011KT 4SM BR VCSH OVC006=
KGRB 101902Z 1019/1118 17009KT 3SM BR OVC006
     FM102200 15008KT 2SM -SNPL BR OVC006
      TEMPO 1022/1101 1SM -SN BR OVC004
     FM110100 14006KT 2SM -FZRA BR OVC005
     FM110400 14003KT 1SM -FZRA BR OVC004
     FM110800 27005KT 2SM -SN BR OVC006
      TEMPO 1109/1112 1SM -SN BR=

0000049300
071
SAIO31 KWBC 101900
METAR
FIMP 101900Z 11004KT 9999 SCT017 SCT250 27/24 Q1017=
FIMR NIL=
FJDG 101855Z 31011KT 9999 FEW020 SCT080 BKN220 27/25 A2986 RMK
     SLP108 T02680248=
FMCH NIL=
FMCV NIL=
FMCZ NIL=
FMEE NIL=
FMMI 101900Z 31002KT 9999 FEW017 BKN230 19/19 Q1021 NOSIG=
FMMT NIL=
FMNN NIL=
FSIA 101900Z 33005KT 9999 -SHRA FEW014CB BKN016 26/22 Q1013
     NOSIG=
FSSS NIL=
VRMM NIL=
VYMD NIL=
VYYY NIL=
WBGG NIL=
WBKK NIL=
WBSB NIL=

0000111000
072
SANT31 KWBC 101900
METAR
BGBW 101850Z 07005KT 9999 SCT048 BKN071 M08/M19 Q0995 RMK 3SC
     6AC=
BGCO 101850Z AUTO 15006KT //// SCT015/// BKN035/// OVC046///
     M09/M10 Q1010=
BGGH 101855Z NIL=
BGGH 101850Z 16018KT 2500 SN DRSN BKN014 OVC020 M07/M12 Q0993=
BGJN 101850Z 10023KT 9999 FEW010 SCT160 M08/M18 Q0992=
BGKK 101850Z AUTO 07021G33KT 0800NDV SN VV006/// M01/M03 Q0986=
BGSF 101850Z AUTO 07009KT 040V100 9999NDV FEW130/// M13/M20
     Q0994=
BGTL 101858Z AUTO 09002KT 9999 FEW044 SCT080 M12/M17 A2910 RMK AO2
     SLP842 T11171169=
BIAR 101900Z 32005KT 260V050 9999 BKN030 03/M02 Q0995=
BIEG 101900Z 10028G43KT 9999 -RASN SCT013 BKN035 BKN060 01/M01
     Q0996 RMK R04/790131 RWY SANDED=
BIKF 101900Z 26014KT 9999 VCSH FEW017 SCT023 BKN031 02/01
     Q0990=
BIRK 101900Z 26008KT 9999 RASN FEW012 SCT018 OVC030 01/00
     Q0990=
GVAC 101900Z 05008KT 9999 SCT014 BKN200 21/15 Q1015 NOSIG=
GVPR NIL=
LPBJ NIL=
LPLA 101900Z 00000KT 2000 -RADZ BR SCT006 BKN008 BKN017 13/13
     Q1007=
TXKF 101855Z 06013KT 9999 SCT030 BKN300 18/12 Q1030=

00000000