0000004200
033
SAJP41 KWBC 101730
NIL=

0000004200
034
SAJP43 KWBC 101730
NIL=

0000004200
035
SAJP31 KWBC 101730
NIL=

0000004200
036
SAJP42 KWBC 101730
NIL=

0000004200
037
SAJP44 KWBC 101730
NIL=

0000004200
038
SAJP45 KWBC 101730
NIL=

0000039100
039
SAAE33 VTBB 101730
METAR VVTS 101730Z 07004KT 9999 FEW017 SCT040 22/21 Q1013 NOSIG =
METAR VVNB 101730Z 30004KT 260V320 2700 BR FEW020 BKN050 16/11 Q1021
NOSIG=
METAR VVDN 101730Z 36002KT 4000 BR SCT013 BKN060 21/19 Q1019 NOSIG=
METAR VVPB 101730Z NIL=
METAR VVCR 101730Z 01009KT 9999 FEW017 25/19 Q1017 NOSIG=
METAR VVCT 101730Z NIL=
METAR VVPQ 101730Z NIL=

0000069300
040
SACI31 ZBBB 101730
METAR ZBAA 101730Z 36001MPS 7000 NSC M09/M19 Q1032 NOSIG=
ZBSJ NIL=
METAR ZBTJ 101730Z 26001MPS 1300 R16R/P2000N HZ NSC M04/M08 Q1032
NOSIG=
METAR ZBYN 101730Z 08001MPS 4000 HZ NSC M09/M20 Q1028 NOSIG=
METAR ZGGG 101730Z 10002MPS 6000 BKN050 13/08 Q1024 NOSIG=
METAR ZSHC 101730Z 00000MPS 6000 NSC 06/00 Q1031 NOSIG=
METAR ZSPD 101730Z 09004MPS CAVOK 06/M00 Q1032 NOSIG=
METAR ZSSS 101730Z 09003MPS CAVOK 06/M01 Q1031 NOSIG=
ZWSH NIL=
METAR ZWWW 101730Z 29001MPS 0600 R25/1000N FZFG NSC M18/M20 Q1038
NOSIG=
METAR ZYTL 101730Z 28001MPS 4000 BR SCT033 M05/M09 Q1031 NOSIG=
METAR ZYTX 101730Z 15002MPS 6000 NSC M14/M20 Q1031 NOSIG=

0000011500
041
SAIE32 EIDB 101730 RRA
METAR EIWF 101730Z 31005KT 280V360 9999 SCT026 06/05 Q1009
 R21/1/////=

0000009900
042
SAIY32 LIIB 101720 RRB
METAR LIBR 101715Z 23006KT 9999 FEW020 11/09 Q1020 NOSIG=

0000022700
043
SANZ31 NZKL 101730
METAR NZAA 101730Z AUTO 09002KT 9999 BKN043/// 15/13 Q1018 NOSIG=
METAR NZWN 101730Z AUTO 02004KT 9999 NCD 13/10 Q1017 NOSIG=
METAR NZCH 101730Z AUTO 03005KT 9999 NCD 11/10 Q1015 NOSIG=

0000009900
044
SPUS41 KWBC 101737
SPECI
KSYR 101733Z 19004KT 10SM SCT029 OVC044 02/M02 A3026=

0000011000
045
SPUS43 KWBC 101737
SPECI
KSGF 101733Z 16014KT 4SM RA BR BKN006 BKN024 OVC065 06/06 A2974=

0000014100
046
SPCN31 CWAO 101735
SPECI CYYZ 101735Z 16005KT 1SM R24R/P6000FT/ R23/P6000FT/ BR OVC003
 M01/M02 A3018 RMK FG1ST7 SLP228=

0000045400
047
SAMS31 WMKK 101730
METAR WBGG 101730Z 29002KT 9999 SCT020 BKN150 23/23 Q1012 NOSIG=
METAR WBKK 101730Z NIL=
METAR WBSB 101730Z 19003KT 9999 FEW005 BKN300 25/24 Q1011 NOSIG=
METAR WMKK 101730Z 01005KT 320V050 8000 FEW017CB SCT140 BKN280 25/23
Q1012 NOSIG=
METAR WMKP 101730Z 00000KT 8000 -RA FEW010 SCT024 OVC260 25/24 Q1013
NOSIG=
METAR WSSL 101730Z NIL=
METAR WSSS 101730Z VRB04KT 9999 FEW018 BKN300 25/23 Q1012 NOSIG=

0000027200
048
FTCN38 CWAO 101700
TAF CYYR 101737Z 1018/1118 25015G25KT P6SM FEW040 BKN080
     BECMG 1020/1022 24015KT
    FM110000 24015KT P6SM SCT040 BKN080
     TEMPO 1100/1106 P6SM -SN BKN040
    FM110900 24010KT P6SM SCT040
    RMK NXT FCST BY 110000Z=

0000017200
049
SAIO31 KWBC 101700 RRF
METAR
FMCZ 101730Z NIL=
FMEE 101730Z NIL=
VYMD 101730Z NIL=
VYYY 101730Z 05003KT 7000 NSC 23/20 Q1015=
VYYY 101730Z NIL=

0000012300
050
SARA31 RUMS 101730
METAR UEEE 101730Z 26002MPS 5000 BR OVC200 M43/M48 Q1034 NOSIG RMK
QFE766 23490145=

0000046900
051
SARA33 RUMS 101730
METAR UIAA 101730Z 01002MPS 9999 -SHSN FEW050CB BKN100 M19/M22 Q1019
NOSIG RMK QFE706 29CLRD70=
METAR UIBB 101730Z 08002MPS 0300 R30/0800 FG VV002 M22/M24 Q1028
NOSIG RMK QBB060 QFE728/0970 30490530=
METAR UIII 101730Z 20002MPS 9999 -SHSN BKN050CB OVC100 M15/M16 Q1031
TEMPO 0300 -SHSN FG VV001 RMK QFE728/0970 30490340=
METAR UIUU 101730Z VRB01MPS 5000 -SN SCT033 OVC100 M12/M14 Q1027
NOSIG RMK QFE725/0967 26490842=

0000057400
052
SARA36 RUMS 101730
METAR UWUU 101730Z 16002MPS 4500 -SN OVC008 M02/M04 Q1007 14650440
TEMPO 1000 SN FZRA BKN003 RMK QFE744/0993=
METAR USCC 101730Z 17005MPS 5000 -SHSN BR SCT013CB OVC070 M04/M05
Q1009 09490350 TEMPO 1100 SHSN BKN005CB RMK QFE736=
METAR USNN 101730Z 31001MPS 9999 -SN OVC044 M09/M10 Q1015 NOSIG RMK
QFE756 21420242=
METAR USRR 101730Z 02002MPS 340V060 7000 FEW150 SCT200 M25/M28 Q1016
NOSIG RMK QFE756 25////32=
METAR USSS 101730Z 13001MPS 1500 R08L/2400N SN OVC019 M03/M04 Q1008
08590230 TEMPO 0800 +SN VV004 RMK QFE736=

00000000