0000217100
553
SZNZ01 NZKL 111000
CREX++
T000103 A001 D01021 D06025++
-3683144 17478654 AUCT  2014 01 11 09 52 //// 11 07 00 01
03963 3188 03964 3190 03964 3189 03964 3189 03967 3191 03969 3193+
-4402404 -17636748 CHIT  2014 01 11 09 52 //// 11 07 00 01
04675 1992 04685 1998 04714 2023 04710 2016 04683 1986 04711 2010+
-4089929 17623168 CPIT  2014 01 11 09 52 //// 11 07 00 01
03561 2333 03580 2347 03562 2324 03576 2333 03582 2335 03582 2330+
-3618905 17548887 GBIT  2014 01 11 09 52 //// 11 07 00 01
05002 -0025 05002 -0026 05011 -0017 05019 -0011 05022 -0009 05026 -0006+
-3867541 17802288 GIST  2014 01 11 09 52 //// 11 07 00 01
03510 2785 03512 2785 03516 2785 03531 2796 03522 2784 03527 2785+
-4241288 17370277 KAIT  2014 01 11 09 52 //// 11 07 00 01
03077 2220 03080 2218 03081 2213 03102 2229 03084 2206 03097 2214+
-3755040 17815904 LOTT  2014 01 11 09 52 //// 11 07 00 01
02785 0196 02786 0196 02798 0205 02794 0199 02802 0205 02801 0202+
-3704657 17451175 MNKT  2014 01 11 09 52 //// 11 07 00 01
02545 -0138 02535 -0140 02527 -0141 02525 -0137 02516 -0138 02499 -0149+
-3947566 17692007 NAPT  2014 01 11 09 52 //// 11 07 00 01
02544 2034 02556 2042 02545 2026 02579 2056 02578 2051 02597 2066+
-3441483 17304870 NCPT  2014 01 11 09 52 //// 11 07 00 01
-04646 -8248 -04612 -8213 -04620 -8219 -04637 -8235 -04631 -8228 -04657 -8252+
-4581435 17062939 OTAT  2014 01 11 09 52 //// 11 07 00 01
04639 3393 04648 3395 04656 3397 04663 3398 04670 3399 04673 3395+
-2928002 -17789440 RBCT  2014 01 11 09 52 //// 11 07 00 01
05472 2000 05495 2022 05490 2016 05488 2014 05488 2013 05477 2001+
-2925114 -17790384 RFRT  2014 01 11 09 52 //// 11 07 00 01
02407 0214 02369 0174 02404 0209 02407 0211 02384 0187 02389 0191+
-4357010 17277383 SUMT  2014 01 11 09 52 //// 11 07 00 01
01773 1866 01768 1855 01773 1853 01785 1858 01779 1845 01788 1847+
-3764109 17618118 TAUT  2014 01 11 09 52 //// 11 07 00 01
04316 3982 04322 3988 04330 3994 04331 3995 04329 3992 04334 3996+
-4128448 17477985 WLGT  2014 01 11 09 52 //// 11 07 00 01
02936 2015 02945 2020 02945 2016 02946 2012 02957 2019 02961 2019++
7777
0000060500
554
SNVD17 KWNB 111000 RRA
BBXX
46002 11101 99426 71305 46/// /2614 10125 40085 55000 90950 22200
00121 10910 20909 3//// 41305 70052 333 91218 555 11154 22165
30928 42620 60949 260145 259150 261159 262158 258151 258138=
46075 11101 99539 71608 46/// /2107 10049 49840 56027 90950 22200
00049 11105 20703 3//// 41104 70026 333 91209 555 11076 22081
30938 42210 60949 214071 214076 216075 216075 217074 220078 82208
90912=
46001 11101 99563 71479 46/// ///// 1//// 49949 58007 90950 22200
00048 11004 70019=
32012 11101 99199 50853 46/// ///// 1//// 90950 22200 11705 70023=
0000330000
555
SNVD15 KWNB 111000 RRB
BBXX
42020 11101 99270 70967 46/// /2207 10185 20185 40133 51010 90950
22200 00206 10702 20401 310// 40702 70011 333 91208 555 11074
22077 30850 42308 60949 220070 222061 227063 221063 227063 244062=
41044 11101 99216 70586 46/// /0710 10245 40205 53003 90950 22200
00257 10805 20805 300// 41102 70026 333 91212 555 11103 22109
30945 40712 60949 071097 069094 069096 065097 065096 065092 80711
90917=
42056 11101 99198 70849 46/// /1307 10270 20221 40152 56005 90950
22200 00274 10703 20502 311// 40702 70017 333 91208 555 11072
22076 30931 41209 60949 128067 125070 123067 120071 123071 125069
81308 90931=
42035 11101 99292 70944 46/// /2306 10133 20133 40116 52003 90950
22200 00116 10602 20501 318// 40601 70009 333 91207 555 11070
22079 30850 42408 60949 227062 224060 227059 226058 228063 230063=
41012 11101 99300 70805 46/// /1704 10192 20192 40172 56014 90950
22200 00169 10803 20401 308// 40803 70017 333 91205 555 11049
22058 30858 41606 60949 168042 161044 157044 164045 165050 165051=
42036 11101 99285 70845 46/// /1606 10213 20208 40158 58007 90950
22200 00205 10401 20401 70006 333 91207 555 11063 22070 30917
41608 60949 162057 158058 160060 159064 160059 160061=
42019 11101 99279 70954 46/// /2406 10211 40131 53007 90950 22200
00205 10603 20502 314// 40602 70014 333 91207 555 11063 22069
30945 42407 60949 240058 238053 237053 238054 239054 237056=
42059 11101 99151 70675 46/// /1010 10264 40157 55000 90950 22200
00269 10705 20704 3//// 40802 70024 333 91211 555 11104 22110
30908 41012 60949 094096 092089 095096 094099 093097 089095 81011
90921=
41049 11101 99275 70629 46/// /0609 10228 40262 55000 90950 22200
00250 10805 20805 305// 41202 70026 333 91211 555 11099 22104
30916 40612 60949 057094 058094 058092 056100 053100 058100 80611
90900=
42058 11101 99149 70749 46/// /1012 10270 20235 40123 55000 90950
22200 00274 10906 20605 309// 40904 70032 333 91214 555 11129
22137 30901 40916 60949 095119 093123 093121 090122 087125 084120
80914 90938=
42012 11101 99301 70876 46/// /1708 10195 20195 40120 56021 90950
22200 00176 10402 20402 70010 333 91209 555 11082 22092 30922
41710 60949 173075 171079 172080 170083 168079 169082=
41041 11101 99143 70461 46/// /0709 10246 20240 40156 53011 90950
22200 00258 11305 20603 335// 41304 70025 333 91210 555 11094
22099 30912 40712 60949 073087 065085 066092 069097 069089 072091
80710 90915=
42040 11101 99292 70882 46/// /1608 10213 40128 56017 90950 22200
00206 333 91209 555 11078 22085 30915 41612 50125 60949 159078
166079 162091 161097 163081 165085 70900 81610 90915=
42002 11101 99258 70937 46/// /2106 10233 20231 40141 55000 90950
22200 00232 10802 20401 310// 40802 70011 333 91206 555 11055
22058 30858 41908 60949 211055 202055 201057 196061 196064 194062=
44064 11101 99370 70760 46/// /1405 10123 40156 90950 333 91205
555 11054 22059=
44062 11101 99386 70764 46/// /3302 10029 40150 90950 333 91203
555 11024 22026=
44063 11101 99390 70764 46/// /1001 10023 40134 90950 333 91202
555 11009 22010=
44041 11101 99372 70768 46/// /1303 10139 90950 333 91204 555
11039 22043=
44042 11101 99380 70763 46/// /1708 10111 40141 90950 333 91210
555 11096 22104=
0000121100
556
SNVD20 KWNB 111000 RRC
BBXX
44027 11101 99443 70673 46/// /1504 10039 20034 40234 58018 90950
22200 00057 10602 20401 3//// 40602 70012 333 91205 555 11039
22041 30859 42506 60949 150037 145032 162031 157030 161033 170034=
41013 11101 99334 70777 46/// /1910 10225 20200 40156 58025 90950
22200 00204 10804 20703 311// 40802 70020 333 91213 555 11113
22124 30948 41913 60949 187102 187094 187099 186095 189093 190089=
44017 11101 99407 70720 46/// /1607 10099 20096 40189 57036 90950
22200 00072 10502 20501 316// 41001 70008 333 91208 555 11080
22091 30939 41608 60949 156072 158072 159070 162070 165067 163066=
44014 11101 99366 70748 46/// ///// 10157 20156 40172 58034 90950
22200 10704 70021=
41008 11101 99314 70809 46/// /1807 10168 20168 40158 58016 90950
22200 00147 10903 20602 310// 40902 70013 333 91207 555 11073
22083 30938 41807 60949 182065 179063 179060 180058 180057 180053=
44009 11101 99385 70747 46/// ///// 10115 20113 40172 56027 90950
22200 00067 10502 70009=
44020 11101 99414 70702 46/// ///// 10053 40216 57028 90950 22200
00017 10301 20301 70004=
44058 11101 99376 70763 46/// /1907 10107 40155 90950 333 91208
555 11086 22093=
0000028500
557
SNVD01 PANC 111000 RRA
BBXX
WDD3825 11104 99292 70945
41/94 /2313 10140 2014/ 40130 54/// 7//// 8////
222// 00129 2//// 3//// 4//// 5//// 6//// 80140 ICE /////=
C6QM8 11104 99241 70826
41999 01714 10260 20253 40185 57015 702// 80000
22265 04244 20402 80255=
0000159100
558
SNVD22 KWNB 111000 RRC
BBXX
46027 11101 99419 71244 46/// /1811 10088 40179 56020 90950 22200
00096 11508 20804 329// 41507 70038 333 91214 555 11122 22129
30934 41715 60949 178113 176112 174107 172104 171104 172105=
46086 11101 99325 71180 46/// /1501 10148 40193 54000 90950 22200
00160 11403 329// 41403 70013 333 91202 555 11011 22012 30948
41402 60949 153011 178007 188008 222006 240008 232011=
46050 11101 99446 71245 46/// /1917 10103 40048 58044 90950 22200
00092 10810 20809 325// 41404 70052 333 91221 555 11182 22196
60949 188167 188166 189166 189169 189165 190154=
46013 11101 99382 71233 46/// /2502 10094 40224 57008 90950 22200
00108 11406 20401 3//// 41405 70028 333 91203 555 11018 22019
30857 43003 60949 245018 254016 260015 276018 285018 290019=
46087 11101 99485 71247 46/// /2510 10087 20085 49927 55016 90950
22200 00077 10907 20705 322// 40905 70037 333 91211 555 11104
22112 30921 42320 60949 248097 247115 234149 214154 211144 213134=
46028 11101 99357 71219 46/// /3306 10128 40214 55000 90950 22200
00134 11406 20402 331// 41406 70032 333 91207 555 11058 22061
30905 43308 60949 329055 330052 324066 322063 323069 322071=
46015 11101 99428 71248 46/// /1915 10106 40125 56022 90950 22200
00097 11409 20605 330// 41407 70044 333 91219 555 11159 22171
30908 41921 60949 192148 197158 197148 196152 192158 195149=
46042 11101 99368 71225 46/// /3206 10106 40227 56008 90950 22200
00126 11407 20401 331// 41406 70033 333 91207 555 11065 22068
30937 43108 60949 322063 322059 322057 319057 321056 322050=
0000011200
559
SIAA01 KWBC 110900 RRA
AAXX 11091
89063 41698 60602 11012 21018 39991 40003 57013 70272 84550=
0000009400
560
SAIN90 VOBL 111000
METAR VOBL 111000Z 14005KT 080V240 CAVOK 32/12 Q1015 NOSIG=
0000012400
561
SPSP32 LEMM 101849
SPECI LEAS 101849Z 27007KT 2000 -RADZ FEW002 SCT004 BKN012 10/10
Q1016 TEMPO BKN007=

0000010900
562
SAAE33 VTBB 101830 RRA
METAR VVPB 101830Z VRB02KT 4000 BR SCT020 BKN050 19/18 Q1019 NOSIG=

0000034300
563
SASW31 LSSW 101850
METAR LSZH 101850Z VRB01KT 9999 R14/P2000N R16/0800D R28/P2000N
    R34/P2000N MIFG FEW008 SCT040 BKN220 04/03 Q1019 TEMPO BCFG=
METAR LSGG 101850Z 00000KT CAVOK 05/04 Q1019 NOSIG=
METAR LSZB 101850Z 31001KT CAVOK 02/02 Q1019 NOSIG=
METAR LSZA 101850Z 16002KT 9999 FEW038 BKN042 09/07 Q1020 NOSIG=

0000032200
564
SASW39 LSSW 101850
METAR LSMA 101850Z AUTO 18002KT 4800NDV NCD 02/01 Q1019 RMK GRN=
METAR LSMD 101850Z NIL=
METAR LSME 101850Z NIL=
METAR LSMM 101850Z AUTO 06003KT 030V090 7000NDV NCD 01/01 Q1019 RMK
           GRN=
METAR LSMP 101850Z NIL=
METAR LSMS 101850Z 00000KT 9999 SCT100 05/03 Q1019=

0000011300
565
SAIS32 LLBG 101850
METAR LLBG 101850Z 16005KT 9999 FEW025 BKN045 13/11 Q1020 NOSIG RMK
RERA=

0000009900
566
SPCN52 CWAO 101851
SPECI CWFD 101851Z AUTO 20019KT 1/4SM CLR M21/ A2878 RMK ICG=

0000012200
567
SPCN31 CWAO 101847
SPECI CYZF 101847Z 10002KT 4SM -SN FEW007 OVC060 M23/M26 A2949 RMK
 SC2SC6 SLP014=

0000020000
568
SAIS31 LLBG 101850
METAR LLET 101850Z NIL=
METAR LLHA 101850Z NIL=
METAR LLIB 101850Z NIL=
METAR LLOV 101850Z NIL=
METAR LLSD 101850Z 13004KT 9999 SCT030 13/11 Q1019 RESHRA=

0000018100
569
SALV32 EVRA 101850
METAR EVLA 101850Z AUTO 29013G23KT 260V320 9999 OVC013 04/01 Q0997=
METAR EVVA 101850Z AUTO 32018KT 7000 SCT009 BKN014 OVC019 04/03 
Q0995=

0000016800
570
SADN33 EKCH 101850
METAR EKKA 101850Z 25012KT 9999 -SHRA FEW012TCU BKN030 07/06
Q1005=
METAR EKSP 101850Z 25012KT 9999 FEW012 BKN040 06/04 Q1008=

0000008900
571
SABZ20 SBEG 101900
METAR SBEG 101900Z 32005KT 9999 SCT018 28/23 Q1007=

0000012900
572
SAKO31 RKSI 101800 RRA
METAR RKTU 101800Z 17001KT 4000 BR SCT040 M09/M10 A3050 RMK SLP332
60000 8/500 9/300=

00000000