0000075100
613
SAFR36 LFPW 110200
METAR LFBA 110200Z AUTO 09002KT 6000 NSC 07/06 Q1016=
METAR LFBE 110200Z AUTO 10003KT 3100 BR NSC 04/03 Q1016=
METAR LFGJ 110200Z AUTO 08004KT 7000 NSC 02/02 Q1017=
METAR LFJR 110200Z AUTO 06004KT 2600 BR VV/// 06/06 Q1015=
METAR LFMD 110200Z AUTO VRB02KT 9999 OVC033 11/08 Q1020=
METAR LFMH 110200Z AUTO 16010KT 4500 BR NSC 06/04 Q1016=
METAR LFOT 110200Z AUTO 03003KT 340V070 6000 -RA NSC 06/05 Q1015=
METAR LFPN 110200Z AUTO 11004KT 3400 -RA BR OVC002 05/05 Q1015=
METAR LFRC 110200Z AUTO 19010KT 3900 BR OVC003 07/06 Q1015=
METAR LFRG 110200Z AUTO 20006KT 6000 -DZ BKN029/// BKN037///
OVC046/// ///TCU 06/05 Q1016=
METAR LFRK 110200Z AUTO 18007KT 5000 -DZ BR FEW004 OVC062 06/05
Q1015=

0000074900
614
SAFR37 LFPW 110200
METAR LFAQ 110200Z AUTO 19009KT 0250 R27/1400D FG VV/// 04/04 Q1016=
METAR LFAT 110200Z AUTO 13005KT 3300 BR SCT011 BKN100 BKN120 03/03
Q1016=
METAR LFLN 110200Z AUTO VRB02KT 9999 NSC 04/03 Q1016=
METAR LFPM 110200Z AUTO 06003KT 010V090 3700 BR OVC003 05/05 Q1016=
METAR LFPT 110200Z AUTO 11005KT 0900 R05///// FG OVC002 05/04 Q1016=
METAR LFRH 110200Z AUTO 34004KT 290V010 0150 0100 R25/0550N
R07/0550N FG VV/// 07/07 Q1016=
METAR LFRQ 110200Z AUTO 00000KT 0100 R28/0550U FG VV/// 06/06 Q1016=
METAR LFRT 110200Z AUTO 22004KT 8000 NSC 06/05 Q1015=
METAR LFSD 110200Z AUTO 00000KT 4200 BR NSC 01/M00 Q1017=
METAR LFTW 110200Z AUTO 07004KT 9000 OVC032 10/06 Q1019=
METAR LFBU 110200Z NIL=

0000050800
615
SAKO31 RKSI 110200
METAR RKSI 110200Z 08004KT CAVOK 00/M12 Q1033 NOSIG=
METAR RKSS 110200Z 01002KT 7000 NSC M01/M17 Q1033 NOSIG =
METAR RKPC 110200Z 04006KT 9999 FEW030 05/M07 Q1034 NOSIG =
METAR RKPK 110200Z 31006KT CAVOK 03/M01 Q1032 NOSIG =
METAR RKTU 110200Z 25002KT 4400 BR FEW040 M01/M04 Q1034 NOSIG =
METAR RKTN 110200Z 00000KT CAVOK 01/M07 Q1033 NOSIG =
METAR RKJB 110200Z 21003KT 7000 SCT035 03/M04 Q1034 NOSIG =
METAR RKNY 110200Z 25016KT CAVOK 01/M14 Q1029 NOSIG =

0000012200
616
SACN62 CYRL 110200
METAR CYRL 110200Z 13004KT 1 1/2SM -SN BR OVC009 M06/M07 A2938 RMK
 SN5SC3 SLP975=

0000013800
617
SACN61 CYTE 110200
METAR CYTE 110200Z AUTO 26014KT 9SM CLR M22/M26 A2946 RMK MAX WND
 27018KT AT 0134Z PRESRR SLP982=

0000013200
618
SACN62 CYQX 110200
METAR CYQX 110200Z 22015G22KT 20SM FEW021 SCT110 BKN140 M09/M12 A3005
 RMK SC1AC2AC4 SLP187=

0000011700
619
SAAF13 LFPW 110200
METAR GLRB 110200Z 00000KT 9000 BKN014  FEW024 CB 25/24
Q1011 RMK CB-S, BRVC=

0000014700
620
SAAF17 LFPW 110200
METAR HLLB 110145Z
00000KT 9999 SCT020 BKN080 12/10 Q1025 =
METAR HLLT 110150Z 18006KT CAVOK 10/05 Q1022=

0000022800
621
SAAF18 LFPW 110200
METAR FIMP 110200Z 10003KT 9999 FEW017 26/23 Q1016=
METAR FIMR 110200Z  09012KT 9999 BKN018 27/24 Q1017=
METAR FMMI 110200Z 31005KT 9999 FEW007 SCT020 BKN230 17/17 Q1021
TEMPO 4000 BR=

0000009500
622
SAAF27 LFPW 110200
METAR FGSL 110200Z 23005KT 6000 FEW010 23/21 Q1010 NOSIG=

0000052100
623
SASP31 LEMM 110200
METAR LEMD 110200Z 00000KT CAVOK 07/05 Q1016 NOSIG=
METAR LEBL 110200Z 32007KT 5000 BR SCT025 10/06 Q1018 NOSIG=
METAR LEPA 110200Z 06006KT CAVOK 09/09 Q1017 NOSIG=
METAR LEZL 110200Z NIL=
METAR LEMG 110200Z 30003KT 9999 FEW020 12/10 Q1016 NOSIG=
METAR LEVC 110200Z 27003KT 6000 BKN035 11/08 Q1017 NOSIG=
METAR LEAL 110200Z 24005KT 210V290 9000 FEW015 09/08 Q1017 NOSIG=
METAR LEIB 110200Z NIL=
METAR LEVX 110200Z VRB01KT 5000 BCFG FEW005 07/07 Q1016 TEMPO
3000 BR=

0000048500
624
SASP32 LEMM 110200
METAR LEAS 110200Z NIL=
METAR LEBB 110200Z NIL=
METAR LECO 110200Z NIL=
METAR LEGE 110200Z 00000KT 6000 OVC020 08/07 Q1018=
METAR LEST 110200Z VRB01KT 3000 BR NSC 04/04 Q1017 NOSIG=
METAR LEZG 110200Z VRB02KT 0900 R30R/1400N BCFG OVC003 06/06
Q1017=
METAR LESO 110200Z NIL=
METAR LEVT 110200Z VRB01KT 6000 FEW012 M01/M01 Q1017=
METAR LERS 110200Z NIL=
METAR LEMH 110200Z NIL=
METAR LEAM 110200Z NIL=
METAR LEGR 110200Z NIL=

0000013700
625
SASP33 LEMM 110200
METAR LEVD 110200Z NIL=
METAR LEVS 110200Z NIL=
METAR LESA 110200Z 00000KT CAVOK M00/M00 Q1015=

0000004200
626
SASP34 LEMM 110200
NIL=

0000025900
627
SACR31 LEMM 110200
METAR GCLP 110200Z 35005KT 9999 FEW020 15/09 Q1016 NOSIG=
METAR GCXO 110200Z NIL=
METAR GCTS 110200Z 36008KT 9999 FEW035 16/10 Q1016 NOSIG=
METAR GCRR 110200Z NIL=
METAR GCFV 110200Z NIL=
METAR GCLA 110200Z NIL=

0000010000
628
SASP39 LEMM 110200
METAR LETL 110200Z AUTO 12005KT 4200 HZ BKN078/// 04/03 Q1017=

0000010800
629
SAUK37 EGGY 110150 RRA
METAR EGPI 110150Z AUTO 25014KT 220V280 9999 NCD 05/03 Q1008 RERA=

0000010100
630
SAUK38 EGGY 110150 RRA
METAR EGPU 110150Z AUTO 30013KT 9999 SCT029/// 04/01 Q1007=

0000022700
631
SASP35 LEMM 110200
METAR LEAB 110200Z 10004KT 7000 BKN009 07/06 Q1016 NOSIG=
METAR LEBZ 110200Z NIL=
METAR LELC 110200Z NIL=
METAR LELN 110200Z NIL=
METAR LETO 110200Z 02003KT CAVOK 06/05 Q1016 NOSIG=

0000004200
632
SACR32 LEMM 110200
NIL=

00000000