0000009500
133
SNAA21 ENMI 110400
AAXX 11041
89504 43/// /2002 11058 21114 38454 49926 51007=
0000010900
134
UANT01 CWAO 110357
ARP BAW52 5805N04414W 0357 F380 MS59 259/31 KT
GVIIG QXS UAK 110357 F21A
0000136700
135
SNSQ51 LZIB 110400
AAXX 11041
11812 46/// /3205 10023 21019 39504 42804=
11813 46/// /9901 10033 21005 39854 40210=
11816 42970 32701 10012 20000 30044 40212 80001
  333 83070=
11819 46/// /0601 11006 21021 39992 40216=
11826 45/72 /1001 11012 21029 30011 40218=
11841 42765 79901 10010 21011 39825 40211 87500
  333 87650=
11855 47/58 /0000 11030 21040 30045 40218 71000=
11856 46/// /9901 10001 21016 39891 40219=
11858 46/// /1503 10011 21007 30063 40219=
11867 45/68 /9901 11009 21017 39889 40217=
11880 46/// /9901 11032 21032 30041 40220=
11900 46/// /1401 11015 21027 39872 40219=
11903 42665 22003 11011 21024 39823 40217 82500
  333 82640=
11916 46/// /3210 11091 21095 37939 48451
  333 91016 91122=
11918 46/// /2503 10012 21036 39362 42791=
11927 46/// /9901 11002 21019 39942 40212=
11930 46/// /3110 11099 21258 37299 47965
  333 91019 91123=
11933 46/// /9901 11054 21074 38647 48460=
11934 42682 19901 11024 21068 39361 42791 81500
  333 81646=
11938 46/// /9901 11034 21056 39116 42789=
11952 46/// /9901 11013 21059 39350 42789=
11958 46/// /2303 11049 21050 3//// 4////=
11968 41103 72901 11025 21025 39919 40211 74244 87600
  333 87702=
11976 46/// /9901 10003 21004 39933 40204=
11978 46/// /0802 10015 20012 30070 40204=
11993 46/// /0000 10000 21003 39988 40212=
0000011800
136
SACN49 CWAO 110400
METAR CYGW 110400Z 13003KT 8SM -SN BKN013 OVC040 M11/M12 A2976 RMK
SF5SC3 SLP080=
0000008900
137
SAIN90 VOMD 110400
METAR VOMD 110400Z 02005KT 4000 HZ FEW020 26/20 Q1017=
0000010300
138
SAIN32 VIDP 110330 RRA
METAR VIBN 110330Z 20002KT 0600 -RA SCT020 FEW030CB 16/15 Q1017=
0000014000
139
SACN42 CWAO 110400
METAR CYIV 110400Z 08003KT 1 1/2SM -SN BR OVC002 M08/M09 A2942 RMK
FG2ST6 BEAM VISBL TO 1100 FT SLP984=
0000011800
140
SACN46 CWAO 110400
METAR CYRB 110400Z 22010KT 5SM -SN BKN060 OVC075 M31/M34 A2912 RMK
SC3AC2 SLP873=
0000011500
141
SACN44 CWAO 110400
METAR CYSM 110400Z 30006KT 15SM FEW013 SCT060 M21/M23 A2957 RMK
SC1SC2 SLP039=
0000011700
142
SACN45 CWAO 110400
METAR CYBB 110400Z 23003KT 12SM BKN022 M32/M35 A2954 RMK SC4 WX
CALL-OUT SLP005=
0000011800
143
SIXX97 HECA 110300 RRC
AAXX 11031
37985 32996 03401 11002 21017 30202 40187 57019 333 4/998
55030=
0000011400
144
SIXX96 HECA 110300 RRB
AAXX 11034
60559 42960 2//// 10061 20047 40211 58010 81032
  333 81360=
0000010800
145
SIXX96 HECA 110300 CCA
AAXX 11034
60355 42960 02210 10136 20038 40170 53004
  333 95990=
0000009600
146
SACN44 CWAO 110400
METAR CYZU 110400Z 23005KT 15SM SKC M05/M11 A2954 RMK SLP049=
0000011200
147
SNVD25 LFPW 110400
BBXX
BATEU01 11044 99461 70533 46/// /2830 11006 21065 40229 58010
22264=
0000011800
148
SNVB25 LFPW 110400
BBXX
BATFR10 11044 99228 11226 46/// /1025 10214 20129 40236 58015
22283 04240=
0000011500
149
SAPK31 OPKC 110400 RRC
METAR OPSK 110400Z 00000KTS 3000 HZ FEW100 SCT200 05/03 QNH.1021
RH.84 PC=
0000011800
150
SNVE25 LFPW 110400
BBXX
BATFR28 11044 99037 11055 46/// /0710 10279 20229 40126 58003
22253 04274=
0000011800
151
SNVD25 LFPW 110400
BBXX
BATEU06 11044 99474 70592 46/// /2629 11013 21061 40228 51011
22224 04020=
0000010300
152
SACN31 CWAO 110400
METAR CYYR 110400Z 26022KT 15SM OVC100 M10/M17 A2983 RMK AC7 SLP107=
00000000