0000066200
593
SAIY32 LIIB 102250
METAR LIBD 102250Z 26005KT 7000 NSC 07/07 Q1022=
METAR LIBR 102245Z 00000KT 7000 FEW020 08/07 Q1021 NOSIG=
METAR LICC 102250Z NIL=
METAR LICJ 102250Z 02001KT CAVOK 11/09 Q1021=
METAR LIPB 102250Z NIL=
METAR LIPE 102250Z 08003KT 1000 R12/P2000N BR OVC001 07/07 Q1022=
METAR LIPH 102245Z /////KT 1500 BR SCT020 BKN035 06/05 Q1022=
METAR LIPK 102250Z NIL=
METAR LIPQ 102250Z 00000KT 2000 BR SCT009 BKN015 09/06 Q1021=
METAR LIPR 102245Z /////KT 6000 BKN040 09/09 Q1021=
METAR LIPX 102245Z 00000KT 1000 R04/P1500D BR SCT010 BKN045 08/06
      Q1022=
METAR LIPZ 102250Z VRB02KT 2500 BR BKN040 08/07 Q1022=

0000056500
594
SANO31 ENMI 102250
METAR ENAN 102250Z 11011KT CAVOK M06/M14 Q1016=
METAR ENBR 102250Z 13004KT 9999 FEW003 SCT017 BKN025 02/02 Q0998 RMK
           WIND 1200FT 12006KT=
METAR ENBO 102250Z 10020KT CAVOK M07/M18 Q1011=
METAR ENDU 102250Z VRB02KT CAVOK M23/M25 Q1017=
METAR ENGM 102250Z VRB03KT CAVOK M02/M02 Q0996=
METAR ENOL 102250Z 08010KT 9999 -SN FEW007 BKN018 M07/M11 Q1002=
METAR ENVA 102250Z 07007KT 9999 BKN027 M09/M15 Q1003 RESG RMK WIND
           670FT 12009KT=
METAR ENZV 102250Z 24007KT 9999 SCT014 BKN080 07/05 Q1000=

0000008700
595
SAIY32 LIIB 102250 RRA
METAR LICC 102250Z 27012KT CAVOK 11/08 Q1021=

0000089600
596
SAMX42 MMGL 102254
METAR MMAS 102241Z 21010G20KT 10SM  SCT040 21/M04 A3013 
      RMK 8/100 ISOL AC=
METAR MMEP 102253Z 22006KT 12SM  SCT100 25/06 A3006 RMK 8/030=
METAR MMGL 102244Z 28012KT 10SM  SCT030TCU BKN080 22/01 A3007 
      RMK 8/230=
METAR MMIA 102240Z 24008KT 8SM  SCT030TCU SCT140 SCT230 26/11 A2995 
      RMK 8/239 RTS=
METAR MMLO 102248Z 25013KT 10SM  SCT030 SCT220 22/11 A3012 RMK 8/502=
METAR MMMM 102240Z 16007KT 8SM  BKN030TCU BKN230 19/08 A3012 RMK
8/208=
METAR MMPN 102241Z 18010KT 8SM TS  SCT040CB BKN070 BKN230 22/14 A3011
      RMK 8/963 HZY TSRA W=
METAR MMPR 102246Z 20005KT 15SM  FEW120 26/17 A2990 RMK 8/080=
METAR MMSP 102243Z 22015KT 15SM  SCT035 23/M05 A3009 RMK 8/100=
METAR MMZC 102240Z 24015G25KT 10SM  SCT050 18/M03 A3014 RMK 8/500=
METAR MMZO 102245Z 15006KT 7SM SCT040 BKN250 26/21 A2984
      RMK 8/106 HZY=

0000010100
597
SABZ24 SBFL 102300
METAR SBFL 102300Z 36009KT 9999 FEW030 FEW035TCU
27/23 Q1011=

0000011000
598
SPUS41 KWBC 102255
SPECI
KCAE 102251Z 00000KT 3SM RA BR BKN005 BKN017 OVC022 09/09 A3014=

0000097100
599
SAMX43 MMMZ 102300
METAR MMCL 102241Z 00000KT 10SM  SCT100 OVC230 26/17 A2991 
      RMK 8/038 BINOVC=
METAR MMCN 102245Z 26007KT 10SM  FEW200 26/03 A2990 RMK 8/005 HZY=
METAR MMDO 102244Z 21017KT 14SM  BKN250 19/M10 A3010 
      RMK 8/004 ISOL CU 2QUAD=
METAR MMGM 102241Z 18010KT 10SM  SKC 24/07 A2990 RMK HZY=
METAR MMHO 102249Z 24005KT 10SM  SKC 27/M04 A2998=
METAR MMLM 102244Z 30010KT 10SM  SCT100 BKN220 21/08 A2994 
      RMK 8/058 HZY=
METAR MMLP 102240Z 36015KT 10SM  FEW020 FEW200 21/12 A2997 
      RMK 8/408 ISOL AC=
METAR MMLT 102241Z 02015KT 8SM  FEW100 FEW200 20/12 A2995 RMK 8/036=
METAR MMML 102240Z 00000KT 10SM  SCT200 24/M06 A3002 RMK 8/002 HZY=
METAR MMMZ 102242Z 23009KT 15SM  BKN220 25/12 A2987 RMK 8/004=
METAR MMSD 102256Z  NIL=
METAR MMSL 102242Z 12006KT 12SM  BKN025 BKN100 BKN120 OVC230 21/17 
      A2990 RMK 8/577 BINOVC=
METAR MMTJ 102247Z 30007KT 6SM  FEW210 21/04 A3006 RMK 8/009 HZY=

0000039500
600
SAFI34 EFHK 102250
EFET 102250Z AUTO 12002KT 9999 BKN007 BKN247 M31/M34 Q1014=
EFIV 102250Z AUTO 24001KT 9000 OVC004 M30/M33 Q1016=
EFKE 102250Z AUTO 02014KT 9999 -SHSN OVC053 M13/M16 Q1008=
EFKI 102250Z AUTO 05011KT 010V080 9999 -SG FEW019 BKN052 M11/M13
Q1000=
EFKS 102250Z AUTO 04005KT 340V110 CAVOK M17/M20 Q1006=
EFKT 102250Z AUTO 02003KT CAVOK M19/M22 Q1013=

0000032300
601
SAMX31 KWBC 102245 RRD
METAR
MMAA 102245Z 21004KT 10SM SKC 30/20 A2982=
MMMX 102244Z 21009KT 12SM SCT025TCU BKN080 20/03 A3019 NOSIG RMK
     8/230=
MMTM 102244Z 13004KT 5SM SCT070 BKN200 23/17 A2982 RMK 8/038
     HZY=
MMVR 102244Z 11010KT 7SM SKC 25/17 A2983 RMK HZY DSNT CU 4
     QAUAS=

0000008900
602
FTPQ31 PGUM 102200 RRC
TAF PTPN 102229Z 1022/1118 05014KT P6SM SCT018=

0000012900
603
SAUK31 EGGY 102250 CCB
METAR COR EGCC 102250Z 23012KT 4000 DZ BKN008 BKN013 08/06 Q1008
     BECMG 8000 NSW=

0000022700
604
FTPA31 PHFO 102200 AAB
TAF PHNL 102237Z 1023/1124 03011KT P6SM VCSH SCT025 BKN035
      TEMPO 1023/1101 5SM SHRA BKN025
     FM110800 03005KT P6SM FEW030 SCT050
     FM112100 13008KT P6SM FEW030 SCT050=

0000005200
605
RRIN23 VIDP 110948
RQRPT 694-735=

0000021500
606
SAIN34 VOMM 110940
METAR VOHS 110940Z VRB04KT 5000 HZ SCT020 30/11 Q1014 NOSIG=
METAR VOTR 110940Z 07007KT 7000 FEW016 30/19 Q1012 NOSIG=
METAR VOTV 110940Z 17004KT 6000 FEW020 30/24 Q1009 NOSIG=
0000012200
607
SPUS41 KWBC 101725
SPECI
KDOV 101723Z AUTO VRB01KT 2 1/2SM -RA BR SCT002 BKN037 BKN050
02/02 A3037=

0000009700
608
SAUK36 EGGY 101720 CCB
METAR COR EGSD 101720Z 21009KT CAVOK 07/06 Q1013 NOSIG=

0000033600
609
SAGR33 LGAT 101720
METAR LGBL 101720Z VRB03KT 9999 FEW020 SCT180 08/06 Q1018 NOSIG=
METAR LGHI 101720Z NIL=
METAR LGKC 101720Z NIL=
METAR LGKF 101720Z NIL=
METAR LGKP 101720Z NIL=
METAR LGKZ 101720Z NIL=
METAR LGMK 101720Z NIL=
METAR LGNX 101720Z NIL=
METAR LGPA 101720Z NIL=
METAR LGSO 101720Z NIL=

0000025400
610
SANT31 KWBC 101700 RRA
METAR
BGBW 101725Z NIL=
BGCO 101725Z NIL=
BGGH 101725Z NIL=
BGJN 101725Z NIL=
BGKK 101720Z AUTO 07029G55KT 0600NDV SN VV007/// M01/M02 Q0987=
BGSF 101720Z AUTO 08014KT 9999NDV BKN130/// M10/M19 Q0993=

0000010300
611
FCSP31 LEMM 101700
TAF LEBA 101700Z NIL=
TAF LEBG 101700Z 1018/1103 02007KT CAVOK=

0000023700
612
FCSP32 LEMM 101700
TAF LEAB 101700Z 1018/1103 17008KT CAVOK PROB30 1100/1103
BKN010=
TAF LELN 101700Z 1018/1103 VRB02KT CAVOK=
TAF LESA 101700Z 1018/1103 VRB02KT CAVOK=
TAF LEVS 101700Z 1018/1103 VRB02KT CAVOK=

00000000