0000018900
753
FTCN36 CWAO 101800 AAA
TAF AMD CYBX 101807Z 1018/1102 25018KT P6SM FEW020 SCT100
    FM102200 26012KT P6SM BKN040 TEMPO 1022/1102 4SM -SN
    RMK NXT FCST BY 102000Z=

0000013900
754
SAAE32 VTBB 101800
METAR VLLB 101800Z NIL=
METAR VLLN 101800Z NIL=
METAR VLPS 101800Z NIL=
METAR VLSK 101800Z NIL=

0000048400
755
SARA33 RUMS 101800
METAR UIAA 101800Z 00000MPS 9999 -SHSN FEW050CB BKN100 M21/M23 Q1020
NOSIG RMK QFE706 29CLRD70=
METAR UIBB 101800Z 08002MPS 2800 BR SCT003 M23/M24 Q1028 TEMPO 0300
FG VV002 RMK QBB100 QFE728/0970 30490530=
METAR UIII 101800Z VRB01MPS 9999 BKN050CB BKN100 OVC200 M14/M15 Q1031
TEMPO 0300 -SHSN FG VV001 RMK QFE728/0971 30490340=
METAR UIUU 101800Z 20002MPS 170V250 5000 -SN SCT033 OVC100 M12/M14
Q1027 NOSIG RMK QFE725/0967 26490842=

0000012300
756
SARA31 RUMS 101800
METAR UEEE 101800Z 23002MPS 5000 BR OVC200 M43/M48 Q1034 NOSIG RMK
QFE767 23490145=

0000016500
757
SATH41 VTBB 101800
METAR VTPB 101800Z NIL=
METAR VTPM 101800Z NIL=
METAR VTSE 101800Z NIL=
METAR VTSK 101800Z NIL=
METAR VTUJ 101800Z NIL=

0000067500
758
SARA32 RUMS 101800
METAR UHBB 101800Z 25002MPS CAVOK M30/M33 Q1021 NOSIG RMK QFE748/0998
36410160=
METAR UHHH 101800Z 25009MPS CAVOK M25/M32 Q1018 NOSIG RMK QFE757/1009
23090060=
METAR UHMA 101800Z 25005G10MPS 9999 SCT080 M16/M21 Q1011 RMK
QFE755/1007=
METAR UHMD 101800Z NIL=
METAR UHMM 101800Z 04003MPS 330V090 9999 SCT200 M17/M27 Q1006 RMK
QFE740=
METAR UHPP 101800Z 29005MPS 9999 BKN030 BKN100 M04/M12 Q0991 NOSIG
RMK QFE740/0986 SC035 037 037=
METAR UHSS 101800Z 01002MPS 3500 FU SCT033 M22/M24 Q1013 NOSIG RMK MT
OBSC QFE758/1011 19810366=
METAR UHWW 101800Z 00000MPS 9999 SKC M25/M28 Q1027 NOSIG RMK
QFE769/1025 25CLRD70=

0000010100
759
SPUS41 KWBC 101807
SPECI
KABE 101803Z 00000KT 6SM HZ BKN010 OVC022 00/M03 A3037=

0000009800
760
SPUS44 KWBC 101807
SPECI
KPAE 101803Z 19014KT 10SM BKN010 OVC018 08/05 A3007=

0000010000
761
SPUS44 KWBC 101807
SPECI
KSMF 101803Z 34004KT 3SM BR FEW001 BKN250 07/06 A3033=

0000095200
762
SARS35 RUMS 101800
METAR USPP 101800Z 17002MPS 9999 OVC016 M03/M04 Q1007 21290250 NOSIG
RMK QFE745/0993=
METAR UWKD 101800Z 18003MPS 3000 BR OVC002 M00/M00 Q1005 R11/2/0050
TEMPO 0500 FZFG RMK QBB080 QFE743/0991=
METAR UWKE 101800Z 22002MPS 7000 OVC003 M06/M06 Q1005 TEMPO 0500 FZFG
VV002 RMK  QBB100 QFE737/0982 21420542=
METAR UWKS 101800Z 17006MPS 0700 R24/P1500D FG VV002 00/M00 Q1002
NOSIG RMK QBB070 QFE738 24290250=
METAR UWLW 101800Z 23002MPS 3400 -DZ BR OVC003 00/00 Q1007 20820550
TEMPO 0400 FZDZ FZFG VV002 RMK QFE749=
METAR UWOR 101800Z 18006MPS 9999 OVC013 M03/M04 Q1009 25450245 NOSIG
RMK QFE733/0978=
METAR UWOO 101800Z 14003MPS 3200 -SN OVC010 M01/M02 Q1008 08590332
TEMPO 1000 SN RMK QFE745/0994=
METAR UWSS 101800Z VRB02MPS 9999 OVC008 01/M00 Q1009 3019//55 NOSIG
RMK  QFE743=
METAR UWWW 101800Z 25002MPS 3500 BR BKN010 OVC/// M01/M02 Q1007
23520540 33//99// NOSIG RMK QFE744/0992=

0000058700
763
SARS33 RUMS 101800
METAR ULLI 101800Z 00000MPS 5000 -RASN BKN003 OVC015 01/00 Q0982
60////// 10620245 NOSIG RMK QBB110 OBST OBSC=
METAR UUBW 101800Z 19005MPS 9999 -RA OVC012 03/02 Q0990 NOSIG=
METAR UUDD 101800Z 19006MPS 9999 -RA BKN007 OVC016 03/02 Q0989
64290195 14290194 NOSIG=
METAR UUDL 101800Z NIL=
METAR UUEE 101800Z 19005MPS 8000 -RA OVC006 03/02 Q0988 75290151
25290151 NOSIG=
METAR UUWW 101800Z 20004MPS 9999 OVC003 03/03 Q0988 24290045 NOSIG=
METAR UUMO 101800Z 21004MPS 9999 -RA OVC006 03/03 Q 989 NOSIG RMK
QFE727/0969 QBB200 26250550=

0000094500
764
SARA34 RUMS 101800
METAR UNAA 101800Z 00000MPS CAVOK M05/M11 Q1029 NOSIG RMK QFE749
20090040=
METAR UNBB 101800Z 22008MPS 3200 -SHSN DRSN BKN004CB M08/M09 Q1029
NOSIG RMK QBB140 QFE749/0999 24424042=
METAR UNEE 101800Z 20006MPS 3500 -SN OVC013 M08/M09 Q1026 NOSIG RMK
QFE746 23451050=
METAR UNKL 101800Z 19003MPS 9999 SCT033 BKN083 M08/M13 Q1025 NOSIG
RMK QFE743 29////55=
METAR UNNT 101800Z 22005MPS 1600 SHSN DRSN SCT013 OVC030CB M06/M07
Q1026 25490139 16390136 NOSIG RMK QFE759/1012=
METAR UNOO 101800Z 23006MPS 8000 BKN016 BKN023CB M06/M09 Q1021
25390137 NOSIG RMK QFE758=
METAR UNTT 101800Z 20007MPS 4300 -SHSN SCT008 BKN018CB OVC066 M07/M09
Q1022 NOSIG RMK QFE751=
METAR USTR 101800Z 17003MPS 9999 -SHSN BKN010 OVC016CB M03/M03 Q1012
TEMPO 1500 SHSN BKN005 RMK QFE750/1000 21390045 12750029=
METAR USHH 101800Z 03002MPS 9999 SCT010 OVC080 M22/M25 Q1016 TEMPO
BKN007 RMK QFE758 06////37=

0000055900
765
SARA36 RUMS 101800
METAR UWUU 101800Z 16002MPS 130V190 4500 -SN OVC008 M02/M04 Q1007
14650440 TEMPO 1000 SN FZRA BKN003 RMK QFE745/0993=
METAR USCC 101800Z 17004MPS 5000 -SHSN BR BKN013CB OVC070 M04/M05
Q1010 09490350 TEMPO 1100 SHSN BKN005CB RMK QFE737=
METAR USNN 101800Z 34002MPS 9000 -SN OVC033 M09/M11 Q1015 NOSIG RMK
QFE756 21420242=
METAR USRR 101800Z VRB01MPS 7000 BKN140 M25/M28 Q1016 NOSIG RMK
QFE757 07////32=
METAR USSS 101800Z 11001MPS 1700 R08L/2600 SN OVC024 M03/M04 Q1008
08590230 TEMPO 1600 SN RMK QFE736=

0000094100
766
SARS32 RUMS 101800
METAR URKA 101800Z 20009G14MPS 9999 BKN022 08/05 Q1013 RMK
QFE756/1008=
METAR URKK 101800Z 21004MPS CAVOK 05/02 Q1014 NOSIG RMK QFE757 SC070=
METAR URML 101800Z 18004MPS 9999 SKC M00/M01 Q1020 NOSIG RMK
QFE765/1020 SC070=
METAR URMM 101800Z 00000MPS 9999 BKN230 02/M01 Q1015 12CLRD70 NOSIG
RMK QFE733/0978=
METAR URMN 101800Z 20001MPS 9999 BKN260 01/M03 Q1015 NOSIG RMK QFE725
SC06=
METAR URMO 101800Z NIL=
METAR URMT 101800Z 19004MPS CAVOK 02/00 Q1014 NOSIG RMK QFE722
SC0.60=
METAR URRR 101800Z 20004MPS 3000 -RA BKN006 OVC014 06/06 Q1011
22290045 TEMPO 0800 FG OVC002 RMK QBB180 MAST OBSC=
METAR URSS 101800Z 05004MPS 9999 BKN220 04/01 Q1018 NOSIG RMK
R06/09003MPS QFE762 02000070 06//////=
METAR URWA 101800Z 23004MPS 9999 OVC036 04/01 Q1017 NOSIG RMK
QFE765/1020 SC055=
METAR URWI 101800Z NIL=
METAR URWW 101800Z 20003MPS CAVOK 00/M01 Q1012 NOSIG RMK 29190060=

0000052700
767
SARS31 RUMS 101800
METAR ULWC 101800Z 18003MPS 1700 R21/2000 SN BKN002 OVC/// 00/00
Q0985 TEMPO 0500 SHSNRA BKN002 RMK QBB060 QFE729/0972 SC038=
METAR UUBP 101800Z 24008MPS 4000 -SHRA BR OVC016CB 05/04 Q0995
16290055 NOSIG=
METAR UUOB 101800Z 21006G09MPS 1500 R29/2400 -RA BR OVC004 02/02
Q1001 29290050 NOSIG=
METAR UUOK 101800Z 20005G10MPS 6000 -RA OVC006 02/01 Q1000 NOSIG RMK
12150050=
METAR UWGG 101800Z 16006MPS 4300 -SN OVC007 01/00 Q0997 TEMPO 1000
SHSNRA VV004 18290050 RMK QFE741=

0000013900
768
SARA35 RUMS 101800
METAR USCM 101800Z 15003MPS 3200 -SN VV006 M06/M07 Q1008 TEMPO 1000
SHSN VV003 19490532 RMK QFE719=

0000071700
769
SARS36 RUMS 101800
METAR ULAA 101800Z 08007G11MPS 8000 -SN BLSN OVC024 M17/M20 Q1003
NOSIG RMK QFE751/1002 SC050=
METAR ULMM 101800Z 00000MPS 9999 BKN003 M32/M36 Q1016 NOSIG RMK
QBB090 OBST OBSC QFE755 31450239=
METAR ULOO 101800Z 25004MPS 6000 -SHRA BKN010CB OVC014 03/03 Q0981
19290055 NOSIG RMK QFE732=
METAR ULPB 101800Z AUTO 36005MPS 1300 NCD M07/M07 Q0989=
METAR UMKK 101800Z 30009G14MPS 270V340 9999 BKN018CB BKN100 04/00
Q1001 R24/29//60 NOSIG RMK QFE749/0999=
METAR UUOO 101800Z 20007G11MPS 5000 -RA OVC005 02/01 Q1000 TEMPO
20010G15MPS BKN004 RMK 12290250=
METAR UUYY 101800Z 04004MPS 7000 -SN BKN010 OVC066 M17/M19 Q1006
TEMPO 1000 SN BR 0145//33 RMK QFE745/0994=

0000009700
770
SASB31 VCRI 101810
METAR VCRI 101810Z 05010KT 9000 FEW016   24/21 Q1013 NOSIG=

0000039000
771
FTCN31 CWAO 101800 AAA
TAF AMD CYAZ 101808Z 1018/1101 30007KT P6SM FEW007 BKN040 OVC100
     TEMPO 1018/1020 3SM BR
    FM102000 27005KT P6SM SCT020 BKN040 OVC060 TEMPO 1020/1022 3SM
     -SHRA BR BKN020
    FM102200 13012KT 6SM -RA BR OVC025 TEMPO 1022/1101 2SM -RA BR
     OVC010
     BECMG 1023/1101 13015G25KT
    RMK NXT FCST WILL BE ISSUED AT 111645Z=

0000009700
772
SAZA31 FAPR 101800 CCA
METAR COR FAUP 101800Z 21004KT CAVOK 26/05 Q1014 NOSIG=

00000000