0000046800
253
AAIN23 VIJP 100910
TO:-NHAC NEW DELHI/DDGM(WF)PUNE 
FROM:- M.C.JAIPUR 
SUB.:-LOCAL FORECAST FOR JAIPUR AND NEIGHBOURHOOD VALID UNTILL THE MORNING OF 13TH JANUARY.2014 
------------------------------------------------------------- 
FORECAST:   MAINLY CLEAR SKY. . MAX. / MIN. TEMP. WOULD BE AROUND 21C AND 06C RESPECTIVELY.
            
AT 1430 IST D.B. TEMP.    MIN. TEMP. 
    19.0C                     07.2C 

(ENDS)=

      

0000008100
254
NCNC01 EGRR 110900
03226 01016 555 00048 10004 20006 40049 50061=
0000008100
255
NCNC01 EGRR 110900
03144 01018 555 00029 10010 20002 40046 50059=
0000011500
256
NCNC01 EGRR 110900
03658 00007 10007 2/1/1 555 00083 10039 20016 40073 50078 69900 79000 888 1///1=
0000011500
257
NCNC01 EGRR 110900
03379 00000 10006 2/1/1 555 00080 10022 20010 40055 50063 69900 888 011// 1///1=
0000008700
258
NCNC01 EGRR 110900
03604 00011 10013 555 00081 10040 20002 40079 50078=
0000008100
259
NCNC01 EGRR 110900
03544 00000 555 00077 10025 20012 40063 50070=
0000008100
260
NCNC01 EGRR 110900
03560 00021 555 00079 10038 20010 40064 50078=
0000008100
261
NCNC01 EGRR 110900
03872 00036 555 00095 10056 20010 40084 50091=
0000006300
262
NCNC01 EGRR 110900
03281 555 00049 10011 20002=
0000008100
263
NCNC01 EGRR 110900
03901 01026 555 00033 11007 20018 40053 50071=
0000008100
264
NCNC01 EGRR 110900
03410 01009 555 00062 10015 20006 40053 50061=
0000007500
265
NCNC01 EGRR 110900
03923 01032 555 00036 11010 20008 50068=
0000008700
266
NCNC01 EGRR 110900
03321 00003 10013 555 00095 10029 20024 40055 50074=
0000008100
267
NCNC01 EGRR 110900
03529 01016 555 00087 10022 20012 40070 50085=
0000007500
268
NCNC01 EGRR 110900
03002 00014 555 00059 10030 20080 40042=
0000008100
269
NCNC01 EGRR 110900
03088 01035 555 00039 10002 20000 40055 50062=
0000008700
270
NCNC01 EGRR 110900
03409 01004 10011 555 00076 10014 20006 40063 50070=
0000012100
271
NCNC01 EGRR 110900
03649 01002 10011 2/1/1 555 00083 10036 20008 40070 50083 60000 70000 888 01111 11111=
0000069700
272
SAAE31 VTBB 110930
METAR VTBS 110930Z 05007KT 340V120 9999 FEW025 SCT300 32/14 Q1012 
NOSIG=
METAR VTBD 110930Z 02005KT 340V060 9999 FEW030 SCT300 31/17 Q1012 
NOSIG=
METAR VTCC 110930Z 18004KT 9999 FEW040 29/11 Q1016 A3001 NOSIG=
METAR VTBU 110930Z NIL=
METAR VTSS 110930Z 08010KT 9999 FEW020 SCT120 BKN300 29/21 Q1011
           A2985 NOSIG=
METAR VTSP 110930Z 13004KT 9999 FEW022 BKN300 30/21 Q1011 A2985
           NOSIG=
METAR VLVT 110930Z 20002KT 7000 SCT020 29/17 Q1014 NOSIG=
METAR VYMD 110930Z 36003KT 8000 NSC 28/15 Q1014 NOSIG=
METAR VYYY 110930Z NIL=
METAR VDPP 110930Z 33008KT 9999 SCT017 31/18 Q1010=
METAR VDSR 110930Z 01004KT 340V040 9000 FEW020 31/17 Q1011 NOSIG=

00000000