0000013300
293
SACN62 CYXP 101800
METAR CYXP 101800Z 00000KT 10SM -SN FEW030 BKN090 OVC210 M18/M22
 A2920 RMK SC1AS4CI3 SLP890=

0000031400
294
SASP35 LEMM 101800
METAR LEAB 101800Z 14005KT 120V180 CAVOK 08/06 Q1016 NOSIG=
METAR LEBZ 101800Z 00000KT CAVOK 13/10 Q1013=
METAR LELC 101800Z 03007KT 8000 SCT013 BKN025 14/12 Q1017 NOSIG=
METAR LELN 101800Z 00000KT CAVOK 02/00 Q1014=
METAR LETO 101800Z 01003KT CAVOK 10/06 Q1014 NOSIG=

0000018200
295
SACR32 LEMM 101800
METAR GCHI 101800Z 02010KT 340V050 9999 FEW030 19/14 Q1013=
METAR GCGM 101800Z VRB12KT 9999 FEW065 18/08 Q1013 RMK CAB09
04012G22KT 330V090=

0000037600
296
SANK31 MNMG 101800
METAR 
MNPC 101800Z 09010KT 6000 VCRA SCT016TCU 29/24 Q1013 TCURA E/S/SW
77?=
MNRS 101800Z 07010KT 9999 FEW018 29/21 Q1011=
MNJG  101800Z 36004KT 9999 BKN020 22/16 Q1013=
MNJU  101800Z 09012KT 9999 SCT020 31/22 Q1013 1AC080=
MNCH 101800Z 09010KT 9999 FEW025 33/18 Q1011 1AC090=
MNBL  101800Z 08008KT 9999 SCT018 29/24 Q1013=

0000007700
297
FCIY33 LIIB 101700 AAA
TAF AMD LIMS 101800Z 1015/1024 CNL=

0000016600
298
FTAG41 SAZM 101700
TAF SAZM 101700Z 1018/1118 14010KT 9999 FEW030 TX22/1118Z TN13/1110Z
BECMG 1022/1101 18020G30KT CAVOK BECMG 1115/1118 15015KT=

0000009700
299
SAAG41 SAWG 101800
METAR SAWG 101800Z  23022G34KT 9999  BKN035
14/M03 Q1008=

0000010400
300
SAAG41 SASA 101800
METAR SASA 101800Z  00000KT 9999  FEW020TCU SCT100
 32/17 Q1010=

0000010000
301
SAAG41 SAVC 101800
METAR SAVC 101800Z  07009KT 9999  SCT040 BKN200
18/02 Q1013=

0000010600
302
SACN61 CYDQ 101800
METAR CYDQ 101800Z AUTO 26012G18KT 9SM CLR M02/M09 A2945 RMK SLP008=

0000010600
303
SACN61 CYDN 101800
METAR CYDN 101800Z AUTO 30006KT 9SM OVC011 M10/M12 A2942 RMK SLP987=

0000197000
304
SPUS70 KWBC 101804
SPECI
KASH 101800Z 00000KT 4SM -SN FEW008 SCT015 BKN023 M02/M04 A3039
     RMK AO2 BKN V SCT P0000=
KBVO 101800Z AUTO 20009G16KT 9SM BKN010 OVC016 11/10 A2964 RMK AO2
     CIG 007V013=
KFOE 101800Z 12005KT 1/2SM R31/2600V3500FT FG VV002 03/02 A2960
     RMK AO2 T00280017=
KFSM 101800Z 05006KT 2 1/2SM -RA BR FEW001 BKN070 OVC080 07/07
     A2977 RMK AO2 PRESFR P0000=
KHGR 101800Z VRB03KT 2 1/2SM BR SCT010 BKN080 03/01 A3032 RMK AO2
     T00280006=
KOPF 101800Z 15016KT 10SM SCT023 SCT032 27/22 A3010 RMK AO2 $=
KSLN 101800Z 25005KT 4SM BR OVC003 02/01 A2960 RMK AO2
     T00220011=
KSTP 101800Z 16011KT 2SM BR OVC006 M03/M04 A2971 RMK AO2=
KTXK 101800Z 14005KT 4SM -RA BR SCT009 BKN020 OVC024 13/13 A2985
     RMK AO2 P0000=
PAHC 101800Z AUTO 36011KT 7SM FEW009 SCT017 OVC024 M14/M18 A2956
     RMK AO2 TSNO OVC V BKN SNE1759BLSNB1759E00 P0000 $=
KAVL 101801Z 17003KT 3SM BR OVC003 08/07 A3021 RMK AO2=
KBPK 101801Z AUTO 17008KT 4SM RA BR BKN007 BKN045 OVC070 09/08
     A2980 RMK AO2 P0001=
KBUY 101801Z AUTO 33005KT 1 1/2SM -RA BR OVC003 03/02 A3028 RMK
     AO2 P0000 T00330022=
KBVY 101801Z 23006KT 3SM -SN BR BKN009 OVC020 M01/M03 A3040 RMK
     AO2 P0000 T10061028=
KCAG 101801Z AUTO 07005KT 2 1/2SM -SN BR BKN032 OVC044 M07/M09
     A2991 RMK AO2 P0000 T10721089=
KFPR 101801Z 11005KT 10SM FEW020 SCT027 24/21 A3011 RMK AO2=
KINT 101801Z 04005KT 4SM BR BKN003 OVC008 03/02 A3028 RMK AO2
     UPE1756 P0000=
KLXT 101801Z AUTO 00000KT 1/2SM -RA FG VV005 03/03 A2964 RMK AO2
     PRESFR P0000 T00330028=
KMKC 101801Z 00000KT 2 1/2SM BR OVC007 04/03 A2963 RMK AO2 CIG
     005V010 T00390028=
KPBF 101801Z AUTO 11005KT 10SM -RA SCT017 BKN090 OVC100 10/08
     A2990 RMK AO2 RAB1756 PRESFR P0000=
KRKP 101801Z AUTO 20007KT 8SM FEW008 BKN025 OVC050 27/18 A2991 RMK
     AO2=
KXNA 101801Z 18009KT 9SM -RA SCT007 OVC060 09/09 A2973 RMK AO2
     P0000=

0000009800
305
SPUS42 KWBC 101804
SPECI
KOPF 101800Z 15016KT 10SM SCT023 SCT032 27/22 A3010=

0000009500
306
SPUS43 KWBC 101804
SPECI
KSTP 101800Z 16011KT 2SM BR OVC006 M03/M04 A2971=

0000012900
307
SACN62 CYDB 101800
METAR CYDB 101800Z 00000KT 25SM FEW003 SCT030 BKN120 M20/M22 A2930
 RMK ST2SC2AC3 SLP002=

0000012700
308
SACN62 CYCD 101800
METAR CYCD 101800Z 00000KT 15SM FEW020 SCT040 BKN090 03/03 A3000 RMK
 SF1SC3AC3 SLP160=

0000012100
309
SACN62 CYBR 101800
METAR CYBR 101800Z 27006KT 2SM BR BKN004 OVC010 M12/M13 A2939 RMK
 ST7SC1 SLP991=

0000012900
310
SACN62 CYDC 101800
METAR CYDC 101800Z 26002KT 10SM SCT040 BKN070 OVC080 M00/M01 A2982
 RMK SC3AC2AS3 SLP124=

0000011900
311
SACN62 CYDA 101800
METAR CYDA 101800Z 00000KT 20SM FEW080 BKN100 M24/M26 A2948 RMK
 AC2AS3 SLP024=

0000010600
312
SACN62 CYBK 101800
METAR CYBK 101800Z 24003KT 20SM SCT035 M32/M36 A2964 RMK SC3 SLP041=

00000000