0000149700
073
SAPA31 KWBC 101900
METAR
AGGG NIL=
AGGH 101900Z 14002KT 9999 FEW015 FEW016CB 24/23 Q1007=
ANAU NIL=
AYPY NIL=
PGNT NIL=
PGRO NIL=
PGSN 101854Z 04012KT 10SM FEW018 SCT031 SCT048 26/23 A2990 RMK AO2
     SLP146 T02560233=
PGUA 101858Z AUTO 06014G22KT 10SM BKN020 25/23 A2988 RMK AO2
     SLP109 ?=
PGUM 101854Z 06011KT 10SM CLR 26/22 A2988 RMK AO2 SLP110
     T02560217=
PGWT NIL=
PHJH 101850Z 02010KT 15SM VCSH FEW015 FEW030 SCT045 22/20 A3002
     RMK VCSH E=
PHJR 101853Z 00000KT 10SM CLR 23/18 A3002 RMK AO2 SLP172
     T02280183=
PHMK 101854Z 02007G17KT 10SM SCT016 23/21 A3002 RMK AO2 SLP167
     T02280206=
PJON NIL=
PKMJ NIL=
PKMR 101850Z 04013KT 15SM FEW015 SCT050 BKN300 28/22 A2975 RMK
     SLP078 T02750219=
PKWA 101900Z AUTO 06018G22KT 10SM SCT026 SCT032 SCT050 27/21 A2979
     RMK AO2 T02700214=
PLCH 101900Z 11018KT 9999 FEW020 28/22 Q1010=
PMDY 101856Z AUTO 10013KT 7SM BKN034 BKN042 19/14 A3024 RMK AO2
     TSNO T01940138 SLP551 ?=
PTKK 101850Z VRB05KT 15SM FEW014 BKN280 27/23 A2979 RMK SLP091
     T02710231=
PTKR 101851Z 08008KT 10SM BKN016CB OVC110 25/24 A2972 RMK SHRAE15
     CB ALQDS SLP067 T02540240=
PTPN NIL=
PTRO NIL=
PTSA NIL=
PTTP 101851Z 08011KT 15SM BKN018TCU BKN130 OVC300 27/24 A2980 RMK
     TCU ALQDS SLP090 T02680243=
PTYA 101855Z 06009G18KT 12SM FEW016 SCT130 OVC300 28/24 A2977 RMK
     SLP083 T02770236=
PWAK 101855Z 08010KT 10SM FEW024 26/26 A2999 RMK AO2A=

0000026300
074
SAIE32 EIDB 101900
METAR EICM 101900Z NIL=
METAR EIDL 101900Z NIL=
METAR EIKY 101900Z NIL=
METAR EIME 101900Z 20004KT 9999 -RA FEW015 BKN050 05/04 Q1008=
METAR EISG 101900Z NIL=
METAR EIWF 101900Z 31003KT CAVOK 04/03 Q1010 R21/1/////=

0000035400
075
SAAL31 DAAA 101900
METAR DAAG 101900Z 10001KT 9999 FEW033 BKN080 14/06 Q1016=
METAR DAAT 101900Z 16006KT CAVOK 15/M03 Q1023=
METAR DABB 101900Z 12002KT CAVOK 13/11 Q1017=
METAR DABC 101900Z 23007KT CAVOK 10/02 Q1020=
METAR DAON 101900Z NIL=
METAR DAOO 101900Z NIL=
METAR DAUH 101900Z 05005KT 9999 FEW040 SCT100 16/09 Q1021=

0000012000
076
SACN61 CYTL 101900
METAR CYTL 101900Z AUTO 17002KT 5SM -SN FEW016 OVC027 M08/M09 A2954
 RMK SLP021=

0000010500
077
SACN62 CYQT 101900
METAR CYQT 101900Z 21003KT 8SM OVC011 M03/M05 A2968 RMK SC8 SLP062=

0000012600
078
SACN62 CYTS 101900
METAR CYTS 101900Z 19008KT 15SM -SN BKN018 M03/M06 A2987 RMK SC7 PCPN
 VRY LGT SLP134=

0000012800
079
SACN62 CYQX 101900
METAR CYQX 101900Z 25019G25KT 20SM BKN034 BKN070 M06/M14 A3008 RMK
 SC5AC1 CI TR SLP200=

0000011400
080
SACN62 CYTE 101900
METAR CYTE 101900Z 28019KT 15SM DRSN BKN011 M21/M24 A2922 RMK SC7
 SLP900=

0000012300
081
SACN62 CYRL 101900
METAR CYRL 101900Z 16007KT 3SM -SN BR DRSN OVC006 M07/M08 A2946 RMK
 FG2SC6 SLP001=

0000011200
082
SACN62 CYUL 101900
METAR CYUL 101900Z 02005KT 8SM -SN OVC017 M07/M09 A3028 RMK SC8
 SLP257=

0000015100
083
SACN62 CYUX 101900
METAR CYUX 101900Z 32018KT 8SM IC DRSN FEW008 SCT140 BKN220 M29/M32
 A2919 RMK SF1AS3CS4 SF TR WND ESTD SLP886=

0000011900
084
SACN62 CYUT 101900
METAR CYUT 101900Z 30009KT 25SM FEW040 BKN100 M27/M31 A2939 RMK
 SC2AC4 SLP956=

0000012300
085
SACN62 CYVC 101900
METAR CYVC 101900Z 22004KT 10SM -SN BKN008 OVC012 M06/M07 A2932 RMK
 SC6SC2 SLP955=

0000012800
086
SACN62 CYVT 101900
METAR CYVT 101900Z 31009KT 12SM -SN DRSN SCT006 OVC015 M07/M10 A2932
 RMK SC3SC5 SLP956=

0000011200
087
SACN62 CYUY 101900
METAR CYUY 101900Z 20012KT 4SM -SN OVC007 M05/M07 A2997 RMK SF8
 SLP172=

0000013800
088
SACN62 CYVM 101900
METAR CYVM 101900Z 19007KT 12SM IC FEW090 SCT120 BKN140 M19/M22 A2914
 RMK AC2AC2AC3 SC TR SLP868=

0000011100
089
SACN62 CYVO 101900
METAR CYVO 101900Z 18009KT 6SM BR OVC008 M07/M08 A3000 RMK ST8
 SLP188=

0000011700
090
SACN62 CYVR 101900
METAR CYVR 101900Z 18003KT 15SM SCT034 OVC040 07/05 A3001 RMK SC3SC5
 SLP162=

0000034200
091
SAJP31 RJTD 101900
METAR RJAA 101900Z VRB01KT 9999 FEW025 M04/M08 Q1023 NOSIG=
METAR RJBB 101900Z 30012KT 9999 FEW025 SCT/// 04/M06 Q1028 NOSIG=
METAR RJTT 101900Z 32008KT CAVOK 01/M05 Q1022 NOSIG=
METAR ROAH 101900Z 02003KT 9999 FEW040 14/07 Q1026=
METAR RJGG 101900Z 28023KT 9999 FEW020 SCT070 04/M01 Q1026 NOSIG=

0000016600
092
SAJP32 RJTD 101900
METAR RJFF 101900Z 17007KT 9999 FEW040 BKN060 03/M04 Q1030=
METAR RJCC 101900Z 23005KT 9999 -SHSN FEW030 SCT050 M10/M13 Q1017=

00000000