0000009700
733
SPAU32 AMMC 101723
SPECI YSRI 101724Z AUTO 00000KT 1000 // ////// 16/16 Q1017=

0000070300
734
SAFI31 EFHK 101720
METAR EFHK 101720Z 35014KT 8000 -SN FEW007 BKN013 BKN047 00/M01 Q0988
TEMPO SCT013 BKN047=
METAR EFJY 101720Z AUTO 36008KT 9999 -SHSN OVC010 
M06/M07 Q0993=
METAR EFKU 101720Z AUTO 04012KT 9999 -SG OVC014 
M07/M09 Q0994=
METAR EFOU 101720Z AUTO 06010KT 030V090 8000 -SN SCT025/// SCT029/// 
OVC042/// M11/M13 Q1003=
METAR EFRO 101720Z AUTO 04017KT 5000 BKN110 M15/M17
 Q1007=
METAR EFTP 101720Z AUTO 01008KT 3500 -SG FEW005 
BKN009 OVC012 M02/M02 Q0992=
METAR EFTU 101720Z AUTO 02009KT 340V040 9999 -SG BKN008/// OVC015/// 
00/M01 Q0991 R08/29//95=
METAR EFVA 101720Z AUTO 03007KT 9999 SG FEW015/// OVC025/// M06/M08 
Q0998 R16/41//95=

0000009600
735
SPPR00 SPIM 101730
SPECI SPJR 101730Z 12003KT 9999 FEW023 SCT040 21/11 Q1025=

0000032200
736
SANL31 EHDB 101725
METAR EHAM 101725Z 22010KT 9999 FEW016 SCT045 07/05 Q1014 NOSIG=
METAR EHBK 101725Z AUTO 23008KT 9999 FEW017 05/03 Q1017 NOSIG=
METAR EHGG 101725Z AUTO 23011KT 9999 NCD 05/04 Q1013 NOSIG=
METAR EHRD 101725Z AUTO 19013KT 7000 SCT008 BKN010 BKN012 07/06 Q1015
TEMPO 7000 BKN009=

0000117700
737
FTUS41 KWBC 101727
TAF
KCAK 101724Z 1018/1118 17008KT 1/2SM FG VV001
     FM110500 16012KT 2SM -RA BR OVC005 WS015/19045KT
     FM111700 22009KT 2SM BR OVC004=
KERI 101724Z 1018/1118 18011KT P6SM OVC025
     FM110500 17015G25KT 4SM -RA BR BKN015 OVC030=
KFVE 101726Z 1018/1118 19006KT P6SM SCT120 BKN220
     FM110800 VRB03KT P6SM OVC090
     FM111300 17005KT P6SM OVC045
     FM111500 16007KT 5SM -SNPL OVC020
     FM111700 15009KT 3SM -FZRAPL OVC015=
KGSP 101724Z 1018/1118 03006KT 5SM -RA BR OVC005
     FM110000 03005KT 3/4SM -RA BR OVC003
     FM110600 04003KT 2SM SHRA BR OVC004 WS020/20030KT
     FM111500 14005KT 4SM SHRA BR OVC005 WS020/20045KT=
KHUL 101726Z 1018/1118 21005KT P6SM BKN100
     FM110800 VRB03KT P6SM OVC080
     FM111200 16005KT P6SM OVC045
     FM111430 17008KT 5SM -FZRAPL OVC030
     FM111600 16009G15KT 3SM -FZRA BR OVC010 WS020/20040KT=
KPQI 101726Z 1018/1118 20005KT P6SM BKN120
     FM110800 VRB03KT P6SM OVC090
     FM111300 16005KT P6SM OVC045
     FM111500 16008KT 5SM -FZRASNPL OVC030
     FM111700 16009G16KT 3SM -FZRA BR OVC015 AMD LTD TO CLD VIS
      AND
      WIND=

0000055100
738
FTUS43 KWBC 101727
TAF
KLEX 101724Z 1018/1118 15008KT P6SM SCT008 OVC025
     FM110300 18014G22KT 5SM -SHRA BR OVC008
     FM111500 24014G22KT P6SM SCT010 BKN040=
KSDF 101724Z 1018/1124 16006KT P6SM OVC008
      TEMPO 1019/1022 SCT008 BKN050
     FM110200 18011G21KT 5SM -SHRA BR OVC010
     FM111400 25015G22KT P6SM SCT010 BKN040=
KTOL 101724Z 1018/1118 17007KT 6SM BR BKN007 OVC025
     FM110200 16010KT 2SM -RA BR OVC005 WS015/19045KT
     FM111400 23006KT 2SM BR OVC005
     FM111700 26014KT 5SM BR OVC008=

0000148100
739
FTUS71 KWBC 101727 RRA
TAF
KCLT 101724Z 1018/1118 02008KT 4SM -RA BR OVC003
     FM102200 04006KT 2SM -DZ OVC003
     FM110300 03003KT 3/4SM -SHRA BR OVC003 WS020/20035KT
     FM110800 14004KT 3SM SHRA BR OVC004 WS020/20035KT
     FM111400 18010KT 4SM SHRA BR OVC005 WS020/20040KT=
KERI 101724Z 1018/1118 18011KT P6SM OVC025
     FM110500 17015G25KT 4SM -RA BR BKN015 OVC030=
KFVE 101726Z 1018/1118 19006KT P6SM SCT120 BKN220
     FM110800 VRB03KT P6SM OVC090
     FM111300 17005KT P6SM OVC045
     FM111500 16007KT 5SM -SNPL OVC020
     FM111700 15009KT 3SM -FZRAPL OVC015=
KGSP 101724Z 1018/1118 03006KT 5SM -RA BR OVC005
     FM110000 03005KT 3/4SM -RA BR OVC003
     FM110600 04003KT 2SM SHRA BR OVC004 WS020/20030KT
     FM111500 14005KT 4SM SHRA BR OVC005 WS020/20045KT=
KHKY 101724Z 1018/1118 03004KT 2SM -RA BR OVC003
     FM110000 05004KT 1/2SM -RADZ FG OVC002
     FM110600 00000KT 3/4SM SHRA BR OVC003 WS020/20030KT
     FM111300 14004KT 3SM SHRA BR OVC003 WS020/20045KT
     FM111700 22011KT 3SM SHRA OVC005=
KMFD 101724Z 1018/1118 16010KT 1 1/2SM BR OVC003
     FM110300 16014KT 2SM -RA BR OVC005 WS015/19045KT
     FM111500 22008KT 2SM BR OVC004=
KPQI 101726Z 1018/1118 20005KT P6SM BKN120
     FM110800 VRB03KT P6SM OVC090
     FM111300 16005KT P6SM OVC045
     FM111500 16008KT 5SM -FZRASNPL OVC030
     FM111700 16009G16KT 3SM -FZRA BR OVC015 AMD LTD TO CLD VIS
      AND
      WIND=

0000070600
740
FTUS31 KWBC 101727
TAF
KBGR 101726Z 1018/1118 23006KT P6SM OVC045
     FM102300 00000KT P6SM BKN060
     FM111300 18006KT P6SM OVC025
     FM111500 17010G18KT 6SM -RA OVC015
     FM111700 17015G25KT 3SM -RA BR OVC008 WS020/34040KT=
KCLE 101724Z 1018/1124 17008KT P6SM OVC012
     FM110300 16014KT 3SM -RA BR OVC010 WS015/19045KT
     FM111600 22008KT 2SM BR OVC006
     FM112100 25016G22KT 5SM BR OVC008=
KCLT 101724Z 1018/1118 02008KT 4SM -RA BR OVC003
     FM102200 04006KT 2SM -DZ OVC003
     FM110300 03003KT 3/4SM -SHRA BR OVC003 WS020/20035KT
     FM110800 14004KT 3SM SHRA BR OVC004 WS020/20035KT
     FM111400 18010KT 4SM SHRA BR OVC005 WS020/20040KT=

0000126400
741
FTUS71 KWBC 101727
TAF
KAND 101724Z 1018/1118 04006KT 5SM -RA BR OVC006
     FM110000 03005KT 3/4SM -RA BR OVC003
     FM110600 04003KT 2SM SHRA BR OVC004 WS020/20030KT
     FM111500 14005KT 4SM SHRA BR OVC005 WS020/20045KT=
KAVL 101724Z 1018/1118 15004KT 3SM -RA BR OVC004
     FM110000 16006KT 3/4SM -SHRA BR OVC004
     FM110600 16007KT 1SM SHRA BR OVC003 WS020/20035KT
     FM111200 16007KT 2SM SHRA BR OVC008 WS020/20045KT
     FM111700 20008KT 5SM -SHRA OVC008=
KBGR 101726Z 1018/1118 23006KT P6SM OVC045
     FM102300 00000KT P6SM BKN060
     FM111300 18006KT P6SM OVC025
     FM111500 17010G18KT 6SM -RA OVC015
     FM111700 17015G25KT 3SM -RA BR OVC008 WS020/34040KT=
KCAK 101724Z 1018/1118 17008KT 1/2SM FG VV001
     FM110500 16012KT 2SM -RA BR OVC005 WS015/19045KT
     FM111700 22009KT 2SM BR OVC004=
KCAR 101726Z 1018/1118 20005KT P6SM SCT120 BKN220
     FM110800 VRB03KT P6SM OVC090
     FM111300 16005KT P6SM OVC045
     FM111500 16007KT 5SM -FZRAPLSN OVC030
     FM111700 16009G16KT 3SM -FZRA BR OVC015=
KCLE 101724Z 1018/1124 17008KT P6SM OVC012
     FM110300 16014KT 3SM -RA BR OVC010 WS015/19045KT
     FM111600 22008KT 2SM BR OVC006
     FM112100 25016G22KT 5SM BR OVC008=

0000038100
742
FTUS71 KWBC 101727 RRB
TAF
KTOL 101724Z 1018/1118 17007KT 6SM BR BKN007 OVC025
     FM110200 16010KT 2SM -RA BR OVC005 WS015/19045KT
     FM111400 23006KT 2SM BR OVC005
     FM111700 26014KT 5SM BR OVC008=
KYNG 101724Z 1018/1118 16008KT 4SM BR BKN006 OVC020
     FM110500 16012KT 2SM -RA BR OVC005 WS015/19040KT
     FM111700 22009KT 2SM BR OVC004=

0000096700
743
FTUS73 KWBC 101727
TAF
KFSD 101724Z 1018/1118 19008KT 1 1/2SM BR OVC004
     FM101900 21005KT 3SM BR OVC005
     FM102030 24003KT 5SM BR FEW007 SCT015 BKN200
     FM102300 28007KT P6SM SCT015 SCT100
     FM110100 29008KT P6SM SKC
     FM111600 30013G19KT P6SM SCT050=
KHON 101724Z 1018/1118 23005KT P6SM FEW090 BKN200
     FM102100 29008KT P6SM SKC=
KLEX 101724Z 1018/1118 15008KT P6SM SCT008 OVC025
     FM110300 18014G22KT 5SM -SHRA BR OVC008
     FM111500 24014G22KT P6SM SCT010 BKN040=
KSDF 101724Z 1018/1124 16006KT P6SM OVC008
      TEMPO 1019/1022 SCT008 BKN050
     FM110200 18011G21KT 5SM -SHRA BR OVC010
     FM111400 25015G22KT P6SM SCT010 BKN040=
KSUX 101724Z 1018/1118 17011KT 2SM BR OVC006
     FM101930 24006KT 3SM -SN BR SCT004 OVC008
      TEMPO 1021/1023 1 1/2SM -SN BR BKN006
     FM102300 29008KT 4SM BR BKN015 BKN080
     FM110100 30009KT P6SM SKC
     FM111600 31015G20KT P6SM SCT050=

0000013700
744
SAUS72 KWBC 101700 RRG
METAR
TNCM 101700Z 08015KT 050V110 9999 FEW017TCU SCT035 28/19 Q1017
     A3005 TEMPO SHRA=

0000017400
745
SAUS75 KWBC 101700 RRC
METAR
PAJN 101653Z COR 07007KT 10SM -RA FEW011 BKN030 OVC038 02/01
     A2951=
PHNY 101723Z AUTO 05012KT 10SM CLR 19/18 A3003=

0000088000
746
FTJP31 RJTD 101700
TAF RJAA 101706Z 1018/1124 34006KT 9999 FEW030=
TAF RJBB 101709Z 1018/1124 29014KT 9999 FEW025 BECMG 1106/1109
         34008KT BECMG 1115/1118 24004KT=
TAF RJTT 101711Z 1018/1124 30006KT 9999 FEW030 BECMG 1103/1105
         15006KT BECMG 1109/1112 36007KT=
TAF RJOO 101709Z 1018/1124 32006KT 9999 FEW025=
TAF ROAH 101705Z 1018/1124 05007KT 9999 FEW035 BECMG 1115/1118
         10004KT=
TAF RJCH 101714Z 1018/1124 30012KT 8000 -SHSN FEW008 BKN020 TEMPO
         1018/1024 1500 -SHSN FEW005 BKN008 TEMPO 1100/1109
         29018G28KT 0800 SHSN BLSN VV005 TEMPO 1109/1118 1500 -SHSN
         FEW005 BKN008 TEMPO 1118/1124 3000 -SHSN BECMG 1121/1124
         24013KT=
TAF RJSS 101712Z 1018/1124 26005KT 9999 FEW020 BKN040 BECMG
         1100/1102 29015KT TEMPO 1102/1109 29015G25KT BECMG
         1109/1112 25005KT=

0000098200
747
FTJP32 RJTD 101700
TAF RJFF 101712Z 1018/1124 15007KT 9999 FEW030 BKN040 BECMG
         1101/1103 32008KT BECMG 1109/1112 15006KT=
TAF RJGG 101708Z 1018/1124 29016KT 9999 FEW020 SCT040 BECMG
         1115/1118 35006KT=
TAF RJCC 101705Z 1018/1124 24006KT 9999 FEW020 BKN040 BECMG
         1100/1102 32010KT TEMPO 1101/1106 3000 -SHSN BECMG
         1112/1115 24007KT=
TAF RJFK 101708Z 1018/1124 33005KT 9999 FEW040=
TAF RJSN 101705Z 1018/1124 30018KT 9999 FEW010 BKN030 TEMPO
         1018/1021 3000 -SHSN BECMG 1115/1118 17008KT TEMPO
         1118/1121 3000 -SHSN TEMPO 1121/1124 0800 SHSN VV004=
TAF RJFU 101710Z 1018/1124 14007KT 9999 FEW020 BKN040 BECMG
         1100/1102 34009KT BECMG 1112/1115 14005KT=
TAF RJFT 101705Z 1018/1124 07004KT 9999 FEW030 SCT045 BECMG
         1102/1104 30005KT BECMG 1106/1109 07004KT=
TAF RJOA 101706Z 1018/1124 30007KT 9999 FEW025 SCT040=
TAF RJOB 101710Z 1018/1124 28006KT 9999 FEW025 SCT040=

0000070700
748
FTJP32 RJTD 101700 RRA
TAF RJOT 101705Z 1018/1124 22005KT 9999 FEW040 BECMG 1101/1103
         28012KT BECMG 1106/1109 22006KT BECMG 1112/1115 15007KT=
TAF RJFO 101709Z 1018/1124 25005KT 9999 FEW025 BKN050 BECMG
         1022/1024 32011KT BECMG 1112/1115 26005KT=
TAF RJNT 101705Z 1018/1124 18007KT 6000 -SHSN FEW008 BKN015 TEMPO
         1018/1024 0700 SHSN VV003 TEMPO 1100/1106 1500 -SHSN FEW004
         BKN005 TEMPO 1106/1112 2000 -SHSN FEW004 BKN008=
TAF RJNK 101705Z 1018/1124 29008KT 6000 -SHSN FEW010 BKN020 TEMPO
         1018/1024 1500 -SHSNGS FEW005 BKN008 FEW020CB TEMPO
         1100/1106 2000 -SHSNRA FEW005 BKN008 TEMPO 1121/1124 3000
         -SHRASN=

0000014900
749
FCFR31 LFPW 101400 AAB
TAF AMD LFPN 101726Z 1017/1024 18006KT 9999 OVC009 TEMPO 1017/1018
BKN012 BECMG 1022/1024 3000 BR BKN006=

0000137200
750
FTUS51 KWBC 101727
TAF
KAND 101724Z 1018/1118 04006KT 5SM -RA BR OVC006
     FM110000 03005KT 3/4SM -RA BR OVC003
     FM110600 04003KT 2SM SHRA BR OVC004 WS020/20030KT
     FM111500 14005KT 4SM SHRA BR OVC005 WS020/20045KT=
KAVL 101724Z 1018/1118 15004KT 3SM -RA BR OVC004
     FM110000 16006KT 3/4SM -SHRA BR OVC004
     FM110600 16007KT 1SM SHRA BR OVC003 WS020/20035KT
     FM111200 16007KT 2SM SHRA BR OVC008 WS020/20045KT
     FM111700 20008KT 5SM -SHRA OVC008=
KCAR 101726Z 1018/1118 20005KT P6SM SCT120 BKN220
     FM110800 VRB03KT P6SM OVC090
     FM111300 16005KT P6SM OVC045
     FM111500 16007KT 5SM -FZRAPLSN OVC030
     FM111700 16009G16KT 3SM -FZRA BR OVC015=
KFDY 101724Z 1018/1118 17007KT 5SM BR BKN005 OVC025
     FM110200 16012KT 2SM -RA BR OVC005 WS015/19045KT
     FM111400 23006KT 2SM BR OVC005
     FM111700 26014KT 5SM BR OVC008=
KGMU 101724Z 1018/1118 03006KT 3SM -RA BR OVC005
     FM110000 03005KT 3/4SM -RA BR OVC003
     FM110600 04003KT 2SM SHRA BR OVC004 WS020/20030KT
     FM111500 14005KT 4SM SHRA BR OVC005 WS020/20045KT=
KHKY 101724Z 1018/1118 03004KT 2SM -RA BR OVC003
     FM110000 05004KT 1/2SM -RADZ FG OVC002
     FM110600 00000KT 3/4SM SHRA BR OVC003 WS020/20030KT
     FM111300 14004KT 3SM SHRA BR OVC003 WS020/20045KT
     FM111700 22011KT 3SM SHRA OVC005=

0000019100
751
FTUS51 KWBC 101727 RRA
TAF
KMFD 101724Z 1018/1118 16010KT 1 1/2SM BR OVC003
     FM110300 16014KT 2SM -RA BR OVC005 WS015/19045KT
     FM111500 22008KT 2SM BR OVC004=

0000019400
752
FTUS52 KWBC 101727 AAA
TAF AMD
KLNS 101724Z 1017/1112 VRB04KT 2SM -FZDZ OVC008
     FM102100 VRB03KT 3SM BR OVC012
     FM110400 00000KT 2SM -RA BR OVC012 WS020/19045KT=

00000000