0000009800
653
SPUS42 KWBC 101723
SPECI
KOPF 101719Z 14012KT 10SM BKN021 BKN026 26/23 A3012=

0000010700
654
SABW31 VGHS 101720
METAR VGHS 101720Z 00000KT 1500 BR NSC 17/13 Q1015 TEMPO S/VIS 1200M=

0000018200
655
SAUK31 EGGY 101720 CCA
METAR COR EGCC 101720Z 18011KT 9999 -RA FEW028 SCT034 07/05 Q1009
     TEMPO RA=
METAR COR EGLL 101720Z 20008KT CAVOK 09/06 Q1013 NOSIG=

0000078700
656
FTPA31 KWBC 101724
TAF
TAF PGSN 101720Z 1018/1118 03009KT P6SM SCT020 SCT120
     FM110000 06014KT P6SM VCSH SCT020
     FM110800 06009KT P6SM VCSH FEW020=
TAF PGUM 101720Z 1018/1124 06008KT P6SM FEW020
     FM110000 06014KT P6SM SCT020
     FM110800 06008KT P6SM FEW020=
TAF PKMJ 101720Z 1018/1118 06014KT P6SM VCSH FEW015 SCT050=
TAF PKWA 101720Z 1018/1118 07015G22KT P6SM VCSH SCT025=
TAF PTKK 101720Z 1018/1118 05011KT P6SM VCSH SCT014 SCT120=
TAF PTRO 101720Z 1018/1118 08015G22KT P6SM SHRA SCT015CB OVC120
      TEMPO 1018/1021 07015G28KT 3SM +SHRA FEW008 BKN014CB OVC080
     FM110000 08013G24KT P6SM VCSH SCT016CB BKN050 BKN120=
TAF PTYA 101720Z 1018/1118 06011KT P6SM VCSH SCT018 BKN120
     FM110000 07012G22KT P6SM SCT020 BKN120=

0000078700
657
FTPQ31 KWBC 101724
TAF
TAF PGSN 101720Z 1018/1118 03009KT P6SM SCT020 SCT120
     FM110000 06014KT P6SM VCSH SCT020
     FM110800 06009KT P6SM VCSH FEW020=
TAF PGUM 101720Z 1018/1124 06008KT P6SM FEW020
     FM110000 06014KT P6SM SCT020
     FM110800 06008KT P6SM FEW020=
TAF PKMJ 101720Z 1018/1118 06014KT P6SM VCSH FEW015 SCT050=
TAF PKWA 101720Z 1018/1118 07015G22KT P6SM VCSH SCT025=
TAF PTKK 101720Z 1018/1118 05011KT P6SM VCSH SCT014 SCT120=
TAF PTRO 101720Z 1018/1118 08015G22KT P6SM SHRA SCT015CB OVC120
      TEMPO 1018/1021 07015G28KT 3SM +SHRA FEW008 BKN014CB OVC080
     FM110000 08013G24KT P6SM VCSH SCT016CB BKN050 BKN120=
TAF PTYA 101720Z 1018/1118 06011KT P6SM VCSH SCT018 BKN120
     FM110000 07012G22KT P6SM SCT020 BKN120=

0000036900
658
FTUS51 KWBC 101724
TAF
KFLO 101722Z 1018/1118 14010KT P6SM VCSH SCT025 BKN070
      TEMPO 1018/1022 BKN020
     FM102200 14006KT P6SM VCSH FEW015 BKN025
     FM110700 16006KT 2SM BR VCSH BKN008 OVC015=
KMYR 101722Z 1018/1118 14014KT P6SM VCSH BKN100
     FM110200 16007KT 3SM BR VCSH SCT008 BKN015
     FM111300 17008KT 3SM SHRA BKN015=

0000084800
659
FTUS52 KWBC 101724
TAF
KCNM 101722Z 1018/1118 28020G26KT P6SM SKC
     FM110100 26011KT P6SM SKC=
KCXP 101721Z 1018/1118 VRB04KT P6SM FEW080 BKN200
     FM110100 VRB03KT P6SM SCT200
     FM111300 19009KT P6SM SCT080 BKN200
     FM111600 20012G22KT P6SM SCT060 BKN140=
KHND 101722Z 1018/1118 VRB05KT P6SM SCT250
     FM110300 17007KT P6SM SCT250=
KHOB 101722Z 1018/1118 27020G27KT P6SM SKC
     FM110000 27011KT P6SM SKC=
KINK 101722Z 1018/1118 27020G27KT P6SM SKC
     FM110000 28008KT P6SM SKC=
KLAW 101720Z 1018/1118 24010KT P6SM BKN090 OVC110
     FM102100 31014G22KT P6SM SCT120
     FM110000 29006KT P6SM SCT120=
KLBT 101722Z 1018/1118 12005KT P6SM SCT025 OVC070
      TEMPO 1018/1022 BKN025
     FM110200 15007KT 3SM BR VCSH BKN008 OVC015
     FM111500 19012KT P6SM VCSH SCT015 BKN100=

0000096100
660
FTUS53 KWBC 101724
TAF
KBFF 101722Z 1018/1118 29018G25KT P6SM SCT200
     FM110200 30012KT P6SM BKN250=
KCDR 101722Z 1018/1118 30013KT P6SM BKN070
     FM110200 27013KT P6SM BKN250=
KCYS 101722Z 1018/1118 30023G33KT P6SM BKN200=
KHUF 101722Z 1018/1118 15006KT 5SM BR OVC025
     FM101900 16011KT 4SM -RA BR OVC007
     FM110900 22010KT 3SM -RA BR OVC007
     FM111500 25012KT 4SM BR OVC010=
KLAF 101722Z 1018/1118 14005KT P6SM OVC030
     FM102000 17010KT 4SM -RA BR OVC007
     FM110800 23010KT 3SM -RA BR OVC007
     FM111500 27012KT 4SM BR OVC010=
KLAR 101722Z 1018/1118 28024G35KT P6SM SCT100 BKN150
     FM110200 28021G30KT P6SM SCT250=
KLBF 101721Z 1018/1118 30012G18KT P6SM BKN060 OVC090
      TEMPO 1018/1021 3SM -SHSN SCT020 OVC030
     FM110000 31007KT P6SM SCT100
     FM111200 28011KT P6SM SCT250=
KRWL 101722Z 1018/1118 26022G31KT P6SM SCT017 BKN120
     FM110200 24027G36KT P6SM SCT070=

0000020900
661
FTUS53 KWBC 101724 AAA
TAF AMD
KEGE 101720Z 1017/1112 30008G15KT P6SM VCSH SCT035 BKN050
     FM102100 29015G25KT P6SM VCSH SCT030 BKN050
     FM110500 15007KT P6SM VCSH SCT025 BKN040=

0000105500
662
FTUS54 KWBC 101724
TAF
KBIH 101722Z 1018/1118 VRB05KT P6SM SCT250
     FM110300 32005KT P6SM SCT250=
KDAG 101722Z 1018/1118 29010KT P6SM SCT250
     FM110200 26006KT P6SM SCT250=
KEED 101722Z 1018/1118 01007KT P6SM SCT250
     FM110100 31005KT P6SM SCT250=
KEKO 101722Z 1018/1118 23010G18KT P6SM SCT060
     FM110100 VRB05KT P6SM SCT080
     FM111500 18011KT P6SM SCT080=
KELY 101722Z 1018/1118 VRB05KT P6SM SCT060
     FM111200 18012KT P6SM SCT100=
KTPH 101722Z 1018/1118 33015G25KT P6SM BKN200
     FM110100 35006KT P6SM SKC=
KTRK 101721Z 1018/1118 VRB04KT P6SM SCT180
     FM110800 20008KT P6SM SCT060 BKN140
     FM111100 20010G15KT P6SM SCT050 BKN090
     FM111700 23015G24KT P6SM SCT030 BKN060=
KTVL 101721Z 1018/1118 17005KT P6SM SCT180
     FM110100 VRB04KT P6SM SCT180
     FM111000 19010G20KT P6SM SCT050 BKN120
     FM111700 19016G25KT P6SM SCT040 BKN080=
KVGT 101722Z 1018/1118 VRB05KT P6SM SCT250=
KWMC 101722Z 1018/1118 20008KT P6SM SCT080
     FM111500 19015KT P6SM SCT080=

0000141100
663
FTUS80 KWBC 101724
TAF
KBFF 101722Z 1018/1118 29018G25KT P6SM SCT200
     FM110200 30012KT P6SM BKN250=
KBIH 101722Z 1018/1118 VRB05KT P6SM SCT250
     FM110300 32005KT P6SM SCT250=
KCDR 101722Z 1018/1118 30013KT P6SM BKN070
     FM110200 27013KT P6SM BKN250=
KCHS 101722Z 1018/1118 14012KT P6SM VCSH SCT025 BKN040
      TEMPO 1020/1023 5SM -SHRA BKN025
     FM110200 16006KT P6SM SCT005 BKN015
     FM110600 19008KT 6SM BR BKN005
     FM111500 21013G20KT P6SM VCSH SCT015 BKN040=
KCNM 101722Z 1018/1118 28020G26KT P6SM SKC
     FM110100 26011KT P6SM SKC=
KCRE 101722Z 1018/1118 14013KT P6SM VCSH BKN100
     FM110200 16007KT 3SM BR VCSH SCT008 BKN015
     FM111300 17008KT 3SM SHRA BKN015=
KCXP 101721Z 1018/1118 VRB04KT P6SM FEW080 BKN200
     FM110100 VRB03KT P6SM SCT200
     FM111300 19009KT P6SM SCT080 BKN200
     FM111600 20012G22KT P6SM SCT060 BKN140=
KCYS 101722Z 1018/1118 30023G33KT P6SM BKN200=
KDAG 101722Z 1018/1118 29010KT P6SM SCT250
     FM110200 26006KT P6SM SCT250=
KDUG 101721Z 1018/1118 31008KT P6SM SKC
     FM110600 VRB04KT P6SM SKC=
KEED 101722Z 1018/1118 01007KT P6SM SCT250
     FM110100 31005KT P6SM SCT250=
KEKO 101722Z 1018/1118 23010G18KT P6SM SCT060
     FM110100 VRB05KT P6SM SCT080
     FM111500 18011KT P6SM SCT080=
KELY 101722Z 1018/1118 VRB05KT P6SM SCT060
     FM111200 18012KT P6SM SCT100=

0000140700
664
FTUS80 KWBC 101724 RRA
TAF
KFLO 101722Z 1018/1118 14010KT P6SM VCSH SCT025 BKN070
      TEMPO 1018/1022 BKN020
     FM102200 14006KT P6SM VCSH FEW015 BKN025
     FM110700 16006KT 2SM BR VCSH BKN008 OVC015=
KFST 101722Z 1018/1118 28019G25KT P6SM SKC
     FM110000 25008KT P6SM SKC=
KHND 101722Z 1018/1118 VRB05KT P6SM SCT250
     FM110300 17007KT P6SM SCT250=
KHOB 101722Z 1018/1118 27020G27KT P6SM SKC
     FM110000 27011KT P6SM SKC=
KHUF 101722Z 1018/1118 15006KT 5SM BR OVC025
     FM101900 16011KT 4SM -RA BR OVC007
     FM110900 22010KT 3SM -RA BR OVC007
     FM111500 25012KT 4SM BR OVC010=
KILM 101722Z 1018/1118 13014KT P6SM SCT035 BKN100
     FM110400 16008KT 5SM BR VCSH SCT008 BKN015
     FM111200 19012KT P6SM VCSH SCT020 BKN150=
KIND 101722Z 1018/1124 13010KT 3SM BR OVC025
     FM102100 15012KT 3SM -RA BR OVC007
     FM110900 21012G20KT 2SM -RA BR OVC007
     FM111400 25014G22KT 6SM -RA BR SCT007 OVC010
     FM111800 25014G24KT P6SM BKN025=
KINK 101722Z 1018/1118 27020G27KT P6SM SKC
     FM110000 28008KT P6SM SKC=
KLAF 101722Z 1018/1118 14005KT P6SM OVC030
     FM102000 17010KT 4SM -RA BR OVC007
     FM110800 23010KT 3SM -RA BR OVC007
     FM111500 27012KT 4SM BR OVC010=
KLAR 101722Z 1018/1118 28024G35KT P6SM SCT100 BKN150
     FM110200 28021G30KT P6SM SCT250=
KLAS 101722Z 1018/1118 VRB05KT P6SM SCT250=

0000145400
665
FTUS80 KWBC 101724 RRB
TAF
KLAW 101720Z 1018/1118 24010KT P6SM BKN090 OVC110
     FM102100 31014G22KT P6SM SCT120
     FM110000 29006KT P6SM SCT120=
KLBF 101721Z 1018/1118 30012G18KT P6SM BKN060 OVC090
      TEMPO 1018/1021 3SM -SHSN SCT020 OVC030
     FM110000 31007KT P6SM SCT100
     FM111200 28011KT P6SM SCT250=
KLBT 101722Z 1018/1118 12005KT P6SM SCT025 OVC070
      TEMPO 1018/1022 BKN025
     FM110200 15007KT 3SM BR VCSH BKN008 OVC015
     FM111500 19012KT P6SM VCSH SCT015 BKN100=
KMAF 101722Z 1018/1118 27020G27KT P6SM SKC
     FM110000 27011KT P6SM SKC=
KMYR 101722Z 1018/1118 14014KT P6SM VCSH BKN100
     FM110200 16007KT 3SM BR VCSH SCT008 BKN015
     FM111300 17008KT 3SM SHRA BKN015=
KOLS 101721Z 1018/1118 VRB03KT P6SM SKC
     FM102000 27007KT P6SM SKC
     FM110300 VRB03KT P6SM SKC=
KPEQ 101722Z 1018/1118 27021G29KT P6SM SKC
     FM110000 26011KT P6SM SKC=
KRNO 101721Z 1018/1118 VRB04KT P6SM FEW080 BKN200
     FM110200 VRB03KT P6SM SCT200
     FM111300 20008KT P6SM SCT080 BKN200
     FM111600 20014G20KT P6SM SCT060 BKN140=
KRWL 101722Z 1018/1118 26022G31KT P6SM SCT017 BKN120
     FM110200 24027G36KT P6SM SCT070=
KSAV 101722Z 1018/1118 14007KT P6SM VCSH SCT010 BKN020
      TEMPO 1018/1020 4SM -SHRA BKN005 BKN010
     FM110200 15005KT 4SM BR SCT005 BKN010
     FM110600 18005KT 3/4SM BR OVC003
     FM111500 21012G20KT P6SM VCSH SCT015 BKN040=

0000140700
666
FTUS80 KWBC 101724 RRC
TAF
KSNY 101722Z 1018/1118 29022G31KT P6SM FEW200
     FM110200 29015KT P6SM BKN250=
KTPH 101722Z 1018/1118 33015G25KT P6SM BKN200
     FM110100 35006KT P6SM SKC=
KTRK 101721Z 1018/1118 VRB04KT P6SM SCT180
     FM110800 20008KT P6SM SCT060 BKN140
     FM111100 20010G15KT P6SM SCT050 BKN090
     FM111700 23015G24KT P6SM SCT030 BKN060=
KTUS 101721Z 1018/1118 14005KT P6SM SKC
     FM102000 32007KT P6SM SKC
     FM110300 15006KT P6SM SKC=
KTVL 101721Z 1018/1118 17005KT P6SM SCT180
     FM110100 VRB04KT P6SM SCT180
     FM111000 19010G20KT P6SM SCT050 BKN120
     FM111700 19016G25KT P6SM SCT040 BKN080=
KVGT 101722Z 1018/1118 VRB05KT P6SM SCT250=
KVTN 101721Z 1018/1118 31012G18KT P6SM OVC100
     FM102200 28009KT P6SM SCT080
     FM110800 29012G18KT P6SM OVC040
     FM111300 28010KT P6SM SCT100=
KWMC 101722Z 1018/1118 20008KT P6SM SCT080
     FM111500 19015KT P6SM SCT080=
TAF PGSN 101720Z 1018/1118 03009KT P6SM SCT020 SCT120
     FM110000 06014KT P6SM VCSH SCT020
     FM110800 06009KT P6SM VCSH FEW020=
TAF PGUM 101720Z 1018/1124 06008KT P6SM FEW020
     FM110000 06014KT P6SM SCT020
     FM110800 06008KT P6SM FEW020=
TAF PKMJ 101720Z 1018/1118 06014KT P6SM VCSH FEW015 SCT050=
TAF PKWA 101720Z 1018/1118 07015G22KT P6SM VCSH SCT025=
TAF PTKK 101720Z 1018/1118 05011KT P6SM VCSH SCT014 SCT120=

0000034800
667
FTUS80 KWBC 101724 RRD
TAF
TAF PTRO 101720Z 1018/1118 08015G22KT P6SM SHRA SCT015CB OVC120
      TEMPO 1018/1021 07015G28KT 3SM +SHRA FEW008 BKN014CB OVC080
     FM110000 08013G24KT P6SM VCSH SCT016CB BKN050 BKN120=
TAF PTYA 101720Z 1018/1118 06011KT P6SM VCSH SCT018 BKN120
     FM110000 07012G22KT P6SM SCT020 BKN120=

0000005200
668
RRIN23 VECC 110949
RQRPT 233-274=

0000036600
669
FTUS80 KWBC 101724 AAA
TAF AMD
KEGE 101720Z 1017/1112 30008G15KT P6SM VCSH SCT035 BKN050
     FM102100 29015G25KT P6SM VCSH SCT030 BKN050
     FM110500 15007KT P6SM VCSH SCT025 BKN040=
KSOA 101722Z 1017/1118 21012G18KT P6SM BKN005
     FM101900 22012G18KT P6SM BKN150
     FM102000 24012G18KT P6SM SKC
     FM110000 VRB03KT P6SM SKC=

0000013100
670
SPCN31 CWAO 101723
SPECI CYFC 101723Z AUTO VRB13KT 9SM CLR M07/M14 A3036 RMK MAX WND
 23017KT AT 1723Z SLP282=

0000227700
671
SPUS70 KWBC 101724
SPECI
KALO 101719Z AUTO 14009KT 1 1/2SM BR OVC004 M01/M01 A2974 RMK AO2
     T10111011 TSNO=
KBVY 101719Z 21007KT 6SM HZ OVC009 M01/M03 A3042 RMK AO2
     T10061033=
KGVL 101719Z AUTO 08008KT 1 1/2SM BR OVC003 08/07 A3022 RMK AO2
     RAE1659 P0000=
KLNR 101719Z AUTO 11007KT 3SM BR OVC006 M01/M02 A2983 RMK AO2
     T10111022=
KMIW 101719Z AUTO 14010KT 1 1/4SM BR OVC003 M01/M01 A2971 RMK AO2
     I1002 T10061006 TSNO=
KMMK 101719Z AUTO 00000KT 3SM UP BR FEW006 OVC024 M02/M03 A3042
     RMK AO2 UPB08SNE08 P0000 T10171033 TSNO=
KRKP 101719Z AUTO 20006KT 9SM BKN006 BKN038 OVC050 27/19 A2993 RMK
     AO2 RAB04E13 P0000=
PABA 101719Z AUTO 28019KT 2 1/2SM -SN BR M25/M27 A2986 RMK AO2
     P0000 FZRANO $=
KALI 101720Z AUTO 20011KT 10SM BKN027 BKN033 OVC043 22/17 A2991
     RMK AO2 TSNO $=
KCAG 101720Z AUTO 06006KT 1 1/4SM -SN BR BKN022 OVC035 M07/M09
     A2992 RMK AO2 P0001 T10721094=
KCOT 101720Z AUTO 20003KT 10SM SCT016 OVC038 20/15 A2992 RMK
     AO2=
KEST 101721Z AUTO 18013KT 1 3/4SM BR OVC004 M02/M02 A2965 RMK AO2
     I1002 T10221022=
KMSS 101719Z AUTO 00000KT 9SM FEW014 SCT021 BKN070 M03/M06 A3028
     RMK AO2 SNE08 P0000=
KRBD 101720Z 19007G14KT 7SM -RA SCT009 BKN015 OVC060 18/16 A2982
     RMK AO2 P0001=
KRWF 101720Z AUTO 17010KT 1 3/4SM BR OVC004 M03/M03 A2965 RMK
     AO2=
KSMF 101720Z 02003KT 1/4SM R16R/2400FT FG OVC001 04/04 A3032 RMK
     AO2=
KTVR 101720Z AUTO 17011KT 10SM OVC010 13/10 A3006 RMK AO2
     T01330100 TSNO=
KUCP 101720Z AUTO 17004KT 8SM OVC004 02/01 A3023 RMK AO2 TSNO=
K1B7 101715Z 09006KT 1/4SM -RA FG BKN002 13/13 A3008=
K7R3 101713Z 09004KT 10SM OVC003 16/M A3006=
KAFN 101721Z AUTO 19006KT 1 1/4SM -SN BR OVC007 M03/M05 A3035 RMK
     AO2 P0001 T10331050=
KBMI 101721Z 16017KT 4SM BR OVC004 01/00 A2989 RMK AO2 PRESFR=
KCXY 101721Z 08003KT 3SM BR OVC009 M01/M03 A3039 RMK AO2=
KFCI 101722Z AUTO 03003KT 3SM OVC004 03/M03 A3037 RMK AO1=
KISW 101721Z AUTO 17005KT 3SM BR OVC005 M03/M04 A2986 RMK AO2
     PRESFR T10331039=
KJXN 101721Z 16008KT 3SM BR OVC003 01/00 A3005 RMK AO2 PRESFR
     T00110000=
KRDU 101721Z 03004KT 2SM -RA BR BKN004 BKN032 OVC045 05/04 A3031
     RMK AO2 SFC VIS 3 P0000=

0000009500
672
SPUS41 KWBC 101724
SPECI
KBVY 101719Z 21007KT 6SM HZ OVC009 M01/M03 A3042=

00000000