0000010200
233
SACV20 GVSV 102000
METAR GVSV 102000Z 07023KT 9999 SCT022 BKN200 21/15 Q1015 NOSIG=

0000010800
234
SPUS31 KWBC 101955
SPECI
KCHS 101951Z 14014G18KT 10SM SCT020 BKN040 BKN250 22/19 A3015=

0000061400
235
SAIR32 OIII 111000
METAR OIAA 111000Z 27088KT 4000 BR SCT040 BKN100
14/11 Q1017=
METAR OIBK 111000Z 07008KT 6000 -RA FEW030CB SCT025 OVC080 15/13
Q1019=
METAR OICC 111000Z 13006KT 0800 SN FEW035CB SCT040 OVC060
M01/M01 Q1019 A3010 TEMPO SN=
METAR OIGG 111000Z 32004KT 3000 BR SCT025 BKN100 10/07
Q1014=
METAR OIIE 111000Z 21006KT 2600 -SHSN BR FEW025 SCT035CB SCT045
OVC080 01/M00 Q1020 A3014 NOSIG=
METAR OITR 111000Z 12004KT 2000 HZ SCT035 BKN170 M05/M09 Q1019
NOSIG=
METAR OIYY 111000Z 33004KT 8000 FEW035 09/M03 Q1018=
METAR OAKN 111000Z NIL=
METAR OAKB 111000Z NIL=
0000054700
236
SAIR33 OIII 111000
METAR OIBB 111000Z 12008KT 8000 TSRA FEW030CB SCT035 OVC080 12/10
Q1017 A3004=
METAR OIBP 111000Z 00000KT 3500 1500SE RA SCT020 FEW030CB
OVC080 15/13 Q1019 A3011=
METAR OICK 111000Z NIL=
METAR OICS 111000Z 03006KT 6000 FEW030 SCT035 BKN080 01/M04
Q1018=
METAR OIHH 111000Z 00000KT 2000 BR BKN035 SCT090 M03/M06
Q1018=
METAR OINZ 111000Z 27004KT CAVOK 11/05 Q1015=
METAR OISR 111000Z 13004KT 9999 FEW005 FEW030CB SCT035 OVC080
11/08 Q1021=
METAR OITL 111000Z NIL=
METAR OIZC 111000Z NIL=
0000350200
237
FEUK03 EGRR 111130
Medium Range Guidance Days 6 to 10
Issued at 0030 on 11 January 2014
Period: Thursday 16 January to Monday 20 January 2014

1. Potential Hazards/Warnings:
Heavy rain seems the most likely hazard with unsettled conditions biased
to  the  SW/S  at  first. Still a low risk of ice and snow  mainly  over
higher ground in NE.

2. Days 6/7 - Thursday/Friday:
WEATHER:  Unsettled across the UK with low pressure  to  the  W  pushing
frontal  systems  into  the  country from the  S/SW.  Rain/showers  then
affecting  all  parts at times, likely wettest in areas exposed  to  the
S/SE  winds with those areas to the N/NW of high ground being  the  most
sheltered.  Hill  snow possible in places, mainly N/NE parts.  Windy  at
times  with  risk  gales, mainly in the NE, but  also  in  W  at  times.
Temperatures varying from a little above normal or perhaps  rather  mild
in  the  S  to  a little below normal in the N. Moderate (40%)  prob  of
colder  conditions affecting N Isles with risk snow to low  levels  here
and  very  low  prob  (~10%) these spreading into E Scotland/NE  England
stalling frontal progress here.

EXTREMES COMPARED TO CLIMATOLOGY: Nil
CONFIDENCE: High confidence for S'ly flow bias through this period. Very
low likelihood of systems stalling and colder air pushing into NE parts.

3. Days 8-10 - Saturday to Monday:
WEATHER:  A  NE/SW split seems most likely at first with a very  gradual
transition likely through this period with S'ly flow backing SE/E'ly for
a  time  before mobility begins to push in from the NW. This would  move
unsettled conditions slowly away from the S, allowing a very brief spell
of  more settled weather before unsettled conditions arrive into the NW.
Winds  likely  to be strong at times throughout the period  with  milder
temperatures in the S slowly falling to around or a little below normal.
Temperatures remaining below normal in N, likely rather cold at times.

EXTREMES COMPARED TO CLIMATOLOGY: Nil
CONFIDENCE: Large uncertainty through this period, see discussion below,
with lower than normal confidence.

4. Trend for Days 10-15:
A  W  or  NW'ly  synoptic type dominating or becoming re-established  is
thought  to  be the most likely evolution. Such an evolution would  also
favour  conditions  being unsettled at times and  temperatures  probably
between  normal  and rather cold with overnight frosts,  lowest  in  the
N/NW.  Note,  however, that there is a greater than  average  spread  in
solutions  for  this  period and hence confidence  is  much  lower  than
average for most likely evolution.

5. Discussion:
All deterministic and eps output agrees with the generally S'ly bias  at
the  start  of this forecast period but following this large differences
quickly  grow  with  an almost even split of E'ly and  W'ly  signals  by
Sunday (day 9). In general the evolution looks similar at first with low
pressure  to the W slowly sinking S'wards but following this it  is  the
degree  to  which high pressure is allowed to build to the E of  the  UK
that  is the largest difference. Given the trend from recent model  runs
to  push  back  and  limit  the onset of colder conditions  the  general
indications towards mobility are the current preferred signal  but  with
lower than usual confidence.
Steve Ramsdale
Medium Range Forecaster,Operations Centre, Exeter. TOI: 11/0027
0000066800
238
SAIR34 OIII 111000
METAR OIAG 111000Z 14010KT 4000 SHRA SCT030TCU BKN035 12/11 Q1018=
METAR OIAM 111000Z 12010KT 9999 BKN030CB SCT035 12/11 Q1017=
METAR OICI 111000Z  00000KT 8000 -RA FEW015 FEW025CB SCT035 OVC090
 03/03 Q1016 A3002=
METAR OIKQ 111000Z  34010KT 8000 -RA FEW025CB SCT030 SCT090 14/08
 Q1020=
METAR OINN 111000Z 09004KT CAVOK 11/10 Q1014=
METAR OINR 111000Z 12004KT 8000 FEW045 OVC160 11/07 Q1014=
METAR OISL 111000Z  00000KT 9999 FEW025 FEW035CB OVC090 08/04
 Q1020=
METAR OISY 111000Z  00000KT 0500 RA FEW030CB SCT035 OVC070 01/01
 Q1019=
METAR OITZ 111000Z  16008KT 9999 FEW030CB SCT035 BKN080 01/M04
 Q1016=
0000044700
239
SAIR35 OIII 111000
METAR OIAD 111000Z NIL=
METAR OIBJ 111000Z  08008KT 1000 RA FEW020 SCT030 OVC080 09/09
 Q1020=
METAR OIBS 111000Z 06020KT 9999 SCT035 OVC100 20/15 Q1019=
METAR OIHR 111000Z NIL=
METAR OIKM 111000Z NIL=
METAR OIKR 111000Z NIL=
METAR OING 111000Z 27008KT 5000 HZ SCT030 BKN090 12/07 Q1016=
METAR OIZB 111000Z 09008KT CAVOK 10/M02 Q1023=
METAR OIZI 111000Z 13006KT 9999 FEW020 OVC090 15/M05 Q1021=
0000052600
240
SAIR36 OIII 111000
METAR OIBA 111000Z  12010KT 5000 FEW025CB FEW030 OVC090 21/12
 Q1018=
METAR OIBV 111000Z 03010KT 6000 -RA SCT030 OVC080 14/13 Q1019=
METAR OIFS 111000Z  00000KT 4000 BR FEW025CB SCT030 BKN080 M02/M05
 Q1018=
METAR OIIP 111000Z  12006KT 1200 SN BR SCT030CB SCT035 OVC080
 00/M01 Q1018=
METAR OIMB 111000Z 08006KT 9999 FEW040 SCT100 BKN190 07/M14 Q1019=
METAR OIMN 111000Z NIL=
METAR OIMS 111000Z NIL=
METAR OIMT 111000Z NIL=
METAR OIZJ 111000Z 11004KT CAVOK 20/06 Q1020=
0000014300
241
UANT99 KDDL 111003
ARP UAL126 5308N02853W 1001 F370 5359N02000W 1040 5359N01500W MS58
 200/62 KT
N17139 DDL H17 111003 F98A
0000011000
242
UANT01 CWAO 111002
ARP AAL98 5223N03338W 1002 F370 MS56 201/19 KT
N366AA DDL XXW 111002 F48A
0000008400
243
UAPA01 KWBC 111003
ARP UAL372 2347N 15322W 0956 F350 MS50 225/060KT=
0000010100
244
UAUS31 KWBC 111003
ARP UAL1162 3718N 07157W 0931 F340 MS50 278/073KT TB MOD SK CLEAR=
0000010200
245
UACA31 KWBC 111003
ARP UAL1162 2643N 06927W 0809 F340 MS47 277/052KT TB SMTH SK CLEAR=
0000015700
246
SSVX13 LFPW 111000
ZZYY 64667 11014 1000/ 763131 029219 6113/ 11119 49991 52023 22219
 00064 444 20130 11014 1000/ 50101 80154 80002 9/015=
0000015700
247
SSVX13 LFPW 111000
ZZYY 44773 11014 1000/ 742157 028966 6113/ 11119 40044 52024 22219
 00148 444 20130 11014 1000/ 50101 80118 80006 9/015=
0000014000
248
SNRE20 FMEE 111000
AAXX 11104
61980 22565 51020 10303 20214 40137 81284
  333 58001 60005 81828 85073 90710 91129 92437=
0000017000
249
SAGU31 MGGT 111000
METAR
MGGT 111000Z 36004KT 9999 FEW014 14/13 Q1024 A3024 VOL. PACAYA CON VA
A 9000FT CON DIRECCION S-SSW A UNA DISTANCIA DE 6-10KM=
0000009900
250
SAGD31 TGPY 111000
METAR TGPY 111000Z 09008KT 9999 FEW018 SCT035 23/22 Q1014 NOSIG=
0000386100
251
SNFR30 LFPW 111000
AAXX 11104
07005 22457 72207 10071 20054 30095 40186 53021 8587/
  333 60005 81813 85633 87359 90710 91112 93100=
07015 24350 82410 10069 20055 30119 40177 53016 700//
  333 60005 90710 91115=
07020 26/// /3511 10094 20054 30187 40214 51032
  333 60005 90710 91199 00117=
07027 21662 72907 10076 20070 30125 40207 53030 72162 875//
  333 69925 87648 90710 91111 93100=
07037 21/06 92706 10058 20057 30017 40204 53028 74742
  333 60005 90710 91110 93100=
07072 24668 80000 10052 20049 30079 40197 53026 700//
  333 60005 90710 91105=
07110 22982 10506 10077 20055 30096 40213 52024 80001
  333 60005 81075 90710 91109 93100=
07117 26/// /0307 10088 20052 30142 40213 51027
  333 60005 90710 91111=
07130 24/01 92701 10060 20059 30161 40214 51029 745//
  333 60005 90710 91104=
07139 24157 82802 10062 20062 30032 40209 51031 700//
  333 60005 90710 91106=
07149 22156 62904 10071 20065 30092 40203 53030 83530
  333 60005 81703 83656 85366 90710 91107 93100=
07168 21858 70000 10046 20045 30053 40199 51028 72162 875//
  333 69905 87656 90710 91105 93100=
07181 24344 82402 10048 20045 39776 40194 52019 710//
  333 69925 90710 91108=
07190 24150 80502 10031 20028 30008 40196 51015 700//
  333 69905 90710 91105=
07207 26/// /0902 10077 20071 30164 40217 51029
  333 60005 90710 91105=
07222 22256 83603 10085 20082 30181 40213 51029 876//
  333 60005 87706 90710 91107=
07240 24631 /0000 10064 20058 30072 40210 53033 710//
  333 60005 90710 91105=
07255 22458 82603 10083 20068 30005 40207 52031 887//
  333 60005 88713 90710 91106 93100=
07280 24/04 91802 10052 20049 39928 40207 53023 745//
  333 60005 90710 91104=
07299 22965 71403 10058 20031 39873 40206 53026 82036
  333 60005 81361 87275 90710 91109 93100=
07314 26/// /3413 10094 20078 30183 40211 51030
  333 60005 90710 91119=
07335 212// 82404 10082 20076 30064 40211 53030 71022 886//
  333 60005 88704 90710 91108 93100=
07434 224// 82008 10082 20065 39727 40210 51023 886//
  333 60005 88710 90710 91117 93100=
07460 22984 41804 10083 20035 39813 40206 53024 8303/
  333 60005 83361 90710 91109 93100=
07471 24969 83502 10052 20029 39237 48821 53018 700//
  333 60005 90710 91103=
07481 22580 72014 10108 20065 39921 40210 51024 8153/
  333 60005 81626 87370 90710 91124 93100=
07510 225// 82602 10107 20101 30149 40207 53020 885//
  333 60005 88626 90710 91103=
07535 24460 81805 10085 20070 39900 40216 53019 700//
  333 60005 90710 91112=
07558 24/69 /1303 10071 20062 39374 40214 53014 700//
  333 60005 90710 91108=
07577 22560 80000 10095 20078 30135 40226 51016 878//
  333 60005 81820 87633 90710 91102 93100=
07591 24/// /0202 10049 20012 39204 4//// 50014 700//
  333 60005 90710 91104=
07607 24550 80000 10101 20096 30138 40210 51018 700//
  333 60005 90710 91102=
07621 24463 80000 10094 20070 39777 40213 52018 700//
  333 60005 90710 91104=
07627 22562 81001 10077 20060 39722 40221 51018 875//
  333 60005 87623 90710 91103 93100=
07630 22558 81703 10097 20080 30034 40216 52018 875//
  333 60005 87620 90710 91106 93100=
07643 22560 80305 10110 20084 30211 40221 53014 885//
  333 60005 83628 88640 90710 91108=
07650 22570 71005 10134 20082 30183 40222 51015 878//
  333 60005 81830 87640 90710 91110 93100=
07661 26/// /0507 10123 20089 30062 40224 52016
  333 60005 90710 91113=
07690 22680 63307 10119 20053 30191 40223 53006 82530
  333 60005 82640 85369 90710 91114 93100=
07747 22665 72402 10115 20084 30161 40215 52014 82531
  333 60005 81633 83365 87076 90710 91106=
07761 22980 70505 10108 20080 30204 40215 53007 85089
  333 60005 83366 83370 86174 90710 91106 93100=
07790 22682 51903 10133 20079 30208 40223 52008 81139
  333 60005 81833 84368 90710 91108 93100=
0000154500
252
SNFR31 LFPW 111000
AAXX 11104
07024 24986 /3205 10081 20045 30039 40207 51030 700//
  333 60005 90710 91112=
07031 24258 82806 10067 20064 30032 40208 53029 700//
  333 60005 90710 91111=
07100 26/// /0611 10097 20047 30127 40210 53023
  333 60005 90710 91116=
07103 26/// /0410 10090 20070 30109 40208 51028
  333 60005 90710 91117=
07107 26/// /0407 10103 20057 30192 40214 52025
  333 60005 90710 91112=
07118 24985 /3604 10093 20053 30109 40215 51028 700//
  333 60005 90710 91108=
07120 24669 /3204 10080 20074 30048 40213 51031 700//
  333 60005 90710 91106=
07125 24569 83606 10086 20080 30139 40210 51030 700//
  333 60005 90710 91107=
07134 24/11 93403 10063 20063 30089 40212 52028 710//
  333 60005 90710 91106=
07200 26/// /0706 10100 20083 30185 40208 51027
  333 60005 90710 91112=
07201 24586 /0704 10085 20073 30097 40212 51027 700//
  333 60005 90710 91108=
07203 26/// /0905 10067 20066
  333 60005 90710 91107=
07205 24018 80702 10062 20061 30160 40215 52025 710//
  333 60005 90710 91105=
07217 24/02 93303 10068 20064 30211 40215 51027 745//
  333 60005 90710 91106=
07230 21120 83403 10069 20069 30154 40213 51033 71042 886//
  333 60005 88702 90710 91108 93100=
07235 21130 21801 10069 20063 30145 40209 51030 71011 81601
  333 60005 81702 90710 91102 93100=
07300 26/// /3506 10083 20071 30174 40213 51027
  333 60005 90710 91111=
07306 21256 70205 10081 20075 30103 40212 51031 72842 875//
  333 60005 85704 86616 90710 91110 93100=
00000000