0000011300
333
SPUS41 KWBC 110238
SPECI
KWRI 110234Z AUTO 05002KT 1 1/2SM R06/2600FT BR OVC002 02/02 A3024=

0000011200
334
SPUS42 KWBC 110238
SPECI
KSAV 110234Z 15003KT 1/4SM R01/3500VP6000FT FG BKN005 18/17 A3011=

0000009100
335
SPUS43 KWBC 110238
SPECI
KOMA 110234Z 30006KT 8SM OVC014 01/M01 A2960=

0000020400
336
SACA33 KWBC 110200 RRG
METAR
TFFF 110230Z AUTO 08013KT 9999 -RA FEW025/// SCT032/// BKN052///
     ///TCU 23/20 Q1016=
TFFR 110230Z AUTO 06004KT 9999 FEW030/// ///TCU 24/20 Q1017=

0000051600
337
SAJP31 KWBC 110230 RRA
METAR
RJAA 110230Z 33008KT 9999 FEW030 06/M08 Q1023 NOSIG=
RJAA 110230Z 33008KT 9999 FEW030 06/M08 Q1023 NOSIG RMK 1CU030
     A3022=
RJCC 110230Z VRB02KT 9999 -SHSN FEW020 SCT035 BKN050 M06/M12
     Q1017=
RJCC 110230Z VRB02KT 9999 -SHSN FEW020 SCT035 BKN050 M06/M12 Q1017
     RMK 1CU020 3CU035 6CU050 A3005=
RJTT 110230Z 06005KT 9999 FEW030 06/M05 Q1023 BECMG 12005KT=
RJTT 110230Z 06005KT 9999 FEW030 06/M05 Q1023 BECMG 12005KT RMK
     1CU030 A3023=

0000045400
338
FTCN35 CWAO 110200
TAF CYYZ 110238Z 1103/1206 11006KT P6SM SCT005 OVC015 TEMPO 1103/1106
     5SM -DZ BR OVC005
    FM110600 12008KT 1SM -RA BR OVC003 TEMPO 1106/1109 3SM -RA BR
     OVC005
    FM110900 16008KT 1/2SM -RA FG VV001 TEMPO 1109/1114 2SM -RA BR
     OVC004
    FM111400 20010KT 11/2SM -RA BR OVC003
    FM112200 23015G25KT P6SM -SHRA OVC012
    FM120400 26015G25KT P6SM OVC020
    RMK NXT FCST BY 110600Z=

0000026800
339
FTCN36 CWAO 110200
TAF CYOW 110238Z 1103/1124 07007KT P6SM OVC012 TEMPO 1103/1109 OVC009
    FM110900 08008KT 3SM -FZRA BR OVC003
    FM111300 10008KT 3/4SM -RA BR OVC002
    FM111800 20012G22KT 2SM -RA BR OVC007
    RMK NXT FCST BY 110600Z=

0000041300
340
FTCN37 CWAO 110200
TAF CYHZ 110238Z 1103/1124 21010G20KT P6SM -SHSN OVC007 TEMPO
     1103/1104 P6SM NSW OVC010
    FM110400 21012KT P6SM OVC007 TEMPO 1104/1108 11/2SM -SN -FZDZ BR
     OVC004
    FM110800 21010KT 1SM -SN -FZDZ BR OVC003
    FM111300 20012KT 3/4SM -DZ BR OVC002
    FM111700 20015KT 1SM -RA BR OVC003
     BECMG 1118/1120 19020G30KT
    RMK NXT FCST BY 110600Z=

0000032400
341
FTCN36 CWAO 110200
TAF CYUL 110238Z 1103/1124 02006KT P6SM OVC020 TEMPO 1103/1111 OVC025
    FM111100 10008KT 5SM -FZDZ BR SCT003 OVC020 PROB40 1111/1113 2SM
     -FZRA BR OVC003
    FM111300 12015KT 11/2SM -RA BR OVC005
    FM111500 16018KT 3SM -RA BR SCT009 OVC012
    RMK NXT FCST BY 110600Z=

0000015500
342
SAUS71 KWBC 110200 RRF
METAR
KLCK 110235Z AUTO 15006KT 10SM OVC037 09/06 A2985=
KPQI 110235Z AUTO 17004KT 10SM OVC024 M09/M16 A3023=

0000020800
343
SAUS73 KWBC 110200 RRF
METAR
KCIU 110235Z AUTO 11012KT 3SM OVC004 M02/M02 A2969=
KELO 110232Z AUTO 18005KT 10SM OVC007 M04/M06 A2945=
KLBL 110235Z AUTO 29011KT 10SM CLR M01/M09 A2979=

0000009500
344
SAUS74 KWBC 110200 RRD
METAR
KOTH 110235Z 16004KT 10SM OVC024 11/11 A3005=

0000029600
345
SAUS75 KWBC 110200 RRD
METAR
PADK 110236Z AUTO 21020G34KT 10SM SCT035 BKN044 OVC070 04/M02
     A2881=
PAGS 110236Z AUTO 11005KT 10SM BKN038 OVC045 02/01 A2938=
PAUN 110236Z AUTO 10011KT 10SM SCT065 M15/M22 A2958=
PAVD 110236Z 10SM FEW020 SCT100 BKN150 M07/M08 A2932=

0000009500
346
SPCN46 CWAO 110238
SPECI CYGQ 110238Z 19006KT 8SM OVC006 RMK SF8 BR CIG RAG=

0000057500
347
SAEE31 LOWM 110230
METAR UACK 110230Z 19007MPS 2900 SHSN BLSN BKN046CB OVC086
M09/M11 Q1019 R20/010060 NOSIG RMK QFE741/0988=
METAR UACP 110230Z NIL=
METAR UAII 110230Z 15001MPS CAVOK M05/M10 Q1024 R10/0///70
NOSIG RMK QFE732/0977=
METAR UADD 110230Z 17003MPS 9999 NSC M08/M14 Q1023 NOSIG RMK
QFE710/0946=
METAR UASK 110230Z 13002MPS 9999 BKN083 M10/M15 Q1035
R12/820350 NOSIG RMK QFE750/1001=
METAR UASP 110230Z NIL=
METAR UAOO 110230Z 17006MPS 3300 BR BKN130 M05/M07 Q1022
R24/3///55 NOSIG RMK QFE754/1006=
METAR UAKD 110230Z NIL=

0000015200
348
SAAK31 KWBC 110200 RRC
METAR
PAVD 110236Z 10SM FEW020 SCT100 BKN150 M07/M08 A2932=
PAWG 110236Z 10011KT 10SM BKN050 03/M01 A2941=

0000015400
349
SAUS72 KWBC 110200 RRG
METAR
KBQK 110235Z AUTO 13003KT 10SM BKN010 18/17 A3011=
KLRU 110235Z AUTO 27017G22KT 10SM CLR 10/M09 A3003=

0000018400
350
SAUS73 KWBC 110200 RRG
METAR
KGYY 110235Z AUTO 18008KT 10SM -RA OVC006 06/05 A2960=
KIKK 110235Z AUTO 17013G19KT 10SM DZ SCT006 BKN040 OVC060 04/04
     A2960=

0000045800
351
FTCN35 CWAO 110200 AAA
TAF AMD CYYZ 110242Z 1103/1206 11006KT P6SM OVC025 TEMPO 1103/1106
     5SM BR SCT005 OVC020
    FM110600 12008KT 1SM -RA BR OVC003 TEMPO 1106/1109 3SM -RA BR
     OVC005
    FM110900 16008KT 1/2SM -RA FG VV001 TEMPO 1109/1114 2SM -RA BR
     OVC004
    FM111400 20010KT 11/2SM -RA BR OVC003
    FM112200 23015G25KT P6SM -SHRA OVC012
    FM120400 26015G25KT P6SM OVC020
    RMK NXT FCST BY 110600Z=

0000034500
352
FTCN32 CWAO 110200
TAF CYYC 110242Z 1103/1124 VRB03KT P6SM FEW120 SCT220
    FM110600 20006KT P6SM BKN150
    FM110900 18005KT P6SM SCT080 BKN150 TEMPO 1109/1112 4SM -SN
     BKN060
    FM111200 18008KT P6SM SCT080 BKN150
    FM111800 23012KT P6SM SCT200
     BECMG 1120/1122 26015KT
    RMK NXT FCST BY 110600Z=

00000000