0000124100
253
SAUS73 KWBC 101800 RRC
METAR
KRAP 101752Z 34009KT 10SM CLR 06/M08 A2960=
KRFD 101754Z 15013G20KT 6SM BR OVC006 01/M01 A2985=
KRKS 101754Z AUTO 29020G25KT 10SM BKN016 OVC095 M03/M06 A2988=
KRST 101754Z 16010KT 1 1/4SM R31/6000VP6000FT BR OVC003 M02/M03
     A2970=
KSAW 101750Z 20014G19KT 4SM BR OVC007 M04/M06 A2981=
KSBN 101754Z 16009KT 4SM BR OVC006 02/00 A2998=
KSDF 101756Z 16008KT 10SM OVC010 10/08 A3007=
KSDM 101753Z 00000KT 8SM CLR 19/02 A3011=
KSGF 101752Z 15013KT 9SM -RA SCT004 BKN055 OVC065 06/06 A2972=
KSLN 101753Z 25005KT 4SM BR BKN005 OVC011 02/01 A2960=
KSPI 101752Z 15016KT 2 1/2SM -RA BR OVC004 02/02 A2981=
KSTC 101753Z 17012KT 1 1/2SM BR OVC005 M03/M04 A2964=
KSTJ 101753Z 17005KT 4SM BR OVC003 02/01 A2964=
KSTL 101751Z 17011G17KT 3SM -RA BR BKN006 OVC030 05/03 A2983=
KSTP 101753Z 16010KT 1 3/4SM BR OVC008 M03/M04 A2972=
KSUS 101754Z 15007KT 10SM OVC008 06/04 A2980=
KSUX 101752Z 15008KT 2SM R31/4500V5000FT BR BKN005 OVC009 M01/M01
     A2961=
KTVC 101753Z VRB05KT 2SM BR OVC005 M01/M03 A2994=
KUIN 101754Z AUTO 15012KT 2 1/2SM BR OVC004 02/01 A2972=
KWRL 101753Z AUTO 17006KT 10SM FEW095 M06/M08 A2971=
KYIP 101753Z 19007KT 4SM HZ OVC006 03/01 A3008=

0000170600
254
SAUS74 KWBC 101800
METAR
KACV 101753Z AUTO 16004KT 10SM CLR 11/08 A3028=
KALW 101753Z 20013G20KT 10SM CLR 09/01 A3004=
KBFI 101753Z 18012G23KT 10SM FEW019 SCT080 OVC100 09/05 A3009=
KBFL 101754Z 00000KT 6SM HZ CLR 11/04 A3029=
KBIL 101753Z 23009KT 10SM BKN080 02/M06 A2961=
KBKE 101753Z AUTO 08008KT 10SM BKN050 BKN070 OVC095 02/M02
     A3004=
KBLI 101753Z 17006KT 10SM BKN027 OVC034 08/04 A3001=
KBOI 101753Z 00000KT 10SM OVC110 04/00 A3009=
KBTM 101753Z AUTO 28008G14KT 10SM FEW060 OVC090 01/M06 A2974=
KBUR 101753Z 00000KT 6SM HZ CLR 17/05 A3012=
KBYI NIL=
KBZN 101756Z 06005KT 10SM FEW060 BKN100 01/M07 A2973=
KCDC 101753Z AUTO 00000KT 10SM CLR 06/M03 A3013=
KCEC 101756Z AUTO 16008KT 10SM BKN065 09/09 A3027=
KCLM 101753Z AUTO VRB03KT 10SM BKN110 08/04 A3004=
KCTB 101756Z AUTO 27014KT 10SM CLR 03/M04 A2951=
KCXL NIL=
KEKO 101756Z AUTO 21006KT 10SM CLR 04/M02 A3017=
KEUG 101754Z 16004KT 6SM BR OVC070 09/08 A3023=
KFAT 101753Z 00000KT 4SM HZ CLR 10/04 A3031=
KFLG 101757Z 27008KT 10SM CLR 07/M07 A3015=
KGCN NIL=
KGEG 101753Z 21018G26KT 10SM FEW019 SCT055 BKN160 BKN200 03/M01
     A2985=
KGGW 101753Z AUTO 23006KT 10SM CLR M04/M08 A2950=
KGTF 101753Z 24013KT 10SM CLR 04/M06 A2957=
KHLN 101753Z 25020G30KT 10SM SCT045 04/M03 A2965=
KHQM 101753Z AUTO 18007KT 3SM BR OVC036 A3012=
KIDA 101753Z 19011KT 10SM OVC012 M01/M03 A2994=
KIWA NIL=
KLAS 101756Z 00000KT 10SM SCT250 11/M05 A3012=
KLAX 101753Z 00000KT 4SM HZ SCT160 SCT220 16/09 A3014=
KLGB 101753Z 00000KT 3SM HZ CLR 14/09 A3014=
KLMT 101753Z 15005KT 10SM OVC041 05/M03 A3022=
KLVM 101753Z AUTO 26011G21KT 10SM FEW055 BKN075 BKN095 04/M07
     A2967=

0000169500
255
SAUS74 KWBC 101800 RRA
METAR
KMFR 101753Z 35003KT 4SM BR OVC005 06/04 A3027=
KMLS 101753Z AUTO 25008KT 10SM OVC075 M01/M06 A2957=
KMRY 101754Z 31003KT 8SM CLR 12/07 A3029=
KMSO 101753Z 00000KT 10SM SCT041 BKN055 OVC090 00/M01 A2982=
KMYV 101753Z AUTO 01003KT 8SM CLR 09/04 A3032=
KNTD 101754Z 14008KT 7SM FEW008 SCT120 SCT220 18/12 A3012=
KOAK 101753Z 20003KT 8SM FEW010 SCT180 BKN250 11/08 A3031=
KOGD 101753Z 00000KT 10SM OVC065 02/M03 A3005=
KOLM 101754Z 19004KT 4SM BR SCT006 BKN022 OVC028 07/07 A3013=
KONT 101753Z 00000KT 5SM HZ SCT250 15/07 A3013=
KOTH 101755Z 14003KT 10SM OVC070 11/11 A3023=
KPAE 101753Z 18014KT 10SM FEW012 OVC018 07/05 A3006=
KPDX 101753Z 21013KT 7SM FEW025 BKN070 OVC090 09/06 A3018=
KPHX 101751Z 08006KT 10SM SCT250 13/M03 A3013=
KPIH 101753Z COR 23024G31KT 10SM SCT038 02/M02 A2996=
KPIH 101753Z 23024G31KT 10SM CLR 02/M02 A2996=
KPMD 101753Z 19003KT 10SM CLR 12/M01 A3019=
KPRB 101753Z AUTO 32004KT 10SM CLR 09/04 A3028=
KPRC 101753Z 32008KT 10SM CLR 09/M08 A3017=
KPSP 101753Z 00000KT 10SM FEW200 18/M02 A3013=
KRBL 101754Z AUTO 35009KT 10SM FEW100 09/04 A3032=
KRDD 101753Z 00000KT 10SM CLR 07/04 A3031=
KRDM 101756Z 16005KT 10SM SCT038 BKN050 06/M02 A3010=
KRNO 101755Z 00000KT 10SM FEW075 SCT150 BKN180 OVC250 04/M01
     A3030=
KRNT 101753Z 16011G19KT 10SM -RA OVC019 09/06 A3010=
KSAC 101753Z 35003KT 8SM CLR 09/06 A3032=
KSAN 101751Z 26003KT 8SM FEW017 SCT250 17/07 A3013=
KSBA 101753Z 14006KT 10SM CLR 19/06 A3012=
KSBD NIL=
KSBP 101756Z 33004KT 10SM CLR 19/03 A3022=
KSCK 101755Z VRB03KT 10SM CLR 10/06 A3030=
KSEA 101753Z 20011G18KT 10SM -RA BKN014 OVC020 08/06 A3010=

0000085700
256
SAUS74 KWBC 101800 RRB
METAR
KSFF 101753Z 23006KT 10SM FEW080 05/01 A2989=
KSFO 101756Z 00000KT 8SM FEW003 BKN006 BKN200 12/09 A3031=
KSHR 101753Z AUTO 00000KT 10SM OVC060 00/M06 A2963=
KSJC 101753Z 31004KT 10SM FEW003 BKN160 OVC250 11/07 A3031=
KSLC 101753Z 14010KT 10SM FEW055 BKN065 BKN090 BKN150 03/M04
     A3006=
KSMF 101753Z 35003KT 2SM BR FEW001 BKN250 06/06 A3032=
KSMX 101751Z 32009KT 10SM FEW200 18/04 A3020=
KSNA 101753Z 32003KT 5SM HZ SCT250 15/09 A3015=
KSNS 101753Z 00000KT 10SM CLR 11/05 A3029=
KTIW 101753Z 19014G20KT 10SM OVC013 08/06 A3011=
KTUS 101753Z 17004KT 10SM CLR 13/M05 A3015=
KTVL 101753Z AUTO 00000KT 10SM CLR 02/M04 A3031=
KTWF 101753Z 24022G27KT 10SM CLR 07/M03 A3003=
KUKI 101756Z AUTO 00000KT 10SM CLR 08/05 A3032=
KYKM 101753Z 28012KT 10SM SCT080 12/M02 A2993=
KYUM NIL=

0000169600
257
SAUS75 KWBC 101800
METAR
PABA 101801Z AUTO 27020KT 3SM -SN M26/M29 A2985=
PABE 101753Z 04009KT 10SM OVC006 M09/M09 A2946=
PABI 101753Z 00000KT 4SM -SN BR BKN049 OVC070 M18/M20 A2949=
PABR 101753Z 31009KT 10SM CLR M26/M29 A2994=
PABT 101753Z 00000KT 10SM FEW240 M32/M35 A2967=
PACV 101753Z 04003KT 10SM BKN032 OVC048 M01/M02 A2936=
PACZ 101755Z 11010G14KT 10SM SCT048 M03/M06 A2941=
PADK 101756Z AUTO 24022G27KT 10SM FEW028 BKN035 OVC046 04/01
     A2895=
PADL NIL=
PADU 101756Z 00000KT 10SM BKN043 OVC050 03/M03 A2932=
PAEH 101755Z 13012G19KT 10SM -RA FEW014 BKN044 01/M01 A2936=
PAEI 101758Z AUTO 00000KT 10SM BKN011 OVC060 M18/M20 A2957=
PAEN 101753Z 00000KT 1/4SM FZFG VV002 M04/M04 A2942=
PAFA 101753Z 00000KT 10SM FEW050 OVC085 M17/M21 A2958=
PAFB 101755Z 09003KT 7SM SCT070 OVC090 M19/M22 A2958=
PAGA 101758Z AUTO 00000KT 10SM CLR M23/M25 A2968=
PAGK 101753Z AUTO 00000KT 1 1/2SM -SN BR OVC027 M09/M11 A2933=
PAGS 101756Z AUTO 15007KT 10SM BKN021 BKN026 OVC090 02/01
     A2949=
PAGY 101753Z AUTO 20020G27KT 10SM FEW022 OVC065 03/00 A2942=
PAHO 101753Z 00000KT 10SM OVC013 M01/M04 A2941=
PAIL 101753Z 00000KT 10SM OVC022 M03/M04 A2947=
PAJN 101753Z 06006KT 10SM FEW012 BKN034 BKN049 BKN150 02/01
     A2952=
PAKN 101754Z 00000KT 10SM SCT004 OVC025 M02/M02 A2945=
PAKT 101753Z 18005KT 10SM FEW006 SCT036 BKN055 02/01 A2971=
PALU 101755Z AUTO 08007KT 10SM OVC012 M18/M20 A3004=
PAMC 101753Z AUTO 00000KT 6SM -SN BR FEW050 OVC090 M14/M17
     A2956=
PANC 101753Z 36003KT 7SM -SN BKN005 OVC013 M03/M04 A2941=
PANT 101753Z 08003KT 10SM SCT025 BKN080 01/01 A2971=
PAOM 101753Z 04008KT 10SM BKN090 M11/M15 A2963=

0000138500
258
SAUS75 KWBC 101800 RRA
METAR
PAOR 101753Z 32003KT 8SM -SN BKN044 BKN055 M15/M17 A2939=
PAOT 101753Z 02005KT 10SM CLR M18/M23 A2978=
PAPG 101755Z 24004KT 10SM -SHRA SCT020 BKN037 03/00 A2959=
PASC 101753Z 25012KT 10SM OVC030 M31/M34 A2989=
PASI 101753Z VRB03KT 10SM FEW016 BKN022 OVC038 03/02 A2958=
PASN 101753Z COR 00000KT 4SM -SN BR SCT014 BKN021 00/M01 A2916=
PASN 101753Z AUTO 00000KT 4SM -SN BR BKN014 00/M01 A2916=
PATA 101752Z 27003KT 10SM CLR M31/M34 A2966=
PATC 101755Z AUTO 03021KT 10SM CLR M19/M21 A2973=
PATK 101753Z 00000KT 10SM OVC018 M07/M08 A2941=
PAUN 101756Z AUTO 09016KT 10SM CLR M14/M19 A2959=
PAVD 101756Z 10SM FEW010 BKN070 BKN090 M04/M06 A2938=
PAYA 101753Z 21003KT 10SM SCT012 02/01 A2942=
PGRO NIL=
PGUA 101758Z AUTO 05014KT 10SM FEW020 25/23 A2987=
PGUM 101754Z 06010KT 10SM CLR 26/22 A2987=
PHJH 101750Z 04010KT 15SM VCSH FEW015 SCT030 SCT045 21/19
     A3000=
PHLI 101753Z 04012KT 10SM SCT021 BKN027 BKN037 23/19 A3003=
PHMK 101754Z 02005KT 10SM FEW017 SCT029 SCT035 22/21 A3001=
PHNL 101753Z 32003KT 10SM FEW026 SCT035 SCT041 21/17 A3000=
PHNY 101756Z AUTO 05012G19KT 10SM FEW060 20/18 A3003=
PHOG 101754Z 09004KT 10SM SCT030 21/18 A3000=
PHTO 101753Z 24007KT 10SM FEW026 FEW050 19/14 A3000=
PMDY 101756Z AUTO 10011KT 10SM CLR 19/13 A3023=
PWAK 101755Z 07011KT 10SM FEW020 25/25 A2998=

0000130100
259
SASA31 KWBC 101800
METAR
SEGU 101800Z 12003KT 9999 BKN030 OVC100 30/20 Q1009 RMK A2980
     NOSIG=
SEQU NIL=
SKBO 101800Z 01005KT 9999 FEW020 BKN090 20/05 A3022=
SKBQ NIL=
SKCG NIL=
SKCL NIL=
SKLT NIL=
SKRG NIL=
SKSP NIL=
SMNI NIL=
SMZO 101800Z 04005KT 9999 FEW035 29/20 Q1010 NOSIG=
SMZY NIL=
SOCA 101800Z AUTO 13005KT 060V180 6000 -RA FEW010/// SCT024///
     BKN034/// ///TCU 24/22 Q1010=
SPIM 101800Z 20010KT CAVOK 24/19 Q1011 NOSIG RMK PP000=
SPQT 101800Z 01007KT 9999 BKN030 SCT100 30/23 Q1009 NOSIG RMK
     PP000=
SPQU 101800Z 24009KT 200V280 9999 BKN040 SCT150 19/08 Q1023 NOSIG
     RMK PP000=
SPSO 101800Z /////KT 9999 FEW080 BKN230 26/20 Q1010 RMK BIRD
     HAZARD RWY 22/04 PP000=
SPTN 101800Z 21012KT 180V250 CAVOK 27/16 Q1009 RMK PP000=
SPYL 101800Z 20012KT CAVOK 32/22 Q1009 RMK BIRD HAZARD RWY 17/35
     PP000=
SPZO 101800Z 03013KT 310V060 9999 FEW040TCU SCT050 BKN100 17/06
     Q1027 NOSIG RMK PP000=
SPZO 101800Z NIL=
SVBC NIL=
SVMC 101800Z /////KT 9999 SCT026 25/24 Q1012=
SVMG 101800Z /////KT 9999 SCT010 30/20 Q1012 NOSIG=
SVMI 101800Z 05004KT 9999 FEW016 28/20 Q1014 NOSIG=
SYCJ 101800Z 04012KT 9999 BKN024 29/20 Q1010 NOSIG=
SYCJ 101800Z 04012KT 9999 BKN024 30/20 Q1010 NOSIG=
SYTM NIL=

0000108800
260
SASA32 KWBC 101800
METAR
SCAR 101800Z 21012KT CAVOK 25/18 Q1010=
SCBA 101800Z 31027G37KT 9999 FEW040 BKN200 15/02 Q1014=
SCCF 101800Z 26020KT CAVOK 23/05 Q1022=
SCCH NIL=
SCCI 101800Z 24022KT 9999 FEW025 SCT040 BKN100 10/02 Q1009
     NOSIG=
SCDA 101800Z 21013KT CAVOK 25/15 Q1011=
SCEL 101800Z NIL=
SCFA 101800Z 20014KT 9999 FEW025 SCT260 24/15 Q1011 NOSIG=
SCGE NIL=
SCIE 101800Z 24015KT CAVOK 22/11 Q1015=
SCIP 101800Z 10010KT 9999 SCT020 26/18 Q1021 NOSIG=
SCTE 101800Z 12013KT 9999 SCT040 16/06 Q1022 NOSIG=
SGAS 101800Z 01015KT 230V030 9999 SCT040 36/21 Q1007=
SGES 101800Z 36008G16KT 9999 BKN033 FEW040TCU 34/24 Q1008=
SLCB 101800Z 19005KT 9999 FEW027 FEW030CB 27/01 Q1021=
SLCZ NIL=
SLLP 101800Z 13012KT 080V180 9999 VCTS SCT017 FEW020CB BKN200
     16/02 Q1034=
SLTJ 101800Z 09006KT 9999 NSC 31/11 Q1014=
SLTR 101800Z 34008KT 9999 SCT017 30/24 Q1010=
SLVR 101800Z 36012KT 9999 BKN017 30/22 Q1009=
SUAA NIL=
SUCA NIL=
SULS NIL=
SUMU 101800Z 35006KT CAVOK 28/21 Q1007 NOSIG=
SUPE NIL=
SURV NIL=
SUSO NIL=

0000030300
261
SASA41 KWBC 101800
METAR
SEMT 101800Z 20010KT 9999 OVC020 28/22 Q1010=
SEMT 101800Z NIL=
SEPA NIL=
SKBG NIL=
SKMD NIL=
SKPE NIL=
SKSM NIL=
SKVG NIL=
SMJP 101800Z 07011KT 9999 ?SHRA BKN035 28/22 Q1010 NOSIG=
SMJP 101800Z 07011KT 9999 -SHRA BKN035 28/22 Q1010 NOSIG=

0000024100
262
SASA42 KWBC 101800
METAR
SCAC NIL=
SCHA NIL=
SCSE 101800Z 28011KT CAVOK 21/14 Q1013=
SCTC NIL=
SCTI NIL=
SCVD NIL=
SELT 101800Z 18014KT 9999 SCT030 19/10 Q1026=
SUAG NIL=
SUDU NIL=
SUPU NIL=
SUTB NIL=

0000010600
263
SACN62 CYCY 101800
METAR CYCY 101800Z 36005KT 15SM SCT160 M30/M33 A2909 RMK AS4 SLP855=

0000012000
264
SACN62 CYEV 101800
METAR CYEV 101800Z 28010G16KT 10SM IC DRSN BKN040 M26/M29 A2971 RMK
 SC5 SLP070=

0000013700
265
SACN62 CYCG 101800
METAR CYCG 101800Z 20013KT 15SM FEW015 FEW035 BKN065 OVC100 02/00
 A2980 RMK SF1SC1SC3AC3 SLP108=

0000013100
266
SACN62 CYDF 101800
METAR CYDF 101800Z 25016G22KT 10SM -SN DRSN FEW015 BKN032 M06/M11
 A3012 RMK SC2SC5 SLP201=

0000010200
267
SALC31 TLPL 101800
METAR TLPL 101800Z 08018KT 9999 FEW026 SCT070 28/22 Q1014 NOSIG=

0000014500
268
SACN62 CYBW 101800
METAR CYBW 101800Z 29011KT 30SM FEW060 FEW130 SCT170 SCT210 M05/M12
 A2944 RMK SC1AC2AC1CI1 SC TR SLP021=

0000012400
269
SACN62 CYOW 101800
METAR CYOW 101800Z 05005KT 10SM -SN OVC008 M07/M10 A3024 RMK SC8 VRY
 LGT SN SLP248=

0000012900
270
SACN62 CYHZ 101800
METAR CYHZ 101800Z 23018KT 15SM FEW030 BKN120 BKN250 M02/M08 A3039
 RMK SC1AC4CC1 SLP302=

0000013300
271
SACN62 CYGL 101800
METAR CYGL 101800Z 23013G21KT 2SM -SN OVC008 M07/M08 A2967 RMK SC8
 VIS VRB 1-3 /S02/ SLP065=

0000013500
272
SACN62 CYKA 101800
METAR CYKA 101800Z 33003KT 30SM -SHGS FEW015 BKN065 BKN110 M00/M02
 A2985 RMK SF2SC4AC1 SLP125=

00000000