0000016000
993
FTAU33 YBBN 101700 AAA
TAF AMD YSRI 101717Z 1018/1112
VRB03KT 9999 FEW030
BECMG 1023/1101 09010KT CAVOK
PROB40 1018/1021 0200 FG
RMK=

0000022200
994
FCFR22 LFPW 101700 RRA
TAF LFBM 101700Z 1018/1103 12005KT CAVOK BECMG 1101/1103 0600 FG
 VV///=
TAF LFMO 101700Z 1018/1103 VRB02KT CAVOK
BECMG 1022/1024 8000 BKN020
TEMPO 1023/1102 SCT010 BKN020=

0000020200
995
FCFR23 LFPW 101700 RRA
TAF LFOE 101700Z 1018/1103 18010KT 9999 BKN010
BECMG 1018/1020 3000 BR BKN004
BECMG 1020/1023 15005KT 0800 FG BKN002
PROB40 TEMPO 1023/1103 0150 FG VV///=

0000014800
996
FCFR24 LFPW 101700 RRA
TAF LFSO 101700Z 1018/1103 13003KT CAVOK
TEMPO 1021/1103 3000 BR
PROB30 TEMPO 1023/1103 0800 FG VV///=

0000076800
997
SAVN21 SVMR 101700
METAR SVJC 101700Z AUTO 08018KT 9999 FEW013 31/18 Q1013=
METAR SVLO 101700Z NIL=
METAR SVGI 101700Z NIL=
METAR SVMN 101700Z NIL=
METAR SVVL 101700Z NIL=
METAR SVGU 101700Z 05010KT 9999 FEW020 32/19 Q1013=
METAR SVJM 101700Z /////KT CAVOK 31/// Q1013=
METAR SVCZ 101700Z NIL=
METAR SVVP 101700Z NIL=
METAR SVVG 101700Z /////KT 9999 SCT013 SCT100 31/23 Q1012=
METAR SVMD 101700Z 16008KT 9999 FEW033 24/14 Q1021=
METAR SVCL 101700Z NIL=
METAR SVSA 101700Z /////KT 9999 FEW020 32/27 Q1014=
METAR SVGD 101700Z 02010KT 9999 FEW023 31/19 Q////=
METAR SVSR 101700Z /////KT 9999 FEW016 BKN300 31/// Q1015=
METAR SVTM 101700Z NIL=
METAR SVPA 101700Z /////KT 9999 SCT013 31/12 Q1011=
METAR SVSE 101700Z NIL=

0000011700
998
FTNT31 KWBC 101718
TAF
TAF LPBJ 101705Z 1018/1118 VRB02KT CAVOK
      BECMG 1108/1110 12005KT=

0000040900
999
FTUS73 KWBC 101718
TAF
TAF AMD KOFF 1017/1116 16009KT 0400 FZFG OVC002 620026 QNH2959INS
      BECMG 1020/1021 25009KT 3200 BR OVC003 620035 QNH2955INS
      BECMG 1021/1022 25009KT 3200 -SN OVC005 620055 QNH2955INS
      BECMG 1101/1102 30009KT 9999 NSW OVC015 620154 QNH2959INS
      BECMG 1105/1106 30007KT 9999 SCT015 SCT140 QNH2961INS
      T03/1021Z TM07/1110Z AMD 101711=

0000016800
000
SACN62 CYXC 101700 CCA
METAR CYXC 101700Z CCA 00000KT 20SM FEW010 FEW040 SCT120 BKN150
 BKN240 M06/M07 A2963 RMK SF1SC1AC3AC1CI2 SF TR SH W SLP073=

0000015100
001
SAUS71 KWBC 101700 RRE
METAR
KLCK 101715Z AUTO 16005KT 7SM OVC005 05/03 A3019=
KPQI 101715Z AUTO 16004KT 10SM CLR M11/M22 A3028=

0000047400
002
FTTH33 VTBB 101700 RRA
TAF VTUD 101700Z 1018/1118 06005KT 8000 NSC
    BECMG 1022/1024 07005KT 6000 NSC=
TAF VTUI 101700Z 1018/1118 10006KT 8000 NSC 
    BECMG 1022/1024 09005KT 6000 NSC=
TAF VTUK 101700Z 1018/1118 08005KT 8000 NSC
    BECMG 1022/1024 07005KT 6000 NSC=
TAF VTUL 101700Z 1018/1118 05005KT 6000 NSC 
    BECMG 1022/1024 06005KT 4000 BR NSC=
TAF VTUW 101700Z 1018/1118 07005KT 8000 NSC
    BECMG 1022/1024 06005KT 6000 NSC=

0000013700
003
SAUS72 KWBC 101700 RRE
METAR
TNCM 101700Z 08015KT 050V110 9999 FEW017TCU SCT035 28/19 Q1017
     A3005 TEMPO SHRA=

0000021300
004
SAUS73 KWBC 101700 RRD
METAR
KCIU 101715Z AUTO 16010KT 1 1/4SM OVC003 M03/M03 A2998=
KELO 101710Z AUTO 17010KT 7SM OVC009 M08/M09 A2963=
KLBL 101715Z AUTO 32014G18KT 10SM CLR 07/M03 A2975=

0000010200
005
SAUS74 KWBC 101700 RRC
METAR
KOTH 101715Z 11004KT 10SM FEW024 OVC070 10/09 A3023=

0000017700
006
FTAU33 YBBN 101700 AAB
TAF AMD YWLM 101718Z 1018/1112
VRB03KT 9999 FEW030
BECMG 1023/1101 11010KT 9999 FEW030
BECMG 1105/1107 07015KT 9999 FEW030
RMK=

0000232700
007
SPUS70 KWBC 101718
SPECI
KGMU 101714Z 05006KT 2SM -RA BR BKN004 OVC011 07/06 A3026 RMK AO2
     RAB01 P0001=
KBMQ 101714Z AUTO 21010G18KT 9SM FEW024 BKN036 OVC060 19/13 A2992
     RMK AO2 T01940133=
KBOK 101714Z AUTO 13005KT 10SM SCT004 OVC060 09/09 A3026 RMK AO2
     $=
KDNL 101714Z AUTO 33009KT 2SM RA BR OVC003 08/07 A3023 RMK AO2 VIS
     1 1/2V3 CIG 002V007 P0005 T00780067 TSNO=
KPIL 101714Z AUTO 18018G25KT 7SM BKN013 BKN020 OVC037 23/20 A2990
     RMK AO2 PK WND 18026/1656=
KHKY 101714Z 00000KT 1SM RA BR SCT001 BKN014 OVC021 04/03 A3028
     RMK AO2 RAB1658 P0011=
KLFT 101714Z 15006KT 10SM OVC006 16/14 A3004 RMK AO2 PRESFR=
KLPR 101714Z AUTO 19008KT 7SM OVC011 04/01 A3016 RMK AO2 P0001=
KTIW 101714Z 19012G18KT 10SM BKN009 OVC014 08/06 A3010 RMK AO2 CIG
     007V011=
KZZV 101714Z AUTO 15005KT 5SM BR OVC005 04/03 A3021 RMK AO2=
KIMT 101714Z AUTO 16006KT 2SM BR OVC006 M06/M07 A2985 RMK AO2=
KMTO 101714Z AUTO 16012KT 2 1/2SM HZ OVC013 03/M01 A2996 RMK AO2
     UPE1655RAB1655E09 P0000 T00281006 TSNO=
KAMW 101714Z AUTO 13006KT 3/4SM BR OVC002 M01/M01 A2970 RMK AO2
     T10061011=
KDXR 101714Z 00000KT 1SM -SN BR OVC009 M01/M03 A3041 RMK AO2
     P0001=
KFAY 101714Z AUTO 03005KT 4SM -RA BR BKN065 OVC090 10/09 A3027 RMK
     AO2 P0002=
PAHC 101714Z AUTO 01008KT 2SM -SN SCT005 BKN016 OVC049 M14/M17
     A2956 RMK AO2 TSNO P0000 $=
PAKW 101714Z AUTO 15004KT 9SM -RA FEW009 BKN026 BKN040 02/01 A2966
     RMK AO2 RAB1654 P0002 T00220011 TSNO=
PALP 101712Z 26010KT 20SM FEW110 M32/M35 A2991=
KTDR 101715Z AUTO 08003KT 3SM BR OVC002 16/ A3014 RMK AO2 $=
KICT 101715Z 24013KT 10SM BKN012 07/06 A2962 RMK AO2=
KINT 101715Z 05006KT 3SM -RA BR BKN005 OVC010 02/01 A3031 RMK AO2
     UPE1655RAB09 CIG 003V008 P0000=
KLAF 101715Z 14005KT 10SM OVC028 03/01 A3000 RMK AO2 T00280006=
KLEB 101715Z 00000KT 7SM SCT026 OVC060 M07/M11 A3036 RMK AO2
     T10671111=
KROG 101715Z 21003KT 5SM RA BR SCT007 BKN020 OVC038 09/09 A2979
     RMK AO2 P0005=
KRVS 101716Z 20010KT 10SM BKN009 OVC012 12/10 A2971 RMK AO2=
KTOP 101715Z 14007KT 1SM BR OVC004 03/02 A2967 RMK AO2
     T00280017=
K1M4 101715Z AUTO 13006KT 10SM OVC006 09/08 A3014 RMK AO2=
KBED 101715Z 20004KT 6SM BR BKN014 BKN019 OVC029 M02/M04 A3041 RMK
     AO2=

0000012200
008
SPUS41 KWBC 101718
SPECI
KCEF 101714Z 18003KT 3/4SM R23/P6000FT -SN BR SCT003 OVC009
M02/M02 A3041=

0000009500
009
SASA31 KWBC 101700 RRB
METAR
SVBC 101700Z 36009KT 9999 FEW010 32/18 Q1014=

0000023600
010
FTCN31 CWAO 101700 AAA
TAF AMD CYPR 101718Z 1017/1101 22012KT P6SM FEW025 BKN040 OVC050
     TEMPO 1017/1101 6SM -RA BR BKN025
     BECMG 1020/1022 12012G22KT
    RMK FCST BASED ON AUTO OBS. NXT FCST BY 101900Z=

0000010100
011
SPUS44 KWBC 101718
SPECI
KTIW 101714Z 19012G18KT 10SM BKN009 OVC014 08/06 A3010=

0000009500
012
SAVN42 KWBC 101700 RRA
METAR
SVSO 101700Z 00000KT 9999 SCT023 29/22 Q1014=

00000000