0000020900
453
SAUS73 KWBC 101800 RRG
METAR
KCIU 101835Z AUTO 16006KT 3SM OVC006 M02/M03 A2992=
KELO 101832Z AUTO 18007KT 7SM OVC009 M06/M08 A2958=
KLBL 101835Z AUTO 31014G19KT 10SM CLR 09/M06 A2971=

0000009500
454
SAUS74 KWBC 101800 RRD
METAR
KOTH 101835Z 00000KT 10SM OVC070 11/11 A3024=

0000016500
455
SAAK31 KWBC 101800 RRB
METAR
PAVD 101836Z 10SM FEW010 BKN070 BKN090 M04/M06 A2938=
PAWG 101836Z 19006KT 8SM FEW006 BKN020 BKN045 03/M01 A2965=

0000033000
456
SAUS75 KWBC 101800 RRF
METAR
PADK 101836Z AUTO 24018G29KT 10SM FEW020 BKN030 OVC060 04/01
     A2895=
PAGS 101836Z AUTO 13007KT 10SM SCT022 SCT027 BKN033 02/01
     A2950=
PAUN 101836Z AUTO 09014KT 10SM FEW049 BKN080 BKN120 M13/M20
     A2960=
PAVD 101836Z 10SM FEW010 BKN070 BKN090 M04/M06 A2938=

0000057800
457
FTUS53 KWBC 101839 AAA
TAF AMD
KDPA 101836Z 1019/1118 15010KT 1 1/2SM BR OVC002
     FM101930 16012G16KT 2SM RA BR OVC003
     FM110300 19012KT 1 1/2SM -DZ BR VCSH OVC004
     FM110800 22012KT 3SM BR OVC004
     FM111200 26012G18KT P6SM OVC012=
KLAN 101835Z 1019/1118 17007KT 5SM BR OVC006
      TEMPO 1019/1020 1 1/2SM BR OVC004
     FM102000 16010KT 2SM -RA BR OVC009
     FM102345 16012KT 2SM RA BR OVC009
     FM110200 16016G23KT 1 1/2SM -RA BR OVC005
     FM110500 18013G21KT 1SM -RA BR OVC003
     FM111400 22012KT 1SM BR OVC004=

0000037400
458
FTUS51 KWBC 101839 AAA
TAF AMD
KACY 101837Z 1019/1118 13004KT 1 1/2SM -SHRA BR BKN003 OVC025
      TEMPO 1019/1021 3SM BR SCT003 BKN025
     FM102100 15004KT 3SM BR BKN008 BKN025
     FM110200 16007KT 1SM BR BKN005 OVC015
     FM110600 16010KT 2SM -RA BR BKN004 OVC010 WS020/19050KT
     FM111500 18015KT 1SM RA BR BKN003 OVC010 WS020/21050KT=

0000052400
459
FTUS80 KWBC 101839 AAB
TAF AMD
KMDW 101836Z 1019/1118 15010KT 2SM BR OVC003
     FM102000 16012G16KT 2SM RA BR OVC004
     FM110300 20012KT 2SM -DZ BR VCSH OVC004
     FM110800 22012KT 3SM BR OVC004
     FM111200 26012G18KT P6SM OVC012=
KORD 101836Z 1019/1124 15010KT 1 1/2SM BR OVC003
     FM102000 16012G16KT 2SM RA BR OVC004
     FM110300 20012KT 2SM -DZ BR VCSH OVC004
     FM110800 22012KT 3SM BR OVC004
     FM111200 26012G18KT P6SM OVC012
     FM111500 28014G22KT P6SM BKN018=

0000141600
460
FTUS80 KWBC 101839 AAA
TAF AMD
KACY 101837Z 1019/1118 13004KT 1 1/2SM -SHRA BR BKN003 OVC025
      TEMPO 1019/1021 3SM BR SCT003 BKN025
     FM102100 15004KT 3SM BR BKN008 BKN025
     FM110200 16007KT 1SM BR BKN005 OVC015
     FM110600 16010KT 2SM -RA BR BKN004 OVC010 WS020/19050KT
     FM111500 18015KT 1SM RA BR BKN003 OVC010 WS020/21050KT=
KDPA 101836Z 1019/1118 15010KT 1 1/2SM BR OVC002
     FM101930 16012G16KT 2SM RA BR OVC003
     FM110300 19012KT 1 1/2SM -DZ BR VCSH OVC004
     FM110800 22012KT 3SM BR OVC004
     FM111200 26012G18KT P6SM OVC012=
KGYY 101836Z 1019/1118 16010KT 3SM BR OVC004
     FM102030 15012G16KT 2SM RA BR OVC005
     FM110400 19012KT 2SM -DZ BR VCSH OVC005
     FM110800 22012KT 3SM BR OVC004
     FM111200 26012G18KT P6SM OVC012=
KILN 101837Z 1019/1118 17008KT 2SM BR OVC005
      TEMPO 1019/1021 1/2SM FG OVC002
     FM102100 15010KT 3SM BR OVC008
     FM110100 15012KT 4SM BR VCSH OVC012
     FM110500 17014G22KT 4SM -RA BR OVC007
     FM111300 22014G24KT P6SM VCSH OVC013
     FM111600 24014G25KT P6SM OVC016=
KLAN 101835Z 1019/1118 17007KT 5SM BR OVC006
      TEMPO 1019/1020 1 1/2SM BR OVC004
     FM102000 16010KT 2SM -RA BR OVC009
     FM102345 16012KT 2SM RA BR OVC009
     FM110200 16016G23KT 1 1/2SM -RA BR OVC005
     FM110500 18013G21KT 1SM -RA BR OVC003
     FM111400 22012KT 1SM BR OVC004=

0000009300
461
SPUS31 KWBC 101839
SPECI
KCVG 101834Z 17009KT 2SM BR OVC003 08/08 A3006=

0000009100
462
SPUS43 KWBC 101839
SPECI
KMBS 101835Z 16008KT 7SM OVC009 01/M01 A3000=

0000012400
463
SAAK32 KWBC 101800 RRB
METAR
PADK 101836Z AUTO 24018G29KT 10SM FEW020 BKN030 OVC060 04/01
     A2895=

0000009100
464
SPUS41 KWBC 101841
SPECI
KERI 101837Z 19009KT 10SM OVC014 04/01 A3014=

0000010800
465
SPUS42 KWBC 101841
SPECI
KSAT 101837Z 23009G16KT 10SM SCT015 BKN029 OVC250 21/16 A2987=

0000015500
466
SANG31 YBBN 101800 RRA
METAR AYPY 101800Z 00000KT 2000M +FG BKN003 25/25 Q1005=
METAR AGGH 101800Z 18002KT 9999 HZ FEW015 24/23 Q1005=

0000012100
467
SPCN51 CWAO 101839
SPECI CZCP 101839Z AUTO 28024KT 2 1/4SM -SN CLR M28/ A2936 RMK VSBY
VRBL 1.0V7.0=

0000038500
468
SAEE31 LOWM 101830
METAR UACK 101830Z 22006MPS 9999 DRSN OVC013CB M08/M10 Q1021
R20/450342 NOSIG RMK QFE742/0989=
METAR UACP 101830Z NIL=
METAR UAII 101830Z 08001MPS 5000 BR BKN100 M07/M10 Q1028
R28/0///70 NOSIG RMK QFE733/0978=
METAR UADD 101830Z NIL=
METAR UASK 101830Z NIL=
METAR UASP 101830Z NIL=
METAR UAOO 101830Z NIL=
METAR UAKD 101830Z NIL=

0000035300
469
SAPO31 LPMG 101830
METAR LPBJ 101830Z NIL=
METAR LPFR 101830Z 00000KT CAVOK 14/09 Q1012=
METAR LPMA 101830Z 01009KT 9999 FEW015 17/13 Q1014 RS34004KT
0502008KT 2301010KT=
METAR LPPR 101830Z 34006KT CAVOK 11/09 Q1015=
METAR LPPS 101830Z 04005KT 360V070 9999 SCT012 17/15 Q1015=
METAR LPPT 101830Z 34008KT CAVOK 13/11 Q1013=

0000009500
470
SPCN45 CWAO 101838
SPECI CYHY 101838Z 29003KT 15SM SCT030 BKN230 RMK SC3CI1=

0000024800
471
SAIO31 KWBC 101800 RRH
METAR
WBGG 101830Z 24002KT 9999 -RA SCT020 BKN150 23/23 Q1011 NOSIG=
WBKK 101830Z 10003KT 9999 FEW014 SCT140 BKN280 24/23 Q1010
     NOSIG=
WBSB 101830Z 20002KT 9999 FEW005 BKN300 25/24 Q1011 NOSIG=

0000033600
472
SAPO32 LPMG 101830
METAR LPAZ 101830Z 19016KT 9999 SCT009 BKN022 16/14 Q1012=
METAR LPFL 101830Z 19011KT 150V230 9999 FEW018 13/07 Q1008=
METAR LPHR 101830Z VRB02KT 4000 -DZ BR SCT003 BKN008 BKN025 13/12
Q1008=
METAR LPLA 101830Z NIL=
METAR LPPD 101830Z 18016KT 9000 VCSH SCT006 BKN014 BKN025 16/15
Q1011=

00000000