0000009700
713
SAAK32 KWBC 110100 RRB
METAR
PADL 110145Z 03008KT 10SM OVC010 M04/M04 A2945=

0000020500
714
SAAY31 RUMS 110200
METAR UDYZ 110200Z 00000MPS 2000 BR BKN008 M10/M11 Q1026 R09/000070
NOSIG=
METAR UDSG 110200Z 00000MPS M0075 R02/0300N FZFG VV001 M18/M20 Q1020
R02/CLRD70 NOSIG=

0000096800
715
SAKZ31 RUMS 110200
METAR UAAA 110200Z 14002MPS 090V200 1000 R05L/1400U R05R/1200U BR FU
SCT200 M16/M19 Q1025 8891//60 NOSIG=
METAR UACC 110200Z 18008MPS 9999 -SN DRSN OVC029 M08/M10 Q1023
R22/8/0050 NOSIG RMK QFE736/0981=
METAR UAKK 110200Z 18010MPS 9999 OVC026 M14/M17 Q1026 R23/850555
NOSIG RMK QFE722/0963=
METAR UAOO 110200Z 17006MPS 3300 BR BKN130 M05/M07 Q1022 NOSIG RMK
QFE754/1006=
METAR UARR 110200Z 21005MPS 9999 BKN007 OVC026 00/M00 Q1009
R22/750245 NOSIG RMK QFE753/1005=
METAR UATE 110200Z 11004MPS 0550 R12/0900V1500U FZFG VV001 M01/M01
Q1017 R12/0///70 BECMG 1500 BR BKN004 RMK QBB040 QFE761/1015=
METAR UATG 110200Z 19004MPS 5000 BR OVC032 01/01 Q1015 R14/19//65
NOSIG RMK QFE763/1018=
METAR UATT 110200Z 24002MPS 8000 OVC002 M01/M01 Q1010 R13/890545
NOSIG RMK QBB080 QFE738/0984=
METAR UAUU 110200Z 17006MPS 9999 -SHSN OVC022CB M08/M10 Q1013 TEMPO
17012MPS 2000 -SHSN BLSN BKN005CB RMK QFE744/0992=

0000024600
716
SATA31 RUMS 110200
METAR UTDD 110200Z VRB01MPS 0450 R09/0050VP1500D BR VV001 M09/M10
Q1026 09CLRD70 NOSIG RMK QBB030 QFE701/0935=
METAR UTDL 110200Z 07008G12MPS 4400 BR BKN210 M03/M07 Q1027 NOSIG RMK
QFE731/0974 8819//65=

0000064200
717
SAEE31 LOWM 101800
METAR UACK 101800Z 22008MPS 9999 DRSN OVC013CB M08/M10 Q1021
R20/450342 NOSIG RMK QFE742/0989=
METAR UACP 101800Z NIL=
METAR UAII 101800Z 00000MPS 4000 BR BKN100 M06/M10 Q1028
R28/0///70 NOSIG RMK QFE733/0978=
METAR UADD 101800Z VRB01MPS 9999 NSC M10/M15 Q1028 NOSIG RMK
QFE713/0951=
METAR UASK 101800Z 14004MPS 9999 BKN051 OVC130 M07/M15 Q1036
R12/820350 NOSIG RMK QFE751/1002=
METAR UASP 101800Z 21004MPS 9999 -SHSN BKN033CB M09/M12
Q1029 R21/451045 NOSIG RMK QFE760/1014=
METAR UAOO 101800Z 16005MPS 5000 BR BKN160 M05/M07 Q1026
NOSIG RMK QFE758/1010=
METAR UAKD 101800Z NIL=

0000013900
718
SAOS33 LOWM 101800
METAR LOAN 101800Z NIL=
METAR LOAV 101800Z NIL=
METAR LOIH 101800Z NIL=
METAR LOWZ 101800Z NIL=

0000027100
719
FTCN36 CWAO 101800 AAA
TAF AMD CYVP 101811Z 1018/1106 26015G25KT 3SM -SN OVC030 TEMPO
     1018/1021 11/2SM -SN BKN020
    FM102100 26015KT P6SM OVC030 TEMPO 1021/1024 5SM -SN BKN020
    FM110200 26008KT P6SM SCT030
    RMK NXT FCST BY 110000Z=

0000009500
720
SAUS71 KWBC 101800 RRE
METAR
KAPG 101755Z 00000KT 2SK -DZ BR OVC020 A3037=

0000010200
721
SAUS73 KWBC 101800 RRD
METAR
KOFF 101758Z COR 15002KT 1/4SM FG VV002 01/01 A2960=

0000010800
722
SAAG05 SABM 101800 RRB
METAR SASJ 101800Z  09006KT 9999  FEW025 SCT040TCU
 33/17 Q1007=

0000056300
723
SASG21 GOOY 101800
METAR GOSS 101800Z 02008KT CAVOK 20/15 Q1012=
METAR GOSP 101800Z 02004KT CAVOK 23/09 Q1012=
METAR GOOG 101800Z 06004KT CAVOK 25/10 Q////=
METAR GOSM 101800Z 34006KT CAVOK 26/12 Q1012=
METAR GOOD 101800Z 36004KT CAVOK 26/09 Q1012=
METAR GOTT 101800Z 02004KT CAVOK 32/13 Q1009=
METAR GOOK 101800Z 04006KT CAVOK 27/12 Q1012=
METAR GOGG 101800Z 34004KT CAVOK 27/15 Q1011=
METAR GOGS 101800Z 34012KT CAVOK 23/17 Q1011=
METAR GOGK 101800Z 36006KT CAVOK 31/11 Q1009=
METAR GOTK 101800Z 32006KT CAVOK 31/06 Q1009=

0000018600
724
FTHW31 KWBC 101809 AAA
TAF AMD
PHLI 101807Z 1018/1118 04013KT P6SM VCSH SCT022 SCT040
      TEMPO 1018/1020 BKN022
     FM111200 07010KT P6SM VCSH SCT020 SCT040=

0000014700
725
FTPA32 KWBC 101809
TAF
TAF NVVV 101805Z 1018/1118 09009KT 9999 SCT020 BKN040 PROB30
      INTER 1018/1024 9000 -SHRA OVC018=

0000018600
726
FTUS80 KWBC 101809 AAA
TAF AMD
PHLI 101807Z 1018/1118 04013KT P6SM VCSH SCT022 SCT040
      TEMPO 1018/1020 BKN022
     FM111200 07010KT P6SM VCSH SCT020 SCT040=

0000011300
727
SPUS41 KWBC 101809
SPECI
KPSM 101804Z 22006KT 4SM -SN BR FEW020 BKN043 OVC110 M02/M04 A3039=

0000084300
728
SPUS70 KWBC 101810
SPECI
KARB 101806Z 18009KT 3SM BR OVC002 02/01 A3006 RMK AO2=
KDEQ 101806Z AUTO 16010KT 1SM +RA BR BKN006 OVC010 13/13 A2981 RMK
     AO2 P0006 T01330128=
KGED 101806Z AUTO 05003KT 1 1/2SM RA BR SCT003 OVC017 04/03 A3037
     RMK AO2 P0002 T00390028=
KHGR 101806Z 00000KT 3SM HZ BKN010 BKN075 03/00 A3032 RMK AO2
     T00280000=
KIML 101806Z AUTO 33024G28KT 10SM BKN019 OVC043 02/M02 A2961 RMK
     AO2 PK WND 33028/1806=
PABA 101806Z AUTO 27022KT 1 3/4SM -SN M26/M29 A2986 RMK AO2 P0000
     FZRANO $=
KTVR 101807Z AUTO 15013G21KT 10SM SCT013 OVC048 14/11 A3000 RMK
     AO2 PRESFR T01440106 TSNO=
KUZA 101807Z AUTO 03007KT 2SM -RA BR OVC003 06/04 A3023 RMK AO2
     RAB02 P0000 T00560044=
PABA 101806Z AUTO 27022KT 1 3/4SM -SN M26/M29 A2986 RMK AO2 P0000
     FZRANO $=

0000011000
729
SABX31 EBBR 101750 CCA
METAR COR EBOS 101750Z 19009KT 9999 SCT012 05/03 Q1016 TEMPO BKN010=

0000014700
730
SACN62 CYYZ 101800
METAR CYYZ 101800Z 18003KT 1SM R24R/6000FT/N R23/4500VP6000FT/N BR
 OVC003 M01/M02 A3016 RMK FG1ST7 SLP224=

0000010600
731
SACN62 CYYQ 101800
METAR CYYQ 101800Z 28005KT 15SM BKN270 M28/M32 A2969 RMK CI7 SLP059=

0000012800
732
SACN62 CYYF 101800
METAR CYYF 101800Z 16013KT 15SM SCT070 BKN120 OVC200 02/M01 A2983 RMK
 AC3AC2CI3 SLP115=

00000000