0000036600
253
NWXX01 EGRR 110218
GG EGRRYMYV EGRRYMYX
110218 MHTGYNYX
(A0051/14 NOTAMN
Q)MHTG/QWWXX/IV/NBO/W/000/120/1422N09036W005
A)MGXX B)1401110220 C)1401112359
E)SIGNIFICANT VOLCANIC ACT PACAYA VOLCANO 1402-11 ASH DISPERSED IN
ALL DIRECTIONS ACFT EXER CTN AROUND 05NM FROM VOLCANO DUE ASH REMAINS
IN THE ENVIRONMENT
F)SFC G)12000 FT AMSL)??

0000010200
254
SAMX51 MMMX 110200
METAR MMPB 110201Z RTD 00000KT 10SM SKC 13/05 A3027 RMK ISOL SC=

0000010900
255
SPUS31 KWBC 110217
SPECI
KLIT 110213Z 16006KT 10SM -RA SCT008 BKN011 OVC017 13/12 A2970=

0000009500
256
SPUS42 KWBC 110217
SPECI
KPDK 110213Z 00000KT 3/4SM BR OVC003 08/07 A3007=

0000010500
257
SPUS43 KWBC 110217
SPECI
KSDF 110213Z 15010KT 10SM SCT021 BKN110 OVC250 11/08 A2979=

0000013200
258
SAZS31 NSTU 110155
METAR NSTU 110154Z 01014KT 11SM -SHRA SCT014 SCT045 OVC080 27/24
A2968 RMK SLP051 T02700238=

0000024400
259
FTFR37 LFPW 102300 AAC
TAF AMD LFPB 110213Z 1102/1124 VRB03KT 4500 BR OVC005 PROB40
1102/1111 2500 -DZRA OVC004 BECMG 1107/1109 22005KT BECMG 1112/1114
9999 NSW BKN010 BECMG 1116/1118 CAVOK BECMG 1122/1124 3000 BR BKN005=

0000058900
260
FTUS71 KWBC 110218
TAF
TAF KWRI 1102/1208 08006KT 3200 -RA BR BKN004 OVC030 620901
      QNH3020INS
      BECMG 1108/1109 17014KT 1200 -RA BR BKN002 OVC040
      WS020/19050KT QNH2991INS
      BECMG 1113/1114 18010G20KT 1200 -SHRA BR OVC002
      WS020/20060KT
      QNH2979INS
      BECMG 1116/1117 18015G25KT 6000 -SHRA OVC002
      QNH2951INS
      TEMPO 1118/1122 18025G35KT 3200 -TSRA OVC002CB
      BECMG 1205/1206 26012G18KT 6000 BR SCT005 QNH2951INS
      BECMG 1207/1208 27015G25KT 9999 NSW BKN009 QNH2955INS
      T16/1121Z T02/1103Z=

0000027300
261
FTUS73 KWBC 110218 AAA
TAF AMD
KALO 110215Z 1102/1124 VRB04KT 1SM BR OVC006
     FM110500 27008KT 2SM -SN BR BKN008 OVC015
     FM110700 28009KT 4SM BR SCT010 OVC018
     FM111000 30011KT P6SM SCT015 BKN035
     FM111700 30014G20KT P6SM BKN080=

0000021100
262
FTUS80 KWBC 110215 AAA
TAF AMD
KBPT 110211Z 1102/1124 16012G18KT P6SM VCSH OVC004
      TEMPO 1102/1106 2SM -SHRA BR
     FM110900 27008KT 1SM BR OVC001
     FM111400 34008KT P6SM SKC=

0000010400
263
SPUS41 KWBC 110215
SPECI
KGSO 110211Z 02005KT 3SM -RA BR BKN005 OVC013 03/03 A3015=

0000009700
264
SAAK31 KWBC 110200 RRA
METAR
PAEI 110155Z 00000KT 10SM FEW150 M27/M30 A2957=

0000065400
265
SAVN21 SVMR 110200
METAR SVLO 110200Z NIL=
METAR SVGI 110200Z NIL=
METAR SVMN 110200Z 05002KT 9999 FEW013 27/// Q1011=
METAR SVVL 110200Z NIL=
METAR SVGU 110200Z 18004KT CAVOK 23/15 Q1010=
METAR SVJM 110200Z /////KT CAVOK 23/10 Q1014=
METAR SVCZ 110200Z NIL=
METAR SVVP 110200Z NIL=
METAR SVVG 110200Z NIL=
METAR SVMD 110200Z 16003KT 8000 VCBR OVC013 18/17 Q1021=
METAR SVCL 110200Z NIL=
METAR SVSA 110200Z /////KT 9999 FEW020 24/20 Q1014=
METAR SVGD 110200Z 00000KT CAVOK 21/15 Q////=
METAR SVSR 110200Z /////KT CAVOK 25/// Q1013=
METAR SVTM 110200Z NIL=
METAR SVPA 110200Z NIL=
METAR SVSE 110200Z NIL=

0000028500
266
FTCN32 CWAO 110200 AAA
TAF AMD CYQU 110215Z 1102/1113 27008KT P6SM FEW100 BKN220
     BECMG 1104/1106 VRB03KT
    FM110800 09010KT P6SM BKN100 OVC220
    FM111100 09010KT 6SM -SN SCT012 OVC080 TEMPO 1111/1113 2SM -SN
     VV012
    RMK NXT FCST BY 110700Z=

0000009200
267
SPCN31 CWAO 110215
SPECI CYQG 110215Z 16006KT 1/2SM -RA FG VV001 RMK FG8=

0000009800
268
SAAF20 LFPW 110200 RRB
METAR FABL 110200Z AUTO 24003KT 9999 ////// 15/11 Q1018=

0000020300
269
FTCN34 CWAO 110200 AAA
TAF AMD CYQV 110216Z 1102/1106 30008KT P6SM OVC006 TEMPO 1102/1106
     1/2SM FZFG OVC002
    RMK FCST BASED ON AUTO OBS. NXT FCST WILL BE ISSUED AT 111145Z=

0000032100
270
FTCN34 CWAO 110200 AAA
TAF AMD CYWG 110216Z 1102/1124 30012KT 3/4SM -SN -FZDZ BR OVC003
     TEMPO 1102/1106 P6SM NSW SCT003 OVC010
    FM110600 21007KT P6SM OVC012 TEMPO 1106/1109 21/2SM -SN BR OVC008
    FM110900 30008KT P6SM SCT020 PROB30 1109/1115 1SM BR BKN005
    RMK NXT FCST BY 110600Z=

0000125400
271
SPUS70 KWBC 110216
SPECI
KY50 110212Z AUTO 06003KT 1 1/2SM -FZRA OVC002 00/ A2952 RMK AO2
     TSNO P0000 $=
KLNS 110212Z 00000KT 1/4SM -RA FG VV002 01/01 A3024 RMK AO2
     UPB03E06 P0000=
KLVJ 110212Z AUTO 20006KT 10SM SCT013 21/18 A2985 RMK AO2
     T02060183=
KMFI 110212Z AUTO 07004KT 1SM -SN BR BKN015 OVC035 M02/M03 A2949
     RMK AO2 P0001 T10171028=
KOFP 110212Z AUTO 00000KT 1SM -RA BR OVC002 04/04 A3022 RMK AO2
     RAB07 P0000 T00390039=
KPBF 110212Z AUTO 12005KT 1SM -RA BR SCT010 BKN025 OVC090 12/11
     A2972 RMK AO2 LTG DSNT NE-SE P0002=
KENW 110213Z AUTO 19014KT 5SM -RA BR SCT006 SCT012 OVC049 05/03
     A2954 RMK AO2 P0001 T00500033=
KHZY 110213Z AUTO 15011KT 5SM BR OVC004 05/03 A2993 RMK AO2 PRESFR
     TSNO=
KMCW 110213Z AUTO 29004KT 1 1/4SM -SN BR FEW002 OVC023 M02/M02
     A2952 RMK AO2 P0000 T10171017 TSNO=
KMEB 110213Z AUTO 00000KT 3SM -RA BR SCT004 OVC011 14/14 A3014 RMK
     AO2 TSE0157 P0028 T01390139=
KPDK 110213Z 00000KT 3/4SM BR OVC003 08/07 A3007 RMK AO2
     RAE0154=
KSDF 110213Z 15010KT 10SM SCT021 BKN110 OVC250 11/08 A2979 RMK AO2
     PRESFR=
KVIH 110213Z AUTO 17012KT 5SM RA BR BKN004 OVC048 07/06 A2958 RMK
     AO2 P0008 T00670061 $=

0000098500
272
FTRS32 RUMS 110200
TAF URKA 110200Z 1103/1203 24008G13MPS 9999 BKN020CB 530005 TEMPO
1103/1109 1700 SHRA BR BKN004 BKN015CB=
TAF URKK 110201Z 1103/1203 23005G10MPS 9999 BKN020CB 530002 TEMPO
1103/1109 24010G15MPS 2000 SHRA SCT005 BKN020CB FM110900
27006G11MPS 9999 BKN020CB TEMPO 1109/1118 3000 -SHRA BKN007
BKN020CB=
TAF URMM 110150Z 1103/1203 28003G08MPS 2100 BR BKN007 TEMPO 1103/1106
VRB02MPS 0300 FZFG OVC002 FM110800 26003G08MPS 9999 BKN020CB TEMPO
1108/1118 3000 -SHRA BKN007 BKN010CB TEMPO 1118/1203 1200 SHRASN
BKN004 BKN010CB=
TAF URRR 110159Z 1103/1203 25011G16MPS 3000 BR BKN007 BKN020CB 530005
TEMPO 1103/1106 1200 SHRA BKN004 BKN020CB TEMPO 1106/1109 -SHRA=
TAF URSS 110145Z 1103/1203 05007MPS 9999 BKN020CB OVC100 TEMPO
1103/1109 -SHRA BECMG 1107/1109 15007G12MPS 530002 TEMPO 1109/1118
VRB08G14MPS 2000 TSRA BKN005 BKN020CB OVC100 BECMG 1116/1118
04006MPS TEMPO 1118/1203 VRB06G11MPS 5000 -SHRA SCT007 BKN020CB
OVC100=

00000000