0000062200
933
FTPO32 LPMG 101700
TAF LPLA 101711Z 1018/1118 09012KT 6000 RADZ SCT007 BKN014 BECMG
    1018/1021 16015KT TEMPO 1018/1024 2000 RADZ SCT004 BKN007
    BKN012 BECMG 1021/1024 22015G25KT 9999 NSW FEW007 SCT012 BKN020
    BECMG 1103/1105 30020G30KT SCT020 SCT030 TEMPO 1104/1118
    30025G40KT 4000 SHRA BKN014 SCT018TCU=
TAF LPPD 101700Z 1018/1118 18017KT 9999 SCT008 BKN012 TEMPO 1018/1108
         2000 RADZ BR SCT001 BKN003 TEMPO 1018/1022 19025G38KT BECMG
         1022/1101 25013KT BECMG 1108/1111 29017KT SCT018 SCT035
         TEMPO 1108/1118 30025G37KT 5000 SHRAGS BKN015 FEW018TCU=

0000018100
934
FTCN36 CWAO 101700
TAF CYOY 101715Z 1018/1021 22005KT P6SM FEW020 SCT100 BKN240 TEMPO
     1018/1021 5SM -SN BKN020
    RMK NXT FCST WILL BE ISSUED AT 131215=

0000046700
935
FTPO31 LPMG 101700
TAF LPPS 101700Z 1018/1124 03010KT 9999 SCT015 TEMPO 1018/1124 SCT012
         BKN030 BECMG 1100/1102 VRB05KT BECMG 1107/1109 19012KT BECMG
         1116/1118 24013KT=
TAF LPPT 101700Z 1018/1124 34008KT CAVOK BECMG 1021/1024 03005KT
         PROB30 1105/1111 09005KT 1200 PRFG SCT000 BKN001 BECMG
         1111/1113 13008KT 9999 FEW015 BECMG 1119/1121 17008KT BKN008
         TEMPO 1121/1124 3000 DZ BR SCT002 BKN005=

0000019600
936
FTCN34 CWAO 101700
TAF CYMJ 101715Z 1018/1102 31005KT 6SM BR OVC010 TEMPO 1018/1021 2SM
     BR OVC003
    FM102100 26008KT P6SM SCT010 BKN080
    RMK NXT FCST BY 110000Z=

0000031300
937
FTPO34 LPMG 101700
TAF LPAZ 101700Z 1018/1124 18017KT 9999 SCT008 SCT012 TEMPO 1018/1109
         2000 RADZ BR SCT002 BKN005 TEMPO 1018/1103 19025G38KT BECMG
         1103/1106 24012KT BECMG 1109/1112 29017KT SCT018 SCT035
         TEMPO 1109/1124 30025G37KT 5000 SHRAGS BKN015 FEW018TCU=

0000020500
938
FTCN32 CWAO 101700
TAF CYED 101715Z 1018/1106 22005KT P6SM BKN040
    FM102100 28010KT P6SM SCT100
     BECMG 1104/1106 VRB03KT
    RMK FCST BASED ON AUTO OBS. NXT FCST BY 110000Z=

0000029400
939
FTCN35 CWAO 101700
TAF CYWA 101715Z 1018/1106 VRB03KT P6SM SCT020 OVC040 TEMPO 1018/1102
     4SM -SN OVC020
    FM110200 14005KT P6SM SCT008 BKN020 TEMPO 1102/1106 2SM -SN
     BKN008 PROB30 1102/1106 2SM -FZRA BR
    RMK FCST BASED ON AUTO OBS. NXT FCST BY 110000Z=

0000018100
940
FTCN34 CWAO 101700
TAF CYPG 101715Z 1018/1024 25008KT P6SM SCT010 BKN030 TEMPO 1018/1024
     2SM BR BKN010 OVC030
    RMK NXT FCST WILL BE ISSUED AT 131315Z=

0000013500
941
SPSP32 LEMM 101714
SPECI LEAS 101714Z 34004KT 270V050 4500 -RADZ FEW001 SCT002
BKN006 11/11 Q1015 TEMPO 1500 BCFG=

0000047100
942
SAPS31 NFFN 101700
METAR NCRG 101700Z NIL=
METAR NFFN 101700Z 18005KT 9999 -RA SCT028 BKN048 24/23 Q1005 NOSIG=
METAR NFNA 101700Z 00000KT 9999 -SHRA SCT020 BKN048 24/24 Q1004=
METAR NGFU 101700Z NIL=
METAR NGTA 101700Z NIL=
METAR NIUE 101700Z NIL=
METAR NSFA 101700Z NIL=
METAR NSTU 101700Z NIL=
METAR NTAA 101700Z 05002KT 9999 FEW020 26/22 Q1013 NOSIG=
METAR NWWW 101700Z AUTO VRB02KT 9999 NCD 21/14 Q1012=
METAR PLCH 101700Z NIL=

0000067800
943
FTPO33 LPMG 101700
TAF LPBJ 101705Z 1018/1118 VRB02KT CAVOK BECMG 1108/1110 12005KT=
TAF LPFR 101700Z 1018/1118 04008KT CAVOK BECMG 1100/1102 5000 BR
         SCT008 PROB40 TEMPO 1102/1109 1200 PRFG BR SCT000 BKN002
         BECMG 1109/1111 12010KT 9999 NSW SCT015 SCT030 BECMG
         1112/1114 15010KT SCT025=
TAF LPMA 101700Z 1018/1118 VRB05KT 9999 FEW015 BECMG 1106/1109
         24013KT TEMPO 1109/1118 SCT015 SCT030=
TAF LPPR 101700Z 1018/1118 34005KT CAVOK BECMG 1019/1022 VRB03KT 5000
         BR SCT004 BKN008 BECMG 1022/1101 0150 FG VV001 BECMG
         1109/1112 16008KT 5000 BR SCT008 BECMG 1112/1114 9999 NSW
         FEW015=

0000022600
944
SAPS32 NFFN 101700
METAR NFTF 101700Z 13006KT 9999 SCT016 BKN120 26/25 Q1001=
METAR NFTL 101700Z NIL=
METAR NFTV 101700Z NIL=
METAR NLWW 101700Z NIL=
METAR NVSS 101700Z NIL=
METAR NVVV 101700Z NIL=

0000013700
945
SAUS72 KWBC 101700 RRD
METAR
TNCM 101700Z 08015KT 050V110 9999 FEW017TCU SCT035 28/19 Q1017
     A3005 TEMPO SHRA=

0000023800
946
FTCN35 CWAO 101700 AAA
TAF AMD CYTS 101715Z 1017/1102 19012G22KT P6SM -SN SCT015 OVC030
     TEMPO 1017/1024 5SM -SN OVC015
    FM110000 18010KT P6SM -SN OVC015 TEMPO 1100/1102 3SM -SN
    RMK NXT FCST BY 102000Z=

0000039300
947
SAXX69 EGRR 101700 RRA
METAR KQIR 101658Z 07004KT 9999 CLR 18/13 A3015 RMK AO2A WND DATA ESTMD
      T01820126 VISNO RWY16 CHINO RWY16 $=
METAR KQSA 101658Z VRB03KT 8000 HZ CLR 00/M08 A3027 RMK AO2A SLP332
      WND DATA ESTMD ALSTG/SLP ESTMD=
METAR KQTZ 101655Z 09005KT 4000 -RA BR FEW015 BKN030 OVC050 09/07 A3007
      RMK SLP182 WND DATA ESTMD ALSTG/SLP ESTMD=

0000082000
948
SAEA20 HKNC 101700
METAR HKJK 101700Z 05009KT 9999 FEW024 22/12 Q1021 NOSIG=
METAR HKKS 101700Z 00000KT 9999 FEW020CB BKN090 20/14=
METAR HKKT 101700Z 00000KT 9999 FEW021 20/11=
METAR HKMO 101700Z 08010KT 9999 FEW022 27/21 Q1012 NOSIG=
METAR HKVO 101700Z 00000KT SKC 25/20=
METAR HKEL 101700Z NIL=
METAR HKEM 101700Z NIL=
METAR HKGA 101700Z NIL=
METAR HKKG 101700Z NIL=
METAR HKKI 101700Z NIL=
METAR HKKR 101700Z NIL=
METAR HKLO 101700Z NIL=
METAR HKLU 101700Z NIL=
METAR HKMA 101700Z NIL=
METAR HKMB 101700Z NIL=
METAR HKME 101700Z NIL=
METAR HKML 101700Z NIL=
METAR HKMU 101700Z NIL=
METAR HKMY 101700Z NIL=
METAR HKNC 101700Z NIL=
METAR HKNI 101700Z NIL=
METAR HKNK 101700Z NIL=
METAR HKNO 101700Z NIL=
METAR HKNW 101700Z NIL=
METAR HKWJ 101700Z NIL=

0000009700
949
SPAU32 AMMC 101716
SPECI YSRI 101717Z AUTO 00000KT 0900 // ////// 16/16 Q1017=

0000021800
950
FTAE31 VTBB 101700 RRA
TAF VTBU 101700Z 1018/1118 02003KT 3000 BR NSC
    BECMG 1021/1023 01002KT 2000 BR
    BECMG 1102/1104 22006KT 7000 FEW025 SCT300
    BECMG 1110/1112 35004KT 4000 BR NSC=

0000034300
951
FTUK31 EGGY 101700 CCA
TAF COR EGSS 101715Z 1018/1124 22010KT 9999 BKN035 PROB30 TEMPO
    1018/1020 7000 -RA BKN012 BECMG 1020/1023 BKN012 TEMPO 1020/1105
    7000 RA BKN009 PROB30 TEMPO 1023/1107 4000 -RADZ BKN004 BECMG
    1105/1108 30010KT FEW025 BECMG 1119/1121 17005KT 6000 PROB30
    1121/1124 1200 BR BKN002=

0000128000
952
SPUS70 KWBC 101716
SPECI
KANB 101712Z AUTO 06008KT 5SM BR OVC005 08/06 A3018 RMK AO2
     T00780061=
KBRL 101712Z AUTO 15010KT 3SM -RA BR OVC002 01/01 A2978 RMK AO2
     P0001 I1000 T00110011=
KEQY 101712Z AUTO 02007KT 1 3/4SM +RA BR OVC003 06/06 A3025 RMK
     AO2 RAB08 P0002=
KFFT 101712Z AUTO 15007KT 10SM OVC005 09/08 A3012 RMK AO2 CIG
     004V008 T00890078=
KGVL 101712Z AUTO 08009KT 2SM BR OVC003 08/07 A3023 RMK AO2
     RAE1659 PRESFR P0000=
KISP 101712Z 00000KT 1 1/2SM -RA BR FEW015 OVC036 02/M01 A3040 RMK
     AO2 SFC VIS 2 P0000=
KRUE 101712Z AUTO 00000KT 1 3/4SM +RA BR BKN009 BKN045 OVC060
     09/08 A2988 RMK AO2 P0008=
KRXE 101712Z AUTO 26008KT 10SM OVC014 M04/M06 A2991 RMK AO2
     T10441061=
KMKO 101713Z AUTO 16008KT 6SM BR OVC005 08/08 A2977 RMK AO2
     RAB1658E07 CIG 002V009 P0000=
KTOI 101713Z AUTO 07004KT 4SM BR OVC003 11/10 A3016 RMK AO2 RAE05
     P0000 T01110100=
KBJJ 101713Z AUTO 20006KT 1SM BR OVC002 02/01 A3018 RMK AO2=
KTDR 101711Z AUTO 08004KT 2 1/4SM BR OVC002 16/ A3015 RMK AO2 VIS
     1V2 1/4 $=
PAMB 101713Z AUTO 04007KT 1 3/4SM BR OVC003 M03/M03 A2943 RMK AO2
     TSNO $=
KBLF 101713Z AUTO 10003KT 1/4SM -RA BKN004 OVC017 08/06 A3024 RMK
     AO2 RAB09 P0000=

00000000