0000010400
573
SPUS41 KWBC 101849
SPECI
KGSO 101845Z 02005KT 4SM -RA BR BKN004 OVC010 02/02 A3024=

0000009300
574
SPUS42 KWBC 101849
SPECI
KMGM 101845Z 08003KT 2SM BR OVC002 11/09 A3010=

0000068300
575
SAUK20 EGGY 101850
METAR EGRE 101850Z AUTO 05017KT 9999 SCT025/// SCT037/// OVC045///
     06/M01 Q0999 W///S5=
METAR EGRK 101850Z AUTO 27015KT 9999 RA FEW009/// SCT014/// 07/05
     Q0999 RERA W///S4=
METAR EGRM 101850Z AUTO 24016KT 9999 FEW018/// 07/05 Q1001 W///S4=
METAR EGRO 101850Z AUTO 26019KT //// // ///////// 07/04 Q1002 W///S4=
METAR EGRP 101850Z AUTO 24020KT 9999 RA FEW012/// SCT020/// /////
     Q1003 W///S4=
METAR EGRS 101850Z AUTO 25023KT 9999 FEW014/// BKN021/// BKN025///
     08/05 Q1003 RERA W///S4=
METAR EGRV 101850Z AUTO 23025KT 9999 NCD 07/05 Q1009 W///S4=
METAR EGRW 101850Z AUTO 21023KT 9999 NCD 07/05 Q1010 W///S3=

0000048900
576
SAUK21 EGGY 101850
METAR EGRF 101850Z AUTO 22024KT 9999 FEW027/// 07/02 Q0996 W///S5=
METAR EGRG 101850Z AUTO 08017KT 9999 BKN017/// 06/02 Q0998 W///S5=
METAR EGRI 101850Z AUTO 27009KT 230V300 9999 SCT015/// SCT023///
     06/03 Q0996 RESN RERA=
METAR EGRL 101850Z AUTO 26013KT 180V330 9999 SCT016/// 07/04 Q1000
     W///S4=
METAR EGRN 101850Z AUTO 24024KT 9999 FEW012/// OVC028/// 08/06 Q1004=
METAR EGRT 101850Z AUTO /////KT 9999 NCD 07/04 Q1009 W///S3=

0000013100
577
SALV31 EVRA 101850
METAR EVRA 101850Z 31012G22KT 270V350 9999 -RA SCT008 OVC011 04/02 
Q0990 R36/290158 NOSIG=

0000014000
578
SAFA31 EKCH 101850
METAR EKVG 101850Z AUTO 04007KT 9999NDV -RA  OVC022/// 02/01
Q0994 RMK OVC022/// WIND 850FT 15002KT=

0000009400
579
SPAU32 AMMC 101849
SPECI YSRI 101850Z AUTO 00000KT 7000 // NCD 15/15 Q1018=

0000011200
580
SALT32 EYVI 101850
METAR EYKA 101850Z 28019G30KT 9999 BKN016 OVC023 03/00 Q0994
R08/290095=

0000004600
581
SAMX31 KWBC 101845 RRA
NIL=

0000009300
582
SPCN47 CWAO 101849
SPECI CYVP 101849Z 27014G21KT 12SM DRSN OVC062 RMK SC7=

0000012100
583
SAEO31 EETN 101850
METAR EETN 101850Z 01010KT 330V040 9999 -DZ OVC010 02/00 Q0988 
R08/290195 NOSIG=

0000017400
584
SAVN34 SVSR 101900
METAR SVSR 101900Z /////KT 9999 FEW016 BKN300 32/XX Q1014=
METAR SVVP 101900Z NIL=
METAR SVCL 101900Z NIL=
METAR SVPA 101900Z NIL=

0000091200
585
SPUS70 KWBC 101850
SPECI
KALO 101846Z AUTO 13008KT 1/2SM R12/3000V4500FT UP FZFG OVC003
     M01/M01 A2964 RMK AO2 UPB43 P0000 I1000 T10061006 TSNO=
KBRL 101847Z AUTO 15012KT 3SM -RA BR OVC004 02/01 A2967 RMK AO2
     LTG DSNT S UPE1755B22E23RAB1755 P0009 I1000=
KDFI 101846Z AUTO 16005KT 4SM HZ SCT024 BKN030 OVC040 04/01 A3002
     RMK AO2=
KMIC 101846Z 16008KT 1 3/4SM BR OVC007 M02/M04 A2963 RMK AO2=
PAMB 101846Z AUTO 05007KT 1 1/2SM BR OVC003 M04/M04 A2943 RMK AO2
     TSNO $=
KBOK 101847Z AUTO 16006KT 1SM BR OVC002 09/09 A3028 RMK AO2 $=
KFIG 101847Z AUTO 01005KT 1/4SM FZFG OVC003 M01/M01 A3022 RMK AO2
     I1000 T10061006=
KILG 101847Z 00000KT 2SM BR SCT004 OVC014 02/01 A3037 RMK AO2=
KLWC 101847Z AUTO 14003KT 5SM BR OVC005 04/04 A2957 RMK AO2 CIG
     002V009=
KORD 101847Z 15008KT 1 3/4SM -DZ BR OVC004 01/M01 A2983 RMK AO2
     DZB00 P0000 $=

0000009800
586
SPUS42 KWBC 101850
SPECI
KBTR 101846Z 11008KT 10SM BKN011 OVC049 18/14 A2997=

0000010700
587
SABW31 VGHS 101850
METAR VGHS 101850Z 00000KT 1000 BR NSC 15/13 Q1014 TEMPO S/VIS 0800M=

0000009400
588
SPAU32 AMMC 101850
SPECI YSRI 101851Z AUTO 00000KT 4100 // NCD 15/15 Q1018=

0000010000
589
SAQB31 LQMO 101900 CCA
METAR COR LQMO 101900Z VRB02KT 5000 BR SCT035 07/06 Q1022=

0000012200
590
SALT34 EYVI 101850
METAR EYSA 101850Z 28022KT 9999 BKN012 OVC019 03/02 Q0993 R14L/2/0295
R14R/2/0295=

0000010300
591
SALT33 EYVI 101850
METAR EYPA 101850Z VRB09G21KT 9999 OVC014 03/01 Q0999 R01/2///95=

0000010300
592
SPCN48 CWAO 101840
SPECI CYAS 101840Z 27015G22KT 15SM DRSN SCT020 BKN040 RMK SC3SC3=

00000000