0000011900
973
SACN62 CYKY 110200
METAR CYKY 110200Z 29007KT 15SM SCT070 SCT240 M10/M12 A2957 RMK
 AC3CI1 SLP058=

0000013700
974
SACN61 CYNE 110200
METAR CYNE 110200Z AUTO 33002KT 7SM FEW008 BKN022 BKN030 OVC050
 M09/M10 A2945 RMK PRESRR SLP991=

0000010600
975
SACN61 CYNA 110200
METAR CYNA 110200Z AUTO 28009KT 9SM OVC014 M07/M08 A3006 RMK SLP179=

0000011600
976
SACN61 CYPY 110200
METAR CYPY 110200Z AUTO 27005KT 9SM BKN042 OVC050 M18/M20 A2955 RMK
 SLP032=

0000013700
977
SACN62 CYPL 110200
METAR CYPL 110200Z 17006KT 5SM -SN BR OVC005 M08/M09 A2946 RMK SF8
 LAST OBS/NEXT 111100Z SLP003=

0000013100
978
SACN62 CYQR 110200
METAR CYQR 110200Z 25004KT 3SM BR FEW002 BKN120 OVC300 M09/M10 A2953
 RMK SF2AC4CI2 SLP039=

0000011900
979
SACN61 CYQA 110200
METAR CYQA 110200Z AUTO 15011KT 3/4SM BR VV003 00/M00 A2996 RMK
 PRESFR SLP162=

0000012900
980
SACN62 CYOJ 110200
METAR CYOJ 110200Z 36002KT 15SM FEW039 SCT055 SCT077 M19/M21 A2953
 RMK SC1SC2AC1 SLP038=

0000015000
981
FTPA32 KWBC 110142
TAF
TAF NSTU 110131Z 1102/1124 34012KT P6SM VCSH SCT014 BKN040 OVC100
      TEMPO 1102/1104 4SM SHRA BKN014=

0000031300
982
FTUS52 KWBC 110142 AAA
TAF AMD
KFSM 110140Z 1102/1124 28007KT P6SM FEW030 BKN070 OVC100
     FM110300 28008KT P6SM BKN250
     FM112100 28015G23KT P6SM SKC=
KFYV 110139Z 1102/1124 VRB06KT P6SM SCT025 BKN060 OVC070
     FM110300 26008KT P6SM OVC250
     FM111800 28013G21KT P6SM SKC=

0000026600
983
FTUS54 KWBC 110142 AAA
TAF AMD
KTTD 110139Z 1102/1124 19011KT P6SM -RA SCT022 OVC060
     FM110500 19018G28KT P6SM -RA SCT015 OVC035
     FM111400 22020G30KT 4SM RA BR BKN015 OVC030
     FM112000 22020G30KT P6SM -SHRA SCT015 BKN025 OVC045=

0000015000
984
FTUS80 KWBC 110142
TAF
TAF NSTU 110131Z 1102/1124 34012KT P6SM VCSH SCT014 BKN040 OVC100
      TEMPO 1102/1104 4SM SHRA BKN014=

0000053000
985
FTUS80 KWBC 110142 AAA
TAF AMD
KFSM 110140Z 1102/1124 28007KT P6SM FEW030 BKN070 OVC100
     FM110300 28008KT P6SM BKN250
     FM112100 28015G23KT P6SM SKC=
KFYV 110139Z 1102/1124 VRB06KT P6SM SCT025 BKN060 OVC070
     FM110300 26008KT P6SM OVC250
     FM111800 28013G21KT P6SM SKC=
KTTD 110139Z 1102/1124 19011KT P6SM -RA SCT022 OVC060
     FM110500 19018G28KT P6SM -RA SCT015 OVC035
     FM111400 22020G30KT 4SM RA BR BKN015 OVC030
     FM112000 22020G30KT P6SM -SHRA SCT015 BKN025 OVC045=

0000009100
986
SPUS31 KWBC 110142
SPECI
KDFW 110138Z 33014KT 10SM FEW250 16/08 A2974=

0000009300
987
SPUS41 KWBC 110142
SPECI
KBED 110138Z 00000KT 5SM BR OVC008 02/01 A3032=

0000012100
988
SPUS42 KWBC 110142
SPECI
KPNS 110138Z AUTO 11007KT 1/2SM R17/1800V2400FT -RA FG VV002 17/17
A3000=

0000010700
989
SPUS43 KWBC 110142
SPECI
KFNT 110138Z 17012G21KT 5SM -RA BR BKN007 OVC055 04/02 A2979=

0000010400
990
SPUS43 KWBC 110143
SPECI
KINL 110139Z AUTO 18004KT 2 1/2SM BR OVC005 M04/M06 A2944=

0000212900
991
SPUS70 KWBC 110144
SPECI
K1M4 110140Z AUTO 15008KT 2SM BR OVC005 10/09 A2996 RMK AO2=
KAND 110140Z AUTO 07005KT 3SM BR OVC004 08/08 A3011 RMK AO2=
KDNL 110140Z AUTO 35004KT 4SM -RA BR SCT003 OVC009 09/09 A3011 RMK
     AO2 P0004 T00940089 TSNO=
KGWO 110140Z AUTO 17020G27KT 10SM SCT019 BKN027 OVC035 16/13 A2981
     RMK AO2 PK WND 17027/0139 T01560128 TSNO=
KHKA 110140Z AUTO 29010G16KT 3SM +RA BR SCT008 BKN015 OVC060 09/08
     A2980 RMK AO2 P0011=
KMEB 110140Z AUTO 35006KT 1 3/4SM +RA BR OVC007 14/14 A3013 RMK
     AO2 P0016 T01390139=
KPKD 110140Z AUTO 20006KT 2SM BR OVC003 M03/M03 A2944 RMK AO2 CIG
     003V007 T10281028 TSNO=
KRSW 110140Z 00000KT 10SM FEW009 SCT031 21/21 A3009 RMK AO2 BCBR
     T02110206=
KUGN 110140Z 17016G24KT 4SM RA BR SCT006 OVC043 04/03 A2957 RMK
     AO2 P0012 $=
KTDR 110140Z AUTO 11006KT 4SM BR BKN002 16/ A3007 RMK AO2 $=
PABR 110140Z 29010KT 9SM BKN017 M24/M27 A2986 RMK AO2
     T12391267=
KCRE 110141Z 15006KT 6SM BR BKN003 BKN012 OVC017 17/16 A3015 RMK
     AO2 RAB02E28 P0000=
KDEQ 110141Z AUTO 23008KT 9SM SCT011 SCT025 BKN120 16/16 A2968 RMK
     AO2 LTG DSNT E-S T01610156=
KDTN 110141Z AUTO 19009KT 10SM BKN009 OVC075 16/16 A2974 RMK AO2
     RAE18 CIG 007V014 P0003=
KM19 110141Z AUTO 14014KT 2SM -RA BR BKN100 BKN120 08/08 A2971 RMK
     AO2 BKN V OVC P0008=
KMCI 110141Z 30007KT 7SM -DZ OVC005 03/02 A2958 RMK AO2 P0000
     T00280017=
KMNN 110141Z AUTO 16014KT 6SM BR SCT006 OVC017 06/05 A2984 RMK AO2
     PRESFR TSNO=
KMRB 110141Z 36003KT 1 1/2SM BR OVC003 02/01 A3022 RMK AO2 RAE0057
     P0001 T00220006=
KMSY 110141Z 14005KT 1/16SM FG VV001 16/16 A2995 RMK AO2 TWR VIS
     1/8 T01610161 RVRNO $=
KPEO 110141Z AUTO 19006KT 9SM BKN011 03/01 A3013 RMK AO2
     T00280006=
KSNS 110141Z 28008KT 10SM SCT005 12/09 A3018 RMK AO2=
KSRC 110141Z AUTO 15007KT 3SM -RA BR BKN003 OVC014 08/08 A2972 RMK
     AO2 TSNO P0003=
KTCL 110141Z 00000KT 4SM -RA BR OVC009 13/12 A2997 RMK AO2 RAB10
     P0000=
PANW 110138Z AUTO 02004KT 3/4SM BR OVC001 M07/M07 A2946 RMK AO2
     TSNO $=

0000009800
992
SPUS42 KWBC 110144
SPECI
KRSW 110140Z 00000KT 10SM FEW009 SCT031 21/21 A3009=

00000000