0000060400
633
FTSP34 LEMM 101700
TAF LEBB 101700Z 1018/1118 VRB03KT 9999 FEW020 TX15/1114Z
TN07/1105Z TEMPO 1018/1106 29010KT BKN013 PROB30 TEMPO 1100/1106
3000 -RADZ=
TAF LEJR 101700Z 1018/1118 03004KT CAVOK TX17/1115Z TN10/1102Z=
TAF LELC 101700Z 1018/1118 06013KT 9999 BKN014 TX15/1112Z
TN08/1106Z TEMPO 1018/1109 SCT016 BECMG 1019/1022 35004KT
BECMG 1108/1111 06011KT SCT016=
TAF LESO 101700Z 1018/1118 VRB02KT 9999 FEW020 TX15/1115Z
TN07/1101Z PROB30 TEMPO 1104/1109 BKN012=
TAF LEVT 101700Z 1018/1118 VRB02KT CAVOK TX11/1115Z TN00/1107Z
TEMPO 1100/1109 4000 BR BCFG BKN013=

0000004600
634
FTRH33 LDZM 101700
TAF NIL=

0000055200
635
SANO32 ENMI 101720
METAR ENAL 101720Z 04016KT 9999 SCT035 00/M04 Q0999=
METAR ENCN 101720Z VRB02KT 9999 FEW020 00/M00 Q1001=
METAR ENHD 101720Z 26016KT 9999 -SHRA FEW010CB SCT014 BKN025 06/05
           Q1000=
METAR ENRO 101720Z 10011KT 7000 -SN FEW006 SCT009 BKN012 M12/M14
           Q0995=
METAR ENRY 101720Z 16007KT 100V170 9999 SCT015 00/M01 Q0998=
METAR ENSB 101720Z NIL=
METAR ENTC 101720Z VRB02KT CAVOK M12/M14 Q1017 NOSIG RMK WIND 2600FT
           09012KT=
METAR ENTO 101720Z 22007KT CAVOK 01/M00 Q0998=

0000070600
636
SANO31 ENMI 101720
METAR ENAN 101720Z NIL=
METAR ENBR 101720Z 31005KT 9999 -SHRA FEW005 SCT012CB BKN015 05/04
           Q0998 TEMPO SHRA BKN008 RMK WIND 1200FT 32013KT=
METAR ENBO 101720Z 09015KT 060V120 CAVOK M07/M17 Q1010 NOSIG=
METAR ENDU 101720Z 00000KT 9999 FEW040 M23/M25 Q1016=
METAR ENGM 101720Z 18007KT 150V210 9999 BKN011 M01/M02 Q0997 TEMPO
           SCT012=
METAR ENOL 101720Z 05008KT 9000 -SN FEW006 BKN010 M07/M09 Q1000 TEMPO
           1500 SN VV005=
METAR ENVA 101720Z 08008KT 7000 -SN BKN028 M07/M11 Q1000 TEMPO 3000
           -SN VV012 RMK WIND 670FT 11013KT=
METAR ENZV 101720Z 25008KT 9999 FEW012 SCT025 OVC150 07/05 Q1001
           NOSIG=

0000025400
637
SANO36 ENMI 101720
METAR ENBS 101720Z NIL=
METAR ENHK 101720Z NIL=
METAR ENHV 101720Z NIL=
METAR ENLK 101720Z NIL=
METAR ENMH 101720Z NIL=
METAR ENNK 101720Z NIL=
METAR ENNM 101720Z 06015KT 9999 FEW040 BKN090 M08/M14 Q1004=

0000050700
638
SADL34 EDZO 101720
METAR EDGS 101720Z 23005KT 9999 SCT035 02/01 Q1016=
METAR EDHL 101720Z 25014G25KT 9999 -RA SCT016 SCT038 06/04 Q1011=
METAR EDLN 101720Z 22005KT 190V250 CAVOK 06/04 Q1017=
METAR EDLW 101720Z 22009KT CAVOK 05/02 Q1016=
METAR EDMA 101720Z VRB02KT CAVOK 02/02 Q1019=
METAR EDQM 101720Z AUTO 24007KT 9999NDV SCT012/// BKN027///
BKN046/// 02/M01 Q1017=
METAR EDRZ 101720Z 20004KT 160V230 CAVOK 04/02 Q1018=
METAR EDSB 101720Z 16003KT 9999 SCT045 04/01 Q1019=

0000035000
639
SADL35 EDZO 101720
METAR EDHI 101720Z 24013KT 9999 SCT021 BKN050 06/04 Q1012=
METAR EDJA 101720Z 19003KT CAVOK 01/01 Q1019=
METAR EDMO 101720Z 20004KT CAVOK 01/M01 Q1019=
METAR EDTL 101720Z 13003KT CAVOK 06/04 Q1019=
METAR EDTY 101720Z VRB03KT 9999 SCT034 04/M00 Q1019=
METAR EDVE 101720Z 25010KT 9999 BKN048 06/01 Q1014=

0000027800
640
SADL33 EDZO 101720
METAR EDFE 101720Z NIL=
METAR EDFH 101720Z 24006KT 9999 FEW025 SCT250 03/01 Q1017=
METAR EDFM 101720Z VRB02KT 9999 FEW035 04/02 Q1019=
METAR EDLV 101720Z 19005KT CAVOK 06/04 Q1016=
METAR EDVK 101720Z 21006KT 9999 FEW035 04/00 Q1016=

0000073800
641
SANO39 ENMI 101720
METAR ENNE 101720Z NIL=
METAR ENQR 101720Z AUTO 06011KT 040V100 9999NDV BKN021/// BKN064///
           07/00 Q0999 W///S/=
METAR ENSE 101720Z AUTO 06017KT 9999NDV FEW026/// BKN061/// 04/M01
           Q0999 W///S5=
METAR ENQC 101720Z AUTO 01008KT 9999NDV FEW019/// BKN025/// BKN047///
           06/01 Q0998 W///S4=
METAR ENQA 101720Z AUTO 04005KT 9999NDV FEW022/// SCT030/// BKN038///
           05/02 Q0999 W04/S4=
METAR ENHM 101720Z 26016KT 9999 FEW020 SCT043 BKN160 07/05 Q0999
           W08/S4=
METAR ENVH 101720Z AUTO 24028KT 9999NDV BKN140/// 07/05 Q1005
           W///S4=
METAR ENLA 101720Z AUTO 25023KT 9999NDV BKN013/// BKN120/// 08/06
           Q1003 W///S4=

0000051200
642
FCIE32 EIDB 101700
TAF EICM 101700Z NIL=
TAF EIDL 101700Z 1018/1021 26012KT 9999 SCT018 SCT025 PROB30 TEMPO
     1018/1020 SCT012 SCT018CB=
TAF EIKY 101700Z 1018/1021 25007KT 9999 SCT016 BKN025 PROB30 TEMPO
     1018/1020 SCT010 SCT018CB=
TAF EIME 101700Z 1018/1103 26008KT 9999 BKN015 BECMG 1018/1019 FEW015
     SCT025=
TAF EISG 101700Z 1018/1103 25008KT 9999 SCT018 SCT025 PROB30 TEMPO
     1018/1022 SCT012 SCT018CB=
TAF EIWF 101700Z 1018/1103 29007KT 9999 SCT018 BKN025=

0000028500
643
SANO35 ENMI 101720
METAR ENMS 101720Z NIL=
METAR ENRM 101720Z NIL=
METAR ENRS 101720Z 06028G39KT 9999 BKN047 M03/M10 Q1009=
METAR ENSK 101720Z NIL=
METAR ENSO 101720Z 27006KT 9999 SCT010 BKN027 05/05 Q0999=
METAR ENST 101720Z NIL=
METAR ENVD 101720Z NIL=

0000059300
644
SANO33 ENMI 101720
METAR ENAT 101720Z NIL=
METAR ENBL 101720Z VRB01KT 9999 3500E VCFG FEW/// SCT006 BKN045
           M00/M01 Q996=
METAR ENEV 101720Z NIL=
METAR ENFL 101720Z 34013KT 9999 FEW015 SCT055 02/00 Q0998 =
METAR ENKB 101720Z 01005KT 9999 FEW011 SCT016 BKN022 M03/M06 Q0999=
METAR ENKR 101720Z 17008KT 3400 IC BR VV002 M20/M22 Q1015 SEASMOKE
           NORTH OF THE FIELD RMK WIND 775FT 32004KT=
METAR ENML 101720Z 34004KT 9999 FEW025 BKN060 M01/M05 Q0999=
METAR ENNA 101720Z VRB01KT 9999 BKN006 M14/M15 Q1018 RMK WIND 1800FT
           34005KT=

0000021500
645
SANO34 ENMI 101720
METAR ENBN 101720Z NIL=
METAR ENBV 101720Z NIL=
METAR ENFG 101720Z NIL=
METAR ENHF 101720Z NIL=
METAR ENRA 101720Z 09017KT CAVOK M09/M19 Q1009=
METAR ENSH 101720Z NIL=

0000011600
646
SAAG05 SABM 101700 RRC
METAR SARL 101700Z 27010KT 9999 SCT025 FEW045 SCT100 BKN200 33/24
Q1007=

0000010300
647
SAQB31 LQSM 101730
METAR LQSA 101730Z 12003KT 080V250 9999 BKN060 06/03 Q1020 NOSIG=

0000077700
648
SAIY31 LIIB 101720
METAR LIEA 101720Z 01003KT CAVOK 11/10 Q1020=
METAR LIEE 101720Z 18004KT CAVOK 13/12 Q1019=
METAR LIEO 101720Z 00000KT CAVOK 09/08 Q1020=
METAR LIMC 101720Z VRB01KT 9999 BKN040 10/05 Q1020 NOSIG=
METAR LIME 101720Z 13007KT 3000 BR BKN006 09/08 Q1020=
METAR LIMF 101720Z VRB02KT 8000 BKN030 08/05 Q1019=
METAR LIMJ 101720Z 15007KT 9999 SCT020 BKN045 14/11 Q1020=
METAR LIML 101720Z 00000KT 9999 BKN035 09/07 Q1020 NOSIG=
METAR LIRA 101715Z 00000KT 8000 SCT030 BKN080 11/08 Q1021=
METAR LIRF 101720Z 04002KT 9999 BKN030 12/09 Q1021 NOSIG=
METAR LIRN 101720Z 33004KT 5000 BR BKN030 13/08 Q1021=
METAR LIRP 101715Z 16004KT 9999 FEW025 SCT040 11/09 Q1020 NOSIG=
METAR LIRQ 101720Z 08001KT 9999 FEW018 BKN030 13/11 Q1020=

0000058300
649
SAIY32 LIIB 101720
METAR LIBD 101720Z 27004KT 8000 NSC 10/10 Q1021=
METAR LIBR 101720Z NIL=
METAR LICC 101720Z NIL=
METAR LICJ 101720Z 05008KT CAVOK 14/11 Q1020=
METAR LIPE 101720Z 10004KT 0800 R12/P2000N FG BKN002 07/07 Q1020=
METAR LIPH 101715Z /////KT 1900 BR BKN015 SCT040 06/05 Q1020=
METAR LIPQ 101720Z 00000KT 3000 BR SCT007 BKN015 09/06 Q1020=
METAR LIPR 101715Z /////KT 8000 BKN050 10/08 Q1019=
METAR LIPX 101715Z 09001KT 1000 R04/P1500N BR SCT010 BKN045 08/05
      Q1021=
METAR LIPZ 101720Z 00000KT 2500 BR SCT015 SCT045 08/06 Q1020=

0000004200
650
SAIY33 LIIB 101720
NIL=

0000008700
651
SAIY32 LIIB 101720 RRA
METAR LICC 101720Z 26011KT CAVOK 14/09 Q1021=

0000058600
652
SAGR31 LGAT 101720
METAR LGAD 101720Z NIL=
METAR LGAV 101720Z 11005KT CAVOK 12/07 Q1018 NOSIG=
METAR LGIR 101720Z 19004KT CAVOK 13/10 Q1020 NOSIG=
METAR LGKL 101720Z 00000KT CAVOK 12/09 Q1021=
METAR LGKO 101720Z 15003KT 9999 SCT025 13/08 Q1020=
METAR LGKR 101720Z 00000KT 9999 SCT018 SCT025 BKN180 12/10 Q1020
      NOSIG=
METAR LGLM 101720Z NIL=
METAR LGRP 101720Z 20003KT 9999 FEW018 14/09 Q1020 NOSIG=
METAR LGSA 101720Z 26010KT 9999 FEW020 14/09 Q1020=
METAR LGSM 101720Z NIL=
METAR LGTS 101720Z 00000KT 9000 SCT020 SCT080 10/07 Q1018 NOSIG=

00000000