0000011000
813
SABA31 MYNN 102000
METAR MYNN 102000Z 11009KT 9999 FEW014CB SCT016TCU BKN080 25/22
A3009=

0000011900
814
SACN62 CYPA 102000
METAR CYPA 102000Z 21005KT 15SM FEW120 BKN250 M08/M11 A2937 RMK
 AC1CI5 SLP977=

0000010600
815
SACN62 CYHZ 102000
METAR CYHZ 102000Z 22013KT 15SM BKN035 M02/M08 A3038 RMK SC7 SLP297=

0000011200
816
SACN62 CYIO 102000
METAR CYIO 102000Z 16007KT 4SM -SN OVC046 M22/M24 A2908 RMK SC8
 SLP856=

0000010600
817
SACN62 CYHK 102000
METAR CYHK 102000Z 25011KT 15SM SCT150 M36/M40 A2943 RMK AS3 SLP974=

0000012900
818
SACN62 CYHM 102000
METAR CYHM 102000Z 18008KT 6SM BR SCT008 BKN017 BKN047 02/00 A3010
 RMK CF3SC2SC2 SLP204=

0000011200
819
SACN62 CYMX 102000
METAR CYMX 102000Z 05004KT 8SM -SN OVC010 M09/M13 A3029 RMK ST8
 SLP263=

0000011200
820
SACN62 CYND 102000
METAR CYND 102000Z 08006KT 7SM -SG OVC009 M07/M09 A3025 RMK SF8
 SLP248=

0000015500
821
SACN62 CYKA 102000
METAR CYKA 102000Z 16002KT 30SM -SHSN FEW010 BKN057 OVC110 01/M02
 A2987 RMK SF2SC5AC1 CONVECTIVE CLD EMBDD SLP133=

0000012900
822
SACN62 CYLL 102000
METAR CYLL 102000Z 28012KT 15SM BKN075 BKN110 BKN250 M05/M06 A2939
 RMK AC5AC1CI1 SLP992=

0000038300
823
SAJP31 RJTD 102000
METAR RJAA 102000Z 35005KT 9999 FEW025 M05/M08 Q1023 NOSIG=
METAR RJBB 102000Z 29012KT 9999 FEW025 04/M04 Q1028 NOSIG=
METAR RJTT 102000Z 26007KT CAVOK 00/M06 Q1023 NOSIG=
METAR RJOO 102000Z VRB01KT 9999 FEW025 01/M06 Q1028=
METAR ROAH 102000Z 03008KT 9999 FEW040 14/08 Q1026=
METAR RJGG 102000Z 27022KT 9999 FEW020 04/M02 Q1026 NOSIG=

0000016600
824
SAJP32 RJTD 102000
METAR RJFF 102000Z 16007KT 9999 FEW035 BKN050 02/M04 Q1030=
METAR RJCC 102000Z 22006KT 9999 -SHSN FEW015 BKN045 M09/M12 Q1017=

0000169700
825
SAUS71 KWBC 102000
METAR
KABE 101951Z 00000KT 5SM HZ SCT010 OVC019 01/M02 A3034=
KACK 101953Z 16009KT 10SM OVC025 04/01 A3042=
KACY 101954Z 13003KT 1 1/2SM -RA BR BKN003 OVC039 05/05 A3035=
KAGC 101953Z 15006KT 10SM SCT008 OVC023 08/06 A3015=
KAGS NIL=
KAKR 101954Z AUTO 18008KT 2 1/2SM BR OVC004 04/03 A3011=
KALB 101951Z 17008KT 10SM FEW033 BKN055 BKN090 01/M03 A3033=
KAND 101956Z AUTO 05006KT 2 1/2SM -RA BR OVC004 08/08 A3015=
KAOO 101953Z AUTO 00000KT 8SM OVC012 02/M02 A3023=
KAPG 101955Z 00000 1SM -DZ BR OVC006 02/01 A3033=
KART 101956Z AUTO 18006KT 9SM BKN021 OVC036 02/M02 A3022=
KAVL 101954Z 17007KT 4SM BR BKN005 OVC011 09/08 A3016=
KAVP 101954Z 28006KT 7SM BKN020 OVC037 03/M01 A3028=
KBAF 101953Z 16004KT 2SM -SN BKN012 OVC085 M01/M03 A3035=
KBDL 101951Z 00000KT 4SM BR BKN016 OVC060 M01/M03 A3036=
KBDR 101952Z 12003KT 1 1/4SM BR OVC030 01/00 A3038=
KBED 101956Z 17004KT 7SM OVC012 01/M02 A3036=
KBFD 101953Z AUTO 16005KT 3SM BR OVC004 01/M01 A3015=
KBGM 101953Z 18006KT 10SM SCT016 BKN022 OVC055 01/M02 A3022=
KBGR 101953Z 23006KT 10SM BKN065 OVC075 M03/M08 A3034=
KBKL 101953Z 16011KT 6SM BR FEW023 OVC055 04/02 A3008=
KBKW 101951Z AUTO 12005KT 10SM CLR 09/06 A3013=
KBOS 101954Z 14004KT 3SM BR SCT010 BKN015 OVC035 00/M02 A3039=
KBTV 101954Z 18011KT 10SM FEW040 BKN055 OVC090 M01/M05 A3028=
KBUF 101954Z 16004KT 10SM OVC021 03/01 A3014=
KBVY 101953Z 17003KT 6SM BR BKN013 OVC017 01/M02 A3038=
KBWI 101954Z COR 05003KT 1/2SM R10/3000V4500FT -RA FG OVC003 02/01
     A3032=
KBWI 101954Z 05003KT 1/2SM R10/3000V4500FT -RA FG OVC003 02/01
     A3032=
KCAE 101956Z 32005KT 3SM RA BR OVC005 09/08 A3017=

0000163900
826
SAUS71 KWBC 102000 RRA
METAR
KCAK 101951Z 19007KT 1/4SM FG VV001 04/04 A3011=
KCAR 101954Z AUTO 15006KT 10SM CLR M09/M17 A3023=
KCEF 101958Z 17004KT 6SM BR BKN007 OVC070 00/M01 A3035=
KCHO 101953Z 00000KT 2SM -RA BR BKN004 OVC010 02/01 A3029=
KCHS 101956Z 15013KT 10SM SCT020 BKN040 BKN250 22/18 A3015=
KCKB 101953Z 01003KT 10SM FEW020 11/07 A3014=
KCLE 101951Z 19008KT 10SM BKN011 BKN023 OVC055 05/02 A3011=
KCLT 101952Z 01006KT 10SM -RA OVC003 06/06 A3021=
KCMH 101951Z 14008KT 3SM BR OVC006 07/04 A3008=
KCRW 101954Z 13003KT 10SM SCT070 BKN240 13/09 A3009=
KCVG 101952Z 15008KT 8SM OVC007 09/08 A3001=
KDAN 101953Z AUTO 04004KT 2SM -RA BR OVC003 03/02 A3027=
KDAY 101956Z 15009KT 1/4SM R06L/5500VP6000FT FG OVC002 06/04
     A3002=
KDCA 101952Z 02003KT 1 1/2SM R01/5500VP6000FT -DZ BR OVC006 04/02
     A3034=
KDUJ 101956Z AUTO 11005KT 4SM BR OVC003 02/01 A3016=
KECG 101954Z 15005KT 10SM -RA OVC090 15/12 A3030=
KEKN 101951Z AUTO 00000KT 10SM FEW055 OVC075 11/07 A3015=
KELM 101953Z 19007KT 10SM FEW022 SCT030 OVC060 04/M02 A3023=
KERI 101951Z AUTO 18009KT 10SM BKN012 OVC049 05/02 A3012=
KEWB 101953Z 00000KT 2SM R05/5000VP6000FT -RA BR BKN007 OVC012
     03/03 A3038=
KEWN 101954Z 14006KT 10SM SCT040 BKN047 OVC100 21/13 A3026=
KEWR 101951Z 03004KT 1SM -DZ BR OVC005 01/M01 A3037=
KFAY 101953Z AUTO 02006KT 7SM FEW060 OVC090 14/12 A3019=
KFLO 101953Z 16013G20KT 10SM SCT027 BKN032 OVC055 22/16 A3015=
KFRG 101953Z 00000KT 1 1/4SM BR OVC024 02/02 A3038=
KFVE 101953Z AUTO 22003KT 10SM CLR M08/M16 A3018=
KGFL 101953Z AUTO 00000KT 9SM OVC030 M02/M04 A3032=

0000018100
827
FTCN34 CWAO 102000 AAA
TAF AMD CYRL 102006Z 1020/1103 17008KT 2SM -SN BR OVC004 TEMPO
     1020/1103 4SM BR OVC008
    RMK NXT FCST WILL BE ISSUED AT 111145Z=

0000024100
828
FTUS52 KWBC 102006 AAA
TAF AMD
KLBT 102004Z 1020/1118 14010KT P6SM SCT025 OVC070
      TEMPO 1020/1024 4SM -SHRA BKN025
     FM110200 15007KT 3SM BR VCSH BKN008 OVC015
     FM111500 19012KT P6SM VCSH SCT015 BKN100=

0000031100
829
FTUS54 KWBC 102006 AAA
TAF AMD
KGCN 102005Z 1020/1118 29010G17KT P6SM SCT250
     FM110100 VRB02KT P6SM SCT250=
KRDM 102002Z 1020/1118 25011KT P6SM OVC050
     FM102300 19010KT P6SM VCSH OVC050
     FM110600 19015G24KT P6SM SCT050 OVC100
     FM111300 20018G30KT P6SM VCSH BKN050=

0000137600
830
FTUS80 KWBC 102006 AAA
TAF AMD
KAVP 102004Z 1020/1118 26005KT P6SM SCT015 OVC020
      TEMPO 1022/1102 SCT009 BKN012
     FM110200 18004KT P6SM OVC009
     FM110600 15007KT 3SM -SHRA BR OVC008=
KBPT 102004Z 1020/1118 16008KT P6SM VCSH FEW007 BKN035
      TEMPO 1021/1101 -SHRA
     FM110100 18012KT 5SM BR VCSH OVC004
      TEMPO 1101/1105 3SM SHRA
     FM110900 27008KT 1SM BR OVC001
     FM111400 34008KT P6SM SKC=
KFST 102003Z 1020/1118 28022G31KT P6SM SKC
     FM110000 25008KT P6SM SKC=
KGCN 102005Z 1020/1118 29010G17KT P6SM SCT250
     FM110100 VRB02KT P6SM SCT250=
KLBT 102004Z 1020/1118 14010KT P6SM SCT025 OVC070
      TEMPO 1020/1024 4SM -SHRA BKN025
     FM110200 15007KT 3SM BR VCSH BKN008 OVC015
     FM111500 19012KT P6SM VCSH SCT015 BKN100=
KLCH 102005Z 1020/1118 17010KT P6SM VCSH FEW007 BKN035
      TEMPO 1023/1102 -SHRA
     FM110200 20012KT 2SM -SHRA BR OVC003
     FM110900 27008KT 1SM BR OVC001
     FM111400 34008KT P6SM SCT005=
KRDM 102002Z 1020/1118 25011KT P6SM OVC050
     FM102300 19010KT P6SM VCSH OVC050
     FM110600 19015G24KT P6SM SCT050 OVC100
     FM111300 20018G30KT P6SM VCSH BKN050=
KRME 102003Z 1020/1118 11006KT P6SM SCT018 OVC025
      TEMPO 1020/1022 SCT025 OVC035
     FM110000 12005KT P6SM SCT015 OVC020
     FM110700 14008KT 4SM -SHRA SCT009 OVC012=

0000024400
831
FTUS80 KWBC 102006 AAB
TAF AMD
KSAV 102003Z 1020/1118 14007KT P6SM -SHRA BKN010 BKN020
     FM110200 15005KT 4SM BR SCT005 BKN010
     FM110600 18005KT 3/4SM BR OVC003
     FM111500 21012G20KT P6SM VCSH SCT015 BKN040=

0000185300
832
SPUS70 KWBC 102006
SPECI
KAUW 102002Z AUTO 16006KT 1 3/4SM BR OVC004 M03/M04 A2971 RMK AO2
     T10331039=
KBFD 102002Z AUTO 15007KT 1 3/4SM BR OVC003 01/M01 A3015 RMK AO2
     T00111006 TSNO=
KBLF 102002Z AUTO 17010G16KT 130V210 10SM FEW008 OVC050 11/06
     A3014 RMK AO2=
KBPK 102002Z AUTO 18007KT 5SM RA BR SCT007 BKN032 OVC060 09/08
     A2974 RMK AO2 P0001=
KCUB 102002Z AUTO 34003KT 5SM -RA BR OVC004 10/09 A3017 RMK AO2
     P0000 T01000089 TSNO=
KDAN 102002Z AUTO 36005KT 6SM -RA BR OVC003 03/02 A3028 RMK AO2
     P0000=
KDCA 102002Z 00000KT 2SM BR OVC006 04/02 A3034 RMK AO2 DZE02
     P0000=
KGED 102002Z AUTO 00000KT 2SM -RA BR BKN002 BKN026 OVC037 06/05
     A3034 RMK AO2 P0000 T00560050=
KGRI 102001Z 25009KT 7SM BKN012 OVC060 02/M01 A2952 RMK AO2
     T00221011=
KRKS 102002Z AUTO 29026G35KT 10SM BKN026 OVC032 00/M06 A2984 RMK
     AO2 PK WND 29035/2000 T00001056=
KUGN 102002Z 15007KT 1/4SM FG OVC002 00/00 A2979 RMK AO2 P0001=
KUIN 102002Z AUTO 17009KT 3SM RA BR OVC004 04/03 A2964 RMK AO2
     P0001 T00390028=
PAPB 101951Z AUTO 00000KT 10SM SCT015 SCT022 M03/M03 A2920 RMK
     TSNO VIA AUTODIAL=
KNSE 102004Z 11005KT 3SM -DZ OVC003 16/14 A3003 RMK AO2 P0000
     T01560144 $=
KADF 102002Z AUTO 16003KT 1/2SM RA FG OVC003 12/12 A2980 RMK AO2
     CIG 002V006 P0001=
KBOS 102003Z 15003KT 3SM BR FEW010 SCT017 OVC033 00/M02 A3039 RMK
     AO2 TWR VIS 4=
KCOT 102003Z AUTO 24005KT 10SM SCT029 22/14 A2983 RMK AO2=
KNEW 102003Z 12007KT 8SM OVC004 14/12 A2999 RMK AO2 T01440122=
KTDZ 102003Z AUTO 13007KT 4SM BR SCT023 OVC036 03/01 A3002 RMK AO2
     TSNO=
PAHC 102003Z AUTO 36014KT 7SM OVC047 M16/M19 A2957 RMK AO2 TSNO
     BLSNE03 $=
KALO 102003Z AUTO 11005KT 3SM UP BR OVC006 00/M01 A2958 RMK AO2
     CIG 004V010 P0000 T00001006 TSNO=

00000000