0000044200
193
FTCN31 CWAO 101700
TAF CYQQ 101739Z 1018/1118 VRB03KT P6SM SCT020 BKN030 TEMPO 1018/1020
     5SM -SHRA BR BKN012
    FM102000 14010KT P6SM -SHRA SCT012 OVC025 TEMPO 1020/1024 5SM
     -SHRA BR OVC012
    FM110000 14020G30KT 3SM -RA BR OVC006 TEMPO 1100/1110 P6SM -RA
     OVC010
     BECMG 1103/1105 14030G40KT
     BECMG 1107/1109 15015G25KT
    FM111000 18012KT P6SM SCT020
    RMK NXT FCST BY 110000Z=

0000026800
194
FTCN31 CWAO 101700
TAF CYCD 101738Z 1018/1105 VRB03KT P6SM SCT020 OVC090 TEMPO 1019/1022
     5SM -SHRA BR BKN020 OVC030
    FM102200 14007KT P6SM -RA SCT006 OVC020 TEMPO 1022/1105 2SM -SHRA
     BR SCT004 OVC006
    RMK NXT FCST BY 110000Z=

0000052100
195
FTCN31 CWAO 101700
TAF CYXX 101738Z 1018/1118 20010KT P6SM SCT020 BKN030 OVC100 TEMPO
     1018/1024 5SM -SHRA BR BKN020
     BECMG 1021/1023 18006KT
    FM110000 18006KT P6SM -SHRA SCT006 OVC025 TEMPO 1100/1109 2SM -RA
     BR BKN006 OVC015
     BECMG 1101/1103 08007KT
    FM110900 20015G25KT 6SM -RA SCT006 OVC015 TEMPO 1109/1114 2SM -RA
     BR BKN006 OVC015
    FM111400 20015G25KT P6SM SCT012 OVC030 TEMPO 1114/1118 3SM -SHRA
     BR SCT008 OVC012
    RMK NXT FCST BY 110000Z=

0000021600
196
SAUS73 KWBC 101700 RRF
METAR
KCIU 101735Z AUTO 17009G14KT 1 3/4SM OVC004 M03/M04 A2997=
KELO 101733Z AUTO 18005KT 7SM OVC009 M07/M09 A2962=
KLBL 101735Z AUTO 31016G23KT 10SM CLR 08/M04 A2975=

0000009500
197
SAUS74 KWBC 101700 RRD
METAR
KOTH 101735Z 15003KT 10SM OVC070 10/10 A3023=

0000030800
198
SAUS75 KWBC 101700 RRD
METAR
PADK 101736Z AUTO 24022G27KT 9SM FEW014 BKN022 OVC030 04/02
     A2895=
PAGS 101736Z AUTO 14011KT 10SM SCT017 BKN026 OVC090 02/01
     A2949=
PAUN 101736Z AUTO 09014KT 10SM SCT044 M13/M19 A2959=
PAVD 101736Z 10SM FEW005 BKN050 OVC070 M03/M06 A2937=

0000039800
199
FTCN31 CWAO 101700
TAF CYYJ 101738Z 1018/1118 VRB03KT P6SM SCT020 BKN120 TEMPO 1018/1022
     BKN020
     BECMG 1019/1021 20008KT
    FM102200 15008KT 6SM -RA SCT007 OVC020 TEMPO 1022/1110 2SM -RA BR
     BKN007 OVC020
     BECMG 1105/1107 15010G20KT
    FM111000 23015G25KT P6SM SCT012 BKN030 TEMPO 1110/1118 5SM -SHRA
     BR OVC012
    RMK NXT FCST BY 110000Z=

0000023900
200
FTCN35 CWAO 101700
TAF CYHM 101739Z 1018/1118 18008KT 1SM BR OVC003 TEMPO 1018/1105 3SM
     BR OVC006
    FM110500 17012KT 1SM -RA BR OVC003
    FM111200 20012KT 11/2SM -RA BR OVC003
    RMK NXT FCST BY 110000Z=

0000023900
201
FTCN35 CWAO 101700
TAF CYXU 101739Z 1018/1118 17008KT 3/4SM BR OVC002 TEMPO 1018/1104
     3SM BR OVC005
    FM110400 17012KT 1SM -RA BR OVC003
    FM111000 20012KT 1/2SM -RA FG VV002
    RMK NXT FCST BY 110000Z=

0000026800
202
FTCN35 CWAO 101700
TAF CYKZ 101739Z 1018/1106 VRB03KT 1SM BR OVC003 TEMPO 1018/1020 2SM
     -FZDZ BR OVC005
    FM102000 15006KT 1SM BR OVC003 TEMPO 1020/1105 3SM BR OVC005
    FM110500 12008KT 1SM -RA BR OVC003
    RMK NXT FCST BY 110000Z=

0000017700
203
FTCN36 CWAO 101700
TAF CYSC 101739Z 1018/1103 VRB03KT P6SM OVC030 TEMPO 1018/1103 5SM
     -SN OVC020
    RMK FCST BASED ON AUTO OBS. NXT FCST BY 110000Z=

0000039200
204
FTCN35 CWAO 101700
TAF CYYZ 101739Z 1018/1124 15005KT 1SM BR OVC003 TEMPO 1018/1020 2SM
     -FZDZ BR OVC005
    FM102000 15006KT 1SM BR OVC003 TEMPO 1021/1106 3SM BR OVC005
    FM110600 12008KT 1SM -RA BR OVC003
    FM110900 16008KT 1/2SM -RA FG VV002
    FM111400 20010KT 11/2SM -RA BR OVC003
    FM112200 23015G25KT P6SM OVC015
    RMK NXT FCST BY 102100Z=

0000031200
205
FTCN35 CWAO 101700
TAF CYQG 101739Z 1018/1118 19010KT 4SM BR OVC007 TEMPO 1018/1102 P6SM
     NSW OVC012
    FM110200 18012KT 11/2SM -RA BR OVC004 TEMPO 1102/1104 3SM BR
     OVC010
    FM110900 20012KT 1SM -RA BR OVC003
     BECMG 1115/1117 24015G25KT
    RMK NXT FCST BY 110000Z=

0000037200
206
FTCN38 CWAO 101700
TAF CYYT 101739Z 1018/1118 30025G35KT P6SM BKN030 TEMPO 1018/1102 5SM
     -SN BKN020
     BECMG 1019/1021 28020G30KT
    FM110200 28018G28KT P6SM -SN BKN020 OVC080 TEMPO 1102/1112 5SM
     -SN
     BECMG 1104/1106 26015G25KT
    FM111200 28015G25KT P6SM SCT020 BKN080 TEMPO 1112/1116 BKN020
    RMK NXT FCST BY 110000Z=

0000020700
207
FTCN37 CWAO 101700
TAF CYSJ 101739Z 1018/1106 25008KT P6SM SCT030 TEMPO 1018/1022 BKN020
    FM102200 25008KT P6SM BKN025 TEMPO 1022/1106 P6SM -SHSN BKN020
    RMK NXT FCST BY 110000Z=

0000029600
208
FTCN38 CWAO 101700
TAF CYQX 101739Z 1018/1118 25012G22KT P6SM BKN030 TEMPO 1018/1023
     P6SM -SN BKN020
    FM102300 24012KT P6SM SCT020 OVC080 TEMPO 1023/1109 4SM -SN
     OVC020
    FM110900 24012KT P6SM BKN020 TEMPO 1109/1118 5SM -SN
    RMK NXT FCST BY 110000Z=

0000191200
209
SZAU01 AMMC 110951
CREX++
T000103 A001 D01021 D06025++
-1927750 14705860 59260 2014 01 11 09 44 3030 11 07 00 01
02440 0181 02437 0181 02439 0187 02447 0198 02446 0201 02439 0196+
-2316110 15079000 59670 2014 01 11 09 44 3003 11 07 00 01
03385 0224 03383 0228 03366 0216 03363 0220 03345 0207 03348 0214+
-3447330 15091170 60420 2014 01 11 09 44 2950 11 07 00 01
00844 -0019 00835 -0026 00836 -0021 00833 -0022 00838 -0014 00841 -0008+
-4105000 14591500 60910 2014 01 11 09 44 2888 11 07 00 01
03012 -0007 03013 -0007 03013 -0008 03010 -0012 03007 -0015 03022 0000+
-4254640 14793080 61170 2014 01 11 09 44 2895 11 07 00 01
01236 0119 01224 0108 01218 0103 01222 0109 01220 0108 01226 0115+
-3834390 14161360 61410 2014 01 11 09 44 2907 11 07 00 01
00650 0024 00669 0042 00643 0015 00657 0028 00650 0020 00663 0032+
-3214890 13364170 62000 2014 01 11 09 44 2958 11 07 00 01
01256 0149 01254 0148 01252 0147 01250 0146 01247 0144 01242 0140+
-3387080 12189720 62080 2014 01 11 09 44 2950 11 07 00 01
00947 0066 00918 0035 00937 0053 00947 0062 00933 0047 00949 0061+
-3182560 11573860 62237 2014 01 11 09 44 2973 11 07 00 01
01000 0052 01013 0065 01012 0063 01017 0068 01026 0077 01033 0083+
-2422000 11339750 62385 2014 01 11 09 44 //// 11 07 00 01
01404 -0105 01393 -0117 01435 -0075 01454 -0056 01402 -0108 01421 -0089+
-2181670 11419110 62430 2014 01 11 09 44 //// 11 07 00 01
02165 -0068 02159 -0075 02169 -0066 02155 -0082 02166 -0071 02174 -0065+
-1800080 12221830 62650 2014 01 11 09 44 3043 11 07 00 01
06925 0110 06928 0109 06930 0107 06930 0104 06933 0104 06933 0100+
-1247190 13084580 63230 2014 01 11 09 44 3050 11 07 00 01
04464 0154 04453 0147 04450 0149 04447 0150 04440 0147 04434 0145+
-1386000 13641580 63511 2014 01 11 09 44 3043 11 07 00 01
01855 0150 01856 0151 01856 0150 01856 0149 01857 0150 01859 0152++
7777

0000179100
210
SZPS01 AMMC 110951
CREX++
T000103 A001 D01021 D06025++
-0204190 14737360 56130 2014 01 11 09 44 3028 11 07 00 01
00604 0054 00598 0051 00593 0048 00591 0048 00587 0047 00582 0044+
-0669280 15640860 56363 2014 01 11 09 44 //// 11 07 00 01
00360 -0076 00365 -0070 00363 -0072 00363 -0071 00365 -0069 00370 -0064+
-0942890 15995560 56670 2014 01 11 09 44 3043 11 07 00 01
00552 -0033 00546 -0038 00544 -0039 00543 -0039 00544 -0036 00538 -0041+
-1072080 16580190 57131 2014 01 11 09 44 //// 11 07 00 01
01313 1052 00889 0628 02567 2306 02093 1831 01134 0873 02561 2299+
-1551560 16718860 57210 2014 01 11 09 44 //// 11 07 00 01
00339 -0071 00329 -0081 00327 -0083 00331 -0079 00335 -0075 00334 -0077+
-1775690 16830030 57320 2014 01 11 09 44 3017 11 07 00 01
00375 -0096 00375 -0095 00374 -0095 00372 -0097 00370 -0098 00366 -0101+
-4397330 16861610 65180 2014 01 11 09 44 2887 11 07 00 01
02199 0375 02214 0395 02206 0391 02169 0357 02157 0351 02157 0354+
-2120470 -15978530 65980 2014 01 11 09 44 3012 11 07 00 01
00421 0004 00414 -0003 00415 -0002 00403 -0014 00429 0011 00396 -0022+
-2113810 -17518140 66600 2014 01 11 09 44 //// 11 07 00 01
00645 0111 00638 0103 00649 0114 00644 0109 00638 0102 00633 0097+
-1382670 -17176110 66840 2014 01 11 09 44 3013 11 07 00 01
00507 0056 00501 0048 00507 0053 00500 0045 00512 0055 00508 0050+
-1813250 17842750 67050 2014 01 11 09 44 3030 11 07 00 01
00707 0104 00707 0103 00707 0104 00708 0104 00711 0107 00714 0110+
-1760530 17743810 67070 2014 01 11 09 44 3033 11 07 00 01
00666 0027 00667 0028 00670 0030 00672 0033 00674 0034 ///// ////+
-0850250 17919500 67440 2014 01 11 09 44 3028 11 07 00 01
01603 0014 01604 0013 01602 0009 01607 0012 01613 0016 01616 0018++
7777

0000030000
211
SIAA20 LIIB 110900
AAXX 11094
89646 46/// /1106 11156 29080 37663 4//// 5////=
89648 46/// /1704 11203 29072 37234 4//// 5////=
89659 46/// /2906 11180 29073 37748 4//// 5////=
89661 46/// /2002 11037 29083 39346 4//// 5////=
89666 46/// /1506 11021 29067 39807 4//// 5////=
0000011000
212
UANT01 CWAO 110946
ARP AFR439 5450N04232W 0946 F370 MS59 291/40 KT
FGITJ QXT AOW 110946 F08A
00000000