0000046500
993
SASN34 ESWI 101820
METAR ESCF 101820Z AUTO 33004KT 9999NDV OVC010/// M02/M03 Q1001=
METAR ESDF 101820Z 28004KT 9999 FEW017 02/00 Q1003=
METAR ESIB 101820Z AUTO 18006KT 9999NDV SCT020/// OVC060/// M00/M01 
Q1001=
METAR ESMV 101820Z NIL=
METAR ESPA 101820Z 03010KT 350V060 3400 SN VV033 M12/M14 Q1007=
METAR ESPE 101820Z AUTO 02010KT 7000NDV -SG VV035/// M14/M17 Q1008=
METAR ESSL 101820Z 33005KT 9999 OVC011 M03/M04 Q1001 R29/19//95=

0000038200
994
SASN35 ESWI 101820
METAR ESGR 101820Z NIL=
METAR ESKM 101820Z NIL=
METAR ESNL 101820Z 34010KT 8000 -SG FEW009 SCT024 OVC033 M13/M17
Q1004=
METAR ESNX 101820Z AUTO 02009KT 5000NDV -SN VV011 M15/M18 Q1005=
METAR ESNY 101820Z NIL=
METAR ESSF 101820Z NIL=
METAR ESSK 101820Z NIL=
METAR ESUD 101820Z AUTO VRB03KT 9999 IC OVC028/// M14/M17 Q1005
RESG=

0000009900
995
SAUS71 KWBC 101800 RRG
METAR
KIAG 101755Z COR 20008KT 7SM OVC012 02/M01 A3017=

0000010300
996
SAUK31 EGGY 101820 CCA
METAR COR EGLL 101820Z 21008KT 9999 SCT040 08/06 Q1013 NOSIG=

0000009000
997
SPCN45 CWAO 101821
SPECI CYOA 101821Z 14005KT 2SM BR OVC025 RMK FG2SC6=

0000009300
998
SAUK37 EGGY 101820 RRA
METAR EGNR 101820Z 15008KT 9999 SCT030 09/07 Q1008=

0000070400
999
FTUS52 KWBC 101824 AAA
TAF AMD
KDRO 101823Z 1018/1118 34010G18KT P6SM SCT040
     FM110100 02009KT P6SM VCSH BKN050
     FM111200 24005KT P6SM VCSH SCT050 BKN090=
KTEX 101822Z 1018/1118 27010G20KT 4SM -SN BKN020 OVC035
      TEMPO 1018/1021 2SM -SN BR OVC015
     FM102100 32008KT 4SM -SN OVC025
     FM110300 16005KT P6SM VCSH SCT015 BKN025
     FM111000 VRB03KT P6SM SCT025 BKN060=
KTXK 101822Z 1018/1118 18014G22KT P6SM VCSH OVC009CB
      TEMPO 1018/1022 2SM -TSRA BR SCT009 BKN020CB
     FM102200 20013G20KT 5SM -TSRA BR OVC009CB
     FM110300 24010KT 5SM -RA BR VCTS OVC015CB
     FM110600 28008G16KT P6SM SCT015 SCT250
     FM110900 27008KT P6SM SKC=

0000025500
000
FTUS53 KWBC 101824 AAA
TAF AMD
KEGE 101822Z 1018/1118 30008G15KT P6SM VCSH SCT035 BKN050
      TEMPO 1019/1023 5SM -SN BR SCT035 OVC050
     FM110200 VRB03KT P6SM VCSH SCT025 BKN040
     FM111200 VRB03KT P6SM VCFG SCT015 BKN050=

0000142200
001
FTUS80 KWBC 101824 AAA
TAF AMD
KDRO 101823Z 1018/1118 34010G18KT P6SM SCT040
     FM110100 02009KT P6SM VCSH BKN050
     FM111200 24005KT P6SM VCSH SCT050 BKN090=
KEGE 101822Z 1018/1118 30008G15KT P6SM VCSH SCT035 BKN050
      TEMPO 1019/1023 5SM -SN BR SCT035 OVC050
     FM110200 VRB03KT P6SM VCSH SCT025 BKN040
     FM111200 VRB03KT P6SM VCFG SCT015 BKN050=
KMEM 101823Z 1018/1118 17012G18KT P6SM SCT025 BKN100
     FM102300 18012G18KT P6SM VCSH BKN035
     FM110200 18015G22KT 4SM -RA BR VCTS OVC009CB
     FM110800 24014KT P6SM BKN012 OVC100
     FM111100 26010KT P6SM SCT020
     FM111500 28012G20KT P6SM SCT025=
KSFO 101823Z 1018/1124 36004KT P6SM FEW006 SCT200
     FM102200 29012KT P6SM FEW012 BKN200
     FM110300 29006KT P6SM FEW012 BKN250
      TEMPO 1103/1105 BKN012
     FM110500 27004KT P6SM OVC010
     FM111700 23012KT P6SM BKN100=
KTEX 101822Z 1018/1118 27010G20KT 4SM -SN BKN020 OVC035
      TEMPO 1018/1021 2SM -SN BR OVC015
     FM102100 32008KT 4SM -SN OVC025
     FM110300 16005KT P6SM VCSH SCT015 BKN025
     FM111000 VRB03KT P6SM SCT025 BKN060=
KTXK 101822Z 1018/1118 18014G22KT P6SM VCSH OVC009CB
      TEMPO 1018/1022 2SM -TSRA BR SCT009 BKN020CB
     FM102200 20013G20KT 5SM -TSRA BR OVC009CB
     FM110300 24010KT 5SM -RA BR VCTS OVC015CB
     FM110600 28008G16KT P6SM SCT015 SCT250
     FM110900 27008KT P6SM SKC=

0000151700
002
SPUS70 KWBC 101824
SPECI
KAHN 101820Z 06005KT 2SM -RA BR OVC005 07/07 A3018 RMK AO2
     P0001=
KCLE 101820Z 18010KT 8SM SCT009 BKN020 OVC049 04/02 A3014 RMK AO2
     T00440017=
KCWA 101820Z 15005KT 2SM BR OVC002 M04/M04 A2979=
KITR 101820Z AUTO 33021G32KT 4SM -SN BKN030 OVC038 01/M06 A2966
     RMK AO2 PK WND 33040/1808 SNE1756B10 P0000 T00061061=
KMPV 101821Z AUTO 00000KT 2 1/2SM -SN SCT038 BKN049 OVC065 M06/M09
     A3030 RMK AO2 SNB09 P0000=
KMVY 101820Z 19009KT 10SM -RA BKN022 OVC037 06/03 A3041 RMK AO2
     P0000 $=
KPHD 101820Z AUTO 15004KT 2 1/2SM BR OVC002 04/03 A3018 RMK
     AO2=
KRST 101820Z 16006KT 1SM R31/4500VP6000FT -FZRA BR OVC003 M02/M03
     A2967 RMK AO2 TWR VIS 1 1/4 FZRAB14 P0000 I1001 T10171028=
KBFM 101821Z 01004KT 8SM -RA BKN023 OVC032 14/12 A3008 RMK AO2
     RAB12 P0000 T01440122=
KHFD 101821Z 00000KT 2SM BR OVC008 M01/M02 A3040 RMK AO2 SNE08
     P0000 T10061022=
KHVN 101821Z 00000KT 1 3/4SM -RA BR OVC013 01/00 A3039 RMK AO2
     P0000=
KHYR 101821Z AUTO 17008KT 1 1/2SM BR OVC006 M05/M07 A2970 RMK
     AO2=
KIJD 101821Z AUTO 00000KT 3SM UP BR BKN006 BKN019 OVC027 M02/M04
     A3040 RMK AO2 P0001 I1000 T10221039=
KRWF 101821Z AUTO 17014KT 2SM BR OVC004 M02/M03 A2959 RMK AO2=
KSHN 101821Z AUTO 22007KT 1 3/4SM BR SCT010 BKN014 OVC021 07/06
     A3011 RMK AO2 RAE08 P0001 T00720061 TSNO=
KVIH 101821Z AUTO 19016G24KT 3SM +RA BR OVC004 05/05 A2973 RMK AO2
     LTG DSNT N AND NE P0013 T00500050=

0000010400
003
SPUS31 KWBC 101824
SPECI
KCLE 101820Z 18010KT 8SM SCT009 BKN020 OVC049 04/02 A3014=

0000011300
004
SPUS43 KWBC 101824
SPECI
KPIA 101820Z 14010KT 2SM R13/6000VP6000FT RA BR OVC006 02/01 A2979=

0000010900
005
SACA33 KWBC 101800 RRD
METAR
TNCC 101800Z 11009KT 080V150 0000 SCT025 29/22 Q1013 NOSIG=

0000009300
006
SAUK34 EGGY 101820 RRA
METAR EGJA 101820Z 17009KT 9999 SCT005 08/08 Q1015=

0000010600
007
SAUK33 EGGY 101820 RRA
METAR EGNS 101820Z VRB03KT 9999 FEW014 BKN036 07/05 Q1007 NOSIG=

0000009700
008
SAUK36 EGGY 101820 CCA
METAR COR EGSH 101820Z 19008KT CAVOK 07/05 Q1012 NOSIG=

0000048700
009
SAFI32 EFHK 101820
METAR EFHA 101820Z AUTO 36011KT 5000 -SN OVC008 
M05/M05 Q0993=
EFHF 101820Z 35013KT 320V020 9999 -SN BKN011 M00/M02 Q0989=
METAR EFKA 101820Z AUTO 03012KT 9999 OVC010 M07/M08
 Q0998=
EFKK 101820Z 04011KT 9999 -SHSN SCT016 BKN023 M08/M10 Q0999=
EFMA 101820Z 33011KT 4100 -RASN OVC005 00/00 Q0996=
METAR EFPO 101820Z AUTO 01010KT 9999 OVC008/// M03/M04 Q0995 
R12/29//95=
EFSI 101820Z AUTO 01006KT 320V050 9999 OVC008 M06/M07 Q0996=

0000043300
010
SABX31 EBBR 101820
METAR EBAW 101820Z 22008KT 190V250 9999 BKN009 06/03 Q1017 TEMPO
     BKN008=
METAR EBBR 101820Z 22011KT 9999 BKN012 05/03 Q1017 TEMPO BKN008=
METAR EBCI 101820Z 21007KT 170V230 9999 BKN010 05/03 Q1017 NOSIG=
METAR EBLG 101820Z 20013KT 9999 FEW011 04/02 Q1017 NOSIG=
METAR EBOS 101820Z 19009KT 9999 BKN012 05/03 Q1016 TEMPO BKN008=
METAR ELLX 101820Z VRB02KT CAVOK 03/02 Q1018 NOSIG=

0000006100
011
SAOS32 LOWM 101820
METAR LOXZ 101820Z NIL=

0000049500
012
SAOS31 LOWM 101820
METAR LOWW 101820Z 26006KT CAVOK 06/00 Q1020 NOSIG=
METAR LOWL 101820Z 24006KT 9999 FEW050 04/00 Q1021 NOSIG=
METAR LOWS 101820Z 17003KT 9999 FEW025 BKN035 04/03 Q1020 NOSIG=
METAR LOWI 101820Z VRB02KT 9999 FEW010 BKN100 03/03 Q1020 R08/19//74
NOSIG=
METAR LOWG 101820Z 35003KT 1200 R17/0800D R35/0450N BCFG FEW060 01/01
Q1020 R17/29//95 BECMG 0400 FZFG SCT001=
METAR LOWK 101820Z VRB02KT 0450 R10/0500N R28/0600N FG VV002 03/02
Q1020 NOSIG=

00000000