0000120200
253
SNFR32 LFPW 111000
AAXX 11104
07140 24135 83104 10062 20059 30053 40209 53033 710//
  333 60005 90710 91106=
07143 24460 /2401 10069 20065 30014 40204 51030 700//
  333 60005 90710 91105=
07145 21/03 92703 10049 20049 39990 40205 51032 74742
  333 60005 90710 91107 93100=
07146 21156 72905 10064 20061 30005 40203 52030 72842 8653/
  333 60005 84703 84650 85656 90710 91109 93100=
07150 24219 82603 10067 20064 30140 40201 52029 710//
  333 60005 90710 91106=
07153 24120 82403 10059 20052 30089 40203 53030 710//
  333 60005 90710 91105=
07156 24/50 /2503 10077 20066 30105 40201 51031 700//
  333 60005 90710 91106=
07157 21006 72606 10059 20053 30063 40201 51031 74142 8653/
  333 60005 82701 85703 85366 90710 91113 93100=
07245 24/01 /2903 10057 20057 30056 40210 53034 745//
  333 60005 90710 91107=
07247 24159 82602 10061 20058 30105 40209 53032 700//
  333 60005 90710 91104=
07249 24/14 93003 10058 20057 30054 40208 53033 710//
  333 60005 90710 91106=
07257 24462 82503 10081 20064 39990 40206 51030 700//
  333 60005 90710 91105=
07354 22461 82510 10094 20077 30015 40206 52030 885//
  333 60005 88611 90710 91114 93100=
0000049600
254
SNFR33 LFPW 111000
AAXX 11104
07093 24650 81902 10030 20021 39875 40193 53012 760//
  333 69925 90710 91112=
07180 21258 81402 10034 20031 39933 40196 51017 76066 875//
  333 69985 81705 87658 90710 91105 93100=
07288 22960 70000 10062 20047 39829 40206 53022 8707/
  333 60005 87360 90710 91103 93100=
07292 24460 80904 10056 20039 39869 40202 51019 760//
  333 69905 90710 91108=
07386 24958 72110 10090 20070 39968 40205 52026 700//
  333 69905 90710 91116=
0000009700
255
SAIN90 VEBS 111000
METAR VEBS 111000Z 16009KT 2500 HZ FEW020 29/16 Q1013
NOSIG=
0000129000
256
FCIN31 VECC 110900
TAF VAAH 110900Z 1112/1121 05008KT 4000 FU/HZ FEW100 BECMG 1112/1114
    02006KT 3000=
TAF VANP 110900Z NIL=
TAF VEAT 110900Z 1112/1121 00000KT 2500 BR NSC BECMG 1115/1118 1500
    BR FEW020 SCT100=
TAF VEBS 110900Z 1112/1121 18002KT 2000 HZ NSC
         BECMG 1115/1117 08004KT 1500 BR=
TAF VECC 110900Z 1112/1121 00000KT 1800 FU/BR NSC=
TAF VEGT 110900Z 1112/1121 00000KT 2500 HZ SCT018 BKN100 BEC
    1116/1118 2000 BR  BEC 1119//1121 1500 BR=
TAF VEGY 110900Z 1112/1121 14005KT 1800 BR/-RA SCT015 BKN100 BECMG
     1116/1118 1500 BR=
TAF VEIM 110900Z 1112/1121 00000KT 2000 BR SCT018 BKN100 BEC
    1116/1118 1500 BR BEC 1119/1121 1200 BR=
TAF VEMN 110900Z NIL=
TAF VEPT 110900Z 1112/1121 14005KT 1800 BR/-RA SCT015 BKN100 BECMG
     1116/1118 1500 BR=
TAF VERC 110900Z 1112/1121 32005KT 1800 BR/-RA SCT015 BKN090 BECMG
     1116/1118 1500 BR=
TAF VGEG 110900Z NIL=
TAF VGHS 110900Z NIL=
TAF VIJP 110900Z NIL=
TAF VNKT 110900Z NIL=
TAF VOBG 110900Z 1112/1121 09005KT 6000 FEW015=
TAF VOHY 110900Z 1112/1121 15005KT 4000 HZ SCT020=
TAF VOTV 110900Z 1112/1121 14005KT 5000 HZ FEW015 SCT100
    TEMPO 1112/1115 2000 TSRA/RA SCT008 SCT012 FEW025CB OVC090
     BECMG
    1117/1118 00000KT 4000 HZ=

0000010000
257
SPUS41 KWBC 101955
SPECI
KCEF 101949Z 17003KT 10SM BKN007 OVC070 M01/M01 A3036=

0000087500
258
SAIY31 LIIB 101950
METAR LIEA 101950Z 01002KT 7000 1500NW R20/0800VP1500N MIFG NSC
08/08 Q1020=
METAR LIEE 101950Z VRB01KT 9999 MIFG NSC 11/10 Q1019=
METAR LIEO 101950Z 20004KT 8000 0800S R05/0700V0800D BCFG NSC 07/07
Q1021=
METAR LIMC 101950Z VRB01KT 9999 BKN040 09/06 Q1021 NOSIG=
METAR LIME 101950Z 14004KT 2000 BR BKN005 08/08 Q1021=
METAR LIMF 101950Z 00000KT 9999 BKN030 09/05 Q1021=
METAR LIMJ 101950Z 22002KT 9999 BKN027 13/10 Q1021=
METAR LIML 101950Z 10003KT 070V150 9999 SCT035 SCT045 09/08 Q1021
NOSIG=
METAR LIRA 101945Z 00000KT 8000 SCT030 BKN070 11/09 Q1021=
METAR LIRF 101950Z 03001KT 9999 BKN027 12/09 Q1022 NOSIG=
METAR LIRN 101950Z 34004KT 330V050 5000 BR BKN030 13/08 Q1022=
METAR LIRP 101945Z VRB02KT 9999 FEW030 BKN050 10/09 Q1021 NOSIG=
METAR LIRQ 101950Z 11003KT 080V140 9999 FEW020 BKN035 12/11 Q1021=

0000008300
259
SACS31 MROC 101953
METAR MRLB 102000Z 06014KT CAVOK 33/17 A2976=

0000050600
260
SAUK31 EGGY 101950
METAR EGBB 101950Z 18007KT 150V210 9999 -RA BKN046 08/06 Q1010=
METAR EGCC 101950Z 19011KT 9999 -RA FEW025 SCT033 BKN039 07/05
    Q1008=
METAR EGKK 101950Z 21007KT 9999 FEW009 SCT013 BKN018 08/07 Q1014=
METAR EGLL 101950Z 21008KT CAVOK 08/06 Q1013=
METAR EGPF 101950Z 25002KT CAVOK 03/01 Q1006=
METAR EGPH 101950Z 24008KT CAVOK 03/02 Q1006=
METAR EGPK 101950Z 31008KT 9999 FEW028 03/02 Q1007=
METAR EGSS 101950Z 22010KT 9999 FEW015 BKN040 08/06 Q1013=

0000051800
261
SAUK32 EGGY 101950
METAR EGAA 101950Z 24005KT CAVOK 02/02 Q1008=
METAR EGAC 101950Z 25005KT CAVOK 05/02 Q1008=
METAR EGFF 101950Z 22006KT 9999 DZ FEW021 SCT026 BKN038 09/07
    Q1012=
METAR EGGW 101950Z 20008KT 9999 SCT009 07/06 Q1012=
METAR EGLC 101950Z 22009KT 9999 -SHRA SCT045 09/06 Q1014=
METAR EGNM 101950Z 22008KT 190V270 9999 SCT015 SCT040 07/05
    Q1007=
METAR EGNX 101950Z 21010KT 9999 -SHRA FEW035 SCT047 07/06 Q1010=
METAR EGPD 101950Z 26006KT CAVOK 05/01 Q1004 NOSIG=

0000044000
262
SAUK33 EGGY 101950
METAR EGGD 101950Z 19007KT 9999 FEW046 08/06 Q1011=
METAR EGGP 101950Z NIL=
METAR EGHI 101950Z 22009KT 190V250 9000 -SHRA SCT020 SCT035 08/06
    Q1014 =
METAR EGNS 101950Z NIL=
METAR EGNT 101950Z 23009KT 9999 -SHRA SCT024 08/06 Q1005=
METAR EGNV 101950Z 18014KT 9999 FEW017 SCT020 07/05 Q1006=
METAR COR EGPB 101950Z 23011KT 9999 -SHRA FEW014 SCT027 06/03 Q0998
     TEMPO SHRA BKN014=

0000033600
263
SAUK34 EGGY 101950
METAR EGHE 101950Z NIL=
METAR EGHK 101950Z NIL=
METAR EGHQ 101950Z 21008KT 9999 -RA BKN040 07/06 Q1012=
METAR EGJA 101950Z NIL=
METAR EGJB 101950Z 18009KT 9999 FEW010 08/07 Q1015=
METAR EGJJ 101950Z 17010KT 4000 BR BKN003 07/06 Q1015 NOSIG=
METAR EGTE 101950Z 17009KT CAVOK 09/07 Q1012=

0000039000
264
SAUK35 EGGY 101950
METAR EGHH 101950Z 25010KT 9000 -RA FEW021 BKN034 08/07 Q1014=
METAR EGKA 101950Z 25014KT 9999 FEW020 SCT030 09/07 Q1015=
METAR EGKB 101950Z NIL=
METAR EGLF 101950Z 19008KT CAVOK 08/06 Q1014=
METAR EGMC 101950Z 21013KT CAVOK 08/06 Q1014=
METAR EGMD 101950Z NIL=
METAR EGMH 101950Z 20011KT 9999 FEW018 07/06 Q1014 =
METAR EGTC 101950Z NIL=

0000037900
265
SAUK36 EGGY 101950
METAR EGBE 101950Z 18008 OCV094 101945
    GG EGZZYZXX
    101945 EGBEZTZX=
METAR EGBJ 101950Z NIL=
METAR EGCN 101950Z 19009KT CAVOK 07/05 Q1010=
METAR EGSC 101950Z 19009KT 170V230 9999 FEW025 08/06 Q1012=
METAR EGSD 101950Z NIL=
METAR EGSH 101950Z 21009KT CAVOK 07/06 Q1012=
METAR EGVN 101950Z NIL=
METAR EGWU 101950Z NIL=

0000041200
266
SAUK37 EGGY 101950
METAR EGAE 101950Z NIL=
METAR EGNC 101950Z NIL=
METAR EGNH 101950Z 19009KT 6000 -RA BKN006 08/07 Q1007=
METAR EGNJ 101950Z 21014KT 9999 -RA SCT047 07/06 Q1009=
METAR EGNO 101950Z NIL=
METAR EGNR 101950Z VRB03KT 9999 SCT030 09/07 Q1008=
METAR EGPE 101950Z 20007KT 9999 FEW040 03/M00 Q1004=
METAR EGPI 101950Z NIL=
METAR EGPN 101950Z 23007KT CAVOK 05/04 Q1005=

0000043300
267
SAUK38 EGGY 101950
METAR EGEC 101950Z NIL=
METAR EGEO 101950Z NIL=
METAR EGPA 101950Z 24015G28KT 9999 -SHRA SCT018 SCT034 06/03
    Q1001=
METAR EGPC 101950Z 26016KT 9999 FEW030 03/00 Q1002=
METAR EGPL 101950Z AUTO 26020KT 9999 // BKN039/// 06/02 Q1004=
METAR EGPM 101950Z AUTO 21010KT 9999 FEW030/// 05/02 Q0997=
METAR EGPO 101950Z AUTO 00000KT 9999 FEW036/// 02/M01 Q1003=
METAR EGPU 101950Z NIL=

0000063500
268
SAFI31 EFHK 101950
METAR EFHK 101950Z 34015KT 9999 -SN FEW009 BKN011 M01/M03 Q0991 TEMPO
BKN009=
METAR EFJY 101950Z AUTO 01010KT 9999 OVC010 M06/M08
 Q0995=
METAR EFKU 101950Z AUTO 02011KT 9999 -SG OVC016 
M07/M09 Q0996=
METAR EFOU 101950Z AUTO 06010KT 020V100 8000 -SN OVC037/// M11/M13 
Q1003=
METAR EFRO 101950Z AUTO 04017KT CAVOK M16/M18 
Q1008=
METAR EFTP 101950Z AUTO 01007KT 9999 BKN009 OVC011 
M03/M03 Q0994=
METAR EFTU 101950Z AUTO 01009KT 330V040 9999 OVC007/// M00/M01 Q0994 
R08/19//95=
METAR EFVA 101950Z AUTO 02008KT 9999 -SN BKN013/// OVC029/// M07/M09 
Q0999 R16/450162=

0000092200
269
SAMX45 MMMY 101953
METAR MMMY 101947Z 10006KT 6SM  SKC 24/12 A2983 RMK HZY=
METAR MMAN 101940Z 15004KT 7SM  SKC 26/16 A2987 RMK HZY ISOL CI=
METAR MMMA 101940Z 15016G26KT 7SM  FEW020 25/19 A2985 
      RMK 8/100 BLDU PRESFR=
METAR MMIO 101940Z 26008KT 10SM SKC 27/14 A3006 RMK PRESFR=
METAR MMRX 101946Z 19012KT 10SM  FEW025 27/14 A2982 
      RMK 8/500 HZY FU BLDU PRESFR=
METAR MMNL 101942Z 00000KT 10SM  SCT230 23/14 A2985 RMK 8/002=
METAR MMCV 101944Z 17016G26KT 8SM  SKC 26/15 A2978 
      RMK HZY BLDU CU SW ISOL CI PRESFR=
METAR MMTC 101944Z 00000KT 10SM BKN200 21/00 A3001
      RMK 8/002 HZY ISOL AC PRESFR=
METAR MMMV 101940Z 00000KT 8SM BKN080 26/// A2986 RMK 8/070 HZY=
METAR MMCU 101940Z 00000KT 10SM SCT200 19/M01 A3004 RMK 8/001=
METAR MMPG 101940Z 00000KT 8SM SCT100 BKN200 20/14 A2987
RMK 8/071 HZY=
METAR MMCS 101948Z 26010KT 10SM SKC 16/M03 A2998 RMK =

0000042000
270
SASW32 LSSW 101950
METAR LSGC 101950Z AUTO 00000KT 2100 BR NCD 00/M00 Q1017=
METAR LSGS 101950Z VRB01KT 9999 SCT100 05/03 Q1019=
METAR LSZG 101950Z AUTO 08001KT CAVOK 02/01 Q1019=
METAR LSZR 101950Z AUTO 00000KT 9999 SCT060 OVC080 05/03 Q1019=
METAR LSZS 101950Z NIL=
METAR LSZC 101950Z AUTO VRB03KT 5000 NCD 02/02 Q1019=
METAR LSZL 101950Z AUTO VRB02KT 9999NDV OVC047 07/04 Q1021 RMK WHT=

0000026600
271
FTUS75 KWBC 101954 AAA
TAF AMD
PANC 101953Z 1020/1124 VRB02KT 6SM -SN BR VCFG OVC015
      TEMPO 1020/1023 3SM BR BKN005
     FM102300 35003KT 6SM BR SCT005 BKN015
     FM111200 VRB03KT P6SM VCFG BKN008
     FM112200 VRB03KT P6SM BKN040=

0000063300
272
SASN32 ESWI 101950
METAR ESKN 101950Z 32010KT 9999 BKN013 M03/M05 Q1001 R26/710195=
METAR ESOE 101950Z 30003KT 260V330 9999 BKN015 M02/M04 Q1002=
METAR ESOK 101950Z NIL=
METAR ESOW 101950Z 34005KT 9999 BKN014 M04/M07 Q1002 R01/750184=
METAR ESSA 101950Z 31012KT 9999 SG OVC008 M04/M05 Q1000 R01L/19//71
R08/19//58 R01R/19//68 BECMG BKN010=
METAR ESSB 101950Z 31010KT 9999 OVC007 M03/M05 Q1000 R30/29//67=
METAR ESSD 101950Z AUTO VRB02KT 9999 OVC017/// M06/M10 Q1001=
METAR ESSP 101950Z 33007KT 9999 BKN013 M02/M04 Q1002 R27/19//95=
METAR ESSV 101950Z 32012KT 9999 BKN010 M00/M02 Q1001 R21/29//87=

00000000