0000043300
013
WSUS32 KKCI 110955
SIGC
?MKCC WST 110955
CONVECTIVE SIGMET 26C
VALID UNTIL 1155Z
TN AL MS LA AND LA CSTL WTRS
FROM 30NNE MSL-40ESE VUZ-100WSW LEV-60SE LCH-30NNE MSL
AREA EMBD TS MOV FROM 23045KT. TOPS TO FL380.

OUTLOOK VALID 111155-111555
FROM VUZ-170S CEW-110WSW LEV-VUZ
WST ISSUANCES EXPD. REFER TO MOST RECENT ACUS01 KWNS FROM STORM
PREDICTION CENTER FOR SYNOPSIS AND METEOROLOGICAL DETAILS.
0000127500
014
WSUS31 KKCI 110955
SIGE
?MKCE WST 110955
CONVECTIVE SIGMET 45E
VALID UNTIL 1155Z
OH GA TN KY AL
FROM 40W HNN-20WSW LOZ-50W VXV-60NE VUZ
LINE EMBD TS 30 NM WIDE MOV FROM 27035KT. TOPS TO FL350.

CONVECTIVE SIGMET 46E
VALID UNTIL 1155Z
NC SC GA
FROM 20NW SPA-40ESE ODF-10ENE ATL
LINE EMBD TS 30 NM WIDE MOV FROM 24040KT. TOPS TO FL380.

CONVECTIVE SIGMET 47E
VALID UNTIL 1155Z
FL GA AL
FROM 30W MCN-50W TLH
LINE EMBD TS 25 NM WIDE MOV FROM 26020KT. TOPS TO FL400.

CONVECTIVE SIGMET 48E
VALID UNTIL 1155Z
FL AL CSTL WTRS
FROM 40SSE CEW-110SSE CEW-140SE LEV-60SSE SJI-40SSE CEW
AREA EMBD TS MOV FROM 24025KT. TOPS TO FL390.

CONVECTIVE SIGMET 49E
VALID UNTIL 1155Z
MD VA AND VA NC CSTL WTRS
FROM 30SSW SBY-50ENE ORF-90SE ECG
DMSHG LINE EMBD TS 30 NM WIDE MOV FROM 22030KT. TOPS TO FL380.

CONVECTIVE SIGMET 50E
VALID UNTIL 1155Z
NC CSTL WTRS
FROM 90SSE ECG-170SE ECG-140SE ILM-70SE ILM-90SSE ECG
AREA EMBD TS MOV FROM 22020KT. TOPS TO FL390.

OUTLOOK VALID 111155-111555
FROM HTO-190ESE ECG-140SSE ILM-200ENE TRV-100E OMN-RDU-140W
PIE-170S CEW-VUZ-AIR-HTO
WST ISSUANCES EXPD. REFER TO MOST RECENT ACUS01 KWNS FROM STORM
PREDICTION CENTER FOR SYNOPSIS AND METEOROLOGICAL DETAILS.
0000016200
015
WSUS33 KKCI 110955
SIGW
?MKCW WST 110955
CONVECTIVE SIGMET...NONE

OUTLOOK VALID 111155-111555
TS ARE NOT EXPD TO REQUIRE WST ISSUANCES.
0000005900
016
FTNL32 EHDB 101800
TAF EHEH 101800Z NIL=

0000029700
017
SANO37 ENMI 101820
METAR ENNO 101820Z NIL=
METAR ENOV 101820Z NIL=
METAR ENSD 101820Z VRB04KT 9999 FEW015 SCT040 BKN060 02/M02 Q0997 RMK
           WIND 1138FT VRB04KT=
METAR ENSG 101820Z NIL=
METAR ENSN 101820Z NIL=
METAR ENSR 101820Z NIL=
METAR ENSS 101820Z NIL=

0000073600
018
SANO39 ENMI 101820
METAR ENNE 101820Z NIL=
METAR ENQR 101820Z AUTO 07009KT 040V110 9999NDV BKN032/// 06/M01
           Q0999 W///S/=
METAR ENSE 101820Z AUTO 07016KT 9999NDV FEW027/// BKN056/// 04/M01
           Q0999 W///S5=
METAR ENQC 101820Z AUTO 02009KT 9999NDV FEW024/// OVC032/// 06/01
           Q0998 W///S4=
METAR ENQA 101820Z AUTO VRB02KT 9999NDV FEW028/// BKN039/// BKN044///
           05/02 Q0999 W04/S4=
METAR ENHM 101820Z AUTO 27015KT 9999NDV FEW027/// BKN150/// 06/05
           Q0999 W08/S4=
METAR ENVH 101820Z AUTO 23024KT 9999NDV FEW009/// BKN110/// 07/05
           Q1005 W///S4=
METAR ENLA 101820Z AUTO 23026KT 9999NDV BKN028/// BKN039/// 08/06
           Q1003 W///S4=

0000029800
019
SANO36 ENMI 101820
METAR ENBS 101820Z VRB03KT 9000 -SHSN FEW012 SCT035 M09/M14 Q1014 =
METAR ENHK 101820Z NIL=
METAR ENHV 101820Z NIL=
METAR ENLK 101820Z NIL=
METAR ENMH 101820Z NIL=
METAR ENNK 101820Z NIL=
METAR ENNM 101820Z 07016KT 9999 FEW040 BKN090 M08/M14 Q1004=

0000026600
020
SADL33 EDZO 101820
METAR EDFE 101820Z NIL=
METAR EDFH 101820Z 23005KT CAVOK 03/01 Q1017=
METAR EDFM 101820Z 19002KT 9999 FEW036 SCT041 04/02 Q1019=
METAR EDLV 101820Z 21009KT CAVOK 06/04 Q1016=
METAR EDVK 101820Z 21008KT CAVOK 04/00 Q1016=

0000059900
021
SADL34 EDZO 101820
METAR EDGS 101820Z 23006KT CAVOK 02/01 Q1016=
METAR EDHL 101820Z 25009KT 9999 SCT017 BKN040 06/04 Q1011=
METAR EDLN 101820Z 22004KT 9999 FEW048 05/03 Q1017=
METAR EDLP 101820Z 23008KT 9999 SCT038 04/M00 Q1016=
METAR EDLW 101820Z 22010KT CAVOK 05/02 Q1016=
METAR EDMA 101820Z 14004KT CAVOK 01/01 Q1020=
METAR EDNY 101820Z VRB02KT 6000 BKN071 03/02 Q1019=
METAR EDQM 101820Z AUTO 24008KT 200V260 9999NDV FEW009///
BKN012/// OVC022/// 03/00 Q1017 REUP=
METAR EDRZ 101820Z 00000KT CAVOK 04/02 Q1018=
METAR EDSB 101820Z 00000KT CAVOK 03/01 Q1019=

0000030900
022
SADL35 EDZO 101820
METAR EDJA 101820Z 16003KT CAVOK 00/M00 Q1019=
METAR EDMO 101820Z 17004KT 9999 SCT029 SCT071 M01/M02 Q1019=
METAR EDTL 101820Z 14006KT CAVOK 06/04 Q1019=
METAR EDTY 101820Z VRB01KT CAVOK 03/M00 Q1019=
METAR EDVE 101820Z 25009KT 9999 -DZ SCT030 BKN059 06/02 Q1015=

0000024000
023
FTCN35 CWAO 101800 AAA
TAF AMD CYXZ 101822Z 1018/1024 20010G20KT 3SM -SN BR OVC005 TEMPO
     1018/1022 P6SM NSW OVC008
    FM102200 18010KT P6SM OVC008 TEMPO 1022/1024 3SM -SN BR OVC005
    RMK NXT FCST BY 102000Z=

0000082100
024
SASN31 ESWI 101820
METAR ESGG 101820Z 20006KT 9999 SCT016 OVC200 00/M01 Q1001
R21/29//95=
METAR ESGJ 101820Z 28005KT 9999 FEW007 BKN010 M00/M00 Q1001
R01/790142=
METAR ESGP 101820Z 17005KT 9999 SCT022 02/01 Q1001 R19/19//95=
METAR ESGT 101820Z 15007KT 9999 SCT020 BKN060 M00/M02 Q1001=
METAR ESMK 101820Z AUTO 27010KT 9999NDV FEW020/// OVC031/// 06/04
Q1003=
METAR ESMQ 101820Z 26003KT 9999 FEW021 SCT026 00/M01 Q1002=
METAR ESMS 101820Z 27014KT 9999 -SHRA SCT006 SCT013CB BKN032 05/05
Q1005 R17/29//95=
METAR ESMT 101820Z AUTO 25007KT 9999 OVC023/// 05/03 Q1003=
METAR ESMX 101820Z 28009KT 9999 FEW009 OVC011 01/M01 Q1001=
METAR ESTA 101820Z 27010KT 9999 FEW006 SCT018 OVC030 06/04 Q1003=
METAR ESTL 101820Z AUTO 27013KT 9999NDV FEW008/// SCT024///
BKN032/// 06/06 Q1004=

0000183800
025
SPUS70 KWBC 101822
SPECI
KDEC 101818Z 17016KT 1 3/4SM RA BR OVC005 03/02 A2984 RMK AO2
     RAB11 PRESFR P0002=
KEWB 101818Z 00000KT 2 1/2SM -RA BR OVC018 01/00 A3040 RMK AO2
     P0000 T00110000=
KFIG 101818Z AUTO 36004KT 1/2SM FZFG OVC004 M01/M01 A3023 RMK AO2
     I1000 T10061011=
KLWM 101818Z 21004KT 1 3/4SM -SN OVC013 M01/M04 A3041 RMK AO2
     P0000 T10111039=
KLWV 101818Z AUTO 17010KT 3SM BR SCT019 OVC033 05/04 A2997 RMK AO2
     T00500039=
KMDW 101818Z 16008KT 2SM BR OVC005 02/01 A2988 RMK AO2 $=
KMTO 101818Z AUTO 15011KT 2 1/2SM RA SCT007 OVC011 03/00 A2988 RMK
     AO2 RAB15 P0002 T00330000 TSNO=
KSBY 101818Z 02003KT 1 1/2SM -RA BR OVC003 06/04 A3037 RMK AO2
     RAB04 P0000=
KTHV 101818Z AUTO 00000KT 2SM BR OVC006 02/M01 A3034 RMK AO2
     T00171006=
KBRL 101819Z AUTO 17011KT 5SM -RA BR OVC003 02/01 A2973 RMK AO2
     LTG DSNT S AND SW UPE1755RAB1755 P0001 I1000 T00170011=
KDCA 101819Z 05003KT 1 3/4SM -RA BR OVC005 04/02 A3036 RMK AO2
     P0001=
KDEQ 101819Z AUTO 18007KT 2SM RA BR SCT006 BKN030 OVC047 13/13
     A2980 RMK AO2 P0010 T01330128=
KEAU 101819Z 16010KT 2 1/2SM BR OVC005 M03/M04 A2973 RMK AO2
     PRESFR T10281039=
KGVL 101819Z AUTO 08007KT 1 3/4SM BR OVC003 08/07 A3018 RMK
     AO2=
KHFF 101755Z VRB04KT 10SM -RA BKN025 11/11 A3023 RMK A02
     SHRAB1608E1708 SLP240 P0002 60017 T01130109 10078 20052
     58042=
KHIB 101819Z AUTO 17010G14KT 3SM BR OVC005 M06/M07 A2959 RMK
     AO2=
KOTM 101819Z AUTO 15007KT 1SM BR OVC002 01/01 A2966 RMK AO2
     T00110006 TSNO=
KRSL 101819Z AUTO 27016KT 9SM OVC016 03/01 A2959 RMK AO2
     T00330011=
KTIW 101819Z 19013KT 10SM FEW009 BKN013 OVC020 08/06 A3012 RMK
     AO2=
KXNA 101819Z 19009G18KT 5SM RA BR BKN009 BKN020 OVC060 10/09 A2972
     RMK AO2 P0002=

0000010100
026
SPUS41 KWBC 101822
SPECI
KEWB 101818Z 00000KT 2 1/2SM -RA BR OVC018 01/00 A3040=

0000010000
027
SPUS41 KWBC 101822
SPECI
KLWM 101818Z 21004KT 1 3/4SM -SN OVC013 M01/M04 A3041=

0000009300
028
SPUS43 KWBC 101822
SPECI
KMDW 101818Z 16008KT 2SM BR OVC005 02/01 A2988=

0000010400
029
SACA35 KWBC 101800 RRB
METAR COR MRPV  101800Z 07016KT 9999 FEW045 25/14 A3002 NOSIG=

0000062900
030
SADL31 EDZO 101820
METAR EDDF 101820Z VRB02KT CAVOK 05/02 Q1019 NOSIG=
METAR EDDH 101820Z 24010KT 9999 -SHRA SCT013 SCT022TCU BKN035 06/04
Q1012 TEMPO 27015G25KT 4500 SHRA BKN010=
METAR EDDK 101820Z 17005KT 9999 FEW033 04/02 Q1017 NOSIG=
METAR EDDL 101820Z 22009KT 9999 BKN044 06/03 Q1017 NOSIG=
METAR EDDM 101820Z 20003KT 9999 FEW042 01/M01 Q1020 NOSIG=
METAR EDDN 101820Z 24002KT CAVOK 04/01 Q1018 NOSIG=
METAR EDDS 101820Z 23001KT CAVOK 03/M00 Q1019 NOSIG=
METAR EDDT 101820Z 25012KT 9999 FEW044 BKN050 06/01 Q1013 NOSIG=
METAR EDDV 101820Z 24011G21KT 9999 FEW025 BKN038 06/03 Q1015 NOSIG=

0000042600
031
SADL32 EDZO 101820
METAR EDDB 101820Z 25013KT CAVOK 06/01 Q1014 NOSIG=
METAR EDDC 101820Z 24006KT CAVOK 04/M01 Q1016 NOSIG=
METAR EDDE 101820Z 22010KT CAVOK 04/01 Q1016 NOSIG=
METAR EDDG 101820Z 21008KT 9999 FEW035 06/03 Q1015 NOSIG=
METAR EDDP 101820Z 22009KT CAVOK 03/02 Q1016 NOSIG=
METAR EDDR 101820Z 07002KT CAVOK 02/00 Q1019 NOSIG=
METAR EDDW 101820Z 23007KT 9999 SCT024 06/04 Q1013 NOSIG=

0000058000
032
SADN31 EKCH 101820
METAR EKCH 101820Z 27014KT 9999 FEW010 BKN013 BKN030 06/05 Q1006
BECMG SCT012=
METAR EKBI 101820Z 25011KT 220V280 9999 -DZ SCT012 BKN030 06/04
Q1007=
METAR EKYT 101820Z 24009KT 9999 -SHRA FEW010 SCT015CB BKN032
06/05 Q1003=
METAR EKRK 101820Z AUTO 26015KT 9000NDV -SHRA  FEW010/// SCT025///
BKN037/// 06/05 Q1006=
METAR EKAH 101820Z AUTO 26010KT 230V290 9999NDV BKN012/// 06/04
Q1005=
METAR EKEB 101820Z AUTO 25012KT 9999NDV BKN039/// 06/03 Q1008=
METAR EKRN 101820Z AUTO 27022KT 9999NDV RESHRA  BKN015/// 06/06
Q1006=

00000000