0000008400
013
SAAG41 SAZS 110000
METAR SAZS 110000Z  32011KT CAVOK 16/05 Q1019=

0000008300
014
SABZ18 SBGR 110000
METAR SBGR 110000Z 00000KT CAVOK 22/18 Q1017=

0000055900
015
SAMS31 WMKK 110000
METAR WBGG 110000Z 16003KT 5000 BR FEW001 SCT020 BKN150 23/23 Q1012
NOSIG=
METAR WBKK 110000Z 10003KT 9999 FEW015 SCT140 BKN270 25/23 Q1012
NOSIG=
METAR WBSB 110000Z 16003KT 9999 FEW006 FEW016CB BKN280 26/25 Q1013
NOSIG=
METAR WMKK 110000Z 00000KT 9999 FEW017CB SCT140 BKN280 24/23 Q1012
NOSIG=
METAR WMKP 110000Z 03007KT 8000 -RA FEW010 SCT024 BKN260 25/24 Q1011
NOSIG=
METAR WSSL 110000Z 34005KT 310V010 CAVOK 25/24 Q1011=
METAR WSSS 110000Z 36003KT 270V040 9999 FEW018 BKN300 25/23 Q1012
NOSIG=

0000048100
016
SAMS32 WMKK 110000
METAR WBGG 110000Z 16003KT 5000 BR FEW001 SCT020 BKN150 23/23 Q1012
NOSIG=
METAR WBKK 110000Z 10003KT 9999 FEW015 SCT140 BKN270 25/23 Q1012
NOSIG=
METAR WMKJ 110000Z 34003KT 9999 FEW010 FEW017CB BKN280 23/23 Q1011=
METAR WMKK 110000Z 00000KT 9999 FEW017CB SCT140 BKN280 24/23 Q1012
NOSIG=
METAR WMKP 110000Z 03007KT 8000 -RA FEW010 SCT024 BKN260 25/24 Q1011
NOSIG=
METAR WMSA 110000Z 36001KT 9999 FEW017CB BKN280 24/22 Q1011=

0000009800
017
SAAF18 LFPW 110000 RRA
METAR FMEE 110000Z AUTO 12011KT 9999 FEW040 26/22 Q1014=

0000016400
018
SAAF20 LFPW 110000 RRA
METAR FABL 110000Z AUTO 17003KT //// // ////// 17/10 Q1018=
METAR FAGG 110000Z AUTO 33004KT 9999 -RA OVC025 16/14 Q1019=

0000082000
019
SAMS33 WMKK 110000
METAR WMAU 110000Z 31006KT 9999 FEW000 SCT140 BKN270 24/23 Q////
QFF1011=
METAR WMBA 110000Z NIL=
METAR WMKA 110000Z 01002KT 8000 FEW030 SCT140 BKN280 24/23 Q1012=
METAR WMKB 110000Z 05004KT 7000 FEW025 SCT140 BKN270 24/23 Q1011
NOSIG=
METAR WMKC 110000Z 06011KT 020V090 6000 -RA FEW008 SCT020 OVC200
25/23 Q1013=
METAR WMKD 110000Z 02003KT 9999 FEW008 SCT024 BKN270 23/22 Q1013
NOSIG=
METAR WMKE 110000Z 33004KT 4000 -RA FEW000 FEW016CB BKN020 OVC190
22/22 Q1013 RETSRA=
METAR WMKI 110000Z 04006KT 9999 -RA FEW005 SCT028 BKN260 24/23 Q1012=
METAR WMKL 110000Z 02001KT 9999 FEW020 SCT140 BKN270 26/22 Q1012=
METAR WMKM 110000Z 02003KT 9999 FEW012 FEW017CB BKN140 24/23 Q1012=
METAR WMKN 110000Z 23002KT 9999 -RA FEW006 SCT022 OVC180 23/23 Q1013
RERA=

0000026400
020
SAAF21 LFPW 110000 RRA
METAR FALA 110000Z AUTO 00000KT //// // 20/08 Q1018=
METAR FAMM 110000Z AUTO 22007KT //// // ////// 20/06 Q1017=
METAR FAPE 110000Z 25013KT CAVOK 19/13 Q1017 NOSIG=
METAR FAUP 110000Z 19003KT CAVOK 19/02 Q1016 NOSIG=

0000104100
021
SACI32 ZBBB 110000
METAR ZGKL 110000Z 05002MPS 010V150 2000 -RA BR FEW005
SCT013
OVC026 07/06 Q1026 NOSIG=
METAR ZGNN 110000Z 05002MPS 2000 BR FEW008 SCT011 OVC020
13/11
Q1023 NOSIG=
METAR ZGOW 110000Z 00000MPS 3200 BR NSC 13/10 Q1026 NOSIG=
METAR ZGSZ 110000Z 14004MPS 4000 HZ NSC 14/10 Q1025 NOSIG=
METAR ZLXY 110000Z 26001MPS 2700 BR NSC M04/M08 Q1031 BECMG TL0140
3000=
METAR ZMUB 110000Z VRB01MPS 5000NW FU NSC M34/M39 Q1026 NOSIG
RMK
QFE661.6 64 NT=
METAR ZPPP 110000Z 21005MPS CAVOK 05/01 Q1023 NOSIG=
METAR ZSAM 110000Z 29002MPS 260V340 9999 BKN026 OVC060 14/10 Q1027
NOSIG=
METAR ZSFZ 110000Z 35002MPS 300V060 9999 OVC027 11/05 Q1028 NOSIG=
METAR ZSNB 110000Z 19001MPS 2500 -RA BR BKN030 05/04 Q1031
BECMG
TL0130 3000=
METAR ZSQD 110000Z 00000MPS 1200 R17/1000D BR NSC M03/M06
Q1034
BECMG
TL0130 1600=
METAR ZUGY 110000Z 02002MPS 9999 -DZ FEW005 BKN011 OVC026
01/01
Q1026 NOSIG=
METAR ZUUU 110000Z VRB01MPS 3500 BR SCT050 05/02 Q1028 BECMG
TL0030
2700 BR=

0000063400
022
SAMS34 WMKK 110000
METAR WBGB 110000Z 00000KT 8000 -RA FEW005 SCT014 FEW015CB OVC140
24/24 Q1013 RETSRA=
METAR WBGR 110000Z 08001KT 9999 FEW014 FEW015CB SCT150 BKN300 25/24
Q1012=
METAR WBGS 110000Z 00000KT 9999 FEW007 BKN150 24/22 Q1012=
METAR WBGY 110000Z 30001KT 9999 -RA FEW005 SCT020 BKN160 24/23 Q1013=
METAR WBKL 110000Z 15002KT 9999 FEW012 FEW014TCU BKN300 27/25 Q1012=
METAR WBKS 110000Z 07013KT 030V100 9999 FEW009 SCT014 BKN260 28/25
Q1012=
METAR WBKT 110000Z 09005KT 010V140 9999 -RA FEW010 SCT013 BKN260
26/24 Q1013 RERA=
METAR WBKW 110000Z 35003KT 9999 FEW017 BKN140 26/23 Q1012=

0000051300
023
SAAE33 VTBB 110000
METAR VVTS 110000Z VRB01KT 9999 FEW017 SCT040 23/22 Q1014 NOSIG =
METAR VVNB 110000Z 29004KT 2100 BR FEW020 BKN050 15/12 Q1021 NOSIG=
METAR VVDN 110000Z 36005KT 5000 BR FEW015 BKN060 21/19 Q1019 NOSIG=
METAR VVPB 110000Z 30003KT 3000 -RA BR BKN013 BKN050 19/18 Q1020
NOSIG=
METAR VVCR 110000Z 36007KT 8000 FEW017 BKN100 25/18 Q1017 NOSIG=
METAR VVCT 110000Z VRB02KT 8000 FEW015 BKN040 24/20 Q1014 NOSIG=
METAR VVPQ 110000Z 04005KT 9999 FEW015 25/19 Q1013 NOSIG=

0000068900
024
SAMS38 WMKK 110000
METAR WBGB 110000Z 00000KT 8000 -RA FEW005 SCT014 FEW015CB OVC140
24/24 Q1013 RETSRA=
METAR WBGR 110000Z 08001KT 9999 FEW014 FEW015CB SCT150 BKN300 25/24
Q1012=
METAR WBGS 110000Z 00000KT 9999 FEW007 BKN150 24/22 Q1012=
METAR WBKL 110000Z 15002KT 9999 FEW012 FEW014TCU BKN300 27/25 Q1012=
METAR WBKS 110000Z 07013KT 030V100 9999 FEW009 SCT014 BKN260 28/25
Q1012=
METAR WBKW 110000Z 35003KT 9999 FEW017 BKN140 26/23 Q1012=
METAR WMKD 110000Z 02003KT 9999 FEW008 SCT024 BKN270 23/22 Q1013
NOSIG=
METAR WMKL 110000Z 02001KT 9999 FEW020 SCT140 BKN270 26/22 Q1012=
METAR WMKM 110000Z 02003KT 9999 FEW012 FEW017CB BKN140 24/23 Q1012=

0000092000
025
SAUS74 KWBC 110000 RRB
METAR
KSEA 102353Z 18009KT 10SM FEW018 BKN045 OVC100 09/06 A2998=
KSFF 102353Z 23009KT 10SM OVC100 06/01 A2992=
KSFO 102356Z 00000KT 10SM FEW012 BKN200 13/08 A3019=
KSHR 102353Z AUTO 30012KT 10SM BKN075 OVC095 03/M06 A2964=
KSJC 102353Z 34004KT 10SM SCT180 SCT200 BKN250 17/07 A3018=
KSLC 102353Z 15004KT 10SM SCT070 BKN080 OVC100 06/M03 A3009=
KSMF 102353Z 36004KT 10SM SCT250 17/05 A3019=
KSMX 102351Z 30010KT 10SM CLR 19/09 A3010=
KSNA 102353Z 23004KT 6SM HZ SCT250 19/08 A3004=
KSNS 102353Z 28010KT 10SM CLR 16/09 A3016=
KTIW 102353Z 17006KT 5SM -RA BR FEW032 BKN042 OVC050 08/06
     A2998=
KTUS 102353Z 26006KT 10SM CLR 18/M07 A3008=
KTVL 102353Z AUTO 01003KT 10SM CLR 09/M03 A3024=
KTWF 102353Z 27018G25KT 10SM OVC055 06/M02 A3008=
KUKI 102356Z AUTO 21003KT 10SM CLR 17/02 A3018=
KYKM 102353Z 21007KT 10SM OVC070 11/01 A2994=
KYUM NIL=

0000167100
026
SAUS75 KWBC 110000
METAR
PABA 110001Z AUTO 27019KT 2 1/2SM BR OVC045 M27/M29 A2985=
PABE 102353Z 04009KT 10SM FEW008 SCT045 BKN090 BKN180 M11/M12
     A2945=
PABI 102353Z 00000KT 10SM -SN BKN033 BKN048 BKN080 M17/M19
     A2949=
PABR 102353Z 31013KT 10SM FEW007 SCT120 M25/M28 A2989=
PABT 102353Z 00000KT 10SM FEW045 SCT130 SCT180 M29/M32 A2967=
PACV 102353Z 00000KT 10SM SCT025 BKN035 BKN200 00/M01 A2933=
PACZ 102355Z AUTO 02015G28KT 360V060 4SM -SN BKN015 M07/M09
     A2942=
PADK 102356Z AUTO 23016G30KT 9SM FEW026 BKN040 OVC075 04/M01
     A2890=
PADL NIL=
PADU 102356Z 13013KT 9SM -RA SCT006 OVC017 04/01 A2914=
PAEH 102355Z AUTO 17012G21KT 10SM OVC004 01/00 A2933=
PAEI NIL=
PAEN 102353Z 02003KT 10SM OVC006 M03/M04 A2941=
PAFA 102353Z 00000KT 10SM FEW080 M26/M29 A2958=
PAFB 102355Z 00000KT 7SM SCT100 M25/M29 A2958=
PAGA 102358Z AUTO 00000KT 5SM BR CLR M24/M27 A2969=
PAGK 102353Z AUTO 33003KT 2 1/2SM BR BKN045 BKN075 OVC090 M09/M11
     A2932=
PAGS 102356Z AUTO 12006KT 10SM BKN013 OVC022 03/01 A2944=
PAGY 102353Z AUTO 20018G25KT 10SM BKN075 OVC090 03/M01 A2939=
PAHO 102353Z 00000KT 10SM FEW020 SCT040 00/M03 A2940=
PAIL 102353Z 30005KT 10SM OVC012 M03/M04 A2946=
PAJN 102353Z VRB05KT 10SM FEW015 BKN035 BKN060 OVC160 03/00
     A2948=
PAKN 102354Z COR 05005KT 10SM FEW004 BKN025 M02/M02 A2942=
PAKN 102354Z 05005KT 10SM FEW004 BKN025 M02/M02 A2942=
PAKT 102353Z 00000KT 10SM SCT016 BKN023 OVC039 02/01 A2955=
PALU 102355Z AUTO 06009KT 10SM OVC009 M18/M20 A3001=
PAMC 102353Z 34003KT 5SM -SN OVC018 M17/M19 A2957=
PANC 102353Z 33004KT 7SM -SN SCT005 OVC013 M03/M05 A2939=

0000072100
027
SARA32 RUMS 110000
METAR UHBB 110000Z 24002MPS CAVOK M33/M35 Q1023 NOSIG RMK QFE749/0999
36410160=
METAR UHHH 110000Z 25009G12MPS 9999 DRSN SKC M25/M32 Q1019 NOSIG RMK
QFE758/1010 23090060=
METAR UHMA 110000Z 08021G26MPS 0400 R01/0450 +BLSN SCT080 M13/M17
Q1009 NOSIG RMK QFE753/1004=
METAR UHMD 110000Z NIL=
METAR UHMM 110000Z 03006MPS 9999 DRSN SCT066 M17/M28 Q1007 NOSIG RMK
QFE741 88820555=
METAR UHPP 110000Z 32003MPS 290V350 9999 BKN030CB M04/M14 Q0994 NOSIG
RMK MT OBSC QFE742/0989 SC05 055 055=
METAR UHSS 110000Z 00000MPS 5000 FU SCT040 M21/M23 Q1014 NOSIG RMK
QFE759/1012 01810366=
METAR UHWW 110000Z VRB01MPS 9999 SKC M23/M26 Q1027 NOSIG RMK
QFE769/1026 25CLRD70=

0000013600
028
SARA35 RUMS 110000
METAR USCM 110000Z VRB02MPS 6000 OVC016 M07/M08 Q1008 TEMPO 0300 FZFG
VV002 19490532 RMK QFE718=

0000042700
029
SARA33 RUMS 110000
METAR UIAA 110000Z 03002MPS 9999 FEW100 SCT200 M26/M31 Q1026 NOSIG
RMK QFE711 29CLRD70=
METAR UIBB 110000Z 07002MPS 5000 BR SCT006 BKN026CB M22/M25 Q1028
NOSIG RMK QFE727/0970 30490240=
METAR UIII 110000Z 20001MPS 9999 SCT020 BKN200 M19/M21 Q1032 NOSIG
RMK QFE728/0971 30490340=
METAR UIUU 110000Z 22002MPS 5000 -SN SCT033 OVC100 M13/M15 Q1030
NOSIG RMK QFE727/0970 26450545=

0000011100
030
SACN62 CYVR 110000
METAR CYVR 110000Z 09008KT 10SM -RA OVC035 07/06 A2992 RMK SC8
 SLP130=

0000096500
031
SARA34 RUMS 110000
METAR UNAA 110000Z VRB01MPS CAVOK M04/M09 Q1030 NOSIG RMK QFE750
20090040=
METAR UNBB 110000Z 21006MPS 7000 -SHSN SCT010 BKN026CB M09/M11 Q1030
NOSIG RMK QFE750/1000 24400545=
METAR UNEE 110000Z 19006MPS 2100 -SN OVC007 M07/M08 Q1027 NOSIG RMK
QFE747 23452045=
METAR UNKL 110000Z 23004G07MPS 9000 -SHSN SCT033CB OVC083 M07/M11
Q1026 NOSIG RMK QFE744 29////50=
METAR UNNT 110000Z 22005MPS 9000 DRSN BKN022 OVC047CB M07/M10 Q1028
25390139 16390136 NOSIG RMK QFE761/1014=
METAR UNOO 110000Z 20004MPS 6000 -SHSN BKN033CB M07/M09 Q1022
25390137 NOSIG RMK QFE758=
METAR UNTT 110000Z 22007MPS 2200 -SHSN SCT006 SCT020CB OVC066 M07/M09
Q1024 NOSIG RMK QFE753 21390032=
METAR USTR 110000Z 17004G07MPS 9999 -SHSN SCT011CB OVC036 M04/M05
Q1012 TEMPO 1500 SHSN BKN005 RMK QFE749/0999 21390050 12750029=
METAR USHH 110000Z 03002MPS 9999 BKN009 OVC080 M21/M24 Q1016 TEMPO
2000 SN BKN005 RMK QFE758 06////37=

0000019000
032
SACN62 CYUX 110000 CCA
METAR CYUX 110000Z CCA 32017KT 4SM IC DRSN BKN140 OVC220 M31/M34
 A2935 RMK AS5CS3 -25.4/-31.1/0.0/0 LAST STFD OBS/NXT 111200Z WND
 ESTD SLP939=

00000000