0000011000
562
UANT01 CWAO 111302
ARP AFR498 4624N02710W 1301 F360 MS47 198/66 KT
FGNII QXT AOE 111302 J43A
0000036600
563
USBE01 TXKF 111259
TTAA  61121 78016
99027 17256 08014 00262 16057 09016 92918 11058
09010 85616 05030 25502 70207 04275 28014 50585
15357 31027 40750 25763 31550 30952 41160 31068
25074 50761 31069 20215 62358 30067 15391 65162
30597 10634 73361 28568
88174 66958 29579 88100 73361 28568
77156 30098 43212 31313 51108 81115

=
/=
0000011000
564
UANT01 CWAO 111302
ARP DAL99 5258N03030W 1302 F320 MS57 165/59 KT
N833MH QXT AOE 111302 F23A
0000011000
565
UANT01 CWAO 111302
ARP AFR682 5008N02639W 1302 F350 MS53 186/69 KT
FGSPP QXT AOE 111302 F18A
0000011100
566
UANT01 CWAO 111302
ARP DAL415 4612N02518W 1302 F330 MS51 206/72 KT
N177DN QXT AOE 111302 F99A
0000015700
567
SSVX13 LFPW 111300
ZZYY 61687 11014 1300/ 144724 029829 6113/ 11119 40218 57009 22219
 00076 444 20131 11014 1257/ 50101 80090 80000 9/015=
0000011000
568
UANT01 CWAO 111302
ARP DAL81 5301N01935W 1302 F340 MS61 210/78 KT
N172DN QXT AOE 111302 F65A
0000008300
569
UAPA01 KWBC 111303
ARP ANZ90 1550N 15208E 1253 F330 MS37 081/025KT=
0000387900
570
SNFR30 LFPW 111300
AAXX 11134
07005 22484 12913 10092 20054 30108 40198 53013 81201
  333 60005 81816 90710 91120 93100=
07015 22470 23010 10090 20048 30131 40189 53012 82100
  333 60005 82817 90710 91117 93100=
07020 26/// /0208 10098 20044 30198 40225 51011
  333 60005=
07027 22483 13308 10094 20046 30132 40214 51007 81101
  333 60005 81816 90710 91113 93100=
07037 22258 63005 10074 20065 30022 40208 52005 86600
  333 60005 86706 90710 91110 93100=
07072 24970 /2705 10107 20074 30081 40196 51002 700//
  333 60005 90710 91108=
07110 22982 10709 10112 20053 30093 40208 58003 80002
  333 60005 81075 90710 91112 93100=
07117 26/// /0609 10100 20048 30143 40214 50001
  333 60005 90710 91114=
07130 24356 /1201 10094 20078 30161 40214 50000 700//
  333 60005 90710 91105=
07139 24461 81303 10077 20071 30035 40211 50003 700//
  333 60005 90710 91104=
07149 22466 33105 10089 20067 30098 40208 51006 82601
  333 60005 82710 90710 91112 93100=
07168 22565 73202 10081 20066 30066 40210 51013 83832
  333 60005 81820 84650 86075 90710 91104 93100=
07181 24257 82801 10068 20061 39783 40198 53007 700//
  333 60005 90710 91114=
07190 24556 71404 10053 20046 30008 40194 50000 700//
  333 69905 90710 91106=
07207 26/// /1302 10086 20080 30165 40218 50001
  333 60005 90710 91106=
07222 22460 50704 10108 20073 30182 40214 50001 81501
  333 60005 81615 85075 90710 91109=
07240 24358 83303 10092 20070 30078 40215 51006 700//
  333 60005 90710 91106=
07255 22356 82906 10096 20077 30013 40215 51008 887//
  333 60005 88708 90710 91110 93100=
07280 24556 82005 10079 20059 39937 40213 51009 700//
  333 60005 90710 91110=
07299 22865 71703 10077 20048 39876 40207 52003 83076
  333 60005 81357 83368 87275 90710 91108 93100=
07314 26/// /0308 10104 20090 30182 40210 50001
  333 60005 90710 91111=
07335 213// 80103 10093 20079 30066 40212 50002 71022 885//
  333 60005 85706 88615 90710 91105 93100=
07434 224// 82104 10086 20062 39729 40212 50002 886//
  333 60005 88710 90710 91111 93100=
07460 24985 60503 10131 20037 39815 40201 52002 700//
  333 60005 90710 91106=
07471 24970 83503 10085 20047 39234 48819 55003 700//
  333 60005 90710 91104=
07481 22580 72109 10117 20068 39922 40210 51001 8153/
  333 60005 81626 84365 85370 90710 91120 93100=
07510 224// 73505 10126 20100 30148 40206 58001 84601
  333 60005 84710 86076 90710 91110 93100=
07535 24461 82302 10093 20072 39898 40213 58002 700//
  333 60005 90710 91106=
07558 24/70 /1004 10081 20067 39368 40204 58006 700//
  333 69905 90710 91106=
07577 21440 81603 10103 20086 30131 40221 57004 75052 878//
  333 69905 84716 86633 87650 90710 91108 93100=
07591 24/// /2103 10067 20026 39198 4//// 58006 700//
  333 60005 90710 91107=
07607 24558 80000 10134 20104 30134 40205 58004 700//
  333 60005 90710 91103=
07621 24969 60303 10110 20073 39766 40199 58011 700//
  333 60005 90710 91105=
07627 22570 73602 10111 20058 39711 40203 58011 8353/
  333 60005 83623 87360 90710 91104 93100=
07630 22562 82203 10117 20078 30026 40207 58008 875//
  333 60005 87626 90710 91105 93100=
07643 22562 80104 10122 20090 30204 40214 58007 885//
  333 60005 83621 88645 90710 91108=
07650 22570 73403 10140 20086 30169 40208 58014 878//
  333 60005 81830 87643 90710 91106 93100=
07661 26/// /0608 10134 20091 30047 40208 58015
  333 60005 90710 91111=
07690 22580 51101 10155 20092 30180 40211 56011 81531
  333 60005 81625 83368 90710 91109 93100=
07747 22670 70804 10144 20083 30150 40203 58011 81131
  333 60005 81633 85366 87076 90710 91108=
07761 22980 62406 10151 20107 30190 40201 56014 84089
  333 60005 83367 86174 90710 91108 93100=
07790 22582 71207 10151 20107 30191 40205 56017 83132
  333 60005 83823 83366 87075 90710 91115 93100=
0000153300
571
SNFR31 LFPW 111300
AAXX 11134
07024 24486 /3607 10085 20045 30051 40219 51012 700//
  333 60005 90710 91112=
07031 24986 /3506 10088 20040 30039 40214 51007 700//
  333 60005 90710 91113=
07100 26/// /1015 10110 20049 30122 40205 58005
  333 60005 90710 91117=
07103 26/// /0910 10108 20075 30105 40203 58004
  333 60005 90710 91114=
07107 26/// /0813 10106 20060 30189 40211 58003
  333 60005 90710 91116=
07118 24986 /0206 10097 20047 30109 40215 50000 700//
  333 60005 90710 91111=
07120 24970 /0207 10093 20049 30050 40215 50002 700//
  333 60005 90710 91110=
07125 24484 /0109 10101 20059 30144 40215 51005 700//
  333 60005 90710 91112=
07134 24360 80403 10075 20072 30093 40216 51004 700//
  333 60005 90710 91105=
07200 26/// /1213 10104 20083 30185 40208 50000
  333 60005 90710 91116=
07201 24985 /1105 10107 20066 30095 40209 58002 700//
  333 60005 90710 91110=
07203 26/// /1106 10079 20076
  333 60005 90710 91111=
07205 24469 /1105 10103 20091 30160 40214 50000 700//
  333 60005 90710 91108=
07217 24257 80204 10080 20076 30213 40217 50002 700//
  333 60005 90710 91109=
07230 21240 70102 10081 20070 30156 40215 50002 71022 876//
  333 60005 87705 90710 91106 93100=
07235 22462 31003 10112 20077 30148 40211 50003 81601
  333 60005 81713 90710 91105 93100=
07300 26/// /0206 10108 20065 30174 40213 50000
  333 60005 90710 91111=
07306 22360 60307 10097 20080 30103 40212 50000 86500
  333 60005 83708 85626 90710 91110 93100=
0000117800
572
SNFR32 LFPW 111300
AAXX 11134
07140 24369 /2803 10103 20075 30055 40209 50002 700//
  333 60005 90710 91105=
07143 24470 /3301 10115 20066 30018 40205 50004 700//
  333 60005 90710 91108=
07145 22156 82904 10068 20068 39997 40210 52007 886//
  333 60005 88702 90710 91108 93100=
07146 22268 53004 10086 20064 30010 40206 51005 82601
  333 60005 82705 90710 91109 93100=
07150 24261 82804 10074 20065 30147 40207 51007 700//
  333 60005 90710 91110=
07153 24145 82205 10072 20061 30096 40209 51007 710//
  333 60005 90710 91108=
07156 24/66 /3401 10088 20062 30111 40207 51006 700//
  333 60005 90710 91107=
07157 21258 72909 10068 20062 30071 40209 51008 70142 876//
  333 60005 87705 90710 91111 93100=
07245 24/29 /2903 10072 20071 30062 40216 51006 710//
  333 60005 90710 91107=
07247 24262 73103 10092 20066 30112 40215 51007 700//
  333 60005 90710 91106=
07249 24259 80000 10075 20071 30061 40214 51007 700//
  333 60005 90710 91108=
07257 24357 82906 10093 20077 39999 40214 51009 700//
  333 60005 90710 91109=
07354 22357 82707 10095 20079 30023 40214 51008 886//
  333 60005 88708 90710 91110 93100=
0000049000
573
SNFR33 LFPW 111300
AAXX 11134
07093 24657 82208 10058 20048 39884 40199 51009 700//
  333 60005 90710 91111=
07180 22458 82702 10070 20059 39940 40200 53007 888//
  333 60005 84810 87650 90710 91105 93100=
07288 22965 72303 10099 20061 39839 40211 51010 8707/
  333 60005 87360 90710 91111 93100=
07292 24456 82703 10082 20058 39880 40211 51011 761//
  333 69905 90710 91109=
07386 24567 82209 10110 20071 39976 40211 51008 700//
  333 60005 90710 91114=
0000126100
574
SNFR34 LFPW 111300
AAXX 11134
07260 24460 83004 10096 20075 39998 40213 51009 700//
  333 60005 90710 91106=
07266 24968 /2703 10097 20064 30024 40210 51011 700//
  333 60005 90710 91107=
07374 24/70 /2501 10137 20048 39907 40206 51004 700//
  333 60005 90710 91103=
07379 24969 60802 10116 20059 39920 40213 51007 700//
  333 60005 90710 91103=
07385 22665 41603 10110 20069 39951 40212 51004 81531
  333 60005 81643 90710 91105 93100=
07475 24985 /1404 10113 20050 39725 40202 58003 700//
  333 60005 90710 91107=
07480 24984 81909 10120 20069 39973 40211 55000 700//
  333 60005 90710 91116=
07482 24/70 /1704 10120 20065 39911 40213 58001 700//
  333 60005 90710 91115=
07486 24568 /1404 10104 20065 39754 40214 57001 700//
  333 60005 90710 91110=
07487 26/// /0000 10068 20059 39951 40220 58004
  333 60005 90710 91103=
07491 22660 73502 10089 20058 39932 40217 56004 8253/
  333 60005 82640 87366 90710 91105 93100=
07497 22982 71903 10072 20017 39192 48508 53001 8703/
  333 60005 87365 90710 91107 93100=
07549 21470 71404 10087 20053 39454 40207 58005 700// 875//
  333 60005 87617 90710 91108 93100=
07570 24/09 /1401 10083 20082 39895 40234 58008 751//
  333 69905 90710 91102=
0000146800
575
SNFR35 LFPW 111300
AAXX 11134
07316 24359 /0705 10109 20090 30186 40208 58001 700//
  333 60005 90710 91110=
07330 24/50 /0602 10106 20090 30137 40211 50000 700//
  333 60005 90710 91104=
07361 24/70 /2403 10107 20054 39773 40208 51006 700//
  333 60005 90710 91111=
07412 24250 80402 10107 20093 30172 40210 50001 700//
  333 60005 90710 91103=
07438 24/61 /1404 10113 20070 30072 40214 57005 700//
  333 60005 90710 91108=
07500 26/// /3507 10130 20087 30171 40205 58003
  333 60005 90710 91116=
07503 265// 83610 10124 20096 30157 40204 58003
  333 60005 90710 91115=
07524 24557 80702 10103 20091 30125 40209 58003 700//
  333 60005 90710 91105=
07530 24560 81102 10107 20085 30146 40209 58002 700//
  333 60005 90710 91106=
07540 24/50 /0000 10101 20087 30081 40211 58005 761//
  333 69905 90710 91103=
07552 24469 80202 10093 20062 39524 40207 58006 700//
  333 60005 90710 91104=
07600 26/// /3603 10143 20095 30152 40204 58006
  333 60005 90710 91104=
07602 22570 70105 10138 20092 30116 40201 58006 878//
  333 60005 82823 86635 90710 91108 93100=
07603 26572 83602 10139 20093 30165 40202 58005
  333 60005 90710 91104=
07610 22561 61801 10128 20081 39981 40200 57008 81101
  333 60005 83822 85066 90710 91105 93100=
07622 24/64 /0103 10114 20086 30053 40208 58005 700//
  333 60005 90710 91104=
07632 24/63 /0000 10107 20072 30004 40211 58006 700//
  333 60005 90710 91102=
0000192400
576
SNFR36 LFPW 111300
AAXX 11134
07554 24370 81404 10071 20051 39128 4//// 58006 700//
  333 60005 90710 91106=
07560 26/// /2004 10027 20027 38447 4//// 57003
  333 60005 90710 91114=
07563 24758 83605 10127 20088 30156 40214 58012 700//
  333 60005 90710 91106=
07579 24659 83605 10110 20084 30152 40219 58009 700//
  333 60005 90710 91108=
07586 26/// /0000 10121 20068 30087 40215 58008
  333 60005 90710 91105=
07588 24570 /0203 10100 20048 39667 40215 58018 700//
  333 60005 90710 91107=
07635 24561 80602 10112 20075 30055 40209 58007 700//
  333 60005 90710 91104=
07638 24563 80304 10122 20096 30192 40211 58006 700//
  333 60005 90710 91107=
07641 26/// /0207 10115 20087 30119 40212 58008
  333 60005 90710 91110=
07646 24767 80703 10127 20072 30085 40212 58009 700//
  333 60005 90710 91106=
07647 24682 70804 10138 20084 30181 40209 58014 700//
  333 60005 90710 91107=
07648 24670 /0405 10138 20078 30139 40210 58016 700//
  333 60005 90710 91108=
07666 26/// /0104 10132 20111 30154 40202 58008
  333 60005 90710 91107=
07667 24682 80705 10147 20095 30204 40209 58015 700//
  333 60005 90710 91108=
07675 24/82 /0000 10141 20078 30113 40212 58014 700//
  333 60005 90710 91103=
07684 24585 /1405 10154 20084 30206 40211 56013 700//
  333 60005 90710 91109=
07749 26/// /3203 10112 20086 30102 40208 58007
  333 60005 90710 91105=
07754 22975 73602 10152 20108 30133 40202 58010 85038
  333 60005 83362 87268 90710 91105 93100=
07765 24685 71103 10147 20105 30186 40206 57020 700//
  333 60005 90710 91105=
07770 26/// /0811 10149 20107 30063 40201 57016
  333 60005 90710 91118=
07775 26/// /2209 10147 20101 30118 40207 56016
  333 60005 90710 91113=
07780 24585 80608 10154 20110 30178 40206 57016 700//
  333 60005 90710 91115=
07785 26/// /2504 10155 20098 30072 40207 56008
  333 60005 90710 91109=
0000015400
577
WSIR31 OIII 111302
OIIX SIGMET 5 VALID 111310/111430 OIII-
OIIX TEHRAN FIR AMD SIGMET 4 EMBD TS OBS LOC OVER SW,W,S OF
IRAN TOP FL320=
0000111200
578
SNFR37 LFPW 111300
AAXX 11134
07002 26/// /3311 10083 20029 30114 40197 51021
  333 60005 90710 91122=
07003 24868 /3212 10092 20046 30174 40199 51019 700//
  333 60005 90710 91119=
07010 26/// /3115 10086 20042 30171 40191 51023
  333 60005 90710 91122=
07028 26/// /3105 10090 20046 30084 40211 51011
  333 60005 90710 91111=
07038 24368 73007 10082 20070 30042 40211 51008 700//
  333 60005 90710 91112=
07040 26/// /3212 10094 20046 30156 40205 51013
  333 60005 90710 91117=
07046 24986 /3307 10091 20039 30097 40212 51011 700//
  333 60005 90710 91111=
07055 22470 72808 10084 20064 30067 40203 52006 875//
  333 60005 87610 90710 91113 93100=
07057 24466 82406 10079 20070 30095 40203 52004 700//
  333 60005 90710 91110=
07061 24/65 /2508 10080 20069 30074 40194 51004 700//
  333 60005 90710 91116=
07075 24457 62602 10091 20065 30010 40190 58001 700//
  333 60005 90710 91105=
07169 24683 72405 10074 20054 30038 40207 51013 700//
  333 60005 90710 91107=
07283 24357 82504 10072 20068 39645 40204 52008 700//
  333 69905 90710 91109=
0000152200
579
USSP01 LEMM 111200
TTAA 1112/ 08001 NIL=
TTAA 61121 08023 99014 12602 08503 00169 10813 09507 92816 06826
12509 85505 02202 09007 70063 03961 23017 50564 20356 31509 40725
33558 26507 30920 50127 28512 25037 58356 29015 20175 59169 28516
15357 54981 27013 10617 54982 25523 88221 63939 30022 77999 31313
48008 81140=
TTAA 61121 08160 99992 06810 28004 00182 ///// ///// 92818 03809
04004 85512 07259 04509 70074 04147 11513 50565 20557 18013 40726
34166 20020 30920 50560 20515 25037 57559 20560 20177 58772 23524
15359 54584 23016 10620 55184 25024 88231 58970 22037 77250 20560
44720 31313 48108 81115=
TTAA 1112/ 08190 NIL=
TTAA 61121 08221 99947 08641 03501 00173 ///// ///// 92820 07035
05003 85514 06659 07503 70083 04157 33513 50564 21923 01007 40725
33942 00511 30919 51756 03014 25035 57766 05507 20176 55782 25507
15360 533// 26010 10620 547// 25024 88263 59550 35514 77999 31313
48108 81115=
TTAA 61121 08302 99013 15836 13503 00152 14630 18001 92808 12463
16010 85512 08665 22012 70087 02141 22513 50567 18956 20022 40729
32150 20531 30925 48750 21041 25042 58529 20035 20181 58970 23040
15362 55782 22041 10622 55782 25530 88224 61750 21038 77999 31313
48108 81115=
TTAA 61121 08430 99014 10816 24002 00176 10023 28002 92821 07013
09502 85516 05846 02004 70077 04104 28506 50565 21544 24519 40725
34342 20007 30919 52356 18028 25035 56765 18547 20178 55382 20527
15363 53783 21030 10623 54383 25523 88268 57556 17543 77999 31313
48008 81108=
0000412600
580
UKSP01 LEMM 111200
TTBB 1112/ 08001 NIL=
TTBB 61128 08023 00014 12602 11958 09032 22883 03803 33864 03000
44824 01436 55802 02256 66751 00664 77705 03756 88700 03961 99679
05959 11669 06745 22648 08550 33618 10956 44598 11964 55588 12759
66584 12936 77571 13762 88555 15335 99524 17357 11414 31360 22389
35357 33378 37145 44344 41959 55299 50522 66296 50728 77292 51160
88268 54950 99221 63939 11213 61962 22196 58371 33159 54581 44100
54982 21212 00014 08503 11897 10010 22878 09010 33805 23011 44783
22012 55747 24521 66675 22515 77566 25501 88495 31010 99344 26510
11314 27011 22307 28511 33297 28512 44285 31517 55272 31519 66260
29017 77227 29520 88210 31512 99205 29010 11180 28514 22171 25511
33156 27513 44131 29018 55123 24517 66113 27018 77107 24019 88100
25523 31313 48008 81140 41414 754// 51515 11899 10510 22800 23012
33600 18507=
TTBB 61128 08160 00992 06810 11966 04402 22933 03411 33874 08058
44844 07058 55712 03920 66707 03756 77697 04321 88634 09317 99625
08936 11527 18533 22508 19558 33466 24941 44434 28965 55413 31967
66336 45158 77283 53760 88266 54963 99249 57759 11244 58366 22241
58173 33231 58970 44194 59572 55154 53983 66148 54784 77144 51785
88134 54984 99120 52586 11100 55184 21212 00992 28004 11938 30501
22889 05510 33867 06010 44834 03510 55808 06011 66747 07511 77682
14010 88627 17511 99581 17511 11570 19011 22527 20013 33513 18011
44484 18513 55469 17014 66416 21020 77395 19519 88370 20522 99323
19024 11293 20513 22288 21515 33250 20560 44232 22037 55217 19544
66199 23524 77190 23518 88188 22516 99185 21016 11178 25514 22163
24016 33156 25512 44153 25013 55148 21019 66137 24522 77125 23016
88112 25020 99109 27017 11105 24016 22100 25024 31313 48108 81115
41414 ///// 51515 11877 05510 22800 06011 33600 18512=
TTBB 1112/ 08190 NIL=
TTBB 61128 08221 00947 08641 11889 05632 22865 07259 33843 07461
44769 02661 55626 11537 66592 14356 77583 13159 88567 14560 99502
21717 11479 23938 22427 30517 33407 32750 44386 36322 55381 36961
66338 44356 77331 45559 88287 54348 99263 59550 11246 56382 22208
55582 33192 56582 44154 527// 55100 547// 21212 00947 03501 11733
34511 22676 31514 33665 33513 44596 34019 55579 34511 66572 35005
77555 02511 88457 34010 99451 35510 11394 36010 22361 04010 33340
02013 44325 03514 55280 03512 66267 02511 77263 35514 88258 00518
99252 04010 11246 03503 22242 33510 33236 34516 44231 36011 55214
00000 66183 28510 77179 30514 88175 29517 99171 28510 11167 26506
22164 29010 33160 32011 44146 25010 55134 27010 66126 25512 77122
24017 88118 25525 99112 26024 11108 24023 22100 25024 31313 48108
81115 41414 ///// 51515 11838 07003 22800 00504 33600 33518=
TTBB 61128 08302 00013 15836 11975 12619 22967 14061 33859 09666
44635 07915 55567 13900 66528 15750 77500 18956 88450 25529 99448
25928 11409 31127 22404 31556 33309 47535 44300 48750 55258 56719
66245 59740 77224 61750 88195 57773 99177 59375 11125 53583 22100
55782 21212 00013 13503 11936 15011 22861 21513 33832 23513 44752
20510 55651 25011 66641 24011 77616 21017 88561 20029 99526 19523
11481 20521 22345 19537 33322 20546 44291 21539 55266 20032 66226
20537 77207 22043 88194 24034 99187 23525 11171 20034 22156 21543
33138 23539 44127 23539 55124 24539 66118 26020 77114 23514 88110
21516 99108 21519 11100 25530 31313 48108 81115 41414 ///// 51515
11900 17512 22800 22515 33600 20521=
TTBB 61128 08430 00014 10816 11889 05224 22876 06658 33862 07056
44735 01703 55629 09105 66587 12350 77522 18756 88483 23539 99412
32548 11321 47957 22307 50956 33268 57556 44244 56969 55220 53183
66196 55782 77185 52383 88100 54383 21212 00014 24002 11794 34510
22770 34511 33748 31510 44658 28510 55592 30013 66556 26013 77460
22023 88452 21522 99430 23015 11407 20507 22352 21513 33318 18019
44272 17041 55247 18548 66232 18042 77218 20031 88197 20028 99184
22518 11163 20025 22156 22026 33151 21030 44140 25023 55129 25018
66121 22521 77116 23516 88112 22522 99102 26020 11100 25523 31313
48008 81108 41414 7747/ 51515 11898 02501 22800 34509 33600 30012=
0000015700
581
SSVX13 LFPW 111300
ZZYY 62714 11014 1300/ 734349 021702 6113/ 11119 40134 57010 22219
 00193 444 20130 11014 1257/ 50101 80100 80000 9/015=
00000000