0000018900
569
SMBZ35 SBBR 111200 RRB
AAXX 11124
83264 22897 53202 10241 20213 39708 40175 83038 333 20207 58017 60024=
83358 32598 20000 10250 20221 39712 40111 82900 333 20200 58013=
0000117500
570
KSMI35 SBBR 111200 RRB
CREX++
T000113 A000 D07080++
 83 264 VERA (GLEBA CELESTE) 1 2014 01 11 12 00 -1220000 -05650000 04150 ///// 09708 10175 //// // 0017 ///// ///// ///// 2410 2130 /// ///// 1000 ///// ///// ///// 062 08 03 0225 30 23 18 0000 0000  07 /// 08 /// 09 /// // ///// ///// // ///// ///// // ///// //// 508 -0006 10 10  -0024 //// -0001 //// /////  //// ///// -0024 00020 ///// -0012 0000 //// -0012 0000 2070 ///// 03 02 -0010 320 0010 //  -0010 /// //// //// /// //// ///// -0024 // ////  -0001 //// //// ///// ///// ///// ///// -0024 //// //// ///// ///// ///// ///// //// 0000 //+
 83 358 POXOREO (POXOREU)    1 2014 01 11 12 00 -1583000 -05438000 04500 ///// 09712 10111 //// // 0013 ///// ///// ///// 2500 2210 /// ///// 2000 ///// ///// ///// 025 07 02 0080 39 20 10 0000 0000  07 /// 08 /// 09 /// // ///// ///// // ///// ///// // ///// //// 508 -0006 10 10  -0024 //// -0001 //// /////  -0001 00000 //// ///// ///// -0012 0000 //// -0012 0000 2000 ///// 03 02 -0010 000 0000 //  -0010 /// //// //// /// //// ///// -0024 // ////  -0001 //// //// ///// ///// ///// ///// -0024 //// //// ///// ///// ///// ///// //// 0000 //++
7777
0000014600
571
SNVD20 KWNB 111100 RRX
BBXX
44040 11111 99410 70736 46/// /1807 10107 20107 91119 22200 1//00
70001 333 91210 555 11088 22108=
0000166900
572
SMCI01 KWBC 111200
AAXX 11121
56144 32765 73201 10038 21154 36827 52022 87/// 333 00202=
56152 32980 02702 11054 21139 36288 52019 333 00200=
56167 32780 70000 10014 21160 37038 52012 87/// 333 00151=
56182 11755 73404 11043 21067 37177 52026 69931 77070 87/// 333
00553=
56357 32980 00000 11010 21195 36438 52020 333 00151=
56586 32461 83602 11010 21040 38102 52029 88/// 333 00600=
56748 32960 00000 10131 20005 38371 52014 333 00151=
56763 32980 01103 10188 21016 40141 52024 333 00201=
56768 32980 02204 10146 21032 38194 52020 333 00200=
56838 32670 00000 10161 20113 40183 52011 333 00100=
56886 32969 02204 10094 20044 38319 52028 333 00353=
56946 32980 02501 10155 20075 40196 52014 333 00100=
56959 32965 00401 10202 20148 40160 52017 333 00100=
56969 32960 00000 10164 20164 40173 52019 333 00151=
57731 32668 81101 10066 20034 39800 40313 52025 88///=
57766 11460 80202 10037 20022 40320 52021 69921 70060 88///=
57845 11756 80202 10039 20027 40312 52024 69981 76066 88///=
57853 11440 80401 10043 20037 40321 52024 60011 76066 88///=
57916 32666 80000 10090 20046 39743 40278 52026 88///=
57922 32664 83602 10030 20007 40302 52025 88///=
57932 319// 90000 10062 20053 40308 52026 70060=
58338 11440 80401 10048 20044 40300 52007 69961 76066 88///=
59007 32463 83402 10068 20057 40244 52029 88///=
59046 11566 80202 10086 20050 40270 52017 69911 70060 88///=
59058 31858 82905 10080 20061 30042 40267 52019 71000 88///=
59072 32761 80205 10093 20045 40273 52024 88///=
59087 31958 20701 10146 20102 40233 52021 70500 82///=
59209 11366 80402 10098 20084 40237 52022 69901 76066 88///=
0000237300
573
SMPH01 KWBC 111200
AAXX 11121
98134 32465 20905 10215 20147 30013 40206 53015 82200 333 10240
56299 59006 82819=
98232 31565 80405 10243 20221 40183 53006 70342 8227/ 333 10270
56199 59010 82820 88358=
98325 31458 41803 10250 20215 40150 53018 70142 82201 333 10305
56999 59003 82817 83070=
98328 31458 21402 10128 20111 38542 40162 53015 70544 81101 333
10190 56999 58000 81814=
98330 31475 30403 10240 20212 30130 40162 53019 70144 81201 333
10290 56/// 58001 81818 83077=
98336 32468 80402 10222 20193 30190 40195 52018 8227/ 333 10230
56199 59001 82815 88357=
98430 31558 20000 10220 20194 40155 52019 70544 82100 333 10293
56999 58003 82820=
98431 31458 70603 10252 20240 30105 40152 53017 70242 82230 333
10294 56999 59001 82818 87360=
98440 31458 80406 10250 20204 30155 40160 52011 70244 84237 333
20267 56199 59005 84815 85357 88277=
98444 11465 80405 10252 20200 30125 40144 53019 69901 70282 83377
333 10269 56999 59008 81918 82820 87459 88270=
98536 31465 80405 10238 20211 39942 40143 52021 70242 8327/ 333
10251 56199 58003 83818 88357=
98543 11470 80202 10251 20232 30115 40126 53011 69921 71682 83207
333 10268 56999 58000 83818 88272=
98618 32470 70904 10270 20207 40126 53025 82108 333 10311 56999
58000 82819 87274=
98653 11460 80405 10254 20241 30050 40095 52017 60041 76062 8322/
333 10270 56199 59002 83818 88457=
98753 11440 83603 10230 20223 40093 52016 60281 76266 8382/ 333
10243 56999 59018 83616 88459=
98836 11458 80403 10257 20234 40101 52020 69941 76066 8252/ 333
10255 56999 59017 82618 88460=
98223 31462 70202 10226 20166 40155 52019 70242 81108 333 10300
56999 58003 81819 86279=
98429 31560 11004 10250 20166 40163 52020 70542 81100 333 10302
56999 58006 81825=
98526 32570 83601 10/// 20/// 40126 53018 84277 333 10/// 56999
58002 84820 85358 88274=
98531 31568 40904 10267 20256 30113 40117 51009 70544 81432 333
10325 56199 59010 81820 84075=
98630 32470 80205 10278 20252 40102 5//// 8422/ 222// 2//03 333
10304 56199 59015 84818 88459=
98646 11558 83608 10242 20231 30085 40113 52015 60031 76166 8382/
333 56999 59006 83820 88458=
98741 11465 80402 10261 20246 40111 52011 60021 70282 8227/ 333
10258 56999 58001 82817 88358=
98755 11458 83601 10247 20238 40097 52019 60281 76186 8352/ 333
10260 56199 59005 83616 88458=
0000109400
574
SMCN04 KWBC 111200
AAXX 11124
71277 15/// /1206 11061 21093 60001 333 11012 21090 70000=
71408 45/// /2728 11010 21056 30129 40210 55002 6///1 333 11019
21033 7////=
71417 17/// /3009 11059 21074 30124 40159 51004 69921 7//4/ 333
11046 21062 70002=
71418 45/// /2617 11025 21044 30188 40221 57001 6///1 333 11015
21026 7////=
71462 45/// /1909 10021 20020 39715 49935 56034 6///1 333 10024
20007 7////=
71464 45/// /1422 10057 20053 39782 49993 58030 6///1 333 10056
20030 7////=
71490 17/// ///// 11261 21284 39653 49985 56014 69941 7//4/ 333
11273 21287 70006=
71592 17/// /0000 11306 21343 39968 49982 51018 69921 7//4/ 333
11180 21320 70004=
71692 45/// /2409 11010 21057 30183 40217 53003 6///1 333 11021
21030 7////=
71761 15/// ///// 11136 21148 60001 333 11040 21158 7////=
71841 17/// /2601 11057 21066 39543 49939 57015 69901 7//4/ 333
11046 21062 4/035 70003=
71923 15/// ///// 11277 21304 39542 40008 56017 60001 333 11310
21345 70003=
71963 15/// /3114 11290 21320 39560 49978 50005 60001 333 11251
21292 4/009 70011=
0000066100
575
UDAF01 FAPR 111243
AMDAR 1112
ASC AFZA51 2613S 02836E 111214 F165 MS040 234/006 TB0 S031 333 F/// VG011=
LVR AFZA51 2647S 02915E 111222 F295 MS288 296/041 TB0 S031 333 F/// VG010=
LVR AFZA51 2728S 02949E 111229 F350 MS412 288/057 TB0 S031 333 F/// VG011=
LVR AFZA51 2815S 03024E 111236 F260 MS225 294/049 TB0 S031 333 F/// VG009=
DES AFZA51 2837S 03041E 111240 F184 MS082 282/022 TB0 S031 333 F/// VG009=
DES AFZA51 2843S 03046E 111241 F161 MS020 285/024 TB0 S031 333 F/// VG009=
DES AFZA51 2850S 03051E 111242 F139 PS020 270/024 TB0 S031 333 F/// VG010=
DES AFZA51 2854S 03054E 111243 F124 PS050 268/028 TB0 S031 333 F/// VG011=
0000066100
576
UDAF01 FAPR 111244
AMDAR 1112
ASC AFZA50 0658S 03915E 111149 F095 PS114 007/011 TB0 S031 333 F/// VG014=
ASC AFZA50 0704S 03912E 111151 F115 PS063 089/011 TB0 S031 333 F/// VG012=
ASC AFZA50 0708S 03911E 111152 F133 PS029 146/008 TB0 S031 333 F/// VG011=
ASC AFZA50 0714S 03909E 111153 F156 MS030 123/015 TB0 S031 333 F/// VG010=
LVR AFZA50 0733S 03901E 111156 F216 MS122 123/022 TB0 S031 333 F/// VG010=
LVR AFZA50 0823S 03842E 111203 F298 MS309 113/024 TB0 S031 333 F/// VG010=
LVR AFZA50 0914S 03825E 111210 F379 MS523 110/032 TB0 S031 333 F/// VG010=
LVR AFZA50 1004S 03809E 111217 F380 MS524 103/034 TB0 S031 333 F/// VG011=
0000037500
577
SMIQ01 KWBC 111200
AAXX 11121
40621 41558 80000 10114 20080 40190 57010 76062 888//=
40637 41558 82702 10105 20100 40182 54000 76066 888//=
40656 41516 80202 10096 20085 40162 53001 75154 885//=
40672 42560 82404 10102 20068 40179 57020 888//=
40674 42560 83506 10118 20058 40173 57013 888//=
40680 41550 81403 10112 20102 40163 58010 72162 888//=
0000066100
578
UDAF01 FAPR 111243
AMDAR 1112
ASC AFZA41 2608S 02814E 111241 F053 PS258 299/007 TB1 S031 333 F/// VG027=
ASC AFZA41 2608S 02814E 111242 F053 PS256 262/010 TB1 S031 333 F/// VG034=
ASC AFZA41 2607S 02814E 111242 F055 PS238 349/010 TB1 S031 333 F/// VG037=
ASC AFZA41 2607S 02815E 111242 F058 PS226 352/007 TB1 S031 333 F/// VG031=
ASC AFZA41 2607S 02815E 111242 F061 PS215 333/005 TB1 S031 333 F/// VG030=
ASC AFZA41 2606S 02815E 111242 F064 PS205 228/008 TB1 S031 333 F/// VG030=
ASC AFZA41 2606S 02815E 111243 F068 PS195 348/012 TB1 S031 333 F/// VG030=
ASC AFZA41 2605S 02815E 111243 F073 PS180 339/008 TB1 S031 333 F/// VG021=
0000010900
579
UANT01 CWAO 111243
ARP DAL67 5159N03025W 1243 F320 MS51 170/37 KT
N1602 QXT AOE 111243 F21A
0000011000
580
UANT01 CWAO 111243
ARP BAW9VA 4743N02352W 1243 F380 MS51 200/70 KT
GVIIV QXT AOE 111243 F14A
0000011100
581
UANT01 CWAO 111243
ARP DAL177 5100N04706W 1243 F340 MS63 282/55 KT
N1604R QXT AOW 111243 F11A
0000030700
582
USKZ11 UAAA 111200
TTAA  11121 38064 99005 00939 23503 00173 01334 24504 92794
00726 26507 85462 06123 24513 70977 11366 26517 50547 30962
28035 40699 49761 27535 30879 67960 27535 25990 65159 28533
20126 65160 27036 15301 65959 26032 10546 68360 25538 88310
68360 28036 77354 28038=
0000032500
583
USKZ12 UAAA 111200
TTAA  11121 36872 99945 03360 20002 00215 ///// ///// 92835
03359 24506 85508 00969 25503 70042 08571 27006 50557 25965
25518 40714 39358 25523 30904 56958 25528 25017 65158 25030
20152 67358 26029 15328 63758 27030 10580 59961 26032 88218
67958 26025 88125 61559 27031 77114 26033=
0000058500
584
UKKZ12 UAAA 111200
TTBB  11123 36872 00945 03360 11927 04159 22885 00965 33839
00971 44795 00375 55753 03980 66711 08372 77665 09770 88510
24966 99450 31557 11447 32756 22352 47559 33294 58359 44245
65758 55228 65358 66219 67758 77204 68758 88188 64960 99148
63358 11141 61159 22101 59961 21212 00945 20002 11930 24506
22906 23506 33900 23506 44855 26003 55833 22502 66789 27504
77729 27502 88708 27505 99600 22509 11535 25513 22491 25519
33408 26023 44250 25030 55216 26024 66187 27032 77174 26528
88160 27531 99112 26032 31313 58903 81130 41414 20841=
0000063500
585
UKKZ11 UAAA 111200
TTBB  11123 38064 00005 00939 11930 00523 22914 01537 33845
06721 44842 06721 55823 04150 66742 08163 77736 08163 88669
14366 99623 17767 11597 17971 22517 26763 33474 34962 44473
35761 55440 43361 66362 54960 77327 61560 88310 68360 99281
66360 11222 65159 22218 63760 33101 68360 21212 00005 23503
11988 26005 22921 26507 33823 24516 44636 27518 55600 28529
66565 29030 77551 28032 88517 28534 99444 28035 11354 28038
22327 28037 33276 27035 44255 29033 55238 27033 66222 27034
77207 28534 88194 25037 99182 27031 11154 26532 22140 25034
33113 25536 31313 50903 81130 41414 24511=
0000011000
586
UANT01 CWAO 111244
ARP AFR498 4643N02404W 1243 F360 MS50 202/60 KT
FGNII QXT AOE 111244 J40A
0000011000
587
UANT01 CWAO 111244
ARP DAL99 5306N02640W 1244 F320 MS58 185/78 KT
N833MH QXT AOE 111244 F16A
0000011100
588
UANT01 CWAO 111244
ARP DAL415 4532N02209W 1244 F330 MS55 202/92 KT
N177DN QXT AOE 111244 F96A
00000000