0000011100
669
UANT99 KDDL 111244
ARP BER7402 5006N02535W 1244 F370 MS53 198/60 KT
DABXA QXT AOE 111244 J21A
0000237500
670
SMID21 WIIX 111200
AAXX 11124
97008 11459 72404 10256 20229 30058 40069 53006 69901 70162 82176
  333 10272 56000 59014 82819 85280=
97016 01460 70901 10262 20238 30084 40086 52011 69981 71562 84951
  333 10328 56000 57901 57801 59010 69907 81919 83820 86360 80980
80860=
97126 11457 70604 10267 20243 30055 40116 52025 69901 70262 83920
  333 10312 56000 57901 59003 81915 83615 87460 80980=
97142 32460 70000 10286 20243 30074 40089 51025 82870
  333 10336 56000 57804 58000 81819 84459 80857=
97182 32560 63405 10286 20252 30104 40107 51024 83871
  333 10312 56000 57800 58002 82820 84360 808//=
97240 11456 30000 10260 20246 39983 40099 52016 60021 70596 81131
  333 10316 56000 58000 81816=
97284 01456 50000 10190 20186 38873 40111 52013 60191 70596 83231
  333 10262 56000 57801 58004 69957 84812 80837=
97310 01458 72712 10263 20236 30072 40084 52011 60051 71796 84321
  333 10328 56000 57902 57803 59009 60017 81918 83818 84459 80958
80856=
97320 32560 52606 10286 20240 30069 40082 52018 82506
  333 10338 56000 59014 82619 84280=
97378 32560 70000 10272 20252 39920 40083 51004 82171
  333 10332 56000 51008 82820 83459=
97380 11456 30000 10286 20263 30074 40096 57014 60101 70161 82211
  333 10324 56000 57803 58004 82818 80850=
97406 01458 70000 10244 20240 30036 40061 52021 60131 76062 84971
  333 10292 57902 57802 58000 60047 81918 83820 83460 80975 80860=
97570 01457 83104 10250 20236 30070 40077 51029 60104 76166 8487/
  333 10316 56009 57802 58001 60107 81812 83614 86360 80870=
97630 31450 70103 10262 20241 39934 40095 52018 71722 84932
  333 10320 56000 57901 59009 81910 83812 80976=
97682 01450 70703 10262 20250 30071 40078 53013 69901 70262 84872
  333 10320 56000 57802 59011 69907 83816 85362 80862=
97698 01420 80000 10250 20240 30084 40093 51026 60411 76366 8692/
  333 10314 56009 57900 58008 60417 82913 84614 88457=
97700 11460 32103 10266 20251 30058 40074 52013 60051 70196 82231
  333 10312 56000 57804 59019 82817 80850=
97722 11462 50000 10266 20256 30075 40090 52014 60011 70196 84832
  333 10314 56600 57862 59006 83819 80857=
97780 32405 70000 10180 20153 38235 40177 52020 84171
  333 10244 56000 57805 59010 83812 86361 80850=
97790 31459 52609 10288 20254 30057 40077 53017 70521 83894
  333 10308 56600 57862 59009 82819 80858=
0000068900
671
UDEU02 EGRR 111247 RRI
AMDAR 1111
LVR EU4607   4518N 00526W 111137 F350 MS610 267/026 TB/ S031=
LVR EU4607   4430N 00551W 111144 F350 MS613 290/020 TB/ S031=
LVR EU4607   4338N 00602W 111151 F350 MS605 301/022 TB/ S031=
LVR EU4607   4250N 00633W 111158 F350 MS605 322/020 TB/ S031=
LVR EU4607   4202N 00704W 111205 F350 MS603 337/021 TB/ S031=
LVR EU4607   4107N 00717W 111212 F350 MS595 343/029 TB/ S031=
LVR EU4607   4012N 00729W 111219 F350 MS595 352/034 TB/ S031=
LVR EU4607   3916N 00740W 111226 F350 MS593 348/040 TB/ S031=
LVR EU4607   3820N 00751W 111233 F350 MS590 349/044 TB/ S031=
LVR EU4607   3723N 00802W 111240 F350 MS588 346/051 TB/ S031=
0000035900
672
USVX01 EDZW 111200
UUAA DBLK 11111 99770 50341 55574
99992 03722 01002 00552 ///// ///// 92560 07518 07005
85212 12307 06008 70670 20339 06015 50510 32966 05524
40664 41567 05033 30854 50568 05031 25974 45378 04516
20124 44383 04510 15316 44184 03006 10589 42185 03006
88312 50766 04535
77336 04541 40713
31313 48008 81047 91019=
0000072700
673
UKVX01 EDZW 111200
UUBB DBLK 11118 99770 50341 55574
00992 03722 11989 03947 22891 09901 33781 16900 44760
18506 55755 18937 66740 18920 77733 19559 88726 19761
99708 19756 11699 20338 22647 24101 33634 25104 44630
25558 55623 26161 66615 26163 77563 28368 88453 37167
99423 39170 11354 46761 22312 50766 33231 44178 44100
42185
21212 00992 01002 11933 07505 22815 04510 33747 06011
44336 04541 55262 04520 66245 05513 77230 04512 88221
05513 99206 04509 11198 04008 22186 05510 33175 03509
44169 05507 55164 02006 66157 06505 77154 06506 88150
03006 99142 06006 11136 05006 22130 09006 33125 05008
44120 05009 55112 01505 66108 04006 77100 03006
31313 48008 81047 90019
41414 784//=
0000018700
674
ULVX01 EDZW 111200
UUCC DBLK 11112 99770 50341 55574
70831 40986 03504 50062 38587 04002 30415 35988 09503
20698 34389 06504
88999
77999
31313 48008 81047 90019=
0000061300
675
UEVX01 EDZW 111200
UUDD DBLK 1111/ 99770 50341 55574
11256 34789 22229 36588 33153 29990 44125 28791
21212 11981 02005 22913 08008 33884 04508 44859 01006
55821 05505 66797 06008 77709 02506 88688 04505 99650
02505 11619 03505 22606 36006 33602 35005 44555 12005
55519 05005 66477 09505 77464 06006 88444 05005 99414
09502 11403 10005 22395 07507 33389 06505 44380 09001
55290 09005 66256 09006 77250 07006 88237 08005 99226
06507 11222 05505 22209 08006 33188 06005 44186 04505
55179 00000 66159 05505 77143 09006 88137 04006 99130
08505 11125 04006
31313 48008 81047 90019=
0000127600
676
UEAL01 DAMM 111200
TTDD ///// 60390 NIL=
TTDD ///// 60549 NIL=
TTDD 6111/ 60571
11928 637// 22833 589// 33631 627// 44455 551// 55424
567// 66340 525// 77240 491// 88164 505//
21212 11928 23540 22913 24045 33863 27036 44834 24518
55771 24518 66733 29010 77722 30510 88682 28508 99656
20011 11641 19515 22620 23508 33594 21002 44527 13506
55514 12010 66504 14511 77493 08010 88480 09511 99441
09030 11408 11515 22402 10017 33392 12021 44369 08518
55353 11021 66341 08529 77322 10024 88316 08023 99277
08041 11255 07533 22247 09030 33235 07541 44207 07547
55194 07536 66164 07545=
TTDD ///// 60630 NIL=
TTDD 6111/ 60656
11984 649// 22812 651// 33746 681// 44708 639// 55614
625// 66568 639// 77316 539//
21212 11867 25524 22804 23529 33760 23535 44746 24535
55562 02005 66530 01008 77485 09012 88466 08012 99406
11021 11316 09037=
TTDD 6111/ 60680
11910 747// 22879 719// 33740 807// 44712 807// 55652
723// 66537 661// 77514 667// 88267 533//
21212 11913 25033 22876 24515 33816 26020 44744 22018
55711 23524 66701 24522 77682 22515 88662 23516 99643
20512 11581 24505 22545 27012 33498 36013 44484 04513
55475 06012 66454 04524 77436 07521 88412 06532 99362
09528 11286 08033 22267 09042 31313 47908 81109=
0000020000
677
WSCN03 CWAO 111242
CZWG SIGMET A4 VALID 111240/111640 CWEG-
CZWG WINNIPEG FIR SEV TURB OBS WTN 30 NM OF LINE N5713 W09957 - N5247
W09729 -
N4901 W09709 FL180/290 MOV ESE 30KT NC=
0000028700
678
WSCN23 CWAO 111242
CZWG SIGMET A4 VALID 111240/111640 CWEG-
CZWG WINNIPEG FIR SEV TURB OBS WTN 30 NM OF LINE /N5713 W09957/45 NE
CYYL -
/N5247 W09729/30 NW CYBV - /N4901 W09709/60 S CYWG FL180/290 MOV ESE
30KT NC
RMK GFACN32 GFACN33/CZEG EDMONTON FIR SIGMET H4=
0000012500
679
WSCN02 CWAO 111242
CZEG SIGMET H4 VALID 111240/111245 CWEG-
CZEG EDMONTON FIR CNCL SIGMET H3 110845/111245=
0000017500
680
WSCN22 CWAO 111242
CZEG SIGMET H4 VALID 111240/111245 CWEG-
CZEG EDMONTON FIR CNCL SIGMET H3 110845/111245
RMK GFACN32 GFACN33/CZWG WINNIPEG FIR SIGMET A4=
0000017600
681
WASW41 LSSW 111235
LSAS AIRMET 1 VALID 111245/111500 LSZH-
LSAS SWITZERLAND FIR MOD ICE FCST N PART OF SWITZERLAND
                 FL065/FL130 MOV E NC
=
0000103200
682
SMCI08 BABJ 111200
AAXX 11121
55228 32780 13201 11079 21301 36016 52011 81/// 333 00501=
55578 32780 60000 11030 21115 36333 57003 86/// 333 00252=
55664 32880 12707 11045 21247 35970 52012 81/// 333 00051
91123 91525=
55773 11670 51803 11080 21155 35985 52008 69941 70080 85///
333 05152=
56116 11579 80000 11063 21081 36319 52011 69991 78580 88///
333 00252=
56137 32780 71805 10041 21188 36768 52014 87/// 333 00200=
56172 32980 72901 10056 21098 37313 52024 87/// 333 00302=
56247 32964 02004 10105 21151 37392 52034 333 00251=
56312 32680 71603 10022 21085 37079 52008 87/// 333 00051=
56462 32980 02001 10043 21140 37108 52025 333 00201=
56651 32680 12504 10105 21098 37649 52023 81/// 333 00200=
56691 31359 83602 11028 21033 37813 52026 76660 88/// 333
00552 93427=
56985 32980 01803 10132 20079 38734 40188 52032 333 00252=
57633 32760 82201 10027 20008 39326 40329 52026 88/// 333
00502=
57902 11460 80401 10028 20021 38690 40289 52025 69911 76060
88/// 333 00755=
0000003800
683
SMCI09 BABJ 111200
NIL
0000097000
684
SMCI38 BABJ 111200
AAXX 11121
55279 32656 83203 11104 21296 35677 52010 88/// 333 00200=
55472 32680 73202 11092 21286 35705 52007 87/// 333 00352
91118 91525=
55696 32980 72205 11008 21154 36323 52009 87/// 333 00252=
56079 11780 60704 11094 21117 36685 52014 60011 70070 86///
333 00555=
56106 32780 82703 11040 21255 36182 52008 88/// 333 00251=
56257 32680 60704 11006 21202 36251 52013 86/// 333 00101=
56374 32680 51106 11043 21089 37450 52035 85/// 333 00500=
56385 11/00 90401 11103 21111 37035 52024 69961 77074 333
00500=
56954 32964 03601 10162 20074 40199 52019 333 00100=
56966 32965 02701 10171 20126 40166 52023 333 00252=
57237 32965 73602 10046 21037 40331 52029 87///=
57306 31940 00201 10067 20037 40316 52028 70500=
57604 32730 81101 10068 20065 39863 40317 52029 88///=
57707 31465 83601 10012 21012 38565 52027 76060 88/// 333
00501=
57832 11463 80202 10028 20009 40325 52021 69901 76060 88///=
0000003800
685
SMCI39 BABJ 111200
NIL
0000025900
686
USIQ01 ORBS 111230
TTAA 111220 40650 99013 10421 15001 00139 09240 09001 92780 04420
05504 85466 02056 10002 70011 06360 07506 50555 24383 00511 40714
36196 00528 30907 52382 36034 25025 52984 32518 20///A  ///// 88999
77427 36035 40306=
0000012000
687
SPUR30 UKMS 111240
SPECI UKDR 111240Z 27010G15MPS 9999 SCT026 07/M01
Q1013 1809//65 TEMPO 28013G18MPS=
0000079300
688
SAUZ31 UTTW 111230
METAR UTFN 111230Z 29001MPS 0800 R28/0800N FZFG NSC M04/M05 Q1025
R28/CLRD70 NOSIG=
METAR UTNN 111230Z 09002MPS CAVOK 03/M01 Q1020 R33/CLRD60 NOSIG=
METAR UTNU 111230Z 09001MPS CAVOK 05/M02 Q1020 R31/CLRD60 NOSIG=
METAR UTSA 111230Z 11004MPS 8000 NSC 04/M05 Q1021 R25/CLRD70 NOSIG=
METAR UTSB 111230Z 18004MPS CAVOK 08/M07 Q1020 R01/CLRD70 NOSIG=
METAR UTSK 111230Z NIL=
METAR UTSS 111230Z 00000MPS 9999 NSC 04/M07 Q1021 R88/CLRD70 NOSIG=
METAR UTST 111230Z 11001MPS CAVOK 08/M06 Q1023 R88/CLRD70 NOSIG=
METAR UTFA 111230Z 18002MPS 0800 R04/0800 FZFG NSC M03/M04 Q1025
R88/09//70=
METAR UTFF 111230Z 21001MPS 0500 R18/0500N FZFG NSC M02/M04 Q1024
R18/CLRD70=
METAR UTTT 111230Z 22002MPS 4000 FU NSC 06/M03 Q1022 R08R/CLRD70
NOSIG=
00000000