0000112300
289
SMVD15 KWNB 111200 RRP
BBXX
41036 11121 99342 70769 46/// /2010 10221 20203 40157 91220 22200
00209 333 91212 555 11104 22113 31208 41912 61219 196096 194097
194092 194093 195091 194087=
41108 11121 99337 70780 46/// ///// 1//// 91229 22200 00116 10703
20703 70014=
42099 11121 99273 70843 46/// ///// 1//// 91222 22200 00220 10401
20401 70007=
41114 11121 99276 70802 46/// ///// 1//// 91225 22200 00229 10803
20802 307// 41301 70013=
41112 11121 99307 70813 46/// ///// 1//// 91222 22200 00116 11002
21002 310// 41101 70012=
42361 11121 99276 70925 46/// /2213 10239 20228 40139 53010 91230
555 11104 22111=
42390 11121 99261 70949 46/// ///// 10267 20222 40152 52017 91230=
42364 11121 99291 70881 46/// /1916 10211 20206 40129 57003 91230=
44064 11121 99370 70760 46/// /1706 10136 40131 91230 333 91207
555 11066 22072=
44063 11121 99390 70764 46/// /0901 10021 40104 91230 333 91202
555 11010 22011=
44041 11121 99372 70768 46/// /1705 10132 91230 333 91207 555
11055 22060=
44042 11121 99380 70763 46/// /1705 10090 40116 91230 333 91206
555 11060 22065=
0000032800
290
SMVD17 KWNB 111200 RRH
BBXX
52202 11121 99137 11448 46/// ///// 1//// 91230 22200 00282 11005
21005 303// 41101 70024=
51205 11121 99210 71564 46/// ///// 1//// 91221 22200 00249 10905
20904 303// 41102 70023=
46239 11121 99363 71221 46/// ///// 1//// 91229 22200 00133 11307
21003 330// 41306 70034=
0000029700
291
SMKN01 HKNC 111200
AAXX 11124
63740 32480 10512 10273 20078 48495 81200 333 58005 81828=
63820 32580 21018 10304 20207 40102 82100 333 59004 82826=
63612 NIL=
63661 NIL=
63671 NIL=
63688 NIL=
63695 NIL=
63708 NIL=
63714 NIL=
63723 NIL=
63772 NIL=
63793 NIL=
0000016900
292
SMKN01 HKNC 111200
AAXX 11123
63723 32682 30708 10355 20170 40090 83200 333 58000 83833=
63793 32580 43405 10296 20201 40158  84200 333  59006 84826=
0000282100
293
KSME01 SBBR 111200 RRB
CREX++
T000113 A000 D07080++
 82 042 CARACARAI            1 2014 01 11 12 00 0183000 -06113000 ///// ///// ///// ///// //// // //// ///// ///// ///// 2420 2190 /// ///// 2000 ///// ///// ///// 075 07 04 0125 34 22 12 0000 0000  07 /// 08 /// 09 /// // ///// ///// // ///// ///// // ///// //// 508 -0006 10 10  -0024 //// -0001 //// /////  -0001 00000 //// ///// ///// -0012 0000 //// -0012 0000 2240 ///// 03 02 -0010 000 0000 //  -0010 /// //// //// /// //// ///// -0024 // ////  -0001 //// //// ///// ///// ///// ///// -0024 //// //// ///// ///// ///// ///// //// 0000 //+
 82 240 PARINTINS            1 2014 01 11 12 00 -0263000 -05673000 00290 ///// ///// ///// //// // //// ///// ///// ///// 2380 2310 /// ///// 0200 ///// ///// ///// 100 07 02 0045 37 22 60 0000 0000  07 /// 08 /// 09 /// // ///// ///// // ///// ///// // ///// //// 051 -0006 06 06  -0024 //// -0001 //// /////  //// ///// -0024 00820 ///// -0012 0000 //// -0012 0000 2310 ///// 03 02 -0010 000 0000 //  -0010 /// //// //// /// //// ///// -0024 // ////  -0001 //// //// ///// ///// ///// ///// -0024 //// //// ///// ///// ///// ///// //// 0000 //+
 82 317 TEFE                 1 2014 01 11 12 00 -0336000 -06468000 ///// ///// ///// ///// //// // //// ///// ///// ///// 2580 2480 /// ///// 0100 ///// ///// ///// 075 07 03 0008 36 25 10 0000 0000  07 /// 08 /// 09 /// // ///// ///// // ///// ///// // ///// //// 508 -0006 10 10  -0024 //// -0001 //// /////  //// ///// -0024 00150 ///// -0012 0000 //// -0012 0000 2280 ///// 03 02 -0010 090 0010 //  -0010 /// //// //// /// //// ///// -0024 // ////  -0001 //// //// ///// ///// ///// ///// -0024 //// //// ///// ///// ///// ///// //// 0000 //+
 82 610 EIRUNEPE             1 2014 01 11 12 00 -0666000 -06986000 01040 ///// ///// ///// //// // //// ///// ///// ///// 2240 2210 /// ///// 0000 ///// ///// ///// 100 07 08 0008 37 61 60 0000 0000  07 /// 08 /// 09 /// // ///// ///// // ///// ///// // ///// //// 063 -0006 06 06  -0024 //// -0001 //// /////  //// ///// -0024 00170 ///// -0012 0000 //// -0012 0000 2160 ///// 03 02 -0010 000 0000 //  -0010 /// //// //// /// //// ///// -0024 // ////  -0001 //// //// ///// ///// ///// ///// -0024 //// //// ///// ///// ///// ///// //// 0000 //+
 82 807 TARAUACA             1 2014 01 11 12 00 -0816000 -07076000 01900 ///// ///// ///// //// // //// ///// ///// ///// 2380 2310 /// ///// 0200 ///// ///// ///// 100 07 08 0015 37 61 60 0000 0000  07 /// 08 /// 09 /// // ///// ///// // ///// ///// // ///// //// 508 -0006 10 10  -0024 //// -0001 //// /////  -0001 00000 //// ///// ///// -0012 0000 //// -0012 0000 2160 ///// 03 02 -0010 000 0000 //  -0010 /// //// //// /// //// ///// -0024 // ////  -0001 //// //// ///// ///// ///// ///// -0024 //// //// ///// ///// ///// ///// //// 0000 //++
7777
0000072400
294
SMBZ31 SBBR 111200 RRB
AAXX 11124
82106 21194 80502 10238 20222 3//// 4//// 75092 886// 333 20220 5//// 60434=
82113 32595 82301 10244 20239 3//// 4//// 885// 333 20235 5////=
82212 22797 60902 10244 20232 30064 40146 84520 333 20230 58026 60084=
82336 21195 80000 10234 20227 3//// 4//// 75166 887// 333 20227 5//// 60154=
82410 32496 80502 10245 20235 3//// 4//// 8652/ 333 20231 5////=
82425 22196 80902 10256 20231 3//// 4//// 887// 333 20235 5//// 60324=
82533 21297 81802 10260 20242 3//// 4//// 70366 886// 333 20241 5//// 60154=
82704 21195 80000 10231 20225 39896 40091 70362 887// 333 20221 58013 60344=
82723 21196 80502 10245 20241 30062 40144 79111 887// 333 20231 58012 60024=
0000289600
295
KSME01 SBBR 111200 RRB
CREX++
T000113 A000 D07086++
 82 042 CARACARAI            1 2014 01 11 12 00 0183000 -06113000 ///// ///// ///// ///// //// // //// ///// ///// ///// 2420 2190 /// ///// 2000 ///// ///// ///// 075 07 04 0125 34 22 12 0000 0000 // // ///// //// ////// / /// /// ////// /// /// /////// // /// // /// /// ////////// /// /// 508 -0006 10 10  -0024 //// -0001 //// /////  -0001 00000 //// ///// ///// -0012 0000 //// -0012 0000 2240 ///// 03 02 -0010 000 0000 //  -0010 /// //// //// /// //// ///// -0024 // ////  -0001 //// //// ///// ///// ///// ///// -0024 //// //// ///// ///// ///// /////+
 82 240 PARINTINS            1 2014 01 11 12 00 -0263000 -05673000 ///// ///// ///// ///// //// // //// ///// ///// ///// 2380 2310 /// ///// 0200 ///// ///// ///// 100 07 02 0045 37 22 60 0000 0000 // // ///// //// ////// / /// /// ////// /// /// /////// // /// // /// /// ////////// /// /// 051 -0006 06 06  -0024 //// -0001 //// /////  //// ///// -0024 00820 ///// -0012 0000 //// -0012 0000 2310 ///// 03 02 -0010 000 0000 //  -0010 /// //// //// /// //// ///// -0024 // ////  -0001 //// //// ///// ///// ///// ///// -0024 //// //// ///// ///// ///// /////+
 82 317 TEFE                 1 2014 01 11 12 00 -0336000 -06468000 ///// ///// ///// ///// //// // //// ///// ///// ///// 2580 2480 /// ///// 0100 ///// ///// ///// 075 07 03 0008 36 25 10 0000 0000 // // ///// //// ////// / /// /// ////// /// /// /////// // /// // /// /// ////////// /// /// 508 -0006 10 10  -0024 //// -0001 //// /////  //// ///// -0024 00150 ///// -0012 0000 //// -0012 0000 2280 ///// 03 02 -0010 090 0010 //  -0010 /// //// //// /// //// ///// -0024 // ////  -0001 //// //// ///// ///// ///// ///// -0024 //// //// ///// ///// ///// /////+
 82 610 EIRUNEPE             1 2014 01 11 12 00 -0666000 -06986000 ///// ///// ///// ///// //// // //// ///// ///// ///// 2240 2210 /// ///// 0000 ///// ///// ///// 100 07 08 0008 37 61 60 0000 0000 // // ///// //// ////// / /// /// ////// /// /// /////// // /// // /// /// ////////// /// /// 063 -0006 06 06  -0024 //// -0001 //// /////  //// ///// -0024 00170 ///// -0012 0000 //// -0012 0000 2160 ///// 03 02 -0010 000 0000 //  -0010 /// //// //// /// //// ///// -0024 // ////  -0001 //// //// ///// ///// ///// ///// -0024 //// //// ///// ///// ///// /////+
 82 807 TARAUACA             1 2014 01 11 12 00 -0816000 -07076000 ///// ///// ///// ///// //// // //// ///// ///// ///// 2380 2310 /// ///// 0200 ///// ///// ///// 100 07 08 0015 37 61 60 0000 0000 // // ///// //// ////// / /// /// ////// /// /// /////// // /// // /// /// ////////// /// /// 508 -0006 10 10  -0024 //// -0001 //// /////  -0001 00000 //// ///// ///// -0012 0000 //// -0012 0000 2160 ///// 03 02 -0010 000 0000 //  -0010 /// //// //// /// //// ///// -0024 // ////  -0001 //// //// ///// ///// ///// ///// -0024 //// //// ///// ///// ///// /////++
7777
0000014600
296
SMPA01 KWBC 111200 RRB
AAXX 11124
91348 32474 80907 10278 20222 30046 40098 50005 81108 333 10333
562/9 59007 70036 555 91112=
0000515300
297
KSME31 SBBR 111200 RRB
CREX++
T000113 A000 D07086++
 82 106 SAO GABRIEL DA CACHO 1 2014 01 11 12 00 -0013000 -06708000 ///// ///// ///// ///// //// // //// ///// ///// ///// 2380 2220 /// ///// 0100 ///// ///// ///// 100 07 08 0008 36 61 60 0000 0000 // // ///// //// ////// / /// /// ////// /// /// /////// // /// // /// /// ////////// /// /// 050 -0006 09 02  -0024 //// -0001 //// /////  //// ///// -0024 00430 ///// -0012 0000 //// -0012 0000 2200 ///// 03 02 -0010 050 0010 //  -0010 /// //// //// /// //// ///// -0024 // ////  -0001 //// //// ///// ///// ///// ///// -0024 //// //// ///// ///// ///// /////+
 82 113 BARCELOS             1 2014 01 11 12 00 -0098000 -06258000 ///// ///// ///// ///// //// // //// ///// ///// ///// 2440 2390 /// ///// 0200 ///// ///// ///// 100 07 08 0080 35 61 60 0000 0000 // // ///// //// ////// / /// /// ////// /// /// /////// // /// // /// /// ////////// /// /// 508 -0006 10 10  -0024 //// -0001 //// /////  -0001 00000 //// ///// ///// -0012 0000 //// -0012 0000 2350 ///// 03 02 -0010 230 0005 //  -0010 /// //// //// /// //// ///// -0024 // ////  -0001 //// //// ///// ///// ///// ///// -0024 //// //// ///// ///// ///// /////+
 82 212 FONTE BOA            1 2014 01 11 12 00 -0253000 -06616000 ///// ///// 10064 10146 //// // 0026 ///// ///// ///// 2440 2320 /// ///// 1000 ///// ///// ///// 075 07 04 0175 35 22 10 0000 0000 // // ///// //// ////// / /// /// ////// /// /// /////// // /// // /// /// ////////// /// /// 508 -0006 10 10  -0024 //// -0001 //// /////  //// ///// -0024 00080 ///// -0012 0000 //// -0012 0000 2300 ///// 03 02 -0010 090 0010 //  -0010 /// //// //// /// //// ///// -0024 // ////  -0001 //// //// ///// ///// ///// ///// -0024 //// //// ///// ///// ///// /////+
 82 336 ITACOATIARA          1 2014 01 11 12 00 -0313000 -05843000 ///// ///// ///// ///// //// // //// ///// ///// ///// 2340 2270 /// ///// 0200 ///// ///// ///// 100 07 08 0008 37 61 60 0000 0000 // // ///// //// ////// / /// /// ////// /// /// /////// // /// // /// /// ////////// /// /// 051 -0006 06 06  -0024 //// -0001 //// /////  //// ///// -0024 00150 ///// -0012 0000 //// -0012 0000 2270 ///// 03 02 -0010 000 0000 //  -0010 /// //// //// /// //// ///// -0024 // ////  -0001 //// //// ///// ///// ///// ///// -0024 //// //// ///// ///// ///// /////+
 82 410 BENJAMIN CONSTANT    1 2014 01 11 12 00 -0438000 -07003000 ///// ///// ///// ///// //// // //// ///// ///// ///// 2450 2350 /// ///// 0400 ///// ///// ///// 100 07 06 0045 35 22 60 0000 0000 // // ///// //// ////// / /// /// ////// /// /// /////// // /// // /// /// ////////// /// /// 508 -0006 10 10  -0024 //// -0001 //// /////  -0001 00000 //// ///// ///// -0012 0000 //// -0012 0000 2310 ///// 03 02 -0010 050 0010 //  -0010 /// //// //// /// //// ///// -0024 // ////  -0001 //// //// ///// ///// ///// ///// -0024 //// //// ///// ///// ///// /////+
 82 425 COARI                1 2014 01 11 12 00 -0408000 -06313000 ///// ///// ///// ///// //// // //// ///// ///// ///// 2560 2310 /// ///// 0400 ///// ///// ///// 100 07 08 0008 37 61 60 0000 0000 // // ///// //// ////// / /// /// ////// /// /// /////// // /// // /// /// ////////// /// /// 508 -0006 10 10  -0024 //// -0001 //// /////  //// ///// -0024 00320 ///// -0012 0000 //// -0012 0000 2350 ///// 03 02 -0010 090 0010 //  -0010 /// //// //// /// //// ///// -0024 // ////  -0001 //// //// ///// ///// ///// ///// -0024 //// //// ///// ///// ///// /////+
 82 533 MANICORE             1 2014 01 11 12 00 -0581667 -06130000 00500 00015 ///// ///// //// // //// ///// ///// 00150 2600 2420 /// ///// 1000 ///// ///// ///// 100 07 08 0015 36 61 60 0000 0000 // // ///// //// ////// / /// /// ////// /// /// /////// // /// // /// /// ////////// /// /// 003 -0006 06 06  -0024 //// -0001 //// /////  //// ///// -0024 00150 00150 -0012 0000 //// -0012 0000 2410 ///// 03 02 -0010 180 0010 //  -0010 /// //// //// /// //// ///// -0024 // ////  -0001 //// //// ///// ///// ///// ///// -0024 //// //// ///// ///// ///// /////+
 82 704 CRUZEIRO DO SUL      1 2014 01 11 12 00 -0763000 -07266000 ///// ///// 09896 10091 //// // 0013 ///// ///// ///// 2310 2250 /// ///// 0200 ///// ///// ///// 100 07 08 0008 37 61 60 0000 0000 // // ///// //// ////// / /// /// ////// /// /// /////// // /// // /// /// ////////// /// /// 003 -0006 06 02  -0024 //// -0001 //// /////  //// ///// -0024 00340 ///// -0012 0000 //// -0012 0000 2210 ///// 03 02 -0010 000 0000 //  -0010 /// //// //// /// //// ///// -0024 // ////  -0001 //// //// ///// ///// ///// ///// -0024 //// //// ///// ///// ///// /////+
 82 723 LABREA               1 2014 01 11 12 00 -0725000 -06483000 ///// ///// 10062 10144 //// // 0012 ///// ///// ///// 2450 2410 /// ///// 0400 ///// ///// ///// 100 07 08 0008 37 61 60 0000 0000 // // ///// //// ////// / /// /// ////// /// /// /////// // /// // /// /// ////////// /// /// 091 -0006 01 01  -0024 //// -0001 //// /////  //// ///// -0024 00020 ///// -0012 0000 //// -0012 0000 2310 ///// 03 02 -0010 050 0010 //  -0010 /// //// //// /// //// ///// -0024 // ////  -0001 //// //// ///// ///// ///// ///// -0024 //// //// ///// ///// ///// /////++
7777
0000501800
298
KSME31 SBBR 111200 RRB
CREX++
T000113 A000 D07080++
 82 106 SAO GABRIEL DA CACHO 1 2014 01 11 12 00 -0013000 -06708000 00900 ///// ///// ///// //// // //// ///// ///// ///// 2380 2220 /// ///// 0100 ///// ///// ///// 100 07 08 0008 36 61 60 0000 0000  07 /// 08 /// 09 /// // ///// ///// // ///// ///// // ///// //// 050 -0006 09 02  -0024 //// -0001 //// /////  //// ///// -0024 00430 ///// -0012 0000 //// -0012 0000 2200 ///// 03 02 -0010 050 0010 //  -0010 /// //// //// /// //// ///// -0024 // ////  -0001 //// //// ///// ///// ///// ///// -0024 //// //// ///// ///// ///// ///// //// 0000 //+
 82 113 BARCELOS             1 2014 01 11 12 00 -0098000 -06258000 00400 ///// ///// ///// //// // //// ///// ///// ///// 2440 2390 /// ///// 0200 ///// ///// ///// 100 07 08 0080 35 61 60 0000 0000  07 /// 08 /// 09 /// // ///// ///// // ///// ///// // ///// //// 508 -0006 10 10  -0024 //// -0001 //// /////  -0001 00000 //// ///// ///// -0012 0000 //// -0012 0000 2350 ///// 03 02 -0010 230 0005 //  -0010 /// //// //// /// //// ///// -0024 // ////  -0001 //// //// ///// ///// ///// ///// -0024 //// //// ///// ///// ///// ///// //// 0000 //+
 82 212 FONTE BOA            1 2014 01 11 12 00 -0253000 -06616000 00550 ///// 10064 10146 //// // 0026 ///// ///// ///// 2440 2320 /// ///// 1000 ///// ///// ///// 075 07 04 0175 35 22 10 0000 0000  07 /// 08 /// 09 /// // ///// ///// // ///// ///// // ///// //// 508 -0006 10 10  -0024 //// -0001 //// /////  //// ///// -0024 00080 ///// -0012 0000 //// -0012 0000 2300 ///// 03 02 -0010 090 0010 //  -0010 /// //// //// /// //// ///// -0024 // ////  -0001 //// //// ///// ///// ///// ///// -0024 //// //// ///// ///// ///// ///// //// 0000 //+
 82 336 ITACOATIARA          1 2014 01 11 12 00 -0313000 -05843000 00400 ///// ///// ///// //// // //// ///// ///// ///// 2340 2270 /// ///// 0200 ///// ///// ///// 100 07 08 0008 37 61 60 0000 0000  07 /// 08 /// 09 /// // ///// ///// // ///// ///// // ///// //// 051 -0006 06 06  -0024 //// -0001 //// /////  //// ///// -0024 00150 ///// -0012 0000 //// -0012 0000 2270 ///// 03 02 -0010 000 0000 //  -0010 /// //// //// /// //// ///// -0024 // ////  -0001 //// //// ///// ///// ///// ///// -0024 //// //// ///// ///// ///// ///// //// 0000 //+
 82 410 BENJAMIN CONSTANT    1 2014 01 11 12 00 -0438000 -07003000 00650 ///// ///// ///// //// // //// ///// ///// ///// 2450 2350 /// ///// 0400 ///// ///// ///// 100 07 06 0045 35 22 60 0000 0000  07 /// 08 /// 09 /// // ///// ///// // ///// ///// // ///// //// 508 -0006 10 10  -0024 //// -0001 //// /////  -0001 00000 //// ///// ///// -0012 0000 //// -0012 0000 2310 ///// 03 02 -0010 050 0010 //  -0010 /// //// //// /// //// ///// -0024 // ////  -0001 //// //// ///// ///// ///// ///// -0024 //// //// ///// ///// ///// ///// //// 0000 //+
 82 425 COARI                1 2014 01 11 12 00 -0408000 -06313000 00460 ///// ///// ///// //// // //// ///// ///// ///// 2560 2310 /// ///// 0400 ///// ///// ///// 100 07 08 0008 37 61 60 0000 0000  07 /// 08 /// 09 /// // ///// ///// // ///// ///// // ///// //// 508 -0006 10 10  -0024 //// -0001 //// /////  //// ///// -0024 00320 ///// -0012 0000 //// -0012 0000 2350 ///// 03 02 -0010 090 0010 //  -0010 /// //// //// /// //// ///// -0024 // ////  -0001 //// //// ///// ///// ///// ///// -0024 //// //// ///// ///// ///// ///// //// 0000 //+
 82 533 MANICORE             1 2014 01 11 12 00 -0581667 -06130000 00500 00015 ///// ///// //// // //// ///// ///// 00150 2600 2420 /// ///// 1000 ///// ///// ///// 100 07 08 0015 36 61 60 0000 0000  07 /// 08 /// 09 /// // ///// ///// // ///// ///// // ///// //// 003 -0006 06 06  -0024 //// -0001 //// /////  //// ///// -0024 00150 00150 -0012 0000 //// -0012 0000 2410 ///// 03 02 -0010 180 0010 //  -0010 /// //// //// /// //// ///// -0024 // ////  -0001 //// //// ///// ///// ///// ///// -0024 //// //// ///// ///// ///// ///// //// 0000 //+
 82 704 CRUZEIRO DO SUL      1 2014 01 11 12 00 -0763000 -07266000 01700 ///// 09896 10091 //// // 0013 ///// ///// ///// 2310 2250 /// ///// 0200 ///// ///// ///// 100 07 08 0008 37 61 60 0000 0000  07 /// 08 /// 09 /// // ///// ///// // ///// ///// // ///// //// 003 -0006 06 02  -0024 //// -0001 //// /////  //// ///// -0024 00340 ///// -0012 0000 //// -0012 0000 2210 ///// 03 02 -0010 000 0000 //  -0010 /// //// //// /// //// ///// -0024 // ////  -0001 //// //// ///// ///// ///// ///// -0024 //// //// ///// ///// ///// ///// //// 0000 //+
 82 723 LABREA               1 2014 01 11 12 00 -0725000 -06483000 00600 ///// 10062 10144 //// // 0012 ///// ///// ///// 2450 2410 /// ///// 0400 ///// ///// ///// 100 07 08 0008 37 61 60 0000 0000  07 /// 08 /// 09 /// // ///// ///// // ///// ///// // ///// //// 091 -0006 01 01  -0024 //// -0001 //// /////  //// ///// -0024 00020 ///// -0012 0000 //// -0012 0000 2310 ///// 03 02 -0010 050 0010 //  -0010 /// //// //// /// //// ///// -0024 // ////  -0001 //// //// ///// ///// ///// ///// -0024 //// //// ///// ///// ///// ///// //// 0000 //++
7777
0000374600
299
SMCI01 KWBC 111200
AAXX 11121
51334 31925 22002 11206 21242 40443 57009 70500 82/// 333 05551=
51711 32980 70902 11092 21164 38091 52003 87/// 333 00151=
51730 31948 01801 11060 21171 40458 57002 70500 333 00100=
51818 32965 00702 11031 21126 38752 40429 57003 333 00101=
52112 31957 02701 11112 21227 40431 57009 70500 333 00000=
52737 32969 70401 11116 21207 37119 52011 87/// 333 00351=
52787 32980 02904 11183 21261 37065 52014 333 00552=
53352 42955 03202 11139 21255 40444 52019=
53502 32980 02904 11079 21228 39146 40452 52017 333 00501=
53593 32955 02903 11050 21216 40367 52024=
53705 32965 02902 11035 21198 38977 40436 52018 333 00600=
53863 31956 52002 10006 21197 39429 40361 52020 70500 85///=
53923 32980 83403 11023 21234 40394 52026 88///=
53975 31957 73201 10021 21174 40329 52020 70500 87///=
54157 32980 02501 11119 21199 30060 40283 52009=
54186 32970 02703 11105 21196 40251 57006=
54311 32957 03202 11086 21204 40362 52026=
54324 32970 23202 11052 21170 40303 52032 82///=
54405 32973 02905 11019 21219 40336 52026=
54436 31945 00901 11046 21168 40306 52021 70500=
54808 31935 01401 10025 21054 30245 40295 52009 70500=
54826 31958 82514 11062 21104 38499 52004 70500 88///=
54836 31926 00000 11005 21067 39925 40316 52006 70500=
54863 31916 02901 11012 21042 40308 52005 70500=
56018 33/// 92001 11060 21271 36149 52009 333 00252=
56021 32980 81601 11096 21225 36046 52007 88/// 333 00252=
57071 32960 73203 10050 21116 39897 40314 52018 87///=
50548 31957 03602 11261 21341 40346 52021 70500=
50564 32970 02502 11310 21359 39969 40309 52010=
52378 32980 92204 11106 21231 40463 52009 333 00600=
53487 32970 03403 11063 21223 40396 52025=
54049 32970 02904 11104 21211 40281 52011=
54115 32980 13206 11125 21222 40371 52024 81///=
54346 31959 02702 11027 21138 30046 40291 52009 70500=
54377 32962 00203 11104 21169 39997 40299 52003=
54386 32970 02503 11160 21232 39287 40306 57001=
54493 32970 00000 11107 21148 40301 52005=
54715 32964 21601 11018 21041 40296 52008 82///=
54929 31921 32001 10011 21060 40311 52005 70500 83///=
54945 31958 00000 10021 21024 40311 52002 70500=
56065 32680 73404 11087 21208 36626 52017 87/// 333 00301=
57193 31958 12001 10046 21052 40310 52008 70500 81///=
57290 31943 72202 10010 21022 40318 52012 70500 87///=
50658 33/// 92901 11274 21335 40325 52017=
50888 11958 80000 11216 21228 30134 40250 54000 69901 77070 88///
333 92531=
50983 11970 51802 11186 21206 30102 40246 57011 69901 70070 85///=
51053 32980 20905 11098 21180 39696 40398 57012 82/// 333 05607=
51542 32980 00201 11343 21376 37622 57008 333 05253=
52436 32975 02201 11114 21244 38597 40470 52005 333 00453=
52908 32680 70703 11148 21199 35737 52011 87/// 333 00202=
52996 32979 73406 11116 21230 37635 52018 87/// 333 00553=
53083 32964 03404 11192 21243 40437 52018 333 00451=
53764 32970 03402 11048 21197 40384 52012=
53787 32965 71601 11017 21223 39066 40348 52016 87///=
54096 32970 03202 11164 21196 40245 57018=
54226 32971 03402 11078 21231 39801 40331 52034=
54259 32968 02701 11123 21170 39991 40295 52011=
54527 31911 51802 11036 21047 40305 52019 71000 85///=
54534 31903 02001 11057 21068 40299 52021 74640=
56671 32980 00000 10116 21030 38201 52020 333 00201=
57378 32960 83202 10057 20014 40326 52017 88///=
57426 11717 80201 10061 20044 40316 52025 69921 71060 88/// 333
00601=
57476 32960 82702 10048 20011 30283 40325 52016 88///=
57584 32860 83602 10047 20027 40322 52018 88///=
57598 11656 83402 10043 20039 30124 40310 52012 69941 76060 88///=
57655 32960 70401 10047 20012 40330 52020 87///=
57776 41/80 93605 11035 21040 40326 52015 74944=
0000176100
300
SMCN04 KWBC 111200
AAXX 11124
71067 15/// ///// 11056 21078 60001 333 11011 21109 70000=
71221 15/// /0303 11108 21120 60001 333 11053 21205 70000=
71226 15/// /0807 11103 21120 60001 333 11002 21110 70000=
71283 15/// /0602 11087 21102 60001 333 11048 21176 70006=
71359 15/// /1003 11125 21137 60001 333 11048 21125 70000=
71383 15/// /1607 11075 21087 39502 40119 56025 60001 333 11077
21103 70000=
71405 15/// ///// 11094 21108 60001 333 11011 21129 70000=
71445 15/// /3304 11092 21107 39715 49997 50003 60001 333 11075
21096 4/049 70027=
71461 15/// /0808 11079 21103 60001 333 11027 21167 70000=
71483 15/// /0303 11090 21106 60001 333 10003 21120 70000=
71500 15/// /1509 11039 21071 60001 333 11003 21063 70000=
71504 45/// ///// 11042 21062 6///1 333 10003 21099 7////=
71520 45/// /1411 11079 21080 39421 40101 58025 6///1 333 11093
21118 7////=
71521 15/// ///// 11079 21090 60001 333 11092 21104 70002=
71523 45/// ///// 11054 21071 39699 40077 58049 6///1 333 11050
21085 7////=
71541 15/// /1406 11061 21101 60001 333 11061 21122 70004=
71546 15/// /0706 11086 21108 60001 333 11036 21119 70000=
71547 15/// /1206 11096 21112 60001 333 11033 21114 70000=
71549 15/// ///// 11069 21087 60001 333 11031 21112 70000=
71673 17/// ///// 11054 21072 69961 7//4/ 333 11007 21140 7////=
71690 15/// ///// 11070 21102 60001 333 11043 21137 70000=
71788 15/// /1615 11017 21042 60001 333 10050 21089 70000=
71792 17/// ///// 11055 21064 69971 7//4/ 333 11029 21146 70011=
71888 15/// ///// 11099 21112 60001 333 11024 21135 70000=
71895 45/// ///// 11039 21059 6///1 333 10007 21133 7////=
71915 12974 13205 11329 21372 39988 40073 52008 60001 80001 333
11244 21333 44013 70000=
0000087100
301
SMCI01 KWBC 111200 RRA
AAXX 11121
58321 31640 82001 10043 20034 40313 52003 71000 88///=
58437 11900 82703 11012 21015 38198 52008 69931 77474 88///=
58556 11529 83602 10058 20055 40300 52011 60041 71000 88///=
58569 11415 80405 10065 20065 40289 52008 60041 76064 88///=
58646 11644 80000 10081 20064 40285 52013 69941 76060 88///=
58715 119// 03403 10057 20047 40295 52020 69971 76066=
58730 31659 83201 10105 20061 39994 40267 52010 70060 88///=
58731 11627 80000 10081 20059 40272 52011 69911 71060 88///=
58754 32668 83401 10113 20058 40276 52011 88///=
58911 31657 12701 10127 20084 40248 52020 70500 81///=
58931 31/00 92902 10058 20058 38403 52007 74440=
59254 31756 71802 10142 20102 40237 52020 70500 87///=
59632 31756 80202 10151 20111 40230 52022 70500 88///=
59855 32468 20901 10211 20187 30179 40209 52019 82///=
0000070200
302
SMGO01 FOOL 111200 RRA
AAXX 11124
64550 31460 62008 10290 20248 30102 40116 70196 86900
  333 0//00 58004 83810 81920 86640 94942 95832=
64510 32465 7//// 10278 20216 3//// 4//// 872//
  333 0//00 5//// 87816 94919 95819=
64512 32470 6//// 10272 20211 3//// 4//// 86200
  333 0//00 5//// 86811 94929 95839=
64551 32470 72608 10295 20252 3//// 4//// 879//
  333 0//00 5//// 83815 81920 87640 94943 95833=
64556 32460 8//// 10263 20234 3//// 40/// 885//
  333 0//00 5//// 88610=
64560 32360 6//// 10301 20235 39557 40087 86400
  333 0//00 59009 86606=
64570 11458 81804 10222 20213 39609 40105 6///1 79596 8692/
  333 0//52 58002 85613 83920 88460 94959 95839=
0000010700
303
SAIN90 VIBN 111130
METAR VIBN 111130Z 09007KT 1000 BR SCT020 FEW030CB BKN100 17/17
Q1016=
0000009500
304
SAIN90 VOHS 111240
METAR VOHS 111240Z 11006KT 5000 HZ SCT020 25/14 Q1016 NOSIG=
0000008900
305
SAIN90 VOMM 111240
METAR VOMM 111240Z 06006KT 6000 NSC 25/19 Q1013 NOSIG=
0000096200
306
USDL03 EDZW 111200
TTAA 11111 10238
99004 05843 20004 00100 05450 21510 92734 03459 25519
85413 01956 25017 70931 11527 26015 50545 23939 28013
40705 35935 27022 30899 48957 25531 25017 55763 25530
20157 53777 26024 15343 53187 29014 10604 55186 29513
88228 59764 25029
77268 26033 40105
31313 48008 81045=
TTAA 11111 10618
99973 02809 23002 00152 ///// ///// 92787 04019 25513
85470 00109 26510 70006 07531 26522 50554 23733 28017
40713 35542 26524 30908 48757 25530 25026 57358 26027
20165 58373 26519 15349 52983 28013 10609 55183 27517
88226 61558 26022
77282 26532 40907
31313 48008 81051=
TTAA 11111 10771
99968 00302 05002 00159 ///// ///// 92784 00613 18511
85468 03069 25512 70013 06719 27520 50556 24157 25528
40714 35956 26031 30908 51160 25032 25024 58763 27523
20165 55581 27521 15349 54187 28015 10607 55186 29017
88235 60164 27521 88113 57785 28518
77432 26533 40805
31313 48008 81045=
0000048700
307
SXXX32 EUMS 111230 RRX
22BF90A6
:PRS 1 /1 954 954 948 9/7 947 951 951 952 9/6 969 961 951 957 964 957 :RA/ 1 /3 4139 4139 454/ 4146 4147 4150 4150 4156 4155 4554 :SW1 30 /60 1 :SW2 60 /60 60 :WTP 15 /15 29.9 /BAT 13 /15 13.3 :WAV 10 /10 6.2 6.1 5.9 :DAV 10 /50 102 101 104 :WMX 10 /14 7.5 7.8 7.2 :TPA 15 /15 27.8 :TMN 30 /720 26.9 :TMX 30 /720 28.6 :HUM 15 '15 78.5 :PRA 15 /15 1013.9 :RAC 29 /60 0.0 :RDU 2= /60 0 :RIN 29 /60 0.0 :/AC 749 /1440 0.4 :DDR 749 /1440 334
0000045000
308
SXXX32 EUMS 111231 RRX
1227146C
:PRS 1 /1 3866 3864 3863 3860 3861 3859 3856 3856 3857 3859 3860 3862 3863 3860 3853 3853 3849 3843 3843 3841 3834 3830 3824 3823 3821 3819 3822 3821 3820 3821 :RAD 3 /3 3852 3846 3843 3849 3847 3839 3836 3808 3816 3816 3800 3807 3792 3779 3775 3763 3752 3744 3747 3749 :ENC 1 /5 4620 4615 4616 4601 4582 4579 4569 4558 4543 4528 4516 4506 :SW1 32 /60 0 :SW2 2 /60 0 :BAT 14 /15 12.4 :NAME 1227146C /
00000000