0000003900
202
UKSB01 VCCC 111200
NIL=
0000032300
203
SAPK31 OPKC 111300
METAR OPGD 111300Z NIL=
METAR OPKC 111300Z NIL=
METAR OPLA 111255Z 00000KT 5000 HZ NSC 17/05 Q1020/30.09 NOSIG=
METAR OPNH 111300Z NIL=
METAR OPPS 111300Z S--04KT 4000 HZ SCT200 14/03 Q1020.2=
METAR OPRN 111300Z 31006KT 6000 FEW200 14/01 Q1020.8/30.14=
METAR OPSK 111300Z NIL=
0000071900
204
SMVX01 DEMS 111200
BBXX
TBWUK58 11124 99080 10761 41996 01903 10278 20222 40100 57010 70200
80000 22233 20000 327// 40502 80240=
A8IY8 11124 99062 10922 41/// /0915 10280 20246 40110 50000
7//// 8//// 22263 04290 2//// 80255=
SHIP    11124 99059 10964
41697 70610 10270 20228 40123 53011 70222 86246
22224 00290 20403 334// 40403 80240=
DIGY2 11124 99055 10815 41997 70227 10265 20230 40107 53005
70222 80008 22223 00272 20604 80240=
ELEI6 11123 99071 30774 41297 73218 00/// 10275 2026 40110 53015
 70222 8742/ 22253 0//// 20405 3//// 4//// 5//// 6//// 80260=
A8HA7 11124 99095 30797 41698 83125 10280 20244 40086 54000 70366
 8732/ 22213 00300 2//// 3//// 4//// 5//// 80255=

0000023000
205
SIIN90 RQST 111200
AAXX 11124
42299 NIL=
42309 NIL=
42314 NIL=
42398 NIL=
42410 NIL=
42415 NIL=
42492 NIL=
42498 NIL=
42500 NIL=
42701 NIL=
42706 NIL=
42724 NIL=
42798 NIL=
42807 NIL=

0000121600
206
SMIN90 RQST 111200
AAXX 11124
42299 21396 70000 10064 20035 38205 48518 70252 86630
  333 10081 58008 6990/ 82709 85617=
42309 21495 71802 10188 20158 40151 70520 84570
  333 10200 58009 6990/=
42314 31595 70000 10194 20135 40153 70522 83530
  333 10248 58003 83620=
42398 21595 50000 10143 20143 40174 71062 82530
  333 10168 58021 6992/=
42410 31495 70000 10186 20170 40175 76062 83330
  333 10222 57060 59035 83618 81925 87360=
42415 32496 60000 10194 20150 40179 84530
  333 10229 58011 84618 85360=
42492 21494 70203 10160 20143 40179 76022 84520
  333 10170 58032 6002/ 84615 86458=
42498 21494 70000 10160 20146 40144 70562 84530
  333 10164 56690 58007 6004/ 84615 87358=
42500 21595 70000 10154 20147 40160 72165 84530
  333 10166 58010 6005/ 84620 85360=
42701 31494 70505 10146 20118 39409 40154 74144 84530
  333 10190 58008 84615 87360=
42706 31995 20702 10190 20130 40152 70500 80001
  333 10250 58016 82075=
42724 31595 30000 10210 20153 40155 70510 83500
  333 10262 58002 83620=
42798 31493 70906 10194 20110 40144 70422 85430
  333 10250 58011 84615 83825 87360=
42807 31995 03602 10226 20156 40150 70500
  333 10263 58004=

0000017400
207
WASP40 LEMM 111300
LECM AIRMET 2 VALID 111300/111500 LEMM-
LECM MADRID FIR SFC VIS 0200-1000 FG WI N43 W004- N4230 W00130-
N42 W00130- N4230 W004 STNR NC=
0000017800
208
SMRA13 RUHB 111200 CCA
AAXX 11121
24371 42999 00000 11471 21490 39956 40376 58004 80002 24449 11299
30000 11495 21516 30267 40283 58005 60002 80001 333 11473=
0000004600
209
SMVX01 VCCC 111200
BBXX
NIL=
0000024100
210
SOAT10 KWAL 111258
FA8005BC 011125837 OT12 ID:KN-BASS-01 DT:2014 01 11 12 56
:RD -3086 -3083 -3072 -3062 -3081 -3068 -3076 -3086 -3099 -3124
:PR 0568 0501 0626 0638 0614 0554 0577 0552 0567 0709
:B 13.7V
 46+1NN 219E
0000032300
211
UGMN01 TNCM 111200
 PPBB 61120 78866 90012 09013 08018 06533 90346 07525 08024
06523 90789 06527 06523 07021 91234 06016 06515 06016 91679
03519 02517 03013 92035 02514 00514 34511 928// 29510 93045
30516 32532 32530 9389/ 30019 29020 9459/ 33019 32013 9502/
33017 34526=









0000010900
212
UANT01 CWAO 111257
ARP SIA26 5022N04859W 1257 F390 MS61 289/58 KT
9VSKS DDL YYT 111257 J08A
0000030100
213
USKZ12 UAAA 111200
TTAA  11121 35394 99958 09138 12003 00220 ///// ///// 92825
07739 18510 85484 07133 22513 70978 14330 24513 50543 32324
20019 40697 42740 21015 30884 58739 18526 25996 65339 19021
20132 63740 23515 15307 64741 26019 10553 66343 26526 88229
66736 20020 77999=
0000016000
214
SSVX13 LFVW 111258
ZZYY 17572 11014 1300/ 537924 171831 6110/
11119 40151 57010
22219 00208
444 20100 11014 1256/ 50101 80110 80000 9/015=
0000043900
215
UKKZ12 UAAA 111200
TTBB  11123 35394 00958 09138 11939 10137 22912 04945 33875
07146 44814 07921 55731 11726 66593 24319 77573 25519 88427
38736 99280 62338 11229 66736 22216 64340 33186 63141 44126
67542 55102 66543 21212 00958 12003 11911 21513 22848 22513
33782 26011 44599 24016 55484 20019 66406 21514 77290 18526 
88235 19020 99204 23015 11177 24015 22130 26019 33106 26525 
31313 52716 81130 41414 30931=
0000011000
216
UANT01 CWAO 111257
ARP AZA63K 4820N01626W 1257 F310 MS52 224/67 KT
EIISO QXT AOE 111257 F14A
0000012200
217
SNRE15 FMEE 111300
AAXX 11134
61997 26/// /3216 10120 20118 39760 49931 57035
  333 60005 90710 91128=
0000010000
218
SNVC25 LFPW 111300
BBXX
BAREU08 11134 99322 50719 46/// ///// 40133 52014
22244=
0000011100
219
UANT99 KDDL 111257
ARP DAL409 5301N03006W 1256 F350 MS55 175/55 KT
N1200K QXT AOW 111257 F27A
0000011000
220
UANT99 KDDL 111257
ARP SWR26L 4903N02917W 1257 F380 MS51 205/43 KT
HBJHA QXT AOE 111257 J19A
0000015400
221
UQCN01 CWLW 111200
PPDD  61128 71203 95456 27557 29053 28042 957// 27545 97046
29072 30082 30569 98179 31570 30601 32108 990// 31602=

00000000