0000178900
322
SZPS01 AMMC 111300
CREX++
T000103 A001 D01021 D06025++
-0204190 14737360 56130 2014 01 11 12 53 3027 11 07 00 01
00427 0118 00430 0121 00432 0123 00433 0124 00436 0127 00437 0128+
-0669280 15640860 56363 2014 01 11 12 53 //// 11 07 00 01
00543 -0055 00548 -0051 00548 -0053 00554 -0048 00552 -0052 00551 -0054+
-0942890 15995560 56670 2014 01 11 12 53 3038 11 07 00 01
00420 -0061 00420 -0061 00423 -0059 00422 -0060 00422 -0060 00424 -0059+
-1072080 16580190 57131 2014 01 11 12 53 //// 11 07 00 01
01345 0751 01584 0987 01265 0665 01140 0538 01666 1061 01278 0671+
-1551560 16718860 57210 2014 01 11 12 53 //// 11 07 00 01
00706 -0128 00704 -0134 00701 -0140 00696 -0148 00697 -0151 00694 -0157+
-1775690 16830030 57320 2014 01 11 12 53 3015 11 07 00 01
00578 -0115 00581 -0115 00587 -0112 00593 -0109 00599 -0105 00603 -0104+
-4397330 16861610 65180 2014 01 11 12 53 2885 11 07 00 01
01294 0369 01295 0373 01299 0381 01311 0396 01322 0410 01341 0432+
-2120470 -15978530 65980 2014 01 11 12 53 3010 11 07 00 01
00619 0003 00632 0014 00662 0043 00656 0035 00632 0010 00619 -0005+
-2113810 -17518140 66600 2014 01 11 12 53 //// 11 07 00 01
01149 0088 01151 0087 01154 0086 01161 0089 01163 0087 01169 0089+
-1382670 -17176110 66840 2014 01 11 12 53 3008 11 07 00 01
00946 0031 00941 0024 00960 0041 00949 0027 00965 0041 00965 0038+
-1813250 17842750 67050 2014 01 11 12 53 3030 11 07 00 01
01218 0083 01223 0084 01221 0077 01221 0073 01231 0079 01240 0084+
-1760530 17743810 67070 2014 01 11 12 53 3030 11 07 00 01
01281 0035 01284 0033 01289 0034 01294 0033 01298 0033 ///// ////+
-0850250 17919500 67440 2014 01 11 12 53 3028 11 07 00 01
02222 0006 02227 0008 02230 0007 02224 -0002 02243 0014 02237 0005++
7777

0000046700
323
SZPA01 AMMC 111300
CREX++
T000103 A001 D01021 D06025++
0136250 17293000 67590 2014 01 11 12 53 3015 11 07 00 01
01917 0040 01929 0050 01931 0050 01929 0045 01937 0051 01928 0039+
0710610 17137250 67680 2014 01 11 12 53 3013 11 07 00 01
01277 0028 01276 0026 01283 0031 01283 0030 01281 0027 01292 0036+
0698060 15820000 67950 2014 01 11 12 53 3023 11 07 00 01
00779 0122 00780 0123 00782 0124 00785 0126 00788 0129 00788 0128++
7777

0000034300
324
SZIO01 AMMC 111300
CREX++
T000103 A001 D01021 D06025++
-1211670 09689190 46280 2014 01 11 12 53 3018 11 07 00 01
00724 0024 00720 0021 00715 0018 00716 0020 00711 0016 00711 0018+
-1042940 10566940 46290 2014 01 11 12 53 //// 11 07 00 01
01013 0020 00944 -0047 01026 0038 00946 -0039 ///// //// ///// ////++
7777

0000191900
325
SZAU01 AMMC 111300
CREX++
T000103 A001 D01021 D06025++
-1927750 14705860 59260 2014 01 11 12 53 3022 11 07 00 01
01283 0187 01281 0191 01277 0194 01266 0189 01256 0186 01249 0184+
-2316110 15079000 59670 2014 01 11 12 53 3000 11 07 00 01
01790 0239 01782 0239 01782 0248 01772 0247 01762 0245 01754 0246+
-3447330 15091170 60420 2014 01 11 12 53 2953 11 07 00 01
00472 -0042 00468 -0046 00472 -0043 00477 -0038 00478 -0037 00484 -0031+
-4105000 14591500 60910 2014 01 11 12 53 2888 11 07 00 01
01962 -0008 01961 0000 01942 -0011 01925 -0020 01923 -0013 01922 -0007+
-4254640 14793080 61170 2014 01 11 12 53 2900 11 07 00 01
01048 0082 01048 0082 01050 0083 01047 0080 01056 0088 01064 0096+
-3834390 14161360 61410 2014 01 11 12 53 2908 11 07 00 01
00755 0019 00721 -0015 00757 0021 00739 0002 00798 0061 00751 0014+
-3214890 13364170 62000 2014 01 11 12 53 2955 11 07 00 01
01183 -0018 01186 -0018 01190 -0017 01192 -0017 01197 -0015 01202 -0012+
-3387080 12189720 62080 2014 01 11 12 53 2950 11 07 00 01
01052 0006 01059 0013 01056 0010 01051 0005 01047 0001 01051 0005+
-3182560 11573860 62237 2014 01 11 12 53 2973 11 07 00 01
00913 0039 00914 0042 00910 0039 00910 0040 00904 0035 00907 0039+
-2422000 11339750 62385 2014 01 11 12 53 //// 11 07 00 01
01195 -0085 01198 -0080 01243 -0033 01190 -0084 01163 -0108 01206 -0063+
-2181670 11419110 62430 2014 01 11 12 53 //// 11 07 00 01
01996 -0068 02022 -0039 02016 -0043 02008 -0048 01996 -0057 02003 -0047+
-1800080 12221830 62650 2014 01 11 12 53 3043 11 07 00 01
06373 0113 06365 0117 06357 0115 06349 0116 06341 0116 06334 0115+
-1247190 13084580 63230 2014 01 11 12 53 3050 11 07 00 01
04354 0085 04354 0080 04357 0081 04362 0079 04362 0077 04364 0075+
-1386000 13641580 63511 2014 01 11 12 53 3042 11 07 00 01
01881 0071 01880 0070 01880 0069 01880 0069 01879 0068 01880 0069++
7777

0000015600
326
UEBW01 VGDC 111200
TTDD 6112/ 41883 NIL=
TTDD 61122 41923 11566 685// 22429 611// 33264 575// 21212 11264
14026=
TTDD 6112/ 41977 NIL=
0000101600
327
SAYE20 OYSC 111300
METAR OYAA 111300Z 16012KT 9999 SCT020 27/19 Q1014=
METAR OYAM 111300Z NIL=
METAR OYAR 111300Z 34004KT 9999 FEW030 21/07 Q////=
METAR OYAS 111300Z NIL=
METAR OYAT 111300Z 12015KT CAVOK 23/07 Q1018=
METAR OYDM 111300Z 16003KT 9999 FEW030 19/M02 Q////=
METAR OYGD 111300Z 09014KT 9999 SCT030 24/18 Q1015=
METAR OYHD 111300Z 21019KT 9999 FEW030 29/20 Q1013=
METAR OYHJ 111300Z 26010KT 9999 BKN010 16/14 Q////=
METAR OYIB 111300Z NIL=
METAR OYKD 111300Z NIL=
METAR OYMB 111300Z NIL=
METAR OYMK 111300Z 18014KT CAVOK 27/21 Q////=
METAR OYMT 111300Z VRB02KT 9999 FEW020 21/11 Q////=
METAR OYRN 111300Z 10008KT 9999 FEW020 SCT050 27/19 Q1015=
METAR OYSD 111300Z 16004KT 9999 FEW030 20/00 Q////=
METAR OYSH 111300Z 24012KT 9000 FEW020CB BKN030 20/11 Q////=
METAR OYSN 111300Z 27011G22KT 230V320 9999 SCT030 22/03 Q1024=
METAR OYSQ 111300Z 09012KT 9999 SCT018 28/19 Q1013=
METAR OYSY 111300Z 07008KT 040V110 CAVOK 28/10 Q1015=
METAR OYTZ 111300Z NIL=
0000012100
328
SAIN90 VEGT 111300
METAR VEGT 111300Z 00000KT 2000 BR SCT020 FEW025CB BKN100 18/16
Q1017 NOSIG CB TO W=
0000008600
329
SAIN90 VOBL 111300
METAR VOBL 111300Z 12003KT CAVOK 28/13 Q1017 NOSIG=
0000008600
330
SAIN90 VOMD 111300
METAR VOMD 111300Z 10003KT 6000 FEW020 29/16 Q1012=
0000008900
331
SAIN90 VOCL 111300
METAR VOCL 111300Z 29006KT 6000 NSC 29/22 Q1011 NOSIG=
0000006100
332
AAUK99 EGRR 111300
Socket stay alive message.
0000066400
333
USUK01 EGRR 111200
TTAA 61111 03005
99992 04841 29015 00016 ///// ///// 92648 00623 29030
85320 04743 29033 70814 16331 29531 50525 36527 25516
40676 44375 23017 30867 44580 22536 25988 49180 24025
20136 45385 23517 15326 48784 25530 10589 55382 25033
88426 45950 25026 88253 49180 23519
77999
31313 48008 81115=
TTAA 61111 03808
99011 08640 04005 00174 07848 ///// 92810 02232 01505
85489 00375 31506 70033 07367 28017 50557 24574 28534
40715 38767 29036 30906 54961 26545 25020 61757 30061
20161 55777 27051 15346 53583 25031 10607 53383 24523
88319 51564 26540 88252 62157 30061
77254 30062 43537
31313 48008 81115=
0000059000
334
SASA85 EGRR 111300
METAR SBBV 111300Z 07013KT CAVOK 28/18 Q1015=
METAR SBCF 111300Z 07007KT 9999 BKN035 26/16 Q1021=
METAR SBCG 111300Z 30007KT CAVOK 28/19 Q1017=
METAR SBEG 111300Z 36005KT 9999 FEW005 SCT020 BKN100 24/21 Q1015=
METAR SBPV 111300Z 26007KT 8000 BKN008 FEW020TCU BKN070 24/23 Q1014=
METAR SBSJ 111300Z 13003KT CAVOK 28/14 Q1019=
METAR SBSL 111300Z 08009KT 9999 BKN020 29/20 Q1012=
METAR SBSP 111300Z 31010KT CAVOK 30/17 Q1019=
METAR SBSV 111300Z 08009KT 9999 SCT017 30/23 Q1016=
METAR SVMG 111300Z /////KT 9999 BKN010 29/26 Q1016 REDZ TEMPO=
0000014400
335
SMVF51 EGRR 111200
BBXX
62095 11124 99529 70156 46/// /1720 10094 20042 40121 57008 22200
00099 10807 70036 333 90710 91131=
0000012800
336
SNVF51 EGRR 111300
BBXX
62105 11134 99550 70132 46/// /1711 10083 20007 40147 50002 22200
00108 10908 70038=
0000012800
337
SNVF51 EGRR 111300
BBXX
64045 11134 99591 70117 46/// /2516 10064 21004 40105 51023 22200
00098 10809 70045=
0000014400
338
SNVF51 EGRR 111300
BBXX
62163 11134 99475 70084 46/// /1219 10109 20092 40183 57013 22200
00121 10706 70028 333 90710 91127=
0000012800
339
SNVF51 EGRR 111300
BBXX
62301 11134 99524 70047 46/// /2804 10072 20014 40209 52008 22200
00096 10503 70014=
0000012800
340
SNVF51 EGRR 111300
BBXX
62107 11134 99501 70061 46/// /1209 10095 20038 40211 58001 22200
00105 11005 70026=
0000012800
341
SNVF51 EGRR 111300
BBXX
62001 11134 99452 70050 46/// /0909 10118 20070 40207 58008 22200
00127 10904 70021=
00000000