0000190100
349
UDEU02 EGRR 111242
AMDAR 1112
ASC EU0692   5321N 00251W 111219 F009 PS037 312/018 TB/ S031=
ASC EU0692   5321N 00253W 111219 F017 PS015 300/016 TB/ S031=
ASC EU0692   5322N 00255W 111219 F023 MS002 307/020 TB/ S031=
ASC EU0692   5323N 00257W 111219 F030 MS015 319/021 TB/ S031=
ASC EU0692   5323N 00259W 111219 F034 MS020 316/021 TB/ S031=
ASC EU0692   5324N 00302W 111219 F041 MS030 310/022 TB/ S031=
ASC EU0692   5324N 00304W 111219 F055 MS057 307/024 TB/ S031=
ASC EU0692   5325N 00306W 111219 F065 MS070 307/028 TB/ S031=
ASC EU0692   5326N 00308W 111219 F078 MS095 300/029 TB/ S031=
ASC EU0692   5326N 00311W 111219 F111 MS112 312/056 TB/ S031=
ASC EU0692   5328N 00315W 111220 F142 MS187 299/065 TB/ S031=
ASC EU0692   5330N 00319W 111220 F163 MS235 300/065 TB/ S031=
ASC EU0692   5332N 00323W 111220 F185 MS290 297/069 TB/ S031=
ASC EU0692   5335N 00327W 111221 F206 MS332 302/072 TB/ S031=
ASC EU0692   5337N 00332W 111221 F230 MS387 295/081 TB/ S031=
ASC EU0692   5339N 00336W 111221 F240 MS410 293/086 TB/ S031=
ASC EU0692   5341N 00340W 111222 F240 MS410 295/087 TB/ S031=
ASC EU0692   5344N 00344W 111222 F240 MS410 295/087 TB/ S031=
ASC EU0692   5346N 00348W 111222 F240 MS410 295/088 TB/ S031=
ASC EU0692   5348N 00352W 111223 F240 MS410 295/088 TB/ S031=
ASC EU0692   5350N 00357W 111223 F240 MS410 295/089 TB/ S031=
ASC EU0692   5352N 00401W 111223 F240 MS410 295/088 TB/ S031=
ASC EU0692   5354N 00405W 111224 F240 MS410 294/089 TB/ S031=
ASC EU0692   5356N 00409W 111224 F240 MS412 295/087 TB/ S031=
ASC EU0692   5359N 00413W 111224 F240 MS410 295/087 TB/ S031=
ASC EU0692   5401N 00418W 111225 F240 MS410 295/086 TB/ S031=
ASC EU0692   5403N 00422W 111225 F240 MS410 295/086 TB/ S031=
ASC EU0692   5405N 00426W 111225 F235 MS400 295/081 TB/ S031=
ASC EU0692   5407N 00430W 111226 F230 MS390 296/079 TB/ S031=
0000024700
350
SNAA01 KARS 111100 RRF
AAXX 1111/
89869 46/// ///// 11098 39918 4//// 5//// 91140=
89799 46/// ///// 11209 4//// 5//// 91140=
89314 46/// ///// 11125 38285 4//// 5//// 91140=
89828 46/// ///// 11216 36544 4//// 5//// 91140=
0000010300
351
SMPS02 NZKL 111200
AAXX 11124
91723 NIL=
91964 36/// /1010 10228 20218 40191 57016=
0000010000
352
SIAA01 KARS 110900 RRE
AAXX 1109/
89879 46/// ///// 10019 39895 4//// 5//// 90930=
0000035400
353
SNAA01 KARS 111200
AAXX 1112/
89869 46/// ///// 11095 39917 4//// 5////=
89866 46/// ///// 11023 39872 4//// 5////=
89329 46/// ///// 11119 38797 4//// 5////=
89799 46/// ///// 11206 4//// 5////=
89314 46/// ///// 11125 38284 4//// 5////=
89828 46/// ///// 11211 36544 4//// 5////=
89108 46/// ///// 11210 37008 4//// 5////=
0000032500
354
UKRS14 RUMS 111200
TTBB  11123 27199 00974 03111 11929 05715 22808 07710 33771
06708 44524 20517 55364 39519 66240 62523 77194 70727 88101
73327 21212 00974 13503 11880 18023 22847 19519 33823 19013
44793 19020 55450 19028 66207 20533 77168 21023 88151 23518
99111 25511 31313 52803 81130 41414 8732/=
0000036100
355
SMRA40 RUHB 111200
AAXX 11121
31152 41998 83201 11346 21388 39887 40347 52005 70272 80006=
31163 NIL=
31285 42999 62001 11303 21341 30156 40245 52009 80005=
31561 42/// /2601 11346 21379 30162 40192 54000=
31683 42999 03101 11286 21317 30085 40167 51005=
32010 41498 32606 11210 21222 30006 40058 52004 73683 83900 333 91011
91113=
0000068900
356
UDEU02 EGRR 111242 RRA
AMDAR 1112
DES EU0447   5241N 00310W 111224 F160 MS222 290/063 TB/ S031=
DES EU0447   5249N 00310W 111226 F135 MS170 291/057 TB/ S031=
DES EU0447   5256N 00309W 111227 F112 MS117 313/057 TB/ S031=
DES EU0447   5303N 00309W 111229 F088 MS087 300/040 TB/ S031=
DES EU0447   5309N 00306W 111230 F065 MS072 299/030 TB/ S031=
DES EU0447   5314N 00300W 111232 F044 MS040 313/023 TB/ S031=
DES EU0447   5317N 00250W 111233 F027 MS005 312/022 TB/ S031=
DES EU0447   5318N 00241W 111235 F019 PS007 296/019 TB/ S031=
DES EU0447   5321N 00238W 111236 F017 PS015 282/012 TB/ S031=
DES EU0447   5321N 00243W 111238 F010 PS025 292/017 TB/ S031=
0000011100
357
UANT01 CWAO 111238
ARP SVA021 4939N04132W 1238 F340 MS61 320/60 KT
HZAK20 QXT EUA 111238 F74A
0000025100
358
UAUS31 KWBC 111239
ARP UAL569 3858N 07934W 1231 F340 TB MOSTLY SMTH RM A320 OV
    EKN090025=
ARP UAL589 4302N 08108W 1231 F280 TB NEG RM A319 OV YXU=
ARP UAL433 4446N 08052W 0630 F360 TB CONT LGT CHOP RM B752 OV
    YVV090010=
0000008400
359
UAPA01 KWBC 111239
ARP ASA898 3003N 14905W 1226 F340 MS53 246/036KT=
0000011000
360
UANT01 CWAO 111239
ARP JAI230 5408N02321W 1238 F370 MS61 199/72 KT
VTJWU QXT AOE 111238 J24A
0000011000
361
UANT01 CWAO 111239
ARP TOM024 4535N03220W 1239 F400 MS45 243/45 KT
GTUIC QXT AOE 111239 L23A
0000010900
362
UANT01 CWAO 111239
ARP SIA26 5123N04553W 1239 F390 MS59 290/54 KT
9VSKS QXT AME 111239 J03A
0000097700
363
SMVD01 PANC 111200 RRF
BBXX
3FPQ9 11123 99242 70741
41597 51219 10250 2021/ 40150 54000 70322 84193
22274 00280 20405 313// 40404 50506 6//// 80220 ICE 0/0//=
VRDR8 11123 99322 30583
416// 80530 10230 20201 40190 54000 7//22 887//
22223 0//// 20706 305// 4//// 5//// 6//// 80210 ICE /////=
9V9128 11124 99297 50004
41898 20909 10240 20126 40260 52020 70100 81/8/
22232 00210 2//// 323// 41203 5//// 6//// 80170 ICE /////=
V7HP5 11123 99235 71138
41999 13510 10190 20175 40140 54000 70100 80//2
22263 0//// 20202 33333 40101 50101 6//// 80180 ICE /////=
WDD6126 11123 99430 70262
41597 43130 10115 20004 40055 51020 7//55 82///
22264 00127 20506 330// 41007 5//// 6//// 80065 ICE /////=
C6KJ5 11124 99285 70894
41496 72220 10220 20220 40130 57005 70311 87///
22280 00200 20504 30000 80220=
C6ZI9 11123 99196 70827
411// 21318 10260 2//// 40140 51/// 7//00 8246/
22234 00260 20603 3//// 4//// 5//// 6//// 8//// ICE /////=
0000221600
364
UKDL03 EDZW 111200
TTBB 11118 10238
00004 05843 11969 03033 22946 04457 33796 04947 44788
04760 55775 05764 66739 08940 77695 11316 88615 17703
99609 16308 11599 16928 22596 17560 33589 16930 44586
17367 55569 17379 66555 18564 77550 18556 88549 18557
99487 25532 11374 39356 22336 44358 33292 50556 44270
52362 55228 59764 66188 51785 77100 55186
21212 00004 20004 11002 21510 22946 25019 33737 25016
44607 28519 55505 28013 66291 25031 77268 26033 88209
25029 99197 26023 11182 25521 22173 28020 33165 27020
44152 29514 55146 27515 66135 27013 77132 26515 88125
29021 99120 30018 11116 30517 22108 27517 33100 29513
31313 48008 81045
41414 7093/
51515 11887 25518 22800 25517 33600 28518=
TTBB 11118 10618
00973 02809 11946 04229 22817 01702 33747 04325 44743
04347 55665 11103 66637 13315 77628 13550 88623 13358
99621 13157 11581 16327 22567 17356 33532 21309 44491
24737 55456 28923 66391 36939 77372 38956 88263 54558
99238 59957 11226 61558 22201 58173 33153 52184 44100
55183
21212 00973 23002 11928 25013 22885 27509 33816 26012
44760 26522 55641 26525 66528 27517 77478 28018 88441
26019 99398 26524 11320 25026 22282 26532 33217 25516
44204 25520 55197 27518 66182 26017 77167 27019 88163
25016 99151 28014 11138 26508 22133 27009 33128 25011
44117 29014 55111 26514 66100 27517
31313 48008 81051
41414 756//
51515 11860 26510 22800 27016 33600 26521=
TTBB 11118 10771
00968 00302 11950 00701 22903 02832 33872 02436 44857
03472 55795 00756 66788 00758 77776 01529 88747 03907
99590 15145 11517 22530 22499 24157 33470 28128 44430
33140 55422 33557 66391 37150 77386 37760 88367 40361
99294 52359 11235 60164 22195 53784 33178 56182 44152
53587 55138 55386 66134 52587 77113 57785 88100 55186
21212 00968 05002 11950 17005 22930 18011 33923 19011
44903 24010 55858 26013 66839 27011 77718 26521 88707
28019 99683 26522 11655 27523 22498 25528 33432 26533
44335 24531 55262 26024 66246 28023 77210 25520 88197
28520 99173 26018 11148 28515 22138 27516 33133 29517
44127 29514 55118 29020 66112 28519 77108 30516 88100
29017
31313 48008 81045
41414 761//
51515 11855 25513 22800 26515 33600 27025=
0000030500
365
UDEU02 EGRR 111242 RRB
AMDAR 1112
ASC EU0201   5129N 00025W 111235 F000 PS070 253/006 TB/ S031=
ASC EU0201   5129N 00026W 111235 F003 PS065 278/009 TB/ S031=
ASC EU0201   5129N 00026W 111235 F006 PS057 286/012 TB/ S031=
ASC EU0201   5129N 00026W 111235 F009 PS050 291/010 TB/ S031=
0000190500
366
UDEU02 EGRR 111242 RRC
AMDAR 1112
ASC EU0462   5407N 00435W 111220 F009 PS035 270/012 TB/ S031=
ASC EU0462   5405N 00434W 111220 F018 PS015 288/018 TB/ S031=
ASC EU0462   5404N 00434W 111220 F024 PS002 293/018 TB/ S031=
ASC EU0462   5403N 00434W 111220 F031 MS012 288/016 TB/ S031=
ASC EU0462   5402N 00433W 111220 F040 MS030 290/017 TB/ S031=
ASC EU0462   5401N 00433W 111220 F051 MS055 287/018 TB/ S031=
ASC EU0462   5400N 00432W 111220 F064 MS077 292/021 TB/ S031=
ASC EU0462   5359N 00432W 111220 F077 MS102 287/022 TB/ S031=
ASC EU0462   5358N 00432W 111220 F090 MS117 283/026 TB/ S031=
ASC EU0462   5356N 00431W 111220 F108 MS127 307/046 TB/ S031=
ASC EU0462   5353N 00426W 111221 F126 MS155 307/055 TB/ S031=
ASC EU0462   5351N 00421W 111221 F130 MS162 304/055 TB/ S031=
ASC EU0462   5348N 00415W 111221 F130 MS162 304/056 TB/ S031=
ASC EU0462   5346N 00408W 111222 F130 MS165 306/058 TB/ S031=
ASC EU0462   5344N 00402W 111222 F130 MS162 307/059 TB/ S031=
ASC EU0462   5342N 00356W 111222 F124 MS150 310/059 TB/ S031=
ASC EU0462   5340N 00349W 111223 F117 MS137 313/059 TB/ S031=
ASC EU0462   5338N 00343W 111223 F108 MS120 314/056 TB/ S031=
ASC EU0462   5336N 00337W 111223 F102 MS115 310/046 TB/ S031=
ASC EU0462   5334N 00331W 111224 F091 MS120 300/036 TB/ S031=
ASC EU0462   5332N 00326W 111224 F081 MS115 301/027 TB/ S031=
ASC EU0462   5330N 00321W 111224 F068 MS087 306/027 TB/ S031=
ASC EU0462   5328N 00315W 111225 F055 MS062 302/024 TB/ S031=
ASC EU0462   5328N 00310W 111225 F047 MS047 306/024 TB/ S031=
ASC EU0462   5328N 00304W 111225 F040 MS032 305/025 TB/ S031=
ASC EU0462   5328N 00259W 111226 F036 MS022 304/025 TB/ S031=
ASC EU0462   5328N 00254W 111226 F033 MS022 301/020 TB/ S031=
ASC EU0462   5328N 00249W 111226 F030 MS015 302/021 TB/ S031=
ASC EU0462   5328N 00245W 111227 F027 MS010 300/023 TB/ S031=
0000243800
367
SMPH01 RPMM 111200
AAXX 11121
98134 32465 20905 10215 20147 30013 40206 53015 82200
333 10240 56299 59006 82819 =
98223 31462 70202 10226 20166 40155 52019 70242 81108
333 10300 56999 58003 81819 86279 =
98232 31565 80405 10243 20221 40183 53006 70342 8227/
333 10270 56199 59010 82820 88358 =
98325 31458 41803 10250 20215 40150 53018 70142 82201
333 10305 56999 59003 82817 83070 =
98328 31458 21402 10128 20111 38542 40162 53015 70544
81101 333 10190 56999 58000 81814 =
98330 31475 30403 10240 20212 30130 40162 53019 70144
81201 333 10290 56/// 58001 81818 83077 =
98336 32468 80402 10222 20193 30190 40195 52018 8227/
333 10230 56199 59001 82815 88357 =
98429 31560 11004 10250 20166 40163 52020 70542 81100
333 10302 56999 58006 81825 =
98430 31558 20000 10220 20194 40155 52019 70544 82100
333 10293 56999 58003 82820 =
98431 31458 70603 10252 20240 30105 40152 53017 70242
82230 333 10294 56999 59001 82818 87360 =
98440 31458 80406 10250 20204 30155 40160 52011 70244
84237 333 20267 56199 59005 84815 85357 88277 =
98444 11465 80405 10252 20200 30125 40144 53019 69901
70282 83377 333 10269 56999 59008 81918 82820 87459
88270 =
98526 32570 83601 10/// 20/// 40126 53018 84277 333
10/// 56999 58002 84820 85358 88274 =
98531 31568 40904 10267 20256 30113 40117 51009 70544
81432 333 10325 56199 59010 81820 84075 =
98536 31465 80405 10238 20211 39942 40143 52021 70242
8327/ 333 10251 56199 58003 83818 88357 =
98543 11470 80202 10251 20232 30115 40126 53011 69921
71682 83207 333 10268 56999 58000 83818 88272 =
98550 NIL=
98618 32470 70904 10270 20207 40126 53025 82108 333
10311 56999 58000 82819 87274 =
98630 32470 80205 10278 20252 40102 5//// 8422/ 222//
2//03 333 10304 56199 59015 84818 88459 =
98637 NIL=
98646 11558 83608 10242 20231 30085 40113 52015 60031
76166 8382/ 333 56999 59006 83820 88458 =
98653 11460 80405 10254 20241 30050 40095 52017 60041
76062 8322/ 333 10270 56199 59002 83818 88457 =
98741 11465 80402 10261 20246 40111 52011 60021 70282
8227/ 333 10258 56999 58001 82817 88358 =
98747 NIL=
98753 11440 83603 10230 20223 40093 52016 60281 76266
8382/ 333 10243 56999 59018 83616 88459 =
98755 11458 83601 10247 20238 40097 52019 60281 76186
8352/ 333 10260 56199 59005 83616 88458 =
98836 11458 80403 10257 20234 40101 52020 69941 76066
8252/ 333 10255 56999 59017 82618 88460 =
0000024500
368
SMVF01 EGRR 111200 RRB
BBXX
ZNQO3 11121 99345 10214 41498 42705 10195 20129 40256 57012 70200
81149 22224 04185 29903 80155=
DDYL2 11123 99358 10173 41497 52513 10180 20123 40240 57010 70300
85772 22264 00170 2//// 80146=
00000000