0000010800
929
UANT01 CWAO 111233
ARP THY3 6123N04601W 1233 F380 MS58 239/19 KT
TCJNM QXS UAK 111233 J54A
0000288000
930
SMZA01 FAPR 111200
AAXX 11124
68174 11675 70410 10224 20163 38814 48541 58001 60021 70522 8157/
      333 10240 20186 91013 555 20022 91021=
68191 36/// /1708 10282 20203 39662 48582 58002
      333 10286 20215 91013 555 91017=
68242 32680 33010 10360 20037 38728 48521 58003 83100
      333 10366 20179 91016 555 91018=
68262 36/// /0505 10315 20145 38716 48532 58008
      333 10315 20189 91011 555 91019=
68263 32680 33509 10273 20131 38502 48528 58005 82172
      333 10278 20168 91013 555 91021=
68267 32570 60210 10250 20146 38269 48534 57010 86200
      333 10252 20146 555 91024=
68289 NIL=
68350 36/// /3607 10315 2//// 38666 48524 58005
      333 10335 20134 91017 555 91019=
68368 NIL=
68403 36/// /2120 10238 20149 30115 40142 58010
      333 10243 20141 91027 555 91014=
68424 32782 12109 10341 20011 39198 48553 57012 81100
      333 10344 20161 91018 555 91016=
68438 32782 12808 10325 20019 38813 48521 58011 81100
      333 10331 20147 91017 555 91017=
68442 32780 32905 10309 20042 38653 48513 58009 83100
      333 10320 20136 91010 555 91018=
68461 32680 43405 10266 20105 38330 48512 58010 84100
      333 10275 20148 91009 555 91021=
68512 32982 13306 10291 20019 39031 48546 56006 80002
      333 10291 20126 91010 555 91018=
68538 31774 22712 10302 20036 38731 48525 58010 70500 81101
      333 10308 20140 91017 555 91019=
68587 36/// /2006 10244 20189 30156 40168 58001
      333 10254 20215 91010 555 91016=
68588 36/// /1511 10250 20203 30164 40180 50000
      333 10266 20203 91016 555 91018=
68591 16/// /1606 10246 20186 30002 40180 58002 69921
      333 10250 20211 91010 555 20002 91018=
68592 32570 81811 10255 20199 30050 40172 58002 878//
      333 10264 20205 91017 555 91017=
68618 32980 12609 10294 21015 39053 48540 57007 80001
      333 10296 20092 91018 555 91017=
68633 36/// /2906 10266 20027 38519 48514 58007
      333 10277 20116 91015 555 91019=
68668 36/// /0909 10230 20149 39323 48558 58004
      333 10240 20162 91013 555 91019=
68714 36/// /2213 10249 20102 30121 40157 57003
      333 10256 20135 91019 555 91015=
68727 36/// /0702 10286 20096 39127 48534 58011
      333 10286 20136 91005 555 91016=
68752 36/// /1508 10221 20133 39494 48560 57013
      333 10231 20119 91013 555 91018=
68816 32980 01815 10225 20122 30120 40174 55001 333 20190 91021 555 91017=
68828 42470 71407 10184 20130 39946 40179 57006 875// 333 20170 555 91017=
68842 32982 01914 10237 20127 30099 40168 56011 333 20171 555 91016=
68858 42580 11506 10234 20116 30022 40176 57008 81100 333 20165 555 91017=
68906 NIL=
68994 32598 60209 10095 20043 30009 40038 53012 83572
      222// 00075
      333 10117 20065 91019 555 91003=
89004 36/// /0817 11033 21067 38924 49928 52001
      333 11029 21061 91021 555 90988=
0000014800
931
SMKA02 PTTP 111200
AAXX 11124
91350 32474 80514 10275 20242 30092 40097 5//// 81237 
333 10322 56199 58005 85463 86277 555 91112
0000024100
932
SOAT10 KWAL 111233
FA8005BC 011123337 OT12 ID:KN-BASS-01 DT:2014 01 11 12 31
:RD -3095 -3114 -3083 -3036 -3069 -3062 -3093 -3085 -3084 -3050
:PR 0518 0519 0609 0552 0610 0613 0575 0620 0584 0580
:B 13.7V
 46+1NN 219E
0000014800
933
UQCN04 CWAO 111200
PPDD  61128 71909 95014 27541 27530 27039 9568/ 28021 26535
96568 27048 26035 24543 97013 26051 25543 25057=

0000010600
934
ULCN04 CWAO 111200
TTCC  61125 71081 70702 75566 28025 50895 78964 27523 88999
77999=

0000009200
935
UECN04 CWAO 111200
TTDD  6112/ 71081 11884 73167 22598 77165 33425 79163=

0000016800
936
UQCN04 CWAO 111200
PPDD  61128 71081 95012 27016 25512 28521 95467 26027 28026
26518 9589/ 29520 24517 96123 28514 28524 29519 9645/ 25510
25022=

0000131400
937
SMTN01 HTDA 111200
AAXX 11124
63729 11580 50905 10246 20194 38870 48/// 69921 70196 81932
  333 0//13 55310 58006 81821 81923 85075=
63733 32580 13211 10281 20194 38852 48499 81901
  333 55310 58004 81825 81927=
63756 31580 33605 10273 20178 38860 48502 71701 83902
  333 55310 58001 83827 81928=
63791 32680 10000 10342 20106 39102 48509 81903
  333 55310 58002 81938=
63801 11580 70000 10254 20192 39210 48539 69901 71799 8297/
  333 0//11 55305 58011 82824 81925 87360=
63832 32580 60000 10284 20192 38823 48505 86200
  333 55310 59002 86824 85380=
63862 32580 30000 10298 20161 38882 48505 83200
  333 58004 83829=
63866 32680 30610 10347 20172 39490 48/// 83200
  333 55310 59009 83832=
63870 32580 40610 10312 20222 30079 40097 84200
  333 55310 59008 84823=
63881 32580 53206 10233 20136 38202 48/// 83973
  333 553// 59002 83820 81922 84073=
63887 32580 51808 10279 20162 38574 48498 85200
  333 55306 58002 85824=
63894 32580 30214 10310 20234 30045 40105 83200
  333 553// 59002 83824=
63932 31580 71208 10220 20153 3//// 4//// 71792 8497/
  333 553// 5//// 84822 81923 85359=
63962 32570 30805 10270 20197 38946 48514 82900
  333 55310 58004 82824 81925=
63971 32580 23612 10300 20237 39977 40106 82200
  333 55310 58000 82825=
0000011000
938
UANT99 KDDL 111232
ARP BAW207 5005N02238W 1232 F320 MS57 186/74 KT
GBYGG QXT AOE 111232 F22A
0000018500
939
SMIN90 VABP 111200 RRB
AAXX 11124
42679 32591 73201 10158 20137 40184 74445 87500
  333 10181 58045=
42771 32795 22301 10180 20164 40139 82020
  333 10220 58017=
0000020100
940
SMIN04 DEMS 111200
AAXX 11124
42634 NIL=
42647 NIL=
42737 NIL=
42840 NIL=
42909 NIL=
42921 NIL=
43003 NIL=
43014 NIL=
43063 NIL=
43110 NIL=
43117 NIL=
43192 NIL=
0000007400
941
BMDA01 DEMS 111233
OPKC
RETRANSMISSION ACTIVATED FOR 152
0000011100
942
UANT99 KDDL 111232
ARP BAW2155 4836N01258W 1231 F380 MS61 247/43 KT
GVIIU QXT AOW 111232 F06A
0000011000
943
UANT99 KDDL 111232
ARP BAW26E 6102N01432W 1232 F360 MS53 247/46 KT
GBNLK QXS REK 111232 F20A
0000010700
944
UANT99 KDDL 111232
ARP AAL241 67N040W 1232 F340 MS60 152/31 KT
N347AN DDL KUS 111232 F41A
0000011100
945
UANT99 KDDL 111232
ARP DAL187 5304N02755W 1232 F360 MS59 183/66 KT
N173DZ QXT AOE 111232 F29A
0000011100
946
UANT99 KDDL 111232
ARP BER7346 4801N00942W 1232 F390 MS59 247/39 KT
DABXC QXS BES 111232 J65A
0000010900
947
UANT99 KDDL 111232
ARP VIR24 5605N03714W 1232 F370 MS56 225/27 KT
GVBUG DDL XXW 111232 J10A
0000011000
948
UANT99 KDDL 111232
ARP AFR368 4702N01859W 1232 F320 MS55 201/79 KT
FGLZI QXT AOE 111232 J32A
00000000