0000011000
269
UANT01 CWAO 111237
ARP DAL39 5150N04045W 1237 F320 MS60 312/73 KT
N845MH QXT AOW 111237 F34A
0000010900
270
UANT01 CWAO 111237
ARP DAL1 5258N03039W 1237 F340 MS54 171/53 KT
N177DZ QXT AOE 111237 F69A
0000015000
271
SMPO60 LPMG 111200 CCA
AAXX 11121
08512 12570 63011 10135 20078 30014 40106 52042 60061 85830
 333 81820 85650
 555 50364 60005=
0000079800
272
UECG01 FCBB 111200 RRA
TTDD 6111/ 64400
11904 819// 22871 823// 33841 793// 44834 751// 55708
67168 66623 715// 77524 721// 88435 64580 99374 62580
11305 64580 22269 59381 33260 60981 44219 60581 55207
55582 66191 53783 77152 55782 88128 55182 99104 46585
11097 45985
21212 11950 04020 22926 05017 33904 07515 44883 10517
55834 09533 66800 09024 77776 04017 88758 36022 99718
30026 11650 26537 22614 25029 33581 24518 44524 27017
55488 24513 66480 26509 77475 29010 88426 27522 99376
25015 11366 25516 22349 22514 33341 21515 44326 26512
55321 27513 66296 29016 77286 27528 88261 23513 99251
25019 11242 17506 22237 18510 33234 19513 44222 14013
55200 09526 66162 03014 77157 04513 88148 08530 99141
09519 11136 12523 22123 12050 33099 07573 44097 07566=
0000012000
273
UHCG01 FCBB 111200 RRA
PPCC 61118 64400
44370 28531 25521 28517 44220 09525 08073
77099 07573 438//=
0000178800
274
SZPS01 AMMC 111239
CREX++
T000103 A001 D01021 D06025++
-0204190 14737360 56130 2014 01 11 12 32 3027 11 07 00 01
00382 0071 00385 0074 00382 0072 00385 0075 00386 0076 00386 0076+
-0669280 15640860 56363 2014 01 11 12 32 //// 11 07 00 01
00518 -0049 00518 -0050 00515 -0055 00521 -0050 00519 -0054 00518 -0056+
-0942890 15995560 56670 2014 01 11 12 32 3040 11 07 00 01
00411 -0066 00411 -0066 00409 -0068 00410 -0067 00414 -0063 00410 -0067+
-1072080 16580190 57131 2014 01 11 12 32 //// 11 07 00 01
00944 0403 00817 0274 00951 0406 01241 0693 01030 0479 01013 0459+
-1551560 16718860 57210 2014 01 11 12 32 //// 11 07 00 01
00615 -0148 00616 -0151 00624 -0146 00617 -0157 00617 -0160 00632 -0148+
-1775690 16830030 57320 2014 01 11 12 32 3017 11 07 00 01
00503 -0132 00506 -0132 00511 -0129 00515 -0128 00521 -0124 00527 -0122+
-4397330 16861610 65180 2014 01 11 12 32 2885 11 07 00 01
01397 0395 01394 0396 01392 0398 01391 0401 01393 0407 01387 0405+
-2120470 -15978530 65980 2014 01 11 12 32 3010 11 07 00 01
00616 0032 00582 -0003 00614 0027 00614 0026 00623 0033 00596 0005+
-2113810 -17518140 66600 2014 01 11 12 32 //// 11 07 00 01
01075 0096 01079 0097 01078 0091 01081 0091 01092 0097 01095 0097+
-1382670 -17176110 66840 2014 01 11 12 32 3008 11 07 00 01
00880 0020 00889 0026 00886 0020 00898 0030 00901 0030 00906 0032+
-1813250 17842750 67050 2014 01 11 12 32 3030 11 07 00 01
01140 0091 01139 0086 01142 0085 01154 0093 01154 0088 01156 0087+
-1760530 17743810 67070 2014 01 11 12 32 3032 11 07 00 01
01179 0033 01184 0033 01189 0033 01194 0034 01198 0033 ///// ////+
-0850250 17919500 67440 2014 01 11 12 32 3028 11 07 00 01
02149 0004 02157 0009 02155 0003 02159 0004 02164 0005 02174 0012++
7777

0000034400
275
SZIO01 AMMC 111239
CREX++
T000103 A001 D01021 D06025++
-1211670 09689190 46280 2014 01 11 12 32 3018 11 07 00 01
00762 0028 00758 0026 00758 0027 00759 0030 00755 0028 00758 0032+
-1042940 10566940 46290 2014 01 11 12 32 //// 11 07 00 01
01034 -0016 01053 0006 00997 -0048 01064 0022 01015 -0024 01051 0014++
7777

0000012600
276
SMIN02 DEMS 111200 RRA
AAXX 11124
42398 21595 50000 10143 20143 40174 71062 82530
  333 10168 58021 6992/=
0000125000
277
SMIN51 DEMS 111200
AAXX 11124
42027 32596 31401 10044 21022 38477 48563 83400
  333 10068 58054=
42182 31994 22703 10166 20115 40186 70510 80001
  333 10183 58037 82070=
42299 21396 70000 10064 20035 38205 48518 70252 86630
  333 10081 58008 6990/ 82709 85617=
42348 31996 23404 10176 20022 40176 70511 80001
  333 10207 58029 82070=
42369 31594 60504 10156 20135 40172 71042 84530
  333 10183 58036 84620 85360=
42410 31495 70000 10186 20170 40175 76062 83330
  333 10222 57060 59035 83618 81925 87360=
42492 21494 70203 10160 20143 40179 76022 84520
  333 10170 58032 6002/ 84615 86458=
42516 31394 40000 10110 20081 38423 48520 71042 82530
  333 10171 58011=
42623 31996 21801 10174 20090 39264 40141 70500 82030
  333 10253 58003 82360=
42667 31994 00505 10170 20118 39568 40168 70500
  333 10196 58049=
42724 31595 30000 10210 20153 40155 70510 83500
  333 10262 58002 83620=
42807 31995 03602 10226 20156 40150 70500
  333 10263 58004=
42867 31996 22702 10260 20143 40121 70500 80001
  333 10281 58013 82075=
42971 31995 21406 10256 20166 40143 70500 80001
  333 10312 58005 82075=
42647 NIL=
43057 NIL=
43063 NIL=
43128 NIL=
43278 NIL=
43295 NIL=
43371 NIL=
0000009700
278
UGIN40 DEMS 111200 RRA
PPBB 61111 42874
90023 27004 25506 24005 90700 25514=

0000024100
279
UPIN40 DEMS 111200 RRA
PPAA 61111 42165
55392 34509 00510 34012 77999=
PPAA 61111 42348
55392 00511 01508 33525 77999=
PPAA 61111 42542
55392 03007 06006 36019 77999=
PPAA 61111 42874
55292 25005 24022 77999=

0000063200
280
SAIN90 VAKJ 110100
METAR VAKJ 110200Z 00000KT 0100 FG VV/// 14/13 Q1016=
METAR VAKJ 110300Z 05002KT 0200 FG VV/// 15/14 Q1017=
METAR VAKJ 110400Z 00000KT 0200 FG VV/// 15/15 Q1018=
METAR VAKJ 110500Z 29004KT 0400 FG VV/// 16/15 Q1018=
METAR VAKJ 110600Z 29005KT 0400 FG VV/// 16/15 Q1018=
METAR VAKJ 110800Z 05005KT 0800 BR SCT025 BKN100 18/14 Q1016=
METAR VAKJ 110900Z 32006KT 0800 BR BKN020 BKN100 18/13 Q1016=
METAR VAKJ 111000Z 32006KT 0800 BR SCT020 BKN100 18/13 Q1016=
METAR VAKJ 111100Z 02004KT 1000 BR SCT020 SCT100 18/16 Q1016=
METAR VAKJ 111200Z 02002KT 1000 BR SCT020 SCT100 17/15 Q1017=
0000033500
281
UXIN90 VANP 111200 RRA
TTAA 6112/ 42874 NO ASCENT AS PER DDGM(UI) ORDER=
TTAA 6112/ 43041 NO ASCENT AS PER DDGH (UI) ORDER 
TTAA 6112/ 42867 NO ASCENT AS PER DDGM ( UI ) INSTRUCTIONS=
PPAA 6112/ 42867 NO ASCENT DUE NO PB BALLOON= 
PPAA 6112/ 42675 NO ASCENT DUE TO NO GAS=
TTAA 6112/ 42361 NO ASCENT AS PER H.Q. ORDER=

0000015800
282
SPIN90 VAKJ 110100
SPECI VAKJ 110100Z 00000KT 0100 FG VV/// 13/13 Q1015=
SPECI VAKJ 110700Z 32005KT 0800 FG SCT025 BKN100 17/14 Q1017=


0000046700
283
SZPA01 AMMC 111239
CREX++
T000103 A001 D01021 D06025++
0136250 17293000 67590 2014 01 11 12 32 3015 11 07 00 01
01862 0042 01865 0042 01862 0036 01876 0047 01871 0039 01883 0049+
0710610 17137250 67680 2014 01 11 12 32 3013 11 07 00 01
01258 0044 01265 0049 01267 0049 01262 0042 01262 0041 01275 0052+
0698060 15820000 67950 2014 01 11 12 32 3023 11 07 00 01
00726 0084 00730 0087 00732 0088 00734 0090 00737 0092 00741 0095++
7777

0000191700
284
SZAU01 AMMC 111239
CREX++
T000103 A001 D01021 D06025++
-1927750 14705860 59260 2014 01 11 12 32 3020 11 07 00 01
01444 0207 01438 0208 01422 0199 01418 0201 01411 0201 01401 0199+
-2316110 15079000 59670 2014 01 11 12 32 3000 11 07 00 01
01962 0216 01952 0216 01952 0225 01935 0217 01940 0233 01938 0240+
-3447330 15091170 60420 2014 01 11 12 32 2957 11 07 00 01
00474 -0045 00482 -0036 00486 -0032 00493 -0024 00499 -0018 00503 -0014+
-4105000 14591500 60910 2014 01 11 12 32 2888 11 07 00 01
02133 -0013 02132 -0004 02127 -0001 02128 0009 02114 0003 02094 -0009+
-4254640 14793080 61170 2014 01 11 12 32 2898 11 07 00 01
01049 0087 01049 0087 01048 0086 01044 0082 01043 0081 01043 0081+
-3834390 14161360 61410 2014 01 11 12 32 2908 11 07 00 01
00773 0044 00765 0036 00759 0029 00778 0048 00774 0044 00758 0027+
-3214890 13364170 62000 2014 01 11 12 32 2955 11 07 00 01
01142 -0011 01144 -0011 01144 -0013 01146 -0013 01147 -0015 01149 -0015+
-3387080 12189720 62080 2014 01 11 12 32 2950 11 07 00 01
01081 0043 01080 0041 01084 0045 01073 0033 01087 0047 01074 0033+
-3182560 11573860 62237 2014 01 11 12 32 2972 11 07 00 01
00969 0072 00960 0065 00957 0063 00958 0065 00954 0062 00959 0068+
-2422000 11339750 62385 2014 01 11 12 32 //// 11 07 00 01
01159 -0166 01250 -0073 01173 -0148 01284 -0035 01224 -0093 01241 -0074+
-2181670 11419110 62430 2014 01 11 12 32 //// 11 07 00 01
02039 -0078 02041 -0075 02055 -0058 02035 -0075 02040 -0068 02030 -0076+
-1800080 12221830 62650 2014 01 11 12 32 3043 11 07 00 01
06497 0078 06494 0080 06491 0085 06488 0090 06482 0092 06476 0094+
-1247190 13084580 63230 2014 01 11 12 32 3050 11 07 00 01
04284 0086 04286 0086 04287 0082 04289 0082 04293 0084 04296 0082+
-1386000 13641580 63511 2014 01 11 12 32 3042 11 07 00 01
01885 0080 01886 0081 01887 0082 01888 0082 01888 0082 01889 0083++
7777

0000028100
285
SXHW11 KWAL 111239
15D13434 011123913"
1,140111,11:30:00,4.7,98,7.8,0.0,1014.1,0.00,12.9,
1,140111,11:45:00,4.1,112,5.7,0.0,1013.9,0.00,12.9,
1,140111,12:00:00,4.4,115,7.3,0.0,1013.7,0.00,12.9,
1,140111,12:15:00,3.1,77,5.8,0.0,1013.6,0.00,12.8, 49-0NN  30W
0000225900
286
SMRA14 RUNW 111200
AAXX 11121
23339 42999 20000 11370 21404 30161 40214 52007 82070=
23358 42997 22304 11376 21405 30134 40225 52011 80001=
23426 42984 20102 11378 21405 30182 40210 52007 80001=
23431 42998 20602 11395 21429 30190 40215 52006 80002=
23443 42998 01802 11390 21424 30152 40230 52010=
23453 42997 02001 11400 21433 30193 40229 52011=
23465 42998 22002 11364 21390 30197 40233 52007 80001=
23471 41520 80703 11083 21093 30114 40186 57006 77372 8802/ 333
88520=
23625 41996 82901 11216 21241 30134 40171 54000 77172 8802/=
23635 42597 81002 11233 21258 30089 40208 58001 885//=
23656 41997 81601 11280 21311 30147 40242 52001 77172 8802/=
23657 42998 50401 11264 21294 30044 40228 58005 85030=
23741 42998 70703 11223 21255 30082 40200 57005 87030=
23748 41998 70503 11219 21237 30107 40200 57010 70272 87030=
23758 41396 80602 11218 21243 30121 40216 57006 77187 8652/ 333
84707=
23823 41598 80601 11173 21199 30011 40161 53001 70272 8457/=
23847 41997 80502 11168 21197 30133 40178 53001 77172 8807/=
23862 41996 80000 11153 21172 30122 40217 58004 77171 8801/=
23929 42577 81003 11080 21098 30064 40132 52003 889//=
23939 41596 80901 11055 21062 30110 40152 52003 78582 883//=
23946 41496 81601 11056 21074 30113 40177 54000 77187 8802/=
23947 41995 81702 11048 21058 30092 40161 52005 77372 8802/=
28076 41496 80000 11053 21060 30085 40158 52006 77172 8872/=
28097 41996 81902 11054 21072 30107 40186 52004 77172 8802/=
28165 41497 81601 11058 21069 30041 40146 52010 77172 8872/=
28366 41999 81603 11058 21092 30099 40167 52005 70272 8802/=
28367 42984 81502 11062 21089 30029 40160 52008 8802/=
28382 41496 81702 11056 21086 30120 40192 53008 71072 886//=
28481 41997 81703 11055 21073 30090 40191 53003 70272 8807/=
28491 41996 81803 11054 21079 30100 40213 52004 77172 8802/=
28465 42999 81706 11056 21078 30090 40169 52004 8802/=
28573 41597 82104 11054 21079 30093 40200 52006 72673 889// 333
86620=
28593 41997 81803 11080 21103 30141 40242 52006 70272 8807/=
28786 41498 81703 11098 21119 30067 40231 52002 70272 886// 333
88718=
28797 42997 81702 11113 21126 30077 40243 56001 82031=
28799 42997 71602 11095 21121 30110 40261 54000 87070=
0000266900
287
SMRA13 RUNW 111200
AAXX 11121
20046 NIL=
20069 NIL=
20087 11496 81801 11242 21265 30188 40199 54000 69932 77172 8552/ 333
11231 85611 93535=
20292 NIL=
20353 46/// /1401 11190 21478 30173 40177 57005=
20471 NIL=
20476 12998 71301 11356 21390 30157 40173 52001 60002 80001 333
11352=
20667 42998 03505 11295 21324 30177 40185 51009=
20674 11997 82103 11272 21300 30084 40149 52006 69922 77172 8807/ 333
11255=
20744 42998 01602 11248 21313 30212 40232 52005=
20871 NIL=
20891 11997 81603 11304 21315 30140 40187 52009 69902 77872 82037 333
11296=
20946 42998 03302 11274 21302 30209 40224 52008=
20967 42998 03204 11324 21356 30131 40157 51016=
20978 11897 81406 11328 21357 30100 40142 51004 69922 77173 82037 333
11288=
23022 42997 12702 11299 21328 30151 40224 51009 80001=
23032 41597 32703 11260 21285 30161 40197 51017 77630 83500 333
96510=
23058 41998 02805 11347 21381 30135 40140 51024 70230=
23174 11898 71807 11321 21350 69932 77173 87010 333 11274=
23179 11997 82203 11300 21330 30090 40224 5//// 69932 77173 80007 333
11212=
23242 41997 22806 11300 21317 30161 40179 52013 73631 80001 333 91110
96510=
23256 41996 62308 11326 21361 30140 40180 52014 73831 80001 333 91011
91113=
23330 41993 21601 11413 21438 30192 40217 52009 70400 80001=
23345 42997 02404 11354 21383 30205 40216 52014=
23376 11996 80301 11337 21370 30098 40245 50009 69992 77173 8002/ 333
11243=
23445 42997 01904 11385 21434 30195 40225 52003=
23463 129// 0//// 11317 21355 30183 40241 5//// 60002 333 11217=
23527 41956 83402 11242 21260 30143 40183 57004 77172 8802/=
23552 41996 82001 11362 21390 30201 40241 52007 70422 80001=
23631 41597 80303 11230 21263 30141 40186 57001 77172 8352/ 333
83626=
23662 42998 80000 11309 21338 30201 40251 52005 82032=
23724 41999 83502 11210 21235 30093 40163 52004 72272 8802/=
23734 41996 80801 11167 21186 30063 40161 57004 77172 8802/=
23774 NIL=
23776 129// 51701 11160 21179 30181 40248 52011 69972 80002 333
11134=
23849 41530 80703 11170 21194 30104 40184 57002 77372 8352/ 333
83632=
23867 41495 81102 11093 21105 30137 40212 58006 77172 8802/=
23933 41996 80501 11164 21189 30100 40160 58003 77172 86075=
28064 41598 81602 11040 21055 30045 40134 52011 72272 885//=
28275 41597 81503 11057 21083 30106 40167 53005 70283 889//=
28493 41496 81903 11062 21085 30128 40222 53003 77172 885// 333
88615=
28698 42997 81702 11094 21119 30081 40242 54000 85031=
29059 115// 80000 11064 21080 30127 40261 52014 60022 78587 889// 333
11062=
29558 12598 80000 11062 21108 39919 40331 52009 60002 8497/ 333
11048=
0000041400
288
SMBZ01 SBBR 111200 RRB
AAXX 11124
82042 32698 60000 10242 20219 3//// 4//// 84422 333 20224 5////=
82240 21495 80000 10238 20231 3//// 4//// 75166 8272/ 333 20231 5//// 60824=
82317 22194 60902 10258 20248 3//// 4//// 83650 333 20228 5//// 60154=
82610 21190 80000 10224 20221 3//// 4//// 76366 887// 333 20216 5//// 60174=
82807 32295 80000 10238 20231 3//// 4//// 887// 333 20216 5////=
00000000