0000011000
482
UANT01 CWAO 111301
ARP UAL22 5004N04656W 1301 F350 MS63 280/55 KT
N17126 DDL IG1 111301 F66A
0000011100
483
UANT01 CWAO 111301
ARP RCH242 5006N02333W 1301 F280 MS47 181/83 KT
77180A DDL XXN 111301 F67A
0000011000
484
UANT01 CWAO 111301
ARP UAL61 5241N03425W 1301 F330 MS55 236/11 KT
N69063 DDL XXN 111301 F57A
0000011000
485
UANT01 CWAO 111301
ARP AFR077 5601N03031W 1301 F380 MS59 210/52 KT
FGSPF QXT AOE 111301 F36A
0000011000
486
UANT01 CWAO 111301
ARP UAL28 5407N02722W 1301 F380 MS58 202/63 KT
N78004 DDL XXN 111301 F37A
0000011000
487
UANT01 CWAO 111301
ARP TOM144 4721N03559W 1301 F370 MS50 292/37 KT
GTUIA QXT AOE 111301 L91A
0000011100
488
UANT01 CWAO 111301
ARP DAL177 5001N04956W 1301 F340 MS62 291/61 KT
N1604R QXS YYT 111301 F15A
0000010900
489
UANT01 CWAO 111301
ARP DAL67 5142N03409W 1301 F340 MS54 221/16 KT
N1602 QXT AOE 111301 F31A
0000084400
490
SAGU31 MGGT 111300
METAR
METAR MGMM 111300Z 00000KT 9999 BKN014 18/18 Q1016 A3000 =
METAR MGHT 111300Z 00000KT CAVOK 05/04 QFE 817.3 =
METAR MGPB 111300Z 00000KT 9999 FEW018 21/20 Q1015 A2997 FEW090 =
METAR MGGT 111300Z 00000KT CAVOK 12/11 Q1026 A3030  VOL. PACAYA CON
VA A 9000FT CON DIRECCION S-SSW A UNA DISTANCIA DE 6-10KM=
METAR MGSJ 111300Z 00000KT CAVOK 19/19 Q1014 A2994 =
METAR MGRT 111300Z 00000KT CAVOK 21/18 Q1016 A3000 VOL. STA. MARIA Y
SANTIAGUITO EN ACTIVIDAD=
METAR MGQZ 111300Z 00000KT 0000 FG VV/// 04/04 QFE 767.7 APCH CLSD =
METAR MGCB 111300Z 00000KT CAVOK 09/09 QFE 871.3=
METAR MGZA 111300Z 00000KT CAVOK 19/18 QFE 990.7 FEW090 FEW200=
METAR MGES 111300Z 00000KT 9999 BKN016 18/17 QFE 911.6=
METAR MGMT 111300Z 00000KT CAVOK 21/19 Q1008=
METAR MGTU 111300Z 00000KT CAVOK 22/21=
0000011800
491
UECN02 CWAO 111200
TTDD  6112/ 71907 11753 70768 22472 75967 33307 76567 44226
77368 55138 71973=

0000014800
492
ULCN02 CWAO 111200
TTCC  61122 71907 70735 72368 27574 50931 74567 27573 30227
76167 27075 20461 76168 25584 88999 77145 24594=

0000016000
493
UQCN02 CWAO 111200
PPDD  61128 71907 950// 27568 967// 27578 97015 26576 26072
27570 978// 25577 98014 26083 24579 26075 9878/ 24594 24590=

0000009400
494
SAIN90 VEBS 111300
METAR VEBS 111300Z 16006KT 2500 HZ NSC 24/18 Q1015
NOSIG=
0000028600
495
SXHW11 KWAL 111302
B15997E8 011130233"
1,140111,12:00:02,7.2,54,14.2,22.3,1012.8,0.05,13.2,
1,140111,12:15:02,6.3,53,12.2,22.5,1012.7,0.05,13.2,
1,140111,12:30:02,6.0,47,11.4,22.3,1012.6,0.05,13.2,
1,140111,12:45:02,5.5,51,9.1,22.1,1012.6,0.05,13.2, 46+0NN  30W
0000036400
496
SAIQ01 ORBI 111300
METAR ORBI 111300Z 24004KT 200V260 2500 BR FEW020 SCT024 BKN031 11/08 Q1018 NOSIG=
METAR ORNI 111300Z 28010KT 3000 DZ OVC025 11/11 Q1017 NOSIG=
METAR ORMM 111300Z 27010KT 9999 SCT040 BKN100 13/09 Q1018 NOSIG=
METAR ORBM 111300Z 00000KT 7000 NSC 12/06 Q1019 NOSIG=
METAR ORER 111300Z 00000KT 9999 FEW020 10/06 Q1017 NOSIG=
0000216500
497
SZNZ01 NZKL 111303
CREX++
T000103 A001 D01021 D06025++
-3683144 17478654 AUCT  2014 01 11 12 55 //// 11 07 00 01
05002 3225 05009 3224 05018 3225 05026 3224 05035 3224 05043 3224+
-4402404 -17636748 CHIT  2014 01 11 12 55 //// 11 07 00 01
05377 2112 05365 2099 05372 2104 05377 2108 05381 2111 05377 2106+
-4089929 17623168 CPIT  2014 01 11 12 55 //// 11 07 00 01
04375 2274 04377 2273 04377 2270 04371 2261 04381 2268 04392 2276+
-3618905 17548887 GBIT  2014 01 11 12 55 //// 11 07 00 01
05807 0024 05812 0023 05809 0015 05813 0013 05826 0020 05838 0027+
-3867541 17802288 GIST  2014 01 11 12 55 //// 11 07 00 01
04308 2725 04311 2725 04324 2734 04327 2732 04325 2726 04327 2725+
-4241288 17370277 KAIT  2014 01 11 12 55 //// 11 07 00 01
03935 2234 03935 2232 03934 2230 03946 2240 03943 2234 03936 2226+
-3755040 17815904 LOTT  2014 01 11 12 55 //// 11 07 00 01
03598 0208 03596 0201 03600 0200 03616 0211 03614 0204 03631 0216+
-3704657 17451175 MNKT  2014 01 11 12 55 //// 11 07 00 01
01759 -0144 01749 -0155 01739 -0165 01759 -0146 01750 -0155 01753 -0152+
-3947566 17692007 NAPT  2014 01 11 12 55 //// 11 07 00 01
03432 2010 03433 2008 03434 2005 03444 2011 03446 2009 03453 2013+
-3441483 17304870 NCPT  2014 01 11 12 55 //// 11 07 00 01
-04555 -8616 -04487 -8554 -04515 -8587 -04535 -8612 -04524 -8607 -04442 -8531+
-4581435 17062939 OTAT  2014 01 11 12 55 //// 11 07 00 01
05406 3501 05404 3501 05404 3501 05405 3503 05406 3504 05405 3505+
-2928002 -17789440 RBCT  2014 01 11 12 55 //// 11 07 00 01
05934 1955 05947 1964 05954 1967 05955 1965 05953 1959 05941 1943+
-2925114 -17790384 RFRT  2014 01 11 12 55 //// 11 07 00 01
02894 0159 02910 0171 02903 0161 02899 0153 02885 0135 02925 0171+
-4357010 17277383 SUMT  2014 01 11 12 55 //// 11 07 00 01
02725 1805 02727 1805 02733 1810 02742 1817 02751 1823 02737 1808+
-3764109 17618118 TAUT  2014 01 11 12 55 //// 11 07 00 01
05073 4034 05077 4033 05081 4031 05084 4029 05090 4030 05093 4027+
-4128448 17477985 WLGT  2014 01 11 12 55 //// 11 07 00 01
03620 2017 03620 2015 03624 2018 03623 2015 03640 2030 03636 2026++
7777
0000009000
498
SAYE20 OYSC 111300 RRA
METAR OYIB 111300Z 30004KT 9999 SCT025 22/12 Q1020=
0000029000
499
SXHW11 KWAL 111302
B159A272 011130243"
1,140111,11:59:52,10.5,89,14.8,22.1,1013.7,0.09,13.3,
1,140111,12:14:52,10.1,84,14.4,22.0,1013.6,0.09,13.3,
1,140111,12:29:52,10.1,79,13.9,22.0,1013.6,0.09,13.3,
1,140111,12:44:52,8.7,81,12.6,21.9,1013.5,0.09,13.3, 46+0NN  30W
0000011600
500
SNVX22 EDZW 111300
BBXX
62086 11131 99550 10064 46/// /05///10072 20016 40077///0/3
22230 00078=
0000009400
501
SNVD25 LFPW 111300
BBXX
BAREU13 11134 99515 70394 46/// ///// 4////
22254=
00000000