0000119700
989
UDAF02 EGRR 111236
AMDAR 1112
ASC EU1801   2858N 01333W 111216 F008 PS145 161/002 TB/ S031=
ASC EU1801   2858N 01332W 111216 F014 PS127 161/002 TB/ S031=
ASC EU1801   2857N 01331W 111216 F018 PS125 084/002 TB/ S031=
ASC EU1801   2857N 01330W 111217 F020 PS122 071/007 TB/ S031=
ASC EU1801   2857N 01330W 111217 F023 PS115 077/004 TB/ S031=
ASC EU1801   2857N 01329W 111217 F031 PS107 082/007 TB/ S031=
ASC EU1801   2857N 01328W 111218 F038 PS095 078/007 TB/ S031=
ASC EU1801   2856N 01327W 111218 F040 PS087 071/007 TB/ S031=
ASC EU1801   2856N 01327W 111218 F040 PS090 071/007 TB/ S031=
ASC EU1801   2856N 01326W 111219 F040 PS090 071/006 TB/ S031=
ASC EU1801   2858N 01323W 111220 F040 PS090 071/005 TB/ S031=
ASC EU1801   2900N 01321W 111220 F053 PS080 055/008 TB/ S031=
ASC EU1801   2902N 01319W 111221 F074 PS052 038/012 TB/ S031=
ASC EU1801   2905N 01316W 111222 F092 PS032 358/009 TB/ S031=
ASC EU1801   2907N 01314W 111222 F104 PS022 337/014 TB/ S031=
ASC EU1801   2910N 01311W 111223 F116 PS005 327/018 TB/ S031=
ASC EU1801   2912N 01308W 111224 F130 MS037 316/022 TB/ S031=
ASC EU1801   2915N 01305W 111224 F146 MS045 311/019 TB/ S031=
0000346200
990
KSMI02 SBBR 111200 RRA
CREX++
T000113 A000 D07086++
 82 979 REMANSO              1 2014 01 11 12 00 -0963000 -04210000 ///// ///// 09676 10121 //// // -0001 ///// ///// ///// 2730 2040 /// ///// 2000 ///// ///// ///// 050 07 03 0045 31 22 10 0000 0000 // // ///// //// ////// / /// /// ////// /// /// /////// // /// // /// /// ////////// /// /// 508 -0006 10 10  -0024 //// -0001 //// /////  -0001 00000 //// ///// ///// -0012 0000 //// -0012 0000 2300 ///// 03 02 -0010 /// //// //  -0010 /// //// //// /// //// ///// -0024 // ////  -0001 //// //// ///// ///// ///// ///// -0024 //// //// ///// ///// ///// /////+
 82 986 PAULO AFONSO         1 2014 01 11 12 00 -0940000 -03821000 ///// ///// 09854 10137 //// // 0005 ///// ///// ///// 2680 1840 /// ///// 1000 ///// ///// ///// 062 07 03 0080 31 23 11 0000 0000 // // ///// //// ////// / /// /// ////// /// /// /////// // /// // /// /// ////////// /// /// 508 -0006 10 10  -0024 //// -0001 //// /////  -0001 00000 //// ///// ///// -0012 0000 //// -0012 0000 2260 ///// 03 02 -0010 090 0031 //  -0010 /// //// //// /// //// ///// -0024 // ////  -0001 //// //// ///// ///// ///// ///// -0024 //// //// ///// ///// ///// /////+
 83 179 BARRA                1 2014 01 11 12 00 -1108000 -04316000 ///// ///// 09677 10120 //// // 0006 ///// ///// ///// 2850 2010 /// ///// 2000 ///// ///// ///// 075 07 06 0080 35 20 10 0000 0000 // // ///// //// ////// / /// /// ////// /// /// /////// // /// // /// /// ////////// /// /// 508 -0006 10 10  -0024 //// -0001 //// /////  -0001 00000 //// ///// ///// -0012 0000 //// -0012 0000 2180 ///// 03 02 -0010 090 0026 //  -0010 /// //// //// /// //// ///// -0024 // ////  -0001 //// //// ///// ///// ///// ///// -0024 //// //// ///// ///// ///// /////+
 83 192 CIPO                 1 2014 01 11 12 00 -1108000 -03851000 ///// ///// 09987 10151 //// // 0009 ///// ///// ///// 2780 2040 /// ///// 1000 ///// ///// ///// 075 07 04 0080 32 24 10 0000 0000 // // ///// //// ////// / /// /// ////// /// /// /////// // /// // /// /// ////////// /// /// 508 -0006 10 10  -0024 //// -0001 //// /////  -0001 00000 //// ///// ///// -0012 0000 //// -0012 0000 2010 ///// 03 02 -0010 090 0036 //  -0010 /// //// //// /// //// ///// -0024 // ////  -0001 //// //// ///// ///// ///// ///// -0024 //// //// ///// ///// ///// /////+
 83 339 CAETITE              1 2014 01 11 12 00 -1405000 -04261000 ///// ///// 09171 10132 //// // 0010 ///// ///// ///// 2070 1840 /// ///// 0400 ///// ///// ///// 100 07 08 0045 35 61 60 0000 0000 // // ///// //// ////// / /// /// ////// /// /// /////// // /// // /// /// ////////// /// /// 010 -0006 00 00  -0024 //// -0001 //// /////  -0001 00000 //// ///// ///// -0012 0000 //// -0012 0000 1920 ///// 03 02 -0010 090 //// //  -0010 /// //// //// /// //// ///// -0024 // ////  -0001 //// //// ///// ///// ///// ///// -0024 //// //// ///// ///// ///// /////+
 83 498 CARAVELAS            1 2014 01 11 12 00 -1763333 -03925000 00040 00015 10144 10149 //// // 0010 ///// ///// 00150 2870 2380 /// ///// 0200 ///// ///// ///// 050 07 02 0080 32 20 12 0000 0000 // // ///// //// ////// / /// /// ////// /// /// /////// // /// // /// /// ////////// /// /// 508 -0006 10 10  -0024 //// -0001 //// /////  -0001 00000 //// ///// 00150 -0012 0000 //// -0012 0000 2330 ///// 03 02 -0010 140 0026 //  -0010 /// //// //// /// //// ///// -0024 // ////  -0001 //// //// ///// ///// ///// ///// -0024 //// //// ///// ///// ///// /////++
7777
0000120500
991
KSMI03 SBBR 111200 RRA
CREX++
T000113 A000 D07086++
 83 695 ITAPERUNA            1 2014 01 11 12 00 -2120000 -04188000 ///// ///// 10036 10172 0018 02 //// ///// ///// ///// 2800 2250 /// ///// 1000 ///// ///// ///// 025 07 02 0125 32 20 10 0000 0000 // // ///// //// ////// / /// /// ////// /// /// /////// // /// // /// /// ////////// /// /// 508 -0006 10 10  -0024 //// -0001 //// /////  -0001 00000 //// ///// ///// -0012 0000 //// -0012 0000 2470 ///// 03 02 -0010 000 0000 //  -0010 /// //// //// /// //// ///// -0024 // ////  -0001 //// //// ///// ///// ///// ///// -0024 //// //// ///// ///// ///// /////+
 83 718 CORDEIRO             1 2014 01 11 12 00 -2203000 -04236000 ///// ///// 09590 10151 0000 04 //// ///// ///// ///// 2500 1980 /// ///// 5000 ///// ///// ///// 050 07 04 0080 31 20 10 0000 0000 // // ///// //// ////// / /// /// ////// /// /// /////// // /// // /// /// ////////// /// /// 001 -0006 01 01  -0024 //// -0001 //// /////  -0001 00000 //// ///// ///// -0012 0000 //// -0012 0000 1990 ///// 03 02 -0010 000 0000 //  -0010 /// //// //// /// //// ///// -0024 // ////  -0001 //// //// ///// ///// ///// ///// -0024 //// //// ///// ///// ///// /////++
7777
0000117500
992
KSMI03 SBBR 111200 RRA
CREX++
T000113 A000 D07080++
 83 695 ITAPERUNA            1 2014 01 11 12 00 -2120000 -04188000 ///// ///// 10036 10172 0018 02 //// ///// ///// ///// 2800 2250 /// ///// 1000 ///// ///// ///// 025 07 02 0125 32 20 10 0000 0000  07 /// 08 /// 09 /// // ///// ///// // ///// ///// // ///// //// 508 -0006 10 10  -0024 //// -0001 //// /////  -0001 00000 //// ///// ///// -0012 0000 //// -0012 0000 2470 ///// 03 02 -0010 000 0000 //  -0010 /// //// //// /// //// ///// -0024 // ////  -0001 //// //// ///// ///// ///// ///// -0024 //// //// ///// ///// ///// ///// //// 0000 //+
 83 718 CORDEIRO             1 2014 01 11 12 00 -2203000 -04236000 ///// ///// 09590 10151 0000 04 //// ///// ///// ///// 2500 1980 /// ///// 5000 ///// ///// ///// 050 07 04 0080 31 20 10 0000 0000  07 /// 08 /// 09 /// // ///// ///// // ///// ///// // ///// //// 001 -0006 01 01  -0024 //// -0001 //// /////  -0001 00000 //// ///// ///// -0012 0000 //// -0012 0000 1990 ///// 03 02 -0010 000 0000 //  -0010 /// //// //// /// //// ///// -0024 // ////  -0001 //// //// ///// ///// ///// ///// -0024 //// //// ///// ///// ///// ///// //// 0000 //++
7777
0000289700
993
KSMI05 SBBR 111200 RRA
CREX++
T000113 A000 D07086++
 82 863 PEDRO AFONSO         1 2014 01 11 12 00 -0896000 -04818000 ///// ///// 09924 10137 //// // 0006 ///// ///// ///// 2490 2260 /// ///// 2000 ///// ///// ///// 075 07 01 0045 38 23 14 0000 0000 // // ///// //// ////// / /// /// ////// /// /// /////// // /// // /// /// ////////// /// /// 508 -0006 10 10  -0024 //// -0001 //// /////  //// ///// -0024 00150 ///// -0012 0000 //// -0012 0000 2170 ///// 03 02 -0010 230 0021 //  -0010 /// //// //// /// //// ///// -0024 // ////  -0001 //// //// ///// ///// ///// ///// -0024 //// //// ///// ///// ///// /////+
 83 228 PEIXE                1 2014 01 11 12 00 -1201000 -04853000 ///// ///// 09895 10131 //// // 0023 ///// ///// ///// 2530 2160 /// ///// 5000 ///// ///// ///// 100 07 03 0175 33 22 10 0000 0000 // // ///// //// ////// / /// /// ////// /// /// /////// // /// // /// /// ////////// /// /// 508 -0006 10 10  -0024 //// -0001 //// /////  //// ///// -0024 00010 ///// -0012 0000 //// -0012 0000 2250 ///// 03 02 -0010 180 0036 //  -0010 /// //// //// /// //// ///// -0024 // ////  -0001 //// //// ///// ///// ///// ///// -0024 //// //// ///// ///// ///// /////+
 83 368 ARAGARCAS            1 2014 01 11 12 00 -1590000 -05223000 ///// ///// 09780 10143 //// // 0026 ///// ///// ///// 2570 2160 /// ///// 2000 ///// ///// ///// 088 07 03 0125 32 20 14 0000 0000 // // ///// //// ////// / /// /// ////// /// /// /////// // /// // /// /// ////////// /// /// 003 -0006 06 02  -0024 //// -0001 //// /////  //// ///// -0024 00010 ///// -0012 0000 //// -0012 0000 2160 ///// 03 02 -0010 000 0000 //  -0010 /// //// //// /// //// ///// -0024 // ////  -0001 //// //// ///// ///// ///// ///// -0024 //// //// ///// ///// ///// /////+
 83 374 GOIAS                1 2014 01 11 12 00 -1591000 -05013000 ///// ///// 09562 10131 //// // 0012 ///// ///// ///// 2400 1910 /// ///// 2000 ///// ///// ///// 075 07 06 0080 38 20 10 0000 0000 // // ///// //// ////// / /// /// ////// /// /// /////// // /// // /// /// ////////// /// /// 001 -0006 06 05  -0024 //// -0001 //// /////  //// ///// -0024 00030 ///// -0012 0000 //// -0012 0000 1990 ///// 03 02 -0010 320 0021 //  -0010 /// //// //// /// //// ///// -0024 // ////  -0001 //// //// ///// ///// ///// ///// -0024 //// //// ///// ///// ///// /////+
 83 526 CATALAO              1 2014 01 11 12 00 -1818000 -04795000 ///// ///// 09211 10147 //// // 0014 ///// ///// ///// 2570 1900 /// ///// 2000 ///// ///// ///// 038 07 03 0080 31 20 10 0000 0000 // // ///// //// ////// / /// /// ////// /// /// /////// // /// // /// /// ////////// /// /// 508 -0006 10 10  -0024 //// -0001 //// /////  //// ///// -0024 00060 ///// -0012 0000 //// -0012 0000 1940 ///// 03 02 -0010 090 0015 //  -0010 /// //// //// /// //// ///// -0024 // ////  -0001 //// //// ///// ///// ///// ///// -0024 //// //// ///// ///// ///// /////++
7777
0000034100
994
SMBZ35 SBBR 111200 RRA
AAXX 11124
83064 22798 71801 10257 20215 39865 40136 84570 333 20206 58019 60274=
83235 22698 50000 10260 20210 39466 40132 85400 333 20204 58027 60304=
83332 32698 70000 10262 20191 39229 40120 85220 333 20202 58019=
83423 21898 50902 10263 20174 39315 40123 70361 83074 333 20188 58008 60114=
0000337200
995
KSMI02 SBBR 111200 RRA
CREX++
T000113 A000 D07080++
 82 979 REMANSO              1 2014 01 11 12 00 -0963000 -04210000 04010 ///// 09676 10121 //// // -0001 ///// ///// ///// 2730 2040 /// ///// 2000 ///// ///// ///// 050 07 03 0045 31 22 10 0000 0000  07 /// 08 /// 09 /// // ///// ///// // ///// ///// // ///// //// 508 -0006 10 10  -0024 //// -0001 //// /////  -0001 00000 //// ///// ///// -0012 0000 //// -0012 0000 2300 ///// 03 02 -0010 /// //// //  -0010 /// //// //// /// //// ///// -0024 // ////  -0001 //// //// ///// ///// ///// ///// -0024 //// //// ///// ///// ///// ///// //// 0000 //+
 82 986 PAULO AFONSO         1 2014 01 11 12 00 -0940000 -03821000 02530 ///// 09854 10137 //// // 0005 ///// ///// ///// 2680 1840 /// ///// 1000 ///// ///// ///// 062 07 03 0080 31 23 11 0000 0000  07 /// 08 /// 09 /// // ///// ///// // ///// ///// // ///// //// 508 -0006 10 10  -0024 //// -0001 //// /////  -0001 00000 //// ///// ///// -0012 0000 //// -0012 0000 2260 ///// 03 02 -0010 090 0031 //  -0010 /// //// //// /// //// ///// -0024 // ////  -0001 //// //// ///// ///// ///// ///// -0024 //// //// ///// ///// ///// ///// //// 0000 //+
 83 179 BARRA                1 2014 01 11 12 00 -1108000 -04316000 04020 ///// 09677 10120 //// // 0006 ///// ///// ///// 2850 2010 /// ///// 2000 ///// ///// ///// 075 07 06 0080 35 20 10 0000 0000  07 /// 08 /// 09 /// // ///// ///// // ///// ///// // ///// //// 508 -0006 10 10  -0024 //// -0001 //// /////  -0001 00000 //// ///// ///// -0012 0000 //// -0012 0000 2180 ///// 03 02 -0010 090 0026 //  -0010 /// //// //// /// //// ///// -0024 // ////  -0001 //// //// ///// ///// ///// ///// -0024 //// //// ///// ///// ///// ///// //// 0000 //+
 83 192 CIPO                 1 2014 01 11 12 00 -1108000 -03851000 01450 ///// 09987 10151 //// // 0009 ///// ///// ///// 2780 2040 /// ///// 1000 ///// ///// ///// 075 07 04 0080 32 24 10 0000 0000  07 /// 08 /// 09 /// // ///// ///// // ///// ///// // ///// //// 508 -0006 10 10  -0024 //// -0001 //// /////  -0001 00000 //// ///// ///// -0012 0000 //// -0012 0000 2010 ///// 03 02 -0010 090 0036 //  -0010 /// //// //// /// //// ///// -0024 // ////  -0001 //// //// ///// ///// ///// ///// -0024 //// //// ///// ///// ///// ///// //// 0000 //+
 83 339 CAETITE              1 2014 01 11 12 00 -1405000 -04261000 ///// ///// 09171 10132 //// // 0010 ///// ///// ///// 2070 1840 /// ///// 0400 ///// ///// ///// 100 07 08 0045 35 61 60 0000 0000  07 /// 08 /// 09 /// // ///// ///// // ///// ///// // ///// //// 010 -0006 00 00  -0024 //// -0001 //// /////  -0001 00000 //// ///// ///// -0012 0000 //// -0012 0000 1920 ///// 03 02 -0010 090 //// //  -0010 /// //// //// /// //// ///// -0024 // ////  -0001 //// //// ///// ///// ///// ///// -0024 //// //// ///// ///// ///// ///// //// 0000 //+
 83 498 CARAVELAS            1 2014 01 11 12 00 -1763333 -03925000 00040 00015 10144 10149 //// // 0010 ///// ///// 00150 2870 2380 /// ///// 0200 ///// ///// ///// 050 07 02 0080 32 20 12 0000 0000  07 /// 08 /// 09 /// // ///// ///// // ///// ///// // ///// //// 508 -0006 10 10  -0024 //// -0001 //// /////  -0001 00000 //// ///// 00150 -0012 0000 //// -0012 0000 2330 ///// 03 02 -0010 140 0026 //  -0010 /// //// //// /// //// ///// -0024 // ////  -0001 //// //// ///// ///// ///// ///// -0024 //// //// ///// ///// ///// ///// //// 0000 //++
7777
0000033400
996
USAK01 KWBC 111200 RRA
TTAA 61121 70350 99992 07116 30005 00559 ///// ///// 92562 01960
23002 85228 07122 27014 70714 17556 25020 50513 35561 27543 40667
41763 28059 30857 50170 27563 25976 51773 27560 20121 49581 28053
15310 47784 28547 10578 46386 29056 88308 51370 27564 77359 28065
41403 31313 51108 81109=
0000103400
997
USAK01 KWBC 111200 CCB
TTAA 61121 70231 99986 26727 28003 00500 ///// ///// 92580 15950
06514 85220 14564 06520 70678 20350 30009 50508 37156 30018 40659
47147 28522 30845 54363 30015 25963 52382 30023 20107 50784 28536
15295 49584 29044 10562 48384 29056 88335 54758 28018 77999 31313
58208 81104 51515 10164 00013 10181 10194 05516 34508=
TTAA 61121 70361 99986 00500 00000 00600 ///// ///// 92523 02707
26503 85188 07119 34003 70670 18333 27514 50508 38756 26515 40659
46366 25542 30847 52572 26033 25965 52180 26033 20110 50984 27546
15298 51583 28052 10562 51184 29061 88348 51169 25538 77107 28066
40702 31313 58208 81107 51515 10164 00001 10181 10194 29004
28013=
TTAA 61121 70398 99976 00611 34002 00666 ///// ///// 92462 01306
04515 85131 05101 09517 70638 12505 02007 50512 28930 07514 40669
39939 17009 30859 52965 22517 25976 50965 24034 20123 48565 25042
15311 48968 27042 10575 50173 27553 88296 53366 22020 77999 31313
58208 81122 51515 10164 00008 10181 10194 06514 04508=
0000204200
998
UKAK01 KWBC 111200 CCB
TTBB 61128 70231 00986 26727 11979 23310 22972 19718 33963 17321
44953 17318 55941 16721 66926 15947 77911 16950 88892 14561 99876
13365 11846 14764 22834 14758 33822 15360 44814 15557 55797 15356
66779 15170 77772 15571 88763 16160 99755 16960 11747 17550 22740
18139 33726 18957 44703 20347 55684 21756 66671 22743 77661 23150
88653 23944 99627 25950 11591 29546 22566 31556 33548 33550 44523
34959 55505 36756 66493 37756 77481 38950 88449 42356 99440 43741
11427 44145 22390 48149 33364 50959 44335 54758 55327 53763 66312
54171 77303 54163 88273 54968 99271 53969 11265 53173 22258 53379
33254 52381 44247 52183 55238 53183 66233 52183 77217 51583 88211
50784 99206 51384 11200 50784 22192 51783 33183 50984 44180 51583
55173 49784 66169 49984 77164 48584 88157 49984 99134 47984 11123
48584 22112 47985 33109 48784 44103 47985 31313 58208 81104 41414
00900 51515 10181=
TTBB 61128 70361 00986 00500 11985 00310 22931 02507 33816 09135
44788 11713 55771 12912 66713 17335 77691 19131 88683 19556 99666
21156 11613 26159 22572 30558 33528 35541 44507 37957 55494 39556
66487 39957 77481 39161 88473 39569 99455 40178 11431 42176 22408
45164 33398 46767 44348 51169 55336 51369 66331 50570 77316 51970
88307 51771 99295 52972 11282 53175 22268 51777 33221 51983 44210
50384 55201 50984 66169 49184 77166 49984 88157 50384 99152 51783
11140 50384 22121 51783 33114 50584 44112 50984 55107 48984 66103
49584 31313 58208 81107 41414 853// 51515 10181=
TTBB 61128 70398 00976 00611 11962 00611 22738 09901 33653 15508
44507 29532 55497 28928 66473 30523 77458 32338 88427 35944 99370
44735 11339 50349 22330 50556 33320 51957 44309 52162 55296 53366
66277 52964 77267 51765 88257 52166 99243 50365 11233 50765 22226
49565 33215 49765 44206 47766 55191 49968 66178 49366 77174 50366
88170 49566 99157 50968 11147 48567 22141 49368 33137 48970 44134
49971 55128 50371 66123 49773 77116 51373 88103 51772 31313 58208
81122 41414 882// 51515 10181=
0000040800
999
UKAK01 KWBC 111200 RRA
TTBB 61128 70350 00992 07116 11987 01756 22982 00059 33961 00061
44924 01960 55845 07520 66836 07142 77711 16548 88694 18157 99665
20938 11653 21956 22604 26547 33591 27558 44559 31347 55532 34158
66461 37179 77408 40970 88391 42756 99383 43556 11358 46369 22308
51370 33269 52369 44101 46386 31313 51108 81109 41414 00900 51515
10164 00004 10194 27007 25017=
0000017600
000
ULAK01 KWBC 111200 RRA
TTCC 61127 70231 70797 48384 29570 88999 77999 31313 58208
81104=
TTCC 61127 70350 70814 47186 28551 88999 77999 31313 51108
81109=
0000145700
001
SMCN04 KWBC 111200
AAXX 11124
71010 15/// /1611 11076 21089 60001 333 11012 21101 70000=
71223 15/// /1606 11079 21087 60001 333 11041 21122 70000=
71225 15/// /1614 11007 21040 60001 333 10045 21095 70000=
71227 45/// /1510 11100 21113 6///1 333 11013 21131 7////=
71229 17/// /0202 11162 21180 69981 7//4/ 333 11116 21222 70008=
71258 15/// /1211 11078 21085 60001 333 10003 21106 70000=
71259 15/// /1106 11081 21087 60001 333 11019 21151 70000=
71274 15/// /1410 11112 21123 60001 333 11012 21132 70000=
71275 45/// /1203 11129 21139 6///1 333 11059 21160 7////=
71278 15/// /1507 11128 21140 60001 333 11042 21158 70000=
71286 15/// /1408 11115 21129 60001 333 11038 21157 70000=
71289 15/// /1616 11058 21070 60001 333 11019 21110 70000=
71351 45/// /1504 11031 21073 6///1 333 11005 21077 7////=
71353 15/// /1517 11044 21066 60001 333 11012 21065 70005=
71535 15/// /1614 11003 21032 60001 333 10048 21076 70000=
71536 15/// /1711 10011 21038 60001 333 10045 21048 70000=
71777 17/// ///// 10002 20000 39630 49874 56056 60201 7//4/ 333
10020 20001 4/010 70279=
71214 15/// /1714 11099 21111 60001 333 11050 21109 70000=
71257 15/// /1619 11044 21054 60001 333 11021 21108 7////=
71287 15/// /0702 11112 21120 60001 333 11047 21123 4/040 7////=
71315 15/// /2403 11154 21171 30156 40212 58013 60001 333 11064
21158 4/028 70007=
71537 15/// /1415 11062 21080 60001 333 11028 21163 70000=
0000018800
002
UEAK01 KWBC 111200 RRA
TTDD 6112/ 70231 11807 47385 22729 49784 31313 58208 81104 51515
10159=
TTDD 6112/ 70350 11870 48985 22708 46387 33672 46786 31313 51108
81109=
0000282200
003
KSMI05 SBBR 111200 RRA
CREX++
T000113 A000 D07080++
 82 863 PEDRO AFONSO         1 2014 01 11 12 00 -0896000 -04818000 01870 ///// 09924 10137 //// // 0006 ///// ///// ///// 2490 2260 /// ///// 2000 ///// ///// ///// 075 07 01 0045 38 23 14 0000 0000  07 /// 08 /// 09 /// // ///// ///// // ///// ///// // ///// //// 508 -0006 10 10  -0024 //// -0001 //// /////  //// ///// -0024 00150 ///// -0012 0000 //// -0012 0000 2170 ///// 03 02 -0010 230 0021 //  -0010 /// //// //// /// //// ///// -0024 // ////  -0001 //// //// ///// ///// ///// ///// -0024 //// //// ///// ///// ///// ///// //// 0000 //+
 83 228 PEIXE                1 2014 01 11 12 00 -1201000 -04853000 ///// ///// 09895 10131 //// // 0023 ///// ///// ///// 2530 2160 /// ///// 5000 ///// ///// ///// 100 07 03 0175 33 22 10 0000 0000  07 /// 08 /// 09 /// // ///// ///// // ///// ///// // ///// //// 508 -0006 10 10  -0024 //// -0001 //// /////  //// ///// -0024 00010 ///// -0012 0000 //// -0012 0000 2250 ///// 03 02 -0010 180 0036 //  -0010 /// //// //// /// //// ///// -0024 // ////  -0001 //// //// ///// ///// ///// ///// -0024 //// //// ///// ///// ///// ///// //// 0000 //+
 83 368 ARAGARCAS            1 2014 01 11 12 00 -1590000 -05223000 03450 ///// 09780 10143 //// // 0026 ///// ///// ///// 2570 2160 /// ///// 2000 ///// ///// ///// 088 07 03 0125 32 20 14 0000 0000  07 /// 08 /// 09 /// // ///// ///// // ///// ///// // ///// //// 003 -0006 06 02  -0024 //// -0001 //// /////  //// ///// -0024 00010 ///// -0012 0000 //// -0012 0000 2160 ///// 03 02 -0010 000 0000 //  -0010 /// //// //// /// //// ///// -0024 // ////  -0001 //// //// ///// ///// ///// ///// -0024 //// //// ///// ///// ///// ///// //// 0000 //+
 83 374 GOIAS                1 2014 01 11 12 00 -1591000 -05013000 05120 ///// 09562 10131 //// // 0012 ///// ///// ///// 2400 1910 /// ///// 2000 ///// ///// ///// 075 07 06 0080 38 20 10 0000 0000  07 /// 08 /// 09 /// // ///// ///// // ///// ///// // ///// //// 001 -0006 06 05  -0024 //// -0001 //// /////  //// ///// -0024 00030 ///// -0012 0000 //// -0012 0000 1990 ///// 03 02 -0010 320 0021 //  -0010 /// //// //// /// //// ///// -0024 // ////  -0001 //// //// ///// ///// ///// ///// -0024 //// //// ///// ///// ///// ///// //// 0000 //+
 83 526 CATALAO              1 2014 01 11 12 00 -1818000 -04795000 08400 ///// 09211 10147 //// // 0014 ///// ///// ///// 2570 1900 /// ///// 2000 ///// ///// ///// 038 07 03 0080 31 20 10 0000 0000  07 /// 08 /// 09 /// // ///// ///// // ///// ///// // ///// //// 508 -0006 10 10  -0024 //// -0001 //// /////  //// ///// -0024 00060 ///// -0012 0000 //// -0012 0000 1940 ///// 03 02 -0010 090 0015 //  -0010 /// //// //// /// //// ///// -0024 // ////  -0001 //// //// ///// ///// ///// ///// -0024 //// //// ///// ///// ///// ///// //// 0000 //++
7777
0000227300
004
KSMI35 SBBR 111200 RRA
CREX++
T000113 A000 D07080++
 83 064 PORTO NACIONAL       1 2014 01 11 12 00 -1071000 -04841000 02390 ///// 09865 10136 //// // 0019 ///// ///// ///// 2570 2150 /// ///// 2000 ///// ///// ///// 088 07 04 0175 35 27 10 0000 0000  07 /// 08 /// 09 /// // ///// ///// // ///// ///// // ///// //// 508 -0006 10 10  -0024 //// -0001 //// /////  //// ///// -0024 00270 ///// -0012 0000 //// -0012 0000 2060 ///// 03 02 -0010 180 0005 //  -0010 /// //// //// /// //// ///// -0024 // ////  -0001 //// //// ///// ///// ///// ///// -0024 //// //// ///// ///// ///// ///// //// 0000 //+
 83 235 TAGUATINGA           1 2014 01 11 12 00 -1240000 -04643000 06040 ///// 09466 10132 //// // 0027 ///// ///// ///// 2600 2100 /// ///// 2000 ///// ///// ///// 062 07 05 0125 34 20 10 0000 0000  07 /// 08 /// 09 /// // ///// ///// // ///// ///// // ///// //// 508 -0006 10 10  -0024 //// -0001 //// /////  //// ///// -0024 00300 ///// -0012 0000 //// -0012 0000 2040 ///// 03 02 -0010 000 0000 //  -0010 /// //// //// /// //// ///// -0024 // ////  -0001 //// //// ///// ///// ///// ///// -0024 //// //// ///// ///// ///// ///// //// 0000 //+
 83 332 POSSE                1 2014 01 11 12 00 -1410000 -04636000 08260 ///// 09229 10120 //// // 0019 ///// ///// ///// 2620 1910 /// ///// 2000 ///// ///// ///// 088 07 05 0125 32 22 10 0000 0000  07 /// 08 /// 09 /// // ///// ///// // ///// ///// // ///// //// 508 -0006 10 10  -0024 //// -0001 //// /////  -0001 00000 //// ///// ///// -0012 0000 //// -0012 0000 2020 ///// 03 02 -0010 000 0000 //  -0010 /// //// //// /// //// ///// -0024 // ////  -0001 //// //// ///// ///// ///// ///// -0024 //// //// ///// ///// ///// ///// //// 0000 //+
 83 423 GOIANIA              1 2014 01 11 12 00 -1666000 -04925000 07410 ///// 09315 10123 //// // 0008 ///// ///// ///// 2630 1740 /// ///// 2000 ///// ///// ///// 062 08 03 0225 30 27 14 0000 0000  07 /// 08 /// 09 /// // ///// ///// // ///// ///// // ///// //// 003 -0006 06 01  -0024 //// -0001 //// /////  //// ///// -0024 00110 ///// -0012 0000 //// -0012 0000 1880 ///// 03 02 -0010 090 0010 //  -0010 /// //// //// /// //// ///// -0024 // ////  -0001 //// //// ///// ///// ///// ///// -0024 //// //// ///// ///// ///// ///// //// 0000 //++
7777
0000233300
005
KSMI35 SBBR 111200 RRA
CREX++
T000113 A000 D07086++
 83 064 PORTO NACIONAL       1 2014 01 11 12 00 -1071000 -04841000 ///// ///// 09865 10136 //// // 0019 ///// ///// ///// 2570 2150 /// ///// 2000 ///// ///// ///// 088 07 04 0175 35 27 10 0000 0000 // // ///// //// ////// / /// /// ////// /// /// /////// // /// // /// /// ////////// /// /// 508 -0006 10 10  -0024 //// -0001 //// /////  //// ///// -0024 00270 ///// -0012 0000 //// -0012 0000 2060 ///// 03 02 -0010 180 0005 //  -0010 /// //// //// /// //// ///// -0024 // ////  -0001 //// //// ///// ///// ///// ///// -0024 //// //// ///// ///// ///// /////+
 83 235 TAGUATINGA           1 2014 01 11 12 00 -1240000 -04643000 ///// ///// 09466 10132 //// // 0027 ///// ///// ///// 2600 2100 /// ///// 2000 ///// ///// ///// 062 07 05 0125 34 20 10 0000 0000 // // ///// //// ////// / /// /// ////// /// /// /////// // /// // /// /// ////////// /// /// 508 -0006 10 10  -0024 //// -0001 //// /////  //// ///// -0024 00300 ///// -0012 0000 //// -0012 0000 2040 ///// 03 02 -0010 000 0000 //  -0010 /// //// //// /// //// ///// -0024 // ////  -0001 //// //// ///// ///// ///// ///// -0024 //// //// ///// ///// ///// /////+
 83 332 POSSE                1 2014 01 11 12 00 -1410000 -04636000 ///// ///// 09229 10120 //// // 0019 ///// ///// ///// 2620 1910 /// ///// 2000 ///// ///// ///// 088 07 05 0125 32 22 10 0000 0000 // // ///// //// ////// / /// /// ////// /// /// /////// // /// // /// /// ////////// /// /// 508 -0006 10 10  -0024 //// -0001 //// /////  -0001 00000 //// ///// ///// -0012 0000 //// -0012 0000 2020 ///// 03 02 -0010 000 0000 //  -0010 /// //// //// /// //// ///// -0024 // ////  -0001 //// //// ///// ///// ///// ///// -0024 //// //// ///// ///// ///// /////+
 83 423 GOIANIA              1 2014 01 11 12 00 -1666000 -04925000 ///// ///// 09315 10123 //// // 0008 ///// ///// ///// 2630 1740 /// ///// 2000 ///// ///// ///// 062 08 03 0225 30 27 14 0000 0000 // // ///// //// ////// / /// /// ////// /// /// /////// // /// // /// /// ////////// /// /// 003 -0006 06 01  -0024 //// -0001 //// /////  //// ///// -0024 00110 ///// -0012 0000 //// -0012 0000 1880 ///// 03 02 -0010 090 0010 //  -0010 /// //// //// /// //// ///// -0024 // ////  -0001 //// //// ///// ///// ///// ///// -0024 //// //// ///// ///// ///// /////++
7777
0000174800
006
SMKR01 KWBC 111200
AAXX 11121
47005 32980 02304 11162 21204 38607 53008 333 11115=
47008 32970 00000 11061 21115 30178 40234 57002 333 10011=
47014 32950 00000 11183 21202 39835 40272 58013 333 11064=
47016 32970 00000 11145 21196 39367 40285 53008 333 11056=
47020 32965 00000 11140 21167 39913 40321 53004 333 11072=
47022 32975 00000 11122 21217 38832 57008 333 11070=
47025 32960 00000 11075 21146 30223 40254 58003 333 10029=
47028 32963 01801 11053 21094 30180 40280 53002 333 10008=
47031 32970 03602 11126 21221 38948 58001 333 11085=
47035 32962 00000 11054 21143 30275 40284 54000 333 10008=
47037 32970 00000 11082 21139 30172 40303 53007 333 11012=
47039 31556 60000 11078 21119 30100 40302 57010 71022 885// 333
11004=
47041 32970 02902 11004 21128 30225 40253 54000 333 10045=
47046 32969 02305 10000 21116 30231 40254 53005 333 10036=
47052 32565 40000 11054 21079 39942 40297 52015 84500 333 10000=
47055 32970 12702 10007 21106 30222 40269 57006 80001 333 10041=
47058 32560 70000 11018 21071 30244 40293 57002 87500 333 10017=
47060 32760 62301 11005 21058 30229 40289 57001 86030 333 10012=
47061 32980 00000 10005 21151 30218 40263 57006 333 10048=
47065 32765 80903 11013 21057 30230 40297 57003 8803/ 333 10027=
47068 32560 80702 11013 21030 30261 40297 58005 85502 333 10030=
47069 32665 80000 11007 21060 30198 40301 57001 885// 333 10011=
47070 32570 80000 11020 21091 30218 40309 57003 88500 333 10017=
47003 32980 00000 11108 21170 30238 40242 52001 333 10021=
47050 32965 20000 11053 21123 30238 40273 57006 80002 333 10001=
47067 32965 82503 11042 21121 30201 40327 57012 80001 333 10015=
47075 32980 02301 11064 21100 39972 40425 52007 333 11007=
0000285400
007
SMCI01 KWBC 111200
AAXX 11121
50527 32975 02901 11336 21369 39516 40429 52019=
50603 32980 02903 11260 21347 39666 40424 52017=
51765 32980 02701 11062 21159 39376 40461 57002 333 00202=
51811 32965 20901 11030 21138 38911 40426 57005 82/// 333 00101=
51828 32965 00401 11032 21124 38758 40424 57003 333 00200=
53231 32980 01604 11173 21264 38594 52014 333 00553=
53391 42969 02903 11150 21240 38577 40412 52021 333 00200=
53543 32980 03202 11097 21220 38628 40407 52019=
54497 31943 00201 11066 21110 30267 40287 52002 70500=
56004 31980 72503 11130 21182 35797 52014 72680 87/// 333 00251=
56033 32680 70706 11147 21215 35998 52006 87/// 333 00254=
56046 11674 73602 11091 21132 36247 52021 69921 78580 87/// 333
00252 92500=
56196 32967 02701 10064 20005 40324 52027 333 00502=
56287 11446 80000 10072 20023 39567 40328 52035 69901 76000 88///
333 00602=
56786 32960 03403 10062 20007 38124 52033 333 00358=
56977 31958 02501 10146 20128 40189 52019 71000 333 00100=
57259 11462 82001 10036 20015 39820 40352 52028 60031 76070 88///=
57279 31957 82902 10051 20014 40326 52019 70500 88///=
57348 31758 82201 10081 20026 40319 52031 70500 88///=
57399 31958 80000 10043 20033 40311 52010 71000 88///=
58345 11415 80903 10046 20039 40306 52006 60021 76064 88///=
58506 11/01 90401 11018 21018 40308 52008 69991 76864 333 93427=
58813 31957 83603 10077 20050 40280 52020 71000 88///=
58834 32756 70401 10134 20093 40252 52011 87///=
58926 32965 70401 10140 20098 40244 52021 87///=
59102 32964 02501 10122 20101 40241 52021=
59278 31957 02201 10168 20106 40228 52021 70500=
59493 32963 00701 10166 20111 40230 52021=
59948 42/75 90905 10186 39716=
55299 32780 72503 11083 21169 35822 52012 87/// 333 00200=
55591 32666 72703 11006 21113 36490 52012 87/// 333 00453=
56739 32980 02004 10128 20002 38332 52011 333 00101=
56951 32980 01603 10146 21019 38528 52017 333 00252=
56964 32970 00000 10161 20098 38731 40190 52012 333 00101=
57328 11918 80901 10068 20041 39888 40314 52021 69901 76066 88///=
57411 32960 71101 10074 20044 39935 40319 52028 87///=
57447 11961 80000 10055 20033 39765 40328 52030 69901 76066 88///=
57662 32961 73201 10038 20020 30138 40329 52020 87///=
57745 11732 80402 10040 20020 39984 40326 52020 69901 72160 88///=
57972 11440 83401 10048 20031 30074 40307 52020 69911 76066 88///=
58203 31922 02001 10024 21002 30271 40314 52012 71000=
58314 11960 80000 10039 20004 30205 40316 52006 69901 70060 88///=
58424 31337 80402 10032 20025 30228 40308 52008 71000 88///=
59023 11758 82901 10077 20066 39957 40278 52021 69931 71060 88///=
59417 11430 81102 10142 20129 30074 40231 52018 69901 76060 88///=
59985 11568 70406 10232 20213 30179 40185 52018 69941 72580 87///=
54273 32939 02202 11123 21180 39923 40277 52005=
0000047900
008
SMVD19 KWNB 111200 RRD
BBXX
46126 11121 99540 71666 46/// /2405 10051 49797 91206 22200 00044
1//00 70001 333 91208 555 11055 22060=
46126 11121 99540 71666 46/// /2405 10051 49797 91210 22200 00044
1//00 70001 333 91208 555 11055 22060=
46126 11121 99540 71666 46/// /2406 10051 49797 91212 22200 00044
1//00 70001 333 91210 555 11070 22076=
46126 11121 99540 71666 46/// /2406 10051 49797 91215 22200 00045
1//00 70001 333 91210 555 11070 22076=
00000000