0000011800
462
SNVF25 LFPW 111300
BBXX
BATFR12 11134 99486 70064 46/// /1115 10119 20052 40201 58008
22200 04150=
0000250300
463
SNDL21 EDZW 111300
AAXX 11131
10004 NIL=
10015 41260 83210 10059 20046 30066 40076 55002 76366 8652/
  333 55300 20054 30054 83706 85615 88525 91117 91213 96265=
10020 47282 83208 10058 20043 30026 40058 53002 76160
  333 55300 20038 30038 81/05 87/33 88/44 91114 91212=
10035 41230 82307 10052 20046 39996 40055 57023 76366 877//
  333 55300 20064 30063 41220 87706 91113=
10055 41457 82308 10056 20049 30048 40058 58026 76166 888//
  333 55300 20141 30141 84813 88630=
10147 41357 82208 10052 20039 30062 40080 58027 76166 877//
  333 55300 20191 30176 41218 83709 87712=
10162 47468 82306 10056 20029 30005 40078 58026 72250
  333 55300 20170 30168 87/19 88/33=
10184 41450 82205 10055 20042 30074 40082 58021 76166 877//
  333 55300 20049 30049 87710=
10200 47484 82807 10064 20049 30098 40096 55002 76165
  333 55300 20126 30126 83/16 88/35 88/46 91114=
10224 41445 82308 10053 20045 30089 40095 56022 76366 887//
  333 55300 20133 30132 87710=
10270 46960 82203 10074 20023 30060 40115 58021
  222// 06043
  333 55306 88/59=
10338 42681 72306 10071 20028 30042 40115 58018 875//
  333 55300 20340 30331 87648=
10361 42986 62203 10076 20024 30023 40127 58015 85031
  333 55308 20698 30197 85361=
10393 43980 02104 10070 20017 39998 40125 58020
  333 55310 20848 30149=
10400 41475 82406 10083 20044 30102 40152 56011 75822 878//
  333 55300 20277 30276 82812 84625 87640=
10469 42986 32204 10061 20026 39980 40146 56012 82041
  333 55303 82360=
10488 42886 72204 10069 20003 39865 40147 58018 85076
  333 55300 20346 30330 41102 83358 84463 87276=
10506 42484 62405 10062 20038 39584 40168 58002 83201
  333 55306 20782 30402 83812 84078=
10548 41056 71805 10015 20012 39620 40172 58009 71022 876//
  333 55300 20415 30413 87701=
10637 41261 72103 10034 20023 30041 40182 58005 72122 878//
  333 55301 81804 83638 87656=
10685 42981 82406 10028 20000 39479 40161 57012 8807/
  333 55300 20396 30394 88460=
10738 41462 71301 10025 20023 39715 40194 58001 72122 875//
  333 55300 81710 83644 86650 96260=
10763 41560 71502 10037 20029 39792 40181 58003 76166 875//
  333 55300 20129 30129 81622 87641=
10788 47645 80501 10020 20013 39754 40196 56008 76265
  333 55300 20136 30136 81/35 86/44 88/50=
10852 47656 71001 10037 20029 39613 40190 56003 72365
  333 55300 20264 30261 82/46 86/57 87/60=
10946 45978 82003 10077 20041 39362 40190 53013
  333 55300 20498 30496 87/58 88/60=
0000015000
464
SNDL22 EDZW 111100 CCC
AAXX 11111
10453 41/88 62316 11029 21029 38787 48415 58008 74131 84632
  333 55309 847// 91120 91217 96036=
0000254900
465
SNDL22 EDZW 111300
AAXX 11131
10007 NIL=
10044 46/// /2212 10055 20047 30022 40054 58025
222// 00055
  333 55300 91114 91212=
10046 47350 82104 10056 20049 30026 40060 58025 76266
  333 55300 88/08=
10091 41358 82410 10054 20047 30015 40066 58023 75865 877//
  222// 06053
  333 55300 20135 30133 87707 91114 91211=
10113 41472 73210 10063 20051 30071 40090 53001 72162 878//
  333 55300 20201 30201 82814 85637 85656 91118 91215=
10124 46/// ///// 10056 20056 30023 40061 56020
222// 0////
  333 553//=
10131 41235 82308 10053 20046 30057 40072 56023 76366 877//
  333 55300 20040 30040 87706 98035=
10170 41458 82106 10061 20041 30057 40073 58026 72122 885//
  333 55300 20154 30154 88614=
10264 45984 82205 10064 20021 39984 40091 58025
  333 55300 20351 30345 82/59 88/61=
10291 42982 12206 10076 20026 30037 40105 58025 81030
  333 55308 20664 30267 81363=
10315 41456 72306 10054 20040 30062 40127 56017 76362 875//
  333 55300 20154 30154 84612 87620=
10379 42882 12104 10075 20014 30001 40122 58018 81531
  333 55310 20836 30137 40927 81657=
10381 42884 12105 10080 20011 30022 40119 57020 81531
  333 55310 81657=
10382 42782 22106 10081 20009 30073 40118 58022 81581
  333 55310 20796 30149 81650=
10384 46/// /2105 10079 20014 30058 40118 58020
  333 55310 20834 30164=
10427 41/80 72509 10010 20009 39130 48430 58010 72844 878//
  333 55300 20364 30353 818// 86805 91115=
10430 45580 72306 10074 20033 39938 40130 58018
  333 55303 20509 30389 82/21 87/57 87/58 91113=
10439 NIL=
10453 41/00 92319 11020 21020 38772 48402 58019 74944
  333 55300 91124 91219 96036=
10496 42984 72204 10071 20014 30054 40139 57018 8703/
  333 55304 20480 30301 87360=
10499 42975 82105 10045 20009 39862 40155 56014 86057
  333 55302 20428 30323 86360 88270=
10505 41582 82508 10081 20043 39877 40158 56006 76122 878//
  333 55301 20339 30283 82822 87636 91113=
10513 42582 72404 10096 20050 30030 40151 58011 8557/
  333 55304 20520 30320 85626 86360=
10532 47029 80802 10023 20021 39915 40168 58010 72030
  333 55300 20292 30292 87/01 87/44 88/56=
10544 42281 72309 10007 20007 39070 48444 58007 8684/
  333 55300 83804 85650=
10554 42581 72407 10062 20018 39760 40149 58015 8117/
  333 55303 20620 30511 81822 84360 85463 98884=
10567 42781 72106 10053 20021 39774 40152 58016 8357/
  333 55300 20319 30316 83650 85358=
10578 41/30 82414 11016 21016 38745 48440 58014 74142 876//
  333 55300 20295 30294 877// 91117 91214=
0000216700
466
SNDL23 EDZW 111300
AAXX 11131
10609 42758 62203 10048 20048 39852 40186 50001 86501
  333 55300 20398 30386 86650=
10616 42280 62605 10042 20032 39572 40178 50001 84801
  333 55301 81805 83650 85076=
10641 45358 82203 10043 20028 30030 40179 58006
  333 55303 81/07 86/50 88/59=
10655 41062 70501 10027 20020 39844 40179 58002 72122 875//
  333 55300 20273 30265 81701 87638=
10675 47657 81701 10029 20021 39887 40184 57004 72365
  333 55300 20176 30176 87/37 88/47=
10688 47450 72302 10017 20008 39654 40188 58005 75165
  333 55300 20107 30107 85/14 87/47=
10708 41145 82303 10044 20038 39801 40192 50006 71022 886//
  333 55300 20268 30262 82702 87704=
10729 47664 81603 10040 20026 30064 40188 58002 72365
  333 55300 20127 30127 88/39=
10731 41565 82104 10050 20042 30040 40186 56003 72162 875//
  333 55300 20157 30156 86622=
10742 47657 82902 10035 20019 39854 40192 55000 75765
  333 55300 20301 30301 88/34=
10776 47231 71502 10015 20011 39739 40194 56009 76165
  333 55300 20140 30140 83/04 86/38 87/47=
10791 41/01 92411 11006 21006 38513 48458 56010 77174
  333 55300 91117 91213 96049=
10805 41373 81903 10062 20053 30002 40195 58003 72162 8757/
  333 55300 20119 30119 81708 83650 85656=
10815 47360 82405 10050 20044 39246 48482 53005 76165
  333 55300 20294 30292 82/09 87/47 88/56=
10836 43358 82706 10044 20040 39309 40184 51001 8////
  333 55300 20261 30260 82/06 87/46 88/56=
10870 42763 73101 10048 20033 39650 40190 55003 8157/
  333 55302 81656 83359 87362 98483=
10895 41570 71101 10031 20018 39608 40187 57014 76022 82578
  333 55304 20651 30392 82626 85360 87280=
10908 41/90 92315 10008 20006 38493 48489 58004 74564
  333 55300 20320 30320 89/01 91118 91215=
10929 41250 72801 10036 20034 39671 40212 51007 71022 8267/
  333 55300 20542 30503 82705 87360=
10948 45884 82301 10074 20066 39246 48495 53008
  333 55300 20268 30267 88/57=
10961 41175 83305 11052 21056 37081 47051 57005 77172 875//
  333 55300 20242 41058 87603 91114 95150
  444 16130=
10962 42889 73104 10074 20024 39039 48489 53005 875//
  333 55301 20574 30549 87657=
0000136800
467
SNDL44 EDZW 111300
AAXX 11131
10022 47250 83209 10056 20049 30045 40055 55012 76266
  333 55300 20030 30030 83/06 87/24 88/36 91116=
10028 41350 82413 10061 20056 30043 40056 56024 76166 875//
  333 55300 20072 30072 84707 87612 91119 91214 96263 98050=
10033 NIL=
10037 NIL=
10038 NIL=
10042 47156 72308 10059 20049 30051 40055 58024 75765
  333 55300 82/02 87/08 91113=
10067 NIL=
10093 47250 72306 10053 20042 30024 40074 58023 75165
  333 55300 87/06=
10097 47450 82210 10052 20040 30064 40078 58021 75165
  222// 06044
  333 55300 88/11 88/35=
10126 NIL=
10129 47360 82311 10055 20049 30071 40084 56023 76165
  333 55300 20044 30044 87/08 88/12 91114 91211=
10130 47136 82311 10053 20047 30062 40068 56025 76265
  333 55300 84/02 88/06 91115 91212=
10136 NIL=
10139 47332 72306 10051 20049 30073 40087 58024 76265
  333 55300 20072 30071 87/08 87/12=
10142 46327 82306 10051 20045 30039 40070 57025
  333 55300 87/06 88/09=
10146 47436 72206 10052 20043 30063 40080 58026 76266
  333 55300 87/10 87/15 87/23=
10150 47140 72206 10053 20045 30035 40069 58026 75765
  333 55300 20119 30119 81/02 87/08=
10152 47250 82307 10058 20046 30066 40068 58026 76165
  333 55300 82/06 88/32 88/56=
10156 47456 72104 10057 20038 30058 40079 58025 76165
  333 55300 20204 30204 83/17 86/33 87/47=
0000160500
468
SNDL45 EDZW 111300
AAXX 11131
10161 47357 52108 10055 20040 30053 40073 58027 72365
  333 55300 20136 30136 82/08 83/16 85/39 91114=
10168 47971 72205 10060 20031 30010 40082 58027 72360
  333 55300 84/59 87/61 87/64=
10172 NIL=
10180 47456 82206 10058 20046 30067 40072 58025 72365
  333 55300 88/10=
10193 47668 82104 10060 20037 30089 40092 58022 72365
  333 55300 20129 30129 82/37 87/57 88/59=
10210 47350 72409 10052 20044 30094 40103 55016 76165
  333 55300 20080 30080 87/08 91113=
10235 47460 82104 10057 20030 30009 40104 58022 76165
  333 55300 20260 30259 81/11 87/29 88/36=
10238 NIL=
10246 NIL=
10249 47579 72306 10064 20028 30033 40089 58025 75165
  333 55300 20321 30321 84/32 87/56=
10253 45982 82207 10069 20022 30079 40101 58026
  333 55301 87/60 88/62=
10261 42984 72206 10071 20018 30077 40105 58024 8707/
  333 55305 20688 30396 87361=
10267 45982 82308 10080 20026 30057 40106 58024
  333 55303 87/59 88/61=
10268 46/// /2105 10061 20029 30001 40088 58026
  333 55300=
10281 466// 82306 10060 20033 39979 40092 58024
  333 55300 20186 30185 81/46 88/57=
10282 45983 82205 10066 20029 39955 40097 58025
  333 55305 20584 30393 86/58 88/60=
10289 45/83 /2207 10063 20032 30030 40100 58026
  333 55306=
10304 NIL=
10305 41248 82505 10052 20041 30086 40118 56014 75866 877//
  333 55300 87705 96010=
10306 NIL=
10309 47234 72305 10051 20045 30073 40131 56012 76165
  333 55300 20104 30104 87/06=
10312 47449 82306 10049 20035 39992 40120 56017 76265
  333 55300 20188 30188 85/16 86/29 88/36=
0000182300
469
SNDL46 EDZW 111300
AAXX 11131
10321 41450 82307 10053 20045 30058 40111 56017 76366 8552/
  333 55300 20158 30158 85613 88537 96010=
10325 47678 72104 10061 20036 39956 40123 58021 72360
  333 55300 84/47 87/50 87/56=
10334 NIL=
10335 NIL=
10343 NIL=
10348 45981 72505 10061 20016 30012 40119 58024
  333 55304 20602 30371 41014 87/60 87/68=
10356 45977 62409 10067 20010 39923 40121 58021
  333 55306 86/61 86/69=
10359 45980 82205 10072 20021 30058 40117 58023
  333 55306 20702 30354 88/62=
10365 45981 82103 10077 20016 30081 40127 58019
  333 55310 20686 30109 88/72=
10368 42981 22207 10054 20011 39897 40127 58018 82051
  333 55310 20902 30227 82363=
10376 45972 52306 10067 20017 30062 40130 56019
  333 55309 85/65=
10385 42984 12206 10075 20014 30065 40127 56018 81031
  333 55310 20864 30186 81363=
10396 45973 02305 10078 20029 30106 40122 56024
  333 55310=
10404 NIL=
10410 47037 72305 10068 20044 39965 40148 57011 75865
  333 55300 84/01 85/19 87/36=
10418 45480 72406 10055 20033 39679 40149 58009
  333 55304 20630 30322 87/13 87/23 87/30=
10424 45784 82407 10083 20038 30033 40138 58014
  333 55307 20755 30290 87/50 87/57 88/59=
10433 45481 82105 10061 20031 39808 40122 58020
  333 55302 20413 30320 83/19 88/57=
10435 45973 11903 10064 20033 39851 40138 58019
  333 55310 81/73=
10441 47357 61502 10039 20026 39764 40151 58016 71000
  333 55305 84/08 85/11 86/22=
10442 45886 82103 10065 20022 39951 40128 58020
  333 55301 20435 30390 88/57=
10444 42472 32106 10066 20028 39937 40142 58020 82840
  333 55310 21045 30383 81817=
10449 45471 82206 10050 20027 39718 40146 58015
  333 55309 21004 30448 84/16 88/66=
10452 45268 82206 10020 20012 39407 40138 58017
  333 55300 20254 30251 87/05 88/10=
0000163900
470
SNDL47 EDZW 111300
AAXX 11131
10454 45983 82003 10076 21002 39840 40130 58015
  333 55309 87/60 88/68=
10458 45476 72408 10037 20019 39644 40135 58016
  333 55304 20681 30490 85/13 87/61=
10460 42583 42306 10057 20023 39943 40146 58019 82850
  333 55310 20926 30333 81823 83364=
10466 46/61 /2302 10073 20019 30025 40142 57013
  333 55308 20692 30209=
10471 45984 82103 10061 20022 39976 40145 56017
  333 55300 20256 30249 41062 82/59 87/63 88/71=
10474 45968 02304 10062 20023 30007 40137 58016
  333 55310 20694 30229=
10476 NIL=
10480 45982 82305 10061 20022 39957 40141 58014
  333 55300 20169 30169 88/60=
10490 45980 72103 10066 20018 30021 40141 56018
  333 55301 20392 30344 87/61=
10495 45988 82405 10076 20008 39999 40141 58019
  333 55303 85/59 88/63 88/76=
10500 NIL=
10502 NIL=
10516 NIL=
10519 45588 82303 10098 20044 39963 40157 58008
  333 55308 85/28 85/36 88/71=
10520 45970 00401 10058 20031 30074 40168 58009
  333 553//=
10526 45474 42304 10052 20027 39505 40158 58008
  333 55305 20757 30416 81/17 84/28=
10534 47000 12305 10009 20009 39279 40170 58007 73033
  333 55300 81/00=
10537 47145 81807 10022 20022 39735 40166 58010 71000
  333 55300 82/02 88/56 88/69=
10540 45575 82405 10053 20019 39772 40153 58015
  333 55304 20629 30504 82/26 88/59=
10542 45567 82002 10054 20030 39827 40157 58014
  333 55300 20286 30285 85/23 87/28 88/58=
10552 47000 82406 11004 21004 39049 48437 57010 73533
  333 55300 88/00=
10557 41/58 72505 10004 20001 39152 48440 58006 75172 875//
  333 55300 20446 30446 827// 84705 86611 96271=
0000212500
471
SNDL48 EDZW 111300
AAXX 11131
10564 45681 82305 10038 20007 39556 40161 58010
  333 55300 88/37=
10565 45960 82205 10059 20016 39847 40146 58016
  333 55300 83/58 88/61=
10569 45667 81903 10037 20011 39694 40167 58008
  333 55300 20231 30231 87/46 87/57 88/59=
10574 47265 82403 10004 21005 39102 48445 58011 72470
  333 55300 86/03 87/21 88/31=
10577 45788 72307 10060 20001 39646 40151 57018
  333 55300 20374 30369 87/50=
10579 45/88 /2404 10042 21028 39396 40160 56013
  333 55300=
10582 42689 81704 10009 21014 39113 48438 58013 8257/
  333 55300 20246 30246 82639 83357 86461=
10591 45974 71505 10041 20001 39768 40157 58020
  333 55300 87/59 87/62=
10613 NIL=
10615 45684 82605 10064 20045 39598 40175 50002
  333 55301 20459 30422 88/46 88/50=
10618 NIL=
10628 47756 80801 10030 20021 30041 40179 58006 71000
  333 55300 88/56 88/66=
10635 47277 82704 10021 20021 39185 48448 58006 72365
  333 55300 20303 30303 87/04 87/34 88/50=
10646 47558 81501 10019 20019 39764 40183 58004 75165
  333 55300 85/31 87/37 88/57=
10648 47566 82305 10043 20033 39629 40179 50000 75165
  333 55300 20172 30172 81/20 85/32 88/43=
10658 47256 82202 10018 20018 39832 40180 58007 72250
  333 55300 81/04 84/32 88/57=
10671 47257 82002 10016 20008 39757 40182 56006 72476
  333 55300 20155 30155 83/06 88/28=
10686 47136 72005 10003 21001 39422 40177 56010 77176
  333 55300 87/01=
10704 47233 82504 10038 20035 39748 40191 50007 71000
  333 55300 20232 30232 81/03 88/35=
10706 47149 72604 10033 20030 39719 40191 50004 72250
  333 55300 81/03 85/50 87/66=
10724 45460 82607 10042 20038 39510 40180 55000
  333 55301 20292 30268 88/10 88/26=
10733 47513 83401 10021 20018 39895 40192 54000 76265
  333 55300 20105 30105 84/25 88/33=
10736 47456 81301 10038 20031 39892 40192 50000 72365
  333 55300 87/17 88/47=
10739 47737 81302 10034 20029 39801 40190 58003 72365
  333 55300 20165 30162 41182 87/50 87/56 88/57=
10743 NIL=
10747 47557 72402 10040 20036 39592 40183 56001 75765
  333 55300 20349 30348 83/25 87/50 87/58=
0000169400
472
SNDL49 EDZW 111300
AAXX 11131
10756 47656 72202 10036 20027 39605 40182 58005 71000
  333 55302 20447 30375 84/37 86/57 87/80=
10761 47661 82303 10045 20034 39671 40184 58002 72365
  333 55300 20151 88/33=
10765 46/// /2002 10034 20033 39705 40186 55001=
10771 NIL=
10777 47014 72302 10013 20012 39540 40194 55002 74065
  333 55300 84/01 85/31 87/38=
10782 47564 72203 10031 20013 39579 40184 56010 72360
  333 55300 20214 30214 84/26 87/45=
10796 47523 71801 10009 20008 39445 40191 56012 72365
  333 4/002 55300 81/29 87/38 87/56=
10803 45872 82205 10098 20058 39912 40198 53005
  333 55300 20173 30173 85/56 88/59=
10818 47682 72406 10060 20041 39054 48489 51001 72365
  333 55300 20083 30082 87/43 87/50 91113=
10827 46/// /2506 10070 20043 39098 48488 51002
  333 55300 20207 30207=
10837 NIL=
10838 46660 32202 10034 20029 39504 40191 50002
  333 55300 83/46 83/56=
10850 47006 71502 10005 20005 39578 40193 58006 76164
  333 55300 82/00 86/40 87/47=
10853 NIL=
10856 NIL=
10857 NIL=
10860 NIL=
10863 47764 72402 10050 20037 39610 40187 55006 72365
  333 55303 20619 30433 41175 81/50 83/57 87/59=
10865 45982 82603 10084 20037 39556 40179 55001
  333 55301 86/58 87/61 88/64=
10872 47749 80401 10027 20019 39760 40191 57013 76165
  333 55300 88/50=
10875 45960 62001 10031 20026 39696 40192 56008
  333 55301 20640 30566 82/59 86/64=
10945 45958 81604 10043 20032 39400 40204 51014
  333 55300 88/59 88/62=
10954 NIL=
10963 45881 82201 10061 20047 39337 40186 55004
  333 4/001 55300 20245 30242 88/57=
10982 45985 82601 10066 20028 39522 40180 55007
  333 55300 20362 30360 87/58 88/60=
0000014200
473
ULFR06 LFPW 111200 RRA
TTCC 61113 07645 70845 561// 26518 50060 539// 32519 30390 507//
36012 88999 77999 31313 47708 81115=
0000024000
474
UEFR06 LFPW 111200 RRA
TTDD 6111/ 07645 11738 565// 22256 497// 21212 11940 27513 22891
25526 33822 28520 44725 25519 55627 30015 66550 26513 77493 33520
88413 32006 99376 32526 11314 00510 22257 35019 31313 47708 81115=
0000011800
475
SNVF25 LFPW 111300
BBXX
BATFR09 11134 99392 70101 46/// /1003 10142 20075 40178 58010
22242 04162=
0000011200
476
SNVF25 LFPW 111300
BBXX
BATFR20 11134 99374 10099 46/// /1803 10157 20075 40184 56010
22223=
0000011800
477
SNVF25 LFPW 111300
BBXX
BATFR61 11134 99473 70061 46/// /1210 10114 20100 40197 58008
22222 04124=
0000011800
478
SNVF25 LFPW 111300
BBXX
BATFR52 11134 99495 70003 46/// /3410 10097 20032 40225 51014
22244 04102=
0000032400
479
USCR01 GCXO 111200
TTAA 61121 60018
99006 19057 07504 00159 17858 07005 92820 12457 02504
85524 09065 00511 70113 02483 23505 50576 12572 27515
40742 25367 29535 30944 41586 29556 25065 50569 30056
20208 56573 29581 15388 62180 28569 10636 68179 28052
88999
77183 30087 41323
31313 48108 81115=
0000073400
480
UKCR01 GCXO 111200
TTBB 61128 60018
00006 19057 11879 09659 22867 10065 33745 04478 44734
05084 55666 00283 66663 00693 77645 00677 88575 06568
99535 08179 11416 23364 22392 26367 33344 35557 44337
36758 55301 41387 66229 54963 77225 53171 88208 56968
99145 60981 11119 65379 22112 63180 33100 68179
21212 00006 07504 11911 00502 22877 01010 33840 35510
44815 02511 55785 03010 66655 33003 77632 31015 88615
29014 99584 28017 11523 28013 22425 28028 33398 29537
44354 29041 55344 28538 66332 29037 77323 30044 88291
29565 99256 29555 11233 30565 22183 30087 33167 29569
44143 28573 55130 30061 66113 27037 77100 28052
31313 48108 81115
41414 /////
51515 77285 06473 04006 60347 03568 28516=
0000071700
481
UDIO01 AMMC 111300
AMDAR 1113
LVR AU1014 0102S 10700E 111152 F370 MS483 129/030 TB0 S031
  333 F370 VG001=
LVR AU1014 0136S 10738E 111159 F370 MS484 132/017 TB0 S031
  333 F370 VG001=
LVR AU1014 0210S 10817E 111206 F370 MS487 121/015 TB0 S031
  333 F370 VG001=
LVR AU1014 0244S 10856E 111213 F370 MS488 126/012 TB0 S031
  333 F370 VG001=
LVR AU1014 0317S 10935E 111220 F370 MS485 105/021 TB0 S031
  333 F370 VG001=
LVR AU1021 0141S 10943E 111201 F360 MS464 083/012 TB0 S031
  333 F360 VG000=
LVR AU1021 0107S 10900E 111208 F354 MS445 095/033 TB0 S031
  333 F354 VG000=
LVR AU1021 0032S 10816E 111215 F340 MS410 116/018 TB0 S031
  333 F340 VG000=

0000045500
05722
00000000