0000015700
942
SSVX13 LFPW 111300
ZZYY 62695 11014 1300/ 743214 019508 6113/ 11119 40007 57025 22219
 00135 444 20130 11014 1200/ 50101 80140 80015 9/015=
0000015700
943
SSVX13 LFPW 111300
ZZYY 16537 11014 1300/ 334995 054676 6113/ 11119 40132 57024 22219
 00193 444 20130 11014 1200/ 50101 80144 80010 9/015=
0000015700
944
SSVX13 LFPW 111300
ZZYY 33957 11014 1300/ 545124 053007 6113/ 11119 40104 52028 22219
 00146 444 20130 11014 1200/ 50101 80140 80015 9/015=
0000015700
945
SSVX13 LFPW 111300
ZZYY 65592 11014 1300/ 760751 053089 6113/ 11119 49906 52013 22219
 00025 444 20130 11014 1200/ 50101 80130 80016 9/015=
0000015700
946
SSVX13 LFPW 111300
ZZYY 63552 11014 1300/ 776005 004630 6113/ 11119 40125 52004 22219
 00011 444 20130 11014 1200/ 50101 80102 80003 9/015=
0000015700
947
SSVX13 LFPW 111300
ZZYY 44741 11014 1300/ 738787 028157 6113/ 11119 40116 52025 22219
 00160 444 20130 11014 1200/ 50101 80126 80019 9/015=
0000015700
948
SSVX13 LFPW 111300
ZZYY 44725 11014 1300/ 727858 021148 6113/ 11119 40193 52002 22219
 00213 444 20130 11014 1200/ 50101 80132 80002 9/015=
0000015700
949
SSVX13 LFPW 111300
ZZYY 25648 11014 1300/ 182372 121875 6113/ 11119 40181 57004 22219
 01128 444 20130 11014 1200/ 50101 80138 8//// 9/015=
0000015700
950
SSVX13 LFPW 111300
ZZYY 64526 11014 1300/ 766066 008443 6113/ 11119 40051 52011 22219
 00023 444 20130 11014 1200/ 50101 80142 80005 9/015=
0000015700
951
SSVX13 LFPW 111300
ZZYY 33953 11014 1300/ 544232 043561 6113/ 11119 40039 52007 22219
 00123 444 20130 11014 1200/ 50101 80142 80018 9/015=
0000015700
952
SSVX13 LFPW 111300
ZZYY 44767 11014 1300/ 729406 028226 6113/ 11119 40177 52005 22219
 00219 444 20130 11014 1200/ 50101 80104 80002 9/015=
0000015700
953
SSVX13 LFPW 111300
ZZYY 62516 11014 1300/ 736645 013660 6113/ 11119 40179 57005 22219
 00173 444 20130 11014 1200/ 50101 80140 80016 9/015=
0000015700
954
SSVX13 LFPW 111300
ZZYY 16620 11014 1300/ 337155 122798 6113/ 11119 40225 57003 22219
 00195 444 20130 11014 1200/ 50101 80110 80005 9/015=
0000015700
955
SSVX13 LFPW 111300
ZZYY 13660 11014 1300/ 722242 043948 6113/ 11119 40228 52031 22219
 00244 444 20130 11014 1200/ 50101 80142 80000 9/015=
0000155200
956
SNIY20 LIIB 111300
AAXX 11134
16008 42560 71904 10018 21018 38549 48507 58001 87700 333 87720
      92865=
16088 41635 73002 10100 20073 30102 40220 58008 71022 84230 333 84645
      84357=
16110 41396 80000 10094 20075 30219 40223 56005 71022 8268/ 333 55300
      82708 88356 555 0000/=
16134 42584 62726 10044 21036 37848 48520 56007 86070 333 55300 84430
      92845 95150 444 38160=
16153 42598 60106 10156 20069 39946 40208 58005 83530 333 55309 83630
      83357 555 0213/=
16206 42980 51402 10134 20065 30210 40219 57015 80009=
16219 42765 63006 10052 20004 38167 48548 51005 82031 333 55306 82356
      95141=
16280 42497 80000 10122 20099 39992 40215 57008 882// 333 55300 88615
      555 0100/=
16310 42897 70102 10154 20133 39992 40212 58011 83071 333 55310 81357
      555 0100/=
16360 42597 61204 10148 20102 30084 40218 57009 83231 333 55310 83820
      555 0100/=
16400 42498 41309 10154 20114 39930 40218 57009 81109 333 55304 81819
      555 0213/=
16420 42698 52207 10152 20096 30145 40210 58012 81502 333 55308 81633
      555 0215/=
16429 42572 61613 10184 20133 30191 40202 58013 83234 333 55310 83825
      83360=
16470 42968 22016 10180 20125 39962 40195 57014 80001 333 55310 22///
      95000=
16480 42498 22504 10190 20155 30150 40211 57019 82102 333 55310 82817
      555 0100/=
16522 42898 50000 10152 20102 39960 40202 56007 82038 333 55304 82358
      555 0200/=
16550 42598 81403 10150 20098 30032 40212 56020 8422/ 333 55300 84630
      84458 555 0200/=
0000011000
957
UANT01 CWAO 111305
ARP AAL63 4746N03644W 1305 F320 MS55 326/60 KT
N371AA DDL XXN 111305 F53A
0000011100
958
UANT01 CWAO 111306
ARP LOT6505 5734N04117W 1305 F380 MS58 243/34 KT
SPLRE DDL XXN 111306 L53A
0000066800
959
USUS60 KWBC 111200 RRA
TTAA 61121 72393 99009 13863 02007 00172 16263 04008 92840 17465
36021 85558 16269 33024 70179 06068 31518 50583 14565 28529 40748
27365 24533 30949 42757 26529 25069 52150 28032 20210 61750 30540
15390 60563 31555 10636 69359 29543 88202 63350 29539 77159 32069
41821 51515 10164 00005 10194 00018 33521=
TTAA 61121 78016 99027 17256 08014 00262 16057 09016 92918 11058
09010 85616 05030 25502 70207 04275 28014 50585 15357 31027 40750
25763 31550 30952 41160 31068 25074 50761 31069 20215 62358 30067
15391 65162 30597 10634 73361 28568 88174 66958 29579 88100 73361
28568 77156 30098 43212 31313 51108 81115=
0000055600
960
UKUS60 KWBC 111200 RRA
TTBB 6112/ 72393 00009 13863 11004 09459 22003 16261 33002 16462
44990 16265 55986 16465 66975 20269 77974 20269 88971 20269 99887
14663 11885 14463 22867 17271 33865 17272 44850 16269 55807 15073
66758 10070 77735 08874 88655 02469 99633 00167 11438 22763 22431
23562 33358 32167 44339 34964 55292 44557 66258 50748 77205 62956
88202 63350 99200 63349 11199 59957 22195 59159 33191 59559 44186
56761 55178 56963 66156 60762 77147 60763 88116 69359 99110 69559
11105 68359 31313 51008 81127 41414 00908=
0000014200
961
ULUS60 KWBC 111200 RRA
TTCC 61123 78016 70845 69963 30545 50047 65767 28529 30365 56977
23014 88999 77999 31313 51108 81115=
00000000