0000341100
722
SNUK41 EGRR 111300
AAXX 11134
03005 41470 73023 10038 20015 39928 40029 53015 72782 879//
  333 55300 20171 86915 90710 91147=
03017 47689 /2719 10037 20018 30040 40072 53015 723//
  333 55301 20190 81/41 85/50 90710 91131 91031=
03026 47682 /2517 10035 20001 30094 40112 53019 781//
  333 55303 20248 82/48 90710 91125=
03063 47983 /2306 10032 21022 39845 40126 51015 724//
  333 55302 20218 8//99=
03066 45783 /2513 10040 20001 30108 40114 51017
  333 55307 20459 81/50=
03075 45480 /2613 10041 20012 30040 40085 53014
  333 82/19=
03091 45982 /2915 10051 21019 30026 40106 51017
  333 55310 20585 8//99=
03100 45977 /2716 10066 20020 30134 40150 51021
  333 55310 20718 82/60=
03111 46978 /2518 10057 20028 30154 40166 52018
  333 82/60=
03134 45982 /1202 10048 20020 30080 40153 51015
  333 55310 20699 8//99=
03136 45480 /2415 10059 20022 30130 40163 53015
  333 55301 20315 86/17=
03162 42482 12716 10033 20003 39866 40158 51015 81800
  333 41998 55310 20646 81815=
03166 45983 /2412 10042 20011 30073 40143 51012
  333 55309 20620 8//99=
03171 42589 12717 10050 21018 30116 40129 51019 81500
  333 55310 20683 81625=
03204 42584 12609 10069 20037 30166 40185 52014 81101
  333 55310 20849 81820=
03240 45982 /2915 10060 21010 30110 40138 52015
  333 55310 20735 8//99 90710 91128=
03257 45975 /2610 10060 21001 30122 40163 5/015
  333 55310 20808 8//99=
03292 469// /2814 10065 20008 30136 40154 51017
  333 8//99=
03302 45967 /2908 10072 20025 30181 40195 51010
  333 55310 20903 8//99=
03354 45481 /2908 10055 20013 30039 40184 52012
  333 55305 20619 84/18=
03377 42486 62811 10054 20016 30094 40179 52017 864//
  333 55305 20506 86617=
03414 45980 /2809 10064 20009 30105 40195 51017
  333 55308 20690 8//99=
03462 45583 /2813 10066 20027 30093 40183 52012
  333 55309 20867 81/21=
03482 45777 /2716 10068 20036 30151 40177 51017
  333 81/50=
03502 45977 /2904 10062 20015 30042 40206 52007
  333 55310 20963 8//99=
03535 45581 /2906 10062 20018 30073 40192 51016
  333 553// 20483 84/25=
03590 45983 /2910 10069 20027 30073 40183 51022
  333 55310 20953 8//99=
03649 42582 32808 10075 20010 30099 40200 51013 83100
  333 55310 2//// 83825=
03680 46/// ///// 10063 20029 30040 40198 51018
  333 553// 20780=
03716 45982 /3006 10072 20026 30145 40206 51008
  333 55310 20987 8//99=
03740 464// /2708 10066 20019 30027 40206 51011
  333 55310 2//// 81/19=
03746 42582 12810 10078 20018 30051 40206 51011 81101
  333 81822=
03772 45582 /2908 10085 20029 30169 40200 51015
  333 55308 20883 81/26=
03796 46/// /3012 10087 20023 30048 40191 51022=
03803 45679 /1309 10098 20033 30170 40208 58002
  333 82/31=
03808 42581 31004 10080 20035 30102 40209 50001 83101
  333 55307 20771 83820=
03809 42580 61606 10098 20047 30116 40209 58001 8653/
  333 81626 85628=
03827 45980 /2104 10103 20056 30149 40211 50003
  333 8//99=
03840 45981 /3405 10067 20013 39901 40210 50007
  333 8//99=
03853 45982 /3009 10078 20032 30184 40208 50008
  333 55310 21023 8//99=
03874 46/// /2905 10094 20042 30193 40204 51010=
03882 45973 /3207 10090 20018 30135 40199 51018
  333 55310 21046 8//99=
03894 42484 10107 10088 20055 40221 51010 81801
  333 81818=
03917 45164 /2006 10015 20015 30106 40186 50012
  333 55300 20326 87/02 87/07=
0000009700
723
SAUK63 EGRR 111250 RRA
METAR EGDR 111250Z 16006KT 9999 FEW026 BKN028 10/05 Q1020=
0000410100
724
SAIR78 OIII 111300
METAR AZUH 111300Z 09006KT 2500 HZ SCT025 M06/M10 Q1021=
METAR KHME 111244Z 22004KT 9999 FEW035 09/M08 Q1018=
METAR OIAA 111300Z 30010KT 6000 SCT040 BKN100
13/10 Q1017=
METAR OIAG 111300Z 12010KT 9999 SCT030CB SCT035 13/11 Q1017 RESH=
 METAR OIAH 111300Z 00000KT 4000 RA FEW030CB SCT035 OVC070 09/09
 Q1016=
METAR OIAI 111300Z 09002KT 9999 FEW035CB SCT040 OVC080 11/09 Q1015=
 METAR OIAM 111300Z 11010KT 9999 FEW030CB SCT035 OVC080 12/11
 Q1016=
 METAR OIAW 111300Z 14006KT 3000 -RA FEW020CB SCT030 OVC070 12/12
 Q1016=
 METAR OIBA 111300Z 07008KT 3000 -RA FEW025CB FEW030 OVC080 17/15
 Q1018=
 METAR OIBB 111300Z 12014KT 8000 RA FEW025 FEW030CB SCT035 OVC080
 13/10 Q1016 A3001=
 METAR OIBK 111300Z 10016KT 8000 FEW030CB SCT025 OVC090 16/14
 Q1019=
 METAR OIBL 111300Z 06010KT 4000 BR FEW020CB SCT025 OVC080 14/13
 Q1019=
METAR OIBS 111300Z 20012KT 7000 -RA FEW030CB OVC080 ///// Q1019=
 METAR OICC 111300Z 07004KT 4000 BR FEW030CB SCT035 OVC070 00/M00
 Q1018 A3008 TEMPO SN=
 METAR OICI 111300Z 00000KT 8000 FEW015 FEW025CB SCT035 BKN090
 05/05 Q1016 A3002=
 METAR OICJ 111250Z 00000KT 2000 SN FEW030CB SCT035 OVC070 01/M01
 Q1017=
 METAR OICK 111300Z 14004KT 7000 -TSRA FEW010 FEW030CB BKN035
 OVC070 05/04 Q1017=
METAR OICS 111300Z 6002KT 7000 SCT035 BKN080 01/M04 Q1018=
METAR OIFK 111300Z 00000KT 2000 BR BKN020 OVC070 01/00 Q1022=
 METAR OIFM 111300Z 30008KT 0900 -SN BR SCT035 OVC090 01/M01 Q1018
 A3007=
 METAR OIFS 111300Z 00000KT 1000 -SN BR FEW025CB SCT030 OVC070
 M03/M04 Q1018=
METAR OIGG 111300Z 27004KT 3000 BR SCT025 BKN090 09/07
Q1013=
METAR OIGK 111250Z 00000KT 9999 SCT020 OVC080 M01/M06 Q1016=
 METAR OIHH 111300Z 00000KT 2000 BR FEW030CB BKN035 OVC090 M04/M07
 Q1018=
METAR OIHM 111300Z 00000KT 1000 BR SCT035 OVC090 00/M01 Q1017=
 METAR OIIE 111300Z 18004KT 7000 SCT025 FEW035CB SCT045 OVC080
 02/M01 Q1019 A3011 NOSIG=
 METAR OIII 111300Z 26008KT 1000 BR SCT030 OVC090 01/M02 Q1018
 A3008 TEMPO 0500 BR FEW035CB SCT030 BKN100 TEMPO 0500 BR FEW035CB SCT030 BKN100=
METAR OIIK 111300Z 00000KT 8000 SCT040 BKN090 01/M03 Q1019=
METAR OIIS 111300Z 09002KT 9999 SCT030 BKN090 04/M02 Q1018=
 METAR OIKB 111300Z 32006KT 7000 -RA FEW025CB SCT030 OVC090 14/10
 Q1021 A3015 NOSIG=
METAR OIKK 111250Z 00000KT 9999 SCT035 BKN100 03/M04 Q1019 A3011=
 METAR OIKO 111250Z 00000KT 6000 -SHRA FEW015 SCT025CB OVC070 16/10
 Q1021=
 METAR OIKQ 111300Z 26008KT 8000 -RA FEW025CB SCT030 BKN090 13/08
 Q1020=
METAR OIMB 111300Z 09012KT 9999 SCT040 BKN090 04/M14 Q1019=
METAR OIMC 111250Z 15012KT 9999 SCT040 SCT180 14/M06 Q1017=
METAR OIMD 111250Z 09006KT 9999 FEW035 BKN100 06/M05 Q1015=
METAR OIMM 111300Z 19004KT CAVOK 08/M12 Q1017 A3004=
METAR OIMN 111300Z 15010KT CAVOK 07/M09 Q1016 A3002=
METAR OINB 111300Z 06004KT 9999 SCT022 BKN100 10/08 Q1013=
METAR OING 111300Z 29004KT 6000 SCT030 BKN090 10/07 Q1016=
METAR OINN 111300Z 14004KT CAVOK 11/10 Q1014=
METAR OINR 111300Z 15004KT 8000 FEW045 OVC170 11/07 Q1013=
 METAR OISA 111250Z 27006KT 8000 -SHRA FEW035CB SCT040 OVC090 02/00
 Q1017=
METAR OISF 111250Z 00000KT 8000 FEW035CB SCT040 OVC100 06/02 Q1018=
 METAR OISL 111300Z 00000KT 9999 FEW020 FEW030CB OVC080 09/05
 Q1020=
 METAR OISS 111300Z 14006KT 1200 RA BR FEW030CB SCT035 OVC070 04/03
 Q1019 A3010=
 METAR OISY 111300Z 00000KT 0900 -RA FEW030CB SCT035 OVC080 01/00
 Q1019=
 METAR OITR 111300Z 08004KT 2000 HZ FEW035 SCT170 M04/M08 Q1019
 NOSIG=
 METAR OITT 111300Z 29004KT 5000 HZ FEW035 SCT190 M02/M10 Q1019
 A3012=
METAR OITU 111250Z 00000KT 6000 NSC M09/M13 Q1019=
 METAR OIYY 111300Z 33006KT 6000 FEW030CB FEW035 BKN100 07/M02
 Q1019=
METAR OIZB 111300Z 25004KT 9999 FEW035 BKN090 09/M02 Q1023=
METAR OIZC NIL=
 METAR OIZH 111300Z 12014KT 9999 FEW035 BKN090 05/M07 Q1018 A3009
 NOSIG=
METAR OIZI 111300Z 32004KT 9999 FEW020 OVC090 16/M06 Q1019=
 METAR OIZJ 111250Z 00000KT 8000 FEW025CB SCT030 BKN090 19/05
 Q1019=
METAR YAYT 111250Z 00000KT 9999 SCT035 BKN100 09/M04 Q1020=
0000008900
725
SAIQ01 ORBI 111300
METAR ORBM 111300Z 00000KT 7000 NSC 12/06 Q1019 NOSIG=
0000031900
726
USHK01 VHHH 111200
TTAA 11121 45004
99015 15633 09002 00190 15241 09503 92849 15444 13509 85562
11660 14001 70152 05278 27508 50584 07191 26524 40756 13592
26027 30968 30978 25027 25094 41772 24524 20241 53766 24529
15420 68163 23033 10655 79761 24018
88103 80361 25020
77151 23033 40611=

0000067500
727
UKHK01 VHHH 111200
TTBB 11128 45004
00015 15633 11013 16057 22962 12840 33924 15444 44913 14640
55903 14859 66875 14063 77789 06033 88725 01460 99713 04277
11702 05278 22657 04687 33526 05789 44427 10991 55349 21384
66266 38972 77258 39574 88184 58561 99153 67563 11103 80361
22100 79761
21212 00015 09002 11952 09505 22929 13009 33904 12506 44827
13001 55726 26002 66701 27508 77676 28013 88660 27012 99634
29013 11565 26017 22490 26525 33465 25028 44333 26027 55255
24524 66224 23528 77171 24532 88151 23033 99126 25024 11116
23025 22109 26024 33100 24018
31313 48108 81118
41414 /////
51515 11902 13005 22800 18503 33600 28515=

0000045200
728
SATH40 VTBB 111300
METAR VTCH 111300Z NIL=
METAR VTCP 111300Z NIL=
METAR VTPH 111300Z NIL=
METAR VTPN 111300Z NIL=
METAR VTPP 111300Z NIL=
METAR  VTSF   111300Z   00000KT  9999  FEW018  BKN300  25/24  Q1014 
A2994=
METAR VTSM 111300Z 00000KT 8000 FEW020 SCT120 BKN300 27/24 Q1014
A2996=
METAR VTUK 111300Z 05006KT CAVOK 25/16 Q1016 A3002=
METAR VTUL 111300Z NIL=
METAR VTBS 111300Z 33005KT CAVOK 28/16 Q1014 NOSIG=
0000036500
729
UDAC02 EGRR 111307
AMDAR 1113
ASC EU5478   6800N 01610E 111300 F195 MS373 072/043 TB/ S031=
ASC EU5478   6757N 01606E 111300 F213 MS401 071/039 TB/ S031=
ASC EU5478   6753N 01602E 111301 F231 MS446 073/035 TB/ S031=
ASC EU5478   6750N 01558E 111301 F249 MS473 071/032 TB/ S031=
ASC EU5478   6749N 01558E 111301 F250 MS473 073/032 TB/ S031=
0000017700
730
ULHK01 VHHH 111200
TTCC 11121 45004
70859 76963 22511 50059 66979 25506 30374 61181 10013 20631
54183 07517 10081 46985 09537
88999
77098 09537 41006=

0000065900
731
UEHK01 VHHH 111200
TTDD 1112/ 45004
11733 78362 22565 67574 33326 58981 44300 61181 55161 51583
66142 53383 77082 43586
21212 11967 25515 22944 25012 33937 24011 44914 21512 55883
22515 66852 24014 77822 23514 88759 27511 99728 24507 11710
22509 22674 23011 33654 20513 44618 22018 55544 27012 66528
26009 77513 27507 88506 26506 99486 23009 11464 23009 22452
24010 33441 25006 44435 26503 55415 32005 66375 08502 77360
13505 88353 14006 99302 10013 11272 14006 22265 12503 33256
10006 44212 06013 55197 08017 66187 07017 77181 07519 88175
09018 99160 08516 11153 06516 22142 07526 33127 09527 44098
09537 55082 10031=

0000216500
732
SZNZ01 NZKL 111306
CREX++
T000103 A001 D01021 D06025++
-3683144 17478654 AUCT  2014 01 11 12 58 //// 11 07 00 01
05026 3224 05035 3224 05043 3224 05051 3223 05059 3222 05067 3222+
-4402404 -17636748 CHIT  2014 01 11 12 58 //// 11 07 00 01
05377 2108 05381 2111 05377 2106 05378 2106 05382 2108 05364 2090+
-4089929 17623168 CPIT  2014 01 11 12 58 //// 11 07 00 01
04371 2261 04381 2268 04392 2276 04391 2272 04396 2274 04403 2279+
-3618905 17548887 GBIT  2014 01 11 12 58 //// 11 07 00 01
05813 0013 05826 0020 05838 0027 05845 0028 05844 0021 05828 0000+
-3867541 17802288 GIST  2014 01 11 12 58 //// 11 07 00 01
04327 2732 04325 2726 04327 2725 04327 2721 04324 2713 04322 2707+
-4241288 17370277 KAIT  2014 01 11 12 58 //// 11 07 00 01
03946 2240 03943 2234 03936 2226 03936 2223 03941 2227 03944 2228+
-3755040 17815904 LOTT  2014 01 11 12 58 //// 11 07 00 01
03616 0211 03614 0204 03631 0216 03615 0196 03632 0207 03628 0199+
-3704657 17451175 MNKT  2014 01 11 12 58 //// 11 07 00 01
01759 -0146 01750 -0155 01753 -0152 01759 -0147 01767 -0139 01768 -0140+
-3947566 17692007 NAPT  2014 01 11 12 58 //// 11 07 00 01
03444 2011 03446 2009 03453 2013 03454 2011 03473 2026 03456 2006+
-3441483 17304870 NCPT  2014 01 11 12 58 //// 11 07 00 01
-04535 -8612 -04524 -8607 -04442 -8531 -04475 -8569 -04470 -8570 -04341 -8446+
-4581435 17062939 OTAT  2014 01 11 12 58 //// 11 07 00 01
05405 3503 05406 3504 05405 3505 05404 3505 05403 3504 05401 3504+
-2928002 -17789440 RBCT  2014 01 11 12 58 //// 11 07 00 01
05955 1965 05953 1959 05941 1943 05964 1963 05973 1968 05978 1969+
-2925114 -17790384 RFRT  2014 01 11 12 58 //// 11 07 00 01
02899 0153 02885 0135 02925 0171 02921 0163 02915 0154 02918 0153+
-4357010 17277383 SUMT  2014 01 11 12 58 //// 11 07 00 01
02742 1817 02751 1823 02737 1808 02747 1816 02737 1804 02738 1804+
-3764109 17618118 TAUT  2014 01 11 12 58 //// 11 07 00 01
05084 4029 05090 4030 05093 4027 05098 4027 05103 4026 05107 4025+
-4128448 17477985 WLGT  2014 01 11 12 58 //// 11 07 00 01
03623 2015 03640 2030 03636 2026 03638 2026 03635 2021 03641 2026++
7777
0000015100
733
UPHK01 VHHH 111200
PPAA 11128 45004
44385 14001 27508 26524 44340 26027 25027 24524 44320 24529
23033 24018
77151 23033 40611=

0000011900
734
UHHK01 VHHH 111200
PPCC 11128 45004
44370 22511 25506 10013 44220 07517 09537
77098 09537 41006=

0000013800
735
SNVD22 KWNB 111300 RRI
BBXX
46237 11131 99378 71226 46/// ///// 1//// 91301 22200 00109 11505
21002 328// 41505 70025=
0000034600
736
UECN01 CWAO 111200
TTDD  6112/ 71802 11924 59778 22792 62977 33601 61778 44482
57180 55439 52382 66413 54581 77369 48983 88313 46584 99279
43186 11236 46384 22223 42786 33205 45185 44189 39987 55170
42985 66156 40787 77149 34189 88141 32989 99124 37988 11115
38787 22103 33389 33084 31390 44075 30390 51515 10190 07337=

0000013500
737
SNVD02 CWAO 111300
BBXX
SHIP 11134 99474 70619 46/// /2303 11032 21033 40231 56001 7//// 8//// 22200 0//// 2//// =

0000020500
738
FTIN90 VANP 111200
TAF VABP 111200Z 1115/1221 02010 1000 MIFG FEW100 BEC 1200/1202 05010 0200 FG BEC 1206/1208 05010 0800 FG FEW025 SCT100 BEC 1208/1210 32010 2500
HZ FEW025 SCT100=


0000013500
739
SNVD02 CWAO 111300
BBXX
SHIP 11134 99494 70561 46/// /2601 11038 21086 40191 51033 7//// 8//// 22252 00028 2//// =

0000013500
740
SNVD02 CWAO 111300
BBXX
SHIP 11134 99489 71235 46/// /1812 10081 20055 49917 53008 7//// 8//// 22200 0//// 2//// =

0000013500
741
SNVD02 CWAO 111300
BBXX
SHIP 11134 99487 71235 46/// /1605 10078 20066 49928 53006 7//// 8//// 22200 0//// 2//// =

00000000