0000092800
762
UEUS05 KWBC 111200 RRB
TTDD 6112/ 72493 11878 68370 22811 70369 33734 67171 44632 66571
55582 62375 66512 64775 77482 63776 88471 61778 99390 61980 11346
57582 22293 60381 33266 58781 44231 60381 55216 58781 66203 60781
77189 58181 88181 54383 99137 61181 11124 58581 22106 63180 33101
62580 44093 55782 55089 56382 66084 52583 31313 58208 81100=
TTDD 6112/ 72649 11801 61581 22706 60981 33575 65579 44488 65379
55410 69978 66350 68779 77294 69978 88252 65180 99184 69978 11142
75775 22133 72977 33116 73577 44100 66379 55095 68579 66084 65979
31313 58208 81123=
TTDD 6112/ 72712 11892 66770 22785 69570 33522 64974 44454 67374
55293 60978 66264 58779 77247 54781 88201 50583 99194 51781 11185
48383 22177 48583 33164 41386 44155 44584 55147 43185 66140 44384
77132 41186 88129 42185 99126 39587 11123 39387 22121 37588 33118
38387 44106 35188 55101 38187 66090 38987 31313 45208 81106=
0000013500
763
SNVD02 CWAO 111300
BBXX
SHIP 11134 99463 70725 46/// /0407 11018 21030 40088 58077 7//// 8//// 22200 0//// 2//// =

0000013500
764
SNVD02 CWAO 111300
BBXX
SHIP 11134 99493 71231 46/// /2009 10085 20063 49914 57006 7//// 8//// 22282 0//// 2//// =

0000013500
765
SNVD02 CWAO 111300
BBXX
SHIP 11134 99471 70707 46/// /0320 11028 21042 40138 58039 7//// 8//// 22213 00010 2//// =

0000013500
766
SNVD02 CWAO 111300
BBXX
SHIP 11134 99462 70602 46/// /2517 10009 20001 40220 53208 7//// 8//// 22253 0//// 2//// =

0000013500
767
SNVD02 CWAO 111300
BBXX
SHIP 11134 99513 70569 46/// /3109 11057 21101 40171 51014 7//// 8//// 22200 0//// 2//// =

0000051800
768
SNVD22 KWNB 111300 RRJ
BBXX
46229 11131 99438 71246 46/// ///// 1//// 91249 22200 00093 10809
20808 329// 41405 70045=
46213 11131 99403 71247 46/// ///// 1//// 91254 22200 00120 11407
21003 330// 41406 70033=
46231 11131 99327 71174 46/// ///// 1//// 91244 22200 00154 11403
21002 328// 41402 70014=
46218 11131 99345 71208 46/// ///// 1//// 91259 22200 00133 11305
21003 330// 41304 70026=
46224 11131 99332 71175 46/// ///// 1//// 91242 22200 00154 11301
20801 326// 41301 70006=
0000028300
769
SXHW11 KWAL 111305
B15047DC 011130533"
1,140111,12:00:00,1.0,2,1.0,16.0,1018.1,45.88,13.0,
1,140111,12:15:00,1.0,2,1.0,15.8,1017.9,45.88,13.0,
1,140111,12:30:00,1.0,2,1.0,16.1,1017.8,45.88,13.0,
1,140111,12:45:00,1.0,2,1.0,16.1,1017.8,45.88,13.0, 43+0NN 210W
0000027200
770
UEUS05 KWBC 111200 CCA
TTDD 6112/ 72776 11947 63975 22852 62376 33794 59178 44628 64976
55573 61378 66505 65776 77476 65976 88430 63377 99390 63777 11356
60179 22271 68576 33245 67975 44212 72374 55200 72973 66186 69174
77178 69374 31313 45208 81132=
0000096600
771
ULUS06 KWBC 111200 RRB
TTCC 61121 72274 70847 68571 27522 50048 66972 34504 30361 65575
06007 20615 55579 03014 10051 61776 28542 88956 67771 32034 77999
31313 45208 81101=
TTCC 61121 72293 70848 69372 29512 50050 65375 02509 30365 609//
35016 20619 573// 35523 10055 611// 34529 88999 77077 35062 418//
31313 45208 81100=
TTCC 61121 72558 70825 587// 29048 50033 641// 29051 30341 659//
30044 20588 681// 29060 10004 687// 25606 88825 623// 27559 66084
25111 414// 31313 58208 81122=
TTCC 61121 72597 70838 60778 25042 50047 59580 32027 30366 59381
32048 20622 59781 33047 10048 62980 35105 88999 66094 35609 438//
31313 45208 81102=
TTCC 61121 72672 70830 60773 29034 50036 63974 30040 30348 68774
30034 20592 69375 31072 10003 68577 28578 88999 77131 30095 42623
31313 58208 81111=
TTCC 61122 72681 70831 57572 30545 50040 63572 29531 30358 63374
31036 20604 65773 32068 88999 77160 32590 41513 31313 58208
81107=
0000239200
772
UEUS06 KWBC 111200 RRB
TTDD 6112/ 72274 11956 67771 22768 67171 33646 71170 44619 68371
55559 69171 66428 63975 77374 64775 88366 61576 99341 62976 11334
61377 22306 65775 33288 66774 44260 62376 55248 57378 66213 53580
77199 55779 88189 54379 99168 57578 11140 57378 22133 59577 33127
58778 44113 61776 55107 60777 66102 63176 77098 60577 88093 61377
99090 56579 11084 58178 31313 45208 81101=
TTDD 6112/ 72293 11855 69371 22780 67172 33716 70172 44647 68972
55592 70372 66574 69972 77556 67373 88544 67773 99532 65774 11493
64376 22464 66575 33462 66375 44450 645// 55428 651// 66411 619//
77368 607// 88348 619// 99304 605// 11264 635// 22262 631// 33257
593// 44238 563// 55211 563// 66188 589// 77176 561// 88163 581//
99153 565// 11140 593// 22122 579// 33116 601// 44113 589// 55101
615// 66093 557// 77091 557// 88084 471// 99075 40787 31313 45208
81100=
TTDD 6112/ 72558 11825 623// 22701 587// 33598 625// 44582 611//
55512 633// 66461 677// 77400 663// 88352 689// 99311 659// 11265
665// 22229 639// 33204 677// 44179 695// 55168 683// 66151 701//
77134 665// 88123 693// 99109 655// 11102 689// 22091 701// 33084
625// 31313 58208 81122=
TTDD 6112/ 72597 11948 60778 22820 66575 33793 65774 44767 61776
55738 59978 66674 61579 77663 59579 88600 63178 99583 61379 11546
61179 22511 59181 33478 61380 44385 60980 55360 57182 66304 60181
77285 55382 88271 56782 99255 55382 11237 57982 22189 60981 33176
59181 44156 62580 55141 62180 66110 68977 77106 66179 88101 65179
99099 61980 11094 59381 31313 45208 81102=
TTDD 6112/ 72672 11990 59768 22934 60968 33915 59169 44871 61569
55804 61570 66768 59972 77754 57773 88549 68171 99524 67172 11510
63574 22486 64574 33458 61176 44428 62975 55406 61376 66371 62976
77322 68374 88317 67175 99299 68774 11282 64977 22231 69974 33209
68975 44170 72173 55160 70974 66145 72973 77141 70175 88128 68576
99105 70975 11097 66578 22091 67777 33086 66178 44077 70375 31313
58208 81111=
TTDD 6112/ 72681 11973 65369 22784 66568 33773 63770 44751 62170
55723 57572 66696 57572 77605 62572 88588 60573 99570 61772 11563
58774 22510 63172 33469 63972 44459 63573 55452 60174 66445 59375
77388 57775 88347 60774 99340 59775 11319 61174 22261 67971 33241
65173 44215 66772 55206 65373 66177 65773 77151 67971 88138 66373
99133 67372 11121 63575 31313 58208 81107=
0000053400
773
ULUS07 KWBC 111200 RRB
TTCC 61121 72768 70813 63380 29060 50018 68179 29566 30328 61980
29076 20572 72977 29570 10970 77576 31115 07185 60981 30083 88999
77097 31621 42340 31313 58208 81102=
TTCC 61121 74455 70823 625// 28049 50029 663// 28052 30337 677//
27552 20580 693// 28073 10002 603// 23623 88999 66085 23654 429//
31313 58208 81104=
TTCC 61121 74494 70820 69759 27076 50022 66161 28063 30334 56980
25571 20595 44586 24071 10062 39187 22120 88738 69959 27564 77101
22120 40711 31313 58708 81112=
0000098000
774
UEUS07 KWBC 111200 RRB
TTDD 6112/ 72768 11814 60981 22624 65379 33550 64180 44484 68779
55454 68179 66421 65379 77369 67179 88302 61780 99268 63780 11198
73577 22173 75177 33136 80975 44127 77176 55100 77576 66095 73577
77093 69178 88087 69178 99075 61381 11066 60381 31313 58208
81102=
TTDD 6112/ 74455 11930 571// 22744 623// 33673 617// 44531 671//
55483 661// 66410 683// 77326 665// 88286 693// 99233 665// 11196
695// 22168 669// 33141 673// 44134 647// 55124 651// 66120 631//
77118 605// 88106 621// 99102 595// 11092 627// 22091 605// 33085
573// 31313 58208 81104=
TTDD 6112/ 74494 11738 69959 22653 68560 33589 70160 44522 65561
55487 67361 66421 65562 77394 67363 88365 67164 99328 59369 11307
56577 22272 55782 33252 56982 44239 55582 55222 52383 66214 48184
77200 44586 88158 46785 99155 44386 11143 40987 22126 43386 33119
40587 44110 42386 55108 39187 66104 37588 77094 40187 88092 38387
99085 38387 31313 58708 81112=
0000016800
775
ULCN02 CWAO 111200
TTCC  61121 71811 70780 69171 27581 50982 67574 27583 30293
62778 25095 20549 53582 24123 10015 32389 22708 88999 77098
22710=

0000016000
776
UQCN02 CWAO 111200
PPDD  61128 71811 9626/ 27072 27091 97027 26586 25582 25616
979// 25103 988// 24163 9909/ 24669 22710 1007/ 23206 23694=

0000028100
777
SXHW11 KWAL 111305
B15054AA 011130543"
1,140111,12:00:00,6.2,47,8.8,22.9,1013.0,0.00,13.0,
1,140111,12:15:00,0.5,2,5.6,22.6,1012.9,0.00,13.0,
1,140111,12:30:00,1.2,98,2.7,22.1,1012.8,0.00,13.0,
1,140111,12:45:00,1.3,7,2.5,21.5,1012.9,0.00,13.0, 44-0NN 210W
0000023300
778
SNVD22 KWNB 111300 RRK
BBXX
46214 11131 99379 71235 46/// ///// 1//// 91256 22200 00113 11407
21003 331// 41406 70034=
46221 11131 99339 71186 46/// ///// 1//// 91255 22200 00156 11402
20901 327// 41402 70011=
0000317800
779
SMIN90 VANP 111200 RRC
AAXX 11124
42679 32591 73201 10158 20137 40184 74445 87500
  333 10181 58045=
42771 32795 22301 10180 20164 40139 82020
  333 10220 58017=
42874 32596 42702 10254 20167 40127 82530
  333 10268 58014 82625 83360=
42948 31596 40000 10123 20204 40142 70500 82530
  333 10240 59002=
42876 32996 21802 10256 20142 4//// 80001
  333 10288 58///=
42779 21596 83605 10196 20174 39438 40141 76262 8552/
  333 10245 58002 6002/ 85620 88458=
42693 31595 50000 10206 20158 39451 40137 70544 82530
  333 10240 58007 82620 85360=
42783 32996 00000 10246 20182 40145
  333 10292 58008=
43041 32596 42302 10260 20152 39510 40121 82530
  333 10299 58001 82625 84360=
42872 31995 53202 10250 20180 40128 70522 81130
  333 10278 58008 81825 84360=
42782 31995 40000 10238 20177 4//// 70500 80001
  333 10288 58/// 84075=
42459 32995 00502 10180 20136 40122
  333 10220 58006=
42456 32896 30901 10174 20065 40207 80003
  333 10194 58053=
42661 32596 60902 10152 20113 39610 40164 81532
  333 10156 58042=
42763 32596 61403 10186 20159 39811 40161 83530
  333 10196 58051=
42767 32896 82301 10134 20127 38961 48470 88060
  333 10228 59009=
42860 32996 83201 10162 20138 39399 40140 86068
  333 10225 58033=
42361 31994 20000 10170 20098 40175 71000 80001
  333 10204 58033 82075=
42562 32996 00202 10162 20122 40145
  333 10180 58042=
42567 31594 40202 10174 20150 40169 71000 83430
  333 10186 58044=
42754 31595 20511 10156 20114 39511 40162 70522 82500
  333 10179 58042 82620=
42559 32996 63601 10174 20076 40165 82030
  333 10192 58048 82360 86075=
42665 32996 00502 10163 20130 40163
  333 10175 58048=
42557 32996 03603 10190 20087 40166
  333 10200 58049=
42662 32995 40503 10166 20119 40156 80002
  333 10180 58036=
42571 31594 43202 10160 20131 40158 71044 82530
  333 10165 58031=
42574 21595 80000 10150 20150 4//// 70500 8553/
  333 10170 5//// 6002/=
42577 22596 80000 10162 20152 40153 8553/
  333 10192 58020 6001/=
42671 31996 20501 10158 20108 39541 40175 70500 82030
  333 10205 58058=
42674 31996 03601 10178 20136 40148 70500
  333 10208 58048=
42672 32997 01401 10192 20124 40154
  333 10224 58004=
42467 32995 63202 10174 20139 40142 84220
  333 10195 58008=
42675 31494 80000 10164 20139 40166 71044 886//
  333 10168 58044 88710=
42667 31994 00505 10170 20118 39568 40168 70500
  333 10196 58049=
42855 32996 0//// 10200 20126 4////
  333 10251 5////=
42871 32997 33202 10240 20180 4//// 83030
  333 10253 58///=
42946 32696 40000 10264 20200 40122 81130
  333 10285 58007=
43029 32996 01603 10286 20182 40126
  333 10290 58012=
42931 32997 01403 10224 20083 40128
  333 10250 58020=
42939 32996 10000 10282 20203 40121 80001
  333 10292 58016=
42937 32996 02902 10266 20209 40115
  333 10272 58014=
42935 32996 02302 10264 20121 39500 40130
  333 10284 58031=
42943 32996 01802 10270 20098 40106
  333 10290 59012=
42867 31996 22702 10260 20143 40121 70500 80001
  333 10281 58013 82075=
42933 32997 53202 10256 20086 40125 80008
  333 10286 58026 85270=
0000049800
780
ULUS08 KWBC 111200 RRB
TTCC 61121 72248 70844 67176 23030 50048 67577 31022 30356 65180
28524 20608 57982 27533 10052 50984 24579 88813 70575 25059 77126
25564 42102 31313 58208 81101=
TTCC 61122 72249 70843 67175 26033 50046 65976 30508 30356 62780
31018 20608 58781 28528 88999 77120 26073 432// 31313 58208
81104=
TTCC 61121 72261 70848 70373 30026 50049 67975 10001 30359 63180
31506 20611 56582 29521 10057 53183 25549 88858 70174 27039 77999
31313 58208 81120=
0000130000
781
UEUS08 KWBC 111200 RRB
TTDD 6112/ 72248 11813 70575 22797 70375 33786 67777 44775 67377
55717 66776 66663 68575 77615 64978 88573 66377 99558 64978 11532
67177 22464 68377 33445 68377 44416 65579 55354 68577 66328 66579
77314 66978 88253 59581 99213 61581 11203 57982 22191 56182 33171
55582 44158 56982 55146 53383 66124 52183 77114 54783 88110 52983
99104 53183 11100 50784 22076 47984 33071 44785 31313 58208
81101=
TTDD 6112/ 72249 11910 64977 22875 65776 33859 63577 44755 68574
55684 65975 66666 66775 77656 64576 88571 66976 99549 68974 11528
67975 22518 65976 33449 66776 44412 63578 55369 67176 66320 67576
77311 67177 88302 62780 99268 62180 11263 60381 22247 62580 33210
58581 44200 58781 55192 56782 66179 57782 77150 55182 88132 57382
99126 55782 11117 55982 22111 52983 31313 58208 81104=
TTDD 6112/ 72261 11917 66976 22858 70174 33816 69575 44778 71373
55720 69174 66668 69773 77605 73172 88579 69574 99542 66775 11490
68375 22476 66177 33433 64979 44368 67778 55321 63780 66299 63180
77289 64180 88279 61581 99260 62780 11250 60381 22238 62180 33229
58581 44221 59181 55199 56382 66194 53783 77184 52983 88165 56582
99154 52783 11140 54183 22131 51983 33117 54183 44113 52783 55104
52383 66093 54783 77082 51184 31313 58208 81120=
00000000