0000123600
969
SMRA12 RUHB 111200
AAXX 11121
30499 11999 50102 11288 21350 39633 40366 52011 60002 70231 80005 333
11274 91110=
30683 129// 63503 11270 21334 39646 40366 52008 69902 81041 333
11239=
30695 12999 23204 11270 21344 39961 40335 51006 60002 80001 333
11227=
31253 12999 80000 11296 21326 39764 40274 52006 60002 8801/ 333
11285=
31295 12999 53204 11270 21344 39799 40303 52002 60002 80001 333
11242=
31348 NIL=
31418 41998 80000 11301 21333 39905 40188 52005 70272 80006=
31439 41999 61702 11242 21274 30090 40138 52003 70272 84041=
31442 11997 03103 11275 21321 39882 40273 58003 69902 70271 333
11263=
31445 12984 42804 11284 21322 39991 40273 58002 60002 80001 333
11254=
31474 NIL=
31521 12981 80000 11333 21356 39952 40282 58001 60002 80007 333
11280=
31527 12998 02701 11318 21362 39932 40274 51004 60002 333 11273=
31534 41998 80000 11316 21339 39877 40265 58006 77072 83017=
31587 12998 03003 11305 21336 30129 40294 52008 60002 333 11255=
31632 NIL=
31702 42998 00000 11367 21405 39898 40283 50001=
31713 42999 02901 11263 21348 30114 40227 50001=
31725 42998 02804 11262 21341 30139 40209 58003=
31801 NIL=
31832 42967 00801 11259 21288 30151 40246 54001=
0000306400
970
SMRA13 RUHB 111200
AAXX 11121
30455 129// 21201 11359 21388 38973 48470 52017 60002 82030 333
11325=
30669 12999 02201 11290 21352 39454 40429 52017 60002 333 11210=
30731 129// 20901 11185 21236 39737 40397 58001 60002 80001 333
11128=
30739 129// 00000 11287 21312 39520 40440 52007 60002 333 11178=
30741 129// 83002 11218 21230 38756 48549 52014 60002 80007 333
11190=
30745 129// 30000 11324 21348 39159 40468 52001 60002 80001 333
11269=
30764 129// 00000 11356 21390 39550 40472 51009 60002 333 11222=
30829 12984 30000 11236 21269 39669 40429 54000 60002 82041 333
11163=
30838 12998 20000 11212 21224 39352 40421 52007 60002 80002 333
11145=
30846 11997 00000 11279 21317 39436 40456 52008 69902 70400 333
11176=
30859 12999 00000 11315 21352 39497 40450 54000 60002 333 11212=
30862 12984 01501 11288 21371 39604 40434 52005 60002 333 11230=
30957 129// 00000 11271 21288 39449 40450 52017 69902 333 11144=
30975 12898 23405 11288 21334 39685 40413 52022 60002 82030 333
11224=
24076 42398 80703 11234 21259 39925 40318 54000 886// 333 88708=
24194 41997 80000 11223 21234 30259 40317 52003 77177 8802/=
24219 12999 20000 11445 21464 39963 40320 57008 60002 82030 333
11445=
24261 41998 72101 11362 21384 39640 40343 52003 70272 83031=
24263 41698 82601 11410 21431 30038 40359 52002 77172 86507 333
86640=
24322 12997 01903 11309 21326 39613 40313 58009 60002 333 11309=
24338 12999 01801 11450 21472 39895 40356 53006 60002 333 11421=
24361 NIL=
24371 42999 00000 11471 21490 39956 40376 58004 80002 24449 11299
30000 11495 21516 30267 40283 58995 69992 89991 333 11473=
24449 NIL=
24462 12899 80000 11298 21328 39262 40319 57004 60002 8801/ 333
11298=
24477 NIL=
24525 12998 00000 11492 21512 30012 40402 58003 60002 333 11475=
24538 12998 00000 11489 21516 30160 40378 58007 60002 333 11464=
24557 12999 00000 11489 21518 30253 40387 58006 60002 333 11473=
24585 42998 00000 11441 21469 39587 40355 52008=
24588 42999 00000 11443 21459 39489 40357 52009=
24643 NIL=
24644 12998 01601 11431 21455 30217 40393 58005 60002 333 11425=
24668 12999 00000 11482 21506 30251 40393 52003 60002 111 11458=
24679 42998 50000 11286 21304 38585 48365 52008 80005=
24684 41998 00000 11435 21451 39240 40361 52011 70271=
24691 42999 80000 11419 21432 39198 40342 52003 80006=
24725 12999 00000 11392 21431 30009 40395 57012 60002 333 11392=
24726 12999 32102 11431 21475 39875 40411 58005 60002 80001 333
11388=
24737 11996 00000 11473 21494 30200 40417 58004 60002 71000 333
11454=
24739 12999 01801 11422 21444 39943 40405 53007 60002 333 11420=
24753 11993 00000 11451 21476 30256 40395 58001 60002 74640 333
11433=
24758 12998 00000 11471 21501 30056 40413 53003 60002 333 11420=
24763 42999 40000 11462 21486 30225 40402 52006 80001=
24771 42997 00601 11478 21506 39965 40410 52009=
24826 12999 42402 11376 21412 39897 40417 58011 60002 80009 333
11376=
24843 12998 00000 11468 21490 30110 40418 58002 60002 333 11411=
0000057000
971
SMRA18 RUHB 111200
AAXX 11121
31825 42/// /0000 11262 21319 39961 40190 57005=
31845 12998 02601 11226 21244 30062 40240 57003=
31878 41962 82401 11175 21217 30109 40242 57016 70422 80007=
31915 42998 22302 11163 21218 39946 40238 57016 80005=
31921 42598 60000 11143 21192 30129 40233 58017 85901=
31969 82998 22502 11088 21161 30182 40233 57014 80002=
31981 42999 82301 11169 21222 39993 40245 58015 80005=
31987 42999 00000 11117 21213 39969 40242 58012=
32069 41598 61103 11221 21247 30131 40137 52001 70283 86900 333 91004
91105=
0000619400
972
SSVX11 LFVW 111233
ZZYY 52080 11014 1200/ 102040 138166 6111/
33311 88872 20125 32551 43526 20150 32389 43520 20200 31709 43490
20250 31071 43450 20500 30859 43460
444 20110 11014 1219/ 522//=
ZZYY 52080 11014 1000/ 102043 138170 6113/
33311 88872 20125 32520 43523 20150 32254 43508 20200 31632 43471
20250 31029 43451 20500 30847 43460
444 20130 11014 0945/ 522//=
ZZYY 52080 11014 0800/ 102044 138169 6113/
22219 00297
33311 88872 20000 32968 20002 32968 43405 20025 33038 43456
20050 32853 43471 20075 32776 43509 20100 32584 43497
20125 32475 43515 20150 32243 43508 20200 31666 43483
20250 31105 43450 20300 30996 43472 20500 30851 43461
20750 30613 43453
444 20130 11014 0804/ 522//=
ZZYY 52080 11014 0400/ 102044 138170 6113/
22219 00297
33311 88872 20000 32966 20002 32966 43405 20025 32969 43405
20050 32890 43449 20075 32800 43487 20100 32650 43475
20125 32553 43504 20150 32437 43517 20200 31795 43491
20250 31250 43458 20300 31014 43468 20500 30865 43462
20750 30619 43453
444 20130 11014 0436/ 522//=
ZZYY 52080 11014 0200/ 102042 138168 6113/
22219 00296
33311 88872 20000 32964 20002 32964 43404 20025 32967 43405
20050 32894 43448 20075 32786 43473 20100 32772 43503
20125 32538 43465 20150 32512 43520 20200 31821 43481
20250 31149 43451 20300 30992 43468 20500 30857 43461
20750 30615 43453
444 20130 11014 0121/ 522//=
ZZYY 52079 11014 09004 100058 147019 6112/
11119 02608 10257 40071
22219 00299
33311 88872 20000 32987 20002 32987 43389 20025 32978 43398
20050 32964 43431 20075 32956 20100 32619 43524 20125 32338 43539
20150 32227 43535 20200 31859 43538 20250 31467 43508
20300 31146 43482 20500 30854 43462 20750 30616 43453
444 20120 11014 0833/ 522// 60381=
ZZYY 52079 11014 11004 100057 147020 6113/
11119 03108 10275 40080
22219 00298
33311 88872 20000 32983 20125 32383 43520 20150 32233 43535
20200 31849 43542 20250 31461 43508 20500 30856 43462
444 20130 11014 1041/ 522// 60381=
ZZYY 52085 11014 01004 100014 156048 6111/
11119 03310 10280 40082
22219 00300
33311 88872 20000 33001 20002 33001 43396 20025 33029 43442
20050 33026 20075 33019 20100 32872 20125 32586 43545
20150 32255 43539 20200 31686 43518 20250 31395 43496
20300 31205 43484 20500 30813 43461 20750 30596 43453
444 20110 11014 0024/ 522// 60381=
ZZYY 52085 11014 03004 100012 156047 6113/
11119 02907 10276 40070
22219 00300
33311 88872 20000 33001 20002 33001 43385 20025 33032 43437
20050 33026 20075 33020 20100 32997 20125 32666 43544
20150 32295 43541 20200 31830 43531 20250 31388 43495
20300 31184 43484 20500 30806 43460 20750 30594 43453
444 20130 11014 0253/ 522// 60381=
ZZYY 52087 11014 1100/ 107663 136692 6112/
33311 88872 20125 32043 43489 20150 31687 43474 20200 31176 43453
20250 30999 43449 20500 30756 43449
444 20120 11014 1050/ 522//=
ZZYY 52087 11014 0900/ 107654 136696 6113/
22219 00291
33311 88872 20000 32912 20002 32912 43378 20025 32916 43376
20050 32897 43444 20075 32665 43478 20100 32359 43504
20125 32038 43488 20150 31649 43470 20200 31246 43453
20250 31045 43450 20300 30899 43451 20500 30749 43449
20750 30581 43452
444 20130 11014 0833/ 522//=
ZZYY 52087 11014 0500/ 107658 136700 6111/
22219 00291
33311 88872 20000 32913 20002 32913 43374 20025 32913 43371
20050 32856 43469 20075 32619 43479 20100 32206 43495
20125 31928 43486 20150 31538 43466 20200 31090 43452
20250 30935 43451 20300 30888 43452 20500 30773 43449
20750 30596 43451
444 20110 11014 0453/ 522//=
ZZYY 52087 11014 0700/ 107656 136693 6113/
22219 00291
33311 88872 20000 32912 20002 32912 43374 20025 32913 43373
20050 32885 43456 20075 32678 43476 20100 32194 43495
20125 31810 43480 20150 31544 43466 20200 31139 43452
20250 30944 43450 20300 30889 43452 20500 30755 43448
20750 30591 43452
444 20130 11014 0652/ 522//=
ZZYY 52087 11014 0300/ 107656 136694 6111/
22219 00292
33311 88872 20000 32919 20002 32919 43381 20025 32918 43379
20050 32832 43474 20075 32608 43482 20100 32196 43493
20125 31994 43486 20150 31655 43470 20200 31186 43452
20250 30947 43450 20300 30888 43453 20500 30763 43448
20750 30590 43450
444 20110 11014 0303/ 522//=
ZZYY 52073 11014 1000/ 104949 137309 6113/
33311 88872 20002 32959 43397 20025 32957 20050 32842 43428
20075 32734 43444 20100 32604 43484 20125 32390 43473
20150 32199 43498 20200 31460 43456 20250 31087 20300 30949 43457
20500 30775 43455 20750 30645 43452
444 20130 11014 0946/ 522//=
ZZYY 52073 11014 06004 104944 137293 6111/
11119 01213 10285 29083 40060
22219 00296
33311 88872 20000 32961 20002 32961 43385 20025 32956
20050 32827 43430 20075 32757 43445 20100 32589 43476
20125 32434 43480 20150 32316 43487 20200 31556 43462 20250 31082
20300 30958 43456 20500 30768 43456 20750 30617 43451
444 20110 11014 0627/ 522// 60381=
ZZYY 52073 11014 08004 104948 137307 6113/
11119 01013 10291 29080 40062
22219 00296
33311 88872 20000 32959 20002 32959 43391 20025 32955
20050 32808 43434 20075 32715 43450 20100 32580 43490
20125 32405 43478 20150 32306 43492 20200 31576 43464 20250 31164
20300 30966 43454 20500 30781 43455 20750 30639 43451
444 20130 11014 0805/ 522// 60381=
ZZYY 52084 11014 03004 105020 155966 6113/
11119 00611 10285 29077 40070
22219 00297
33311 88872 20000 32969 20002 32969 43432 20025 32963
20050 32962 43434 20075 32974 20100 32928 43457 20125 32772 43464
20150 32350 43503 20200 31376 43460 20250 31031 43461
20300 30938 43463 20500 30789 43458 20750 30599 43455
444 20130 11014 0255/ 522// 60381=
ZZYY 52077 11014 0300/ 102079 146982 6113/
33311 88872 20025 33002 20050 32996 20075 32980 43517
20100 32886 43530 20125 32681 43518 20150 32530 43521 20200 31784
20250 31165 20300 31031 43471 20500 30802 43458 20750 30594 43453
444 20130 11014 0255/ 522//=
ZZYY 52077 11014 0100/ 102082 146984 6113/
33311 88872 20025 32999 20050 32996 20075 32971 43524
20100 32828 43527 20125 32649 43521 20150 32500 43520 20200 31678
20250 31150 20300 31039 43472 20500 30818 43459 20750 30613 43453
444 20130 11014 0022/ 522//=
0000060800
973
SSVX07 KARS 111232
ZZYY 48731 11014 1220/ 774113 154941 6111/
11119 11203 40010
444 20110 11014 1221/ 504//=
ZZYY 48733 11014 1220/ 772951 152327 6111/
11119 11257 40020
444 20110 11014 1221/ 504//=
ZZYY 48508 11014 1220/ 772702 159195 6112/
11119 11234 40044
444 20120 11014 1207/ 504//=
ZZYY 48732 11014 1220/ 774457 130947 6112/
11119 11145 49831
444 20120 11014 1223/ 504//=
ZZYY 48732 11014 1230/ 774457 130947 6112/
11119 11145 49828
444 20120 11014 1223/ 504//=
ZZYY 48507 11014 1220/ 773040 134952 6112/
11119 11259 49902
444 20120 11014 1222/ 504//=
0000011000
974
UANT01 CWAO 111233
ARP AAL65 5100N01947W 1233 F330 MS59 202/82 KT
N388AA DDL XXN 111233 F22A
0000011000
975
UANT01 CWAO 111233
ARP FWI540 4859N02019W 1233 F320 MS56 197/75 KT
FHPTP QXT AOE 111233 J26A
0000011100
976
UANT01 CWAO 111233
ARP BAW17PA 4814N01902W 1233 F370 MS64 215/95 KT
GVIIT QXT AOE 111233 F08A
0000011000
977
UANT01 CWAO 111233
ARP UAL45 5220N03738W 1233 F370 MS56 283/34 KT
N29124 DDL IG1 111233 F73A
0000003800
978
SMKZ21 UAAA 111200
NIL
0000243400
979
SMZA02 FAPR 111200
AAXX 11124
68183 32570 71905 10261 20205 39461 48566 58003 8557/
      333 10269 20221 91007 555 91017=
68188 36/// /1203 10249 20193 39234 48570 58003
      333 10253 20204 91005 555 91020=
68268 16/// /0907 10297 20193 39075 48728 58007 60041
      333 10331 20192 91013 555 20042 91040=
68272 36/// /0106 10296 20183 39099 48562 57012
      333 10310 20195 91013 555 91019=
68296 36/// /1603 10299 20214 39839 48587 58008
      333 10301 20215 91007 555 91015=
68322 36/// /2605 10378 20052 39139 48548 57008
      333 10379 20151 91012 555 91015=
68338 36/// /2608 10334 20005 38779 48536 57010
      333 10335 20129 91016 555 91019=
68345 36/// /2809 10320 20058 38672 48522 58008
      333 10320 20160 91016 555 91019=
68362 36/// /3305 10292 20074 38517 48520 57005
      333 10311 20121 91012 555 91020=
68400 32/// /1106 10285 20182 30078 40150 57003
      333 10314 20232 91011 555 91015=
68408 32580 21613 10220 20159 30140 40149 57005 82100
      333 10220 20127 91022 555 91014=
68416 36/// /3005 10311 21001 39046 48543 57006
      333 10314 20139 91010 555 91017=
68478 32/// /0803 10243 20161 38852 48514 57005
      333 10255 20163 91007 555 91017=
68488 32/// /0805 10243 20148 39290 48553 57007
      333 10258 20173 91009 555 91018=
68494 36/// /1705 10288 20178 30035 40162 58003
      333 10289 20206 91014 555 91016=
68524 32986 03306 10327 21011 39060 48541 57011
      333 10337 20159 91013 555 91017=
68546 36/// /3306 10290 20061 38662 48517 58007
      333 10291 20129 91017 555 91018=
68558 36/// /2913 10245 20078 38208 48514 50000
      333 10256 20089 91021 555 91022=
68570 NIL=
68580 31470 81105 10191 20158 38986 48550 58003 886//
      333 10192 20151 91009 555 91021=
68614 36/// /2308 10304 20117 30097 40144 57007
      333 10313 20128 91014 555 91014=
68624 32882 42707 10289 21019 38748 48519 57011 81206
      333 10290 20123 91014 555 91018=
68674 NIL=
68712 36/// /1915 10190 20137 30098 40171 58002
      333 10196 20137 91020 555 91017=
68718 NIL=
68722 NIL=
68814 NIL=
68832 32970 02105 10263 20076 39204 48545 57012
      333 10270 20123 91010 555 91017=
68916 36/// /3504 10200 20135 39915 40181 56002
      333 10210 20154 91011 555 91018=
68920 NIL=
68928 36/// /1604 10213 20143 30009 40168 58006
      333 10218 20157 91009 555 91017=
0000029600
980
UEIL01 BIRK 111200 RRA
TTDD 6111/ 04018
11762 64573 22682 62375 33649 58575 44414 62174 55340
58376 66297 62775 77278 63176 88219 58776
21212 11778 20077 22652 22090 33532 22085 44468 22098
55423 22590 66335 22620 77314 23113 88235 24154 99219
24646
31313 48108 81101=
0000042600
981
SMBZ05 SBBR 111200 RRA
AAXX 11124
82863 22498 62304 10249 20226 39924 40137 81834 333 20217 58006 60154=
83228 22799 81807 10253 20216 39895 40131 83320 333 20225 58023 60014=
83368 21698 70000 10257 20216 39780 40143 70362 83204 333 20216 58026 60014=
83374 21598 63204 10240 20191 39562 40131 70165 86800 333 20199 58012 60034=
83526 22598 30903 10257 20190 39211 40147 83100 333 20194 58014 60064=
0000045700
982
SMBZ02 SBBR 111200 RRA
AAXX 11124
82979 32498 4//// 10273 20204 39676 40121 83120 333 20230 59001=
82986 32597 50906 10268 20184 39854 40137 83131 333 20226 58005=
83179 32598 60905 10285 20201 39677 40120 86500 333 20218 58006=
83192 32597 60907 10278 20204 39987 40151 84240 333 20201 58009=
83339 31496 809// 10207 20184 39171 40132 71000 885// 333 20192 58010=
83498 32595 41405 10287 20238 30144 40149 82202 333 20233 58010=
0000018900
983
SMBZ03 SBBR 111200 RRA
AAXX 11124
83695 32697 20000 10280 20225 30036 40172 52018 82200 333 20247=
83718 31599 40000 10250 20198 39590 40151 54000 70111 84100 333 20199=
0000013600
984
SMBZ06 SBBR 111200 RRB
AAXX 11124
83599 31594 60602 10290 20264 40083 51034 7400/ 83393 222// 02285 20501 80270 20220=
0000028300
985
SMVD15 KWNB 111200 RRO
BBXX
41009 11121 99285 70802 46/// /1808 10239 20219 40183 91220 22200
00239 333 91209 555 11081 22087 31143 41809 61219 184075 182072
183073 185075 184075 183071=
42365 11121 99282 70891 46/// /2613 10223 20198 91230 555 11106
22113=
0000014200
986
ULCN06 CWAO 111200
TTCC  61123 71945 70775 60980 28081 50981 66176 29593 30289
70574 30607 88613 64378 28585 77357 30613=

0000011800
987
UECN06 CWAO 111200
TTDD  6112/ 71945 11884 58980 22613 64378 33381 66376 44316
70374 55287 70974=

0000010600
988
UQCN06 CWAO 111200
PPDD  61128 71945 956// 27578 97012 30604 31107 30613 976//
30610=

00000000