0000017700
369
UDEU02 EGRR 111242 RRD
AMDAR 1112
LVR EU9622   3030N 01433W 111224 F370 MS580 294/055 TB/ S031=
LVR EU9622   2941N 01451W 111231 F370 MS580 296/064 TB/ S031=
0000043300
370
UDEU02 EGRR 111242 RRE
AMDAR 1112
LVR EU0026   3328N 01222W 111203 F350 MS580 306/047 TB/ S031=
LVR EU0026   3246N 01257W 111210 F350 MS572 296/047 TB/ S031=
LVR EU0026   3205N 01331W 111217 F350 MS565 294/039 TB/ S031=
LVR EU0026   3123N 01405W 111224 F350 MS552 289/048 TB/ S031=
LVR EU0026   3039N 01435W 111231 F350 MS547 293/049 TB/ S031=
LVR EU0026   2949N 01453W 111238 F350 MS542 298/062 TB/ S031=
0000030500
371
UDEU02 EGRR 111242 RRF
AMDAR 1112
LVR EU0230   5851N 00530E 111210 F350 MS470 262/032 TB/ S031=
LVR EU0230   5812N 00654E 111217 F350 MS487 249/040 TB/ S031=
LVR EU0230   5733N 00814E 111224 F350 MS467 258/041 TB/ S031=
LVR EU0230   5657N 00940E 111231 F323 MS535 245/055 TB/ S031=
0000043300
372
UDEU02 EGRR 111242 RRG
AMDAR 1112
ASC EU2321   5224N 00443E 111231 F026 PS012 313/032 TB/ S011=
ASC EU2321   5225N 00443E 111231 F032 PS000 317/032 TB/ S011=
ASC EU2321   5230N 00444E 111233 F048 MS030 306/028 TB/ S011=
ASC EU2321   5233N 00445E 111234 F064 MS057 288/029 TB/ S011=
ASC EU2321   5237N 00445E 111235 F081 MS095 284/034 TB/ S011=
ASC EU2321   5241N 00447E 111235 F098 MS137 275/028 TB/ S011=
0000015900
373
ULBA01 MYNN 111200
TTCC 61122 78073 70858 76957 28523 50055 69358 28023 30370
57560 28513 20629 50761 24010 88999 77999 31313 05102 81107
=
0000014400
374
UEBA01 MYNN 111200
TTDD 6112/ 78073 11723 79557 22388 61759 33258 54560 44221
54760 55166 43763 66118 48163 31313 05102 81107=
0000014400
375
UQBA01 MYNN 111200
PPDD 61120 78073 9603/ 28527 28019 9704/ 28520 29516 9805/
26510 24010 99024 25506 25504 26515 998// 17004=
0000011800
376
UECN03 CWAO 111200
TTDD  6112/ 71119 11938 61576 22792 61777 33523 63577 44176
76970 55168 76370=

0000014800
377
ULCN03 CWAO 111200
TTCC  61122 71119 70794 63776 29076 50001 65376 29581 30307
70773 30100 20546 74971 30613 88999 77207 30618=

0000010600
378
UQCN03 CWAO 111200
PPDD  61128 71119 9616/ 29086 29578 970// 30095 9837/ 30618
30608=

0000190500
379
UDEU02 EGRR 111242 RRH
AMDAR 1112
ASC EU0142   5109N 00012W 111219 F010 PS050 308/013 TB/ S031=
ASC EU0142   5109N 00014W 111219 F017 PS030 312/015 TB/ S031=
ASC EU0142   5108N 00016W 111219 F022 PS020 312/018 TB/ S031=
ASC EU0142   5108N 00018W 111219 F029 PS005 313/021 TB/ S031=
ASC EU0142   5107N 00020W 111219 F040 MS012 301/024 TB/ S031=
ASC EU0142   5107N 00021W 111219 F056 MS027 301/028 TB/ S031=
ASC EU0142   5106N 00023W 111219 F068 MS040 301/032 TB/ S031=
ASC EU0142   5106N 00025W 111219 F081 MS057 306/040 TB/ S031=
ASC EU0142   5105N 00027W 111219 F095 MS065 293/044 TB/ S031=
ASC EU0142   5104N 00029W 111219 F110 MS100 316/049 TB/ S031=
ASC EU0142   5101N 00030W 111220 F120 MS117 308/051 TB/ S031=
ASC EU0142   5057N 00030W 111220 F142 MS160 299/050 TB/ S031=
ASC EU0142   5052N 00029W 111220 F165 MS215 284/056 TB/ S031=
ASC EU0142   5048N 00026W 111221 F182 MS257 288/058 TB/ S031=
ASC EU0142   5044N 00024W 111221 F198 MS292 294/061 TB/ S031=
ASC EU0142   5040N 00022W 111221 F216 MS342 292/063 TB/ S031=
ASC EU0142   5035N 00019W 111222 F229 MS380 296/062 TB/ S031=
ASC EU0142   5031N 00017W 111222 F246 MS422 295/060 TB/ S031=
ASC EU0142   5026N 00014W 111222 F260 MS457 292/055 TB/ S031=
ASC EU0142   5021N 00012W 111223 F277 MS495 268/050 TB/ S031=
ASC EU0142   5017N 00009W 111223 F290 MS530 263/056 TB/ S031=
ASC EU0142   5012N 00007W 111223 F299 MS547 269/058 TB/ S031=
ASC EU0142   5008N 00005W 111224 F307 MS555 278/060 TB/ S031=
ASC EU0142   5003N 00003W 111224 F315 MS560 289/059 TB/ S031=
ASC EU0142   4958N 00001W 111224 F329 MS577 280/051 TB/ S031=
ASC EU0142   4953N 00001E 111225 F330 MS585 279/052 TB/ S031=
ASC EU0142   4948N 00003E 111225 F330 MS582 273/050 TB/ S031=
ASC EU0142   4944N 00005E 111225 F331 MS577 272/051 TB/ S031=
ASC EU0142   4939N 00008E 111226 F344 MS595 260/053 TB/ S031=
0000068900
380
UDEU02 EGRR 111242 RRI
AMDAR 1110
LVR EU0457   5300N 01522W 111022 F359 MS662 240/071 TB0 S031=
LVR EU0457   5301N 01642W 111029 F359 MS652 232/068 TB0 S031=
LVR EU0457   5301N 01803W 111036 F360 MS660 231/068 TB0 S031=
LVR EU0457   5300N 01924W 111043 F359 MS655 221/073 TB0 S031=
LVR EU0457   5301N 02047W 111050 F360 MS660 212/064 TB0 S031=
LVR EU0457   5304N 02213W 111057 F360 MS627 209/071 TB0 S031=
LVR EU0457   5305N 02338W 111104 F359 MS635 206/074 TB0 S031=
LVR EU0457   5306N 02504W 111111 F359 MS625 195/073 TB0 S031=
LVR EU0457   5305N 02633W 111118 F360 MS625 184/073 TB0 S031=
LVR EU0457   5303N 02803W 111125 F359 MS600 187/069 TB0 S031=
0000032400
381
UEVX01 LFPW 111200
UUDD ASFR2 6111/ 99451 70142 14654 11498 515// 22381 469// 33184
435// 21212 11977 24024 22824 21530 33713 22035 44625 20529 55600
23023 66536 22022 77496 20012 88475 21027 99425 24026 11395 20030
22344 25012 33332 25524 44315 22016 55214 32514 66185 28013 31313
47708 81044 90134=
0000032200
382
SAIN34 VOMM 111230
METAR VOBL 111230Z 11005KT CAVOK 30/10 Q1016 NOSIG=
METAR VOCB 111230Z 09003KT 6000 NSC 29/14 Q1013 TEMPO 5000 HZ=
METAR VOCI 111230Z 27006KT 4000 HZ NSC 29/21 Q1010 NOSIG=
METAR VOCL 111230Z 31006KT 6000 NSC 29/22 Q1011 NOSIG=
METAR VOMD 111230Z 10003KT 6000 FEW020 30/16 Q1012=
0000010000
383
SAIN90 VOTR 111240
METAR VOTR 111240Z 10004KT 6000 FEW016 28/19 Q1012 TEMPO 5000 HZ=
0000009200
384
SAIN90 VIDP 111230
METAR VIDP 111230Z 30004KT 2200 HZ NSC 15/09 Q1019 NOSIG=
0000022900
385
SAIN32 VIDP 111230
METAR VIDP 111230Z 30004KT 2200 HZ NSC 15/09 Q1019 NOSIG=
METAR VILK 111230Z 05004KT 2000 R27/P2000 SCT020 BKN100 15/13
    Q1017 NOSIG=
METAR VIAR 111230Z 00000KT 3500 BR NSC 14/11 Q1020=
0000034800
386
USVX01 LFPW 111200
UUAA ASFR2 61111 99451 70142 14654 99008 11216 05535 00096 10816
08531 92743 07412 17026 85436 03610 19531 70993 03375 20022 50558
19962 22028 40719 32526 24029 30915 481// 25047 25032 575// 26060
20169 627// 26550 15351 559// 24031 10610 541// 25028 88218 647//
26558 77233 26065 31313 47708 81044 90134=
0000057600
387
UKVX01 LFPW 111200
UUBB ASFR2 61118 99451 70142 14654 00008 11216 11812 01609 22784
00217 33744 00677 44710 02775 55569 12770 66534 16369 77524 17361
88497 20361 99468 23713 11349 40137 22218 647// 33185 607// 44174
555// 55140 561// 66128 525// 77102 547// 21212 00008 05535 11984
15022 22795 21035 33704 20022 44649 22027 55603 20028 66385 24529
77233 26065 88198 26549 99191 24036 11178 24555 22146 24027 33135
24547 44127 25026 55120 22028 66113 23542 77106 26038 31313 47708
81044 90134 41414 44212 51515 11893 18028 22800 21035 33600 20028=
0000009200
388
UECN04 CWAO 111200
TTDD  6112/ 71126 11938 61576 22793 61777 33165 75970=

00000000