0000011000
942
UANT99 KDDL 111250
ARP VIR75B 5303N01559W 1250 F370 MS61 240/76 KT
GVROS DDL ORK 111250 F59A
0000011000
943
UANT99 KDDL 111250
ARP BAW207 5006N02615W 1250 F320 MS52 186/72 KT
GBYGG QXT AOE 111250 F25A
0000011100
944
UANT99 KDDL 111250
ARP DAL187 5254N03142W 1250 F360 MS54 201/37 KT
N173DZ QXT AOE 111250 F37A
0000010900
945
UANT99 KDDL 111250
ARP VIR24 5605N03253W 1250 F370 MS59 201/46 KT
GVBUG DDL XXW 111250 J13A
0000011100
946
UANT99 KDDL 111250
ARP BER7346 4802N01255W 1250 F390 MS60 238/38 KT
DABXC QXT AOE 111250 J67A
0000011000
947
UANT99 KDDL 111250
ARP AFR368 4653N02210W 1250 F320 MS53 197/86 KT
FGLZI QXT AOE 111251 J37A
0000011000
948
UANT99 KDDL 111251
ARP JAI228 5207N02245W 1250 F350 MS60 203/78 KT
VTJWS QXT AOE 111251 J74A
0000021300
949
SAAE31 VTBB 111230 RRB
METAR VTBS 111230Z 02005KT 320V080 CAVOK 29/15 Q1014 NOSIG=
METAR VLVT 111230Z 30002KT 4000 BR FEW050 24/18 Q1015 NOSIG=
METAR VDPP 111230Z 35004KT 9000 FEW017 29/19 Q1012=
0000008600
950
SAYE20 OYHD 111300
METAR OYHD 111300Z 21019KT 9999 FEW030 29/20 Q1013=
0000032800
951
SNVD22 KWNB 111300 RRB
BBXX
46251 11131 99338 71196 46/// ///// 1//// 91239 22200 00154 11403
20902 327// 41402 70014=
46243 11131 99462 71241 46/// ///// 1//// 91246 22200 00086 11010
21008 324// 41105 70049=
46217 11131 99342 71194 46/// ///// 1//// 91239 22200 00153 11202
21001 328// 41201 70009=
0000027500
952
SXHW11 KWAL 111252
15D142A4 011125202":PRS 1 #1 1778 1757 1751 1769 1761 1759 1758 1767 1769 1768 :RAD 1 #1 7357 7352 7349 7347 7351 7352 7351 7357 7354 7353 :ENC 2 #5 5254 5257 5257 5257 :SW1 52 #60 0 :SW2 22 #60 0 :BAT 4 #5 13.0 :NAME 15D142A4  34+0NN 216W
0000022100
953
SNVD20 KWNB 111300 RRA
BBXX
44096 11131 99370 70758 46/// ///// 1//// 91247 22200 00068 10802
20802 309// 41301 70012=
44099 11131 99369 70757 46/// ///// 1//// 91248 22200 00065 10803
20803 70014=
0000060200
954
SAER10 OMAM 111230
METAR OMAD 111230Z NIL=
METAR OMAH 111230Z 01004KT 7000NDV -RA OVC080 18/13 Q1019 A3011=
METAR OMAM 111200Z 22005KT 9999 -RA FEW040 BKN090 23/10 Q1017 A3003=
METAR OMDL 111230Z VRB03KT 7000NDV -RA OVC080 17/13 Q1018 A3008=
METAR OMDM 111230Z 25005KT CAVOK 22/09 Q1019=
METAR OMLW 111230Z 22005KT CAVOK 23/10 Q1018=
METAR OMMZ 111230Z AUTO 18003KT 140V210 /////NDV //// ///// 23/10 Q1018 A3008=
METAR OMSN 111230Z AUTO 12003KT /////NDV //// ///// 19/15 Q1019 A3010=
METAR OMSW 111230Z NIL=
METAR OMTH 111230Z VRB02KT 9999NDV BKN090 20/09 Q1021 A3015=
0000003800
955
SAER50 OMAE 111250
NIL
0000011400
956
UHSG01 GOOY 111200
PPCC 61118 61641
44370 29517 31510 00510 44220 12030 08547 77120 09062 40914=
0000008800
957
USIN01 DEMS 111200 RRA
TTAA  6112/  42667 NO ASCENT AS PER H.Q ORDER=

0000011400
958
SMIN50 VIDP 111200 CCB
AAXX 11124
00010 31996 03406 10157 20072 40196 70500
  333 10189 58039=
0000120000
959
WSUS31 KKCI 111255
SIGE
?MKCE WST 111255
CONVECTIVE SIGMET 60E
VALID UNTIL 1455Z
OH PA WV
20SE AIR
ISOL EMBD TS D20 MOV FROM 22060KT. TOPS TO FL350.

CONVECTIVE SIGMET 61E
VALID UNTIL 1455Z
VA NC SC
FROM 10ENE LYH-40E CLT-30SSE SPA-20ESE PSK-10ENE LYH
AREA EMBD TS MOV FROM 24030KT. TOPS TO FL400.

CONVECTIVE SIGMET 62E
VALID UNTIL 1455Z
FL GA AND FL CSTL WTRS
FROM 20WNW TLH-140S CEW
LINE SEV EMBD TS 30 NM WIDE MOV FROM 25020KT. TOPS TO FL400.
WIND GUSTS TO 50KT POSS.

CONVECTIVE SIGMET 63E
VALID UNTIL 1455Z
FL AL AND FL AL MS CSTL WTRS
FROM MGM-30ENE CEW-110SSW CEW-60S SJI-MGM
AREA EMBD TS MOV FROM 24025KT. TOPS TO FL400.

CONVECTIVE SIGMET 64E
VALID UNTIL 1455Z
NC GA TN AL MS LA AND MS LA CSTL WTRS
FROM 10ESE VXV-30WNW ATL-20NNE SJI-80SSW LEV
LINE SEV EMBD TS 30 NM WIDE MOV FROM 26040KT. TOPS TO FL380.
TORNADOES...HAIL TO 1 IN...WIND GUSTS TO 50KT POSS.

OUTLOOK VALID 111455-111855
FROM SLT-HTO-190ESE ECG-140SSE ILM-200ENE TRV-100E OMN-RIC-70W
PIE-170S CEW-50NNW CEW-SLT
WST ISSUANCES EXPD. REFER TO MOST RECENT ACUS01 KWNS FROM STORM
PREDICTION CENTER FOR SYNOPSIS AND METEOROLOGICAL DETAILS.
0000030100
960
WSUS33 KKCI 111255
SIGW
?MKCW WST 111255
CONVECTIVE SIGMET...NONE

OUTLOOK VALID 111455-111855
FROM TOU-40E TOU-50NW PDX-ONP-110WNW ONP-140W TOU-TOU
WST ISSUANCES POSS. REFER TO MOST RECENT ACUS01 KWNS FROM STORM
PREDICTION CENTER FOR SYNOPSIS AND METEOROLOGICAL DETAILS.
0000028900
961
WSUS32 KKCI 111255
SIGC
?MKCC WST 111255
CONVECTIVE SIGMET...NONE

OUTLOOK VALID 111455-111855
FROM 40NNW CEW-170S CEW-60S LEV-40NNW CEW
WST ISSUANCES EXPD. REFER TO MOST RECENT ACUS01 KWNS FROM STORM
PREDICTION CENTER FOR SYNOPSIS AND METEOROLOGICAL DETAILS.
00000000