0000015700
582
SSVX13 LFPW 111300
ZZYY 62687 11014 1300/ 166112 001382 6113/ 11119 40060 52003 22219
 00075 444 20130 11014 1257/ 50101 80098 80000 9/015=
0000015700
583
SSVX13 LFPW 111300
ZZYY 61688 11014 1300/ 144058 029454 6113/ 11119 40219 57010 22219
 00088 444 20131 11014 1257/ 50101 80090 80002 9/015=
0000015700
584
SSVX13 LFPW 111300
ZZYY 44762 11014 1300/ 751161 006155 6113/ 11119 40204 57002 22219
 00107 444 20130 11014 1257/ 50101 80096 80000 9/015=
0000015700
585
SSVX13 LFPW 111300
ZZYY 62713 11014 1300/ 733761 019484 6113/ 11119 40157 57009 22219
 00182 444 20130 11014 1257/ 50101 80098 80000 9/015=
0000015700
586
SSVX13 LFPW 111300
ZZYY 44624 11014 1300/ 746726 020017 6113/ 11119 49954 57031 22219
 00128 444 20130 11014 1257/ 50101 80098 80019 9/015=
0000038500
587
SSVX13 LFPW 111300
ZZYY 61690 11014 1300/ 142794 029453 6113/ 11119 40229 57005 22219
 00094 33300 88870 20000 30940 20011 30936 20013 30928 20016 30924
 20021 30928 20026 30932 20031 30934 20036 30922 20041 30932 20047
 30880 20052 30820 20057 30800 20062 30792 20067 30784 20072 30792
 20077 30800 20082 30812 444 20131 11014 1257/ 50101 80102 80013
 9/015=
0000011000
588
UANT01 CWAO 111303
ARP KLM723 5206N02650W 1303 F380 MS55 198/59 KT
PHAOA QXT AOE 111303 J28A
0000011000
589
UANT01 CWAO 111303
ARP SWR26L 4858N03021W 1303 F380 MS50 213/37 KT
HBJHA QXT AOE 111303 J24A
0000011000
590
UANT01 CWAO 111303
ARP VJT772 4554N03307W 1303 F380 MS48 075/31 KT
9HVJD QXT EUA 111303 M65A
0000015700
591
SSVX13 LFPW 111300
ZZYY 44610 11014 1300/ 750338 040761 6113/ 11119 40088 57002 22219
 00099 444 20130 11014 0759/ 50101 80150 80002 9/015=
0000058700
592
SAIR36 OIII 111300
METAR OIBA 111300Z  07008KT 3000 -RA FEW025CB FEW030 OVC080 17/15
 Q1018=
METAR OIBV 111300Z  10010KT 6000 -DZ SCT030 OVC080 16/13 Q1018
 RERA=
METAR OIFS 111300Z  00000KT 1000 -SN BR FEW025CB SCT030 OVC070
 M03/M04 Q1018=
METAR OIIP 111300Z  00000KT 3000 BR FEW020 SCT035 OVC080 M01/M01
 Q1017=
METAR OIMB 111300Z 09012KT 9999 SCT040 BKN090 04/M14 Q1019=
METAR OIMN 111300Z 15010KT CAVOK 07/M09 Q1016 A3002=
METAR OIMS 111300Z NIL=
METAR OIMT 111300Z NIL=
METAR OIZJ 111300Z  00000KT 8000 FEW025CB SCT030 BKN090 19/05
 Q1019=
0000057000
593
SAIR37 OIII 111300
METAR OIBL 111300Z  06010KT 4000 BR FEW020CB SCT025 OVC080 14/13
 Q1019=
METAR OIBQ 111300Z  24012KT 7000 TS SCT020 SCT025CB OVC070 17/15
 Q1016=
METAR OIIK 111300Z 00000KT 8000 SCT040 BKN090 01/M03 Q1019=
METAR OIMC 111300Z 15012KT 9999 SCT040 SCT180 14/M06 Q1017=
METAR OIMD 111300Z 09006KT 9999 FEW035 BKN100 06/M05 Q1015=
METAR OIMQ 111300Z 15004KT 9999 FEW040 SCT200 08/M06 Q1019=
METAR OINE 111300Z 00000KT 4000 BR NSC 09/06 Q1014=
METAR OITK 111300Z NIL=
METAR OITM 111300Z VRB02KT 1300 BR NSC M04/M06 Q1019=
0000012300
594
SAIR34 OIII 111300 RRA
METAR OICI 111300Z  00000KT 8000 FEW015 FEW025CB SCT035 BKN090
 05/05 Q1016 A3002=
0000094800
595
SMCN04 KWBC 111200
AAXX 11124
71014 45/// /1314 11059 21076 6///1 333 7////=
71249 15/// /1313 11077 21087 60001 333 11024 21088 70000=
71346 15/// /1712 10004 21032 60001 333 10050 21072 70000=
71360 15/// ///// 11134 21146 60001 333 11047 21156 70000=
71380 17/// /1516 11032 21043 69941 7//4/ 333 10005 21111 70008=
71413 15/// ///// 11097 21105 60001 333 11043 21131 70000=
71440 15/// ///// 11064 21079 60001 333 11014 21088 70000=
71498 15/// /1219 11072 21081 60001 333 11030 21110 70000=
71540 15/// /1413 11051 21073 60001 333 11019 21128 70004=
71544 15/// ///// 11039 21063 60001 333 11004 21091 70000=
71548 15/// ///// 11096 21125 60001 333 11021 21116 70000=
71674 15/// ///// 11070 21088 60001 333 21123 7////=
71797 15/// ///// 11122 21131 60001 333 11049 21132 70000=
71857 15/// ///// 11144 21157 60001 333 11059 21167 70000=
71904 15/// ///// 11070 21082 60001 333 11011 21078 7////=
0000022100
596
SAJD20 OJAI 111300
METAR OJAI 111300Z 29012KT 6000 HZ SCT030 12/05 Q1023 NOSIG=
METAR OJAM 111300Z 33010KT 5000 HZ BKN025TCU 12/04 Q1022 NOSIG=
METAR OJAQ 111300Z 34008KT 9999 SCT030 19/07 Q1023 NOSIG=
0000022100
597
SAJD20 OJAM 111300
METAR OJAI 111300Z 29012KT 6000 HZ SCT030 12/05 Q1023 NOSIG=
METAR OJAM 111300Z 33010KT 5000 HZ BKN025TCU 12/04 Q1022 NOSIG=
METAR OJAQ 111300Z 34008KT 9999 SCT030 19/07 Q1023 NOSIG=
0000082400
598
UKAI01 KWBC 111100
TTBB 61118 61641 00014 20846 11006 18439 22999 17633 33994 17237
44993 17283 55976 162// 66973 16461 77963 17263 88925 16064 99887
20293 11865 20897 22813 17464 33727 10658 44716 11065 55622 01659
66590 00074 77566 01370 88470 12965 99428 17194 11359 25781 22359
24979 33338 26967 44274 38973 55218 531// 681// 629// 77162 663//
88152 679// 99133 655// 11100 749// 21212 00014 02012 11967 05022
22941 05017 33904 05005 44779 20506 55695 23510 66679 19013 77651
88637 ///// 23510 99610 25018 11594 26017 22575 22016 33561 24515
44497 22006 55448 30002 66435 30004 77419 01510 88401 33013 99361
30027 11328 29060 22297 29561 33236 28063 44173 26543 55149 27558
66134 27037 77111 26554 88100 25545 31313 47908 81038 41414 80002
51515 77320 15065 21507 60429 00464 25518=
0000018200
599
ULAI01 KWBC 111100
TTCC 61111 61641 70857 771// 29517 50056 683// 31510 30371 587//
00510 20628 545// 12030 10081 467// 08547 88883 795// 24544 77120
09062 40914=
0000062600
600
UEAI01 KWBC 111100
TTDD 6111/ 61641 11883 795// 22762 773// 33753 743// 44686 781//
55530 673// 66478 693// 77425 631// 88356 603// 99097 459// 11093
471// 21212 11898 24046 22810 26543 33771 25531 44724 30019 55688
29013 66674 25008 77649 19011 88640 18512 99622 20018 11593 25509
22582 25005 33543 29011 44524 28015 55485 35005 66478 06002 77458
15011 88449 16014 99437 19012 11394 35010 22329 29503 33329 32503
44320 06011 55315 06514 66304 01010 77292 03008 88284 07011 99269
09015 11235 07525 22227 10026 33216 09532 44198 12531 55177 10043
66157 09535 77136 08559 88120 09062 99093 08053=
0000084200
601
UEAK01 KWBC 111200 CCA
TTDD 6112/ 70219 11762 461// 22700 44386 33670 43186 44532 47985
55402 45985 66384 43386 77219 45185 88211 43186 99186 44186 11178
42586 22164 44186 33138 41187 44120 42986 55110 38787 66104 38987
77098 41586 88095 39787 31313 58208 81100=
TTDD 6112/ 70231 11807 47385 22729 49784 33694 48184 44598 47385
55478 50984 66438 48184 77330 47785 88318 46185 99295 46985 11263
44985 22212 48384 33203 46185 44171 43186 55158 45585 66138 43386
77131 44786 88126 41586 31313 58208 81104=
TTDD 6112/ 70273 11744 48382 22557 50381 33434 49382 44391 51183
55314 47983 66264 50584 77248 47585 88217 50784 99194 47985 11187
45185 22179 46385 33158 42786 44150 43786 55144 42186 66137 41786
77132 43186 88121 41986 99110 35788 11093 39187 22087 38787 33083
36788 44074 37188 31313 58208 81105=
00000000