0000034300
829
USSD70 OEDF 111103
TTAA 61111 40417
99016 17856 19018 00158 16043 19519 92815 11021 23524
85516 06406 26514 70100 00359 25036 50571 16786 24069
40735 27980 24076 30936 41377 24110 25058 48377 24125
20203 55574 24133 15384 59176 25127 10632 68773 24087
88174 59373 24637
77190 24140 40813
31313 48008 81103=
ZCZC
0000029900
830
SMVF01 KWBC 111200 RRH
BBXX
OZ2049 11120 99612 70118 42/98 62813 10035 40069=
ZNQO3 11121 99345 10214 41498 42705 10195 20129 40256 57012 70200
 81149 22224 04185 29903 80155=
DDYL2 11123 99358 10173 41497 52513 10180 20123 40240 57010 70300
 85772 22264 00170 2//// 80146=
0000011000
831
UANT99 KDDL 111248
ARP AFR498 4639N02453W 1248 F360 MS49 211/66 KT
FGNII QXT AOE 111248 J41A
0000011000
832
UANT99 KDDL 111248
ARP DLH400 5401N01600W 1248 F340 MS63 239/83 KT
DABTL QXT EUA 111248 F07A
0000015500
833
SMVB01 VHHH 111200
BBXX
VRYO2 11123 99375 11450 41/98 /2916 10090 20026 40230
54000 70322 8//// 22214 00129 2//// 3//// 4//// 80060=

0000501800
834
KSMI33 SBBR 111200 RRB
CREX++
T000113 A000 D07080++
 83 437 MONTES CLAROS        1 2014 01 11 12 00 -1671000 -04386000 06460 ///// 09444 10157 //// // 0011 ///// ///// ///// 2380 1820 /// ///// 2000 ///// ///// ///// 100 07 08 0080 35 61 60 0000 0000  07 /// 08 /// 09 /// // ///// ///// // ///// ///// // ///// //// 508 -0006 10 10  -0024 //// -0001 //// /////  -0001 00000 //// ///// ///// -0012 0000 //// -0012 0000 1990 ///// 03 02 -0010 050 0026 //  -0010 /// //// //// /// //// ///// -0024 // ////  -0001 //// //// ///// ///// ///// ///// -0024 //// //// ///// ///// ///// ///// //// 0000 //+
 83 552 CORUMBA              1 2014 01 11 12 00 -1908000 -05750000 01300 ///// ///// ///// //// // //// ///// ///// ///// 2690 2240 /// ///// 2000 ///// ///// ///// 000 62 // 0000 // // // 0000 0000  07 /// 08 /// 09 /// // ///// ///// // ///// ///// // ///// //// 508 -0006 10 10  -0024 //// -0001 //// /////  -0001 00000 //// ///// ///// -0012 0000 //// -0012 0000 //// ///// 03 02 -0010 /// //// //  -0010 /// //// //// /// //// ///// -0024 // ////  -0001 //// //// ///// ///// ///// ///// -0024 //// //// ///// ///// ///// ///// //// 0000 //+
 83 565 PARANAIBA            1 2014 01 11 12 00 -1970000 -05118000 03310 ///// 09663 10123 //// // 0007 ///// ///// ///// 2700 1980 /// ///// 1000 ///// ///// ///// 075 08 06 0225 30 27 10 0000 0000  07 /// 08 /// 09 /// // ///// ///// // ///// ///// // ///// //// 508 -0006 10 10  -0024 //// -0001 //// /////  -0001 00000 //// ///// ///// -0012 0000 //// -0012 0000 2210 ///// 03 02 -0010 050 0021 //  -0010 /// //// //// /// //// ///// -0024 // ////  -0001 //// //// ///// ///// ///// ///// -0024 //// //// ///// ///// ///// ///// //// 0000 //+
 83 579 ARAXA                1 2014 01 11 12 00 -1956000 -04693000 10040 ///// 09035 10139 //// // 0000 ///// ///// ///// 2420 1790 /// ///// 5000 ///// ///// ///// 025 07 02 0080 31 20 10 0000 0000  07 /// 08 /// 09 /// // ///// ///// // ///// ///// // ///// //// 003 -0006 06 02  -0024 //// -0001 //// /////  //// ///// -0024 00080 ///// -0012 0000 //// -0012 0000 1860 ///// 03 02 -0010 320 0015 //  -0010 /// //// //// /// //// ///// -0024 // ////  -0001 //// //// ///// ///// ///// ///// -0024 //// //// ///// ///// ///// ///// //// 0000 //+
 83 592 CARATINGA            1 2014 01 11 12 00 -1980000 -04215000 06090 ///// 09491 10164 //// // 0015 ///// ///// ///// 2580 1920 /// ///// 1000 ///// ///// ///// 062 07 04 0080 32 20 11 0000 0000  07 /// 08 /// 09 /// // ///// ///// // ///// ///// // ///// //// 508 -0006 10 10  -0024 //// -0001 //// /////  -0001 00000 //// ///// ///// -0012 0000 //// -0012 0000 2010 ///// 03 02 -0010 360 0026 //  -0010 /// //// //// /// //// ///// -0024 // ////  -0001 //// //// ///// ///// ///// ///// -0024 //// //// ///// ///// ///// ///// //// 0000 //+
 83 623 VOTUPORANGA          1 2014 01 11 12 00 -2041000 -04998000 ///// ///// ///// ///// //// // //// ///// ///// ///// //// //// /// ///// 0400 ///// ///// ///// 000 62 // 0000 // // // 0000 0000  07 /// 08 /// 09 /// // ///// ///// // ///// ///// // ///// //// 003 -0006 06 02  -0024 //// -0001 //// /////  //// ///// -0024 00050 ///// -0012 0000 //// -0012 0000 //// ///// 03 02 -0010 /// //// //  -0010 /// //// //// /// //// ///// -0024 // ////  -0001 //// //// ///// ///// ///// ///// -0024 //// //// ///// ///// ///// ///// //// 0000 //+
 83 630 FRANCA               1 2014 01 11 12 00 -2055000 -04743000 10260 ///// ///// ///// 0013 01 //// ///// ///// ///// 2500 1840 /// ///// 1000 ///// ///// ///// 000 62 // 0000 // // // 0000 0000  07 /// 08 /// 09 /// // ///// ///// // ///// ///// // ///// //// 000 -0006 06 02  -0024 //// -0001 //// /////  //// ///// -0024 00180 ///// -0012 0000 //// -0012 0000 1960 ///// 03 02 -0010 050 0031 //  -0010 /// //// //// /// //// ///// -0024 // ////  -0001 //// //// ///// ///// ///// ///// -0024 //// //// ///// ///// ///// ///// //// 0000 //+
 83 676 CATANDUVA            1 2014 01 11 12 00 -2113000 -04896000 05360 ///// 09542 10165 //// // //// ///// ///// ///// 2600 2120 /// ///// 1000 ///// ///// ///// 025 07 02 0080 31 20 10 0000 0000  07 /// 08 /// 09 /// // ///// ///// // ///// ///// // ///// //// 508 -0006 10 10  -0024 //// -0001 //// /////  -0001 00000 //// ///// ///// -0012 0000 //// -0012 0000 2210 ///// 03 02 -0010 360 0031 //  -0010 /// //// //// /// //// ///// -0024 // ////  -0001 //// //// ///// ///// ///// ///// -0024 //// //// ///// ///// ///// ///// //// 0000 //+
 83 704 IVINHEMA             1 2014 01 11 12 00 -2231000 -05393000 03690 ///// 09708 ///// 0021 03 //// ///// ///// ///// //// //// /// ///// 2000 ///// ///// ///// 062 08 05 0045 30 28 10 0000 0000  07 /// 08 /// 09 /// // ///// ///// // ///// ///// // ///// //// 508 -0006 10 10  -0024 //// -0001 //// /////  -0001 00000 //// ///// ///// -0012 0000 //// -0012 0000 //// ///// 03 02 -0010 360 0010 //  -0010 /// //// //// /// //// ///// -0024 // ////  -0001 //// //// ///// ///// ///// ///// -0024 //// //// ///// ///// ///// ///// //// 0000 //++
7777
0000014300
835
SMVE01 VHHH 111200
BBXX
VRDJ3 11123 99201 31169 41298 33014 10282 40077 54000
70200 83770 22200 00300 20402 301// 40001=

0000515300
836
KSMI33 SBBR 111200 RRB
CREX++
T000113 A000 D07086++
 83 437 MONTES CLAROS        1 2014 01 11 12 00 -1671000 -04386000 ///// ///// 09444 10157 //// // 0011 ///// ///// ///// 2380 1820 /// ///// 2000 ///// ///// ///// 100 07 08 0080 35 61 60 0000 0000 // // ///// //// ////// / /// /// ////// /// /// /////// // /// // /// /// ////////// /// /// 508 -0006 10 10  -0024 //// -0001 //// /////  -0001 00000 //// ///// ///// -0012 0000 //// -0012 0000 1990 ///// 03 02 -0010 050 0026 //  -0010 /// //// //// /// //// ///// -0024 // ////  -0001 //// //// ///// ///// ///// ///// -0024 //// //// ///// ///// ///// /////+
 83 552 CORUMBA              1 2014 01 11 12 00 -1908000 -05750000 ///// ///// ///// ///// //// // //// ///// ///// ///// 2690 2240 /// ///// 2000 ///// ///// ///// 000 62 // 0000 // // // 0000 0000 // // ///// //// ////// / /// /// ////// /// /// /////// // /// // /// /// ////////// /// /// 508 -0006 10 10  -0024 //// -0001 //// /////  -0001 00000 //// ///// ///// -0012 0000 //// -0012 0000 //// ///// 03 02 -0010 /// //// //  -0010 /// //// //// /// //// ///// -0024 // ////  -0001 //// //// ///// ///// ///// ///// -0024 //// //// ///// ///// ///// /////+
 83 565 PARANAIBA            1 2014 01 11 12 00 -1970000 -05118000 ///// ///// 09663 10123 //// // 0007 ///// ///// ///// 2700 1980 /// ///// 1000 ///// ///// ///// 075 08 06 0225 30 27 10 0000 0000 // // ///// //// ////// / /// /// ////// /// /// /////// // /// // /// /// ////////// /// /// 508 -0006 10 10  -0024 //// -0001 //// /////  -0001 00000 //// ///// ///// -0012 0000 //// -0012 0000 2210 ///// 03 02 -0010 050 0021 //  -0010 /// //// //// /// //// ///// -0024 // ////  -0001 //// //// ///// ///// ///// ///// -0024 //// //// ///// ///// ///// /////+
 83 579 ARAXA                1 2014 01 11 12 00 -1956000 -04693000 ///// ///// 09035 10139 //// // 0000 ///// ///// ///// 2420 1790 /// ///// 5000 ///// ///// ///// 025 07 02 0080 31 20 10 0000 0000 // // ///// //// ////// / /// /// ////// /// /// /////// // /// // /// /// ////////// /// /// 003 -0006 06 02  -0024 //// -0001 //// /////  //// ///// -0024 00080 ///// -0012 0000 //// -0012 0000 1860 ///// 03 02 -0010 320 0015 //  -0010 /// //// //// /// //// ///// -0024 // ////  -0001 //// //// ///// ///// ///// ///// -0024 //// //// ///// ///// ///// /////+
 83 592 CARATINGA            1 2014 01 11 12 00 -1980000 -04215000 ///// ///// 09491 10164 //// // 0015 ///// ///// ///// 2580 1920 /// ///// 1000 ///// ///// ///// 062 07 04 0080 32 20 11 0000 0000 // // ///// //// ////// / /// /// ////// /// /// /////// // /// // /// /// ////////// /// /// 508 -0006 10 10  -0024 //// -0001 //// /////  -0001 00000 //// ///// ///// -0012 0000 //// -0012 0000 2010 ///// 03 02 -0010 360 0026 //  -0010 /// //// //// /// //// ///// -0024 // ////  -0001 //// //// ///// ///// ///// ///// -0024 //// //// ///// ///// ///// /////+
 83 623 VOTUPORANGA          1 2014 01 11 12 00 -2041000 -04998000 ///// ///// ///// ///// //// // //// ///// ///// ///// //// //// /// ///// 0400 ///// ///// ///// 000 62 // 0000 // // // 0000 0000 // // ///// //// ////// / /// /// ////// /// /// /////// // /// // /// /// ////////// /// /// 003 -0006 06 02  -0024 //// -0001 //// /////  //// ///// -0024 00050 ///// -0012 0000 //// -0012 0000 //// ///// 03 02 -0010 /// //// //  -0010 /// //// //// /// //// ///// -0024 // ////  -0001 //// //// ///// ///// ///// ///// -0024 //// //// ///// ///// ///// /////+
 83 630 FRANCA               1 2014 01 11 12 00 -2055000 -04743000 ///// ///// ///// ///// 0013 01 //// ///// ///// ///// 2500 1840 /// ///// 1000 ///// ///// ///// 000 62 // 0000 // // // 0000 0000 // // ///// //// ////// / /// /// ////// /// /// /////// // /// // /// /// ////////// /// /// 000 -0006 06 02  -0024 //// -0001 //// /////  //// ///// -0024 00180 ///// -0012 0000 //// -0012 0000 1960 ///// 03 02 -0010 050 0031 //  -0010 /// //// //// /// //// ///// -0024 // ////  -0001 //// //// ///// ///// ///// ///// -0024 //// //// ///// ///// ///// /////+
 83 676 CATANDUVA            1 2014 01 11 12 00 -2113000 -04896000 ///// ///// 09542 10165 //// // //// ///// ///// ///// 2600 2120 /// ///// 1000 ///// ///// ///// 025 07 02 0080 31 20 10 0000 0000 // // ///// //// ////// / /// /// ////// /// /// /////// // /// // /// /// ////////// /// /// 508 -0006 10 10  -0024 //// -0001 //// /////  -0001 00000 //// ///// ///// -0012 0000 //// -0012 0000 2210 ///// 03 02 -0010 360 0031 //  -0010 /// //// //// /// //// ///// -0024 // ////  -0001 //// //// ///// ///// ///// ///// -0024 //// //// ///// ///// ///// /////+
 83 704 IVINHEMA             1 2014 01 11 12 00 -2231000 -05393000 ///// ///// 09708 ///// 0021 03 //// ///// ///// ///// //// //// /// ///// 2000 ///// ///// ///// 062 08 05 0045 30 28 10 0000 0000 // // ///// //// ////// / /// /// ////// /// /// /////// // /// // /// /// ////////// /// /// 508 -0006 10 10  -0024 //// -0001 //// /////  -0001 00000 //// ///// ///// -0012 0000 //// -0012 0000 //// ///// 03 02 -0010 360 0010 //  -0010 /// //// //// /// //// ///// -0024 // ////  -0001 //// //// ///// ///// ///// ///// -0024 //// //// ///// ///// ///// /////++
7777
0000067300
837
SMKO02 RKSL 111200
AAXX 11121
47008 32970 00000 11061 21115 30178 40234 57002 333 10011=
47014 32950 00000 11183 21202 39835 40272 58013 333 11064=
47016 32970 00000 11145 21196 39367 40285 53008 333 11056=
47020 32965 00000 11140 21167 39913 40321 53004 333 11072=
47025 32960 00000 11075 21146 30223 40254 58003 333 10029=
47035 32962 00000 11054 21143 30275 40284 54000 333 10008=
47041 32970 02902 11004 21128 30225 40253 54000 333 10045=
47055 32970 12702 10007 21106 30222 40269 57006 80001 333 10041=
47058 32560 70000 11018 21071 30244 40293 57002 87500 333 10017=
47069 32665 80000 11007 21060 30198 40301 57001 885// 333 10011=
0000030100
838
UDEU02 EGRR 111252
AMDAR 1112
LVR EU0020   3143N 01346W 111221 F370 MS595 288/047 TB/ S031=
LVR EU0020   3102N 01419W 111228 F370 MS588 292/049 TB/ S031=
LVR EU0020   3014N 01439W 111235 F370 MS579 293/056 TB/ S031=
DES EU0020   2925N 01457W 111242 F344 MS528 301/057 TB/ S031=
0000045500
839
UQNZ21 NZKL 111200
PPDD  61098 93112
9568/ 30526 28017 96012 32513 28514 32510 9649/ 28521 00000 97134
10513 07015 09515 97678 09513 07522 09021 979// 07519 98012 11515
11016 09022 98345 10523 08523 10025 98678 07520 07024 10526 989//
10525 99013 09525 09533 09521 994// 10535=
PPDD  61103 93417
9579/ 26017 29014 978// 09011 98079 09012 10021 07522=
PPDD  61103 93844
960// 25015 98035 11009 09016 11516 9879/ 08019 09016=
0000013200
840
SASY31 OSDI 111300
OSDI 111300Z 27006KT CAVOK 14/02 Q1022=

OSLK 111300Z 23006KT 9999 SCT030 BKN200 17/08 Q1022=
0000111800
841
SMKO04 RKSL 111200
AAXX 11121
47003 32980 00000 11108 21170 30238 40242 52001 333 10021=
47005 32980 02304 11162 21204 38607 53008 333 11115=
47022 32975 00000 11122 21217 38832 57008 333 11070=
47028 32963 01801 11053 21094 30180 40280 53002 333 10008=
47031 32970 03602 11126 21221 38948 58001 333 11085=
47037 32970 00000 11082 21139 30172 40303 53007 333 11012=
47039 31556 60000 11078 21119 30100 40302 57010 71022 885// 333 11004=
47046 32969 02305 10000 21116 30231 40254 53005 333 10036=
47050 32965 20000 11053 21123 30238 40273 57006 80002 333 10001=
47052 32565 40000 11054 21079 39942 40297 52015 84500 333 10000=
47060 32760 62301 11005 21058 30229 40289 57001 86030 333 10012=
47061 32980 00000 10005 21151 30218 40263 57006 333 10048=
47065 32765 80903 11013 21057 30230 40297 57003 8803/ 333 10027=
47067 32965 82503 11042 21121 30201 40327 57012 80001 333 10015=
47068 32560 80702 11013 21030 30261 40297 58005 85502 333 10030=
47070 32570 80000 11020 21091 30218 40309 57003 88500 333 10017=
47075 32980 02301 11064 21100 39972 40425 52007 333 11007=
0000030000
842
SMUG01 HUEN 111200
AAXX 11123
63726 11456 81403 10195 20164 38139 48485 69931 76192 8492/ 333 58009 83615 81925 88461 555 10175=
63680 32557 30000 10246 20210 38815 60051 72996 83900 333 58000 83822 81924 555 10222=
63682 32580 41805 10283 20179 83900 333 83821 81924 555 10214=
0000190500
843
UDEU02 EGRR 111252 RRA
AMDAR 1112
ASC EU0518   5153N 00013E 111229 F010 PS042 285/014 TB/ S031=
ASC EU0518   5152N 00013E 111229 F017 PS022 288/016 TB/ S031=
ASC EU0518   5151N 00014E 111229 F022 PS010 294/017 TB/ S031=
ASC EU0518   5149N 00014E 111229 F027 PS000 303/020 TB/ S031=
ASC EU0518   5148N 00015E 111229 F033 MS012 306/023 TB/ S031=
ASC EU0518   5146N 00015E 111229 F038 MS022 306/025 TB/ S031=
ASC EU0518   5145N 00016E 111229 F043 MS035 306/025 TB/ S031=
ASC EU0518   5144N 00016E 111229 F048 MS045 300/026 TB/ S031=
ASC EU0518   5142N 00017E 111229 F053 MS042 295/029 TB/ S031=
ASC EU0518   5140N 00017E 111229 F063 MS067 295/031 TB/ S031=
ASC EU0518   5138N 00020E 111230 F070 MS065 295/036 TB/ S031=
ASC EU0518   5135N 00022E 111230 F071 MS067 294/034 TB/ S031=
ASC EU0518   5132N 00026E 111230 F088 MS085 294/043 TB/ S031=
ASC EU0518   5130N 00031E 111231 F106 MS100 305/051 TB/ S031=
ASC EU0518   5128N 00036E 111231 F114 MS107 314/065 TB/ S031=
ASC EU0518   5126N 00042E 111231 F132 MS140 303/068 TB/ S031=
ASC EU0518   5123N 00049E 111232 F150 MS180 297/071 TB/ S031=
ASC EU0518   5122N 00056E 111232 F167 MS230 294/073 TB/ S031=
ASC EU0518   5121N 00103E 111232 F183 MS272 294/071 TB/ S031=
ASC EU0518   5120N 00111E 111233 F197 MS302 293/079 TB/ S031=
ASC EU0518   5118N 00119E 111233 F211 MS337 288/080 TB/ S031=
ASC EU0518   5117N 00127E 111233 F224 MS372 290/084 TB/ S031=
ASC EU0518   5116N 00135E 111234 F237 MS410 288/085 TB/ S031=
ASC EU0518   5113N 00143E 111234 F251 MS447 288/084 TB/ S031=
ASC EU0518   5111N 00150E 111234 F262 MS475 289/082 TB/ S031=
ASC EU0518   5108N 00158E 111235 F279 MS492 268/076 TB/ S031=
ASC EU0518   5105N 00205E 111235 F292 MS522 269/087 TB/ S031=
ASC EU0518   5103N 00213E 111235 F298 MS525 276/088 TB/ S031=
ASC EU0518   5100N 00220E 111236 F305 MS532 285/086 TB/ S031=
0000038400
844
UKCN04 CWAO 111200
TTBB  61128 71082 00988 09356 11985 07559 22963 08359 33954
06360 44897 07365 55826 12960 66764 15161 77703 20560 88694
20367 99610 22366 11575 24770 22475 36170 33365 52560 44329
58358 55303 61758 66294 59558 77267 61761 88228 65959 99218
65160 11202 67558 22188 65959 33152 70164 44146 68364 55115
72765 66100 70366 31313 48008 81146=

0000027800
845
UGCN04 CWAO 111200
PPBB  61128 71082 90012 24025 22526 23019 90345 22017 20521
21519 90678 18520 16033 16030 909// 17534 91024 19042 18555
18061 916// 18064 92035 17064 16065 16569 93035 16078 16083
16075 94023 16576 15563 15575 947// 14573 950// 15564=

0000031000
846
USCN04 CWAO 111200
TTAA  61121 71082 99988 09356 24025 00522 ///// ///// 92586
06761 22519 85242 10963 21521 70707 20561 17033 50515 33366
18062 40668 46963 16565 30851 60758 16578 25964 63760 16078
20100 67358 16075 15273 69764 15564 10513 70366 15564 88202
67558 16074 77235 16083=

0000021400
847
FTUK51 EGRR 111100 AAA
TAF AMD EGXW 111247Z 1112/1206 26009KT 9999 FEW020 TEMPO 1112/1116
    SCT018 BECMG 1117/1120 7000 HZ BECMG 1121/1124 14005KT 3000 BR
    PROB40 1200/1206 0400 FZFG VV///=
0000036400
848
SMVD01 EGRR 111200 RRA
BBXX
DFCX2 11123 99094 70800 41/98 10308 10270 20222 40111 70200 811//
22242 00282 20101 304// 41005 80236=
A8UL5 11124 99335 71655 41597 71417 10155 20102 40268 58/// 70322
871// 22223 04185 20803 331// 40905 80125=
MYSU5 11124 99494 70656 41497 82614 11025 40198 56005 70122 875//
22223 20301 324// 40402 5////=
00000000