0000011000
949
UANT99 KDDL 111232
ARP JAI228 5203N01919W 1232 F350 MS62 208/80 KT
VTJWS QXT AOE 111233 J71A
0000013000
950
UECN04 CWAO 111200
TTDD  6112/ 71909 11866 72169 22782 70969 33543 78366 44490
75366 55347 74767 66293 76367=

0000012400
951
ULCN04 CWAO 111200
TTCC  61123 71909 70712 73968 28022 50906 75966 26537 30202
76167 25052 88999 77999=

0000056600
952
SAIR31 OIII 111230
METAR OIAW 111230Z NIL=
METAR OIFM 111230Z 31006KT 1800 HZ SCT040 OVC100 02/M02 Q1018
      A3006=
METAR OIII 111230Z 27006KT 1000 BR SCT030 OVC090 01/M01 Q1018
 A3007 TEMPO 0800 SN FEW035CB SCT030 BKN100=
METAR OIKB 111230Z 31006KT 7000 -RA FEW025CB SCT030 OVC090 14/10
Q1021 A3015=
METAR OIKK 111230Z NIL=
METAR OIMM 111230Z NIL=
METAR OISS 111230Z 09004KT 1500-RA BR FEW030CB SCT035 OVC070 04/03
Q1018 A3009=
METAR OITT 111230Z VRB02KT 5000 HZ FEW035 SCT190 M03/M09 Q1019
A3011=
METAR OIZH 111230Z NIL=
0000127700
953
SMCI35 BABJ 111200
AAXX 11121
50548 31957 03602 11261 21341 40346 52021 70500=
50564 32970 02502 11310 21359 39969 40309 52010=
51334 31925 22002 11206 21242 40443 57009 70500 82/// 333
05551=
51818 32965 00702 11031 21126 38752 40429 57003 333 00101=
52378 32980 92204 11106 21231 40463 52009 333 00600=
53487 32970 03403 11063 21223 40396 52025=
53502 32980 02904 11079 21228 39146 40452 52017 333 00501=
53923 32980 83403 11023 21234 40394 52026 88///=
54049 32970 02904 11104 21211 40281 52011=
54115 32980 13206 11125 21222 40371 52024 81///=
54157 32980 02501 11119 21199 30060 40283 52009=
54186 32970 02703 11105 21196 40251 57006=
54311 32957 03202 11086 21204 40362 52026=
54346 31959 02702 11027 21138 30046 40291 52009 70500=
54377 32962 00203 11104 21169 39997 40299 52003=
54386 32970 02503 11160 21232 39287 40306 57001=
54493 32970 00000 11107 21148 40301 52005=
54587 NIL=
54715 32964 21601 11018 21041 40296 52008 82///=
54929 31921 32001 10011 21060 40311 52005 70500 83///=
54945 31958 00000 10021 21024 40311 52002 70500=
56065 32680 73404 11087 21208 36626 52017 87/// 333 00301=
57193 31958 12001 10046 21052 40310 52008 70500 81///=
57290 31943 72202 10010 21022 40318 52012 70500 87///=
0000140900
954
UDAS02 BABJ 111224
AMDAR 1112
ASC CNFNXP 3644N 11637E 111219 F190 MS271 279/050 TB/ S//1=
ASC CNFNXP 3644N 11634E 111220 F207 MS305 276/064 TB/ S//1=
ASC CNFNXP 3643N 11630E 111221 F224 MS304 280/085 TB/ S//1=
ASC CNFNXP 3643N 11627E 111221 F240 MS343 274/087 TB/ S//1=
LVR CNFNXM 2805N 11930E 111220 F217 MS178 264/075 TB/ S//1=
LVR CNFNXM 2806N 11927E 111220 F217 MS181 264/078 TB/ S//1=
LVR CNFNXM 2807N 11923E 111221 F217 MS180 265/077 TB/ S//1=
LVR CNFNXM 2808N 11919E 111221 F217 MS179 264/078 TB/ S//1=
LVR CNFLWQ 2609N 10823E 111220 F256 MS258 249/088 TB/ S//1=
DES CNFLWQ 2612N 10811E 111222 F250 MS243 248/092 TB/ S//1=
DES CNFOZM 2826N 11329E 111220 F120 MS074 253/040 TB/ S//1=
DES CNFOZM 2822N 11327E 111221 F107 MS045 243/039 TB/ S//1=
DES CNFOZM 2821N 11327E 111221 F107 MS041 243/040 TB/ S//1=
DES CNFOZM 2817N 11325E 111222 F094 MS013 250/035 TB/ S//1=
DES CNFPYL 3205N 11648E 111219 F022 MS003 136/009 TB/ S//1=
DES CNFPYL 3206N 11652E 111220 F017 PS008 105/005 TB/ S//1=
DES CNFPYL 3205N 11655E 111221 F015 PS010 110/005 TB/ S//1=
DES CNFPYL 3203N 11656E 111222 F008 PS025 101/006 TB/ S//1=
DES CNFOZL 2953N 11346E 111220 F155 MS130 254/053 TB/ S//1=
DES CNFOZL 2958N 11348E 111221 F136 MS125 249/042 TB/ S//1=
DES CNFOZL 2959N 11348E 111221 F133 MS118 249/044 TB/ S//1=
DES CNFOZL 3005N 11351E 111222 F117 MS088 250/040 TB/ S//1=
0000171900
955
UDAS02 BABJ 111220
AMDAR 1112
LVR CNFLWM 2424N 11128E 111209 F276 MS240 256/083 TB/ S//1=
LVR CNFLWM 2438N 11112E 111212 F276 MS238 255/084 TB/ S//1=
LVR CNFLWM 2452N 11055E 111215 F276 MS253 255/081 TB/ S//1=
LVR CNFLWM 2505N 11038E 111218 F276 MS248 260/088 TB/ S//1=
LVR CNFLWL 3040N 10714E 111209 F351 MS453 252/122 TB/ S//1=
LVR CNFLWL 3103N 10728E 111212 F351 MS470 252/119 TB/ S//1=
LVR CNFLWL 3121N 10719E 111215 F351 MS488 253/108 TB/ S//1=
LVR CNFLWL 3131N 10748E 111218 F351 MS485 258/117 TB/ S//1=
DES CNFPYL 3150N 11653E 111215 F044 MS030 034/005 TB/ S//1=
DES CNFPYL 3154N 11651E 111216 F044 MS035 042/003 TB/ S//1=
DES CNFPYL 3158N 11649E 111217 F039 MS033 108/004 TB/ S//1=
DES CNFPYL 3201N 11648E 111218 F029 MS021 109/009 TB/ S//1=
DES CNFOZL 2934N 11343E 111217 F210 MS180 256/069 TB/ S//1=
DES CNFOZL 2939N 11344E 111218 F195 MS153 262/063 TB/ S//1=
DES CNFOZL 2940N 11344E 111218 F192 MS148 261/058 TB/ S//1=
DES CNFOZL 2947N 11344E 111219 F173 MS145 249/065 TB/ S//1=
DES CNFOZM 2842N 11332E 111217 F152 MS134 249/046 TB/ S//1=
DES CNFOZM 2836N 11331E 111218 F142 MS121 257/042 TB/ S//1=
DES CNFOZM 2831N 11330E 111219 F138 MS113 256/043 TB/ S//1=
ASC CNFNXP 3646N 11648E 111218 F138 MS183 285/032 TB/ S//1=
ASC CNFNXP 3645N 11644E 111218 F155 MS219 294/034 TB/ S//1=
ASC CNFNXP 3645N 11642E 111219 F167 MS238 289/037 TB/ S//1=
ASC CNFNXP 3645N 11641E 111219 F172 MS246 288/042 TB/ S//1=
LVR CNFNXM 2803N 11941E 111218 F217 MS173 264/076 TB/ S//1=
LVR CNFNXM 2804N 11938E 111218 F217 MS175 264/077 TB/ S//1=
LVR CNFNXM 2804N 11937E 111219 F217 MS178 264/078 TB/ S//1=
LVR CNFNXM 2805N 11934E 111219 F217 MS185 265/075 TB/ S//1=
0000048400
956
SAIR32 OIII 111230
METAR OIAA 111230Z NIL=
METAR OIBK 111230Z NIL=
METAR OICC 111230Z 00000KT 3000 BR SCT030CB SCT035 OVC060
00/M00 Q1018 A3008 TEMPO SN=
METAR OIGG 111230Z 34004KT 3000 BR SCT025 BKN090 09/08
Q1013=
METAR OIIE 111230Z 00000KT 8000 SCT025 FEW035CB SCT045 OVC080
02/M01 Q1019 A3010=
METAR OITR 111230Z NIL=
METAR OIYY 111230Z 32006KT 6000 FEW030CB FEW035 BKN100 08/M02
      Q1018=
METAR OAKN 111230Z NIL=
METAR OAKB 111230Z NIL=
0000038600
957
SAIR33 OIII 111230
METAR OIBB 111230Z NIL=
METAR OIBP 111230Z 28004KT 7000 5000SE -RA SCT020 FEW025CB
OVC090 15/12 Q1018 A3007=
METAR OICK 111230Z 13004KT 8000 -RA FEW010 FEW030CB BKN035 OVC080
04/04 Q1016=
METAR OICS 111230Z NIL=
METAR OIHH 111230Z NIL=
METAR OINZ 111230Z NIL=
METAR OISR 111230Z NIL=
METAR OITL 111230Z NIL=
METAR OIZC 111230Z NIL=
0000194600
958
SMEQ01 SEQU 111200
AAXX 11124
84132 12480 70000 10220 20217 39885 69934 81131
 333 10306 20212 59001 555 10003 30098 40894=
84142 11220 80000 10166 20163 60094 72165 886//
 333 10195 20150 555 10089 30098=
84072 11110 80000 10115 20108 37307 60024 75042 8672/
 333 10176 20111 58008 555 10020 30095=
84105 11240 80000 10222 20219 31001 60424 71646 887//
 333 10277 20221 58000 555 10423 30098 41426=
84202 11460 73602 10239 20218 30100 40100 69934 70542 81540
 333 10289 20238 58005 555 10003 30088=
84270 11460 80000 10142 20133 60034 70245 886//
 333 10228 20140 555 10025 30094=
84076 11220 80000 10122 20116 69964 74042 85635
 333 10201 20116 30094 555 10006 30096 40464=
84135 32575 70503 10222 20214 30104 82550
 333 10293 20217 58008 555 30095 40248=
84036 11466 80000 10108 20096 60184 71652 8672/
 333 10175 20099 555 10183 30092=
84160 11110 70000 10104 20101 37272 60024 74044 85630
 333 10172 20093 58005 555 10022 30058 40232=
84140 11320 82302 10235 20228 30031 40116 60074 71042 8761/
 333 10271 20234 58004 555 10069 30093 41010=
84008 12570 51404 10234 20217 30113 40123 69914 82530 00220
 333 10294 20231 58004 555 10004 30090 40223=
84088 11250 80000 10092 20089 37074 60044 74042 8265/
 333 10170 20072 30043 58005 555 10037 30098=
84226 12680 80000 10104 20082 60064 885//
 333 10175 20087 555 10061 30086=
84056 11270 80502 10110 20096 60014 70542 888//
 333 10196 20100 555 10012 30091 40379=
84050 11350 80000 10220 20215 60214 71422 887//
 333 10275 20220 555 10206 30097 41380=
84204 31460 82304 10242 20217 70542 8587/
 333 10314 20240 555 30086=
84045 11559 70000 10084 20074 69954 71552 87700
 333 10134 20064 555 10005 30094=
84143 12460 81504 10118 20110 37397 69951 886//
 333 10208 20112 30060 59001 555 10005 30095=
84179 11556 80000 10184 20181 39073 60014 74042 885//
 333 10247 20181 58012 555 10011 30098=
NNNN
0000121600
959
SMPK01 OPKC 111200
AAXX 11124
41529 12997 33102 10181 20044 39816 40197 60002 81031 333
      10210 56099 58026 81360=
41598 12997 00000 10195 20038 39909 40181 60002 333
      10220 58020=
41620 32997 03105 10090 21083 38/// 48/// 333
      10095 58///=
41624 02997 03104 10210 21047 39983 40184 60002 333
      10215 58017 60007=
41640 01996 02702 10175 20077 39944 40196 60002 70500 333
      10190 58025 60007=
41660 11997 43104 10060 21032 38453 48544 60003 81031 333
      10070 56099 59005 81362 83072=
41675 11996 30000 10190 20013 30052 40196 60002 70200 83030 333
      10203 56090 58020 83362=
41712 12997 61034 10100 21024 39248 48538 60002 80008 333
      10115 56009 59007 86270=
41715 01996 20000 10215 20025 30129 40195 60002 70500 80001 333
      10220 56009 58034 60007 82070=
41756 02996 51804 10200 20031 30128 40193 60002 80001 333
      20205 56009 58000 60007 85070=
41764 32996 40412 10190 20013 30140 40191 60002 80001 333
      10205 56009 58030 60007 84070=
41768 02996 20506 10210 20032 30181 40188 60002 80001 333
      10235 56009 58030 60007 82070=
41780 02996 60506 10225 21059 30163 40191 60002 80001 333
      10230 56009 58029 60007 86070=
0000093100
960
SMPK20 OPKC 111200
AAXX 11124
41515 02997 00915 10085 21286 38577 48539 60002 333
      10106 58023 60007=
41560 22697 31803 10010 21044 38272 48505 60002 82430 333
      10040 58000 60007=
41571 11996 22708 10160 20007 39621 40211 60002 70500 80001 333
      10180 59009=
41594 32997 12304 10190 21020 39971 40199 80001 333
      10205 56009 58020=
41685 32997 40000 10145 21084 38944 48527 84020 333
      10155 56090 58030 84460=
41710 02997 80904 10115 21106 39405 40194 60002 84510 333
      10120 56990 59012 60007 84640 84460=
41718 11996 20000 10190 20045 30090 40195 60002 70500 82030 333
      10218 56090 58026 82362=
41739 02297 30000 10155 21038 39078 48533 60002 80001 333
      10160 56009 59008 60007 83080=
41744 12996 00000 10130 21038 38785 48498 60002 333
      10135 58002=
41749 01996 43604 10210 20015 30159 40192 60002 70422 80001 333
      10225 56009 58024 60007 84070=
0000009200
961
SAIN90 VOCI 111230
METAR VOCI 111230Z 27006KT 4000 HZ NSC 29/21 Q1010 NOSIG=
0000130900
962
SMPK40 OPKC 111200
AAXX 11124
41506 02997 03618 10110 21152 48557 60002 333
      10110 59048 60007=
41508 22997 22302 10089 21061 48557 60002 80002 333
      10110 56009 58017 60007 82070=
41523 12997 00000 10135 21001 48549 60002 333
      10150 58010 60007=
41535 12997 01302 10110 21044 48492 60002 333
      10135 58009=
41536 12997 00000 10120 21009 48516 60002 333
      10170 58011 60007=
41573 12997 00000 10040 21037 48521 60002 333
      10070 58032=
41600 01995 02704 10170 20057 39872 40170 60002 70400 333
      10191 58013 60007=
41630 11996 03602 10180 20029 40195 60002 70500 333
      10195 58019= 
41678 11996 23102 10180 20058 40200 60002 70500 82030 333
      10195 56090 58023 82362=
41696 NIL=
41697 02997 00000 10211 21003 30044 40200 60002 333
      10225 58027 60007=
41700 11995 10000 10200 20031 30056 40185 60002 70500 80001 333
      10210 56009 59023 81070=
41725 02996 30502 10205 20023 30105 40184 60002 80001 333
      10210 56009 58025 60007 83070=
41746 02996 23602 10160 20081 30127 40183 60002 80001 333
      10185 56009 58016 60007 82070=
41759 12696 50904 10215 20062 30183 40188 60002 85030 333
      10220 56090 58005 85360=
41785 02997 00508 10200 21004 30171 40184 60002 80001 333
      10205 56009 58034 60007 84070=
0000019900
963
SXPK23 OPKC 111200
SAARC WEATHER BULLETIN DATED 11-01-2014
----------------------------------------
STATION    MIN.TEMP  MAX.TEMP  RAINFALL(MM)
ISLAMABAD   M00.5      19.0     NIL=
0000030000
964
SMAA14 EGRR 111200
AAXX 11124
89065 46/// /0604 11040 21057 39878 49957 57015=
89257 46/// /9902 11058 21100 39832 49902 57007=
89262 46/// /0104 11041 21066 39909 49953 57007=
89266 46/// /2109 11004 21069 39774 49911 57013=
89272 46/// /3612 11173 21206 38093 49774 57009=
0000037200
965
SMVA01 EGRR 111200
BBXX
MZDL7 11124 99281 30478 41698 23413 10263 20240 40141 52004 70200
81071 22213 00260 20301 313// 40604 5//// 80247=
LXLW 11123 99125 10468 41498 20807 10260 20186 40140 57020 70200
82110 22264 00269 20502 80210=
9V9763 11123 99037 70333 41697 80225 10250 20228 40132 50018 78186
879// 22215 00280 21005 301// 41004 80235=
0000009800
966
SMVB01 EGRR 111200
BBXX
AMOHK01 1112/ 99223 11140 46/// ///// 10184 20116 40225=
0000032400
967
SMVC01 EGRR 111200
BBXX
AMOUK20 1112/ 99542 50367 46/// ///// 10044 20036 49916=
VRLI7 11123 99261 50484 41298 50706 10245 20230 40141 53007 70222
84262 22200 04290 20200 310// 40503 80235=
VRKJ7 11123 99148 50357 41498 70918 10265 20221 40162 52019 70322
84476 22244 00290 20202 310// 40603 80235=
0000015200
968
SMVE01 EGRR 111200
BBXX
OXFU2 11121 99364 51739 41598 12107 10199 20139 40168 54000 71800
81100 22224 00200 20504 322// 40805 80164=
00000000