0000009800
229
UECN02 CWAO 111200
TTDD  6112/ 71836 11778 70170 22513 73768 51515 10190 50975=

0000031000
230
USCN02 CWAO 111200
TTAA  61121 71836 99998 01516 00000 00508 ///// ///// 92610
04502 19512 85274 05711 15012 70786 08913 19519 50532 24727
23028 40690 37528 21538 30881 53538 21576 25997 58146 22091
20135 63950 23586 15313 61772 25068 10563 65572 26575 88200
63950 23587 77217 23606=

0000013100
231
SMPO01 LPMG 111200 CCA
AAXX 11121
08512 12570 63011 10135 20078 30014 40106 52042 60061 85830
 333 81820 85650=
0000011000
232
UANT99 KDDL 111236
ARP DLH534 4852N02204W 1236 F360 MS57 198/84 KT
DAIHK QXT AOE 111236 J96A
0000219000
233
SMIN90 VECC 111200 RRA
AAXX 11124
42807 31995 03602 10226 20156 40150 70500
  333 10263 58004=
43333 31495 70905 10272 20231 40129 70511 84401
  333 10302 56109 58013 83616 83818 85070=
42812 32996 00000 10216 20156 40150
  333 10260 58005=
42299 21396 70000 10064 20035 38205 48518 70252 86630
  333 10081 58008 6990/ 82709 85617=
42901 32996 11101 10222 20177 40145 80001
  333 10265 58004=
42806 32996 00000 10240 20183 40150
  333 10270 58002=
42399 21595 60000 10154 20136 40164 70560 83530
  333 10164 58021 6002/=
42811 32696 20000 10234 20180 40151 81430
  333 10282 58003=
42503 31593 80000 10168 20136 40163 74444 8652/
  333 10180 58010=
42711 32994 23201 10212 20159 40162
  333 10248 58005=
42603 32595 61801 10178 20124 40172 84431
  333 10228 58007=
42709 32895 01804 10160 20130 40158
  333 10238 59004=
42810 32596 10000 10230 20165 40151 81200
  333 10245 58000=
42217 31595 40000 10102 20066 38770 48581 70522 84400
  333 10122 58015=
42706 31995 20702 10190 20130 40152 70500 80001
  333 10250 58016 82075=
42403 21595 53205 10154 20129 40165 70562 84550
  333 10203 58015 6996/=
42708 31896 83606 10194 20114 40165 70521 8807/
  333 10241 56059 58014=
42704 31595 50208 10182 20129 40168 70500 82530
  333 10248 58014=
00110 31995 09901 10214 20144 40161 70500
  333 10258 58008=
00109 31995 29902 10208 20129 40152 70500 80001
  333 10263 58008=
42398 21595 50000 10143 20143 40174 71062 82530
  333 10168 58021 6992/=
42506 32595 509// 10194 20174 40122 40122
  333 10228 59007=
42900 32594 23601 10228 20177 40137 82500
  333 10242 59003=
42805 32495 423// 10226 20145 40146 84230
  333 10235 58020=
43309 32594 40501 10278 20243 40118 84121
  333 10304 58007=
43310 32496 40901 10280 20269 40124 82220
  333 10316 59007=
43367 22694 70000 10250 20250 40136 84621
  333 10310 58022 6033/=
43382 22494 52305 10270 20232 40116 82200
  333 10278 58009 6093/=
43367 32596 605// 10284 20231 40119 83371
  333 10326 58010=
42714 32996 03201 10225 20138 40136
  333 10230 58005=
42296 32394 41403 10110 20091 48515
  333 10125 58016=
0000160400
234
SMIN44 DEMS 111200
AAXX 11124
42314 31595 70000 10194 20135 40153 70522 83530
  333 10248 58003 83620=
42404 31495 80201 10174 20154 40168 70522 8463/
  333 10204 58030 81710 84618 85360=
42407 32796 60000 10176 20146 40122 86420
  333 10180 59026=
42420 31795 60000 10200 20184 40312 705// 86570
  333 10240 58023=
42500 21595 70000 10154 20147 40160 72165 84530
  333 10166 58010 6005/ 84620 85360=
42503 31593 80000 10168 20136 40163 74444 8652/
  333 10180 58010=
42515 31596 80000 10160 20048 38711 48520 70522 8653/
  333 10202 58009=
42516 31394 40000 10110 20081 38423 48520 71042 82530
  333 10171 58011=
42523 31595 40000 10164 20124 40133 70300 82430
  333 10185 59002=
42527 32595 32302 10134 20033 38613 41464 82100
  333 10136 20034=
42603 32595 61801 10178 20124 40172 84431
  333 10228 58007=
42619 31996 60000 10210 20167 40139 70520 86030
  333 10271 59002 86360=
42883 32996 00000 10254 20188 40124
  333 10301 58011=
42961 32997 00000 10296 20140 40104
  333 10300 58007=
42969 32998 02304 10280 20187 40128
  333 10301 58002=
42973 31995 01402 10238 20174 40152 70500
  333 10283 58002=
43053 32996 01404 10252 20193 40146
222// 20701
  333 10276 58002=
43097 32996 01801 10240 20154 39129 48525
  333 10274 58000=
43309 32594 40501 10278 20243 40118 84121
  333 10304 58007=
43382 22494 52305 10270 20232 40116 82200
  333 10278 58009 6093/=
42295 NIL=
42316 NIL=
42383 NIL=
42511 NIL=
42588 NIL=
42599 NIL=
42727 NIL=
42795 NIL=
42803 NIL=
42903 NIL=
43385 NIL=
0000011600
235
SMIN90 VECC 111200
AAXX 11124
42503 31593 80000 10168 20136 40163 74444 8652/
  333 10180 58010=
0000011000
236
UANT01 CWAO 111236
ARP UAL75 5406N03429W 1236 F360 MS56 215/30 KT
N17133 DDL IG1 111236 F51A
0000011000
237
UANT01 CWAO 111236
ARP DAL49 5306N02440W 1236 F340 MS60 193/81 KT
N812NW DDL XXW 111236 J92A
0000007500
238
UANT01 BIRK 111236
ARP N17GG 64N030W 1147 F270 MS52 165/23=
0000011100
239
UANT01 CWAO 111237
ARP DAL229 5201N01936W 1236 F330 MS60 206/68 KT
N1201P QXT AOE 111237 F29A
0000028000
240
UENO11 ENMI 111200
TTDD 1111/ 01415 11964 57582 22675 54783 33543 59581 44482 57582
      55391 59781 66275 59581 21212 11913 27519 22820 27521 33731
      29528 44582 28519 55500 29530 66458 29522 77418 28537 88383
      29038 99276 30047 31313 48108 81119=
0000003900
241
UENO12 ENMI 111200
NIL=
0000055200
242
UENO13 ENMI 111200
TTDD 1112/ 01152 11834 64775 22748 63576 33646 67774 44315 72972
      55190 68175 66168 71173 21212 11931 32527 22770 30525 33619
      31536 44566 31532 55462 31546 66421 31042 77403 30045 88279
      30563 99253 30058 11169 31077 22169 31077 31313 48108 81110=
TTDD 6111/ 01241 11709 62980 22644 60581 33554 64780 44504 65779
      55333 65979 21212 11775 29055 22728 31054 33686 29056 44650
      30560 55599 29066 66540 30561 77479 29080 88412 29600 99335
      30110 11333 30609 31313 48108 81120=
0000011000
243
UANT01 CWAO 111237
ARP AFR690 4854N01928W 1237 F300 MS49 199/76 KT
FGZNH QXT AOE 111237 F12A
0000042000
244
SSVX08 KARS 111236
ZZYY 32322 10014 12004 501979 095188 6112/
11119 01810 10237 29087
22219 00237
33311 88872 20000 32366 20001 32383 43474 20020 32334 20040 32268
20060 32002 20080 31522 20100 31416 20120 31396 20140 31380
20500 30816
444 20120 10014 1253/ 521// 60401=
ZZYY 32322 11014 12004 501981 095192 6112/
11119 01810 10238 29088
22219 00239
444 20120 11014 0906/ 521// 60401=
0000013200
245
SMMW21 FWCL 111200 RRB
AAXX 11120
67687 41502 70000 10219 20199 79598 8972/ 333 81920 84825 86258 555 10284 29094=
0000020600
246
ULMG01 FMMI 111200
TTCC 61112 67083 70863 753// 07527 50059 693// 07024 30372 607//
09018 20628 527// 08044 10082 ///// 88999 66120 10063 418//=
TTCC 6111/ 67197 70869 ///// 88999 77999=
0000166900
247
SMCI36 BABJ 111200
AAXX 11121
56144 32765 73201 10038 21154 36827 52022 87/// 333 00202=
56152 32980 02702 11054 21139 36288 52019 333 00200=
56167 32780 70000 10014 21160 37038 52012 87/// 333 00151=
56182 11755 73404 11043 21067 37177 52026 69931 77070 87///
333 00553=
56357 32980 00000 11010 21195 36438 52020 333 00151=
56586 32461 83602 11010 21040 38102 52029 88/// 333 00600=
56748 32960 00000 10131 20005 38371 52014 333 00151=
56763 32980 01103 10188 21016 40141 52024 333 00201=
56768 32980 02204 10146 21032 38194 52020 333 00200=
56838 32670 00000 10161 20113 40183 52011 333 00100=
56886 32969 02204 10094 20044 38319 52028 333 00353=
56946 32980 02501 10155 20075 40196 52014 333 00100=
56959 32965 00401 10202 20148 40160 52017 333 00100=
56969 32960 00000 10164 20164 40173 52019 333 00151=
57731 32668 81101 10066 20034 39800 40313 52025 88///=
57766 11460 80202 10037 20022 40320 52021 69921 70060 88///=
57845 11756 80202 10039 20027 40312 52024 69981 76066 88///=
57853 11440 80401 10043 20037 40321 52024 60011 76066 88///=
57916 32666 80000 10090 20046 39743 40278 52026 88///=
57922 32664 83602 10030 20007 40302 52025 88///=
57932 319// 90000 10062 20053 40308 52026 70060=
58338 11440 80401 10048 20044 40300 52007 69961 76066 88///=
59007 32463 83402 10068 20057 40244 52029 88///=
59046 11566 80202 10086 20050 40270 52017 69911 70060 88///=
59058 31858 82905 10080 20061 30042 40267 52019 71000 88///=
59072 32761 80205 10093 20045 40273 52024 88///=
59087 31958 20701 10146 20102 40233 52021 70500 82///=
59209 11366 80402 10098 20084 40237 52022 69901 76066 88///=
0000103700
248
UDAS02 BABJ 111226
AMDAR 1112
LVR CNFNXM 2808N 11918E 111222 F217 MS178 263/078 TB/ S//1=
LVR CNFNXM 2809N 11916E 111222 F217 MS180 264/078 TB/ S//1=
LVR CNFNXM 2809N 11912E 111223 F217 MS178 263/077 TB/ S//1=
LVR CNFNXM 2810N 11908E 111223 F217 MS185 264/073 TB/ S//1=
LVR CNFLWT 3007N 11253E 111215 F301 MS370 251/102 TB/ S//1=
LVR CNFLWT 2957N 11236E 111218 F301 MS366 253/102 TB/ S//1=
LVR CNFLWT 2948N 11219E 111221 F301 MS355 254/108 TB/ S//1=
LVR CNFLWT 2938N 11202E 111224 F301 MS348 254/113 TB/ S//1=
LVR CNFPQK 3802N 11310E 111215 F256 MS398 272/099 TB/ S//1=
LVR CNFPQK 3756N 11253E 111218 F256 MS393 270/098 TB/ S//1=
LVR CNFPQK 3749N 11235E 111221 F256 MS401 275/095 TB/ S//1=
LVR CNFPQK 3742N 11217E 111224 F256 MS405 277/086 TB/ S//1=
DES CNFLWQ 2614N 10805E 111223 F240 MS223 251/090 TB/ S//1=
DES CNFLWQ 2614N 10804E 111223 F239 MS218 251/089 TB/ S//1=
DES CNFLWQ 2616N 10758E 111224 F230 MS211 260/077 TB/ S//1=
DES CNFLWQ 2617N 10752E 111225 F220 MS200 260/068 TB/ S//1=
00000000