0000120800
909
SMCI33 BABJ 111200
AAXX 11121
51711 32980 70902 11092 21164 38091 52003 87/// 333 00151=
51730 31948 01801 11060 21171 40458 57002 70500 333 00100=
52112 31957 02701 11112 21227 40431 57009 70500 333 00000=
52737 32969 70401 11116 21207 37119 52011 87/// 333 00351=
52787 32980 02904 11183 21261 37065 52014 333 00552=
53352 42955 03202 11139 21255 40444 52019=
53593 32955 02903 11050 21216 40367 52024=
53705 32965 02902 11035 21198 38977 40436 52018 333 00600=
53863 31956 52002 10006 21197 39429 40361 52020 70500 85///=
53975 31957 73201 10021 21174 40329 52020 70500 87///=
54273 32939 02202 11123 21180 39923 40277 52005=
54324 32970 23202 11052 21170 40303 52032 82///=
54405 32973 02905 11019 21219 40336 52026=
54436 31945 00901 11046 21168 40306 52021 70500=
54808 31935 01401 10025 21054 30245 40295 52009 70500=
54826 31958 82514 11062 21104 38499 52004 70500 88///=
54836 31926 00000 11005 21067 39925 40316 52006 70500=
54863 31916 02901 11012 21042 40308 52005 70500=
56018 33/// 92001 11060 21271 36149 52009 333 00252=
56021 32980 81601 11096 21225 36046 52007 88/// 333 00252=
57071 32960 73203 10050 21116 39897 40314 52018 87///=
0000178800
910
SZPS01 AMMC 111233
CREX++
T000103 A001 D01021 D06025++
-0204190 14737360 56130 2014 01 11 12 26 3027 11 07 00 01
00383 0070 00383 0071 00383 0071 00382 0070 00381 0070 00382 0071+
-0669280 15640860 56363 2014 01 11 12 26 //// 11 07 00 01
00509 -0049 00510 -0049 00511 -0050 00510 -0052 00512 -0052 00514 -0051+
-0942890 15995560 56670 2014 01 11 12 26 3040 11 07 00 01
00409 -0067 00406 -0070 00407 -0069 00408 -0068 00411 -0065 00412 -0064+
-1072080 16580190 57131 2014 01 11 12 26 //// 11 07 00 01
00527 0002 00458 -0070 00826 0296 01119 0586 01545 1010 01463 0925+
-1551560 16718860 57210 2014 01 11 12 26 //// 11 07 00 01
00580 -0164 00592 -0155 00589 -0161 00588 -0165 00602 -0155 00610 -0150+
-1775690 16830030 57320 2014 01 11 12 26 3017 11 07 00 01
00502 -0118 00500 -0122 00499 -0125 00498 -0129 00499 -0131 00500 -0132+
-4397330 16861610 65180 2014 01 11 12 26 2885 11 07 00 01
01397 0370 01415 0392 01416 0397 01417 0403 01410 0399 01391 0385+
-2120470 -15978530 65980 2014 01 11 12 26 3010 11 07 00 01
00588 0013 00617 0041 00605 0028 00582 0003 00593 0013 00605 0023+
-2113810 -17518140 66600 2014 01 11 12 26 //// 11 07 00 01
01041 0086 01045 0086 01058 0095 01056 0089 01061 0090 01061 0086+
-1382670 -17176110 66840 2014 01 11 12 26 3008 11 07 00 01
00863 0019 00859 0013 00878 0028 00871 0019 00875 0020 00877 0019+
-1813250 17842750 67050 2014 01 11 12 26 3030 11 07 00 01
01123 0099 01126 0098 01127 0095 01131 0095 01132 0092 01138 0093+
-1760530 17743810 67070 2014 01 11 12 26 3032 11 07 00 01
01153 0035 01157 0034 01161 0033 01164 0032 01170 0033 ///// ////+
-0850250 17919500 67440 2014 01 11 12 26 3027 11 07 00 01
02123 0000 02134 0007 02134 0004 02140 0006 02145 0008 02150 0009++
7777

0000034400
911
SZIO01 AMMC 111233
CREX++
T000103 A001 D01021 D06025++
-1211670 09689190 46280 2014 01 11 12 26 3018 11 07 00 01
00769 0024 00767 0024 00772 0031 00767 0028 00769 0031 00765 0029+
-1042940 10566940 46290 2014 01 11 12 26 //// 11 07 00 01
01097 0030 01019 -0045 01065 0004 01036 -0022 01059 0003 01035 -0018++
7777

0000191600
912
SZAU01 AMMC 111233
CREX++
T000103 A001 D01021 D06025++
-1927750 14705860 59260 2014 01 11 12 26 3018 11 07 00 01
01481 0202 01462 0190 01459 0194 01446 0189 01440 0189 01434 0190+
-2316110 15079000 59670 2014 01 11 12 26 3000 11 07 00 01
02045 0241 02035 0241 02021 0237 02002 0227 01993 0227 01976 0221+
-3447330 15091170 60420 2014 01 11 12 26 2960 11 07 00 01
00473 -0049 00474 -0047 00476 -0045 00472 -0048 00472 -0048 00471 -0048+
-4105000 14591500 60910 2014 01 11 12 26 2888 11 07 00 01
02198 0002 02187 0000 02181 0002 02173 0002 02161 0000 02140 -0014+
-4254640 14793080 61170 2014 01 11 12 26 2898 11 07 00 01
01057 0095 01053 0092 01050 0089 01045 0083 01046 0084 01047 0085+
-3834390 14161360 61410 2014 01 11 12 26 2908 11 07 00 01
00710 -0017 00769 0042 00733 0005 00742 0014 00762 0033 00704 -0025+
-3214890 13364170 62000 2014 01 11 12 26 2957 11 07 00 01
01127 -0013 01130 -0012 01131 -0014 01135 -0011 01137 -0012 01140 -0011+
-3387080 12189720 62080 2014 01 11 12 26 2950 11 07 00 01
01056 0020 01059 0023 01065 0028 01068 0031 01065 0027 01074 0036+
-3182560 11573860 62237 2014 01 11 12 26 2972 11 07 00 01
00981 0079 00981 0080 00978 0078 00980 0081 00975 0077 00972 0075+
-2422000 11339750 62385 2014 01 11 12 26 //// 11 07 00 01
01285 -0052 01252 -0083 01260 -0073 01183 -0148 01252 -0077 01234 -0093+
-2181670 11419110 62430 2014 01 11 12 26 //// 11 07 00 01
02047 -0085 02060 -0069 02054 -0073 02054 -0071 02053 -0070 02043 -0077+
-1800080 12221830 62650 2014 01 11 12 26 3043 11 07 00 01
06527 0065 06519 0064 06513 0062 06507 0065 06503 0068 06498 0068+
-1247190 13084580 63230 2014 01 11 12 26 3050 11 07 00 01
04266 0085 04268 0086 04273 0089 04276 0087 04279 0088 04282 0089+
-1386000 13641580 63511 2014 01 11 12 26 3042 11 07 00 01
01890 0088 01890 0087 01889 0086 01888 0084 01887 0083 01886 0082++
7777

0000082700
913
SMIN03 DEMS 111200
AAXX 11124
42559 32996 63601 10174 20076 40165 82030
  333 10192 58048 82360 86075=
42571 31594 43202 10160 20131 40158 71044 82530
  333 10165 58031=
42667 31994 00505 10170 20118 39568 40168 70500
  333 10196 58049=
42675 31494 80000 10164 20139 40166 71044 886//
  333 10168 58044 88710=
42754 31595 20511 10156 20114 39511 40162 70522 82500
  333 10179 58042 82620=
42779 21596 83605 10196 20174 39438 40141 76262 8552/
  333 10245 58002 6002/ 85620 88458=
42867 31996 22702 10260 20143 40121 70500 80001
  333 10281 58013 82075=
42874 32596 42702 10254 20167 40127 82530
  333 10268 58014 82625 83360=
42933 32997 53202 10256 20086 40125 80008
  333 10286 58026 85270=
43041 32596 42302 10260 20152 39510 40121 82530
  333 10299 58001 82625 84360=
0000026200
914
UGIN90 VANP 111200 RRB
PPBB 61111 42874 
90023 27004 25506 24005 90700 25514=
PPBB 61111 43041
90023 18002 19510 20512 90670 25507 31008 91123 28018 26025 26522
91570 28532 31029=
PPBB 61111 42361 
90012 31502 33008 33512 90378 34017 32518 33517=
0000009700
915
SAIN90 VOCB 111230
METAR VOCB 111230Z 09003KT 6000 NSC 29/14 Q1013 TEMPO 5000 HZ=
0000008900
916
SAIN90 VOCL 111230
METAR VOCL 111230Z 31006KT 6000 NSC 29/22 Q1011 NOSIG=
0000009000
917
SAIN35 VOMM 111230
METAR VOMD 111230Z 10003KT 6000 FEW020 30/16 Q1012 =

0000009500
918
SAIN90 VEAT 111230
METAR VEAT 111230Z 01004KT 2500 HZ SCT020 20/15 Q1015 NOSIG=
0000046700
919
SZPA01 AMMC 111233
CREX++
T000103 A001 D01021 D06025++
0136250 17293000 67590 2014 01 11 12 26 3015 11 07 00 01
01837 0034 01848 0042 01847 0038 01852 0041 01854 0040 01853 0036+
0710610 17137250 67680 2014 01 11 12 26 3013 11 07 00 01
01255 0052 01261 0056 01260 0053 01260 0051 01263 0052 01258 0045+
0698060 15820000 67950 2014 01 11 12 26 3023 11 07 00 01
00706 0068 00710 0071 00716 0076 00719 0078 00722 0081 00723 0081++
7777

0000031800
920
SMMW21 FWCL 111200 RRA
AAXX 11120
67421 31558 72803 10225 20180 38721 48503 71792 8297/ 333 59003 82925
87459 555 10244 29074=
67485 41580 70000 10241 20194 71796 83938 333 81928 87275 555 10244 29078=
67597 31680 73404 10302 20214 39514 48495 71799 82938 333 58000 81932 87280 555 10317 29059=
0000011100
921
UANT01 CWAO 111232
ARP RCH317 5059N03016W 1232 F340 MS50 176/48 KT
88196A DDL XXN 111232 F87A
0000011000
922
UANT01 CWAO 111232
ARP DAL91 5400N01937W 1232 F360 MS67 218/68 KT
N1501P QXT AOE 111232 F24A
0000058200
923
UECG01 FCBB 111200
TTDD 6111/ 64400 NIL=
TTDD 6111/ 64458
11988 817// 22856 815// 33759 713// 44725 701// 55712
711// 66570 681// 77499 709// 88453 669// 99413 677//
11394 649// 22326 637// 33301 581// 44257 575// 55217
611// 66194 569// 77189 579// 88150 545// 99145 563//
11137 553// 22130 483// 33115 517// 44105 507//
21212 11870 15016 22854 14017 33820 06016 44773 04020
55755 00515 66704 34016 77682 28511 88670 25512 99651
23517 11604 24537 22511 26043 33417 26026 44/// /////
55220 22530 66207 22021 77186 28509 88185 29009 99180
33019=
0000012200
924
UHCG01 FCBB 111200
PPCC 61111 64400 NIL=
PPCC 61118 64458
44370 33515 26541 ///// 44120 23518
77999=
0000021000
925
MMIN23 RUMS 111233

URANJ 34502 40111 03000 07121 15809 90833 30836 50028 X0835
URANJ 34502 40111 00204 07121 03809 90700 11200 50060 X////
UFOFS 34503 40110 /1800 9/028 0034/ 3063/ 6069/=
0000255300
926
SMZA21 FAPR 111200
AAXX 11124
68513 36/// /1519 10242 20133 30036 40146 58003
      333 10242 20139 91025 555 91014=
68514 NIL=
68523 36/// /2709 10331 21008 39107 48547 57010
      333 10332 20129 91015 555 91017=
68527 36/// /3104 10322 21003 39070 48534 58011
      333 10325 20180 91010 555 91016=
68572 31370 70805 10184 20145 38427 48535 58000 872//
      333 10211 20115 91008 555 91023=
68575 36/// ///// 10207 20155 39127 48555 58003
      333 10213 20164 555 91020=
68581 36/// /0905 10217 20160 39411 48564 58001
      333 10220 20174 91007 555 91019=
68583 36/// /1606 10248 20183 30057 40165 58003
      333 10272 20195 91013 555 91016=
68589 36/// /0405 10186 20143 38281 48540 58003
      333 10190 20133 91009 555 91024=
68613 36/// /2208 10234 20145 30046 40155 58006
      333 10239 20115 91017 555 91015=
68647 36/// /1402 10239 20114 38927 48533 58008
      333 10240 20144 91008 555 91019=
68651 36/// /1505 10222 20144 38569 48532 58006
      333 10222 20118 91009 555 91021=
68715 36/// /2303 10278 20084 30039 40162 57006
      333 10283 20129 91008 555 91016=
68717 36/// /2206 10276 20110 30008 40147 57012
      333 10282 20133 91011 555 91015=
68723 36/// /2902 10265 20100 39399 48550 58013
      333 10271 20137 91005 555 91016=
68737 32875 11808 10273 20103 39251 48545 57002 81100
      333 10276 20135 91015 555 91016=
68744 36/// /0103 10266 20083 39107 48537 57008
      333 10273 20114 91006 555 91017=
68747 36/// /1406 10256 20133 39637 48572 58006
      333 10256 20127 91012 555 91017=
68754 36/// /1207 10234 20134 39142 48539 57007
      333 10240 20098 91015 555 91018=
68817 36/// /0702 10247 20111 30159 40171 57007
      333 10262 20176 91007 555 91017=
68821 36/// /1605 10254 20117 39919 40152 58013
      333 10256 20142 91009 555 91016=
68835 NIL=
68843 36/// /1708 10217 20142 30072 40170 57005
      333 10223 20140 91015 555 91017=
68849 36/// /1405 10232 20126 39431 48557 57008
      333 10238 20121 91011 555 91018=
68912 36/// /1712 10169 20127 30170 40179 55000
      333 10200 20141 91015 555 91017=
68918 36/// /1709 10214 20139 30162 40178 56003
      333 10223 20163 91014 555 91017=
68921 NIL=
68925 36/// /1804 10248 20141 39795 40149 58007
      333 10248 20126 91009 555 91016=
68926 32970 51205 10234 20134 39986 40162 57011 80000
      333 10244 20141 91011 555 91016=
68935 36/// /1702 10203 20131 30113 40176 57008
      333 10226 20141 91005 555 91017=
0000012300
927
UAUS31 KWBC 111233
ARP UAL501 4249N 08327W 1221 F260 TB CONT LGT, OCNL MOD CHOP RM
    B752 OV FNT130015=
0000008800
928
SMZA21 FAPR 111200 RRA
AAXX 11124
68514 NIL=
68835 NIL=
68921 NIL=
00000000