0000024100
542
SOAT10 KWAL 111303
FA8005BC 011130337 OT12 ID:KN-BASS-01 DT:2014 01 11 13 01
:RD -3068 -3076 -3086 -3099 -3124 -3046 -3056 -3062 -3116 -3106
:PR 0554 0577 0552 0567 0709 0632 0687 0627 0592 0559
:B 13.7V
 46+1NN 219E
0000055200
543
SNVF11 BIRK 111300
BBXX
TFBKF 11134 99635 70202 46/// ///// 22200 10704 70018=
TFBLK 11134 99657 70248 46/// ///// 22200 10807 70034=
TFGRS 11134 99663 70182 46/// ///// 22200 10705 70026=
TFGRV 11134 99638 70225 46/// ///// 22200 11005 70027=
TFGSK 11134 99641 70229 46/// ///// 22200 10906 70032=
TFHFN 11134 99642 70152 46/// ///// 22200 10706 70028=
TFKGR 11134 99657 70136 46/// ///// 22200 10708 70039=
TFSRT 11134 99633 70203 46/// ///// 22200 10907 70034=
TFSTD 11134 99664 70234 46/// ///// 22200 10807 70034=
0000018500
544
SNSQ51 LZIB 111300 CCA
AAXX 11131
11867 42683 52102 10074 20006 39877 40194 83541
  333 83644 85070=
11880 42980 69901 10081 20001 30025 40197 80002
  333 86070=
0000011100
545
UANT99 KDDL 111302
ARP DAL131 5159N03014W 1301 F330 MS53 170/36 KT
N171DZ QXT AOE 111302 F11A
0000010700
546
UANT99 KDDL 111302
ARP AAL241 67N050W 1302 F340 MS62 161/29 KT
N347AN DDL SFJ 111302 F44A
0000011100
547
UANT99 KDDL 111302
ARP BER7402 5002N02906W 1302 F370 MS51 200/43 KT
DABXA QXT AOE 111303 J23A
0000169700
548
SNVD15 KWNB 111300 RRC
BBXX
42003 11131 99260 70856 46/// /1908 10258 40166 53008 91250 22200
00251 10602 20602 70011 333 91209 555 11084 22091 31222 42010
61249 195077 195079 195083 194078 197075 196079 82009 91222=
42055 11131 99222 70940 46/// /1203 10227 40153 51010 91250 22200
00229 10802 20401 305// 40802 70011 333 91204 555 11034 22035
31247 41204 61249 113032 107026 099024 096016 092014 048010 81203
91248=
42057 11131 99170 70815 46/// /0809 10272 20231 40163 53018 91250
22200 00275 10904 20803 310// 40902 70019 333 91210 555 11092
22097 31234 40811 61249 081086 081090 084091 083088 083093 085090
80810 91205=
41047 11131 99275 70715 46/// /1008 10237 20230 40243 53012 91250
22200 00255 10905 20604 313// 40903 70023 333 91210 555 11089
22094 31205 41310 61249 103084 105083 108083 110082 116086 120085
81010 91243=
41048 11131 99320 70695 46/// /1410 10208 20162 40269 53008 91250
22200 00213 10904 20604 314// 40902 70020 333 91212 555 11106
22112 31249 41312 61249 137099 140098 138095 137092 136093 137096
81410 91243=
44066 11131 99396 70726 46/// /1710 10139 20135 40157 56034 91250
22200 00111 10403 20402 316// 40901 70013 333 91212 555 11110
22122 61249 173100 171094 171093 168100 169103 166111=
41040 11131 99145 70530 46/// /0709 10255 20202 40178 51024 91250
22200 00262 10906 20804 307// 40904 70029 333 91211 555 11100
22106 31204 40712 61249 066094 067092 072091 070089 070095 072091
80710 91204=
42039 11131 99288 70860 46/// /1807 10217 20217 40143 56008 91250
22200 00211 10402 20402 70009 333 91208 555 11073 22080 31158
41909 61249 178068 178064 177068 176072 182078 189077 81908 91200=
0000046700
549
SNVD17 KWNB 111300 RRC
BBXX
46066 11131 99528 71550 46/// /2209 10062 49878 56046 91250 22200
00053 11107 20805 325// 41104 70034 333 91211 555 11098 22106
31239 42012 61249 217092 216092 208096 191089 173082 166098 82110
91221=
46078 11131 99560 71526 46/// /1907 10034 20019 49916 58026 91250
22200 00044 11104 20602 323// 41104 70021 333 91208 555 11072
22076 31228 41911 61249 186069 184077 190088 194071 200065 199065
81810 91227=
0000070500
550
SAIR31 OIII 111300
METAR OIAW 111300Z 14006KT 3000 -RA FEW020CB SCT030 OVC070 12/12
Q1016=
METAR OIFM 111300Z 30008KT 0900 -SN BR SCT035 OVC090 01/M01 Q1018
      A3007=
METAR OIII 111300Z 26008KT 1000 BR SCT030 OVC090 01/M02 Q1018
 A3008 TEMPO 0500 BR FEW035CB SCT030 BKN100=
METAR OIKB 111300Z 32006KT 7000 -RA FEW025CB SCT030 OVC090 14/10
Q1021 A3015 NOSIG=
METAR OIKK 111300Z NIL=
METAR OIMM 111300Z 19004KT CAVOK 08/M12 Q1017 A3004=
METAR OISS 111300Z 14006KT 1200 RA BR FEW030CB SCT035 OVC070 04/03
Q1019 A3010=
METAR OITT 111300Z 29004KT 5000 HZ FEW035 SCT190 M02/M10 Q1019
A3012=
METAR OIZH 111300Z 12014KT 9999 FEW035 BKN090 05/M07 Q1018 A3009
NOSIG=
0000061300
551
SAIR32 OIII 111300
METAR OIAA 111300Z 30010KT 6000 SCT040 BKN100
13/10 Q1017=
METAR OIBK 111300Z 10016KT 8000 FEW030CB SCT025 OVC090 16/14 Q1019=
METAR OICC 111300Z 07004KT 4000 BR FEW030CB SCT035 OVC070
00/M00 Q1018 A3008 TEMPO SN=
METAR OIGG 111300Z 27004KT 3000 BR SCT025 BKN090 09/07
Q1013=
METAR OIIE 111300Z 18004KT 7000 SCT025 FEW035CB SCT045
OVC080 02/M01 Q1019 A3011 NOSIG=
METAR OITR 111300Z 08004KT 2000 HZ FEW035 SCT170 M04/M08 Q1019
NOSIG=
METAR OIYY 111300Z 33006KT 6000 FEW030CB FEW035 BKN100 07/M02
Q1019=
METAR OAKN 111300Z NIL=
METAR OAKB 111300Z NIL=
0000012800
552
SNRE15 FMEE 111300
AAXX 11134
61998 26/// /2222 10074 20019 30033 40070 52002
  333 58034 60005 90710 91131=
0000054100
553
UDAS02 BABJ 111254
AMDAR 1112
ASC CNFPXL 3858N 12127E 111251 F046 MS076 280/027 TB/ S//1=
ASC CNFPXL 3858N 12124E 111252 F061 MS113 297/027 TB/ S//1=
ASC CNFPXL 3900N 12123E 111252 F076 MS145 292/023 TB/ S//1=
ASC CNFPXL 3901N 12123E 111252 F080 MS154 288/024 TB/ S//1=
ASC CNFPQL 3146N 12057E 111251 F204 MS228 262/041 TB/ S//1=
ASC CNFPQL 3149N 12055E 111251 F218 MS263 262/040 TB/ S//1=
ASC CNFPQL 3152N 12053E 111252 F232 MS279 266/049 TB/ S//1=
ASC CNFPQL 3155N 12052E 111253 F246 MS301 258/072 TB/ S//1=
0000057600
554
SAIR33 OIII 111300
METAR OIBB 111300Z 12014KT 8000 RA FEW025  FEW030CB SCT035 OVC080
13/10 Q1016 A3001=
METAR OIBP 111300Z 21004KT 6000 4000SE -RA SCT020 FEW025CB
OVC090 15/13 Q1018 A3007=
METAR OICK 111300Z 14004KT 7000 -TSRA FEW010 FEW030CB BKN035
OVC070 05/04 Q1017=
METAR OICS 111300Z 6002KT 7000 SCT035 BKN080 01/M04 Q1018=
METAR OIHH 111300Z NIL=
METAR OINZ 111300Z 03004KT 7000 SCT090 BKN190 10/06 Q1014=
METAR OISR 111300Z 00000KT 4000 BR FEW030CB FEW035 OVC080 10/09
Q1020  RERA=
METAR OITL 111300Z NIL=
METAR OIZC 111300Z NIL=
0000078900
555
UDAS02 BABJ 111256
AMDAR 1112
ASC CNFLWS 2634N 10654E 111251 F079 MS015 272/010 TB/ S//1=
ASC CNFLWS 2634N 10657E 111252 F091 MS014 235/033 TB/ S//1=
ASC CNFLWS 2634N 10701E 111253 F105 MS036 238/042 TB/ S//1=
ASC CNFLWS 2634N 10704E 111253 F119 MS011 255/046 TB/ S//1=
DES CNFLWM 2621N 10712E 111251 F136 MS055 261/041 TB/ S//1=
DES CNFLWM 2621N 10708E 111251 F126 MS033 253/042 TB/ S//1=
DES CNFLWM 2620N 10704E 111252 F111 PS010 249/044 TB/ S//1=
DES CNFLWM 2619N 10659E 111253 F095 MS014 230/035 TB/ S//1=
LVR CNFLWL 3421N 11059E 111245 F371 MS533 257/111 TB/ S//1=
LVR CNFLWL 3443N 11106E 111248 F371 MS529 257/111 TB/ S//1=
LVR CNFLWL 3505N 11106E 111251 F371 MS520 260/103 TB/ S//1=
DES CNFLWL 3528N 11118E 111254 F330 MS533 249/079 TB/ S//1=
0000012100
556
SAIQ01 ORBI 111300
METAR ORBI 111300Z 24004KT 200V260 2500 BR FEW020 SCT024 BKN031
11/08
Q1018 NOSIG=
0000061400
557
SAIR34 OIII 111300
METAR OIAG 111300Z 12010KT 9999 SCT030CB SCT035 13/11 Q1017 RESH=
METAR OIAM 111300Z  11010KT 9999 FEW030CB SCT035 OVC080 12/11
 Q1016=
METAR OICI 111300Z NIL=
METAR OIKQ 111300Z  26008KT 8000 -RA FEW025CB SCT030 BKN090 13/08
 Q1020=
METAR OINN 111300Z 14004KT CAVOK 11/10 Q1014=
METAR OINR 111300Z 15004KT 8000 FEW045 OVC170 11/07 Q1013=
METAR OISL 111300Z  00000KT 9999 FEW020 FEW030CB OVC080 09/05
 Q1020=
METAR OISY 111300Z  00000KT 0900 -RA FEW030CB SCT035 OVC080 01/00
 Q1019=
METAR OITZ 111300Z  18010KT 9999 FEW030CB SCT035 BKN080 00/M05
 Q1016=
0000046400
558
SAIR35 OIII 111300
METAR OIAD 111300Z NIL=
METAR OIBJ 111300Z  08008KT 1200 -RA FEW020 SCT025 OVC070 09/09
 Q1020=
METAR OIBS 111300Z 20012KT 7000 -RA FEW030CB OVC080 ///// Q1019=
METAR OIHR 111300Z NIL=
METAR OIKM 111300Z NIL=
METAR OIKR 111300Z NIL=
METAR OING 111300Z 29004KT 6000 SCT030 BKN090 10/07 Q1016=
METAR OIZB 111300Z 25004KT 9999 FEW035 BKN090 09/M02 Q1023=
METAR OIZI 111300Z 32004KT 9999 FEW020 OVC090 16/M06 Q1019=
0000018300
559
SMST01 EGRR 111200 RRB
AAXX 11124
88900 45/// /0307 10024 20021 39907 49910 55009 333 10046 20018=
88903 42/// /1202 10043 20034 39913 49913 57011 333 10045 21002=
0000014000
560
SNRE20 FMEE 111300
AAXX 11134
61980 22565 51016 10296 20213 40143 81882
  333 58008 60005 81828 85076 90710 91124 92437=
0000011000
561
UANT01 CWAO 111301
ARP BAW9VA 4723N02710W 1301 F380 MS45 217/62 KT
GVIIV QXT AOE 111301 F17A
00000000