0000063500
822
SABY31 UMMN 111300
METAR UMBB 111300Z 27007G12MPS 9999 BKN026CB FEW100 06/01 Q1013
R29/290050 NOSIG=
METAR UMGG 111300Z 29011G15MPS 9999 BKN030 03/M01 Q1006 R28/290050
NOSIG=
METAR UMII 111300Z 28007G12MPS P6000 OVC016CB 01/M02 Q1001 R23/290150
TEMPO 2000 SHSNRA BKN005=
METAR UMMG 111300Z 26009G12MPS 9999 BKN013 BKN066 05/02 Q1009
R35/290060 NOSIG=
METAR UMMM 111300Z 29006G09MPS 9999 BKN020 02/M02 Q1006 R30/190060
NOSIG RMK QFE735=
METAR UMMS 111300Z 29005G09MPS 260V320 9999 BKN017CB 02/M01 Q1006
R31/CLRD// NOSIG=
METAR UMOO 111300Z 30011G14MPS 9999 BKN030 01/M02 Q1005 R31/290067
NOSIG=
0000363100
823
USCI01 BABJ 111200
TTAA  11111 51463 99921 16918 04502 85555 04564 12015 70074
09369 20004 50558 28364 30004 40714 41363 29509 30903 56362
32012 25017 641// 31014 20152 629// 28517 15332 573// 27026
10589 563// 26031 88232 667// 30514 77105 26531 31313 63103
81115=
TTAA  11111 52533 99865 05569 27002 85616 04970 29004 70112
16963 29008 50557 30966 28019 40712 42564 28025 30900 56162
27023 25015 58562 27526 20157 55363 27028 15343 51963 27525
10603 54963 27524 88286 57962 27023 77999 31313 63203 81115=
TTAA  11111 52983 99821 07365 25001 70102 15163 01505 50560
25365 28014 40719 35932 27525 30912 52322 25531 25028 55948
26040 20171 53359 25539 15355 54561 27046 10614 58361 25525
88276 56327 26035 77152 26547 77343 26031 31313 63203 81115=
TTAA  11111 53463 99897 08766 34006 85568 11365 32514 70030
19550 33010 50545 32168 29528 40700 39168 28532 30891 54166
27539 25007 54965 27541 20151 51766 26535 15338 51966 27536
10601 52566 27530 88292 55365 27539 77251 27541 31313 63203
81115=
TTAA  11111 53772 99937 01674 35502 92887 01272 34503 85559
05170 30514 70054 14568 30013 50554 27964 27031 40712 34165
26547 30907 50162 25054 25024 55562 25054 20166 53762 25053
15352 51363 26045 10612 55163 26033 88258 56962 25056 88108
56363 25534 77276 24558 31313 63103 81115=
TTAA  11117 53845 99894 01170 00000 85577 03971 34505 70073
15768 33514 50557 25966 40716 34365 30911 49357 25028 59356
20171 53958 15355 54959 10614 58759 88250 59356 ///// 77999
31313 63103 81115=
TTAA  11111 54218 99948 06564 29503 92861 06566 30010 85514
12561 31506 70963 22760 30517 50536 38157 28026 40688 42963
27537 30878 50962 27539 25996 52162 27042 20141 49363 27544
15331 47764 27536 10598 51764 27530 88282 52962 27040 88112
50564 26532 77210 28045 31313 63203 81116=
TTAA  11111 54342 99021 02563 27002 00217 02564 27506 92829
07764 29006 85479 13163 30010 70929 22757 29518 50534 35735
27537 40686 44750 27047 30875 51562 27547 25993 50165 27550
20140 46576 27044 15331 48179 27041 10597 49779 27027 88332
51361 27546 88126 51378 27540 77264 27050 31313 63303 81115=
TTAA  11111 54511 99025 00562 22503 00234 02269 26506 92860
01571 31512 85526 07368 32017 70003 17362 30514 50545 32160
28032 40700 42163 27040 30891 52763 27049 25008 51163 27055
20153 49763 26054 15342 49163 27039 10604 54363 27032 88292
53762 27051 88131 52363 27035 77265 27056 31313 63203 81115=
TTAA  11111 54727 99014 02659 23503 00238 03460 22005 92866
00759 25008 85536 04750 28011 70044 11381 30016 50555 25168
27525 40714 33769 27549 30909 49749 26556 25027 54357 26562
20170 49960 26066 15357 53762 26555 10614 57962 26538 88267
54350 26560 88107 59562 26041 77198 26067 31313 63203 81115=
TTAA  11111 57083 99015 06060 24501 00237 06462 25005 92873
03468 29510 85552 01967 30009 70069 10771 35007 50561 20968
26521 40723 31729 25030 30919 48340 26040 25037 52358 25556
20182 50961 25564 15368 54963 26053 10623 605// 26539 88259
52757 25553 77176 26070 31313 63203 81115=
TTAA  11111 57127 99970 06045 00000 92901 03038 29001 85581
00562 33005 70096 11517 02005 50564 21318 26506 40725 31726
26522 30922 44961 26030 25043 47763 25545 20188 52763 25053
15373 57963 26057 10625 621// 27036 88222 52563 25552 88137
609// 26052 77174 25059 31313 63203 81115=
TTAA  11111 57131 99983 05869 20505 92909 03676 28510 85586
02772 31009 70093 12368 33509 50562 22335 28514 40722 32331
25026 30919 48134 25031 25037 53561 25540 20181 52364 25057
15366 56166 26550 10621 605// 26538 88242 54361 25543 77187
25061 31313 63203 81115=
0000052300
824
UKRS12 RUMS 111200
TTBB  11123 26702 00006 05223 11925 00213 22846 05316 33838
05932 44731 10958 55695 10740 66666 12715 77536 24722 88526
25122 99506 25550 11449 32558 22416 36957 33349 44739 44330
46738 55324 48940 66306 50939 77297 53940 88276 55338 99236
61537 11164 55546 22157 56347 33136 61959 44114 63359 21212
00006 25504 11986 25514 22854 28516 33753 29014 44553 29526
55501 30020 66248 29544 77230 29542 88215 30031 99170 31027
11157 35011 22124 34520 31313 52903 81129 41414 874//=
0000011000
825
UANT99 KDDL 111304
ARP AFR342 5407N02321W 1304 F340 MS61 204/66 KT
FGEXB QXT AOE 111304 F71A
0000011000
826
UANT99 KDDL 111304
ARP AAL45 5206N02240W 1304 F320 MS58 197/74 KT
N363AA DDL XXN 111304 F04A
0000011000
827
UANT99 KDDL 111304
ARP AAL65 5106N02544W 1304 F330 MS56 185/68 KT
N388AA DDL XXN 111304 F28A
0000010900
828
UANT99 KDDL 111304
ARP AUA87 5101N01556W 1304 F340 MS60 230/86 KT
OELAY QXT AOE 111304 F28A
0000014300
829
UANT99 KDDL 111304
ARP SVW34LY 4426N02106W 1304 F400 3900N03000W 1414 3400N04000W MS56
 021/56 KT
LXFLY QXT AOE 111304 F62A
0000011000
830
UANT99 KDDL 111304
ARP AFR077 5558N02945W 1304 F380 MS61 208/53 KT
FGSPF QXT AOE 111304 F41A
0000011000
831
UANT99 KDDL 111304
ARP KLM713 4752N01543W 1304 F360 MS62 238/81 KT
PHBFA QXT AOE 111304 F69A
0000011100
832
UANT99 KDDL 111304
ARP SVA037 5103N01925W 1304 F350 MS63 204/87 KT
HZAK22 QXT EUA 111305 F57A
0000009500
833
SAIQ01 ORBI 111300
METAR ORNI 111300Z 28010KT 3000 DZ OVC025 11/11 Q1017 NOSIG=
0000066400
834
UEAA01 EDZW 111200
TTDD 6112/ 89002
11268 36988 22237 37988 33166 35188 44080 22792
21212 11499 07510 22420 10510 33412 08012 44405 06511
55358 06011 66347 03510 77303 07510 88298 05510 99289
06502 11281 07010 22275 06010 33266 07511 44258 06510
55251 08010 66241 06012 77236 08510 88225 08512 99221
08015 11212 05013 22206 05510 33202 07505 44198 10510
55190 08010 66182 10014 77171 10021 88161 06522 99157
06011 11154 14501 22146 08514 33142 10013 44132 05514
55127 07511 66125 08507 77122 12514 88115 08523 99110
07514 11106 09017 22102 08016 33099 10518 44093 08028
55087 09017 66084 07023 77080 08020
31313 48008 81102=
0000208200
835
SNRO41 YRBK 111300
AAXX 11131
15015 22598 72503 10032 21016 39608 42811 57007 87800 333 60005 91006
91106=
15020 22597 80202 10078 21025 39994 40193 56006 82277 333 60005 91003
91104=
15090 22997 83002 10100 21036 30103 40195 56008 80007 333 55310 0////
20903
30443 60005 91004 91106=
15108 21/91 92720 11072 21072 38052 48476 52005 74944 333 60005 91028
92722=
15120 22698 60701 10049 20010 39717 40220 57013 81271 333 55306 00346
20728
30577 60005 91003 91104=
15150 22997 30101 10094 21015 39983 40195 56007 81031 333 60005 91002
91103=
15170 22598 72601 10044 21033 39421 42811 57009 85306 333 60005 91003
91105=
15200 22697 81102 10077 20053 30068 40214 56022 885// 333 60005 91002
91102=
15230 22598 61901 10085 20022 39925 40219 57022 85440 333 55301 00163
20468
30405 60005 91002 91103=
15260 22599 50101 10085 21019 39679 40215 57017 85500 333 60005 91003
91103
95000=
15280 21093 62714 11100 21106 37471 47011 58004 74144 85501 333 60005
91020=
15292 22598 52801 10127 20017 39921 40212 57019 81172 333 60005 91002
91103
95000=
15310 22997 41602 10095 20022 30122 40209 56014 82031 333 55310 00541
21107
31048 60005 91003 91104=
15335 22597 43202 10103 20003 30201 40208 56011 84500 333 60005 91003
91104=
15346 22997 22002 10107 21045 39920 40208 57024 80001 333 60005 91003
91104
95090=
15350 22997 22904 10125 21045 30087 40207 55012 80001 333 60005 91009
91110=
15360 22997 32304 10087 20077 30192 40206 56009 80005 333 60005 91006
91107=
15410 22997 22900 10135 20028 30121 40216 55020 82030 333 60005 91001
91103=
15420 22997 12203 10097 21007 30102 40214 56015 80001 333 55310 0////
21175
3//// 60005 91006 91106=
15450 22997 32204 10126 20010 39980 40213 56019 82041 333 55310 00548
21252
30168 60005 91007 91107=
15460 22997 22603 10104 21013 30192 40216 56015 80001 333 60005 91006
91107=
15470 22997 02602 10108 20034 30089 40215 56018 333 60005 91004
91106=
15480 22997 32903 10102 20012 30193 40210 56013 80001 333 60005 91005
91105=
0000015700
836
SSVX13 LFPW 111300
ZZYY 16548 11014 1300/ 346192 059427 6113/ 11119 40070 57050 22219
 00086 444 20130 11014 1200/ 50101 80146 80000 9/015=
0000015100
837
SSVX13 LFPW 111300
ZZYY 54936 11014 1300/ 534770 171034 6113/ 11119 54000 22219 00230
 444 20130 11014 1200/ 50101 80132 80003 9/015=
0000015700
838
SSVX13 LFPW 111300
ZZYY 41637 11014 1300/ 724033 077533 6113/ 11119 40201 52015 22219
 00276 444 20130 11014 1200/ 50101 80130 80002 9/015=
0000015700
839
SSVX13 LFPW 111300
ZZYY 64611 11014 1300/ 760989 022919 6113/ 11119 40039 52023 22219
 00085 444 20130 11014 1200/ 50101 80142 80005 9/015=
0000015700
840
SSVX13 LFPW 111300
ZZYY 64613 11014 1300/ 762357 005399 6113/ 11119 49989 52028 22219
 00080 444 20130 11014 1200/ 50101 80142 80013 9/015=
0000014500
841
SSVX13 LFPW 111300
ZZYY 64519 11014 1300/ 163048 007398 6113/ 11119 49987 52001 444
 20130 11014 1200/ 50101 80138 80002 9/015=
00000000