0000011200
389
UQCN04 CWAO 111200
PPDD  61128 71126 9616/ 29086 29578 970// 30095 98357 30618
30604 31110=

0000014800
390
ULCN04 CWAO 111200
TTCC  61122 71126 70794 63776 29076 50001 65376 29581 30307
70773 30100 20545 74971 30613 88999 77207 30618=

0000017000
391
SOVI10 KWAL 111241
B110070A 011124101"P9751095 B\P~W@@d0ekL1@mt???DCC|>@ml3@VC?@p4DD5C?6b`9IQ<BH2?????@"??? iTLfKB?B?BsBoBzBs:AMPTEMP 26.94C  45-0NN 219E
0000011000
392
UANT99 KDDL 111239
ARP SWR26L 4907N02553W 1239 F380 MS50 201/54 KT
HBJHA QXT AOE 111239 J17A
0000010700
393
UANT99 KDDL 111240
ARP UAL991 70N040W 1240 F320 MS63 135/49 KT
N670UA DDL XXW 111240 F62A
0000132700
394
FAAJ31 UBBB 111200
UBBA GAMET VALID 111200/111500
UBBB BAKU FIR BLW FL 150
SECN 1
SFC WSPD:  12/15 4000M BR SECTOR 3,6,7,8,11
SFC VIS:   LOC 12/15 4000M BR SECTOR 3,6,7,8,11
SIGWX:     NIL
MT OBSC:   SECTOR 7,11
SIG CLD:   NIL
TURB:      MOD SECTOR 2,12,13
ICE:       MOD ON SURFACE SECTOR 5,10,11
SIGMETS APPLICABLE:NIL
SECN II
PSYS 12L 1005HPA SECTOR 1,8 MOV SE 10KT INTSF
WIND/T: 2000FT 230/75KMH PS02 5000FT 250/85KMH MS04 10000FT
        270/90KMH MS08 SECTOR 2,12,13
      2000FT 300/25KMH M01 5000FT 320/35KMH MS06 10000FT
        350/45KMH MS08 SECTOR 1,7,8,9
        2000FT 290/25KMH MS01 5000FT 310/35KMH MS06 10000FT
        330/45KMH MS07 SECTOR 3,4,6
        2000FT 160/25KMH MS11 5000FT 190/45KMH MS15 10000FT
        230/50KMH MS19 SECTOR 5,10,11
CLD: SCT ST 800/1200FT  BKN SC 1500/3000FT BKN10000FT
AGL SECTOR 2,12,13
       BKN SC 2000/5000FT BKN10000FT AGL SECTOR 3,4,6
       BKN SC 3000/6000 FT BKN 10000FT
       AMSL   SECTOR  1,5,7,8,9,10,11
FZ LVL : 3000 FT SECTOR 2,12,13 10000FT SECTOR 1,7,8,9
2000FT SECTOR 3,4,6 AGL, ON SURFACE SECTOR 5,10,11
MNM QNH: 1007 HPA SECTOR 2,12,13
         1010 HPA SECTOR 1,7,8,9,10
         1013 HPA SECTOR 3,6
         1014 HPA SECTOR 4,5
         1023 HPA SECTOR 11
SEA: T09 HGL 3.0 M
0000057100
395
SAER10 OMAM 111200
METAR OMAD 111200Z 29005KT 9999 -RA FEW045 22/12 Q1018 A3008 NOSIG=
METAR OMAH 111200Z 31006KT 7000 OVC080 18/12 Q1019 A3009=
METAR OMAM 111200Z 22005KT 190V250 CAVOK 23/10 Q1017 A3005=
METAR OMDL 111200Z 21006KT 7000 -RA OVC080 17/14 Q1018 A3006=
METAR OMDM 111130Z 20006KT CAVOK 23/10 Q1019 A3009=
METAR OMLW 111200Z 21006KT CAVOK 23/10 Q1018=
METAR OMMZ 111200Z AUTO 15006KT /////NDV //// ///// 23/10 Q1018
A3006=
METAR OMSN 111200Z NIL=
METAR OMSW 111200Z NIL=
METAR OMTH 111130Z 09005KT 9999 BKN090 20/09 Q1019=
0000039200
396
UPKN01 HKNC 111200
PPAA 6112/ 63612 NIL=
PPAA 6112/ 63619 NIL=
PPAA 6112/ 63624 NIL=
PPAA 6112/ 63641 NIL=
PPAA 6112/ 63661 NIL=
PPAA 6112/ 63695 NIL=
PPAA 6112/ 63708 NIL=
PPAA 6112/ 63714 NIL=
PPAA 6112/ 63723 NIL=
PPAA 6112/ 63737 NIL=
PPAA 6112/ 63766 NIL=
PPAA 6112/ 63772 NIL=
PPAA 6112/ 63793 NIL=
PPAA 6112/ 63799 NIL=
PPAA 6112/ 63820 NIL=
0000032200
397
USNR01 DRRN 111200 RRA
TTAA 61111 65503 99981 27078 10012 00/// ///// ///// 92815 19674
09015 85538 18073 03011 70168 08869 07513 50586 09374 12018 40755
20762 19514 30962 351// 26546 25086 455// 27558 20231 563// 24537
15410 645// 23052 10648 839// 22029 88999 77245 28565 41426 31313
45708 81032=
0000011800
398
USMC01 GMMC 111200
TTAA 6112/ 60155 99012 19857 26004=
TTAA 6112/ 60191 NIL=
TTAA 6112/ 60252 NIL=
0000039200
399
UHKN01 HKNC 111200
PPCC 6112/ 63612 NIL=
PPCC 6112/ 63619 NIL=
PPCC 6112/ 63624 NIL=
PPCC 6112/ 63641 NIL=
PPCC 6112/ 63661 NIL=
PPCC 6112/ 63695 NIL=
PPCC 6112/ 63708 NIL=
PPCC 6112/ 63714 NIL=
PPCC 6112/ 63723 NIL=
PPCC 6112/ 63737 NIL=
PPCC 6112/ 63766 NIL=
PPCC 6112/ 63772 NIL=
PPCC 6112/ 63793 NIL=
PPCC 6112/ 63799 NIL=
PPCC 6112/ 63820 NIL=
0000054100
400
UDAS02 BABJ 111231
AMDAR 1112
LVR CNFLWM 2518N 11020E 111221 F276 MS263 261/086 TB/ S//1=
LVR CNFLWM 2531N 11003E 111224 F276 MS258 262/091 TB/ S//1=
LVR CNFLWM 2543N 10946E 111227 F276 MS260 261/090 TB/ S//1=
LVR CNFLWM 2552N 10928E 111230 F276 MS258 262/097 TB/ S//1=
LVR CNFLWL 3148N 10810E 111221 F351 MS488 257/116 TB/ S//1=
LVR CNFLWL 3209N 10828E 111224 F351 MS503 258/116 TB/ S//1=
LVR CNFLWL 3231N 10846E 111227 F371 MS505 256/102 TB/ S//1=
LVR CNFLWL 3250N 10906E 111230 F371 MS508 257/105 TB/ S//1=
0000083900
401
SAUR31 UKMS 111230
METAR UKLR 111230Z 28008MPS 9999 SCT026 BKN100 05/00
         Q1014 NOSIG=
METAR UKLI 111230Z 26006MPS 230V300 CAVOK 06/M04
         Q1018  28090070 NOSIG=
METAR UKON 111230Z 29008G14MPS 260V330 CAVOK 09/M02
         Q1016 NOSIG=
METAR UKCM 111230Z 24009MPS 9999 BKN043 06/01 Q1013
         19190062 NOSIG=
METAR UKCW 111230Z 26010MPS 9999 SCT028CB BKN040
         05/01  Q1007 2719//65 BECMG 25012G20MPS=
METAR UKLU 111230Z 14003MPS 9999 BKN016 03/01 Q1020
         10090070 NOSIG=
METAR UKKK 111230Z 28009MPS 9999 FEW015 BKN033 05/02
         Q1010  26290250 NOSIG=
METAR UKKM 111230Z 28005MPS 9999 -SHRA SCT021CB
         BKN030 05/02  Q1010 33210250 TEMPO 28012G17MPS=
METAR UKKE NIL=
METAR UKLN 111230Z 35003MPS 300V030 CAVOK 07/M03
         Q1018 3309//70 NOSIG=
0000011900
402
SMKN20 HKNC 111200
AAXX 11124
63717 32580 11306 10255 20117 48522 81230 333 58009 81827=
63720 NIL=
0000033200
403
UQCB41 SACO 111200
PPDD 61128 87344
95679 24584 23574 22018 96012 23011 22011 19011 96345
18010 15014 14508 96678 15011 12020 06525 969// 04023
97013 02012 14016 13508 97459 09513 07522 09027 98356
07534 08531 11024 9878/ 09027 11020 99012 11027 09522
10527 99357 08534 09042 08532 999// 06037 103// 09033=
0000011000
404
UANT01 CWAO 111239
ARP DAL109 4611N02512W 1239 F330 MS50 200/74 KT
N1605 QXT AOE 111239 F54A
0000011100
405
UANT01 CWAO 111239
ARP UAL153 5406N02354W 1239 F330 MS60 200/75 KT
N17128 DDL IG1 111239 F55A
0000011100
406
UANT01 CWAO 111239
ARP AWE731 5306N02653W 1239 F370 MS56 195/73 KT
N273AY DDL XXN 111239 J33A
0000011100
407
UANT01 CWAO 111239
ARP DAL117 5201N01621W 1239 F310 MS54 229/82 KT
N175DZ QXT AOE 111239 F97A
0000011000
408
UANT01 CWAO 111240
ARP DLH462 4808N02330W 1239 F340 MS55 190/79 KT
DAIMI QXT EUA 111240 J24A
00000000