0000028900
182
UAPA01 KWBC 111257
ARP ASA822 3500N 14221W 1246 F350 MS56 260/060KT TB CONS LGT CHOP
    OCNL MOD=
ARP WJA1875 3925N 13458W 1250 F370 MS56 259/105KT TB SMTH=
ARP AWE697 3017N 13138W 1252 F380 MS49 290/050KT TB SMTH=
ARP UAL383 2347N 15322W 1253 F350 MS49 218/058KT=
0000015800
183
SMVA01 DEMS 111200 RRA
BBXX
VRJV2 11123 99216 10641 41798 20318 10270 20125 40175 5////
70100 811/6 22274 00260 20705 335// 41006 80185=

0000014200
184
UANT01 CWAO 111257
ARP UAL69 6240N05105W 1256 F360 5901N06001W 1344 5801N06317W MS58
 224/20 KT
N17105 QXS UAK 111257 F61A
0000011000
185
UANT01 CWAO 111257
ARP JAI230 5407N02701W 1256 F370 MS62 191/79 KT
VTJWU QXT AOE 111257 J27A
0000052000
186
UEDL03 EDZW 111200 RRB
TTDD 1111/ 10618
11943 53584 22657 56582 33501 53584 44449 55783 55380
51585 66309 54983 77064 44188 88060 45587
21212 11917 28507 22844 27012 33793 29517 44739 30009
55715 28010 66678 27514 77636 30512 88607 28008 99582
28517 11566 30021 22549 31519 33488 31518 44445 30013
55398 30523 66355 32519 77335 30016 88309 31516 99291
32518 11255 31523 22243 33023 33200 31533 44171 31532
55161 32041 66095 33053 77086 33549 88067 33063 99060
32560
31313 48008 81051=
0000019800
187
ULDL03 EDZW 111200 RRB
TTCC 11111 10618
70838 55583 28011 50052 53584 31015 30380 54183 32018
20641 53183 31533 10094 47986 33051
88999
77067 33063 411//
31313 48008 81051=
0000035200
188
USBW01 VGDC 111200
TTAA 6112/ 41883 NIL=
TTAA 61121 41923 99014 22864 27002 00129 22058 30516 92797 16656
35520 85510 13062 20011 70103 01457 23525 50574 12761 26056 40742
18179 27576 30951 31173 28118 25078 419// 27117 20225 529// 26618
15404 651// 28109 10646 727// 26071 88107 733// 26080 77160 26120=
TTAA 6112/ 41977 NIL=
0000011100
189
UANT99 KDDL 111256
ARP AMX003 4808N02847W 1256 F390 MS49 335/52 KT
N961AM DDL XXW 111256 L35A
0000011100
190
UANT99 KDDL 111256
ARP AWE731 5300N03021W 1256 F370 MS56 183/46 KT
N273AY DDL XXN 111256 J38A
0000029300
191
UDAS02 BABJ 111248
AMDAR 1112
LVR CNFNXM 2836N 11748E 111237 F236 MS218 266/090 TB/ S//1=
LVR CNFNXM 2851N 11736E 111240 F236 MS225 266/085 TB/ S//1=
LVR CNFNXM 2859N 11720E 111243 F236 MS230 265/082 TB/ S//1=
ASC CNFNXM 2853N 11701E 111246 F246 MS243 266/097 TB/ S//1=
0000078900
192
UDAS02 BABJ 111249
AMDAR 1112
ASC CNFPQL 3122N 12112E 111245 F055 MS026 232/018 TB/ S//1=
ASC CNFPQL 3124N 12110E 111246 F075 MS043 250/020 TB/ S//1=
ASC CNFPQL 3126N 12108E 111246 F091 MS043 254/025 TB/ S//1=
ASC CNFPQL 3128N 12106E 111247 F095 MS045 254/029 TB/ S//1=
DES CNFLWM 2618N 10748E 111245 F245 MS221 251/090 TB/ S//1=
DES CNFLWM 2620N 10744E 111245 F232 MS210 257/073 TB/ S//1=
DES CNFLWM 2621N 10737E 111246 F208 MS170 258/058 TB/ S//1=
DES CNFLWM 2623N 10731E 111247 F187 MS111 264/044 TB/ S//1=
LVR CNFLWT 2903N 11037E 111239 F301 MS340 256/121 TB/ S//1=
LVR CNFLWT 2857N 11020E 111242 F301 MS333 256/124 TB/ S//1=
LVR CNFLWT 2851N 11003E 111245 F301 MS333 255/124 TB/ S//1=
LVR CNFLWT 2845N 10946E 111248 F301 MS335 256/122 TB/ S//1=
0000027100
193
SPSA85 EGRR 111247 RRC
SPECI SBMQ 111241Z 12005KT 9999 -RA SCT010 BKN030 BKN080 24/23 Q1014=
SPECI SBRF 111230Z 14007KT 2000 -RA BKN008 BKN017 OVC050 24/23 Q1014=
SPECI SBSM 111240Z 33008KT 2100 +TSRA BKN005 BKN030 FEW040CB BKN090
      22/21 Q1016=
0000009000
194
SPSA85 EGRR 111253 RRD
SPECI SBBI 111245Z 36008KT 9999 FEW014 23/20 Q1019=
0000010000
195
SACY42 EGRR 111250
METAR LCRA 111250Z 28011KT 9999 SCT048 SCT250 17/08 Q1022 NOSIG==
0000092500
196
SAUK39 EGRR 111250
METAR EGDM 111250Z 28010KT 9999 FEW022 08/02 Q1020 BLU=
METAR EGDX 111250Z 30006KT 9999 FEW020 07/03 Q1020 BLU=
METAR EGQL 111250Z 27017KT 9999 FEW025 05/M02 Q1012 BLU NOSIG=
METAR EGQM 111250Z AUTO 29015KT 9999 NCD 06/M01 Q1013=
METAR EGQS 111250Z 26016KT 9999 FEW020CB 05/M00 Q1010 BLU=
METAR EGUB 111250Z 25008KT 9999 FEW018 08/03 Q1019 BLU TEMPO SCT018 WHT=
METAR EGVN 111250Z 28008KT 9999 SCT025 08/01 Q1019 BLU NOSIG=
METAR EGVO 111250Z 28010KT 9999 FEW020 08/01 Q1019 BLU=
METAR EGWU 111250Z 31009KT 9999 SCT025 08/02 Q1019 BLU NOSIG=
METAR EGXC 111250Z 28015KT 9999 FEW020 07/02 Q1017 BLU=
METAR EGXT 111250Z AUTO 28013KT 9999 FEW021/// 07/03 Q1018=
METAR EGXV 111250Z AUTO 26012KT 9999 NCD 06/02 Q1016=
METAR EGXW 111250Z 28011KT 9999 BKN017 05/02 Q1017 WHT BECMG FEW018 BLU=
METAR EGYD 111250Z 29014KT 9999 SCT020 SCT035 06/02 Q1017 WHT BECMG FEW020 BLU=
0000011000
197
UANT99 KDDL 111256
ARP EIN105 5207N02607W 1256 F360 MS59 184/65 KT
EIDUZ DDL XXN 111256 J87A
0000011100
198
UANT99 KDDL 111256
ARP UAL107 5258N03050W 1256 F310 MS55 155/56 KT
N69059 DDL XXN 111256 F25A
0000003900
199
USSB01 VCCC 111200
NIL=
0000012000
200
SMAU40 AMMC 111200 CCA
AAXX 11124
95961 35/// /2920 10146 20117 30129 40171 51009
  333 10185=


0000008600
201
SAYE20 OYGD 111300
METAR OYGD 111300Z 09014KT 9999 SCT030 24/18 Q1015=
00000000