0000011000
082
UANT01 CWAO 111254
ARP KLM751 4906N02654W 1254 F310 MS49 178/71 KT
PHBQA QXT AOE 111254 F20A
0000011000
083
UANT01 CWAO 111254
ARP UAL76 5402N01612W 1254 F330 MS60 240/79 KT
N14118 DDL BLY 111254 F52A
0000011000
084
UANT01 CWAO 111254
ARP UAL75 5404N03818W 1254 F360 MS57 277/36 KT
N17133 DDL IG1 111254 F52A
0000019200
085
ULSW01 LSSW 111200
TTCC 11111 06610
70841 551// 26512 50056 547// 31004 30384 515// 34014
20647 517// 32522 10102 461// 34037 
88999
66053 33551
31313 52608 81100=

0000066700
086
UESW01 LSSW 111200
TTDD 1111/ 06610
11999 551// 22810 557// 33758 539// 44659 563// 55635 547//
66567 555// 77522 539// 88492 549// 99376 549// 11357 529//
22307 509// 33290 527// 44266 511// 55244 529// 66224 507//
77205 525// 88198 517// 99190 523// 11184 507// 22152 497//
33139 473// 44113 485// 55102 457// 66091 473// 77085 459//
88073 465// 99068 447// 11066 407// 22062 407// 33057 445//
44055 423// 55053 427//
21212 11999 27516 22751 26505 33711 25510 44681 28014 55618
32509 66606 29507 77581 26514 88563 27518 99517 34007 11499
30004 22488 27007 33455 32017 44424 33514 55226 33014 66156
33533
31313 52608 81100=

0000011000
087
UANT01 CWAO 111254
ARP DAL49 5303N02828W 1254 F340 MS58 178/56 KT
N812NW DDL XXW 111254 J96A
0000017800
088
ULIL01 BIRK 111200 RRB
TTCC 61113 04089
70785 62774 21567 50992 63174 24089 30307 62774 25115
88999
77282 25123 425// 77918 21072 42322
31313 48008 81112=
0000030000
089
SNAA19 LFVW 111300
AAXX 11134
89646 46/// /1404 11165 29082 37663 4//// 5////=
89661 46/// /0201 11046 29084 39345 4//// 5////=
89648 46/// /2105 11252 29076 37231 4//// 5////=
89659 46/// /3010 11237 29075 37745 4//// 5////=
89666 46/// /1807 11026 29075 39799 4//// 5////=
0000016600
090
SSVX13 LFVW 111255
ZZYY 55583 11014 1200/ 344512 175110 6112/
11119 30105 40105 57009
22219 00136
444 20120 11014 1230/ 50101 80110 80063 9/015=
0000068500
091
UDAC02 EGRR 111257
AMDAR 1112
ASC EU5478   6830N 01641E 111253 F000 MS080 082/007 TB/ S031=
ASC EU5478   6830N 01641E 111253 F001 MS078 065/012 TB/ S031=
ASC EU5478   6830N 01641E 111253 F003 MS081 065/017 TB/ S031=
ASC EU5478   6829N 01641E 111253 F005 MS084 066/018 TB/ S031=
ASC EU5478   6829N 01641E 111253 F008 MS090 062/022 TB/ S031=
ASC EU5478   6829N 01641E 111253 F010 MS098 064/023 TB/ S031=
ASC EU5478   6828N 01641E 111253 F011 MS103 065/017 TB/ S031=
ASC EU5478   6828N 01641E 111253 F012 MS105 078/017 TB/ S031=
ASC EU5478   6828N 01641E 111254 F014 MS111 083/019 TB/ S031=
ASC EU5478   6828N 01641E 111254 F015 MS110 086/017 TB/ S031=
0000102200
092
UKNZ02 NZKL 111200 RRA
TTBB 61098 93112
00015 16847 11857 05800 22851 08259 33845 09463 44842 10063 55809
09063 66769 07670 77698 03463 88674 02478 99661 01663 11649 01465
22619 01363 33606 02179 44593 03362 55520 10959 66441 19168 77391
26570 88340 35760 99328 37569 11267 50562 22239 54761 33100 633//
 31313 48008 80929 41414 796//=
TTBB 61100 93417
00016 16837 11903 09003 22885 08003 33883 07439 44869 09438 55851
10463 66786 08272 77763 06258 88742 05058 99738 05064 11663 01267
22644 00168 33546 08562 44512 10970 55506 11563 66491 12367 77385
26960 88341 33572 99244 54158 11195 63357 22187 59360 33175 60367
44100 62576 31313 47100 80949 41414 48400=
TTBB 61100 93844
00006 15248 11996 16660 22988 16262 33856 07659 44811 05250 55798
05856 66655 03703 77547 13308 88540 12556 99510 14359 11427 25360
22409 26964 33364 33959 44304 42969 55244 50772 66213 53373 77188
51177 88160 57575 99132 60177 11110 58377 22101 53579 33100 53979
 31313 47100 81003 41414 11741=
0000008500
093
SAFJ31 NFNA 111300
METAR NFNA 111300Z 17005KT 9999 SCT020 26/24 Q1005
0000010400
094
SACY41 EGRR 111250
METAR LCRA 111250Z 28011KT 9999 SCT048 SCT250 17/08 Q1022 BLU NOSIG==
0000009200
095
SAFJ31 NFFN 111300
METAR NFFN 111300Z 10004KT 9999 FEW030 23/21 Q1005 NOSIG=
0000055300
096
SMAA01 KARS 111200 RRB
AAXX 1112/
89869 46/// ///// 11079 39916 4//// 5//// 91230=
89866 46/// ///// 11021 39869 4//// 5//// 91230=
89329 46/// ///// 11113 38793 4//// 5//// 91230=
89329 46/// ///// 11111 38792 4//// 5//// 91240=
89799 46/// ///// 11206 4//// 5//// 91240=
89828 46/// ///// 11231 36543 4//// 5//// 91230=
89108 46/// ///// 11208 37008 4//// 5//// 91230=
89879 46/// ///// 10006 39893 4//// 5//// 91230=
89879 46/// ///// 10006 39891 4//// 5//// 91240=
89314 46/// ///// 11126 38283 4//// 5//// 91230=
0000014200
097
UECN03 CWAO 111200
TTDD  6112/ 71867 11884 65969 22789 65169 33648 68968 44580
67968 55448 69368 66234 80364 77088 71767=

0000018000
098
ULCN03 CWAO 111200
TTCC  61121 71867 70775 67568 29582 50977 70168 30091 30277
75766 29601 20509 78364 30106 10910 72566 29083 88648 68968
29082 77224 29111=

0000014800
099
UQCN03 CWAO 111200
PPDD  61128 71867 952// 29570 963// 30093 9705/ 29081 29609
98028 29111 30106 29096 99058 30095 29081 28589=

0000040300
100
SAIN31 VABB 111240
METAR VABB 111240Z 33008KT 4000 FU NSC 22/09 Q1013 NOSIG=
METAR VANP 111240Z 00000KT 4000 HZ NSC 24/13 Q1014 NOSIG=
METAR VOHS 111240Z 11006KT 5000 HZ SCT020 25/14 Q1016 NOSIG=
METAR VOMM 111240Z 06006KT 6000 NSC 25/19 Q1013 NOSIG=
METAR VOTR 111240Z 10004KT 6000 FEW016 28/19 Q1012 TEMPO 5000 HZ=
METAR VOTV 111240Z 00000KT 4000 HZ FEW015 28/23 Q1010 NOSIG=
0000210600
101
SMIN51 VIDP 111200
AAXX 11124
00010 31996 03406 10157 20072 40196 70500
  333 10189 58039=
42027 32596 31401 10044 21022 38477 48563 83400
  333 10068 58054=
42056 32996 00000 10166 20064 39733
  333 10202 58019=
42071 31996 00000 10158 20109 40196 70500
  333 10176 58028=
42083 31594 70000 10044 20022 4//// 71021 87500
  333 10089 58030 87630=
42101 32996 00000 10156 20090 40189
  333 10191 58033=
42103 31995 00000 10166 20091 40195 70510
  333 10179 58038=
42111 21595 80000 10134 20097 39401 40186 76062 8632/
  333 10187 58026 6995/ 84620 84825 81935 86455=
42123 32996 20000 10168 20067 40195 80001
  333 10191 58025 82070=
42131 32996 23401 10154 20064 40195 80001
  333 10190 58036=
42165 31995 63201 10184 20002 40184 70522 80001
  333 10205 58039 86070=
42170 32996 40000 10172 20009 40190 80001
  333 10204 58042 84070=
42182 31994 22703 10166 20115 40186 70510 80001
  333 10183 58037 82070=
42189 31994 20000 10160 20124 40175 71020 80001
  333 10172 58028 82070=
42260 31995 53205 10158 20088 40184 70510 80001
  333 10196 58033=
42273 21595 70902 10152 20141 40170 70562 85530
  333 10156 58025 6003/ 85620 87360=
42328 32996 30508 10164 21013 40187 80001
  333 10188 58030 83075=
42339 31995 33602 10190 20013 40184 70500 80002
  333 10205 58048 83070=
42348 31996 23404 10176 20022 40176 70511 80001
  333 10207 58029 82070=
42369 31594 60504 10156 20135 40172 71042 84530
  333 10183 58036 84620 85360=
42379 21595 70501 10168 20132 40164 71096 85520
  333 10182 56190 58021 6003/ 85625 87458=
42435 32996 40502 10194 20082 40198 80001
  333 10199 58038 84070=
42452 31994 40000 10176 20046 40180 70520 80002
  333 10190 58043=
42463 31995 20502 10168 20113 40183 70500 80001
  333 10188 58045=
42475 21493 89901 10166 20166 4//// 75165 8672/
  333 10185 56290 58/// 6997/ 83710 86625 88458=
42479 21594 70905 10174 20167 40162 71092 84330
  333 10191 58020 6006/ 84620 81930 85360=
42542 31996 40504 10168 20038 39583 40175 70500 80001
  333 10182 58047 84070=
00000000