0000013200
342
SNVF51 EGRR 111300
BBXX
62304 11134 99512 10018 46/98 /3321 10078 40195 51027 22200 10501
70006 333 90710 91129=
0000012800
343
SNVF51 EGRR 111300
BBXX
62103 11134 99499 70029 46/99 /0208 10089 20030 40217 50005 22200
00111 10803 70014=
0000086900
344
SAUK63 EGRR 111250
METAR EGDM 111250Z 28010KT 9999 FEW022 08/02 Q1020=
METAR EGDX 111250Z 30006KT 9999 FEW020 07/03 Q1020=
METAR EGQL 111250Z 27017KT 9999 FEW025 05/M02 Q1012 NOSIG=
METAR EGQM 111250Z AUTO 29015KT 9999 NCD 06/M01 Q1013=
METAR EGQS 111250Z 26016KT 9999 FEW020CB 05/M00 Q1010=
METAR EGUB 111250Z 25008KT 9999 FEW018 08/03 Q1019 TEMPO SCT018=
METAR EGVN 111250Z 28008KT 9999 SCT025 08/01 Q1019 NOSIG=
METAR EGVO 111250Z 28010KT 9999 FEW020 08/01 Q1019=
METAR EGWU 111250Z 31009KT 9999 SCT025 08/02 Q1019 NOSIG=
METAR EGXC 111250Z 28015KT 9999 FEW020 07/02 Q1017=
METAR EGXT 111250Z AUTO 28013KT 9999 FEW021/// 07/03 Q1018=
METAR EGXV 111250Z AUTO 26012KT 9999 NCD 06/02 Q1016=
METAR EGXW 111250Z 28011KT 9999 BKN017 05/02 Q1017 BECMG FEW018=
METAR EGYD 111250Z 29014KT 9999 SCT020 SCT035 06/02 Q1017 BECMG FEW020=
0000025400
345
SAKU31 NCRG 111300
METAR NCRG 111300Z
35004KT 9999 SCT012 BKN090 25/24 Q1009=
METAR NCAI 111300Z AUTO
/////KT //// /////// 25/23 Q1010=
METAR NCMH 111300Z AUTO
04010G23KT //// ////// 27/24 Q1006=
METAR NCPY 111300Z AUTO
NIL=
0000066600
346
UPZA01 FAPR 111200
PPAA 61100 68263
44200 ///// ///// 44385 04009 30006 29009 44340 31520 29031 29041
44320 28544 28544 33016
77999=
PPAA 61100 68442
44200 ///// ///// 44385 32010 32011 28034 44340 26016 28037 28552
44320 29578 29573 30530
77205 29578=
PPAA 61100 68538
44200 ///// ///// 44385 25005 33009 27023 44340 25531 26038 26532
44320 25040 29072 27036
77155 29072=
PPAA 61100 68592
44200 16008 20006 44385 30502 28520 28027 44340 28046 29566 28075
44320 28079 29067 31537
77237 29075=
PPAA 61100 68842
44200 21016 25510 44385 26013 29517 26536 44340 25046 27054 27057
44320 25065 27058 28043
77169 26581=
0000068500
347
UDAC02 EGRR 111302
AMDAR 1112
ASC EU5478   6827N 01642E 111254 F017 MS115 082/015 TB/ S031=
ASC EU5478   6825N 01639E 111254 F034 MS139 109/009 TB/ S031=
ASC EU5478   6823N 01637E 111255 F055 MS188 116/017 TB/ S031=
ASC EU5478   6821N 01634E 111255 F077 MS219 097/031 TB/ S031=
ASC EU5478   6818N 01631E 111256 F094 MS221 083/036 TB/ S031=
ASC EU5478   6816N 01628E 111257 F107 MS245 077/034 TB/ S031=
ASC EU5478   6813N 01625E 111257 F126 MS280 080/040 TB/ S031=
ASC EU5478   6810N 01621E 111258 F145 MS310 075/040 TB/ S031=
ASC EU5478   6807N 01618E 111258 F162 MS334 073/041 TB/ S031=
ASC EU5478   6803N 01614E 111259 F177 MS349 072/042 TB/ S031=
0000039800
348
SWIO40 RJTD 111300
:PRS 1 #1 1715 1704 1714 1714 1709 1714 1707 1728 1701 1713 1701 1707
1732 1698 1744 1719 1727 1750 1722 1752 1720 1733 1720 1731 1746 1721
1731 1716 1717 1723 :RAD 1 #3 6093 6095 6096 6100 6103 6106 6113 6110
6111 6113 :ENC 5 #5 5087 5090 5106 5102 5101 5111 5098 5087 5089 5085
5077 5068 :SW1 60 #60 60 :SW2 30 #60 60 :BAT 14 #15 12.8 :NAME 
0650018E=
0000068500
349
UDEU02 EGRR 111302
AMDAR 1111
LVR EU4591   3531N 01026W 111155 F370 MS606 326/055 TB/ S031=
LVR EU4591   3448N 01105W 111202 F370 MS608 328/057 TB/ S031=
LVR EU4591   3406N 01142W 111209 F370 MS608 316/052 TB/ S031=
LVR EU4591   3325N 01219W 111216 F370 MS605 302/052 TB/ S031=
LVR EU4591   3244N 01254W 111223 F370 MS600 295/050 TB/ S031=
LVR EU4591   3204N 01328W 111230 F370 MS590 297/046 TB/ S031=
LVR EU4591   3122N 01402W 111237 F370 MS578 288/046 TB/ S031=
LVR EU4591   3042N 01435W 111244 F370 MS570 292/054 TB/ S031=
LVR EU4591   3002N 01508W 111251 F370 MS575 302/053 TB/ S031=
DES EU4591   2909N 01508W 111258 F296 MS423 288/037 TB/ S031=
0000014200
350
UPBW01 VGDC 111200 RRA
PPAA 61122 41923 55385 20011 23525 26056 55340 27576 28118 27117
55320 26618 28109 26071 77160 26120=
0000043300
351
UDEU02 EGRR 111302 RRA
AMDAR 1112
LVR EU2230   3820N 00855W 111211 F350 MS592 356/053 TB/ S031=
LVR EU2230   3726N 00920W 111218 F350 MS592 352/057 TB/ S031=
LVR EU2230   3633N 00944W 111225 F350 MS590 348/059 TB/ S031=
LVR EU2230   3543N 01014W 111232 F350 MS580 333/055 TB/ S031=
LVR EU2230   3500N 01053W 111239 F350 MS577 321/056 TB/ S031=
LVR EU2230   3419N 01130W 111246 F350 MS572 314/051 TB/ S031=
0000043300
352
UDEU02 EGRR 111302 RRB
AMDAR 1112
LVR EU2863   5044N 00441E 111221 F330 MS555 255/074 TB/ S031=
LVR EU2863   5008N 00357E 111228 F330 MS555 250/074 TB/ S031=
LVR EU2863   4931N 00315E 111235 F330 MS557 245/072 TB/ S031=
LVR EU2863   4851N 00241E 111242 F330 MS577 248/063 TB/ S031=
LVR EU2863   4808N 00213E 111249 F330 MS567 247/055 TB/ S031=
LVR EU2863   4723N 00149E 111256 F330 MS565 247/049 TB/ S031=
0000069700
353
UDEU02 EGRR 111302 RRC
AMDAR 1112
ASC EU0084   5231N 00454E 111232 F096 MS138 285/030 TB0 S031
333 F096 VG007=
ASC EU0084   5232N 00457E 111232 F116 MS182 286/031 TB0 S031
333 F116 VG006=
ASC EU0084   5235N 00502E 111233 F136 MS221 272/043 TB1 S031
333 F136 VG025=
ASC EU0084   5240N 00511E 111234 F159 MS262 258/052 TB0 S031
333 F159 VG005=
ASC EU0084   5245N 00519E 111235 F175 MS300 247/055 TB0 S031
333 F175 VG002=
UNS EU0084   5324N 00627E 111242 F295 MS485 239/062 TB0 S031
333 F295 VG000=
LVR EU0084   5355N 00754E 111249 F350 MS514 244/061 TB0 S031
333 F350 VG000=
LVR EU0084   5425N 00921E 111256 F350 MS505 251/056 TB0 S031
333 F350 VG000=
0000068900
354
UDEU02 EGRR 111302 RRD
AMDAR 1111
LVR EU0016   4244N 00642W 111152 F370 MS633 299/017 TB/ S031=
LVR EU0016   4156N 00708W 111159 F370 MS636 319/019 TB/ S031=
LVR EU0016   4106N 00734W 111206 F370 MS640 337/026 TB/ S031=
LVR EU0016   4015N 00800W 111213 F370 MS633 345/032 TB/ S031=
LVR EU0016   3924N 00826W 111220 F370 MS625 336/041 TB/ S031=
LVR EU0016   3832N 00851W 111227 F370 MS633 338/049 TB/ S031=
LVR EU0016   3739N 00916W 111234 F370 MS625 332/052 TB/ S031=
LVR EU0016   3647N 00939W 111241 F390 MS566 323/055 TB/ S031=
LVR EU0016   3556N 01004W 111248 F390 MS559 320/052 TB/ S031=
LVR EU0016   3514N 01042W 111255 F390 MS590 304/071 TB/ S031=
0000030100
355
UDAF02 EGRR 111302
AMDAR 1112
LVR EU0225   2956N 01303W 111240 F250 MS300 299/032 TB/ S031=
UNS EU0225   2918N 01326W 111247 F117 PS000 324/017 TB/ S031=
UNS EU0225   2854N 01338W 111254 F008 PS110 206/004 TB/ S031=
LVR EU0225   2856N 01337W 111255 F000 PS160 224/007 TB/ S031=
0000068900
356
UDEU02 EGRR 111302 RRE
AMDAR 1111
UNS EU2535   5000N 01503W 111151 F320 MS555 246/070 TB/ S031=
LVR EU2535   5001N 01617W 111158 F320 MS555 232/070 TB0 S031=
LVR EU2535   5001N 01733W 111205 F320 MS557 218/077 TB0 S031=
LVR EU2535   5001N 01849W 111212 F320 MS557 206/087 TB0 S031=
LVR EU2535   5000N 02007W 111219 F320 MS552 196/086 TB0 S031=
LVR EU2535   5003N 02127W 111226 F320 MS562 196/080 TB0 S031=
LVR EU2535   5005N 02248W 111233 F319 MS572 187/080 TB0 S031=
LVR EU2535   5006N 02411W 111240 F319 MS565 176/081 TB0 S031=
LVR EU2535   5006N 02536W 111247 F320 MS527 183/079 TB0 S031=
LVR EU2535   5005N 02659W 111254 F320 MS522 184/063 TB0 S031=
0000043300
357
UDEU02 EGRR 111302 RRF
AMDAR 1112
LVR EU0164   4031N 00334W 111221 F018 PS090 184/000 TB/ S031=
UNS EU0164   4058N 00313W 111228 F195 MS210 322/004 TB/ S031=
LVR EU0164   4145N 00303W 111235 F335 MS560 349/017 TB/ S031=
LVR EU0164   4234N 00248W 111242 F380 MS570 263/008 TB/ S031=
LVR EU0164   4319N 00213W 111249 F380 MS570 276/008 TB/ S031=
LVR EU0164   4404N 00140W 111256 F380 MS570 291/007 TB/ S031=
0000027200
358
UHBW01 VGDC 111200
PPCC 6112/ 41859 NIL=
PPCC 6112/ 41883 NIL=
PPCC 6112/ 41891 NIL=
PPCC 6112/ 41907 NIL=
PPCC 6112/ 41923 NIL=
PPCC 6112/ 41936 NIL=
PPCC 6112/ 41943 NIL=
PPCC 6112/ 41950 NIL=
PPCC 6112/ 41977 NIL=
PPCC 6112/ 41992 NIL=
0000027200
359
UQBW01 VGDC 111200
PPDD 6112/ 41859 NIL=
PPDD 6112/ 41883 NIL=
PPDD 6112/ 41891 NIL=
PPDD 6112/ 41907 NIL=
PPDD 6112/ 41923 NIL=
PPDD 6112/ 41936 NIL=
PPDD 6112/ 41943 NIL=
PPDD 6112/ 41950 NIL=
PPDD 6112/ 41977 NIL=
PPDD 6112/ 41992 NIL=
0000009400
360
SNVD25 LFPW 111300
BBXX
BAREU12 11134 99406 70741 46/// ///// 40118
22262=
0000011100
361
UANT99 KDDL 111259
ARP AWE755 5103N01559W 1259 F380 MS62 238/55 KT
N288AY DDL BYT 111259 J70A
00000000