0000041700
769
SXXX32 EUMS 111246
26CB10AC
:PRS 1 /1 -1337 -1337 -1337 -1337 -1337 -1337 -1337 -1337 -1337 -1337 -1337 -1337 -1337 -1338 -1337 -1337 -1337 -1337 -1337 -1337 -1337 -1337 -1337 -1337 -1337 -1337 -1337 -1337 -1338 -1337 :RAD 3 /3 5976 5970 5963 5957 5953 5949 5946 5941 5937 5932 :RA2 3 /3 5958 5958 5948 5940 5936 5932 5927 5925 5923 5914 :SW1 47 /60 60 :SW2 17 /60 60 :BAT 14 /15 12.6 :NAME 26CB10AC
0000044900
770
SXXX32 EUMS 111246 RRA
1227146C
:PRS 1 /1 3875 3871 3872 3873 3872 3874 3876 3877 3874 3878 3881 3874 3873 3872 3869 3866 3864 3863 3860 3861 3859 3856 3856 3857 3859 3860 3862 3863 3860 3853 :RAD 3 /3 3865 3860 3864 3862 3858 3852 3846 3843 3849 3847 3839 3836 3808 3816 3816 3800 3807 3792 3779 3775 :ENC 1 /5 4632 4636 4631 4620 4615 4616 4601 4582 4579 4569 4558 4543 :SW1 47 /60 0 :SW2 17 /60 0 :BAT 14 /15 12.4 :NAME 1227146C
0000011100
771
UANT99 KDDL 111247
ARP SVA037 5103N01559W 1246 F350 MS64 231/75 KT
HZAK22 QXT EUA 111247 F55A
0000011000
772
UANT99 KDDL 111247
ARP KLM713 4837N01252W 1246 F360 MS62 259/75 KT
PHBFA QXT AOE 111247 F66A
0000011100
773
UANT99 KDDL 111247
ARP BAW2277 6100N01425W 1246 F360 MS53 240/49 KT
GVIIP QXT AOW 111247 F06A
0000011000
774
UANT99 KDDL 111247
ARP FWI520 4901N01552W 1247 F360 MS64 237/79 KT
FOFDF QXT AOE 111247 J19A
0000011100
775
UANT99 KDDL 111248
ARP AWE735 5307N02301W 1248 F370 MS62 200/58 KT
N286AY DDL XXN 111248 J80A
0000011100
776
UANT99 KDDL 111248
ARP DAL603 5306N02252W 1248 F360 MS62 208/66 KT
N815NW DDL XXW 111248 J29A
0000034300
777
SNVD15 KWNB 111100 RRU
BBXX
42369 11111 99272 70903 46/// /1901 1//// 91040=
42375 11111 99285 70883 46/// /1812 1//// 91040 22200 10402 70009
555 11096 22104=
42392 11111 99272 70900 46/// ///// 1//// 91040 22200 10402 70009=
42887 11111 99282 70885 46/// /2113 10228 20204 91040 22200 10402
70008 555 11104 22113=
0000011200
778
SMCI31 BABJ 111200 CCA
AAXX 11121
58208 31937 81601 10046 20007 30256 40312 52009 70500 88///=
0000011200
779
SMCI34 BABJ 111200 CCA
AAXX 11121
58730 11659 83201 10105 20061 40267 52010 69901 70060 88///=
0000015200
780
SMVB01 EGRR 111200 RRA
BBXX
TBWUK58 11124 99080 10761 41996 01903 10278 20222 40100 57010 70200
80000 22233 20000 327// 40502 80240=
0000113400
781
SMKR11 BABJ 111200
AAXX 11121
47003 32980 00000 11108 21170 30238 40242 52001 333 10021=
47005 32980 02304 11162 21204 38607 53008 333 11115=
47022 32975 00000 11122 21217 38832 57008 333 11070=
47028 32963 01801 11053 21094 30180 40280 53002 333 10008=
47031 32970 03602 11126 21221 38948 58001 333 11085=
47037 32970 00000 11082 21139 30172 40303 53007 333 11012=
47039 31556 60000 11078 21119 30100 40302 57010 71022 885//
333 11004=
47046 32969 02305 10000 21116 30231 40254 53005 333 10036=
47050 32965 20000 11053 21123 30238 40273 57006 80002 333
10001=
47052 32565 40000 11054 21079 39942 40297 52015 84500 333
10000=
47060 32760 62301 11005 21058 30229 40289 57001 86030 333
10012=
47061 32980 00000 10005 21151 30218 40263 57006 333 10048=
47065 32765 80903 11013 21057 30230 40297 57003 8803/ 333
10027=
47067 32965 82503 11042 21121 30201 40327 57012 80001 333
10015=
47068 32560 80702 11013 21030 30261 40297 58005 85502 333
10030=
47070 32570 80000 11020 21091 30218 40309 57003 88500 333
10017=
47075 32980 02301 11064 21100 39972 40425 52007 333 11007=
0000011000
782
UANT01 CWAO 111247
ARP AAL63 4824N03334W 1247 F320 MS51 288/22 KT
N371AA DDL XXN 111247 F52A
0000031700
783
USSZ11 ENMI 111200
TTAA 61111 01004
99007 00548 36001 00071 00756 22003 92687 06311 21517
85342 11507 24019 70855 09384 32019 50539 22368 03012
40699 34962 00516 30893 51342 00521 25009 59957 35022
20145 69357 35526 15314 72959 31011 10552 75164 29531
88169 75756 36016
77999
31313 48008 81054=
0000089800
784
UKSZ11 ENMI 111200
TTBB 61118 01004
00007 00548 11853 11505 22844 11311 33840 10556 44837
06778 55754 06393 66614 14983 77597 13982 88581 14779
99538 19564 11461 26377 22384 37358 33328 46740 44293
52527 55263 58157 66233 62558 77169 75756 88161 75956
99157 72557 11126 70964 22100 74964
21212 00007 36001 11947 19511 22914 22018 33868 22018
44823 27523 55758 30021 66733 29519 77713 30019 88701
32019 99614 26013 11610 26510 22604 31505 33590 35510
44572 34510 55553 01011 66539 35514 77531 00513 88521
35012 99510 03012 11498 03511 22476 07013 33463 04512
44453 06011 55435 00513 66419 35516 77407 01514 88378
35519 99358 01017 11327 34522 22300 00521 33272 01519
44250 35022 55206 35527 66172 01018 77161 33019 88156
35513 99153 32510 11153 32010 22145 31017 33140 32520
44136 31519 55130 33518 66115 30021 77110 31523 88100
30031
31313 48008 81054
41414 /////=
0000023700
785
ULSZ11 ENMI 111200
TTCC 61111 01004
70759 76764 30038 50950 82761 29032 30234 80761 29570
20463 82762 30564 10859 75768 28579
88439 85160 29544
77088 28591 41568 77152 28090 43250 77284 29078 41745
31313 48008 81054=
0000061600
786
UESZ11 ENMI 111200
TTDD 6111/ 01004
11781 72965 22439 85160 33335 83360 44266 77962 55214
83362 66181 84962 77137 71767 88112 78167 99105 78567
11086 67573 22082 61775 33066 69573
21212 11950 28530 22913 30534 33874 29035 44832 29043
55748 32028 66698 30039 77649 32034 88620 30540 99585
32027 11570 31524 22517 28526 33465 28039 44428 30051
55405 28550 66359 29557 77338 28066 88314 28075 99298
30071 11284 29078 22239 30034 33209 30568 44184 29060
55157 27088 66152 28090 77127 31565 88117 30549 99110
28559 11102 28581 22088 28591 33079 32548 44076 33039
55066 29552
31313 48008 81054=
0000011100
787
UANT01 CWAO 111247
ARP LOT6505 5848N03743W 1247 F380 MS57 339/33 KT
SPLRE DDL XXN 111247 L51A
0000011100
788
UAUS31 KWBC 111248
ARP UAL908 66N 020W 1241 F320 TB LGT OCNL MOD CHOP RM B763 OV
    66N020W=
00000000