0000407000
682
SAIR31 OIII 111300
METAR OIAA 111300Z 30010KT 6000 SCT040 BKN100
13/10 Q1017=
METAR OIAG 111300Z 12010KT 9999 SCT030CB SCT035 13/11 Q1017 RESH=
 METAR OIAH 111300Z 00000KT 4000 RA FEW030CB SCT035 OVC070 09/09
 Q1016=
METAR OIAI 111300Z 09002KT 9999 FEW035CB SCT040 OVC080 11/09 Q1015=
 METAR OIAM 111300Z 11010KT 9999 FEW030CB SCT035 OVC080 12/11
 Q1016=
 METAR OIAW 111300Z 14006KT 3000 -RA FEW020CB SCT030 OVC070 12/12
 Q1016=
 METAR OIBA 111300Z 07008KT 3000 -RA FEW025CB FEW030 OVC080 17/15
 Q1018=
 METAR OIBB 111300Z 12014KT 8000 RA FEW025 FEW030CB SCT035 OVC080
 13/10 Q1016 A3001=
 METAR OIBK 111300Z 10016KT 8000 FEW030CB SCT025 OVC090 16/14
 Q1019=
 METAR OIBL 111300Z 06010KT 4000 BR FEW020CB SCT025 OVC080 14/13
 Q1019=
METAR OIBS 111300Z 20012KT 7000 -RA FEW030CB OVC080 ///// Q1019=
 METAR OICC 111300Z 07004KT 4000 BR FEW030CB SCT035 OVC070 00/M00
 Q1018 A3008 TEMPO SN=
 METAR OICI 111300Z 00000KT 8000 FEW015 FEW025CB SCT035 BKN090
 05/05 Q1016 A3002=
 METAR OICJ 111250Z 00000KT 2000 SN FEW030CB SCT035 OVC070 01/M01
 Q1017=
 METAR OICK 111300Z 14004KT 7000 -TSRA FEW010 FEW030CB BKN035
 OVC070 05/04 Q1017=
METAR OICS 111300Z 6002KT 7000 SCT035 BKN080 01/M04 Q1018=
METAR OIFK 111300Z 00000KT 2000 BR BKN020 OVC070 01/00 Q1022=
 METAR OIFM 111300Z 30008KT 0900 -SN BR SCT035 OVC090 01/M01 Q1018
 A3007=
 METAR OIFS 111300Z 00000KT 1000 -SN BR FEW025CB SCT030 OVC070
 M03/M04 Q1018=
METAR OIGG 111300Z 27004KT 3000 BR SCT025 BKN090 09/07
Q1013=
METAR OIGK 111250Z 00000KT 9999 SCT020 OVC080 M01/M06 Q1016=
 METAR OIHH 111300Z 00000KT 2000 BR FEW030CB BKN035 OVC090 M04/M07
 Q1018=
METAR OIHM 111300Z 00000KT 1000 BR SCT035 OVC090 00/M01 Q1017=
 METAR OIIE 111300Z 18004KT 7000 SCT025 FEW035CB SCT045 OVC080
 02/M01 Q1019 A3011 NOSIG=
 METAR OIII 111300Z 26008KT 1000 BR SCT030 OVC090 01/M02 Q1018
 A3008 TEMPO 0500 BR FEW035CB SCT030 BKN100 TEMPO 0500 BR FEW035CB SCT030 BKN100=
METAR OIIK 111300Z 00000KT 8000 SCT040 BKN090 01/M03 Q1019=
 METAR OIIP 111300Z 00000KT 3000 BR FEW020 SCT035 OVC080 M01/M01
 Q1017=
METAR OIIS 111300Z 09002KT 9999 SCT030 BKN090 04/M02 Q1018=
 METAR OIKB 111300Z 32006KT 7000 -RA FEW025CB SCT030 OVC090 14/10
 Q1021 A3015 NOSIG=
METAR OIKK 111250Z 00000KT 9999 SCT035 BKN100 03/M04 Q1019 A3011=
 METAR OIKO 111250Z 00000KT 6000 -SHRA FEW015 SCT025CB OVC070 16/10
 Q1021=
 METAR OIKQ 111300Z 26008KT 8000 -RA FEW025CB SCT030 BKN090 13/08
 Q1020=
METAR OIMB 111300Z 09012KT 9999 SCT040 BKN090 04/M14 Q1019=
METAR OIMC 111250Z 15012KT 9999 SCT040 SCT180 14/M06 Q1017=
METAR OIMD 111250Z 09006KT 9999 FEW035 BKN100 06/M05 Q1015=
METAR OIMM 111300Z 19004KT CAVOK 08/M12 Q1017 A3004=
METAR OINB 111300Z 06004KT 9999 SCT022 BKN100 10/08 Q1013=
METAR OING 111300Z 29004KT 6000 SCT030 BKN090 10/07 Q1016=
METAR OINK 111300Z 00000KT 8000 FEW035 BKN100 10/05 Q1014=
METAR OINN 111300Z 14004KT CAVOK 11/10 Q1014=
METAR OINR 111300Z 15004KT 8000 FEW045 OVC170 11/07 Q1013=
 METAR OISA 111250Z 27006KT 8000 -SHRA FEW035CB SCT040 OVC090 02/00
 Q1017=
METAR OISF 111250Z 00000KT 8000 FEW035CB SCT040 OVC100 06/02 Q1018=
 METAR OISL 111300Z 00000KT 9999 FEW020 FEW030CB OVC080 09/05
 Q1020=
 METAR OISS 111300Z 14006KT 1200 RA BR FEW030CB SCT035 OVC070 04/03
 Q1019 A3010=
 METAR OISY 111300Z 00000KT 0900 -RA FEW030CB SCT035 OVC080 01/00
 Q1019=
METAR OITL 111250Z 23019KT 9999 SCT090 BKN190 00/M03 Q1015=
 METAR OITR 111300Z 08004KT 2000 HZ FEW035 SCT170 M04/M08 Q1019
 NOSIG=
 METAR OITT 111300Z 29004KT 5000 HZ FEW035 SCT190 M02/M10 Q1019
 A3012=
METAR OITU 111250Z 00000KT 6000 NSC M09/M13 Q1019=
 METAR OIYY 111300Z 33006KT 6000 FEW030CB FEW035 BKN100 07/M02
 Q1019=
METAR OIZB 111300Z 25004KT 9999 FEW035 BKN090 09/M02 Q1023=
METAR OIZC NIL=
 METAR OIZH 111300Z 12014KT 9999 FEW035 BKN090 05/M07 Q1018 A3009
 NOSIG=
METAR OIZI 111300Z 32004KT 9999 FEW020 OVC090 16/M06 Q1019=
 METAR OIZJ 111250Z 00000KT 8000 FEW025CB SCT030 BKN090 19/05
 Q1019=
0000429100
683
SAIR77 OIII 111300
METAR AZUH 111300Z 09006KT 2500 HZ SCT025 M06/M10 Q1021=
METAR KHME 111244Z 22004KT 9999 FEW035 09/M08 Q1018=
METAR OIAA 111300Z 30010KT 6000 SCT040 BKN100
13/10 Q1017=
METAR OIAG 111300Z 12010KT 9999 SCT030CB SCT035 13/11 Q1017 RESH=
 METAR OIAH 111300Z 00000KT 4000 RA FEW030CB SCT035 OVC070 09/09
 Q1016=
METAR OIAI 111300Z 09002KT 9999 FEW035CB SCT040 OVC080 11/09 Q1015=
 METAR OIAM 111300Z 11010KT 9999 FEW030CB SCT035 OVC080 12/11
 Q1016=
 METAR OIAW 111300Z 14006KT 3000 -RA FEW020CB SCT030 OVC070 12/12
 Q1016=
 METAR OIBA 111300Z 07008KT 3000 -RA FEW025CB FEW030 OVC080 17/15
 Q1018=
 METAR OIBB 111300Z 12014KT 8000 RA FEW025 FEW030CB SCT035 OVC080
 13/10 Q1016 A3001=
 METAR OIBK 111300Z 10016KT 8000 FEW030CB SCT025 OVC090 16/14
 Q1019=
 METAR OIBL 111300Z 06010KT 4000 BR FEW020CB SCT025 OVC080 14/13
 Q1019=
METAR OIBS 111300Z 20012KT 7000 -RA FEW030CB OVC080 ///// Q1019=
 METAR OICC 111300Z 07004KT 4000 BR FEW030CB SCT035 OVC070 00/M00
 Q1018 A3008 TEMPO SN=
 METAR OICI 111300Z 00000KT 8000 FEW015 FEW025CB SCT035 BKN090
 05/05 Q1016 A3002=
 METAR OICJ 111250Z 00000KT 2000 SN FEW030CB SCT035 OVC070 01/M01
 Q1017=
 METAR OICK 111300Z 14004KT 7000 -TSRA FEW010 FEW030CB BKN035
 OVC070 05/04 Q1017=
METAR OICS 111300Z 6002KT 7000 SCT035 BKN080 01/M04 Q1018=
METAR OIFK 111300Z 00000KT 2000 BR BKN020 OVC070 01/00 Q1022=
 METAR OIFM 111300Z 30008KT 0900 -SN BR SCT035 OVC090 01/M01 Q1018
 A3007=
 METAR OIFS 111300Z 00000KT 1000 -SN BR FEW025CB SCT030 OVC070
 M03/M04 Q1018=
METAR OIGG 111300Z 27004KT 3000 BR SCT025 BKN090 09/07
Q1013=
METAR OIGK 111250Z 00000KT 9999 SCT020 OVC080 M01/M06 Q1016=
METAR OIHM 111300Z 00000KT 1000 BR SCT035 OVC090 00/M01 Q1017=
 METAR OIIE 111300Z 18004KT 7000 SCT025 FEW035CB SCT045 OVC080
 02/M01 Q1019 A3011 NOSIG=
 METAR OIII 111300Z 26008KT 1000 BR SCT030 OVC090 01/M02 Q1018
 A3008 TEMPO 0500 BR FEW035CB SCT030 BKN100 TEMPO 0500 BR FEW035CB SCT030 BKN100=
METAR OIIK 111300Z 00000KT 8000 SCT040 BKN090 01/M03 Q1019=
 METAR OIIP 111300Z 00000KT 3000 BR FEW020 SCT035 OVC080 M01/M01
 Q1017=
METAR OIIS 111300Z 09002KT 9999 SCT030 BKN090 04/M02 Q1018=
 METAR OIKB 111300Z 32006KT 7000 -RA FEW025CB SCT030 OVC090 14/10
 Q1021 A3015 NOSIG=
METAR OIKK 111250Z 00000KT 9999 SCT035 BKN100 03/M04 Q1019 A3011=
 METAR OIKO 111250Z 00000KT 6000 -SHRA FEW015 SCT025CB OVC070 16/10
 Q1021=
 METAR OIKQ 111300Z 26008KT 8000 -RA FEW025CB SCT030 BKN090 13/08
 Q1020=
METAR OIMB 111300Z 09012KT 9999 SCT040 BKN090 04/M14 Q1019=
METAR OIMC 111250Z 15012KT 9999 SCT040 SCT180 14/M06 Q1017=
METAR OIMD 111250Z 09006KT 9999 FEW035 BKN100 06/M05 Q1015=
METAR OIMM 111300Z 19004KT CAVOK 08/M12 Q1017 A3004=
METAR OIMN 111300Z 15010KT CAVOK 07/M09 Q1016 A3002=
METAR OINB 111300Z 06004KT 9999 SCT022 BKN100 10/08 Q1013=
METAR OING 111300Z 29004KT 6000 SCT030 BKN090 10/07 Q1016=
METAR OINK 111300Z 00000KT 8000 FEW035 BKN100 10/05 Q1014=
METAR OINN 111300Z 14004KT CAVOK 11/10 Q1014=
METAR OINR 111300Z 15004KT 8000 FEW045 OVC170 11/07 Q1013=
 METAR OISA 111250Z 27006KT 8000 -SHRA FEW035CB SCT040 OVC090 02/00
 Q1017=
METAR OISF 111250Z 00000KT 8000 FEW035CB SCT040 OVC100 06/02 Q1018=
 METAR OISL 111300Z 00000KT 9999 FEW020 FEW030CB OVC080 09/05
 Q1020=
 METAR OISS 111300Z 14006KT 1200 RA BR FEW030CB SCT035 OVC070 04/03
 Q1019 A3010=
 METAR OISY 111300Z 00000KT 0900 -RA FEW030CB SCT035 OVC080 01/00
 Q1019=
METAR OITL 111250Z 23019KT 9999 SCT090 BKN190 00/M03 Q1015=
 METAR OITR 111300Z 08004KT 2000 HZ FEW035 SCT170 M04/M08 Q1019
 NOSIG=
 METAR OITT 111300Z 29004KT 5000 HZ FEW035 SCT190 M02/M10 Q1019
 A3012=
METAR OITU 111250Z 00000KT 6000 NSC M09/M13 Q1019=
 METAR OIYY 111300Z 33006KT 6000 FEW030CB FEW035 BKN100 07/M02
 Q1019=
METAR OIZB 111300Z 25004KT 9999 FEW035 BKN090 09/M02 Q1023=
METAR OIZC NIL=
 METAR OIZH 111300Z 12014KT 9999 FEW035 BKN090 05/M07 Q1018 A3009
 NOSIG=
METAR OIZI 111300Z 32004KT 9999 FEW020 OVC090 16/M06 Q1019=
 METAR OIZJ 111250Z 00000KT 8000 FEW025CB SCT030 BKN090 19/05
 Q1019=
METAR SESG 111300Z 26004KT 4000 BR SCT035 BKN090 04/02 Q1020 RESN=
METAR YAYT 111250Z 00000KT 9999 SCT035 BKN100 09/M04 Q1020=
0000015700
684
SSVX13 LFPW 111300
ZZYY 44747 11014 1300/ 758624 045341 6113/ 11119 49944 57009 22219
 00046 444 20130 11014 1159/ 50101 80154 80000 9/015=
0000015700
685
SSVX13 LFPW 111300
ZZYY 44745 11014 1300/ 745749 050350 6113/ 11119 40255 52010 22219
 00015 444 20130 11014 1300/ 50101 80150 80000 9/015=
0000011000
686
UANT01 CWAO 111303
ARP UAL56 4903N04347W 1303 F330 MS59 305/51 KT
N66051 DDL XXW 111303 F47A
0000011000
687
UANT01 CWAO 111303
ARP UAL37 5200N04353W 1303 F360 MS61 283/64 KT
N21108 DDL IG1 111303 F74A
0000011100
688
UANT01 CWAO 111304
ARP DAL131 5158N03042W 1304 F330 MS52 174/36 KT
N171DZ QXT AOE 111304 F12A
0000010900
689
UANT01 CWAO 111304
ARP SWR16 5059N03040W 1304 F380 MS53 194/39 KT
HBJHJ QXT AOE 111304 J30A
0000010900
690
UANT01 CWAO 111304
ARP VIR97 4425N03910W 1304 F370 MS56 314/59 KT
GVGEM DDL XXH 111304 J18A
0000011100
691
UANT01 CWAO 111304
ARP BER7210 4943N03352W 1304 F380 MS51 240/20 KT
DALPH QXT AOE 111304 J45A
0000055200
692
ULSP01 LEMM 111200
TTCC 1112/ 08001 NIL=
TTCC 1112/ 08023 NIL=
TTCC 61122 08160 70847 55585 27504 50062 53786 20505 30393 50387
03508 20659 46988 36022 88999 77999 31313 48108 81115=
TTCC 1112/ 08190 NIL=
TTCC 61122 08221 70847 563// 24010 50062 531// 17008 30393 509//
02012 20659 485// 03020 10123 ///// 88999 77999 31313 48108 81115=
TTCC 61125 08302 70848 56782 21009 50061 56182 14002 30390 /////
88999 77999 31313 48108 81115=
TTCC 61125 08430 70849 56182 27009 50062 57582 07012 88999 77999
31313 48008 81108=
0000169000
693
UESP01 LEMM 111200
TTDD 1112/ 08001 NIL=
TTDD 1112/ 08023 NIL=
TTDD 6112/ 08160 11743 57384 22569 52987 33440 54586 44198 46389
55182 47788 66171 44390 77170 44590 21212 11911 25017 22883 22515
33860 22511 44838 25512 55808 25017 66779 27021 77738 29510 88719
30504 99531 30510 11472 27502 22425 04510 33398 00000 44319 06010
55310 02510 66303 04010 77288 34010 88278 35024 99267 02017 11259
36017 22251 02019 33234 00518 44221 02017 55204 36021 66187 03526
77179 03523 88170 00522 31313 48108 81115=
TTDD 1112/ 08190 NIL=
TTDD 6112/ 08221 11883 573// 22529 553// 33492 523// 44435 541//
55335 499// 66291 513// 77240 475// 88200 487// 99172 431// 11105
459// 21212 11935 28019 22876 23010 33783 25015 44737 30014 55729
30010 66701 24010 77680 27011 88677 27510 99655 03003 11628 15510
22610 16516 33593 19010 44580 18504 55550 13510 66534 15510 77417
09502 88384 10014 99363 10512 11353 12512 22340 08503 33315 34010
44289 05014 55268 01510 66262 02517 77251 05008 88237 01014 99214
04025 11206 04525 22198 02522 33186 04034 44170 03029 55163 04532
66114 03525 77109 03538 88105 02532 31313 48108 81115=
TTDD 6112/ 08302 11558 57782 22369 51583 33337 52783 21212 11971
25026 22923 28528 33898 30020 44842 31002 55785 26519 66774 26517
77756 29010 88696 21510 99664 30510 11541 00000 22475 00000 33440
01017 44428 02011 55390 09001 66377 02513 77337 36008 31313 48108
81115=
TTDD 6112/ 08430 11776 59181 22734 55782 33483 57382 21212 11946
24529 22906 26023 33871 24020 44826 25011 55799 20502 66768 22510
77747 25515 88720 24016 99701 27010 11646 00000 22507 06510 33497
07512 44492 09010 55483 14009 31313 48008 81108=
0000014000
694
SNDL21 EDZW 111300 RRA
AAXX 11131
10004 46/60 /2910 10073 20024 30090 40090 51020
222// 00079
  333 55300 91117 91213=
0000021700
695
SNDL22 EDZW 111300 RRA
AAXX 11131
10007 46/50 /3110 10073 20039 30077 40077 53003
222// 00071
  333 553// 91117 91214=
10439 42565 51903 10051 20030 39931 40153 58014 82131
  333 82820 83359=
0000045800
696
SNDL44 EDZW 111300 RRA
AAXX 11131
10033 41356 82309 10061 20053 30006 40047 57022 75866 877//
  333 87707 91015 91119 91211=
10037 46/21 /2309 10054 20045 30026 40057 5/025
  333 91113=
10038 41350 82306 10055 20043 30040 40062 57025 75866 877//
  333 87707=
10126 41360 83006 10061 20048 30075 40091 55010 76166 8752/
  333 83707 85615 88458 91115=
10136 41232 82408 10049 20043 30035 40075 57025 75866 877//
  333 87704=
0000040600
697
SNDL45 EDZW 111300 RRA
AAXX 11131
10172 41457 82204 10056 20039 30009 40082 58026 72122 875//
  333 85710 87627=
10238 41660 82003 10060 20028 30013 40108 57020 72122 875//
  333 85638 87656=
10246 41570 72507 10062 20026 39996 40104 57021 76162 8557/
  333 84630 83656 87360=
10304 46/50 /2405 10049 20037 30062 40113 5/011=
10306 46/// ///// 1//// 2//// 3//// 4//// 5////=
0000025400
698
SNDL46 EDZW 111300 RRA
AAXX 11131
10334 46/70 /2306 10064 20020 30028 40113 5/016=
10335 42770 72306 10065 20025 30025 40117 57020 875//
  333 87650=
10343 42681 72205 10071 20018 30047 40111 57019 84531
  333 84648 83359 85072=
0000028600
699
SNDL47 EDZW 111300 RRA
AAXX 11131
10476 42780 52305 10062 20016 30013 40137 57019 83530
  333 83650 84361=
10502 42582 72708 10097 20049 39991 40153 56009 8483/
  333 83822 83650 87357=
10516 42575 51802 10075 20039 30051 40171 58009 82831
  333 81830 84077=
0000025400
700
SNDL48 EDZW 111300 RRA
AAXX 11131
10613 46/59 /2404 10041 20031 39590 40176 5/001=
10618 42770 72003 10050 20036 39725 40183 50000 875//
  333 87656=
10743 41570 82303 10034 20015 39610 40183 58002 76022 8757/
  333 87630 88360=
0000052200
701
SNDL49 EDZW 111300 RRA
AAXX 11131
10771 41235 80702 10007 20007 39676 40192 57010 76122 885//
  333 83705 83630 87645=
10837 41658 82203 10061 20042 39530 40187 50000 76122 8457/
  333 84640 88359=
10853 41627 81801 10004 20003 39719 40197 58005 76366 875//
  333 87645=
10856 46/70 /2203 10073 20034 39518 40186 5/002=
10857 42882 72504 10077 20035 39446 40184 53004 8703/
  333 87358=
10860 46/44 /2401 10008 20005 39744 40195 5/006=
10954 46/// /2502 10083 20055 39298 48492 5/007=
00000000