0000047900
249
UDAS02 BABJ 111228
AMDAR 1112
DES CNFOZL 3010N 11353E 111223 F102 MS053 260/037 TB/ S//1=
DES CNFOZL 3014N 11354E 111224 F097 MS053 263/027 TB/ S//1=
DES CNFOZL 3015N 11355E 111224 F096 MS053 264/027 TB/ S//1=
DES CNFOZL 3020N 11356E 111225 F080 MS038 271/013 TB/ S//1=
DES CNFOZM 2813N 11324E 111223 F078 MS008 261/029 TB/ S//1=
DES CNFOZM 2809N 11322E 111224 F065 MS005 284/017 TB/ S//1=
DES CNFOZM 2805N 11320E 111225 F054 MS014 332/011 TB/ S//1=
0000072700
250
UDAS02 BABJ 111229
AMDAR 1112
DES CNFLWQ 2619N 10745E 111226 F211 MS180 260/062 TB/ S//1=
DES CNFLWQ 2619N 10744E 111226 F209 MS175 260/062 TB/ S//1=
DES CNFLWQ 2621N 10739E 111227 F201 MS155 258/055 TB/ S//1=
DES CNFLWQ 2623N 10732E 111228 F191 MS130 255/045 TB/ S//1=
DES CNFOZL 3024N 11358E 111226 F062 MS038 336/010 TB/ S//1=
DES CNFOZL 3028N 11400E 111227 F050 MS033 337/005 TB/ S//1=
DES CNFOZL 3029N 11400E 111227 F050 MS033 339/006 TB/ S//1=
DES CNFOZL 3032N 11401E 111228 F044 MS023 341/006 TB/ S//1=
DES CNFOZM 2802N 11318E 111226 F043 MS013 349/009 TB/ S//1=
DES CNFOZM 2800N 11315E 111227 F033 MS008 015/012 TB/ S//1=
DES CNFOZM 2803N 11314E 111228 F024 MS008 013/011 TB/ S//1=
0000003900
251
SMKP01 VDPP 111200
NIL=
0000216500
252
SZNZ01 NZKL 111239
CREX++
T000103 A001 D01021 D06025++
-3683144 17478654 AUCT  2014 01 11 12 31 //// 11 07 00 01
04801 3227 04809 3227 04817 3226 04825 3226 04833 3226 04841 3226+
-4402404 -17636748 CHIT  2014 01 11 12 31 //// 11 07 00 01
05305 2080 05307 2080 05305 2076 05312 2081 05315 2083 05301 2066+
-4089929 17623168 CPIT  2014 01 11 12 31 //// 11 07 00 01
04296 2278 04325 2302 04315 2288 04329 2299 04334 2300 04318 2281+
-3618905 17548887 GBIT  2014 01 11 12 31 //// 11 07 00 01
05674 0026 05673 0019 05673 0013 05680 0015 05688 0017 05701 0025+
-3867541 17802288 GIST  2014 01 11 12 31 //// 11 07 00 01
04215 2738 04226 2744 04224 2738 04236 2745 04248 2752 04256 2756+
-4241288 17370277 KAIT  2014 01 11 12 31 //// 11 07 00 01
03873 2235 03889 2249 03911 2267 03907 2261 03903 2254 03908 2255+
-3755040 17815904 LOTT  2014 01 11 12 31 //// 11 07 00 01
03495 0227 03476 0204 03485 0207 03489 0206 03494 0206 03499 0206+
-3704657 17451175 MNKT  2014 01 11 12 31 //// 11 07 00 01
01772 -0142 01756 -0157 01754 -0158 01759 -0152 01747 -0163 01748 -0161+
-3947566 17692007 NAPT  2014 01 11 12 31 //// 11 07 00 01
03380 2054 03373 2043 03361 2027 03359 2021 03356 2013 03357 2010+
-3441483 17304870 NCPT  2014 01 11 12 31 //// 11 07 00 01
-04542 -8476 -04548 -8487 -04553 -8497 -04529 -8478 -04543 -8498 -04535 -8495+
-4581435 17062939 OTAT  2014 01 11 12 31 //// 11 07 00 01
05406 3500 05408 3502 05410 3503 05411 3503 05413 3505 05413 3505+
-2928002 -17789440 RBCT  2014 01 11 12 31 //// 11 07 00 01
05861 1970 05871 1977 05856 1959 05849 1948 05861 1956 05884 1975+
-2925114 -17790384 RFRT  2014 01 11 12 31 //// 11 07 00 01
02792 0152 02808 0164 02832 0183 02815 0163 02819 0163 02809 0149+
-4357010 17277383 SUMT  2014 01 11 12 31 //// 11 07 00 01
02705 1849 02699 1840 02704 1842 02680 1815 02701 1832 02711 1840+
-3764109 17618118 TAUT  2014 01 11 12 31 //// 11 07 00 01
04959 4052 04961 4049 04966 4048 04970 4046 04974 4045 04978 4043+
-4128448 17477985 WLGT  2014 01 11 12 31 //// 11 07 00 01
03568 2013 03572 2014 03568 2008 03573 2011 03577 2012 03582 2015++
7777
0000024100
253
SOAT10 KWAL 111238
FA8005BC 011123837 OT12 ID:KN-BASS-01 DT:2014 01 11 12 36
:RD -3062 -3093 -3085 -3084 -3050 -3050 -3083 -3079 -3090 -3067
:PR 0613 0575 0620 0584 0580 0606 0570 0591 0551 0608
:B 13.7V
 46+1NN 219E
0000188300
254
SMMG01 FMMD 111200
AAXX 11124
67002 32580 53206 10315 20252 30081 40122 85801
  333 59003 81820 83630 84073 92418=
67009 11570 72004 10250 20232 39980 40098 57021 60101 76061 869//
  333 0//21 86820 81920 86640 94974 94975 94976 94977 95814 95815
      95816 95817=
67012 11570 72408 10251 20222 30082 40093 55012 60031 76062 879//
  333 0//// 85820 81920 85640 94954 94958 95834 95838
67019 NIL=
67025 NIL=
67027 32582 42810 10321 20259 30069 40090 57028 81933
  333 0//00 81820 81920 83073 94962 95832=
67072 31475 51210 10/// 20/// 30120 40123 57017 71522 82903
  333 0//00 82817 81917 84075 92418 94993 94994 94996 94997 94998
      95873 95874 95878
67073 32582 42204 10296 20260 30086 40112 57021 81905
  333 0//00 81823 81923 83273 94961/2/7 95831/2/7
  555 81633=
67083 32580 70000 10292 20158 38738 48514 57022 85933
  333 0//00 83820 83073 82920 94979 95839=
67085 32580 712// 10292 20219 38700 48510 57021 85805
  333 0//00 85820 86275=
67095 31465 71210 10275 20257 30115 40121 57014 71510 85932
  333 0//00 83817 81917 83633 94966 94968 95836 95838=
67113 32580 3//// 10314 20253 30/// 40/// 5//// 82802
  333 0//00 82820
  555 81640 81073=
67117 NIL=
67137 31465 70606 10260 20214 38900 48507 57013 71792 86903
  333 0//00 83817 82917 84620 94999 95879
  555 10274 81073=
67143 32582 20604 10300 20234 30113 40120 57015 82800
  333 0//00 82820 92438
  555 81633=
67152 32580 42806 10263 20183 39221 48529 57009 84330
  333 0//00 84820 81920 94996 95876=
67157 32580 6//// 10/// 20/// 30141 40148 57007 86900
  333 0//00 83820 82920 85640 94997 95877=
67161 32582 32604 10/// 20/// 30118 40127 56010 82832
  333 0//00 81820
  555 81640 81360 82073=
67194 NIL=
67197 32480 61208 10294 20227 30128 40138 57006 86900
  333 0//00 83816 82916 84633 94967 94968 95837 95838=
0000336500
255
UDFR01 LFPW 111238
AMDAR 1112
DES EU4463 4440N 00220E 111223 F263 MS414 /// 237/022 TB1 S031
333 F263 VG017=
DES EU4463 4438N 00219E 111223 F256 MS399 /// 238/021 TB0 S031
333 F256 VG002=
DES EU4463 4437N 00216E 111223 F252 MS387 /// 234/020 TB0 S031
333 F252 VG004=
DES EU4463 4435N 00214E 111224 F249 MS374 /// 240/020 TB0 S031
333 F249 VG000=
DES EU4463 4434N 00212E 111224 F244 MS362 /// 240/019 TB1 S031
333 F244 VG014=
DES EU4463 4432N 00210E 111224 F236 MS337 /// 241/020 TB0 S031
333 F236 VG002=
DES EU4463 4431N 00208E 111225 F227 MS314 /// 235/019 TB0 S031
333 F227 VG000=
DES EU4463 4429N 00205E 111225 F217 MS289 /// 230/019 TB0 S031
333 F217 VG000=
DES EU4463 4427N 00203E 111225 F208 MS279 /// 257/018 TB0 S031
333 F208 VG000=
DES EU4463 4426N 00201E 111226 F199 MS257 /// 251/016 TB0 S031
333 F199 VG000=
DES EU4463 4424N 00159E 111226 F190 MS232 /// 245/015 TB0 S031
333 F190 VG000=
DES EU4463 4423N 00157E 111226 F181 MS217 /// 222/017 TB0 S031
333 F181 VG000=
DES EU4463 4421N 00155E 111227 F172 MS204 /// 214/016 TB0 S031
333 F172 VG003=
DES EU4463 4419N 00152E 111227 F163 MS179 /// 209/010 TB1 S031
333 F163 VG011=
DES EU4463 4418N 00151E 111227 F155 MS164 /// 256/008 TB1 S031
333 F155 VG015=
DES EU4463 4416N 00149E 111228 F150 MS152 /// 254/010 TB1 S031
333 F150 VG014=
DES EU4463 4415N 00147E 111228 F149 MS149 /// 249/009 TB0 S031
333 F149 VG001=
DES EU4463 4413N 00144E 111228 F149 MS147 /// 257/009 TB2 S031
333 F149 VG027=
DES EU4463 4411N 00143E 111229 F143 MS132 /// 256/007 TB1 S031
333 F143 VG011=
DES EU4463 4410N 00141E 111229 F133 MS107 /// 279/007 TB0 S031
333 F133 VG001=
DES EU4463 4408N 00139E 111229 F123 MS084 /// 213/002 TB0 S031
333 F123 VG003=
DES EU4463 4407N 00137E 111230 F115 MS077 /// 197/005 TB1 S031
333 F115 VG020=
DES EU4463 4406N 00135E 111230 F111 MS067 /// 212/005 TB0 S031
333 F111 VG001=
DES EU4463 4405N 00134E 111230 F107 MS059 /// 212/006 TB0 S031
333 F107 VG000=
DES EU4463 4404N 00132E 111231 F104 MS052 /// 201/006 TB0 S031
333 F104 VG003=
DES EU4463 4402N 00130E 111231 F102 MS047 /// 209/004 TB0 S031
333 F102 VG000=
DES EU4463 4401N 00129E 111231 F098 MS042 /// 173/003 TB1 S031
333 F098 VG015=
DES EU4463 4400N 00127E 111232 F092 MS029 /// 164/001 TB0 S031
333 F092 VG007=
DES EU4463 4359N 00125E 111232 F086 MS019 /// 341/003 TB0 S031
333 F086 VG005=
DES EU4463 4358N 00124E 111232 F080 MS004 /// 325/003 TB0 S031
333 F080 VG002=
DES EU4463 4356N 00122E 111233 F075 PS007 /// 294/004 TB0 S031
333 F075 VG005=
DES EU4463 4355N 00121E 111233 F070 PS017 /// 242/002 TB0 S031
333 F070 VG000=
DES EU4463 4354N 00120E 111233 F064 PS032 /// 086/003 TB1 S031
333 F064 VG014=
DES EU4463 4353N 00118E 111234 F056 PS037 /// 030/008 TB2 S031
333 F056 VG041=
DES EU4463 4352N 00117E 111234 F050 PS050 /// 033/010 TB0 S031
333 F050 VG007=
DES EU4463 4351N 00116E 111234 F044 PS065 /// 036/008 TB0 S031
333 F044 VG006=
DES EU4463 4350N 00114E 111235 F040 PS067 /// 351/004 TB0 S031
333 F040 VG001=
DES EU4463 4349N 00113E 111235 F036 PS062 /// 269/004 TB1 S031
333 F036 VG015=
UNS EU4463 4347N 00111E 111235 F031 PS037 /// 108/006 TB1 S031
333 F031 VG022=
UNS EU4463 4346N 00112E 111236 F028 PS040 /// 037/004 TB1 S031
333 F028 VG020=
0000011000
256
UANT99 KDDL 111236
ARP JAI230 5407N02258W 1236 F370 MS62 205/71 KT
VTJWU QXT AOE 111237 J23A
0000011000
257
UANT99 KDDL 111237
ARP AZA63K 4744N01257W 1237 F310 MS52 252/50 KT
EIISO QXT AOE 111237 F11A
0000011000
258
UANT99 KDDL 111237
ARP AFR690 4855N01934W 1237 F300 MS50 197/79 KT
FGZNH QXT AOE 111237 F13A
0000011000
259
UANT99 KDDL 111237
ARP KLM708 4656N01436W 1237 F350 MS60 247/66 KT
PHBVK QXT EUA 111237 F94A
0000011000
260
UANT99 KDDL 111237
ARP DAL109 4607N02449W 1237 F330 MS50 201/79 KT
N1605 QXT AOE 111237 F52A
0000011100
261
UANT99 KDDL 111237
ARP DAL117 5201N01559W 1237 F310 MS54 231/81 KT
N175DZ QXT AOE 111237 F92A
0000011100
262
UANT99 KDDL 111238
ARP AMX003 4733N03236W 1237 F390 MS46 240/28 KT
N961AM DDL XXW 111238 L29A
0000027800
263
SXHW11 KWAL 111239
B14101B2 011123903"
1,140111,11:30:00,2.5,356,4.2,0.0,1015.7,4.66,13.1,
1,140111,11:45:00,1.9,0,3.4,0.0,1015.4,4.66,13.0,
1,140111,12:00:00,1.6,27,3.1,0.0,1015.2,4.66,13.0,
1,140111,12:15:00,1.5,6,3.4,0.0,1015.1,4.66,13.0, 48-0NN  30W
0000013000
264
SMRS15 RUMS 111200 RRA
AAXX 11121
22438 41540 80817 11095 21107 39987 40010 50001 77173 885// 333 91022
91123=
0000030300
265
USSG01 GOOY 111200
TTAA  61111 61641
99014 20846 02012 00143 17635 03514 92806 16064 07015
85531 20266 25007 70173 09463 25507 50587 08370 22008
40756 20193 33014 30963 33967 29559 25089 445// 28558
20234 573// 27052 15410 671// 27058 10653 749// 25545
88999 77236 28063 40915=
0000030700
266
USSG01 GOOY 111200 RRA
TTAA  61111 61641
99014 20846 02012 00143 17635 03514 92806 16064 07015
85531 20266 25007 70173 09463 25507 50587 08370 22008
40756 20193 33014 30963 33967 29559 25089 445// 28558
20234 573// 27052 15410 671// 27058 10653 749// 25545
88999 77236 28063 40915=
0000184400
267
SMMG01 FMMI 111200
AAXX 11124
67002 32580 53206 10315 20252 30081 40122 85801
  333 59003 81820 83630 84073 92418=
67009 11570 72004 10250 20232 39980 40098 57021 60101 76061 869//
  333 0//21 86820 81920 86640 94974 94975 94976 94977 95814 95815
95816 95817
  555 10312=
67012 11570 72408 10251 20222 30082 40093 55012 60031 76062 879//
  333 0//// 85820 81920 85640 94954 94958 95834 95838=
67025 NIL=

67027 32582 42810 10321 20259 30069 40090 57028 81933
  333 0//00 81820 81920 83073 94962 95832
  555 31360=
67045 NIL=

67072 31475 51210 10/// 20/// 30120 40123 57017 71522 82903
  333 0//00 82817 81917 84075 92418 94993 94994 94996 94997 94998
95873 95874 95878=
67073 32582 42204 10296 20260 30086 40112 57021 81905
  333 0//00 81820 81923 83273 94961 94962 94967 95831 95832 95837
  555 81633=
67083 32580 70000 10292 20158 38738 48514 57022 85933
  333 0//00 83820 83073 82920 94979 95839=
67095 31465 71210 10275 20257 30115 40121 57014 71510 85932
  333 0//00 83817 81917 83633 94966 94968 95836 95838=
67113 32580 3//// 10314 20253 30/// 40/// 5//// 82802
  333 0//00 82820
  555 81640 81073=
67117 NIL=

67137 31465 70606 10260 20214 38900 48507 57013 71792 86903
  333 0//00 83817 82917 84620 94999 95879
  555 10274 81073=
67143 32582 20604 10300 20234 30113 40120 57015 82800
  333 0//00 82820 92438
  555 81633=
67152 32580 42806 10263 20183 39221 48529 57009 84330
  333 0//00 84820 81920 94996 95876
  555 81360=
67157 32580 6//// 10/// 20/// 30141 40148 57007 86900
  333 0//00 83820 82920 85640 94997 95877=
67161 32582 32604 10/// 20/// 30118 40127 56010 82832
  333 0//00 81820
  555 81640 81360 82073=
67197 32480 61208 10294 20227 30128 40138 57006 86900
  333 0//00 83816 82916 84633 94967 94968 95837 95838=
0000011100
268
UANT01 CWAO 111237
ARP DAL185 5206N02309W 1237 F350 MS59 203/74 KT
N801NW DDL XXW 111237 J16A
00000000