0000018400
789
UAPA01 KWBC 111248
ARP ASA878 43N 131W 1240 F360B370 MS50 260/081KT=
ARP CKS368 3106N 13208W 1241 F320 MS46 240/045KT=
ARP PAL103 29N 170W 1238 F320 MS39 325/100KT=
0000011100
790
UANT01 CWAO 111248
ARP UAL162 5159N04402W 1248 F350 MS63 292/67 KT
N34137 DDL IG1 111248 F65A
0000011000
791
UANT01 CWAO 111248
ARP AFR342 5401N01959W 1248 F340 MS63 216/81 KT
FGEXB QXT AOE 111248 F69A
0000011000
792
UANT01 CWAO 111248
ARP UAL26 5247N04058W 1248 F350 MS60 292/54 KT
N17122 DDL IG1 111248 F63A
0000011100
793
UANT01 CWAO 111248
ARP SVA037 5103N01615W 1248 F350 MS64 231/76 KT
HZAK22 QXT EUA 111248 F56A
0000011000
794
UANT01 CWAO 111248
ARP UAL71 5201N04351W 1248 F360 MS62 288/61 KT
N18119 DDL IG1 111248 F53A
0000011000
795
UANT01 CWAO 111248
ARP AFL100 6413N05220W 1248 F340 MS61 184/10 KT
VQBMV QXT AME 111248 J91A
0000011100
796
UANT01 CWAO 111248
ARP DAL603 5306N02301W 1248 F360 MS62 205/64 KT
N815NW DDL XXW 111248 J30A
0000011100
797
UANT01 CWAO 111249
ARP DAL131 5205N02656W 1245 F320 MS55 184/68 KT
N171DZ QXT AOE 111249 F98A
0000026200
798
SMBZ05 SBBR 111200 RRB
AAXX 11124
83270 22898 40000 10250 20217 39680 40118 81038 333 20199 58011 69954=
83309 31695 80000 10254 20231 39826 40148 71021 885// 333 20208 58010=
83319 32797 50000 10266 20230 39799 40171 82101 333 20218 58017=
0000067000
799
SMBZ02 SBBR 111200 RRB
AAXX 11124
82392 32499 51402 10279 20208 30017 40119 83230 333 20232 59002=
82583 22599 50905 10271 20210 39782 40118 84140 333 20244 59005 69934=
82594 32697 41810 10280 20203 30118 40126 82210 333 20224 59002=
82683 32595 51406 10273 20203 39682 40132 85200 333 20221 59020=
82780 22497 60503 10272 20182 39906 40159 84220 333 20244 58005 60014=
82789 22599 21413 10202 20150 38952 40235 81109 333 20166 59002 60024=
82795 32596 80506 10241 20201 39545 40158 887// 333 20195 58007=
82879 32598 51407 10288 20208 39863 40128 85400 333 20232 59006=
82893 32798 11401 10230 20146 39234 40130 81100 333 20172 58000=
0000087700
800
SMBZ03 SBBR 111200 RRB
AAXX 11124
83384 32597 40902 10270 20190 39564 40133 82150 333 20214 58008=
83386 32498 20903 10260 20201 39309 40137 81108 333 20182 58012=
83388 32497 50506 10254 20186 39464 40128 82239 333 20215 58010=
83393 22599 60904 10248 20180 39444 40161 83422 333 20190 58009 69934=
83442 32597 80000 10253 20209 39816 40163 888// 333 20220 58013=
83479 32598 40508 10253 20193 39362 40155 84100 333 20202 58012=
83483 32598 80906 10264 20200 39588 40145 85432 333 20205 58013=
83531 22597 23604 10246 20185 39122 40149 82100 333 20175 58010 60194=
83538 31496 80506 10217 20163 38746 40124 74022 887// 333 20170 58013=
83582 22599 20503 10256 20199 39390 40154 53015 82100 333 20194 60094=
83687 32698 10905 10252 20193 39109 40104 51022 81100 333 20191=
83692 32699 33606 10232 20194 39122 40140 53005 83200 333 20195=
0000087000
801
SMBZ04 SBBR 111200 RRA
AAXX 11124
83811 32997 01402 10246 20203 39258 40141 53017 333 20194=
83844 32597 527// 10264 20225 30103 40110 53010 82260 333 20246=
83887 22597 41402 10231 20190 39110 40112 52012 82130 333 20164 60164=
83907 22497 82309 10237 20197 39842 40121 5//// 8592/ 333 20213 69924=
83914 21896 80506 10235 20198 39366 40126 52016 71096 8807/ 333 20172 60194=
83919 22897 23204 10216 20170 39023 40198 51012 82040 333 20158 60234=
83927 21596 80502 10213 20200 30043 40115 52020 79596 883// 333 20204 60694=
83936 21496 82305 10220 20217 30018 40139 52012 72942 8597/ 333 20200 60424=
83948 21596 20000 10265 20216 30103 40109 50012 70596 81260 333 20205 60254=
83964 21596 80000 10235 20197 39643 40127 52021 70522 8451/ 333 20180 60174=
83995 21497 72708 10234 20207 30115 40118 53010 70362 81190 333 20186 60044=
0000515900
802
KSME02 SBBR 111200 RRB
CREX++
T000113 A000 D07086++
 82 392 SOBRAL               1 2014 01 11 12 00 -0370000 -04035000 ///// ///// 10017 10119 //// // -0002 ///// ///// ///// 2790 2080 /// ///// 5000 ///// ///// ///// 062 07 03 0045 32 23 10 0000 0000 // // ///// //// ////// / /// /// ////// /// /// /////// // /// // /// /// ////////// /// /// 508 -0006 10 10  -0024 //// -0001 //// /////  -0001 00000 //// ///// ///// -0012 0000 //// -0012 0000 2320 ///// 03 02 -0010 140 0010 //  -0010 /// //// //// /// //// ///// -0024 // ////  -0001 //// //// ///// ///// ///// ///// -0024 //// //// ///// ///// ///// /////+
 82 583 CRATEUS              1 2014 01 11 12 00 -0516000 -04066000 ///// ///// 09782 10118 //// // -0005 ///// ///// ///// 2710 2100 /// ///// 5000 ///// ///// ///// 062 07 04 0080 31 24 10 0000 0000 // // ///// //// ////// / /// /// ////// /// /// /////// // /// // /// /// ////////// /// /// 508 -0006 10 10  -0024 //// -0001 //// /////  //// ///// -0024 00003 ///// -0012 0000 //// -0012 0000 2440 ///// 03 02 -0010 090 0026 //  -0010 /// //// //// /// //// ///// -0024 // ////  -0001 //// //// ///// ///// ///// ///// -0024 //// //// ///// ///// ///// /////+
 82 594 MACAU                1 2014 01 11 12 00 -0511000 -03663000 ///// ///// 10118 10126 //// // -0002 ///// ///// ///// 2800 2030 /// ///// 1000 ///// ///// ///// 050 07 02 0125 32 21 10 0000 0000 // // ///// //// ////// / /// /// ////// /// /// /////// // /// // /// /// ////////// /// /// 508 -0006 10 10  -0024 //// -0001 //// /////  -0001 00000 //// ///// ///// -0012 0000 //// -0012 0000 2240 ///// 03 02 -0010 180 0051 //  -0010 /// //// //// /// //// ///// -0024 // ////  -0001 //// //// ///// ///// ///// ///// -0024 //// //// ///// ///// ///// /////+
 82 683 TAUA                 1 2014 01 11 12 00 -0600000 -04041000 ///// ///// 09682 10132 //// // -0020 ///// ///// ///// 2730 2030 /// ///// 0200 ///// ///// ///// 062 07 05 0080 32 20 10 0000 0000 // // ///// //// ////// / /// /// ////// /// /// /////// // /// // /// /// ////////// /// /// 508 -0006 10 10  -0024 //// -0001 //// /////  -0001 00000 //// ///// ///// -0012 0000 //// -0012 0000 2210 ///// 03 02 -0010 140 0031 //  -0010 /// //// //// /// //// ///// -0024 // ////  -0001 //// //// ///// ///// ///// ///// -0024 //// //// ///// ///// ///// /////+
 82 780 PICOS                1 2014 01 11 12 00 -0706000 -04148000 ///// ///// 09906 10159 //// // 0005 ///// ///// ///// 2720 1820 /// ///// 1000 ///// ///// ///// 075 07 04 0045 32 22 10 0000 0000 // // ///// //// ////// / /// /// ////// /// /// /////// // /// // /// /// ////////// /// /// 508 -0006 10 10  -0024 //// -0001 //// /////  //// ///// -0024 00010 ///// -0012 0000 //// -0012 0000 2440 ///// 03 02 -0010 050 0015 //  -0010 /// //// //// /// //// ///// -0024 // ////  -0001 //// //// ///// ///// ///// ///// -0024 //// //// ///// ///// ///// /////+
 82 789 TRIUNFO              1 2014 01 11 12 00 -0785000 -03813000 ///// ///// 08952 10235 //// // -0002 ///// ///// ///// 2020 1500 /// ///// 5000 ///// ///// ///// 025 07 01 0080 31 20 19 0000 0000 // // ///// //// ////// / /// /// ////// /// /// /////// // /// // /// /// ////////// /// /// 508 -0006 10 10  -0024 //// -0001 //// /////  //// ///// -0024 00020 ///// -0012 0000 //// -0012 0000 1660 ///// 03 02 -0010 140 0067 //  -0010 /// //// //// /// //// ///// -0024 // ////  -0001 //// //// ///// ///// ///// ///// -0024 //// //// ///// ///// ///// /////+
 82 795 CAMPINA GRANDE       1 2014 01 11 12 00 -0721000 -03588000 ///// ///// 09545 10158 //// // 0007 ///// ///// ///// 2410 2010 /// ///// 0400 ///// ///// ///// 100 07 08 0080 37 61 60 0000 0000 // // ///// //// ////// / /// /// ////// /// /// /////// // /// // /// /// ////////// /// /// 508 -0006 10 10  -0024 //// -0001 //// /////  -0001 00000 //// ///// ///// -0012 0000 //// -0012 0000 1950 ///// 03 02 -0010 050 0031 //  -0010 /// //// //// /// //// ///// -0024 // ////  -0001 //// //// ///// ///// ///// ///// -0024 //// //// ///// ///// ///// /////+
 82 879 S.JOAO DO PIAUI      1 2014 01 11 12 00 -0835000 -04225000 ///// ///// 09863 10128 //// // -0006 ///// ///// ///// 2880 2080 /// ///// 2000 ///// ///// ///// 062 07 05 0080 34 20 10 0000 0000 // // ///// //// ////// / /// /// ////// /// /// /////// // /// // /// /// ////////// /// /// 508 -0006 10 10  -0024 //// -0001 //// /////  -0001 00000 //// ///// ///// -0012 0000 //// -0012 0000 2320 ///// 03 02 -0010 140 0036 //  -0010 /// //// //// /// //// ///// -0024 // ////  -0001 //// //// ///// ///// ///// ///// -0024 //// //// ///// ///// ///// /////+
 82 893 GARANHUNS            1 2014 01 11 12 00 -0888000 -03651000 ///// ///// 09234 10130 //// // 0000 ///// ///// ///// 2300 1460 /// ///// 2000 ///// ///// ///// 012 07 01 0175 31 20 10 0000 0000 // // ///// //// ////// / /// /// ////// /// /// /////// // /// // /// /// ////////// /// /// 508 -0006 10 10  -0024 //// -0001 //// /////  -0001 00000 //// ///// ///// -0012 0000 //// -0012 0000 1720 ///// 03 02 -0010 140 0005 //  -0010 /// //// //// /// //// ///// -0024 // ////  -0001 //// //// ///// ///// ///// ///// -0024 //// //// ///// ///// ///// /////++
7777
0000067000
803
SMBZ33 SBBR 111200 RRB
AAXX 11124
83437 32598 80505 10238 20182 39444 40157 885// 333 20199 58011=
83552 32998 0//// 10269 20224 3//// 4//// 333 2//// 5////=
83565 32897 60504 10270 20198 39663 40123 86070 333 20221 58007=
83579 21599 23203 10242 20179 39035 40139 70362 82100 333 20186 58000 60084=
83592 32597 53605 10258 20192 39491 40164 84201 333 20201 58015=
83623 21996 0//// 1//// 2//// 3//// 4//// 5//// 70362 333 2//// 60054=
83630 21997 00506 10250 20184 3//// 4//// 51013 70062 333 20196 60184=
83676 32597 23606 10260 20212 39542 40165 5//// 82100 333 20221=
83704 32498 53602 1//// 2//// 39708 4//// 53021 85080 333 2////=
0000058800
804
SMVD19 KWNB 111200 RRE
BBXX
46126 11121 99540 71666 46/// /2405 10051 49797 91200 22200 00044
1//00 70002 333 91208 555 11057 22061=
46126 11121 99540 71666 46/// /2206 10051 49797 91218 22200 00045
1//00 70001 333 91211 555 11062 22067=
46126 11121 99540 71666 46/// /2206 10051 49797 91220 22200 00045
1//00 70001 333 91211 555 11062 22067=
46126 11121 99540 71666 46/// /2409 10051 49797 91224 22200 00045
1//00 70002 333 91214 555 11095 22103=
46126 11121 99540 71666 46/// /2407 10035 49799 91230 22200 00045
1//00 70002 333 91209 555 11073 22079=
0000037300
805
SNVD15 KWNB 111300
BBXX
44064 11131 99370 70760 46/// /1705 10138 40131 91240 333 91206
555 11058 22063=
44063 11131 99390 70764 46/// /0901 10021 40101 91240 333 91202
555 11013 22014=
44041 11131 99372 70768 46/// /1805 10141 91240 333 91207 555
11060 22065=
44042 11131 99380 70763 46/// /1706 10090 40113 91240 333 91206
555 11065 22070=
0000012400
806
SNVD20 KWNB 111300
BBXX
44058 11131 99376 70763 46/// /1906 10075 40125 91240 333 91207
555 11072 22078=
0000066100
807
UDAF01 FAPR 111247
AMDAR 1112
LVR AFZA63 1600S 03920E 111155 F390 MS536 080/023 TB0 S031 333 F/// VG000=
LVR AFZA63 1520S 03954E 111203 F390 MS540 099/033 TB0 S031 333 F/// VG000=
LVR AFZA63 1443S 04031E 111210 F390 MS541 098/040 TB0 S031 333 F/// VG000=
LVR AFZA63 1359S 04100E 111217 F390 MS540 097/041 TB0 S031 333 F/// VG000=
LVR AFZA63 1315S 04130E 111224 F390 MS542 097/040 TB0 S031 333 F/// VG000=
LVR AFZA63 1231S 04159E 111231 F390 MS546 086/035 TB0 S031 333 F/// VG000=
LVR AFZA63 1157S 04239E 111238 F390 MS547 085/033 TB0 S031 333 F/// VG000=
LVR AFZA63 1125S 04319E 111245 F390 MS539 076/038 TB0 S031 333 F/// VG000=
0000066100
808
UDAF01 FAPR 111247
AMDAR 1112
UNS AFZA41 2603S 02815E 111243 F076 PS166 314/011 TB1 S031 333 F/// VG020=
ASC AFZA41 2602S 02815E 111244 F079 PS160 345/012 TB1 S031 333 F/// VG020=
ASC AFZA41 2602S 02814E 111244 F082 PS149 033/004 TB0 S031 333 F/// VG017=
ASC AFZA41 2602S 02814E 111244 F083 PS150 017/006 TB1 S031 333 F/// VG025=
ASC AFZA41 2601S 02813E 111244 F086 PS140 233/006 TB0 S031 333 F/// VG017=
ASC AFZA41 2558S 02812E 111245 F096 PS117 276/007 TB0 S031 333 F/// VG015=
ASC AFZA41 2551S 02806E 111246 F114 PS068 267/018 TB0 S031 333 F/// VG012=
ASC AFZA41 2548S 02804E 111247 F135 PS020 232/016 TB0 S031 333 F/// VG012=
00000000