0000010700
469
SAIN90 VIBN 111230
METAR VIBN 111230Z 09003KT 1000 BR SCT020 FEW030CB BKN100 17/17
Q1016=
0000028300
470
SAIN31 VOMM 111240
METAR VOHS 111240Z 11006KT 5000 HZ SCT020 25/14 Q1016 NOSIG=
METAR VOMM 111240Z 06006KT 6000 NSC 25/19 Q1013 NOSIG=
METAR VOTR 111240Z 10004KT 6000 FEW016 28/19 Q1012 TEMPO 5000 HZ=
METAR VOTV 111240Z 00000KT 4000 HZ FEW015 28/23 Q1010 NOSIG=
0000011000
471
UANT99 KDDL 111241
ARP BAW175 5401N01603W 1241 F370 MS61 238/73 KT
GBNLP QXT AOE 111241 F85A
0000011000
472
UANT99 KDDL 111241
ARP UAL28 5408N02319W 1241 F380 MS58 212/79 KT
N78004 DDL XXN 111241 F33A
0000012600
473
UANT99 KDDL 111241
ARP BAW6B 5601N01844W 1241 F370 PIKIL 1255 SOVED MS60 240/58 KT
GCIVS QXT AOW 111241 F75A
0000010700
474
UANT99 KDDL 111242
ARP UAL993 51N020W 1241 F340 MS61 199/88 KT
N668UA DDL XXN 111242 F92A
0000011000
475
UANT99 KDDL 111241
ARP KLM723 5205N02241W 1241 F380 MS57 212/68 KT
PHAOA QXT AOE 111241 J24A
0000011000
476
UANT99 KDDL 111241
ARP UAL61 5300N03019W 1241 F330 MS56 170/47 KT
N69063 DDL XXN 111242 F54A
0000011100
477
UANT99 KDDL 111242
ARP DAL415 4527N02146W 1242 F330 MS56 202/96 KT
N177DN QXT AOE 111242 F95A
0000016000
478
UQCN05 CWAO 111200
PPDD  61128 71925 95034 29028 29024 28037 9567/ 30533 29540
96029 31024 30539 32031 97024 32032 30543 32048 975// 32044=

0000012600
479
SMER10 OMAM 111200 RRA
AAXX 11124
41207
45/// /1101 10187 20142 30196 40189 57002 7////
333 10179 20206=
0000012400
480
ULCN05 CWAO 111200
TTCC  61123 71925 70709 71570 30533 50905 75967 30538 30198
77365 31043 88999 77999=

0000009200
481
UECN05 CWAO 111200
TTDD  6112/ 71925 11629 72569 22525 76367 33259 77766=

0000041400
482
UPMG01 FMMI 111200
PPAA 61111 67009 NIL=
PPAA 61111 67012 NIL=
PPAA 61111 67025 NIL=
PPAA 61111 67027 55185 22010 77999=
PPAA 61118 67083 44385 05004 08507 11512 44340 05510 08518 11019
44320 12024 11532 08527 77999=
PPAA 61111 67095 NIL=
PPAA 61111 67113 NIL=
PPAA 61111 67152 NIL=
PPAA 61118 67197 44385 30509 34518 34522 44340 28008 26502 33508
44320 03017 02506 04511 77999=
0000014700
483
UPSR01 WSSS 111200
PPAA  61128 48698 
55385 33015 28018 26020 55340 29518 07023 07519 55320
12535 11061 21015
77137 11069 41655=
0000031900
484
USSR01 WSSS 111200
TTAA  61121 48698 
99007 27440 06505 00077 28648 04502 92763 21203 01521
85493 17001 33015 70129 08437 28018 50585 05750 26020
40756 15738 29518 30967 29961 07023 25094 39768 07519
20243 52764 12535 15421 69360 11061 10656 79159 21015
88999
77137 11069 41655
31313 41708 81041=
0000024400
485
UGSR20 WSSS 111200
PPBB  61128 48698 
90/12 06505 01513 03015 9037/ 36020 28514 9114/ 26020
27016 927// 32512 93024 07519 07023 06518 936// 08516
94024 10527 12540 12043 9459/ 11056 11069 95134 14040
17014 19515 955// 21015=
0000075300
486
UKSR01 WSSS 111200
TTBB  61128 48698 
00007 27440 11003 28849 22968 25826 33902 20001 44897
19801 55858 17201 66797 14002 77712 09219 88688 08045
99662 07457 11596 02850 22508 05542 33505 05738 44502
05944 55487 06358 66435 12337 77356 21322 88341 23327
99331 24350 11316 27358 22299 30161 33292 31363 44252
39368 55158 66560 66131 75360 77125 73760 88113 76560
99103 78559 11101 78959 22100 79159
21212 00007 06505 11968 00517 22943 03014 33921 01021
44909 36020 55800 28015 66676 26020 77380 32512 88341
06009 99327 07519 11309 07521 22299 07023 33289 06520
44278 06522 55268 07017 66240 10019 77204 12534 88173
12043 99165 11056 11137 11069 22122 14040 33112 17014
44109 19515 55100 21015
31313 41708 81041
41414 59478=
0000007400
487
UHSR01 WSSS 111200
PPCC  61128 48698 
55170 19506
77999=
0000010600
488
ULSR01 WSSS 111200
TTCC  61127 48698 
70858 76960 19506
88999
77999
31313 41708 81041=
00000000