0000077100
649
UKKZ11 UAAA 111200
TTBB  11123 28951 00994 06525 11967 07926 22928 04909 33874
05703 44863 06302 55831 08904 66808 08106 77732 11730 88716
13731 99658 15741 11638 17756 22608 20939 33558 24930 44472
32742 55468 34541 66404 41944 77398 44743 88375 45741 99352
50940 11351 52343 22320 57741 33196 68144 44101 73147 21212
00994 16002 11981 18505 22954 19008 33931 23505 44904 23504
55882 20505 66860 23505 77837 22006 88813 25508 99790 26009
11768 28506 22703 23007 33681 23504 44663 26505 55563 34005
66542 32504 77526 35003 88476 34008 99455 00507 11423 02510
22393 00510 33337 04016 44310 35007 55280 03512 66248 00513
77229 36015 88215 36011 99160 32008 11143 28019 22135 27513
33121 27019 44105 30011 31313 58903 81130 41414 844//=
0000011000
650
UANT01 CWAO 111245
ARP VJT772 4656N03011W 1245 F380 MS47 041/47 KT
9HVJD QXT EUA 111245 M60A
0000179200
651
UEDL01 EDZW 111200
TTDD 1111/ 10035
11742 57976 22676 55977 33317 58776 44204 56377 55174
59975 66156 56776 77137 57777 88117 52379
21212 11961 29511 22914 30014 33860 28514 44748 31518
55714 31019 66690 29020 77553 30028 88531 31026 99482
31020 11423 30032 22404 31532 33336 30537 44315 31034
55278 32034 66187 32044 77157 31557 88117 31560
31313 48008 81045=
TTDD 1111/ 10410
11743 52987 22622 58785 33583 55986 44391 53187 55262
55986 66172 55186 77106 47789 88070 45989
21212 11977 26010 22849 29516 33804 29019 44760 30514
55696 28516 66639 31018 77614 31512 88605 29510 99594
27012 11575 27019 22564 28021 33525 31023 44473 31019
55465 30016 66459 29017 77413 29522 88375 31527 99358
33023 11342 31023 22314 31020 33224 32032 44205 31028
55193 32530 66181 31038 77140 32052 88100 32560 99080
33054 11070 33062
31313 48108 81045=
TTDD 1111/ 10739
11902 53780 22730 58179 33569 53582 44481 56182 55304
55384 66252 52186 77143 53984 88110 47388 99090 45788
11087 46188
21212 11960 28516 22820 29016 33733 31016 44696 29012
55666 29017 66635 31013 77617 30009 88613 29509 99602
27511 11544 31519 22483 32510 33457 30516 44430 32514
55408 31017 66359 32021 77328 31021 88317 31525 99304
33020 11237 33028 22223 32522 33189 32028 44104 33052
55087 33048
31313 48108 81045=
TTDD 1111/ 10868
11663 54986 22595 58385 33329 52387 44214 55986 55143
54186 66130 52587 77128 49588 88103 47389 99090 47389
21212 11924 29518 22886 28518 33833 31516 44782 29512
55731 30513 66702 28015 77661 30019 88622 32015 99588
32512 11564 30516 22516 32020 33455 31020 44382 33024
55343 32020 66331 31526 77276 33528 88246 33024 99194
33527 11165 32537 22129 33048 33110 33043 44091 33051
55090 33051
31313 48108 81045=
0000163000
652
UEDL02 EDZW 111200
TTDD 1111/ 10113
11936 56177 22900 52977 33707 57778 44661 54778 55444
58777 66418 55377 77358 57377 88331 53978 99179 58377
11142 53978
21212 11922 27020 22876 28521 33798 30017 44759 30025
55710 30015 66695 28516 77663 29521 88619 29014 99598
28517 11567 30525 22465 29018 33370 31035 44333 30028
55277 31028 66239 30035 77219 31541 88202 31536 99185
32542 11165 31051 22142 31557
31313 48108 81045=
TTDD 1111/ 10184
11837 58181 22790 55182 33676 59781 44633 55182 55526
58381 66313 59781 77261 57182 88170 59781 99105 55782
21212 11919 29019 22800 31521 33748 31018 44698 29521
55649 32023 66500 30531 77441 31527 88399 32532 99330
31041 11300 31543 22254 32539 33193 31051 44105 32574
31313 48008 81054=
TTDD 1111/ 10393
11845 58180 22808 53783 33685 59980 44600 56382 55532
58381 66440 54783 77310 59980 88277 56382 99217 55982
11140 56181
21212 11900 29520 22828 33017 33725 31015 44690 29021
55675 30025 66658 31524 77615 31521 88559 30523 99531
31529 11460 32024 22424 31032 33399 32028 44330 31037
55293 32538 66275 33035 77204 31546 88154 32555 99140
33053
31313 48008 81045=
TTDD 1111/ 10548
11706 57784 22668 55986 33614 58983 44540 53987 55391
55785 66285 53587 77254 56384 88209 53587 99175 55984
11157 52587 22131 54785 33101 47789
21212 11774 29514 22742 32515 33716 31014 44696 28517
55616 31020 66578 29522 77535 31524 88499 31514 99460
30521 11435 32019 22416 31022 33368 32028 44357 32526
55339 30527 66318 31524 77301 32526 88229 33033 99223
31531 11200 32532 22103 32558 33101 32557
31313 48108 81045=
0000022800
653
UEDL03 EDZW 111200
TTDD 1111/ 10238
11713 57785 22556 54586
21212 11954 28512 22907 29512 33840 27517 44773 31518
55677 29017 66556 31523
31313 48008 81045=
TTDD ///// 10618 NIL=
TTDD ///// 10771 NIL=
0000068600
654
ULDL01 EDZW 111200
TTCC 11112 10035
70827 57376 29518 50040 56377 31023 30362 57376 31036
20619 56977 31545 10061 /////
88999
66117 31560 406//
31313 48008 81045=
TTCC 11111 10410
70834 54586 28516 50047 56386 31017 30375 54387 31022
20634 54786 31528 10083 46589 32560
88622 58785 31515
66070 33062 408//
31313 48108 81045=
TTCC 11111 10739
70838 56580 29012 50053 55182 32012 30379 55184 32521
20641 52785 32526 10091 47387 33052
88999
77104 33052 40701
31313 48108 81045=
TTCC 11111 10868
70836 57186 28016 50049 55786 32018 30377 53387 33525
20636 55186 33026 10084 47989 33048
88999
77091 33051 405//
31313 48108 81045=
0000064400
655
ULDL02 EDZW 111200
TTCC 11112 10113
70830 56577 29015 50044 56378 29520 30369 54177 31530
20627 57179 31537
88999
66142 31557 407//
31313 48108 81045=
TTCC 11112 10184
70824 58781 29521 50037 56982 30531 30359 57982 31543
20615 58981 31548 10052 /////
88999
66105 32574 409//
31313 48008 81054=
TTCC 11112 10393
70827 59380 29518 50039 57581 32027 30362 57981 32536
20619 57381 31547
88685 59980 29022
77154 32555 405//
31313 48008 81045=
TTCC 11112 10548
70833 57584 29016 50047 54586 31514 30374 54586 32526
20633 54186 32532 10080 /////
88999
77103 32558 409//
31313 48108 81045=
0000016800
656
ULDL03 EDZW 111200
TTCC 11117 10238
70830 57386 30017 50045 /////
88999
77999
31313 48008 81045=
TTCC ///// 10618 NIL=
TTCC ///// 10771 NIL=
0000135200
657
UKCZ10 OKPR 111200
TTBB 11118 11520
00981 05450 11930 01838 22899 03263 33854 00060 44817
02562 55770 03381 66755 02972 77701 06921 88646 11512
99550 18544 11520 21550 22449 30333 33430 31921 44403
34538 55285 54125 66268 57341 77248 59950 88237 58965
99195 54577 11185 53777 22100 58177
21212 00981 19001 11919 25011 22878 23008 33854 24507
44835 26509 55800 26012 66749 28518 77707 27522 88538
27030 99296 25030 11263 25026 22230 27025 33205 26020
44188 27516 55179 26519 66156 27522 77139 30015 88126
28517 99121 29520 11115 31516 22109 29513 33106 28514
44100 29016
31313 48008 81115
41414 10942
51515 11867 23508 22800 26012 33600 27529=
TTBB 11128 11747
00994 05845 11865 03520 22849 02759 33835 03756 44828
03362 55792 05160 66709 08380 77679 08590 88667 07769
99662 07962 11594 13759 22482 24367 33474 25161 44444
29356 55437 29931 66402 34141 77392 35749 88364 40117
99257 59356 11239 62556 22227 63556 33217 59365 44205
59771 55114 54579 66100 56379
21212 00994 17002 11848 27509 22697 29518 33648 31028
44598 28526 55553 29523 66514 27518 77505 27019 88381
27524 99243 25027 11220 27525 22188 27520 33159 27023
44152 29026 55140 30022 66129 28526 77121 32021 88113
30517 99109 29017 11100 30520
31313 48008 81115
41414 11502
51515 11878 25006 22800 28512 33600 28526=
0000008600
658
ULKZ11 UAAA 111200

TTCC  11127 28951 70746 75147 25526 88999 77999=
0000078400
659
UKRH02 LDZM 111200
TTBB 11128 14430
00013 13039 11933 07803 22855 02406 33829 02001 44791 00503
55766 00559 66714 02758 77661 04769 88574 13162 99523 17567
11497 20742 22477 23157 33463 24726 44450 25950 55426 29528
66421 28961 77420 29162 88413 28972 99322 44556 11293 47957
22221 62557 33191 65359 44176 60166 55169 61170 66132 59576
77124 55779 88100 58178
21212 00013 12002 11975 15505 22853 20005 33837 22008 44799
21508 55783 26008 66733 26506 77687 31009 88666 29011 99629
29511 11579 27012 22498 29019 33428 27520 44394 28015 55347
26521 66242 26532 77201 26025 88164 27030 99157 27525 11149
26519 22147 26021 33137 27025 44120 29018 55112 30016 66100
28018
31313 48108 81110
41414 /////
51515 11898 22502 22800 21508 33600 27512=
0000018800
660
ULRH02 LDZM 111200
TTCC 11122 14430
70839 58978 30514 50052 57379 31017 30375 56380 33525 20635
51181 35024 10087 /////
88999
77165 33531 40604
31313 48108 81110=
0000045200
661
UERH02 LDZM 111200
TTDD 1112/ 14430
11717 59978 22628 55580 33479 58179 44363 55980 55286 57979
66212 50982 77189 52581 88151 49982 99130 51981 11114 47983
22107 48582
21212 11897 30518 22831 28517 33802 30518 44657 31015 55597
32513 66555 30017 77447 31016 88415 34017 99368 32523 11350
33520 22311 32023 33288 35025 44275 34025 55197 35027 66165
33531 77159 34531 88134 34530 99118 32526 11107 33530
31313 48108 81110=
0000024100
662
UDEU02 EGRR 111247 RRH
AMDAR 1112
LVR EU0036   3100N 01419W 111221 F350 MS545 288/047 TB/ S031=
LVR EU0036   3012N 01439W 111228 F350 MS540 300/054 TB/ S031=
LVR EU0036   2922N 01458W 111235 F350 MS540 301/058 TB/ S031=
0000068500
663
UDNT02 EGRR 111247
AMDAR 1111
LVR EU3874   5705N 03515W 111135 F370 MS572 206/035 TB0 S031=
LVR EU3874   5705N 03328W 111142 F370 MS625 200/044 TB0 S031=
LVR EU3874   5703N 03142W 111149 F370 MS605 202/045 TB0 S031=
LVR EU3874   5659N 02955W 111156 F370 MS602 209/056 TB0 S031=
LVR EU3874   5652N 02808W 111203 F370 MS620 209/063 TB0 S031=
LVR EU3874   5644N 02623W 111210 F370 MS622 208/056 TB0 S031=
LVR EU3874   5634N 02440W 111217 F370 MS622 220/052 TB0 S031=
LVR EU3874   5622N 02255W 111224 F370 MS607 228/056 TB0 S031=
LVR EU3874   5609N 02109W 111231 F370 MS590 232/063 TB0 S031=
LVR EU3874   5600N 01922W 111238 F370 MS602 239/058 TB0 S031=
0000304000
664
SMID01 WIIX 111200
AAXX 11124
96009 31450 70903 10269 20238 30077 40112 52014 70522 83971
  333 10291 56000 57902 57803 58006 81915 82816 85360 80966 80858=
96011 11459 70000 10272 20248 30089 40115 52014 60021 72162 83972
  333 10316 56000 57904 81919 82619 80959=
96035 31450 83407 10272 20247 30094 40104 52016 70522 86976
  333 10304 56000 57902 59005 81917 85618 80957=
96073 31550 70000 10288 20234 30084 40096 51023 70522 83222
  333 10332 56000 57802 59003 83820 80860=
96091 01456 80508 10254 20240 30093 40116 52020 60011 72162 84978
  333 10308 56800 57983 58014 60017 81920 83613 86460 80980=
96109 32460 70000 10288 20240 30044 40085 52016 82222
  333 10314 56000 57802 58002 82815 84360 80833=
96145 32440 60105 10266 20236 30106 40109 53015 84870
  333 10302 56800 57882 58008 81616 83817 83460 80857=
96147 32457 63608 10250 20236 30110 40115 51014 83531
  333 10280 56800 83614 84360=
96163 32558 51903 10269 20244 30084 40091 52012 82578
  333 10308 56000 59013 82621=
96179 32460 70000 10272 20246 30057 40094 53004 82208
  333 10314 56000 57803 58004 82817 87273 80840=
96195 11458 70203 10271 20237 30064 40102 52016 69901 70262 83571
  333 10292 56000 58005 83614 84460=
96221 11457 80000 10254 20245 30087 40102 52015 69901 70562 81536
  333 10264 56999 58015 81610 84362 86280=
96237 01440 80000 10240 20234 30071 40113 52016 60311 79596 8392/
  333 10286 56009 57902 57902 58012 60087 81917 82816 88460 80980=
96249 01456 70000 10234 20230 30043 40104 52019 60351 76196 84932
  333 10280 56700 57971 57871 60337 81917 83820 80981 80863=
96253 11560 70000 10269 20239 30064 40085 52021 69901 70262 82832
  333 10292 56000 57800 81820 83360=
96295 01458 82404 10235 30001 40106 51020 60141 76166 8592/
  333 10308 56009 57900 60217 81911 85611 88463 80900=
96509 01458 70108 10266 20236 30103 40115 53020 69901 70226 85271
  333 10300 56000 57801 58000 69907 85814 84461 80865=
96581 32457 72104 10282 20242 31096 40203 52024 83131
  333 10324 56000 59001 83813 83362 80862=
96633 01458 70202 10271 20244 30093 40098 52020 69901 72162 84971
  333 10304 56000 57900 59004 69907 81918 83618 85460 809//=
96645 01450 80000 10258 20254 30073 40106 52031 60041 71796 86372
  333 10358 56000 57901 57802 58005 60047 81912 85812 80981 80858=
96655 02457 62702 10266 20252 30090 40121 52022 69901 84571
  333 10320 56000 58009 69907 84612=
96685 32559 61602 10274 20251 30081 40102 52026 82511
  333 10310 56000 58022 82620 85462=
96749 01556 63406 10266 20244 30088 40102 51027 69911 72162 83921
  333 10328 56000 57934 57844 58002 69917 81920 82821 85460 80980
80859=
96781 NIL=
96805 01558 60000 10262 20244 30098 40107 51017 69901 70196 83270
  333 10319 56500 57851 58005 69907 83820 85460 80850=
96839 32557 53505 10288 20243 30093 40097 52025 83131
  333 10308 56000 58005 83820=
96935 01458 50000 10273 20238 30101 40107 52025 69901 72196 82231
  333 10316 56000 57802 58011 69907 82818 80860=
0000017000
665
SOVI10 KWAL 111246
B110070A 011124601 P9751095 B\P~W@@j0ekL1@m}???DEC?>@mt3@]D@@y4DF5C~6bb9IQ<BM2?????@"??? nTLkKCCC@B|CACAB?:AMPTEMP 26.94C  45-0NN 219E
0000331200
666
SMID02 WIIX 111200
AAXX 11124
97014 01458 70000 10244 20235 39995 40094 52014 60081 76062 84871
  333 10295 56000 57802 59013 60077 83818 80860=
97028 32560 73103 10254 20233 30079 40085 53002 84521
  333 10280 56000 59012 84620 87460=
97048 32556 60000 10270 20237 30050 40074 52014 84811
  333 56000 59019 84820=
97072 12558 40000 10260 20236 30019 40119 52023 81521
  333 10288 56000 59003 81620 83460=
97086 11558 72804 10266 20236 30069 40095 53019 60021 71322 83571
  333 10329 56000 59002 83620 86360=
97096 32460 70000 10252 20234 30100 40121 52014 83821
  333 10300 56000 57803 58003 83816 83460 80857=
97120 32459 63303 10276 20235 30061 40094 52018 82231
  333 10320 56000 57802 59005 82818 84080 80860=
97146 NIL=
97180 32458 70000 10276 20252 30091 40110 51022 82232
  333 10313 56000 58001 82819 84360=
97192 11440 62204 10278 20241 30051 40115 52013 60021 70162 84521
  333 10304 56000 59009 84615=
97230 11460 72002 10276 20246 30090 40095 52019 69921 70296 83231
  333 10303 56100 57811 58006 83817 85080 80860=
97260 31458 71304 10266 20239 30087 40093 52015 70522 85531
  333 10308 56000 58005 85617=
97270 31456 60000 10274 20242 30096 40100 52016 70192 84821
  333 10332 56000 58007 83815 85460=
97300 01456 71903 10275 20253 30072 40109 52018 69901 72162 83271
  333 10319 56000 57802 58003 69907 83818 83460 80857=
97340 31560 62205 10258 20223 30090 40103 52018 70192 83232
  333 10326 56000 58007 83820=
97372 12458 70000 10262 20256 39977 40103 52020 69901 82271
  333 10310 56000 59003 82818 84359=
97430 32460 72503 10254 20233 30064 40103 52022 83232
  333 10300 56700 57871 59003 83818 80860=
97460 11459 70000 10272 20242 30059 40073 52018 69951 70262 84876
  333 10303 56000 57802 59011 83817 80858=
97502 32450 40000 10274 20251 30082 40082 52021 82131
  333 10320 56000 59005 82810=
97530 31456 60000 10264 20243 30082 40086 53018 70292 83231
  333 10334 56000 57802 59003 82816 80857=
97560 NIL=
97580 01458 80000 10254 20248 30077 40084 52009 60021 76022 8483/
  333 10322 56009 57802 59011 60017 81815 83616 85361 80858=
97600 32560 52305 10286 20242 30077 40083 52017 83231
  333 10332 56600 57863 59015 82820 83360 80860=
97686 01450 83403 10178 20175 38347 40065 52030 60051 76166 8582/
  333 10253 56009 57802 59002 60057 85811 88460 80859=
97690 01420 82607 10240 20234 39982 40078 51024 60841 76196 83777
  333 10320 56600 58007 60477 83810 88279=
97724 01460 73405 10258 20243 30057 40079 52015 60011 70262 82232
  333 10320 56600 57862 59028 69907 82817 86362 80858=
97748 01457 73108 10274 20254 30073 40074 52015 60011 70562 83932
  333 10312 56600 57962 59016 60017 81914 82815 84359 80950 80840=
97760 31450 73408 10270 20245 30070 40079 52012 71522 84932
  333 10323 56000 57901 59018 81915 83617 80980=
97796 32450 70000 10269 20248 30030 40080 52013 82532
  333 10325 56000 59016 82615 86362=
97810 NIL=
97876 21350 70000 10250 20235 30051 40085 53017 60091 70262 85551
  333 10326 56000 59016 85608=
97900 11560 52405 10269 20256 30041 40069 52015 60031 70262 84235
  333 10300 56500 57851 59020 84820 80850=
97980 01460 73005 10258 20247 30060 40067 52015 69901 70262 85842
  333 10304 56000 59016 69907 82816 83617=
0000042900
667
UDAC02 EGRR 111247
AMDAR 1112
LVR EU6113   6653N 02115W 111208 F340 MS587 128/074 TB/ S031=
LVR EU6113   6658N 02347W 111215 F340 MS577 134/060 TB/ S031=
LVR EU6113   6701N 02618W 111222 F340 MS597 132/061 TB/ S031=
LVR EU6113   6702N 02848W 111229 F340 MS590 132/057 TB/ S031=
LVR EU6113   6703N 03118W 111236 F340 MS605 135/064 TB/ S031=
LVR EU6113   6705N 03347W 111243 F340 MS600 139/068 TB/ S031=
0000345500
668
SMID20 WIIX 111200
AAXX 11124
96001 31556 80809 10260 20239 39977 40125 53012 70522 84572
  333 10286 56200 58007 84620=
96015 32457 70000 10292 20256 30103 40110 52011 83272
  333 10312 56000 57802 58008 83817 80860=
96033 31456 73506 10282 20244 30105 40109 52013 71522 83927
  333 10302 56000 57903 58002 81916 83615 80980=
96075 01456 70000 10254 20239 30096 40106 52012 60051 72096 85971
  333 10295 56000 57902 58004 60027 82915 83616 80965=
96087 01458 80106 10250 20232 30072 40105 51016 60781 71598 84927
  333 10304 56000 57902 58011 60647 81917 83614 87460 88280 80977=
96171 31450 70000 10268 20247 30066 40089 52015 70522 85522
  333 10310 56000 58008 85615=
96207 01440 80000 10210 20202 39223 40150 52018 60091 79596 8697/
  333 10274 56000 57900 58000 60097 82913 84614 80900=
96525 32458 83003 10258 20240 30104 40111 52027 8327/
  333 10316 56009 59002 83615 88460=
96529 11457 60000 10258 20246 30108 40132 52031 69901 70252 83121
  333 10314 56000 58005 83818 80980=
96535 32960 40202 10258 20243 30094 40115 53014 81031
  333 10309 56000 59004 81362 84082=
96557 31450 60000 10257 20238 30058 40107 52015 71322 84371
  333 10306 56600 57962 57861 58002 81912 83813 84460 80980 80857=
96559 01340 80000 10258 20240 30070 40109 52026 60061 72162 8692/
  333 10302 56009 57902 57804 58009 60057 81913 85809 88461 80973
80856=
96565 01440 71103 10248 20236 30073 40124 52031 60021 72162 84971
  333 10316 56000 57902 57802 58002 60027 81912 83810 85357 80967
80856=
96595 31459 60000 10267 20249 30059 40111 52024 71422 83926
  333 10305 56000 58002 81917 82612 80977=
96607 32458 50000 10275 20244 30092 40106 52022 81126
  333 10314 56000 59004 81816 85280=
96615 32458 72603 10278 20246 30098 40112 52026 81231
  333 10314 56000 57803 58015 81812 86080 80852=
96695 01456 60000 10256 20244 30098 40104 53024 69911 70262 84211
  333 10304 56000 57803 58001 69907 84816 83458 80858=
96737 01450 80000 10250 20241 30058 40088 52025 60231 72196 84221
  333 10320 56000 57801 58013 60237 84815 84460 80860=
96739 11440 81408 10256 20241 30053 40100 52020 69921 71796 8592/
  333 10312 56009 57901 58000 83918 82618 88460 80980=
96741 31556 73404 10290 20248 30102 40106 52023 71322 84271
  333 10334 56800 57881 58004 81820 83620 86460 80858=
96745 31556 82109 10284 20246 30101 40105 52020 71392 85921
  333 10328 56100 57911 58017 81918 84620 87460 80930=
96751 01430 81201 10199 20189 39034 40120 52026 60171 79596 8592/
  333 10250 56009 57901 58002 60177 82913 83613 85460 80980=
96791 01457 70000 10253 20238 30049 40124 51026 60061 70196 85811
  333 10315 56000 57800 58015 60017 83819 83459 808//=
96797 32458 60104 10286 20243 30098 40104 52025 85921
  333 10314 56000 57902 58010 81918 84620 80980=
96837 31557 73507 10290 20250 30103 40104 52028 70522 85221
  333 10310 56000 57800 58012 85823=
96925 90/12 00000 35001 32004 90346 34003 34005 01001 90789=
96933 01459 50000 10266 20255 30102 40105 52024 60041 70296 83521
  333 10322 56800 58011 60047 83616=
96937 01559 50000 10266 20257 30103 40108 52025 60281 70196 83231
  333 10318 56000 57811 59014 60027 83820 80860=
96973 31458 50000 10276 20247 30096 40103 52028 69901 70222 83971
  333 10318 56000 57902 58008 81919 80976 82820 80850=
96987 32560 40000 10274 20250 30052 40107 52019 82231
  333 10314 56000 57802 58017 82820 80860=
00000000