0000034400
449
SZIO01 AMMC 111242
CREX++
T000103 A001 D01021 D06025++
-1211670 09689190 46280 2014 01 11 12 35 3018 11 07 00 01
00759 0030 00755 0028 00758 0032 00752 0028 00757 0035 00749 0028+
-1042940 10566940 46290 2014 01 11 12 35 //// 11 07 00 01
01064 0022 01015 -0024 01051 0014 01005 -0029 01048 0017 00987 -0041++
7777

0000046700
450
SZPA01 AMMC 111242
CREX++
T000103 A001 D01021 D06025++
0136250 17293000 67590 2014 01 11 12 35 3015 11 07 00 01
01876 0047 01871 0039 01883 0049 01879 0042 01883 0043 01888 0045+
0710610 17137250 67680 2014 01 11 12 35 3013 11 07 00 01
01262 0042 01262 0041 01275 0052 01272 0047 01271 0044 01278 0050+
0698060 15820000 67950 2014 01 11 12 35 3023 11 07 00 01
00734 0090 00737 0092 00741 0095 00743 0096 00746 0099 00747 0099++
7777

0000178900
451
SZPS01 AMMC 111242
CREX++
T000103 A001 D01021 D06025++
-0204190 14737360 56130 2014 01 11 12 35 3027 11 07 00 01
00385 0075 00386 0076 00386 0076 00388 0078 00392 0083 00391 0082+
-0669280 15640860 56363 2014 01 11 12 35 //// 11 07 00 01
00521 -0050 00519 -0054 00518 -0056 00520 -0056 00518 -0059 00518 -0061+
-0942890 15995560 56670 2014 01 11 12 35 3038 11 07 00 01
00410 -0067 00414 -0063 00410 -0067 00405 -0072 00408 -0070 00410 -0068+
-1072080 16580190 57131 2014 01 11 12 35 //// 11 07 00 01
01241 0693 01030 0479 01013 0459 00881 0325 00559 0001 01361 0800+
-1551560 16718860 57210 2014 01 11 12 35 //// 11 07 00 01
00617 -0157 00617 -0160 00632 -0148 00633 -0151 00650 -0137 00645 -0145+
-1775690 16830030 57320 2014 01 11 12 35 3017 11 07 00 01
00515 -0128 00521 -0124 00527 -0122 00534 -0117 00542 -0112 00549 -0108+
-4397330 16861610 65180 2014 01 11 12 35 2885 11 07 00 01
01391 0401 01393 0407 01387 0405 01360 0381 01340 0365 01360 0389+
-2120470 -15978530 65980 2014 01 11 12 35 3010 11 07 00 01
00614 0026 00623 0033 00596 0005 00591 -0002 00603 0009 00634 0038+
-2113810 -17518140 66600 2014 01 11 12 35 //// 11 07 00 01
01081 0091 01092 0097 01095 0097 01086 0084 01099 0093 01095 0085+
-1382670 -17176110 66840 2014 01 11 12 35 3008 11 07 00 01
00898 0030 00901 0030 00906 0032 00906 0030 00912 0033 00920 0039+
-1813250 17842750 67050 2014 01 11 12 35 3030 11 07 00 01
01154 0093 01154 0088 01156 0087 01159 0086 01167 0089 01170 0088+
-1760530 17743810 67070 2014 01 11 12 35 3032 11 07 00 01
01194 0034 01198 0033 01202 0032 01206 0031 01210 0030 ///// ////+
-0850250 17919500 67440 2014 01 11 12 35 3028 11 07 00 01
02159 0004 02164 0005 02174 0012 02165 -0001 02172 0003 02175 0002++
7777

0000012000
452
SIAA19 LFVW 102100 RRD
AAXX 10214
89811 46/// /0929 11080 29098 38271 4//// 5////
  333 90700 91135=
0000027600
453
SSVX02 LFVW 111241
ZZYY 23598 11014 1051/ 114622 083036 6111/
11119 40145 57011
22219 00267
444 20110 11014 1015/ 503// 80108 80011=
ZZYY 23598 11014 0851/ 114611 083040 6111/
11119 40148 57029
22219 00268
444 20110 11014 0811/ 503// 80108 80010=
0000009200
454
SMVF01 BIRK 111200
BBXX
OZ2049 11060 99620 70146 42/98  12813 10048 40021=
0000011600
455
ULNO14 ENMI 111200
TTCC 11127 01400
70830 55380 27525 50043 /////
88999
77999
31313 48008 81131=
0000017600
456
UENO14 ENMI 111200
TTDD 1112/ 01400
11587 56780
21212 11873 25023 22821 28019 33763 28519 44704 27525
55647 29518 66615 27021 77590 27527
31313 48008 81131=
0000011100
457
UANT01 CWAO 111241
ARP UAL957 5020N03728W 1241 F360 MS54 304/44 KT
N667UA DDL XXW 111241 F42A
0000010900
458
UANT01 CWAO 111241
ARP VIR29 4902N02009W 1241 F360 MS63 202/98 KT
GVROY DDL XXF 111241 F87A
0000011000
459
UANT01 CWAO 111241
ARP EIN105 5207N02310W 1241 F360 MS60 203/64 KT
EIDUZ DDL XXN 111241 J85A
0000011000
460
UANT01 CWAO 111241
ARP DAL19 5241N03412W 1241 F330 MS56 202/11 KT
N834MH QXT AOE 111241 F51A
0000014500
461
UAPA01 KWBC 111242
ARP WJA1853 3500N 14221W 1229 F360 MS53 247/070KT=
ARP AWE664 2916N 13101W 1235 F390 MS53 303/051KT TB SMTH=
0000178400
462
USZN41 SAZN 111200
TTAA 61111 87715
99988 16266 11006 00167 ///// ///// 92825 15274 02510
85540 13674 16504 70142 03269 23520 50581 10765 19039
40748 22971 17539 30952 39766 17040 25074 49166 17037
20217 60359 18533 15393 63770 24051 10642 66979 24533
88164 66960 19036
77999
31313 48008 81059=

UKZN41 SAZN 111200
TTBB 61118 87715
00988 16266 11945 13465 22919 16475 33867 15276 44804
09667 55777 08463 66738 06871 77680 01669 88671 01682
99650 00059 11573 03366 22532 07378 33489 12164 44347
30572 55275 44565 66256 47968 77204 59959 88164 66960
99137 61181 11100 66979
21212 00988 11006 11970 10010 22930 03011 33925 02510
44806 19510 55771 24019 66753 25018 77736 23018 88680
23024 99652 21524 11636 18523 22467 20040 33411 17537
44359 18546 55253 17038 66198 18531 77185 20538 88173
20043 99163 19034 11159 20028 22155 23536 33149 23552
44130 20537 55125 22032 66118 24035 77110 23539 88102
24031 99100 24533
31313 48008 81059
41414 00900=

ULZN41 SAZN 111200
TTCC 61112 87715
70857 64780 23529 50065 57782 17508 30393 53383 07014
20656 47585 07522
88999
77999
31313 48008 81059=

UEZN41 SAZN 111200
TTDD 6111/ 87715
11950 68179 22607 65979 33576 60181 44379 52183 55326
55182 66133 43586
21212 11944 24036 22842 24534 33800 22532 44700 23529
55681 21029 66639 21527 77620 20027 88592 20019 99563
14513 11560 13510 22537 02002 33488 16010 44478 12514
55471 12010 66456 16510 77451 16013 88434 10023 99422
08023 11397 11021 22367 06031 33360 05528 44346 09520
55325 06020 66300 07014 77297 07514 88291 10517 99280
09014 11273 11518 22257 09030 33253 08526 44227 10021
55201 07523 66197 08017 77186 10520 88180 08522 99158
10530 11141 08536 22133 09036
31313 48008 81059=
0000319900
463
UDFR01 LFPW 111242
AMDAR 1112
DES EU5590 4427N 00428E 111225 F212 MS275 /// 240/034 TB1 S031
333 F212 VG008=
DES EU5590 4425N 00429E 111225 F203 MS262 /// 241/033 TB0 S031
333 F203 VG004=
DES EU5590 4423N 00431E 111225 F191 MS235 /// 245/030 TB1 S031
333 F191 VG009=
DES EU5590 4420N 00432E 111226 F181 MS210 /// 249/032 TB0 S031
333 F181 VG003=
DES EU5590 4417N 00434E 111226 F160 MS170 /// 255/024 TB0 S031
333 F160 VG002=
DES EU5590 4414N 00435E 111227 F151 MS155 /// 246/031 TB1 S031
333 F151 VG008=
DES EU5590 4413N 00437E 111227 F145 MS145 /// 251/030 TB0 S031
333 F145 VG006=
DES EU5590 4411N 00438E 111227 F142 MS137 /// 245/030 TB0 S031
333 F142 VG003=
DES EU5590 4409N 00439E 111228 F139 MS127 /// 236/027 TB1 S031
333 F139 VG020=
DES EU5590 4407N 00440E 111228 F134 MS120 /// 235/031 TB1 S031
333 F134 VG013=
DES EU5590 4405N 00441E 111228 F128 MS102 /// 231/029 TB1 S031
333 F128 VG018=
DES EU5590 4404N 00441E 111229 F120 MS087 /// 240/026 TB0 S031
333 F120 VG006=
DES EU5590 4402N 00443E 111229 F113 MS070 /// 236/023 TB1 S031
333 F113 VG008=
DES EU5590 4401N 00443E 111229 F110 MS062 /// 233/021 TB0 S031
333 F110 VG003=
DES EU5590 4359N 00444E 111230 F107 MS060 /// 236/020 TB1 S031
333 F107 VG012=
DES EU5590 4358N 00445E 111230 F101 MS045 /// 231/018 TB0 S031
333 F101 VG004=
DES EU5590 4356N 00446E 111230 F096 MS030 /// 229/013 TB1 S031
333 F096 VG017=
DES EU5590 4355N 00447E 111231 F091 MS015 /// 221/014 TB0 S031
333 F091 VG002=
DES EU5590 4353N 00448E 111231 F085 PS000 /// 233/011 TB1 S031
333 F085 VG018=
DES EU5590 4350N 00449E 111232 F072 PS037 /// 266/012 TB1 S031
333 F072 VG009=
DES EU5590 4349N 00450E 111232 F066 PS045 /// 264/010 TB0 S031
333 F066 VG003=
DES EU5590 4347N 00451E 111232 F062 PS055 /// 246/011 TB0 S031
333 F062 VG003=
DES EU5590 4346N 00452E 111233 F057 PS060 /// 239/014 TB0 S031
333 F057 VG007=
DES EU5590 4345N 00452E 111233 F052 PS010 /// 207/003 TB1 S031
333 F052 VG008=
DES EU5590 4344N 00453E 111233 F046 PS020 /// 206/002 TB1 S031
333 F046 VG021=
DES EU5590 4342N 00454E 111234 F041 PS030 /// 149/003 TB1 S031
333 F041 VG013=
DES EU5590 4341N 00455E 111234 F038 PS037 /// 139/001 TB1 S031
333 F038 VG013=
DES EU5590 4340N 00455E 111234 F038 PS042 /// 149/001 TB0 S031
333 F038 VG003=
DES EU5590 4338N 00456E 111235 F037 PS040 /// 130/002 TB0 S031
333 F037 VG001=
DES EU5590 4337N 00456E 111235 F037 PS042 /// 121/002 TB0 S031
333 F037 VG007=
UNS EU5590 4337N 00458E 111235 F037 PS040 /// 088/003 TB0 S031
333 F037 VG003=
DES EU5590 4335N 00459E 111236 F037 PS040 /// 115/001 TB0 S031
333 F037 VG002=
DES EU5590 4334N 00500E 111236 F036 PS042 /// 191/002 TB0 S031
333 F036 VG006=
DES EU5590 4334N 00501E 111236 F033 PS050 /// 203/004 TB1 S031
333 F033 VG013=
DES EU5590 4332N 00502E 111237 F029 PS055 /// 163/003 TB0 S031
333 F029 VG004=
DES EU5590 4332N 00504E 111237 F025 PS065 /// 128/004 TB0 S031
333 F025 VG000=
DES EU5590 4331N 00505E 111237 F021 PS075 /// 129/005 TB0 S031
333 F021 VG006=
DES EU5590 4331N 00506E 111238 F017 PS085 /// 082/003 TB0 S031
333 F017 VG003=
0000036200
464
SXXX32 EUMS 111236
12FFB3C8
:PRS 1 /1 M 3084 3093 3080 3092 3104 3096 3101 3106 3112 3116 3129 3149 3150 3154 3153 3162 3162 3156 3162 3148 3153 3157 3163 3170 3177 3181 3179 3194 3185 :RAD 1 /3 6035 6049 6065 6086 6096 6100 6102 6115 6122 6121 :ENC 1 /5 -144 -144 -144 -144 -144 -144 :SW1 36 /60 0 :SW2 6 /60 16 :BAT 14 /15 12.9 :NAME 12FFB3C8
0000070100
465
SXXX32 EUMS 111236 RRA
22E7E6D2
OT12 ID:ID-ROTE-11 DT:2014 01 11 12 34
:PRS /1 -10790 -10298 -10785 -10794 -10763 -10763 -10763 -10763 -10796 -10794 -10791 -10794 -10793 -10798 -10792 -10789 -10306 -10787 -10791 -10759 -10760 -10761 -10762 -10790 -10791 -10792 -10791 -10788 -10787 -10787
:PR2 /1 04700 04720 04708 04730 04744 04741 04728 04747 04727 04723 04712 04718 04708 04710 04714 04699 04699 04725 04685 04689 04677 04700 04718 04685 04688 04710 04720 04690 04673 04688
:RAD /1 06302 06258 06282 06274 06290 06314 06286 06290 06286 06282 06302 06274 06274 06266 06238 06270 06266 06270 06266 06262 06250 06242 06242 06274 06262 06266 06250 06290 06262 06230
:BAT 12.5V
0000066700
466
SXXX32 EUMS 111237
32CC9580
OT12 ID:ID-ENGG-07 DT:2014 01 11 12 36
:PRS /1 01550 01533 01509 01563 01538 01569 01566 01504 01567 01543 01537 01510 01559 01511 01544 01565 01509 01523 01531 01499 01467 01492 01510 01485 01501 01516 01497 01512 01481 01492
:PR2 /1 05024 04986 04974 04969 04971 05018 04983 04984 04989 04997 04980 04973 04993 04924 04970 04979 04961 04930 04959 04951 04944 04900 04933 04969 04947 04935 04898 04945 04919 04907
:RAD /1 05882 05903 05855 05868 05843 05880 05883 05844 05889 05864 05862 05841 05866 05843 05853 05864 05849 05850 05852 05862 05821 05813 05837 05856 05839 05829 05807 05838 05824 05803
:BAT 12.3V
0000044400
467
SXXX32 EUMS 111239
224AD678
:PRS 2 /1 2533 2535 2537 2540 2540 2539 2538 2541 2544 2546 2549 2551 2552 2552 2554 2553 2554 2555 2553 2552 2552 2550 2551 2554 2557 2560 2564 2563 2560 2559 :RAD 4 /3 5362 5364 5370 5373 5377 5380 5380 5381 5386 5384 5382 5379 5380 5378 5375 5372 5368 5362 5356 5352 :ENC 4 /5 8864 8869 8878 8879 8876 8884 8881 8877 8879 8871 8866 8860 :SW1 39 /60 0 :SW2 9 /60 0 :BAT 14 /15 12.3 :NAME 224AD678
0000363100
468
SMIN90 VOMM 111200
AAXX 11124
43278 32997 20503 10260 20199 30124 40131 80001
  333 10301 58006=
43279 32597 30902 10266 20195 30116 40134 81501
  333 10297 58011 81620=
43301 32997 20702 10284 20141 30586 40105 80002
  333 10306 58001=
43303 32597 40505 10286 20187 39872 40111 80002
  333 10298 58010=
43321 31996 10904 10292 20135 39669 40108 70521 80001
  333 10300 58012 81070=
43325 32597 40503 10310 20168 39790 40097 81501
  333 10330 58008=
43329 32997 20902 10264 20216 30110 40124 80001
  333 10301 58009=
43331 32597 60902 10260 20208 30080 40123 81101
  333 10306 58007=
43339 32/97 51804 10136 20069 37723 47160 81402
  333 10185 58010=
43341 32495 60000 10231 20190 38958 48496 83334
  333 10285 58004=
43344 31496 40908 10286 20183 30019 40118 70511 82501
  333 10307 58010 82616 84075=
43346 32597 30509 10262 20214 30109 40116 82501
  333 10288 58003 82620=
43347 32597 30504 10264 20219 30109 40120 82501
  333 10286 58007=
43348 32597 30504 10281 20221 30113 40120 82401
  333 10310 58006=
43360 31996 10905 10304 20160 39960 40105 70500 80001
  333 10317 58006=
43361 32997 10904 10264 20229 30116 40122 80001
  333 10286 58009=
43363 32597 20211 10268 20224 30107 40120 82800
  333 10282 58008=
43377 31996 00509 10270 20226 30062 40103 70500
  333 10308 58004=
43379 32898 20909 10276 20244 30101 40104 82070
  333 10300 58009=
43081 32597 20000 10282 20178 39684 40105 81801
  333 10313 58008=
43105 32597 21806 10258 20210 30133 40140 81501
  333 10297 58006=
43121 32597 19902 10288 20179 39594 40099 81500
  333 10313 58005=
43147 32997 11402 10260 20188 30116 40138 80001
  333 10303 58005=
43181 31596 31402 10264 20193 30104 40132 70500 83500
  333 10309 58010=
43187 32996 10260 20199 30125 40136
  333 10306 58009=
43220 32597 21402 10260 20199 30119 40126 82500
  333 10289 58007=
43221 32997 31402 10268 20194 30113 40126 80001
  333 10305 58012=
43225 32997 03203 10284 20212 30118 40123
  333 10312 58012=
43226 32997 03204 10278 20205 30088 40117
  333 10316 58010=
43243 32597 31405 10268 20194 30107 40132 81531
  333 10299 58000=
43266 32596 53615 10284 20231 40115 83460
  333 10304 58012=
43275 32596 30505 10280 20168 30000 40118 81502
  333 10313 58008=
43278 32997 20503 10260 20199 30124 40131 80001
  333 10301 58006=
43285 32997 02305 10288 20220 30080 40111
  333 10325 58006=
43296 32997 41406 10272 20105 39131 48527 80004
  333 10288 58010 84075=
43303 32597 40505 10286 20187 39872 40111 80002
  333 10298 58010=
43311 32597 69902 10298 20241 40110 85401
  333 10334 58005 85620 83075=
43315 32997 22704 10296 20229 40102 80001
  333 10329 58011=
43331 32597 60902 10260 20208 30080 40123 81101
  333 10306 58007=
43325 32597 40503 10310 20168 39790 40097 81501
  333 10330 58008=
43339 32/97 51804 10136 20069 37723 47160 81402
  333 10185 58010=
43346 32597 30509 10262 20214 30109 40116 82501
  333 10288 58003 82620=
43347 32597 30504 10264 20219 30109 40120 82501
  333 10286 58007=
43348 32597 30504 10281 20221 30113 40120 82401
  333 10310 58006=
43352 32597 22705 10292 20249 40098 81101
  333 10320 58007=
43360 31996 10905 10304 20160 39960 40105 70500 80001
  333 10317 58006=
43361 32997 10904 10264 20229 30116 40122 80001
  333 10286 58009=
43363 32597 20211 10268 20224 30107 40120 82800
  333 10282 58008=
43372 31596 31602 10292 20234 40104 70511 81401
  333 10308 58008 81618=
43377 31996 00509 10270 20226 30062 40103 70500
  333 10308 58004=
00000000