0000011000
209
UANT99 KDDL 111235
ARP DLH462 4807N02241W 1235 F340 MS56 191/80 KT
DAIMI QXT EUA 111235 J23A
0000012200
210
SMIN90 VEAT 111200
AAXX 11124
42724 31595 30000 10210 20153 40155 70510 83500
  333 10262 58002 83620=
0000027700
211
SMIN42 DEMS 111200
AAXX 11124
42103 31995 00000 10166 20091 40195 70510
  333 10179 58038=
42273 21595 70902 10152 20141 40170 70562 85530
  333 10156 58025 6003/ 85620 87360=
43181 NIL=
43221 NIL=
43303 NIL=
43311 NIL=
43325 NIL=
43360 NIL=
0000010400
212
SAIN90 VERC 111200
METAR VERC 111200Z 05005KT 1000 MIFG SCT015 BKN100 15/12 Q1017 NOSIG=
0000007900
213
UPIN90 VABP 111200
PPAA 61111 42361 55292 33513 34511 77999=

0000010300
214
UGIN90 VABP 111200
PPBB 61111 42361 90012 31502 33008 33512 90378 34017 32518 33517=

0000011000
215
UANT99 KDDL 111235
ARP CRL926 4802N01542W 1235 F340 MS60 236/71 KT
FHSKY QXT EUA 111235 J81A
0000011100
216
UANT99 KDDL 111235
ARP RCH242 5001N01901W 1235 F280 MS45 200/66 KT
77180A DDL XXN 111235 F61A
0000011000
217
UANT99 KDDL 111235
ARP BAW9VA 4750N02228W 1235 F380 MS51 205/73 KT
GVIIV QXT AOE 111236 F13A
0000011000
218
UANT99 KDDL 111236
ARP AZA60U 4742N01236W 1236 F340 MS60 255/60 KT
EIISB QXT AOE 111236 F09A
0000175000
219
UKMG01 FMMI 111200
TTBB 61118 67083
00876 27460 11871 24861 22760 13826 33719 10417 44666
07450 55613 02019 66605 02434 77524 02967 88520 02966
99443 11958 11436 12759 22424 13965 33410 14363 44407
13980 55403 13986 66386 15586 77320 27568 88243 427//
99231 453// 11202 535// 22154 665// 33139 713// 44109
805// 55100 805//
21212 00876 00000 11746 06509 22638 08009 33620 10008
44603 12012 55589 09512 66569 09514 77549 13511 88468
09506 99460 12510 11453 11012 22429 11517 33400 05510
44392 07013 55379 05014 66362 06013 77346 02514 88331
03515 99321 06016 11307 06518 22301 08518 33258 09017
44238 13519 55228 14519 66212 13518 77206 12023 88192
12534 99170 11039 11156 12033 22127 09540 33118 08534
44106 09531 55100 08527
31313 47908 81032
41414 59533
51515 77321 15238 06508 60440 02040 11512=
TTBB 61118 67197
00013 29858 11007 27057 22872 18612 33858 19026 44812
15208 55760 14045 66726 10626 77700 09426 88684 09059
99669 07441 11662 07659 22631 04431 33608 04057 44566
00245 55547 01358 66524 01765 77495 03563 88434 11163
99416 13957 11411 13965 22395 15375 33391 15762 44386
16166 55360 19782 66320 27160 77310 28375 88303 29764
99290 32181 11282 33977 22274 35556 33249 401// 44223
469// 55184 569// 66148 683// 77110 791// 88100 789//
21212 00013 14004 11823 31509 22796 32512 33783 31514
44739 31517 55703 34517 66684 33519 77632 35021 88597
33524 99568 33523 11531 36022 22502 34521 33484 35516
44452 30510 55432 29014 66419 26513 77302 30002 88228
35509 99213 03515 11198 03018 22182 36009 33168 03515
44154 02510 55130 21510 66110 35502 77107 07010 88104
05519 99100 04511
31313 47908 81032
41414 39502
51515 77330 13829 31515 60451 03256 33524=
0000138100
220
SMCI34 BABJ 111200
AAXX 11121
56671 32980 00000 10116 21030 38201 52020 333 00201=
57378 32960 83202 10057 20014 40326 52017 88///=
57426 11717 80201 10061 20044 40316 52025 69921 71060 88///
333 00601=
57476 32960 82702 10048 20011 30283 40325 52016 88///=
57584 32860 83602 10047 20027 40322 52018 88///=
57598 11656 83402 10043 20039 30124 40310 52012 69941 76060
88///=
57655 32960 70401 10047 20012 40330 52020 87///=
57713 NIL=
57776 41/80 93605 11035 21040 40326 52015 74944=
58321 31640 82001 10043 20034 40313 52003 71000 88///=
58437 11900 82703 11012 21015 38198 52008 69931 77474 88///=
58445 NIL=
58556 11529 83602 10058 20055 40300 52011 60041 71000 88///=
58569 11415 80405 10065 20065 40289 52008 60041 76064 88///=
58646 11644 80000 10081 20064 40285 52013 69941 76060 88///=
58653 NIL=
58660 NIL=
58715 119// 03403 10057 20047 40295 52020 69971 76066=
58730 31659 83201 10105 20061 39994 40267 52010 70060 88///=
58731 11627 80000 10081 20059 40272 52011 69911 71060 88///=
58754 32668 83401 10113 20058 40276 52011 88///=
58911 31657 12701 10127 20084 40248 52020 70500 81///=
58931 31/00 92902 10058 20058 38403 52007 74440=
59254 31756 71802 10142 20102 40237 52020 70500 87///=
59632 31756 80202 10151 20111 40230 52022 70500 88///=
59855 32468 20901 10211 20187 30179 40209 52019 82///=
0000102600
221
SMET01 HAAB 111200
AAXX 11121
63330 42580
71006 10204 20100 37789 40256 82130 333 58004 82821 85356=
63331 42580
3//// 10256 20059 38047 40224 82101 333 58002 82826 83070=
63332 42580
53602 10242 20120 38218 40081 83201 333 59002 83824 83070=
63333 NIL=
63334 41560 52506 10123 20050 37635 40056 70500 85801 333
59001 84827 81628=
63340 NIL=
63402 42580
30000 10278 20136 38380 4//// 83200 333 58000 83830=
63403 41560
72602 10230 20138 70522 85930 333 84623 81924 86358=
63450 NIL=
63451 42580
30503 10276 20061 38127 40016 81101 333 58003 81827 82072=
63453 41565
20402 10310 20126 39051 70500 82200 333 58003 82824=
63460 42580
43601 10290 20097 84200 333 84824=
63471 42580
13504 10282 20125 38850 40099 81100 333 59005 81827=
63474 42580
31706 10226 20025 83800 333 82825 81627=
63478 42980
00902 10342 2//// 39783 40161 333 58000=
63500 42580
20000 10324 20095 82200 333 82825=
63533 41575
10306 10293 20087 70500 81100 333 81825=
     NNNN
0000014200
222
SMIY60 LIIB 111200 RRA
AAXX 11124
16244 11550 61402 10104 20052 30006 40230 58004 60001 71022 83210 333
      83625 85458=
0000021000
223
SMSY20 OSDI 111200
AAXX 11121
40022 32565 21601 10186 20086 40211 57015 82100 222// 20000 333
82830=
40030 32970 00000 10162 20022 40209 57024=
40066 32970 00000 10168 21057 40215 56010=
0000087700
224
UEMG01 FMMI 111200
TTDD 6111/ 67083
11876 811// 22703 751// 33635 771// 44416 633// 55395
647// 66311 603// 77285 619// 88270 585// 99252 589//
11242 543// 22227 567// 33191 505// 44147 473// 55120
489//
21212 11954 10525 22810 09040 33714 07028 44683 08027
55655 05528 66614 08019 77603 09020 88532 09036 99496
06524 11459 09014 22436 08030 33419 08019 44398 07530
55383 10527 66367 08532 77333 07039 88305 09517 99286
10030 11280 09035 22254 07035 33238 08530 44202 07544
55193 08546 66163 09052 77154 09038 88120 10063
31313 47908 81032=



ISO
0:  4784MGP
-10:  6607MGP
-50:  12054MGP
AA : 29623 METRES=

TTDD 6111/ 67197
11759 771//
21212 11958 05511 22938 10011 33917 11017 44824 08524
55774 09523 66759 08026
31313 47908 81032=

ISO:
-0: 4977 MGP
10: 6876 MGP
-50: 12230 MGP
AA: 18224 METRES=
0000036000
225
UKCN02 CWAO 111200
TTBB  61128 71836 00998 01516 11895 06100 22869 04907 33790
08707 44763 06512 55692 09315 66501 24527 77452 30537 88357
44332 99302 53138 11285 56534 22269 57927 33260 58938 44251
58145 55240 58950 66200 63950 77190 60760 88187 61362 99172
62767 11164 60570 22155 62371 33137 61373 44100 65572 31313
48008 81115=

0000010600
226
ULCN02 CWAO 111200
TTCC  61127 71836 70777 70169 26579 88778 70170 27074 77514
27587=

0000031000
227
UGCN02 CWAO 111200
PPBB  61128 71836 90012 00000 17524 19516 90345 18005 14014
14515 90678 17027 21012 19514 909// 19520 91023 18517 23022
21027 91456 21530 22027 22527 917// 24027 92035 23033 21041
21052 927// 21570 93015 21577 21575 23099 936// 23606 940//
24563 9501/ 26080 26575=

0000006800
228
UQCN02 CWAO 111200
PPDD  61128 71836 964// 27587=

00000000