0000009500
877
SAIN90 VIJP 111630
METAR VIJP 111630Z VRB02KT 2000 FU FEW100 12/03 Q1022 NOSIG=
0000010700
878
UDAS02 BABJ 111620
AMDAR 1116
DES CNFNXL 3655N 11713E 111618 F003 PS025 299/009 TB/ S//1=
0000136000
879
FTSA85 EGRR 111618 RRD
TAF SLET 111600Z 1118/1218 33015KT 9999 SCT020 FEW030CB TX33/1119Z
     TN20/1210Z
     TEMPO 1119/1123 8000 SHRA
     BECMG 1123/1201 33008KT 8000 RA BKN015 FEW030CB BKN070
     TEMPO 1206/1208 18015KT 8000 TSRA SCT006 BKN020 FEW030CB
     OVC070=
TAF SLLP 111600Z 1118/1218 14012KT 9999 SCT017 FEW020CB TX17/1120Z
     TN05/1210Z
     TEMPO 11119/1122 8000 VCSH SCT017 FEW020CB SCT070
     BECMG 1204/1207 08005KT 4000E VCFG FEW002 SCT012
     BECMG 1211/1214 16006KT 9999 NSW FEW015 SCT070=
TAF SLSU 111600Z 1118/1218 03010KT 9999 FEW023 SCT070 TX22/1119Z TN09
     /1210Z
     TEMPO 1119/1121 -TS SCT023 FEW030CB
     BECMG 1202/1204 00000KT SCT017 BKN070=
TAF SLTJ 111600Z 1118/1218 14012KT 9999 SCT027 SCT070 TX27/1119Z TN13
     /1210Z
     TEMPO 1119/1121 6000 -TSRA SCT025 FEW033CB OVC070
     BECMG 1205/ 1207 00000KT 9999 NSW SCT027 BKN070=
TAF SLTR 111600Z 1118/1218 33010KT 9999 SCT017 SCT080 TX31/1119Z
     TN23/1210Z
     PROB40 TEMPO 1119/1122 7000 SHRA
     BECMG 1123/1202 00000KT 9999 NSW FEW015=
TAF SLVR 111600Z 1118/1218 34015KT 9999 SCT020 FEW030CB TX33/1119Z
     TN20/1210Z
     TEMPO 1119/1123 6000 SHRA
     BECMG 1123/1201 34008KT 8000 RA BKN015 FEW030CB BKN070
     TEMPO 1206/1208 18017KT 5000 TSRA SCT006 BKN020 FEW030CB
     OVC070=
0000024000
880
SASA85 EGRR 111600 RRH
METAR SARI 111600Z 36007KT CAVOK 33/24 Q1013=
METAR SBST 111600Z 27004KT 9999 SCT023 32/24 Q1012=
METAR SVGU 111600Z 02003KT 9999 SCT020 32/20 Q1015=
METAR SVMD 111600Z 16004KT CAVOK 23/16 Q1023=
0000100300
881
FTSA85 EGRR 111624 RRE
TAF SEGU 111610Z 1118/1218 04005KT 9999 BKN020 SCT100
     FM120000 20008KT 9999 SCT020 SCT100
     FM120600 20005KT 9999 SCT020 BKN100
     FM121200 20004KT 9999 BKN020 SCT100 TX32/1120Z TN23/1210Z=
TAF SELT 111610Z 1118/1218 17012KT 9999 BKN030 SCT100
     TEMPO 1121/1124 03010KT SHRA BKN030TCU SCT100
     FM120000 03006KT 9999 SCT026 SCT100
     FM120600 00000KT 4000 BCFG FEW005 BKN023
     FM121200 17008KT 9999 BKN030 SCT100 TX20/1119Z TN10/1211Z=
TAF SEMT 111610Z 1118/1218 20012KT 9999 BKN023
     FM112200 20008KT 9999 SCT020
     FM121200 20005KT 9999 BKN020 SCT100 TX29/1120Z TN22/1210Z=
TAF SLCB 111600Z 1118/1218 25010KT 9999 SCT027 TX29/1119Z TN11/1210Z
     TEMPO 1119/1121 TS FEW030CB SCT070
     BECMG 1202/1204 00000KT SCT027 BKN070=
TAF SLPS 111600Z 1118/1218 06005KT 9999 SCT020 TX36/1119Z TN20/1210Z
     BECMG 1119 /1121 BKN020 FEW030CB BKN070
     BECMG 1204/1206 VRB02KT 6000 TSRA BKN020 FEW030CB OVC070=
0000066200
882
FTSA85 EGRR 111632 RRF
TAF SCEL 111620Z 1118/1218 16007KT CAVOK TX34/1119Z TN15/1210Z
     BECMG 1119/1121 22015KT
     BECMG 1202/1204 16005KT
     BECMG 1208/1210 VRB02KT
     BECMG 1214/1216 16008KT=
TAF SGAS 111630Z 1118/1218 18018KT 9999 BKN020 FEW040TCU TX36/1119Z
     TN22/1210Z
     TEMPO 1118/1123 20012KT 5000 TSRASH OVC015
     BECMG 1200/1203 8000 RA OVC020
     BECMG 1203/1208 9999 SCT030=
TAF SGES 111630Z 1118/1218 01014KT 9999 SCT027 FEW040TCU TX34/1119Z
     TN21/1210Z
     BECMG 1119/1123 6000 TSRASH OVC012 FEW040CB
     BECMG 1200/1203 23015G25KT 8000 RA OVC010
     BECMG 1203/1208 9999 SCT020=
0000013600
883
SNVD17 CWVR 111600
BBXX
46132 11161 99497 71279 46/// /2010 10086 49812 57029
22200 00073 11008 70039 333 91213 =

0000013600
884
SNVD17 CWVR 111600
BBXX
46206 11161 99488 71260 46/// /2114 10089 49860 57042
22200 00078 11010 70050 333 91217 =

0000013600
885
SNVD17 CWVR 111600
BBXX
46205 11161 99542 71343 46/// /3413 10059 49861 52038
22200 00073 10707 70033 333 91216 =

0000014400
886
SNVD21 KHAF 111600
BBXX A8KO3 11163 99372 10046 41297 82905 10180 20106 40195 50005
70322 887// 22264 04160 20201 30000 80140=
0000011000
887
UANT01 CWAO 111630
ARP VIR73Q 4926N04553W 1630 F390 MS56 295/64 KT
GVAST DDL XXH 111630 F74A
0000011000
888
UANT01 CWAO 111630
ARP ACA865 5356N03119W 1630 F380 MS56 201/38 KT
CGFAH DDL XXW 111630 J93A
0000011100
889
UANT01 CWAO 111630
ARP AEA051 4503N02018W 1630 F350 MS57 202/102 KT
ECJQG QXT AOE 111630 J42A
0000010900
890
UANT01 CWAO 111631
ARP DAL2 5310N03857W 1630 F340 MS58 285/50 KT
N842MH QXT AOW 111631 F39A
0000011100
891
UANT01 CWAO 111631
ARP AWE701 5143N03409W 1631 F370 MS54 264/16 KT
N276AY DDL XXN 111631 J34A
0000011000
892
UANT01 CWAO 111631
ARP AFR968 4657N03026W 1631 F370 MS47 245/39 KT
FGITF QXT AOW 111631 F20A
0000011000
893
UANT01 CWAO 111631
ARP AFR006 5206N02718W 1631 F380 MS52 188/43 KT
FHPJA QXT AOE 111631 J10A
0000011000
894
UANT01 CWAO 111631
ARP VIR21G 4904N04948W 1631 F360 MS63 307/72 KT
GVGBR DDL YYT 111631 J90A
0000016300
895
SSVX13 LFPW 111630
ZZYY 13595 11014 1630/ 730273 019481 6113/ 22219 00200 33300 88872
 20000 43682 444 20130 11014 1626/ 50101 80108 80027 9/015=
0000011100
896
UANT01 CWAO 111631
ARP UAL100 4822N04902W 1631 F350 MS61 305/73 KT
N14102 DDL YYT 111631 F57A
00000000