0000045800
409
SAIN31 VABB 111640
METAR VAAH 111640Z 05008KT 3000 HZ NSC 16/07 Q1019 NOSIG=
METAR VABB 111640Z 14005KT 2500 FU NSC 20/06 Q1016 NOSIG=
METAR VANP 111640Z 04003KT 4000 HZ NSC 18/13 Q1017 NOSIG=
METAR VOHS 111640Z 12004KT 5000 HZ SCT020 20/14 Q1018 NOSIG=
METAR VOMM 111640Z 08005KT 6000 FEW020 24/20 Q1015 NOSIG=
METAR VOTR 111640Z 09006KT 4000 HZ NSC 23/20 Q1015 NOSIG=
METAR VOTV 111640Z 00000KT 4000 HZ FEW015 26/23 Q1013 NOSIG=
0000012700
410
WSAG31 SABE 111600
SAEF SIGMET 6 VALID 111600/111620 SABE-
SAEF EZEIZA FIR CNL SIGMET 5 VALID 111200/111600 =
0000292000
411
SSVX02 KARS 111648
ZZYY 32734 11014 1643/ 700141 103375 6111/
22219 00237
444 20110 11014 1537/ 50101 80108 80031 9/015=
ZZYY 46538 11014 1600/ 732503 122053 6113/
22219 00140
444 2013/ 11014 1414/ 50101 80090 80018 9/015=
ZZYY 41913 11014 1638/ 727407 077698 6112/
22219 00246
444 20120 11014 1632/ 50101 80102 80009 9/015=
ZZYY 41911 11014 1638/ 728833 078276 6113/
22219 00236
444 20130 11014 1629/ 50101 80102 80021 9/015=
ZZYY 32732 11014 1641/ 705333 082567 6111/
22219 00278
444 20110 11014 1534/ 50101 80102 80025 9/015=
ZZYY 32733 11014 1642/ 705310 084694 6112/
22219 00283
444 20120 11014 1621/ 50101 80102 80044 9/015=
ZZYY 32670 11014 1643/ 706029 108170 6111/
22219 00274
444 20110 11014 1405/ 50101 80100 80002 9/015=
ZZYY 46622 11014 1600/ 728346 121471 6113/
22219 00174
444 2013/ 11014 1633/ 50101 80092 80018 9/015=
ZZYY 32735 11014 1642/ 701945 107490 6112/
22219 00246
444 20120 11014 1502/ 50101 80110 80029 9/015=
ZZYY 46561 11014 1500/ 730331 118828 6112/
22219 00163
444 2012/ 11014 1412/ 50101 80091 80022 9/015=
ZZYY 46607 11014 1600/ 732878 119355 6111/
444 2011/ 11014 1618/ 50101 80091 80022 9/015=
ZZYY 46608 11014 1500/ 732755 120173 6113/
22219 00141
444 2013/ 11014 1411/ 50101 80091 80016 9/015=
ZZYY 32672 11014 1641/ 702044 102392 6111/
22219 00263
444 20110 11014 1639/ 50101 80102 80036 9/015=
ZZYY 32730 11014 1642/ 703192 108695 6111/
22219 00257
444 20110 11014 1405/ 50101 80104 80048 9/015=
ZZYY 32728 11014 1640/ 503059 096750 6113/
444 20130 11014 1537/ 50101 80104 80051 9/015=
ZZYY 32695 11014 1643/ 706913 097488 6112/
22219 00272
444 20120 11014 1634/ 50101 80104 80009 9/015=
ZZYY 32555 11014 1641/ 712443 110936 6111/
22219 00274
444 20110 11014 1620/ 50101 80102 80043 9/015=
ZZYY 32559 11014 1639/ 706913 112707 6111/
22219 00273
444 20110 11014 1405/ 50101 80102 80044 9/015=
ZZYY 32626 11014 1643/ 705358 108365 6111/
22219 00275
444 20110 11014 1403/ 50101 80104 80041 9/015=
ZZYY 43575 11014 1642/ 715809 133007 6111/
22219 00240
444 20110 11014 1543/ 50101 80102 80043 9/015=
ZZYY 32724 11014 1642/ 506355 109913 6112/
22219 00241
444 20120 11014 1539/ 50101 80102 80010 9/015=
ZZYY 32614 11014 1643/ 712457 110238 6111/
22219 00275
444 20110 11014 1634/ 50101 80104 80044 9/015=
ZZYY 51622 11014 1300/ 710186 110800 6112/
22219 00274
444 2012/ 11014 1240/ 50101 80089 80024 9/015=
ZZYY 51513 11014 1500/ 712938 112957 6113/
22219 00272
444 2013/ 11014 1407/ 50101 80089 80018 9/015=
ZZYY 46559 11014 1500/ 731023 119886 6113/
22219 00146
444 2013/ 11014 1413/ 50101 80092 80029 9/015=
ZZYY 46612 11014 1600/ 727778 131394 6112/
22219 00189
444 20120 11014 1551/ 50101 80109 80006 9/015=
ZZYY 43562 11014 1642/ 715284 131312 6111/
22219 00241
444 20110 11014 1639/ 50101 80102 80047 9/015=
0000011000
412
UANT01 CWAO 111651
ARP DLH464 4843N03355W 1651 F360 MS52 296/37 KT
DABVM QXT EUA 111651 F07A
0000011100
413
UANT01 CWAO 111651
ARP DAL107 5159N03021W 1651 F350 MS51 195/26 KT
N195DN QXT AOE 111651 F33A
0000011000
414
UANT01 CWAO 111651
ARP UAL51 5047N04057W 1651 F320 MS57 290/62 KT
N68061 DDL XXN 111651 F85A
0000011000
415
UANT01 CWAO 111652
ARP ACA831 5034N04825W 1651 F360 MS61 296/73 KT
CGFAF DDL XXW 111652 J42A
0000011000
416
UANT01 CWAO 111652
ARP VIR93R 4627N04420W 1651 F350 MS61 296/52 KT
GVLIP DDL XXH 111652 F60A
0000011000
417
UANT01 CWAO 111652
ARP EIN125 6201N04930W 1652 F330 MS57 257/19 KT
EIEDY DDL XXN 111652 J96A
0000011000
418
UANT01 CWAO 111652
ARP DHK973 5603N03934W 1652 F310 MS54 257/27 KT
GDHLG DDL XXW 111652 F62A
0000011000
419
UANT01 CWAO 111652
ARP AFR474 4704N03658W 1652 F320 MS56 321/66 KT
FGSPN QXT AOE 111652 F29A
0000011000
420
UANT01 CWAO 111652
ARP BAW19V 6304N05100W 1651 F360 MS59 229/11 KT
GYMMT QXT AOW 111652 F27A
0000011000
421
UANT01 CWAO 111652
ARP AAL39 4753N04021W 1652 F360 MS61 297/52 KT
N778AN DDL XXN 111652 F36A
0000010900
422
UANT01 CWAO 111652
ARP SWR86 5336N03520W 1652 F370 MS56 262/15 KT
HBJHE QXT AOE 111652 J70A
0000011000
423
UANT01 CWAO 111652
ARP AFR688 4921N03736W 1652 F350 MS58 300/57 KT
FGSPT QXT AOE 111652 F21A
0000011000
424
UANT01 CWAO 111652
ARP QTR701 5903N05345W 1651 F340 MS57 287/54 KT
A7BAH QXT AOW 111652 F68A
0000011000
425
UANT01 CWAO 111652
ARP XLF066 4550N04556W 1652 F360 MS60 305/53 KT
FHXLF DDL XXN 111652 J54A
0000216500
426
SZNZ01 NZKL 111654
CREX++
T000103 A001 D01021 D06025++
-3683144 17478654 AUCT  2014 01 11 16 46 //// 11 07 00 01
05911 3130 05907 3129 05904 3128 05900 3127 05897 3126 05893 3125+
-4402404 -17636748 CHIT  2014 01 11 16 46 //// 11 07 00 01
04841 2032 04825 2019 04837 2036 04831 2033 04857 2063 04869 2079+
-4089929 17623168 CPIT  2014 01 11 16 46 //// 11 07 00 01
04000 2266 03998 2269 03998 2275 03991 2273 03985 2271 03982 2273+
-3618905 17548887 GBIT  2014 01 11 16 46 //// 11 07 00 01
06326 0003 06323 0003 06334 0016 06343 0028 06347 0034 06336 0025+
-3867541 17802288 GIST  2014 01 11 16 46 //// 11 07 00 01
04230 2693 04220 2687 04235 2706 04216 2691 04222 2701 04204 2688+
-4241288 17370277 KAIT  2014 01 11 16 46 //// 11 07 00 01
03365 2236 03374 2251 03371 2253 03370 2257 03370 2263 03374 2273+
-3755040 17815904 LOTT  2014 01 11 16 46 //// 11 07 00 01
03890 0199 03877 0189 03881 0196 03884 0202 03876 0197 03888 0212+
-3704657 17451175 MNKT  2014 01 11 16 46 //// 11 07 00 01
03018 -0076 03024 -0076 03028 -0079 03031 -0082 03029 -0091 03035 -0092+
-3947566 17692007 NAPT  2014 01 11 16 46 //// 11 07 00 01
03207 2030 03209 2037 03233 2065 03232 2070 03207 2050 03206 2054+
-3441483 17304870 NCPT  2014 01 11 16 46 //// 11 07 00 01
-04560 -9545 -04498 -9484 -04514 -9499 -04512 -9498 -04520 -9505 -04541 -9526+
-4581435 17062939 OTAT  2014 01 11 16 46 //// 11 07 00 01
04297 3502 04291 3502 04284 3501 04278 3501 04273 3501 04268 3502+
-2928002 -17789440 RBCT  2014 01 11 16 46 //// 11 07 00 01
06288 1987 06282 1983 06297 1999 06306 2010 06304 2010 06288 1996+
-2925114 -17790384 RFRT  2014 01 11 16 46 //// 11 07 00 01
03222 0130 03232 0142 03249 0160 03231 0145 03243 0158 03221 0137+
-4357010 17277383 SUMT  2014 01 11 16 46 //// 11 07 00 01
01932 1846 01918 1839 01912 1841 01912 1847 01931 1872 01924 1872+
-3764109 17618118 TAUT  2014 01 11 16 46 //// 11 07 00 01
05598 4001 05596 4000 05591 3997 05591 4000 05588 3999 05586 3999+
-4128448 17477985 WLGT  2014 01 11 16 46 //// 11 07 00 01
03151 2048 03145 2047 03139 2045 03136 2047 03128 2043 03125 2045++
7777
0000024100
427
SOAT10 KWAL 111653
FA8005BC 011165337 OT12 ID:KN-BASS-01 DT:2014 01 11 16 51
:RD -3056 -3048 -3045 -3048 -3077 -3061 -3045 -3064 -3048 -3008
:PR 0593 0586 0584 0608 0600 0580 0586 0641 0588 0622
:B 13.7V
 46+1NN 219E
00000000