0000121300
835
SNFR34 LFPW 111700
AAXX 11174
07260 24457 80000 10085 20071 30010 40226 52010 700//
  333 69905 90710 91104=
07266 24962 /3102 10063 20043 30042 40231 53015 700//
  333 60005 90710 91104=
07374 24/70 /3503 10091 20058 39919 40223 53007 700//
  333 60005 90710 91105=
07379 24567 80103 10090 20054 39931 40227 52009 700//
  333 60005 90710 91104=
07385 24/57 /3102 10078 20058 39962 40227 52007 700//
  333 60005 90710 91104=
07475 24965 /2202 10076 20033 39741 40225 51012 700//
  333 60005 90710 91106=
07480 24967 80901 10084 20060 39985 40226 51009 700//
  333 60005 90710 91103=
07482 24/70 /0000 10089 20058 39921 40226 51005 700//
  333 60005 90710 91101=
07486 24559 80905 10078 20058 39763 40228 51007 700//
  333 69905 90710 91108=
07487 26/// /0000 10065 20053 39960 40230 51009
  333 60005 90710 91105=
07491 22665 61802 10077 20053 39942 40228 51008 84530
  333 69905 84643 85366 90710 91104 93100=
07497 26/// /3201 10051 20018 39214 48522 51016
  333 60005 90710 91104=
07549 24556 81202 10083 20047 39459 40214 52004 700//
  333 60005 90710 91106=
07570 24/56 /0202 10080 20076 39896 40236 50004 761//
  333 69905 90710 91103=
0000145600
836
SNFR35 LFPW 111700
AAXX 11174
07316 24563 81203 10098 20072 30190 40212 52005 700//
  333 60005 90710 91111=
07330 24/50 /1205 10096 20082 30141 40216 51007 700//
  333 60005 90710 91109=
07361 24/70 /0802 10076 20042 39779 40219 53005 700//
  333 60005 90710 91103=
07412 24458 80804 10107 20088 30175 40213 53004 700//
  333 60005 90710 91106=
07438 24/58 /0000 10101 20066 30076 40218 52004 700//
  333 60005 90710 91103=
07500 26/// /0503 10097 20076 30168 40202 58001
  333 60005 90710 91104=
07503 266// 81103 10116 20092 30155 40202 58001
  333 60005 90710 91107=
07524 24556 80802 10101 20085 30129 40213 53005 700//
  333 60005 90710 91104=
07530 24562 81101 10101 20080 30150 40214 53004 700//
  333 69905 90710 91104=
07540 24/50 /0602 10088 20076 30086 40217 53005 700//
  333 69905 90710 91103=
07552 24469 80303 10084 20062 39529 40215 51007 700//
  333 60005 90710 91104=
07600 26/// /0708 10119 20098 30147 40199 58002
  333 60005 90710 91111=
07602 22970 50906 10109 20074 30113 40199 50000 80001
  333 60005 85076 90710 91110 93100=
07603 26/78 /0905 10118 20077 30163 40201 50000
  333 60005 90710 91107=
07610 22/65 30904 10096 20070 39986 40208 51003 80001
  333 60005 83076 90710 91106 93100=
07622 24/66 /1502 10107 20076 30058 40213 52005 700//
  333 60005 90710 91104=
07632 24/58 /0000 10104 20075 30007 40214 53004 761//
  333 69905 90710 91102=
0000190000
837
SNFR36 LFPW 111700
AAXX 11174
07554 24569 80502 10068 20045 39133 4//// 51007 700//
  333 60005 90710 91103=
07560 26/// /3604 10023 20023 38451 4//// 53006
  333 60005 90710 91110=
07563 24757 83504 10105 20088 30160 40219 53003 700//
  333 60005 90710 91106=
07579 24759 83404 10104 20088 30153 40220 51003 700//
  333 60005 90710 91106=
07586 26/// /0901 10105 20072 30089 40218 53004
  333 60005 90710 91102=
07588 24970 /0303 10070 20036 39666 40220 53001 700//
  333 60005 90710 91106=
07635 24659 80000 10112 20084 30058 40212 53007 761//
  333 69905 90710 91103=
07638 24656 80106 10111 20102 30196 40216 53006 700//
  333 60005 90710 91110=
07641 26/// /3507 10113 20096 30121 40214 53004
  333 60005 90710 91110=
07646 24562 80103 10116 20067 30090 40217 53003 700//
  333 60005 90710 91105=
07647 24669 80105 10125 20080 30184 40212 53002 700//
  333 60005 90710 91106=
07648 24663 83402 10117 20076 30143 40215 53002 700//
  333 60005 90710 91103=
07666 26/// /0108 10120 20111 30161 40210 53009
  333 60005 90710 91111=
07667 24669 80000 10117 20084 30207 40212 53004 700//
  333 60005 90710 91104=
07675 24/62 /0000 10108 20082 30110 40210 51003 700//
  333 60005 90710 91104=
07684 24668 /3603 10119 20087 30205 40210 53003 700//
  333 60005 90710 91104=
07749 26/// /3304 10116 20092 30107 40212 53008
  333 60005 90710 91106=
07754 26984 61706 10105 20089 30139 40210 51002
  333 60005 90710 91107=
07765 24683 82701 10132 20107 30189 40210 50001 700//
  333 60005 90710 91103=
07770 26/// /0910 10129 20110 30068 40207 51004
  333 60005 90710 91116=
07775 26/// /2205 10127 20104 30121 40210 51003
  333 60005 90710 91110=
07780 24483 80506 10135 20108 30183 40211 53004 700//
  333 60005 90710 91110=
07785 26/// /3103 10129 20078 30076 40212 51003
  333 60005 90710 91106=
0000110000
838
SNFR37 LFPW 111700
AAXX 11174
07002 26/// /3108 10072 20017 30140 40224 53020
  333 60005 90710 91112=
07003 24964 /1601 10041 20024 30202 40227 53020 700//
  333 60005 90710 91104=
07010 26/// /3113 10079 20028 30199 40219 53020
  333 60005 90710 91119=
07028 26/// /3603 10065 20036 30103 40232 51015
  333 60005 90710 91104=
07038 24969 /0000 10040 20027 30062 40234 51016 700//
  333 60005 90710 91101=
07040 26/// /2002 10068 20043 30181 40231 53019
  333 60005 90710 91106=
07046 24986 /0000 10052 20027 30117 40234 52016 700//
  333 60005 90710 91105=
07055 24984 /3404 10042 20016 30094 40232 53021 700//
  333 60005 90710 91107=
07057 24961 /1801 10056 20041 30118 40227 51017 700//
  333 60005 90710 91104=
07061 24/70 /3204 10060 20040 30104 40225 53023 700//
  333 60005 90710 91109=
07075 24950 /3102 10039 20027 30039 40223 51026 700//
  333 69905 90710 91107=
07169 24560 72002 10046 20037 30058 40229 53020 760//
  333 69905 90710 91103=
07283 24127 /2406 10054 20050 39661 40225 51010 761//
  333 69905 90710 91110=
0000011000
839
UANT01 CWAO 111703
ARP AAL47 6004N04026W 1703 F360 MS57 213/29 KT
N754AN DDL UAK 111703 F53A
0000015000
840
SNFR30 LFPW 111700 CCA
AAXX 11174
07690 22570 70809 10142 20100 30180 40211 53003 875//
  333 60005 83622 85636 90710 91110 93100=
0000015700
841
SSVX13 LFPW 111700
ZZYY 44624 11014 1700/ 746735 019985 6113/ 11119 49964 52012 22219
 00128 444 20130 11014 1657/ 50101 80098 80016 9/015=
0000015700
842
SSVX13 LFPW 111700
ZZYY 62687 11014 1700/ 166148 001345 6113/ 11119 40073 52012 22219
 00075 444 20130 11014 1657/ 50101 80098 80000 9/015=
0000015700
843
SSVX13 LFPW 111700
ZZYY 62713 11014 1700/ 733732 019426 6113/ 11119 40154 52002 22219
 00182 444 20130 11014 1657/ 50101 80098 80002 9/015=
0000011000
844
UANT01 CWAO 111704
ARP BAW173 5304N02827W 1704 F380 MS53 183/45 KT
GZZZC QXT AOW 111704 F18A
0000011000
845
UANT01 CWAO 111704
ARP VIR11B 5401N01952W 1704 F380 MS63 209/64 KT
GVKSS DDL XXF 111704 J21A
0000015700
846
SSVX13 LFPW 111700
ZZYY 44762 11014 1700/ 751184 006150 6113/ 11119 40210 52007 22219
 00105 444 20130 11014 1657/ 50101 80096 80000 9/015=
0000013200
847
SNDL22 EDZW 111700 RRA
AAXX 11171
10439 41462 82604 10056 20038 39939 40161 53012 76166 878//
  333 81816 87626=
0000011100
848
UANT99 KDDL 111703
ARP RCH269 5106N02532W 1703 F330 MS49 179/67 KT
33125A DDL XXN 111703 F40A
0000010800
849
UANT99 KDDL 111703
ARP THY1 5202N01937W 1703 F320 MS55 186/82 KT
TCJJN QXT AOE 111703 F22A
0000013500
850
SNVD02 CWAO 111700
BBXX
SHIP 11174 99464 70619 46/// /1714 10003 21005 40198 58031 7//// 8//// 22243 00026 2//// =

0000028700
851
SXHW11 KWAL 111705
B15017A0 011170503"
1,140111,16:00:00,3.3,166,6.3,11.5,1013.7,6.03,12.8,
1,140111,16:15:00,6.1,159,8.7,11.6,1013.8,6.03,12.8,
1,140111,16:30:00,5.7,160,8.5,11.6,1013.9,6.03,12.7,
1,140111,16:45:00,6.4,159,8.6,11.6,1013.9,6.03,12.7, 42+0NN 210W
0000023800
852
SWVF12 LFPW 111700
MMXX 61002 11014 1700/ 14207 00442 00011 12300 20082 30042
11130 0005/ 1024/ 30/// 14054 11174
22225 43618 10000 30000 50000 70001 90217 11747 34139
55381 79600 93043 14635 32428 53034 72017 91609=
0000035600
853
SATH40 VTBB 111700
METAR VTCH 111700Z NIL=
METAR VTCP 111700Z NIL=
METAR VTPH 111700Z NIL=
METAR VTPN 111700Z NIL=
METAR VTPP 111700Z NIL=
METAR VTSF 111700Z NIL=
METAR VTSM 111700Z NIL=
METAR VTUK 111700Z 07006KT 040V120 CAVOK 22/17 Q1017 A3004=
METAR VTUL 111700Z NIL=
METAR VTBS 111700Z 01002KT CAVOK 26/16 Q1015 NOSIG=
0000013800
854
SNVD17 KWNB 111700 RRF
BBXX
52202 11171 99137 11448 46/// ///// 1//// 91700 22200 00282 10806
20805 300// 41101 70029=
00000000