0000008900
075
SPCN42 CWAO 110517
SPECI CYUA 110517Z AUTO 30020KT 3SM CLR M25/ A2975=

0000025900
076
SAUS71 KWBC 110500 RRE
METAR
KLCK 110515Z AUTO 15010KT 10SM OVC022 09/07 A2974=
KMMU 110515Z AUTO 00000KT 1SM UP OVC003 02/01 A3020=
KMYR 110515Z AUTO 17005KT 6SM CLR 16/14 A3010=
KPQI 110515Z AUTO 00000KT 10SM BKN022 M12/M14 A3020=

0000022300
077
SACG21 FCBB 110500
METAR FCBB 110500Z 00000KT 8000 FEW010 BKN018 23/22 Q1013 NOSIG=
METAR FCPP 110500Z 09003KT 7000 FEW010 BKN026 25/24 Q1010 NOSIG=
METAR FCPD NIL=
METAR FCOU NIL=
METAR FCOI NIL=

0000051700
078
FTFR21 LFPW 110500
TAF LFPC 110500Z 1106/1206 VRB03KT 2000 BR OVC004
  PROB30 TEMPO 1106/1109 0400 FG VV///
  BECMG 1110/1112  30008KT 8000 NSW BKN015
  BECMG 1118/1120 4000BR BKN006
  PROB30 TEMPO 1203/1206 0200 FG VV///=
TAF LFPV 110500Z 1106/1206 VRB02KT 1500 BR OVC003
 TEMPO 1106/1107 BKN030 BKN050
 PROB40 TEMPO 1107/1110 0400 FG VV///
 BECMG 1116/1118 6000 NSW BKN010
 BECMG 1122/1124 18008KT 4000 BR OVC005
 PROB40 TEMPO 1200/1206 2000 BR OVC002=
TAF LFOA 110500Z NIL=

0000062100
079
FTFR31 LFPW 110500
TAF AMD LFLL 110512Z 1106/1212 16008KT CAVOK TEMPO 1106/1118 BKN025
BECMG 1116/1118 36006KT BECMG 1118/1120 3000 BR OVC005 PROB40 TEMPO
1202/1208 0600 FG OVC003 BECMG 1210/1212 5000 BKN012=
TAF LFMN 110500Z 1106/1212 06010KT 9999 SCT028 BKN120 BECMG 1117/1119
 34010KT BKN025 BECMG 1208/1210 06010KT SCT030=
TAF LFPO 110500Z 1106/1212 24004KT 6000 BKN008 BKN040 PROB30 TEMPO
1106/1109 3000 BR BKN004 BECMG 1109/1111 9999 SCT008 SCT040 BECMG
1114/1116 34004KT BKN012 BECMG 1121/1123 08005KT 4000 BR BKN008
PROB30 TEMPO 1200/1212 2000 BR BKN003=
TAF LFPG 110500Z NIL=

0000047700
080
FTFR32 LFPW 110500
TAF LFQQ 110500Z 1106/1212 21010KT 3000 BR OVC003 TEMPO 1106/1111
1200 DZ OVC002 BECMG 1111/1114 30010KT 9999 NSW SCT030 BECMG
1117/1120 VRB02KT BECMG 1121/1124 3000 BR PROB40 1200/1210 0200 FZFG
VV/// BECMG 1210/1212 15010KT 9999 NSW=
TAF LFRS 110500Z 1106/1212 VRB03KT 2000 BR FEW002 BKN010 TEMPO
1106/1110 BKN003 PROB30 TEMPO 1107/1109 0600 FG BKN001 BECMG
1112/1115 7000 NSW BECMG 1121/1124 10010KT=
TAF LFRB 110500Z NIL=

0000074100
081
FTFR33 LFPW 110500
TAF LFBD 110500Z 1106/1212 VRB02KT 2000 BR BKN012 PROB30 TEMPO
1106/1109 0200 FG VV/// BECMG 1109/1112 3000 BR BECMG 1112/1115 8000
NSW SCT015 BECMG 1118/1121 3000 BR BKN005 TEMPO 1121/1208 0200 FG
VV/// BECMG 1208/1210 6000 NSW SCT010=
TAF AMD LFBO 110510Z 1106/1212 VRB03KT 9999 SCT012 BKN017 TEMPO
1106/1112 BKN013 PROB40 TEMPO 1106/1108 2000 BR BKN007 BECMG
1121/1124 3000 BR PROB40 1202/1208 0400 FG VV/// BECMG 1208/1210
14010KT 7000 NSW=
TAF LFLX 110500Z 1106/1212 23010KT CAVOK BECMG 1108/1112 29004KT
BKN004 BECMG 1121/1124 09010KT BECMG 1209/1212 SCT015=
TAF LFML 110500Z 1106/1212 VRB03KT 9999 BKN030 TEMPO 1106/1118
07010KT BECMG 1118/1121 SCT033 TX15/1114Z TN05/1205Z=

0000124900
082
FTFR34 LFPW 110500
TAF LFBH 110500Z 1106/1206 VRB02KT 3000 BR BKN010 PROB30 TEMPO
1106/1109 0200 FG VV/// BECMG 1109/1112 10006KT 6000 NSW SCT010 BECMG
 1112/1115 CAVOK BECMG 1118/1121 5000 BR BKN005 PROB30 TEMPO
1200/1206 0200 FG VV///=
TAF LFBI 110500Z 1106/1206 18005KT 1500 BR BKN040 TEMPO 1106/1109
0800 FG BKN020 BECMG 1110/1113 8000 SCT018 BKN040=
TAF LFBL 110500Z 1106/1206 18006KT 9999 BKN010 TEMPO 1106/1109 6000
BKN008 BKN012 BECMG 1112/1114 BKN012 BKN020=
TAF LFBP 110500Z 1106/1206 20003KT 7000 BKN020 PROB40 TEMPO 1106/1113
 BKN013 BECMG 1121/1124 4000 BR PROB40 TEMPO 1200/1206 0400 BCFG
VV///=
TAF LFBT 110500Z 1106/1206 24006KT 6000 SCT009 OVC020 PROB30 TEMPO
1106/1108 0500 FG VV/// BECMG 1108/1110 VRB03KT 9999 BKN013 BECMG
1112/1115 BKN020 PROB30 TEMPO 1115/1120 BKN005 BECMG 1120/1122 4000
BR PROB40 TEMPO 1122/1206 0800 BCFG=
TAF LFBZ 110500Z 1106/1206 VRB03KT 9999 OVC020 PROB30 TEMPO 1106/1108
 3000 BR BKN005 BECMG 1112/1115 09010KT SCT025 BECMG 1115/1118 CAVOK
PROB30 TEMPO 1200/1206 3000 BR=
TAF LFLB 110500Z 1106/1206 VRB02KT 3000 BR FEW001 TEMPO 1106/1108
0800 BCFG SCT001 BECMG 1109/1112 18004KT 8000 NSC BECMG 1112/1115
CAVOK TEMPO 1200/1206 0500 BCFG BKN001=

0000079000
083
FTFR35 LFPW 110500
TAF LFKB 110500Z 1106/1206 28004KT 9999 FEW020 BKN030 BKN180 BECMG
1107/1109 16010KT BECMG 1116/1118 24005KT TX16/1113Z TN11/1106Z=
TAF LFKC 110500Z 1106/1206 18004KT 9999 FEW020 BKN200 BECMG 1109/1112
 36003KT PROB30 TEMPO 1121/1206 BKN020 TX15/1112Z TN06/1106Z=
TAF LFKF 110500Z 1106/1206 06010KT 9999 BKN020 BKN200=
TAF LFKJ 110500Z 1106/1206 06006KT 9999 FEW020 BKN220 TEMPO 1106/1112
 BKN015 BKN220=
TAF LFLC 110500Z 1106/1206 12008KT CAVOK TEMPO 1118/1124 BKN018
PROB40 1203/1206 0500 FG VV///=
TAF LFMP 110500Z 1106/1206 VRB03KT 9999 NSC TEMPO 1106/1109 SCT020
OVC150 BECMG 1112/1114 04010KT OVC010 PROB30 TEMPO 1115/1206 RA=
TAF LFMV 110500Z 1106/1206 VRB03KT 9999 BKN030 BECMG 1118/1121 SCT033
 TEMPO 1200/1206 2000 BR=

0000083200
084
FTFR36 LFPW 110500
TAF LFCR 110500Z 1106/1206 14008KT CAVOK TEMPO 1111/1119 BKN015 BECMG
 1119/1121 4000 BR TEMPO 1121/1206 1500 BCFG PROB40 1200/1206 0200 FG
 VV///=
TAF LFLP 110500Z 1106/1206 VRB02KT CAVOK
PROB30 TEMPO 1106/1109 2000 BR=
TAF LFLS 110500Z 1106/1206 22005KT 9999 OVC014=
TAF LFLY 110500Z 1106/1206 18010KT CAVOK TEMPO 1106/1118 BKN015 BECMG
 1118/1120 3000 BR OVC005 PROB40 TEMPO 1202/1206 0600 FG OVC003=
TAF LFMT 110500Z 1106/1206 04005KT 9999 BKN025 OVC033 TEMPO 1106/1111
 4000 -RA BR BKN007 OVC015 BECMG 1114/1116 SCT033=
TAF LFMU 110500Z 1106/1206 04005KT 9999 SCT020 BKN033 TEMPO 1106/1118
 5000 -RA BKN007 OVC015 BECMG 1118/1119 SCT030=
TAF LFTW 110500Z 1106/1206 03003KT 8000 BKN015 OVC030 TEMPO 1106/1114
 4000 -RA BR BKN005 OVC015 BECMG 1115/1116 9999 FEW030=

0000011500
085
SPCN47 CWAO 110513
SPECI CYWA 110513Z AUTO 14006KT 3/4SM OVC003 M02/M03 A2996 RMK ICG
PAST HR=

0000096900
086
FTFR37 LFPW 110500
TAF LFJL 110500Z 1106/1206 VRB02KT 7000 NSC TEMPO 1106/1112 5000 -RA
BKN040 BECMG 1112/1115 27005KT PROB40 TEMPO 1121/1206 3000 BR=
TAF LFOB 110500Z 1106/1206 VRB02KT 4000 BR OVC003 PROB30 TEMPO
1106/1109 0800 FG OVC001 BECMG 1109/1112 24010KT 6000 NSW BKN012
BECMG 1112/1115 32005KT SCT016 BECMG 1116/1119 4000 BR PROB40 TEMPO
1121/1206 0200 FG VV///=
TAF LFOH 110500Z 1106/1206 18008KT 9999 BKN007 OVC030 TEMPO 1106/1110
 2000 DZRA OVC003 BECMG 1111/1114 02010KT SCT025 BECMG 1116/1120
10010KT BECMG 1201/1204 2000 BR OVC003=
TAF LFOK 110500Z 1106/1206 VRB02KT 3000 BR BKN007 BKN030 TEMPO
1106/1110 1500 DZ OVC002 BECMG 1110/1113 7000 NSW TEMPO 1113/1116
SCT010 BECMG 1121/1124 0200 FG VV///=
TAF LFOP 110500Z 1106/1206 18005KT 3000 BR OVC003 TEMPO 1106/1110
0150 FG VV/// BECMG 1111/1114 33010KT 8000 NSW SCT020 BECMG 1200/1203
 10010KT 2000 BR OVC003=
TAF LFPB 110500Z NIL=
TAF LFSN 110500Z NIL=

0000111300
087
FTFR38 LFPW 110500
TAF LFRD 110500Z 1106/1206 22005KT 0100 FG VV/// BECMG 1109/1112
01010KT 9999 NSW BKN015 BECMG 1112/1115 05007KT BECMG 1118/1121
13008KT BKN004 TEMPO 1120/1124 3000 BR BECMG 1200/1203 13015KT=
TAF LFRN 110500Z 1106/1206 VRB03KT 2000 BR OVC003 PROB30 TEMPO
1106/1109 0400 FG VV/// BECMG 1109/1112 5000 BKN005 BECMG 1112/1115
9999 NSW BKN008 TEMPO 1115/1121 BKN013 BECMG 1119/1121 11010KT TEMPO
1200/1206 BKN004=
TAF LFRO 110500Z 1106/1206 18005KT 9999 BKN020 TEMPO 1106/1108 3000
-RA BR BKN003 BECMG 1108/1109 03010KT SCT020 BKN040 BECMG 1115/1118
10010KT BECMG 1121/1124 BKN006=
TAF LFRZ 110500Z 1106/1206 VRB03KT 3000 BR BKN003 PROB30 TEMPO
1106/1109 0500 FG BECMG 1112/1115 7000 NSW BKN005 BECMG 1121/1124
09012KT=
TAF LFSB 110500Z 1106/1206 VRB03KT CAVOK BECMG 1109/1112 28005KT
BKN040 TEMPO 1112/1117 -RA PROB40 1113/1118 BKN013 BECMG 1122/1201
VRB03KT 3000 BR FEW025 PROB40 1202/1206 0500 BCFG BKN002=
TAF LFST 110500Z 1106/1206 VRB02KT 9999 BKN020 TEMPO 1106/1115 5000
-RA BKN004 BECMG 1115/1118 30005KT PROB30 TEMPO 1121/1206 3000 BR=

0000061400
088
FTFR39 LFPW 110500
TAF LFMH 110500Z 1106/1206 16010KT CAVOK BECMG 1121/1124 VRB02KT 6000
 BKN015 TEMPO 1203/1206 3000 BR=
TAF LFMI 110500Z 1106/1206 09005KT 9999 BKN025
BECMG 1113/1115 SCT040 BECMG 1116/1118 35005KT SCT030=
TAF LFMK 110500Z 1106/1206 08005KT 9999 OVC020 TEMPO 1106/1110 5000
RA BR BKN003 OVC015 TEMPO 1120/1204 09015KT RA OVC015=
TAF LFSD 110500Z 1106/1206 VRB02KT 9999 OVC008 PROB40 TEMPO 1106/1108
 0500 BCFG VV///
PROB30 TEMPO 1111/1118 5000 -RA BKN005=
TAF LFTH 110500Z 1106/1206 08015KT 9999 OVC015 BECMG 1110/1112
05010KT BKN025 BECMG 1118/1120 OVC020=

0000047000
089
FTZW20 FVHA 110400
TAF FVBU 110400Z 1106/1212 10010KT CAVOK BECMG 1110/1112 
             SCT040 PROB30 TEMPO 1112/1118 8000 -TSRA
             FEW040CB SCT045 BECMG 1120/1122 CAVOK=
TAF FVFA 110400Z NIL=
TAF FVHA 110400Z 1106/1212 10003KT CAVOK 
         BECMG 1106/1108 FEW010 BKN080 
         TEMPO 1110/1114 8000 -TSRA FEW025CB SCT040TCU 
         BECMG 1118/1120 -RA FM112000 /////KT CAVOK 
         BECMG 1206/1208 SCT010 BKN090=

0000006100
090
SAVN26 SVMC 110500
METAR SVMC 110500Z NIL=

0000027900
091
FTAP32 FAPR 110300 RRC
TAF FVHA 110400Z 1106/1212 10003KT CAVOK
         BECMG 1106/1108 FEW010 BKN080 
         TEMPO 1110/1114 8000 -TSRA FEW025CB SCT040TCU 
         BECMG 1118/1120 -RA FM112000 /////KT CAVOK 
         BECMG 1206/1208 SCT010 BKN090=

0000020800
092
FTZA32 FAPR 110300 RRD
TAF FVBU 110400Z 1106/1212 10010KT CAVOK BECMG 1110/1112
             SCT040 PROB30 TEMPO 1112/1118 8000 -TSRA
             FEW040CB SCT045 BECMG 1120/1122 CAVOK=

0000027900
093
FTZA31 FAPR 110300 RRD
TAF FVHA 110400Z 1106/1212 10003KT CAVOK
         BECMG 1106/1108 FEW010 BKN080 
         TEMPO 1110/1114 8000 -TSRA FEW025CB SCT040TCU 
         BECMG 1118/1120 -RA FM112000 /////KT CAVOK 
         BECMG 1206/1208 SCT010 BKN090=

0000020200
094
FTID31 WIII 110500
TAF WIII 110500Z 1106/1212 33008KT 9999 FEW019CB SCT020
PROB30 TEMPO 1109/1112 6000 -TSRA 
BECMG 1110/1112 24005KT 7000 SCT020
BECMG 1116/1118 4000 BR FEW020=

00000000