0000012400
235
SACN62 CYYB 110500
METAR CYYB 110500Z 13010KT 1SM -FZDZ -PL BR OVC002 M01/M01 A2981 RMK
 FG4SF4 SLP114=

0000008900
236
SPIS31 LLBG 110500
SPECI LLHA 110500Z 14004KT 9999 BKN035 11/06 Q1023=

0000029000
237
SACZ31 LKPW 110500
METAR LKKV 110500Z 00000KT 4000 0400W R29/2000U BR BCFG FEW003
SCT015 M02/M02 Q1016=
METAR LKMT 110500Z 23006KT CAVOK 02/M00 Q1018 NOSIG=
METAR LKPR 110500Z 21008KT CAVOK 01/M01 Q1017 NOSIG=
METAR LKTB 110500Z 05003KT CAVOK M00/M02 Q1019 NOSIG=

0000012600
238
SACN46 CWAO 110500
METAR CYRB 110500Z 22009KT 5SM -SN DRSN BKN060 OVC075 M31/M34 A2914
RMK SC5AC1 SLP881=

0000010500
239
SACN52 CWAO 110500
METAR CWSA 110500Z AUTO 25017KT 9SM OVC016 02/M02 A3038 RMK SLP289=

0000011500
240
SPCN47 CWAO 110502
SPECI CYWA 110502Z AUTO 14006KT 3/4SM OVC002 M02/M03 A2997 RMK ICG
PAST HR=

0000024800
241
SAIE31 EIDB 110500
METAR EIDW 110500Z 25014KT 9999 SCT010 BKN014 03/02 Q1014 NOSIG=
METAR EINN 110500Z 20004KT 9999 FEW040 02/02 Q1016 NOSIG=
METAR EICK 110500Z 28004KT 9999 FEW016 03/01 Q1016 NOSIG=
METAR EIKN 110500Z NIL=

0000011300
242
SACN61 CYYL 110500
METAR CYYL 110500Z AUTO 05004KT 4SM -SN BKN028 M22/M25 A2949 RMK
 SLP025=

0000040000
243
SAPL31 EPWA 110500
METAR EPGD 110500Z 27012KT 9999 BKN013 FEW015TCU 04/03
    Q1008 =
METAR EPKK 110500Z 25009KT 9999 BKN053 03/M00 Q1017 =
METAR EPLL 110500Z 26008KT CAVOK 04/01 Q1014 =
METAR EPPO 110500Z 25009KT 9999 BKN025 05/02 Q1014
    R10/19//95 =
METAR EPRZ 110500Z 26014KT CAVOK 05/M02 Q1016 =
METAR EPWA 110500Z 27014KT 9999 FEW023 BKN046 05/01 Q1012 NOSIG=

0000040200
244
SAPL32 EPWA 110500
METAR EPBY 110500Z 24009KT 9999 BKN048 05/03 Q1012 =
METAR EPKT 110500Z 22009KT CAVOK 02/M01 Q1016 =
METAR EPLB 110500Z 27016KT CAVOK 05/01 Q1011 =
METAR EPMO 110500Z 26014KT 9999 OVC045 05/02 Q1011=
METAR EPSC 110500Z 24007KT 9999 BKN015 05/02 Q1012 =
METAR EPWR 110500Z 23005KT 9999 FEW040 05/00 Q1017 =
METAR EPZG 110500Z 24007KT CAVOK 02/01 Q1015 =

0000008500
245
FCRE31 FMEE 110600
TAF FMEP 110500Z 1106/1115 24008KT 9999 FEW023=

0000012200
246
SACN42 CWAO 110500
METAR CYQD 110500Z 20002KT 15SM -SN BKN008 OVC011 M08/M09 A2944 RMK
SF5ST3 SLP991=

0000011100
247
SACN49 CWAO 110500
METAR CYGW 110500Z 11003KT 8SM -SN OVC014 M10/M11 A2976 RMK SC8
SLP078=

0000011300
248
SACN43 CWAO 110500
METAR CYEN 110500Z 32003KT 1/4SM FZFG VV000 M07/M07 A2958 RMK FG8
SLP049=

0000013400
249
SACN62 CYAM 110500
METAR CYAM 110500Z 09008KT 1SM -SN BR OVC007 M01/M01 A2956 RMK ST8
 CIG VRB 5-9 PRESFR SLP021=

0000013000
250
SACN62 CYBW 110500
METAR CYBW 110500Z 14008KT 15SM SCT120 M07/M08 A2961 RMK AC4 LAST
 OBS/NEXT 111200 SLP090=

0000013200
251
SACN62 CYDF 110500
METAR CYDF 110500Z 24013G22KT 15SM SCT023 BKN074 BKN140 M04/M08 A3007
 RMK SC3AC2AC2 SLP183=

0000011900
252
SACN62 CYBR 110500
METAR CYBR 110500Z 29012KT 15SM SCT007 BKN120 M09/M10 A2951 RMK
 SF3AC2 SLP028=

0000015100
253
FCQB31 LQBK 110500
TAF LQBK 110500Z 1106/1115 VRB02KT 0100 FG VV001 BECMG 1108/1110 2000
BR BKN010 BECMG 1111/1113
6000 NSW NSC=

0000015100
254
SACN61 CYHE 110500
METAR CYHE 110500Z AUTO 11003KT 1 1/2SM -RA BR BKN006 OVC029 05/05
 A2968 RMK PRESFR PCPN 1.0MM PAST HR SLP052=

00000000