0000104300
655
FTSA85 EGRR 111656 RRH
TAF SAZM 111700Z 1118/1218 18015G20KT 9999 SCT020 TX24/121800Z
     TN11/1210Z
     BECMG 1203/1206 09005KT
     BECMG 1212/1215 05015KT CAVOK=
TAF SBBR 111700Z 1118/1218 05010KT 9999 SCT040 FEW045TCU TX29/1119Z T
     N19/0109Z
     PROB40 TEMPO 1118/1203 TS SCT030 FEW040CB
     TEMPO 1203/1212 00000KT
     BECMG 1210/1212 06005KT
     TEMPO 1212/1218 BKN03 5 FEW040TCU
     RMK PDB=
TAF SBEG 111600Z 1118/1218 36005KT 9999 BKN020 FEW025TCU TN24/1207Z T
     X32/ 1217Z
     PROB40 1120/1123 33008KT 5000 TSRA BKN015 FEW025CB
     TEMPO 1200/1 204 09005KT RA SHRA BKN010 FEW025TCU
     BECMG 1205/1207 06005KT 9999 BKN 008
     BECMG 1210/1212 36005KT BKN015
     RMK PEO=
TAF SBMN 111600Z 1118/1218 06005KT 9999 SCT020 FEW025TCU TN24/1207Z T
     X32/ 1217Z
     PROB40 1120/1123 33008KT 5000 TSRA BKN015 FEW025CB
     TEMPO 1200/1 204 09005KT RA SHRA BKN010 FEW025TCU
     BECMG 1206/1208 9999 SCT007 BECM G 1212/1214 07005KT
     SCT020
     RMK PEO=
0000239200
656
FTIN51 VOMM 111500
TAF VOBL 111500Z 1118/1224 09005KT 6000 FEW015 BECMG 1122/1123 3000
    HZ SCT010 BECMG 1123/1124 1500 BR SCT005 TEMPO 1200/1203 0600 FG
    BKN005 BECMG 1203/1204 3000 HZ SCT010 BECMG 1204/1205 6000 FEW015
    BECMG 1221/1222 3000 HZ SCT010=
TAF VOCB 111500Z 1118/1224 07005KT 4000 HZ FEW015
       BECMG 1121/1122 2500 HZ
       TEMPO 1200/1203 2000 BR
       BECMG 1205/1206 4000 HZ
       BECMG 1208/1209 6000
       BECMG 1217/1218 4000 HZ
       BECMG 1221/1222 2000 BR=
TAF VOCI 111500Z 1118/1224 00000KT 4000 HZ FEW015 SCT100
    TEMPO 1200/1203 2000 BR/HZ FEW025CB BECMG 1204/1205 05005KT 5000
     HZ TEMPO 1209/1212 2000 TSRA/RA SCT008 SCT012 FEW025CB OVC090
     BECMG 1217/1218 00000KT 4000 HZ=
TAF VOCL 111500Z 1118/1224 00000KT 4000 HZ FEW015 SCT100
    TEMPO 1200/1203 2000 BR/HZ FEW025CB BECMG 1204/1205 22005KT 5000
     HZ TEMPO 1209/1212 FEW025CB BECMG 1217/1218 00000KT 4000 HZ=
TAF VOHS 111500Z 1118/1224 16005KT 4000 HZ SCT015 TEMPO 1200/1203
    VRB03KT 1500 BR SCT010 SCT015 BECMG 1205/1206 12010KT 5000 HZ
     SCT015 BECMG 1215/1217 4000 HZ SCT015=
TAF VOMD 111500Z 1118/1224 05005KT 4000 HZ FEW020
       BECMG 1121/1122 2500 HZ
       BECMG 1203/1204 4000 HZ
       BECMG 1208/1209 6000
       BECMG 1217/1218 4000 HZ
       BECMG 1221/1222 2000 BR=
TAF VOML 111500Z 1118/1224 34005KT 6000 FEW015 BECMG 1121/1122 3000
    HZ SCT010 TEMPO 1200/1203 1500 BR SCT005 BECMG 1203/1204 6000
     FEW015 BECMG 1209/1210 29010KT BECMG 1218/1219 34005KT BECMG
     1221/1222 3000 HZ SCT010=
TAF VOMM 111500Z 1118/1224 05005KT 4000 HZ FEW020
       BECMG 1121/1122 VRB03KT 2000 BR
       TEMPO 1200/1203 1000 MIFG
       BECMG 1203/1204 05010KT 4000 HZ
       BECMG 1208/1209 6000
       BECMG 1217/1218 VRB03KT 4000 HZ
       BECMG 1221/1222 1500 BR=
TAF VOTR 111500Z 1118/1224 05005KT 4000 HZ FEW018
       BECMG 1121/1122 VRB03KT 2500 HZ
       TEMPO 1200/1203 1500 BR
       BECMG 1203/1204 05010KT 4000 HZ
       BECMG 1206/1207 6000
       BECMG 1217/1218 VRB03KT 4000 HZ
       BECMG 1221/1222 2000 BR=
TAF VOTV 111500Z 1118/1224 00000KT 4000 HZ FEW015 SCT100
    TEMPO 1200/1203 2000 BR/HZ FEW025CB BECMG 1204/1205 14005KT 5000
     HZ TEMPO 1209/1212 2000 TSRA/RA SCT008 SCT012 FEW025CB OVC090
     BECMG 1217/1218 00000KT 4000 HZ=

0000009600
657
SAIN90 VOVZ 111600
METAR VOVZ 111600Z 00000KT 2500 BR NSC 22/20 Q1016 NOSIG =

0000039100
658
WWCN02 CYTR 111657
WEATHER BULLETIN FOR CONNAUGHT RANGE PREPARED BY THE JOINT
METEOROLOGICAL CENTRE AT 11:57 AM EST SATURDAY 11 JANUARY 2014.
LOCATION: CONNAUGHT RANGE (452227N755453W)
TYPE: FREEZING PRECIPITATION WARNING ENDED
COMMENTS: AS THE WARM FRONT HAS MOVED PAST THE SITE TEMPERATURES
HAVE RISEN ABOVE ZERO AND FREEZING RAIN IS NO LONGER EXPECTED.
END/JMC
0000330000
659
FPUK71 EGRR 111500
AND NOW THE SHIPPING FORECAST ISSUED BY THE MET OFFICE,
ON BEHALF OF THE MARITIME AND COASTGUARD AGENCY, AT 1725
UTC ON SATURDAY 11 JANUARY 2014 FOR THE PERIOD 1800 UTC
SATURDAY 11 JANUARY TO 1800 UTC SUNDAY 12 JANUARY 2014

THERE ARE WARNINGS OF GALES IN VIKING NORTH UTSIRE SOUTH
UTSIRE FORTIES DOGGER FISHER GERMAN BIGHT PLYMOUTH BISCAY
TRAFALGAR FITZROY SOLE LUNDY FASTNET IRISH SEA SHANNON
ROCKALL MALIN HEBRIDES BAILEY FAIR ISLE FAEROES AND
SOUTHEAST ICELAND

THE GENERAL SYNOPSIS AT MIDDAY
HIGH BISCAY 1022 EXPECTED AUSTRIA 1028 BY MIDDAY
TOMORROW. ATLANTIC LOW MOVING STEADILY NORTHEASTWARDS
EXPECTED 300 MILES WEST OF ROCKALL 958 BY SAME TIME

THE AREA FORECASTS FOR THE NEXT 24 HOURS

VIKING NORTH UTSIRE SOUTH UTSIRE
NORTHWESTERLY 7 TO SEVERE GALE 9, DECREASING 5 OR 6,
VEERING SOUTHEASTERLY LATER. ROUGH OR VERY ROUGH,
BECOMING MODERATE OR ROUGH. SHOWERS. GOOD

FORTIES CROMARTY FORTH TYNE DOGGER
NORTHWEST BACKING SOUTHEAST LATER 5 TO 7, OCCASIONALLY
GALE 8 AT FIRST IN FORTIES AND DOGGER. MODERATE OR ROUGH,
BECOMING VERY ROUGH FOR A TIME IN FORTIES. FAIR. GOOD

FISHER GERMAN BIGHT
NORTHWEST BACKING SOUTHEAST LATER, 5 TO 7, OCCASIONALLY
GALE 8 AT FIRST. MODERATE OR ROUGH, BECOMING VERY ROUGH
FOR A TIME IN FISHER. SHOWERS. GOOD

HUMBER THAMES
NORTHWEST BACKING SOUTH 5 TO 7. MODERATE, OCCASIONALLY
ROUGH IN HUMBER. FOG PATCHES. GOOD, OCCASIONALLY VERY
POOR

DOVER WIGHT PORTLAND
VARIABLE 3 OR 4, BECOMING SOUTHEAST 5 TO 7. SLIGHT OR
MODERATE, OCCASIONALLY ROUGH IN PORTLAND. RAIN LATER.
MODERATE OR GOOD

PLYMOUTH BISCAY
SOUTHEAST VEERING WEST LATER, 5 TO 7, INCREASING GALE 8
AT TIMES. MODERATE OR ROUGH, OCCASIONALLY VERY ROUGH
LATER. RAIN LATER. MODERATE OR GOOD

FITZROY SOLE
SOUTHEAST VEERING WEST, 5 TO 7, INCREASING GALE 8 OR
SEVERE GALE 9 FOR A TIME. ROUGH OR VERY ROUGH,
OCCASIONALLY HIGH IN FAR WEST. RAIN OR SHOWERS. GOOD,
OCCASIONALLY POOR

LUNDY FASTNET
SOUTHEAST VEERING SOUTHWEST, 5 TO 7, INCREASING GALE 8 OR
SEVERE GALE 9 FOR A TIME. MODERATE OR ROUGH BECOMING
ROUGH OR VERY ROUGH. RAIN LATER. MODERATE OR GOOD

IRISH SEA
VARIABLE 4, BECOMING SOUTHEAST 6 TO GALE 8, PERHAPS
SEVERE GALE 9 LATER. SLIGHT OR MODERATE BECOMING MODERATE
OR ROUGH. RAIN LATER. MODERATE OR GOOD

SHANNON ROCKALL MALIN
SOUTHWESTERLY 4 IN NORTHEAST ROCKALL AND MALIN AT FIRST,
OTHERWISE SOUTHEASTERLY VEERING SOUTHWESTERLY LATER, 6 TO
GALE 8, OCCASIONALLY SEVERE GALE 9. ROUGH OR VERY ROUGH,
BECOMING HIGH AT TIMES IN SHANNON AND ROCKALL. RAIN OR
SHOWERS. GOOD, OCCASIONALLY POOR

HEBRIDES BAILEY
WESTERLY 5, BACKING SOUTHEASTERLY 7 TO SEVERE GALE 9,
THEN VEERING SOUTHERLY IN SOUTHWEST LATER, PERHAPS STORM
10 LATER IN BAILEY. ROUGH OR VERY ROUGH, BECOMING HIGH AT
TIMES IN BAILEY. RAIN OR SHOWERS. GOOD, OCCASIONALLY POOR

FAIR ISLE FAEROES
NORTHWEST BACKING SOUTHEAST 6 TO GALE 8, OCCASIONALLY
SEVERE GALE 9, DECREASING 5 FOR A TIME. ROUGH OR VERY
ROUGH. RAIN OR SHOWERS. MODERATE OR GOOD

SOUTHEAST ICELAND
WESTERLY BACKING SOUTHEASTERLY 5 OR 6, INCREASING 7 TO
SEVERE GALE 9, PERHAPS STORM 10 LATER. ROUGH OR VERY
ROUGH, BECOMING HIGH IN FAR SOUTH LATER. SHOWERS.
MODERATE OR GOOD
0000103200
660
FTSA85 EGRR 111657 RRI
TAF SBBV 111600Z 1118/1218 06010KT 9999 SCT040 FEW045TCU TN24/1207Z T
     X33/ 1217Z
     BECMG 1122/1124 09005KT CAVOK
     BECMG 1210/1212 06015KT SCT025 BE CMG 1214/1216 06010KT
     SCT040 FEW045TCU
     RMK PEO=
TAF SBPV 111600Z 1118/1218 21005KT 9999 BKN025 TN24/1207Z TX31/1217Z
     BECM G 1119/1122 BKN025 FEW030TCU
     PROB40 1124/1203 5000 TSRA SCT010 FEW020 CB
     TEMPO 1204/1208 03005KT 5000 RA BKN015
     BECMG 1210/1212 27005KT SCT 010 FEW020TCU
     RMK PEO=
TAF SBRB 111600Z 1118/1218 36005KT 9999 BKN020 FEW025TCU TN23/1207Z T
     X29/ 1217Z
     BECMG 1120/1122 SCT015
     PROB40 1203/1205 00000KT 4000 TSRA BKN01 0
     BECMG 1206/1208 5000 BR SCT007
     BECMG 1212/1214 36005KT 9999 SCT020
     RMK PEO=
TAF SBTT 111600Z 1118/1218 09003KT 9999 BKN010 FEW025TCU TN23/1209Z T
     X29/ 1218Z
     PROB30 1119/1122 5000 TSRA BKN015 FEW025CB
     BECMG 1122/1124 0600 3KT FEW015
     BECMG 1213/1215 SCT015
     RMK PEO=
0000067300
661
SAUK63 EGRR 111650
METAR EGDM 111650Z 34004KT CAVOK 05/02 Q1022=
METAR EGQL 111650Z 24008KT 9999 FEW030 01/M01 Q1015 NOSIG=
METAR EGQM 111650Z AUTO 29008KT 9999 NCD 04/M00 Q1016=
METAR EGQS 111650Z 25014KT 9999 FEW020CB 02/00 Q1013=
METAR EGUB 111650Z 20001KT CAVOK 01/M01 Q1022=
METAR EGVN 111650Z 26003KT CAVOK 05/01 Q1022 NOSIG=
METAR EGVO 111650Z 28003KT CAVOK 04/01 Q1021=
METAR EGWU 111650Z 34002KT CAVOK 04/01 Q1022 NOSIG=
METAR EGXC 111650Z 22003KT CAVOK 03/01 Q1020=
METAR EGXT 111650Z AUTO 28009KT 9999 NCD 03/00 Q1021=
METAR EGXV 111650Z AUTO 27006KT 9999 NCD 04/01 Q1019=
METAR EGXW 111650Z 24006KT CAVOK 04/00 Q1020 NOSIG=
0000003900
662
SIBM20 VBRR 111500
NIL=
0000039800
663
SWIO40 RJTD 111700
:PRS 1 #1 1916 1937 1902 1949 1910 1918 1936 1906 1937 1912 1929 1920
1907 1908 1904 1902 1907 1916 1876 1905 1864 1902 1851 1907 1869 1851
1893 1861 1895 1881 :RAD 1 #3 6302 6301 6298 6294 6283 6273 6262 6259
6260 6265 :ENC 5 #5 5297 5290 5273 5255 5253 5261 5264 5264 5261 5250
5236 5234 :SW1 60 #60 33 :SW2 30 #60 11 :BAT 14 #15 12.7 :NAME 
0650018E=
0000030100
664
UDEU02 EGRR 111702
AMDAR 1116
LVR EU0226   6102N 01056E 111641 F250 MS420 259/026 TB/ S031=
LVR EU0226   6021N 01051E 111648 F104 MS150 293/024 TB/ S031=
LVR EU0226   6004N 01100E 111655 F037 MS060 210/006 TB/ S031=
LVR EU0226   6011N 01105E 111658 F010 MS070 019/004 TB/ S031=
0000033100
665
SABN31 OBBI 111700
METAR OBBI 111700Z 23005KT CAVOK 16/13 Q1020 NOSIG=
METAR OEDF 111700Z 30008KT 7000 NSC 15/09 Q1020 NOSIG=
METAR OEDR 111700Z 29008KT CAVOK 15/11 Q1019 NOSIG=
METAR OTBD 111700Z VRB01KT 9999 FEW018 BKN120 17/12 Q1021 NOSIG=
METAR OKBK 111700Z 31013KT 9999 FEW040 BKN080 13/08 Q1020 NOSIG=
0000043300
666
UDEU02 EGRR 111702 RRA
AMDAR 1116
LVR EU0230   6124N 00316E 111621 F320 MS490 271/014 TB/ S031=
LVR EU0230   6205N 00158E 111628 F320 MS482 264/018 TB/ S031=
LVR EU0230   6243N 00038E 111635 F337 MS482 272/012 TB/ S031=
LVR EU0230   6320N 00051W 111642 F340 MS492 262/011 TB/ S031=
LVR EU0230   6353N 00227W 111649 F340 MS502 274/007 TB/ S031=
LVR EU0230   6425N 00407W 111656 F340 MS517 127/002 TB/ S031=
0000010000
667
SNVD25 LFPW 111700
BBXX
BAREU00 11174 99476 70504 46/// ///// 40187 57001
22253=
0000044700
668
SXXX32 EUMS 111654
224AD678
:PRS 2 /1 1925 1925 1929 1929 1930 1928 1924 1923 1923 1928 1939 1943 1944 1945 1949 1953 1955 1956 1956 1956 1955 1956 1960 1960 1963 1967 1971 1979 1982 1987 :RAD 4 /3 4746 4748 4751 4762 4770 4776 4780 4793 4803 4814 4822 4831 4841 4851 4863 4869 4878 4889 4898 4910 :ENC 4 /5 8273 8275 8290 8301 8306 8326 8342 8353 8369 8385 8401 8411 :SW1 54 /60 54 :SW2 24 /60 60 :BAT 14 /15 12.3 :NAME 224AD678
0000036400
669
SXXX32 EUMS 111657
22E595B6
:PRS 1 /1 M 2904 2896 2897 2911 2883 2892 2911 2871 2918 2891 2922 2956 2885 2929 2872 2869 2917 2885 2914 2894 2894 2959 2929 2935 2947 2905 2972 2942 2947 :RAD 1 /3 6078 6078 6082 6085 6078 6090 6105 6115 6115 6111 :ENC 2 /5 4193 4202 4197 4201 4234 4238 :SW1 57 /60 60 :SW2 27 /60 60 :BAT 14 /15 12.5 :NAME 22E595B6
0000044600
670
SXXX32 EUMS 111658
32BD7124
:PRS 1 /1 1845 1842 1843 1844 1844 1845 1841 1838 1833 1829 1829 1828 1825 1825 1819 1814 1815 1812 1812 1814 1811 1811 1811 1808 1808 1806 1803 1800 1798 1793 :RAD 3 /3 7628 7624 7616 7609 7604 7599 7597 7593 7587 7575 7563 7555 7547 7546 7546 7550 7556 7558 7555 7553 :ENC 3 /5 4625 4613 4601 4595 4590 4575 4557 4543 4540 4548 4553 4547 :SW1 59 /60 0 :SW2 29 /60 60 :BAT 14 /15 12.4 :NAME 32BD7124
0000070100
671
SXXX32 EUMS 111658 RRA
223412A2
OT12 ID:IND-SADENG DT:2014 01 11 16 57
:PRS /1 01058 01083 01267 01145 01196 01093 01018 01176 01077 01044 01081 01116 01204 01185 01167 01078 01055 01073 01122 01140 01156 01088 01145 01140 01151 01023 01080 01094 01106 01160
:ENC /1 -13636 -13633 -13506 -13566 -13503 -13613 -13656 -13583 -13656 -13673 -13639 -13586 -13529 -13549 -13556 -13633 -13646 -13629 -13609 -13576 -13583 -13623 -13573 -13559 -13569 -13663 -13633 -13629 -13649 -13579
:RAD /1 10827 10859 10872 10936 10960 10897 10866 10843 10781 10741 10773 10846 10878 10879 10889 10850 10803 10825 14449 13279 10960 10870 10892 10926 10906 10790 10820 10801 10794 10837
:BAT 11.8V
0000011000
672
UANT99 KDDL 111659
ARP AFR848 4801N01610W 1659 F320 MS53 212/72 KT
FGSQP QXT AOE 111659 F09A
0000068900
673
UDEU02 EGRR 111702 RRB
AMDAR 1115
LVR EU2795   5146N 00234W 111547 F245 MS402 288/059 TB0 S031=
LVR EU2795   5205N 00349W 111554 F319 MS572 295/069 TB0 S031=
LVR EU2795   5228N 00459W 111601 F320 MS575 289/067 TB0 S031=
LVR EU2795   5250N 00612W 111608 F319 MS575 288/067 TB0 S031=
LVR EU2795   5311N 00726W 111615 F319 MS570 279/069 TB0 S031=
LVR EU2795   5332N 00841W 111622 F326 MS585 270/071 TB0 S031=
LVR EU2795   5351N 00957W 111629 F330 MS590 264/076 TB0 S031=
LVR EU2795   5410N 01114W 111636 F329 MS590 256/077 TB0 S031=
LVR EU2795   5428N 01232W 111643 F330 MS592 247/077 TB0 S031=
LVR EU2795   5446N 01354W 111650 F330 MS590 238/078 TB0 S031=
0000042900
674
UDNA02 EGRR 111702
AMDAR 1116
LVR EU6113   5231N 07845W 111620 F400 MS607 230/080 TB/ S031=
LVR EU6113   5152N 07927W 111627 F400 MS565 235/069 TB/ S031=
LVR EU6113   5111N 08008W 111634 F400 MS545 234/067 TB/ S031=
LVR EU6113   5030N 08048W 111641 F400 MS537 231/072 TB/ S031=
LVR EU6113   4949N 08126W 111648 F400 MS542 237/073 TB/ S031=
LVR EU6113   4909N 08202W 111655 F400 MS530 233/071 TB/ S031=
00000000