0000011900
175
SACN62 CYYG 110500
METAR CYYG 110500Z 23005KT 15SM SCT008 BKN030 M04/M05 A3025 RMK
 SF3SC2 SLP247=

0000010600
176
SACN62 CYYY 110500
METAR CYYY 110500Z 21008KT 15SM SCT080 M06/M10 A3014 RMK AC4 SLP211=

0000011200
177
SACN62 CYYT 110500
METAR CYYT 110500Z 26023G37KT 15SM FEW150 M05/M09 A3007 RMK AC2
 SLP193=

0000010600
178
SACN62 CYYZ 110500
METAR CYYZ 110500Z 09004KT 6SM BR OVC055 02/01 A2985 RMK SC8 SLP115=

0000009900
179
SACN62 CYZF 110500
METAR CYZF 110500Z 33010KT 15SM SKC M28/M31 A2955 RMK SLP036=

0000149000
180
SPUS70 KWBC 110504
SPECI
KCEU 110500Z AUTO 02003KT 1SM VCTS +RA BR VV004 09/08 A3006 RMK
     AO2 TSB0459 P0007 $=
KCSG 110500Z AUTO 11004KT 1/4SM FG VV002 12/11 A3000 RMK AO2=
KEET 110500Z AUTO 12003KT 1 1/4SM BR OVC002 12/12 A2992 RMK AO2
     T01170117=
KPIL 110500Z AUTO 21005KT 1SM BR VV002 18/17 A2991 RMK AO2=
KPOU 110500Z 00000KT 1/2SM FG BKN008 OVC012 01/M01 A3021 RMK
     AO2=
KRHI 110500Z AUTO 02003KT 4SM BR BKN015 OVC031 M04/M04 A2942 RMK
     AO2 T10391044=
KRWI 110500Z AUTO 15005KT 2SM +RA BR SCT006 BKN014 OVC019 16/16
     A3010 RMK AO2 P0002 T01610156=
KTDZ 110500Z AUTO 15012KT 3SM -RA BR SCT004 BKN030 OVC070 04/04
     A2968 RMK AO2 P0000 TSNO=
KTOI 110500Z AUTO 14007KT 3SM TSRA BR SCT002 BKN006 OVC021 17/16
     A2998 RMK AO2 LTG DSNT N AND NE AND SW P0003 T01670161=
KVPC 110500Z AUTO 11005KT 2 1/2SM HZ OVC004 17/08 A3000 RMK
     AO2=
KBKV 110501Z AUTO 00000KT 5SM BR CLR 18/17 A3010 RMK AO2
     T01780172=
KCPS 110501Z AUTO 14006KT 2SM -RA BR SCT008 BKN075 OVC100 05/04
     A2956 RMK AO2 VIS 1V5 P0000=
KFAY 110501Z AUTO 16003KT 1/4SM FG BKN002 BKN012 OVC020 16/16
     A3008 RMK AO2 RVRNO=
KIPT 110501Z AUTO 07005KT 1 1/2SM BR BKN004 OVC009 01/00 A3010 RMK
     AO2=
KMCW 110502Z AUTO 28006KT 5SM BR SCT004 OVC011 M02/M02 A2951 RMK
     AO2 T10171017 TSNO=
PABA 110501Z AUTO 28029G35KT 1/4SM +SN FZFG OVC004 M24/M27 A2979
     RMK AO2 PK WND 28035/0501 CIG 002V007 P0000 FZRANO=

0000008900
181
SPIY40 LIIB 110501
SPECI LIMZ 110501Z 22003KT 9999 BKN035 07/05 Q1021=

0000011100
182
SPUS41 KWBC 110505
SPECI
KCEF 110501Z AUTO 00000KT 3/4SM R23/3500FT BR OVC002 00/00 A3024=

0000022600
183
SARE20 FMEE 110500
METAR FMCZ 110504Z VRB03KT 9999 FEW021 BKN300 29/24 Q1014 NOSIG=
METAR FMEE 110500Z 09020KT 9999 FEW026 29/23 Q1015 NOSIG=
METAR FMEP 110500Z AUTO 25004KT 210V290 9999 NCD 28/23 Q1015=

0000086900
184
FTIR32 OIII 110500
TAF OIAA 110500Z 1106/1212 15005MPS 2500 BR FEW035CB SCT040 BKN100
    TEMPO 1106/1112 20009MPS 1500 TSRA BR SCT035CB SCT040 OVC070
     PROB40 TEMPO 1100/1106 0500 FG OVC010
    BECMG 1121/1123 1200 BR BKN015
    TEMPO 1200/1206 0500 FG OVC005=
TAF OIBK 110500Z 1106/1212 08006MPS 6000 SCT030 OVC100
    TEMPO 1106/1115 08008MPS 3000 TS/SHRA SCT035 SCT040 OVC070
    BECMG 1118/1120 3000 BR
    BECMG 1203/1205 3000 HZ=
TAF OIIE 110500Z 1106/1212 14005MPS 6000 FEW035CB SCT040 OVC100
    TEMPO 1106/1112 2000 SNRA FEW030CB SCT035 OVC080
    BECMG 1114/1116 6000 SCT030 BKN100
    BECMG 1116/1118 35004MPS 3000 BR
    TEMPO 1120/1203 1500 BR
    BECMG 1205/1207 6000 SCT040=
TAF OITR 110500Z 1106/1212 26005MPS 2500 BR HZ SCT035 BKN090
    TEMPO 1118/1206 1000 BR SCT035 BKN080
    PROB30 0800 FG=

0000137200
185
FTCI32 ZBBB 110500
TAF ZGKL 110313Z 1106/1206 04003MPS 1600 -RA BR FEW005 SCT010
OVC026 TX09/1106Z TN05/1123Z BECMG 1117/1118 1000 BECMG 1200/1201
1500=
TAF ZGNN 110311Z 1106/1206 07003MPS 4000 BR SCT013 OVC026 TX15/1107Z
TN11/1122Z TEMPO 1120/1201 2000 -RA BR=
TAF ZGOW 110307Z 1106/1206 11004MPS 5000 HZ NSC TX20/1107Z
 TN12/1122Z
TEMPO 1121/1201 2100 BR=
TAF ZGSZ 110306Z 1106/1206 08004MPS 5000 HZ NSC TX21/1107Z
 TN13/1123Z
TEMPO 1106/1111 31004MPS=
TAF ZLXY 110306Z 1106/1206 24003MPS 3500 HZ NSC TX07/1107Z
TNM05/23Z=
TAF ZMUB 110440Z 1106/1212 VRB02MPS 2500 FU SCT100 BECMG 1107/1109
4000 BECMG 1122/1124 2500 TEMPO 1200/1206 1500 BR BECMG 1206/1208
 4000
TXM22/1106Z TNM33/1123Z=
TAF ZPPP 110134Z 1106/1206 23007MPS 9999 FEW026 TX18/1108Z
 TN04/1123Z
BECMG 1120/1121 04004MPS BECMG 1203/1204 22008G15MPS=
TAF ZSAM 110319Z 1106/1206 10004MPS 6000 BKN033 TX19/1107Z
 TN12/1122Z
TEMPO 1120/1202 3000 BR=
TAF ZSFZ 110304Z 1106/1206 03004MPS 9999 OVC023 TX14/1106Z
TN10/22Z=
TAF ZSNB 110250Z 1106/1206 03004MPS 2000 -RA BR FEW008 BKN020
TX08/1106Z TN04/21Z=
TAF ZSQD 110320Z 1106/1206 19003MPS 3500 BR NSC TX07/1107Z
TNM05/22Z=
TAF ZUGY 110307Z 1106/1206 03004MPS 5000 BR FEW007 BKN015 OVC033
TX04/1108Z TN01/23Z=
TAF ZUUU 110246Z 1106/1206 02003MPS 3500 BR SCT050 TX08/1107Z
TN03/22Z=

0000011600
186
SACN61 CYZY 110500
METAR CYZY 110500Z AUTO 20004KT 9SM OVC017 M05/M06 A2943 RMK PRESFR
 SLP011=

0000009900
187
SACN62 CZBF 110500
METAR CZBF 110500Z 23003KT 15SM SKC M20/M23 A3020 RMK SLP232=

0000019600
188
FTIR33 OIII 110500
TAF OIZC 110500Z 1106/1212 04005MPS 7000 FEW040
    BECMG 1107/1109 FEW035 BKN100
    BECMG 1118/1120 SCT040
    TEMPO 1200/1212 FEW030CB SCT035 BKN080=

0000021500
189
FTCA32 KWBC 110506
TAF
TAF AMD TJSJ 110501Z 1105/1124 08008KT P6SM FEW025
      TEMPO 1105/1106 5SM SHRA BKN030
     FM110600 VRB04KT P6SM VCSH FEW025
     FM111330 07016G25KT P6SM SCT025=

0000009800
190
SANL33 EHDB 110455 RRA
METAR EHJR 110455Z AUTO 21030G34KT  09/07 Q1009 W10/H21=

0000010200
191
SANL33 EHDB 110455 RRB
METAR EHSC 110455Z AUTO 22025G27KT 7000 06/06 Q1013 W08/H15=

0000010200
192
SANL33 EHDB 110455 RRC
METAR EHSA 110455Z AUTO 21024G28KT 8000 07/06 Q1012 W09/H18=

0000024700
193
SAIY33 LIIB 110500
METAR LIMA 110500Z NIL=
METAR LIMG 110500Z NIL=
METAR LIMP 110500Z NIL=
METAR LIMS 110455Z 00000KT 0200 R30/0450 R12/0325 FG VV001 08/07
      Q1021=
METAR LIMW 110500Z NIL=
METAR LIMZ 110500Z NIL=

0000020500
194
SAIY34 LIIB 110500
METAR LIPC 110455Z /////KT 1500 BR BKN050 08/05 Q1022=
METAR LIPF 110500Z NIL=
METAR LIPO 110500Z NIL=
METAR LIPY 110450Z VRB02KT 8000 FEW005 BKN045 09/09 Q1022=

00000000