0000015700
295
SSVX13 LFPW 111700
ZZYY 44605 11014 1700/ 750537 023851 6113/ 11119 49823 57040 22219
 00110 444 20130 11014 1500/ 50101 80142 80013 9/015=
0000015700
296
SSVX13 LFPW 111700
ZZYY 62678 11014 1700/ 758389 032738 6113/ 11119 49978 57028 22219
 00076 444 20130 11014 1500/ 50101 80082 80002 9/015=
0000015700
297
SSVX13 LFPW 111700
ZZYY 64616 11014 1700/ 762514 022253 6113/ 11119 40041 52007 22219
 00083 444 20130 11014 1500/ 50101 80148 80006 9/015=
0000015700
298
SSVX13 LFPW 111700
ZZYY 44607 11014 1700/ 747016 014457 6113/ 11119 40056 57025 22219
 00126 444 20130 11014 1500/ 50101 80142 80008 9/015=
0000015700
299
SSVX13 LFPW 111700
ZZYY 44764 11014 1700/ 744048 039320 6113/ 11119 40163 57012 22219
 00127 444 20130 11014 1500/ 50101 80140 80002 9/015=
0000015700
300
SSVX13 LFPW 111700
ZZYY 14528 11014 1700/ 322169 053121 6113/ 11119 40169 52018 22219
 00270 444 20130 11014 1500/ 50101 80150 80016 9/015=
0000015700
301
SSVX13 LFPW 111700
ZZYY 13660 11014 1700/ 722235 043962 6113/ 11119 40189 57036 22219
 00245 444 20130 11014 1500/ 50101 80142 80000 9/015=
0000015700
302
SSVX13 LFPW 111700
ZZYY 65592 11014 1700/ 760779 053094 6113/ 11119 49939 52028 22219
 00029 444 20130 11014 1500/ 50101 80130 80026 9/015=
0000015700
303
SSVX13 LFPW 111700
ZZYY 64622 11014 1700/ 766560 009505 6113/ 11119 40072 52010 22219
 00021 444 20130 11014 1500/ 50101 80142 80008 9/015=
0000015700
304
SSVX13 LFPW 111700
ZZYY 41632 11014 1700/ 719216 049545 6113/ 11119 40184 57024 22219
 00255 444 20130 11014 1500/ 50101 80146 80010 9/015=
0000015700
305
SSVX13 LFPW 111700
ZZYY 64521 11014 1700/ 175066 004066 6113/ 11119 40169 52003 22219
 00005 444 20130 11014 1500/ 50101 80138 80018 9/015=
0000015700
306
SSVX13 LFPW 111700
ZZYY 16620 11014 1700/ 337173 122786 6113/ 11119 40206 57018 22219
 00194 444 20130 11014 1500/ 50101 80110 80008 9/015=
0000015700
307
SSVX13 LFPW 111700
ZZYY 14512 11014 1700/ 317152 069206 6113/ 11119 40131 52014 22219
 00282 444 20130 11014 1500/ 50101 80136 80002 9/015=
0000015700
308
SSVX13 LFPW 111700
ZZYY 64526 11014 1700/ 766052 008425 6113/ 11119 40064 52011 22219
 00023 444 20130 11014 1500/ 50101 80142 80005 9/015=
0000015700
309
SSVX13 LFPW 111700
ZZYY 16538 11014 1700/ 340761 078494 6113/ 11119 40185 52005 22219
 00143 444 20130 11014 1500/ 50101 80144 80018 9/015=
0000015700
310
SSVX13 LFPW 111700
ZZYY 64525 11014 1700/ 764547 006718 6113/ 11119 40056 52020 22219
 00034 444 20130 11014 1500/ 50101 80142 80006 9/015=
0000112400
311
SNNO21 ENMI 111700
AAXX 11171
01001 46/// /2901 11004 21011 30141 40153 53003=
01008 46/// /2609 11003 21051 30069 40103 52005=
01010 41989 01504 11062 21116 30159 40176 52002 70100=
01026 26/// /2401 11113 21125 30042 40193 54000 333 60005=
01055 46/// /2405 11013 21087 30159 40177 55001=
01062 46/// /2105 11019 21034 30104 40117 52003=
01098 46/// /2402 11045 21064 30155 40173 52010=
01115 26/// /1007 11048 21163 30089 40111 53006 333 60005=
01152 46/// /1208 11077 21181 30119 40136 53002=
01205 46/// /0000 11005 21039 39961 40008 52009=
01212 26/// /1703 11022 21042 39987 40005 53008 333 69915=
01271 47/68 70705 11090 21147 30023 40046 53004 771//=
01288 46/// /1203 11154 21178 39270 40063 52006=
01300 NIL=
01317 26/// /1202 10006 21032 30006 40021 52022 333 60005=
01367 46/// /1001 11078 21105 39562 40018 53009=
01384 46238 /0203 11070 21075 53005=
01403 46/// /3211 10033 20018 39959 40028 53026=
01415 47466 63107 10048 20027 30017 40028 53023 761//=
01482 46/// /0108 10005 21003 39979 49989 53008=
01492 46/// /0304 11049 21067 39885 40006 53008=
0000091600
312
SNNO22 ENMI 111700
AAXX 11171
01003 NIL=
01007 46/// /2404 11015 21066 30091 40101 52008=
01028 41460 31501 11022 21028 30132 40152 51005 71580 82970=
01047 NIL=
01049 26/// /2002 11112 21126 30187 40191 57004 333 60005=
01078 46/// /2801 11028 21067 30167 40177 52002=
01102 46/// ///// 11056 21111 30057 40077 53005=
01160 46/// /0809 11048 21127 30136 40154 53004=
01218 26/// /1602 11053 21131 39996 40018 52012 333 60005=
01238 46/// /1302 11182 21204 38840 49970 52011=
01241 41488 71111 11071 21116 30016 40027 51009 70222 8457/=
01281 46/// /0706 11108 21173 39912 40096 53008=
01338 46/// /2404 10014 21071 39936 40003 53031=
01359 46/// /0502 11073 21083 39067 40001 53014=
01397 46/// /1401 11116 21131 39587 40045 55000=
01400 NIL=
01427 26/// /3208 10040 20033 30008 40024 53017 333 69965=
01447 NIL=
01448 46/// /2906 10037 20011 39993 40003 53003=
0000206600
313
SNRO41 YRBK 111700
AAXX 11171
15015 22598 71800 10010 21006 39597 42799 57010 87500 333 60005 91001
91102=
15020 22997 33001 10023 21011 39994 40197 54000 83070 333 60005 91002
91102=
15090 22997 80800 10037 21017 30105 40199 53002 86077 333 55300 0////
20000
3//// 60005 91001 91102=
15108 21299 62718 11071 21071 38052 48476 54000 72844 82541 333 60005
91024
92727 93556=
15120 22697 80700 10033 20019 39708 40214 58007 8557/ 333 55300 10026
20000
3//// 60005 91002 91103=
15150 22997 42601 10025 21027 39984 40201 54000 84030 333 60005 91003
91103=
15170 22598 60901 10017 21034 39410 42800 57005 83408 333 60005 91003
91105=
15200 22697 81302 10065 20053 30056 40202 57010 885// 333 60005 91002
91103=
15230 22597 82202 10056 20042 39920 40218 57003 885// 333 55300 10137
20000
3//// 60005 91002 91104=
15260 22598 72501 10053 20017 39672 40213 56005 83370 333 60005 91003
91103=
15280 21093 82720 11079 21088 37473 47017 53002 74144 8551/ 333 60005
91028=
15292 22998 71602 10097 20026 39919 40213 54001 87070 333 60005 91003
91103=
15310 22997 11502 10052 20020 30123 40211 52002 80001 333 55300 10231
20000
3//// 60005 91004 91104=
15335 22997 62802 10038 20002 30205 40212 52005 80006 333 60005 91002
91102=
15346 22997 41200 10048 21007 39918 40213 54000 84070 333 60005 91001
91101=
15350 22997 32504 10062 21015 30093 40214 52005 83040 333 60005 91005
91105=
15360 22997 72004 10047 20047 30195 40209 52004 80006 333 60005 91004
91104=
15410 22997 00202 10068 20025 30115 40212 55002 333 60005 91002
91103=
15420 22997 12302 10027 20011 30100 40215 55002 80001 333 55300 0////
20000
3//// 60005 91002 91102=
15450 22997 31203 10077 20021 39972 40209 57005 82041 333 55300 10168
20000
3//// 60005 91003 91103=
15460 22997 32402 10059 20012 30192 40217 54001 82071 333 60005 91003
91104=
15470 22997 01800 10052 20023 30083 40212 57004 333 60005 91001
91103=
15480 22997 32801 10050 20010 30194 40212 52003 80001 333 60005 91002
91102=
0000015700
314
SSVX13 LFPW 111700
ZZYY 62534 11014 1700/ 750349 020854 6113/ 11119 49860 57048 22219
 00107 444 20130 11014 1500/ 50101 80144 80027 9/015=
00000000