0000189700
495
SPUS70 KWBC 110510
SPECI
KAOH 110506Z AUTO 16011KT 6SM HZ FEW018 BKN032 OVC085 07/ A2968
     RMK AO2 PNO $=
KBWI 110506Z 00000KT 1/4SM R10/1600V2200FT FG VV002 03/02 A3013
     RMK AO2=
KDEC 110506Z AUTO 20009KT 2SM -RA BR OVC003 04/04 A2958 RMK AO2
     P0000=
KDPA 110506Z 20009KT 2 1/2SM RA BR OVC003 03/03 A2952 RMK AO2
     P0003=
KHKS 110506Z AUTO 18013G19KT 10SM OVC007 18/17 A2979 RMK AO2 LTG
     DSNT ALQDS TSE00RAB0455E05 CIG 006V012 P0000=
KHQM 110506Z AUTO 17027G38KT 1 1/2SM -SN OVC012 A2968 RMK AO2 PK
     WND 16039/0456 P0001 TSNO $=
KLLQ 110506Z AUTO 23011KT 10SM BKN008 OVC015 17/16 A2972 RMK AO2
     CIG 006V011=
KMSP 110506Z 24003KT 3/4SM BR OVC004 M02/M02 A2949 RMK AO2 SFC VIS
     2 1/2 $=
KPKD 110506Z AUTO 22006KT 3SM BR BKN004 M06/M06 A2942 RMK AO2
     T10561061 TSNO=
KSDF 110506Z 31009KT 4SM -TSRA BR BKN021 BKN025 OVC050CB 12/10
     A2972 RMK AO2 WSHFT 0450 TSB0458 OCNL LTGIC OHD TS OHD MOV E
     P0006=
PAMB 110506Z AUTO 05010KT 4SM BR OVC010 M06/M06 A2935 RMK AO2 TSNO
     UPE05 P0000 $=
KAHN 110507Z AUTO 00000KT 2SM -RA BR OVC003 08/07 A3004 RMK AO2
     P0000=
KANB 110507Z AUTO 05007KT 2SM +RA BR OVC012 11/10 A2994 RMK AO2
     LTG DSNT NE RAB0454 P0019 T01110100=
KBRD 110507Z AUTO 22004KT 1 1/4SM HZ OVC002 09/M03 A2945 RMK
     AO2=
KCEC 110507Z AUTO 15012KT 5SM BR OVC014 11/09 A3014 RMK AO2
     T01060094=
KCEU 110507Z AUTO 04003KT 1 1/4SM VCTS +RA BR BKN005 OVC013 09/07
     A3005 RMK AO2 TSB0459 P0011 $=
KDAN 110507Z AUTO 00000KT 2SM BR OVC004 04/03 A3011 RMK AO2=
KRME 110507Z AUTO 10009KT 9SM BKN017 BKN050 OVC070 01/M02 A3011
     RMK AO2 T00111017=
KSHN 110507Z AUTO 00000KT 4SM RA BR FEW007 OVC019 07/06 A2968 RMK
     AO2 P0003 T00670061 TSNO=
KTYR 110507Z 29008KT 10SM -RA BKN008 BKN016 OVC070 17/16 A2983 RMK
     AO2 LTG DSNT NE P0002=

0000011000
496
SPUS31 KWBC 110510
SPECI
KBWI 110506Z 00000KT 1/4SM R10/1600V2200FT FG VV002 03/02 A3013=

0000009700
497
SPUS31 KWBC 110510
SPECI
KMSP 110506Z 24003KT 3/4SM BR OVC004 M02/M02 A2949=

0000012400
498
SPUS41 KWBC 110510
SPECI
KPVD 110506Z 00000KT 1/2SM R05/2800V3500FT -RA FG BKN007 OVC015
02/01 A3027=

0000010700
499
SPUS42 KWBC 110510
SPECI
KMGM 110506Z AUTO 12008KT 3SM VCTS -RA BR OVC003 13/12 A2994=

0000011700
500
SPUS43 KWBC 110510
SPECI
KSDF 110506Z 31009KT 4SM -TSRA BR BKN021 BKN025 OVC050CB 12/10
A2972=

0000010000
501
SPUS44 KWBC 110510
SPECI
KHQM 110506Z AUTO 17027G38KT 1 1/2SM -SN OVC012 A2968=

0000010500
502
SPUS41 KWBC 110511
SPECI
KDOV 110508Z AUTO 10006KT 2SM BR BKN070 BKN095 05/05 A3012=

0000055200
503
SAAG31 KWBC 110500
METAR
SAAG NIL=
SAAP NIL=
SAAR NIL=
SABE 110500Z 20020G33KT CAVOK 22/13 Q1010=
SACO 110500Z 16009KT 9999 SCT018 BKN100 23/17 Q1015=
SADD NIL=
SAEZ 110500Z 19015G25KT CAVOK 19/11 Q1011=
SAME 110500Z 18005KT CAVOK 26/06 Q1016=
SARC NIL=
SARE NIL=
SARF NIL=
SARI 110500Z 05006KT CAVOK 24/23 Q1011=
SARP 110500Z 09004KT CAVOK 26/21 Q1010=
SASA 110500Z 36005KT 9999 SCT020 FEW045CB BKN100 22/16 Q1012=
SASJ NIL=
SAWE NIL=
SAWG 110500Z 29008KT CAVOK 08/06 Q1012=
SAZM NIL=
SAZS NIL=

0000022900
504
SAAG41 KWBC 110500
METAR
SAAC NIL=
SAAV NIL=
SAGS NIL=
SANE NIL=
SANT NIL=
SANU NIL=
SAOR NIL=
SARL NIL=
SATM NIL=
SAVC 110500Z 00000KT CAVOK 16/04 Q1015=
SAVT NIL=
SAZB NIL=
SAZN NIL=

0000022100
505
SAJP31 KWBC 110500 RRA
METAR
RJAA 110500Z 33005KT 280V360 9999 FEW030 08/M08 Q1022 NOSIG RMK
     1CU030 A3019=
RJFK 110500Z VRB04KT 9999 FEW030 SCT040 09/M04 Q1026 RMK 1CU030
     4CU040 A3032=

0000045800
506
SAPR41 KWBC 110500
METAR
SPCL 110500Z 05003KT 9999 FEW020 BKN060 25/24 Q1011 RMK PP000=
SPEC NIL=
SPEI NIL=
SPEO NIL=
SPGM NIL=
SPHI 110500Z 17010KT CAVOK 23/21 Q1012 RMK PP000=
SPHO NIL=
SPHY NIL=
SPJA NIL=
SPJI NIL=
SPJL 110500Z NIL=
SPJN NIL=
SPJR NIL=
SPME 110500Z NIL=
SPMS NIL=
SPNC NIL=
SPPY NIL=
SPRU 110500Z 14006KT 9000 NSC 21/19 Q1012 RMK BR PP000=
SPST 110500Z NIL=
SPTU NIL=
SPUR NIL=

0000010700
507
SASA41 KWBC 110500 RRA
METAR
SKMD 110500Z NIL=
SKPE 110500Z NIL=
SKSM 110500Z NIL=

0000111000
508
FTUK31 EGGY 110500
TAF EGCC 110459Z 1106/1212 28010KT 9999 FEW035 PROB30 TEMPO
    1106/1110 7000 SHRA BKN014 BECMG 1116/1120 16004KT PROB40
    1118/1124 6000 PROB30 1200/1206 4000 BR PROB40 1206/1209 3000 BR
    BKN008 BECMG 1209/1212 14014KT BKN012=
TAF EGKK 110502Z 1106/1212 22009KT 9000 -RA BKN010 PROB30 TEMPO
    1106/1107 4000 RADZ BKN006 BECMG 1106/1109 31010KT 9999 NSW
    BECMG 1115/1118 17002KT TEMPO 1118/1121 7000 BECMG 1121/1124
    5000 BR PROB30 1200/1204 2000 TEMPO 1203/1207 9999 NSW BECMG
    1206/1209 16014KT -RADZ BKN010 TEMPO 1208/1212 4000 RADZ BKN005=
TAF EGLL 110502Z 1106/1212 30010KT 9999 FEW015 BECMG 1115/1118
    VRB04KT BECMG 1200/1203 5000 BR PROB40 TEMPO 1202/1207 2000
    BECMG 1206/1209 14010KT 9999 NSW BECMG 1209/1212 BKN010=
TAF EGSS 110500Z 1106/1212 22012KT 6000 RADZ BKN006 BECMG 1106/1108
    29010KT 9999 SCT025 PROB30 TEMPO 1108/1110 8000 SHRA BKN012
    BECMG 1116/1119 VRB03KT BECMG 1120/1123 6000 PROB30 1200/1208
    2000 BR BKN002 BECMG 1205/1208 15012KT 9999 PROB40 TEMPO
    1210/1212 8000 -RADZ BKN006=

0000067500
509
FTUK32 EGGY 110500
TAF EGGP 110459Z 1106/1206 27010KT 9999 FEW030 PROB40 TEMPO
    1106/1109 7000 SHRA BKN014 BECMG 1116/1120 17005KT PROB30
    1118/1206 8000=
TAF EGNM 110459Z 1106/1206 28010KT 9999 FEW025 PROB30 TEMPO
    1106/1109 7000 SHRA BKN012 BECMG 1118/1121 VRB04KT PROB40
    1121/1203 5000 BR BECMG 1203/1206 2000 BR BKN004 PROB40
    1203/1206 0800 FG BKN001=
TAF EGNT 110459Z 1106/1206 27010KT 9999 FEW030 PROB30 TEMPO
    1112/1116 26015G25KT BECMG 1121/1124 VRB04KT PROB30 1203/1206
    6000=
TAF EGNX 110504Z 1106/1206 30012KT 9999 SCT040 PROB30 1106/1109 5000
    BR BECMG 1116/1119 24005KT PROB30 1120/1206 4000 BR=

0000069300
510
FTUK33 EGGY 110500
TAF EGBB 110504Z 1106/1206 25010KT 9999 SCT030 PROB30 1106/1109 5000
    BR BECMG 1120/1122 15005KT PROB30 1120/1206 4000 BR=
TAF EGFF 110500Z 1106/1206 30010KT 9999 FEW040 BECMG 1113/1116
    VRB03KT BECMG 1116/1119 12010KT PROB30 1119/1202 7000=
TAF EGGD 110500Z 1106/1206 26010KT 9999 FEW040 PROB30 1106/1109 7000
    BECMG 1114/1117 VRB04KT BECMG 1117/1120 12010KT PROB40 TEMPO
    1119/1204 6000=
TAF EGGW 110500Z 1106/1206 28010KT 4000 RADZ BKN003 BECMG 1106/1108
    9999 SCT020 PROB30 TEMPO 1108/1110 7000 SHRA BKN010 BECMG
    1116/1119 VRB03KT BECMG 1121/1124 8000 PROB30 1200/1206 1200 BR
    BKN001 BECMG 1204/1206 14010KT=

0000029100
511
FTUK34 EGGY 110500
TAF EGVN 110454Z 1106/1206 25005KT 9999 FEW030 PROB30 TEMPO
    1106/1109 SCT010 BECMG 1120/1123 6000 BR PROB30 1123/1206 2500
    MIFG=
TAF EGWU 110439Z 1106/1124 30008KT 9999 BKN022 TEMPO 1106/1107 4000
    -RADZ BKN010 BECMG 1107/1109 FEW022=

0000071900
512
FTUK35 EGGY 110500
TAF EGAA 110503Z 1106/1206 24005KT 9999 FEW035 PROB40 1106/1111 0300
    FG VV/// BECMG 1118/1121 14012KT TEMPO 1120/1124 6000=
TAF EGPD 110504Z 1106/1206 23006KT 9999 FEW030 BECMG 1110/1113
    29012KT BECMG 1121/1124 VRB04KT=
TAF EGPF 110459Z 1106/1206 24006KT 9999 FEW030 PROB30 TEMPO
    1106/1109 4000 SHRASN BKN008 PROB30 TEMPO 1109/1115 6000 SHRA
    BKN012 PROB30 1115/1120 BKN014=
TAF EGPH 110504Z 1106/1206 25010KT 9999 FEW020 SCT030 PROB30 TEMPO
    1106/1108 6000 -SHRASN BKN008 BECMG 1122/1201 VRB04KT=
TAF EGPK 110459Z 1106/1206 26008KT 9999 FEW030 PROB30 TEMPO
    1106/1115 7000 SHRA BKN010 PROB30 1115/1118 BKN014 BECMG
    1203/1206 12010KT=

0000009900
513
SAAO31 GOOY 110500 RRA
METAR DIYO 110500Z 00000KT 6000 FEW008 24/23 Q1011 NOSIG=

0000006100
514
SAUK39 EGGY 110500
METAR EGUN 110500Z NIL=

00000000