0000104700
035
FTMX64 MMMX 110515
TAF MMCE 110515Z 1106/1206 36006KT P6SM SKC 
         TEMPO 1110/1114 3SM BR BKN010 
         FM111800 34010KT P6SM SCT020 
         FM120100 06005KT 6SM HZ BKN015=
TAF MMCM 110515Z 1106/1206 09006KT P6SM SCT010 BKN090 
         FM111000 12005KT 5SM HZ BKN010 BKN090 
         TEMPO 1110/1114 1SM BR BKN003 
         FM111500 12010KT P6SM SCT015 BKN100 
         FM120100 10005KT P6SM SCT100=
TAF MMCP 110515Z 1106/1206 00000KT P6SM SKC 
         TEMPO 1110/1114 3SM BR BKN010 
         FM111800 12010KT P6SM SCT015 BKN070 
         FM120100 06005KT P6SM BKN015 BKN090=
TAF MMMT 110515Z 1106/1206 00000KT P6SM OVC050 
         TEMPO 1110/1114 5SM HZ BKN015 OVC050 
         FM111600 10010KT P6SM SCT020 BKN070 
         FM120100 35010KT P6SM BKN020 BKN070=
TAF MMVA 110515Z 1106/1206 00000KT P6SM SKC 
         FM111000 12005KT 3SM BR BKN015 
         TEMPO 1110/1114 1SM BR BKN008 
         FM111600 12010KT P6SM BKN015 
         FM120000 36010KT P6SM BKN015 OVC060=

0000008800
036
SAAL41 DAMM 110500 RRC
METAR DAAJ 110500Z 31004KT CAVOK 06/M02 Q1024=

0000009300
037
SAAP32 FAPR 110500 RRB
METAR FBSK 110500Z 27004KT CAVOK 23/09 Q1016 NOSIG=

0000025400
038
SAPA31 KWBC 110500 RRA
METAR
AYPY 110500Z 26012KT 9999 FEW019CB BKN019 BKN280 31/25 Q1004 RMK:
     CB TO N? CB WT DIST SH TO E=
AYPY 110500Z 26012KT 9999 FEW019CB BKN019 BKN280 31/25 Q1004 RMK/
     CB TO N CB WT DIST SH TO E=

0000011200
039
SPUS41 KWBC 110515
SPECI
KDOV 110513Z AUTO 11005KT 5SM BR BKN070 BKN080 BKN095 05/05 A3012=

0000016300
040
FTMX42 KWBC 110515
TAF
TAF MMTC 110513Z 1106/1206 00000KT P6SM BKN200
     FM111500 35010KT P6SM BKN200
     FM120300 06005KT P6SM BKN200=

0000027700
041
FTMX31 KWBC 110515
TAF
TAF MMMY 110513Z 1106/1212 12005KT P6SM SCT200 TX25/1119Z
      TN09/1112Z
      TEMPO 1111/1114 3SM BR HZ BKN010
     FM111400 30010KT P6SM BKN200
     FM112000 30015KT P6SM BKN200
     FM120100 06005KT P6SM SCT100 OVC200=

0000027300
042
FTMX41 KWBC 110515
TAF
TAF MMCS 110513Z 1106/1206 30005KT P6SM SKC
     FM111600 13010KT P6SM SCT250
     FM120300 15005KT P6SM SKC=
TAF MMCU 110513Z 1106/1206 16005KT P6SM SKC
     FM111600 16010KT P6SM SCT250
     FM120300 15005KT P6SM SKC=

0000029900
043
FTUS52 KWBC 110515 AAA
TAF AMD
KCKV 110512Z 1105/1124 18015G25KT 5SM SHRA BR VCTS BKN015CB OVC025
     FM110600 18015G25KT 3SM SHRA BR VCTS BKN006CB OVC011
      TEMPO 1108/1110 1SM TSRA OVC005CB
     FM111200 27012G25KT P6SM OVC025
     FM111500 27012G25KT P6SM BKN050=

0000042300
044
FTUS80 KWBC 110515 AAA
TAF AMD
KCKV 110512Z 1105/1124 18015G25KT 5SM SHRA BR VCTS BKN015CB OVC025
     FM110600 18015G25KT 3SM SHRA BR VCTS BKN006CB OVC011
      TEMPO 1108/1110 1SM TSRA OVC005CB
     FM111200 27012G25KT P6SM OVC025
     FM111500 27012G25KT P6SM BKN050=
PABR 110512Z 1105/1124 30012KT 6SM BR OVC008
      TEMPO 1105/1108 1SM BR OVC004
     FM110800 28010KT 5SM BR OVC008=

0000010100
045
SPUS42 KWBC 110515
SPECI
KMOB 110511Z AUTO 18013G20KT 2SM BR OVC002 19/19 A2994=

0000029600
046
SABC40 FBSK 110500
METAR FBFT 110500Z /////KT 9999 FEW030CB SCT065 21/18 Q1016=
METAR FBKE 110500Z 03003KT CAVOK 22/19 Q1018=
METAR FBMN 110500Z 03005KT CAVOK 23/18 Q1016=
METAR FBSK 110500Z 27004KT CAVOK 23/09 Q1016 NOSIG=
METAR FBSP 110500Z 14004KT CAVOK 24/20 Q1017=

0000009500
047
SAAB31 LATI 110520
METAR LATI 110520Z 18003KT 9999 BKN057 11/08 Q1023 NOSIG=

0000019600
048
FCLV32 EVRA 110500
TAF EVLA 110512Z 1106/1115 25007KT 9999 BKN015 OVC025 TEMPO
     1106/1109 BKN010 OVC020 BECMG 1110/1112 BKN010
     OVC015 TEMPO 1112/1115 BKN007 OVC015=

0000031500
049
FTLV31 EVRA 110500
TAF EVRA 110512Z 1106/1206 28007KT 9999 BKN015 OVC020 TEMPO
     1106/1109 BKN012 OVC020 TEMPO 1112/1114 BKN012
     OVC020 BECMG 1114/1115 22007KT BKN010 OVC015 TEMPO
     1115/1118 5000 -RASN BKN005 OVC015 BECMG 1118/1120
     BKN005 OVC010 TEMPO 1120/1206 3000 RASN=

0000027200
050
FTTG31 DXXX 110511
TAF
DXXX 110500Z 1106/1212 26005KT 8000 SCT012 TEMPO 1106/1108
2000 BR BECMG 1109/1112 19010KT PROB30 TEMPO 1115/1119 TS FEW015
FEW020CB TEMPO 1200/1209 VRB03KT=
DXNG 110500Z 1106/1206 07010KT 8000 NSC BECMG 1116/1118 VRB04KT=

0000116300
051
FTMX55 MMMX 110513
TAF MMAN 110513Z 1106/1206 12005KT P6SM SKC 
         TEMPO 1110/1114 2SM BR BKN010 
         FM111500 36010KT P6SM SCT200 
         FM112000 36015KT P6SM BKN200 
         FM120300 36008KT P6SM BKN200=
TAF MMCS 110513Z 1106/1206 30005KT P6SM SKC 
         FM111600 13010KT P6SM SCT250 
         FM120300 15005KT P6SM SKC=
TAF MMCU 110513Z 1106/1206 16005KT P6SM SKC 
         FM111600 16010KT P6SM SCT250 
         FM120300 15005KT P6SM SKC=
TAF MMMY 110513Z 1106/1212 12005KT P6SM SCT200 TX25/1119Z TN09/1112Z 
         TEMPO 1111/1114 3SM BR HZ BKN010 
         FM111400 30010KT P6SM BKN200 
         FM112000 30015KT P6SM BKN200 
         FM120100 06005KT P6SM SCT100 OVC200=
TAF MMTC 110513Z 1106/1206 00000KT P6SM BKN200 
         FM111500 35010KT P6SM BKN200 
         FM120300 06005KT P6SM BKN200=
TAF MMIO 110513Z 1106/1206 35005KT P6SM BKN200 
         FM111500 36012KT P6SM BKN200 
         FM120200 36008KT P6SM SCT100 BKN200=
TAF MMMV 110513Z 1106/1206 30005KT P6SM SCT080 BKN200 
         FM111400 36010KT P6SM BKN200 
         FM120300 03005KT P6SM SCT100 OVC200=

0000021700
052
FTMV31 VRMM 110500
TAF VRMM 110500Z 1106/1212 07014KT 9999 FEW018 SCT280 TEMPO 1106/1112
FEW019CB=
TAF VRMG 110500Z 1106/1212 02006KT 9999 FEW018 BKN270 TEMPO
1106/1112 SCT017 FEW018CB SCT120=

0000008900
053
SPCN42 CWAO 110512
SPECI CYQD 110512Z 19002KT 15SM -SN OVC012 RMK ST8=

0000119400
054
FTSR33 WSSS 110500
TAF WBSB 110450Z 1106/1212 34010KT 9999 SCT016 FEW017CB
TEMPO 1108/1112 5000 TSRA SHRA
BECMG 1110/1112 20003KT SCT015 FEW016CB
TEMPO 1118/1122 4000 TSRA
BECMG 1202/1204 02012KT=
TAF WBGG 110500Z 1106/1206 12005KT 9999 SCT020 SCT150 BKN300
TEMPO 1106/1110 3000 TSRA FEW015CB SCT016 BKN150=
TAF WBKK 110500Z 1106/1206 31005KT 9999 FEW015 FEW017CB SCT140 BKN280
TEMPO 1106/1109 3500 SHRA FEW013 FEW015CB SCT030
BECMG 1109/1111 12005KT=
TAF WBGB 110500Z 1106/1206 10005KT 9999 SCT014 SCT150 BKN300
TEMPO 1109/1113 4000 TSRA FEW015CB BKN150=
TAF WBGR 110500Z 1106/1206 18005KT 9999 SCT014 SCT150 BKN300
TEMPO 1106/1110 3000 TSRA FEW015CB BKN150=
TAF WBGS 110500Z 1106/1206 11005KT 9999 SCT018 SCT150 BKN300
TEMPO 1108/1112 4000 TSRA FEW015CB SCT016 BKN150=
TAF WBKL 110500Z 1106/1206 02007KT 9999 FEW012 SCT140 BKN290
PROB40 TEMPO 1114/1117 3000 RA SCT010 SCT030 BKN140=
TAF WBKS 110500Z 1106/1206 07011KT 9999 FEW014 FEW016CB SCT140 BKN280
TEMPO 1106/1111 06005G20KT 4000 RA FEW013 FEW013CB SCT030=
TAF WBKW 110500Z 1106/1206 35005KT 9999 FEW015 FEW016CB SCT140 BKN280
TEMPO 1106/1110 4000 TSRA FEW012 FEW015CB SCT040=

00000000