0000168900
135
SAUS72 KWBC 110500
METAR
KABI 110452Z 00000KT 10SM CLR 07/M03 A2986=
KABQ 110452Z 33011KT 10SM FEW070 07/M11 A3011=
KABY 110453Z 16005KT 1/4SM FG VV002 18/18 A3003=
KACT 110451Z 32004KT 10SM CLR 13/12 A2983=
KAEX 110453Z 22008G15KT 10SM OVC013 18/18 A2980=
KAFW 110453Z 00000KT 10SM BKN060 06/02 A2982=
KAHN 110451Z AUTO 10003KT 3SM -RA BR OVC003 08/07 A3004=
KALI 110453Z AUTO 27004KT 10SM CLR 14/12 A2989=
KAMA 110453Z 35005KT 10SM CLR 02/M13 A2991=
KANB 110453Z AUTO 05008KT 7SM OVC012 12/10 A2994=
KAPF 110453Z 09003KT 10SM CLR 21/21 A3009=
KATL 110452Z 13003KT 1/4SM -DZ BR OVC003 08/08 A3002=
KAUS 110453Z 23007KT 10SM FEW150 16/13 A2985=
KBFM 110453Z AUTO 18006KT 3/4SM BR VV002 17/17 A2996=
KBHM 110453Z 15005KT 5SM -RA BR OVC003 13/12 A2993=
KBNA 110453Z 18016KT 10SM FEW014 BKN065 BKN080 14/11 A2976=
KBPT 110453Z AUTO 22007KT 1 1/4SM R12/5000VP6000FT BR OVC002 19/18
     A2986=
KBQK 110455Z AUTO 18004KT 2SM OVC003 18/18 A3009=
KBRO 110453Z 20004KT 1/2SM FG VV003 18/17 A2992=
KBTR 110453Z 18011G17KT 5SM -RA BR OVC006 19/19 A2986=
KCEW 110453Z AUTO 17006KT 5SM BR OVC003 19/19 A3000=
KCHA 110453Z 18004KT 1 3/4SM BR BKN004 OVC007 10/09 A2995=
KCLL 110453Z AUTO 20006KT 7SM CLR 16/15 A2984=
KCNM 110453Z AUTO 26024G30KT 10SM CLR 14/M09 A2993=
KCRP 110451Z 18007KT 10SM BKN250 14/13 A2990=
KCSG 110451Z AUTO 00000KT 1/2SM FG VV002 12/12 A3000=
KCSV 110453Z AUTO 17008KT 6SM -RA BR OVC004 11/09 A2989=
KDAB 110453Z 16004KT 8SM FEW075 SCT250 19/18 A3010=
KDAL 110453Z 00000KT 10SM CLR 10/04 A2982=
KDFW 110453Z 00000KT 10SM FEW060 09/03 A2981=
KDHN 110453Z AUTO 15004KT 1/4SM FG VV002 16/16 A3003=

0000168800
136
SAUS72 KWBC 110500 RRA
METAR
KDLF 110458Z AUTO 04005KT 10SM CLR 09/08 A2990=
KDMN 110453Z AUTO 28015KT 10SM CLR 08/M08 A3009=
KELP 110451Z 29012G23KT 10SM CLR 13/M08 A3004=
KESF 110453Z AUTO 25009KT 8SM -RA FEW006 BKN020 OVC025 19/18
     A2981=
KEYW 110453Z AUTO 11004KT 10SM CLR 24/22 A3008=
KFLL 110453Z 13007KT 10SM SCT015 SCT190 23/23 A3010=
KFSM 110453Z 00000KT 10SM CLR 04/02 A2975=
KFTW 110453Z 01004KT 10SM CLR 10/02 A2981=
KFTY 110453Z 03003KT 4SM BR OVC005 09/08 A3000=
KGGG 110453Z AUTO 22007KT 9SM CLR 17/16 A2977=
KGLS 110452Z AUTO 25004KT 1/4SM FG VV002 16/16 A2988=
KGNV 110453Z AUTO 00000KT 1/4SM FG FEW002 BKN018 OVC045 19/19
     A3009=
KGPT 110453Z AUTO 16005KT 1/4SM FG VV002 16/16 A2993=
KGUP 110453Z AUTO 26005KT 10SM CLR M01/M09 A3018=
KGWO 110453Z AUTO 19015KT 10SM OVC014 17/15 A2975=
KHOT 110453Z AUTO VRB04KT 10SM SCT080 OVC100 12/09 A2974=
KHOU 110453Z 23008KT 10SM OVC012 21/18 A2985=
KHRL 110452Z 21007KT 7SM CLR 18/18 A2991=
KHRO 110453Z AUTO 28004KT 10SM CLR 06/02 A2969=
KHSV 110453Z 15010KT 8SM -RA BKN007 OVC011 12/11 A2985=
KIAH 110453Z 23010G18KT 10SM FEW010 BKN013 21/18 A2986=
KINK 110453Z AUTO 26009KT 10SM CLR 13/M08 A2991=
KJAN 110454Z 18016G25KT 10SM OVC009 18/17 A2980=
KJAX 110456Z 00000KT 7SM FEW060 16/16 A3008=
KJBR 110453Z AUTO 24009KT 9SM -RA SCT014 BKN028 OVC080 10/09
     A2966=
KLBB 110453Z 27003KT 10SM CLR 02/M08 A2990=
KLCH 110453Z AUTO 20016G26KT 2 1/2SM +RA BR OVC003 18/18 A2985=
KLFT 110453Z AUTO 19013G21KT 7SM -RA OVC006 19/19 A2987=
KLIT 110453Z 25007KT 7SM -RA SCT011 BKN023 OVC055 14/12 A2971=
KLRD 110456Z 00000KT 10SM CLR 16/12 A2994=

0000171200
137
SAUS72 KWBC 110500 RRB
METAR
KLRU 110455Z AUTO 29008KT 10SM CLR 07/M09 A3008=
KMAF 110453Z 26009KT 10SM CLR 09/M07 A2991=
KMCN 110453Z AUTO 00000KT 1/4SM FG VV002 11/11 A3004=
KMCO 110453Z 13004KT 10SM SCT041 BKN150 22/19 A3011=
KMEI 110458Z AUTO 17011KT 2SM BR OVC002 16/16 A2986=
KMEM 110454Z COR 20011KT 5SM RA BR SCT006 SCT013 OVC055 14/12
     A2969=
KMEM 110454Z 20011KT 5SM RA BR SCT006 SCT013 OVC055 14/12
     A2969=
KMFE 110453Z 14004KT 4SM BR CLR 17/16 A2992=
KMGM 110453Z 00000KT 2SM +TSRA BR OVC003 12/12 A2996=
KMIA 110453Z 11005KT 10SM SCT026 BKN090 24/23 A3010=
KMKL NIL=
KMLB 110453Z AUTO 14003KT 7SM SCT018 21/21 A3011=
KMLC 110453Z AUTO 22003KT 10SM FEW080 02/01 A2978=
KMLU 110453Z AUTO 22007KT 10SM -RA SCT011 BKN017 OVC024 17/17
     A2978=
KMOB 110456Z 18009KT 1/2SM FG VV002 18/18 A2995=
KMSL 110453Z AUTO 16012KT 9SM OVC007 14/11 A2980=
KMSY 110453Z 18012KT 1/2SM FG VV002 19/19 A2991=
KNEW 110453Z AUTO 17010KT 1/2SM FG VV003 18/18 A2992=
KNGP 110456Z AUTO 20004KT 6SM BR CLR 17/16 A2989=
KOKC 110452Z 30009KT 10SM FEW250 07/M06 A2980=
KPBI 110453Z 14007KT 10SM FEW022 SCT250 24/22 A3009=
KPDK 110453Z AUTO 05003KT 2SM BR OVC002 08/07 A3001=
KPFN NIL=
KPIE 110453Z 10003KT 10SM BKN050 19/18 A3008=
KPNS 110453Z AUTO 18010KT 5SM BR OVC003 19/19 A2997=
KROW 110451Z AUTO 34011KT 10SM CLR 11/M11 A2996=
KRSW 110453Z 13003KT 10SM CLR 21/20 A3010=
KSAT 110451Z 26008KT 10SM FEW170 SCT250 16/13 A2988=
KSFB 110453Z AUTO 15003KT 9SM BKN070 19/19 A3011=
KSHV 110456Z 22007KT 10SM SCT013 BKN023 OVC036 18/17 A2977=
KSJT 110451Z AUTO 26006KT 10SM CLR 08/M05 A2986=
KSRQ 110453Z 00000KT 10SM CLR 20/18 A3007=

0000118800
138
SAUS72 KWBC 110500 RRC
METAR
KSSI 110453Z AUTO 19007KT 1/2SM FG VV002 16/16 A3008=
KTCC 110453Z AUTO 31011KT 10SM CLR 04/M12 A2993=
KTCL 110453Z AUTO 13005KT 2 1/2SM BR OVC003 13/13 A2988=
KTCS 110453Z AUTO 35004KT 10SM CLR 09/M11 A3008=
KTLH 110453Z AUTO 16003KT 1/2SM FG VV002 18/17 A3005=
KTPA 110453Z 00000KT 10SM FEW043 SCT055 SCT200 21/19 A3009=
KTRI 110453Z 00000KT 10SM -RA BKN055 BKN070 OVC110 10/08 A2996=
KTUL 110453Z 27010KT 10SM CLR 04/M02 A2972=
KTUP 110453Z AUTO 20013G21KT 8SM OVC005 13/ A2977=
KTXK 110453Z AUTO 27008KT 10SM SCT060 OVC070 14/11 A2977=
KTYR 110453Z 29014G19KT 4SM RA BR SCT006 SCT021 BKN065 16/16
     A2982=
KTYS 110453Z 00000KT 1 1/2SM BR OVC002 08/07 A2994=
KVCT 110451Z AUTO 20005KT 1/4SM FG VV001 18/17 A2988=
KVLD 110453Z AUTO 16005KT 1/4SM FG VV001 20/18 A3007=
KVRB 110453Z 13004KT 10SM FEW018 21/21 A3011=
TIST 110453Z 13005KT 10SM FEW085 24/22 A3008=
TISX 110453Z AUTO 05006KT 10SM FEW036 SCT060 23/19 A3008=
TJBQ 110450Z 11005KT 10SM SCT010 24/ A3011=
TJMZ NIL=
TJPS 110450Z 09005KT 10SM SKC 22/17 A3009=
TJSJ 110456Z 00000KT 10SM SCT036 SCT060 24/19 A3009=
TKPK NIL=
TNCM NIL=

0000006100
139
SAVN27 SVBM 110500
METAR SVBM 110500Z NIL=

0000168100
140
SAUS73 KWBC 110500
METAR
KABR 110453Z AUTO 00000KT 10SM CLR M11/M13 A2953=
KALN 110455Z AUTO 15009KT 4SM BR 05/05 A2956=
KALO 110454Z 29004KT 7SM OVC005 00/M01 A2951=
KAPN 110454Z AUTO 15010KT 5SM -RA BR OVC004 01/01 A2960=
KASE 110453Z 24003KT 10SM OVC043 M06/M07 A3005=
KATY 110453Z AUTO 27008KT 10SM CLR M07/M08 A2950=
KAXN 110453Z AUTO 25004KT 1/4SM FZFG VV001 M05/M06 A2947=
KAZO 110453Z AUTO 17009G17KT 10SM -RA OVC006 05/04 A2959=
KBDE 110453Z AUTO 22005KT 5SM BR OVC008 M03/M04 A2940=
KBFF 110453Z AUTO 28010KT 10SM OVC100 01/M07 A2977=
KBIS 110452Z 30008KT 10SM BKN110 M04/M07 A2957=
KBJC NIL=
KBKF 110455Z 18006KT 25SM FEW100 BKN200 M03/M09 A2984=
KBRL 110453Z AUTO 25005KT 6SM HZ OVC004 11/03 A2951=
KBTL 110453Z 18017G22KT 10SM -RA BKN007 OVC011 05/04 A2959=
KCGI 110453Z AUTO 16018G25KT 8SM -RA SCT016 OVC080 08/07 A2961=
KCID 110452Z 28008KT 1/2SM FG VV002 01/00 A2949=
KCIU 110455Z AUTO 10009KT 3SM OVC003 00/00 A2955=
KCMI 110453Z 20007KT 1/2SM R32R/2200V4000FT FG VV002 04/04
     A2959=
KCMX 110453Z AUTO 00000KT 1SM -SN BR BKN002 OVC018 M03/M04
     A2947=
KCOS 110454Z 34007KT 10SM FEW150 SCT170 M05/M11 A2985=
KCOU 110454Z AUTO 29008KT 8SM SCT010 SCT014 OVC020 05/04 A2958=
KCPR 110453Z AUTO 26014KT 10SM CLR M04/M09 A2983=
KCYS 110453Z AUTO 31020G33KT 10SM CLR M01/M08 A2979=
KDDC 110452Z AUTO 27007KT 10SM CLR M03/M05 A2979=
KDEC 110454Z AUTO 21011KT 3SM -RA BR OVC003 05/04 A2959=
KDEN 110453Z 24007KT 10SM FEW090 SCT120 BKN200 M02/M09 A2983=
KDET 110453Z 17005KT 4SM -RA BR OVC003 04/03 A2971=
KDLH 110455Z 22005KT 1/2SM R09/2200V2400FT -FZDZ FZFG VV002
     M03/M04 A2944=

0000170000
141
SAUS73 KWBC 110500 RRA
METAR
KDSM 110454Z 28007KT 5SM BR BKN005 OVC018 01/M01 A2956=
KDTW 110453Z 13005KT 3/4SM RA BR BKN002 OVC007 03/03 A2970=
KEAU NIL=
KEGE 110450Z 24011KT 10SM VCSH OVC060 M02/M06 A3006=
KELO 110452Z AUTO 22003KT 7SM OVC005 M04/M05 A2943=
KEVV 110454Z AUTO 14011KT 4SM -RA BR OVC070 09/08 A2967=
KFAR 110453Z AUTO 26009KT 10SM BKN020 M04/M08 A2947=
KFNT 110453Z AUTO 16013KT 7SM -RA SCT009 BKN014 OVC060 04/02
     A2964=
KFSD 110456Z 25003KT 7SM CLR M08/M08 A2956=
KFWA 110454Z 17011KT 2SM -RA BR OVC002 04/03 A2965=
KGCK 110454Z AUTO 29009KT 10SM CLR M02/M06 A2980=
KGFK NIL=
KGJT 110453Z 00000KT 10SM SCT075 M08/M11 A3013=
KGRB 110453Z 21004KT 5SM -RA BR OVC007 02/01 A2945=
KGRI 110453Z AUTO 27008KT 10SM CLR M02/M05 A2967=
KGRR 110453Z 19012G17KT 9SM -RA OVC008 06/04 A2957=
KGYY 110455Z AUTO 18009G18KT 160V230 10SM OVC007 07/05 A2955=
KHIB NIL=
KHON 110455Z AUTO 26009KT 10SM CLR M04/M08 A2956=
KHUF 110453Z 17010KT 7SM OVC006 06/ A2962=
KHUT 110452Z 32006KT 9SM CLR 01/00 A2971=
KICT 110453Z 29007KT 10SM FEW100 BKN250 02/01 A2972=
KIKK 110455Z AUTO 17012G16KT 5SM BR OVC004 04/04 A2956=
KIND 110454Z 16010KT 3SM -RA BR FEW008 BKN016 OVC031 04/04
     A2964=
KINL 110455Z AUTO 19003KT 2 1/2SM BR OVC003 M04/M04 A2941=
KIRK 110455Z AUTO 28008KT 6SM BR OVC004 02/01 A2955=
KJAC 110455Z AUTO 18006KT 10SM OVC033 M01/M04 A2997=
KJLN 110453Z AUTO 00000KT 7SM CLR 01/01 A2968=
KJMS 110456Z AUTO 29014KT 10SM BKN012 OVC019 M03/M06 A2949=
KJXN 110456Z 17011KT 9SM -RA OVC005 04/03 A2962=
KLAN 110453Z 15012KT 9SM -RA OVC008 04/03 A2960=
KLAR 110453Z AUTO 28016G24KT 10SM FEW070 M05/M10 A2983=

0000166300
142
SAUS73 KWBC 110500 RRB
METAR
KLBF 110453Z AUTO 32004KT 10SM CLR M08/M09 A2971=
KLBL 110455Z AUTO 29012KT 10SM CLR M01/M09 A2985=
KLEX 110454Z 19018G23KT 10SM CLR 13/09 A2976=
KLNK 110454Z 26003KT 4SM BR CLR M04/M06 A2964=
KLOU 110453Z AUTO 26008KT 10SM BKN021 OVC050 12/09 A2973=
KLOZ 110453Z AUTO 18007KT 10SM OVC018 13/10 A2986=
KLSE 110453Z AUTO 32006KT 3SM BR BKN007 OVC012 M01/M02 A2947=
KMBS 110453Z 17016KT 7SM -RA BKN007 BKN034 OVC055 04/03 A2960=
KMCI 110453Z 28004KT 10SM OVC007 02/00 A2962=
KMDW 110451Z 19011G19KT 5SM -RA BR OVC006 05/05 A2953=
KMHK 110452Z AUTO 24006KT 4SM BR OVC090 01/01 A2967=
KMKC 110454Z 27006KT 10SM OVC014 03/01 A2963=
KMKE 110452Z 20010KT 10SM -RA FEW006 BKN024 OVC042 03/03 A2948=
KMKG 110455Z AUTO 19016G23KT 10SM -RA OVC007 06/04 A2954=
KMLI 110452Z AUTO 24006KT 7SM BKN004 OVC009 03/02 A2950=
KMOT NIL=
KMSN 110453Z 20005KT 1 3/4SM -DZ BR OVC003 02/02 A2947=
KMSP 110453Z 00000KT 3SM BR OVC004 M02/M02 A2949=
KOFF 110458Z 23005KT 1 3/4SM R30/3000FT BR CLR M06/M06 A2960=
KOMA 110452Z 28003KT 4SM BR CLR M02/M03 A2961=
KORD 110451Z 20013KT 9SM -RA OVC006 04/02 A2951=
KOSH 110453Z 21005KT 3SM BR OVC003 02/01 A2945=
KOTM 110453Z AUTO 29009KT 10SM OVC006 01/00 A2953=
KOWB 110456Z AUTO 18010KT 3SM VCTSRA BR FEW017 SCT025 OVC035 08/08
     A2973=
KPAH 110453Z 16012KT 10SM -RA OVC080 09/08 A2966=
KPIA 110454Z 18009KT 1SM R13/5000FT -RA FG OVC002 04/03 A2952=
KPIR 110453Z AUTO 29011KT 10SM BKN110 00/M04 A2958=
KPLN 110454Z AUTO 12004KT 5SM -FZRA BR SCT005 BKN008 OVC021 01/M01
     A2954=
KPTK 110453Z 14008KT 3SM -RA BR OVC002 03/02 A2967=

0000131800
143
SAUS73 KWBC 110500 RRC
METAR
KPUB 110453Z AUTO 00000KT 10SM CLR M02/M13 A2987=
KRAP 110452Z 33009KT 10SM SCT040 BKN050 BKN070 02/M03 A2966=
KRFD 110454Z 17008KT 2SM -RA BR OVC002 02/02 A2951=
KRKS 110454Z AUTO 25026G34KT 10SM BKN032 M02/M07 A3000=
KRST 110450Z AUTO 29004KT 2SM -SN BR SCT008 BKN014 OVC022 M02/M03
     A2948=
KSAW 110456Z AUTO 09004KT 2SM -SN OVC008 M01/M01 A2946=
KSBN 110454Z 20015G21KT 10SM OVC008 06/04 A2959=
KSDF 110456Z 29016KT 9SM -RA BKN021 BKN025 OVC050 12/09 A2975=
KSDM 110453Z AUTO 14006KT 6SM HZ CLR 13/07 A3010=
KSGF 110452Z 27006KT 10SM CLR 03/01 A2966=
KSLN 110453Z AUTO 28010KT 10SM SCT100 02/01 A2969=
KSPI 110452Z AUTO 19012KT 10SM OVC006 06/06 A2954=
KSTC 110453Z 19004KT 1 1/4SM BR OVC002 M03/M03 A2947=
KSTJ 110453Z AUTO 25003KT 7SM OVC007 01/00 A2963=
KSTL 110451Z 17008KT 8SM -RA FEW008 SCT075 BKN120 BKN200 08/06
     A2956=
KSTP 110453Z AUTO 00000KT 2 1/2SM BR OVC006 M02/M02 A2951=
KSUS 110454Z AUTO 17007KT 10SM BKN031 OVC048 08/07 A2955=
KSUX 110452Z 32005KT 6SM BR CLR M06/M06 A2959=
KTVC 110453Z 28007KT 6SM -RA BR SCT008 OVC018 03/01 A2950=
KUIN 110454Z AUTO 27006KT 1/2SM -RA FG VV003 05/04 A2953=
KWRL 110453Z AUTO 20008KT 10SM CLR M09/M12 A2983=
KYIP 110453Z AUTO 15007KT 3SM BR OVC004 04/02 A2969=

0000253700
144
SPUS70 KWBC 110506
SPECI
KASD 110502Z AUTO 18009KT 3SM BR OVC002 19/18 A2990 RMK AO2
     T01890183 TSNO=
KBVY 110502Z AUTO 00000KT 1/4SM FG VV002 02/01 A3027 RMK AO2
     T00170011=
KCMI 110502Z AUTO 21007KT 1/4SM R32R/1800V2200FT FG VV002 04/04
     A2959 RMK AO2=
KDMO 110502Z AUTO 26009KT 6SM BR BKN009 OVC017 04/03 A2962 RMK AO2
     CIG 007V012 T00440028=
KFLO 110502Z 00000KT 1/4SM FG SCT007 OVC044 14/13 A3008 RMK
     AO2=
KGEZ 110502Z AUTO 19010KT 3/4SM -RA BR BKN005 OVC013 07/06 A2969
     RMK AO2 P0001 T00720061=
KHGR 110502Z AUTO 32003KT 1/2SM -RA FG OVC003 01/01 A3010 RMK AO2
     RAB0459 P0000 T00060006=
KIJD 110502Z AUTO 00000KT 1/2SM UP FG VV005 01/M01 A3026 RMK AO2
     RAB0456E02UPB02FZRAE0456 P0000 I1000 T00061006 $=
KJFK 110502Z 00000KT 1/2SM R04R/1600FT -RA BR OVC003 03/02 A3022
     RMK AO2 SFC VIS 1 P0000 $=
KLCH 110502Z AUTO 21013G26KT 1SM +RA BR BKN003 OVC013 18/18 A2984
     RMK AO2 P0028 T01830178=
KORE 110502Z AUTO 00000KT 1SM BR OVC003 M01/M01 A3023 RMK AO2
     T10061011=
KPUW 110502Z AUTO 15007KT 5SM -RA BR BKN022 BKN029 OVC036 03/02
     A2994 RMK AO2 P0000=
KRDU 110502Z 29004KT 1/4SM -RA BR BKN002 BKN007 BKN095 07/06 A3009
     RMK AO2 SFC VIS 4 P0000=
KSNS 110502Z AUTO 00000KT 2 1/2SM BR OVC003 11/10 A3020 RMK AO2
     VIS 2V3 TSNO $=
KYIP 110502Z AUTO 13007KT 2 1/2SM BR OVC004 04/02 A2967 RMK AO2
     PRESFR P0001 TSNO=
PABA 110501Z AUTO 28029G35KT 1/4SM +SN FZFG OVC004 M24/M27 A2979
     RMK AO2 PK WND 28035/0501 CIG 002V007 P0000 FZRANO=
PAJZ 110507Z AUTO 01003KT 2SM BR OVC002 M09/M09 A2946 RMK AO2
     PWINO TSNO $=
KEQY 110503Z AUTO 04005KT 1 1/4SM -RA BR OVC002 07/06 A3006 RMK
     AO2 RAB0454 P0001=
KESF 110503Z AUTO 24010KT 8SM -RA BKN014 BKN019 OVC025 19/18 A2981
     RMK AO2 LTG DSNT NE-S P0000=
KFIG 110503Z AUTO 02005KT 2 1/2SM BR OVC004 00/00 A3001 RMK AO2
     T00000000=
KGMU 110503Z AUTO 07007KT 2 1/2SM -RA BR OVC004 08/07 A3005 RMK
     AO2 LTG DSNT SW RAB01 P0001=
KM19 110503Z AUTO 20008KT 10SM -RA SCT011 BKN085 OVC110 09/09
     A2969 RMK AO2 P0000=
KOWB 110503Z AUTO 18010KT 2SM -VCTSRA BR FEW021 BKN035 OVC050
     08/08 A2972 RMK AO2 LTG DSNT NE AND E P0001=
KPAE 110503Z AUTO 16016G21KT 10SM SCT021 BKN032 OVC038 08/05 A2970
     RMK AO2 RAE03 P0000=
KUIN 110503Z AUTO 29007KT 2SM -RA BR BKN003 OVC013 04/04 A2953 RMK
     AO2 P0000 T00440039=
KVPZ 110503Z AUTO 19009KT 1 3/4SM BR OVC002 03/03 A2957 RMK AO2
     T00330033 TSNO=

0000170300
145
SAUS74 KWBC 110500
METAR
KACV 110453Z AUTO 00000KT 1 3/4SM BR BKN050 07/06 A3017=
KALW 110453Z AUTO 16015KT 10SM OVC060 10/03 A2992=
KBFI 110453Z 14008KT 10SM -RA OVC031 09/06 A2972=
KBFL 110454Z 06005KT 9SM CLR 09/03 A3021=
KBIL 110453Z 30013KT 10SM SCT085 SCT160 BKN200 03/M06 A2978=
KBKE 110453Z AUTO 00000KT 10SM BKN016 BKN025 OVC055 02/M01
     A3004=
KBLI 110453Z 13021G29KT 8SM -RA OVC027 08/04 A2963=
KBOI 110453Z 13003KT 10SM SCT050 OVC065 04/00 A3010=
KBTM 110453Z AUTO 24006KT 10SM BKN050 BKN060 OVC120 01/M07
     A2990=
KBUR 110453Z 24005KT 9SM CLR 16/07 A3009=
KBYI 110453Z AUTO 23010KT 10SM FEW042 FEW050 BKN090 02/M02
     A3011=
KBZN 110456Z 29008KT 10SM BKN070 OVC100 02/M07 A2990=
KCDC 110453Z AUTO 17003KT 10SM CLR 01/M04 A3019=
KCEC 110456Z AUTO 15012KT 6SM BR OVC017 11/09 A3014=
KCLM 110453Z AUTO 12006KT 4SM RA BR OVC060 06/05 A2954=
KCTB 110456Z AUTO 27011KT 10SM CLR 02/M04 A2970=
KCXL NIL=
KEKO 110456Z AUTO 27005KT 10SM CLR 00/M03 A3019=
KEUG 110454Z 17009KT 10SM OVC039 11/06 A2997=
KFAT 110453Z 00000KT 4SM HZ SCT200 09/05 A3023=
KFLG 110457Z AUTO VRB04KT 10SM CLR 04/M07 A3023=
KGCN 110454Z AUTO 06003KT 10SM CLR M07/M11 A3025=
KGEG 110453Z 20016KT 10SM BKN060 OVC070 04/01 A2985=
KGGW 110453Z AUTO 32007KT 10SM FEW110 M07/M09 A2966=
KGTF 110453Z 23012KT 10SM FEW100 02/M04 A2977=
KHLN 110453Z AUTO 30009G15KT 10SM OVC060 04/M05 A2986=
KHQM 110453Z AUTO 16029G40KT 2 1/2SM -SN OVC011 A2969=
KIDA 110453Z AUTO 20017KT 10SM OVC080 01/M02 A3006=
KIWA 110455Z AUTO 13004KT 10SM CLR 06/M01 A3016=
KIWA 110452Z 13003KT 20SM FEW250 07/M01 A3016=
KLAS 110456Z 22009KT 10SM FEW250 11/M02 A3013=

0000167300
146
SAUS74 KWBC 110500 RRA
METAR
KLAX 110453Z 21004KT 8SM FEW200 15/12 A3010=
KLGB 110453Z 00000KT 2 1/2SM HZ CLR 14/11 A3009=
KLMT 110453Z 00000KT 10SM FEW060 02/M01 A3013=
KLVM 110453Z AUTO 26026G33KT 10SM BKN085 OVC110 05/M08 A2981=
KMFR 110453Z 00000KT 3SM BR CLR 04/03 A3011=
KMLS 110453Z AUTO 29011KT 10SM CLR M02/M06 A2969=
KMRY 110454Z 12003KT 4SM BR BKN002 09/09 A3020=
KMSO 110453Z 07003KT 10SM BKN065 OVC110 02/M01 A2993=
KMYV 110453Z AUTO 00000KT 8SM CLR 07/04 A3021=
KNTD 110454Z 00000KT 7SM SCT220 14/12 A3008=
KOAK 110453Z 30005KT 10SM FEW200 10/08 A3022=
KOGD 110453Z 12003KT 10SM OVC060 03/M02 A3016=
KOLM 110454Z AUTO 18022G30KT 10SM -RA SCT014 BKN033 OVC080 09/08
     A2970=
KONT 110453Z 09003KT 6SM HZ FEW250 13/06 A3010=
KOTH 110455Z 19007G14KT 10SM BKN022 13/11 A3000=
KPAE 110453Z AUTO 15013G19KT 6SM -RA BKN021 BKN036 OVC043 08/04
     A2971=
KPDX 110453Z 15012G18KT 10SM OVC030 12/05 A2991=
KPHX 110451Z 10006KT 10SM CLR 12/M01 A3012=
KPIH 110453Z 22016KT 10SM SCT039 BKN090 02/M03 A3011=
KPMD 110453Z AUTO 18007KT 10SM CLR 08/M03 A3016=
KPRB 110453Z AUTO 08004KT 10SM CLR 10/02 A3020=
KPRC 110453Z 18003KT 10SM CLR 02/M07 A3021=
KPSP 110453Z 33003KT 10SM CLR 13/M04 A3014=
KRBL 110454Z AUTO 29006KT 10SM CLR 07/02 A3019=
KRDD 110453Z 00000KT 10SM CLR 07/03 A3018=
KRDM 110456Z AUTO 19016G23KT 10SM BKN075 08/M02 A2996=
KRNO 110455Z 00000KT 10SM BKN200 06/M01 A3025=
KRNT 110453Z AUTO 13005KT 9SM -RA OVC038 08/07 A2973=
KSAC 110453Z AUTO 00000KT 9SM CLR 07/05 A3022=
KSAN 110451Z 17004KT 5SM BR CLR 16/12 A3011=
KSBA 110453Z 00000KT 9SM CLR 12/09 A3007=
KSBD NIL=

0000100000
147
SAUS74 KWBC 110500 RRB
METAR
KSBP 110456Z AUTO 00000KT 10SM CLR 14/03 A3014=
KSCK 110455Z 12004KT 10SM CLR 09/04 A3021=
KSEA 110453Z 14007KT 10SM -RA OVC029 09/06 A2973=
KSFF 110453Z AUTO 21006KT 10SM SCT021 OVC065 05/01 A2988=
KSFO 110456Z 28007KT 10SM FEW200 10/07 A3022=
KSHR 110453Z AUTO 33015KT 10SM BKN070 OVC095 03/M05 A2976=
KSJC 110453Z 00000KT 10SM CLR 11/07 A3021=
KSLC 110453Z 12009KT 10SM BKN065 OVC090 05/M02 A3016=
KSMF 110453Z 00000KT 10SM CLR 07/03 A3021=
KSMX 110451Z AUTO 27004KT 10SM CLR 13/06 A3013=
KSNA 110453Z 00000KT 4SM HZ BKN250 14/11 A3009=
KSNS 110453Z AUTO 05003KT 3SM BR OVC003 11/10 A3020=
KTIW 110453Z AUTO 17009KT 10SM -RA FEW020 BKN038 OVC055 09/07
     A2971=
KTUS 110453Z 18005KT 10SM CLR 09/M05 A3017=
KTVL 110453Z AUTO 19003KT 10SM CLR M01/M04 A3029=
KTWF 110453Z AUTO 20008KT 10SM OVC046 04/M02 A3013=
KUKI 110456Z AUTO 00000KT 8SM CLR 08/03 A3020=
KYKM 110453Z 00000KT 10SM CLR 07/02 A2983=
KYUM NIL=

0000025300
148
FTCA35 KWBC 110506
TAF
MRLM 110500Z 1106/1206 24005KT 9999 FEW030 SCT120 TX31/1120Z
      TN23/1110Z
      TEMPO 1106/1114 8000 DZ SCT020 BKN110
      BECMG 1115/1117 07007KT SCT035 PROB30
      TEMPO 1121/1124 RA FEW020TCU=

0000038900
149
FTMX41 KWBC 110506
TAF
TAF MMCN 110504Z 1106/1206 00000KT P6SM SKC
     FM111900 30010KT P6SM SKC
      BECMG 1201/1202 00000KT=
TAF MMDO 110504Z 1106/1206 00000KT P6SM SCT200
     FM111900 12010KT P6SM SCT030
     FM120100 00000KT P6SM SCT200=
TAF MMGM 110504Z 1106/1206 00000KT 5SM HZ SKC
     FM111800 30010KT P6SM SKC
      BECMG 1201/1202 00000KT=

0000015600
150
FTMX42 KWBC 110506
TAF
TAF MMSD 110504Z 1106/1206 31005KT P6SM SCT120
     FM111900 32010KT P6SM SKC
      BECMG 1201/1202 00000KT=

0000017100
151
FTPA32 KWBC 110506
TAF
TAF NTAA 110500Z 1106/1212 VRB02KT 9999 FEW020
      BECMG 1120/1121 05012KT PROB30
      TEMPO 1122/1203 5000 SHRA BKN015=

0000011100
152
SPUS31 KWBC 110506
SPECI
KJFK 110502Z 00000KT 1/2SM R04R/1600FT -RA BR OVC003 03/02 A3022=

0000011300
153
SPUS31 KWBC 110506
SPECI
KRDU 110502Z 29004KT 1/4SM -RA BR BKN002 BKN007 BKN095 07/06 A3009=

0000009900
154
SPUS41 KWBC 110506
SPECI
KBVY 110502Z AUTO 00000KT 1/4SM FG VV002 02/01 A3027=

00000000