0000053800
435
SAAE33 VTBB 110500
METAR VVTS 110500Z 01005KT 290V100 4000 HZ FEW017 SCT040 31/21
      Q1012            NOSIG =
METAR VVNB 110500Z 31006KT 2400 R11R/1800N BR FEW020 BKN050 17/13
Q1022 NOSIG=
METAR VVDN 110500Z 36008KT 8000 FEW015 BKN060 23/19 Q1019 NOSIG=
METAR VVPB 110500Z 02004KT 6000 FEW013 BKN060 24/21 Q1020 NOSIG=
METAR VVCR 110500Z 04012KT 8000 FEW017 BKN060 27/20 Q1016 NOSIG=
METAR VVCT 110500Z 33006KT 9999 FEW015 28/20 Q1014 NOSIG=
METAR VVPQ 110500Z 03006KT350V070 CAVOK 31/20 Q1013 NOSIG=

0000024500
436
SAAO32 GOOY 110500
METAR GABS 110500Z 02002KT CAVOK 19/09 Q1013 NOSIG=
METAR GAGO 110500Z NIL=
METAR GAKY 110500Z NIL=
METAR GAKL 110500Z NIL=
METAR GAMB 110500Z NIL=
METAR GANR 110500Z NIL=
METAR GATB 110500Z NIL=

0000009500
437
SPCN43 CWAO 110508
SPECI CWHN 110508Z AUTO 28005KT 9SM OVC009 M11/M12 A2951=

0000021500
438
SAAO31 GOOY 110500
METAR FHAW 110500Z NIL=
METAR GGOV 110500Z NIL=
METAR DIAP 110500Z 06003KT 9999 BKN013 OVC150 25/25 Q1010 TEMPO
BKN009=
METAR DIBK 110500Z NIL=
METAR DIYO 110500Z NIL=

0000009600
439
SAAL41 DAMM 110500 RRA
METAR DAUA 110500Z 13018KT 8000 DRSA NSC 14/M05 Q1015=

0000025200
440
SAAO30 GOOY 110500
METAR GOOY 110500Z 01010KT 9999  FEW010 19/15 Q1013 NOSIG=
METAR GOGS 110500Z NIL=
METAR GOOK 110500Z NIL=
METAR GOSS 110500Z NIL=
METAR GOTK 110500Z NIL=
METAR GOTT 110500Z NIL=
METAR GOGG 110500Z NIL=

0000017800
441
SAIN31 EGGY 110500
METAR VOBL 110500Z NIL=
METAR VOCB 110500Z NIL=
METAR VOCI 110500Z 08004KT 4000 HZ NSC 28/20 Q1014 BECMG 5000 HZ=
METAR VOCL 110500Z NIL=
0000011100
442
SAMS34 WMKK 110500 RRA
METAR WBKW 110500Z 02008KT 9999 -RA FEW017 SCT027 BKN140 26/24 Q1010=

0000004100
443
SACZ41 LKPW 110500
NIL

0000052400
444
FCGR31 LGAT 110500
TAF LGAD 110500Z 1106/1115 VRB03KT 9999 SCT020=
TAF LGIO 110500Z 1106/1115 VRB03KT 7000 FEW010 SCT030 PROB40 TEMPO
1106/1109 3000 BR SCT008 PROB40 TEMPO 1106/1108 0200 FG BKN004=
TAF LGKC 110500Z 1106/1115 28015G25KT 9999 SCT012=
TAF LGKF 110500Z 1106/1115 VRB03KT 9999 SCT018 BKN080=
TAF LGKL 110500Z 1106/1115 VRB03KT 9999 FEW030 SCT080 PROB30 TEMPO
1106/1108 5000 BR SCT008=
TAF LGZA 110500Z 1106/1115 VRB03KT 9999 SCT018 BKN080 PROB30 TEMPO
1106/1108 5000 BR SCT008=

0000064500
445
FCGR32 LGAT 110500
TAF LGAL 110500Z 1106/1115 VRB03KT 8000 FEW008 SCT018 PROB40 TEMPO
1106/1112 4000 BR SCT004 BKN012 PROB30 TEMPO 1106/1108 0500 FG
BKN004=
TAF LGHI 110500Z 1106/1115 VRB03KT 9999 BKN020=
TAF LGKP 110500Z 1106/1115 30012KT 9999 SCT025=
TAF LGKV 110500Z 1106/1115 VRB03KT 9000 BKN020 PROB40 TEMPO 1106/1112
5000 BR SCT010 BKN020 PROB30 1106/1108 0400 FG BKN004=
TAF LGLM 110500Z 1106/1115 04010KT 8000 BKN016 PROB30 TEMPO 1106/1110
4000 BR SCT008 BKN016=
TAF LGMT 110500Z 1106/1115 VRB03KT 9000 BKN020=
TAF LGSM 110500Z 1106/1115 VRB03KT 8000 BKN020 PROB30 TEMPO 1106/1108
5000 BR BKN008=

0000052300
446
FCGR33 LGAT 110500
TAF LGBL 110500Z 1106/1115 28007KT 9999 FEW020=
TAF LGMK 110500Z 1106/1115 VRB05KT 9000 FEW020 PROB30 TEMPO 1108/1115
BKN020 BECMG 1110/1112 30012KT=
TAF LGPZ 110500Z 1106/1115 07006KT 9999 SCT025
TEMPO 1106/1115 BKN025=
TAF LGRX 110500Z 1106/1115 VRB03KT 9999 SCT025
TEMPO 1106/1115 BKN025=
TAF LGSK 110500Z 1106/1115 VRB03KT 9000 FEW018 PROB30 TEMPO 1108/1115
BKN020=
TAF LGSR 110500Z 1106/1115 31012KT 9999 SCT025=
TAF LGST 110500Z 1106/1115 20008KT 9999 FEW020=

0000052500
447
FTGR31 LGAT 110500
TAF LGAV 110500Z 1106/1206 VRB03KT 8000 FEW030 PROB30 TEMPO 1106/1108
4000 BR SCT010=
TAF LGEL 110500Z 1106/1206 VRB03KT 9999 FEW025 PROB30 TEMPO 1106/1108
4000 BR SCT010=
TAF LGKR 110500Z 1106/1206 VRB05KT 9999 SCT018 SCT025 PROB30 TEMPO
1106/1108 4000 BR SCT010 BKN018=
TAF LGTS 110500Z 1106/1206 VRB03KT 1000 FG OVC005 TEMPO 1106/1110
 0200 FG OVC001 BECMG 1108/1110 16006KT 5000 BR FEW008 SCT020 TEMPO 
 1118/1206 3000 BR SCT015 PROB40 TEMPO 1200/1206 0800 FG SCT008=

0000011100
448
SAMS38 WMKK 110500 RRA
METAR WBKW 110500Z 02008KT 9999 -RA FEW017 SCT027 BKN140 26/24 Q1010=

0000080600
449
SAEE31 LOWM 110500
METAR UACK 110500Z 19007MPS 9999 -SHSN DRSN BKN017CB OVC043
M09/M11 Q1019 R20/452042 NOSIG RMK QFE741/0988=
METAR UACP 110500Z 18006MPS 7000 -SN NSC M06/M08 Q1018
R23/4/3537 NOSIG RMK QFE751/1002=
METAR UAII 110500Z 15003MPS 7000 NSC M01/M08 Q1024
R28/0///70 NOSIG RMK QFE731/0974=
METAR UADD 110500Z 20005MPS 9999 NSC M02/M11 Q1023 NOSIG RMK
QFE709/0946=
METAR UASK 110500Z 00000MPS 9999 SCT070 BKN230 M06/M15 Q1034
R12/820350 NOSIG RMK QFE750/1000=
METAR UASP 110500Z 17005MPS 9999 SCT046 OVC100 M09/M14 Q1030
R21/450155 NOSIG RMK QFE761/1015=
METAR UAOO 110500Z 18006MPS 3300 BR BKN130 M05/M07 Q1022
R24/3///55 NOSIG RMK QFE754/1006=
METAR UAKD 110500Z 13007MPS 6000 DRSN BR SCT013 OVC100 M09/M11
Q1021 R2289//45 NOSIG RMK QFE732/0976=

0000013900
450
SAOS33 LOWM 110500
METAR LOAN 110500Z NIL=
METAR LOAV 110500Z NIL=
METAR LOIH 110500Z NIL=
METAR LOWZ 110500Z NIL=

0000030100
451
FTGR32 LGAT 110500
TAF LGIR 110500Z 1106/1206 18010KT 9999 FEW025 BECMG 1108/1110
29012KT=
TAF LGKO 110500Z 1106/1206 VRB03KT 9999 SCT025 PROB30 TEMPO 1106/1108
4000 BR SCT010=
TAF LGRP 110500Z 1106/1206 VRB05KT 9999 FEW018=
TAF LGSA 110500Z 1106/1206 26015KT 9999 FEW020=

0000109600
452
FTPS31 NFFN 110500
TAF NCRG 110435Z 1106/1206 05005KT 9999 -SHRA SCT020 SCT045 BECMG 
1121/1123 05012KT BECMG 1204/1206 05005KT=
TAF NFFN 110434Z 1106/1206 16008KT 9999 FEW030 BECMG 1122/1124 
17015KT BECMG 1204/1206 17005KT=
TAF NFNA 110436Z 1106/1206 19005KT 9999 BKN020 BECMG 1121/1123 
16012KT BECMG 1205/1207 16005KT=
TAF NFTF 110435Z 1106/1206 13012KT 9999 -SHRA SCT015 BKN100 TEMPO 
1106/1112 14015G25KT 4000 TSRA BKN008 FEW018CB TEMPO 
1112/112418025G35KT=
TAF NGTA 110436Z 1106/1206 06015KT 9999 -SHRA BKN015 OVC100 TEMPO 
1106/1112 5000 TSRA BKN015 FEW018CB=
TAF NIUE 110437Z 1106/1206 02015KT 9999 -SHRA SCT018 SCT045 BKN100 
TEMPO 1106/1112 36015G25KT 5000 SHRA SCT009 BKN015=
TAF NLWW 110500Z NIL=
TAF NSFA 110436Z 1106/1206 35015KT 9999 -SHRA FEW010 SCT018 SCT030 
TEMPO 1106/1118 35015G30KT 4000 TSRA BKN015 FEW017CB=
TAF NSTU 110500Z NIL=
TAF NTAA 110500Z 1106/1212 VRB02KT 9999 FEW020 BECMG 1120/1121 
05012KT PROB30 TEMPO 1122/1203 5000 SHRA BKN015=
TAF NWWW 110500Z NIL=
TAF PLCH 110436Z 1106/1206 12015KT 9999 SCT020=

0000130400
453
FTSR31 WSSS 110500
TAF WSSS 110500Z 1106/1212 01007KT 9999 FEW018CB SCT020
TEMPO 1107/1110 3000 TSRA SCT015CB BKN018=
TAF WSAP 110500Z 1106/1212 01007KT 9999 FEW018CB SCT020
TEMPO 1107/1110 3000 TSRA SCT015CB BKN018=
TAF WSSL 110500Z 1106/1212 01007KT 9999 FEW018CB SCT020
TEMPO 1107/1110 3000 TSRA SCT015CB BKN018=
TAF WAAA 110500Z 1106/1212 30010KT 9000 SCT020 
TEMPO 1106/1111 4000 TSRA FEW018CB 
BECMG 1112/1114 10005KT 8000 SCT020 
BECMG 1201/1203 32010KT 9000   
TEMPO 1206/1210 FEW018CB=
TAF WABB 110500Z 1106/1212 25006KT 9999 SCT018
BECMG 1110/1112 35008KT
TEMPO 1122/1202 FEW017CB
TEMPO 1206/1210 8000 -RA=
TAF WADD 110500Z 1106/1206 27008KT 9999 FEW016CB SCT017
TEMPO 1116/1121 VRB03KT 7000 -TSRA FEW015CB SCT015=
TAF WARR 110500Z 1106/1206 30008KT 9999 FEW020CB FEW020
TEMPO 1108/1112 4000 TSRA FEW018CB SCT018
BECMG 1112/1114 28003KT 7000 FEW020
TEMPO 1120/1124 4000 HZ
BECMG 1201/1203 VRB08KT 9999=
TAF WIHH 110500Z 1106/1206 10008KT 6000 SCT018 BKN100
TEMPO 1107/1111 27006G15KT 3000 TSRA FEW016CB BKN020
BECMG 1113/1115 00000KT 5000 HZ FEW018 BKN120=
TAF WIII 110500Z NIL=
TAF WIMM 110500Z 1106/1206 33006KT 5000 HZ BKN017
TEMPO 1111/1115 4000 -RA BKN016
BECMG 1114/1116 25004KT
BECMG 1120/1122 FEW016CB SCT017=

0000111500
454
SAAG05 SABM 110500
METAR SAAR 110500Z  18006KT CAVOK 22/20 Q1010=
METAR SABE 110500Z  20020G33KT CAVOK 22/13 Q1010=
METAR SACO 110500Z  16009KT 9999  SCT018 BKN100
23/17 Q1015=
METAR SADF 110500Z  16014G24KT CAVOK 23/14 Q1010=
METAR SAEZ 110500Z 19015G25KT CAVOK 19/11 Q1011=
METAR SAME 110500Z  18005KT CAVOK 26/06 Q1016=
METAR SANT 110500Z NIL=
METAR SAOC 110500Z  00000KT CAVOK 20/14 Q1014=
METAR SARC 110500Z  05005KT CAVOK 28/24 Q1006=
METAR SARE 110500Z NIL=
METAR SARF 110500Z 02007KT CAVOK 29/22 Q1007=
METAR SARI 110500Z  05006KT CAVOK 24/23 Q1011=
METAR SARL 110500Z NIL=
METAR SARP 110500Z  09004KT CAVOK 26/21 Q1010=
METAR SASA 110500Z  36005KT 9999  SCT020 FEW045CB
BKN100  22/16 Q1012=
METAR SASJ 110500Z  32008KT 9999  FEW030 SCT100
25/18 Q1009=
METAR SAVC 110500Z  00000KT CAVOK 16/04 Q1015=
METAR SAWE 110500Z NIL=
METAR SAWG 110500Z  29008KT CAVOK 08/06 Q1012=
METAR SAWH 110500Z VRB04KT 9999 VCSH SCT038 BKN045 BKN080 06/04
Q1006=
METAR SAZM 110500Z NIL=
METAR SAZN 110500Z 09005KT CAVOK 20/M04 Q1016=
METAR SAZS 110500Z NIL=

00000000