0000070800
895
SNVD22 KWNB 111700 RRK
BBXX
46229 11171 99438 71246 46/// ///// 1//// 91649 22200 00093 11309
20807 328// 41305 70044=
46213 11171 99403 71247 46/// ///// 1//// 91654 22200 00121 11307
21004 331// 41305 70036=
46231 11171 99327 71174 46/// ///// 1//// 91644 22200 00154 11302
21001 329// 41302 70012=
46218 11171 99345 71208 46/// ///// 1//// 91659 22200 00133 11506
21003 331// 41505 70032=
46224 11171 99332 71175 46/// ///// 1//// 91642 22200 00154 11302
20801 325// 41301 70008=
46214 11171 99379 71235 46/// ///// 1//// 91656 22200 00113 11407
21003 331// 41406 70033=
46221 11171 99339 71186 46/// ///// 1//// 91655 22200 00154 11402
21001 326// 41402 70011=
0000042900
896
UDEU02 EGRR 111707
AMDAR 1116
LVR EU0126   4737N 00122W 111626 F340 MS602 275/034 TB/ S031=
LVR EU0126   4813N 00020W 111633 F340 MS605 266/043 TB/ S031=
LVR EU0126   4849N 00042E 111640 F340 MS615 271/034 TB/ S031=
LVR EU0126   4926N 00139E 111647 F340 MS602 266/038 TB/ S031=
LVR EU0126   5008N 00233E 111654 F340 MS580 275/047 TB/ S031=
LVR EU0126   5052N 00317E 111701 F350 MS590 276/044 TB/ S031=
0000012600
897
SNSQ51 LZIB 111700 CCB
AAXX 11171
11816 41463 50000 10046 20031 30022 40188 72122 83631
  333 83712 84356=
0000011200
898
UANT99 KDDL 111704
ARP IBE6253 4434N01847W 1703 F330 MS56 196/101 KT
ECLUB QXT EUA 111704 J31A
0000011200
899
UANT99 KDDL 111704
ARP FDX5081 5454N04122W 1704 F351 MS56 278/47 KT
N589FE QXT AOW 111704 F17A
0000010900
900
UANT99 KDDL 111704
ARP DAL9 5258N03055W 1704 F330 MS51 164/25 KT
N174DN QXT AOE 111704 F26A
0000012300
901
FTCN34 CWAO 110500 AAA
TAF AMD CYQR 110506Z 1105/1112 28012KT P6SM SCT140
    RMK NXT FCST BY 110600Z=

0000031000
902
FTCN31 CWAO 110500 AAA
TAF AMD CYXT 110506Z 1105/1113 36010KT 5SM -SN SCT004 OVC020 TEMPO
     1105/1110 1SM -SN BR BKN004 OVC015 PROB30 1105/1110 1/2SM SHSN
     BKN003
    FM111000 01010KT P6SM SCT015 BKN040 TEMPO 1110/1113 3SM -SN
     FEW005 BKN015
    RMK NXT FCST BY 110700Z=

0000010200
903
SPUS43 KWBC 110505
SPECI
KAPN 110502Z AUTO 15011KT 6SM -RA BR OVC006 01/01 A2959=

0000041300
904
SAAL31 DAAA 110500
METAR DAAG 110500Z VRB02KT 9999 FEW030 BKN100 11/09 Q1017=
METAR DAAT 110500Z 20002KT CAVOK 11/M04 Q1023=
METAR DABB 110500Z 22007KT  CAVOK 09/07 Q1016=
METAR DABC 110500Z  22008KT CAVOK 04/01 Q1019=
METAR DAON 110500Z 22008KT 9999 FEW030 BKN100 15/04 Q1015=
METAR DAOO 110500Z VRB02KT 9999 FEW026 BKN100 12/10 Q1016=
METAR DAUH 110500Z 00000KT CAVOK 08/06 Q1020=

0000013500
905
SACN62 CYQL 110500
METAR CYQL 110500Z 15008KT 15SM FEW090 M04/M07 A2968 RMK AC2 LAST
 STFD OBS/NXT 111300Z SLP086=

0000016800
906
SACN62 CYCD 110500
METAR CYCD 110500Z 12010G18KT 4SM -RA BR FEW006 BKN012 OVC020 07/06
 A2954 RMK SF2SC3SC3 LAST OBS/NEXT 111400 UTC PRESFR SLP005=

0000014900
907
SACN62 CYBL 110500
METAR CYBL 110500Z 15010KT 3SM -RA BR SCT006 OVC013 03/02 A2947 RMK
 SF4SC4 LAST OBS /NEXT 111400 UTC SLP984=

0000009900
908
SACN62 CYQM 110500
METAR CYQM 110500Z 23007KT 15SM SKC M07/M08 A3024 RMK SLP245=

0000056000
909
SATS32 DTTA 110500
METAR DTKA 110500Z 00000KT 9999 FEW020 SCT100 08/06 Q1018 NOSIG=
METAR DTMB 110500Z 16006KT CAVOK 10/06 Q1018 NOSIG=
METAR DTNH 110500Z 23002KT CAVOK 05/04 Q1018=
METAR DTTA 110500Z 00000KT 4000 BR SCT010 07/06 Q1018 NOSIG=
METAR DTTF 110500Z 23003KT 8000 NSC 08/04 Q1021 NOSIG=
METAR DTTG 110500Z 26005KT 210V300 8000 NSC 07/03 Q1020 NOSIG=
METAR DTTJ 110500Z 18005KT 6000 NSC 11/09 Q1019 NOSIG=
METAR DTTX 110500Z 23004KT CAVOK 09/06 Q1020 NOSIG=
METAR DTTZ 110500Z 25005KT 9999 FEW030 09/04 Q1020 NOSIG=

0000051300
910
SATS40 DTTA 110500
METAR DTKA 110500Z 00000KT 9999 FEW020 SCT100 08/06 Q1018 NOSIG=
METAR DTMB 110500Z 16006KT CAVOK 10/06 Q1018 NOSIG=
METAR DTNH 110500Z 23002KT CAVOK 05/04 Q1018=
METAR DTTA 110500Z 00000KT 4000 BR SCT010 07/06 Q1018 NOSIG=
METAR DTTF 110500Z 23003KT 8000 NSC 08/04 Q1021 NOSIG=
METAR DTTJ 110500Z 18005KT 6000 NSC 11/09 Q1019 NOSIG=
METAR DTTR NIL=
METAR DTTX 110500Z 23004KT CAVOK 09/06 Q1020 NOSIG=
METAR DTTZ 110500Z 25005KT 9999 FEW030 09/04 Q1020 NOSIG=

0000010200
911
SATS40 DTTA 110500 RRA
METAR DTTA 110500Z 00000KT 4000 BR SCT010 07/06 Q1018 NOSIG=

0000025500
912
SATS42 DTTA 110500
METAR DTTB 110500Z 01002KT 9999 FEW020 SCT100 07/06 Q1018=
METAR DTTD NIL=
METAR DTTK 110500Z VRB02KT CAVOK 09/05 Q1018=
METAR DTTL NIL=
METAR DTTN 110500Z 22004KT 3000 BR SCT013 05/05 Q1019=
METAR DTTR NIL=

0000030200
913
SATS41 DTTA 110500
METAR DTTB 110500Z 01002KT 9999 FEW020 SCT100 07/06 Q1018=
METAR DTTD NIL=
METAR DTTG 110500Z 26005KT 210V300 8000 NSC 07/03 Q1020 NOSIG=
METAR DTTK 110500Z VRB02KT CAVOK 09/05 Q1018=
METAR DTTL NIL=
METAR DTTN 110500Z 22004KT 3000 BR SCT013 05/05 Q1019=

0000019100
914
FTCN33 CWAO 110500 AAA
TAF AMD CYXY 110504Z 1105/1112 VRB03KT P6SM SCT012 BKN060 TEMPO
     1105/1112 BKN010 PROB30 1105/1112 4SM BR BKN008
    RMK NXT FCST BY 110600Z=

00000000