0000067600
015
FTSR32 WSSS 110500
TAF WMKJ 110500Z 1106/1206 35007KT 9999 FEW018 SCT140 BKN280
TEMPO 1107/1111 4000 TSRA FEW015CB SCT018 BKN140=
TAF WMKK 110500Z 1106/1212 34005KT 9999 FEW017CB SCT140 BKN280
TEMPO 1107/1111 4000 TSRA FEW015CB SCT018 BKN140=
TAF WMKP 110500Z 1106/1206 22010KT 9000 FEW020 SCT140 BKN270
TEMPO 1110/1114 6000 RA FEW010 FEW017CB SCT023=
TAF WMSA 110500Z 1106/1206 32005KT 9999 FEW020 SCT140 BKN280
TEMPO 1107/1111 4000 TSRA FEW015CB SCT018 BKN140=
TAF WMKL 110500Z 1106/1206 07009KT 9999 FEW020 SCT140 BKN270=
TAF WMKM 110500Z 1106/1206 05007KT 9999 FEW017CB SCT140 BKN270
TEMPO 1107/1111 4000 TSRA FEW015CB SCT018 BKN140=

0000037900
016
FTSY31 OSDI 110500
OSDI 110500Z 1106/1212 VRB03KT 3000 BR BECMG
             1108/1110 22010KT 9999 FEW030 BECMG
             1122/1124 VRB03KT 3000 BR TEMPO
             1200/1206 0200 FG BECMG
             1208/1210 22010KT 9999 FEW030=
OSLK 110500Z 1106/1206 33012KT 9999 FEW030 SCT100 BECMG
             1118/1120 08013G23KT 9999 SCT030 BKN100=

0000009500
017
SAFR32 LFPW 110500 RRA
METAR LFCK 110500Z AUTO 12006KT 9999 NSC 10/07 Q1019=

0000009100
018
SARO32 LROM 110500 CCA
METAR COR LROD 110500Z 20012KT CAVOK 02/01 Q1022=

0000034700
019
FTCN34 CWAO 110500 AAA
TAF AMD CYHD 110510Z 1105/1114 20006KT 21/2SM -SN OVC008 TEMPO
     1105/1107 1SM -FZDZ BR OVC004
    FM110700 23005KT 2SM BR OVC003 TEMPO 1107/1113 6SM -FZDZ -SN
     OVC006 PROB30 1107/1111 1/2SM FZFG
    FM111300 27010KT P6SM BKN006 OVC012
    RMK FCST BASED ON AUTO OBS. NXT FCST BY 110800Z=

0000050100
020
SAID31 WIII 110500
METAR WIII 110500Z 36006KT 9999 FEW018CB SCT020 33/23 Q1009 RMK CB TO
SW=
METAR WIHH 110500Z 06005KT 6000 SCT017 31/22 QNH 1010 NOSIG=
METAR WIMM 110500Z 32006KT 5000 HZ SCT017 28/24 Q1012=
METAR WARR 110500Z 05008KT 020V110 9999 FEW020CB FEW020 32/24 Q1009=
METAR WADD 110500Z VRB02KT 9999 FEW015CB SCT016 29/25 Q1009 NOSIG=
METAR WAAA 110500Z 32008KT 9999 FEW019 T33DP22 Q1010=
METAR WIDD 110500Z 35006KT 9999 BKN014 30/24 Q1010=
METAR WABB NIL=

0000011900
021
SAAF05 LFPW 110500 RRA
METAR DBBB 110500Z 35001KT 4000 BR SCT008 BKN200 26/26 Q1010 TEMPO
2500 BR=

0000014700
022
SAAF08 LFPW 110500 RRA
METAR DFFD 110500Z 03005KT CAVOK 19/03 Q1014 NOSIG=
METAR GABS 110500Z 02002KT CAVOK 19/09 Q1013 NOSIG=

0000010400
023
SAAF14 LFPW 110500 RRA
METAR DRRN 110500Z 06005KT 4000 DU NSC 19/00 Q1014 BECMG 2500=

0000009900
024
SAAF27 LFPW 110500 RRA
METAR DGAA 110450Z 27005KT 9999 FEW046 26/25 Q1010 NOSIG=

0000176600
025
FTIR31 OIII 110500
TAF OIII 110500Z 1106/1212 14005MPS 6000 FEW035CB SCT040 OVC100
    TEMPO 1106/1112 2000 SNRA FEW030CB SCT035 OVC080
    BECMG 1114/1116 4000 HZ SCT030 BKN100
    BECMG 1116/1118 35004MPS 3000 BR
    TEMPO 1120/1203 1500 BR
    BECMG 1205/1207 4000 HZ SCT040=
TAF OIFM 110500Z 1106/1212 22005MPS 1200 BR SCT035 BKN100
    BECMG 1108/1110 15005MPS 1500 HZ FEW035CB SCT040 OVC100
    TEMPO 1112/1118 1500 SN FEW030CB SCT035 OVC080
    BECMG 1118/1120 35004MPS 1000 BR SCT030
    TEMPO 1121/1203 0500 FG SCT020 OVC090
    BECMG 1206/1208 3000 HZ=
TAF OISS 110500Z 1106/1212 22005MPS 4000 BR HZ FEW035CB SCT040 BKN080
    TEMPO 1106/1203 17006MPS 1500 SNRA BR FEW030CB SCT035 OVC080
    PROB40 TEMPO 1118/1203 0800 FG
    BECMG 1205/1207 6000 SCT040=
TAF OIAW 110500Z 1106/1212 10005MPS 2500 BR FEW035CB SCT040 BKN100
    TEMPO 1106/1121 15009MPS 1500 TSRA BR SCT035CB SCT040 OVC070
    PROB40 TEMPO 1100/1106 0500 FG OVC010
    BECMG 1121/1123 1200 BR BKN015
    TEMPO 1200/1206 0500 FG OVC005=
TAF OIMM 110500Z 1106/1212 18005MPS 3000 HZ FEW035 BKN100
    BECMG 1112/1114 6000 SCT035 SCT090
    TEMPO 1118/1206 FEW035CB SCT040 OVC090=
TAF OIKB 110500Z 1106/1212 15006MPS 6000 SCT040 BKN080
    TEMPO 1106/1115 22009MPS 3000 TS/SHRA SCT035 SCT040 OVC070=
TAF OIZH 110500Z 1106/1212 15005MPS 6000 SCT040 BKN100
    TEMPO 1108/1124 22006MPS FEW035CB SC040 OVC100=
TAF OITT 110500Z 1106/1212 22005MPS 4000 HZ FEW035 BKN100
    TEMPO 1121/1205 3000 BR SCT035 BKN080=
TAF OIKK 110500Z 1106/1212 13005MPS 3000 BR FEW035CB SCT040 OVC100
    TEMPO 1106/1115 1500 SNRA FEW030CB SCT035 OVC080 PROB30 0500 FG
    BECMG 1116/1118 2000 BR SCT030
    BECMG 1204/1206 6000 SCT040=

0000044000
026
FTME31 OLBA 110400 RRA
TAF OJAI 110450Z 1106/1212 26008KT 6000 SCT030 SCT035 BECMG
1118/1120 VRB03KT 8000 NSC TEMPO 1202/1206 3000 BR SCT025 BECMG
1206/1208 24005KT 7000 NSC=
TAF OJAM 110450Z 1106/1212 26010KT 5000 HZ SCT030 SCT035 BECMG
1116/1118 VRB03KT 7000 FEW030 TEMPO 1203/1206 3000 BR SCT025 BECMG
1206/1208 23008KT 6000 NSC=
TAF OJAQ 110450Z 1106/1212 35010KT 7000 NSC TEMPO 1122/1206 01008KT
CAVOK=

0000009300
027
SAAL41 DAMM 110500 RRB
METAR DAOF 110500Z 01010KT 9999 FEW046 09/01 Q1014=

0000035700
028
SANM40 FYWW 110500
METAR FYGO 110500Z AUTO 00009KT //// // ////// 16/14 Q1014=
METAR FYOA 110500Z 22005KT CAVOK 19/09 Q1015=
METAR FYRN 110500Z 05003KT CAVOK 19/14 Q1017=
METAR FYWB 110500Z AUTO 34004KT //// // ////// 16/15 Q1014=
METAR FYWE 110500Z 17012KT CAVOK 19/06 Q1022=
METAR FYWH 110500Z 19006KT 9999 FEW100 18/06 Q1022=

0000031500
029
FCRS31 RUMS 110500
TAF ULWC 110500Z NIL=
TAF UUBP 110432Z 1106/1115 25007G12MPS 9999 OVC015 530003 TEMPO
1106/1112 3000 -SHRA BKN010CB=
TAF UUOB 110445Z 1106/1115 25007G12MPS 9999 BKN005 BKN015CB 530003
650050 TEMPO 1106/1109 2000 SHRA TEMPO 1109/1115 28010G15MPS=
TAF UUOK 110500Z NIL=

0000004600
030
FCRA31 RUMS 110500
TAF NIL=

0000086900
031
FTIR32 OIII 110500
TAF OITR 110500Z 1106/1212 26005MPS 2500 BR HZ SCT035 BKN090
    TEMPO 1118/1206 1000 BR SCT035 BKN080
    PROB30 0800 FG=
TAF OIIE 110500Z 1106/1212 14005MPS 6000 FEW035CB SCT040 OVC100
    TEMPO 1106/1112 2000 SNRA FEW030CB SCT035 OVC080
    BECMG 1114/1116 6000 SCT030 BKN100
    BECMG 1116/1118 35004MPS 3000 BR
    TEMPO 1120/1203 1500 BR
    BECMG 1205/1207 6000 SCT040=
TAF OIAA 110500Z 1106/1212 15005MPS 2500 BR FEW035CB SCT040 BKN100
    TEMPO 1106/1112 20009MPS 1500 TSRA BR SCT035CB SCT040 OVC070
     PROB40 TEMPO 1100/1106 0500 FG OVC010
    BECMG 1121/1123 1200 BR BKN015
    TEMPO 1200/1206 0500 FG OVC005=
TAF OIBK 110500Z 1106/1212 08006MPS 6000 SCT030 OVC100
    TEMPO 1106/1115 08008MPS 3000 TS/SHRA SCT035 SCT040 OVC070
    BECMG 1118/1120 3000 BR
    BECMG 1203/1205 3000 HZ=

0000042100
032
SAMG20 FMMI 110500
METAR 110500Z
METAR FMNA 110500Z 14010KT 9999 FEW020CB 29/25 Q1012=
METAR FMNN 110500Z 22006KT 9999 SCT020 28/26 Q1011=
METAR FMSD 110500Z 10004KT 9999 FEW020 27/26 Q1011=
METAR FMMT 110500Z 00000KT 9999 VCSH SCT017TCU 29/26 Q1014 NOSIG=
METAR FMNM 110500Z 26002KT 9999 FEW020 SCT230 29/24 Q1013 NOSIG=
METAR FMMI 110500Z VRB01KT 9000  SCT017  BKN230 22/22 Q1022
NOSIG=

0000061400
033
FCRS32 RUMS 110500
TAF URML 110448Z 1106/1115 VRB02MPS 5000 BR SCT017 SCT100 530001
TEMPO 1106/1109 1500 BR BKN010 BECMG 1109/1111 32009G14MPS=
TAF URMN 110500Z 1106/1115 22004MPS 9999 BKN020=
TAF URMO 110430Z 1106/1115 26003MPS 9999 BKN020 BKN100=
TAF URMT 110455Z 1106/1115 27007G12MPS 9999 SCT015CB BKN100 530003
TEMPO 1106/1112 28012G17MPS 3000 -SHRA BR SCT007 BKN015CB OVC100=
TAF URWA 110500Z 1106/1115 18005MPS 9999 BKN015 BKN100 TEMPO
1112/1115 2100 -RA BR BKN005 OVC100=
TAF URWI 110500Z 1106/1115 21010G16MPS 9999 SCT007 BKN020CB 530005
TEMPO 1108/1115 2100 -SHRA BR=

0000030000
034
FCRA32 RUMS 110500
TAF UNTT 110454Z 1106/1115 22007G12MPS 5000 -SHSN DRSN SCT007
BKN017CB OVC100 650060 530003 TEMPO 1106/1115 1100 SHSN BLSN
SCT003=
TAF USCM 110500Z 1106/1115 15006MPS 2000 -SN BR OVC005 650050 530005
TEMPO 1106/1115 VRB03MPS 0300 FZDZ FZFG OVC002 640000=

00000000