0000015700
335
SSVX13 LFPW 111700
ZZYY 44763 11014 1700/ 756229 012982 6113/ 11119 40124 57009 22219
 00104 444 20130 11014 1500/ 50101 80138 80002 9/015=
0000011500
336
SACN62 CYEG 110500
METAR CYEG 110500Z 17007KT 15SM BKN220 M10/M12 A2960 RMK CS7 FROIN
 SLP066=

0000010600
337
SACN44 CWAO 110500
METAR CYSM 110500Z 31003KT 15SM FEW060 M22/M25 A2959 RMK SC2 SLP046=

0000013400
338
SACN61 CYDN 110500
METAR CYDN 110500Z AUTO 26015G21KT 9SM CLR M07/M09 A2948 RMK MAX WND
 26019KT AT 0456Z SLP005=

0000010600
339
SACN61 CYGV 110500
METAR CYGV 110500Z AUTO 27010KT 9SM OVC100 M09/M11 A3003 RMK SLP171=

0000008900
340
SAJM31 MKJS 110500
METAR MKJS 110500Z 12007KT 9999 FEW024 26/18 Q1016=

0000008400
341
SAAG41 SAWG 110500
METAR SAWG 110500Z  29008KT CAVOK 08/06 Q1012=

0000008500
342
FCRE31 FMEE 110600
TAF FMCZ 110500Z 1106/1115 27008KT 9999 SCT023=

0000008500
343
FTGL31 BGSF 110500
TAF BGSF 110500Z 1106/1212 06008KT 9999 SCT180=

0000035800
344
FTNZ31 NZKL 110503
TAF NZAA 110502Z 1106/1206 22015KT 9999 FEW030 BKN040 
BECMG 1107/1109 22005KT 
BECMG 1122/1200 25015KT=
TAF NZWN 110502Z 1106/1206 36015KT 9999 SCT035 
BECMG 1112/1114 36015G25KT 
BECMG 1122/1200 35025G35KT=
TAF NZCH 110502Z 1106/1206 06015KT 9999 BKN018 FM111100 30005KT CAVOK
BECMG 1119/1121 30015G25KT=

0000011000
345
SAAG41 SASA 110500
METAR SASA 110500Z  36005KT 9999  SCT020 FEW045CB
BKN100  22/16 Q1012=

0000011800
346
SACN31 CWAO 110500
METAR CYQY 110500Z 24011KT 15SM BKN028 BKN084 M02/M04 A3023 RMK
SC6AC1 SLP241=

0000023300
347
SALJ31 LJLJ 110500
METAR LJLJ 110500Z 00000KT 9999 FEW030 BKN040 05/05 Q1020
R30/CLRD// NOSIG=
METAR LJMB 110500Z 00000KT 9999 OVC003 03/02 Q1021=
METAR LJPZ 110500Z 17001KT 2700 BR FEW004 OVC050 09/09 Q1022=

0000021500
348
FTUS80 KWBC 110506
TAF
TAF AMD TJSJ 110501Z 1105/1124 08008KT P6SM FEW025
      TEMPO 1105/1106 5SM SHRA BKN030
     FM110600 VRB04KT P6SM VCSH FEW025
     FM111330 07016G25KT P6SM SCT025=

0000108500
349
FTUS80 KWBC 110506 AAA
TAF AMD
KBNA 110502Z 1105/1124 19010G20KT P6SM SCT015 OVC035
     FM110700 19015G25KT 3SM -SHRA BR VCTS OVC008CB
      TEMPO 1109/1113 2SM TSRA OVC005CB
     FM111300 26012G25KT P6SM OVC025
     FM111600 27010G20KT P6SM BKN050=
KBWI 110503Z 1105/1206 00000KT 1/4SM -DZ FG VV002 WS020/00030KT
     FM111000 VRB03KT 1/2SM -RA FG OVC002 WS020/20045KT
     FM111500 19007KT 3/4SM BR OVC004 WS020/20050KT
     FM111700 17011G19KT 2SM -SHRA BR OVC003 WS020/20045KT
     FM112100 20012G20KT 1 1/2SM SHRA BR OVC010 WS020/19050KT
     FM112300 23009KT 1 1/2SM -SHRA BR OVC010
     FM120300 26009KT P6SM BKN050=
KCAR 110505Z 1105/1124 21004KT P6SM BKN015
     FM111200 17006KT P6SM OVC050
     FM111600 16009KT 5SM -FZRASNPL OVC020
     FM111700 16010KT 3SM -FZRAPL OVC015
     FM111900 16011KT 1SM -RA BR OVC008=
KSPI 110505Z 1105/1124 19012KT P6SM -RADZ OVC006
     FM110700 22012KT 3/4SM BR OVC005
     FM111400 26012G18KT P6SM OVC015
     FM111700 27014G22KT P6SM BKN025
     FM112100 27014KT P6SM SCT250=

0000028400
350
FTCN34 CWAO 110500 AAA
TAF AMD CYBR 110507Z 1105/1112 29012KT 4SM BR OVC006 TEMPO 1105/1109
     P6SM NSW SCT006 BKN120
    FM110900 28012KT 11/2SM BR OVC004 TEMPO 1109/1112 P6SM NSW OVC008
     PROB30 1110/1112 1/2SM FZFG VV002
    RMK NXT FCST BY 110600Z=

0000041700
351
FTCN37 CWAO 110500 AAA
TAF AMD CYHZ 110507Z 1105/1124 22012KT P6SM -SN OVC004 TEMPO
     1105/1108 4SM -SG -FZDZ BR OVC003
    FM110800 21012KT 1SM -SG -FZDZ BR OVC002 TEMPO 1108/1113 4SM -SN
     BR OVC004
    FM111300 20012KT 3/4SM -DZ BR OVC002
    FM111700 20012G22KT 1SM -RA BR OVC002
     BECMG 1118/1120 20020G30KT
     BECMG 1122/1124 20025G35KT
    RMK NXT FCST BY 110600Z=

0000018000
352
FTCN34 CWAO 110500 AAA
TAF AMD CYPA 110507Z 1105/1113 27005KT P6SM -SN BKN015 OVC025 TEMPO
     1105/1113 P6SM NSW SCT015 BKN025
    RMK NXT FCST BY 110700Z=

0000011200
353
SPUS42 KWBC 110506
SPECI
KLCH 110502Z AUTO 21013G26KT 1SM +RA BR BKN003 OVC013 18/18 A2984=

0000058200
354
SACA33 KWBC 110500
METAR
TBPB 110500Z 05011KT 9999 -SHRA BKN016 24/21 Q1014 NOSIG=
TDPD NIL=
TDPR NIL=
TFFF 110500Z AUTO 06007KT 020V090 9999 FEW027/// SCT052/// ///TCU
     24/21 Q1016=
TFFG NIL=
TFFJ NIL=
TFFR 110500Z AUTO 08005KT 9999 FEW023/// SCT044/// OVC066///
     ///TCU 23/21 Q1017=
TGPY 110500Z 05008KT 9999 SCT018 SCT045 25/22 Q1014=
TGPZ NIL=
TLPC NIL=
TLPL NIL=
TNCA 110500Z 08015KT 9999 SCT018 26/22 Q1014 A2995=
TNCB NIL=
TNCC NIL=
TNCE NIL=
TNCM NIL=
TTCP NIL=
TTPP NIL=
TVSM NIL=
TVSU NIL=
TVSV NIL=

00000000