0000011500
255
SACN62 CYGL 110500
METAR CYGL 110500Z 17005KT 2SM -SN BR OVC002 M05/M06 A2971 RMK ST8
 SLP077=

0000011500
256
SACN62 CYGP 110500
METAR CYGP 110500Z 32006KT 15SM FEW120 M09/M14 A3012 RMK AC1 AC TR
 SLP202=

0000072500
257
SACA32 KWBC 110500
METAR
MDLR NIL=
MDPC 110500Z 09015KT 9999 FEW018 25/19 Q1019=
MDPP NIL=
MDSD 110500Z 02004KT 9999 FEW018 21/20 Q1018=
MDST 110500Z 00000KT 9999 BKN015 21/21 Q1019 RERA=
MTCH NIL=
MTPP NIL=
TAPA NIL=
TIST 110453Z 13005KT 10SM FEW085 24/22 A3008 RMK AO2 SLP187
     T02390217=
TISX 110453Z AUTO 05006KT 10SM FEW036 SCT060 23/19 A3008 RMK AO2
     RAB07E22 SLP184 P0000 T02280189 TSNO=
TJBQ 110450Z 11005KT 10SM SCT010 24/ A3011 RMK RWY08 ATIS Q=
TJMZ NIL=
TJPS 110450Z 09005KT 10SM SKC 22/17 A3009=
TJSJ 110456Z 00000KT 10SM SCT036 SCT060 24/19 A3009 RMK AO2 SLP188
     T02440189 ?=
TKPK NIL=
TKPN NIL=
TQPF NIL=
TRPM NIL=
TUPJ NIL=
TUPW NIL=

0000016700
258
SACA32 KWBC 110500 CCA
METAR
TJNR 110453Z AUTO 07007KT 10SM -RA FEW026 SCT032 BKN047 25/22
     A3011 RMK AO2 RAB46 SLP196 P0000 T02500217 TSNO=

0000050800
259
SAIO31 KWBC 110500
METAR
FIMP 110500Z 09010KT 9999 SCT018 29/24 Q1017=
FIMR 110500Z 10016KT 8000 -SHRA BKN017 28/25 Q1017=
FJDG 110455Z 28012KT 9999 FEW020 BKN050 OVC080 27/25 A2989 RMK
     SLP119 T02690253=
FMCH NIL=
FMCV NIL=
FMCZ NIL=
FMEE NIL=
FMMI 110500Z VRB01KT 9000 SCT017 BKN230 22/22 Q1022 NOSIG=
FMMT NIL=
FMNN NIL=
FSIA 110500Z 03003KT 9999 FEW014CB 28/24 Q1012 NOSIG=
FSSS NIL=
VRMM NIL=
VYMD NIL=
VYYY NIL=
WBGG NIL=
WBKK NIL=
WBSB NIL=

0000101400
260
SANT31 KWBC 110500
METAR
BGBW 110455Z NIL=
BGCO 110450Z AUTO VRB01KT //// BKN019/// M07/M09 Q1011=
BGGH 110450Z AUTO 09004KT 9999NDV FEW039/// BKN180/// BKN220///
     M08/M16 Q0993=
BGJN 110450Z AUTO VRB04KT 9999NDV BKN160/// M09/M20 Q0994=
BGKK 110450Z AUTO 11006KT 9999NDV BKN050/// M04/M09 Q0993=
BGSF 110450Z AUTO 06005KT 9999NDV BKN150/// BKN220/// M17/M22
     Q0995=
BGTL 110458Z AUTO 10015KT 9999 CLR M13/M17 A2932 RMK AO2 SLP918
     T11321174=
BIAR 110500Z 22007KT 180V270 9999 -SN BKN041 OVC047 01/M02
     Q0996=
BIEG 110500Z 08020G30KT 3000 -SN VV008 01/M01 Q0995 RMK
     R04/790131=
BIKF 110500Z 25011KT 9999 FEW049 BKN105 01/M05 Q0995=
BIRK 110500Z 22016KT 9999 VCSH FEW010 SCT026 BKN042 01/M02
     Q0995=
GVAC 110500Z 05005KT 9999 FEW013 SCT015 BKN200 19/14 Q1015
     NOSIG=
GVPR NIL=
LPBJ NIL=
LPLA 110500Z 23008G18KT 200V320 9000 -RA FEW009 SCT017 15/13
     Q1002=
TXKF 110455Z 08012KT 9999 FEW026 BKN050 BKN300 18/12 Q1031=

0000159300
261
SAPA31 KWBC 110500
METAR
AGGG NIL=
AGGH 110500Z 36006KT 9999 FEW020 31/24 Q1003=
ANAU NIL=
AYPY NIL=
PGNT NIL=
PGRO 110450Z 04012KT 7SM SCT030 SCT100 27/24 A2988=
PGSN 110501Z 05017KT 10SM FEW020 BKN026 OVC045 28/22 A2987 RMK
     AO2=
PGSN 110454Z 04016G21KT 10SM SCT022 BKN031 OVC039 28/23 A2986 RMK
     AO2 RAB18E37 SLP134 P0000 T02830228=
PGUA 110458Z AUTO 05014G20KT 10SM FEW055 28/23 A2986 RMK AO2 SLPNO
     T02780232 ?=
PGUM 110454Z 05016KT 10SM FEW049 BKN055 29/22 A2985 RMK AO2 SLP101
     T02940217=
PGWT 110451Z 08016G24KT 7SM SCT015 BKN100 27/23 A2986 RMK WIND
     DATA ESTIMATED=
PHJH NIL=
PHJR 110453Z 00000KT 10SM FEW035 21/18 A2992 RMK AO2 SLP138
     T02110178=
PHMK 110454Z AUTO 05009KT 10SM CLR 22/20 A2992 RMK AO2 SLP136
     P0001 T02220200 TSNO=
PJON NIL=
PKMJ NIL=
PKMR 110456Z 05011KT 15SM SCT015TCU BKN050 OVC300 28/24 A2968 RMK
     SHRAB10E30 TCU N AND SE-S SLP052 T02790235=
PKWA 110500Z AUTO 06013KT 10SM SCT032 30/20 A2974 RMK AO2
     T02970200=
PLCH NIL=
PMDY 110456Z AUTO 11013G18KT 5SM HZ CLR 21/18 A3011 RMK AO2 TSNO
     T02110177 SLP508 ?=
PTKK NIL=
PTKR 110454Z 09009KT 12SM FEW016CB SCT120 OVC280 27/24 A2976 RMK
     SHRAE20 CB DSNT NE AND W SLP079 T02720241=
PTPN NIL=
PTRO 110452Z 05009KT 13SM BKN015CB BKN100 OVC280 26/25 A2975 RMK
     CB VC ALQDS=
PTSA NIL=
PTTP 110454Z 11007KT 15SM FEW018 OVC300 29/22 A2975 RMK SLP073
     T02940224=
PTYA 110450Z 06014G24KT 12SM SCT016 SCT040 BKN130 OVC300 30/25
     A2978 RMK SLP086 T02990248=
PWAK NIL=

0000021900
262
SAIE32 EIDB 110500
METAR EICM 110500Z NIL=
METAR EIDL 110500Z NIL=
METAR EIKY 110500Z NIL=
METAR EIME 110500Z 24014KT 9999 BKN013 03/02 Q1014=
METAR EISG 110500Z NIL=
METAR EIWF 110500Z NIL=

0000017700
263
UDEU02 EGRR 111708 RRA
AMDAR 1116
LVR EU0031   6221N 01310E 111654 F340 MS477 276/022 TB/ S031=
LVR EU0031   6132N 01237E 111701 F322 MS495 262/027 TB/ S031=
0000190500
264
UDEU02 EGRR 111708 RRB
AMDAR 1116
ASC EU0765   5552N 00429W 111645 F010 PS037 267/024 TB/ S031=
ASC EU0765   5551N 00429W 111645 F017 PS017 274/027 TB/ S031=
ASC EU0765   5550N 00429W 111645 F021 PS005 275/027 TB/ S031=
ASC EU0765   5548N 00429W 111645 F025 MS002 282/024 TB/ S031=
ASC EU0765   5547N 00429W 111645 F033 MS020 278/024 TB/ S031=
ASC EU0765   5546N 00429W 111645 F045 MS035 279/025 TB/ S031=
ASC EU0765   5545N 00430W 111645 F056 MS067 275/026 TB/ S031=
ASC EU0765   5544N 00430W 111645 F066 MS080 280/030 TB/ S031=
ASC EU0765   5543N 00430W 111645 F074 MS067 298/037 TB/ S031=
ASC EU0765   5541N 00430W 111645 F092 MS107 306/050 TB/ S031=
ASC EU0765   5538N 00426W 111646 F107 MS130 302/049 TB/ S031=
ASC EU0765   5535N 00420W 111646 F121 MS150 296/048 TB/ S031=
ASC EU0765   5532N 00415W 111646 F139 MS197 303/051 TB/ S031=
ASC EU0765   5528N 00411W 111647 F157 MS220 300/051 TB/ S031=
ASC EU0765   5524N 00408W 111647 F174 MS262 292/053 TB/ S031=
ASC EU0765   5521N 00404W 111647 F189 MS297 293/056 TB/ S031=
ASC EU0765   5516N 00400W 111648 F203 MS330 289/058 TB/ S031=
ASC EU0765   5512N 00356W 111648 F214 MS345 295/064 TB/ S031=
ASC EU0765   5508N 00352W 111648 F228 MS375 289/069 TB/ S031=
ASC EU0765   5504N 00348W 111649 F241 MS400 284/077 TB/ S031=
ASC EU0765   5459N 00344W 111649 F251 MS422 287/081 TB/ S031=
ASC EU0765   5454N 00339W 111649 F261 MS450 288/082 TB/ S031=
ASC EU0765   5450N 00334W 111650 F271 MS472 293/080 TB/ S031=
ASC EU0765   5446N 00329W 111650 F279 MS495 297/080 TB/ S031=
ASC EU0765   5441N 00324W 111650 F287 MS510 301/080 TB/ S031=
ASC EU0765   5436N 00319W 111651 F297 MS532 298/082 TB/ S031=
ASC EU0765   5431N 00314W 111651 F308 MS560 298/084 TB/ S031=
ASC EU0765   5426N 00311W 111651 F319 MS585 298/085 TB/ S031=
ASC EU0765   5421N 00307W 111652 F330 MS605 294/087 TB/ S031=
0000018400
265
SSVX13 LFPW 111700
ZZYY 62504 11014 1700/ 756143 018740 6110/ 11119 40029 57055 22219
 00101 33300 88872 20000 43535 444 20100 11014 1700/ 50101 80134
 80000 9/015=
0000018400
266
SSVX13 LFPW 111700
ZZYY 62503 11014 1700/ 745952 002458 6113/ 11119 40204 52001 22219
 00134 33300 88872 20000 43542 444 20130 11014 1500/ 50101 80100
 80000 9/015=
0000010900
267
UANT01 CWAO 111705
ARP DAL9 5257N03113W 1705 F330 MS53 171/22 KT
N174DN QXT AOE 111705 F28A
0000016600
268
SSVX02 KARS 111702
ZZYY 44924 11014 1400/ 740892 030023 6113/
11119 30103 40103 52009
22219 00154
444 20130 11014 1249/ 50101 80130 80012 9/015=
0000143000
269
SNIY20 LIIB 111700
AAXX 11174
16008 42560 83403 10018 21013 38550 48508 51001 887// 333 88720
      92865=
16088 41725 82503 10088 20085 30100 40219 53001 71022 8527/ 333
      85650=
16110 41696 80000 10090 20071 30213 40217 56002 71022 8358/ 333 83640
      87357 555 0////=
16134 42780 62720 10036 21037 37842 48515 56003 83018 333 55300 83450
      92845 95180 444 68164=
16153 42498 70209 10120 20096 39944 40209 53001 85830 333 82810 83623
      555 0////=
16206 42665 61101 10124 20108 30210 40219 50000 83230 333 83640
      83356=
16219 NIL=
16280 42597 73600 10120 20088 39989 40212 57001 87200 333 87620 555
      0////=
16310 42897 63404 10124 20103 39990 40212 54000 82011 333 82458 555
      0////=
16360 42597 50406 10130 20114 30081 40216 56001 82131 333 82820 84357
      555 0////=
16400 42498 61308 10142 20115 39921 40210 58009 81139 333 55300 81818
      85359 555 0213/=
16420 42897 42503 10132 20098 30144 40210 53002 83032 333 83358 555
      0////=
16429 42968 71305 10150 20123 30190 40201 55000 85034 333 85359=
16470 42865 70000 10162 20101 39961 40195 52001 83026 333 55300 22///
      83458 95000=
16480 42997 01402 10166 20160 30147 40209 58003 555 0////=
16522 42898 80305 10124 20105 39961 40206 51001 84058 333 55300 84358
      555 0////=
16550 42598 81503 10138 20113 30033 40213 50003 8682/ 333 55300 83820
      83630 555 0////=
0000015700
270
SSVX13 LFPW 111700
ZZYY 33955 11014 1700/ 542501 041807 6113/ 11119 40076 52002 22219
 00136 444 20130 11014 1500/ 50101 80142 80003 9/015=
0000015700
271
SSVX13 LFPW 111700
ZZYY 14515 11014 1700/ 333205 050015 6113/ 11119 40095 52019 22219
 00204 444 20130 11014 1500/ 50101 80148 80015 9/015=
0000015700
272
SSVX13 LFPW 111700
ZZYY 16532 11014 1700/ 329292 106378 6113/ 11119 40173 57007 22219
 00219 444 20130 11014 1500/ 50101 80108 80002 9/015=
0000015700
273
SSVX13 LFPW 111700
ZZYY 64609 11014 1700/ 768954 004366 6113/ 11119 40127 52004 22219
 00047 444 20130 11014 1500/ 50101 80140 80029 9/015=
0000015100
274
SSVX13 LFPW 111700
ZZYY 54936 11014 1700/ 534759 171050 6113/ 11119 54000 22219 00230
 444 20130 11014 1500/ 50101 80132 80003 9/015=
00000000