0000010900
155
SPUS41 KWBC 110506
SPECI
KDOV 110503Z AUTO 10005KT 1 1/4SM BR BKN060 BKN095 05/05 A3013=

0000121800
156
SAAK31 KWBC 110500
METAR
PABR 110453Z 30012KT 6SM BR OVC008 M23/M26 A2981=
PACD 110453Z AUTO 14019KT 10SM FEW028 SCT045 OVC100 03/M01
     A2916=
PAED 110458Z 00000KT 10SM OVC009 M05/M06 A2934=
PAEI 110455Z 00000KT 10SM SCT006 M28/M31 A2955=
PAEN 110453Z 35003KT 10SM OVC006 M03/M04 A2936=
PAFA 110453Z 00000KT 10SM FEW002 SCT090 M31/M34 A2956=
PAFR NIL=
PAFS 110456Z AUTO 00000KT 10SM CLR M21/M23 A2951=
PAFY NIL=
PAJN 110453Z 08006KT 10SM SCT038 OVC055 02/00 A2932=
PAKN 110454Z 34004KT 10SM FEW004 SCT025 SCT130 M06/M07 A2937=
PAKT 110453Z 29005KT 10SM SCT120 03/00 A2920=
PANC 110453Z 34004KT 10SM FEW006 BKN016 OVC025 M04/M06 A2934=
PAOM 110453Z 04016KT 10SM BLSN FEW032 SCT100 M12/M20 A2961=
PAOR 110453Z 30003KT 2SM -SN OVC024 M17/M19 A2933=
PAOT 110453Z VRB04KT 10SM CLR M20/M25 A2975=
PARY 110456Z AUTO 00000KT 10SM CLR M24/M27 A2956=
PASC 110453Z 25021KT 3/4SM R05/4000V5000FT -SN BR OVC010 M27/M30
     A2982=
PASG NIL=
PASI 110453Z 05005KT 10SM CLR 00/M01 A2929=
PATQ 110456Z AUTO 29004KT 8SM OVC006 M26/M29 A2985=
PAVD 110456Z 10SM BKN120 M07/M08 A2929=
PAWG 110456Z 09004KT 10SM CLR 02/M02 A2930=
PFYU 110456Z 00000KT 10SM CLR A2968=

0000089500
157
SAAK32 KWBC 110500
METAR
PABA NIL=
PABI 110453Z 28004KT 10SM OVC031 M19/M21 A2946=
PACZ 110455Z AUTO 07025G32KT 10SM -SHSN BKN038 M08/M11 A2935=
PADK 110456Z AUTO 23032G42KT 5SM FEW016 SCT028 BKN035 03/M01
     A2873=
PADL 110450Z 03009KT 10SM OVC010 M06/M06 A2942=
PADQ 110453Z 28005KT 10SM FEW040 SCT250 M04/M06 A2939=
PAEH 110455Z AUTO 14021G31KT 5SM -FZRA BKN004 00/M01 A2927=
PAFB 110455Z 00000KT 7SM FEW100 M32/M34 A2957=
PAGA 110458Z AUTO 00000KT 10SM CLR M32/M35 A2966=
PAIM 110455Z AUTO 33001KT 10SM CLR M22/M26 A2954=
PALU 110455Z AUTO 06007KT 10SM OVC009 M19/M20 A2997=
PASV 110455Z AUTO 30002KT 1 1/4SM -SHSN BR VV005 M13/M14 A2933=
PASY 110456Z AUTO 33022G27KT 7SM -SN BKN007 OVC013 M01/M01
     A2887=
PATC 110455Z AUTO 02027KT 3/4SM -SHSN BR VV002 M18/M19 A2969=
PATL 110455Z AUTO 07004KT 10SM BKN019 M17/M19 A2949=
PBTI NIL=

0000004200
158
SABO41 KWBC 110500
NIL=

0000054200
159
SABZ41 KWBC 110500
METAR
SBAA NIL=
SBAF NIL=
SBAR 110500Z 10008KT 9999 SCT015 26/20 Q1012=
SBBG NIL=
SBBH NIL=
SBBI NIL=
SBBU NIL=
SBCJ NIL=
SBCO NIL=
SBCR NIL=
SBCT 110500Z 09003KT 9999 TS FEW010 FEW030CB SCT100 18/17
     Q1017=
SBCV NIL=
SBCY 110500Z 00000KT 9999 FEW020 SCT100 24/20 Q1011=
SBCZ NIL=
SBDN NIL=
SBFL 110500Z 30003KT 9000 -TSRA BKN030 FEW040CB 22/20 Q1013=
SBFN NIL=
SBGO 110500Z 33004KT 9999 SCT045 BKN100 20/18 Q1016=
SBGW NIL=
SBHT NIL=
SBIH NIL=
SBIL NIL=

0000010200
160
SABZ42 KWBC 110500 CCA
METAR
SBMQ 110500Z 31002KT 9999 FEW013 BKN080 24/23 Q1010=

0000084200
161
SABZ42 KWBC 110500
METAR
SBJR NIL=
SBLO 110500Z 22002KT CAVOK 25/20 Q1014=
SBMA 110500Z 27002KT 9999 -RA NSC 22/22 Q1011=
SBME NIL=
SBMN 110500Z 05003KT 9999 SCT010 BKN100 22/21 Q1012=
SBMO 110500Z 05003KT 9999 FEW020 22/21 Q1013=
SBMQ 110500Z 31002KT 9999 FEW013 BKN080 34/23 Q1010=
SBMT NIL=
SBPC NIL=
SBPK 110500Z 00000KT CAVOK 20/19 Q1009=
SBPP NIL=
SBPV 110500Z 34005KT 8000 -TSRA SCT008 SCT015 FEW025CB BKN070 2
     4/23 Q1010=
SBRB 110500Z 09004KT 9999 TS FEW010 FEW025CB SCT100 /////
     Q1011=
SBRJ NIL=
SBSC NIL=
SBSJ 110500Z 00000KT CAVOK 21/17 Q1015=
SBSM NIL=
SBSP 110500Z 03004KT CAVOK 23/17 Q1016=
SBST NIL=
SBTE 110500Z 29005KT 9999 SCT035 BKN070 25/22 Q1010=
SBTU NIL=
SBUG NIL=
SBUR NIL=
SBVH NIL=
SBVT 110500Z 33003KT CAVOK 24/23 Q1014=
SBYS NIL=

0000169600
162
SAUS75 KWBC 110500
METAR
PABA NIL=
PABE 110453Z 03010KT 10SM CLR M14/M15 A2939=
PABI 110453Z 28004KT 10SM OVC031 M19/M21 A2946=
PABR 110453Z 30012KT 6SM BR OVC008 M23/M26 A2981=
PABT 110453Z 00000KT 10SM CLR M35/ A2963=
PACV 110453Z 00000KT 10SM BKN036 M03/M04 A2927=
PACZ 110455Z AUTO 07025G32KT 10SM -SHSN BKN038 M08/M11 A2935=
PADK 110456Z AUTO 23032G42KT 5SM FEW016 SCT028 BKN035 03/M01
     A2873=
PADL 110450Z 03009KT 10SM OVC010 M06/M06 A2942=
PADU 110456Z AUTO 18005KT 10SM -RA SCT025 BKN029 OVC075 04/01
     A2902=
PAEH 110455Z AUTO 14021G31KT 5SM -FZRA BKN004 00/M01 A2927=
PAEI 110455Z 00000KT 10SM SCT006 M28/M31 A2955=
PAEN 110453Z 35003KT 10SM OVC006 M03/M04 A2936=
PAFA 110453Z 00000KT 10SM FEW002 SCT090 M31/M34 A2956=
PAFB 110455Z 00000KT 7SM FEW100 M32/M34 A2957=
PAGA 110458Z AUTO 00000KT 10SM CLR M32/M35 A2966=
PAGK 110453Z AUTO 35004KT 4SM -SN BR BKN045 OVC080 M12/M14
     A2926=
PAGS 110456Z AUTO 11004KT 10SM OVC044 02/01 A2931=
PAGY 110453Z AUTO 20012G20KT 10SM OVC075 03/M01 A2929=
PAHO 110453Z 03004KT 10SM BKN014 BKN025 OVC041 M01/M03 A2935=
PAIL 110453Z 01010KT 10SM BKN006 M06/M06 A2940=
PAJN 110453Z 08006KT 10SM SCT038 OVC055 02/00 A2932=
PAKN 110454Z 34004KT 10SM FEW004 SCT025 SCT130 M06/M07 A2937=
PAKT 110453Z 29005KT 10SM SCT120 03/00 A2920=
PALU 110455Z AUTO 06007KT 10SM OVC009 M19/M20 A2997=
PAMC 110453Z AUTO 00000KT 10SM SCT100 M18/M21 A2953=
PANC 110453Z 34004KT 10SM FEW006 BKN016 OVC025 M04/M06 A2934=
PANT 110453Z AUTO 06007KT 10SM OVC080 03/M02 A2915=
PAOM 110453Z 04016KT 10SM BLSN FEW032 SCT100 M12/M20 A2961=
PAOR 110453Z 30003KT 2SM -SN OVC024 M17/M19 A2933=

0000135600
163
FTCI41 ZBBB 110500
TAF ZBHH 110300Z 1106/1206 23004MPS CAVOK TXM06/06Z TNM18/22Z=
TAF AMD ZGHA 110415Z 1106/1206 35004MPS 2000 -RA BR SCT004 BKN007
OVC040 TX05/1107Z TN03/22Z=
TAF ZHCC 110308Z 1106/1206 27003MPS 1600 HZ NSC TX07/1107Z
TNM03/23Z TEMPO 1120/1202 0800 FZFG=
TAF ZHHH 110300Z 1106/1206 03003MPS 3000 BR SCT020 TX06/1106Z
TNM01/22Z BECMG 1115/1116 1600 BR BECMG 1202/1203 3000 BR TEMPO
 1122/1202
1000 BR=
TAF ZJHK 110316Z 1106/1206 07004MPS 6000 SCT020 BKN040 TX24/1106Z
TN15/1121Z BECMG 1117/1118 2500 BR BECMG 1123/1124 6000=
TAF ZJSY 110300Z 1106/1206 09006MPS 9999 SCT050 TX26/1106Z
TN19/22Z=
TAF ZLLL 110318Z 1106/1206 05003MPS 6000 NSC TX00/1108Z TNM18/23Z=
TAF ZSNJ 110325Z 1106/1206 09004MPS 1800 -RA BR BKN011 OVC040
TX07/1107Z TN03/1123Z BECMG 1109/1111 1200 BR BECMG 1116/1118 0700
 FG
BECMG 1201/1203 2000 BR=
TAF ZSOF 110302Z 1106/1206 08003MPS 4500 BR SCT026 TX07/1107Z
TN00/1122Z BECMG 1121/1123 2000 BR BECMG 1202/1203 3500 HZ=
TAF ZUCK 110310Z 1106/1206 06003MPS 2000 BR FEW007 SCT020 OVC050
TX07/1107Z TN05/1123Z BECMG 1117/1118 1400 -RA BR FEW002 SCT015
 OVC046
BECMG 1203/1204 2000=
TAF ZYCC 110302Z 1106/1206 25004MPS 5000 BR NSC TXM10/07Z
TNM25/20Z=
TAF ZYHB 110318Z 1106/1206 30004MPS 3000 BR SCT030 TXM13/07Z
TNM30/23Z TEMPO 1108/1113 2000 -SHSN=

0000117700
164
SAUS75 KWBC 110500 RRA
METAR
PAOT 110453Z VRB04KT 10SM CLR M20/M25 A2975=
PAPG NIL=
PASC 110453Z 25021KT 3/4SM R05/4000V5000FT -SN BR OVC010 M27/M30
     A2982=
PASI 110453Z 05005KT 10SM CLR 00/M01 A2929=
PASN 110453Z AUTO 08016KT 10SM FEW012 BKN080 BKN090 01/00
     A2903=
PATA 110452Z 00000KT 10SM CLR M34/ A2964=
PATC 110455Z AUTO 02027KT 3/4SM -SHSN BR VV002 M18/M19 A2969=
PATK 110453Z AUTO 00000KT 10SM OVC020 M07/M10 A2934=
PAUN 110456Z AUTO 09009KT 10SM CLR M16/M22 A2956=
PAVD 110456Z 10SM BKN120 M07/M08 A2929=
PAYA 110453Z AUTO 08004KT 7SM FEW003 OVC012 00/M01 A2929=
PGRO 110450Z 04012KT 7SM SCT030 SCT100 27/24 A2988=
PGUA 110458Z AUTO 05014G20KT 10SM FEW055 28/23 A2986=
PGUM 110454Z 05016KT 10SM FEW049 BKN055 29/22 A2985=
PHJH NIL=
PHLI 110453Z 05019G27KT 10SM SCT016 BKN020 OVC060 23/21 A2996=
PHMK 110454Z AUTO 05009KT 10SM CLR 22/20 A2992=
PHNL 110453Z 06012G18KT 10SM FEW033 24/18 A2991=
PHNY 110456Z AUTO 04009KT 10SM CLR 20/18 A2997=
PHOG 110454Z 04012KT 10SM CLR 23/19 A2992=
PHTO 110453Z 25005KT 10SM FEW046 21/19 A2994=
PMDY 110456Z AUTO 11013G18KT 5SM HZ CLR 21/18 A3011=
PWAK NIL=

0000010900
165
SAUS75 KWBC 110400 RRF
METAR
PAMC 110411Z AUTO 30003KT 10SM SCT027 BKN095 M17/M20 A2954=

0000009900
166
SACN48 CWAO 110500
METAR CYPX 110500Z 19009KT 15SM SKC M25/M27 A2976 RMK SLP083=

0000049600
167
SABZ43 KWBC 110500
METAR
SBAN NIL=
SBAT NIL=
SBBA NIL=
SBBQ NIL=
SBBW NIL=
SBCC NIL=
SBER NIL=
SBES NIL=
SBGA NIL=
SBIZ NIL=
SBJF NIL=
SBJP 110500Z 21004KT 9999 FEW020 23/20 Q1012=
SBKG NIL=
SBLB NIL=
SBLP NIL=
SBMK NIL=
SBMS NIL=
SBMZ NIL=
SBPB NIL=
SBPJ NIL=
SBPL 110500Z 12004KT 9999 SCT020 25/20 Q1013=
SBPN NIL=
SBQV NIL=
SBRP 110500Z 00000KT 9000 NSC 20/19 Q1015=
SBTF NIL=
SBTK NIL=
SBUF NIL=
SBUI NIL=
SBUL NIL=

0000026100
168
FTUS51 KWBC 110506 AAA
TAF AMD
KCAR 110505Z 1105/1124 21004KT P6SM BKN015
     FM111200 17006KT P6SM OVC050
     FM111600 16009KT 5SM -FZRASNPL OVC020
     FM111700 16010KT 3SM -FZRAPL OVC015
     FM111900 16011KT 1SM -RA BR OVC008=

0000025500
169
FTUS53 KWBC 110506 AAA
TAF AMD
KSPI 110505Z 1105/1124 19012KT P6SM -RADZ OVC006
     FM110700 22012KT 3/4SM BR OVC005
     FM111400 26012G18KT P6SM OVC015
     FM111700 27014G22KT P6SM BKN025
     FM112100 27014KT P6SM SCT250=

0000008700
170
SAMC31 GMMC 110500 RRA
METAR GMAD 110500Z 00000KT CAVOK 10/09 Q1015=

0000137900
171
FTCI31 ZBBB 110500
TAF ZBAA 110340Z 1106/1206 33004MPS CAVOK TX02/1107Z TNM12/22Z=
TAF ZBSJ 110255Z 1106/1206 18004MPS 1700 FU NSC TX05/1107Z
TNM10/23Z BECMG 1110/1111 1000 BECMG 1200/1201 2000 BECMG 1202/1203
3500=
TAF ZBTJ 110320Z 1106/1206 22004MPS 1100 HZ NSC TX03/1107Z
TNM08/23Z BECMG 1118/1120 36006MPS 3500=
TAF ZBYN 110309Z 1106/1206 31004MPS 6000 NSC TX03/1107Z TNM12/22Z=
TAF ZGGG 110303Z 1106/1206 06003MPS 5000 HZ BKN040 TX21/1107Z
TN12/1121Z BECMG 1121/1122 2500 BECMG 1201/1202 6000=
TAF ZSHC 110300Z 1106/1206 09003MPS 3000 -RA BR FEW010 BKN025
TX07/1107Z TN04/21Z=
TAF ZSPD 110324Z 1106/1206 07005MPS 5000 -RA BR BKN016 OVC040
TX08/1106Z TN03/1122Z BECMG 1114/1115 1800 -RA BR BKN004 OVC033
 BECMG 1201/1202
01006MPS 5000 -RA BR BKN013 OVC040=
TAF ZSSS 110324Z 1106/1206 07004MPS 6000 SCT020 TX08/1106Z
 TN04/1122Z
BECMG 1200/1201 36005MPS=
TAF ZWSH 110345Z 1106/1206 09003MPS 5000 FU NSC BECMG 1112/1113
32003MPS SCT040 BECMG 1114/1115 36005MPS BKN040 TXM02/09Z TNM11/00Z=
TAF ZWWW 110312Z 1106/1206 36002MPS 1000 FU NSC BECMG 1111/1112
18002MPS 0700 FZFG SCT007 BECMG 1201/1202 36002MPS 0500 FZFG SCT004
TXM12/08Z TNM23/01Z=
TAF ZYTL 110333Z 1106/1206 28004G10MPS 4000 BR FEW033 TX06/1106Z
TNM03/19Z BECMG 1116/1117 35007G13MPS=
TAF ZYTX 110227Z 1106/1206 22004MPS CAVOK TXM01/07Z TNM17/22Z=

0000176600
172
FTIR31 OIII 110500
TAF OIAW 110500Z 1106/1212 10005MPS 2500 BR FEW035CB SCT040 BKN100
    TEMPO 1106/1121 15009MPS 1500 TSRA BR SCT035CB SCT040 OVC070
    PROB40 TEMPO 1100/1106 0500 FG OVC010
    BECMG 1121/1123 1200 BR BKN015
    TEMPO 1200/1206 0500 FG OVC005=
TAF OIFM 110500Z 1106/1212 22005MPS 1200 BR SCT035 BKN100
    BECMG 1108/1110 15005MPS 1500 HZ FEW035CB SCT040 OVC100
    TEMPO 1112/1118 1500 SN FEW030CB SCT035 OVC080
    BECMG 1118/1120 35004MPS 1000 BR SCT030
    TEMPO 1121/1203 0500 FG SCT020 OVC090
    BECMG 1206/1208 3000 HZ=
TAF OIII 110500Z 1106/1212 14005MPS 6000 FEW035CB SCT040 OVC100
    TEMPO 1106/1112 2000 SNRA FEW030CB SCT035 OVC080
    BECMG 1114/1116 4000 HZ SCT030 BKN100
    BECMG 1116/1118 35004MPS 3000 BR
    TEMPO 1120/1203 1500 BR
    BECMG 1205/1207 4000 HZ SCT040=
TAF OIKB 110500Z 1106/1212 15006MPS 6000 SCT040 BKN080
    TEMPO 1106/1115 22009MPS 3000 TS/SHRA SCT035 SCT040 OVC070=
TAF OIKK 110500Z 1106/1212 13005MPS 3000 BR FEW035CB SCT040 OVC100
    TEMPO 1106/1115 1500 SNRA FEW030CB SCT035 OVC080 PROB30 0500 FG
    BECMG 1116/1118 2000 BR SCT030
    BECMG 1204/1206 6000 SCT040=
TAF OIMM 110500Z 1106/1212 18005MPS 3000 HZ FEW035 BKN100
    BECMG 1112/1114 6000 SCT035 SCT090
    TEMPO 1118/1206 FEW035CB SCT040 OVC090=
TAF OISS 110500Z 1106/1212 22005MPS 4000 BR HZ FEW035CB SCT040 BKN080
    TEMPO 1106/1203 17006MPS 1500 SNRA BR FEW030CB SCT035 OVC080
    PROB40 TEMPO 1118/1203 0800 FG
    BECMG 1205/1207 6000 SCT040=
TAF OITT 110500Z 1106/1212 22005MPS 4000 HZ FEW035 BKN100
    TEMPO 1121/1205 3000 BR SCT035 BKN080=
TAF OIZH 110500Z 1106/1212 15005MPS 6000 SCT040 BKN100
    TEMPO 1108/1124 22006MPS FEW035CB SC040 OVC100=

0000012300
173
SACN62 CYXU 110500
METAR CYXU 110500Z 13009KT 2SM -RA BR OVC003 02/02 A2978 RMK FG1SF7
 PRESFR SLP092=

0000014200
174
SACN62 CYYJ 110500
METAR CYYJ 110500Z 14014G20KT 6SM RA BR FEW005 BKN009 OVC013 08/07
 A2957 RMK SC2SC4SC2 PRESFR SLP015=

00000000