0000053900
395
SAMS34 WMKK 110500
METAR WBGB 110500Z 33007KT 9999 SCT014 BKN150 28/24 Q1012=
METAR WBGR 110500Z 26008KT 9999 SCT014 BKN150 26/23 Q1012 RETS=
METAR WBGS 110500Z 35010KT 9999 BKN018 BKN150 29/24 Q1011=
METAR WBGY 110500Z 02004KT 300V110 9999 FEW018 SCT150 BKN300 29/24
Q1011=
METAR WBKL 110500Z 32003KT 9999 FEW012 BKN300 29/25 Q1011=
METAR WBKS 110500Z 04009KT 9999 SCT015 FEW017CB SCT140 OVC260 29/26
Q1010=
METAR COR WBKT 110500Z 11001KT 9999 SCT013 SCT033 BKN260 28/25 Q1011=
METAR WBKW 110500Z NIL=

0000020900
396
FTAU31 AMMC 110500 AAA
TAF YPTN 110506Z 1106/1206 12008KT 9999 SCT035
     TEMPO 1106/1115 12025G40KT 1000 TSRA BKN010 SCT020CB
     TEMPO 1204/1206 12025G40KT 1000 TSRA BKN010 SCT020CB=

0000020200
397
SAIO31 KWBC 110500 RRA
METAR
FMCZ 110504Z VRB03KT 9999 FEW021 BKN300 29/24 Q1014 NOSIG=
FMEE 110500Z 09020KT 9999 FEW026 29/23 Q1015 NOSIG=
VYMD 110500Z NIL=
VYYY 110500Z NIL=

0000060200
398
SAMS38 WMKK 110500
METAR WBGB 110500Z 33007KT 9999 SCT014 BKN150 28/24 Q1012=
METAR WBGR 110500Z 26008KT 9999 SCT014 BKN150 26/23 Q1012 RETS=
METAR WBGS 110500Z 35010KT 9999 BKN018 BKN150 29/24 Q1011=
METAR WBKL 110500Z 32003KT 9999 FEW012 BKN300 29/25 Q1011=
METAR WBKS 110500Z 04009KT 9999 SCT015 FEW017CB SCT140 OVC260 29/26
Q1010=
METAR WBKW 110500Z NIL=
METAR WMKD 110500Z 02005KT 9999 FEW018 BKN160 BKN270 24/23 Q1012
NOSIG=
METAR WMKL 110500Z 04009KT 9999 FEW022 SCT140 BKN270 30/22 Q1012=
METAR WMKM 110500Z 03009KT 340V080 9999 SCT021 BKN280 31/24 Q1011=

0000124300
399
SASA31 KWBC 110500
METAR
SEGU 110500Z 24009KT 9999 BKN023 BKN100 25/20 Q1010 RMK A2985
     NOSIG=
SEQU NIL=
SKBO 110500Z 04006KT 8000 BKN015 12/10 A3030 RMK HZ=
SKBQ 110500Z 02008KT 9999 SCT015 26/23 A2985=
SKCG 110500Z 03003KT CAVOK 26/23 A2984=
SKCL 110500Z 04003KT 9999 -DZ FEW020 BKN090 21/19 A2997=
SKLT NIL=
SKRG 110500Z 00000KT 9999 FEW010 SCT080 15/14 A3026=
SKSP 110500Z 08014KT 9999 FEW018 27/24 A2991=
SMNI NIL=
SMZO 110500Z NIL=
SMZY NIL=
SOCA 110500Z AUTO VRB02KT 9999 -RA BKN005 BKN032 OVC045 22/21
     Q1012=
SPIM 110500Z 16011KT CAVOK 22/19 Q1012 NOSIG RMK BKN170 PP000=
SPQT 110500Z 00000KT 9999 SCT020 BKN100 24/23 Q1010 NOSIG RMK
     PP000=
SPQU 110500Z 00000KT 9999 SCT015 SCT040 12/10 Q1025 RMK PP000=
SPSO 110500Z /////KT 9999 FEW100 21/19 Q1011 RMK PP000=
SPTN 110500Z 00000KT 9999 BKN050 20/16 Q1011 RMK PP000=
SPYL NIL=
SPZO 110500Z 00000KT 9999 FEW025 SCT043 BKN070 09/07 Q1031 RMK
     -SHRA BTN 0420/0440 PP002=
SVBC 110500Z 00000KT 9999 FEW010 23/22 Q1015=
SVMC NIL=
SVMG 110500Z /////KT 9999 SCT010 24/22 Q1014 NOSIG=
SVMI 110500Z 00000KT 9999 FEW016 23/18 Q1014 NOSIG=
SYCJ 110500Z 00000KT 9999 SCT015 21/20 Q1012 NOSIG=
SYTM NIL=

0000027500
400
SASA41 KWBC 110500
METAR
SEMT 110500Z NIL=
SEPA NIL=
SKBG 110500Z 00000KT 9999 FEW012 SCT100 20/19 A2999=
SKMD NIL=
SKPE 110500Z 12006KT 9999 FEW015 SCT080 19/16 A3010=
SKSM NIL=
SKVG NIL=
SMJP 110500Z 11003KT 9999 SCT012 23/23 Q1012 NOSIG=

0000026100
401
SASA42 KWBC 110500
METAR
SCAC NIL=
SCHA NIL=
SCSE 110500Z 26003KT CAVOK 15/14 Q1011=
SCSE 110500Z NIL=
SCTC NIL=
SCTI NIL=
SCVD NIL=
SELT 110500Z 33002KT 9999 BKN030 09/09 Q1029=
SUAG NIL=
SUDU NIL=
SUPU NIL=
SUTB NIL=

0000004200
402
SAVN42 KWBC 110500
NIL=

0000118000
403
SASA32 KWBC 110500
METAR SCAR 110500Z 18003KT 9999 OVC045 23/18 Q1012=
METAR SCAR 110500Z 18003KT 9999 OVC045 23/18 Q1012=
METAR SCBA 110500Z AUTO 33011KT 290V350 CAVOK 08/03 Q1020=
METAR SCCF 110500Z 18003KT CAVOK 13/06 Q1024=
METAR SCCH NIL=
METAR SCCI 110500Z 30012KT 9999 SCT030 OVC090 08/05 Q1008 NOSIG=
METAR SCCI 110500Z 30012KT 9999 SCT030 0VC090 08/05 Q1008 NOSIG=
METAR SCDA 110500Z 18005KT CAVOK 22/17 Q1012=
METAR SCEL 110500Z 16004KT CAVOK 19/06 Q1013 NOSIG=
METAR SCFA 110500Z 19004KT 9999 SCT014 20/16 Q1011 NOSIG=
METAR SCGE NIL=
METAR SCIE 110500Z 22005KT CAVOK 12/09 Q1015=
METAR SCIP 110500Z 11006KT 9999 FEW020 BKN060 23/18 Q1021 NOSIG=
METAR SCTE 110500Z 15004KT CAVOK 09/07 Q1023 NOSIG=
METAR SGAS NIL=
METAR SGES NIL=
METAR SLCB 110500Z 13006KT 9999 FEW027 16/08 Q1023=
METAR SLCZ NIL=
METAR SLLP 110500Z 09004KT 4000E VCFG FEW003 SCT200 07/05 Q1035=
METAR SLTJ NIL=
METAR SLTR NIL=
METAR SLVR 110500Z 36005KT 9999 FEW070 23/22 Q1010=
METAR SUAA NIL=
METAR SUCA NIL=
METAR SULS NIL=
METAR SUMU 110500Z 34003KT CAVOK 21/18 Q1008 NOSIG=
METAR SUPE NIL=
METAR SURV NIL=
METAR SUSO NIL=

0000082600
404
SAEG32 HECA 110500 CCA
METAR HEMM 110500Z 24006KT 9999 BKN020 11/09 Q1025 NOSIG=
METAR HEAX 110500Z 00000KT 9999 SCT020 09/07 Q1024 NOSIG=
METAR HEAL 110500Z NIL=
METAR HELX 110500Z 00000KT CAVOK       07/05 Q1024 NOSIG=
METAR HESN 110500Z 02003KT CAVOK       09/04 Q1023 NOSIG=
METAR HEAR 110500Z =
METAR HEGN 110500Z 31008KT CAVOK       13/08 Q1024 NOSIG=
METAR HEPS 110500Z 36009KT 9999 SCT025 16/14 Q1024 NOSIG=
METAR HETB 110500Z NIL=
METAR HESH 110500Z 33005KT 9999 FEW020 13/02 Q1022 NOSIG=
METAR HEAT 110500Z 28002KT 8000 NSC    05/04 Q1025 NOSIG=
METAR HEBA 110500Z 00000KT 9999 FEW020 10/09 Q1025 NOSIG=
METAR HEBL 110500Z NIL=
METAR HESC 110500Z 30006KT 9999 SCT025 06/02 Q1024 NOSIG=
METAR HESG 110500Z NIL=
METAR HEMA 110500Z 31009KT CAVOK       14/00 Q1020 NOSIG=

0000051000
405
SAAL40 DAMM 110500
METAR DAAG 110500Z VRB02KT 9999 FEW030 BKN100 11/09 Q1017=
METAR DAAT 110500Z 20002KT CAVOK 11/M04 Q1023=
METAR DABB 110500Z 22007KT  CAVOK 09/07 Q1016=
METAR DABC 110500Z  22008KT CAVOK 04/01 Q1019=
METAR DABS 110500Z 00000KT CAVOK 01/M02 Q1021=
METAR DAON 110500Z 22008KT 9999 FEW030 BKN100 15/04 Q1015=
METAR DAOO 110500Z VRB02KT 9999 FEW026 BKN100 12/10 Q1016=
METAR DAUH 110500Z 00000KT CAVOK 08/06 Q1020=
METAR DAUZ 110500Z 08008KT CAVOK 07/01 Q1021=

0000011500
406
SACN62 CYUL 110500
METAR CYUL 110500Z /////KT 8SM OVC028 M06/M08 A3013 RMK SC8 PRESFR
 SLP204=

0000018800
407
FTIC31 FMCH 110500
TAF FMCH 110500Z 1106/1212 34010KT 9999 FEW020 SCT030 PROB30 TEMPO
1110/1114 SHRA FEW018CB BKN030 BECMG 1116/1118 06006KT BECMG
1206/1208 30012KT=

0000042300
408
FAHU41 LHBM 110500
LHCC GAMET VALID 110600/111200 LHBP-
BUDAPEST FIR BLW FL100
SECN 1
SFC VIS: 06/09 200-5000 M FG FZFG BR SW OF LINE LHPP-LHSY
         06/09 100-5000 M FZFG BR NE OF LINE
         N4819 E02022 - N4734 E02206
SIG CLD: 06/10 BKN/OVC 200-1000/2000 FT AGL SW OF LINE
         N4545 E01825 - N4726 E01636
ICE: MOD BTN 5000/10000 FT AMSL E OF E01800
SIGMETS APPLICABLE: NIL=

0000109000
409
SAAL41 DAMM 110500
METAR DAAD 110500Z NIL=
METAR DAAE 110500Z 26012KT CAVOK 14/06 Q1018=
METAR DAAJ 110500Z NIL=
METAR DAAP 110500Z 09006KT CAVOK 06/M01 Q1020=
METAR DAAS 110500Z 00000KT CAVOK 02/M01 Q1020=
METAR DAAV 110500Z 20006KT CAVOK 12/06 Q1016=
METAR DAAY 110500Z NIL=
METAR DABT 110500Z NIL=
METAR DAEF 110500Z NIL=
METAR DAEN 110500Z NIL=
METAR DAFH 110500Z NIL=
METAR DAOB 110500Z NIL=
METAR DAOF 110500Z NIL=
METAR DAOI 110500Z 04006KT CAVOK 13/05 Q1018=
METAR DAOL 110500Z NIL=
METAR DAOR 110500Z 00000KT 8000 -RA SCT033 SCT100 11/07 Q1018=
METAR DAOV 110500Z 14010KT 9999 SCT033 SCT100 13/07 Q1018 RERA=
METAR DATG 110500Z NIL=
METAR DATM 110500Z NIL=
METAR DAUA 110500Z NIL=
METAR DAUB 110500Z /////KT CAVOK 08/05 Q1019=
METAR DAUE 110500Z /////KT CAVOK 10/07 Q1020=
METAR DAUG 110500Z VRB02KT CAVOK 08/05 Q1022=
METAR DAUI 110500Z NIL=
METAR DAUK 110500Z 00000KT CAVOK 06/05 Q1021=
METAR DAUL 110500Z NIL=
METAR DAUO 110500Z NIL=
METAR DAUT 110500Z NIL=
METAR DAUU 110500Z 00000KT CAVOK 07/06 Q1020=

0000023300
410
SANZ31 NZKL 110500
METAR NZAA 110500Z AUTO 23010KT 9999 SCT046/// 21/13 Q1017 NOSIG=
METAR NZWN 110500Z AUTO 34013KT 9999 NCD 21/13 Q1015 NOSIG=
METAR NZCH 110500Z AUTO 07016KT 9999 OVC020/// 17/12 Q1012 NOSIG=

0000089100
411
SACI31 ZBBB 110500
METAR ZBAA 110500Z VRB02MPS CAVOK 03/M25 Q1029 NOSIG=
METAR ZBSJ 110500Z 20002MPS 1600 R33/1200N FU NSC 04/M11 Q1029
 NOSIG=
METAR ZBTJ 110500Z 19003MPS 180V240 0800 R16R/0800N HZ NSC
01/M06
Q1029 NOSIG=
METAR ZBYN 110500Z 20004MPS 160V230 3500 HZ NSC 01/M20 Q1027 NOSIG=
METAR ZGGG 110500Z VRB01MPS 5000 HZ NSC 20/09 Q1023 NOSIG=
METAR ZSHC 110500Z 09003MPS 2500 -RA BR SCT006 BKN020 06/04
Q1030 NOSIG=
METAR ZSPD 110500Z 05006MPS 010V070 9999 -RA NSC 06/03 Q1030 NOSIG=
METAR ZSSS 110500Z 10005MPS 9999 -RA SCT020 07/03 Q1030 NOSIG=
METAR ZWSH 110500Z 09002MPS 4000 FU NSC M06/M11 Q1035 NOSIG=
METAR ZWWW 110500Z 29003MPS 0500 R25/0650N FZFG FEW006 M19/M22
Q1036
BECMG TL0600 0700 FZFG=
METAR ZYTL 110500Z 29005MPS 260V320 4000 HZ NSC 05/M09 Q1029 NOSIG=
METAR ZYTX 110500Z 21004MPS 180V240 CAVOK M01/M19 Q1027 NOSIG=

0000050200
412
FTIS31 LLBD 110500
TAF LLBG 110457Z 1106/1206 14005KT 9999 BKN030
     BECMG 1107/1109 30008KT SCT040
     BECMG 1116/1119 16004KT BKN025
     TX19/1112Z TN10/1203Z=
TAF LLOV 110506Z 1106/1206 30005KT 5000 BR BKN020
     BECMG 1108/1110 02008KT 9999 SCT040
     BECMG 1117/1120 30005KT 5000 BR NSC
     PROB40 1123/1205 3000 BR NSC
     TX14/1112Z TN07/1203Z=
TAF LLET 110500Z 1106/1206 02010KT 9999 SCT050
     BECMG 1112/1115 CAVOK
     TX17/1112Z TN09/1203Z=

0000097800
413
SACI32 ZBBB 110500
METAR ZGKL 110500Z VRB01MPS 2000 -RA BR FEW006 SCT016 OVC036
07/06
Q1027 NOSIG=
METAR ZGNN 110500Z 05003MPS 2500 BR SCT015 OVC026 15/11 Q1023 NOSIG=
METAR ZGOW 110500Z 07003MPS 340V130 8000 NSC 18/10 Q1023 NOSIG=
METAR ZGSZ 110500Z 30004MPS 4500 HZ NSC 18/12 Q1022 NOSIG=
METAR ZLXY 110500Z 23005MPS 5000 HZ NSC 07/M14 Q1031 NOSIG=
METAR ZMUB 110500Z 00000MPS 1500NW 2000SE R14/0700N FU BR
NSC
M25/M28
Q1028 NOSIG RMK QFE662.5 75 NW SE MO=
METAR ZPPP 110500Z 24011MPS CAVOK 15/M03 Q1022 NOSIG=
METAR ZSAM 110500Z 04003MPS CAVOK 19/12 Q1024 NOSIG=
METAR ZSFZ 110500Z 36004MPS 320V030 9999 BKN028 16/08 Q1025 NOSIG=
METAR ZSNB 110500Z 32002MPS 1800 -RA BR FEW004 BKN020 OVC050
07/06
Q1029 NOSIG=
METAR ZSQD 110500Z 25002MPS 2500 FU NSC 04/M06 Q1031 NOSIG=
METAR ZUGY 110500Z 02002MPS 360V060 8000 FEW007 BKN015 OVC033
03/01
Q1026 NOSIG=
METAR ZUUU 110500Z 04002MPS 340V090 6000 NSC 09/01 Q1028 NOSIG=

0000054200
414
SATH33 VTBB 110500
METAR VTBO 110500Z 04014KT 7000 FEW030 SCT200 32/22 Q1015=
METAR VTUD 110500Z 12004KT CAVOK 26/14 Q1018
A3007 INFO G RWY30=
METAR VTUI 110500Z NIL=
METAR VTUK 110500Z 09006KT 040V170 CAVOK 27/18 Q1018 A3006
RWY03 INFO G=
METAR VTUL 110500Z 15003KT 3000 HZ NSC 27/15 Q1016 A3001=
METAR VTUO 110500Z NIL=
METAR VTUQ 110500Z NIL=
METAR  VTUU 110500Z 30003KT CAVOK 29/17 Q1015 A2999 NOSIG=
METAR VTUV 110500Z NIL=
METAR VTUW 110500Z 06006KT 9999 SCT050 28/14 Q1017 A3004
RWY15 INFO E=

00000000