0000053400
975
SNDL49 EDZW 111700 RRA
AAXX 11171
10771 41235 81002 10015 20013 39678 40192 53003 75866 875//
  333 83704 85625 87645=
10837 42760 72504 10047 20037 39549 40211 52016 875//
  333 87656=
10853 41456 82202 10024 20020 39730 40205 52009 75122 875//
  333 86615 87624=
10856 46/62 /2305 10064 20045 39530 40201 5/011=
10857 41459 82306 10066 20047 39458 40201 50011 76366 8782/
  333 81810 87633 88458=
10860 46/56 /2603 10020 20018 39756 40206 5/009=
10954 46/// /2807 10061 20041 39313 48499 5/010=
0000011100
976
UANT01 CWAO 111704
ARP DAH2700 4801N03952W 1704 F330 MS59 303/54 KT
7TVJZ QXT AOE 111704 J36A
0000011000
977
UANT01 CWAO 111704
ARP BAW60T 4754N04023W 1704 F360 MS62 300/49 KT
GVIIO QXT AOE 111704 F29A
0000015700
978
SSVX13 LFPW 111700
ZZYY 62507 11014 1700/ 747411 011724 6113/ 11119 40121 57013 22219
 00119 444 20130 11014 1656/ 50101 80104 80031 9/015=
0000015700
979
SSVX13 LFPW 111700
ZZYY 62714 11014 1700/ 734359 021702 6113/ 11119 40136 52011 22219
 00192 444 20130 11014 1657/ 50101 80100 80000 9/015=
0000016300
980
SSVX13 LFPW 111700
ZZYY 13593 11014 1700/ 738175 018542 6113/ 22219 00166 33300 88872
 20000 43616 444 20130 11014 1655/ 50101 80118 80035 9/015=
0000015700
981
SSVX13 LFPW 111700
ZZYY 62508 11014 1700/ 745932 006066 6113/ 11119 40196 57004 22219
 00130 444 20130 11014 1655/ 50101 80104 80031 9/015=
0000011000
982
UANT01 CWAO 111705
ARP TAP103 4504N04146W 1705 F390 MS58 309/47 KT
CSTOM DDL XXH 111705 J63A
0000018600
983
SNQB50 LQSM 111700
AAXX 11171
14543 NIL=
14549 46/// /1601 10092 2//// 39794 40208 70000=
14554 NIL=
14650 NIL=
14657 46/// /0600 10111 21002 30207 40207 54002=
0000015800
984
SNQB45 LQSM 111700
AAXX 11171
14528 NIL=
14537 NIL=
14544 NIL=
14557 42960 20203 10084 20035 39847 40216 80002 333 82070=
14640 NIL=
0000032000
985
SNQB40 LQSM 111700
AAXX 11171
14654 42870 21401 10087 20021 39468 40212 82030 333 82357=
14648 42770 70000 10115 20091 30108 40228 83570 333 83650 87360=
14652 42960 32305 10003 21006 37961 48524 83051 333 83358 444 37206=
14542 42970 60000 10104 20056 30017 40206 54000 86070 333 86460 95900
=
0000018600
986
SNQB50 LQSM 111600
AAXX 11161
14543 NIL=
14549 46/// /1401 10111 2//// 39791 40202 70000=
14554 NIL=
14650 NIL=
14657 46/// /1300 10110 21010 30208 40208 54002=
0000015800
987
SNQB45 LQSM 111600
AAXX 11161
14528 NIL=
14537 NIL=
14544 NIL=
14557 42965 20401 10115 20037 39847 40211 81032 333 81360=
14640 NIL=
0000032000
988
SNQB40 LQSM 111600
AAXX 11161
14654 42770 40401 10103 20027 39467 40206 81131 333 81850=
14648 42770 73001 10120 20088 30108 40228 83570 333 83650 87360=
14652 42960 32307 11005 21005 37962 48526 83051 333 83358 444 47206=
14542 42970 61401 10122 20058 30017 40206 54000 86070 333 86460 95900
=
0000011200
989
SIQB20 LQSM 111500
AAXX 11151
14654 42770 43002 10125 20028 39465 40198 55003 81131 333 81850=
0000010800
990
UANT01 CWAO 111705
ARP THY1 5201N01957W 1705 F320 MS55 188/79 KT
TCJJN QXT AOE 111705 F23A
0000011200
991
UANT01 CWAO 111705
ARP IBE6253 4439N01859W 1705 F330 MS56 198/106 KT
ECLUB QXT EUA 111705 J38A
0000011000
992
UANT01 CWAO 111705
ARP SWR14E 5119N03742W 1705 F380 MS56 290/41 KT
HBJHM QXT AOE 111705 J42A
0000011000
993
UANT01 CWAO 111705
ARP CRL938 4743N02351W 1705 F380 MS48 209/51 KT
FHBIL QXT AOE 111705 J24A
0000023400
994
NOUK32 EGGY 110511
SADIS GATEWAY MONITOR
INTERNAL ALARM MESSAGE
AERODROME NOT RECEIVED

SKBO FT LAST RECEIVED AT 101000Z
VABB FT LAST RECEIVED AT 100300Z
YMML FT LAST RECEIVED AT 110049Z
END OF MESSAGE

00000000