0000009100
195
FTNT31 KWBC 110506
TAF
TAF BGSF 110500Z 1106/1212 06008KT 9999 SCT180=

0000066700
196
FTUS31 KWBC 110506 AAA
TAF AMD
KBNA 110502Z 1105/1124 19010G20KT P6SM SCT015 OVC035
     FM110700 19015G25KT 3SM -SHRA BR VCTS OVC008CB
      TEMPO 1109/1113 2SM TSRA OVC005CB
     FM111300 26012G25KT P6SM OVC025
     FM111600 27010G20KT P6SM BKN050=
KBWI 110503Z 1105/1206 00000KT 1/4SM -DZ FG VV002 WS020/00030KT
     FM111000 VRB03KT 1/2SM -RA FG OVC002 WS020/20045KT
     FM111500 19007KT 3/4SM BR OVC004 WS020/20050KT
     FM111700 17011G19KT 2SM -SHRA BR OVC003 WS020/20045KT
     FM112100 20012G20KT 1 1/2SM SHRA BR OVC010 WS020/19050KT
     FM112300 23009KT 1 1/2SM -SHRA BR OVC010
     FM120300 26009KT P6SM BKN050=

0000015100
197
FTPF21 NTAA 110500
TAF NTAA 110500Z 1106/1212 VRB02KT 9999 FEW020 BECMG 1120/1121
05012KT PROB30 TEMPO 1122/1203 5000 SHRA BKN015=

0000010100
198
SPCN46 CWAO 110505
SPECI CYBN 110505Z AUTO 15007KT 2 1/4SM -RA OVC004 02/02 A2982=

0000042500
199
SAIY35 LIIB 110500
METAR LIQN 110500Z NIL=
METAR LIQW 110500Z NIL=
METAR LIRG 110500Z NIL=
METAR LIRH 110455Z 14003KT 5000 BR FEW010 BKN015 07/05 Q1022=
METAR LIRL 110455Z 00000KT 9999 SCT030 08/06 Q1021=
METAR LIRM 110455Z 03003KT 3500 BR SCT070 06/05 Q1021=
METAR LIRS 110455Z /////KT 9999 FEW020 05/03 Q1022=
METAR LIRU 110500Z NIL=
METAR LIRV 110455Z 02008KT 0150 FG BKN001 03/02 Q1021=

0000036900
200
SAHW31 KWBC 110500
METAR
PBKH NIL=
PHJR 110453Z 00000KT 10SM FEW035 21/18 A2992=
PHKO 110453Z 15009KT 10SM CLR 25/18 A2988=
PHLI 110453Z 05019G27KT 10SM SCT016 BKN020 OVC060 23/21 A2996=
PHNL 110453Z 06012G18KT 10SM FEW033 24/18 A2991=
PHOG 110454Z 04012KT 10SM CLR 23/19 A2992=
PHTO 110453Z 25005KT 10SM FEW046 21/19 A2994=
PNGF NIL=

0000026400
201
SAIY36 LIIB 110500
METAR LIBC 110450Z 31003KT CAVOK 08/08 Q1022=
METAR LIBF 110500Z NIL=
METAR LIBG 110500Z NIL=
METAR LIBP 110450Z VRB03KT 6000 NSC 03/00 Q1022=
METAR LIRI 110500Z NIL=
METAR LIRJ 110500Z NIL=
METAR LIRZ 110500Z NIL=

0000023700
202
SAIY37 LIIB 110500
METAR LICA 110450Z 09007KT 9999 FEW025 04/03 Q1022=
METAR LICD 110500Z NIL=
METAR LICG 110500Z NIL=
METAR LICR 110450Z 06007KT CAVOK 08/06 Q1021=
METAR LICT 110455Z 13011KT CAVOK 13/11 Q1019=

0000064900
203
FTUS71 KWBC 110506 AAA
TAF AMD
KBWI 110503Z 1105/1206 00000KT 1/4SM -DZ FG VV002 WS020/00030KT
     FM111000 VRB03KT 1/2SM -RA FG OVC002 WS020/20045KT
     FM111500 19007KT 3/4SM BR OVC004 WS020/20050KT
     FM111700 17011G19KT 2SM -SHRA BR OVC003 WS020/20045KT
     FM112100 20012G20KT 1 1/2SM SHRA BR OVC010 WS020/19050KT
     FM112300 23009KT 1 1/2SM -SHRA BR OVC010
     FM120300 26009KT P6SM BKN050=
KCAR 110505Z 1105/1124 21004KT P6SM BKN015
     FM111200 17006KT P6SM OVC050
     FM111600 16009KT 5SM -FZRASNPL OVC020
     FM111700 16010KT 3SM -FZRAPL OVC015
     FM111900 16011KT 1SM -RA BR OVC008=

0000021500
204
FTUS72 KWBC 110506
TAF
TAF AMD TJSJ 110501Z 1105/1124 08008KT P6SM FEW025
      TEMPO 1105/1106 5SM SHRA BKN030
     FM110600 VRB04KT P6SM VCSH FEW025
     FM111330 07016G25KT P6SM SCT025=

0000025500
205
FTUS73 KWBC 110506 AAA
TAF AMD
KSPI 110505Z 1105/1124 19012KT P6SM -RADZ OVC006
     FM110700 22012KT 3/4SM BR OVC005
     FM111400 26012G18KT P6SM OVC015
     FM111700 27014G22KT P6SM BKN025
     FM112100 27014KT P6SM SCT250=

0000027900
206
FTUS72 KWBC 110506 AAA
TAF AMD
KBNA 110502Z 1105/1124 19010G20KT P6SM SCT015 OVC035
     FM110700 19015G25KT 3SM -SHRA BR VCTS OVC008CB
      TEMPO 1109/1113 2SM TSRA OVC005CB
     FM111300 26012G25KT P6SM OVC025
     FM111600 27010G20KT P6SM BKN050=

0000009600
207
SAIN90 VOVZ 111700
METAR VOVZ 111700Z 00000KT 2500 BR NSC 22/20 Q1016 NOSIG =

0000103500
208
FTKO31 RKSI 110500
TAF RKSI 110500Z 1106/1212 23006KT 9999 SCT030 BKN200
          BECMG 1114/1115 30007KT
          BECMG 1202/1203 33015G25KT CAVOK=
TAF RKSS 110500Z 1106/1212 30005KT 9999 SCT030 BKN180
          BECMG 1115/1116 4200 BR
          TEMPO 1120/1122 2800
          BECMG 1123/1124 06006KT 7000 NSW
          BECMG 1201/1202 32010KT=
TAF RKPC 110500Z 1106/1212 01007KT 9999 SCT030
          BECMG 1110/1111 18005KT BKN030
          BECMG 1114/1115 33008KT
          BECMG 1205/1206 34015G25KT=
TAF RKPK 110500Z 1106/1212 33010KT 9999 SCT040=
TAF RKTU 110500Z 1106/1212 27006KT 9999 SCT030 SCT200
         BECMG 1121/1122 4800 -SN BR BKN030
         BECMG 1200/1201 BR
         BECMG 1201/1202 9999 NSW=
TAF RKTN 110500Z 1106/1212 30006KT 9999 SCT030=
TAF RKJB 110500Z 1106/1212 33007KT 9999 SCT030 BKN180
          BECMG 1111/1112 11006KT 4200 BR
          BECMG 1121/1122 9999 NSW
          BECMG 1201/1203 33011KT=
TAF RKNY 110500Z 1106/1212 26012KT CAVOK=

0000038500
209
FTTH33 VTBB 110500
TAF VTUD 110500Z NIL=
TAF VTUI 110500Z NIL=
TAF VTUK 110500Z NIL=
TAF VTUL 110500Z NIL=
TAF VTUO 110500Z NIL=
TAF VTUW 110500Z NIL=
TAF VTUQ 110500Z NIL=
TAF VTUV 110500Z NIL=
TAF VTUJ 110500Z NIL=
TAF VTBO 110500Z 1106/1206 07012KT 7000 FEW030 SCT200
    BECMG 1113/1115 04005KT 5000 BR
    BECMG 1201/1203 07012KT 7000 NSW=

0000010000
210
SAUK37 EGGY 110450 RRA
METAR EGPI 110450Z AUTO 30012KT 9999 NCD 05/01 Q1010 RERA=

0000010700
211
SAUK38 EGGY 110450 RRA
METAR EGPU 110450Z AUTO 29029KT 9999 -SHRA FEW028/// 04/01 Q1009=

0000039100
212
FTCN37 CWAO 110500 AAB
TAF AMD CYZX 110505Z 1105/1124 22005KT P6SM -RA -DZ SCT006 OVC015
     TEMPO 1105/1108 4SM -RASN BR OVC006
    FM110800 22005KT 6SM -RA BR SCT005 OVC010 TEMPO 1108/1115 2SM -RA
     BR OVC005
    FM111500 20010KT P6SM -RA SCT008 OVC020 TEMPO 1115/1124 2SM -RA
     BR OVC008
     BECMG 1118/1120 20015G25KT
    RMK NXT FCST BY 110600Z=

0000012800
213
SACN62 CYWL 110500
METAR CYWL 110500Z 11015G22KT 5/8SM -SN DRSN VV008 M03/M04 A2943 RMK
 SN8 PRESFR SLP011=

0000011000
214
SASP36 LEMM 110500
METAR COR GEML 110500Z 25007KT 220V280 9999 FEW014 SCT018 14/12
Q1016=

00000000