0000069800
212
SXXX32 EUMS 111636 RRX
3601E29A
OT12 ID:DJ-BOUT-08 DT:2014 01 11 16 26
:RAD /1 02310 02308 02295 02300 02300 02301 02292 02297 02293 02294 02300 02289 02292 02298 02299 02302 02302 02305 02311 02312 02303 02302 02302 02301 02300 02303 02298 02292 02291 02293
:PR1 /1 02615 02612 02607 02614 02615 02606 /2612 02611 02608 02610 02597 02604 02612 02607 02606 02620 02613 02622 02622 02615 02616 02616 02614 02617 02621 02619 02615 02612 02612 02606
:PR2 /1 00856 00851 00852 00846 00849 00851 00845 00844 00853 00849 00838 00845 00848 00850 00845 00848 00855 00865 00863 00845 00863 00853 00860 00860 00857 00848 00839 00845 00856 00839
:TM1 /15 259 259 259 259
:BAT 13.5V
0000070500
213
SXXX32 EUMS 111636 RRX
26F364EA

ST STHELENA
DT 11/01/14 11/01/14
TM 16:30:00 16:15:00
RD 10000 10000 10000 10000 10000 10000 10000 10000 10000 10000 10000 10000 10000 10000 10000 10000 10000 10000 10000 10000 10000 10000 10000 10000 10000 10000 10000 10000 10000 10000
P1 01086 00780 00183 00812 00334 00396 00097 00712 00793 00420 00522 00811 01054 00955 00363 00809 00395 00968 00361 00986 00622 00922 00677 00174 00592 00852 00783 00784 00433 01047
P2 00019 00018 00021 00019 00022 00017 00018 00016 00018 00019 00021 00019 00017 00018 00017 00015 00017 00015 00018 00017 00020 00018 00019 00019 00021 00018 00016 00017 00019 00018
T1 00.0 00.0
T2 22.7 22.8
VB 14.0
0000070200
214
SXXX32 EUMS 111636 RRX
22E7E6D2
OT12 ID:ID-ROTE-11 DT:2014 01 11 16 34
:PRS /1 -10753 -10203 -10741 -10745 -10725 -10726 -10725 -10725 -10750 -10751 -10746 -10747 -10749 -10751 -10749 -10750 -10191 -10736 -10750 -10720 -10724 -10725 -10723 -10752 -10748 -10750 -10744 -10749 -10752 -10749
:PR2 /1 03673 03656 03657 03628 03643 03638 03617 03631 03614 03596 03604 03582 03599 03615 03576 03593 03660 03603 03587 03573 03574 03548 03577 03523 03535 03526 03500 03536 03533 03520
:RAD /1 05276 05262 05240 05244 05248 05224 05196 05192 05184 05200 05156 05216 05176 05184 05180 05176 05183 05164 05160 05176 05160 05160 05140 05144 05100 05120 05104 05076 05132 05104
:BAT 12.4V/
0000067200
215
SXXX32 EUMS 111637 RRX
32CC9580
OT12 ID:ID-ENGG-07 DT:2014 01 11 16 36
:PRS /1 01272 01253 01274 01239 01232 01244 01292 01290 01238 01266 01276 01262 01231 01259 01284 01249 01240 01245 01274 01283 01235 01244 01216 01253 01251 01251 01255 01224 01257 01273
:PR2 /1 04738 04719 04732 04712 04702 04720 04729 04739 04722 04718 04691 04742 04714 04729 04732 04723 04737 04709 04739 04738 04725 04723 04694 04700 04726 04709 04732 04704 04719 04731
:RAD /1 05589 05579 05593 05578 05568 05578 05595 05603 05580 05592 05573 05577 05576 05570 05586 05592 05573 05593 05596 05594 05591 05582 05551 05562 05590 05584 05585 05578 05594 05590
:BAT 12.3V/
0000029100
216
SXXX32 EUMS 111639 RRX
166AC436
OT12 ID:IC-COMI-10 DT:2014 01 11 16 38
:RAD /1 05193 05091 05096 05165 05245 05286 05275 05136 05210 05202 05223 05159 05089 05095 05199 05112 05123 05201 05160 05156 05112 05203 05125 05194 05194 05196 05139 05272 05299 05160
:BAT 13.0V
0000039600
217
SXXX32 EUMS 111639 RRX
16590056
:PRS 1 /1 2539 2538 2531 2528 2525 2522 2525 2519 2513 2517 2518 2517 :RAD 1 /1 6781 6778 6771 6766 6762 6758 6763 6755 6750 6752 6753 6752 6751 6750 6752 6756 6755 6753 :ENC 6 /6 4972 4969 4969 4951 4934 4918 4921 4928 4880 4872 :ENB 6 /6 4969 4965 4965 4949 4932 4917 4920 4925 4875 4870 :SW1 39 /60 0 :SW2 6 /60 0 :BAT 5 /6 12.5 :NAME 16590056
0000045200
218
SXXX32 EUMS 111639 RRX
224AD678
:PRS 2 /1 1953 1955 1956 1956 1956 1955 1956 1960 1960 1963 1967 1971 1979 1982 1987 1998 1999 1997 1995 1995 1996 1999 2005 2017 2019 2019 2018 2020 2022 2035 :RAD 4 /3 4776 4780 4793 4803 4814 4822 4831 4841 4851 4863 4869 4878 4889 4898 4910 4919 4931 4941 4947 4959 :ENC 4 /5 8301 8306 8326 8342 8353 8369 8385 8401 8411 8431 8447 8457 :SW1 39 /60 54 :SW2 9 /60 60 :BAT 14 /15 12.3 :NAME 224AD678 /
0000069900
219
SXXX32 EUMS 111639 RRX
229C0324
OT12 ID:MZ-NIH2-09 DT:2014 01 11 16 29
:RAD /1 06116 06107 06110 06105 06095(06091 06091 06090 06094 86079 06075 06066 06076 06066 06059 0605= 06059 06056 06045 06053(06024 06029 06030 06023 86026 06014 06011 06017 06006 06006/
:PR1 /1 '//// ///// ///// ///// /'/// /////(///// ///// ///// ///// ///// ///// ///// //'// ///// ///// ///// ///// ///// ///// ///// ///// ///'/ ///// ///// ///// ///// ///// ///// /////
:PR2(/1 ///// ///// ///// ///// ///// ///// ///// ///// ///'/ ///// ///// '//// ///// ///// //'// ///// /////(///// ///// ///// ///// ///// ///// ///// //'// /'/// '//// ///// ///// /////
:TM1 /15 /// /// /// ///
:BAT 13.8V
0000067100
220
SXXX32 EUMS 111640 RRX
366C76AC
OT12 ID:IR-CHAB-07 DT:2014 01 11 16 39
:RAD /1 ///// ///// ///// ///// ///// ///// ///// ///// ///// ///// ///// ///// ///// ///// ///// ///// ///// ///// ///// ///// ///// ///// ///// ///// ///// ///// ///// ///// ///// /////
:PR1 /1 02620 02616 02622 02628 02620 02624 02623 02618 02611 02595 02606 02601 02597 02602 02599 02598 02572 02585 02574 02581 02584 02572 02584 02579 02576 02585 02589 02597 02585 02598
:PR2 /1 02142 02148 02134 02130 02145 02145 02134 02139 02141 02127 02125 02129 02117 02134 02128 02132 02123 02118 02109 02120 02112 02103 02118 02105 02119 02131 02150 02134 02148 02126
:BAT 11.4V
0000037900
221
SXXX32 EUMS 111642 RRX
12FD90D0
:PRS 1 /1 1222 1216 1223 1215 1225 1213 1213 1217 1206 1204 1197 1192 :RAD 1 /3 5779 5772 5764 5754 5748 5740 5732 5728 5722 5714 :ENC 3 /6 5508 5490 5478 5461 5452 5440 5406 5444 5467 5409 :RA2 3 /6 4668 4651 4638 4622 4613 4600 4566 4610 4625 4566 :SW1 42 /60 60 :SW2 12 /60 60 :BAT 5 /6 12.6 :WTP 5 /6 28.4 28.4 :NAME 12FD90D0
0000037000
222
SXXX32 EUMS 111642 RRX
22E595B6
:PRS 1 /1 M 2869 2917 2885 2914 2894 2894 2959 2929 2935 2947 2905 2972 2942 2947 2942 2904 2970 2904 2932 2920 2913 2953 2907 2915 2918 2939 2985 2984 2957 :RAD 1 /3 6090 6105 6115 6115 6111 6110 6118 6126 6141 6134 :ENC 2 /5 4201 4234 4238 4229 4233 4257 :SW1 42 /60 60 :SW2 12 /60 60 :BAT 14 /15 12.6 :NAME 22E595B6 /
0000065100
223
SXXX32 EUMS 111642 RRX
16AF741C
OT12 ID:SA-MAIS-07 DT:2014 01 11 16 32
:RAD /1 09004 08980 08968 00888 88987 08891 08882 08990 08978 08929 08907 09014 08167 08931 08944 08961 08878 08884 08931 08954 08949 08940 08926 08876 08951 08934 08988 08939 08858 88836 08942 08984 08850 08887 08892 08943 08883 08880 08868 08897 08979 08914 08916 08893 08912 08893 08925 08884 08843 08988 08913 08923 08902 08919 08868 08862 08817 08064 08873 08867 08889 08762 08939 08866 08872 08820 08911 08854 08871 08855 08870 08876 08851 08891 08844 08834 08872 08773 08812 08861 08811 08903 08889 08810 08819 08830 08831 08820 08893 /////
:BAT 14.4V
0000010900
224
UANT99 KDDL 111643
ARP XLF64 4633N02741W 1643 F370 MS46 220/52 KT
CGGTS QXT AOE 111643 J58A
0000011000
225
UANT99 KDDL 111643
ARP DHK984 5306N02307W 1643 F320 MS57 172/78 KT
GDHLE DDL XXN 111643 F25A
0000011000
226
UANT99 KDDL 111643
ARP AFR054 5157N03112W 1643 F390 MS53 214/28 KT
FHPJF QXT AOE 111643 J35A
0000064200
227
SASA85 EGRR 111600 RRI
METAR SKBG 111600Z 29004KT 9999 FEW017 25/16 A3002=
METAR SKBQ 111600Z 08008KT CAVOK 30/21 A2990=
METAR SKCG 111600Z 32008KT CAVOK 31/22 A2988=
METAR SKCL 111600Z 00000KT 7000 SCT015 BKN090 24/22 A3003 RMK HZ=
METAR SKLT 111600Z 00000KT 9999 BKN006 BKN080 26/25 A2995 RMK AD OPR
      IMC=
METAR SKPE 111600Z 29004KT 9999 SCT017 SCT090 24/18 A3013=
METAR SKRG 111600Z 03006KT 9999 SCT015 SCT080 18/13 A3030=
METAR SKSM 111600Z 22006KT 9999 FEW020 29/24 A2986=
METAR SKSP 111600Z 08015KT 9999 FEW020 28/23 A2996=
METAR SOCA 111630Z AUTO 07003KT 020V110 9999 BKN012 OVC110 27/22 Q1013=
0000009200
228
SAIN33 VOMM 111640
METAR VOMM 111640Z 08005KT 6000 FEW020 24/20 Q1015 NOSIG=
0000050900
229
SPSA85 EGRR 111633 RRA
SPECI SAEZ 111628Z 16012G23KT 120V210 CAVOK 24/06 Q1020=
SPECI SARF 111625Z 18012KT 2000 -TSRA BKN008 SCT020 BKN050 FEW050CB
      20/19 Q1016=
SPECI SARF 111625Z 18012KT 2000 -TSRA BKN008 SCT020 BKN050 FEW050CB
      20/10 Q1016=
SPECI SBCT 111625Z 08002KT 9999 BKN030 FEW035TCU 20/18 Q1018 RETS=
SPECI SPJR 111630Z VRB02KT 9999 SCT030 21/12 Q1027=
SPECI SPZA 111630Z VRB06KT CAVOK 32/21 Q1012=
SPECI SPZO 111630Z VRB03KT 9999 FEW040 SCT080 18/06 Q1030=
0000017900
230
SPSA85 EGRR 111638 RRB
SPECI SBTT 111630Z 09005KT 4000 -RA BR BKN004 BKN100 26/24 Q1014=
SPECI SGAS 111630Z 11011KT 8000 TSRA BKN020 FEW040CB OVC070 25/22 Q1012=
0000110900
231
FVXX20 KNES 111641
VA ADVISORY
DTG: 20140111/1641Z
VAAC: WASHINGTON
VOLCANO: PACAYA 1402-11
PSN: N1422 W09035
AREA: GUATEMALA
SUMMIT ELEV: 8373 FT (2552 M)
ADVISORY NR: 2014/003
INFO SOURCE: GOES-13. GFS WINDS. SEISMIC
DETECTION. METAR. INSIVUMEH.
ERUPTION DETAILS: CONTINUOUS EMISSIONS
OBS VA DTG: 11/1345Z
OBS VA CLD: SFC/FL110 N1433 W09058 - N1425 W09049
- N1425 W09034 - N1425 W09034 - N1420 W09035 -
N1405 W09105 - N1417 W09105 - N1433 W09058 MOV
WSW 5-10KT
FCST VA CLD +6HR: 11/2000Z SFC/FL110 N1432 W09056
- N1432 W09056 - N1426 W09034 - N1419 W09035 -
N1356 W09124 - N1427 W09138 - N1432 W09056
FCST VA CLD +12HR: 12/0200Z SFC/FL110 N1430
W09116 - N1408 W09059 - N1331 W09214 - N1422
W09232 - N1430 W09116
FCST VA CLD +18HR: 12/0800Z SFC/FL110 NO ASH EXP
RMK: RESENDING... PLUME EXTDG FOR 30NMI SSW FM
SUMMIT OBSERVED IN VIS AND MULTISPECTRAL STLT
IMAGERY MVG SW AND WSW AT 5-10KTS.  PLUME INCR IN
WIDTH WITH DIST FM SUMMIT AND LKLY CONTAINS STEAM
AND GAS AS WELL AS VA.  ...RAMIREZ
NXT ADVISORY: WILL BE ISSUED BY 20140111/2245Z
00000000