0000011000
635
UANT01 CWAO 111659
ARP AFR734 4628N03324W 1659 F350 MS52 289/46 KT
FGITD QXT AOE 111659 F58A
0000011000
636
UANT01 CWAO 111659
ARP BAW205 5002N01930W 1659 F380 MS56 196/75 KT
GRAES QXT AOE 111659 F13A
0000010900
637
UANT01 CWAO 111659
ARP KLM17 4845N04752W 1659 F360 MS61 308/68 KT
PHAOC QXT AOW 111659 J53A
0000011000
638
UANT01 CWAO 111659
ARP DLH426 5141N04453W 1659 F360 MS59 294/66 KT
DAIGY QXT AOW 111659 J32A
0000014400
639
SNVF51 EGRR 111600
BBXX
62095 11164 99529 70156 46/// /1526 10099 20054 40059 57049 22200
00111 10808 70040 333 90710 91135=
0000012800
640
SNVF51 EGRR 111600
BBXX
62170 11164 99514 10020 46/98 /2719 10084 20029 40217 53023 22200
00106 10501 70005=
0000014400
641
SNVF51 EGRR 111600
BBXX
62095 11164 99529 70156 46/// /1526 10099 20054 40059 57054 22200
00100 10808 70040 333 90710 91135=
0000014400
642
SNVF51 EGRR 111700
BBXX
62105 11174 99550 70132 46/// /1521 10091 20039 40117 57026 22200
00108 10807 70033 333 90710 91128=
0000012800
643
SNVF51 EGRR 111700
BBXX
62301 11174 99524 70047 46/// /1505 10074 20026 40219 52008 22200
00096 10603 70013=
0000012800
644
SNVF51 EGRR 111700
BBXX
62001 11174 99452 70050 46/// /1113 10118 20077 40195 57004 22200
00128 10905 70023=
0000012800
645
SNVF51 EGRR 111700
BBXX
64045 11174 99591 70117 46/// /2711 10066 20024 40119 53008 22200
00096 10808 70042=
0000012800
646
SNVF51 EGRR 111700
BBXX
62107 11174 99501 70061 46/// /1218 10094 20046 40209 55000 22200
00106 11205 70025=
0000012800
647
SNVF51 EGRR 111700
BBXX
62163 11174 99475 70084 46/// /1715 10113 20088 40179 55001 22200
00121 10705 70027=
0000006100
648
AAUK99 EGRR 111700
Socket stay alive message.
0000008200
649
FCUK53 EGRR 111700
TAF EGQL 111615Z 1118/1203 25005KT 9999 FEW035=
0000016500
650
FCUK54 EGRR 111700
TAF EGXC 111633Z 1118/1203 26006KT CAVOK BECMG 1118/1121 5000 BR
    BECMG 1121/1123 3000 MIFG PROB40 1123/1203 0500 FZFG VV///=
0000003800
651
FCUK55 EGRR 111700
NIL
0000058000
652
FTUK51 EGRR 111700
TAF EGQS 111615Z 1118/1212 25014KT 9999 FEW040 PROB40 TEMPO
    1118/1121 26015G25KT BECMG 1209/1212 13015G25KT=
TAF EGVN 111649Z 1118/1218 27004KT 9999 FEW030 BECMG 1122/1201 6000
    HZ PROB40 1200/1205 2000 BR BECMG 1205/1208 9999 NSW BECMG
    1208/1211 BKN010 TEMPO 1216/1218 4000 RADZ SCT005 BKN008=
TAF EGWU 111630Z 1118/1212 VRB04KT CAVOK BECMG 1121/1124 7000 MIFG
    PROB40 1200/1207 3000 BECMG 1207/1210 9999 NSW BKN008=
TAF EGXW 111644Z 1118/1212 23006KT CAVOK PROB40 1121/1209 5000 BR
    PROB30 1200/1209 3000 MIFG=
0000003800
653
FTUK52 EGRR 111700
NIL
0000243200
654
FAUK12 EGRR 111700
AIRMET AREA FORECAST, UK-SIG-WEATHER,
VALID JAN  11/1800Z TO  11/2400Z.

MET-SITUATION: AT 18Z: AN OCCLUDED FRONT LIES N5000
W00900 TO BREST TO ORLEANS, MOVING NE AT 10KT IN THE W
AND SLOW MOVING IN THE E. A LIGHT TO MOD W FLOW LIES OVER
THE REGION.

STRONG WIND WRNG: SCOTTISH REGION: FRQ MEAN 20KT GUSTS
30KT SEA COT MAINLY N AND E. ISOL GUSTS 40KT SEA COT FAR
N.
NORTHERN REGION: ISOL MEAN 20KT WITH GUSTS 30KT, SEA COT
W.
SOUTHERN REGION: NIL.

WINDS:

1000FT: 50N 00E    : 090/005KT PS06
        GATWICK    : 020/005KT PS04
        PLYMOUTH   : 150/020KT PS05
        DERBY      : 250/010KT PS03
        RONALDSWAY : 190/005KT PS04
        GLASGOW    : 250/010KT PS03
        KIRKWALL   : 300/030KT PS04

3000FT: 50N 00E    : 060/005KT PS03
        GATWICK    : CALM PS01
        PLYMOUTH   : 160/020KT PS02
        DERBY      : 280/010KT ZERO
        RONALDSWAY : 220/005KT ZERO
        GLASGOW    : 290/015KT MS03
        KIRKWALL   : 300/035KT MS02

6000FT: 50N 00E    : 360/010KT PS02
        GATWICK    : 300/015KT ZERO
        PLYMOUTH   : 160/020KT ZERO
        DERBY      : 290/020KT MS01
        RONALDSWAY : 250/015KT MS01
        GLASGOW    : 280/020KT MS05
        KIRKWALL   : 300/035KT MS10

FREEZING LEVEL: 2000FT NE, 7000FT SW.

WEATHER-CONDITIONS: 2 ZONES AT 18Z:

ZONE 1: S OF A LINE FM STORNOWAY TO WICK TO FRASERBURGH.
THIS LINE MOVING NE AT 10KT.

GEN 30KM, WITH 1-5/8CUSC 3000FT/4000-6000.
ISOL, FAR SW FM 00Z, 6KM IN HZ, WITH 3-5/8CUSC
2000FT/8000.
ISOL LAN E OF W00500 FM 17Z, BECMG OCNL FM 21Z, 3000M IN
BR, WITH 0-2/8SC 4000FT/5000.
ISOL LAN E OF W00500 FM 17Z, 200M IN FG OR FZFG, WITH 3-
6/8ST SFC/1000.

WRNG: HILL FG. ISOL MOD ICE AND MOD TURB IN CLD. ISOL MOD
TURB BLW 6000FT W OF W00500 FM 23Z.


ZONE 2: REST OF REGION.

GEN 40KM, WITH 1-4/8CUSC 3000FT/7000.
ISOL, BUT OCNL SEA COT, 5000M IN SHRA OR SHRAGS, WITH 5-
7/8CB 2000FT/13000.
ISOL, 2000M IN HVY SHRASN OR TSGS, WITH 3/8ST 700FT/1500
AND 7/8CB 1500FT/18000.

WRNG: HILL FG. MOD ICE AND MOD TURB IN CLD. TS. SEV ICE
AND SEV TURB IN CB. OCNL MOD TURB BLW 6000FT. ISOL SEV
TURB BLW 6000FT SHETLAND FM 18Z. SN MON ABOVE 800FT.


OUTLOOK: UNTIL JAN  12/0900Z:

NEW ZONE WITH WARM FRONT AND ISOL RA MOVING INTO NORTHERN
IRELAND BY 02Z, OTHERWISE SIMILAR.
00000000