0000011200
526
SNVF25 LFPW 111700
BBXX
BAREU51 11174 99444 10090 46/// ///// 10134 29087 40222 52009
22272=
0000191400
527
SSVX08 KARS 111655
ZZYY 13009 10014 1200/ 707921 038091 6112/
33311 88872 20020 32610 43576 20040 32400 43600 20060 31970
20080 31678 20100 31490 20120 31356 43539 20140 31220 20180 31104
20300 30960 20500 30782
444 20120 10014 1149/ 521//=
ZZYY 13009 11014 1600/ 707934 038088 6111/
444 20110 11014 1458/ 521//=
ZZYY 41139 10014 12004 720011 037854 6111/
11119 00712 10215 29077 40201
22219 00240
33311 88872 20000 32402 20001 32404 43696 20020 32402 43706
20040 32402 43702 20060 32404 43704 20080 32410 20100 32351
20120 32230 20140 32151 20180 31985 20300 31610 20500 31215
444 20110 10014 1145/ 521// 60401=
ZZYY 13002 10014 1200/ 720444 023132 6112/
33311 88872 20001 32153 43671 20020 32152 20040 32148 43670
20080 32043 20100 31854 20120 31779 20140 31775 20180 31731
20300 31467 20500 31069
444 20120 10014 1140/ 521//=
ZZYY 41026 10014 1200/ 711497 037983 6112/
33311 88872 20001 32570 43597 20060 32563 20080 32137 20100 31693
20120 31445 43565 20140 31329 20180 31230 20300 31062 20500 30906
444 20120 10014 1148/ 521//=
ZZYY 41026 11014 1600/ 711499 037976 6111/
11119 10248 29072
22219 00257
444 20110 11014 1457/ 521//=
ZZYY 13001 10014 1200/ 711462 022996 6112/
33311 88872 20001 32484 43550 20020 32484 43550 20040 32396 43558
20060 31761 43573 20080 31533 20100 31428 20120 31372 20140 31336
20180 31261 20300 31119 20500 30953
444 20120 10014 1146/ 521//=
ZZYY 13001 11014 16004 711460 022996 6111/
11119 00313 10235 29073 40132
22219 00248
444 20110 11014 1458/ 521// 60401=
ZZYY 31001 10014 1200/ 500012 034993 6111/
33311 88872 20020 32716 43496 20040 32715 20060 32699 20080 32625
20100 32173 20120 31655 43581 20140 31421 20180 31277 20300 31063
20500 30704
444 20110 10014 1150/ 521//=
ZZYY 31001 11014 16004 500012 035003 6112/
11119 01210 10271 29073
444 20120 11014 1456/ 521// 60401=
0000273800
528
SSVX02 KARS 111653
ZZYY 56909 11014 1640/ 347640 000961 6112/
22219 00065
444 20120 11014 1647/ 50101 80080 80027 9/015=
ZZYY 14926 11014 1600/ 336246 033949 6111/
11119 40173 52012
22219 00229
444 2011/ 11014 1644/ 50101 80115 80024 9/015=
ZZYY 14923 11014 1600/ 334890 031555 6112/
11119 40177 52002
22219 00216
444 2012/ 11014 1644/ 50101 80116 80018 9/015=
ZZYY 14931 11014 1600/ 328751 033244 6112/
11119 40161 52002
22219 00267
444 2012/ 11014 1500/ 50101 80116 80018 9/015=
ZZYY 15905 11014 1642/ 510586 006589 6113/
22219 00253
444 20130 11014 1457/ 50101 80100 80005 9/015=
ZZYY 14930 11014 1600/ 330658 031456 6111/
11119 30170 40170 52002
22219 00257
444 20110 11014 1642/ 50101 80110 80032 9/015=
ZZYY 14922 11014 1600/ 338322 034663 6111/
11119 40164 52010
22219 00223
444 2011/ 11014 1644/ 50101 80119 80018 9/015=
ZZYY 15501 11014 1600/ 533582 012327 6112/
11119 30234 40234 57002
444 20120 11014 1631/ 50101 80090 80000 9/015=
ZZYY 71575 11014 1500/ 556398 006849 6112/
11119 40067
22219 00005
444 2012/ 11014 1439/ 50101 80106 80022 9/015=
ZZYY 14934 11014 1550/ 330267 032534 6112/
11119 30166 40166 52001
22219 00262
444 20120 11014 1501/ 50101 80110 80035 9/015=
ZZYY 17518 11014 1640/ 338066 031423 6112/
11119 30167 40167 52004
22219 00223
444 20120 11014 1644/ 50101 80090 80000 9/015=
ZZYY 17518 11014 1540/ 338030 031461 6112/
11119 30165 40165 57001
22219 00223
444 20120 11014 1500/ 50101 80090 80000 9/015=
ZZYY 17676 11014 1630/ 349118 008653 6113/
11119 39978 49978 52024
22219 00047
444 20130 11014 1631/ 50101 80110 80032 9/015=
ZZYY 17676 11014 1520/ 349120 008636 6112/
11119 39969 49969 52022
22219 00047
444 20120 11014 1506/ 50101 80110 80038 9/015=
ZZYY 15634 11014 1600/ 324867 002666 6112/
11119 40205 57008
22219 00215
444 20120 11014 1643/ 50101 80110 80006 9/015=
ZZYY 15621 11014 1646/ 519960 005015 6112/
22219 00228
444 20120 11014 1642/ 50101 80094 80070 9/015=
ZZYY 33629 11014 1640/ 552888 025877 6111/
11119 39928 49928
22219 00020
444 20110 11014 1149/ 50101 80070 80002 9/015=
ZZYY 17514 11014 1647/ 528987 012306 6112/
22219 00263
444 50101 80110 80000 9/015=
ZZYY 14924 11014 1600/ 337202 023961 6112/
11119 40160 57009
22219 00203
444 2012/ 11014 1644/ 50101 80116 80017 9/015=
ZZYY 14933 11014 1600/ 328203 037088 6112/
11119 40161 52008
444 2012/ 11014 1459/ 50101 80115 80019 9/015=
ZZYY 14932 11014 1600/ 330513 032083 6111/
11119 40167 52085
22219 00259
444 2011/ 11014 1641/ 50101 80116 80017 9/015=
ZZYY 15913 11014 1642/ 306704 007995 6112/
22219 00279
444 20120 11014 1457/ 50101 80102 80026 9/015=
0000011200
529
SNVF25 LFPW 111700
BBXX
BAREU67 11174 99440 10099 46/// ///// 10142 29069 40212 52009
22223=
0000009800
530
UAUS31 KWBC 111657
ARP UAL1714 31N 102W 1652 F280 MS40 336/026KT TB SMTH SK CLEAR=
0000014300
531
UAPA01 KWBC 111657
ARP ASA881 3401N 13421W 1650 F360 MS53 255/077KT=
ARP HAL23 3611N 12446W 1648 F360 MS57 242/079KT TB SMTH=
0000011100
532
UANT99 KDDL 111656
ARP BAW2153 4710N02901W 1656 F380 MS45 226/46 KT
GVIIW QXT AOE 111656 F17A
0000011000
533
UANT99 KDDL 111656
ARP PIA711 5405N02718W 1656 F350 MS57 180/62 KT
APBGZ QXT AOE 111656 F41A
0000011100
534
UANT99 KDDL 111656
ARP BER7450 5259N03051W 1656 F380 MS54 205/29 KT
DALPE QXT AOE 111656 J84A
0000011000
535
UANT99 KDDL 111656
ARP DHK973 5612N03827W 1656 F310 MS54 231/23 KT
GDHLG DDL XXW 111656 F63A
0000012200
536
SNRE15 FMEE 111700
AAXX 11174
61997 26/// /1107 10090 20074 39769 49942 53019
  333 60005 90710 91125=
0000009400
537
SAGI32 EGRR 111650
METAR LXGB 111650Z 25002KT 9999 FEW025CB 16/13 Q1019 NOSIG=
0000009300
538
SACY42 EGRR 111650
METAR LCRA 111650Z 29007KT 9999 FEW040 BKN200 15/09 Q1022=
0000070500
539
FTSA85 EGRR 111644 RRG
TAF SUAA 111640Z 1118/1218 16015KT 9999 BKN026 TX26/1218Z TN16/1209Z
     PROB30 TEMPO 1118/1200 16015G25KT 7000 RADZ OVC020=
TAF SUCA 111640Z 1118/1218 16015KT 9999 BKN026 TX26/1218Z TN16/1209Z
     PROB30 TEMPO 1118/1200 16015G25KT 7000 RADZ OVC020=
TAF SULS 111640Z 1118/1218 16015KT 9999 BKN026 TX26/1218Z TN16/1209Z
     PROB30 TEMPO 1118/1200 16015G25KT 7000 RADZ OVC020=
TAF SUMU 111640Z 1118/1218 16015KT 9999 BKN026 TX26/1218Z TN16/1209Z
     PROB30 TEMPO 1118/1200 16015G25KT 7000 RADZ OVC020=
TAF SURV 111640Z 1118/1218 16015KT 9999 SCT023 BKN080 TX30/1218Z
     TN19/1209Z
     PROB40 TEMPO 1118/1200 16015G25KT 5000 RA BKN015 OVC060=
0000012300
540
SPSA85 EGRR 111646 RRC
SPECI SLCO 111632Z 32012G22KT 0800 +SHRA BKN017 SCT020CB BKN080 25/24
      Q1012=
0000017500
541
SPSA85 EGRR 111652 RRD
SPECI SBCO 111642Z 32010KT 9999 TS BKN035 FEW040CB SCT100 28/// Q1014=
SPECI SBGR 111645Z 32007KT 9999 TS BKN045 FEW050CB 31/17 Q1016=
0000067800
542
SASA85 EGRR 111700
METAR SAWG 111700Z 29012KT 9999 FEW030 21/05 Q1007=
METAR SBAR 111700Z 16009KT 9999 SCT015 28/21 Q1013=
METAR SBBE 111700Z 32006KT 9999 BKN025 FEW030TCU 28/24 Q1010=
METAR SBCB 111700Z 07020KT 9999 FEW030 33/24 Q1013=
METAR SBEG 111700Z 04008KT 9999 SCT020 BKN100 28/23 Q1013=
METAR SBPV 111700Z 00000KT 9999 SCT015 BKN018 BKN100 27/22 Q1013=
METAR SBSL 111700Z 06014KT 9999 VCSH BKN020 FEW025TCU 31/21 Q1010=
METAR SKBO 111700Z 26003KT 9999 FEW020 20/04 A3032=
METAR SVBM 111700Z 11010KT 9999 SCT016 29/19 Q1017=
METAR SVMG 111700Z /////KT 9999 FEW010 29/22 Q1015 NOSIG=
METAR SVVA 111700Z 14005KT 9999 SCT016 31/21 Q1017=
0000070900
543
SAUK39 EGRR 111650
METAR EGDM 111650Z 34004KT CAVOK 05/02 Q1022 BLU=
METAR EGQL 111650Z 24008KT 9999 FEW030 01/M01 Q1015 BLU NOSIG=
METAR EGQM 111650Z AUTO 29008KT 9999 NCD 04/M00 Q1016=
METAR EGQS 111650Z 25014KT 9999 FEW020CB 02/00 Q1013 BLU=
METAR EGUB 111650Z 20001KT CAVOK 01/M01 Q1022 BLU=
METAR EGVN 111650Z 26003KT CAVOK 05/01 Q1022 BLU NOSIG=
METAR EGVO 111650Z 28003KT CAVOK 04/01 Q1021 BLU=
METAR EGWU 111650Z 34002KT CAVOK 04/01 Q1022 BLU NOSIG=
METAR EGXC 111650Z 22003KT CAVOK 03/01 Q1020 BLU=
METAR EGXT 111650Z AUTO 28009KT 9999 NCD 03/00 Q1021=
METAR EGXV 111650Z AUTO 27006KT 9999 NCD 04/01 Q1019=
METAR EGXW 111650Z 24006KT CAVOK 04/00 Q1020 BLU NOSIG=
0000015100
544
SSVX02 CWAO 111500
ZZYY 48598 11014 1500/ 774787 144952 6112/ 11121 
02300 11266 21298 49910 444 20130 11014 1500/ 50400 89990 80001=
0000012700
545
SSVX02 CWAO 111630
ZZYY 47573 11014 1630/ 770970 100709 6113/ 444 
20130 11014 1630/ 50101 80134 80001 9////=
00000000