0000024400
815
SNVD17 KWNB 111700 RRE
BBXX
51101 11171 99243 71621 46/// /0611 10228 20200 40136 56004 91650
22200 00236 11108 20704 306// 41107 70041 333 91214 555 11115
22122 31622 40615 61649 059108 059114 058117 048108 060100 053100=
0000023200
816
SNVD20 KWNB 111700 RRD
BBXX
44013 11171 99423 70707 46/// /1909 10092 20092 40097 58054 91650
22200 00048 10502 20502 70008 333 91212 555 11098 22112 31638
41913 61649 184087 182091 176087 173082 169080 171074=
0000024400
817
SNVD15 KWNB 111700 RRD
BBXX
41009 11171 99285 70802 46/// /2009 10241 20210 40178 58006 91650
22200 00240 10903 20703 307// 40902 70016 333 91211 555 11096
22103 31557 42012 61649 197091 197094 199096 202091 201095 200100=
0000040300
818
SNVE15 KWNB 111700 RRA
BBXX
51004 11171 99175 71524 46/// /0909 10248 40127 52004 91650 22200
00249 11404 20803 332// 41403 70022 333 91211 555 11095 22101
31648 41011 61649 092089 279084 280078 278073 279077 278073=
51100 11171 99236 71539 46/// /0912 10234 40138 54000 91650 22200
00243 333 91214 555 11127 22135 31639 40916 61649 088121 091118
096125 093122 089113 087116=
0000008200
819
FTCY01 EGRR 111700
TAF LCRA 111704Z 1118/1212 27012KT 9999 SCT030=
0000010000
820
SNAA14 EGRR 111400 RRA
AAXX 11144
89013 46/// /0409 11130 21158 37735 49734 52006=
0000015100
821
SNST41 EGRR 111600 RRA
AAXX 11164
88900 45/// /0809 10036 20029 39894 49896 58009=
88903 42/// /0002 10060 20038 39907 49907 55003=
0000024000
822
SNST41 EGRR 111700
AAXX 11174
61901 469// /1412 10199 20180 39661 40164 56007 333 8//99 555
 7/090=
88878 46/// /2617 10100 20054 40092 52005=
88889 42686 72010 10099 21007 30017 40101 51003 83531 333 83638
 87075=
0000339900
823
SNUK41 EGRR 111700
AAXX 11174
03005 42470 32929 10055 21033 39943 40044 53013 83800
  333 55300 20000 82818 83640 90710 91138=
03017 47989 /2911 10033 20014 30066 40098 51020 721//
  333 55300 20000 8//99=
03026 47983 /2611 10027 21006 30117 40136 51018 723//
  333 55300 20000 8//99 90710 91127=
03063 45677 /2701 10001 21022 39875 40161 51026
  333 55300 20000 82/40=
03066 45983 /2313 10026 20003 30134 40141 51020
  333 55300 20000 8//99=
03075 47369 /2618 10015 20002 30072 40117 53026 781//
  333 82/09 83/32 90710 91128=
03091 45982 /2813 10038 21025 30057 40138 52022
  333 55300 20000 8//99=
03100 45976 /2706 10021 21002 30151 40168 53014
  333 55300 20001 8//99=
03111 46970 /2514 10051 20030 30168 40181 53010
  333 86/71=
03134 45982 /2506 10034 20014 30100 40174 52017
  333 55300 20000 8//99=
03136 45780 /2515 10059 20021 30145 40178 53009
  333 55300 20004 83/50=
03162 42582 42205 10014 20002 39894 40189 53015 83501
  333 41998 55300 20000 83623=
03166 45981 /2310 10034 20008 30098 40169 53019
  333 55300 20000 8//99=
03171 42682 12408 10009 21010 30148 40160 53023 81501
  333 55300 20000 81630=
03204 42582 62706 10052 20022 30181 40201 53009 81102
  333 55300 20017 81820 86075=
03240 45983 /2908 10038 21002 30142 40170 51021
  333 55300 20000 8//99=
03257 45973 /2904 10022 21007 30152 40193 52020
  333 55300 20000 8//99=
03292 469// /2904 10030 20002 30169 40188 51024
  333 8//99=
03302 45969 /2304 10051 20006 30194 40208 52007
  333 55301 20035 8//99=
03354 45973 /2705 10042 20010 30070 40216 51022
  333 55300 20005 8//99=
03377 42981 12406 10040 20004 30124 40210 51027 80002
  333 55300 20000 81075=
03414 45971 /2102 10022 21002 30130 40221 53021
  333 55302 20030 8//99=
03462 45982 /2809 10031 20004 30123 40215 51022
  333 55300 20001 8//99=
03482 45979 /2805 10029 20011 30184 40210 52022
  333 8//99=
03502 47983 /1406 10041 20006 30053 40219 53008 723//
  333 55302 20033 8//99=
03535 45977 /2602 10029 20001 30101 40222 52020
  333 553// 20010 8//99=
03590 46982 /2806 10032 20010 30103 40216 53025
  333 55300 20000 8//99=
03649 42980 22603 10046 20007 30123 40225 51017 80001
  333 55300 2//// 82074=
03680 46/// ///// 10037 20007 30060 40220 51015
  333 553// 20002=
03716 45982 /2604 10050 20023 30163 40224 53016
  333 55300 20023 8//99=
03740 469// /2605 10040 20013 30047 40228 52015
  333 55300 2//// 8//99=
03746 42982 23404 10046 20016 30069 40226 51015 80001
  333 82080=
03772 45980 /2904 10060 20007 30191 40222 51018
  333 55300 20006 8//99=
03796 46/// /2907 10045 20007 30075 40221 51022=
03803 45582 /1418 10088 20049 30166 40204 58006
  333 81/22=
03808 42575 41504 10062 20033 30109 40217 53002 81501
  333 55305 20078 81620 84075=
03809 42570 21206 10050 20025 30123 40218 55000 81102
  333 81826=
03827 45983 /1507 10059 20026 30165 40228 53010
  333 8//99=
03840 45981 /0000 10026 21002 39921 40235 53018
  333 8//99=
03853 45983 /3202 10040 20015 30205 40230 53017
  333 55300 20019 8//99=
03874 46/// /3503 10065 20005 30213 40224 52017=
03882 45979 /2902 10049 20010 30157 40222 51019
  333 55300 20002 8//99=
03894 42584 11005 10062 20036 40228 50007 81501
  333 81625=
03917 45972 /2205 10015 20010 30115 40194 50006
  333 55300 20028 8//99=
0000011000
824
UANT01 CWAO 111703
ARP MSR985 4618N04245W 1703 F330 MS59 296/51 KT
SUGDL QXT AOW 111703 F48A
0000011000
825
UANT01 CWAO 111703
ARP AFR378 5212N03844W 1703 F340 MS60 298/53 KT
FGLZJ QXT AOE 111703 J52A
0000011000
826
UANT01 CWAO 111703
ARP ETD131 6126N05453W 1703 F370 MS60 288/29 KT
A6EHK QXT AOW 111703 J14A
0000011100
827
UANT01 CWAO 111703
ARP BAW2153 4656N03019W 1703 F380 MS46 236/39 KT
GVIIW QXT AOE 111703 F21A
0000038500
828
SSVX13 LFPW 111700
ZZYY 61690 11014 1700/ 142776 029418 6113/ 11119 40229 54000 22219
 00093 33300 88870 20000 30930 20011 30936 20013 30928 20016 30932
 20021 30928 20026 30936 20031 30936 20036 30944 20041 30932 20047
 30924 20052 30856 20057 30800 20062 30788 20067 30792 20072 30792
 20077 30804 20082 30812 444 20131 11014 1657/ 50101 80102 80011
 9/015=
0000015700
829
SSVX13 LFPW 111700
ZZYY 61687 11014 1700/ 144734 029833 6113/ 11119 40218 52001 22219
 00076 444 20131 11014 1657/ 50101 80090 80003 9/015=
0000015700
830
SSVX13 LFPW 111700
ZZYY 61688 11014 1700/ 144058 029451 6113/ 11119 40222 52003 22219
 00087 444 20131 11014 1657/ 50101 80090 80003 9/015=
0000374700
831
SNFR30 LFPW 111700
AAXX 11174
07005 24/70 /2903 10053 20021 30137 40229 53020 700//
  333 60005 90710 91106=
07015 22982 03005 10043 20012 30166 40225 53027
  333 60005 90710 91107 93100=
07020 22967 21605 10052 20019 30209 40237 51011 80004
  333 60005 82066 90710 91107=
07027 24986 /0902 10064 20035 30150 40233 52013 700//
  333 60005 90710 91104=
07037 24976 /3502 10063 20026 30045 40232 52018 700//
  333 60005 90710 91103=
07072 24469 /2703 10063 20049 30109 40226 51026 700//
  333 60005 90710 91108=
07110 22580 70903 10082 20040 30100 40217 53011 875//
  333 60005 87633 90710 91107 93100=
07117 26/// /1006 10077 20046 30153 40225 53012
  333 60005 90710 91113=
07130 24358 60806 10067 20058 30173 40226 53011 700//
  333 60005 90710 91111=
07139 24902 /3602 10048 20041 30053 40232 51013 744//
  333 60005 90710 91104=
07149 22968 22802 10052 20025 30120 40232 51018 82030
  333 60005 82360 90710 91109 93100=
07168 22458 73208 10073 20067 30087 40232 53023 875//
  333 69905 87612 90710 91111 93100=
07181 24360 /2208 10051 20048 39808 40226 53017 700//
  333 69905 90710 91111=
07190 24515 /2703 10040 20033 30029 40216 51017 761//
  333 69905 90710 91104=
07207 26/// /0909 10074 20068 30166 40219 53005
  333 60005 90710 91112=
07222 22465 30504 10087 20065 30186 40218 53007 81501
  333 60005 81615 83075 90710 91107=
07240 24358 80303 10076 20062 30090 40228 53013 751//
  333 69905 90710 91107=
07255 24357 81201 10086 20069 30023 40225 51008 700//
  333 60005 90710 91105=
07280 24557 80000 10083 20061 39949 40225 51012 700//
  333 60005 90710 91105=
07299 22562 71702 10078 20054 39891 40222 51009 875//
  333 69905 81626 87636 90710 91105 93100=
07314 26/// /0604 10096 20079 30184 40212 52003
  333 60005 90710 91110=
07335 212// 80802 10088 20079 30071 40218 51006 71022 886//
  333 69905 86705 84633 90710 91104 93100=
07434 224// 81403 10085 20063 39732 40215 53004 886//
  333 60005 88716 90710 91106 93100=
07460 22665 70204 10101 20057 39826 40217 52008 85531
  333 60005 85636 84360 90710 91109 93100=
07471 24567 /2602 10043 20026 39242 48826 51008 700//
  333 60005 90710 91104=
07481 24563 81003 10099 20066 39934 40224 51009 700//
  333 60005 90710 91105=
07510 225// 71203 10113 20092 30147 40205 51001 86501
  333 60005 86623 85076 90710 91105 93100=
07535 24458 70103 10085 20070 39903 40219 53005 700//
  333 69905 90710 91103=
07558 24/70 /1405 10078 20067 39372 40210 52006 700//
  333 60005 90710 91108=
07577 24/32 /0000 10097 20086 30131 40221 51003 710//
  333 60005 90710 91102=
07591 24/// /0306 10059 20024 39195 4//// 56003 700//
  333 60005 90710 91109=
07607 24567 81203 10122 20092 30137 40208 51005 700//
  333 60005 90710 91104=
07621 24568 80301 10098 20070 39773 40208 50004 700//
  333 60005 90710 91105=
07627 24569 80000 10095 20062 39717 40212 51009 700//
  333 60005 90710 91105=
07630 22562 83502 10111 20076 30031 40212 53005 885//
  333 60005 88626 90710 91105 93100=
07643 22562 80107 10116 20093 30208 40218 53005 885//
  333 60005 82621 88650 90710 91109=
07650 22665 72201 10118 20090 30172 40211 53002 878//
  333 60005 81833 87646 90710 91103 93100=
07661 26/// /0906 10125 20090 30049 40210 53002
  333 60005 90710 91110=
07690 24584 80809 10142 20100 30180 40211 53003 700//
  333 60005 90710 91110=
07747 22470 70506 10123 20104 30159 40212 53010 878//
  333 60005 85815 87630 90710 91108=
07761 22480 70301 10129 20090 30196 40207 52004 81638
  333 60005 81716 84470 87276 90710 91105 93100=
07790 22582 62703 10117 20094 30195 40210 50003 8213/
  333 60005 82821 85366 90710 91105 93100=
0000148500
832
SNFR31 LFPW 111700
AAXX 11174
07024 24986 /1204 10048 20022 30061 40231 50010 700//
  333 60005 90710 91105=
07031 24982 /3001 10040 20027 30060 40238 53015 700//
  333 60005 90710 91102=
07100 26/// /1312 10102 20060 30126 40209 51007
  333 60005 90710 91114=
07103 26/// /1415 10076 20070 30113 40213 52011
  333 60005 90710 91121=
07107 26/// /0915 10098 20065 30194 40216 50008
  333 60005 90710 91120=
07118 24986 /0804 10070 20043 30119 40226 53012 700//
  333 60005 90710 91108=
07120 24970 /0604 10051 20038 30062 40229 53012 700//
  333 60005 90710 91108=
07125 24981 /0404 10051 20029 30157 40229 53012 700//
  333 60005 90710 91105=
07134 24464 80305 10074 20067 30105 40228 51013 700//
  333 60005 90710 91109=
07200 26/// /1008 10086 20075 30189 40212 53007
  333 60005 90710 91117=
07201 24258 81304 10077 20071 30103 40219 51012 700//
  333 60005 90710 91111=
07203 26/// /1108 10078 20069
  333 60005 90710 91112=
07205 24463 81302 10080 20068 30167 40221 53010 700//
  333 60005 90710 91104=
07217 24957 /0206 10076 20067 30215 40219 53005 700//
  333 60005 90710 91111=
07230 24/60 /0103 10074 20065 30168 40227 53012 761//
  333 69905 90710 91105=
07235 24463 80803 10081 20066 30167 40231 53017 700//
  333 60005 90710 91108=
07300 26/// /0206 10080 20072 30172 40211 53003
  333 60005 90710 91111=
07306 24466 80606 10092 20075 30106 40215 53005 700//
  333 60005 90710 91108=
0000116000
833
SNFR32 LFPW 111700
AAXX 11174
07140 24465 81702 10079 20068 30075 40231 53017 700//
  333 60005 90710 91104=
07143 24970 /3602 10066 20048 30040 40231 51018 700//
  333 60005 90710 91108=
07145 21965 00000 10050 20049 30017 40232 51016 71100
  333 60005 90710 91103 93100=
07146 21958 20000 10050 20037 30034 40233 51017 71200 80001
  333 60005 82075 90710 91104 93100=
07150 24930 /2703 10067 20058 30168 40229 51015 710//
  333 60005 90710 91105=
07153 24463 83402 10078 20058 30118 40231 53018 700//
  333 60005 90710 91112=
07156 24/69 /2902 10075 20053 30135 40231 51017 700//
  333 60005 90710 91107=
07157 22461 22705 10061 20049 30092 40231 51017 81131
  333 60005 81815 90710 91106 93100=
07245 24/22 /0503 10065 20062 30078 40232 53018 710//
  333 60005 90710 91106=
07247 24462 80101 10073 20062 30125 40229 53011 700//
  333 69905 90710 91104=
07249 24466 80000 10069 20058 30079 40233 53019 700//
  333 60005 90710 91102=
07257 24457 81202 10083 20068 30010 40226 51009 700//
  333 60005 90710 91104=
07354 24936 /0403 10067 20060 30030 40223 51006 710//
  333 69905 90710 91106=
0000045400
834
SNFR33 LFPW 111700
AAXX 11174
07093 24461 72306 10054 20044 39907 40223 53022 700//
  333 60005 90710 91111=
07180 24550 /1501 10049 20040 39962 40224 53017 700//
  333 60005 90710 91105=
07288 26/// /0000 10095 20055 39850 40223 51010
  333 60005 90710 91104=
07292 24420 80701 10072 20063 39894 40226 51014 710//
  333 69905 90710 91106=
07386 24560 82103 10094 20073 39987 40224 51010 700//
  333 60005 90710 91105=
00000000