0000011200
715
SNVD25 LFPW 111700
BBXX
BATFR18 11174 99139 70458 46/// /0619 10247 40152 56015
22213 04259=
0000167700
716
SNSQ51 LZIB 111700
AAXX 11171
11812 46/// /1704 10027 20019 39483 42786=
11813 46/// /9901 10044 20016 39833 40186=
11816 41463 50000 10046 20031 30022 40188 72162 83631
  333 83712 84356=
11819 46/// /0000 10025 20016 39968 40189=
11826 42865 60501 10024 20005 39985 40189 85072
  333 85357 86070=
11841 42970 79901 10030 21006 39805 40187 8707/
  333 87359=
11855 42661 70000 10032 20012 30018 40187 81541
  333 81643 86070=
11856 46/// /1302 10036 21004 39868 40191=
11858 42675 81604 10062 20023 30031 40184 885//
  333 88646=
11867 42965 70201 10017 20001 39870 40194 81048
  333 81360 87270=
11880 42965 60000 10027 20008 30016 40191 81032
  333 81360 86070=
11900 46/// /0000 10024 21010 39851 40193=
11903 42970 50000 10012 21012 39804 40194 82072
  333 82360 84069=
11916 42689 63113 11070 21074 37939 48446 85072
  333 85440 91121 93520 9514/
  444 16180=
11918 42983 52504 10006 21030 39346 42777 81046
  333 81361 85270=
11927 42765 69901 10026 21012 39926 40193 81501
  333 81650 86073=
11930 42589 73013 11056 21208 37306 47978 82042
  333 82330 86060 91024 91124=
11933 42982 79902 11030 21061 38634 48449 83042
  333 83358 87070=
11934 42986 71902 10008 21037 39344 42777 82048
  333 82364 86270=
11938 NIL=
11952 46/// /1402 11003 21038 39333 42775=
11958 46/// /2110 11034 21035 3//// 4////=
11968 42480 51701 10002 20001 39910 40199 83501
  333 81712 85070=
11976 41230 81702 10002 21009 39926 40197 71022 886//
  333 88706=
11978 41330 80000 10004 21002 30067 40201 71022 886//
  333 88707=
11993 42963 79901 10000 21016 39978 40201 80008
  333 87270=
0000011800
717
SNVD25 LFPW 111700
BBXX
BATFR14 11174 99297 70391 46/// /05// 10190 20095 40224 58015
22254 04224=
0000009200
718
SAIN90 VOCB 111700
METAR VOCB 111700Z 07007KT 5000 HZ NSC 24/14 Q1016 NOSIG=
0000008300
719
SAIN90 VOBG 111700
METAR VOBG 111700Z 08008KT 7000 NSC 20/13 Q1019=
0000011800
720
SNVD25 LFPW 111700
BBXX
BATFR19 11174 99161 70611 46/// /0821 10259 20197 40167 56029
22222 04267=
0000311600
721
UDFR01 LFPW 111701
AMDAR 1116
ASC EU0938 4059N 02848E 111646 F000 PS077 /// 200/008 TB1 S031
333 F000 VG021=
ASC EU0938 4101N 02848E 111646 F014 PS087 /// 156/008 TB3 S031
333 F014 VG114=
UNS EU0938 4104N 02848E 111647 F033 PS055 /// 262/011 TB1 S031
333 F033 VG032=
ASC EU0938 4105N 02847E 111648 F046 PS027 /// 282/006 TB1 S031
333 F046 VG014=
UNS EU0938 4106N 02846E 111648 F054 PS010 /// 272/006 TB2 S031
333 F054 VG040=
ASC EU0938 4107N 02845E 111648 F066 MS007 /// 321/011 TB1 S031
333 F066 VG012=
ASC EU0938 4108N 02844E 111649 F080 MS037 /// 295/012 TB2 S031
333 F080 VG031=
ASC EU0938 4109N 02842E 111649 F091 MS044 /// 275/018 TB1 S031
333 F091 VG017=
ASC EU0938 4110N 02841E 111649 F103 MS064 /// 283/022 TB2 S031
333 F103 VG031=
ASC EU0938 4111N 02839E 111650 F109 MS082 /// 284/025 TB1 S031
333 F109 VG020=
ASC EU0938 4112N 02837E 111650 F117 MS092 /// 271/028 TB0 S031
333 F117 VG002=
ASC EU0938 4113N 02835E 111650 F127 MS107 /// 283/029 TB2 S031
333 F127 VG026=
ASC EU0938 4114N 02834E 111651 F138 MS112 /// 280/024 TB1 S031
333 F138 VG017=
ASC EU0938 4116N 02832E 111651 F146 MS127 /// 277/027 TB1 S031
333 F146 VG008=
ASC EU0938 4117N 02829E 111651 F156 MS132 /// 275/025 TB1 S031
333 F156 VG023=
ASC EU0938 4117N 02828E 111652 F164 MS152 /// 276/022 TB0 S031
333 F164 VG002=
ASC EU0938 4119N 02826E 111652 F171 MS164 /// 266/020 TB1 S031
333 F171 VG015=
ASC EU0938 4120N 02824E 111652 F180 MS184 /// 272/021 TB0 S031
333 F180 VG001=
ASC EU0938 4122N 02822E 111653 F189 MS204 /// 279/021 TB0 S031
333 F189 VG004=
UNS EU0938 4123N 02820E 111653 F198 MS224 /// 280/022 TB1 S031
333 F198 VG008=
ASC EU0938 4124N 02818E 111653 F206 MS247 /// 274/024 TB0 S031
333 F206 VG004=
ASC EU0938 4125N 02815E 111654 F214 MS264 /// 289/023 TB0 S031
333 F214 VG002=
ASC EU0938 4126N 02813E 111654 F222 MS279 /// 291/024 TB1 S031
333 F222 VG007=
ASC EU0938 4126N 02810E 111654 F230 MS302 /// 285/032 TB1 S031
333 F230 VG007=
ASC EU0938 4128N 02808E 111655 F240 MS322 /// 292/038 TB0 S031
333 F240 VG003=
ASC EU0938 4128N 02805E 111655 F249 MS342 /// 293/044 TB0 S031
333 F249 VG003=
ASC EU0938 4129N 02803E 111655 F255 MS359 /// 296/044 TB0 S031
333 F255 VG000=
ASC EU0938 4131N 02801E 111656 F261 MS374 /// 296/045 TB0 S031
333 F261 VG001=
ASC EU0938 4131N 02758E 111656 F267 MS392 /// 292/047 TB0 S031
333 F267 VG002=
ASC EU0938 4132N 02756E 111656 F274 MS409 /// 289/048 TB0 S031
333 F274 VG001=
ASC EU0938 4133N 02753E 111657 F279 MS424 /// 293/047 TB1 S031
333 F279 VG007=
ASC EU0938 4134N 02751E 111657 F284 MS432 /// 292/046 TB0 S031
333 F284 VG001=
ASC EU0938 4135N 02748E 111657 F289 MS442 /// 294/044 TB0 S031
333 F289 VG003=
ASC EU0938 4136N 02746E 111658 F294 MS454 /// 295/047 TB1 S031
333 F294 VG007=
ASC EU0938 4137N 02743E 111658 F300 MS469 /// 296/051 TB1 S031
333 F300 VG007=
ASC EU0938 4138N 02741E 111658 F306 MS479 /// 295/050 TB1 S031
333 F306 VG009=
ASC EU0938 4139N 02738E 111659 F309 MS489 /// 296/051 TB1 S031
333 F309 VG009=
0000011800
722
SNVE25 LFPW 111700
BBXX
BATFR28 11174 99012 11037 46/// /0219 10262 20219 40111 58007
22272 04279=
0000011000
723
UANT99 KDDL 111700
ARP BAW173 5306N02731W 1700 F380 MS54 181/47 KT
GZZZC QXT AOW 111700 F17A
0000011000
724
UANT99 KDDL 111700
ARP BAW29G 5503N02833W 1700 F370 MS60 184/55 KT
GVIIK QXT AOW 111700 F19A
0000011100
725
UANT99 KDDL 111700
ARP SQC7955 5718N03745W 1701 F350 MS57 225/31 KT
9VSFF QXT AOW 111701 F53A
0000027400
726
SXHW11 KWAL 111702
15D142A4 011170202":PRS 1 #1 1400 1387 1392 1400 1401 1400 1392 1396 1398 1403 :RAD 1 #1 6979 6977 6979 6981 6983 6983 6982 6985 6989 6994 :ENC 2 #5 4888 4890 4901 4918 :SW1 2 #60 0 :SW2 32 #60 0 :BAT 4 #5 12.8 :NAME 15D142A4  30+0NN 216W
0000039700
727
SNVD20 KWNB 111700 RRC
BBXX
44065 11171 99404 70737 46/// /1711 10101 40063 58059 91650 22200
00058 333 91213 555 11121 22135 31607 41715 61649 170111 173109
171105 171111 168114 173104=
44007 11171 99435 70701 46/// /1909 10079 20074 40086 58063 91650
22200 00045 10503 20503 70014 333 91211 555 11101 22114 31634
41912 61649 191093 190101 191091 199077 198062 197056=
0000011200
728
SNVF25 LFPW 111700
BBXX
BATFR03 11174 99502 70007 46/// /2107 10077 20024 40234 53016
22244=
0000011400
729
SAGD31 TGPY 111700
METAR TGPY 111700Z 07016KT 9999 -SHRA SCT017TCU 28/22 Q1015 NOSIG
TCU-N TO E=
0000011800
730
SNVF25 LFPW 111700
BBXX
BATFR44 11174 99477 70034 46/// /1304 10090 20075 40225 53015
22200 04090=
0000011800
731
SNVF25 LFPW 111700
BBXX
BATFR52 11174 99497 70004 46/// /3307 10084 20022 40235 50014
22285 04107=
0000011800
732
SNVF25 LFPW 111700
BBXX
BATFR09 11174 99384 70100 46/// /1805 10137 20090 40183 51011
22242 04172=
0000011800
733
SNVF25 LFPW 111700
BBXX
BATFR61 11174 99472 70060 46/// /1613 10117 20094 40196 50///
22242 04124=
0000011800
734
SNVF25 LFPW 111700
BBXX
BATFR62 11174 99499 70007 46/// /0004 10085 20020 40230 53010
22262 04125=
00000000