0000027600
455
SAIO31 KWBC 110500 RRB
METAR
WBGG 110500Z 35008KT 9999 FEW015CB BKN020 BKN150 28/23 Q1011
     NOSIG=
WBKK 110500Z 34004KT 9999 FEW015 SCT140 BKN270 30/24 Q1011
     NOSIG=
WBSB 110500Z 33008KT 9999 SCT016 FEW017CB BKN280 29/24 Q1011
     NOSIG=

0000008400
456
SAAG41 SAZS 110500
METAR SAZS 110500Z  00000KT CAVOK 11/05 Q1022=

0000039100
457
FCMC31 GMMC 110500
TAF GMME 110500Z 1107/1116 22010KT 5000 SCT015 BKN100 TEMPO
     1107/1112 4000 RA BKN010 BKN015=
TAF GMMN 110500Z 1107/1116 22004KT 9999 SCT016 BKN100 TEMPO 1107/1110
6000 -RA BECMG 1112/1114 26008KT 9999 SCT016=
TAF GMTT 110500Z 1107/1116 VRB03KT 6000 SCT016 BKN100
PROB30 TEMPO 1110/1116 -RA=
TAF GMAD 110500Z NIL=
TAF GMMX 110500Z NIL=

0000019100
458
FTID32 WIBB 110508
TAF WIBB 110500Z 1106/1206 34010KT 9999 BKN015
        TEMPO 1111/1115 36010KT 5000 TSRA BKN015 FEW017CB
        BECMG 1115/1117 00000KT 7000 SCT017=

0000043600
459
FTJD31 OJAI 110500
TAF OJAM 110450Z 1106/1212 26010KT 5000 HZ SCT030 SCT035 BECMG
1116/1118 VRB03KT 7000 FEW030 TEMPO 1203/1206 3000 BR SCT025 BECMG
1206/1208 23008KT 6000 NSC=
TAF OJAI 110450Z 1106/1212 26008KT 6000 SCT030 SCT035 BECMG
1118/1120 VRB03KT 8000 NSC TEMPO 1202/1206 3000 BR SCT025 BECMG
1206/1208 24005KT 7000 NSC=
TAF OJAQ 110450Z 1106/1212 35010KT 7000 NSC TEMPO 1122/1206 01008KT
CAVOK=

0000040000
460
SAPO31 LPMG 110500
METAR LPBJ 110500Z VRB02KT 5000 BCFG FEW001 06/05 Q1016=
METAR LPFR 110500Z 04006KT CAVOK 11/08 Q1015=
METAR LPMA 110500Z 33004KT CAVOK 13/10 Q1016 RS34003KT 0534005KT
2335003KT=
METAR LPPR 110500Z 00000KT 4000 BR FEW001 SCT003 07/07 Q1016=
METAR LPPS 110500Z VRB02KT CAVOK 12/11 Q1016=
METAR LPPT 110500Z VRB02KT 9000 2000NE VCFG FEW003 08/07 Q1015=

0000029300
461
SAPO32 LPMG 110500
METAR LPAZ 110500Z 23020KT 9999 BKN005 16/15 Q1006=
METAR LPFL 110500Z NIL=
METAR LPHR 110500Z NIL=
METAR LPLA 110500Z 23008G18KT 200V320 9000 -RA FEW009 SCT017 15/13
      Q1002=
METAR LPPD 110500Z 25016KT 9999 FEW008 SCT012 BKN035 15/14 Q1004=

0000009300
462
SAAL41 DAMM 110400 RRD
METAR DAOF 110400Z 02006KT 9999 FEW046 10/00 Q1014=

0000010100
463
SPCN42 CWAO 110508
SPECI CYIV 110508Z 07002KT 3SM -SN BR SCT012 BKN090 RMK SC3AC4=

0000043200
464
SAAO33 DRRN 110500
METAR DBBB 110500Z 35001KT 4000 BR SCT008 BKN200 26/26 Q1010 TEMPO
2500 BR=
METAR DFFD 110500Z 03005KT CAVOK 19/03 Q1014 NOSIG=
METAR DGAA 110450Z 27005KT 9999 FEW046 26/25 Q1010 NOSIG=
METAR DNKN 110500Z NIL=
METAR DNMM 110500Z NIL=
METAR DRRN 110500Z 06005KT 4000 DU NSC 19/00 Q1014 BECMG 2500=
METAR DXXX 110500Z 03001KT 8000 FEW011 26/25 Q1011 NOSIG=
METAR FTTJ 110500Z NIL=

0000127200
465
SAAU32 YBBN 110500
METAR YAMB 110500Z AUTO 05008KT 9999 // BKN071 BKN084 28/15 Q1014=
METAR YMAV 110500Z AUTO 19014KT 9999 // NCD 22/13 Q1019=
METAR YBRM 110500Z 27009KT 9999 FEW025 SCT400 32/25 Q1008=
METAR YCIN 110500Z AUTO 24006KT //// // NCD 37/22 Q1007=
METAR YSDU 110500Z AUTO 13004G14KT 9999 // NCD 32/14 Q1015=
METAR YFRT 110500Z AUTO 13012KT //// // ////// 34/06 Q1018=
METAR YGEL 110500Z 23014KT CAVOK 43/07 Q1007=
METAR YPGV 110500Z 10012KT 9999 VCSH BKN021 BKN300 FEW021CB 30/24
Q1005
RMK SHRA AND CB TO SW=
METAR YBHM 110500Z AUTO 12019KT 9999 // ////// 29/22 Q1011=
METAR YMHB 110500Z 15012KT 9999 FEW050 SCT260 22/10 Q1012=
METAR YPKG 110500Z AUTO 05011KT 9999 // NCD 35/05 Q1018=
METAR YMLT 110500Z AUTO 35019KT 9999 // SCT072 26/12 Q1012=
METAR YBMA 110500Z AUTO 11015KT 9999 // SCT098 38/10 Q1007=
METAR YSNF 110500Z 12011KT 9999 FEW032 BKN280 22/12 Q1017=
METAR YPEA 110500Z AUTO 10011KT 9999 // NCD 42/07 Q1012=
METAR YPPD 110500Z AUTO 32013KT 9999 // NCD 35/27 Q1007=
METAR YSRI 110500Z AUTO 07007KT 9999 // NCD 33/11 Q1012=
METAR YBRK 110500Z 08012KT 9999 FEW040 29/18 Q1013=
METAR YWLM 110500Z AUTO 11011KT //// // NCD 31/13 Q1014=
METAR YPWR 110500Z AUTO 15011KT 9999 // NCD 38/05 Q1014=

0000055900
466
FTAU31 YBBN 110500 RRA
TAF YPAD 110459Z 1106/1212
17014KT CAVOK
FM110800 14012KT CAVOK
FM112000 12009KT CAVOK
FM120100 23012KT CAVOK
FM120700 14010KT CAVOK
RMK FM111000 MOD TURB BLW 3000FT TILL112200=
TAF YPPH 110510Z 1106/1212
09013KT CAVOK
FM111500 04018G30KT CAVOK
FM120300 30014G24KT CAVOK
FM120800 23010KT CAVOK 
RMK
FM111500 MOD TURB BLW 3000FT TILL112400=
TAF YSSY 110506Z 1106/1212
05015KT CAVOK
FM111200 01008KT 9999 FEW025
FM111800 16008KT 9999 SCT010 SCT025
FM120200 16015KT 9999 SCT025
RMK=

0000049200
467
FTAU33 YBBN 110500 RRA
TAF YBRM 110508Z 1106/1124
27013KT CAVOK
FM111400 26010KT 9999 BKN020
RMK=
TAF YPXM 110508Z 1106/1124
VRB03KT 9999 SCT015 BKN020
RMK=
TAF YPCC 110509Z 1106/1124
14012KT 9999 -SHRA FEW020 SCT035
RMK=
TAF YPPD 110507Z 1106/1124
28010KT CAVOK
FM110700 30014KT CAVOK
FM111200 29010KT 9999 SCT020
FM111500 24010KT 9999 SCT020
RMK=
TAF YSTW 110508Z 1106/1124
20005KT 9999 -SHRA SCT060
FM111200 14005KT 9999 FEW045
RMK=

0000011600
468
FTAU32 YBBN 110500 RRA
TAF YPKG 110504Z 1106/1206
09010KT CAVOK
FM112400 04014KT CAVOK
RMK=

0000034900
469
SANG31 YBBN 110500
METAR AYPY 110500Z 26012KT 9999 FEW019CB BKN019 BKN280 31/25 Q1004
RMK: CB TO N CB WT DIST SH TO E=
METAR AYWK 110500Z NIL=
METAR AYVN 110500Z NIL=
METAR AYNZ 110500Z NIL=
METAR AYMH 110500Z NIL=
METAR AYGN 110500Z NIL=
METAR AYMO 110500Z NIL=
METAR AGGH 110500Z 36006KT 9999 FEW020 31/24 Q1003=

0000131600
470
SAAU31 YBBN 110500
METAR YPAD 110500Z 17016KT CAVOK 30/08 Q1018
NOSIG=
METAR YBAS 110500Z 13015KT CAVOK 40/03 Q1012
RMK 5CU120=
METAR YBBN 110500Z 09008KT 9999 FEW035 28/16 Q1015=
METAR YBCS 110500Z 21011KT 8000 -SHRA FEW005 SCT020 BKN045 25/22
Q1009=
METAR YSCB 110500Z 30006KT 9999 FEW050 SCT100 BKN240 31/10 Q1016=
METAR YPXM 110500Z AUTO 16005KT 9999 // BKN022 OVC027 28/22 Q1011=
METAR YPCC 110500Z 12014KT 9999 FEW025 BKN039 29/22 Q1011=
METAR YCFS 110500Z AUTO 05013KT 9999 // NCD 26/18 Q1016=
METAR YPDN 110500Z 31006KT 9999 FEW034 BKN350 32/23 Q1006=
METAR YBCG 110500Z AUTO 10010KT 9999 // NCD 27/17 Q1016=
METAR YHID 110500Z AUTO 29005KT 9999 // ////// 30/24 Q1005=
METAR YPJT 110500Z AUTO 09012KT 9999 // NCD 40/06 Q1013=
METAR YPKU 110500Z AUTO 16006KT 9999 // NCD 37/20 Q1006=
METAR YPLM 110500Z AUTO 03010KT 9999 // NCD 33/23 Q1008=
METAR YMML 110500Z 17011KT 9999 FEW030 22/12 Q1018
NOSIG=
METAR YPPH 110500Z 07012KT CAVOK 41/05 Q1012
RMK PLUME OF SMOKE TO WEST=
METAR YSSY 110500Z 05016KT CAVOK 29/15 Q1014
RMK DISTANT CB TOP TO SW
NOSIG=
METAR YSTW 110500Z AUTO 20009KT 9999 // NCD 31/09 Q1015=
METAR YPTN 110500Z AUTO 19009KT 9999 // SCT087 29/24 Q1006 RESHRA=
METAR YBTL 110500Z 09017KT 9999 FEW030 SCT120 BKN220 31/21 Q1009=

0000012500
471
SPCZ40 LKKV 110507
SPECI LKKV 110507Z VRB01KT 0900 R29/1900D FZFG SCT015 M03/M03 Q1016
RMK REG QNH 1014=

0000011000
472
FCNO34 ENMI 110200 RRA
TAF ENBN 110200Z 1105/1112 08015KT CAVOK TEMPO 1105/1112 08015G25KT=

0000020300
473
FTID31 WIII 110500
TAF WIII 110500Z 1106/1212 33008KT 9999 FEW019CB SCT020
PROB30 TEMPO 1109/1112 6000 -TSRA 
BECMG 1110/1112 24005KT 70000 SCT020
BECMG 1116/1118 4000 BR FEW020=

0000004600
474
FCRS33 RUMS 110500
TAF NIL=

00000000