0000047300
132
SZPA01 AMMC 111642
CREX++
T000103 A001 D01021 D06025++
0136250 17293000 67590 2014 01 11 16 35 3015 11 07 00 01
01771 -0001 01757 -0011 01761 -0004 01758 -0003 01752 -0006 01738 -0017+
0710610 17137250 67680 2014 01 11 16 35 3013 11 07 00 01
01100 0043 01099 0046 01099 0048 01091 0043 01093 0048 01087 0044+
0698060 15820000 67950 2014 01 11 16 35 3022 11 07 00 01
00742 0097 00744 0099 00746 0102 00740 0096 00741 0098 00738 0096++
7777

0000034700
133
SZIO01 AMMC 111642
CREX++
T000103 A001 D01021 D06025++
-1211670 09689190 46280 2014 01 11 16 35 3020 11 07 00 01
00679 -0005 00684 -0001 00687 0001 00685 -0002 00683 -0004 00679 -0010+
-1042940 10566940 46290 2014 01 11 16 35 //// 11 07 00 01
00678 0054 00644 0019 00653 0029 00652 0027 00660 0036 00617 -0007++
7777

0000179300
134
SZPS01 AMMC 111642
CREX++
T000103 A001 D01021 D06025++
-0204190 14737360 56130 2014 01 11 16 35 3023 11 07 00 01
00723 0130 00720 0125 00721 0124 00723 0124 00722 0122 00724 0122+
-0669280 15640860 56363 2014 01 11 16 35 //// 11 07 00 01
00661 -0046 00658 -0049 00657 -0049 00653 -0053 00649 -0056 00646 -0058+
-0942890 15995560 56670 2014 01 11 16 35 3038 11 07 00 01
00611 -0048 00608 -0052 00611 -0050 00610 -0052 00614 -0050 00615 -0050+
-1072080 16580190 57131 2014 01 11 16 35 //// 11 07 00 01
02503 1691 03045 2234 02894 2084 02654 1845 02907 2098 02647 1840+
-1551560 16718860 57210 2014 01 11 16 35 //// 11 07 00 01
01088 -0109 01075 -0122 01079 -0116 01086 -0108 01082 -0111 01082 -0110+
-1775690 16830030 57320 2014 01 11 16 35 3015 11 07 00 01
01138 -0029 01139 -0028 01139 -0028 01140 -0028 01140 -0028 01139 -0029+
-4397330 16861610 65180 2014 01 11 16 35 2882 11 07 00 01
01656 0433 01670 0441 01669 0435 01697 0458 01650 0405 01691 0441+
-2120470 -15978530 65980 2014 01 11 16 35 3008 11 07 00 01
00854 0085 00775 0006 00767 -0001 00828 0061 00829 0062 00809 0043+
-2113810 -17518140 66600 2014 01 11 16 35 //// 11 07 00 01
01488 0086 01485 0085 01479 0081 01471 0074 01474 0079 01475 0081+
-1382670 -17176110 66840 2014 01 11 16 35 3010 11 07 00 01
01015 0062 01017 0066 01019 0071 01013 0067 01019 0075 01012 0070+
-1813250 17842750 67050 2014 01 11 16 35 3030 11 07 00 01
01626 0085 01622 0083 01615 0078 01615 0080 01623 0089 01616 0083+
-1760530 17743810 67070 2014 01 11 16 35 3028 11 07 00 01
01767 0048 01764 0047 01763 0047 01759 0045 01757 0045 ///// ////+
-0850250 17919500 67440 2014 01 11 16 35 3027 11 07 00 01
02253 -0005 02255 0000 02245 -0007 02241 -0008 02238 -0008 02236 -0007++
7777

0000490600
135
SIIN90 VOMM 111500
AAXX 11154
43279 32996 10000 10240 20197 30139 40157 80001
  333 58002 81075=
42027 32596 30503 10008 21006 38493 48579 83500
  333 58051=
42071 31995 00000 10126 20107 40213 71011
  333 58028=
42101 NIL=
42111 NIL=
42123 31995 10000 10108 20075 40224 71000 80001
  333 58036 81060=
42131 32996 00000 10104 20061 40212
  333 58034=
42165 31995 20000 10118 20032 40202 70501 80001
  333 58029 82070=
42182 31994 00000 10118 20103 40206 71000
  333 58038=
42189 31994 00000 10136 20114 40197 71022
  333 58036=
42314 21495 70000 10180 20130 40168 70596 83530
  333 58000 6990/ 83618 86360=
42328 32996 30501 10114 20015 40123 83030
  333 58031 83360=
42339 31995 00501 10114 20015 40213 70500
  333 58045=
42348 31995 39902 10138 20019 40208 70417 82031
  333 58051 82360=
42361 31994 20502 10132 20125 40156 71044 82030
  333 59008 82360=
42369 31991 00503 10120 20116 40199 74242
  333 58044=
42379 21994 00000 10154 20129 40182 71062
  333 58028 6004/=
42410 21495 80000 10170 20160 40179 71062 8432/
  333 58007 6990/ 84618 81925 88458=
42415 21596 70000 10180 20134 40194 75022 84530
  333 58006 6990/ 84620 85360=
42452 32996 03602 10134 20073 40205
  333 58049=
42492 21494 70904 10150 20143 40179 76062 83530
  333 58021 6004/ 83618 85360=
42542 NIL=
42559 32995 00000 10144 20127 40138
  333 59007=
42591 21494 73602 10148 20145 40184 72996 85720
  333 58030 6013/ 81710 84618 86458=
42634 32996 02902 10170 20043 40167
  333 58017=
42647 31996 02902 10180 20063 40158 70400
  333 58014=
42667 31994 00505 10148 20134 39539 40142 71000
  333 59002=
42675 21596 41402 10186 20159 40131 70511 84500
  333 58000 6007/=
42701 21391 80503 10128 20106 39433 40186 79596 8492/
  333 58013 6006/ 84615 81930 88458=
42724 31995 40000 10154 20136 40169 71022 84030
  333 58002 84360=
42754 31996 02906 10176 20117 39489 40133 70510
  333 59003=
42779 32996 30000 10198 20152 39439 40142 82031
  333 59001 82360 83075=
42798 31595 71404 10190 20114 40174 70522 84430
  333 58022 83620 83825 86360=
42807 31995 00203 10196 20137 40173 70500
  333 58008=
42809 31995 03404 10186 20141 40170 70500
  333 58008=
42840 32996 00000 10190 20072 40160
  333 58016=
42867 21595 52502 10228 20190 40131 76062 83530
  333 59001 6990/ 83620 83360=
42874 32996 00000 10230 20146 40134
  333 59001=
42971 31995 01104 10216 20181 40165 70500
  333 58003=
42909 NIL=
43003 31995 00205 10220 20125 40148 70400
  333 58017=
43014 32996 00000 10220 20109 39474 40123
  333 58004=
43041 32996 01802 10192 20146 39530 40157
  333 58009=
43049 32996 20000 10246 20200 40162 80001
  333 58006 82075=
43063 32996 00000 10196 20117 39505 40136
  333 58006=
43081 NIL=
43086 32996 00000 10230 20189 39960 40139
  333 58012=
43105 32596 50000 10224 20202 30147 40154 83501
  333 59001=
43110 32996 03603 10226 20156 40140
  333 58016=
43117 32996 10252 20146 40117 82030
  333 59001=
43128 31996 01104 10244 20180 39541 40146 70511
  333 58009=
43149 31995 09902 10232 20204 30159 40162 71000
  333 58006=
43150 31996 00000 10236 20196 30085 40160 70500
  333 58010=
43185 31596 10000 10234 20206 30150 40154 70510 81500
  333 58015 81620=
43189 32596 10000 10244 20199 30149 40158 81500
  333 58003=
43192 32996 00506 10248 20199 40131
  333 58016=
43198 32996 00000 10200 20133 39302 40134
  333 58004=
43201 32996 20000 10248 20116 39400 40115 82030
  333 58007 82360=
43213 32996 00000 10244 20135 39822 40140
  333 58010=
43221 32996 00000 10240 20203 30138 40151
  333 58012=
43233 32996 09902 10234 20147 39319 40125
  333 58006=
43225 NIL=
43226 32996 03202 10252 20210 30105 40135
  333 58004=
43237 32996 00902 10260 20126 39736 40128
  333 58002=
43245 32996 10000 10246 20213 30127 40154 80001
  333 58007=
43284 32996 13205 10256 20207 30007 40123 80001
  333 58001 81075=
43295 32996 30000 10210 20105 39115 48520 80001
  333 58000 83075=
43311 32596 10504 10274 20233 40126 81400
  333 58007 81620=
43314 32996 23405 10280 20237 40126 80001
  333 58004=
43321 31996 00903 10248 20148 39693 40142 70500
  333 58010=
43329 32996 20702 10250 20220 30135 40149 80001
  333 58007=
43344 31996 30908 10250 20201 30042 40142 70500 80001
  333 58002 83075=
43346 32596 50708 10250 20220 30139 40146 82502
  333 58006 82620 84075=
43347 32596 20502 10254 20224 30131 40142 81501
  333 58005=
43353 31996 22905 10278 20228 40130 70500 82011
  333 56099 58008 82459=
43360 NIL=
43369 22596 50902 10272 20237 40123 82502
  333 58005 6990/ 82620 85075=
43371 32997 10000 10268 20239 30055 40128 80001
  333 58004 81075=
43333 31495 60509 10264 20232 40139 70522 85401
  333 56109 58012 82618 84820=
0000013600
136
SNVD17 CWHX 111600
BBXX
44141 11161 99430 70580 46/// /2404 10068 40283 57020
22200 00094 10802 70012 333 91206 =

0000036200
137
SXXX32 EUMS 111636
12FFB3C8
:PRS 1 /1 M 2913 2919 2933 2921 2925 2926 2930 2934 2923 2916 2902 2901 2908 2899 2899 2896 2902 2900 2914 2911 2911 2919 2923 2920 2914 2913 2911 2917 2914 :RAD 1 /3 5855 5854 5848 5838 5839 5845 5852 5854 5855 5864 :ENC 1 /5 -144 -144 -144 -144 -144 -144 :SW1 36 /60 0 :SW2 6 /60 60 :BAT 14 /15 14.2 :NAME 12FFB3C8
0000070100
138
SXXX32 EUMS 111636 RRA
22E7E6D2
OT12 ID:ID-ROTE-11 DT:2014 01 11 16 34
:PRS /1 -10753 -10203 -10741 -10745 -10725 -10726 -10725 -10725 -10750 -10751 -10746 -10747 -10749 -10751 -10749 -10750 -10191 -10736 -10750 -10720 -10724 -10725 -10723 -10752 -10748 -10750 -10744 -10749 -10752 -10749
:PR2 /1 03673 03656 03657 03628 03643 03638 03617 03631 03614 03596 03604 03582 03599 03615 03576 03593 03660 03603 03587 03573 03574 03548 03577 03523 03535 03526 03500 03536 03533 03520
:RAD /1 05276 05262 05240 05244 05248 05224 05196 05192 05184 05200 05156 05216 05176 05184 05180 05176 05183 05164 05160 05176 05160 05160 05140 05144 05100 05120 05104 05076 05132 05104
:BAT 12.4V
0000066700
139
SXXX32 EUMS 111637
32CC9580
OT12 ID:ID-ENGG-07 DT:2014 01 11 16 36
:PRS /1 01272 01253 01274 01239 01232 01244 01292 01290 01238 01266 01276 01262 01231 01259 01284 01249 01240 01245 01274 01283 01235 01244 01216 01253 01251 01251 01255 01224 01257 01273
:PR2 /1 04738 04719 04732 04712 04702 04720 04729 04739 04722 04718 04691 04742 04714 04729 04732 04723 04737 04709 04739 04738 04725 04723 04694 04700 04726 04709 04732 04704 04719 04731
:RAD /1 05589 05579 05593 05578 05568 05578 05595 05603 05580 05592 05573 05577 05576 05570 05586 05592 05573 05593 05596 05594 05591 05582 05551 05562 05590 05584 05585 05578 05594 05590
:BAT 12.3V
0000044600
140
SXXX32 EUMS 111639
224AD678
:PRS 2 /1 1953 1955 1956 1956 1956 1955 1956 1960 1960 1963 1967 1971 1979 1982 1987 1998 1999 1997 1995 1995 1996 1999 2005 2017 2019 2019 2018 2020 2022 2035 :RAD 4 /3 4776 4780 4793 4803 4814 4822 4831 4841 4851 4863 4869 4878 4889 4898 4910 4919 4931 4941 4947 4959 :ENC 4 /5 8301 8306 8326 8342 8353 8369 8385 8401 8411 8431 8447 8457 :SW1 39 /60 54 :SW2 9 /60 60 :BAT 14 /15 12.3 :NAME 224AD678
0000236900
141
UDFR01 LFPW 111642
AMDAR 1116
ASC EU3443 4859N 00232E 111627 F012 PS050 /// 002/008 TB1 S031
333 F012 VG031=
ASC EU3443 4859N 00229E 111628 F031 PS037 /// 359/012 TB0 S031
333 F031 VG003=
ASC EU3443 4859N 00228E 111629 F036 PS027 /// 338/009 TB0 S031
333 F036 VG003=
ASC EU3443 4859N 00225E 111629 F043 PS012 /// 329/010 TB1 S031
333 F043 VG012=
ASC EU3443 4858N 00216E 111631 F084 MS022 /// 337/018 TB0 S031
333 F084 VG000=
ASC EU3443 4858N 00214E 111631 F095 MS049 /// 337/016 TB0 S031
333 F095 VG000=
ASC EU3443 4858N 00211E 111631 F104 MS079 /// 335/013 TB2 S031
333 F104 VG041=
ASC EU3443 4858N 00206E 111632 F111 MS094 /// 343/011 TB0 S031
333 F111 VG002=
ASC EU3443 4858N 00203E 111632 F113 MS099 /// 343/009 TB0 S031
333 F113 VG002=
ASC EU3443 4858N 00200E 111633 F118 MS107 /// 297/006 TB2 S031
333 F118 VG020=
ASC EU3443 4858N 00157E 111633 F128 MS122 /// 311/020 TB1 S031
333 F128 VG012=
ASC EU3443 4857N 00150E 111634 F145 MS162 /// 312/024 TB1 S031
333 F145 VG008=
ASC EU3443 4857N 00147E 111634 F152 MS177 /// 308/024 TB1 S031
333 F152 VG011=
ASC EU3443 4856N 00137E 111635 F173 MS219 /// 321/028 TB0 S031
333 F173 VG001=
ASC EU3443 4856N 00133E 111635 F180 MS237 /// 325/030 TB0 S031
333 F180 VG002=
ASC EU3443 4855N 00125E 111636 F196 MS282 /// 322/029 TB1 S031
333 F196 VG007=
ASC EU3443 4855N 00122E 111636 F212 MS322 /// 308/026 TB1 S031
333 F212 VG013=
ASC EU3443 4855N 00119E 111637 F224 MS359 /// 300/024 TB1 S031
333 F224 VG011=
UNS EU3443 4855N 00116E 111637 F228 MS374 /// 299/023 TB1 S031
333 F228 VG016=
UNS EU3443 4854N 00112E 111637 F229 MS377 /// 299/024 TB0 S031
333 F229 VG003=
ASC EU3443 4852N 00109E 111638 F229 MS377 /// 304/027 TB1 S031
333 F229 VG009=
ASC EU3443 4851N 00105E 111638 F230 MS377 /// 303/025 TB0 S031
333 F230 VG004=
ASC EU3443 4850N 00103E 111638 F230 MS377 /// 306/025 TB0 S031
333 F230 VG000=
ASC EU3443 4849N 00059E 111639 F230 MS377 /// 305/024 TB0 S031
333 F230 VG003=
ASC EU3443 4847N 00056E 111639 F230 MS377 /// 305/025 TB0 S031
333 F230 VG000=
ASC EU3443 4846N 00053E 111639 F230 MS374 /// 301/025 TB0 S031
333 F230 VG000=
ASC EU3443 4844N 00050E 111640 F230 MS377 /// 306/023 TB0 S031
333 F230 VG001=
ASC EU3443 4843N 00047E 111640 F229 MS377 /// 306/024 TB0 S031
333 F229 VG000=
0000011000
142
UANT99 KDDL 111641
ARP AFR848 4802N01256W 1641 F320 MS53 236/56 KT
FGSQP DDL BYT 111641 F07A
0000011000
143
UANT99 KDDL 111641
ARP EIN137 5259N03032W 1641 F380 MS53 203/33 KT
EIDUO DDL XXN 111641 J30A
0000011000
144
UANT99 KDDL 111641
ARP AFR356 5355N03135W 1641 F350 MS54 181/39 KT
FGSPJ QXT AOE 111641 F23A
0000011000
145
UANT99 KDDL 111641
ARP BAW173 5307N02336W 1641 F380 MS58 191/52 KT
GZZZC QXT AOE 111642 F14A
0000191900
146
UPIN90 VOMM 111200
 PPAA 1012/ 43279 NIL=
PPAA 61111 42071
55392 25506 30510 05506 55150 06009 77999=
PPAA 6012/ 42111 NIL=
PPAA 61111 42123 55292 35508 00508=
PPAA 61111 42165
55392 34509 00510 34012 77999=
PPAA 10121 42182 NIL=
PPAA 6012/ 42189 NIL=
PPAA 10121 42314 NIL=
PPAA 61111 42328 55292 02512 03009=
PPAA 61111 42339
55392 03511 03513 00512 55150 31536 77999=
PPAA 61111 42348
55392 00511 01508 33525 77999=
PPAA 61111 42361 55292 33513 34511 77999=
PPAA 10121 42369 NIL=
PPAA 60111 42379
55392 07004 25003 27515 77999=
PPAA 10121 42410 NIL=
PPAA 61111 42452 55292 03008 34508=
PPAA 10121 42492 NIL=
PPAA 61111 42542
55392 03007 06006 36019 77999=
PPAA 10121 42591 NIL=
PPAA 61111 42634 55292 03517 06016 77999=
PPAA 61111 42647
55292 05510 06514 77999=
PPAA 61121 42667 55392 04007 07008 31520 77999=
PPAA 10121 42675 NIL=
PPAA 10121 42724 NIL=
PPAA 60111 42798 55285 27004 26023=
PPAA 61111 42809 55292 00507 23508 =
PPAA 61111 42840 55392 03009 18503 32012 55150 31536 77999=
PPAA 10121 42867 NIL=
PPAA 61111 42874 55292 25005 24022 77999=
PPAA 10121 42971 NIL=
PPAA 10121 42909 NIL=
PPAA 10121 43003 NIL=
PPAA 10121 43014 NIL=
PPAA 61111 43041 55392 20010 23010 30515 77999=
PPAA 61111 43049 55392 17009 21508 26009 55150 26023 77999=
PPAA 61121 43063 55392 23006 21509 24009 77999 =
PPAA 60123 43105 NIL=
PPAA 61111 43110 55392 09003 18511 00506 77999=
PPAA 10121 43128 NIL=
PPAA 10121 43150 NIL=
PPAA 1012/ 43185 NIL=
PPAA 1012/ 43201 NIL=
PPAA 60123 43221 NIL=
PPAA 10121 43237 NIL=
PPAA 1012/ 43285 NIL=
PPAA 1012/ 43295 NIL=
PPAA 60111 43311 55292 02507 33504 77999=
PPAA 61111 43344
55392 05009 12506 07508 77999=
PPAA 1012/ 43346 NIL=
PPAA 10121 43353 NIL=
PPAA 61111 43369 55292 03511 05509=
PPAA 61111 43371 55392 35003 09007 09009 77999=
PPAA 10121 43333 NIL=
0000302100
147
UGIN90 VOMM 111200
PPBB 10121 43279 NIL=
PPBB 61111 42071
90012 27004 25007 23506 9037/ 27008 00506 91123 12514
00511 06004 915// 04504 9201/ 05010 05510=
PPBB 6012/ 42111 NIL=
PPBB 61111 42123
90012 31502 00506 36008 90379 34006 01512 01017=
PPBB 61111 42165
90012 36001 35007 34509 90378 34508 32511 35013 91012
34517 33518 33524 9158/ 31534 30540=
PPBB 61122 42182 90023 31501 31501 32008 90456 31511 31521 32022
90789 33024 33533 32537 91012 31029 31030 32035 91345 32545
32044 32035 91678 32535 32540 32543 919// 32563 92024 33083
32589 31591 9268/ 31093 30095=
PPBB 6012/ 42189 NIL=
PPBB 10121 42314 NIL=
PPBB 61111 42328
90012 04507 02008 02513 9036/ 02513 03010=
PPBB 61111 42339
90012 36002 00502 03010 9037/ 03012 02012 9125/ 35523
33027 9201/ 30539 30039=
PPBB 61111 42348
90023 36003 00011 00513 9078/ 05008 33012 91012 34521
32538 32538 913// 33537=
PPBB 61111 42361
90012 31502 33008 33512 90378 34017 32518 33517=
PPBB 10121 42369 NIL=
PPBB 60111 42379
90012 00000 12502 09005 90367 35002 26007 27018 9124/
27518 26520=
PPBB 10121 42410 NIL=
PPBB 61111 42452
90012 36006 02007 02509 90357 02508 34007 03515 908//
03012=
PPBB 10121 42492 NIL=
PPBB 61111 42542
90023 00000 04005 03508 907// 04514 9125/ 33517 31518=
PPBB 10121 42591 NIL=
PPBB 61111 42634
90012 36011 02527 03516 9035/ 04011 06016=
PPBB 61111 42647
90012 04512 06011 05510 9035/ 05510 06514=
PPBB 61121 42667
90023 04506 06006 03508 9057/ 07508 25519 9123/ 31525
32529=
PPBB 10121 42675 NIL=
PPBB 10121 42724 NIL=
PPBB 60111 42798
90012 ///// 09006 12506 9037/ 12506 24006=
PPBB 61111 42809 90012 36004 02007 01008 90347 01005 20505 17503 =
PPBB 61111 42840
90012 31506 34009 02509 90347 05508 10504 26006 908//
32510 9125/ 32013 30518 9201/ 31537 31044=
PPBB 10121 42867 NIL=
PPBB 61111 42874
90023 27004 25506 24005 907// 25514=
PPBB 10121 42971 NIL=
PPBB 10121 42909 NIL=
PPBB 10121 43003 NIL=
PPBB 10121 43014 NIL=
PPBB 61111 43041
90023 18002 19510 20512 9067/ 25507 31008 91123 28018
26025 26522 9157/ 28532 31029=
PPBB 61111 43049
90012 13506 16010 16509 9037/ 17510 24508 91257 28014
24523 26011 920// 26524=
PPBB 61121 43063 90023 22506 23507 23006 907// 19014 91235 24514
28516 31014 918// 31521 =
PPBB 60123 43105 NIL=
PPBB 61111 43110 90012 31506 31511 30507 9037/ 25504 12507 911//
35004=
PPBB 10121 43128 NIL=
PPBB 1012/ 43150 NIL=
PPBB 10121 43185 NIL=
PPBB 60121 43201 NIL=
PPBB 60123 43221 NIL=
PPBB 10121 43237 NIL=
PPBB 60121 43285 NIL=
PPBB 10121 43295 NIL=
PPBB 60111 43311 90012 04506 01512 02509 90345 00503 02503 33504
907// 10512=
PPBB 61111 43344
90012 09008 09507 06008 90347 03509 06002 14504 91258
02511 06012 05012=
PPBB 60121 43346 NIL=
PPBB 10121 43353 NIL=
PPBB 61111 43369
90012 04504 03510 04011 9037/ 03510 06008=
PPBB 61111 43371 90012 18002 25508 29002 9037/ 01504 13508 912//
07521=
PPBB 10121 43333 NIL=

0000021800
148
SOAT10 KWAL 111643
14022214 011164311    +6.301   +6.286   +6.292   +6.282   +6.289   +6.278   +6.278   +6.283   +6.300   +6.313      +358      +8.9     +25.8       +67   +1018.3  +655.350  49-0NN  79E
0000011200
149
UANT01 CWAO 111641
ARP FDX5081 5421N04714W 1640 F350 MS59 290/74 KT
N589FE QXT AOW 111641 F12A
0000011000
150
UANT01 CWAO 111641
ARP ACA871 5030N04201W 1641 F330 MS59 288/62 KT
CFNNQ DDL XXN 111641 F26A
0000011100
151
UANT01 CWAO 111641
ARP UAL986 6237N05448W 1641 F320 MS59 260/21 KT
N646UA DDL XXW 111641 F53A
00000000