0000044700
955
SAAF17 LFPW 110500
METAR HEAX 110500Z 00000KT CAVOK       12/09 Q1023 NOSIG=
METAR HEGN 110500Z 30012KT CAVOK       13/08 Q1023 NOSIG=
METAR HELX 110500Z 17002KT CAVOK       08/05 Q1023 NOSIG=
METAR HEMM 110500Z 24006KT 9999 BKN020 11/09 Q1024 NOSIG=
METAR HESN 110500Z 36003KT CAVOK       10/04 Q1023 NOSIG=
METAR HLLB 110445Z
00000KT 8000 SCT020 BKN080 10/08 Q1025 =
METAR HLLT 110450Z 18005KT CAVOK 10/05 Q1022=

0000022100
956
SAAF18 LFPW 110500
METAR FIMP 110500Z 09010KT 9999 SCT018 29/24 Q1017=
METAR FIMR 110500Z  10016KT 8000 -SHRA BKN017 28/25 Q1017=
METAR FMMI 110500Z VRB01KT 9000  SCT017  BKN230 22/22 Q1022
NOSIG=

0000054700
957
SAKO31 RKSI 110500
METAR RKSI 110500Z 20004KT 9999 SCT040 BKN200 01/M12 Q1031 NOSIG=
METAR RKSS 110500Z 03003KT CAVOK 02/M20 Q1031 NOSIG =
METAR RKPC 110500Z 02005KT 9999 FEW030 SCT180 06/M06 Q1031 NOSIG =
METAR RKPK 110500Z 34008KT CAVOK 05/M08 Q1029 NOSIG =
METAR RKTU 110500Z 24005KT 9999 FEW040 BKN230 02/M14 Q1031 NOSIG =
METAR RKTN 110500Z 29009KT 9999 FEW040 BKN200 04/M09 Q1030 NOSIG =
METAR RKJB 110500Z 34006KT 9999 FEW035 SCT180 05/M06 Q1031 NOSIG =
METAR RKNY 110500Z 25011KT CAVOK 03/M15 Q1027 NOSIG =

0000049700
958
SASP31 LEMM 110500
METAR LEMD 110500Z 01003KT CAVOK 06/05 Q1017 NOSIG=
METAR LEBL 110500Z NIL=
METAR LEPA 110500Z 06006KT CAVOK 10/09 Q1017 NOSIG=
METAR LEZL 110500Z VRB01KT 8000 NSC 09/09 Q1016 NOSIG=
METAR LEMG 110500Z 30006KT 7000 FEW025 10/10 Q1016 NOSIG=
METAR LEVC 110500Z VRB02KT 7000 SCT040 09/08 Q1018 NOSIG=
METAR LEAL 110500Z 29005KT 9000 FEW015 09/07 Q1017 NOSIG=
METAR LEIB 110500Z NIL=
METAR LEVX 110500Z 00000KT 6000 NSC 06/06 Q1016 TEMPO 3000 BR=

0000077300
959
SASP32 LEMM 110500
METAR LEAS 110500Z VRB01KT 9999 FEW015 BKN030 09/09 Q1017 NOSIG=
METAR LEBB 110500Z VRB01KT 9999 FEW021 BKN032 10/09 Q1018 NOSIG=
METAR LECO 110500Z 19004KT 0300 R21/0450N R03/0550U FG VV001
04/04 Q1017=
METAR LEGE 110500Z VRB02KT 4000 BR BKN020 08/07 Q1018=
METAR LEST 110500Z VRB01KT 3000 R17/0400N BR NSC 01/01 Q1016
TEMPO 0700 BCFG=
METAR LEZG 110500Z 29005KT 1000 R30R/1800N BR VV002 05/05 Q1018=
METAR LESO 110500Z VRB02KT 9999 SCT022 BKN038 10/09 Q1018=
METAR LEVT 110500Z 00000KT 4000 BR FEW001 BKN010 01/01 Q1018=
METAR LERS 110500Z NIL=
METAR LEMH 110500Z 10004KT 8000 BKN008 12/12 Q1017=
METAR LEAM 110500Z 01007KT 9999 FEW020 11/08 Q1016=
METAR LEGR 110500Z 00000KT 9999 FEW030 BKN090 07/06 Q1017=

0000013700
960
SASP33 LEMM 110500
METAR LEVD 110500Z NIL=
METAR LEVS 110500Z NIL=
METAR LESA 110500Z 00000KT CAVOK M01/M01 Q1016=

0000025100
961
FTTH32 VTBB 110500
TAF VTSB 110500Z NIL=
TAF VTSM 110500Z NIL=
TAF VTSC 110500Z NIL=
TAF VTSK 110500Z NIL=
TAF VTST 110500Z NIL=
TAF VTSR 110500Z NIL=
TAF VTSF 110500Z NIL=
TAF VTSH 110500Z NIL=
TAF VTSE 110500Z NIL=

0000175000
962
FTHK31 VHHH 110500
TAF VHHH 110500Z 1106/1212 08010KT 7000 NSC TX22/1106Z 
TX22/1206Z TN15/1123Z TEMPO 1106/1110 29010KT TEMPO 1110/1118 
14010KT TEMPO 1120/1203 VRB05KT TEMPO 1203/1209 29010KT 4000 HZ 
TEMPO 1209/1212 VRB05KT=
TAF RCTP 110500Z 1106/1212 03010KT 9999 FEW010 BKN032
    BECMG 1116/1118 36010KT 6000 FEW008 BKN018 BKN032
    TEMPO 1118/1124 4000 BR SCT005 BKN010 BKN020
    BECMG 1200/1202 03015KT 9999 FEW010 BKN032=
TAF RCKH 110500Z 1106/1212 27008KT 9999 FEW020 BKN035
    BECMG 1110/1112 36006KT 
    TEMPO 1118/1202 03003KT 4000 HZ 
    TEMPO 1204/1210 33008KT =
TAF RCSS 110500Z 1106/1206 11010KT 9999 FEW020 BKN032
    BECMG 1116/1118 07005KT 
    TEMPO 1118/1202 VRB03KT 5000 RA FEW010 BKN016 BKN035=
TAF VMMC 110500Z 1106/1212 VRB03KT 7000 NSC
    TEMPO 1116/1120 5000 HZ
    BECMG 1120/1123 02010KT 4000 HZ
    TEMPO 1122/1202 3000 BR
    TEMPO 1206/1212 VRB03KT=
TAF RPLL 110500Z 1106/1212 11008KT 9999 FEW025 SCT100 TX30/1106Z    
    TN22/1121Z TEMPO 1106/1112 10012KT 9000 FEW023 SCT025 BKN100     
   TEMPO 1116/1121 08005KT SCT023 SCT100 TEMPO 1200/1206 07006KT=
TAF RPVM 110500Z 1106/1212 36010KT 9999 FEW020 BKN100 OVC250 TEMPO  
    1106/1112 04014KT 7000 -RA SCT020 OVC080 TEMPO 1113/1118 34015KT 
   8000 -RA SCT020 OVC090 TEMPO 1119/1124 02008KT 9000 -SHRA         
  FEW018CB OVC090=
TAF RPMD 110500Z 1106/1206 36007KT 9000 SCT016 BKN090 OVC290 TEMPO  
    1106/1112 03010KT 5000 -RA SCT016 OVC090=
TAF RPLB 110500Z 1106/1206 07010KT 9999 FEW040 TX31/1106Z TN21/1121Z
    TEMPO 1106/1112 07014G24KT 9000 VCSHRA SCT020 BKN100=
TAF RPLI 110500Z 1106/1206 09010KT 9999 FEW019 TEMPO 1106/1112      
    09012G22KT 9999 FEW019 BKN290=

0000027400
963
SASP34 LEMM 110500
METAR LEDA 110500Z NIL=
METAR LEJR 110500Z 00000KT CAVOK 12/11 Q1015=
METAR LELL 110500Z NIL=
METAR LEPP 110500Z 00000KT 0100 R33/0400N R15/0225N FG VV001
03/03 Q1018=
METAR LEXJ 110500Z 00000KT 8000 SCT006 OVC013 11/10 Q1018=

0000026700
964
SACR31 LEMM 110500
METAR GCLP 110500Z 35009KT 300V360 9999 FEW020 15/10 Q1017 NOSIG=
METAR GCXO 110500Z NIL=
METAR GCTS 110500Z 36008KT 9999 SCT030 16/08 Q1016 NOSIG=
METAR GCRR 110500Z NIL=
METAR GCFV 110500Z NIL=
METAR GCLA 110500Z NIL=

0000029500
965
SASP35 LEMM 110500
METAR LEAB 110500Z 16004KT 130V200 7000 OVC006 07/06 Q1017 NOSIG=
METAR LEBZ 110500Z 10001KT 0900 R31/1700U FG NSC 06/05 Q1016=
METAR LELC 110500Z NIL=
METAR LELN 110500Z VRB02KT CAVOK 01/01 Q1016=
METAR LETO 110500Z 01004KT CAVOK 06/05 Q1017 NOSIG=

0000004200
966
SACR32 LEMM 110500
NIL=

0000010000
967
SASP39 LEMM 110500
METAR LETL 110500Z AUTO 20006KT 3300 HZ BKN001/// 03/03 Q1017=

0000020700
968
FTID32 WALL 110500
TAF WALL 110500Z 1106/1212 35005KT 9999 SCT018 BECMG 1112/1114 8000
FEW018CB SCT018 TEMPO
1117/1120 5000 -TSRA FEW015CB BKN015 BECMG 1200/1202 09005KT 9999
FEW020=

0000080100
969
FTAE34 VTBB 110500
TAF VVTS 110500Z 1106/1212 09005KT 5000 HZ SCT017 
           BECMG 1118/1120 3000 BR 
           BECMG 1201/1203 7000 NSW=
TAF VVNB 110500Z NIL=
TAF VVDN 110500Z 1106/1206 05008KT 8000 FEW015 BKN050
         BECMG 1110/1111 4000 BR
         TEMPO 1118/1201 2500 -RA BR
         BECMG 1201/1202 7000 NSW=
TAF VVPB 110500Z 1106/1206 32006KT 6000 FEW013 BKN050
         BECMG 1109/1110 4000 BR
         TEMPO 1114/1201 1800 -RA BR
         BECMG 1201/1202 6000 NSW=
TAF VVCR 110500Z 1106/1206 02012KT 8000 FEW015 BKN060
         TEMPO 1112/1118 4000 RA =
TAF VVCT 110500Z 1106/1206 06008KT 9999 SCT015 
           BECMG 1120/1122 VRB02KT 3000 BR 
           BECMG 1201/1203 8000 NSW=
TAF VVPQ 110500Z 1106/1206 03008KT 9999 SCT017=

0000040200
970
SNDL44 EDZW 111700 RRA
AAXX 11171
10033 42462 62709 10054 20031 30037 40078 52023 84930
  333 81915 83645=
10037 46/56 /2806 10044 20020 30058 40089 5/028=
10038 41465 42706 10041 20017 30070 40092 52032 72111 83801
  333 81815=
10126 42575 32807 10058 20025 30119 40135 53035 82230
  333 82825=
10136 42460 33008 10054 20021 30075 40115 52034 81931
  333 81915 83071=
0000041800
971
SNDL45 EDZW 111700 RRA
AAXX 11171
10172 41357 82506 10051 20042 39988 40061 56015 76166 875//
  333 86708 87614=
10238 41356 82402 10049 20041 30030 40126 53021 76166 875//
  333 82708 87612 91007=
10246 41458 82906 10049 20043 30011 40119 53019 76062 8657/
  333 83710 85615 87358 91113=
10304 46/59 /2504 10043 20030 30106 40157 5/038=
10306 46/// ///// 1//// 2//// 3//// 4//// 5////=
0000029800
972
SNDL46 EDZW 111700 RRA
AAXX 11171
10334 46/33 /2809 10046 20028 30053 40139 5/028
  333 91113=
10335 41456 83006 10048 20026 30053 40146 52029 72166 875//
  333 85714 87635 91115 91211=
10343 41370 82704 10048 20030 30060 40125 53019 76166 875//
  333 82709 85656 87657=
0000028000
973
SNDL47 EDZW 111700 RRA
AAXX 11171
10476 42767 72206 10061 20018 39991 40115 57018 875//
  333 83650 87657=
10502 42475 22905 10055 20033 30034 40200 52038 82100
  333 82815=
10516 41468 63005 10071 20037 30079 40199 53029 72162 86800
  333 83812 86635=
0000026000
974
SNDL48 EDZW 111700 RRA
AAXX 11171
10613 46/65 /2905 10041 20023 39614 40202 5/026=
10618 41465 82106 10050 20039 39743 40202 53017 78022 888//
  333 83810 88618=
10743 41020 82407 10038 20033 39617 40190 52006 71022 886//
  333 88701=
00000000