0000027900
055
FTHV31 DFFD 110515
TAF DFFD 110500Z 1106/1212 06008KT 8000 NSC BECMG 1106/1108 3000 DU
BECMG 1112/1114 6000 NSW TEMPO 1117/1120 4000 DU=
TAF DFOO 110500Z 1106/1206 10010KT 8000 NSC TEMPO 1106/1110 4000 DU
BECMG 1112/1114 4000 DU BECMG 1120/1122 6000 NSW=

0000009700
056
SPUS41 KWBC 110513
SPECI
KBED 110509Z 00000KT 1 1/4SM BR OVC003 01/01 A3025=

0000011100
057
SPUS42 KWBC 110513
SPECI
KLCH 110509Z AUTO 22013G21KT 3SM RA BR BKN003 OVC011 18/17 A2985=

0000012200
058
SPUS43 KWBC 110513
SPECI
KDLH 110509Z 22004KT 1/4SM R09/2000V2200FT -FZDZ FZFG VV002
M03/M04 A2944=

0000034300
059
FCFR22 LFPW 110500
TAF LFBM 110500Z 1106/1115 24004KT 7000 BKN020 TEMPO 1106/1109 3000
 BR
 OVC014=
TAF LFMO 110500Z 1106/1115 VRB02KT 6000 BKN025 TEMPO 1106/1110 3000
 BR=
TAF LFBC 110500Z NIL=
TAF LFBG 110500Z NIL=
TAF LFBY 110500Z NIL=
TAF LFKS 110500Z NIL=
TAF LFMC 110500Z NIL=
TAF LFMY 110500Z NIL=

0000015500
060
FCFR23 LFPW 110500
TAF LFOC 110500Z NIL=
TAF LFOE 110500Z NIL=
TAF LFOJ 110500Z NIL=
TAF LFRJ 110500Z NIL=
TAF LFRL 110500Z NIL=

0000021300
061
FCFR24 LFPW 110500
TAF LFSO 110500Z 1106/1115 5000 -RA SCT005 BKN050 OVC080
TEMPO 1109/1115 2000 -DZRA BR BKN003 BKN010=
TAF LFSI 110500Z NIL=
TAF LFSX 110500Z NIL=
TAF LFYR 110500Z NIL=

0000076000
062
FCFR31 LFPW 110500
TAF LFBA 110500Z 1106/1115 VRB02KT 7000 SCT013 BKN023 TEMPO 1106/1112
 3500 BR OVC013 PROB30 TEMPO 1106/1112 2000 OVC007=
TAF LFBE 110500Z 1106/1115 VRB02KT 3000 BR BKN015 TEMPO 1106/1108
0200 FG VV/// BECMG 1108/1110 12006KT 3000 BR BKN005 BECMG 1112/1115
8000 NSW SCT015=
TAF LFCK 110500Z 1106/1115 12010KT 9999 FEW025 TEMPO 1108/1113
VRB03KT=
TAF LFRC 110500Z 1106/1115 22010KT 6000 SCT005 BKN040 TEMPO 1106/1108
 3000 RADZ BKN003 BECMG 1107/1109 33014KT 9999 NSW SCT015 BECMG
1112/1115 02008KT=
TAF LFRG 110500Z 1106/1115 22005KT 5000 BKN010 TEMPO 1106/1109 2000
BR BKN004 TEMPO 1109/1111 3000 RADZ BKN004 BECMG 1111/1113 33008KT
9999 NSW SCT020=
TAF LFPN 110500Z NIL=
TAF LFRK 110500Z NIL=

0000046100
063
FCFR32 LFPW 110500
TAF LFGJ 110500Z 1106/1115 VRB03KT 9999 FEW015 SCT050 BKN100 BECMG
1107/1110 21010KT PROB40 1106/1110 4000 BR BKN004 TEMPO 1110/1115 -RA
 BKN009=
TAF LFJR 110500Z 1106/1115 VRB02KT 0200 FG VV/// BECMG 1109/1112 3000
 BR BKN005=
TAF LFMD 110500Z 1106/1115 06012KT 9999 SCT025 BECMG 1112/1114 BKN015
=
TAF LFOT 110500Z 1106/1115 01005KT 4000 BR BKN009 BECMG 1108/1110
BKN015 TEMPO 1106/1112 2500 -DZRA BKN010=

0000039000
064
FCFR33 LFPW 110500
TAF LFAQ 110500Z 1106/1115 22010KT 2500 BR BKN007 OVC030 TEMPO
1106/1112 1200 DZRA OVC002 BECMG 1113/1115 30010KT 9999 NSW SCT015=
TAF LFRH 110500Z 1106/1115 VRB02KT 0200 FG VV/// BECMG 1109/1111
08006KT 9999 NSW SCT012 SCT020=
TAF LFSL 110500Z 1106/1115 16004KT 9999 SCT025 TEMPO 1106/1112
18006KT 8000 SCT018 BKN022=
TAF LFRQ 110500Z NIL=

0000032100
065
FCFR34 LFPW 110500
TAF LFAT 110500Z 1106/1115 10013KT 4000 BR BKN007 OVC030 TEMPO
1106/1109 2000 RA OVC003 BECMG 1109/1111 32015KT 9999 NSW SCT020=
TAF LFLN 110500Z 1106/1115 VRB03KT 3000 BR NSC BECMG 1107/1109 CAVOK
BECMG 1113/1115 04005KT BKN025=
TAF LFPM 110500Z NIL=
TAF LFRT 110500Z NIL=

0000011000
066
SACN45 CWAO 110500
METAR CYZS 110500Z 33005KT 15SM SKC M30/M34 A2960 RMK WND ESTD
SLP034=

0000011100
067
SPUS31 KWBC 110517
SPECI
KIND 110513Z 15009KT 3SM -RA BR SCT006 BKN014 OVC070 05/05 A2962=

0000011100
068
SPUS41 KWBC 110517
SPECI
KILG 110513Z AUTO 06006KT 3/4SM R01/P6000FT BR VV002 04/03 A3014=

0000009100
069
SPUS43 KWBC 110517
SPECI
KMKC 110513Z 27005KT 10SM OVC015 03/01 A2963=

0000029500
070
FTAP32 FAPR 110300 RRB
TAF FWKI 110400Z 1106/1212 01010KT 9999 SCT025 BKN090 BECMG 1110/1112
     FEW025CB BKN030 TEMPO 1112/1116 VRB10G25KT 2000 TSRA FEW018CB
     BKN020 BKN080 BECMG 1118/1120 VRB02KT 9999 SCT025 BKN090 BECMG
     1206/1208 29010KT 9999 SCT030 SCT090=

0000009600
071
SAAO33 GOOY 110500 RRA
METAR GUCY 110500Z VRB02KT 8000 NSC 23/22 Q1010 NOSIG=

0000014000
072
FCFR33 LFPW 110500 RRA
TAF LFRQ 110500Z 1106/1115 VRB02KT 0200 FG VV/// BECMG 1108/1110
08008KT 9999 NSW SCT012 SCT025=

0000026000
073
FTFR32 LFPW 110500 RRA
TAF LFRB 110500Z 1106/1212 18006KT 5000 SCT008 BKN012 TEMPO 1106/1108
 3000 -RA BR BKN006 BECMG 1108/1109 9999 NSW BKN030 BECMG 1109/1112
07012KT BECMG 1200/1203 BKN006 BECMG 1209/1212 14015G25KT 4000 -RA
BKN003=

0000025800
074
FTNT31 KWBC 110518
TAF
TAF LPBJ 110511Z 1106/1206 VRB02KT 7000 BCFG FEW002 PROB30
      1106/1109 0100 FG BKN001
      BECMG 1108/1110 12005KT CAVOK
      BECMG 1118/1120 VRB02KT 7000 SCT005 PROB30 1120/1206 0100 FG
      BKN001=

00000000