0000016900
995
SSVX13 LFPW 111700
ZZYY 41737 11014 1700/ 725759 037036 6113/ 11119 40179 57018 33300
 88872 20000 43753 444 20130 11014 1500/ 50101 80148 80068 9/015=
0000114900
996
SARS32 RUMS 110500
METAR URKA 110500Z 31007G10MPS 9999 SCT016 FEW120 05/03 Q1015 NOSIG
RMK QFE756/1008 SC070=
METAR URKK 110500Z 24008G11MPS 9999 FEW025CB BKN033 09/05 Q1012 TEMPO
24012G17MPS RMK QFE756 SC065=
METAR URML 110500Z 17005MPS 150V210 6000 BKN015 00/M01 Q1012 NOSIG
RMK QFE759/1012 SC070=
METAR URMM 110500Z 29002MPS 9999 BKN240 M05/M05 Q1009 30CLRD70 NOSIG
RMK QFE728/0971=
METAR URMN 110500Z 20004MPS 9999 SCT100 BKN260 06/M10 Q1009 NOSIG RMK
QFE720 SC07=
METAR URMO 110500Z 09003MPS 9999 BKN150 M05/M06 Q1009 NOSIG RMK
QFE714/0952 SC070=
METAR URMT 110500Z 31007MPS 9999 SCT033 BKN100 07/M03 Q1009 NOSIG RMK
QFE719 SC0.60=
METAR URRR 110500Z 27007G10MPS 9999 FEW006 BKN017 OVC100 05/03 Q1007
22290043 TEMPO 25015G20MPS RMK QBB200=
METAR URSS 110500Z 02002MPS 9999 SCT130 BKN210 06/M03 Q1017 NOSIG RMK
R06/10003MPS QFE762 02000070 06//////=
METAR URWA 110500Z 18002MPS 9999 SCT040 BKN120 01/M00 Q1012 NOSIG RMK
QFE761/1015 SC055=
METAR URWI 110500Z 21008G11MPS CAVOK 02/M00 Q1009 NOSIG=
METAR URWW 110500Z 20009MPS 9999 -SHRA BKN016CB OVC100 03/02 Q1002
NOSIG RMK 29290060=

0000065900
997
SARS33 RUMS 110500
METAR ULLI 110500Z 32008MPS 9999 -SN DRSN SCT011 BKN015 OVC066
M04/M06 Q0992 28550536 78550538 NOSIG=
METAR UUBW 110500Z 21003MPS 9999 OVC015 03/01 Q0986 NOSIG=
METAR UUDD 110500Z 22004MPS 180V250 9999 -RA BKN011 OVC100 03/02
Q0985 64290095 14290095 NOSIG=
METAR UUDL 110500Z 17002MPS 6000 OVC003 01/01 Q0984 NOSIG RMK QBB100
QFE729 23690532=
METAR UUEE 110500Z 21005MPS 9999 -RA OVC007 02/01 Q0984 75290151
25290151 NOSIG=
METAR UUWW 110500Z 22005MPS 9999 -RA BKN011 OVC016 02/01 Q0985
24290045 NOSIG=
METAR UUMO 110500Z 23003MPS 9999 -RA BKN010 OVC026 02/02 Q0985 NOSIG
RMK QFE724/0966 26250550=

0000011400
998
SARA31 RUMS 110500
METAR UEEE 110500Z 00000MPS CAVOK M43/M47 Q1035 NOSIG RMK QFE767
23490145=

0000056500
999
SARA36 RUMS 110500
METAR UWUU 110500Z 16003MPS 4000 BR OVC007 M01/M02 Q1007 14620342
TEMPO 1000 SN FZRA BKN003 RMK QBB220 QFE745/0993=
METAR USCC 110500Z 14003MPS 3000 BR FU BKN008 OVC070 M06/M07 Q1010
09490350 TEMPO 1100 BR FU BKN005 RMK QFE737=
METAR USNN 110500Z 06003MPS 6000 -SN SCT011 OVC043 M14/M16 Q1019
NOSIG RMK QFE760 03410232=
METAR USRR 110500Z 06002MPS 6000 -SN OVC070 M21/M23 Q1018 TEMPO
BKN007 RMK OBST OBSC QFE759 07////35=
METAR USSS 110500Z 12001MPS 7000 FEW011 OVC067 M06/M08 Q1009 08450137
NOSIG RMK QFE737=

0000012300
000
SPCZ40 LKKV 110506
SPECI LKKV 110506Z VRB01KT 0900 R29/1900D FG SCT015 M03/M03 Q1016
RMK REG QNH 1014=

0000096300
001
SARA34 RUMS 110500
METAR UNAA 110500Z VRB02MPS 9999 FEW043 BKN080 M04/M08 Q1031 NOSIG
RMK QFE751 20090040=
METAR UNBB 110500Z 21005MPS 9999 -SN BKN032 M08/M11 Q1031 NOSIG RMK
QFE751/1001 24452045=
METAR UNEE 110500Z 20005MPS 2300 -SN OVC007 M08/M10 Q1029 NOSIG RMK
QFE749 23452045=
METAR UNKL 110500Z 22003MPS 190V270 9999 -SHSN SCT033CB BKN083
M06/M11 Q1027 NOSIG RMK QFE745 29////40=
METAR UNNT 110500Z 21004MPS 4000 -SN DRSN SCT015 OVC031 M07/M09 Q1029
25390137 16390142 NOSIG RMK QFE762/1016=
METAR UNOO 110500Z 18006MPS 4500 BR BKN018 BKN033CB M08/M10 Q1023
25390137 NOSIG RMK QFE759=
METAR UNTT 110500Z 22006MPS 2600 -SHSN SCT005 BKN016CB OVC066 M07/M09
Q1027 NOSIG RMK QBB150 QFE755 21390032=
METAR USTR 110500Z 18004MPS 9999 BKN016CB M07/M08 Q1013 NOSIG RMK
QFE750/1000 21390050 12750029=
METAR USHH 110500Z 03003MPS 4600 -SN BKN003 OVC080 M19/M22 Q1016
TEMPO 1000 SN BKN003 RMK QBB100 QFE758 06////50=

0000035100
002
SARS31 RUMS 110500
METAR ULWC 110500Z NIL=
METAR UUBP 110500Z 26006G09MPS 9000 -DZ OVC011 02/01 Q0993 16290155
NOSIG=
METAR UUOB 110500Z 25006MPS 9999 -SHRA BKN014CB 03/02 Q0998 29290050
NOSIG=
METAR UUOK 110500Z NIL=
METAR UWGG 110500Z 19004MPS 7000 -SN OVC008 01/00 Q0988 TEMPO 1000
SHSNRA VV004 18691035 RMK QFE734=

0000103900
003
SARS35 RUMS 110500
METAR USPP 110500Z 12004MPS 9999 OVC017 M04/M05 Q1006 21310140 NOSIG
RMK QFE743/0991=
METAR UWKD 110500Z 16014G17MPS 5000 -SNRA OVC005 M00/M01 Q0997
R11/5/0245 TEMPO 1500 OVC004 RMK QFE738/0984=
METAR UWKE 110500Z 19007MPS 7000 -SN OVC006 M03/M04 Q1002 NOSIG RMK
 QBB180 QFE735/0980 21420542=
METAR UWKS 110500Z 16009MPS 1500 SHSN OVC005CB M01/M01 Q0993 TEMPO
1000 SHSN OVC004CB RMK QBB160 QFE730 06590534=
METAR UWLW 110500Z 17010G13MPS 5000 -SNRA OVC004 M01/M01 Q0999
20820550 TEMPO 18012MPS OVC004 RMK QFE743=
METAR UWOR 110500Z 25003MPS 0800 R25/0800 FZFG VV002 M01/M03 Q1011
25450245 NOSIG RMK QBB070 QFE734/0979=
METAR UWOO 110500Z 22003MPS 190V260 3200 -FZDZ BR OVC006 M01/M02
Q1010 26830334 TEMPO 1000 BR OVC003 RMK QBB180 QFE747/0997=
METAR UWSS 110500Z 19007G10MPS 0250 R12/0700 SNRA FG VV002 01/01
Q0998 12590340 NOSIG RMK QVV070 QFE736=
METAR UWWW 110500Z 17009MPS 3200 BR OVC006 M02/M02 Q1002 23520540
33//99// TEMPO 0600 FZDZ FZFG VV002 RMK QFE741/0988=

0000063900
004
SARS36 RUMS 110500
METAR ULAA 110500Z 06007G10MPS 3500 -SN BLSN OVC008 M17/M19 Q1000
TEMPO 0600 +SN BLSN BKN003 RMK QFE749/0999 SC053=
METAR ULMM 110500Z 00000MPS 9999 SCT004 M35/M39 Q1017 NOSIG RMK
QBB130 OBST OBSC QFE755 31450239=
METAR ULOO 110500Z NIL=
METAR ULPB 110500Z AUTO 36004MPS 330V040 1300 NCD M12/M13 Q0992=
METAR UMKK 110500Z 25003MPS 9999 BKN021 02/00 Q1006 R24/29//60 NOSIG
RMK QFE754/1005=
METAR UUOO 110500Z 24004G07MPS 9999 OVC008 02/01 Q0994 NOSIG RMK
30290250=
METAR UUYY 110500Z 04003MPS 4800 BR SCT008 BKN016CB OVC066 M11/M13
Q1001 TEMPO 0700 +SHSN 0145//35 RMK QFE741/0989=

0000041300
005
SATH32 VTBB 110500
METAR VTSB 110500Z 05012KT 9999 FEW020 SCT300 29/24 Q1014
A2994 INFO F / RWY 04=
METAR VTSC 110500Z NIL=
METAR VTSF 110500Z 07007KT 030V110 9999 SCT022 BKN300
30/22 Q1014 A2995 INFO F / RWY 19=
METAR VTSG 110500Z NIL=
METAR VTSH 110500Z NIL=
METAR VTSM 110500Z 02010KT 9000 FEW020 BKN300 30/24 
Q1014 A2997=
METAR VTSR 110500Z NIL=
METAR VTST 110500Z NIL=

0000026500
006
SAAE32 VTBB 110500
METAR VLLB 110500Z NIL=
METAR VLLN 110500Z 22002KT 5000 BR SCT020 OVC100 20/17 Q1019 NOSIG=
METAR VLPS 110500Z 22006KT 8000 FEW020 FEW200 29/18 Q1016 NOSIG=
METAR VLSK 110500Z 09002KT 8000 SCT020 SCT100 27/17 Q1017 NOSIG=

0000022000
007
SATH41 VTBB 110500
METAR VTPB 110500Z NIL=
METAR VTPM 110500Z NIL=
METAR VTSE 110500Z 03010KT 6000 FEW024 SCT300 30/24
Q1014 A2996 RMK /RWY 06=
METAR VTSK 110500Z NIL=
METAR VTUJ 110500Z NIL=

0000082900
008
SAEG32 HECA 110500 CCY
METAR HEMM 110500Z 24006KT 9999 BKN020 11/09 Q1025 NOSIG=
METAR HEAX 110500Z 00000KT 9999 SCT020 09/07 Q1024 NOSIG=
METAR HEAL 110500Z NIL=
METAR HELX 110500Z 00000KT CAVOK       07/05 Q1024 NOSIG=
METAR HESN 110500Z 02003KT CAVOK       09/04 Q1023 NOSIG=
METAR HEAR 110500Z NIL=
METAR HEGN 110500Z 31008KT CAVOK       13/08 Q1024 NOSIG=
METAR HEPS 110500Z 36009KT 9999 SCT025 16/14 Q1024 NOSIG=
METAR HETB 110500Z NIL=
METAR HESH 110500Z 33005KT 9999 FEW020 13/02 Q1022 NOSIG=
METAR HEAT 110500Z 28002KT 8000 NSC    05/04 Q1025 NOSIG=
METAR HEBA 110500Z 00000KT 9999 FEW020 10/09 Q1025 NOSIG=
METAR HEBL 110500Z NIL=
METAR HESC 110500Z 30006KT 9999 SCT025 06/02 Q1024 NOSIG=
METAR HESG 110500Z NIL=
METAR HEMA 110500Z 31009KT CAVOK       14/00 Q1020 NOSIG=

0000010400
009
SAUK36 EGGY 110450 RRB
METAR EGWU 110450Z AUTO 25008KT 9999 // BKN011/// 08/07 Q1012=

0000010300
010
SAAF17 LFPW 110500 CCA
METAR COR HEMM 110500Z 24006KT 9999 BKN020 11/09 Q1025 NOSIG=

0000010300
011
SAAF17 LFPW 110500 CCB
METAR COR HEAX 110500Z 00000KT 9999 SCT020 09/07 Q1024 NOSIG=

0000010300
012
SAAF17 LFPW 110500 CCC
METAR COR HELX 110500Z 00000KT CAVOK       07/05 Q1024 NOSIG=

0000010300
013
SAAF17 LFPW 110500 CCD
METAR COR HESN 110500Z 02003KT CAVOK       09/04 Q1023 NOSIG=

0000010300
014
SAAF17 LFPW 110500 CCE
METAR COR HEGN 110500Z 31008KT CAVOK       13/08 Q1024 NOSIG=

00000000