0000004200
215
SASP37 LEMM 110500
NIL=

0000012000
216
SACN61 CYXS 110500
METAR CYXS 110500Z AUTO 16008KT 4SM -SN OVC022 M02/M03 A2942 RMK
 PRESFR SLP000=

0000011500
217
SACN62 CYXL 110500
METAR CYXL 110500Z 15005KT 5SM -SN BR OVC030 M07/M07 A2940 RMK SC8
 SLP983=

0000010500
218
SACN62 CYXJ 110500
METAR CYXJ 110500Z 21008KT 7SM BKN180 M05/M10 A2941 RMK AC7 SLP007=

0000023300
219
SASP40 LEMM 110500
METAR LEGA 110500Z NIL=
METAR LEGT 110500Z NIL=
METAR LEMO 110500Z 09002KT CAVOK 09/08 Q1016
NOSIG=
METAR LERI 110500Z NIL=
METAR LERT 110500Z 10004KT 9999 -RA SCT059 13/12 Q1015 NOSIG=

0000004200
220
SASP41 LEMM 110500
NIL=

0000046100
221
SAAP32 FAPR 110500
METAR FABL 110500Z 16005KT CAVOK 18/12 Q1020 NOSIG=
METAR FACT 110500Z 21006KT 180V240 9999 FEW030 17/12 Q1017 NOSIG=
METAR FALE 110500Z 21004KT 9999 FEW025 BKN040 22/19 Q1017 NOSIG=
METAR FAOR 110500Z 02007KT 340V050 CAVOK 20/12 Q1023 NOSIG=
METAR FDMS 110500Z 00000KT 9999 SCT020 BKN030 20/19 Q1020 NOSIG=
METAR FQBR 110500Z 05004KT 9999 FEW020 27/24 Q1011=
METAR FWKI 110500Z 00000KT CAVOK 21/19 Q1019 NOSIG=

0000010600
222
SACN45 CWAO 110500
METAR CYFS 110500Z 32003KT 15SM BKN090 M24/M25 A2966 RMK AC3 SLP068=

0000013900
223
SACN31 CWAO 110500
METAR CYZX 110500Z 22004KT 6SM -SHSN BKN008 OVC012 00/M00 A3030 RMK
SF6SC2 WNDY HILL UNAVBL SLP264=

0000008900
224
SAJM31 MKJP 110500
METAR MKJP 110500Z 02007KT 9999 FEW024 26/20 Q1016=

0000033500
225
SAIL31 BICC 110500
METAR BIAR 110500Z 22007KT 180V270 9999 -SN BKN041 OVC047 01/M02
    Q0996=
METAR BIEG 110500Z 08020G30KT 3000 -SN VV008 01/M01 Q0995 RMK
R04/790131=
METAR BIKF 110500Z 25011KT 9999 FEW049 BKN105 01/M05 Q0995=
METAR BIRK 110500Z 22016KT 9999 VCSH FEW010 SCT026 BKN042 01/M02
    Q0995=

0000023900
226
FCEO32 EETN 110500
TAF EEKA  110500Z 1106/1112 30010KT 9999 BKN012 TEMPO 1106/1112
     1200 +SHSN BKN006 SCT012CB=
TAF EETU  110500Z 1106/1112 31012KT 8000 SN OVC008 TEMPO
     1106/1112 2000 SHSN BKN005 SCT012CB=

0000021500
227
FTCA32 KWBC 110503 AAA
TAF AMD
TJSJ 110501Z 1105/1124 08008KT P6SM FEW025
      TEMPO 1105/1106 5SM SHRA BKN030
     FM110600 VRB04KT P6SM VCSH FEW025
     FM111330 07016G25KT P6SM SCT025=

0000091000
228
FTNT31 KWBC 110503
TAF
TAF BIAR 110501Z 1106/1206 15010KT 9000 SN BKN030 OVC040
      TEMPO 1107/1113 3000 SN BKN012
      BECMG 1113/1116 21010KT 9999 NSW FEW030 SCT045=
TAF BIEG 110501Z 1106/1206 08020G30KT 5000 SNRA SCT012 OVC020
      TEMPO 1106/1111 2000 SN BKN008 OVC012
      BECMG 1111/1114 27010KT 9999 NSW SCT022 BKN035 PROB40
      TEMPO 1111/1116 5000 SHSN BKN015 OVC025
      BECMG 1203/1206 VRB02KT=
TAF BIKF 110501Z 1106/1206 26013KT 9999 FEW025 SCT035 BKN050
      PROB40
      TEMPO 1106/1109 3000 SHSN BKN012
      BECMG 1110/1113 18010KT
      BECMG 1118/1121 12010KT PROB30
      TEMPO 1119/1124 3000 SHSN BKN015
      BECMG 1203/1206 09020KT=
TAF BIRK 110501Z 1106/1206 26013KT 9999 FEW018 SCT026 BKN050
      PROB40
      TEMPO 1106/1109 3000 SHSN BKN012
      BECMG 1109/1112 19005KT FEW025 SCT045
      BECMG 1119/1122 10010KT=

0000027900
229
FTUS71 KWBC 110503 AAA
TAF AMD
KFAY 110501Z 1105/1124 20003KT 2SM BR SCT003 OVC010
      TEMPO 1105/1108 1/2SM -RA FG OVC003
     FM110800 18010KT 6SM BR OVC008
     FM111300 19013G24KT P6SM BKN009 OVC020
     FM111700 20017G28KT 5SM -SHRA BR BKN012=

0000021500
230
FTUS72 KWBC 110503 AAA
TAF AMD
TJSJ 110501Z 1105/1124 08008KT P6SM FEW025
      TEMPO 1105/1106 5SM SHRA BKN030
     FM110600 VRB04KT P6SM VCSH FEW025
     FM111330 07016G25KT P6SM SCT025=

0000009700
231
SPCN46 CWAO 110502
SPECI CYBN 110502Z AUTO 15007KT 2 1/4SM OVC005 02/02 A2982=

0000012800
232
SACN62 CYXT 110500
METAR CYXT 110500Z 36011KT 3SM -SN SCT004 OVC016 00/M00 A2927 RMK
 SF3SC5 PRESFR SLP921=

0000011900
233
SACN62 CYXY 110500
METAR CYXY 110500Z 30003KT 20SM BKN011 OVC060 M13/M15 A2919 RMK
 SC5SC3 SLP942=

0000052000
234
SAYG31 LYBM 110500
METAR LYBE 110500Z 13005KT CAVOK 03/M00 Q1022 NOSIG=
METAR LYBT 110500Z 06004KT 050V110 CAVOK 01/01 Q1023 NOSIG=
METAR LYKV 110500Z 00000KT 9999 SCT040 03/02 Q1023 NOSIG=
METAR LYNI 110500Z 12003KT CAVOK M00/M00 Q1024=
METAR LYPG 110500Z 28003KT 9999 FEW040 BKN100 08/07 Q1023 NOSIG=
METAR LYPR 110500Z NIL=
METAR LYTV 110500Z 00000KT 9999 SCT050 09/08 Q1022=
METAR LYUZ 110500Z VRB02KT 9999 BKN020 03/03 Q1022=
METAR LYVR 110500Z 16003KT 8000 NSC 03/01 Q1023 NOSIG=

00000000