0000009000
375
SAUK63 EGRR 111650 RRA
METAR EGDR 111650Z 12006KT 9999 FEW026 05/03 Q1021=
0000015100
376
SNVD03 CWAO 111700
BBXX
CFL24 11174 99438 70606 47598 32017 10053 20025 40238 58032 7//// 83/// 222// 0//// 10602 70012 333 83/22=

0000050700
377
SACA41 KWBC 110500
METAR
MKBK NIL=
MUBA NIL=
MUBY NIL=
MUCA NIL=
MUCL NIL=
MUCM 110450Z 08007KT 9000 FEW025 20/18 Q1019=
MUCU 110453Z 33005KT 9000 FEW020 22/18 Q1018=
MUGM 110456Z 32007KT 9999 CLR 23/19 A3006 RMK SLP179 T02330189
     403060217=
MUGT NIL=
MUHA 110455Z 00000KT 9000 SKC 18/18 Q1018=
MUMO NIL=
MUMZ NIL=
MUNG NIL=
MUVR 110450Z 09006KT 8000 FEW020 23/21 Q1019=
MUVT NIL=
MYEF NIL=
MYSM NIL=
TABS NIL=
TAOA NIL=
TBBI NIL=
TDCF NIL=

0000069400
378
SACA35 KWBC 110500
METAR
MGGI NIL=
MGPB 110500Z 20004KT 9999 SCT017 SCT080 23/22 Q1015 A2997=
MGSJ 110500Z 00000KT CAVOK 23/22 Q1013 A2991=
MHLC 110500Z 00000KT 9999 FEW026 BKN080 21/20 Q1014 A2996
     NOSIG=
MHLM 110500Z 14003KT 9999 FEW026 BKN080 23/23 Q1015 A2997
     NOSIG=
MHTG 110500Z 36004KT 9999 BKN024 19/15 Q1020 A3012 NOSIG=
MNPC NIL=
MPBO NIL=
MPCH NIL=
MPDA NIL=
MPMG NIL=
MPSA NIL=
MPTO 110500Z 00000KT C A V O K 24/20 Q1010 NOSIG=
MRLB NIL=
MRLM NIL=
MROC 110500Z 08012KT 9999 FEW030 20/13 A3002 NOSIG=
MRPV NIL=
MSLP 110450Z 04005KT CAVOK 21/18 Q1012 A2990=
MSSS 110450Z 18002KT CAVOK 21/17 Q1016 A3002=
MZBZ NIL=

0000004200
379
SAHA31 KWBC 110500
NIL=

0000097600
380
SAJP31 KWBC 110500
METAR
RJAA 110500Z 33005KT 280V360 9999 FEW030 08/M08 Q1022 NOSIG=
RJAH 110500Z 21005KT 150V250 9999 FEW030 08/M09 Q1021=
RJCC 110500Z 30011KT 9999 FEW015 BKN050 M04/M15 Q1017 RMK 1CU015
     5CU050 A3004=
RJCC 110500Z 30011KT 9999 FEW015 BKN050 M04/M15 Q1017=
RJCH 110500Z 29013KT 2600 -SHSN FEW007 SCT010 BKN020 M05/M07
     Q1019=
RJFK 110500Z VRB04KT 9999 FEW030 SCT040 09/M04 Q1026=
RJFT 110500Z 30004KT 240V340 9999 FEW035 BKN050 07/M05 Q1028=
RJFU 110500Z 14006KT 9999 FEW040 BKN050 07/M01 Q1028=
RJNN NIL=
RJOO 110500Z 29008KT 240V330 9999 FEW030 08/M06 Q1026 RMK 1CU030
     A3031=
RJOO 110500Z 29008KT 240V330 9999 FEW030 08/M06 Q1026=
RJSS 110500Z 31013KT 9999 FEW015 04/M07 Q1022=
RJTT 110500Z 09006KT 9999 FEW030 07/M04 Q1022 NOSIG RMK 1CU030
     A3019=
RJTT 110500Z 09006KT 9999 FEW030 07/M04 Q1022 NOSIG=
RODN 110458Z AUTO 06010KT 10SM CLR 18/08 A3028 RMK AO2 SLP262
     T01820082=

0000073500
381
SAJP41 KWBC 110500
METAR
RJAF 110500Z 32005KT 9999 VCSH FEW050 01/M09 Q1019=
RJAI NIL=
RJAK NIL=
RJAM NIL=
RJAO NIL=
RJAT NIL=
RJAW NIL=
RJBD 110500Z 33017KT 290V360 9999 FEW030 08/M04 Q1025=
RJCA NIL=
RJCB 110500Z 29005KT 220V360 9999 FEW040 BKN060 M05/M18 Q1013=
RJCJ NIL=
RJCK 110500Z 29008KT 250V340 9999 FEW030 BKN050 M04/M16 Q1013=
RJCM 110500Z 33008KT 270V360 9999 -SHSN FEW015 SCT030 BKN050
     M07/M13 Q1013=
RJCN 110500Z 26010KT 9999 -SHSN FEW015 SCT030 BKN040 M07/M12
     Q1013=
RJCO NIL=
RJCR NIL=
RJCT NIL=
RJCW 110500Z 29023KT 0300 R08/0450V1200D SHSN BLSN VV004 M10/M18
     Q1013=
RJDB NIL=
RJDC 110500Z 28007KT 240V320 9999 FEW030 SCT040 08/M02 Q1028=

0000067200
382
SAJP42 KWBC 110500
METAR
RJDK NIL=
RJDM NIL=
RJDO NIL=
RJDT 110500Z VRB07KT 9999 FEW035 05/M05 Q1029=
RJEB 110500Z 31007KT 270V340 8000 -SHSN FEW015 BKN030 M08/M13
     Q1013=
RJEC 110500Z 33004KT 290V360 3200 -SHSN FEW007 SCT020 BKN030
     M09/M10 Q1013=
RJEO NIL=
RJER NIL=
RJFA NIL=
RJFC NIL=
RJFE NIL=
RJFG 110500Z 33005KT 290V080 CAVOK 10/01 Q1027=
RJFM 110500Z 12005KT 9999 FEW030 10/M03 Q1027=
RJFN NIL=
RJFO 110500Z 36011KT 320V030 9999 FEW035 SCT040 08/M01 Q1028=
RJFR 110500Z 33007KT 9999 FEW040 07/01 Q1028=
RJFY NIL=
RJFZ NIL=
RJKA 110500Z 05009KT 9999 FEW035 SCT050 BKN070 15/05 Q1027=
RJKB NIL=

0000070800
383
SAJP43 KWBC 110500
METAR
RJKI NIL=
RJKN NIL=
RJNF NIL=
RJNG NIL=
RJNH NIL=
RJNO NIL=
RJNT 110500Z 20003KT 6000 -SHSN FEW006 SCT020 BKN030 01/01
     Q1026=
RJNY NIL=
RJOA 110500Z 28006KT 240V350 9999 FEW030 BKN040 05/M06 Q1026=
RJOB 110500Z 29010KT 9999 FEW030 SCT045 05/M05 Q1026=
RJOC 110500Z 25007KT 9999 -SHRA FEW025 BKN035 05/M01 Q1028=
RJOE NIL=
RJOF NIL=
RJOI 110455Z 28005KT 9999 FEW025 SCT040 08/M03 A3034 RMK SLP276
     T00781033=
RJOK 110500Z 15005KT 110V180 9999 FEW040 09/M04 Q1026=
RJOM 110500Z 30006KT 250V350 9999 FEW025 BKN050 07/M02 Q1028=
RJOP NIL=
RJOR 110500Z 24007KT 210V280 9999 -SHRA FEW008 SCT020 BKN035 04/01
     Q1027=

0000063000
384
SAJP44 KWBC 110500
METAR
RJOS NIL=
RJOT 110500Z 29013KT 9999 FEW030 06/M04 Q1027=
RJOY 110500Z 26013KT 9999 FEW030 08/M03 Q1026=
RJOZ NIL=
RJSA 110500Z 26016G28KT 230V290 6000 -SHSN FEW003 SCT010 BKN030
     M05/M07 Q1019=
RJSC 110500Z 24004KT 200V280 7000 -SHSN FEW005 SCT015 BKN020
     M00/M03 Q1022=
RJSD NIL=
RJSH NIL=
RJSI 110500Z 24005KT 210V290 9999 -SHSN FEW010 BKN030 M01/M06
     Q1021=
RJSO NIL=
RJST NIL=
RJSU NIL=
RJTA NIL=
RJTC NIL=
RJTE NIL=
RJTF 110500Z 16004KT 120V190 9999 FEW040 08/M10 Q1022=
RJTH NIL=
RJTI 110500Z 14007KT 9999 FEW030 07/M06 Q1022=

0000026600
385
SAJP45 KWBC 110500
METAR
RJTJ NIL=
RJTK NIL=
RJTL NIL=
RJTO 110500Z 07005KT 020V130 9999 FEW030 09/00 Q1022=
RJTQ NIL=
RJTR NIL=
RJTU NIL=
RJTX NIL=
RJTY 110458Z AUTO 12005KT 10SM CLR 08/M09 A3022 RMK AO2 SLP244
     T00781086=

0000016700
386
FTCN33 CWAO 110500 AAA
TAF AMD CYBK 110507Z 1105/1112 VRB03KT P6SM FEW007 SCT030 TEMPO
     1105/1112 5SM IC BKN007
    RMK NXT FCST BY 110600Z=

0000012500
387
SACN31 CWAO 110500
METAR CYQQ 110500Z 14020G25KT 2 1/2SM RA BR OVC009 06/06 A2947 RMK
SF8 PRESFR SLP981=

0000082200
388
SAEG32 HECA 110500
METAR HEMM 110500Z 24006KT 9999 BKN020 11/09 Q1025 NOSIG=
METAR HEAX 110500Z 00000KT 9999 SCT020 09/07 Q1024 NOSIG=
METAR HEAL 110500Z NIL=
METAR HELX 110500Z 00000KT CAVOK       07/05 Q1024 NOSIG=
METAR HESN 110500Z 02003KT CAVOK       09/04 Q1023 NOSIG=
METAR HEAR 110500Z =
METAR HEGN 110500Z 31008KT CAVOK       13/08 Q1024 NOSIG=
METAR HEPS 110500Z 36009KT 9999 SCT025 16/14 Q1024 NOSIG=
METAR HETB 110500Z NIL=
METAR HESH 110500Z 33005KT 9999 FEW020 13/02 Q1022 NOSIG=
METAR HEAT 110500Z 28002KT 8000 NSC    05/04 Q1025 NOSIG=
METAR HEBA 110500Z 00000KT 9999 FEW020 10/09 Q1025 NOSIG=
METAR HEBL 110500Z NIL=
METAR HESC 110500Z 30006KT 9999 SCT025 06/02 Q1024 NOSIG=
METAR HESG 110500Z NIL=
METAR HEMA 110500Z 31009KT CAVOK       14/00 Q1020 NOSIG=

0000009900
389
SAAF18 LFPW 110500 RRA
METAR FMEE 110500Z 09020KT 9999 FEW026 29/23 Q1015 NOSIG=

0000019500
390
SAAF20 LFPW 110500 RRA
METAR FABL 110500Z 16005KT CAVOK 18/12 Q1020 NOSIG=
METAR FAEL 110500Z 25012KT CAVOK 19/13 Q1018=
METAR FAGG 110500Z 31002KT 9999 FEW035 15/12 Q1018=

0000020100
391
SAAF21 LFPW 110500 RRA
METAR FAMM 110500Z 07003KT CAVOK 21/08 Q1019 NOSIG=
METAR FAPE 110500Z 25012KT CAVOK 19/13 Q1018 NOSIG=
METAR FAUP 110500Z 18002KT CAVOK 20/06 Q1017 NOSIG=

0000057300
392
SAMS31 WMKK 110500
METAR WBGG 110500Z 35008KT 9999 FEW015CB BKN020 BKN150 28/23 Q1011
NOSIG=
METAR WBKK 110500Z 34004KT 9999 FEW015 SCT140 BKN270 30/24 Q1011
NOSIG=
METAR WBSB 110500Z 33008KT 9999 SCT016 FEW017CB BKN280 29/24 Q1011
NOSIG=
METAR WMKK 110500Z 36004KT 280V090 9999 FEW018 SCT140 BKN280 31/24
Q1011 NOSIG=
METAR WMKP 110500Z 04008KT 9999 FEW020 BKN140 BKN270 28/23 Q1012
NOSIG=
METAR WSSL 110500Z 35008KT 320V020 9999 SCT018 BKN300 31/25 Q1010=
METAR WSSS 110500Z 01007KT 330V060 9999 SCT020 BKN300 30/24 Q1010
NOSIG=

0000047100
393
SAMS32 WMKK 110500
METAR WBGG 110500Z 35008KT 9999 FEW015CB BKN020 BKN150 28/23 Q1011
NOSIG=
METAR WBKK 110500Z 34004KT 9999 FEW015 SCT140 BKN270 30/24 Q1011
NOSIG=
METAR WMKJ 110500Z 35010KT 9999 SCT018 BKN280 32/25 Q1010=
METAR WMKK 110500Z 36004KT 280V090 9999 FEW018 SCT140 BKN280 31/24
Q1011 NOSIG=
METAR WMKP 110500Z 04008KT 9999 FEW020 BKN140 BKN270 28/23 Q1012
NOSIG=
METAR WMSA 110500Z 30007KT 9999 FEW020 BKN280 32/22 Q1011=

0000088100
394
SAMS33 WMKK 110500
METAR WMAU 110500Z 36009KT 9999 FEW020 SCT140 BKN260 27/25 Q////
QFF1011=
METAR WMBA 110500Z 35002KT 9999 FEW017CB SCT140 BKN260 29/25 Q1011=
METAR WMKA 110500Z 06010KT 9999 FEW020 SCT140 BKN260 28/22 Q1012=
METAR WMKB 110500Z 05007KT 010V090 9999 FEW020 BKN140 BKN270 28/23
Q1012 TEMPO FM0600 7000 RA=
METAR WMKC 110500Z 06013KT 030V100 7000 FEW008 SCT020 OVC200 27/24
Q1013 RERA=
METAR WMKD 110500Z 02005KT 9999 FEW018 BKN160 BKN270 24/23 Q1012
NOSIG=
METAR WMKE 110500Z 31006KT 7000 -RA FEW005 FEW016CB SCT020 OVC200
24/23 Q1013=
METAR WMKI 110500Z 04011KT 010V070 9999 FEW016CB BKN140 BKN260 27/23
Q1012=
METAR WMKL 110500Z 04009KT 9999 FEW022 SCT140 BKN270 30/22 Q1012=
METAR WMKM 110500Z 03009KT 340V080 9999 SCT021 BKN280 31/24 Q1011=
METAR WMKN 110500Z 19002KT 8000 -RA FEW008 SCT022 OVC190 24/24 Q1013=

00000000