0000075600
935
SAFR36 LFPW 110500
METAR LFBA 110500Z AUTO 07001KT 8000 SCT008 OVC013 08/08 Q1017=
METAR LFBE 110500Z AUTO 10003KT 4600 BR OVC015 05/05 Q1017=
METAR LFGJ 110500Z AUTO VRB03KT 8000 NSC 03/02 Q1016=
METAR LFJR 110500Z AUTO 00000KT 0150 R26/0650N FG VV/// 06/06 Q1016=
METAR LFMD 110500Z AUTO VRB02KT 9999 FEW031 OVC039 11/07 Q1020=
METAR LFMH 110500Z 16011KT CAVOK 06/03 Q1016 NOSIG=
METAR LFOT 110500Z VRB02KT 4000 BR BKN003 BKN120 06/05 Q1016 NOSIG=
METAR LFPN 110500Z AUTO 00000KT 1700 -RA BR BKN002 BKN037 OVC050
06/05 Q1015=
METAR LFRC 110500Z AUTO 20009KT 7000 SCT005 OVC045 07/07 Q1015=
METAR LFRG 110500Z AUTO 21005KT 5000 BR BKN010 OVC026 06/05 Q1015=
METAR LFRK 110500Z AUTO VRB02KT 3600 BR NSC 05/04 Q1015=

0000074400
936
SAFR37 LFPW 110500
METAR LFAQ 110500Z AUTO 19004KT 0900 R27///// FG VV/// 04/04 Q1016=
METAR LFAT 110500Z AUTO 14004KT 3900 BR BKN004 OVC010 04/04 Q1015=
METAR LFLN 110500Z AUTO 12002KT 6000 NSC 04/03 Q1016=
METAR LFPM 110500Z AUTO 06003KT 020V090 5000 -RA BR FEW026///
///TCU 05/05 Q1015=
METAR LFPT 110500Z AUTO 35002KT 1200 R05///// BR OVC002 05/05 Q1016=
METAR LFRH 110500Z AUTO VRB02KT 0150 R25/0900U R07/0600N FG VV///
07/06 Q1017=
METAR LFRQ 110500Z AUTO 00000KT 2100 BCFG OVC042 06/06 Q1017=
METAR LFRT 110500Z AUTO 24004KT 9999 FEW039 07/06 Q1016=
METAR LFSD 110500Z AUTO 00000KT 9999 OVC007 03/02 Q1016=
METAR LFTW 110500Z AUTO 10003KT 9000 BKN026 OVC032 10/06 Q1019=
METAR LFBU 110500Z NIL=

0000009500
937
SAID32 WIII 110500
METAR WIBB 110500Z 36011KT 9999 BKN015 31/24 Q1010 NOSIG=

0000104700
938
FTCA31 KWBC 110503
TAF
MUCC 110500Z 1106/1206 10004KT 9000 SCT020
      BECMG 1113/1115 09014KT
      BECMG 1203/1205 07004KT=
TAF MUCM 110500Z 1106/1206 08005KT 9000 SCT020
      BECMG 1113/1115 09015KT
      BECMG 1203/1205 08005KT=
MUCM 110500Z 1106/1206 08005KT 9000 SCT020
      BECMG 1113/1115 09015KT
      BECMG 1203/1205 08005KT=
TAF MUCU 110500Z 1106/1206 36005KT 9000 SCT020
      BECMG 1115/1117 15012KT
      BECMG 1201/1203 36006KT=
MUCU 110500Z 1106/1206 36005KT 9000 SCT020
      BECMG 1115/1117 15012KT
      BECMG 1201/1203 36006KT=
TAF MUHA 110500Z 1106/1206 VRB02KT 9000 FEW020
      BECMG 1113/1115 15012KT
      BECMG 1203/1205 VRB02KT=
MUHA 110500Z 1106/1206 VRB02KT 9000 FEW020
      BECMG 1113/1115 15012KT
      BECMG 1203/1205 VRB02KT=
TAF MUVR 110500Z 1106/1206 08003KT 9000 FEW020
      BECMG 1113/1115 07013KT
      BECMG 1203/1205 08003KT=
MUVR 110500Z 1106/1206 08003KT 9000 FEW020
      BECMG 1113/1115 07013KT
      BECMG 1203/1205 08003KT=

0000078800
939
FTCA35 KWBC 110503
TAF
TAF MRLB 110500Z 1106/1206 07015KT CAVOK TX34/1121Z TN24/1112Z
      TEMPO 1106/1114 12005KT 9999 FEW040
      TEMPO 1115/1120 09014G24KT 9999 SCT035=
TAF MRLM 102310Z 1106/1206 24005KT 9999 FEW030 SCT120 TX31/1120Z
      TN23/1110Z
      TEMPO 1106/1114 8000 DZ SCT020 BKN110
      BECMG 1115/1117 07007KT SCT035 PROB30
      TEMPO 1121/1124 RA FEW020TCU=
TAF MROC 110500Z 1106/1206 10010KT 9999 FEW035 TX28/1119Z
      TN19/1111Z
      TEMPO 1112/1119 11012G22KT PROB40
      TEMPO 1120/1124 24007KT SCT030 SCT120=
TAF MRPV 110500Z 1106/1206 08012KT 9999 FEW035 TX26/1119Z
      TN19/1112Z
      BECMG 1106/1108 08012G22KT CAVOK
      BECMG 1116/1118 07010KT 9999 SCT035 PROB30
      TEMPO 1121/1124 RA SCT100=

0000041600
940
FTMX31 KWBC 110503
TAF
TAF MMGL 110502Z 1106/1212 00000KT P6SM SCT030 BKN100 TX23/1121Z
      TN05/1112Z
     FM111600 12010KT P6SM SCT020 SCT100
     FM112000 12012KT P6SM BKN030 BKN100
     FM120200 12005KT P6SM SCT100 BKN200=
TAF MMPR 110502Z 1106/1212 02005KT P6SM SCT100 TX26/1120Z
      TN15/1112Z
     FM111600 20010KT P6SM SCT030 BKN200
     FM120300 02005KT P6SM SCT100=

0000043900
941
FTMX41 KWBC 110503
TAF
TAF MMGL 110502Z 1106/1212 00000KT P6SM SCT030 BKN100 TX23/1121Z
      TN05/1112Z
     FM111600 12010KT P6SM SCT020 SCT100
     FM112000 12012KT P6SM BKN030 BKN100
     FM120200 12005KT P6SM SCT100 BKN200=
TAF MMMM 110502Z 1106/1212 00000KT P6SM SCT030 BKN080
     FM111600 12010KT P6SM SCT020 BKN080 PROB40 1120/1124 5SM RA
      BKN020
     FM120200 12005KT P6SM SCT030 BKN200=

0000058300
942
FTMX42 KWBC 110503
TAF
TAF MMSP 110502Z 1106/1212 00000KT P6SM SCT020 TX24/1121Z
      TN05/1112Z
     FM111600 12010KT P6SM SCT020 BKN200
     FM120300 12005KT P6SM SCT020 BKN200
     FM120600 12005KT P6SM BKN015=
TAF MMZC 110502Z 1106/1212 15005KT P6SM BKN250 TX20/1121Z
      TN04/1112Z
     FM111500 15010KT P6SM SCT030 BKN200
      TEMPO 1120/1124 BKN020
     FM120300 15008KT P6SM BKN030 BKN200=
TAF MMZO 110502Z 1106/1206 02005KT P6SM SCT030 BKN250
     FM111600 20010KT P6SM SCT030 BKN250
     FM120300 02005KT P6SM SCT020 SCT200=

0000027900
943
FTUS51 KWBC 110503 AAA
TAF AMD
KFAY 110501Z 1105/1124 20003KT 2SM BR SCT003 OVC010
      TEMPO 1105/1108 1/2SM -RA FG OVC003
     FM110800 18010KT 6SM BR OVC008
     FM111300 19013G24KT P6SM BKN009 OVC020
     FM111700 20017G28KT 5SM -SHRA BR BKN012=

0000044500
944
FTUS80 KWBC 110503 AAA
TAF AMD
KFAY 110501Z 1105/1124 20003KT 2SM BR SCT003 OVC010
      TEMPO 1105/1108 1/2SM -RA FG OVC003
     FM110800 18010KT 6SM BR OVC008
     FM111300 19013G24KT P6SM BKN009 OVC020
     FM111700 20017G28KT 5SM -SHRA BR BKN012=
TJSJ 110501Z 1105/1124 08008KT P6SM FEW025
      TEMPO 1105/1106 5SM SHRA BKN030
     FM110600 VRB04KT P6SM VCSH FEW025
     FM111330 07016G25KT P6SM SCT025=

0000009400
945
SPUS31 KWBC 110503
SPECI
KTEB 110500Z 01004KT 2SM -DZ OVC005 02/00 A3021=

0000009300
946
SPUS42 KWBC 110503
SPECI
KCHA 110500Z 17005KT 2SM BR OVC004 10/09 A2995=

0000012800
947
SPUS42 KWBC 110503
SPECI
KSAV 110459Z AUTO 18003KT 1 1/2SM R01/4000VP6000FT BR BKN004
OVC110 17/16 A3008=

0000009500
948
SPUS43 KWBC 110503
SPECI
KMLI 110459Z AUTO 24006KT 7SM OVC006 03/02 A2949=

0000010600
949
SACN61 CYMO 110500
METAR CYMO 110500Z AUTO 19012KT 9SM OVC031 M01/M03 A2970 RMK SLP059=

0000010600
950
SACN62 CYMX 110500
METAR CYMX 110500Z 04007KT 20SM OVC023 M08/M10 A3014 RMK SC8 SLP212=

0000010600
951
SACN61 CYNA 110500
METAR CYNA 110500Z AUTO 29007KT 9SM OVC023 M07/M08 A3003 RMK SLP170=

0000010600
952
SACN62 CYPA 110500
METAR CYPA 110500Z 27005KT 15SM BKN019 M09/M10 A2950 RMK SC6 SLP021=

0000011600
953
SACN61 CYNE 110500
METAR CYNE 110500Z AUTO 31003KT 9SM BKN008 OVC022 M10/M11 A2946 RMK
 SLP996=

0000014800
954
SACN62 CYOJ 110500
METAR CYOJ 110500Z 36005KT 15SM SCT026 OVC074 M18/M20 A2953 RMK
 SC3AC5 LAST STFD OBS/NEXT 111400UTC SLP036=

00000000