0000010900
135
UANT01 CWAO 111521
ARP SWR86 5402N01634W 1521 F370 MS63 236/77 KT
HBJHE QXT AOE 111521 J51A
0000011000
136
UANT01 CWAO 111522
ARP XLF066 4900N03023W 1521 F360 MS48 227/27 KT
FHXLF DDL XXN 111522 J45A
0000005500
137
SIAG03 SABM 111500 RRA
AAXX 11153
NIL
0000118200
138
SIAG03 SABM 111500
AAXX 11154
87593 42960 11613 10219 20052 30166 4//// 52016 80005 333 56006
81273=
87623 42980 00510 10243 20038 39996 40219 53005=
87641 42870 11409 10210 20040 30040 40214 51013 81100
333 56300 81857=
87645 NIL=
87648 42960 01610 10218 20050 30192 40203 52009=
87692 42560 41810 10192 20073 30185 40210 52017 84400 333 56400
84625=
87715 42970 00903 10240 20039 39876 40188 58005=
87750 42965 00506 10233 20023 30129 40228 52015=
87765 42960 00000 10201 20056 39233 48536 57016=
87784 42980 03216 10230 20020 30188 40212 57008=
87791 42980 02508 10239 20056 30198 40206 54000=
87800 NIL=
87803 42980 02003 10174 20031 39273 40185 55013=
87828 42980 12309 10235 20020 30130 40182 58004 80001 333 56005 81070=
87860 41975 10908 10187 20066 30112 40167 57007 70500 80001 333
56005 81070=
87904 42680 42716 10182 20051 39869 40110 57013 81474 333 56666
81640=
87909 42980 32510 10203 20034 30062 40136 57011 83030 333 56000
83359=
87925 42580 42708 10160 20057 30070 40093 57019 81170 333 56660
81830 83360=
87938 41680 70505 10100 20057 39938 40008 57016 75052 85570 333
56560 85640 86360 95010=
0000011000
139
UANT01 CWAO 111522
ARP FDX32 5334N05152W 1521 F350 MS62 296/90 KT
N580FE QXT AOW 111522 F34A
0000094200
140
FTXX31 AYPM 111513
TAF AYNZ 111513Z 1118/1208 VRB03KT 9999 -SHRA SCT016 SCT040 BKN120
INTER 1118/1208 4000 +SHRA BKN008
Q 1006 1007 1009 1008=
TAF AYMD 111514Z 1120/1208 30006KT 9999 -SHRA SCT016 SCT030 BKN120
INTER 1120/1208 4000 +SHRA BKN008
Q 1006 1008 1007 1005=
TAF AYWK 111515Z 1120/1208 32010KT 9999 -SHRA SCT016 SCT030 BKN120
INTER 1120/1208 4000 +SHRA BKN008
Q 1007 1009 1008 1006=
TAF AYVN 111516Z 1120/1208 30010KT 9999 -SHRA SCT016 SCT030 BKN120
INTER 1120/1208 4000 +SHRA BKN008
Q 1007 1009 1008 1006=
TAF AYGA 111517Z 1120/1208 VRB03KT 9999 -SHRA SCT016 SCT030 BKN120
INTER 1120/1208 4000 +SHRA BKN008
Q 1012 1014 1013 1011=
TAF AYMH 111518Z 1120/1208 VRB03KT 9999 -SHRA SCT016 SCT040 BKN120
INTER 1120/1208 4000 +SHRA BKN008
Q 1016 1018 1017 1015=
TAF AYXM 111519Z 1120/1208 VRB03KT 9999 -SHRA SCT016 SCT035 BKN120
INTER 1120/1208 4000 +SHRA BKN008
Q 1017 1019 1018 1016=
0000010800
141
SIRE20 FMEE 111500 RRA
AAXX 11154
61972 46/// /1609 10292 20209 30120 40127
  333 58031=
0000011000
142
UANT01 CWAO 111522
ARP AAL81 5807N02309W 1522 F380 MS63 217/61 KT
N776AN DDL XXN 111522 F49A
0000011000
143
UANT01 CWAO 111522
ARP DAL79 5306N02700W 1522 F370 MS59 198/50 KT
N858NW DDL XXW 111522 J86A
0000011000
144
UANT01 CWAO 111522
ARP VIR45W 5304N01727W 1522 F350 MS61 217/93 KT
GVROC DDL XXN 111522 F41A
0000011600
145
UACN10 CYXC 111521
VR
UA /OV CYXC 000000 /TM 1521 /FL000 /TP PAY2 /TB
LGT-MDT ON SHORT FNL RWY16
0000011100
146
UANT01 CWAO 111523
ARP DAL117 4854N04725W 1522 F310 MS57 292/62 KT
N175DZ QXT AOW 111523 F30A
0000011000
147
UANT01 CWAO 111523
ARP AZA63K 4701N04254W 1522 F310 MS55 304/47 KT
EIISO QXT AOE 111523 F33A
0000054500
148
SNVE01 KWBC 111300 RRD
BBXX
VNAH 11134 99383 31416 46/// /2106 10164 20120 30201 40225 52004
 22200 04176 85138=
9VRJ8 11133 99046 31462 41/97 83014 10270 20241 40091 51015 78065
 8//// 22233 00293 20402 301// 40602 80250=
C6FS9 11134 99239 31519 46/// /1220 10248 20198 30121 40157 52005
 22223 04269 85214=
2AGH7 11134 99262 31545 41598 61421 10245 20191 40139 57009 70322
 855// 22224 00260 2//// 3//// 4//// 5//// 80210=
VNSZ 11134 99395 31454 46/// /2916 10153 20118 30154 40180 52044
 22275 04164 85132=
0000200300
149
SIXX40 ETGT 111500
AAXX 11154
40550 35/70 /3404 10111 20081 40190 51016
 333 55300 00000 10222 20000 30000 41092 51311 60000 55407 40000
90069 90400 91007 91117 91209 91305=
40551 45/70 /2611 10115 20085 40195 53017
 333 90069 90400 91013 91119 91215 91311=
40552 45/70 /3110 10116 20089 40192 52017
 333 55300 90069 90400 91013 91121 91217 91311=
40553 35/70 /3508 10116 20088 40191 52016
 333 55300 90069 90400 91009 91119 91215 91311=
40568 46/// /3008 10122 20095 40193 51016
 333 90401 91009 91121 91217 91313=
40570 45/70 /2909 10100 20073 40200 53024
 333 55300 90069 90400 91013 91125 91217 91313=
40573 45/69 /3013 10111 20080 40202 53023
 333 90069 90401 91017 91125 91217 91313=
40580 46/// /3203 10130 20084 40195 51016
 333 553// 00000 10255 20000 30000 41073 51327 60000 55407 40000
90401 91005 91115 91207 91305=
40581 46/// /0201 10135 20090 40200 51016
 333 90400 91001 91109 91201 91301=
40582 42960 23306 10128 20084 40191 51018 82030
 333 55300 00000 10241 20001 30000 41070 51312 60001 55407 40001
82360 90401 91007 91119 91215 91311=
40585 46/// /3108 10139 20083 222// 1//// 3//// 4//// 70///
 333 90400 91015 91121 91211 91309=
40586 46/// /2803 10131 20090 40195 51015
 333 90401 91003 91119 91209 91305=
40587 46/// /3004 10126 20091 40194 51015
 333 553// 00000 10198 20001 30000 41116 51314 60001 55407 40001
90400 91005 91121 91215 91309=
40588 45/70 /3208 10125 20097 40190 51018
 333 55300 90069 90400 91009 91119 91215 91311=
40590 47/59 /2905 10121 20096 40198 51017 71010
 333 90069 90401 91005 91121 91219 91311=
40592 45/68 /3204 10120 20088 40196 53022
 333 55300 00000 10248 20001 30000 41066 51313 60001 55407 40001
90069 90400 91007 91121 91211 91307=
40593 46/// /3308 10139 20090
 333 90400 91013 91123 91215 91311=
40594 46/// /3304 10132 20090 40197 51022
 333 90401 91007 91119 91209 91307=
40596 46/// /3214 10150 20104
 333 90401 91019 91123 91215 91313=
0000070400
150
SXXX32 EUMS 111513 RRX
223412A2
OT12 ID:IND-SADENG DT:2014 01 11 15 12
:PRS /1 01393 01414 01330 01238 01269 01297 01423 01394 01355 01299 01264 01252 01273 01398 01373 01374 01349 01282 01258 01280 01286 01248 01355 01446 01315 01220 01244 01205 01196 01226
:ENC /1 -13336 -13323 -1338398 01373 01374 01349 01282 01258 01280 01286 01248 01355 01446 01315 01220 01244 01205 01196 01226
:ENC /1 -13336 -13323 -13383 -13449 -13476 -13459 -13349 -13343 -13369 -13419 -13459 -13483 -13473 -13329 -13379 -13383 -13399 -13433 -13469 -13466 -13489 -13493 -13406 -13326 -13419 -13516 -13493 -13549 -13519 -13463
:RAD /1 11141 11160 11147 11096 11041 11021 11080 11121 11117 11083 11024/
0000039900
151
SXXX32 EUMS 111515 RRX
16590056
:PRS 1 /1 2429 2435 2442 2448 2459 2456 2465 2467 2465 2464 2458 2449 :RAD 1 /1 6624 6630 6636 6641 6652 6650 6660 6662 6659 6658 6653 6642 6640 6627 6619 6616 6616 6616 :ENC 6 /6 4871 4842 4831 4827 4820 4813 4807 4796 4790 4796 :ENB 6 /6 4870 4840 4830 4828 4820 4812 4805 4795 4789 4795 :SW1 15 /60 12 :SW2 42 /60 60 :BAT 5 /6 12.5 :NAME 16590056
0000041200
152
SXXX32 EUMS 111515 RRX
262D700E
:PRS 1 /1 3399 3437 3427 3406 3423 3450 3499 3465 3445 3457 3434 3435 3434 3380 3440 3458 3446 3413 3416 3409 3382 3363 3380 3385 3376 3402 3428 3415 3443 3391 :RAD 1 /3 5886 5894 5877 5865 5860 5837 5828 5840 5836 5812 5808 5808 5787 5774 5782 :ENC 5 /5 6020 5982 5989 5931 5984 5923 5949 5885 5926 5861 5879 5851 :SW1 15 /60 0 :BAT 14 /15 13.1 :NAME 262D700E /
0000045100
153
SXXX32 EUMS 111515 RRX
16289262
:PRS 1 /1 2496 2498 2486 2488 2468 2481 2485 2473 2475 2479 2468 2464 2464 2473 2467 2454 2463 2473 2462 2454 2442 2448 2454 2437 2444 2448 2440 2443 2443 2444 :RAD 1 /3 7932 7927 7921 7917 7916 7912 7904 7897 7893 7891 7884 7878 7876 7871 7863 7854 7849 7842 7836 7832 :ENC 5 /5 5305 5300 5285 5271 5270 5264 5254 5243 5232 5234 5224 5217 :SW1 15 /60 0 :SW2 45 /60 0 :BAT 14 /15 12.7 :NAME 16289262 /
0000045700
154
SXXX32 EUMS 111515 RRX
324DF524
:PRS 1 /1 2858 2847 2836 2824 2813 2801 2790 2778 2767 2756 2744 2733 2722 2711 2700 2689 2678 2667 2656 2645 2634 2623 2612 2602 2591 2580 2569 2558 2547 2536 :RAD 1 /3 2831 2796 2761 2726 2693 2658 2626 2591 2555 2520 2487 2452 2416 2383 2349 2317 2283 2249 2215 2181 :ENC 5 /5 1754 1695 1640 1583 1527 1473 1418 1362 1306 1251 1195 1139 :SW1 15 /60 0 0 :SW2 45 /60 60 60 :BAT 14 /15 12.2 :NAME 324DF524 /
00000000