0000221000
495
SIRO48 YRBK 111500
AAXX 11151
15107 22597 73003 10027 21033 39390 42808 57007 87300 333 60007 91006
91108
95070 555 60000=
15123 23/// ///// 10044 20013 39738 40229 56009 333 55300 0//// 20113
3////
6///7 91002 91102 555 6////=
15124 23/// /2201 10033 20014 39677 40230 56009 333 6///7 91002 91102
555 6////=
15127 22598 62906 10020 21041 39318 42810 56007 83342 333 55300 0////
20125
3//// 60007 91008 91109 95000 555 60000=
15145 21996 70703 10047 20027 39844 40227 56010 71022 87070 333 60007
555 60000=
15148 22497 70000 11036 21043 38732 48494 57007 81371 333 60007
92717=
15162 23/// /2401 10037 20002 39482 42813 56006 333 6///7 91002 91102
555 6////=
15165 22698 70502 10043 20015 39580 42809 56009 87500 333 60007 91003
91104 555
60000=
15168 26/// /3601 10043 21015 39585 42813 56006 333 6///7 91002 91102
555 6////=
15184 21498 82203 11014 21014 38825 48495 56007 72272 884// 333 69927
91004
91106 92717 95050 95100 555 6////=
15189 23/// /0802 10058 20011 39822 40213 56014 333 6///7 91003 91103
555 6////=
15208 21597 81801 10067 20015 39919 40229 56012 72582 8457/ 333
69917=
15209 26/// /2203 10075 20003 39799 40212 56012 333 55300 0//// 20061
3////
6///7 555 6////=
15215 22999 82601 10044 21025 39599 42810 56011 82047 333 55301 0////
20255
3//// 60007 91002 91104 555 60000=
15217 22598 72303 10037 21024 39526 42807 57010 83578 333 60007 91004
91106 555
60000=
15231 22598 82704 10063 20034 39884 40213 56012 8637/ 333 60007 91005
91106 555
60000=
15235 22698 52703 10047 21016 39694 40221 56009 83470 333 55302 60007
91003
91105 555 60000=
15238 22598 83501 10053 21021 39582 42811 57008 83307 333 60007 91003
91104 555
60000=
15254 22497 62701 10009 21015 38546 48498 57007 85360 333 60007 91005
91106 555
60000=
15262 22698 72912 11054 21061 38159 48464 56002 87070 333 60007 91018
92727=
15277 26/// /3602 10077 21019 39584 42810 57011 333 55300 60007 91003
91103 555
60000=
15279 22497 80305 11048 21048 37925 48491 56004 885// 333 60007 91009
91112 555
60000=
15300 22799 82903 10056 21029 39567 42810 57011 81247 333 60007 91004
91105 555
60000=
0000235800
496
SIRO49 YRBK 111500
AAXX 11151
15042 22997 72301 10062 20020 30071 40211 57013 87070 333 60007=
15080 21597 81503 10069 20034 30040 40209 57012 70262 8657/ 333 69927
91004
91104 555 32000 42000 50000 60000 78123=
15095 22998 83600 10048 20014 39807 40218 58007 8807/ 333 55300 0////
20074
3//// 60007 91001 91104 555 60000=
15117 22998 80000 10065 20052 30018 40218 57008 8807/ 333 60007=
15118 22497 82601 10008 21004 38921 48496 56006 8457/ 333 60007 91003
91103 555
60000=
15136 22597 71103 10063 20045 30088 40210 57011 87500 333 55300 60007
91004
91104 555 60000=
15138 21598 82001 10038 20023 39513 42815 57008 76162 8357/ 333
69917=
15160 22597 71902 10062 20016 39871 40214 56007 85370 333 60007 91003
91103 555
60000=
15179 26/// /1806 10054 20024 39634 40210 56013 333 55300 0//// 20126
3////
6///7 555 6////=
15182 23/// /2400 10058 20042 39999 40219 55008 333 6///7 91000 91103
555 6////=
15199 22597 81602 10104 20043 30083 40188 56007 885// 333 55300 60007
91003
91104 555 60000=
15204 26/// /3201 10074 20043 30032 40226 56008 333 55300 0//// 20150
3////
6///7 555 6////=
15206 26/// /2801 10056 20042 39888 40226 56006 333 55300 0//// 20095
3////
6///7 555 6////=
15245 26/// /2002 10114 20068 30107 40206 56007 333 55301 0//// 20226
3////
6///7 555 6////=
15247 22597 61802 10114 20043 30097 40202 56010 86500 333 55305 00150
20494
30249 60007 91004 91105 555 32000 42000 50000 60000 70000=
15270 22597 73000 10111 20036 30059 40211 57011 87500 333 55304 60007
91001
91102 555 60000=
15289 22997 21603 10107 20052 30108 40211 56007 81042 333 55304 0////
20404
3//// 60007 91005 91106 555 60000=
15314 22998 22202 10116 20024 39870 40207 57007 82040 333 60007 91003
91106 555
60000=
15315 22398 32406 10016 20004 38588 48516 57005 83200 333 60007 91007
91109 555
60000=
15316 NIL=
15317 22198 63406 11034 21064 37811 48537 52006 86500 333 60007
95100=
15338 22998 11802 10121 20025 39837 40210 56010 80001 333 60007 91003
91104
95000 555 60000=
15364 23/// /3000 10097 20027 39909 40222 56015 333 6///7 91001 91101
555 6////=
15366 22597 31600 10111 20019 39973 40204 56006 82201 333 60007 91001
91102
95000 555 60000=
15388 23/// /1602 10103 20030 30108 40210 56017 333 6///7 91003 91103
555 6////=
0000066300
497
SIPL20 SOWR 111500
AAXX 11151
12120 41462 82409 10052 20035 30059 40063 58020 72122 885//=
12160 42470 72107 10037 20028 39855 40083 58015 8523/=
12205 42783 52207 10074 20027 30077 40085 56024 85500=
12250 42561 82203 10052 20029 30022 40111 57013 885//
  333 91110=
12295 42664 82404 10041 20018 39926 40111 57004 885//
  333 91109=
12330 42965 32103 10052 20015 30009 40118 57019 83030=
12375 42570 72203 10056 20013 30001 40133 57009 86502
  333 91110=
12424 42999 72104 10061 20014 39991 40144 57015 8707/=
12465 42664 72204 10044 20007 39917 40141 57011 875//=
12566 42980 72304 10052 21011 39871 40168 56012 80008=
0000081900
498
SIPL30 SOWR 111500
AAXX 11151
12105 42463 72004 10055 20037 30029 40071 57026 875//
  333 87615=
12195 41567 82505 10037 20025 39859 40088 58006 72522 889//
  333 91111=
12235 42460 82106 10040 20028 39877 40088 57020 885//
  333 88613=
12270 42460 72306 10044 20026 39930 40113 57013 873//
  333 87915=
12280 42575 82204 10042 20021 39941 40099 55010 885//=
12300 42784 12403 10056 20017 30013 40103 57022 81531=
12400 42980 12204 10057 20008 39888 40124 58015 81041
  333 91109=
12435 42962 72004 10056 20011 39963 40136 58012 8705/=
12495 42664 62303 10042 20005 39857 40152 57008 83531=
12530 42960 71501 10056 20008 39954 40156 57016 85058=
12570 42960 72103 10039 20002 39836 40158 57011 81048=
12580 42980 52005 10039 21011 39910 40173 57007 81032
  333 91109=
0000064300
499
SIGR20 LGAT 111500
AAXX 11154
16622 NIL=
16641 42570 71203 10166 20111 30220 40226 54000 82238 333 82830
      87270 91105 555 40000 47698 44220 50000 50136=
16682 42560 60000 10160 20099 30219 40230 52002 82131 333 82825
      84357 91106=
16716 NIL=
16734 46/// /2808 10155 20106 30167 40228 52002 333 91115=
16743 46/// /2708 10151 20098 30022 40220 52006 333 91127=
16749 42460 60000 10152 20112 30200 40215 56006 86800 333 82818
      86635 91104 555 40000 47686 44240 50000 50134=
16754 42570 53115 10166 20119 30171 40218 52002 84101 333 84825
      85068 91119 555 40000 47658 44185 50000 50140=
0000050400
500
SIGR21 LGAT 111500
AAXX 11154
16643 42560 60000 10144 20099 30238 40238 56001 83250 333 83825
      86359 91105=
16648 41558 60000 10124 20072 30137 40225 55002 71022 81105 333
      81825 86068 91106 555 70000 77Y// 7/Y//=
16650 42560 59902 10128 20082 30220 40221 56001 83560 333 83625
      85358 91104 555 70000 77/// 7/Y//=
16684 42460 73107 10134 20097 30198 40208 52002 87600 333 81712
      86625 91110=
16732 46/// /3607 10147 20106 30209 40221 52009 333 91114=
0000015700
501
SSVX13 LFPW 111500
ZZYY 14531 11014 1500/ 326775 054652 6113/ 11119 40178 52006 22219
 00257 444 20130 11014 1500/ 50101 80152 80011 9/015=
0000015700
502
SSVX13 LFPW 111500
ZZYY 41705 11014 1500/ 726580 046070 6113/ 11119 40237 52002 22219
 00236 444 20130 11014 1500/ 50101 80142 80018 9/015=
0000011100
503
UANT01 CWAO 111510
ARP DAL271 5201N01933W 1509 F340 MS60 198/92 KT
N185DN QXT AOE 111510 F54A
0000011000
504
UANT01 CWAO 111510
ARP KLM723 4803N04952W 1510 F380 MS62 304/69 KT
PHAOA QXT AOW 111510 J49A
0000003800
505
SIAA21 EFKL 111500
NIL
0000469200
506
SSVX02 KARS 111507
ZZYY 14553 11014 1500/ 314966 043010 6111/
11119 40108 54000
22219 00292
444 2011/ 11014 1458/ 50101 80112 80004 9/015=
ZZYY 14926 11014 1500/ 336244 033941 6113/
11119 40167 52006
22219 00229
444 2013/ 11014 1446/ 50101 80115 80019 9/015=
ZZYY 14923 11014 1500/ 334899 031573 6111/
11119 40174 57002
22219 00216
444 2011/ 11014 1501/ 50101 80116 80020 9/015=
ZZYY 14931 11014 1500/ 328748 033241 6112/
11119 40157 57006
22219 00267
444 50101 80116 80035 9/015=
ZZYY 14922 11014 1500/ 338377 034568 6112/
11119 40159 52006
22219 00223
444 2012/ 11014 1450/ 50101 80119 80023 9/015=
ZZYY 14903 11014 1400/ 322284 048466 6113/
11119 40131 57004
22219 00288
444 2013/ 11014 1326/ 50101 80114 80014 9/015=
ZZYY 14903 11014 1500/ 322302 048450 6112/
11119 40140 52014
22219 00287
444 50101 80113 80012 9/015=
ZZYY 14559 11014 1400/ 317441 050283 6113/
11119 40126 52001
22219 00291
444 2013/ 11014 1328/ 50101 80114 80021 9/015=
ZZYY 14559 11014 1500/ 317453 050289 6112/
11119 40138 52019
22219 00291
444 2012/ 11014 1458/ 50101 80114 80022 9/015=
ZZYY 14558 11014 1400/ 318553 054965 6112/
11119 40138 52007
22219 00280
444 2012/ 11014 1327/ 50101 80112 80020 9/015=
ZZYY 14558 11014 1500/ 318570 054938 6113/
11119 40145 52015
22219 00280
444 50101 80112 80028 9/015=
ZZYY 16575 11014 1440/ 327399 064047 6111/
11119 30189 40189 57036
22219 00244
444 20110 11014 1459/ 50101 80100 80000 9/015=
ZZYY 16563 11014 1430/ 327807 069578 6112/
11119 30227 40227 52006
22219 00251
444 20120 11014 1323/ 50101 80100 80000 9/015=
ZZYY 17656 11014 1450/ 327715 061591 6111/
11119 30209 40209 52008
22219 00244
444 20110 11014 1459/ 50101 80090 80000 9/015=
ZZYY 17656 11014 1350/ 327704 061593 6112/
11119 30201 40201 57005
22219 00244
444 20120 11014 1324/ 50101 80090 80000 9/015=
ZZYY 14555 11014 1400/ 308107 045908 6113/
11119 40116 52002
22219 00291
444 2013/ 11014 1330/ 50101 80112 80014 9/015=
ZZYY 14555 11014 1500/ 308123 045912 6111/
11119 40119 52004
22219 00290
444 2011/ 11014 1456/ 50101 80112 80017 9/015=
ZZYY 14565 11014 1500/ 307954 044111 6113/
11119 40118 52009
22219 00297
444 2013/ 11014 1457/ 50101 80113 80006 9/015=
ZZYY 14549 11014 1500/ 326595 061315 6113/
11119 40207 52012
22219 00255
444 2013/ 11014 1323/ 50101 80114 80015 9/015=
ZZYY 14556 11014 1400/ 310726 040991 6113/
11119 40096 57012
22219 00287
444 2013/ 11014 1331/ 50101 80113 80018 9/015=
ZZYY 14556 11014 1500/ 310721 040975 6111/
11119 40098 57001
22219 00287
444 50101 80113 80031 9/015=
ZZYY 14901 11014 1400/ 314449 051837 6112/
11119 40113 52003
22219 00283
444 2012/ 11014 1330/ 50101 80116 80013 9/015=
ZZYY 14901 11014 1500/ 314459 051825 6112/
11119 40123 52021
22219 00283
444 2012/ 11014 1458/ 50101 80116 80014 9/015=
ZZYY 14910 11014 1400/ 317723 051821 6112/
11119 40124 54000
22219 00285
444 2012/ 11014 1328/ 50101 80115 80001 9/015=
ZZYY 14910 11014 1500/ 317714 051824 6112/
11119 40133 52014
22219 00285
444 50101 80115 80001 9/015=
ZZYY 14557 11014 1400/ 310553 047162 6113/
11119 40131 52024
22219 00286
444 2013/ 11014 1330/ 50101 80112 80004 9/015=
ZZYY 14557 11014 1500/ 310533 047140 6112/
11119 40130 52018
22219 00285
444 2012/ 11014 1458/ 50101 80112 80012 9/015=
ZZYY 14911 11014 1500/ 314765 044705 6111/
11119 40108 52002
22219 00296
444 2011/ 11014 1458/ 50101 80117 80014 9/015=
ZZYY 14902 11014 1400/ 326911 048096 6111/
11119 40142 57003
22219 00272
444 2011/ 11014 1324/ 50101 80118 80020 9/015=
ZZYY 14902 11014 1500/ 326902 048125 6113/
11119 40148 52006
22219 00270
444 50101 80117 80021 9/015=
ZZYY 14569 11014 1500/ 327461 057613 6111/
11119 40198 52014
22219 00256
444 50101 80117 80007 9/015=
ZZYY 14551 11014 1500/ 325500 057784 6112/
11119 40185 52011
22219 00260
444 2012/ 11014 1501/ 50101 80108 80025 9/015=
ZZYY 71701 11014 1501/ 336152 061365 6111/
444 50101 80052 80047 9/015=
ZZYY 14904 11014 1500/ 329520 042917 6111/
11119 40142 52010
22219 00243
444 2011/ 11014 1306/ 50101 80115 80026 9/015=
ZZYY 14924 11014 1500/ 337151 023870 6113/
11119 40161 57010
22219 00205
444 2013/ 11014 1446/ 50101 80116 80015 9/015=
ZZYY 14933 11014 1500/ 328202 037088 6112/
11119 40157 54000
444 50101 80114 80020 9/015=
ZZYY 14927 11014 1500/ 338594 023890 6112/
11119 40142 57012
22219 00223
444 2012/ 11014 1446/ 50101 80116 80020 9/015=
ZZYY 14932 11014 1500/ 330521 032088 6111/
11119 40163 57002
22219 00260
444 50101 80116 80062 9/015=
0000130600
507
SSVX02 LFVW 111510
ZZYY 41725 11014 1319/ 722222 050387 6112/
22219 00246
33311 88872 20000 32457 43646
444 2012/ 11014 1314/ 50101 9/015=
ZZYY 41652 11014 1317/ 724045 037280 6112/
22219 00235
33311 88872 20000 32352 43600
444 2012/ 11014 1311/ 50101 9/015=
ZZYY 41644 11014 1317/ 730928 039769 6111/
22219 00216
33311 88872 20000 32165 43643
444 2011/ 11014 1310/ 50101 9/015=
ZZYY 41647 11014 1319/ 724123 048682 6112/
22219 00244
33311 88872 20000 32443 43668
444 2012/ 11014 1312/ 50101 9/015=
ZZYY 41651 11014 1315/ 729246 048600 6112/
22219 00///
33311 88872 20000 44573
444 2012/ 11014 1309/ 50101 9/015=
ZZYY 41646 11014 1319/ 729270 061148 6113/
22219 00234
33311 88872 20000 32339 43662
444 2013/ 11014 1312/ 50101 9/015=
ZZYY 41653 11014 1320/ 722219 048640 6111/
22219 00246
33311 88872 20000 32460 43735
444 2011/ 11014 1313/ 50101 9/015=
ZZYY 41648 11014 1319/ 725634 043589 6112/
22219 00233
33311 88872 20000 32334 43739
444 2012/ 11014 1313/ 50101 9/015=
ZZYY 41645 11014 1317/ 727981 040110 6112/
22219 00226
33311 88872 20000 32257 43719
444 2012/ 11014 1311/ 50101 9/015=
ZZYY 41650 11014 1319/ 723360 049593 6112/
22219 00247
33311 88872 20000 32469 43746
444 2012/ 11014 1312/ 50101 9/015=
0000013800
508
SNDL22 EDZW 111400 CCB
AAXX 11141
10496 42983 32405 10080 20013 30047 40132 56021 83030
  333 55306 20521 30323 83360=
0000011000
509
UANT01 CWAO 111510
ARP AFR650 4907N02650W 1509 F320 MS46 188/51 KT
FGZNG QXT AOE 111510 F24A
0000186200
510
SSVX08 KARS 111509
ZZYY 23008 10014 12004 112077 088820 6111/
11119 00610 10265 29078
33311 88872 20020 32729 43378 20040 32725 43380 20060 32731 43442
20080 32442 20100 32166 20120 31984 20140 31812 20180 31508
20300 31168 20500 30991
444 20110 10014 1204/ 521// 60401=
ZZYY 56055 10014 1200/ 324741 099973 6111/
11119 10225 29079
22219 00233
33311 88872 20000 32330 20001 32315 43521 20020 32309 43531
20040 32301 43533 20060 32197 43556 20080 32090 20120 31951
20140 31909 20180 31811 20300 31469 20500 31030
444 20110 10014 1208/ 521//=
ZZYY 23004 10014 12004 100061 090182 6111/
11119 00702 10291 29068
22219 00297
33311 88872 20000 32965 20001 32930 43404 20080 32865 20100 32838
20120 31960 20180 31439 20300 31155 20500 30972
444 20110 10014 1216/ 521// 60401=
ZZYY 23004 11014 14004 100067 090183 6112/
11119 01705 10286 29078
22219 00291
444 20120 11014 1411/ 521// 60401=
ZZYY 23009 10014 12004 114998 089943 6111/
11119 00409 10255 29078 40126
22219 00271
33311 88872 20000 32708 20001 32711 43333 20020 32712 43343
20040 32715 43359 20060 32710 43364 20080 32672 20100 32346
20120 32051 20140 31773 20180 31447 20300 31143 20500 30984
444 20110 10014 1204/ 521// 60401=
ZZYY 32319 10014 1200/ 507990 110070 6113/
33311 88870 20020 32450 20080 32383 20100 32026 20120 31803
20180 31291 20300 31109 20500 30831
444 20130 10014 1310/ 521//=
ZZYY 32323 11014 15004 700185 110081 6112/
11119 01510 10232 29091 40123
444 20120 11014 1403/ 521// 60401=
ZZYY 43001 10014 1200/ 708036 110173 6112/
33311 88872 20001 32703 43345 20040 32525 20060 31562 20080 31344
20100 31278 20120 31229 20140 31181 20300 31016 20500 30776
444 20120 10014 1054/ 521//=
ZZYY 43001 11014 1500/ 708041 110164 6112/
11119 10267 29078
22219 00270
444 20120 11014 1405/ 521//=
0000011000
511
UANT01 CWAO 111510
ARP ACA871 5206N02335W 1510 F330 MS55 187/76 KT
CFNNQ DDL XXN 111510 F13A
0000011000
512
UANT01 CWAO 111510
ARP SAS925 6328N04318W 1510 F360 MS59 170/21 KT
LNRKG DDL KUS 111510 J38A
0000013500
513
SIMC23 GMMC 111500
AAXX 11154
60340 32560 83408 10166 20083 40186 58005 81131
  333 81820 84358 85070=
60285 NIL=
0000011100
514
UANT01 CWAO 111510
ARP AWE755 4953N04038W 1510 F380 MS58 297/49 KT
N288AY DDL XXN 111510 J97A
00000000