0000023300
675
SISO21 AMMC 111500
AAXX 11154
91503 NIL=
91517 31475 42006 10255 20242 40050 57019 70511 81108
  333 56909 81816 84280=
91520 31475 40000 10256 20243 40049 58021 70510 81908
  333 56000 81817 81918 83280=

0000004100
676
SIPS01 AMMC 111500
NIL

0000004100
677
SISO23 AMMC 111500
NIL

0000111600
678
SAAR20 OEJD 111500
METAR OBBI 111500Z 20007KT CAVOK 17/13 Q1019 NOSIG=
METAR OKBK 111500Z 33006KT CAVOK 13/08 Q1019 NOSIG=
METAR OMAA 111500Z 04007KT 9999 -RA FEW040 18/16 Q1019 A3009 NOSIG=
METAR OMAD 111500Z 06005KT 020V090 9999 -RA FEW045 19/16 Q1019 A3010
                    NOSIG=
METAR OMAL 111500Z 30003KT CAVOK 20/09 Q1021 A3016 NOSIG=
METAR OMDB 111500Z 36006KT 310V110 8000 -RA NSC 18/14 Q1021 TEMPO
                   4000 RA=
METAR OMFJ 111500Z 28001KT 9999 SCT020 BKN100 20/11 Q1021 A3015=
METAR OMRK 111500Z 33004KT 9999 RA SCT040 18/16 Q1021 A3016=
METAR OMSJ 111500Z 29004KT 9999 -RA SCT030 18/16 Q1021=
METAR OOBR 111500Z NIL=
METAR OOKB 111500Z NIL=
METAR OOMS 111450Z 07009KT 9999 FEW030 SCT100 BKN200 20/09 Q1020
NOSIG=
METAR OOSA 111450Z 10011KT 9999 BKN025 24/15 Q1017
NOSIG=
METAR OOSH 111500Z NIL=
METAR OOSQ 111500Z NIL=
METAR OOSR 111500Z NIL=
METAR OOTH 111500Z NIL=
METAR OOYB 111500Z NIL=
METAR OTBD 111500Z VRB02KT 9999 -RA FEW016 SCT100 OVC120 16/13 Q1021
NOSIG=
METAR OYAA 111500Z 14009KT 9999 FEW020 26/19 Q1015 NOSIG=
0000009000
679
SAAR20 OEJD 111500 RRA
METAR OYSN 111500Z 27010KT 9999 BKN030 19/03 Q1026=
0000038000
680
SAME31 OEJD 111500
METAR OJAI 111500Z NIL=
METAR OJAM 111500Z 30010KT 5000 HZ BKN025TCU 10/06 Q1024 NOSIG=
METAR OJAQ 111500Z 35008KT 9999 BKN030 18/08 Q1024 NOSIG=
METAR OLBA 111500Z VRB01KT 8000 FEW080 16/04 Q1025=
METAR OSAP 111500Z NIL=
METAR OSDI 111500Z 14004KT CAVOK 10/03 Q1022=
METAR OSLK 111500Z 18002KT 9999 FEW026 SCT030 BKN100 15/08 Q1022=
0000117500
681
SIVE21 AMMC 111500
BBXX
MPRZ 11144 99239 31661 41598 51331 10230 20165 40120 57005 70022
8255/ 22213 00250 20402 309// 40702 80190=
VNSZ 11144 99391 31452 46/// /2914 10155 20120 30162 40188 52036
22275 04165 85134=
C6FS9 11144 99239 31522 46/// /1315 10248 20189 30115 40151 57008
22223 04266 85208=
VNAH 11144 99383 31416 46/// /2205 10158 20113 30199 40223 57002
22200 85132=
VNSZ 11154 99388 31449 46/// /2609 10155 20120 30170 40197 52028
22285 04167 85134=
VNSZ 11134 99395 31454 46/// /2916 10153 20118 30154 40180 52044
22275 04164 85132=
2AGH7 11134 99262 31545 41598 61421 10245 20191 40139 57009 70322
855// 22224 00260 2//// 3//// 4//// 5//// 80210=
C6FS9 11134 99239 31519 46/// /1220 10248 20198 30121 40157 52005
22223 04269 85214=
C6FS9 11154 99240 31524 46/// /1314 10247 20192 30111 40147 57009
22223 04270 85209=
VNAH 11154 99383 31416 46/// /2204 10155 20113 30197 40221 57004
22200 04177 85131=
VNAH 11134 99383 31416 46/// /2106 10164 20120 30201 40225 52004
22200 04176 85138=
9vrj8 11133 99046 31462 41/97 83014 10270 20241 40091 51015 78065
8//// 22233 00293 20402 301// 40602 80250=

0000134800
682
SIAU01 AMMC 111500
AAXX 11154
94102 46/// /1914 10285 20253 30064 40073=
94103 46/// /2804 10291 30090 40095=
94200 NIL=
94203 46/// /2809 10294 20259 30067 40077=
94206 46/// /3208 10328 20178 39932 40060=
94207 46/// /3014 10290 30074 40082 58007=
94211 NIL=
94212 46/// /3201 10304 20166 39600 40063=
94216 46/// /0000 10258 20222 30014 40064=
94300 46/// /1814 10282 20220 30083 40093=
94302 46/// /2307 10269 20212 30091 40097=
94312 46/// /2508 10286 20269 30074 40083=
94313 NIL=
94317 46/// /0901 10279 20036 39512 40081=
94319 46/// /1608 10333 21024 39743 40065=
94403 46/// /3207 10281 20163 30052 40092=
94429 46/// /0506 10356 21007 39640 40088=
94430 46/// /1006 10319 20083 39522 40087=
94449 46/// /0915 10315 20018 39624 40140=
94451 NIL=
94601 46/// /0913 10216 20200 30114 40131=
94610 46/// /1305 10350 20019 30068 40091=
94637 46/// /0811 10298 20043 39732 40148=
94638 46/// /0709 10176 20137 30157 40189=
94642 NIL=
94643 NIL=
94647 46/// /1010 10188 20155 30093 40202=
94802 46/// /0811 10183 20161 30087 40168=
95205 46/// /2707 10300 20241 30065 40072=
95448 46/// /0911 10339 20005 39561 40108=
95634 46/// /0914 10320 20062 39732 40122=
95637 46/// /1111 10219 20138 39816 40142=
95641 NIL=
95646 46/// /1311 10171 20169 30008 40193=

0000004100
683
SING22 AMMC 111500
NIL

0000129200
684
SISD20 OEJD 111500
AAXX 11154
40356 42560 63306 10070 20040 39234 48520 84520 333 58059 84630 86460
555 04410 50236=
40357 42560 73412 10088 20090 39575 40230 87600 333 58072 84720 83730=
40360 42960 02908 10116 21010 39627 40232 333 58046=
40361 42660 23610 10084 20010 39451 40242 82500 333 58073 82640=
40362 42660 73115 10091 20040 39682 40211 87470 333 58063 87640 85360=
40373 42960 02906 10110 20060 39774 40202 333 58033=
40375 42660 40106 10136 20020 39339 40232 84200 333 58054 84840=
40377 42660 43613 10120 20110 39718 40206 84500 333 58003 84640=
40394 42660 63216 10096 20020 39063 48526 86500 333 58052 86640 555 04410 50219=
40400 42960 03013 10212 20100 30178 40206 333 58038=
40401 42960 03310 10165 21010 39509 40223 333 58058=
40405 42960 03508 10150 20070 39446 40196 333 58058=
40416 42660 51710 10159 20140 30158 40178 82230 333 59012 82840 83358=
40417 41650 52807 10161 20110 30177 40192 70500 82530 333 59011 82640 83360=
40420 42660 72407 10165 20140 39983 40194 83510 333 59006 83635 85460=
40430 42960 01806 10190 21020 39468 40200 333 58050=
40435 42960 03005 10140 20020 39140 40167 333 58056=
40437 41957 03606 10137 20090 39492 40207 70500 333 58020=
40439 42960 02308 10232 20070 30167 40177 333 58037=
0000078400
685
SISD21 OEJD 111500
AAXX 11154
41024 42960 03015 10240 20030 30145 40165 333 58015=
41030 42960 03602 10256 20080 39874 40149 333 58012=
41036 42960 00506 10152 20040 38582 48530 333 58028 555 04410 50176=
41055 NIL=
41061 42960 01608 10220 20120 39447 40151 333 58004=
41084 42560 22710 10187 20110 38874 48525 82400 333 58015 82630 555 04410 50155=
41112 42460 41806 10131 20120 37962 48535 84600 333 58005 81712 83615 555 04410 50195=
41114 42560 22406 10140 20110 37997 48535 82400 333 58006 82625 555 04410 50188=
41128 42560 70000 10195 20100 38818 48521 85970 333 58009 81925 84630 85359 555 04410 50158=
41136 42660 50206 10269 20100 39318 40125 83430 333 59001 83640 83359=
41140 42560 42705 10267 20220 30148 40153 83830 333 58022 83825=
0000047900
686
UDAS02 BABJ 111505
AMDAR 1115
LVR CNFLWR 3755N 11403E 111501 F246 MS375 272/096 TB/ S//1=
LVR CNFLWR 3759N 11411E 111502 F246 MS378 274/094 TB/ S//1=
DES CNFLWR 3803N 11418E 111503 F242 MS366 274/094 TB/ S//1=
LVR CNFNZK 2852N 11933E 111454 F256 MS228 252/113 TB/ S//1=
LVR CNFNZK 2833N 11932E 111457 F256 MS228 252/109 TB/ S//1=
LVR CNFNZK 2813N 11931E 111500 F256 MS223 252/107 TB/ S//1=
LVR CNFNZK 2754N 11930E 111503 F256 MS213 253/104 TB/ S//1=
0000012400
687
SMRA12 RUNW 111200 CCA
AAXX 11121
29654 41498 81703 11087 21102 39703 40343 52002 78582 8695/ 333
82712=
0000078900
688
UDAS02 BABJ 111504
AMDAR 1115
DES CNFOZM 2028N 10945E 111500 F151 MS023 268/030 TB/ S//1=
DES CNFOZM 2027N 10946E 111500 F148 MS014 270/027 TB/ S//1=
DES CNFOZM 2023N 10949E 111501 F137 PS008 281/019 TB/ S//1=
DES CNFOZM 2019N 10952E 111502 F120 PS028 310/019 TB/ S//1=
LVR CNFLWT 2844N 10444E 111500 F197 MS171 274/044 TB/ S//1=
LVR CNFLWT 2847N 10440E 111501 F197 MS168 274/047 TB/ S//1=
LVR CNFLWT 2850N 10437E 111502 F197 MS165 274/048 TB/ S//1=
LVR CNFLWT 2852N 10436E 111502 F197 MS171 276/048 TB/ S//1=
DES CNFNXM 2534N 10323E 111501 F129 MS051 264/032 TB/ S//1=
DES CNFNXM 2533N 10323E 111501 F129 MS048 265/030 TB/ S//1=
DES CNFNXM 2530N 10320E 111502 F122 MS033 263/031 TB/ S//1=
DES CNFNXM 2527N 10316E 111503 F114 MS013 260/031 TB/ S//1=
0000114200
689
SIAU22 AMMC 111500
AAXX 11154
94299 46/// /1017 10271 20242 30076 40086=
94300 46/// /1814 10282 20220 30083 40093=
94302 46/// /2307 10269 20212 30091 40097=
94312 46/// /2508 10286 20269 30074 40083=
94313 NIL=
94317 46/// /0901 10279 20036 39512 40081=
94319 46/// /1608 10333 21024 39743 40065=
94324 NIL=
94326 46/// /1110 10319 20075 39501 40101=
94327 46/// /1107 1//// 2//// 39725 40088=
94332 46/// /1507 10304 20152 39686 40061=
94333 NIL=
94341 46/// /0505 10272 20185 39862 40093=
94346 46/// /0606 10251 20187 39891 40106=
94363 46/// /0405 10224 20184 39919 40132=
94366 NIL=
94367 46/// /1309 10257 20190 30078 40119=
94374 46/// /1406 10234 20195 30118 40134=
94388 NIL=
94393 46/// /1120 10259 30091 40103 58018=
94394 46/// /1117 10250 30116 40124 58019=
94403 46/// /3207 10281 20163 30052 40092=
94429 46/// /0506 10356 21007 39640 40088=
94430 46/// /1006 10319 20083 39522 40087=
94449 46/// /0915 10315 20018 39624 40140=
94451 NIL=
94461 46/// /0907 10271 21048 39447 40098=
94462 46/// /1507 10299 21005 39561 40100=
94477 NIL=
94488 NIL=

0000147600
690
SIAU23 AMMC 111500
AAXX 11154
94500 NIL=
94510 46/// /1504 10221 20197 39786 40125=
94515 46/// /0204 10213 20160 39789 40130=
94552 46/// /0606 10191 20150 39690 40148=
94578 46/// /0504 10217 20177 30144 40155=
94584 46/// /1011 10229 20184 30035 40144=
94601 46/// /0913 10216 20200 30114 40131=
94610 46/// /1305 10350 20019 30068 40091=
94637 46/// /0811 10298 20043 39732 40148=
94638 46/// /0709 10176 20137 30157 40189=
94642 NIL=
94643 NIL=
94647 46/// /1010 10188 20155 30093 40202=
94651 46/// /1313 10177 20153 30121 40197=
94653 46/// /1610 10179 20157 30166 40184=
94659 46/// /1611 10251 20028 39963 40153=
94672 46/// /1811 10176 20127 30184 40194=
94691 46/// /1910 10272 20043 39833 40153=
94693 46/// /1613 10242 20077 30106 40167=
94700 NIL=
94703 46/// /0804 10246 20150 30009 40131=
94710 46/// /0604 10242 20105 39888 40134=
94729 46/// /0706 10201 20123 39322 40154=
94750 46/// /1901 10212 20180 30044 40166=
94767 46/// /0805 10217 20188 30151 40157=
94776 46/// /2105 10168 20156 30143 40153=
94791 NIL=
94802 46/// /0811 10183 20161 30087 40168=
94804 46/// /1320 10166 20135 30174 40212=
94821 46/// /1907 10131 20116 30137 40219=
94842 46/// /2511 10151 20127 30116 40215=
94847 NIL=
94850 46/// /2312 10147 20117 30160 40205=
94865 46/// /2009 10168 20123 30184 40208=
94866 46/// /1909 10162 20126 30066 40205=
94875 46/// /1913 10172 20101 30025 40157=

0000163300
691
SIAU24 AMMC 111500
AAXX 11154
94893 46/// /2731 10149 20115 30057 40172=
94907 46/// /2814 10150 20117 30182 40192=
94910 46/// /1005 10225 20111 39890 40133=
94926 46/// /0705 10169 20107 39505 40161=
94935 46/// /2404 10159 20096 30150 40176=
94951 46/// /2816 10161 20081 30108 40123=
94954 46/// /2325 10135 20120 30078 40188=
94956 46/// /2807 10137 20110 30159 40186=
94975 46/// /3116 10163 20063 30100 40132=
94983 46/// /3105 10151 20105 30100 40125=
94995 46/// /0606 10201 20134 30166 40174=
94996 46/// /1009 10191 20137 30023 40151=
94997 NIL=
94998 46/// /2821 10041 20020 39854 49864=
95111 46/// /1104 10253 20232 30036 40072=
95205 46/// /2707 10300 20241 30065 40072=
95322 NIL=
95448 46/// /0911 10339 20005 39561 40108=
95458 46/// /1815 10318 20029 39876 40131=
95480 46/// /1710 10320 20089 30069 40126=
95481 46/// /0906 10278 20071 30076 40119=
95482 46/// /1309 10331 20104 30051 40105=
95485 46/// /0405 10277 20104 39930 40128=
95492 46/// /1205 10285 20116 39979 40129=
95527 46/// /0406 10233 20152 39893 40141=
95634 46/// /0914 10320 20062 39732 40122=
95637 46/// /1111 10219 20138 39816 40142=
95646 46/// /1311 10171 20169 30008 40193=
95666 NIL=
95719 46/// /1009 10208 20160 39817 40139=
95762 46/// /1704 10181 20123 39697 40143=
95826 46/// /2205 10151 30218 40220=
95839 46/// /1807 10140 20110 30039 40195=
95864 46/// /1810=
95909 NIL=
95954 NIL=
95966 46/// /3109 10149 20072 39938 40136=
96995 46/// /0000 10228 20218 39823 40118=
96996 356// 71109 10270 20224 30116 40120 53023
  333 10301=

0000210000
692
SIKW20 OKBK 111500
AAXX 11154
40550 35/70 /3404 10111 20081 40190 51016
  333 55300 00000 10222 20000 30000 41092 51311 60000 55407 40000
90069 90400 91007 91117 91209 91305=
40551 45/70 /2611 10115 20085 40195 53017
  333 90069 90400 91013 91119 91215 91311=
40552 45/70 /3110 10116 20089 40192 52017
  333 55300 90069 90400 91013 91121 91217 91311=
40553 35/70 /3508 10116 20088 40191 52016
  333 55300 90069 90400 91009 91119 91215 91311=
40568 46/// /3008 10122 20095 40193 51016
  333 90401 91009 91121 91217 91313=
40569 NIL=
40570 45/70 /2909 10100 20073 40200 53024
  333 55300 90069 90400 91013 91125 91217 91313=
40571 NIL=
40572 NIL=
40573 45/69 /3013 10111 20080 40202 53023
  333 90069 90401 91017 91125 91217 91313=
40580 46/// /3203 10130 20084 40195 51016
  333 553// 00000 10255 20000 30000 41073 51327 60000 55407 40000
90401 91005 91115 91207 91305=
40581 46/// /0201 10135 20090 40200 51016
  333 90400 91001 91109 91201 91301=
40582 42960 23306 10128 20084 40191 51018 82030
  333 55300 00000 10241 20001 30000 41070 51312 60001 55407 40001
82360 90401 91007 91119 91215 91311=
40583 NIL=
40585 46/// /3108 10139 20083 222// 1//// 3//// 4//// 70///
  333 90400 91015 91121 91211 91309=
40586 46/// /2803 10131 20090 40195 51015
  333 90401 91003 91119 91209 91305=
40587 46/// /3004 10126 20091 40194 51015
  333 553// 00000 10198 20001 30000 41116 51314 60001 55407 40001
90400 91005 91121 91215 91309=
40588 45/70 /3208 10125 20097 40190 51018
  333 55300 90069 90400 91009 91119 91215 91311=
40589 NIL=
40590 47/59 /2905 10121 20096 40198 51017 71010
  333 90069 90401 91005 91121 91219 91311=
40591 NIL=
40592 45/68 /3204 10120 20088 40196 53022
  333 55300 00000 10248 20001 30000 41066 51313 60001 55407 40001
90069 90400 91007 91121 91211 91307=
40593 46/// /3308 10139 20090
  333 90400 91013 91123 91215 91311=
40594 46/// /3304 10132 20090 40197 51022
  333 90401 91007 91119 91209 91307=
40596 46/// /3214 10150 20104
  333 90401 91019 91123 91215 91313=
0000046000
693
SIAU11 AMMC 111500
AAXX 11154
94100 NIL=
94201 NIL=
94202 NIL=
94204 NIL=
94208 NIL=
94213 NIL=
94214 NIL=
94215 NIL=
94217 NIL=
94303 NIL=
94305 NIL=
94306 46/// /3104 10286 20286 30077 40090=
94308 NIL=
94309 NIL=
94311 NIL=
94316 NIL=
94318 NIL=
94320 NIL=
94401 NIL=
94402 NIL=
94404 NIL=
94410 NIL=
94411 NIL=
94414 NIL=
94415 NIL=
94417 46/// /3211 10361 20044 39784 40088=
94422 NIL=
0000034900
694
SIAU14 AMMC 111500
AAXX 11154
95101 NIL=
95631 NIL=
95632 46/// /1203 10260 20102 39930 40137=
95635 46/// /0808 10167 20151 30139 40171=
95636 46/// /0914 10172 20172 39810 40162=
95638 NIL=
95639 46/// /0811 10213 20137=
95640 NIL=
95642 NIL=
95643 NIL=
95644 46/// /0912 10176 20154 39909 40163=
95647 NIL=
00000000