0000013900
555
SSVX02 CWAO 111500
ZZYY 55086 11014 1500/ 334163 172143 6113/ 11119 
40171 57020 444 20130 11014 1500/ 50100 80142 80001=
0000054900
556
SICN07 CWAO 111500
AAXX 11154
71864 NIL=
71865 25/// /2406 11090 21103 39342 40028 56016
333 60007=
71867 NIL=
71868 25/// /2502 11079 21100 39576 40020 53002
333 60007=
71869 NIL=
71871 25966 /1508 11095 21113 39161 49969 56039
333 60007=
71877 NIL=
71878 NIL=
71879 25564 81312 11020 21074 39086 49877 58068
333 60007=
71880 NIL=
71882 27/// /2503 10005 21001 39376 49903 58051 7//4/
333 69987=
71883 45/// /1301 11022 21025 39058 49862 56060
333 6///7=
71887 NIL=
71889 NIL=
71892 NIL=

0000015100
557
SSVX05 CWAO 111500
ZZYY 48510 11014 1500/ 778965 129443 6113/ 11119 
11281 49854 52014 444 20130 11014 1500/ 50100 80132 80001 9////=
0000013900
558
SSVX02 CWAO 111500
ZZYY 47571 11014 1500/ 771334 104399 6113/ 11119 
49899 444 20130 11014 1500/ 50401 80130 80001 9////=
0000027500
559
SXHW11 KWAL 111512
15D142A4 011151202":PRS 1 #1 1609 1614 1619 1623 1612 1633 1611 1624 1622 1628 :RAD 1 #1 7205 7203 7207 7208 7206 7210 7208 7210 7210 7215 :ENC 2 #5 5108 5115 5128 5139 :SW1 12 #60 0 :SW2 42 #60 0 :BAT 4 #5 12.9 :NAME 15D142A4  31+0NN 216W
0000012600
560
SMFJ01 NFFN 111200 CCA
AAXX 11124
91659 41599 21411 10265 2024/ 40042 56018 70100 82800
  333 569// 81828=
0000036700
561
SIVS20 VNNN 111500
AAXX 11151
48870 41597 83203 10220 20207 30178 40185 51012 72582 888// 333 58004 84895 84896=
48877 32598 83605 10249 20194 30168 40173 51015 888// 333 58003 82895 88697=
48887 41797 80703 10250 20213 30140 40146 51013 76062 885// 333 58003 88697 96160=
48920 32998 70205 10259 20243 30136 40139 51010 80008 333 58004 87299=
0000042600
562
SILV20 UMRR 111500
AAXX 11151
26313 43/// /2603 10047 20039 49997 57011=
26346 42497 82603 11004 21007 40015 57002 886// 333 88711=
26406 41396 82307 10051 20041 40025 57013 76062 8872/ 333 86708
91011 91111=
26422 41360 /2004 10026 20024 30001 40013 56016 7617/=
26424 41497 82404 10047 20031 40019 57014 78082 8695/=
26544 41497 82303 10006 21015 40045 57002 70282 883// 333 84916=
26416 NIL=
0000192300
563
SZAU01 AMMC 111512
CREX++
T000103 A001 D01021 D06025++
-1927750 14705860 59260 2014 01 11 15 05 3023 11 07 00 01
00740 0179 00741 0181 00739 0179 00740 0180 00733 0173 00735 0175+
-2316110 15079000 59670 2014 01 11 15 05 3000 11 07 00 01
01331 0241 01329 0236 01330 0234 01333 0234 01324 0223 01326 0222+
-3447330 15091170 60420 2014 01 11 15 05 2945 11 07 00 01
00716 -0042 00718 -0043 00714 -0051 00715 -0053 00717 -0054 00721 -0054+
-4105000 14591500 60910 2014 01 11 15 05 2888 11 07 00 01
01045 -0068 01036 -0073 01031 -0074 01026 -0075 01032 -0065 01034 -0059+
-4254640 14793080 61170 2014 01 11 15 05 2903 11 07 00 01
01161 0021 01162 0020 01155 0011 01162 0015 01163 0014 01159 0008+
-3834390 14161360 61410 2014 01 11 15 05 2908 11 07 00 01
00798 0048 00787 0037 00776 0026 00777 0027 00782 0033 00784 0035+
-3214890 13364170 62000 2014 01 11 15 05 2955 11 07 00 01
01588 0105 01592 0108 01594 0110 01597 0112 01596 0110 01597 0110+
-3387080 12189720 62080 2014 01 11 15 05 2950 11 07 00 01
00960 0003 00950 -0006 00935 -0019 00945 -0008 00947 -0005 00952 0002+
-3182560 11573860 62237 2014 01 11 15 05 2973 11 07 00 01
00762 0057 00765 0061 00761 0058 00766 0064 00760 0060 00768 0069+
-2422000 11339750 62385 2014 01 11 15 05 //// 11 07 00 01
00907 -0061 00937 -0029 00909 -0054 00930 -0031 00914 -0045 00869 -0088+
-2181670 11419110 62430 2014 01 11 15 05 //// 11 07 00 01
01561 -0087 01552 -0093 01552 -0090 01540 -0099 01550 -0086 01550 -0082+
-1800080 12221830 62650 2014 01 11 15 05 3043 11 07 00 01
05251 0154 05241 0151 05232 0152 05223 0151 05216 0153 05208 0154+
-1247190 13084580 63230 2014 01 11 15 05 3050 11 07 00 01
04888 -0053 04891 -0055 04894 -0057 04896 -0060 04898 -0061 04900 -0065+
-1386000 13641580 63511 2014 01 11 15 05 3043 11 07 00 01
01810 0080 01807 0079 01805 0078 01803 0077 01802 0078 01800 0077++
7777

0000046700
564
SZPA01 AMMC 111512
CREX++
T000103 A001 D01021 D06025++
0136250 17293000 67590 2014 01 11 15 05 3017 11 07 00 01
02059 0084 02055 0081 02045 0072 02050 0078 02041 0071 02044 0075+
0710610 17137250 67680 2014 01 11 15 05 3013 11 07 00 01
01291 0037 01296 0044 01285 0035 01288 0039 01282 0035 01276 0030+
0698060 15820000 67950 2014 01 11 15 05 3023 11 07 00 01
00778 0092 00779 0093 00780 0094 00783 0097 00789 0103 00789 0104++
7777

0000179300
565
SZPS01 AMMC 111512
CREX++
T000103 A001 D01021 D06025++
-0204190 14737360 56130 2014 01 11 15 05 3025 11 07 00 01
00541 0110 00547 0115 00549 0115 00551 0115 00555 0118 00555 0116+
-0669280 15640860 56363 2014 01 11 15 05 //// 11 07 00 01
00685 -0044 00692 -0037 00690 -0039 00682 -0048 00682 -0048 00685 -0045+
-0942890 15995560 56670 2014 01 11 15 05 3038 11 07 00 01
00510 -0050 00512 -0049 00509 -0053 00511 -0052 00512 -0052 00512 -0053+
-1072080 16580190 57131 2014 01 11 15 05 //// 11 07 00 01
02610 1781 02608 1778 02473 1643 03150 2319 02713 1881 02686 1854+
-1551560 16718860 57210 2014 01 11 15 05 //// 11 07 00 01
01054 -0131 01044 -0142 01041 -0147 01059 -0130 01060 -0130 01052 -0139+
-1775690 16830030 57320 2014 01 11 15 05 3015 11 07 00 01
01023 -0033 01020 -0038 01018 -0042 01019 -0043 01018 -0046 01018 -0048+
-4397330 16861610 65180 2014 01 11 15 05 2885 11 07 00 01
01263 0402 01280 0416 01265 0399 01285 0416 01300 0428 01322 0448+
-2120470 -15978530 65980 2014 01 11 15 05 3008 11 07 00 01
00792 0018 00843 0069 00793 0018 00798 0023 00782 0006 00834 0058+
-2113810 -17518140 66600 2014 01 11 15 05 //// 11 07 00 01
01501 0085 01507 0090 01505 0087 01511 0092 01503 0083 01521 0100+
-1382670 -17176110 66840 2014 01 11 15 05 3010 11 07 00 01
01138 0064 01135 0061 01145 0072 01139 0066 01141 0069 01145 0073+
-1813250 17842750 67050 2014 01 11 15 05 3030 11 07 00 01
01615 0074 01613 0071 01610 0066 01620 0075 01615 0069 01608 0060+
-1760530 17743810 67070 2014 01 11 15 05 3030 11 07 00 01
01740 0017 01744 0019 01746 0019 01749 0021 01751 0021 ///// ////+
-0850250 17919500 67440 2014 01 11 15 05 3027 11 07 00 01
02411 -0014 02407 -0017 02410 -0014 02408 -0015 02403 -0019 02402 -0020++
7777

0000034300
566
SZIO01 AMMC 111512
CREX++
T000103 A001 D01021 D06025++
-1211670 09689190 46280 2014 01 11 15 05 3020 11 07 00 01
00640 0018 00637 0015 00641 0018 00638 0015 00640 0017 00637 0013+
-1042940 10566940 46290 2014 01 11 15 05 //// 11 07 00 01
00739 0028 00738 0029 00699 -0009 00767 0061 00680 -0025 00755 0052++
7777

0000013800
567
SIVF22 EIDB 111500
BBXX
62023 11153 99514 70079 46/97 /1615 10089 2//// 4//// 5////
22200 10704 70021 555 70034 80011=
0000013800
568
SIGO20 FOOL 111500
AAXX 11154
64500 42460 82210 10290 20248 30081 40091 889//
333 58011 84610 81920 88650 94948 95838=
0000036100
569
SIVS20 VNNN 111500
AAXX 11151
48917 32598 60702 10250 20223 30130 40136 51010 83208 333 58006 83895 86299=
48918 32498 60504 10248 20214 30144 40155 52016 83208 333 58010 82894 86299=
48894 32798 60000 10256 20220 30141 40145 52015 84508 333 58005 84697 85299=
48914 32698 70701 10253 20213 30146 40148 51019 83508 333 58007 83696 87299=
0000019700
570
SIVS40 VNNN 111500
AAXX 11151
48866 32798 70703 10192 20156 39300 40185 51005 875// 333 58001 87697=
48875 32598 80906 10206 20171 39631 40175 50011 888// 333 58003 82895 88696=
0000011800
571
SIVS40 VNNN 111500
AAXX 11151
48838 32698 80701 10154 20134 30227 40234 51015 885// 333 58013 88696=
0000012400
572
SIVS40 VNNN 111500
AAXX 11151
48863 32598 72901 10226 20210 30187 40198 51009 878// 333 58004 82895 86696=
0000012400
573
SIVS40 VNNN 111500
AAXX 11151
48907 32698 71101 10262 20214 30144 40147 52016 82508 333 58011 82696 87299=
0000003900
574
SIAA21 EFKL 111500
NIL=
00000000