0000044900
895
SXXX32 EUMS 111516 RRA
1227146C
:PRS 1 /1 3520 3523 3528 3532 3534 3538 3541 3544 3551 3557 3557 3562 3569 3572 3573 3578 3587 3591 3594 3599 3600 3604 3608 3610 3612 3618 3623 3624 3628 3634 :RAD 3 /3 3513 3521 3535 3552 3561 3577 3587 3589 3613 3617 3636 3648 3657 3676 3681 3685 3704 3721 3735 3740 :ENC 1 /5 4286 4305 4326 4350 4367 4385 4406 4428 4445 4464 4489 4507 :SW1 17 /60 0 :SW2 47 /60 0 :BAT 14 /15 12.2 :NAME 1227146C
0000010600
896
SMTA10 UTDD 111200 RRD
AAXX 11121
38744 42999 50000 11116 21178 38083 48610 56005 80002=
0000074300
897
SIMT20 GQNN 111500
AAXX 11154
61401 NIL=
61404 43960 00604 10227 20087 39758 40155
  333 58034=
61415 42956 00205 10216 20135 30158 40163
  333 58019=
61421 43960 00000 10263 20128 39888 40147
  333 58017=
61437 43960 00404 10270 20066 30008 40137
  333 58004=
61442 42960 00407 10263 20100 30144 40147
  333 58012=
61450 43960 00806 10288 20014 39661 4////
  333 58011=
61461 43960 03604 10260 20040 30071 40159
  333 58000=
61489 42960 20804 10280 20097 30133 40140 80002
  333 58003 82073=
61492 43960 20000 10325 20113 30132 40151 80002
  333 59006 82073=
61497 NIL=
61498 43958 00804 10330 20036 39978 40127
  333 58004
61499 45960 00404 10325 20025 39780 40105
  333 58000=
0000014000
898
SMGO01 FOOG 111500
AAXX 11154
64501 42465 61808 10286 20244 30089 40099 84903
  333 58010 83811 81920 86073 94942 95832=
0000011000
899
UANT99 KDDL 111516
ARP ACA865 5401N01604W 1516 F380 MS63 234/56 KT
CGFAH DDL ORK 111516 J71A
0000043300
900
UDEU02 EGRR 111520 RRA
AMDAR 1114
LVR EU0030   5701N 00505E 111439 F289 MS447 247/035 TB/ S031=
LVR EU0030   5611N 00450E 111446 F320 MS447 267/045 TB/ S031=
LVR EU0030   5522N 00428E 111453 F320 MS447 281/043 TB/ S031=
LVR EU0030   5443N 00333E 111500 F320 MS497 283/051 TB/ S031=
LVR EU0030   5403N 00240E 111507 F320 MS485 295/064 TB/ S031=
LVR EU0030   5323N 00150E 111514 F320 MS547 306/093 TB/ S031=
0000036900
901
UDEU02 EGRR 111520 RRB
AMDAR 1114
LVR EU2863   3719N 00553W 111427 F330 MS547 354/060 TB/ S031=
LVR EU2863   3636N 00638W 111434 F330 MS547 345/057 TB/ S031=
LVR EU2863   3552N 00723W 111441 F338 MS562 350/064 TB/ S031=
LVR EU2863   3508N 00807W 111448 F350 MS565 338/059 TB/ S031=
LVR EU2863   3425N 00849W 111455 F350 MS580 326/059 TB/ S031=
0000068500
902
UDNT02 EGRR 111520
AMDAR 1114
LVR EU2535   4732N 04119W 111411 F320 MS575 313/053 TB0 S031=
LVR EU2535   4708N 04227W 111418 F320 MS570 309/046 TB0 S031=
LVR EU2535   4644N 04334W 111425 F319 MS572 311/052 TB0 S031=
LVR EU2535   4618N 04440W 111432 F319 MS577 307/054 TB0 S031=
LVR EU2535   4552N 04544W 111439 F320 MS577 308/059 TB0 S031=
LVR EU2535   4526N 04648W 111446 F319 MS577 307/055 TB0 S031=
LVR EU2535   4458N 04751W 111453 F319 MS570 312/052 TB0 S031=
LVR EU2535   4430N 04854W 111500 F320 MS570 319/054 TB0 S031=
LVR EU2535   4401N 04957W 111507 F319 MS565 319/057 TB0 S031=
LVR EU2535   4337N 05101W 111514 F320 MS565 313/052 TB0 S031=
0000024100
903
SOAT10 KWAL 111518
FA8005BC 011151837 OT12 ID:KN-BASS-01 DT:2014 01 11 15 16
:RD -3037 -3021 -3069 -3081 -3063 -3048 -3046 -3039 -3025 -3055
:PR 0577 0634 0705 0625 0657 0554 0597 0667 0648 0627
:B 13.7V
 46+1NN 219E
0000065700
904
SICI23 BABJ 111500
AAXX 11151
50136 NIL=
50745 NIL=
50774 NIL=
50788 NIL=
51133 NIL=
51431 NIL=
51747 NIL=
52203 NIL=
52418 32/// 91801 11131 21227 40468 57004=
52681 32/// 92203 11087 21224 40448 57001=
53564 41/21 90402 11102 21212 40422 52019 705//=
53614 NIL=
53646 NIL=
53798 NIL=
53845 NIL=
53959 31/35 92202 10018 21094 40355 52017 705//=
54094 NIL=
54102 NIL=
54161 NIL=
54292 NIL=
54374 NIL=
54423 NIL=
54618 NIL=
54843 41/35 92001 11002 21062 40305 52005 705//=
54909 41/48 92003 10034 21058 40306 52004 705//=
56029 33/// 92901 11083 21149 36441 52009=
57127 NIL=
57131 NIL=
0000068900
905
UDEU02 EGRR 111520 RRC
AMDAR 1115
DES EU0172   3937N 00314E 111508 F108 MS052 195/010 TB/ S031=
DES EU0172   3936N 00311E 111509 F098 MS032 178/012 TB/ S031=
DES EU0172   3934N 00307E 111509 F089 MS017 189/014 TB/ S031=
DES EU0172   3933N 00304E 111510 F080 PS000 208/013 TB/ S031=
DES EU0172   3932N 00300E 111511 F070 PS022 211/009 TB/ S031=
DES EU0172   3930N 00257E 111511 F061 PS052 217/010 TB/ S031=
DES EU0172   3929N 00253E 111512 F051 PS075 220/005 TB/ S031=
DES EU0172   3928N 00250E 111513 F041 PS095 206/005 TB/ S031=
DES EU0172   3927N 00247E 111513 F035 PS110 243/004 TB/ S031=
DES EU0172   3926N 00244E 111514 F029 PS110 274/006 TB/ S031=
0000011000
906
UANT01 CWAO 111517
ARP MSR985 4650N02336W 1517 F330 MS51 197/79 KT
SUGDL QXT AOE 111517 F32A
0000011000
907
UANT01 CWAO 111517
ARP KLM757 4441N04232W 1517 F350 MS59 304/48 KT
PHBQM QXT AOW 111517 F37A
0000110000
908
SIET20 HAAB 111500
AAXX 11151
63330 NIL=
63331 42580
3//// 10224 20052 38054 40233 81101 333 58004 81826 83070 555 10275=
63332 42580
53502 10236 20124 38219 40084 82201 333 59001 82825 83070 555 10255=
63333 42580
70806 10206 20116 38175 40162 86530 333 58007 86626 83358=
63334 41560 62403 10213 20025 37627 40069 70520 85801 333
58006 82827 84628 555 10245=
63340 42580
63602 10220 20134 37949 40172 83530 333 58000 83627 85358=
63402 42580
30000 10275 20136 38374 4//// 83200 333 58004 83830 555 10296=
63403 41560
70000 10212 20148 71722 86970 333 85623 81924 87357 555 10254=
63450 NIL=
63451 NIL=
63453 41560
10906 10296 20112 39053 70500 81100 333 58011 81825 555 10322=
63460 42580
43601 10280 20081 84200 333 84824 555 10302=
63471 42580
13304 10272 20112 38851 40092 81100 333 59015 81827=
63474 42580
41302 10194 20042 84100 333 84823 555 10235=
63478 42580
21302 10346 2//// 39769 40147 81101 333 59019 81828 555 10348=
63500 NIL=
63533 41875
30702 10279 20070 70500 81031 333 81358 82070 555 10307=
     NNNN
0000011000
909
SIUZ20 UTTW 111500 RRA
AAXX 11151
38462 329// 00000 11045 21131 38801 48532 52012 333 10054=
0000010000
910
UAUS31 KWBC 111518
ARP UAL203 3502N 10649W 1505 F370 TB NOT REPORTED RM B752 OV ABQ=
0000009200
911
UAPA01 KWBC 111518
ARP AWE675 2755N 13851W 1511 F370 MS47 270/053KT TB SMTH=
0000011000
912
UANT01 CWAO 111518
ARP VIR73Q 5153N03212W 1517 F370 MS51 219/21 KT
GVAST DDL XXF 111518 F59A
0000011000
913
UANT01 CWAO 111518
ARP ACA865 5402N01618W 1518 F380 MS62 231/55 KT
CGFAH DDL BLY 111518 J77A
0000011000
914
UANT01 CWAO 111518
ARP JAI228 4805N04952W 1518 F350 MS62 302/63 KT
VTJWS QXT AOW 111518 J99A
00000000