0000008200
795
SIAL51 EUMS 111500 RRB
AAXX 11154
60664 36/// /0000 10176 21032=
0000007800
796
SIAL52 EUMS 111500
AAXX 11154
60667 36/// /0000 10227 21056=
0000007800
797
SIAL56 EUMS 111500
AAXX 11154
60692 36/// ///05 10259 21040=
0000008200
798
SIAL53 EUMS 111500 RRA
AAXX 11154
60662 36/// /0000 10219 21145=
0000007800
799
SIAL57 EUMS 111500
AAXX 11154
60691 36/// /0000 10248 21054=
0000029500
800
FTXX31 AYPM 111510
TAF AYPY 111510Z 1118/1218 VRB03KT 9999 -RADZ SCT010 BKN120
FM112100 34005KT 9999 SCT018 BKN120
FM120001 23008KT 9999 -SHRA SCT016 SCT040 BKN120
PROB30 1118/1121 0700 FG
INTER 1205/1210 4000 TSRA BKN010 FEW020CB
T 24 27 29 31
Q 1004 1005 1007 1006=
0000028100
801
FTXX31 AYPM 111511
TAF AGGH 111511Z 1118/1218 23005KT 9999 -SHRA SCT016 BKN120
T 26 28 31 30
Q 1006 1008 1007 1005=
TAF ANYN 111512Z 1118/1218 03010KT 9999 -SHRA SCT016 SCT030 OVC120
INTER 1118/1212 3000 +SHRA BKN008
T 27 29 30 29
Q 1005 1007 1006 1004=
0000041600
802
SSVX02 LFVW 111515
ZZYY 41652 11014 1139/ 724038 037279 6112/
22219 00235
33311 88872 20000 32351 43600
444 2012/ 11014 1129/ 50101 9/015=
ZZYY 41647 11014 1137/ 724130 048673 6112/
22219 00244
33311 88872 20000 32441 43668
444 2012/ 11014 1132/ 50101 9/015=
ZZYY 41648 11014 1138/ 725635 043583 6113/
22219 00233
33311 88872 20000 32333 43740
444 2013/ 11014 1131/ 50101 9/015=
0000011000
803
UANT01 CWAO 111515
ARP FWI510 4711N03310W 1515 F360 MS50 283/29 KT
FGOTO QXT AOE 111515 J38A
0000010000
804
UACN10 CYXU 111515
YZ
UA /OV CYYZ 180005 /TM 1515 /FLDURC /TP E190 /TB MDT 100-150
0000011100
805
UANT01 CWAO 111516
ARP DAH2700 4800N02000W 1515 F330 MS56 202/98 KT
7TVJZ QXT AOE 111516 J17A
0000011000
806
UANT01 CWAO 111516
ARP DLH428 5043N03354W 1515 F370 MS52 269/21 KT
DAIKP QXT EUA 111516 J55A
0000011000
807
UANT01 CWAO 111516
ARP BAW29G 5027N05208W 1514 F370 MS63 295/77 KT
GVIIK QXT AOW 111516 F02A
0000011000
808
UANT01 CWAO 111515
ARP BAW60T 4901N01949W 1515 F360 MS59 195/77 KT
GVIIO QXT AOE 111515 F13A
0000009100
809
SXEO40 EEMH 111500
SEA 1115
26058  3/561=
26115  3/532=
86094  3/542=
0000033600
810
SIRE19 FMEE 111500
AAXX 11154
61996 26/// /2412 10141 20091 30193 40228 51012
  333 4//// 60007 90710 91120
  555 60005=
61997 26/// /1110 10103 20092 39754 49926 55019
  333 4//// 60007 90710 91123
  555 60005=
61998 26/// /2316 10057 20018 30040 40077 53005
  333 58038 60007 90710 91126
  555 60005=
0000038500
811
SSVX13 LFPW 111500
ZZYY 61691 11014 1500/ 144517 032895 6113/ 11119 40217 52002 22219
 00095 33300 88870 20000 30952 20011 30960 20013 30948 20016 30956
 20021 30944 20026 30956 20031 30956 20036 30944 20041 30940 20047
 30952 20052 30932 20057 30940 20062 30900 20067 30836 20072 30810
 20077 30792 20082 30788 444 20131 11014 1147/ 50101 80094 80045
 9/015=
0000020300
812
SOBR10 KWAL 111516
BAB00078 011151611 :BUB 2 #1       M   0.589   0.549   0.559 :RAD 1 #1   0.462   0.489   0.487   0.479 :PRS 1 #1  -0.790  -0.788  -0.784  -0.777 :BL 12.01  34+0NP 219E
0000016700
813
FCUZ31 UTTW 111500
TAF UTFA 111500Z NIL=
TAF UTSK 111500Z 1116/1201 15005G10MPS 5000 BR NSC TEMPO 1116/1201
1000 BR BKN005=
TAF UTFF 111500Z NIL=
0000078500
814
SAUZ31 UTTW 111500
METAR UTFN 111500Z VRB01MPS 1700 R28/1900 BR NSC M04/M05 Q1026
R28/CLRD70 NOSIG=
METAR UTNN 111500Z 11001MPS CAVOK M01/M03 Q1020 R33/CLRD60 NOSIG=
METAR UTNU 111500Z 08003MPS 3100 BR SCT200 00/M03 Q1020 R13/CLRD60
NOSIG=
METAR UTSA 111500Z NIL=
METAR UTSB 111500Z 12003MPS 060V140 6000 NSC 04/M08 Q1021 R01/CLRD70
NOSIG=
METAR UTSK 111500Z NIL=
METAR UTSS 111500Z 00000MPS 9999 NSC M01/M06 Q1021 R88/CLRD70 NOSIG=
METAR UTST 111500Z 07001MPS 6000 NSC 03/M05 Q1022 R88/CLRD70 NOSIG=
METAR UTFA 111500Z 33001MPS 0300 R04/0300N FZFG OVC006 M06/M07 Q1027
R88/09//70=
METAR UTFF 111500Z 17001MPS 0350 R18/0350N FZFG VV001 M05/M06 Q1025
R18/CLRD70 RMK QBB050=
METAR UTTT 111500Z 07003MPS CAVOK M00/M07 Q1023 R08R/CLRD70 NOSIG=
00000000