0000011000
435
UANT01 CWAO 111509
ARP DAL81 5052N04419W 1509 F340 MS62 291/67 KT
N172DN QXT AOW 111509 F86A
0000009500
436
SAIN90 VOHS 111510
METAR VOHS 111510Z 11005KT 5000 HZ SCT020 21/14 Q1018 NOSIG=
0000032000
437
SAIN34 VOMM 111500
METAR VOBL 111500Z 15007KT 8000 NSC 25/14 Q1018 NOSIG=
METAR VOCB 111500Z 09003KT 5000 HZ NSC 25/15 Q1016 NOSIG=
METAR VOCL 111500Z 00000KT 6000 NSC 26/22 Q1012 NOSIG=
METAR VOMD 111500Z 11004KT 5000 HZ FEW020 26/18 Q1015=
METAR VOML 111500Z 33005KT 6000 NSC 26/21 Q1012 NOSIG=
0000009200
438
SAIN90 VOTR 111510
METAR VOTR 111510Z 09008KT 5000 HZ NSC 25/20 Q1014 NOSIG=
0000011000
439
UANT01 CWAO 111510
ARP AZA604 5102N01942W 1509 F380 MS58 207/72 KT
EIEJP QXT AOE 111510 J95A
0000020900
440
SIVS20 VNNN 111500
AAXX 11151
48839 32497 80506 10187 20177 30153 40200 52010 888// 333 58011 84894 88696=
48826 31596 80501 10178 20168 30089 40227 51015 71022 888// 333 58016 82895 88697=
0000021500
441
SIVS21 VNNN 111500
AAXX 11151
48808 41495 80901 10139 20135 39945 40237 52014 71062 888// 333 58023 83894 88696=
48830 31495 83601 10137 20127 39927 40243 52016 71022 888// 333 58026 83894 88697=
0000020900
442
SIVS20 VNNN 111500
AAXX 11151
48855 32597 70000 10221 20202 30199 40207 50011 82848 333 58008 82895 87299=
48848 41597 83201 10186 20179 30203 40211 51010 70262 888// 333 58006 84895 88697=
0000012400
443
SIVS21 VNNN 111500
AAXX 11151
48852 32598 70000 10204 20197 30195 40205 51012 878// 333 58005 82895 86697=
0000035500
444
UDAS02 BABJ 111459
AMDAR 1114
DES CNFNXM 2546N 10339E 111457 F160 MS091 274/056 TB/ S//1=
LVR CNFOZN 2913N 12235E 111447 F331 MS398 255/129 TB/ S//1=
LVR CNFOZN 2934N 12230E 111450 F331 MS395 255/128 TB/ S//1=
LVR CNFOZN 2956N 12225E 111453 F331 MS394 256/132 TB/ S//1=
LVR CNFOZN 3019N 12227E 111456 F331 MS391 257/141 TB/ S//1=
0000029300
445
UDAS02 BABJ 111500
AMDAR 1115
DES CNFOZM 2041N 10933E 111457 F192 MS075 251/044 TB/ S//1=
DES CNFOZM 2040N 10934E 111457 F190 MS071 257/043 TB/ S//1=
DES CNFOZM 2037N 10937E 111458 F181 MS060 261/041 TB/ S//1=
DES CNFOZM 2032N 10941E 111459 F167 MS038 261/036 TB/ S//1=
0000047900
446
UDAS02 BABJ 111501
AMDAR 1115
DES CNFLWT 2834N 10458E 111457 F197 MS168 271/041 TB/ S//1=
LVR CNFLWT 2837N 10453E 111458 F197 MS168 274/041 TB/ S//1=
LVR CNFLWT 2839N 10450E 111459 F197 MS169 273/043 TB/ S//1=
LVR CNFLWT 2841N 10449E 111459 F197 MS165 273/046 TB/ S//1=
DES CNFNXM 2543N 10335E 111458 F154 MS095 277/047 TB/ S//1=
DES CNFNXM 2540N 10331E 111459 F146 MS080 280/040 TB/ S//1=
DES CNFNXM 2537N 10327E 111500 F138 MS063 276/035 TB/ S//1=
0000019800
447
SAIR31 OIII 111500 RRA
 METAR OIFS 111500Z 00000KT 8000 FEW025CB SCT030 SCT080 M03/M04
 Q1018=
 METAR OITR 111450Z 33004KT 0800 R21/P2000 FG FEW035 SCT170 M09/M10
 Q1019 NOSIG=
0000019800
448
SAIR77 OIII 111500 RRA
 METAR OIFS 111500Z 00000KT 8000 FEW025CB SCT030 SCT080 M03/M04
 Q1018=
 METAR OITR 111450Z 33004KT 0800 R21/P2000 FG FEW035 SCT170 M09/M10
 Q1019 NOSIG=
0000019800
449
SAIR78 OIII 111500 RRA
 METAR OIFS 111500Z 00000KT 8000 FEW025CB SCT030 SCT080 M03/M04
 Q1018=
 METAR OITR 111450Z 33004KT 0800 R21/P2000 FG FEW035 SCT170 M09/M10
 Q1019 NOSIG=
0000033000
450
SAUK53 EGRR 111500
METAR EGUL 111458Z AUTO 29008KT 9999 BKN022 BKN029 06/03 A3010 RMK
      AO2 SLP196 T00610033 52015=
METAR EGUN 111458Z AUTO 29011KT 9999 SCT031 07/04 A3011 RMK AO2 SLP200
      T00690036 52015=
METAR EGVA 111458Z AUTO 32003KT 9999 CLR 07/04 A3014 RMK AO2 SLP212
      T00730040 53014=
0000013800
451
SIUK21 EGRR 111500 CCA
AAXX 11154
03808 42580 41508 10088 20034 30102 40209 58003 81501
  333 55308 20638 81625 84075=
0000307500
452
SIUK42 EGRR 111500
AAXX 11154
03002 47778 /2625 10050 20002 39994 40013 50008 723//
  333 86/50 84/68 90710 91141=
03008 46/// /2927 10048 21007 39982 40055 53015
  333 90710 91141 91041=
03010 46/// /2725 10057 20006 40093 52019
  333 90710 91136=
03014 46/// /3038 40043 52016
  333 90710 91146=
03031 47374 /2714 10010 21002 39806 40140 52019 771//
  333 553// 20122 83/08 83/29=
03034 47880 /2611 10052 20011 30120 40134 52018 723//
  333 81/57=
03037 47566 /2209 10049 20011 30124 40146 53016 781//
  333 81/22 85/31=
03039 46/// /2924 11013 21018
  333 90710 91133=
03044 47650 /3013 10031 20009 30017 40117 53020 782//
  333 553// 20298 84/32 90710 91126=
03062 45983 /2512 10030 21003 30117 40122 53013
  333 553// 20154 8//99=
03065 46/// /2628 11058 21067
  333 90710 91143 91042=
03068 46981 /2518 10038 21010 30113 40121 52016
  333 8//99 90710 91127=
03072 46/// /2842 11028 21071
  333 90710 91153 91053=
03080 45984 /2712 10042 21034 39958 40131 53024
  333 8//99 90710 91125=
03088 45982 /2614 10045 21028 39962 40127 53021
  333 553// 20387 8//99=
03105 47470 /2814 10062 20036 30152 40170 51011 723//
  333 82/19=
03132 45976 /2511 10047 20029 30169 40183 51010
  333 8//99=
03144 45984 /2310 10045 20003 30109 40152 52016
  333 553// 20359 8//99=
03148 46/// /2817 11002 21028
  333 90710 91126=
03153 45480 /2404 10047 20026 30041 40182 53018
  333 553// 20493 81/10=
03155 46484 /2414 10032 20012 39867 40170 53019
  333 81/13=
03158 45984 /2410 10042 20005 30015 40154 52023
  333 553// 20431 8//99=
03210 46970 /2710 10050 20039 30036 40190 52018
  333 8//99=
03212 45/82 /2805 10047 20011 30085 40186 51015=
03214 45980 /3008 10062 20030 30172 40191 52017
  333 8//99=
03220 46985 ///// 10050 20024 30147 40182 53018
  333 8//99=
03224 45383 /2514 10025 20021 39825 40177 52019
  333 81/07 87/23=
03225 46982 /2802 10048 21012 39875 40185 51018
  333 553// 20540 8//99=
03226 45583 /2806 10042 20001 39903 40183 53019
  333 81/23=
03227 46/// /2724 11021 2////
  333 90710 91133=
03230 46483 /2408 10026 20004 39911 40173 52026
  333 81/18 83/24=
03238 45584 /2814 10035 20007 39991 40168 53027
  333 81/21 90710 91126=
03261 46980 /3112 10054 20003 30140 40182 53016
  333 8//99=
03265 45980 /2911 10062 21007 30151 40182 53018
  333 8//99=
03266 46983 /2911 10057 21005 30164 40182 53018
  333 8//99=
03275 45980 /2712 10048 20008 39975 40170 53025
  333 8//99=
03281 46/// /2815 10035 21006=
03901 45983 /1606 10036 20019 30095 40185 52007
  333 55307 20600 8//99=
03904 47980 /2005 10057 20023 30124 40185 50006 723//
  333 81/72=
03907 45982 /2007 10039 20022 30173 40180 53008
  333 55304 20344 8//99=
03911 46980 /2605 10021 20006 39908 40188 51007
  333 8//99=
03915 46974 /1505 10026 20013 30104 40184 53010
  333 8//99=
03916 46981 /2404 10030 20002 39987 40182 51010
  333 553// 20285 8//99=
03923 45980 /2406 10028 20020 39987 40188 51008
  333 8//99=
0000386400
453
SIUK43 EGRR 111500
AAXX 11154
03301 46976 /2705 10068 20017 30128 40203 50006
  333 8//99=
03305 45984 /2410 10049 21001 39942 40209 53011
  333 8//99=
03313 46983 /2605 10062 20006 30110 40206 52015
  333 8//99=
03316 45968 /2712 10067 20035 30189 40200 53015
  333 8//99=
03318 46/// /2909 10064 20035=
03321 45980 /3004 10068 20011 30194 40207 53020
  333 55310 20575 8//99=
03330 45480 /3005 10043 20014 39833 40200 53017
  333 81/12=
03344 45480 /2403 10043 20011 39870 40193 53022
  333 85/18=
03346 46/// /2716 10038 20007=
03351 45581 /3006 10059 20030 30156 40200 53015
  333 55303 20221 82/24=
03373 46986 /2810 10053 20015 30120 40191 53024
  333 8//99=
03379 42582 12811 10058 20009 30119 40197 53023 81200
  333 81825=
03382 45982 /2709 10057 20016 30172 40181 53021
  333 55310 20475 8//99=
03385 46972 /2608 10058 20023 30175 40184 53023
  333 8//99=
03391 42582 12812 10065 20011 30187 40194 53023 81500
  333 81622=
03392 46981 /2810 10059 20026 30183 40187 52020
  333 8//99=
03405 469// /2307 10072 20021 30097 40214 51010
  333 553// 20616 8//99=
03409 46/// /2607 10057 20010 30004 40207 53012
  333 55308 2////=
03410 46581 /2508 10043 20000 39765 40207 53013
  333 553// 20665 81/23=
03469 45984 /2811 10062 20020 30192 40195 53020
  333 553// 20408 8//99=
03488 45484 /2715 10058 20026 30159 40185 53020
  333 81/19=
03503 45981 /0000 10065 20028 30132 40211 51009
  333 8//99=
03520 46976 /2605 10069 20011 30090 40212 53014
  333 553// 20648 8//99=
03522 45975 /2604 10070 20005 30122 40216 53013
  333 8//99=
03529 45582 /2705 10073 21001 30172 40216 53015
  333 81/29=
03544 45583 /2907 10060 20010 30074 40206 53017
  333 553// 20673 82/28=
03560 45982 /3011 10062 20013 30103 40209 53021
  333 553// 20634 8//99=
03604 46982 /0302 10072 20006 30155 40210 53002
  333 8//99=
03605 46982 /0302 10074 20024 30204 40212 52005
  333 8//99=
03609 46/// /1103 10073 20033 30164 40217 51003=
03628 45978 /2306 10071 20019 30140 40213 53011
  333 55310 20675 8//99=
03647 46580 /2907 10054 20007 39951 40210 53015
  333 553// 20644 81/23=
03658 42582 12605 10073 20018 30143 40214 53015 81101
  333 81825=
03660 45981 /3105 10059 21005 39961 40213 53017
  333 8//99=
03672 42585 12909 10078 20005 30167 40208 53012 81400
  333 81626=
03680 46/// ///// 10066 20019 30050 40209 53015
  333 553// 20627=
03684 45582 /2908 10071 20022 30092 40200 53016
  333 81/26=
03693 45684 /3008 10076 20024 30201 40204 53015
  333 82/32=
03707 45984 /1403 10090 20007 30204 40211 50000
  333 8//99=
03710 46981 /2303 10064 21015 39786 40210 50002
  333 553// 20719 8//99=
03743 46982 /2906 10073 20017 30053 40216 53012
  333 8//99=
03749 46980 /3006 10076 20008 30105 40216 53012
  333 8//99=
03761 42681 32906 10074 20003 30066 40212 53010 81501
  333 55310 20684 81640 83075=
03768 46983 /3207 10072 20011 30131 40212 53012
  333 8//99=
03769 45980 /3304 10083 20012 30124 40207 51011
  333 55309 20398 8//99=
03770 46/// ///// 10078 20016=
03781 45983 /2909 10063 20010 30000 40210 53012
  333 553// 20571 8//99=
03784 46/// /2910 10082 20023 30199 40203 53014=
03797 45980 /2810 10075 20016 30143 40204 53015
  333 55310 20600 8//99=
03823 45581 /1406 10077 20027 39963 40208 55001
  333 553// 20781 81/23=
03839 46/// ///// 10090 20017
  333 553// 20629=
03857 45979 /3103 10095 20020 30155 40219 53009
  333 8//99=
03862 45977 /3307 10084 20024 30203 40215 53008
  333 55310 20723 8//99=
03866 46/// /2706 10089 20037 30188 40213 53007=
03872 45983 ///// 10088 20020 30207 40212 53009
  333 553// 20677 8//99 91008=
03876 46/// /3506 10081 20023 30208 40211 53010=
03895 42484 10507 10091 20044 40218 53003 81501 333 81617=
0000015000
454
SNUK43 EGRR 102200 CCA
AAXX 10224
03761 41482 82010 10071 20060 39993 40137 57001 76166 885//
  333 55300 20000 82710 84642 88657=
00000000