0000011000
335
UANT01 CWAO 111526
ARP VIR18Z 5034N05142W 1526 F370 MS63 292/81 KT
GVSXY DDL YYT 111526 J18A
0000011000
336
UANT01 CWAO 111527
ARP DLH410 5059N03019W 1527 F370 MS50 195/35 KT
DAIKQ QXT EUA 111527 J60A
0000011000
337
UANT01 CWAO 111527
ARP UAE201 6124N05456W 1527 F380 MS59 274/36 KT
A6EDO DDL XXH 111527 J85A
0000011300
338
UACN10 CYCD 111526
VR
UA /OV CYCD 045005 /TM 1526 /FL030 /TP DH8C /WV 227051 /TB
LGT OCNL MDT
0000113600
339
SSVX02 KARS 111524
ZZYY 13585 11014 1500/ 735389 020871 6111/
22219 00190
444 20110 11014 1505/ 50101 80117 80039 9/015=
ZZYY 13657 11014 1511/ 718235 020019 6111/
22219 00231
444 20110 11014 1503/ 50101 80068 80018 9/015=
ZZYY 62726 11014 1500/ 739574 016145 6112/
22219 00156
444 20120 11014 1504/ 50101 80118 80007 9/015=
ZZYY 15618 11014 1509/ 704106 010278 6111/
22219 00287
444 20110 11014 1116/ 50101 80102 80003 9/015=
ZZYY 13573 11014 1500/ 735613 018518 6112/
22219 00182
444 20120 11014 1507/ 50101 80117 80006 9/015=
ZZYY 61652 11014 1513/ 139210 002488 6111/
22219 00149
444 20110 11014 1332/ 50101 80104 80017 9/015=
ZZYY 48694 11014 1500/ 770923 172707 6111/
11119 40113 57021
444 2011/ 11014 1425/ 50101 80105 80001 9/015=
ZZYY 48692 11014 1500/ 768616 174531 6111/
11119 40139 57029
444 2011/ 11014 1421/ 50101 80102 80001 9/015=
ZZYY 48686 11014 1500/ 769915 176897 6111/
11119 40144 57023
444 2011/ 11014 1420/ 50101 80105 80001 9/015=
ZZYY 48689 11014 1500/ 770679 176244 6112/
11119 40137 57024
444 2012/ 11014 1425/ 50101 80104 80001 9/015=
0000024800
340
SSVX13 KARS 111524
ZZYY 61659 11014 1500/ 136994 007556 6112/
22219 00139
444 20120 11014 1511/ 50101 80135 80000 9/015=
ZZYY 61659 11014 1400/ 136992 007560 6113/
22219 00136
444 20130 11014 1322/ 50101 80135 80001 9/015=
0000036500
341
SIMG21 FMMI 111500
AAXX 11154
67017 NIL=

67020 NIL=

67023 21458 81806 10242 20239 30118 40124 53012 79196 889//
  333 10312 60101 85817 81917 88640 94972 94978 95872 95878=
67037 NIL=

67067 22570 62604 10254 20207 39268 48530 53013 85902
  333 10/// 60021 81820 82920 94965 94966 95815  555 81073=
67107 NIL=

67131 NIL=
0000024900
342
SAPK31 OPKC 111530
METAR OPGD 111530Z NIL=
METAR OPKC 111530Z NIL=
METAR OPLA 111525Z 00000KT 5000 FU NSC 14/05 Q1021/A30.15=
METAR OPNH 111530Z NIL=
METAR OPPS 111530Z NIL=
METAR OPRN 111530Z NIL=
METAR OPSK 111530Z NIL=
0000013600
343
SIVD17 CWVR 111500
BBXX
46204 11151 99514 71288 46/// /1408 10074 49814 57014
22200 0//// 11005 70023 333 91210 =

0000024100
344
SOAT10 KWAL 111528
FA8005BC 011152837 OT12 ID:KN-BASS-01 DT:2014 01 11 15 26
:RD -3043 -3030 -3039 -3030 -3087 -3072 -3067 -3048 -3059 -3050
:PR 0605 0647 0596 0628 0672 0610 0617 0625 0646 0612
:B 13.7V
 46+1NN 219E
0000008900
345
SAIN90 VOMD 111530
METAR VOMD 111530Z 11004KT 5000 HZ FEW020 26/18 Q1015=
0000053000
346
FTIN90 VIDP 111500
TAF VIDP 111500Z 1118/1224 00000KT 0800 MIFG NSC
     BECMG 1200/1201 0300 FG
     BECMG 1204/1205 26004KT 1000 FU
     BECMG 1207/1208 30006KT 2000 HZ FEW030 SCT100
     BECMG 1217/1218 00000KT 0800 MIFG
     BECMG 1222/1223 0300 FG=
TAF VIAR 111500Z 1118/1224 00000KT 2000 BR NSC
     BECMG 1200/1201 0800 MIFG
     BECMG 1204/1205 VRB02KT 1500 BR
     BECMG 1207/1208 29005KT 3000 HZ FEW030 SCT100
     BECMG 1217/1218 00000KT 20000 BR
     BECMG 1233/1223 0800 MIFG=

0000011100
347
UANT99 KDDL 111526
ARP DAL271 5205N02249W 1526 F340 MS56 195/81 KT
N185DN QXT AOE 111526 F57A
0000208600
348
SIRA26 RUHB 111500
AAXX 11151
25703 41696 83505 11244 21269 39957 40248 52007 77173 8451/=
25913 42999 01104 11197 21286 39965 40122 52003=
25956 NIL=
31088 42999 23503 11227 21259 30131 40139 51005 80001=
31583 42984 02901 11397 21416 30110 40282 58003=
31873 42997 03601 11216 21248 30096 40242 56007=
31909 42998 03003 11147 21278 30119 40202 57003 333 91113=
31960 82998 01804 11088 21150 39973 40218 57010=
31961 42998 60102 11201 21226 30174 40223 57011 86030=
32053 42997 52604 11235 21268 30053 40106 58005 80002 333 91007
91107=
32061 41584 20801 11234 21259 30093 40135 58002 70281 82900 333 91001
91107=
32098 42998 03002 11300 21317 30124 40135 58001 333 91003 91103=
32150 41596 71601 11155 21161 30107 40138 54000 78582 87900 333 91002
91103=
32165 42598 53005 11078 21128 30107 40171 52009 85900 333 91009
91112=
32215 41596 83208 11020 21070 39955 49984 52004 78583 889// 333 91012
91119=
32389 41496 72804 11109 21130 39989 40027 52004 78582 86930 333
82711=
32477 42998 83601 11165 21180 39975 40008 53012 80001=
32583 42999 73604 11070 21140 39958 49989 52007 81035=
32618 41598 60606 11004 21008 39866 49888 57009 73632 86500 333 91012
91119=
24856 42997 02701 11439 21456 30219 40404 58002=
24871 42997 70000 11436 21469 30186 40402 54000 87010=
24928 42999 10000 11467 21496 39976 40435 57013 80001=
24933 42999 50000 11464 21486 30039 40422 51005 80001=
24975 NIL=
25017 42999 20101 11345 21356 30264 40288 53002 82010=
25121 42998 00000 11415 21443 30261 40279 58002=
30173 42999 00000 11491 21516 30168 40480 57003=
30198 42999 00000 11478 21500 39872 40514 58001=
31005 41992 00000 11498 21522 30033 40477 57002 74840=
31011 42999 00000 11470 21502 30025 40455 58001=
31016 41998 80000 11477 21500 30104 40463 54000 77171 80007=
31026 41997 82703 11329 21358 30124 40411 57001 77172 85077=
31041 41997 82501 11365 21388 30124 40389 57002 77172 80007=
31062 42699 80000 11390 21425 39782 40338 52005 86507=
31102 42999 50000 11449 21478 38791 48430 57001 80005=
0000010900
349
UANT99 KDDL 111527
ARP VIR5C 5005N02259W 1526 F350 MS54 191/76 KT
GVHOT DDL XXN 111527 F49A
0000011000
350
UANT99 KDDL 111527
ARP DLH426 5406N02647W 1527 F360 MS58 185/68 KT
DAIGY QXT AOE 111527 J18A
0000011000
351
UANT99 KDDL 111527
ARP FDX10 5428N04607W 1527 F370 MS56 280/57 KT
N886FD QXT AME 111527 F20A
0000011000
352
UANT99 KDDL 111527
ARP MSR985 4713N02526W 1527 F330 MS46 199/75 KT
SUGDL QXT AOE 111527 F34A
0000069300
353
UDEU02 EGRR 111530
AMDAR 1115
ASC EU0103   5216N 00443E 111523 F019 PS017 303/025 TB0 S031
333 F019 VG005=
ASC EU0103   5216N 00443E 111524 F021 PS010 303/025 TB0 S031
333 F021 VG006=
ASC EU0103   5216N 00442E 111524 F024 PS004 303/025 TB0 S031
333 F024 VG007=
ASC EU0103   5216N 00442E 111524 F027 MS005 304/025 TB0 S031
333 F027 VG007=
ASC EU0103   5216N 00442E 111524 F030 MS012 304/024 TB0 S031
333 F030 VG012=
UNS EU0103   5215N 00440E 111524 F045 MS045 313/028 TB1 S031
333 F045 VG025=
ASC EU0103   5212N 00442E 111525 F062 MS062 299/031 TB0 S031
333 F062 VG005=
ASC EU0103   5211N 00443E 111525 F073 MS096 295/035 TB0 S031
333 F073 VG004=
0000068900
354
UDEU02 EGRR 111530 RRA
AMDAR 1114
LVR EU5643   3725N 00946W 111417 F360 MS615 334/046 TB/ S031=
LVR EU5643   3812N 00937W 111424 F360 MS620 333/044 TB/ S031=
LVR EU5643   3900N 00929W 111431 F360 MS623 331/041 TB/ S031=
LVR EU5643   3947N 00920W 111438 F360 MS625 325/039 TB/ S031=
LVR EU5643   4036N 00910W 111445 F360 MS625 321/034 TB/ S031=
LVR EU5643   4124N 00901W 111452 F360 MS630 320/035 TB/ S031=
LVR EU5643   4212N 00846W 111459 F360 MS630 316/037 TB/ S031=
LVR EU5643   4259N 00823W 111506 F360 MS634 312/034 TB/ S031=
LVR EU5643   4343N 00748W 111513 F360 MS635 301/033 TB/ S031=
ASC EU5643   4428N 00713W 111520 F375 MS655 290/028 TB/ S031=
00000000