0000008200
215
SIAL52 EUMS 111500 RRA
AAXX 11154
60633 36/// /0712 10237 21039=
0000008200
216
SIAL53 EUMS 111500 RRB
AAXX 11154
60660 36/// /1809 10258 21062=
0000008200
217
SIAL51 EUMS 111500 RRC
AAXX 11154
60672 36/// /0000 10229 21132=
0000008200
218
SIAL52 EUMS 111500 RRB
AAXX 11154
60661 36/// /1902 10238 21099=
0000008200
219
SIAL54 EUMS 111500 RRB
AAXX 11154
60677 36/// /0000 10209 21071=
0000011000
220
UANT01 CWAO 111523
ARP FDX10 5422N04700W 1523 F370 MS57 280/57 KT
N886FD QXT AME 111523 F19A
0000011000
221
UANT01 CWAO 111523
ARP BAW33K 5213N03841W 1523 F380 MS56 279/38 KT
GVIIJ QXT AOE 111523 F26A
0000010900
222
UANT01 CWAO 111523
ARP BAW9L 5543N03605W 1523 F380 MS58 236/38 KT
GVIIS QXT AOE 111523 F21A
0000022800
223
UAPA01 KWBC 111524
ARP UAL383 3317N 13337W 1512 F370 MS52 252/062KT=
ARP PAL105 18N 160E 1514 F360 MS46 350/010KT=
ARP PAL103 21N 170E 1512 F360 MS45 275/030KT=
ARP ACA064 51N 160W 1515 F330 MS54 254/132KT=
0000012500
224
SIAL20 DAMM 111500 RRA
AAXX 11154
60490 42570 82802 10159 20115 40183 56010 8357/ 333 83630 86460 95900
=
0000013000
225
SIAL22 DAMM 111500 RRA
AAXX 11154
60560 42660 60212 10116 20036 38945 48499 57031 83282 333 83840 83360
95900=
0000038500
226
SIAL21 DAMM 111500 RRA
AAXX 11154
60536 41656 80000 10125 20089 39323 48517 55012 76062 8127/ 333 81833
88460 95970=
60507 41657 81002 10140 20103 40183 58019 70262 8457/ 333 84633 86460
95970=
60550 41460 80000 10093 20026 38680 48520 55003 75052 8663/ 333 86716
83360 95900=
60549 42658 70606 10120 20041 38923 48526 57014 8327/ 333 83830 85460
95900=
0000037100
227
SIAL22 DAMM 111500 RRB
AAXX 11154
60452 42565 82204 10168 20115 40186 56012 882// 222// 2//// 333 88823
91826=
60518 42560 80000 10153 20130 40169 58011 8427/ 222// 20000 333 84820
85360 91806 95900=
60520 42558 70000 10133 20105 40181 55012 878// 333 86626 95900=
60540 42558 81403 10109 20062 39015 48487 56014 8457/ 333 84633 86460
95900=
0000076000
228
SIKZ30 UAAA 111500
AAXX 11151
28978 /24// 81604 11065 21081 39712 40217 54000 885// 333   11065
555   69942=
28984 /19// 81202 11081 21092 39728 40232 53002 77173 8802/ 333  
11070 555   69902=
34398 /15// 82306 10021 20010 30048 40061 53020 70262 889// 333  
10030 555   69952=
34798 32997 82204 10042 20011 30159 40129 52005 8805/ 333   10056=
35173 /15// 71703 11077 21099 39842 40234 53005 70272 87500 333  
11055 555   69942=
35358 /19// 81801 11034 21070 30014 40186 52008 71022 8802/ 333  
11030 555   69932=
35576 328// 81906 11095 21146 39781 40246 53003 8802/ 333   11082=
35699 329// 55603 11090 21156 39517 40305 57009 80003 333   11086=
36686 329// 60000 11100 21144 39849 40300 57005 80004 333   11091=
0000010700
229
SAIN90 VIBN 111430
METAR VIBN 111430Z 08004KT 1000 BR SCT020 FEW030CB BKN100 17/16
Q1018=
0000147100
230
SIMG20 FMMI 111500
AAXX 11154
67002 NIL=

67009 21460 71404 10242 20233 39997 40115 53017 76066 879//
  333 10312 60031 85817 81917 86633 94979 95819=
67012 21570 72606 10238 20226 30103 40114 53021 79599 879//
  333 10338 60262 85820 82920 85640 94979 95879=
67025 NIL=

67027 31570 82810 10295 20251 30076 40097 53007 71522 81938
  333 10325 81820 81920 86273 94961 95811
  555 82360=
67045 NIL=

67072 NIL=

67073 31580 62202 10288 20260 30089 40115 53003 71522 82905
  333 10306 81823 81923 84273 94961 94962 95832
  555 82633=
67083 32580 71214 10240 20190 38755 48528 53017 84935
  333 82820 85273 82920 94969 95839
  555 10298=
67095 31470 70810 10290 20255 30131 40137 53016 71522 84932
  333 10328 82817 81917 83633 85360 94966 94967 95836 95837=
67113 NIL=

67117 NIL=

67137 21360 80402 10224 20209 38906 48511 53006 71799 889//
  333 10274 69951 81710 81817 82917 87620 94999 95879=
67143 32582 20604 10285 20250 30123 40130 53010 82800
  333 10306 82820 92437
  555 81633=
67152 32580 52804 10285 20198 39217 48527 56004 82205
  333 10287 82820 84273=
67157 32580 5//// 10/// 20/// 30145 40152 53004 85800
  333 10/// 83820 84633=
67161 32582 22006 10/// 20/// 30118 40127 54000 82903
  333 10/// 81820 81920 94992 95812
  555 81640 81073=
67197 21465 70206 10246 20237 30137 40147 52009 72196 879//
  333 10300 60051 83816 82916 85633 94967 94968 95837 95838=
0000011000
231
UANT99 KDDL 111522
ARP AFR734 4703N01556W 1522 F340 MS60 224/80 KT
FGITD QXT AOE 111522 F31A
0000011000
232
UANT99 KDDL 111522
ARP UAL16 5306N02607W 1522 F360 MS57 188/63 KT
N48127 DDL IG1 111522 F38A
0000011800
233
SNVD15 KWNB 111400 RRT
BBXX
42022 11141 99275 70837 46/// /1207 10224 40179 91429 555 11076
22082=
0000031800
234
SIVD20 KWNB 111500 RRN
BBXX
44096 11151 99370 70758 46/// ///// 1//// 91517 22200 00070 10803
20602 313// 40802 70013=
44099 11151 99369 70757 46/// ///// 1//// 91518 22200 00068 10903
20903 311// 41101 70016=
41029 11151 99328 70796 46/// /2106 1//// 40157 91500 333 91208
555 11063 22067=
00000000