0000022100
375
SIIN52 DEMS 111500
AAXX 11154
42101 31994 03202 10106 20088 40212 71000
  333 58039=
42071 NIL=
42081 NIL=
42083 NIL=
42112 NIL=
42131 NIL=
42367 NIL=
42475 NIL=
42479 NIL=
42542 NIL=
0000010400
376
SIIN52 DEMS 111500
AAXX 11153
42071 31995 00000 10126 20107 40213 71011
  333 58028=
0000011000
377
UANT01 CWAO 111527
ARP DAL81 4957N04714W 1527 F340 MS60 290/60 KT
N172DN QXT AOW 111527 F90A
0000011000
378
UANT01 CWAO 111528
ARP AZA604 5108N02312W 1528 F380 MS54 199/64 KT
EIEJP QXT AOE 111528 J98A
0000011000
379
UANT01 CWAO 111528
ARP AFR650 4857N03028W 1528 F320 MS47 224/25 KT
FGZNG QXT AOE 111528 F29A
0000011100
380
UANT01 CWAO 111528
ARP DAL271 5206N02308W 1528 F340 MS57 193/73 KT
N185DN QXT AOE 111528 F58A
0000120700
381
SITN20 HTDA 111500
AAXX 11154
63729 32580 20000 10251 20183 38859 48/// 81902
  333 55310 58004 81821 81923=
63733 32580 32708 10260 20180 38845 48490 81932
  333 55305 58004 81824 81926 83076=
63756 32580 32812 10260 20205 38851 48493 81902
  333 55310 58002 81825 81926 83079=
63791 32680 10916 10324 20125 39096 48499 81301
  333 55310 58002 81940=
63801 32580 61806 10254 20214 39187 48520 81931
  333 55300 59001 81824 81925 86080=
63832 32580 60000 10285 20182 38798 48475 82930
  333 55310 58003 82826 81927 84358=
63862 32580 10000 10304 20157 38866 48487 81963
  333 55310 59011 81828 81929=
63866 32680 10000 10341 20182 39483 48/// 81100
  333 55305 59006 81830=
63870 32580 10816 10292 20219 30077 40095 81200
  333 55310 58001 81820=
63881 25/80 81409 10218 20150 38198 48/// 82972
  333 553// 59009 82820 81922 88073=
63887 32580 30000 10274 20132 38568 48486 83900
  333 55303 59009 83823 81924=
63894 32580 30414 10288 20230 30043 40103 83200
  333 553// 59003 83826=
63962 32570 40905 10270 20197 38935 48503 83900
  333 55310 58004 83824 81925=
63971 32580 23512 10293 20240 39976 40105 82200
  333 55310 58000 82824=
0000068900
382
UDEU02 EGRR 111530 RRD
AMDAR 1114
LVR EU0285   5146N 00225W 111421 F278 MS485 305/068 TB0 S031=
LVR EU0285   5156N 00337W 111428 F320 MS585 296/068 TB0 S031=
LVR EU0285   5200N 00451W 111435 F320 MS577 291/068 TB0 S031=
LVR EU0285   5203N 00605W 111442 F320 MS575 291/068 TB0 S031=
LVR EU0285   5205N 00719W 111449 F320 MS577 287/061 TB0 S031=
LVR EU0285   5206N 00835W 111456 F320 MS570 279/060 TB0 S031=
LVR EU0285   5206N 00951W 111503 F320 MS567 271/059 TB0 S031=
LVR EU0285   5206N 01106W 111510 F320 MS567 260/056 TB0 S031=
LVR EU0285   5205N 01221W 111517 F320 MS565 248/064 TB0 S031=
LVR EU0285   5203N 01337W 111524 F329 MS590 236/067 TB0 S031=
0000042900
383
UDAC02 EGRR 111530
AMDAR 1114
LVR EU0161   6749N 02020E 111450 F015 MS220 207/003 TB/ S031=
LVR EU0161   6717N 02015E 111457 F245 MS430 059/026 TB/ S031=
LVR EU0161   6623N 02000E 111504 F391 MS500 352/019 TB/ S031=
LVR EU0161   6528N 01945E 111511 F400 MS510 323/017 TB/ S031=
LVR EU0161   6435N 01932E 111518 F400 MS510 296/021 TB/ S031=
LVR EU0161   6342N 01917E 111525 F400 MS510 287/026 TB/ S031=
0000003900
384
SIVX21 RJTD 111500
NIL=
0000068800
385
FQBW21 VGDC 111530
FLEET  FORECAST  FOR  AREA C-90  VALID  FOR 12 HOURS 
COMMENCING 2200 U.T.C  OF  11.01.2014:
-------------------------------------------------

PART ONE       :  NO STORM WARNING.
PART TWO       :  SEASONAL LOW LIES OVER SOUTH BAY EXTENDING ITS 
TROUGH TO NORTH EAST BAY.

PART THREE  : 

WEATHER :  TEMPORARY  PARTLY  CLOUDY   OVER  AREA C-90.
WIND    :  NORTH/NORTH-EASTERLY, 08-12 KTS.

VISIBILITY      :   03-05 KMS. REDUCING TO 1000 METERS  OR  LESS  
                  IN  MIST/FOG.


OUTLOOK FOR SUBSEQUENT 12 HOURS: LITTLE CHANGE.

MEAN SEA LEVEL PRESSURE OF DHAKA AT 11,1200 U.T.C:
DHAKA= 1015.4  HPA.

0000030500
386
UDEU02 EGRR 111530 RRE
AMDAR 1114
LVR EU3080   5158N 00726E 111456 F360 MS502 259/067 TB/ S031=
LVR EU3080   5241N 00829E 111503 F359 MS485 263/056 TB/ S031=
LVR EU3080   5323N 00935E 111510 F360 MS500 259/056 TB/ S031=
LVR EU3080   5405N 01043E 111517 F360 MS502 267/056 TB/ S031=
0000056100
387
UDEU02 EGRR 111530 RRF
AMDAR 1115
DES EU7724   6513N 02210E 111519 F060 MS180 075/034 TB/ S031=
DES EU7724   6517N 02213E 111520 F049 MS168 075/033 TB/ S031=
DES EU7724   6520N 02216E 111521 F044 MS155 076/030 TB/ S031=
DES EU7724   6523N 02220E 111522 F035 MS143 084/027 TB/ S031=
DES EU7724   6526N 02220E 111523 F028 MS135 086/028 TB/ S031=
DES EU7724   6529N 02218E 111524 F019 MS175 075/031 TB/ S031=
DES EU7724   6530N 02214E 111525 F010 MS166 062/028 TB/ S031=
DES EU7724   6532N 02210E 111526 F003 MS170 027/018 TB/ S031=
0000190100
388
UDEU02 EGRR 111531
AMDAR 1115
ASC EU0517   5135N 00041E 111507 F009 PS047 299/017 TB/ S031=
ASC EU0517   5134N 00042E 111507 F017 PS022 300/015 TB/ S031=
ASC EU0517   5133N 00043E 111507 F024 PS002 297/013 TB/ S031=
ASC EU0517   5131N 00043E 111507 F032 MS017 299/014 TB/ S031=
ASC EU0517   5130N 00044E 111507 F043 MS032 311/022 TB/ S031=
ASC EU0517   5129N 00044E 111507 F052 MS040 320/027 TB/ S031=
ASC EU0517   5128N 00045E 111507 F057 MS050 316/029 TB/ S031=
ASC EU0517   5127N 00046E 111507 F058 MS050 315/029 TB/ S031=
ASC EU0517   5126N 00046E 111507 F058 MS050 316/030 TB/ S031=
ASC EU0517   5125N 00047E 111507 F058 MS050 317/031 TB/ S031=
ASC EU0517   5122N 00050E 111508 F067 MS062 315/029 TB/ S031=
ASC EU0517   5119N 00051E 111508 F089 MS050 321/051 TB/ S031=
ASC EU0517   5115N 00051E 111508 F113 MS090 300/051 TB/ S031=
ASC EU0517   5111N 00052E 111509 F131 MS130 295/049 TB/ S031=
ASC EU0517   5107N 00053E 111509 F150 MS185 299/050 TB/ S031=
ASC EU0517   5103N 00054E 111509 F171 MS240 299/052 TB/ S031=
ASC EU0517   5059N 00054E 111510 F191 MS287 296/051 TB/ S031=
ASC EU0517   5055N 00050E 111510 F209 MS325 296/056 TB/ S031=
ASC EU0517   5052N 00047E 111510 F224 MS365 299/058 TB/ S031=
ASC EU0517   5048N 00043E 111511 F239 MS402 302/061 TB/ S031=
ASC EU0517   5045N 00039E 111511 F254 MS442 302/063 TB/ S031=
ASC EU0517   5041N 00036E 111511 F266 MS472 307/058 TB/ S031=
ASC EU0517   5038N 00032E 111512 F283 MS505 289/053 TB/ S031=
ASC EU0517   5034N 00028E 111512 F303 MS552 276/056 TB/ S031=
ASC EU0517   5030N 00024E 111512 F310 MS577 282/060 TB/ S031=
ASC EU0517   5027N 00020E 111513 F310 MS575 287/062 TB/ S031=
ASC EU0517   5023N 00016E 111513 F310 MS577 287/060 TB/ S031=
ASC EU0517   5019N 00012E 111513 F310 MS577 289/057 TB/ S031=
ASC EU0517   5015N 00009E 111514 F310 MS577 288/054 TB/ S031=
0000064200
389
FAZM40 NFFN 111500
SAMOA AREA FORECAST VALID FROM JAN 111700 TO 120800 UTC 2014.

SITUATION: AN ACTIVE TROUGH REMAINS SLOW MOVING IN THE VICINITY OF
SAMOA. 

WINDS: [SPEED IN KNOTS]
FL140 20010P02
FL100 17015
FL070 VRB05
FL050 36005
FL020 14015

SIGWX: SHRA/RA. ISOL TSRA/+SHRA.

VIS  : 40KM, 10-15KM IN -SHRA, 5000-8000M IN SHRA, LESS THAN 5000M IN
TSRA/+SHRA.

CLOUD: SCT-BKN ST 006-013 IN SIGWX.
       BKN CU 015-025, TOPS 120-150.
       ISOL CB 015-025, TOPS 300-350.
       BKN SC 030-050.
       OVC ACAS ABV FL100.                                           
                                     
0000004100
390
SING21 AMMC 111500
NIL

0000016400
391
SIVE21 AMMC 111500 RRA
BBXX
JPAT 11154 99336 31139 41997 11318 10222 20195 40123 53010 70200
81005 22253 00217 10707 20201 31416 40604 50303=

0000011500
392
SING22 AMMC 111500 RRA
AAXX 11153
92035 41665 60000 10249 20244 39998 40053 58025 70162 83536=

0000077400
393
SIFJ20 NFFN 111500
AAXX 11154
91650 NIL=
91652 14/// /2103 10244 20233 39968 40041 50021=
91656 NIL=
91659 41599 21411 10265 2024/ 40042 56018 70100 82800
  333 569// 81828=
91660 14/// /1304 10264 20222 39979 40040 50018=
91669 14/// /1805 10253 20211 30028 40041 50018=
91670 14/// /1607 10271 20236 30035 40041 50020=
91676 14/// /1905 10257 20244 39960 40020 58020=
91680 41698 21505 10228 20211 40045 56021 70200 82800
  333 569// 81830=
91682 14/// /0401 10229 20223 30042 40053 58020=
91683 41598 41803 10250 20235 40046 57017 70200 84800
  333 569// 83820=
91691 14/// /1705 10266 20247 30030 40033 50016=
91693 NIL=
91697 14/// /1603 10257 20219 30036 40041 55019=
91699 14/// /1706 10256 20225 30006 40038 50015=
0000013400
394
SIVJ21 AMMC 111500 RRA
BBXX
FHZI 11154 99654 31401 46/// /1514 11010 21010 39904 49915 52012
22200 05016 86010=

00000000