0000009600
475
SNVX19 LFVW 111400 RRA
BBXX
MINFR09 1114/ 99350 11232 46/// ///// 40309 57007=
0000011200
476
SAIR36 OIII 111500 RRB
METAR OIFS 111500Z  00000KT 8000 FEW025CB SCT030 SCT080 M03/M04
 Q1018=
0000011000
477
UANT99 KDDL 111509
ARP ACA871 5206N02323W 1509 F330 MS56 188/80 KT
CFNNQ DDL XXN 111509 F12A
0000011000
478
UANT99 KDDL 111509
ARP AFR842 4750N02238W 1509 F320 MS52 191/94 KT
FGSQX QXT AOE 111509 F22A
0000010900
479
UANT99 KDDL 111509
ARP KLM17 5206N02655W 1509 F350 MS53 179/62 KT
PHAOC QXT AOE 111509 J25A
0000011000
480
UANT99 KDDL 111509
ARP VIR73Q 5200N03031W 1509 F370 MS51 198/40 KT
GVAST DDL XXF 111510 F57A
0000011100
481
UANT99 KDDL 111510
ARP AWE741 4836N02454W 1510 F380 MS48 202/52 KT
N289AY DDL XXN 111510 J33A
0000082500
482
SAUR31 UKMS 111500
METAR UKLR 111500Z 26007MPS 9999 BKN031 BKN100 04/M00
          Q1014 NOSIG=
METAR UKLI 111500Z 24005MPS CAVOK 04/M04 Q1018
         28090070 NOSIG=
METAR UKON 111500Z 26005MPS 230V300 CAVOK 06/M02
         Q1017 NOSIG=
METAR UKCM 111500Z 25008MPS 9999 BKN043 06/00 Q1014
         19190062 NOSIG=
METAR UKCW 111500Z 25009MPS 9999 SCT033CB BKN050
         05/01  Q1008 2719//65 BECMG 26009G15MPS 3100
         -SHRA BKN011 BKN020CB=
METAR UKLU 111500Z 13002MPS 9999 BKN029 03/00 Q1020
         10090070 NOSIG=
METAR UKKK 111500Z 27007MPS 9999 BKN037 05/01 Q1011
         26290250  NOSIG=
METAR UKKM 111500Z 29006MPS 9999 -SHRA SCT022CB
         BKN040 04/01  Q1011=
METAR UKKE NIL=
METAR UKLN 111500Z VRB01MPS CAVOK 04/M02 Q1018
         3309//70 NOSIG=
0000011000
483
UANT99 KDDL 111510
ARP AAL41 6112N02331W 1510 F320 MS61 240/85 KT
N39356 DDL KEF 111510 F95A
0000018400
484
SAJD31 OJAI 111500
METAR OJAI 111500Z NIL=
METAR OJAM 111500Z 30010KT 5000 HZ BKN025TCU 10/06 Q1024 NOSIG=
METAR OJAQ 111500Z 35008KT 9999 BKN030 18/08 Q1024 NOSIG=
0000039100
485
SATR31 UTAA 111500
METAR UTAA 111500Z VRB01MPS 9999 SCT100 SCT230 05/M08 Q1016
30CLRD70 NOSIG=
METAR UTAK 111500Z 15007MPS CAVOK  07/02 Q1014 NOSIG=
METAR UTAV 111500Z 00000MPS 7000 SCT200 03/02 Q1021 NOSIG=
METAR UTAM 111500Z 08004MPS 6000 SCT066 SCT100 OVC230 09/M01 Q1019
 NOSIG  RMK  SC07=
METAR UTAT 111500Z 09003MPS 4000 FEW100 00/M03  Q1021 99CLRD70 NOSIG=
0000009500
486
SAIQ01 ORBI 111500
METAR ORNI 111500Z 35013KT 2500 BR OVC025 10/10 Q1018 NOSIG=
0000179700
487
SAIR31 OIII 111500
 METAR OIAA 111500Z 28006KT 9999 FEW030CB SCT035 BKN100 13/09
 Q1018=
METAR OIAG NIL=
 METAR OIAH 111500Z 13006KT 6000 -RA FEW035CB FEW040 OVC100 09/07
 Q1016=
METAR OIAI NIL=
 METAR OIAM 111500Z 13006KT 4000 BR SCT010 FEW300CB OVC090 12/11
 Q1017 RERA=
 METAR OIAW 111500Z 21006KT 1000 RA FEW005 SCT020CB OVC070 12/11
 Q1017=
 METAR OIBA 111500Z 30006KT 3000 -RA FEW025CB FEW030 OVC080 17/14
 Q1019=
 METAR OIBB 111450Z 12010KT 6000 FEW030CB SCT035 OVC080 13/12 Q1016
 A3002 RERA=
 METAR OIBK 111500Z 09010KT 8000 -RA SCT020 FEW025CB SCT030 OVC080
 16/15 Q1019=
 METAR OIBL 111500Z 03004KT 4000 BR FEW020CB SCT025 OVC080 14/13
 Q1020=
METAR OIBS 111500Z 15012KT 9999 FEW040 OVC100 18/11 Q1020=
 METAR OICC 111500Z 00000KT 7000 FEW035CB SCT040 BKN080 M00/M01
 Q1018 A3009 NOSIG=
 METAR OICI 111500Z 12004KT 9999 FEW025 FEW030CB SCT040 BKN090
 04/03 Q1017 A3003=
METAR OICJ NIL=
 METAR OICK 111450Z 11004KT 7000 TSRA FEW030CB BKN035 OVC070 04/03
 Q1018=
METAR OICS 111500Z 00000KT 7000 FEW040 BKN080 M02/M04 Q1019=
METAR OIFK NIL=
 METAR OIFM 111500Z 31004KT 0200 FG SCT035 OVC090 M01/M01 Q1019
 A3010 RESN TEMPO 0200 FG=
METAR OIFS NIL=
METAR OIGG 111500Z 00000KT 3000 BR FEW030 BKN160 07/06
Q1013=
METAR OIGK NIL=
 METAR OIHH 111500Z 00000KT 2000 BR FEW030CB BKN035 OVC090 M05/M07
 Q1019=
METAR OIHM NIL=
 METAR OIIE 111500Z 29004KT 9000 FEW025 FEW035CB SCT045 BKN090
 02/M01 Q1020 A3013 NOSIG=
 METAR OIII 111500Z 30006KT 1800 BR SCT030 OVC100 01/M01 Q1019
 A3011 TEMPO 0500 BR FEW035CB SCT030 BKN100 TEMPO 1000 BR FEW035CB
SCT030 BKN100=
METAR OIIK 111500Z 00000KT 8000 SCT040 BKN090 M00/M04 Q1019=
 METAR OIIP 111500Z 00000KT 4000 BR FEW020 SCT035 OVC080 M01/M02
 Q1019=
0000148600
488
SAIR31 OIII 111500 RRA
METAR OIIS NIL=
 METAR OIKB 111500Z 27006KT 6000 -RA FEW025CB SCT030 OVC090 13/11
 Q1021 A3017 NOSIG=
METAR OIKK 111500Z 00000KT 9999 SCT035 BKN100 03/M03 Q1020 A3012=
METAR OIKO NIL=
 METAR OIKQ 111500Z 04008KT 7000 -RA FEW025CB SCT030 OVC090 12/08
 Q1021=
METAR OIMB 111500Z 09010KT 9999 FEW040 SCT100 02/M12 Q1019=
METAR OIMC NIL=
METAR OIMD NIL=
METAR OIMM 111500Z 21004KT CAVOK 06/M13 Q1017 A3003=
METAR OINB NIL=
METAR OING 111500Z 00000KT 6000 FEW035 BKN100 08/07 Q1015=
METAR OINK NIL=
METAR OINN 111500Z 18004KT CAVOK 08/07 Q1014=
METAR OINR 111500Z 00000KT 6000 NSC 09/07 Q1013=
METAR OISA NIL=
 METAR OISF 111450Z 00000KT 7000 -SHRA FEW035CB SCT040 OVC090 05/03
 Q1019=
 METAR OISL 111500Z 08004KT 9999 FEW020 FEW030CB OVC080 08/06
 Q1020=
 METAR OISS 111500Z 15004KT 2000 BR FEW030CB SCT035 OVC080 03/03
 Q1018 A3009=
 METAR OISY 111500Z 00000KT 0200 +SN FEW030CB SCT035 OVC080 00/M00
 Q1019=
METAR OITL 111450Z 22019KT CAVOK M01/M04 Q1015=
METAR OITR NIL=
 METAR OITT 111500Z 00000KT 5000 HZ FEW035 SCT180 M07/M12 Q1020
 A3014=
METAR OITU NIL=
METAR OIYY 111500Z 31010KT 6000 FEW035 OVC100 05/M02 Q1020=
METAR OIZB 111500Z 00000KT 9999 FEW040 BKN100 06/M00 Q1022=
METAR OIZC NIL=
 METAR OIZH 111500Z 12012KT 9999 FEW035 BKN090 04/M06 Q1019 A3011
 NOSIG=
METAR OIZI 111500Z 31006KT 9999 FEW020 OVC090 14/M02 Q1022=
METAR OIZJ 111500Z 00000KT 8000 NSC 19/06 Q1020=
0000017700
489
SIOM20 OOMS 111500 RRA
AAXX 11154
41258 36/// /1107 10205 20092 30201 40205
333 0E/// 59014 =
41288 36/// /0715 10207 20115 30185 40208
333 0E019 59002 =
0000013600
490
SAER32 OMAE 111500 RRA
METAR OMAD 111500Z 06005KT 020V090 9999 -RA FEW045 19/16 Q1019 A3010
                    NOSIG=
0000013600
491
SABN32 OBBI 111500 RRA
METAR OMAD 111500Z 06005KT 020V090 9999 -RA FEW045 19/16 Q1019 A3010
                    NOSIG=
0000123900
492
SIRO45 YRBK 111500
AAXX 11151
15004 22597 82601 10038 20002 39882 40225 57004 8357/ 333 60007 91001
91101 555
60000=
15010 22598 70902 10043 20030 30061 40216 57011 87500 333 60007 91002
91103 555
60000=
15014 22698 81300 10045 20008 39987 40217 57007 82577 333 60007 91002
91103 555
60000=
15033 22497 81806 11060 21080 38179 48489 57002 885// 333 60007
95050=
15044 26/// /1201 10056 20015 30016 40216 57007 333 55300 0//// 20056
3////
60007 91106 555 60000=
15047 22997 70000 10035 20014 39784 40229 58005 87070 333 60007=
15063 22597 83201 10058 20012 39852 40216 56006 8537/ 333 60007 91002
91104 555
60000=
15083 22598 83301 10038 20014 39931 40221 56007 8657/ 333 55300 0////
20093
3//// 60007 91002 91102 555 60000=
15085 22597 81601 10039 20008 39767 40219 57008 8587/ 333 60007 91001
91102 555
60000=
15099 22697 80000 10047 21016 39540 42812 57004 8457/ 333 60007=
15119 21/90 92708 11032 21032 38127 48480 58005 77174 333 69917 91014
92722
96049 555 6////=
15140 NIL=
15143 26/// /0602 10052 20027 39699 40222 56008 333 55300 0//// 20105
3////
60007 91103 555 60000=
15163 21396 80000 10010 21004 38648 48493 57006 78582 883// 333 69927
96010=
0000097800
493
SIRO46 YRBK 111500
AAXX 11151
15336 NIL=
15337 22597 42204 10065 20022 39998 40206 54001 81201 333 60007 91004
91104 555
60000=
15387 22997 32702 10070 20038 30210 40214 57010 83030 333 60007=
15406 23/// ///// 10082 20027 30163 40211 57002 333 6///7 555 6////=
15408 21996 72702 10054 20016 39938 40210 55000 71011 80006 333 55307
60007
91003 91104 555 60000=
15409 26/// /3204 10077 20005 30157 40207 57002 333 55302 0//// 20286
3////
60007 91106 555 60000=
15428 22997 32603 10068 20024 30204 40208 57003 80001 333 55303 00170
20345
3//// 60007 91004 91104 92427 555 60000=
15445 22997 02302 10085 20004 30103 40211 56010 333 60007=
15462 22997 52806 10080 2//// 30133 40222 56002 80006 333 60007 91008
555 60000=
15477 NIL=
15479 22997 02704 10090 20008 30077 40270 57013 333 60007 91005 555
60000=
15499 22997 10204 10086 20010 30204 40214 54000 80001 333 55300 60007
91006
91107 92427 555 60000=
15444 NIL=
0000139200
494
SIRO47 YRBK 111500
AAXX 11151
15296 22698 60000 10086 21017 39520 42837 56008 86500 333 60007
95000=
15297 26/// /3203 10022 21029 38667 48506 56006 333 55300 0//// 20111
3////
60007 91105 555 60000=
15319 26/// /0501 10089 21022 39518 42810 55007 333 55300 0//// 20126
3////
60007 91103 555 60000=
15320 22498 70101 10007 21012 38452 48504 56005 87300 333 60007 91004
91104 555
60000=
15340 22997 60000 10096 20005 39962 40211 56008 86070 333 60007 91001
91101 555
60000=
15341 NIL=
15344 22997 62803 10083 21031 39576 42817 55004 86070 333 55302 0////
20296
3//// 60007 91005 91106 555 60000=
15369 22997 32202 10108 21012 39886 40207 57008 83040 333 55306 0////
20440
3//// 60007 91004 91107 555 60000=
15395 22998 42503 10115 21017 39872 40211 55008 81041 333 60007 91006
91109 555
60000=
15412 26/// /2404 10108 20011 39836 40216 56007 333 55305 0//// 20434
3////
60007 91106 555 60000=
15434 22997 22603 10109 20019 30001 40212 56008 80001 333 60007 91005
91107 555
60000=
15465 22997 20000 10126 21007 30154 40226 56010 80001 333 60007=
15469 23/// /0701 10099 20032 30082 40213 57008 333 6///7 91004 91106
555 6////=
15482 22997 11501 10135 20041 30135 40210 57012 81040 333 60007 91002
91103 555
60000=
15494 22997 43503 10113 20029 30170 40216 57007 84040 333 60007 91003
91104 555
60000=
00000000