0000013900
095
SSVX02 CWAO 111500
ZZYY 64732 11014 1500/ 765050 003763 6113/ 22219 
00053 444 20130 11014 1500/ 50101 80140 80003 9/015=
0000016000
096
SSVX02 CWAO 111500
ZZYY 56947 11014 1500/ 331610 105888 6113/ 11131 
40186 52010 22219 00207 444 20130 11014 1500/ 50101 80142 80018 
9/015=
0000012100
097
SICN01 CWAO 111500 RRB
AAXX 11154
71107 27/// /0607 10038 20028 39700 49810 53004 7//4/
333 60017=

0000012100
098
SICN03 CWAO 111500 RRB
AAXX 11154
71421 27/// /2204 11100 21140 39438 40172 58006 7//4/
333 69927=

0000013900
099
SSVX02 CWAO 111500
ZZYY 64727 11014 1500/ 768503 001393 6113/ 22219 
00059 444 20130 11014 1500/ 50101 80138 80003 9/015=
0000016000
100
SSVX02 CWAO 111500
ZZYY 56948 11014 1500/ 316081 090408 611// 11119 
40137 52016 22219 00275 444 20130 11014 1500/ 50101 80144 80013 
9/015=
0000013900
101
SSVX02 CWAO 111500
ZZYY 64740 11014 1500/ 766333 011484 6112/ 22219 
00037 444 20130 11014 1500/ 50101 80148 80031 9/015=
0000015100
102
SSVX02 CWAO 111500
ZZYY 56504 11014 1500/ 317091 093394 6113/ 11132 
40142 52025 22219 00269 444 20130 11014 1500/ 50100 80146 80019=
0000027500
103
SXHW11 KWAL 111522
15D142A4 011152202":PRS 1 #1 1586 1598 1587 1597 1594 1600 1610 1582 1600 1606 :RAD 1 #1 7177 7183 7184 7187 7184 7185 7190 7188 7195 7201 :ENC 2 #5 5087 5093 5108 5115 :SW1 22 #60 0 :SW2 52 #60 0 :BAT 4 #5 12.9 :NAME 15D142A4  31+0NN 216W
0000119000
104
SIAL20 DAMM 111500
AAXX 11154
60360 42665 70505 10167 20128 40183 53001 81532 333 81646 86073 95900
=
60390 42560 71901 10178 20131 40192 58002 81132 333 81830 86358 95900
=
60402 NIL=
60419 42660 50000 10141 20063 40206 55001 83532 333 83640 84073 95900
=
60475 42975 53408 10180 21030 39249 48515 58009 80002 333 85073 95900
=
60490 NIL=
60525 42660 4//// 10188 20062 40180 57030 81930 333 81933 84360 95900
=
60531 42970 60000 10180 20127 40184 55005 83032 333 83360 86070 95900
=
60566 42660 61006 10163 20045 40212 55012 85230 333 85840 83360=
60571 41530 30907 10162 20067 39234 48501 57006 70610 82280 333 82833
95990=
60580 42660 50108 10170 20071 40203 58009 83230 333 83840=
60590 42660 4//// 10185 20063 40188 58020 84200 333 83833 83640=
60611 42860 51610 10219 20004 40176 57009 82034 333 82358 85070=
60620 41930 02413 10254 21082 40142 58011 70610=
60630 41740 52414 10286 21032 40158 56021 70622 84230 333 84856=
60656 42960 03008 10201 21005 40163 56017=
60670 42980 50000 10199 20032 39103 48544 58020 84032 333 84360 95900
=
60680 42980 71510 10198 21059 38668 48546 58023 83032 333 83362 85073
95900=
0000083600
105
SIAL21 DAMM 111500
AAXX 11154
60351 NIL=
60355 42960 63604 10168 20112 40185 53005 80002 333 86073 95900=
60445 42565 72606 10139 20038 39047 48526 55004 82232 333 82830 84360
95900=
60468 42970 7//// 10141 20039 39244 48510 55006 83232 333 83826 84360
95900=
60507 NIL=
60511 NIL=
60535 42565 7//// 10125 20043 38854 48520 56012 8212/ 333 82833 87460
95900=
60536 NIL=
60549 NIL=
60550 NIL=
60555 42670 60000 10155 20080 40214 55014 84230 333 84840=
60559 42760 6//// 10167 20073 40202 55018 84332 333 81930 83833=
60581 42660 70403 10204 20067 40204 55008 83231 333 83840 83360=
60602 42950 11006 10216 20000 40128 57011 81030 333 81360 95900=
60607 41940 52416 10245 21051 40138 56022 70722 80004 333 85075=
60640 42960 50000 10266 21008 40178 56012 80004 333 85073=
60690 NIL=
0000066500
106
SIAL22 DAMM 111500
AAXX 11154
60395 42665 7//// 10181 20095 40188 57011 8357/ 333 83640 85360 95900
=
60421 42965 62408 10143 20052 39173 48520 55003 85032 333 85360 95900
=
60423 42670 7//// 10135 20019 39215 48492 55006 83232 333 83840 85073
95900=
60430 42560 72807 10148 20065 40200 56005 8683/ 333 81826 86633 95900
=
60437 42570 72002 10125 20094 38993 48502 57008 84802 333 82820 84070
95900=
60444 42665 62207 10134 20055 39108 48524 56012 86200 333 86833 95900
=
60452 NIL=
60457 NIL=
60514 42960 73604 10138 20067 39300 48540 58006 8707/ 333 87460 95900
=
60518 NIL=
60520 NIL=
60540 NIL=
60560 NIL=
0000011100
107
UANT01 CWAO 111520
ARP UAL947 5233N04153W 1520 F340 MS60 289/75 KT
N652UA DDL XXN 111520 F69A
0000011000
108
UANT01 CWAO 111520
ARP BAW19V 6014N02650W 1520 F360 MS62 221/62 KT
GYMMT QXS REK 111520 F15A
0000011100
109
UANT01 CWAO 111520
ARP AWE741 4847N02650W 1520 F380 MS48 206/51 KT
N289AY DDL XXN 111520 J35A
0000011000
110
UANT01 CWAO 111521
ARP UAL51 5207N02324W 1520 F310 MS54 176/80 KT
N68061 DDL XXN 111521 F58A
0000010000
111
SIAG02 SABM 111500 RRA
AAXX 11153
87453 42965 00910 10219 20113 39714 40198 52013=
0000128700
112
SIAG02 SABM 111500
AAXX 11154
87344 42962 11407 10251 20098 39625 40184 52015 81060 333 56000
81360=
87349 42970 11608 10244 20123 39808 40194 52011 80005 333 56007
81270=
87371 42962 51415 10256 20147 30150 40171 52021 83076 333 56066
83360 83270=
87374 42565 61120 10259 20096 30084 40170 52021 81576 333 56466
81630 84270=
87395 42565 81417 10244 20220 30106 40150 52019 885// 333 56399
88625=
87418 42965 30907 10279 20061 39385 40155 51004 83080
333 56070 83365=
87436 42970 00910 10300 20058 39370 40154 51021=
87448 NIL=
87467 42970 01416 10232 20129 30066 40200 52008=
87480 42965 11409 10251 20070 30156 40185 52016 80001 333 56006
81070=
87497 42965 41413 10252 20112 30153 40179 51017 80006 333 56006
84270=
87506 42970 03604 10218 20080 38630 48555 51004 333 95000=
87509 42970 10910 10268 20092 39340 40172 50001 81060 333 56060
81360=
87532 42970 00910 10220 20075 30049 40218 51011=
87534 42960 00916 10262 20048 30044 40203 51015=
87548 42962 01412 10230 20055 30106 40202 51009=
87576 42960 21612 10232 20031 30172 40196 52011 80001 333 56006
82070=
87582 42960 21413 10235 20061 30181 40188 52011 80006 333 56007
82270=
87585 42960 21413 10232 20067 30160 40189 53008 80006 333 56001
82270 =
0000009700
113
SIIS42 LLBD 111500
AAXX 11154
40183 43/// /3107 10097 20044 39303 48557 52013 =
0000541400
114
SSVX02 KARS 111518
ZZYY 31547 11014 1006/ 518341 036435 6112/
22219 00272
444 20120 11014 0855/ 50101 80115 80008 9/015=
ZZYY 31902 11014 0900/ 704972 018674 6111/
22219 00279
444 20110 11014 0956/ 50101 80116 80006 9/015=
ZZYY 17514 11014 1010/ 529005 012281 6112/
22219 00238
444 20120 11014 1004/ 50101 80110 80000 9/015=
ZZYY 17523 11014 1011/ 529315 018334 6111/
22219 00255
444 50101 80112 80000 9/015=
ZZYY 33667 11014 1010/ 526582 014376 6111/
22219 00244
444 20110 11014 1005/ 50101 80112 80008 9/015=
ZZYY 33970 11014 1013/ 536045 029968 6113/
22219 00201
444 50101 80074 80013 9/015=
ZZYY 15669 11014 1002/ 700684 028088 6113/
22219 00269
444 20130 11014 0956/ 50101 80086 80002 9/015=
ZZYY 15670 11014 1009/ 519314 025567 6113/
22219 00256
444 20130 11014 1002/ 50101 80094 80015 9/015=
ZZYY 15670 11014 1457/ 519323 025576 6111/
22219 00257
444 20110 11014 1223/ 50101 80094 80013 9/015=
ZZYY 13657 11014 0958/ 718253 020013 6113/
22219 00228
444 20130 11014 0947/ 50101 80068 80020 9/015=
ZZYY 15905 11014 1001/ 510586 006553 6112/
22219 00249
444 20120 11014 0958/ 50101 80100 80011 9/015=
ZZYY 15623 11014 1011/ 523777 029999 6112/
22219 00266
444 20120 11014 1004/ 50101 80100 80003 9/015=
ZZYY 15618 11014 1000/ 704117 010279 6111/
22219 00287
444 20110 11014 0956/ 50101 80102 80002 9/015=
ZZYY 13655 11014 0955/ 719821 030446 6111/
22219 00244
444 20110 11014 0952/ 50101 80100 80009 9/015=
ZZYY 15937 11014 1012/ 527026 023905 6112/
22219 00265
444 20120 11014 1005/ 50101 80096 80008 9/015=
ZZYY 15617 11014 1007/ 511891 032144 6112/
22219 00272
444 20120 11014 1002/ 50101 80086 80008 9/015=
ZZYY 15617 11014 1458/ 511874 032184 6111/
22219 00273
444 20110 11014 1306/ 50101 80086 80007 9/015=
ZZYY 15616 11014 1008/ 517190 025797 6111/
22219 00254
444 20110 11014 1003/ 50101 80096 80048 9/015=
ZZYY 15638 11014 1010/ 524643 028075 6113/
22219 00265
444 20130 11014 1004/ 50101 80100 80002 9/015=
ZZYY 15632 11014 1009/ 525351 035750 6113/
22219 00264
444 20130 11014 1004/ 50101 80094 80006 9/015=
ZZYY 15508 11014 1003/ 513994 034762 6112/
22219 00274
444 50101 80094 80007 9/015=
ZZYY 15631 11014 1004/ 513811 031470 6112/
22219 00269
444 20120 11014 1001/ 50101 80096 80007 9/015=
ZZYY 15630 11014 1006/ 511322 031422 6112/
22219 00269
444 20120 11014 1000/ 50101 80102 80013 9/015=
ZZYY 15630 11014 1457/ 511322 031458 6112/
22219 00271
444 20120 11014 1306/ 50101 80102 80010 9/015=
ZZYY 15629 11014 1009/ 522137 029488 6112/
22219 00264
444 20120 11014 1004/ 50101 80100 80002 9/015=
ZZYY 13654 11014 0953/ 715858 031650 6112/
22219 00248
444 20120 11014 0905/ 50101 80100 80011 9/015=
ZZYY 13654 11014 1503/ 715856 031669 6112/
22219 00249
444 50101 80100 80011 9/015=
ZZYY 15621 11014 1009/ 519965 004989 6111/
22219 00226
444 20110 11014 1001/ 50101 80094 80071 9/015=
ZZYY 15916 11014 1001/ 507250 014989 6112/
22219 00257
444 20120 11014 0959/ 50101 80100 80053 9/015=
ZZYY 15916 11014 1500/ 507246 014978 6112/
22219 00258
444 20120 11014 1135/ 50101 80100 80051 9/015=
ZZYY 15913 11014 1003/ 306695 008006 6112/
22219 00276
444 20120 11014 0937/ 50101 80102 80036 9/015=
ZZYY 15624 11014 1005/ 514014 038256 6111/
22219 00275
444 20110 11014 1002/ 50101 80068 80006 9/015=
ZZYY 15622 11014 1009/ 520905 027065 6113/
22219 00260
444 20130 11014 1003/ 50101 80098 80006 9/015=
ZZYY 15666 11014 1009/ 519756 037276 6112/
22219 00273
444 20120 11014 1003/ 50101 80092 80028 9/015=
ZZYY 15902 11014 1009/ 521889 032488 6112/
22219 00266
444 20120 11014 1003/ 50101 80100 80012 9/015=
ZZYY 31500 11014 0900/ 704010 028345 6111/
22219 00273
444 20110 11014 0722/ 50101 80121 80019 9/015=
ZZYY 31500 11014 1300/ 704010 028345 6111/
22219 00273
444 20110 11014 0722/ 50101 80121 80009 9/015=
ZZYY 15661 11014 1009/ 522878 035621 6112/
22219 00274
444 20120 11014 1004/ 50101 80096 80016 9/015=
ZZYY 31708 11014 0954/ 716866 032069 6111/
22219 00235
444 20110 11014 0906/ 50101 80106 80032 9/015=
ZZYY 31506 11014 0900/ 704528 027201 6111/
22219 00274
444 20110 11014 0902/ 50101 80121 80010 9/015=
ZZYY 31506 11014 1300/ 704558 027183 6111/
22219 00274
444 20110 11014 1211/ 50101 80121 80010 9/015=
ZZYY 44832 11014 0951/ 732109 028223 6112/
22219 00198
444 20120 11014 0911/ 50101 80074 80011 9/015=
ZZYY 41679 11014 1330/ 723855 041258 6113/
22219 00238
33311 88872 20000 32380 43744
444 50101 80007 80104 9/015=
ZZYY 17677 11014 1330/ 517543 014222 6111/
11119 30178 40178 57002
22219 00239
444 20110 11014 1308/ 50101 80090 80000 9/015=
ZZYY 31908 11014 1400/ 704304 017305 6111/
22219 00278
444 20110 11014 1501/ 50101 80118 80006 9/015=
ZZYY 31505 11014 1400/ 704828 018596 6111/
22219 00278
444 20110 11014 0937/ 50101 80120 80009 9/015=
ZZYY 41689 11014 1430/ 722482 041691 6113/
22219 00244
33311 88872 20000 32438 43742
444 50101 80017 80102 9/015=
ZZYY 31512 11014 1300/ 703572 024112 6112/
22219 00274
444 20120 11014 1132/ 50101 80121 80006 9/015=
ZZYY 31983 11014 1300/ 705086 019796 6111/
22219 00278
444 20110 11014 1115/ 50101 80121 80007 9/015=
ZZYY 31910 11014 1400/ 704091 014720 6112/
22219 00283
444 20120 11014 1135/ 50101 80120 80005 9/015=
00000000