0000053600
275
FTIN90 VEPT 111510
TAF VEPT 111500Z 1118/1224 05003KT 1600 BR /-RA FEW018 SCT100 BECMG 1200/1202 00000KT 0800 FG FEW020 SCT100 BECMG 1205/1207 30003KT 1500 BR FEW020 SCT100 BECMG 1208/1210 27005KT 2000 BR SCT020 SCT100 BECMG 1212/1214 27003KT 1500 BR FEW020 SCT100=

TAF VEGY 111500Z 1118/1224 05003KT 1600 BR /-RA FEW018 SCT100 BECMG 1200/1202 00000KT 0800 FG FEW020 SCT100 BECMG 1205/1207 30003KT 1500 BR FEW020 SCT100 BECMG 1208/1210 27005KT 2000 BR SCT020 SCT100 BECMG 1212/1214 27003KT 1500 BR FEW020 SCT100=

0000026000
276
FCIN90 VEPT 111511
TAF VEPT 111500Z 1118/1203 05003KT 1600 BR /-RA FEW018 SCT100 BECMG 1200/1202 00000KT 0800 FG FEW020 SCT100=

TAF VEGY 111500Z 1118/1203 05003KT 1600 BR /-RA FEW018 SCT100 BECMG 1200/1202 00000KT 0800 FG FEW020 SCT100=

0000027800
277
SIQB21 LQSM 111500
AAXX 11151
14648 42770 70000 10130 20089 30110 40229 56005 82570 333 82650 87461
=
14652 41001 42308 11008 21008 37960 48525 56005 74444 83151 333 83800
83358=
14542 42970 63401 10151 20051 30017 40203 56004 84036 333 84360 95900
=
0000173500
278
SIRO44 YRBK 111500
AAXX 11151
15000 22997 73101 10054 2//// 39875 40195 55000 85071 333 55300 60007
91002
91103 555 60000=
15007 23/// /2703 10053 21040 39719 40196 54000 333 6///7 91006 91109
555 6////=
15023 22698 73104 10059 21038 39745 40175 55001 81447 333 60007 91006
91106 555
60000=
15025 23/// /3202 10030 21007 30051 40191 57003 333 6///7 91002 91103
555 6////=
15056 22997 83004 10067 2//// 39836 40190 57004 86077 333 55300 0////
20167
3//// 60007 91006 91107 555 60000=
15069 22597 82105 10000 21033 39112 42803 57004 8357/ 333 60007 91008
91109 555
60000=
15073 22998 63002 10062 21044 39726 40200 54000 81046 333 60007 91004
91105 555
60000=
15088 21098 73210 11072 21106 37955 48384 50000 70242 87500 333 60007
91016
92727 95000=
15094 22997 70000 10056 21087 39713 40188 58002 82057 333 60007=
15109 22598 62802 10066 21038 39756 40196 54001 81541 333 60007 91004
91105 555
32000 42000 50000 60000 70000=
15111 23/// /0301 10068 21018 39920 40187 57002 333 6///7 91002 91103
555 6////=
15113 22997 80000 10076 21038 30037 40198 58004 80007 333 60007=
15154 22997 82801 10076 21029 30047 40191 57005 84077 333 60007 91002
91105 555
60000=
15194 22998 43302 10077 21040 39904 40201 52002 84070 333 60007 91004
91105 555
60000=
15197 22997 62304 10060 20014 39987 40201 57005 80008 333 55300 0////
20151
3//// 60007 555 60000=
15219 23/// /2904 10077 21018 30065 40192 57001 333 553// 60007 91007
91108 555
60000=
15264 22997 31900 10078 20009 30141 40213 52002 82041 333 60007 91001
91103 555
60000=
15265 22997 62203 10079 20017 30128 40204 55004 80008 333 55301 0////
20212
3//// 60007 91004 91107 555 60000=
0000009000
279
SIQT20 OTBD 111500
AAXX 11154
41175 46/// /2402 10153 20128 30149 40206=
0000076400
280
SIGO20 FOOL 111500
AAXX 11154
64501 42465 61808 10286 20244 30089 40099 84903
  333 58010 83811 81920 86073 94942 95832=
64507 41458 70705 10300 20254 3//// 40/// 71799 879//
  333 5//// 84611 81916 87626 94941 95831=
64510 42565 5//// 10300 20226 3//// 4//// 85200
  333 5//// 85823 94939 95839=
64512 42470 5//// 10286 20210 3//// 4//// 85200
  333 5//// 85811 94929 95839=
64550 42470 6//// 10326 20238 30/// 40/// 86800
  333 5//// 84815 86626 94939 95839=
64551 42470 71806 10300 20252 3//// 4//// 8393/
  333 5//// 83815 81923 87362 94944 95834=
64556 42460 5//// 10282 20238 3//// 40/// 85500
  333 5//// 85813 94939 95839=
64570 41157 70000 10221 20220 39595 40091 70196 8551/
  333 58019 83703 84613 87462 =
0000042900
281
UDEU02 EGRR 111510
AMDAR 1114
LVR EU0064   3010N 01351W 111424 F318 MS465 284/051 TB/ S031=
LVR EU0064   3056N 01315W 111431 F380 MS585 293/068 TB/ S031=
LVR EU0064   3141N 01239W 111438 F380 MS590 289/063 TB/ S031=
LVR EU0064   3226N 01202W 111445 F380 MS592 294/061 TB/ S031=
LVR EU0064   3311N 01124W 111452 F380 MS612 297/052 TB/ S031=
LVR EU0064   3355N 01047W 111459 F380 MS607 298/053 TB/ S031=
0000190500
282
UDEU02 EGRR 111510 RRA
AMDAR 1114
ASC EU0149   5154N 00014E 111450 F012 PS040 304/015 TB/ S031=
ASC EU0149   5155N 00013E 111450 F018 PS017 300/015 TB/ S031=
ASC EU0149   5155N 00011E 111450 F022 PS007 300/016 TB/ S031=
ASC EU0149   5155N 00010E 111450 F026 MS002 295/012 TB/ S031=
ASC EU0149   5156N 00009E 111450 F034 MS020 302/016 TB/ S031=
ASC EU0149   5156N 00008E 111450 F039 MS030 311/018 TB/ S031=
ASC EU0149   5156N 00007E 111450 F045 MS025 316/022 TB/ S031=
ASC EU0149   5156N 00006E 111450 F050 MS032 317/022 TB/ S031=
ASC EU0149   5157N 00005E 111450 F055 MS045 318/023 TB/ S031=
ASC EU0149   5158N 00004E 111450 F064 MS065 304/024 TB/ S031=
ASC EU0149   5158N 00001W 111451 F084 MS080 310/034 TB/ S031=
ASC EU0149   5157N 00005W 111451 F105 MS082 311/054 TB/ S031=
ASC EU0149   5156N 00010W 111451 F115 MS115 303/055 TB/ S031=
ASC EU0149   5154N 00015W 111452 F121 MS125 296/053 TB/ S031=
ASC EU0149   5153N 00020W 111452 F135 MS157 297/051 TB/ S031=
ASC EU0149   5151N 00025W 111452 F153 MS197 299/051 TB/ S031=
ASC EU0149   5150N 00030W 111453 F167 MS225 293/050 TB/ S031=
ASC EU0149   5149N 00036W 111453 F175 MS250 294/049 TB/ S031=
ASC EU0149   5147N 00041W 111453 F183 MS267 296/049 TB/ S031=
ASC EU0149   5146N 00047W 111454 F198 MS302 291/053 TB/ S031=
ASC EU0149   5143N 00051W 111454 F209 MS332 294/054 TB/ S031=
ASC EU0149   5139N 00054W 111454 F210 MS332 295/055 TB/ S031=
ASC EU0149   5135N 00056W 111455 F210 MS332 296/053 TB/ S031=
ASC EU0149   5131N 00059W 111455 F210 MS330 298/052 TB/ S031=
ASC EU0149   5127N 00102W 111455 F221 MS352 296/054 TB/ S031=
ASC EU0149   5123N 00104W 111456 F233 MS382 298/057 TB/ S031=
ASC EU0149   5119N 00107W 111456 F243 MS410 300/057 TB/ S031=
ASC EU0149   5115N 00110W 111456 F251 MS425 306/059 TB/ S031=
ASC EU0149   5110N 00113W 111457 F260 MS445 307/057 TB/ S031=
0000030100
283
UDAF02 EGRR 111510
AMDAR 1114
LVR EU0222   2841N 01513W 111446 F250 MS290 282/034 TB/ S031=
LVR EU0222   2800N 01522W 111453 F098 PS000 290/007 TB/ S031=
LVR EU0222   2747N 01527W 111500 F025 PS100 022/004 TB/ S031=
LVR EU0222   2755N 01523W 111504 F000 PS150 156/004 TB/ S031=
0000008900
284
SAIQ01 ORBI 111500
METAR ORBM 111500Z 00000KT 7000 SKC 10/06 Q1019 NOSIG=
0000160500
285
SAFC21 OEJD 111500
METAR
OEAB 111500Z 18006KT 9999 FEW012 SCT015 13/12 Q1025 NOSIG=
OEAH 111500Z 24007KT 9999 SCT035 BKN100 17/14 Q1019 NOSIG=
OEAO 111500Z 33010KT CAVOK 17/M01 Q1023=
OEBA NIL=
OEBH 111500Z 27010KT 9999 FEW030 19/11 Q1019 NOSIG=
OEDF 111500Z 28007KT 5000 HZ FEW040 SCT100 16/11 Q1019 NOSIG=
OEDM 111500Z 03005KT CAVOK 14/02 Q1020=
OEDR 111500Z 17010KT 9999 FEW040 SCT080 16/14 Q1017 NOSIG=
OEGN 111500Z 27005KT 9999  SCT025 27/22 Q1016 NOSIG=
OEGS 111500Z 35008KT CAVOK 15/07 Q1020=
OEGT 111500Z 29008KT CAVOK 12/M01 Q1022 NOSIG=
OEHL 111500Z 32016KT 9999 BKN040 10/02 Q1021 NOSIG=
OEJN 111500Z 30015KT CAVOK 24/03 Q1016 NOSIG=
OEKJ 111500Z 00000KT 9999  SCT040 15/11 Q1021=
OEKK 111500Z 36013KT 9999 SCT040 12/11 Q1020 NOSIG=
OEKM 111500Z 24006KT 9999 FEW025 14/11 Q1025 NOSIG=
OEMA 111500Z 18006KT CAVOK 19/M02 Q1021 NOSIG=
OEMK 111500Z 36002KT CAVOK 26/08 Q1015=
OENG 111500Z 00000KT 9999 FEW025CB SCT030 BKN090 20/10 Q1019 NOSIG=
OEPA NIL=
OERF 111500Z 31015KT 9999 BKN040 BKN100 09/04 Q1020=
OERK 111500Z 36006KT 7000 SKC 14/09 Q1021 NOSIG=
OERR 111500Z 34012KT 9999 SCT020 SCT030 09/09 Q1022 NOSIG=
OERY NIL=
OESH 111500Z 02006KT 9999 SCT040 SCT090 27/10 Q1015 NOSIG=
OESK 111500Z 36010KT 9999 FEW040 08/01 Q1023=
OETB 111500Z 01006KT 9999 SCT040 14/02 Q1023 NOSIG=
OETF 111500Z 05006KT CAVOK 15/04 Q1021 NOSIG=
OETR 111500Z 33006KT 9999 SCT030 BKN100 07/04 Q1022=
OEWD 111500Z 16008KT CAVOK 22/12 Q1017 NOSIG=
OEWJ 111500Z 30013KT CAVOK 21/10 Q1020 NOSIG=
OEYN 111500Z 23008KT CAVOK 23/07 Q1017 NOSIG=
0000181300
286
SASD20 OEJD 111500
METAR OEAB 111500Z 18006KT 9999 FEW012 SCT015 13/12 Q1025 NOSIG=
METAR OEAH 111500Z 24007KT 9999 SCT035 BKN100 17/14 Q1019 NOSIG=
METAR OEAO 111500Z 33010KT CAVOK 17/M01 Q1023=
METAR OEBA 111500Z NIL=
METAR OEBH 111500Z 27010KT 9999 FEW030 19/11 Q1019 NOSIG=
METAR OEDF 111500Z 28007KT 5000 HZ FEW040 SCT100 16/11 Q1019 NOSIG=
METAR OEDM 111500Z 03005KT CAVOK 14/02 Q1020=
METAR OEDR 111500Z 17010KT 9999 FEW040 SCT080 16/14 Q1017 NOSIG=
METAR OEGN 111500Z 27005KT 9999  SCT025 27/22 Q1016 NOSIG=
METAR OEGS 111500Z 35008KT CAVOK 15/07 Q1020=
METAR OEGT 111500Z 29008KT CAVOK 12/M01 Q1022 NOSIG=
METAR OEHL 111500Z 32016KT 9999 BKN040 10/02 Q1021 NOSIG=
METAR OEJN 111500Z 30015KT CAVOK 24/03 Q1016 NOSIG=
METAR OEKJ 111500Z 00000KT 9999  SCT040 15/11 Q1021=
METAR OEKK 111500Z 36013KT 9999 SCT040 12/11 Q1020 NOSIG=
METAR OEKM 111500Z 24006KT 9999 FEW025 14/11 Q1025 NOSIG=
METAR OEMA 111500Z 18006KT CAVOK 19/M02 Q1021 NOSIG=
METAR OEMK 111500Z 36002KT CAVOK 26/08 Q1015=
METAR OENG 111500Z 00000KT 9999 FEW025CB SCT030 BKN090 20/10 Q1019 NOSIG=
METAR OEPA 111500Z NIL=
METAR OERF 111500Z 31015KT 9999 BKN040 BKN100 09/04 Q1020=
METAR OERK 111500Z 36006KT 7000 SKC 14/09 Q1021 NOSIG=
METAR OERR 111500Z 34012KT 9999 SCT020 SCT030 09/09 Q1022 NOSIG=
METAR OERY 111500Z NIL=
METAR OESH 111500Z 02006KT 9999 SCT040 SCT090 27/10 Q1015 NOSIG=
METAR OESK 111500Z 36010KT 9999 FEW040 08/01 Q1023=
METAR OETB 111500Z 01006KT 9999 SCT040 14/02 Q1023 NOSIG=
METAR OETF 111500Z 05006KT CAVOK 15/04 Q1021 NOSIG=
METAR OETR 111500Z 33006KT 9999 SCT030 BKN100 07/04 Q1022=
METAR OEWD 111500Z 16008KT CAVOK 22/12 Q1017 NOSIG=
METAR OEWJ 111500Z 30013KT CAVOK 21/10 Q1020 NOSIG=
METAR OEYN 111500Z 23008KT CAVOK 23/07 Q1017 NOSIG=
0000008600
287
SASD32 OEJD 111500
METAR OETF 111500Z 05006KT CAVOK 15/04 Q1021 NOSIG=
0000043300
288
UDEU02 EGRR 111510 RRB
AMDAR 1114
LVR EU0037   3007N 01415W 111431 F279 MS392 256/035 TB/ S031=
LVR EU0037   3056N 01411W 111438 F320 MS470 282/058 TB/ S031=
LVR EU0037   3142N 01336W 111445 F320 MS502 272/039 TB/ S031=
LVR EU0037   3227N 01301W 111452 F325 MS515 280/046 TB/ S031=
LVR EU0037   3311N 01225W 111459 F340 MS540 295/042 TB/ S031=
LVR EU0037   3354N 01149W 111506 F340 MS547 299/045 TB/ S031=
0000216500
289
SZNZ01 NZKL 111509
CREX++
T000103 A001 D01021 D06025++
-3683144 17478654 AUCT  2014 01 11 15 01 //// 11 07 00 01
05863 3191 05866 3189 05869 3188 05871 3186 05875 3186 05878 3185+
-4402404 -17636748 CHIT  2014 01 11 15 01 //// 11 07 00 01
05304 2129 05289 2117 05305 2135 05313 2145 05296 2131 05306 2144+
-4089929 17623168 CPIT  2014 01 11 15 01 //// 11 07 00 01
04417 2269 04418 2272 04426 2283 04425 2284 04432 2293 04436 2300+
-3618905 17548887 GBIT  2014 01 11 15 01 //// 11 07 00 01
06334 0007 06334 0005 06338 0006 06345 0011 06349 0014 06354 0016+
-3867541 17802288 GIST  2014 01 11 15 01 //// 11 07 00 01
04505 2689 04502 2687 04490 2675 04501 2687 04490 2678 04496 2685+
-4241288 17370277 KAIT  2014 01 11 15 01 //// 11 07 00 01
03859 2244 03854 2242 03859 2251 03856 2250 03862 2260 03846 2248+
-3755040 17815904 LOTT  2014 01 11 15 01 //// 11 07 00 01
04010 0206 04011 0205 03994 0187 03985 0178 03988 0180 03996 0187+
-3704657 17451175 MNKT  2014 01 11 15 01 //// 11 07 00 01
02241 -0120 02245 -0122 02259 -0115 02271 -0108 02261 -0125 02288 -0104+
-3947566 17692007 NAPT  2014 01 11 15 01 //// 11 07 00 01
03561 2008 03570 2019 03561 2012 03563 2015 03552 2006 03537 1993+
-3441483 17304870 NCPT  2014 01 11 15 01 //// 11 07 00 01
-03467 -8209 -03633 -8379 -03638 -8388 -03641 -8395 -03645 -8404 -03769 -8532+
-4581435 17062939 OTAT  2014 01 11 15 01 //// 11 07 00 01
04853 3410 04848 3410 04842 3411 04837 3412 04833 3413 04827 3414+
-2928002 -17789440 RBCT  2014 01 11 15 01 //// 11 07 00 01
06281 1958 06273 1948 06271 1946 06291 1964 06285 1956 06287 1957+
-2925114 -17790384 RFRT  2014 01 11 15 01 //// 11 07 00 01
03251 0147 03242 0137 03246 0140 03253 0145 03264 0155 03236 0125+
-4357010 17277383 SUMT  2014 01 11 15 01 //// 11 07 00 01
02507 1777 02495 1770 02503 1783 02485 1770 02502 1792 02503 1797+
-3764109 17618118 TAUT  2014 01 11 15 01 //// 11 07 00 01
05544 3962 05549 3965 05550 3964 05554 3965 05560 3969 05564 3971+
-4128448 17477985 WLGT  2014 01 11 15 01 //// 11 07 00 01
03526 2016 03520 2013 03523 2018 03521 2019 03519 2020 03514 2018++
7777
0000024100
290
SOAT10 KWAL 111508
FA8005BC 011150837 OT12 ID:KN-BASS-01 DT:2014 01 11 15 06
:RD -3035 -3061 -3045 -3063 -3082 -3045 -3039 -3011 -3034 -3044
:PR 0668 0601 0574 0632 0651 0611 0613 0641 0613 0626
:B 13.7V
 46+1NN 219E
0000011000
291
UANT99 KDDL 111506
ARP FWI542 4753N00939W 1506 F340 MS60 272/52 KT
FORLY QXS LEQ 111506 J93A
0000010600
292
SMRA13 RUHB 111200 CCB
AAXX 11121
24477 42999 80000 11378 21411 39371 40348 54000 8807/=
0000011000
293
UANT99 KDDL 111507
ARP VIR15N 5102N01557W 1507 F340 MS60 226/83 KT
GVGAL DDL BYT 111507 F91A
0000011000
294
UANT99 KDDL 111507
ARP FWI510 4733N03147W 1507 F360 MS49 253/31 KT
FGOTO QXT AOE 111507 J36A
00000000