0000063600
695
SIAA80 AMMC 111500
AAXX 11154
61997 26/// /1110 10103 20092 39754 49926 55019
  333 4//// 60007 90710 91123=
61998 26/// /2316 10057 20018 30040 40077 53005
  333 58038 60007 90710 91126=
68994 42598 11010 10107 20035 30014 40042 53001 81500
  333 10124 20093 91020=
89532 42/80 63004 10007 21020 39914 49941 58001 81532=
89564 45/// /1506 10047 21015 39904 49924 51004 6///0
  333 10072=
89571 41980 12209 10059 21029 39871 49900 53002 6///2 70100 81080
  333 10096=
89611 41530 81805 11001 21005 39851 49903 53012 77177 885//
  333 10052=
89642 40/// /0910 10013 21061 39879 49932 52005=

0000042000
696
SIAU40 AMMC 111500
AAXX 11154
94210 46/// /2510 10292 30084 40090=
94307 46/// /2514 1//// 2//// 30052 40085=
94934 46/// /2807 10184 20110 30148 40171=
94974 46/// /2809 10146 20116 30159 40182=
95283 46/// /1309 10272 20236 30075 40082=
95288 46/// /1123 10277 30061 40076 58016=
95675 46/// /1711=
95756 46/// /0907=
95872 46/// /1711=
95961 46/// /2922 10141 20111 30132 40173=

0000004100
697
SIVA21 AMMC 111500
NIL

0000004100
698
SIVB21 AMMC 111500
NIL

0000004100
699
SIVC21 AMMC 111500
NIL

0000004100
700
SIVD21 AMMC 111500
NIL

0000004100
701
SIVF21 AMMC 111500
NIL

0000021800
702
SIVJ21 AMMC 111500
BBXX
FHZI 11144 99654 31401 46/// /1613 11010 21010 39899 49910 52007
22241 05012 86010=
FHZI 11134 99654 31399 46/// /1615 11007 21009 39899 49910 52011
22242 05009 86008=

0000011600
703
SIER20 OMAE 111500 CCA
AAXX 11154
41218 42960 43003 10202 20087 39899 40208 84030 333 58010 84363=
0000062800
704
SIAU12 AMMC 111500
AAXX 11154
94439 NIL=
94440 NIL=
94444 NIL=
94448 NIL=
94450 NIL=
94457 NIL=
94600 NIL=
94602 NIL=
94603 46/// /2907 10349 20071=
94604 46/// /1307 10287 20126 30106 40113=
94605 46/// /1207 10325 20074 30096 40100=
94607 46/// /1308=
94608 NIL=
94609 NIL=
94612 NIL=
94614 46/// /1207 10303 20098=
94615 46/// /0920 10332 20040=
94616 NIL=
94617 NIL=
94620 NIL=
94621 NIL=
94622 NIL=
94623 NIL=
94625 NIL=
94627 NIL=
94628 46/// /1110 10195 20134 39784 40151=
94629 NIL=
94630 NIL=
94631 NIL=
94632 NIL=
94633 NIL=
94635 NIL=

0000070500
705
SIAU13 AMMC 111500
AAXX 11154
94636 NIL=
94639 NIL=
94640 NIL=
94641 46/// /1109 10196 20128 39785 40152=
94644 NIL=
94645 NIL=
94801 NIL=
95204 NIL=
95214 NIL=
95215 NIL=
95303 NIL=
95304 NIL=
95305 NIL=
95307 NIL=
95316 NIL=
95317 46/// /1701 10279 20186 39875 40076=
95402 NIL=
95600 NIL=
95601 NIL=
95602 46/// /1312=
95603 NIL=
95604 NIL=
95606 NIL=
95607 NIL=
95608 NIL=
95610 NIL=
95611 NIL=
95612 NIL=
95613 NIL=
95614 NIL=
95615 NIL=
95616 NIL=
95617 NIL=
95618 NIL=
95621 NIL=
95622 NIL=
95623 NIL=
95624 NIL=
95625 NIL=
95626 NIL=
95627 NIL=
95628 NIL=
95629 NIL=
95630 NIL=
95645 NIL=

0000216700
706
SZNZ01 NZKL 111515
CREX++
T000103 A001 D01021 D06025++
-3683144 17478654 AUCT  2014 01 11 15 07 //// 11 07 00 01
05883 3185 05887 3185 05890 3184 05894 3185 05898 3185 05902 3185+
-4402404 -17636748 CHIT  2014 01 11 15 07 //// 11 07 00 01
05308 2149 05295 2138 05296 2143 05297 2146 05271 2123 05275 2130+
-4089929 17623168 CPIT  2014 01 11 15 07 //// 11 07 00 01
04423 2289 04418 2287 04412 2284 04406 2280 04394 2271 04394 2274+
-3618905 17548887 GBIT  2014 01 11 15 07 //// 11 07 00 01
06345 0005 06338 -0004 06336 -0008 06347 0001 06353 0005 06350 0001+
-3867541 17802288 GIST  2014 01 11 15 07 //// 11 07 00 01
04508 2697 04504 2694 04498 2689 04503 2695 04507 2700 04512 2706+
-4241288 17370277 KAIT  2014 01 11 15 07 //// 11 07 00 01
03854 2259 03853 2262 03848 2260 03840 2256 03840 2260 03835 2258+
-3755040 17815904 LOTT  2014 01 11 15 07 //// 11 07 00 01
04008 0197 04004 0193 04012 0200 04005 0193 04012 0199 04014 0200+
-3704657 17451175 MNKT  2014 01 11 15 07 //// 11 07 00 01
02276 -0123 02289 -0117 02318 -0094 02306 -0113 02327 -0098 02327 -0105+
-3947566 17692007 NAPT  2014 01 11 15 07 //// 11 07 00 01
03538 1996 03511 1971 03530 1992 03548 2012 03527 1994 03528 1997+
-3441483 17304870 NCPT  2014 01 11 15 07 //// 11 07 00 01
-03710 -8477 -03790 -8561 -03585 -8360 -03526 -8306 -03682 -8465 -03682 -8470+
-4581435 17062939 OTAT  2014 01 11 15 07 //// 11 07 00 01
04822 3415 04817 3416 04812 3417 04806 3417 04800 3417 04794 3417+
-2928002 -17789440 RBCT  2014 01 11 15 07 //// 11 07 00 01
06293 1963 06283 1951 06284 1952 06297 1963 06298 1963 06300 1964+
-2925114 -17790384 RFRT  2014 01 11 15 07 //// 11 07 00 01
03253 0141 03260 0147 03255 0141 03270 0154 03260 0143 03259 0141+
-4357010 17277383 SUMT  2014 01 11 15 07 //// 11 07 00 01
02494 1794 02512 1817 02490 1799 02496 1810 02501 1820 02505 1830+
-3764109 17618118 TAUT  2014 01 11 15 07 //// 11 07 00 01
05565 3970 05569 3971 05567 3967 05566 3964 05565 3961 05572 3966+
-4128448 17477985 WLGT  2014 01 11 15 07 //// 11 07 00 01
03509 2017 03506 2017 03500 2013 03504 2021 03508 2028 03502 2025++
7777
0000008900
707
SAIN32 VOMM 111510
METAR VOMM 111510Z 08006KT 6000 NSC 24/19 Q1015 NOSIG=
0000009200
708
SAIN90 VAAH 111510
METAR VAAH 111510Z 02003KT 3000 HZ NSC 16/09 Q1018 NOSIG=
0000066100
709
UDAF01 FAPR 111512
AMDAR 1115
LVR AFZA01 1144S 01644E 111422 F390 MS540 102/031 TB0 S031 333 F/// VG015=
LVR AFZA01 1222S 01719E 111430 F390 MS538 095/024 TB0 S031 333 F/// VG015=
LVR AFZA01 1312S 01741E 111437 F390 MS538 073/033 TB0 S031 333 F/// VG015=
LVR AFZA01 1355S 01813E 111444 F390 MS537 087/032 TB0 S031 333 F/// VG015=
LVR AFZA01 1439S 01845E 111451 F390 MS535 086/030 TB0 S031 333 F/// VG015=
LVR AFZA01 1521S 01918E 111458 F390 MS535 095/024 TB0 S031 333 F/// VG015=
LVR AFZA01 1602S 01954E 111505 F410 MS582 080/029 TB0 S031 333 F/// VG015=
LVR AFZA01 1642S 02030E 111512 F410 MS582 074/028 TB0 S031 333 F/// VG015=
0000063100
710
SICH02 SCSC 111500
AAXX 11154
85585 42568 31812 10187 20109 40198 53006 83100
  333 56400 83830=
85586 41950 02907 10176 20113 40129 52005 70400=
85629 42970 02503 10232 20101 40102 58012=
85648 NIL=
85672 42980 02105 10229 20119 40117 57016=
85682 42965 02409 10219 20096 40122 57012=
85703 42960 01711 10228 20103 40128 57007=
85732 42997 01920 10161 20090 40140 57011
  333 91135 91518=
85743 42960 02005 10212 20099 40151 58027=
85766 42965 09902 10195 20112 40178 57021=
85782 42970 01809 10187 20115 40191 57019=
85799 42560 11411 10168 20097 40204 56008 81500
  333 56400 81625=
0000066300
711
SIAA01 SAWB 111500
AAXX 11154
88963 42560 32908 10032 21039 39934 49965 57016 81434 333 56666 81625
92426 92734 94067=
88968 42465 81408 10008 21021 39962 49977 56004 886// 333 56199 85710
88625 92417 92733 92851 94079=
89034 41401 80207 11029 21049 39625 49941 52011 77072 8567/ 333 56009
85710 88560 90012 90078 92801 97518=
89053 42562 82915 10008 21031 39982 49997 57012 8457/ 333 56699 84620
88358 92427 92851 94062 94469 98562=
89055 42965 23608 10029 21047 39724 49967 56011 80008 333 56007 82270
92730 92880 95100=
89066 42960 61402 10026 20016 39938 49947 57021 86050 333 56060 86360
92406 92734 92851 94040 95000=
0000005500
712
SIAA01 SAWB 111500 RRA
AAXX 11153
NIL
0000066100
713
UDAF01 FAPR 111513
AMDAR 1115
LVR AFZA44 0823S 03842E 111501 F287 MS268 127/028 TB0 S031 333 F/// VG008=
DES AFZA44 0750S 03849E 111507 F184 MS060 142/019 TB0 S031 333 F/// VG008=
DES AFZA44 0743S 03851E 111508 F161 MS016 142/017 TB0 S031 333 F/// VG009=
DES AFZA44 0737S 03853E 111509 F140 PS020 152/015 TB0 S031 333 F/// VG009=
DES AFZA44 0737S 03853E 111509 F140 PS020 152/015 TB0 S031 333 F/// VG017=
DES AFZA44 0731S 03854E 111510 F119 PS067 132/007 TB0 S031 333 F/// VG009=
DES AFZA44 0724S 03856E 111511 F099 PS110 099/006 TB0 S031 333 F/// VG009=
DES AFZA44 0718S 03857E 111513 F082 PS160 005/006 TB0 S031 333 F/// VG010=
0000078200
714
SICH01 SCSC 111500
AAXX 11154
85406 42982 02209 10254 20161 40110 58006=
85418 42980 02013 10245 20156 40120 51003=
85432 42970 02512 10202 20063 37720 48390 57010=
85442 42560 12010 10232 20151 40125 58004 81500
  333 56400 81627=
85467 42470 83311 10194 20143 40155 51004 885//
  333 56699 88617=
85469 12570 31009 10237 20172 40210 52015 69904 83100
  333 20205 31/// 55112 56200 70000 83820=
85488 42462 62910 10185 20128 40143 51010 86500
  333 56600 82613 86615=
85500 42698 83209 10178 20143 40139 52016 886//
  333 56700 88750=
85556 NIL=
85558 42997 00305 10182 20140 40135 52013=
85564 41997 03406 10160 20135 40131 52009 71000=
85574 42960 09903 10284 20064 40093 58006=
85577 42960 01503 10279 20075 39518 40096 58005=
00000000