0000015700
335
SSVX13 LFPW 111500
ZZYY 44868 11014 1500/ 734749 040047 6113/ 11119 40256 57010 22219
 00186 444 20130 11014 1500/ 50101 80142 80024 9/015=
0000009200
336
SAIQ01 ORBI 111500
METAR ORER 111500Z 00000KT 9999 FEW020 17/05 Q1017 NOSIG=
0000930300
337
SIMX01 MXBA 111500
AAXX 11151
76040 32960 00701 10057 20038 30197 40211 52009 91450 333   
30/// 58021 98660=
76061 32981 00904 10096 20015 30141 40218 52005 91440 333   
30/// 58021=
76109 26/// /2702 10046 21074 38948 40270 51020 7//// 8//// 
91450 333   0//// 30/// 4//// 54/// 56/// 57/// 58061 60007 
8//// 8//// 8//// 9//// 9//// 9//// 444 ///// 555 10034=
76122 32970 00000 10002 21026 38548 40217 5//// 91445 333   
30/// 58052=
76123 26/// 0//// 10029 21016 38598 40274 5//// 7//// 8//// 
91450 333   0//// 30/// 4//// 54/// 56/// 57/// 5//// 69927 
8//// 8//// 8//// 9//// 9//// 9//// 444 ///// 555 1////=
76161 26/// /1002 10090 21028 39939 40198 51012 7//// 8//// 
91450 333   0//// 30/// 4//// 54/// 56/// 57/// 58023 60007 
8//// 8//// 8//// 9//// 9//// 9//// 444 ///// 555 10089=
76220 31958 00000 11058 2//// 38204 40334 52020 702// 91450 
333   34/// 58/// 96126=
76225 32920 00000 10060 21005 38668 40213 52024 91450 333   
30/// 58062=
76256 32980 00000 10114 20088 30170 40184 52005 91445 333   
30/// 58017=
76258 32970 00405 10105 20043 3//// 4//// 5//// 91450 333   
30/// 5600 58///=
76305 32970 03401 10145 21025 30171 40180 52006 91445 333   
30/// 58033=
76323 32970 00000 10004 21035 38353 40369 52021 91455 333   
30/// 58054=
76342 32962 01802 10130 20023 39508 40229 52040 91450 333   
30/// 58070=
76382 32980 00000 10088 20063 38953 40240 52028 91448 333   
30/// 58056=
76393 31920 22502 10176 20060 39619 40200 52036 70400 80008 
91450 333   30/// 56005 58069 91103 91401=
76402 31959 00501 10092 20069 30123 40183 5//// 70544 91445 
333   30/// 58023=
76404 26/// /0501 10180 20122 30154 40178 52017 7//// 8//// 
91450 333   0//// 30/// 4//// 54/// 56/// 57/// 58023 60007 
8//// 8//// 8//// 9//// 9//// 9//// 444 ///// 555 10176=
76405 32870 40502 10184 20126 30158 40180 52014 84030 91450 
333   30/// 56010 58025 84356=
76423 32780 10000 10047 21018 38194 40245 52021 81040 91455 
333   30/// 56090 58039 81358=
76424 26/// /0401 10067 21030 38195 40296 53022 7//// 8//// 
91450 333   0//// 30/// 4//// 54/// 56/// 57/// 58040 60007 
8//// 8//// 8//// 9//// 9//// 9//// 444 ///// 555 10007=
SIMX01 MXBA 111500 
AAXX 11151
76458 32970 01303 10164 20120 30156 40161 52013 91540 333   
30/// 58016=
76471 32780 60000 10054 20003 37717 40200 52008 86050 91450 
333   30/// 56/1/ 58032 86357=
76491 32560 42301 10150 20148 39814 40207 52032 84500 91445 
333   30/// 56900 58046 84630=
76499 31/08 93401 10155 20155 30156 4178 52037 72844 91450 3
33   30/// 58044=
76518 22/// ///// 1//// 2//// 3//// 4//// 5//// 7//// 8//// 
9//// 333   0//// 30/// 4//// 54/// 56/// 57/// 5//// 6//// 
8//// 8//// 8//// 9//// 9//// 9//// 444 ///// 555 1////=
76519 32560 70000 10058 20025 38388 40258 5//// 87100 91448 
333   30/// 56500 58015 87820=
76527 26/// /0503 10081 21044 37500 40292 53022 7//// 8//// 
91450 333   0//// 30/// 4//// 54/// 56/// 57/// 58044 60007 
8//// 8//// 8//// 9//// 9//// 9//// 444 ///// 555 10072=
76543 31610 63601 10188 20185 30161 40194 52030 74242 83530 
91445 333   31/// 56770 58018 83650 83358=
76548 31865 70201 10190 20187 30174 40184 52029 70544 8703/ 
91440 333   30/// 56050 58014 87358=
76556 21970 71203 10136 20098 39136 40143 52014 72162 8707/ 
91445 333   31/// 5605/ 58022 69937 87360=
76577 32970 60000 10126 20100 38068 40187 52010 86070 91440 
333   30/// 56050 58020 86358=
76578 26/// /0000 10126 20058 38069 40189 52014 7//// 8//// 
91450 333   0//// 013// 30/// 4//// 54/// 56/// 57/// 58021 
60007 8//// 8//// 8//// 9//// 9//// 9//// 444 ///// 555=
76581 32970 60101 10156 20111 39093 40221 57016 86030 91450 
333   30/// 56020 58024 86360=
76585 32980 20000 10168 20159 30015 40174 52024 82030 91440 
333   30/// 56/7/ 58015 82358=
76592 26/// /1403 10262 20226 30170 40172 52021 7//// 8//// 
91450 333   0//// 30/// 4//// 54/// 56/// 57/// 59006 60007 
8//// 8//// 8//// 9//// 9//// 9//// 444 ///// 555 10205=
76593 32470 21804 10242 20205 30165 40167 52018 822// 91450 
333   30/// 564// 59010 82820 91006 91518=
76612 21560 70000 10115 20107 38511 40226 52024 75022 83230 
91450 333   31/// 56110 58026 69907 83630 84358=
76625 32475 32901 10118 20072 38168 40171 52017 82130 91440 
333   30/// 56660 58025 82825=
76634 31570 11402 10126 20075 37884 40220 52023 70500 81100 
91450 333   30/// 560// 58027 81827=
76644 32460 31103 10250 20222 30157 40170 52019 83100 91450 
333   30/// 563// 59005 83420 91005 91511=
SIMX01 MXBA 111500 
AAXX 11151
76654 31756 30000 10240 20165 30150 40154 52019 70544 83030 
91455 333   30/// 56090 58010 83359=
76656 32875 83601 10134 20101 38538 40202 52021 8802/ 91450 
333   30/// 5605/ 58020 88458=
76658 31558 30501 10205 20150 39665 40174 52022 70540 81550 
91450 333   31/// 56110 58013 81622 82356 98904=
76659 26/// /0101 10209 20161 3//// 42/// 5//// 7//// 8//// 
91450 333   0//// 30/// 4//// 54/// 56/// 57/// 5//// 60007 
8//// 8//// 8//// 9//// 9//// 9//// 444 ///// 555 10174=
76662 32670 63401 10146 20098 38491 40190 52016 86400 91445 
333   30/// 56/00 58020 86633=
76665 32962 01801 10130 20116 38130 40161 52002 91450 333   
30/// 58008=
76674 26/// /0000 10097 20037 37408 40280 53022 7//// 8//// 
91450 333   0//// 30/// 4//// 54/// 56/// 57/// 58023 60007 
8//// 8//// 8//// 9//// 9//// 9//// 444 ///// 555 10003=
76675 31980 02902 10055 20032 37402 40255 52019 70540 91453 
333   30/// 58024=
76680 31560 61901 10110 20065 37790 40150 52021 70400 85410 
91455 333   30/// 56770 58025 83625 82826=
76681 31775 70000 10076 20068 37812 40219 52019 70542 87700 
91440 333   30/// 56000 58029 87697=
76684 26/// /0902 10117 20049 37860 40218 52022 7//// 8//// 
91450 333   0//// 30/// 4//// 54/// 56/// 57/// 58019 60007 
8//// 8//// 8//// 9//// 9//// 9//// 444 ///// 555 10047=
76685 31960 00000 10114 20051 37890 40188 52021 70544 91450 
333   30/// 58017=
76687 32970 02301 10168 20121 38702 40205 52028 91445 333   
30/// 58014=
76692 31920 10000 10210 20202 30147 40167 52024 71044 80001 
91445 333   30/// 56//5 58002=
76693 26/// /3400 10226 20206 30152 40173 52026 7//// 8//// 
91450 333   0//// 30/// 4//// 54/// 56/// 57/// 58004 60007 
8//// 8//// 8//// 9//// 9//// 9//// 444 ///// 555 10180=
76695 32156 30902 10236 20228 30160 40166 52022 83500 91450 
333   30/// 56200 59001 83703=
76726 32970 03201 10190 20121 38422 40185 52023 91445 333   
30/// 58013=
76727 26/// /0000 10211 20091 38424 40127 52024 7//// 8//// 
91450 333   0//// 30/// 4//// 54/// 56/// 57/// 58018 60007 
8//// 8//// 8//// 9//// 9//// 9//// 444 ///// 555 10128=
76737 32980 03601 10163 20114 38790 40187 52024 91445 333   
30/// 58008 91102 91536=
76742 26/// /2301 10202 20200 30133 40154 53026 7//// 8//// 
91450 333   0//// 30/// 4//// 54/// 56/// 57/// 59003 60007 
8//// 8//// 8//// 9//// 9//// 9//// 444 ///// 555 10183=
SIMX01 MXBA 111500 
AAXX 11151
76750 32560 11003 10268 20234 30165 40175 52028 81100 91450 
333   30/// 56300 59002 81820=
76762 32904 03101 10154 20113 38783 40177 52021 91450 333   
30/// 58020=
76772 33966 02301 10146 20084 38454 40229 52021 7054/ 8//// 
91450 333   0//// 30/// 4//// 54/// 56/// 57/// 58015 60007 
8//// 8//// 8//// 9//// 9//// 9//// 444 ///// 555 10093=
76773 31966 02301 10126 20092 38444 40174 52015 7054/ 91448 
333   30/// 58000=
76775 31970 00401 10159 20100 38548 40202 52017 70244 91445 
333   30/// 59012=
76776 26/// /0402 10168 20107 38534 40171 52019 7//// 8//// 
91450 333   0//// 30/// 4//// 54/// 56/// 57/// 58011 60007 
8//// 8//// 8//// 9//// 9//// 9//// 444 ///// 555 10120=
76805 32070 03302 10250 20196 30148 40151 52021 91450 333   
30/// 58015=
76840 32950 00000 10236 20189 30094 40151 52020 91440 333   
30/// 59014=
76845 31/05 90000 10094 20089 37975 40230 51019 74544 89/// 
91445 333   30/// 58012 89///=
76848 32970 00000 10198 20118 38401 40138 51016 91450 333   
30/// 58006 96722 90728 98908=
76855 32980 03402 10262 20189 30088 40139 52009 91445 333   
30/// 58011 92000=
76903 31981 00801 10274 20253 30019 40162 5//// 70400 91445 
333   30/// 58017=
76160 32962 00401 10094 21012 39938 40194 5//// 91441 333   
30/// 58021=
76253 32982 02302 10152 20019 30095 40185 5//// 91453 333   
30/// 58016 92001=
76412 31966 01801 10094 20083 30132 40179 52011 70544 9142 3
33   30/// 58008=
76525 32780 70503 10081 21033 37500 40198 52022 87050 91455 
333   30/// 56/1/ 58043 87358=
76539 31563 73602 10077 20049 38184 40224 52020 70544 87500 
91450 333   30/// 56800 59026 87624=
76632 31657 21101 10108 20092 37724 40198 52006 70500 82500 
91445 333   30/// 56300 58005 82639=
76640 31758 43201 10186 20169 30176 40188 52027 71044 84//4 
91440 333   30/// 56//9 58014 84058=
76647 32870 31101 10260 20246 30157 40187 52022 83030 91450 
333   30/// 560/0 59003 83358=
76698 32560 10901 10262 20246 30165 40177 52020 81200 91450 
333   31/// 56200 59002 81820=
76833 32970 00000 10247 2//// 30144 40146 52018 91440 333   
30/// 58012 92000=
76843 32965 01401 10220 2183 39517 40163 52024 91442 333   3
0/// 58005=
0000019800
338
SIIE22 EIDB 111500
AAXX 11151
03961 45977 /1602 10055 20030 30128 40206 55004=
03971 45980 /2002 10066 20022 30073 40197 53003=
03979 45972 /2202 10056 20028 30093 40192 53005=
0000120500
339
SIOM20 OOMS 111500
AAXX 11154
41240 NIL=
41241 NIL=
41242 NIL=
41244 NIL=
41246 NIL=
41249 NIL=
41250 NIL=
41252 NIL=
41253 NIL=
41254 NIL=
41255 36/// /2103 10211 20057 39662 40217
333 0E016 59002 =
41256 32560 70709 10200 20090 30197 40207 81531 333 59017 81630
84360 85070=
41257 36/// /0104 10183 20085 39722 40216
333 0E011 59014  =
41258 NIL=
41259 36/// /2714 10054 21319 37128 40006
333 0E/// 59005  =
41262 36/// /0500 10223 20063 39997 40195
333 0E017 58004 =
41263 36/// /1809 10207 20063 39606 40182
333 0E016 59001 =
41265 36/// /1305 10202 20003 39602 40187
333 0E013 59005 =
41267 36/// /0208 10199 20089 30201 40217
333 0E016 59005  =
41268 NIL=
41270 NIL=
41272 NIL=
41275 NIL=
41276 36/// /1015 10205 20085 30046 40204
333 0E014 58002 =
41280 NIL=
41287 NIL=
41288 NIL=
41290 NIL=
41293 36/// /1507 10181 20069 39849 40201
333 0E015 59001 =
41295 36/// /0711 10199 20111 30014 40198
333 0E016 58002 =
41301 NIL=
41304 NIL=
41314 32660 60710 10225 20093 39674 40176 81501
  333 59002 81630 85080 =
41315 NIL=
41316 32560 71011 10236 20146 30152 40178 87500
  333 58000 87625 =
0000020400
340
SAIN90 VABP 111500
METAR VAID 111500Z 00000KT 1500 BR NSC 13/11 Q1020=
METAR VAJB 111500Z 05003KT 1500 BR BKN010 15/12 Q1020=
METAR VABP 111500Z 02006KT 2000 BR NSC 14/12 Q1020 NO SIG=
0000051200
341
SIIN90 VABP 111500
AAXX 11154
42754 31992 00000 10134 20109 39532 40189 71051
  333 58043=
42361 31994 00000 10110 20090 40204 71044
  333 58044=
42559 32996 23601 10126 20076 40196 80002
  333 58050 82075=
42675 31494 60503 10146 20116 40193 71044 86600
  333 58053 86710=
42571 31594 83201 10140 20122 40190 71042 8553/
  333 58045=
42671 31996 10000 10124 20109 39555 40197 70510 81030
  333 58049 81360=
42667 31995 00206 10138 20117 39586 40194 71044
  333 58047=
0000682300
342
AXXX01 EGRR 111500
Model Assessment and Emphasis
Issue 111500
1. Changes in emphasis: Nil sig

2. Emphasis:
Fine  end  to  today  and clear for many tonight.  Temperatures  falling
quickly  this evening, giving a widespread frost. Some fog/freezing  fog
patches  forming  -  mainly in central/E areas, perhaps  locally  dense,
clearing  fairly  readily tomorrow morning. Some sunshine  in  the  E/NE
before cloud and winds increase from the W to bring rain later, but  dry
until evening for much of the E.  Feeling cold.

3. Graphics



4. Uncertainties and amplifying remarks

Analysis and early stages
There  are still some problems in the NAE/GM with their handling of  the
developing low in mid-Atlantic - the E4 seems to have a good fit to  the
obs  in that vicinity at 14Z although right near the edge of its domain.
The  main  shower activity is confined to the far N and NW Scotland  and
still of a wintry mix - note Loch Glascarnoch (264m) reporting snow.  We
will  continue  to  see  the shower activity diminish  -  last  of  all,
overnight in the N isles.

Evolution

The upper trough is moving away eastwards from the UK followed by rising
contour  heights leading to marked stabilization. A surface  ridge  will
move  eastwards  across  the UK tonight bringing  fine  conditions  with
widespread frost and some patchy fog.

Meanwhile complex cyclonic developments continue over the Atlantic as  a
secondary development entrained from low latitudes joins forces with the
original   low   culminating  in  a  single   deep   low.    Significant
uncertainties in the details of the secondary development contribute  to
uncertainties in the timing of the associated frontal zone reaching  the
UK  tomorrow  -  particularly  as regards timings  of  the  system  into
northern   Britain.  However,  NAE  and  E4/GM  timings  have  converged
somewhat. Ahead of the main frontal system the old frontal linkage  will
become entrained erratically northeastwards across the UK as a weak warm
front  introducing  boundary layer moisture  and  some  drizzle  through
tomorrow.  However  with  the upper ridge (being  forced  ahead  of  the
frontal  system) slowly crossing tomorrow, eastern areas  should  remain
dry until evening.

Behind  the frontal system an upper trough progressively moves into  the
UK  on  Monday bringing deep instability and showers into the  west  and
progressively the south. A more organised band of showers is  likely  to
move into western areas then advance eastwards.


Precipitation

Deep  instability at first in the NW will steadily stabilize though rest
of  today - snow accumulations from further showers being restricted  to
above 250m.

Rainfall amounts on the occluding system tomorrow not expected to cause
any sig issues -  totals in the west locally of the order 10-15mm on
upslopes - loc 20-25mm suggested by NAE and E4 over Argyll/Bute (see
below). Extent of snow over Scotland tomorrow depends upon the degree of
'ponding' of cold air and the forward ppn edge. There may some transient
wet snow to relatively low levels Central Belt northwards but any
accumulations likely to be restricted to high ground (around 400m at
first then rising further). NAE indicates over 10cm gathering over
Stirling and Perth/Kinross which looks excessive but allow for loc a few
cm with sig uncertainty.

Winds  See below. Gales in the N Isles easing this evening. Risk of
gusts to gale along exposed W coasts ahead of the main front tomorrow.

Temps/ice/fog

A widespread frost tonight- giving icy patches where seepage still
occurring and in W scotland following late showers.  Mins loc MS3 to
MS4C inland, and locally as low as MS6C N/NE Scotland. Some fog/fzfog
also likely in the ridge axis, especially E England. This likely to be
fairly shallow, but may be locally dense. Fog patches reforming readily
in N Ireland after sunset but lifting early in the night as gradients
increase. UKV has surprisingly little given slack gradients, wet ground
and fog points probably just below zero.  E4 has more - perhaps too much
so reduced slightly for modified fields.  One complication is that f/c
tephis bring much drier air to just above the surface overnight from the
NW generating a hydrolapse which may act to restrict the fog formation.
Hoar frost formation is also likely - depleting lower layers of
moisture.

Fog should also lift/clear from the S late in the night as cloud
encroaches and gradients increase, with any remaining fog in E England
lasting a bit longer but largely clearing mid-morning tomorrow. However,
some residual stratus could persist in NE England.  Increasing cloud and
wind, Sunday will feel decidedly cold across many areas

Milder generally overnight Sun/Mon with air frost largely restricted to
N Scotland and perhaps N Ireland.

Latest guidance for ongoing river and ground water flooding:
The FGS is now reflecting residual river and groundwater flooding
impacts following recent heavy rainfall.
There is an ongoing MEDIUM likelihood of significant disruption in
places during the next 5 days. The significant river flooding impacts
are on the large, slower responding river Thames, with minor impacts on
the river Severn too. There is also significant flooding in the Somerset
Levels.
Parts of Dorset and south Wiltshire have continuing significant
groundwater flooding, and significant groundwater flooding is now also
possible in east Hampshire and parts of West Sussex.
Uncertainties in the rainfall forecast for Wednesday and Thursday mean
specific flood risk forecasts are not being issued at this time, but
there is scope for some heavy rainfall resulting in further significant
flooding from this rain, especially across southern parts of England,
where catchments remain very responsive.

For more local details on the flood risk, please refer to the
Environment Agency web site or call the Flood Line number 0845 988 1188.



Additional Figures

E4 fog fraction - uncertainty re fog extent tonight











WBFL and precip from E4






























E4 gusts based on 10 m wind ratio










 UKV mins tonight - reasonable guide












24hr ppn to 06Z Monday - encompasses passage of frontal system. Useful
guide.










UKV snow depth change in 24hr to 21Z tomorrow - useful guide re snow
potential over Scotland. Unlikely to cause sig issues





Martin Young
Chief Forecaster
TOO: 111510
0000037500
343
SIMG21 FMMD 111500
AAXX 11154
67017 NIL=
67020 NIL=
67022 NIL=
67023 21458 81806 10242 20239 30118 40124 53012 79196 889//
  333 10312 60101 85817 81917 88640 94972 94978 95872 95878=
67037 NIL=
67067 22570 62604 10254 20207 39268 48530 53013 85902
  333 10/// 60021 81820 82920 94965 94966 95816 83627
  555 81073=
67107 NIL=
67131 NIL=
0000128100
344
SITH20 VTBB 111500
AAXX 11154
48300 32560 10000 10200 20181 39848 40167 52021 81500
  333 58006=
48327 32960 00000 10213 20170 39807 40168 52018 
  333 58007=
48331 32960 00000 10195 20154 39938 40173 52023 
  333 58010=
48353 31950 00000 10187 20155 39874 40171 52021 71000 
  333 58002=
48356 32960 01404 10220 20157 39982 40183 52020 
  333 58002=
48375 32960 00000 10230 20173 39919 40147 52020 
  333 58005=
48378 31950 20000 10224 20194 30106 40159 52014 71000 80005
  333 58004=
48381 32960 20406 10236 20147 39950 40170 52022 80005
  333 58006=
48407 31959 30205 10235 20170 30017 40160 52009 71010 80005
  333 59003=
48431 31957 20000 10226 20171 39950 40166 52019 71000 80005
  333 58006=
48456 32960 30000 10252 20186 30138 40152 52014 80001
  333 58003=
48480 31557 20305 10259 20189 30137 40142 52014 71000 82531
  333 58004=
48500 31940 30000 10243 20196 30130 40137 52006 71011 80005
  333 59007=
48551 21456 70000 10250 20243 30138 40146 52018 76022 83867
  333 58002 69915=
48565 32560 60000 10267 20232 30121 40131 52021 82246
  333 58005=
48569 32560 60702 10254 20218 30108 40149 52024 82246
  333 58009=
48583 31450 80000 10233 20224 30138 40144 52016 71022 82846
  333 58008=
0000126700
345
SITH21 VTBB 111500
AAXX 11154
48303 32960 00000 10189 20166 39721 40171 50017 
  333 58012=
48328 32960 00000 10215 20183 39901 40183 52033 
  333 58012=
48330 31950 20000 10201 20177 39980 40171 52022 71000 80005
  333 58010=
48351 31956 00000 10230 20164 30085 40160 52023 71000 
  333 59001=
48354 32960 20000 10205 20165 39968 40176 51021 80005
  333 58004=
48376 31950 00000 10224 20184 30020 40168 52018 71000 
  333 58003=
48377 31956 00000 10205 20181 39994 40162 52016 71000 
  333 59003=
48379 32960 00000 10220 20188 30011 40146 52009 
  333 58003=
48400 31950 20000 10227 20189 30119 40160 52019 71000 80005
  333 58002=
48432 31956 00304 10235 20168 39991 40162 52013 71000 
  333 58002=
48455 32960 30000 10265 20199 30148 40153 52019 80005
  333 58001=
48462 31958 00000 10245 20178 30101 40158 51013 71000 
  333 58007=
48475 31958 00000 10263 20179 30141 40148 52017 70500 
  333 58007=
48477 31930 40000 10237 20214 30124 40149 50021 71000 81045
  333 58006=
48517 31550 20000 10250 20226 30141 40148 52020 71000 81105
  333 58006=
48532 32560 20202 10263 20208 30133 40142 52018 81105
  333 58003=
48567 32560 20405 10255 20225 30118 40136 52018 81105
  333 58004=
0000058900
346
SIGB20 GBYD 111500
AAXX 11154
61701 42960 03607 10270 20123 40115 80000
  333 59005=
61705 42960 02605 10300 20146 4//// 80000
  333 5////=
61707 42960 03606 10305 20105 4//// 80000
  333 5////=
61711 42960 01803 10380 20153 4//// 80000
  333 5////=
61712 42960 01418 10305 20106 4//// 80000
  333 5////=
61717 42960 03605 10316 20066 4//// 80000
  333 5////=
61721 42960 03606 10320 20123 4//// 80000
  333 5////=
61722 NIL=
61731 42960 00902 10328 20094 4//// 80000
  333 5////=
61733 42960 00903 10328 20087 4//// 80000
  333 5////=
0000154400
347
SITH40 VTBB 111500
AAXX 11154
48310 31956 00000 10192 20177 39709 40174 51017 71000 
  333 58013=
48325 NIL=
48329 NIL=
48352 31957 21002 10220 20171 39973 40177 52019 71000 82030
  333 58009=
48357 32962 10704 10219 20159 30014 40187 52018 80001
  333 58005=
48380 31940 00000 10221 20189 30069 40164 52014 71000 
  333 58006=
48383 32960 00000 10220 20171 30017 40180 52021 
  333 58003=
48403 31958 30102 10231 20147 39955 40169 52018 70511 80005
  333 58012=
48405 32960 20000 10240 20163 30001 40166 52020 80005
  333 58003=
48420 31958 30000 10250 20196 30141 40146 52018 71011 80005
  333 58001=
48421 31940 20000 10213 20194 30045 40161 52025 71000 80005
  333 58003=
48425 31930 20000 10240 20196 30147 40157 52018 71000 80005
  333 58003=
48426 32960 40000 10256 20165 30142 40155 51020 80006
  333 58003=
48429 32960 30104 10267 20165 30151 40158 52020 80001
  333 58010=
48430 31956 20703 10257 20155 30145 40152 51016 70500 80005
  333 58000=
48450 31956 00000 10232 20189 30123 40156 52020 71000 
  333 58004=
48459 31959 00000 10278 20190 30143 40146 50018 70500 
  333 58000=
48465 31958 23408 10260 20207 30151 40155 51023 71000 80005
  333 58008=
48550 31558 60000 10260 20246 30138 40145 52016 71022 82146
  333 58007=
48552 32460 73103 10247 20238 30138 40145 52019 83806
  333 58005=
48566 32560 30908 10267 20224 30137 40145 52033 82105
  333 58015=
48568 31458 60604 10270 20213 30140 40147 52016 71022 82206
  333 58009=
0000139700
348
SITH41 VTBB 111500
AAXX 11154
48315 31950 00000 10185 20168 39901 40178 52020 71000 
  333 58003=
48374 31957 00000 10215 20156 30002 40171 52019 71000 
  333 58006=
48382 NIL=
48385 31950 00000 10180 20154 39636 40167 52024 71000 
  333 58003=
48390 31920 10906 10216 20165 30014 40179 52023 71000 80001
  333 58005=
48402 31958 30000 10227 20192 30139 40159 52019 71011 80005
  333 58000=
48413 31958 20000 10224 20186 30078 40160 52020 71000 80005
  333 58002=
48416 NIL=
48418 32960 00000 10213 20167 30099 40160 52018 
  333 58005=
48434 31956 20000 10220 20180 39940 40164 52016 71000 80005
  333 58004=
48436 31958 20000 10210 20186 39951 40162 52016 71000 80005
  333 58004=
48439 31950 00000 10232 20189 30137 40152 52016 71000 
  333 58000=
48460 31959 00000 10270 20175 30114 40145 52025 70500 
  333 58002=
48461 32962 20606 10270 20201 30078 40148 52008 80005
  333 58004=
48478 31956 20000 10248 20223 30143 40148 51019 71000 80005
  333 58008=
48501 31956 20000 10257 20193 30131 40135 50013 71000 80001
  333 58002=
48561 32560 40000 10278 20220 30122 40131 52016 82205
  333 58004=
48564 32560 30000 10275 20223 30134 40138 52026 82145
  333 58008=
48570 32560 60508 10271 20190 30123 40130 52020 82246
  333 59004=
48580 31556 60000 10244 20223 30135 40142 52016 71022 82246
  333 58008=
0000142000
349
SITH42 VTBB 111500
AAXX 11154
48302 NIL=
48304 32962 00000 10170 20149 39699 40172 52017 
  333 58012=
48334 31958 00000 10200 20158 39804 40174 52022 71000 
  333 58014=
48360 32960 00000 10189 20164 39909 40176 52023 
  333 58011=
48372 31940 30000 10230 20209 30100 40159 52017 71011 82035
  333 58003=
48373 31920 20000 10215 20199 30092 40156 52015 71000 80001
  333 58000=
48386 31930 00000 10240 20209 30113 40159 52018 71000 
  333 58005=
48387 31956 00000 10155 20141 39202 40183 52015 71000 
  333 58003=
48408 32960 23602 10228 20169 30015 40167 52017 80001
  333 58003=
48415 31956 20000 10240 20176 30144 40155 52020 71000 80001
  333 58009=
48433 31957 20000 10220 20188 39994 40162 52011 71000 80005
  333 58002=
48437 32960 00000 10207 20171 39953 40168 52011 
  333 58001=
48440 31958 00000 10230 20194 30100 40151 51015 71000 
  333 58000=
48451 NIL=
48454 NIL=
48457 NIL=
48463 NIL=
48464 31957 03401 10230 20207 30139 40152 52020 71000 
  333 58002=
48479 31940 20000 10250 20169 30088 40141 52013 70500 80005
  333 59004=
48520 31556 60000 10238 20226 30130 40146 52028 71022 82546
  333 58005=
48554 31450 80000 10251 20242 30141 40145 52017 71022 83877
  333 58006=
48563 32560 60000 10251 20220 30102 40138 52019 82236
  333 59005=
48571 32560 40000 10260 20224 30131 40143 52025 82201
  333 58005=
0000142900
350
SITH43 VTBB 111500
AAXX 11154
48307 31556 10000 10173 20159 39791 40182 51017 71000 81100
  333 58007=
48324 32960 20000 10197 20179 39939 40164 52018 80005
  333 58006=
48333 31957 00000 10190 20156 39867 40176 52019 71000 
  333 58005=
48350 32960 00000 10178 20161 39869 40177 52016 
  333 58008=
48355 32960 00000 10210 20169 39959 40183 50023 
  333 58000=
48358 31958 10000 10196 20170 30009 40190 52018 71000 80001
  333 58006=
48384 NIL=
48401 31956 20302 10245 20182 30064 40172 52021 71000 80005
  333 58008=
48404 32960 00000 10216 20165 39989 40171 52018 
  333 58008=
48409 31958 00304 10238 20170 30017 40167 52015 71000 
  333 58008=
48419 NIL=
48427 31956 20000 10208 20184 30144 40152 50017 71000 80005
  333 58012=
48435 31957 11005 10215 20129 39720 40164 52015 70500 80001
  333 58003=
48453 32960 30000 10264 20194 30149 40152 52026 80005
  333 58003=
48458 32960 20000 10239 20173 30086 40167 52019 80001
  333 58001=
48474 NIL=
48481 NIL=
48555 31556 60000 10244 20229 30126 40169 51015 71022 82176
  333 58008=
48556 31560 60000 10255 20233 30123 40140 52034 71022 82506
  333 58006=
48557 31557 60000 10250 20232 30104 40139 52016 71022 83206
  333 59002=
48560 31557 70000 10257 20242 30137 40142 52015 71022 82256
  333 58004=
48574 32560 60000 10250 20232 30112 40141 52024 82146
  333 58008=
48581 NIL=
0000011100
351
UANT99 KDDL 111507
ARP DAH2700 4728N01837W 1507 F330 MS56 202/88 KT
7TVJZ QXT AOE 111507 J13A
0000011000
352
UANT99 KDDL 111507
ARP AZA604 5103N01920W 1508 F380 MS59 211/72 KT
EIEJP QXT AOE 111508 J94A
0000069700
353
SIVD15 KWNB 111500 RRG
BBXX
41046 11151 99238 70683 46/// /0910 10256 20184 40241 51013 91450
22200 00259 10806 20805 3//// 41003 70029 333 91212 555 11103
22109 31417 41013 61449 094096 094098 093101 097103 093100 089099
81011 91416=
42060 11151 99163 70632 46/// /0609 10259 40191 51017 91450 22200
00267 11004 20703 307// 41002 70019 333 91210 555 11093 22098
31412 40612 61449 063087 069094 069092 069097 065091 060096 80611
91450=
44064 11151 99370 70760 46/// /2008 10156 40109 58026 91500 22200
00079 10301 70007 333 91211 555 11092 22100=
44062 11151 99386 70764 46/// /1907 10059 40091 57037 91500 22200
00029 10301 70006 333 91208 555 11079 22085=
0000148000
354
SIVD01 PANC 111500 RRB
BBXX
WYQ4356 11154 99461 70840
43/// /2703 10022 49927
2227/ 00001=
WSQ2674 11154 99327 71172
43/// /2603 10101 2//// 40200 5//// 7//// 8////
222// 04150 2//// 3//// 4//// 5//// 6//// 8//// ICE /////=
WDJK 11154 99369 71586
41598 19907 10128 20114 40302 57013 70200 811//
22283 00160 2//// 330// 40907 5//// 6//// 80120 ICE /////=
WUR8857 11154 99430 70879
43/// /2812 10014 49981
2221/ 00010=
WYP8657 11154 99458 70849
43/// /2811 10008 49927
2227/ 00001=
WCF3012 11154 99431 70824
43/// /1914 10046 49950
2221/ 00426=
PHSG 11154 99077 71326
41/97 /0824 40100 51010 723// 8////
22214 20203 323// 40306=
PHEO 11154 99216 71588
41/98 71307 10230 20207 40090 56020 70322 87///
22263 00260 20301 317// 40905 80215=
KAQP 11154 99098 71043
43/// /0816 10267 20216 40116 5//// 7//// 8////
222// 04270 2//// 3//// 4//// 5//// 6//// 8//// ICE /////=
WECB 11154 99327 71172
43/// /2702 10117 20068 40208 5//// 7//// 8////
222// 04147 2//// 3//// 4//// 5//// 6//// 8//// ICE /////=
KAOU 11154 99051 31068
43/// /3311 10269 20238 40126 5//// 7//// 8////
222// 04301 2//// 3//// 4//// 5//// 6//// 8//// ICE /////=
C6VG7 11154 99231 70837
41898 31610 10270 2//// 40197 52009 7//11 831//
22214 00270 20202 331// 4//02 5//02 6//// 8//// ICE /////=
WXJ63 11154 99611 71464
41/97 80000 11033 21067 49865 56/// 702// 8////
222// 00048 2//// 3//// 4//// 5//// 6//// 8//// ICE /////=
00000000