0000011000
935
UANT99 KDDL 111518
ARP EIN125 5957N02558W 1518 F320 MS60 225/82 KT
EIEDY DDL KEF 111518 J72A
0000011000
936
UANT99 KDDL 111518
ARP KLM641 5300N01938W 1518 F320 MS56 198/85 KT
PHBVB QXT EUA 111518 F09A
0000403700
937
SIKZ20 UAAA 111500
AAXX 11151
28676 /16// 61703 11056 21074 30079 40209 52003 70282 86500 333
11050 555   69942=
28766 /19// 81704 11049 21073 39994 40188 58006 71022 8802/ 333
11049 555   69932=
28867 /2498 81401 11050 21078 39909 40185 53007 885// 333   11048
555   69932=
28879 /29// 21001 11092 21112 39922 40220 52002 82030 333   11059
555   69932=
28952 /19// 81604 11057 21087 39981 40176 52006 77173 8802/ 333
11057 555   69902=
28966 /15// 81304 11042 21072 39905 40193 57001 77173 885// 333
11037 555   69982=
29802 329// 81603 11094 21124 30131 40281 58007 80002 333   11087=
29807 /25// 81701 11065 21093 30143 40265 57002 885// 333   11064
555   69902=
34691 /1998 32004 10034 20011 30113 40101 53010 70161 83030 333
10042 555   69942=
35067 /15// 81402 11037 21052 39912 40192 52003 77177 8802/ 333
11035 555   69992=
35078 /15// 81605 11059 21070 39829 40216 53002 72073 886// 333
11055 555   69962=
35085 /26// 81804 11068 21088 39752 40241 53005 83505 333   11061
555   69902=
35108 /15// 82007 10012 20001 39984 40029 57016 76176 8802/ 333
10013 555   60042=
35188 /19// 81804 11072 21117 39804 40251 57001 70273 8807/ 333
11058 555   60012=
35217 /14// 82013 10009 20001 30036 40077 57010 76877 8802/ 333
10010 91019 555   69982=
35229 325// 81804 11012 21028 39876 40150 53003 885// 333   10000=
35302 /15// 82310 10014 21003 30038 40057 57003 76176 886// 333
10017 555   69972=
35357 /15// 81805 11074 21118 39778 40225 53003 70232 885// 333
11065 555   69962=
35394 32998 41402 11079 21150 39574 40274 57005 80001 333   11079=
35406 /25// 82006 10022 20014 30096 40098 53004 885// 333   10026
555   69902=
35416 /15// 81806 10002 21007 30017 40138 57005 77122 8802/ 333
10004 555   69922=
35426 329// 81704 11020 21038 39876 40169 53009 8802/ 333   11003=
35497 319// 51106 11095 21150 39447 40275 57005 73633 84041 333
11087=
35532 31/92 92303 11022 21028 39688 40182 52012 74544 333   11008=
35671 /1598 81504 11082 21105 39788 40232 53007 72272 885// 333
11063 555   69922=
35700 32598 82004 10020 20004 30169 40145 53012 885// 333   10036=
35746 315// 80000 11009 21013 71022 885// 333   10002=
35796 32997 80504 11128 21163 39846 40306 57002 80006 333   11100=
35849 31998 80000 10000 21023 30124 40210 52009 72842 8802/ 333
10001=
35925 NIL=
35953 314// 81801 11019 21034 30097 40229 52019 71022 886// 333
11017=
35969 325// 60000 11054 21096 30068 40246 52010 86500 333   11042=
36003 32998 61802 11132 21169 30129 40290 57004 80006 333   11084=
36152 329// 81104 11151 21168 30105 40306 57007 80007 333   11100=
36177 329// 61503 11095 21159 30070 40327 57007 82031 333   11063=
36208 329// 61002 11113 21171 39322 40349 57007 83041 333   11047=
36397 329// 71616 11120 21190 39737 40328 57009 82043 333   11106
91020 91120=
36428 329// 20802 11211 21226 39840 40386 57015 80001 333   11126
95090=
36535 329// 40000 11202 21241 39710 40398 57010 80001 333   11022=
36639 329// 20000 11230 21252 39674 40338 57002 80001 333   11068=
36821 328// 71901 11097 21138 39781 40292 58001 83032 333   11025=
36859 329// 60000 11105 21134 39478 40297 57003 82045 333   11008=
36864 328// 20000 11128 21171 39374 40322 52001 82030 333   11010=
36870 329// 60000 11037 21123 39239 40274 51005 82042 333   10004=
38001 NIL=
38062 326// 82402 11012 21032 30066 40230 52014 885// 333   10020=
38069 329// 01402 11030 21084 333   10037=
38196 32998 03402 11021 21139 39251 40249 53005 333   10038=
38198 329// 00702 11025 21089 39986 40252 53005 333   10005=
38222 32997 51603 11060 21123 39705 40285 52004 85030 333   11006=
38232 NIL=
38328 329// 01102 11026 21110 39509 40256 53004 333   10104=
38334 32998 00802 11009 21132 39278 40264 53002 333   10071=
38341 32997 01804 11033 21088 39461 40267 53003 333   10043=
38343 32697 20000 11082 21134 39410 40291 52004 82500 333   10052=
38439 32998 01406 10022 21031 39896 40237 53006 333   10036=
0000023500
938
SICI21 BABJ 111500 RRA
AAXX 11151
50468 33/// 93204 11263 21325 40296 57001=
53513 32/61 91801 11141 21206 40439 52010=
54337 42/80 93604 11049 21191 40328 52038=
54497 41/55 90401 11076 21097 40285 57001 710//=
0000009400
939
SICI21 BABJ 111500 CCA
AAXX 11151
54401 32/80 93203 11074 21224 40382 52024=
0000043900
940
SICI22 BABJ 111500 RRA
AAXX 11151
57265 33/// 92202 10032 20009 40336 52010=
58221 31/28 92001 10015 20002 40315 52003 710//=
58457 41218 90202 10052 20042 40299 57006 721//=
58752 31/22 93402 10099 20078 40276 57002 710//=
59134 31/57 92501 10138 20115 40253 52010 710//=
59287 31916 93402 10121 20111 40241 52012 710//=
59316 32/61 90701 10156 20125 40257 52008=
59758 32/56 90402 10190 20177 40223 52012=
0000037000
941
SICI23 BABJ 111500 RRA
AAXX 11151
51133 32/// 93602 11075 21161 40310 57007=
51747 32/// 90000 11168 21227 40494 57004=
53798 31/06 90201 10001 21059 40312 52018 705//=
54102 32/64 90701 11200 21246 40419 52017=
54423 32/80 93202 11044 21210 40348 52030=
57127 32/// 90000 10023 20010 40363 52019=
57131 32/// 92503 10034 21153 40365 52012=
0000028600
942
SICI21 BABJ 111500 RRB
AAXX 11151
51243 32/// 92901 11209 21240 40424 57011=
51288 32/// 91601 11130 21238 38394 57013=
51463 31/58 90902 11189 21211 40385 57016 710//=
51573 33/// 90901 11097 21175 40443 57003=
57083 31/55 92702 10065 21121 40308 52009 705//=
0000029200
943
SICI22 BABJ 111500 RRB
AAXX 11151
58040 31/14 92901 11015 21022 40315 52004 710//=
58102 33/// 92001 10038 21035 40318 52012=
58238 31/08 90702 10045 20035 40310 57001 744//=
58251 31/22 90000 10019 21002 40310 57005 710//=
58847 32/65 93402 10140 20092 40259 52002=
0000049900
944
SICI23 BABJ 111500 RRB
AAXX 11151
50136 33/// 92201 11351 21394 40392 52007=
50774 33/// 92002 11279 21335 40297 52006=
51431 32/// 90701 11111 21140 40305 54000=
52203 32/// 90901 11142 21215 40447 57004=
53646 32/// 93403 11084 21233 40409 52015=
53845 32/// 93604 11032 21224 40394 52016=
54094 42/58 90401 11174 21197 40241 52007=
54161 33/// 93605 11154 21210 40298 52025=
54292 33/// 92703 11101 21198 40235 57002=
54374 33/// 93601 11158 21197 40298 52003=
0000013600
945
SIVD17 CWVR 111500
BBXX
46207 11151 99509 71299 46/// /1102 10052 49800 57018
22200 00077 10907 70033 333 91203 =

0000014000
946
WSCI45 ZHHH 111517
ZHWH SIGMET 4 VALID 111530/111930 ZHHH-
ZHWH WUHAN FIR SEV TURB FCST
E OF E112 BTN FL100/200 STNR NC=
0000038300
947
SIVD15 KWNB 111500 RRL
BBXX
44064 11151 99370 70760 46/// /2009 10161 40107 91510 333 91211
555 11105 22114=
44062 11151 99386 70764 46/// /1807 10057 40090 91510 333 91208
555 11076 22083=
44063 11151 99390 70764 46/// /2007 10062 40068 91510 333 91207
555 11075 22082=
44042 11151 99380 70763 46/// /2104 10091 40086 91510 333 91204
555 11044 22048=
0000015800
948
SIVD19 KWNB 111500 RRC
BBXX
46126 11151 99540 71666 46/// /2405 10035 49802 50005 91500 22200
00048 1//00 70002 333 91207 555 11055 22060=
0000059400
949
SIVD01 PANC 111500 RRC
BBXX
3EUS 11154 99368 70751
41695 /1927 10150 2012/ 40120 57020 7//44 8//7/
22284 04100 20804 31910 41005 5//// 6//// 80130 ICE /////=
WCZ7337 11154 99603 71466
41497 80000 10011 2//// 49881 5//// 702// 8////
222// 0//// 2//00 3//// 4//// 5//// 6//// 8//// ICE /////=
WBN3744 11154 99606 71475
41497 83215 11006 2//// 4//// 5//// 702// 8////
222// 0//// 2//00 3//// 4//// 5//// 6//// 8//// ICE /////=
C6TZ9 11154 99280 50481
417// 60119 10270 20228 40140 54/// 7//22 86///
22214 00260 2//// 3//// 4//// 5//// 6//// 80240 ICE /////=
0000066100
950
UDAF01 FAPR 111517
AMDAR 1115
ASC AFZA47 2607S 02814E 111515 F053 PS249 121/002 TB1 S031 333 F/// VG033=
ASC AFZA47 2607S 02815E 111516 F053 PS250 203/002 TB1 S031 333 F/// VG024=
ASC AFZA47 2606S 02815E 111516 F055 PS238 240/002 TB1 S031 333 F/// VG028=
ASC AFZA47 2606S 02815E 111516 F058 PS235 157/003 TB1 S031 333 F/// VG028=
UNS AFZA47 2605S 02815E 111517 F061 PS235 212/011 TB1 S031 333 F/// VG029=
UNS AFZA47 2605S 02816E 111517 F064 PS230 244/016 TB1 S031 333 F/// VG029=
UNS AFZA47 2605S 02816E 111517 F067 PS230 238/015 TB1 S031 333 F/// VG029=
ASC AFZA47 2605S 02816E 111517 F068 PS222 263/017 TB1 S031 333 F/// VG028=
0000013700
951
SIVF10 EHDB 111500 RRA
BBXX
PEBT 11153 99466 10326 41596 59902 10095 20076 40187 54000 7////
859/0 22212 20300 80085=
0000011000
952
UANT01 CWAO 111518
ARP FDX38 5505N03413W 1518 F350 MS58 196/31 KT
N887FD QXT AME 111518 F34A
0000010900
953
UANT01 CWAO 111518
ARP AUA93 5038N04504W 1518 F320 MS57 282/56 KT
OELAE QXT AOW 111518 F46A
0000021200
954
SIGQ20 FGSL 111500
AAXX 11153
64810 42460 52410 10310 20239 30055 40077 83230
  333 58004 83814 85363=
AAXX 11154
64820 42460 62606 10309 20242 30086 40095 82502
  333 58006 82612 86070=
00000000