0000015800
855
SIVD20 KWNB 111500 RRK
BBXX
42085 11151 99179 70665 46/// /0813 10248 40191 52010 91500 22200
00266 10702 70012 333 91215 555 11141 22153=
0000015800
856
SIVD20 KWNB 111500 RRI
BBXX
41053 11151 99185 70661 46/// /1006 10260 40198 51008 91500 22200
00266 11003 70016 333 91209 555 11068 22074=
0000024900
857
SIVD15 KWNB 111500 RRJ
BBXX
41038 11151 99341 70777 46/// /2008 10157 91500 22200 00137 333
91209 555 11094 22103=
41056 11151 99183 70655 46/// /0808 10263 40196 50010 91500 22200
00266 10603 70015 333 91210 555 11088 22096=
0000037000
858
SIVD19 KWNB 111500 RRB
BBXX
46126 11151 99540 71666 46/// /2406 10037 49803 91448 22200 00048
1//00 70002 333 91208 555 11060 22065=
46126 11151 99540 71666 46/// /2406 10037 49803 91450 22200 00048
1//00 70002 333 91208 555 11060 22065=
46126 11151 99540 71666 46/// /2406 10037 49803 91454 22200 00048
1//00 70002 333 91208 555 11065 22071=
0000013500
859
SIVD17 CWHX 111500
BBXX
44251 11151 99464 70534 46/// ///// 1//// 4//// 5////
22200 0//// 1//// 70/// 333 912//=

0000021300
860
SIVD20 KWNB 111500 RRJ
BBXX
41053 11151 99185 70661 46/// /1106 10258 40199 91450 333 91208
555 11068 22074=
41053 11151 99185 70661 46/// /1106 10256 40200 91440 333 91209
555 11067 22073=
0000072700
861
UDAS02 BABJ 111508
AMDAR 1115
LVR CNFLWT 2857N 10435E 111503 F197 MS174 271/046 TB/ S//1=
LVR CNFLWT 2903N 10434E 111504 F197 MS170 271/052 TB/ S//1=
LVR CNFLWT 2906N 10433E 111505 F197 MS173 269/048 TB/ S//1=
LVR CNFLWT 2908N 10432E 111505 F197 MS175 270/045 TB/ S//1=
DES CNFNXM 2524N 10312E 111504 F107 PS008 252/032 TB/ S//1=
DES CNFNXM 2522N 10309E 111505 F105 PS015 251/032 TB/ S//1=
DES CNFNXM 2520N 10307E 111506 F105 PS013 255/031 TB/ S//1=
DES CNFLWR 3808N 11426E 111504 F224 MS351 271/070 TB/ S//1=
DES CNFLWR 3812N 11433E 111505 F208 MS318 277/068 TB/ S//1=
DES CNFLWR 3815N 11440E 111506 F193 MS303 278/069 TB/ S//1=
DES CNFLWR 3816N 11440E 111506 F192 MS303 278/068 TB/ S//1=
0000011300
862
SIOM20 OOMS 111500 RRD
AAXX 11154
41249 36/// /2806 10185 20082 39471 40156
333 0E013 59001 =
0000029300
863
UDAS02 BABJ 111507
AMDAR 1115
DES CNFOZM 2015N 10956E 111503 F107 PS053 316/013 TB/ S//1=
DES CNFOZM 2014N 10957E 111503 F104 PS060 310/014 TB/ S//1=
DES CNFOZM 2011N 10959E 111504 F093 PS085 322/010 TB/ S//1=
DES CNFOZM 2007N 11003E 111505 F080 PS086 311/012 TB/ S//1=
0000074600
864
SITS20 DTTA 111500
AAXX 11154
60715 32560 40000 10183 20094 30178 40185 58004 82142
  333 59001 82823 83360 91000 91109=
60723 32970 51502 10190 20100 30009 40194 58007 80002
  333 85070 02/19=
60725 32562 60000 10187 20103 30018 40186 58002 81282
  333 81820 84360=
60735 32965 40000 10226 20046 30113 40183 58005 80002
  333 84070=
60745 32960 32910 10169 20043 39826 40192 58007 80002
  333 83070=
60748 32962 22105 10200 20037 39773 40181 58005 80002
  333 82070=
60750 32960 31809 10173 20090 30166 40191 58009 80002
  333 83070=
60760 NIL=
60765 NIL=
60767 32960 32309 10193 20046 30054 40196 58012 80002
  333 83070=
60769 32960 41902 10196 20063 30188 40192 58009 80002
  333 84070=
0000094200
865
SITS21 DTTA 111500
AAXX 11154
60710 32565 72703 10179 20085 30109 40187 58002 81282
  333 81820 83360 85070=
60714 32570 60502 10182 20113 30181 40187 58010 82282
  333 82820 83360=
60720 NIL=
60728 NIL=
60729 NIL=
60731 25960 /0603 10175 20094 30180 40187 58004
  333 59003 60007 91004 91110=
60732 32565 60000 10168 20035 39586 40183 58004 82282
  333 82823 83360=
60734 32970  43504 10193 20026 39669 40178 58010 80002
  333  84070=
60738 32560 33404 10150 21033 38951 48529 58001 83200
  333 83823=
60739 32/60 /2008 10192 20021 39372 40170 58005
  333 91012 91112=
60740 32960 52008 10212 20051 30181 40183 58006 80002
  333 85070=
60742 NIL=
60764 32962 32206 10186 20068 30148 40199 57013 80002
  333 83070=
60770 32975 42304 10239 20091 30057 40191 56009 80002
  333 84070=
60772 NIL=
60775 32962 22506 10221 20017 39850 40196 58007 80002
  333 82070=
60780 NIL=
0000664200
866
SSVX02 KARS 111514
ZZYY 54906 11014 1200/ 561326 156976 6112/
11119 40015 57001
22219 00010
444 2012/ 11014 1124/ 50101 80119 80007 9/015=
ZZYY 54554 11014 1200/ 558337 166074 6111/
11119 49961 52007
22219 00046
444 2011/ 11014 1155/ 50101 80118 80006 9/015=
ZZYY 72834 11014 1200/ 561716 160982 6111/
11119 40005 57004
22219 00013
444 2011/ 11014 1153/ 50101 80119 80007 9/015=
ZZYY 54556 11014 1200/ 558192 167340 6111/
11119 49965 52008
22219 00042
444 2011/ 11014 1154/ 50101 80117 80007 9/015=
ZZYY 54558 11014 1200/ 558322 167915 6111/
11119 49971 52007
22219 00040
444 2011/ 11014 1154/ 50101 80117 80011 9/015=
ZZYY 54907 11014 1200/ 560215 159268 6112/
11119 49998 57001
22219 00016
444 2012/ 11014 1238/ 50101 80118 80007 9/015=
ZZYY 54909 11014 1200/ 560716 157764 6113/
11119 40007 57002
22219 00013
444 2013/ 11014 1238/ 50101 80117 80008 9/015=
ZZYY 54559 11014 1200/ 559322 165995 6111/
11119 49976 52003
22219 00028
444 2011/ 11014 1154/ 50101 80119 80009 9/015=
ZZYY 41715 11014 0830/ 723776 046848 6113/
22219 00239
33311 88872 20000 32390 43748
444 50101 80006 80104 9/015=
ZZYY 41974 11014 1139/ 723380 042872 6113/
22219 00237
444 20130 11014 1126/ 50101 80102 80002 9/015=
ZZYY 41942 11014 1139/ 723323 041430 6111/
22219 00242
444 20110 11014 1125/ 50101 80102 80018 9/015=
ZZYY 13517 11014 1143/ 708913 038176 6112/
22219 00260
444 20120 11014 1131/ 50101 80128 80001 9/015=
ZZYY 15669 11014 1139/ 700688 028139 6112/
22219 00269
444 20120 11014 1131/ 50101 80086 80003 9/015=
ZZYY 54824 11014 1200/ 557660 167317 6111/
11119 49957 52010
22219 00055
444 2011/ 11014 1154/ 50101 80120 80007 9/015=
ZZYY 54855 11014 1200/ 557473 169114 6111/
11119 49964 52006
22219 00054
444 2011/ 11014 1154/ 50101 80120 80024 9/015=
ZZYY 54856 11014 1200/ 555136 172318 6111/
11119 49984 52012
22219 00074
444 2011/ 11014 1155/ 50101 80117 80008 9/015=
ZZYY 54857 11014 1200/ 555846 171108 6111/
11119 49972 52009
22219 00068
444 2011/ 11014 1155/ 50101 80119 80062 9/015=
ZZYY 54560 11014 1200/ 559164 165270 6111/
11119 49972 52003
22219 00031
444 2011/ 11014 1211/ 50101 80118 80011 9/015=
ZZYY 54823 11014 1200/ 557591 167879 6111/
11119 49958 52008
22219 00054
444 2011/ 11014 1212/ 50101 80121 80008 9/015=
ZZYY 41510 11014 1138/ 724321 040103 6111/
22219 00236
444 20110 11014 1125/ 50101 80104 80042 9/015=
ZZYY 41605 11014 0801/ 724512 043698 6113/
22219 00238
33311 88872 20000 32384 43749
444 50101 80010 80102 9/015=
ZZYY 15914 11014 1144/ 706276 035249 6112/
22219 00272
444 20120 11014 1133/ 50101 80100 80007 9/015=
ZZYY 15623 11014 1145/ 523784 030012 6113/
22219 00266
444 20130 11014 1147/ 50101 80100 80004 9/015=
ZZYY 13656 11014 1140/ 719324 037417 6112/
22219 00250
444 20120 11014 1130/ 50101 80102 80013 9/015=
ZZYY 13654 11014 1140/ 715861 031668 6111/
22219 00248
444 20110 11014 1129/ 50101 80100 80014 9/015=
ZZYY 15916 11014 1143/ 507246 014978 6112/
22219 00257
444 20120 11014 1135/ 50101 80100 80060 9/015=
ZZYY 15911 11014 1141/ 711251 040841 6112/
22219 00258
444 20120 11014 1130/ 50101 80102 80007 9/015=
ZZYY 31708 11014 1141/ 716843 032056 6112/
22219 00236
444 20120 11014 1126/ 50101 80106 80035 9/015=
ZZYY 31702 11014 1139/ 716213 043605 6113/
22219 00250
444 20130 11014 1130/ 50101 80106 80029 9/015=
ZZYY 31706 11014 1140/ 716072 037076 6113/
22219 00244
444 20130 11014 1130/ 50101 80104 80044 9/015=
ZZYY 13524 11014 1138/ 720965 032235 6113/
22219 00233
444 20130 11014 1129/ 50101 80072 80010 9/015=
ZZYY 32555 11014 1500/ 712432 110936 6113/
22219 00273
444 20130 11014 1406/ 50101 80102 80044 9/015=
ZZYY 33649 11014 1450/ 533215 083618 6112/
22219 00207
444 20120 11014 1408/ 50101 80007 80000 9////=
ZZYY 32736 11014 1510/ 505580 081907 6111/
22219 00220
444 20110 11014 1456/ 50101 80108 80028 9/015=
ZZYY 32734 11014 1507/ 700166 103345 6113/
22219 00236
444 20130 11014 1402/ 50101 80108 80031 9/015=
ZZYY 71671 11014 1440/ 548662 100275 6112/
22219 00104
444 20120 11014 1349/ 50101 80130 80100 9/015=
ZZYY 32672 11014 1508/ 702047 102356 6111/
22219 00263
444 20110 11014 1458/ 50101 80102 80049 9/015=
ZZYY 32728 11014 1509/ 503063 096746 6112/
22219 00239
444 20120 11014 1503/ 50101 80104 80054 9/015=
ZZYY 32619 11014 1508/ 704291 079665 6113/
22219 00268
444 20130 11014 1455/ 50101 80083 80019 9/015=
ZZYY 32711 11014 1510/ 514307 081176 6112/
22219 00234
444 20120 11014 1501/ 50101 80102 80011 9/015=
ZZYY 32727 11014 1508/ 508016 099315 6112/
22219 00239
444 20120 11014 1501/ 50101 80104 80046 9/015=
ZZYY 32548 11014 1507/ 706085 081017 6112/
22219 00284
444 20120 11014 1453/ 50101 80102 80002 9/015=
ZZYY 32724 11014 1510/ 506356 109917 6111/
22219 00241
444 20110 11014 1504/ 50101 80102 80007 9/015=
ZZYY 32732 11014 1508/ 705326 082555 6112/
22219 00277
444 20120 11014 1453/ 50101 80102 80034 9/015=
ZZYY 32802 11014 1510/ 529565 117644 6112/
22219 00251
444 20120 11014 1355/ 50101 80097 80010 9/015=
ZZYY 32733 11014 1508/ 705301 084699 6111/
22219 00284
444 20110 11014 1455/ 50101 80102 80044 9/015=
ZZYY 32735 11014 1508/ 701945 107490 6112/
22219 00246
444 20120 11014 1502/ 50101 80110 80030 9/015=
ZZYY 14569 11014 1400/ 327478 057608 6111/
11119 40190 52005
22219 00257
444 2011/ 11014 1324/ 50101 80117 80006 9/015=
ZZYY 14551 11014 1400/ 325500 057785 6112/
11119 40179 52005
22219 00260
444 2012/ 11014 1324/ 50101 80109 80026 9/015=
ZZYY 71701 11014 1507/ 336161 061342 6112/
444 20120 11014 1500/ 50101 80052 80047 9/015=
ZZYY 14904 11014 1400/ 329520 042917 6111/
11119 40134 52004
22219 00243
444 2011/ 11014 1306/ 50101 80116 80018 9/015=
ZZYY 14930 11014 1500/ 330606 031479 6111/
11119 30166 40166 57004
22219 00257
444 50101 80110 80035 9/015=
ZZYY 17676 11014 1420/ 349121 008626 6111/
11119 39960 49960 52015
22219 00047
444 20110 11014 1442/ 50101 80110 80032 9/015=
ZZYY 33567 11014 1500/ 347509 020223 6113/
22219 00067
444 20130 11014 1444/ 50101 80050 80007 9/015=
ZZYY 17663 11014 1500/ 350630 038464 6112/
11119 39995 49995 52012
22219 00044
444 20120 11014 1502/ 50101 80060 80063 9/015=
ZZYY 17666 11014 1510/ 348002 057446 6113/
11119 39968 49968 57059
22219 00052
444 20130 11014 1322/ 50101 80060 80004 9/015=
ZZYY 33647 11014 1510/ 354057 057883 6112/
11119 57055
22219 00024
444 20120 11014 1506/ 50101 80060 80000 9/015=
0000011000
867
UANT01 CWAO 111516
ARP AAL65 4722N04858W 1516 F330 MS60 301/64 KT
N388AA DDL YYT 111516 F51A
0000021200
868
SIGQ21 FGSL 111500
AAXX 11153
64810 42460 52410 10310 20239 30055 40077 83230
  333 58004 83814 85363=
AAXX 11154
64820 42460 62606 10309 20242 30086 40095 82502
  333 58006 82612 86070=
0000567200
869
SSVX08 KARS 111516
ZZYY 23017 10014 1200/ 304016 067235 6111/
33311 88872 20001 32812 20020 32802 20060 32499 43539 20080 32151
20100 31965 20120 31834 20140 31738 20180 31536 20300 31146
20500 30947
444 20110 10014 1148/ 521//=
ZZYY 23017 11014 14004 304025 067233 6111/
11119 02607 10269 29081
22219 00281
444 20110 11014 1454/ 521// 60401=
ZZYY 14043 10014 1200/ 312203 067249 6111/
33311 88872 20001 32970 43504 20020 32969 20040 32922
20060 32551 43509 20080 32180 20100 31962 20120 31813 20140 31695
20180 31483 20300 31140 20500 30881
444 20110 10014 1144/ 521//=
ZZYY 14043 11014 14004 312198 067250 6111/
11119 01415 10293 29077 40107
22219 00297
444 20110 11014 1149/ 521// 60401=
ZZYY 14042 10014 1200/ 312115 054867 6112/
33311 88872 20001 32895 43493 20020 32890 43496 20040 32831 43501
20060 32667 43500 20080 32517 20100 32301 20120 32122 20140 31954
20180 31707 20500 30944
444 20120 10014 1144/ 521//=
ZZYY 14042 11014 14004 312114 054865 6111/
11119 00713 10290 29079 40103
22219 00290
444 20110 11014 1456/ 521// 60401=
ZZYY 23016 10014 1200/ 301618 066811 6112/
33311 88872 20001 32838 20020 32830 43526 20040 32793
20060 32580 43546 20080 32315 20100 32120 20120 31834 20140 31576
20180 31359 20300 31179 20500 30954
444 20120 10014 1148/ 521//=
ZZYY 23016 11014 14004 301621 066806 6112/
11119 03005 10278 29075
22219 00294
444 20120 11014 1453/ 521// 60401=
ZZYY 14040 10014 1200/ 308084 066939 6112/
33311 88872 20001 32964 43475 20020 32889 43501 20040 32489 43508
20060 32002 43511 20080 31796 20100 31609 20120 31503 20140 31414
20180 31285 20300 31081 20500 30904
444 20120 10014 1146/ 521//=
ZZYY 14040 11014 14004 308088 066928 6111/
11119 02806 10277 29081 40109
22219 00296
444 20110 11014 1455/ 521// 60401=
ZZYY 15006 10014 1200/ 506029 009995 6111/
33311 88872 20001 32576 20040 32525 43611 20060 32303 20080 32018
20100 31635 20120 31471 43551 20140 31354 20180 31179 20300 30988
20500 30742
444 20110 10014 1323/ 521//=
ZZYY 13009 10014 1200/ 707921 038091 6112/
33311 88872 20020 32610 43576 20040 32400 43600 20060 31970
20080 31678 20100 31490 20120 31356 43539 20140 31220 20180 31104
20300 30960 20500 30782
444 20120 10014 1149/ 521//=
ZZYY 13009 11014 1500/ 707930 038097 6112/
444 20120 11014 1136/ 521//=
ZZYY 41139 10014 12004 720011 037854 6111/
11119 00712 10215 29077 40201
22219 00240
33311 88872 20000 32402 20001 32404 43696 20020 32402 43706
20040 32402 43702 20060 32404 43704 20080 32410 20100 32351
20120 32230 20140 32151 20180 31985 20300 31610 20500 31215
444 20110 10014 1145/ 521// 60401=
ZZYY 41139 11014 15004 720005 037864 6111/
11119 00511 10230 29072 40174
22219 00242
444 20110 11014 1504/ 521// 60401=
ZZYY 13010 10014 1200/ 700000 000013 6112/
33311 88872 20001 32811 20020 32797 43447 20040 32284 43606
20060 31816 20080 31727 20100 31603 20120 31543 43564 20140 31505
20180 31441 20300 31039 20500 30713
444 20120 10014 1324/ 521//=
ZZYY 31007 10014 1200/ 500004 022987 6111/
33311 88872 20001 32681 43566 20040 32615 43616 20060 32473
20080 32012 20100 31564 20120 31452 20140 31402 20180 31319
20300 31036 20500 30727
444 20110 10014 1152/ 521//=
ZZYY 31007 11014 14004 500008 022992 6112/
11119 01613 10263 29079 40115
22219 00270
444 20120 11014 1139/ 521// 60401=
ZZYY 15002 10014 1200/ 700000 009870 6112/
33311 88872 20001 32733 20020 32727 43504 20040 32398 43592
20060 32021 20080 31765 20100 31648 20120 31578 43568 20140 31503
20180 31397 20300 31050 20500 30705
444 20120 10014 1325/ 521//=
ZZYY 13002 10014 1200/ 720444 023132 6112/
33311 88872 20001 32153 43671 20020 32152 20040 32148 43670
20080 32043 20100 31854 20120 31779 20140 31775 20180 31731
20300 31467 20500 31069
444 20120 10014 1140/ 521//=
ZZYY 13002 11014 14004 720443 023150 6111/
11119 00507 10201 29079
22219 00218
444 20110 11014 1503/ 521// 60401=
ZZYY 41026 10014 1200/ 711497 037983 6112/
33311 88872 20001 32570 43597 20060 32563 20080 32137 20100 31693
20120 31445 43565 20140 31329 20180 31230 20300 31062 20500 30906
444 20120 10014 1148/ 521//=
ZZYY 31006 10014 1200/ 704046 022978 6112/
33311 88872 20020 32744 43552 20040 32744 43571 20060 32327 43631
20080 31725 20100 31599 20120 31538 20140 31497 20180 31438
20300 31160 20500 30741
444 20120 10014 1148/ 521//=
ZZYY 31006 11014 14004 704046 022977 6111/
11119 00412 10253 29093
444 20110 11014 1135/ 521// 60401=
ZZYY 13001 10014 1200/ 711462 022996 6112/
33311 88872 20001 32484 43550 20020 32484 43550 20040 32396 43558
20060 31761 43573 20080 31533 20100 31428 20120 31372 20140 31336
20180 31261 20300 31119 20500 30953
444 20120 10014 1146/ 521//=
ZZYY 13001 11014 14004 711463 022994 6112/
11119 00314 10233 29075 40141
22219 00248
444 20120 11014 1136/ 521// 60401=
ZZYY 13008 10014 1200/ 714994 038020 6111/
33311 88872 20001 32512 43618 20020 32513 43661 20040 32513 43629
20060 32516 43626 20080 32353 20100 32087 20120 31912 20140 31785
20180 31541 20300 31159 20500 30887
444 20110 10014 1146/ 521//=
ZZYY 13008 11014 14004 715000 038021 6112/
11119 00814 10236 29071 40165
22219 00251
444 20120 11014 1502/ 521// 60401=
ZZYY 13008 11014 15004 715000 038021 6112/
11119 00712 10238 29070 40161
22219 00251
444 20120 11014 1502/ 521// 60401=
ZZYY 31001 10014 1200/ 500012 034993 6111/
33311 88872 20020 32716 43496 20040 32715 20060 32699 20080 32625
20100 32173 20120 31655 43581 20140 31421 20180 31277 20300 31063
20500 30704
444 20110 10014 1150/ 521//=
0000051200
870
SSVX07 KARS 111516
ZZYY 48733 11014 1430/ 772957 152348 6112/
11119 11246 49995
444 20120 11014 1423/ 504//=
ZZYY 48508 11014 1430/ 772699 159203 6111/
11119 11218 40020
444 20110 11014 1424/ 504//=
ZZYY 48732 11014 1430/ 774447 130917 6113/
11119 11145 49813
444 20130 11014 1425/ 504//=
ZZYY 48507 11014 1430/ 773025 134908 6113/
11119 11248 49875
444 20130 11014 1422/ 504//=
ZZYY 48731 11014 1430/ 774109 154943 6111/
11119 11188 49987
444 20110 11014 1424/ 504//=
0000011000
871
UANT01 CWAO 111516
ARP UAL18 4809N04637W 1516 F320 MS62 297/56 KT
N76054 DDL XXW 111516 F59A
0000432100
872
SIIR22 OIII 111500
AAXX 11151
40701 41902 00000 11160 21162 38609 40356 54000 74200 333 10080
555 11157 29098 66666 01060 11054 21042 31034 50012 90054=
40704 42970 03105 11052 21102 38602 40228 53010 333 11005 555
11064 29068 66666 01024 11026 21028 31018 50006 90068=
40708 42965 51910 11016 21035 38646 40197 53007 81036 333 10006
81359 85267 555 11022 29087 66666 01022 11016 21020 31014 50008
90060=
40710 42665 20000 11136 21179 38318 40339 53003 81501 333 11062
82068 555 11141 29070 66666 01062 11060 21058 31046 51020 90060=
40713 41913 40000 11064 21072 38679 40285 52005 71021 80001 333
11018 84071 555 11064 29094 66666 01010 11018 21006 31022 50030
90092=
40719 41530 60000 10070 20056 30152 40141 53001 71022 81501 333
10120 81630 85066 555 10064 29091 66666 00070 10074 20076 30076
50098 90124=
40731 41658 60000 11003 21040 38744 40236 55002 70522 83470 333
10016 83640 86359 555 11016 29076 66666 00000 11001 20013 30017
50038 90072=
40738 41556 60000 10082 20069 30160 40162 58006 71022 82570 333
      10122 82635 85360 555 10076 29092 66666 00084 10092 20082
      30084 50100 90126=
40740 42960 10902 10026 21107 38718 40209 53006 81030 333 10104
81360 555 11016 29037 66666 01005 11010 21007 30003 50025 90062=
40747 41657 50000 11016 21038 38640 40244 53006 71021 81472 333
10017 81640 83358 555 11023 29085 66666 00012 10012 20022 30028
50046 90085=
40757 42660 63001 10034 21025 38910 40227 53001 83570 333 10066
83635 85360 555 10012 29065 66666 00032 10042 20042 30044 50056
90102=
40763 42665 51502 10048 21062 38932 40233 53010 82502 333 10102
82640 84070 555 10010 29045 66666 00070 10074 20062 30058 50072
90114=
40782 41557 81102 10038 20033 38876 40208 52014 79596 8692/ 333
10048 81930 85635 88557 555 10036 29097 66666 00050 10054 20054
30056 50072 90108=
40783 41540 60000 11020 21023 37965 40202 51006 71087 86370 333
10016 82930 84635 86359 555 11020 29098 66666 00002 10004 20018
30018 50040 90080=
40789 41660 82802 10046 20022 39219 40218 52007 70262 8352/ 333
      10072 83640 88460 555 10036 29084 66666 00056 10060 20066
      30068 50105 90145=
40798 41558 60000 11034 21044 37943 40264 53008 70172 85372 333
      11006 81925 84630 84358 555 11036 29093 66666 01004 10000
      20006 30016 50034 90064=
40818 41550 83202 10016 20011 37955 40208 51009 78082 8532/ 333
10082 82930 83635 88458 555 10014 29097 66666 01002 11004 20000
30002 50030 90074=
40827 42662 80000 10021 21016 38846 40232 53005 82477 333 10056
      82635 84359 88268 555 10007 29076 66666 00038 10050 20056
      30066 50092 90146=
40836 41502 80000 10000 21005 38186 40220 56003 77577 8132/ 333
10025 81930 84635 88558 555 11002 29096 66666 00000 10006 20014
30028 50036 90080=
40851 41660 61206 10056 20030 38272 40201 51002 70162 83470 333
10078 83640 86360 555 10044 29083 66666 00048 10052 20054 30054
50080 90146=
40853 41556 80000 10022 20003 37759 40220 53004 76276 8432/ 333
10054 81930 83635 88559 555 10014 29088 66666 00036 10040 20040
30046 50058 90120=
40854 42665 70000 10056 21015 38960 40195 53006 81406 333 10108
      81635 87270 555 10028 29060 66666 00080 10092 20102
      30102 50134 90182=
40857 41556 81104 10132 20121 30158 40168 50002 79596 8592/ 333
10162 82925 83635 88557 555 10126 29093 66666 00130 10136 20142
40858 41556 81205 10128 20117 30159 40170 55005 72196 8492/ 333
10158 81930 83635 88458 555 10122 29093 66666 00124 10140 20146
30144 50168 90192=
40859 41657 80000 10050 20027 38732 40193 53003 78022 8592/ 333
10084 82935 83640 88459 555 10040 29085 66666 00072 10080 20082
30088 50104 90141=
40878 42962 61203 10101 21082 38876 40257 53005 84078 333 10129
84360 85270 555 10036 29027 66666 00110 10112 20108 30108 50120
      90148=
40879 42560 83103 10138 21024 39530 40229 53025 8172/ 333 10158
81720 88459 555 10072 29033 66666 00158 10160 20162 30160 50170
      90218=
40883 41540 80302 10142 20131 30185 40208 53006 71022 8432/ 333
10172 81920 83625 88458 555 10136 29093 66666 00140 10146 20150
30178 50180 90222=
40898 42965 50000 10178 21058 30204 40214 53017 80008 222// 00226
      10501 333 10216 85269 555 10088 29020 66666 00168 10188
      20204 30206 50216 90250=
0000011700
873
FCIN90 VABP 111500
TAF VABP 111500Z 1118/1203 05010KT 1500 BR FEW100 BEC 1201/1203 05005KT 0800 FG=


0000024700
874
SMVX02 DEMS 111518
BBXX AUYB 11151 99137 10738 46/// /3410 10270 29071 49099 91458 222//=
BBXX VTJR 11151 99167 10829 46/// /0608 10255 29069 49143 91503 222//=
BBXX VTTK 11151 99177 10833 46/// /1301 10248 29068 49150 91504 222//=
00000000