0000011000
115
UANT01 CWAO 111521
ARP VIR93R 4905N02745W 1520 F340 MS48 196/56 KT
GVLIP DDL XXF 111521 F34A
0000011000
116
UANT01 CWAO 111521
ARP ACA831 5355N03114W 1521 F360 MS57 179/36 KT
CGFAF DDL XXW 111521 J31A
0000011000
117
UANT01 CWAO 111521
ARP EIN125 6007N02634W 1521 F320 MS60 225/82 KT
EIEDY DDL KEF 111521 J73A
0000011100
118
UANT01 CWAO 111521
ARP UAL951 5132N04154W 1521 F370 MS61 293/44 KT
N777UA DDL XXN 111521 F55A
0000011000
119
UANT01 CWAO 111521
ARP AAL39 4906N02335W 1521 F360 MS51 195/68 KT
N778AN DDL XXN 111521 F21A
0000011000
120
UANT01 CWAO 111521
ARP AFR474 4901N01942W 1521 F320 MS54 198/84 KT
FGSPN QXT AOE 111521 F15A
0000011000
121
UANT01 CWAO 111521
ARP AFR688 5002N01932W 1521 F350 MS61 193/90 KT
FGSPT QXT AOE 111521 F07A
0000084000
122
SIAL23 DAMM 111500
AAXX 11154
60353 42570 7//// 10180 20137 40189 50001 879//
  333 83820 81930 85633 91818 95900=
60367 NIL=
60369 42959 80000 10188 20154 40184 51003 83082
  333 83360 85070 91826=
60401 NIL=
60403 42665 70000 10187 20091 40198 55002 81232
  333 81840 85360 95900=
60425 41656 82204 10163 20105 40198 55000 76062 8357/
  333 83640 86460 95990=
60461 NIL=
60467 42965 60000 10149 20072 40202 56023 86070
  333 86460 95900=
60492 NIL=
60515 42960 70000 10132 20085 40216 56012 8707/
  333 87460 95900=
60517 NIL=
60522 NIL=
60557 NIL=
60563 42560 81112 10144 20068 39311 48520 56016 848//
  333 84720 84830=
60603 42660 40406 10231 21002 40186 55012 82101
      333 82840 84073=
60638 42960 6//// 10249 21044 40176 56011 80004
        333 86073=
60686 NIL=
0000015000
123
SIDL21 EDZW 111500 CCB
AAXX 11151
10685 21770 82407 10021 20001 39474 40158 58008 70262 885//
  333 55300 20138 30138 69907 88656=
0000016000
124
SSVX02 CWAO 111500
ZZYY 55584 11014 1500/ 341591 154878 6112/ 11119 
40108 57003 22219 00177 444 20130 11014 1500/ 50101 80148 80008 
9/015=
0000016000
125
SSVX02 CWAO 111500
ZZYY 56513 11014 1500/ 344510 114439 6112/ 11119 
40126 52003 22219 00115 444 20130 11014 1500/ 50101 80150 80023 
9/015=
0000029100
126
SDBW20 VGDC 111500
FFAA 1115
RAREP 111500 41859 NIL=
RAREP 111500 41923 
S.A : 260/100 268/341 276/365 310/245 338/086 KM.
HEIGHT : 07KM
INT : WEAKE TO MODERATE.
TEND: INCREASING
MOV.: EAST.
MIP: 275/156=

RAREP 111500 41984 NIL=
RAREP 111500 41992 NIL=
0000011000
127
UANT99 KDDL 111521
ARP DAL79 5307N02644W 1521 F370 MS58 198/47 KT
N858NW DDL XXW 111521 J85A
0000011000
128
UANT99 KDDL 111521
ARP AFR796 4801N00941W 1521 F340 MS59 267/54 KT
FGSQR DDL BES 111521 F04A
0000011000
129
UANT99 KDDL 111521
ARP AAL81 5803N02257W 1521 F380 MS64 217/60 KT
N776AN DDL XXN 111521 F48A
0000010600
130
UANT99 KDDL 111521
ARP AAL49 68N040W 1521 F340 MS63 127/36 KT
N355AA DDL KUS 111521 F49A
0000171900
131
SASA85 EGRR 111500 RRG
METAR SANT 111500Z 18010KT 5000 RARETS BKN004 FEW045CB OVC050 19/19
      Q1021=
METAR SAVE 111500Z 20003KT CAVOK 17/03 Q1020=
METAR SAWH 111500Z 05005KT 9999 DZ BKN040 BKN010 10/06 Q1000=
METAR SBAF 111500Z 03003KT CAVOK 35/20 Q1013=
METAR SBAN 111500Z 09010KT 9999 SCT030 FEW035TCU 27/17 Q1021=
METAR SBAT 111500Z 00000KT 9999 -RA SCT006 SCT100 25/23 Q1016=
METAR SBBI 111500Z 36003G18KT 9999 TS BKN020 FEW027CB 29/20 Q1019=
METAR SBBQ 111500Z 01006KT 9999 BKN020 25/16 Q1023=
METAR SBBU 111500Z 32011KT 9999 SCT045 33/21 Q1017=
METAR SBBW 111500Z 00000KT 9999 FEW020 SCT090 30/21 Q1016=
METAR SBCC 111500Z 08006KT 9999 SCT025 26/20 Q1016=
METAR SBCO 111500Z 24005KT 9999 FEW035 FEW040TCU 31/// Q1011=
METAR SBDN 111500Z 36005KT 9999 FEW035 33/16 Q1016=
METAR SBGW 111500Z 05004KT 9999 SCT025 32/18 Q1016=
METAR SBHT 111500Z 28001KT 9999 SCT007 BKN015 OVC100 26/25 Q1014=
METAR SBIH 111500Z 00000KT 9999 TS SCT023 FEW024CB BKN100 29/24 Q1014=
METAR SBIZ 111500Z 15003KT 9999 BKN020 31/22 Q1012=
METAR SBJF 111500Z 03007KT 9999 BKN020 FEW025TCU 28/20 Q1021=
METAR SBME 111500Z 12008KT CAVOK 30/22 Q1014=
METAR SBMK 111500Z 08011KT 9999 SCT035 BKN045 27/17 Q1019=
METAR SBPC 111500Z 03008KT 9999 SCT020 30/21 Q1022=
METAR SBSC 111500Z 03014KT CAVOK 35/20 Q1013=
METAR SBSM 111500Z 33003KT 4000 -TSRA SCT004 BKN030 FEW040CB BKN100
      23/21 Q1014=
METAR SBTK 111500Z 31008KT 9999 OVC015 28/23 Q1015=
METAR SBTU 111500Z 05004KT 9999 SCT017 BKN070 27/24 Q1015=
METAR SBUL 111500Z 03010KT 9999 SCT040 28/17 Q1020=
METAR SBUR 111500Z 34008KT 9999 BKN045 28/16 Q1019=
METAR SBYS 111500Z 36010KT 9999 BKN045 SCT100 32/18 Q1017=
0000066000
132
SASA85 EGRR 111500 RRH
METAR SKCL 111500Z 00000KT 5000 BR BKN008 BKN090 23/21 A3005 RMK AD
      O PER IMC=
METAR SVBI 111500Z 14005KT CAVOK 33/19 Q1017=
METAR SVBS 111500Z 14005KT 9999 SCT013 29/18 Q1020=
METAR SVCU 111500Z 07012KT 9999 FEW013 29/17 Q1016=
METAR SVFM 111500Z /////KT 9999 BKN040 ///// Q1019=
METAR SVJM 111500Z /////KT 9999 SCT020 28/12 Q1017=
METAR SVMD 111500Z 16004KT CAVOK 22/15 Q1023=
METAR SVMN 111500Z 14002KT 9999 FEW013 31/// Q1015=
METAR SVMT 111500Z 02008KT 9999 BKN013 29/19 Q1014=
METAR SVSR 111500Z /////KT 9999 FEW016 BKN300 27/// Q1017=
METAR SVVL 111500Z 36004KT 9999 FEW027 26/15 Q1021=
0000040500
133
SIVD15 KWNB 111500 RRM
BBXX
44100 11151 99363 70756 46/// ///// 1//// 91504 22200 00091 10804
20804 311// 41101 70020=
44095 11151 99358 70753 46/// ///// 1//// 91517 22200 00122 10806
20805 313// 41101 70028=
41115 11151 99184 70673 46/// ///// 1//// 91511 22200 10802 20802
301// 41101 70011=
41113 11151 99284 70805 46/// ///// 1//// 91510 22200 00179 10802
20802 70010=
0000029400
134
SILB20 OLBA 111500
AAXX 11154
40100 42860 20000 10135 20067 30209 40241 53011 82070 915// 333 82357
92427=
40101 42957 12309 10088 20019 39143 48537 53010 81004 915// 333 81070
=
40103 42960 32202 10137 20051 40240 53009 80001 333 83070 92427 555
10182=
40102 NIL=
00000000