0000015700
135
SSVX13 LFPW 111500
ZZYY 41706 11014 1500/ 715717 052416 6113/ 11119 40184 52001 22219
 00259 444 20130 11014 1500/ 50101 80144 80021 9/015=
0000015700
136
SSVX13 LFPW 111500
ZZYY 63552 11014 1500/ 776005 004607 6113/ 11119 40127 52004 22219
 00011 444 20130 11014 1500/ 50101 80102 80003 9/015=
0000015700
137
SSVX13 LFPW 111500
ZZYY 62678 11014 1500/ 758389 032738 6113/ 11119 49995 57018 22219
 00076 444 20130 11014 1500/ 50101 80082 80002 9/015=
0000015700
138
SSVX13 LFPW 111500
ZZYY 16538 11014 1500/ 340761 078494 6113/ 11119 40178 52004 22219
 00144 444 20130 11014 1500/ 50101 80144 80021 9/015=
0000015700
139
SSVX13 LFPW 111500
ZZYY 33955 11014 1500/ 542501 041807 6113/ 11119 40070 52003 22219
 00136 444 20130 11014 1500/ 50101 80142 80005 9/015=
0000015700
140
SSVX13 LFPW 111500
ZZYY 65592 11014 1500/ 760779 053094 6113/ 11119 49917 52017 22219
 00029 444 20130 11014 1500/ 50101 80130 80021 9/015=
0000015700
141
SSVX13 LFPW 111500
ZZYY 13660 11014 1500/ 722235 043962 6113/ 11119 40208 57010 22219
 00245 444 20130 11014 1500/ 50101 80142 80000 9/015=
0000015700
142
SSVX13 LFPW 111500
ZZYY 63640 11014 1500/ 173656 027916 6113/ 11119 40159 54000 22219
 00052 444 20130 11014 1500/ 50101 80142 80008 9/015=
0000015700
143
SSVX13 LFPW 111500
ZZYY 62556 11014 1500/ 723136 045888 6113/ 11119 40226 57001 22219
 00245 444 20130 11014 1500/ 50101 80076 80002 9/015=
0000015700
144
SSVX13 LFPW 111500
ZZYY 44726 11014 1500/ 750014 003028 6113/ 11119 40214 52005 22219
 00115 444 20130 11014 1500/ 50101 80102 80003 9/015=
0000015700
145
SSVX13 LFPW 111500
ZZYY 64525 11014 1500/ 764547 006718 6113/ 11119 40042 52019 22219
 00034 444 20130 11014 1500/ 50101 80142 80008 9/015=
0000015700
146
SSVX13 LFPW 111500
ZZYY 16533 11014 1500/ 314391 113003 6113/ 11119 40111 52018 22219
 00295 444 20130 11014 1500/ 50101 80126 80035 9/015=
0000015700
147
SSVX13 LFPW 111500
ZZYY 44775 11014 1500/ 752922 012104 6113/ 11119 40143 57019 22219
 00109 444 20130 11014 1500/ 50101 80106 80005 9/015=
0000015700
148
SSVX13 LFPW 111500
ZZYY 41637 11014 1500/ 724033 077533 6113/ 11119 40210 52017 22219
 00304 444 20130 11014 1500/ 50101 80130 80000 9/015=
0000015700
149
SSVX13 LFPW 111500
ZZYY 16616 11014 1500/ 549939 163262 6113/ 11119 49958 52012 22219
 00122 444 20130 11014 1500/ 50101 80072 80015 9/015=
0000013900
150
SSVX13 LFPW 111500
ZZYY 63639 11014 1500/ 172042 035023 6113/ 22219 00038 444 20130
 11014 1500/ 50101 80134 80002 9/015=
0000025500
151
SIQB50 LQSM 111500
AAXX 11151
14543 NIL=
14549 46/// /1802 10153 2//// 39791 40195 55007 70000=
14554 NIL=
14650 42560 42705 10077 20034 39118 48551 57006 81534 333 81630 83357
=
14657 46/// /0301 10125 21003 30208 40208 54004=
0000039900
152
SIIN90 VEBS 111500
AAXX 11154
42971 31995 01104 10216 20181 40165 70500
  333 58003=
43053 32996 01604 10244 20198 40162
  333 58001=
42973 31995 01401 10204 20188 40173 70500
  333 58008=
42886 31996 00901 10220 20164 40145 70540
  333 58002=
43049 32996 20000 10246 20200 40162 80001
  333 58006 82075=
42895 31995 00902 10190 20163 40162 70500
  333 58004=
0000008600
153
SAIN90 VAUD 111500
METAR VAUD 111500Z 03002KT 3000 HZ NSC 15/06 Q1020=
0000059600
154
SIIN90 VEGT 111500
AAXX 11154
42410 21495 80000 10170 20160 40179 71062 8432/
  333 58007 6990/ 84618 81925 88458=
42415 21596 70000 10180 20134 40194 75022 84530
  333 58006 6990/ 84620 85360=
42623 31496 41804 10138 20093 39282 40171 70520 82530
  333 58004 82618 83360=
42309 21495 60000 10164 20143 40167 70522 83530
  333 59001 6990/=
42516 31395 60000 10094 20050 38430 48527 70520 84530
  333 58006=
42314 21495 70000 10180 20130 40168 70596 83530
  333 58000 6990/ 83618 86360=
42724 31995 40000 10154 20136 40169 71022 84030
  333 58002 84360=
00000000