0000067300
355
SABN32 OBBI 111500
METAR OMAA 111500Z 04007KT 9999 -RA FEW040 18/16 Q1019 A3009 NOSIG=
METAR OMAD NIL=
METAR OMAL 111500Z 30003KT CAVOK 20/09 Q1021 A3016 NOSIG=
METAR OMDB 111500Z 36006KT 310V110 8000 -RA NSC 18/14 Q1021 TEMPO
                   4000 RA=
METAR OMDW 111500Z 02006KT 9999 -RA NSC 18/15 Q1021 TEMPO 4000 RA=
METAR OMFJ 111500Z 28001KT 9999 SCT020 BKN100 20/11 Q1021 A3015=
METAR OMRK 111500Z 33004KT 9999 RA SCT040 18/16 Q1021 A3016=
METAR OMSJ 111500Z 29004KT 9999 -RA SCT030 18/16 Q1021=
METAR OOMS 111450Z 07009KT 9999 FEW030 SCT100 BKN200 20/09 Q1020
NOSIG=
METAR OOSA 111450Z 10011KT 9999 BKN025 24/15 Q1017
NOSIG=
0000011000
356
UANT99 KDDL 111508
ARP XLF055 4447N01518W 1508 F390 MS63 238/68 KT
FGSEU DDL XXN 111508 J95A
0000011000
357
UANT99 KDDL 111508
ARP AFR650 4907N02629W 1508 F320 MS47 190/59 KT
FGZNG QXT AOE 111508 F23A
0000010700
358
UANT99 KDDL 111508
ARP UAL986 61N030W 1508 F320 MS62 220/76 KT
N646UA DDL XXN 111508 F34A
0000011100
359
UANT99 KDDL 111508
ARP DAL271 5201N01915W 1508 F340 MS60 201/86 KT
N185DN QXT AOE 111508 F53A
0000017800
360
SMVD01 KWBC 111200 RRX
BBXX
KABP 11123 99243 70821 41198 21513 10260 20232 40180 54000 70200
 8288/ 22264 00260 20202 315// 40402 5//// 6//// 80240 ICE /////=
0000017900
361
SMVF01 KWBC 111200 RRQ
BBXX
V7ZZ5 11124 99404 70290 41496 /3537 10120 2008/ 40090 54000 71521
 8//// 22212 0//// 20708 33535 40509 50508 6//// 80100 ICE /////=
0000046100
362
SIVD17 KWNB 111500 RRI
BBXX
46076 11151 99595 71480 46/// /2507 10026 49868 58017 91450 22200
00062 11003 20602 3//// 41002 70015 333 91209 555 11072 22076
31446 42509 61449 251069 260068 252065 249064 253065 252064 82508
91447=
46077 11151 99579 71543 46/// /3201 10011 49882 58024 91450 22200
00044 11101 20401 3//// 41101 70006 333 91202 555 11011 22011
31352 42507 61449 322012 326020 297020 281023 276033 260048 82705
91357=
0000015800
363
SIVD20 KWNB 111500 RRF
BBXX
44058 11151 99376 70763 46/// /1707 10086 40101 57029 91500 22200
00045 10301 70004 333 91208 555 11080 22087=
0000015100
364
SSVB12 RJTD 111500
ZZYY 21708 11014 1500/ 135440 154132
11109 0//// 1//// 2//// 30203 40203 5////
22209 00143 11009 20098 21043=

0000015100
365
SSVB11 RJTD 111500
ZZYY 21706 11014 1500/ 136812 168924
11109 0//// 1//// 2//// 30105 40105 5////
22209 00151 10908 20092 21041=

0000016300
366
SIAA01 KWBC 111500
AAXX 11151
89504 43/// /0303 11031 21104 38466 49924 52004=
89061 36/66 /1203 10016 21029 39951 49958 57024 333 91004 91105=
0000074100
367
SIDR01 KWBC 111500
AAXX 11151
78479 21566 21204 10270 20222 40210 52019 70280 82200 333 30///
56200 58006 69907 82822=
78482 32566 21104 10280 20193 40196 50019 82200 333 30/// 56000
58004 82822=
78485 32566 40805 10275 20225 40205 52017 83230 333 30/// 56200
58010 83820=
78486 31564 40603 10284 20220 40201 52016 70544 84201 333 30///
56200 58007 84828 83080=
78458 32566 21204 10275 20221 40209 52019 82200 333 31/// 56000
58005 82820=
78460 31560 21206 10250 20213 40213 5207 70544 82500 333 31///
56200 58003 82621=
78467 21466 70000 10234 20228 40214 52028 72580 872000 333 31///
56000 58019 60045 87815=
78488 32466 40505 10265 20216 40200 52020 82250 333 30/// 56000
58007 82818 83357=
0000032400
368
SIHK01 KWBC 111500
AAXX 11151
45007 42959 11106 10173 20111 30229 40239 50010 80001 333 59001
81080=
45032 36/// /1302 10147 20129 30222 40239 57001=
45039 36/// /1001 10139 20124 30231 40247 57001=
45044 36/// /0406 10156 20121 30145 40240 54000=
45035 36/// /0702 10138 20121 30201 40245 54000=
0000051900
369
SIVS01 KWBC 111500
AAXX 11151
48823 32697 80501 10180 20168 30215 40218 52013 885// 333 58015
88696=
48825 32697 80000 10170 20151 30211 40220 50014 885// 333 58016
88696=
48806 32498 61402 10154 20136 39433 40219 51015 868// 333 58014
84894 86697=
48803 32497 80000 10167 20144 30114 40230 52014 888// 333 58014
84894 88696=
48845 32498 80501 10194 20184 30205 40212 52012 888// 333 58005
83894 88697=
48840 32498 81103 10184 20174 30207 40213 52016 888// 333 58002
82894 88696=
0000202300
370
SIMX01 KWBC 111500 RRB
AAXX 11151
76225 32920 00000 10060 21005 38668 40213 52024 91450 333 30///
58062=
76405 32870 40502 10184 20126 30158 40180 52014 84030 91450 333
30/// 56010 58025 84356=
76525 32780 70503 10081 21033 37500 40198 52022 87050 91455 333
30/// 56/1/ 58043 87358=
76640 31758 43201 10186 20169 30176 40188 52027 71044 84//4 91440
333 30/// 56//9 58014 84058=
76644 32460 31103 10250 20222 30157 40170 52019 83100 91450 333
30/// 563// 59005 83420 91005 91511=
76647 32870 31101 10260 20246 30157 40187 52022 83030 91450 333
30/// 560/0 59003 83358=
76656 32875 83601 10134 20101 38538 40202 52021 8802/ 91450 333
30/// 5605/ 58020 88458=
76662 32670 63401 10146 20098 38491 40190 52016 86400 91445 333
30/// 56/00 58020 86633=
76675 31980 02902 10055 20032 37402 40255 52019 70540 91453 333
30/// 58024=
76687 32970 02301 10168 20121 38702 40205 52028 91445 333 30///
58014=
76692 31920 10000 10210 20202 30147 40167 52024 71044 80001 91445
333 30/// 56//5 58002=
76737 32980 03601 10163 20114 38790 40187 52024 91445 333 30///
58008 91102 91536=
76762 32904 03101 10154 20113 38783 40177 52021 91450 333 30///
58020=
76773 31966 02301 10126 20092 38444 40174 52015 7054/ 91448 333
30/// 58000=
76843 32965 01401 10220 2183 39517 40163 52024 91442 333 3 0///
58005=
76393 31920 22502 10176 20060 39619 40200 52036 70400 80008 91450
333 30/// 56005 58069 91103 91401=
76519 32560 70000 10058 20025 38388 40258 5//// 87100 91448 333
30/// 56500 58015 87820=
76695 32156 30902 10236 20228 30160 40166 52022 83500 91450 333
30/// 56200 59001 83703=
76423 32780 10000 10047 21018 38194 40245 52021 81040 91455 333
30/// 56090 58039 81358=
76543 31610 63601 10188 20185 30161 40194 52030 74242 83530 91445
333 31/// 56770 58018 83650 83358=
76632 31657 21101 10108 20092 37724 40198 52006 70500 82500 91445
333 30/// 56300 58005 82639=
76665 32962 01801 10130 20116 38130 40161 52002 91450 333 30///
58008=
0000034500
371
SNVD01 KWBC 111300 RRQ
BBXX
42887 11131 99282 70885 46/// /2107 10225 20202 91300 22200 10402
 70010 555 11062 22067=
42369 11131 99272 70903 46/// /2003 1//// 91300=
42392 11131 99272 70900 46/// ///// 1//// 91300 22200 10402 70010=
42375 11131 99285 70883 46/// /1912 1//// 91300 22200 10402 70010
 555 11097 22105=
0000012600
372
SNVJ01 KWBC 111300 RRA
BBXX
DBLK 11131 99769 50341 41397 /0106 11048 21062 49938 52006 7////
 22281 05017=
0000135800
373
UAPS01 NZKL 111500
AIREP
ACI800 2148S 16600E 1407 F103 PS09 118/09=
ACI800 2018S 16518E 1421 F303 MS32 265/40=
VOZ8 0306S 15942W 1438 F320 MS36 219/24=
VOZ8 0506S 16142W 1459 F320 MS35 203/24=
ANZ2 1212S 16118W 1404 F330 MS38 181/20=
VOZ2 0454S 16754W 1412 F330 MS37 187/25=
ANZ2 0936S 15942W 1425 F330 MS38 186/20=
ANZ2 0654S 15812W 1447 F330 MS38 209/16=
ANZ5 1348S 16348W 1421 F340 MS40 178/27=
VOZ2 0624S 16936W 1429 F340 MS39 183/18=
VOZ2 0648S 17000W 1433 F340 MS39 172/18=
ANZ5 1606S 16518W 1442 F340 MS39 156/28=
VOZ2 0848S 17212W 1456 F340 MS39 240/22=
UAL839 0454S 16754W 1409 F350 MS43 188/28=
SQC7294 3824S 16700E 1411 F350 MS50 173/36=
UAL863 0312S 16606W 1416 F350 MS42 187/33=
ANZ1 1848S 16712W 1426 F350 MS42 127/21=
SQC7294 3806S 17042E 1432 F350 MS51 260/12=
ANZ1 2112S 16900W 1447 F350 MS40 318/03=
THT101 0800S 14406W 1401 F360 MS47 265/28=
QFA94 0118S 15318W 1403 F360 MS46 230/27=
THT8 0148S 14306W 1404 F369 MS47 305/66=
QFA12 0636S 15930W 1406 F360 MS47 207/26=
LAN801 4018S 17800E 1410 F360 MS58 332/16=
QFA8 1042S 16300W 1412 F360 MS45 204/27=
ANZ7 2530S 17142W 1413 F360 MS43 321/29=
THT101 0936S 14454W 1415 F360 MS48 255/26=
DAL417 1506S 17512W 1416 F360 MS43 274/14=
DAL417 1512S 17524W 1418 F360 MS43 262/16=
UAL839 0618S 16930W 1426 F360 MS45 182/29=
0000137700
374
UAPS01 NZKL 111500 RRA
AIREP
QFA12 0818S 16142W 1427 F360 MS47 191/30=
THT101 1112S 14542W 1429 F360 MS47 248/28=
UAL839 0648S 17000W 1431 F360 MS45 192/27=
DAL417 1606S 17700W 1432 F360 MS43 257/28=
QFA8 1218S 16518W 1433 F360 MS45 181/27=
ANZ7 2736S 17400W 1434 F360 MS44 320/54=
ANZ991 2512S 17718E 1439 F360 MS45 300/40=
UAL839 0736S 17054W 1440 F360 MS45 212/24=
THT101 1242S 14630W 1443 F360 MS46 233/25=
DAL417 1700S 17830W 1445 F360 MS43 280/19=
QFA94 0506S 15712W 1446 F360 MS47 208/27=
UAL839 0842S 17206W 1452 F360 MS44 216/23=
UAL839 0848S 17218W 1453 F360 MS44 226/24=
QFA8 1348S 16736W 1454 F360 MS44 183/19=
UAL863 0648S 17000W 1456 F360 MS44 195/29=
UAL839 0912S 17242W 1457 F363 MS46 226/26=
UAL863 0700S 17018W 1458 F360 MS44 200/26=
DAL417 1806S 17954E 1459 F360 MS43 299/14=
HAL446 1518S 17900E 1408 F370 MS46 288/19=
THT8 0006S 14230W 1418 F370 MS48 313/67=
HAL446 1342S 18000E 1422 F370 MS46 259/13=
HAL446 1206S 17900W 1435 F370 MS47 264/20=
FJI922 2030S 17030E 1450 F370 MS46 278/35=
FJI811 0912S 16836W 1409 F380 MS51 183/25=
ANZ83 1900S 17812W 1410 F380 MS47 345/17=
ANZ3 2648S 17154W 1415 F380 MS49 322/42=
ANZ83 2048S 17848W 1423 F380 MS47 353/28=
FJI811 1018S 17030W 1426 F380 MS51 221/14=
ANZ3 2854S 17406W 1436 F380 MS49 314/72=
ANZ83 2242S 17930W 1437 F380 MS48 336/29=
00000000