0000132200
455
SIVF30 KWBC 111500 RRE
BBXX
62163 11154 99475 70084 46/// /1615 10113 20094 40177 56012 22200
 00122 10805 70027=
64045 11154 99591 70117 46/// /2717 10069 20011 40111 52010 22200
 00096 10808 70042 333 90710 91126=
62105 11154 99550 70132 46/// /1717 10088 20023 40133 57020 22200
 00108 10907 70033=
62107 11154 99501 70061 46/// /1312 10093 20036 40209 56003 22200
 00106 11005 70024=
62301 11154 99524 70047 46/// /2604 10075 20013 40213 52008 22200
 00097 10503 70014=
LF5T 11154 99660 10081 41697 71219 11034 21052 40070 52004 77172
 877// 22200 10605 70027=
LF3F 11154 99643 10078 41597 70720 11038 21091 40027 52003 70322
 87/// 22200 04103 10604 70020=
3ERR2 11154 99653 10073 43/// /1025 11031 21076 40044 57001 22200
 10707 70033=
LF4C 11154 99584 10019 41498 62927 10061 20025 40054 52014 71582
 84902 91511 22200 00052 10706 70028=
LF4B 11154 99606 10037 47/98 /3403 10024 40016 52013 700// 22200
 00037 10705 70023=
LF3N 11154 99653 10073 41597 71022 11029 21072 40040 52001 70282
 879// 22200 00083 10707 70033=
MINUK03 1115/ 99525 10046 46/// ///// 10075 40159 52034=
MINUK05 1115/ 99602 70011 46/// ///// 10065 40028 52012=
MINUK01 1115/ 99571 70021 46/// ///// 10060 40130 52022=
MINFR00 1115/ 99386 70306 46/// ///// 10108 40125 52009=
0000181200
456
SIRA24 RUHB 111500
AAXX 11151
21802 42999 01505 11378 21400 30224 40252 57007=
24125 42998 01102 11459 21480 39975 40310 57007=
24136 NIL=
24143 42999 20000 11463 21492 30308 40368 58007 80005=
24266 41997 80000 11407 21428 30148 40354 56005 77177 80007=
24329 NIL=
24343 NIL=
24382 41998 80000 11289 21313 30043 40322 54000 77072 86057=
24639 41994 02501 11452 21483 30202 40386 57010 71000=
24641 41998 02301 11431 21468 30214 40384 57009 71200=
24652 42997 00602 11487 21518 30243 40394 54000=
24656 42999 00401 11490 21518 30278 40404 53003=
24671 41999 21604 11426 21449 39760 40358 51001 73673 82500=
24688 41998 00000 11483 21499 39296 40395 52004 70400=
24724 42999 02004 11388 21417 39764 40382 57011=
24738 41994 01501 11407 21432 30190 40398 57008 71000=
24768 42998 62501 11438 21470 30118 40397 58001 86030=
24923 41996 60000 11462 21492 30065 40436 57011 71022 82031=
24944 41997 82602 11434 21457 30087 40437 57008 77172 80007=
24951 42999 52701 11438 21469 30227 40428 58002 82046=
24661 41998 00000 11499 21530 30075 40402 52004 74000=
24959 41996 62101 11431 21468 30243 40397 57001 77172 80005=
24962 41995 82801 11427 21450 30179 40403 58001 71022 80008=
24966 41998 80000 11391 21425 30125 40380 58007 77172 86037=
24967 42999 80000 11425 21443 30164 40425 58002 80007=
25206 42999 60000 11399 21421 30252 40284 58004 80001=
25400 41998 80402 11280 21304 30220 40282 53002 77172 84037=
30054 41996 00000 11477 21512 30153 40449 57014 71000=
30089 42999 20000 11500 21531 30206 40485 57008 80001=
30393 42999 00000 11386 21408 39240 40457 57004=
30493 42999 00503 11348 21384 39217 40414 58001=
31004 42999 82101 11387 21413 39470 40446 58009 80007=
31137 41997 80000 11328 21344 39207 40376 58002 77177 80007=
0000084000
457
SICI26 BABJ 111500
AAXX 11151
55299 32/// 92201 11099 21235 35833 52011=
55591 42/71 92902 11022 21083 36496 52006=
56739 32/// 91403 10059 20022 38346 52014=
56951 33/// 90000 10092 20006 38544 52016=
56964 33/// 90000 10123 20105 40190 52013=
57328 41/19 90401 10047 20034 40337 52021 710//=
57411 33/// 91801 10068 20046 40342 52023=
57447 43/// 92701 10044 20035 40340 52012=
57662 32/// 92901 10036 20021 40341 52012=
57745 31/30 90702 10040 20019 40345 52019 71000=
57972 41/// 93402 10047 20029 40330 52022 760//=
58203 31/16 92501 10008 21008 40325 52011 710//=
58314 33/// 92702 10040 20005 40323 52007=
58424 31335 93403 10034 20027 40315 52007 710//=
59023 32/// 92701 10078 20071 40296 52018=
59417 32/// 91102 10138 20125 40250 52019=
59985 42/61 90406 10234 20209 40192 52007=
0000025000
458
SIVJ30 KWBC 111500 RRA
BBXX
AMOUK01 1115/ 99604 50278 46/// ///// 11012 21018 49977=
AMOUK40 1115/ 99642 50650 46/// ///// 11006 21011 49947=
FHZI 11154 99654 31401 46/// /1514 11010 21010 39904 49915 52012
 22200 05016 86010=
0000066100
459
UDAF01 FAPR 111525
AMDAR 1115
DES AFZA44 0655S 03907E 111520 F024 PS215 047/014 TB1 S031 333 F/// VG021=
DES AFZA44 0654S 03908E 111521 F021 PS224 040/013 TB1 S031 333 F/// VG021=
DES AFZA44 0654S 03909E 111521 F018 PS230 043/015 TB1 S031 333 F/// VG021=
DES AFZA44 0653S 03909E 111522 F015 PS238 048/015 TB1 S031 333 F/// VG024=
DES AFZA44 0652S 03910E 111522 F012 PS246 053/013 TB1 S031 333 F/// VG024=
DES AFZA44 0652S 03910E 111523 F010 PS255 051/015 TB1 S031 333 F/// VG024=
DES AFZA44 0651S 03911E 111523 F007 PS262 053/015 TB1 S031 333 F/// VG024=
DES AFZA44 0650S 03912E 111524 F004 PS272 053/013 TB1 S031 333 F/// VG024=
0000066100
460
UDAF01 FAPR 111526
AMDAR 1115
ASC AFZA71 2607S 02815E 111524 F053 PS250 017/004 TB1 S031 333 F/// VG038=
ASC AFZA71 2607S 02815E 111525 F053 PS247 233/006 TB1 S031 333 F/// VG026=
ASC AFZA71 2606S 02815E 111525 F054 PS242 331/008 TB1 S031 333 F/// VG031=
ASC AFZA71 2606S 02815E 111525 F057 PS233 291/018 TB1 S031 333 F/// VG029=
UNS AFZA71 2606S 02815E 111526 F061 PS225 279/013 TB1 S031 333 F/// VG024=
UNS AFZA71 2605S 02816E 111526 F064 PS217 280/017 TB1 S031 333 F/// VG025=
UNS AFZA71 2605S 02816E 111526 F066 PS212 279/015 TB1 S031 333 F/// VG031=
UNS AFZA71 2605S 02816E 111526 F068 PS211 267/016 TB1 S031 333 F/// VG037=
0000066100
461
UDAF01 FAPR 111526
AMDAR 1115
LVR AFZA41 1516S 01918E 111435 F360 MS462 094/014 TB0 S031 333 F/// VG011=
LVR AFZA41 1434S 01844E 111443 F360 MS462 090/024 TB0 S031 333 F/// VG011=
LVR AFZA41 1351S 01810E 111450 F360 MS461 108/021 TB0 S031 333 F/// VG011=
LVR AFZA41 1308S 01736E 111457 F360 MS455 101/018 TB0 S031 333 F/// VG011=
LVR AFZA41 1219S 01716E 111504 F360 MS453 113/020 TB0 S031 333 F/// VG011=
LVR AFZA41 1131S 01652E 111511 F360 MS460 129/020 TB0 S031 333 F/// VG011=
LVR AFZA41 1050S 01616E 111518 F360 MS463 139/021 TB0 S031 333 F/// VG011=
LVR AFZA41 1009S 01540E 111525 F360 MS465 127/015 TB0 S031 333 F/// VG011=
0000066100
462
UDAF01 FAPR 111528
AMDAR 1115
ASC AFZA60 2607S 02815E 111526 F054 PS245 237/005 TB0 S031 333 F/// VG000=
ASC AFZA60 2606S 02815E 111527 F057 PS242 253/007 TB0 S031 333 F/// VG009=
ASC AFZA60 2606S 02815E 111527 F057 PS241 269/008 TB0 S031 333 F/// VG018=
ASC AFZA60 2606S 02815E 111527 F061 PS234 270/011 TB0 S031 333 F/// VG009=
ASC AFZA60 2605S 02815E 111527 F064 PS226 284/014 TB0 S031 333 F/// VG009=
ASC AFZA60 2605S 02815E 111527 F067 PS221 283/014 TB0 S031 333 F/// VG009=
ASC AFZA60 2604S 02815E 111527 F071 PS213 287/013 TB0 S031 333 F/// VG009=
ASC AFZA60 2604S 02816E 111528 F074 PS199 294/012 TB0 S031 333 F/// VG000=
0000066100
463
UDAF01 FAPR 111528
AMDAR 1115
ASC AFZA71 2606S 02818E 111526 F072 PS198 273/012 TB0 S031 333 F/// VG019=
ASC AFZA71 2606S 02819E 111527 F075 PS192 270/015 TB0 S031 333 F/// VG015=
ASC AFZA71 2606S 02820E 111527 F077 PS187 268/018 TB1 S031 333 F/// VG023=
ASC AFZA71 2606S 02821E 111527 F078 PS181 267/015 TB1 S031 333 F/// VG022=
ASC AFZA71 2606S 02822E 111527 F080 PS170 291/011 TB0 S031 333 F/// VG014=
UNS AFZA71 2607S 02823E 111527 F083 PS161 287/013 TB1 S031 333 F/// VG022=
ASC AFZA71 2608S 02824E 111528 F093 PS133 268/013 TB0 S031 333 F/// VG013=
ASC AFZA71 2608S 02825E 111528 F100 PS112 263/013 TB0 S031 333 F/// VG012=
0000012600
464
SITH43 VTBB 110300 CCA
AAXX 11034
48481 31958 20000 10278 20188 30129 40156 52015 70510 82041
  333 58009=
0000012700
465
SIZA01 FAPR 111500 RRA
AAXX 11154
68368 NIL=
68588 NIL=
68814 NIL=
68842 NIL=
68858 NIL=
68920 NIL=
0000016300
466
SSVX13 LFPW 111530
ZZYY 13592 11014 1530/ 728955 053555 6113/ 22219 00232 33300 88872
 20000 43686 444 20130 11014 1530/ 50101 80112 80008 9/015=
0000016300
467
SSVX13 LFPW 111530
ZZYY 13591 11014 1530/ 722950 066422 6113/ 22219 00262 33300 88872
 20000 43607 444 20130 11014 1530/ 50101 80106 80010 9/015=
0000018400
468
SSVX13 LFPW 111530
ZZYY 41736 11014 1530/ 712013 040321 6113/ 11119 40153 57006 22219
 00257 33300 88872 20000 43603 444 20130 11014 1530/ 50101 80112
 80021 9/015=
0000011000
469
UANT01 CWAO 111529
ARP AAL37 5357N03407W 1529 F330 MS55 193/17 KT
N390AA DDL XXN 111529 F69A
0000024000
470
SITN20 HTDA 111500
AAXX 11154
63729 NIL=
63733 NIL=
63756 NIL=
63791 NIL=
63801 NIL=
63832 NIL=
63862 NIL=
63866 NIL=
63870 NIL=
63881 NIL=
63887 NIL=
63894 NIL=
63932 NIL=
63962 NIL=
63971 NIL=
0000018400
471
SSVX13 LFPW 111530
ZZYY 41734 11014 1530/ 705270 039050 6113/ 11119 40123 57010 22219
 00265 33300 88872 20000 43603 444 20130 11014 1530/ 50101 80118
 80026 9/015=
0000039600
472
SSVX02 KARS 111527
ZZYY 56905 11014 1400/ 358599 103389 6112/
11119 49905 52015
22219 00029
444 2012/ 11014 1357/ 50101 80114 80023 9/015=
ZZYY 74546 11014 1400/ 361654 092656 6111/
11119 49777 52005
22219 01001
444 2011/ 11014 1437/ 50101 80064 80000 9/015=
ZZYY 44928 11014 1500/ 751569 031952 6111/
22219 00070
444 20110 11014 1507/ 50101 80112 80014 9/015=
0000011000
473
UANT01 CWAO 111530
ARP AFR356 5402N01618W 1530 F350 MS62 228/86 KT
FGSPJ DDL BLY 111530 F11A
0000011000
474
UANT01 CWAO 111530
ARP DLH402 5400N01952W 1530 F370 MS63 217/80 KT
DABVY QXT EUA 111530 F70A
00000000