0000114600
415
SNCN19 CWAO 111434
OOXX
KIP39 11121 99020 51574 ///// 00181
     26/// /3403 10256 29091 30079 91220 333 60000=
KIP39 11121 99020 51574 ///// 00181
     26/// /3303 10256 29091 30077 91230 333 60000=
KIP39 11121 99020 51574 ///// 00181
     26/// /3303 10256 29092 30076 91240 333 60000=
KIP39 11121 99020 51574 ///// 00181
     26/// /3403 10254 29091 30075 91250 333 60000=
KIP39 11131 99020 51574 ///// 00181
     26/// /3304 10256 29090 30074 91300 333 60000=
KIP39 11131 99020 51574 ///// 00181
     26/// /3304 10257 29091 30073 91310 333 60000=
KIP39 11131 99020 51574 ///// 00181
     26/// /3304 10255 29090 30074 91320 333 60000=
KIP39 11131 99020 51574 ///// 00181
     26/// /3204 10256 29090 30073 91330 333 60000=
KIP39 11131 99020 51574 ///// 00181
     26/// /3304 10256 29090 30073 91340 333 60000=
KIP39 11131 99020 51574 ///// 00181
     26/// /3204 10257 29090 30074 91350 333 60000=
KIP39 11141 99020 51574 ///// 00181
     26/// /3403 10257 29091 30073 91400 333 60000=
KIP39 11141 99020 51574 ///// 00181
     26/// /3303 10256 29091 30075 91410 333 60000=

0000114600
416
SNCN19 CWAO 111410
OOXX
MRP43 11121 99181 70159 ///// 00101
     26/// /0205 10227 29050 30159 91200 333 60000=
MRP43 11121 99181 70159 ///// 00101
     26/// /0305 10228 29048 30159 91210 333 60000=
MRP43 11121 99181 70159 ///// 00101
     26/// /0205 10233 29045 30157 91220 333 60000=
MRP43 11121 99181 70159 ///// 00101
     26/// /0105 10236 29044 30156 91230 333 60000=
MRP43 11121 99181 70159 ///// 00101
     26/// /0205 10238 29043 30153 91240 333 60000=
MRP43 11121 99181 70159 ///// 00101
     26/// /0205 10239 29042 30152 91250 333 60000=
MRP43 11131 99181 70159 ///// 00101
     26/// /0304 10244 29040 30153 91300 333 60000=
MRP43 11131 99181 70159 ///// 00101
     26/// /0305 10245 29040 30152 91310 333 60000=
MRP43 11131 99181 70159 ///// 00101
     26/// /0404 10246 29039 30148 91320 333 60000=
MRP43 11131 99181 70159 ///// 00101
     26/// /0205 10245 29039 30148 91330 333 60000=
MRP43 11131 99181 70159 ///// 00101
     26/// /0204 10246 29038 30144 91340 333 60000=
MRP43 11131 99181 70159 ///// 00101
     26/// /0204 10251 29037 30144 91350 333 60000=

0000105400
417
SNCN19 CWAO 111454
OOXX
CAP17 11121 99476 70527 ///// 01331
     26/// /0809 11022 29074 30060 91250 333 60000=
CAP17 11131 99476 70527 ///// 01331
     26/// /0810 11024 29075 30062 91300 333 60000=
CAP17 11131 99476 70527 ///// 01331
     26/// /0710 11022 29075 30063 91310 333 60000=
CAP17 11131 99476 70527 ///// 01331
     26/// /0808 11022 29074 30064 91320 333 60000=
CAP17 11131 99476 70527 ///// 01331
     26/// /0906 11022 29074 30066 91340 333 60000=
CAP17 11131 99476 70527 ///// 01331
     26/// /0907 11021 29074 30063 91350 333 60000=
CAP17 11141 99476 70527 ///// 01331
     26/// /0908 11019 29073 30062 91400 333 60000=
CAP17 11141 99476 70527 ///// 01331
     26/// /0907 11020 29073 30064 91410 333 60000=
CAP17 11141 99476 70527 ///// 01331
     26/// /0807 11021 29073 30065 91420 333 60000=
CAP17 11141 99476 70527 ///// 01331
     26/// /0807 11020 29073 30065 91430 333 60000=
CAP17 11141 99476 70527 ///// 01331
     26/// /0907 11018 29072 30063 91440 333 60000=

0000010000
418
SNAA01 KARS 111300 RRF
AAXX 1113/
89866 46/// ///// 11008 39866 4//// 5//// 91340=
0000013300
419
SNAA01 KARS 111400 RRD
AAXX 1114/
89799 46/// ///// 11213 4//// 5////=
89314 46/// ///// 11131 38278 4//// 5////=
0000010900
420
UANT99 KDDL 111508
ARP VIR5C 5001N01921W 1508 F330 MS57 191/88 KT
GVHOT DDL XXN 111509 F39A
0000011000
421
UANT99 KDDL 111509
ARP DLH426 5405N02300W 1508 F360 MS60 202/63 KT
DAIGY QXT AOE 111509 J15A
0000011000
422
UANT99 KDDL 111509
ARP MSR985 4631N02207W 1509 F330 MS54 198/99 KT
SUGDL QXT AOE 111509 F31A
0000065600
423
SIBO21 SLLP 111500
AAXX 11154
85041 41460 73307 10285 20245 39863 40127 52019 71522 86970
333 56770 58013 85815 81920 87358=
85140 42470 63406 10290 20235 39910 40119 52012 86200
333 56700 58010 86815=
85141 42470 51204 10262 20248 39881 40112 50008 84801
333 56707 58011 81610 84815 85070=
85151 NIL=
85152 42470 63404 10275 20237 39891 40116 52017 86800
333 56700 58016 86815=
85201 42470 41206 10133 20040 36311 50004 83201
333 56000 58012 83815 83070=
85230 NIL=
85242 42470 22105 10163 20047 36566 52012 82201
333 56100 58017 82815=
85332 32570 13612 10158 21003 36589 50002 81101
333 56000 58010 81827=
0000011000
424
UANT01 CWAO 111509
ARP DLH410 5106N02640W 1509 F370 MS50 198/60 KT
DAIKQ QXT EUA 111509 J54A
0000011000
425
UANT01 CWAO 111509
ARP UAE201 6310N05144W 1509 F380 MS59 232/14 KT
A6EDO DDL XXH 111509 J74A
0000050400
426
SIBU20 LZSO 111500
AAXX 11151
15502 42970 10000 10136 20030 30175 40214 58010 81050 333 10155 20010
555 549//=
15552 42970 33203 10110 21027 30168 40217 57001 84040 333 10135 20048
555 538// 92014 92418=
15614 42660 70000 10073 20024 39518 40226 57007 86131 333 10100 21008
555 571//=
15615 41986 22706 11061 21072 37128 47069 57006 70200 80004 333 11036
21061 444 26254 555 591//=
15730 41660 70000 10112 20028 39819 40213 57007 70411 85846 333 10124
20011 555 556//=
0000056700
427
SIBU40 LZSO 111500
AAXX 11151
15525 42580 32901 10114 20021 39952 40216 56009 83200 333 10160 20053
555 553//=
15549 42970 02902 10086 21001 39800 40217 57006 333 10100 20027 555
554//=
15600 41989 63210 10020 20009 38325 48520 56004 70311 86050 333 10024
21016 555 593//=
15640 42970 00000 10116 20035 39913 40224 57007 333 10138 20010 555
558//=
15655 42970 10000 10112 20020 30182 40215 57008 80001 333 10145 20035
555 553// 92010 92417=
15712 41570 63403 10036 20026 39982 40239 56009 70142 84631 333 10046
20015 555 593//=
0000011000
428
UANT01 CWAO 111509
ARP AFR682 4605N04952W 1509 F350 MS62 305/65 KT
FGSPP QXS YYT 111509 F32A
0000010900
429
UANT01 CWAO 111509
ARP BAW43C 5142N03426W 1509 F360 MS54 257/7 KT
GVIIR QXT AOE 111509 F22A
0000014500
430
SIVB10 EHDB 111500
BBXX
DGSE 11153 99520 11736 41598 63010 10015 21025 49815 54000 70211
85563 22214 04050 21406 304// 41106=
0000015700
431
SSVX13 LFPW 111500
ZZYY 14516 11014 1500/ 332240 055034 6113/ 11119 40163 54000 22219
 00207 444 20130 11014 1500/ 50101 80146 80016 9/015=
0000015700
432
SSVX13 LFPW 111500
ZZYY 14530 11014 1500/ 330332 053568 6113/ 11119 40161 52003 22219
 00235 444 20130 11014 1500/ 50101 80150 80021 9/015=
0000003800
433
SIVE10 EHDB 111500
NIL
0000003800
434
SIVJ10 EHDB 111500
NIL
00000000