0000018200
875
FTIN90 VABP 111500
TAF VABP 111500Z 1118/1224 05010KT 1500 BR FEW100 BEC 1201/1203 05005KT 0800 FG BEC 1206/1208 05005KT 2500 HZ FEW020 BEC 1212/1214 09005KT 1500 HZ=
0000216500
876
SZNZ01 NZKL 111518
CREX++
T000103 A001 D01021 D06025++
-3683144 17478654 AUCT  2014 01 11 15 10 //// 11 07 00 01
05894 3185 05898 3185 05902 3185 05905 3184 05907 3183 05910 3182+
-4402404 -17636748 CHIT  2014 01 11 15 10 //// 11 07 00 01
05297 2146 05271 2123 05275 2130 05291 2148 05288 2148 05272 2135+
-4089929 17623168 CPIT  2014 01 11 15 10 //// 11 07 00 01
04406 2280 04394 2271 04394 2274 04395 2277 04384 2269 04392 2280+
-3618905 17548887 GBIT  2014 01 11 15 10 //// 11 07 00 01
06347 0001 06353 0005 06350 0001 06351 0000 06354 0001 06357 0003+
-3867541 17802288 GIST  2014 01 11 15 10 //// 11 07 00 01
04503 2695 04507 2700 04512 2706 04520 2715 04501 2697 04514 2711+
-4241288 17370277 KAIT  2014 01 11 15 10 //// 11 07 00 01
03840 2256 03840 2260 03835 2258 03842 2269 03837 2267 03828 2262+
-3755040 17815904 LOTT  2014 01 11 15 10 //// 11 07 00 01
04005 0193 04012 0199 04014 0200 04010 0196 04005 0190 04010 0194+
-3704657 17451175 MNKT  2014 01 11 15 10 //// 11 07 00 01
02306 -0113 02327 -0098 02327 -0105 02336 -0102 02329 -0116 02349 -0103+
-3947566 17692007 NAPT  2014 01 11 15 10 //// 11 07 00 01
03548 2012 03527 1994 03528 1997 03515 1985 03514 1987 03526 2001+
-3441483 17304870 NCPT  2014 01 11 15 10 //// 11 07 00 01
-03526 -8306 -03682 -8465 -03682 -8470 -03724 -8515 -03713 -8509 -03632 -8431+
-4581435 17062939 OTAT  2014 01 11 15 10 //// 11 07 00 01
04806 3417 04800 3417 04794 3417 04790 3419 04784 3420 04779 3420+
-2928002 -17789440 RBCT  2014 01 11 15 10 //// 11 07 00 01
06297 1963 06298 1963 06300 1964 06287 1950 06286 1948 06304 1965+
-2925114 -17790384 RFRT  2014 01 11 15 10 //// 11 07 00 01
03270 0154 03260 0143 03259 0141 03275 0156 03256 0135 03266 0144+
-4357010 17277383 SUMT  2014 01 11 15 10 //// 11 07 00 01
02496 1810 02501 1820 02505 1830 02482 1812 02494 1829 02497 1838+
-3764109 17618118 TAUT  2014 01 11 15 10 //// 11 07 00 01
05566 3964 05565 3961 05572 3966 05568 3960 05530 3920 05562 3951+
-4128448 17477985 WLGT  2014 01 11 15 10 //// 11 07 00 01
03504 2021 03508 2028 03502 2025 03502 2029 03496 2026 03495 2028++
7777
0000009600
877
SAAE31 VTBB 111500 RRC
METAR VDSR 111500Z VRB03KT 9000 FEW020 25/19 Q1014 NOSIG=
0000010900
878
UANT99 KDDL 111516
ARP DAL2 5407N02321W 1516 F320 MS59 190/75 KT
N842MH QXT AOE 111516 F16A
0000059600
879
SAER10 OMAM 111500
METAR OMAD 111500Z NIL=
METAR OMAH 111500Z AUTO 02005KT /////NDV //// ///// 16/13 Q1021 A3015=
METAR OMAM 111500Z 04007KT 9999 -RA SCT045 BKN090 19/15 Q1018 A3006=
METAR OMDL 111500Z AUTO 00000KT /////NDV //// ///// 17/13 Q1019 A3011=
METAR OMDM 111500Z AUTO 03003KT 300V110 /////NDV //// ///// 18/15 Q1021=
METAR OMLW 111500Z 34005KT CAVOK 19/14 Q1019=
METAR OMMZ 111500Z AUTO 00000KT /////NDV //// ///// 21/10 Q1020 A3012=
METAR OMSN 111500Z NIL=
METAR OMSW 111500Z NIL=
METAR OMTH 111500Z AUTO 00000KT /////NDV //// ///// 19/12 Q1022 A3018=
0000032300
880
SIER20 OMAM 111500
AAXX 11154
41200 41860 80206 10176 20151 30163 40216 76122 8807/ 333 58006
      84358 86460=
41202 NIL=
41203 NIL=
41206 NIL=
41207 NIL=
41208 NIL=
41209 NIL=
41210 NIL=
41211 NIL=
41216 41660 80605 10189 20160 30191 40195 76166 8251/ 333 58003
      82645 88460=
0000013600
881
SAER10 OMAM 111500 RRA
METAR OMAD 111500Z 06005KT 020V090 9999 -RA FEW045 19/16 Q1019 A3010
                    NOSIG=
0000003900
882
SIER10 OMAM 111500
NIL=
0000015100
883
SNAA01 KARS 111000 RRE
AAXX 1110/
89869 46/// ///// 11058 39921 4//// 5//// 91020=
89108 46/// ///// 11200 37009 4//// 5//// 91020=
0000057000
884
WAAK49 PAWU 111506
WA9O
FAIS WA 111515
AIRMET SIERRA FOR IFR AND MT OBSC VALID UNTIL 112115
.
UPR YKN VLY FB
SE PACR MTS OCNL OBSC CLDS. NC.
.
TANANA VLY FC
SE PABI MTS OCNL OBSC CLDS/PCPN. NC.
.
ARCTIC SLP CSTL FG
PABR E OCNL CIG BLW 010/VIS BLW 3SM BR/BLSN BR. NC.
.
=FAIT WA 111515
AIRMET TANGO FOR TURB/STG SFC WINDS VALID UNTIL 112115
.
ST LAWRENCE IS AND WRN NORTON SOUND FK
PAGM W SUSTAINED SFC WND 30KTS OR GTR. NC.
.
=FAIZ WA 111515
AIRMET ZULU FOR ICING VALID UNTIL 112115
.
NONE
.
HOLTZIE JAN 14
0000312000
885
SIIR23 OIII 111500
AAXX 11151
40700 42960 02409 10064 21105 30047 40138 58001 333 10124 555
10014 29029 66666 00042 10038 20028 30030 50070 90090=
40723 42960 12602 10050 21059 38948 40207 55001 81030 333 10096
81359 555 10012 29045 66666 00008 10012 20006 30014 50034 90080=
40726 41630 40000 11042 21074 38665 40260 58001 70521 82520 333
10000 82635 83458 555 11050 29078 66666 01018 11020 21016 30000
50030 90080=
40727 41657 51302 11096 21118 38482 40281 53002 71010 82401 333
10019 82635 83070 555 11098 29084 66666 01013 11010 21005 30011
50023 90074=
40734 42960 61802 10076 20067 30168 40142 56005 80006 333 10124
86268 555 10072 29094 66666 00084 10086 20082 30086 50096 90122=
40737 42960 50000 10064 20055 30127 40145 58007 80006 333 10114
85270 555 10060 29094 66666 00068 10080 20078 30084 50106 90118=
40741 42660 21808 10101 21067 39840 40182 56004 82500 333 10160
82640 555 10043 29030 66666 00085 10084 20072 30070 50080 90111=
40780 42560 51202 10036 20032 38672 40183 52007 84370 333 10052
81725 82930 84640 85359 555 10034 29097 66666 00010 10020 20032
30038 50058 90090=
40791 42660 70000 10082 21035 39375 40221 53003 84420 333 10101
      84635 87460 555 10038 29043 66666 00082 10094 20096 30102
      50110 90158=
40792 42665 42702 10060 21138 38725 40214 55000 81532 333 10100
      81640 83360 555 11002 29023 66666 00074 10076 20056 30050
      50062 90110=
40794 41540 81203 10114 20106 30078 40178 51008 76366 8632/
333 10118 83930 83635 88557 555 10110 29095 66666 00114 10114
20116 30124 50146 90170=
40812 41540 82203 10101 20086 39783 40165 50002 76196 8332/ 333
10112 83930 83635 88557 555 10095 29089 66666 00100 10100 20116
30120 50138 90160 77777 00/// 10100 20/// 30/// 50100 70/// 99///=
40829 42660 70000 10064 21005 39649 40249 50002 81510 333 10105
81640 87460 555 10037 29061 66666 00090 10092 20094 30096 50126
      90168=
40833 41562 81703 10123 20103 30152 40184 53003 71798 889// 333
10142 83930 85635 555 10113 29088 66666 00130 10132 20148 30142
50192 90200 77777 00040 10099 20/// 30090 50089 70/// 99///=
40835 41656 81303 10087 20073 39336 40162 57001 76062 8337/ 333
10126 81935 82640 88360 555 10080 29091 66666 00084 10156 20090 30096
50096 90114=
40845 41550 83306 10162 20148 30167 40172 53011 72996 8492/ 333
10174 82720 82925 88458 555 10154 29092 66666 00142 10142 20144
30142 5//// 90182=
40882 41558 80905 10158 20148 30165 40201 52013 76062 8372/ 333
10162 83720 81925 83630 88558 555 10152 29094 66666 00146 10148
20156 30174 50176 90222=
40889 42660 81506 10184 20110 30199 40204 52006 8242/ 333 10212
82640 88460 555 10144 209062 66666 00178 10176 20182 30188 50204
90242=
40890 41530 83003 10168 20144 30191 40199 53011 76066 8332/ 333
10212 82925 82630 88558 555 10154 29086 66666 00160 10174 20186
 30196 50206 90234=
40893 41958 30000 10194 20061 30206 40212 51013 70522 83030 333
10202 83360 555 10128 29042 66666 00200 10208 20204 30204
50202 90206=
40897 45960 40000 10166 20033 30200 40215 52016
80006 10212 84067=
0000023700
886
UDEU02 EGRR 111520
AMDAR 1114
LVR EU6444   6212N 01927E 111459 F380 MS511 293/037 TB/ S031=
LVR EU6444   6121N 01900E 111506 F380 MS518 295/035 TB/ S031=
DES EU6444   6031N 01838E 111513 F253 MS448 281/063 TB/ S031=
0000052300
887
SITU14 LTAA 111500 RRA
AAXX 11154
17501 42560 32520 10166 20080 30196 40215 51006 81101
  333 81825 85070 92437=
17505 42560 32912 10153 20084 30116 40229 51001 81101
  333 81825 85070=
17515 42560 32409 10150 20068 30062 40237 51004 81101
  333 81825 85070=
17530 42560 30000 10160 20081 30171 40228 52002 81101
  333 81825 85070=
17535 42560 31906 10165 20083 30176 40212 52002 81101
  333 81825 85070=
17550 42560 32404 10150 20150 30070 40075 50220 81101
  333 81825 85070 92447=
0000036400
888
SXXX32 EUMS 111512
22E595B6
:PRS 1 /1 M 3117 3105 3105 3114 3107 3111 3127 3136 3134 3145 3158 3157 3157 3188 3188 3198 3194 3191 3205 3133 3167 3151 3143 3210 3102 3166 3165 3168 3232 :RAD 1 /3 6302 6320 6335 6350 6364 6363 6363 6379 6379 6399 :ENC 2 /5 4412 4446 4481 4476 4461 4499 :SW1 12 /60 60 :SW2 42 /60 60 :BAT 14 /15 12.6 :NAME 22E595B6
0000044500
889
SXXX32 EUMS 111513
32BD7124
:PRS 1 /1 1868 1865 1863 1858 1855 1854 1854 1856 1856 1859 1861 1862 1864 1866 1869 1879 1882 1884 1885 1887 1888 1888 1888 1885 1882 1878 1874 1864 1861 1858 :RAD 3 /3 7647 7641 7645 7649 7661 7666 7669 7664 7651 7640 7633 7636 7642 7645 7641 7635 7630 7631 7639 7649 :ENC 3 /5 4640 4640 4652 4665 4662 4640 4629 4639 4640 4629 4627 4643 :SW1 14 /60 0 :SW2 44 /60 0 :BAT 14 /15 12.5 :NAME 32BD7124
0000070300
890
SXXX32 EUMS 111513 RRA
223412A2
OT12 ID:IND-SADENG DT:2014 01 11 15 12
:PRS /1 01393 01414 01330 01238 01269 01297 01423 01394 01355 01299 01264 01252 01273 01398 01373 01374 01349 01282 01258 01280 01286 01248 01355 01446 01315 01220 01244 01205 01196 01226
:ENC /1 -13336 -13323 -1338398 01373 01374 01349 01282 01258 01280 01286 01248 01355 01446 01315 01220 01244 01205 01196 01226
:ENC /1 -13336 -13323 -13383 -13449 -13476 -13459 -13349 -13343 -13369 -13419 -13459 -13483 -13473 -13329 -13379 -13383 -13399 -13433 -13469 -13466 -13489 -13493 -13406 -13326 -13419 -13516 -13493 -13549 -13519 -13463
:RAD /1 11141 11160 11147 11096 11041 11021 11080 11121 11117 11083 11024
0000040600
891
SXXX32 EUMS 111515
262D700E
:PRS 1 /1 3399 3437 3427 3406 3423 3450 3499 3465 3445 3457 3434 3435 3434 3380 3440 3458 3446 3413 3416 3409 3382 3363 3380 3385 3376 3402 3428 3415 3443 3391 :RAD 1 /3 5886 5894 5877 5865 5860 5837 5828 5840 5836 5812 5808 5808 5787 5774 5782 :ENC 5 /5 6020 5982 5989 5931 5984 5923 5949 5885 5926 5861 5879 5851 :SW1 15 /60 0 :BAT 14 /15 13.1 :NAME 262D700E
0000044900
892
SXXX32 EUMS 111515 RRA
16289262
:PRS 1 /1 2496 2498 2486 2488 2468 2481 2485 2473 2475 2479 2468 2464 2464 2473 2467 2454 2463 2473 2462 2454 2442 2448 2454 2437 2444 2448 2440 2443 2443 2444 :RAD 1 /3 7932 7927 7921 7917 7916 7912 7904 7897 7893 7891 7884 7878 7876 7871 7863 7854 7849 7842 7836 7832 :ENC 5 /5 5305 5300 5285 5271 5270 5264 5254 5243 5232 5234 5224 5217 :SW1 15 /60 0 :SW2 45 /60 0 :BAT 14 /15 12.7 :NAME 16289262
0000045500
893
SXXX32 EUMS 111515 RRB
324DF524
:PRS 1 /1 2858 2847 2836 2824 2813 2801 2790 2778 2767 2756 2744 2733 2722 2711 2700 2689 2678 2667 2656 2645 2634 2623 2612 2602 2591 2580 2569 2558 2547 2536 :RAD 1 /3 2831 2796 2761 2726 2693 2658 2626 2591 2555 2520 2487 2452 2416 2383 2349 2317 2283 2249 2215 2181 :ENC 5 /5 1754 1695 1640 1583 1527 1473 1418 1362 1306 1251 1195 1139 :SW1 15 /60 0 0 :SW2 45 /60 60 60 :BAT 14 /15 12.2 :NAME 324DF524
0000041500
894
SXXX32 EUMS 111516
26CB10AC
:PRS 1 /1 -1339 -1339 -1339 -1339 -1339 -1339 -1339 -1339 -1339 -1339 -1339 -1339 -1339 -1340 -1339 -1339 -1339 -1339 -1339 -1339 -1339 -1339 -1339 -1339 -1339 -1339 -1339 -1339 -1340 -1339 :RAD 3 /3 6253 6248 6242 6238 6232 6226 6223 6219 6215 6211 :RA2 3 /3 6237 6235 6222 6226 6215 6209 6206 6202 6196 6192 :SW1 17 /60 0 :SW2 47 /60 0 :BAT 14 /15 12.3 :NAME 26CB10AC
00000000