0000124100
455
SREW41 EGRR 111500
03002002 03005000 03008002 03017000 03026OTR 03031006 03034OTR
03037002 03044008 03062000 03063000 03066000 03068000 03075OTR
03080000 03088000 03091000 03100000 03105004 03111000 03132000
03134000 03136000 03144000 03153000 03155000 03158000 03162000
03166000 03171000 03204000 03210000 03212000 03214000 03220000
03224000 03225000 03226000 03230000 03238000 03240000 03257000
03261000 03265000 03266000 03275000 03281000 03292000 03301000
03302000 03305000 03313000 03316000 03318000 03321000 03330000
03344000 03346000 03351000 03354000 03373000 03377000 03379000
03382000 03391000 03392000 03405000 03409000 03410000 03414000
03462000 03469000 03482000 03488000 03502000 03503000 03520000
03522000 03529000 03535000 03544000 03560000 03590000 03604000
03605000 03609000 03628000 03647000 03649000 03658000 03660000
03672000 03684000 03693000 03707000 03710000 03716000 03740000
03743000 03746000 03749000 03761000 03768000 03769000 03770000
03772000 03781000 03797000 03803000 03808000 03809000 03823000
03827000 03839000 03840000 03853000 03857000 03862000 03866000
03872000 03876000 03882000 03901000 03904OTR 03907000 03911999
03915000 03916000 03917000 03923000=
0000056300
456
SIVF21 ENMI 111500
BBXX
LDGJ 11151 99603 10053 43/// /3203 10020 21015 40011 5//// 222/0
      04076 1//// 3//// 4//// 5////=
LF4H 11154 99596 10022 46/// /3123 10063 20017 40018 52012 8////
      22200 06076 10707 70033=
LGWS 11151 99229 30145 43/// /2406 10192 20151 40112 5//// 222/0
      04160 1//// 3//// 4//// 5////=
LJIT 11151 99587 10052 43/// /3013 10060 20015 40013 5//// 222/0
      04068 1//// 3//// 4//// 5////=
LMEL 11151 99603 10053 43/// /3303 10015 21010 40007 5//// 222/0
      04077 1//// 3//// 4//// 5////=
0000047900
457
UDAS02 BABJ 111502
AMDAR 1115
LVR CNFNXN 3704N 11041E 111451 F341 MS535 259/085 TB/ S//1=
LVR CNFNXN 3656N 11020E 111454 F341 MS543 259/089 TB/ S//1=
LVR CNFNXN 3649N 11000E 111457 F341 MS549 259/085 TB/ S//1=
LVR CNFNXN 3641N 10939E 111500 F341 MS540 253/081 TB/ S//1=
DES CNFLWR 3734N 11328E 111457 F299 MS500 255/092 TB/ S//1=
DES CNFLWR 3750N 11354E 111500 F250 MS393 270/094 TB/ S//1=
DES CNFLWR 3750N 11355E 111500 F250 MS389 270/094 TB/ S//1=
0000027000
458
SXHW11 KWAL 111510
B159741A 011151053"
DY DH PC VB
14/01/11 15:00 25.49
14/01/11 14:45 25.49
14/01/11 14:30 25.49
14/01/11 14:15 25.49
14/01/11 14:00 25.49
14/01/11 13:45 25.49
14/01/11 13:30 25.48
14/01/11 13:15 25.48 12.4 39+0NN  16W
0000017000
459
SOVI10 KWAL 111511
B110070A 011151101"P9751095 B\P~W@@F0ekO1@oE???DkDd>@oD3@\D@@u4DO5DZ6bd9H~<BH2?????@"@@@ iTOHL@E@H@P@R@J@K:AMPTEMP 30.80C  46+0NN 219E
0000022400
460
USPK01 OPKC 111200
TTAA 6111/ 41529 NIL= 
TTAA 6111/ 41594 NIL= 
TTAA 6111/ 41640 NIL= 
TTAA 6111/ 41661 NIL= 
TTAA 6111/ 41675 NIL= 
TTAA 6111/ 41739 NIL= 
TTAA 6111/ 41756 NIL= 
TTAA 6111/ 41780 NIL=
0000022400
461
UKPK01 OPKC 111200
TTBB 6111/ 41529 NIL= 
TTBB 6111/ 41594 NIL= 
TTBB 6111/ 41640 NIL= 
TTBB 6111/ 41661 NIL= 
TTBB 6111/ 41675 NIL= 
TTBB 6111/ 41739 NIL= 
TTBB 6111/ 41756 NIL= 
TTBB 6111/ 41780 NIL=
0000101400
462
FPAE41 OMAE 111510
station,wdir,wspeed,temperature,dewpoint,pressure,time,date
"Al-Ain International Airport", 300,    3,  20,   9,1021.0,15:00,11.01.2014
"Bateen Airport",   -,    -,   -,   -,     -,15:00,11.01.2014
"Abu Dhabi International Airport",  40,    7,  18,  16,1019.0,15:00,11.01.2014
"Dubai International Airport",   -,    -,   -,   -,     -,15:00,11.01.2014
"Sharjah International Airport", 290,    4,  18,  16,1021.0,15:00,11.01.2014
"Ras al-Khaimah International Airport", 330,    4,  18,  16,1021.0,15:00,11.01.2014
"Fujairah Airport", 280,    1,  20,  11,1021.0,15:00,11.01.2014
"MUSCAT INTERNATIONAL AIRPORT",  70,    9,  20,   9,1020.0,15:00,11.01.2014
"DOHA INTERNATIONAL AIRPORT",  -1,    2,  16,  13,1021.0,15:00,11.01.2014
"KUWAIT INTERNATIONAL AIRPORT", 330,    6,  13,   8,1019.0,15:00,11.01.2014
"BAHRAIN INTERNATIONAL AIRPORT", 200,    7,  17,  13,1019.0,15:00,11.01.2014
"JEDDAH INTERNATIONAL AIRPORT",   -,    -,   -,   -,     -,15:00,11.01.2014
0000062500
463
FPAE44 OMAE 111510
station,wdir,wspeed,temperature,dewpoint,pressure,time,date
"Al-Ain International Airport", 300,    3,  20,   9,1021.0,15:00,11.01.2014
"Bateen Airport",   -,    -,   -,   -,     -,15:00,11.01.2014
"Abu Dhabi International Airport",  40,    7,  18,  16,1019.0,15:00,11.01.2014
"Dubai International Airport",   -,    -,   -,   -,     -,15:00,11.01.2014
"Sharjah International Airport", 290,    4,  18,  16,1021.0,15:00,11.01.2014
"Ras al-Khaimah International Airport", 330,    4,  18,  16,1021.0,15:00,11.01.2014
"Fujairah Airport", 280,    1,  20,  11,1021.0,15:00,11.01.2014
0000009000
464
SAAE31 VTBB 111500 RRB
METAR VTBD 111500Z 00000KT CAVOK 25/19 Q1015 NOSIG=
0000120800
465
SITU10 LTAA 111500
AAXX 11154
17022 42965 22703 10083 20048 30071 40239 53004 80001
 333 82070 91108 92427=
17031 42665 60000 10087 20050 30234 40241 52010 82450
 333 82636 86360 91112=
17038 42660 72909 10106 20063 30190 40242 52017 84250
 333 84835 86360 91127 92428=
17050 42970 00000 10093 20065 30164 40228 55005
 333 91104=
17060 42960 02404 10093 20057 30194 40235 51001
 333 91110=
17096 41520 31103 11172 21172 38250 48536 52007 71000 83500
 333 83630=
17124 41232 80607 11011 21024 39327 40283 52002 71022 886//
 333 88706 91112=
17128 41456 60505 11018 21026 39136 40287 53002 71022 83650
 333 83712 86358=
17170 41640 20902 11044 21061 38330 48508 50001 71000 82500
 333 82640=
17195 41940 01902 10017 21030 39018 48524 52005 71000
 333 91108=
17197 42960 0//// 10048 20003 39128 40239 52008=
17219 41558 60000 10129 20065 30078 40225 52002 70522 83250 333 83830 86360=
17240 42970 03501 10067 21005 39072 40251 55003
 333 91103=
17244 41931 41404 11003 21015 39048 48528 53008 71011 84030
 333 84360=
17280 42970 01004 10068 21034 39403 40217 52005=
17350 42660 62104 10141 20080 30136 40216 53006 83130
 333 83835 86360=
0000119100
466
SITU11 LTAA 111500
AAXX 11154
17026 42465 63505 10090 20088 30199 40238 52007 84650
 333 84710 86360 91110 92427=
17034 42670 60302 10110 20035 30200 40247 52010 83250 333 83835 86360 92428=
17070 42965 02403 10074 20017 39355 40242 53005
 333 91109=
17084 41657 82603 11010 21046 39339 40284 52004 71022 8452/  333 84640 88460 91108=
17090 42965 00202 10026 21063 38751 48516 52007=
17098 42660 50000 11116 21135 38201 48530 52006 85500
 333 85635 91105=
17150 41656 30000 10081 20046 30108 40236 57003 71000 83100
 333 83835 91103=
17160 41530 82702 11011 21013 39075 48526 50002 71022 886//
 333 88720=
17184 42662 71302 10109 20042 30120 40234 55000 83270
 333 83840 87360 91103=
17190 41925 41402 11006 21013 39037 48519 53001 71041 84030
 333 84360 91105=
17210 42970 20000 10043 21052 39163 40224 53005 80001
 333 82070=
17234 42670 60501 10110 20057 30160 40229 50002 83250
 333 83840 86360 91106=
17260 42960 02308 10105 21058 39380 40216 52008
 333 91121=
17290 42670 33301 10153 20128 30194 40226 57003 81230
 333 81835 83360 92418=
17370 42665 60000 10155 20066 30219 40223 52007 83230
 333 83835 86360 92417=
0000100300
467
SITU12 LTAA 111500
AAXX 11154
17024 42462 81002 10089 20071 30154 40232 52005 8462/
 333 84710 88460 91106 92427=
17056 41/00 91602 10059 20058 30229 40233 50000 74544
 333 89/02 91103 92411=
17067 42970 02503 10105 20050 30207 40230 53005
 333 91112 92418=
17092 NIL=
17112 42965 20103 10112 20062 30219 40221 55002 80001
 333 82070 91113 92427=
17115 41903 03407 10064 20058 30174 40227 57002 74600
 333 91110=
17116 42962 00401 10097 20040 30114 40238 50000
 333 91104=
17188 42970 02203 10082 20011 39163 40245 53004
 333 91108=
17202 42970 41303 10016 21050 39186 40256 52004 80001
 333 84070=
17248 42965 02901 10016 21037 39026 48518 50002=
17292 42670 33201 10105 20069 39467 40240 52004 83200
 333 83835 91107=
17300 42960 42203 10127 20086 30145 40218 53003 80001
 333 84070=
17310 42670 52806 10158 20092 30209 40216 52005 82260
 333 82837 84361 91109 92448=
17330 42970 30000 10145 20058 30198 40216 52006 83030
 333 83360=
0000094600
468
SITU13 LTAA 111500
AAXX 11154
17042 41560 71302 10103 20061 30207 40247 52008 78082 84250
 333 84830 87358 92437=
17074 41530 80902 11008 21024 39294 40270 53003 71022 8572/
 333 85726 88458 91105=
17086 42970 02701 10028 21039 39514 40258 55002=
17088 42670 62004 10042 21068 38819 48512 53014 84550
 333 84640 86360=
17140 41903 01701 11024 21032 38743 48520 53004 74444=
17155 42970 02101 10036 21012 39107 40263 52001
 333 91103=
17203 42670 30000 11014 21093 38900 48538 52008 83100
 333 83840=
17237 42970 02302 10107 20019 39721 40233 53001
 333 91103=
17250 42970 02404 10028 21042 38847 48528 52008=
17270 42670 22802 10102 21043 39547 40203 51002 82200
 333 82840=
17295 42560 32603 10144 20105 30220 40227 51003 81101
 333 81830 83068=
17320 42670 32505 10153 20077 30207 40212 53003 83100
 333 83840 92438=
17375 42970 03401 10145 20083 30216 40218 52003
 333 91106 92418=
0000061000
469
SITU14 LTAA 111500
AAXX 11154
17500 42560 52910 10157 20086 30159 40218 55000 82101
333 82825 84070=
17501 NIL=
17505 NIL=
17507 42560 52304 10156 20069 30123 40237 53005 82101
333 82825 84070=
17510 42560 32406 10159 20083 30185 40195 54000 82101
333 82830 83070 92427=
17515 NIL=
17521 NIL=
17530 NIL=
17535 NIL=
17540 42560 41606 10165 20089 30215 40239 50000 82101
333 82830 84070 92427=
17547 42560 41006 10139 20074 39977 40221 52006 82101
333 82830 84070 92427=
17550 NIL=
17572 42560 32714 10158 20077 30205 40230 50003 82101
333 82830 83070 92427=
0000062700
470
SIBY21 UMMN 111500
AAXX 11151
26645 /1358 82302 10004 21010 39799 40061 57003 78582 889// 333
88707 555 69948=
26659 NIL=
26763 /2560 72906 10014 21015 39821 40049 52024 875// 333 87626
91116 555 69938=
26825 /2461 72406 10043 20015 39908 40090 54000 8653/   333 86617
91112   555 69938=
26832 /1560 72403 10043 20018 39898 40090 54000 72582 875// 333
87632 555 69948=
26887 32897 62706 10018 21043 39843 40049 52023 86090 333 91010 91114=
26961 32562 62804 10020 21005 39889 40083 52011 86500 333 86626 91111=
33027 /2597 73103 10050 20015 39943 40110 52010 87500 333 91110 555
69948=
0000012500
471
SIKB20 NGTT 111500
AAXX 11154
91610 41498 60309 10262 20240 40039 56021 72528 812/8 333 561/9 81818 85280 =
0000019800
472
SIIE23 EIDB 111500
AAXX 11151
03952 45981 /1406 10074 20016 30146 40197 58007=
03970 46/// /1402 10061 20035 30100 40186 58002=
03978 45962 /1903 10058 20014 30141 40184 52005=
0000020300
473
SOBR10 KWAL 111511
BAB00078 011151111":BUB 2 #1       M   0.559   0.579   0.599 :RAD 1 #1   0.475   0.472   0.452   0.465 :PRS 1 #1  -0.788  -0.787  -0.784  -0.777 :BL 12.09  35+0NN 219E
0000010000
474
SNAA19 LFVW 111400 RRD
AAXX 1114/
89614 46/// ///// 29001 39024 4//// 5//// 91430=
00000000