0000029800
715
SNVD15 KWNB 111400 RRR
BBXX
41051 11141 99183 70650 46/// /0910 10265 91430 333 91212 555
11109 22119=
41051 11141 99183 70650 46/// /0909 10265 91420 333 91211 555
11104 22113=
41051 11141 99183 70650 46/// /0910 10266 91400 22200 10402 70012
333 91212 555 11109 22119=
0000045500
716
SIMK01 KWBC 111500
AAXX 11151
13457 32570 33601 10127 20098 30223 40230 54001 81231 333 81826=
13462 42660 42301 10125 20080 30189 40229 55002 82531 333 82640=
13363 42670 11802 10121 20035 39301 48536 57009 81100=
13459 42670 61403 10096 20083 39465 40225 56003 83230 333 83896
85399=
13461 42670 60701 10131 20098 30226 40233 58001 83884 333 81840
82656 92312 92428=
13463 42570 52501 10130 20076 30168 40228 53002 83830=
0000013000
717
SIMX01 KWBC 111500 RRC
AAXX 11151
76833 32970 00000 10247 2//// 30144 40146 52018 91440 333 30///
58012 92000=
0000197900
718
SICO01 KWBC 111500
AAXX 11151
80001 21470 20809 10278 20232 30146 40147 72011 82200 333 562//
58004 69917 82818=
80002 32470 30804 10284 20229 82101 333 562/0 82818=
80009 31560 12202 10282 20230 30116 40121 70500 81101 333 560/0
58013 81820=
80022 31965 00000 10300 20218 30124 40126 70500 333 58012=
80035 32570 21111 10298 20191 30155 40160 82100 333 563// 58015
82820=
80036 31968 00405 10295 20181 70500=
80063 31465 10000 10290 20232 70511 81100 333 560// 81810 555
18010=
80084 31459 33404 10294 20257 70511 83800 333 563// 83817 555
18010=
80091 31468 12303 10298 20179 70500 81100 333 569// 81815 555
18010=
80094 31462 10000 10248 20164 38831 70500 81100 333 569// 58017
81815=
80099 32968 00803 10290 20193 39954 40099 80001 333 56//9 58007
81070=
80110 41558 40000 10215 20164 38513 70522 82170 333 5600/ 58022
82825 83358=
80112 31460 71403 10169 20127 37921 70522 84880 333 5600/ 58011
84815 84358=
80139 32970 10609 10298 20188 30070 40106 80001 333 56//0 58017
81070=
80210 31462 60701 10236 20169 38688 70522 83831 333 56990 58009
83817 83359=
80211 31570 50000 10228 20169 70522 84280 333 5683/ 84823 84360
555 18010=
80214 31457 71401 10228 20203 70522 85670 333 5677/ 85613 83457=
80222 31565 33403 10167 20078 37525 70521 81835 333 56299 58006
81820=
80234 32562 20504 10302 20176 39644 40140 81571 333 56239 58019
81627=
80028 31960 00505 10290 20217 30098 40133 70500 333 58011=
80144 31450 60000 10264 20240 71042 86800 333 56099 86815=
80259 41250 70000 10226 20213 39081 71052 85670 333 5683/ 58009
85608 85459 555 18010=
80315 21450 83302 10230 20217 39629 40133 75052 8462/ 333 5677/
58024 60027 84710 85459=
80342 21456 80000 10176 20151 38236 74062 8482/ 333 5647/ 58014
69957 84618 88358=
80370 32470 70000 10138 20098 37184 87800 333 563// 58007 87816=
80398 21262 80000 10248 20241 30049 40145 72166 8577/ 333 5689/
58023 60217 85706 86358=
0000120900
719
SIVS01 KWBC 111500
AAXX 11151
48839 32497 80506 10187 20177 30153 40200 52010 888// 333 58011
84894 88696=
48848 41597 83201 10186 20179 30203 40211 51010 70262 888// 333
58006 84895 88697=
48808 41495 80901 10139 20135 39945 40237 52014 71062 888// 333
58023 83894 88696=
48826 31596 80501 10178 20168 30089 40227 51015 71022 888// 333
58016 82895 88697=
48830 31495 83601 10137 20127 39927 40243 52016 71022 888// 333
58026 83894 88697=
48852 32598 70000 10204 20197 30195 40205 51012 878// 333 58005
82895 86697=
48855 32597 70000 10221 20202 30199 40207 50011 82848 333 58008
82895 87299=
48870 41597 83203 10220 20207 30178 40185 51012 72582 888// 333
58004 84895 84896=
48877 32598 83605 10249 20194 30168 40173 51015 888// 333 58003
82895 88697=
48887 41797 80703 10250 20213 30140 40146 51013 76062 885// 333
58003 88697 96160=
48920 32998 70205 10259 20243 30136 40139 51010 80008 333 58004
87299=
48914 32698 70701 10253 20213 30146 40148 51019 83508 333 58007
83696 87299=
48917 32598 60702 10250 20223 30130 40136 51010 83208 333 58006
83895 86299=
48918 32498 60504 10248 20214 30144 40155 52016 83208 333 58010
82894 86299=
0000011000
720
UANT01 CWAO 111513
ARP DLH418 5206N02728W 1513 F340 MS53 172/59 KT
DABYK QXT EUA 111513 F21A
0000011100
721
UANT01 CWAO 111513
ARP SVA037 4840N04505W 1513 F350 MS62 285/52 KT
HZAK22 QXT AME 111513 F78A
0000011000
722
UANT01 CWAO 111513
ARP AFR342 5020N04909W 1513 F350 MS59 306/71 KT
FGEXB QXT AOW 111513 F02A
0000011100
723
UANT01 CWAO 111513
ARP DAL603 4857N05021W 1513 F360 MS61 302/63 KT
N815NW DDL YYT 111513 J59A
0000137600
724
SIUZ20 UTTW 111500
AAXX 11151
38141 32998 20000 10008 21092 30037 40199 57002 80002 333 10072 555
53001=
38149 32998 00901 10009 21067 30125 40203 53001 333 10082 555 53001=
38178 329// 00000 11008 21113 39940 40235 52018 333 10017 555 53008=
38262 329// 01602 11028 21093 30143 40227 53006 333 10078=
38264 32998 01101 11012 21032 30113 40209 52002 333 10054=
38396 31996 30803 10002 21035 30085 40215 53004 71000 80001 333
10071=
38403 329// 00301 11011 21102 30080 40204 54000 333 10062 555 53007=
38413 329// 00801 10026 21072 39944 40240 53004 333 10100 555 53008=
38457 32997 01501 10015 21090 39645 40245 52006 333 10108 555 53005=
38462 NIL=
38565 329// 01503 10066 21028 39643 40228 53015 333 10105=
38579 329// 21401 10011 21073 39806 40233 52005 80001 333 10104 555
53003=
38583 32997 00901 10007 21032 39917 40247 53002 333 10064 555 53006=
38611 31994 03402 11026 21039 39709 40304 52004 71040 333 11020 555
53003=
38618 329// 30000 11040 21049 39568 40289 52008 80001 333 10024 555
53003=
38683 31996 81103 10037 21087 39942 40223 53006 70522 80001 333 10109
555 53007=
38696 329// 20000 11004 21066 39376 40257 52002 82040 333 10105 555
53008=
38812 32997 50703 10035 21025 39768 40229 52007 80001 333 10108 555
53004=
38927 31956 70701 10028 21027 39859 40244 57002 70422 80001 333
10120=
0000012700
725
SIIY21 LIIB 111500 CCA
AAXX 11154
16172 41908 82101 10090 20084 39921 40223 55007 74144 82037 333
      82360=
0000010900
726
UANT01 CWAO 111514
ARP VIR5C 5001N02022W 1513 F330 MS57 189/83 KT
GVHOT DDL XXN 111514 F41A
0000011100
727
UANT01 CWAO 111514
ARP UAL121 4707N04548W 1514 F310 MS58 295/63 KT
N14107 DDL IG1 111514 F13A
0000010900
728
UANT01 CWAO 111514
ARP AUA87 4951N04038W 1514 F350 MS60 293/58 KT
OELAY QXT AOW 111514 F62A
0000011000
729
UANT01 CWAO 111514
ARP BAW29G 5027N05208W 1514 F370 MS63 295/77 KT
GVIIK QXS YYT 111514 F02A
0000341800
730
SSVX08 KARS 111514
ZZYY 31003 10014 1200/ 507921 030490 6112/
33311 88872 20001 32720 43632 20040 32715 43641 20060 32719
20080 32706 20100 32559 20120 32314 43687 20140 32083 20180 31544
20300 31002 20500 30735
444 20120 10014 1152/ 521//=
ZZYY 13002 10014 1200/ 720444 023132 6112/
33311 88872 20001 32153 43671 20020 32152 20040 32148 43670
20080 32043 20100 31854 20120 31779 20140 31775 20180 31731
20300 31467 20500 31069
444 20120 10014 1140/ 521//=
ZZYY 13002 11014 11004 720447 023140 6112/
11119 00508 10204 29074
22219 00215
444 20120 11014 1032/ 521// 60401=
ZZYY 31006 10014 1200/ 704046 022978 6112/
33311 88872 20020 32744 43552 20040 32744 43571 20060 32327 43631
20080 31725 20100 31599 20120 31538 20140 31497 20180 31438
20300 31160 20500 30741
444 20120 10014 1148/ 521//=
ZZYY 31006 11014 11004 704043 022974 6112/
11119 00514 10260 29092
444 20120 11014 1121/ 521// 60401=
ZZYY 31001 10014 1200/ 500012 034993 6111/
33311 88872 20020 32716 43496 20040 32715 20060 32699 20080 32625
20100 32173 20120 31655 43581 20140 31421 20180 31277 20300 31063
20500 30704
444 20110 10014 1150/ 521//=
ZZYY 13009 10014 1200/ 707921 038091 6112/
33311 88872 20020 32610 43576 20040 32400 43600 20060 31970
20080 31678 20100 31490 20120 31356 43539 20140 31220 20180 31104
20300 30960 20500 30782
444 20120 10014 1149/ 521//=
ZZYY 41139 10014 12004 720011 037854 6111/
11119 00712 10215 29077 40201
22219 00240
33311 88872 20000 32402 20001 32404 43696 20020 32402 43706
20040 32402 43702 20060 32404 43704 20080 32410 20100 32351
20120 32230 20140 32151 20180 31985 20300 31610 20500 31215
444 20110 10014 1145/ 521// 60401=
ZZYY 41139 11014 11004 720007 037858 6112/
11119 00710 10231 29072 40191
22219 00240
444 20120 11014 1118/ 521// 60401=
ZZYY 31007 10014 1200/ 500004 022987 6111/
33311 88872 20001 32681 43566 20040 32615 43616 20060 32473
20080 32012 20100 31564 20120 31452 20140 31402 20180 31319
20300 31036 20500 30727
444 20110 10014 1152/ 521//=
ZZYY 41026 10014 1200/ 711497 037983 6112/
33311 88872 20001 32570 43597 20060 32563 20080 32137 20100 31693
20120 31445 43565 20140 31329 20180 31230 20300 31062 20500 30906
444 20120 10014 1148/ 521//=
ZZYY 13001 10014 1200/ 711462 022996 6112/
33311 88872 20001 32484 43550 20020 32484 43550 20040 32396 43558
20060 31761 43573 20080 31533 20100 31428 20120 31372 20140 31336
20180 31261 20300 31119 20500 30953
444 20120 10014 1146/ 521//=
ZZYY 43001 10014 1200/ 708036 110173 6112/
33311 88872 20001 32703 43345 20040 32525 20060 31562 20080 31344
20100 31278 20120 31229 20140 31181 20300 31016 20500 30776
444 20120 10014 1054/ 521//=
ZZYY 32322 10014 12004 501979 095188 6112/
11119 01810 10237 29087
22219 00237
33311 88872 20000 32366 20001 32383 43474 20020 32334 20040 32268
20060 32002 20080 31522 20100 31416 20120 31396 20140 31380
20500 30816
444 20120 10014 1253/ 521// 60401=
ZZYY 32322 11014 15004 501973 095196 6111/
11119 01508 10243 29088
22219 00240
444 20110 11014 1401/ 521// 60401=
ZZYY 32319 10014 1200/ 507990 110070 6113/
33311 88870 20020 32450 20080 32383 20100 32026 20120 31803
20180 31291 20300 31109 20500 30831
444 20130 10014 1310/ 521//=
ZZYY 32319 11014 15004 507980 110070 6112/
11119 01213 10242 29073
444 20120 11014 1505/ 521// 60401=
0000011000
731
UANT01 CWAO 111514
ARP AAL45 4910N04639W 1514 F340 MS62 285/56 KT
N363AA DDL XXN 111514 F34A
0000003800
732
SIVD21 ESWI 111500
NIL
0000003800
733
SIVA21 ESWI 111500
NIL
0000087900
734
SIVZ11 SBBR 111500 RRC
BBXX
SHIP 11151 99/// 1//// 36/// /1302 10305 20159 39334 40179
  333 10307 20288 553// 03628 91107=
SHIP 11151 99/// 1//// 36/// /0301 10273 20176 39325 40140
  333 10273 20259 553// 02288 91104=
SHIP 11151 99/// 1//// 16/// /1304 10316 20179 39884 40143 52/// 6996/
  333 10318 20255 553// 03245 91108=
SHIP 11151 99/// 1//// 16/// /1906 10193 20182 39661 40161 6002/
  333 10197 20193 553// 00342 91114=
SHIP 11151 99/// 1//// 36/// /0905 10337 20139 39969 40136 57///
  333 10341 20312 553// 03406 91109=
SHIP 11151 99/// 1//// 36/// /1003 10346 20175 30004 40076
  333 10353 20330 553// 03485 91109=
SHIP 11151 99/// 1//// 36/// /1702 10268 20212 39652 40147 52///
  333 10268 20250 553// 02176 91106=
SHIP 11151 99/// 1//// 36/// /1401 10293 20202 39872 40139 57///
  333 10302 20282 553// 02921 91103=
00000000