0000011000
055
UANT01 CWAO 111505
ARP BAW33K 5239N03500W 1505 F380 MS54 257/24 KT
GVIIJ QXT AOE 111505 F25A
0000011000
056
UANT01 CWAO 111505
ARP UAL16 5305N02242W 1505 F360 MS61 205/72 KT
N48127 DDL IG1 111505 F36A
0000010900
057
UANT01 CWAO 111505
ARP BAW9L 5516N03200W 1505 F380 MS56 205/43 KT
GVIIS QXT AOE 111505 F19A
0000011100
058
UANT01 CWAO 111506
ARP AWE717 5207N02632W 1505 F370 MS52 195/60 KT
N274AY DDL XXN 111506 J85A
0000011000
059
UANT01 CWAO 111506
ARP KLM765 4709N03322W 1505 F360 MS50 284/31 KT
PHAKA QXT EUA 111506 J45A
0000011200
060
SIHU41 HABP 111500 CCA
AAXX 11151
12992 41965 71203 10061 20033 30097 40206 57013 72162 87070=
0000053600
061
SIMC21 GMMC 111500
AAXX 11154
60096 32960 03314 10187 20115 40174 58021=
60101 42460 42510 10181 20132 40189 58003 82280
  333 82816 83360=
60115 32558 83302 10155 20098 40168 58013 8688/
  333 84820 83830 85360=
60135 45558 52804 10182 20129 40178 58015 83530
  333 83620 83360=
60150 32560 63202 10151 20073 39531 40179 56012 86200
  333 86820=
60155 32465 23208 10184 20130 40176 56010 82200
  333 82816=
60252 32560 30000 10190 20116 40176 58010 83500
  333 83620=
60156 NIL=
60230 NIL=
0000015700
062
SSVX13 LFPW 111500
ZZYY 62695 11014 1500/ 743218 019497 6113/ 11119 49997 57026 22219
 00135 444 20130 11014 1500/ 50101 80140 80015 9/015=
0000015700
063
SSVX13 LFPW 111500
ZZYY 44875 11014 1500/ 732079 029350 6113/ 11119 40264 52076 22219
 00204 444 20130 11014 1500/ 50101 80102 80002 9/015=
0000015700
064
SSVX13 LFPW 111500
ZZYY 16617 11014 1500/ 335997 078166 6113/ 11119 40240 52009 22219
 00167 444 20130 11014 1500/ 50101 80148 80008 9/015=
0000015700
065
SSVX13 LFPW 111500
ZZYY 41636 11014 1500/ 735532 065169 6113/ 11119 40315 52003 22219
 00209 444 20130 11014 1500/ 50101 80086 80003 9/015=
0000015700
066
SSVX13 LFPW 111500
ZZYY 44607 11014 1500/ 747016 014457 6113/ 11119 40067 57046 22219
 00126 444 20130 11014 1500/ 50101 80142 80010 9/015=
0000015700
067
SSVX13 LFPW 111500
ZZYY 16546 11014 1500/ 338820 066977 6113/ 11119 40230 57002 22219
 00160 444 20130 11014 1500/ 50101 80146 80016 9/015=
0000015700
068
SSVX13 LFPW 111500
ZZYY 44725 11014 1500/ 727887 021144 6113/ 11119 40181 57017 22219
 00214 444 20130 11014 1500/ 50101 80132 80002 9/015=
0000014500
069
SSVX13 LFPW 111500
ZZYY 44551 11014 1500/ 744681 016102 6113/ 11119 40051 57036 444
 20130 11014 1500/ 50101 80106 80019 9/015=
0000015700
070
SSVX13 LFPW 111500
ZZYY 16642 11014 1500/ 343866 053805 6113/ 11119 49993 57014 22219
 00104 444 20130 11014 1500/ 50101 80150 80013 9/015=
0000015700
071
SSVX13 LFPW 111500
ZZYY 33702 11014 1500/ 546063 048740 6113/ 11119 40048 52021 22219
 00123 444 20130 11014 1500/ 50101 80140 80011 9/015=
0000015700
072
SSVX13 LFPW 111500
ZZYY 16532 11014 1500/ 329292 106378 6113/ 11119 40182 52014 22219
 00218 444 20130 11014 1500/ 50101 80108 80002 9/015=
0000015700
073
SSVX13 LFPW 111500
ZZYY 64662 11014 1500/ 766870 021640 6113/ 11119 40010 52027 22219
 00034 444 20130 11014 1500/ 50101 80150 80029 9/015=
0000015700
074
SSVX13 LFPW 111500
ZZYY 41709 11014 1500/ 717932 056700 6113/ 11119 40197 52003 22219
 00262 444 20130 11014 1500/ 50101 80144 80013 9/015=
00000000