0000011000
235
UANT99 KDDL 111523
ARP DAL85 5306N02323W 1523 F320 MS58 183/67 KT
N841MH QXT AOE 111523 F14A
0000023300
236
SIVD17 KWNB 111500 RRJ
BBXX
51206 11151 99198 71550 46/// ///// 1//// 91503 22200 00248 10905
20904 304// 41202 70025=
46114 11151 99367 71223 46/// ///// 1//// 91508 22200 00126 11507
21003 331// 41506 70034=
0000272800
237
SICI01 KWBC 111500 RRA
AAXX 11151
52681 32/// 92203 11087 21224 40448 57001=
56029 33/// 92901 11083 21149 36441 52009=
52418 32/// 91801 11131 21227 40468 57004=
53564 41/21 90402 11102 21212 40422 52019 705//=
53959 31/35 92202 10018 21094 40355 52017 705//=
54843 41/35 92001 11002 21062 40305 52005 705//=
54909 41/48 92003 10034 21058 40306 52004 705//=
50136 33/// 92201 11351 21394 40392 52007=
50774 33/// 92002 11279 21335 40297 52006=
50788 33/// 92904 11272 21333 40252 57007=
51076 32/// 90401 11155 21202 40418 57012=
51133 32/// 93602 11075 21161 40310 57007=
51431 32/// 90701 11111 21140 40305 54000=
51747 32/// 90000 11168 21227 40494 57004=
52203 32/// 90901 11142 21215 40447 57004=
52983 32/// 92502 11105 21217 38220 52006=
53614 32/61 91402 11053 21206 40413 52009=
53646 32/// 93403 11084 21233 40409 52015=
53798 31/06 90201 10001 21059 40312 52018 705//=
53845 32/// 93604 11032 21224 40394 52016=
54094 42/58 90401 11174 21197 40241 52007=
54292 33/// 92703 11101 21198 40235 57002=
54374 33/// 93601 11158 21197 40298 52003=
54401 32/80 93203 11074 21224 40382 52024=
54511 31955 93604 10015 21185 40321 52022 705//=
57083 31/55 92702 10065 21121 40308 52009 705//=
57127 32/// 90000 10023 20010 40363 52019=
57265 33/// 92202 10032 20009 40336 52010=
57494 31927 92701 10044 20029 40328 52015 710//=
58040 31/14 92901 11015 21022 40315 52004 710//=
58102 33/// 92001 10038 21035 40318 52012=
58221 31/28 92001 10015 20002 40315 52003 710//=
58752 31/22 93402 10099 20078 40276 57002 710//=
59117 33/60 90000 10128 20103 40246 52016=
59758 32/56 90402 10190 20177 40223 52012=
51463 31/58 90902 11189 21211 40385 57016 710//=
59316 32/61 90701 10156 20125 40257 52008=
50468 33/// 93204 11263 21325 40296 57001=
50745 33/// 93202 11254 21301 40346 52027=
51243 32/// 92901 11209 21240 40424 57011=
51288 32/// 91601 11130 21238 38394 57013=
51573 33/// 90901 11097 21175 40443 57003=
53513 32/61 91801 11141 21206 40439 52010=
54102 32/64 90701 11200 21246 40419 52017=
54161 33/// 93605 11154 21210 40298 52025=
54337 42/80 93604 11049 21191 40328 52038=
54423 32/80 93202 11044 21210 40348 52030=
54471 42/62 93609 11031 21126 40310 52027=
54497 41/55 90401 11076 21097 40285 57001 710//=
54618 31/04 91601 11030 21044 40316 52013 746//=
57131 32/// 92503 10034 21153 40365 52012=
58238 31/08 90702 10045 20035 40310 57001 744//=
58251 31/22 90000 10019 21002 40310 57005 710//=
58457 41218 90202 10052 20042 40299 57006 721//=
58847 32/65 93402 10140 20092 40259 52002=
59134 31/57 92501 10138 20115 40253 52010 710//=
59287 31916 93402 10121 20111 40241 52012 710//=
0000019100
238
SICO01 KWBC 111500 RRA
AAXX 11151
80036 31968 00405 10295 20181 70500 555 18010=
80097 21450 83302 10230 20217 39629 40133 75052 8462/ 333 5677/
58024 60027 84710 85459=
0000044500
239
SXXX32 EUMS 111518
22856700
:PRS 1 /1 3199 3207 3209 3210 3212 3217 3223 3223 3221 3224 3233 3239 3240 3241 3247 3257 3263 3265 3271 3274 3278 3286 3287 3290 3291 3294 3301 3309 3308 3310 :RAD 1 /3 6721 6730 6740 6753 6766 6780 6792 6804 6816 6829 6841 6853 6863 6876 6888 6902 6915 6928 6939 6956 :ENC 3 /5 4909 4924 4946 4971 4988 5013 5032 5051 5073 5093 5117 5136 :SW1 18 /60 0 :SW2 48 /60 0 :BAT 14 /15 12.5 :NAME 22856700
0000045100
240
SXXX32 EUMS 111518 RRA
32D8A2BE
:PRS 1 /1 1903 1902 1896 1896 1901 1899 1892 1888 1892 1888 1886 1885 1885 1872 1881 1874 1873 1864 1864 1866 1870 1860 1859 1856 1856 1849 1849 1852 1850 1842 :RAD 1 /3 7477 7473 7465 7456 7447 7439 7434 7428 7421 7420 7411 7404 7400 7396 7391 7389 7384 7380 7373 7370 :ENC 3 /5 4902 4894 4880 4866 4857 4850 4842 4834 4824 4814 4804 4796 :SW1 18 /60 60 :SW2 48 /60 60 :BAT 14 /15 12.4 :NAME 32D8A2BE
0000047700
241
SXXX32 EUMS 111519
262AD2C2
OT12 ID:PK-ORMA-10 DT:2014 01 11 15 18
:PRS /1 08205 08187 08200 08208 08181 08165 08155 08201 08190 08202 08227 08212 08213 08211 08203 08212 08199 08193 08213 08218 08204 08206 08210 08219 08204 08206 08194 08222 08221 08232
:RAD /1 ///// ///// ///// ///// ///// ///// ///// ///// ///// ///// ///// ///// ///// ///// ///// ///// ///// ///// ///// ///// ///// ///// ///// ///// ///// ///// ///// ///// ///// /////
:BAT 12.7V
0000036300
242
SXXX32 EUMS 111521
12FFB3C8
:PRS 1 /1 M 2953 2957 2959 2953 2957 2955 2956 2935 2947 2943 2946 2949 2945 2949 2948 2957 2959 2956 2940 2939 2933 2937 2929 2928 2927 2939 2942 2951 2939 :RAD 1 /3 5890 5887 5882 5885 5886 5882 5872 5872 5878 5878 :ENC 1 /5 -144 -144 -144 -144 -144 -144 :SW1 21 /60 0 :SW2 51 /60 60 :BAT 14 /15 14.1 :NAME 12FFB3C8
0000070100
243
SXXX32 EUMS 111521 RRA
22E7E6D2
OT12 ID:ID-ROTE-11 DT:2014 01 11 15 19
:PRS /1 -10770 -10243 -10757 -10760 -10737 -10740 -10739 -10740 -10764 -10765 -10762 -10761 -10761 -10763 -10764 -10758 -10238 -10751 -10759 -10735 -10735 -10737 -10737 -10762 -10763 -10762 -10763 -10759 -10763 -10763
:PR2 /1 04082 04068 04053 04062 04044 04032 04060 04036 04031 04057 04004 04037 04006 03988 04018 04001 04001 03981 03985 03969 03962 03957 03959 03944 03943 03917 03920 03888 03900 03923
:RAD /1 05653 05670 05673 05629 05654 05624 05609 05626 05633 05609 05577 05621 05569 05605 05589 05580 05588 05565 05536 05556 05552 05534 05530 05548 05533 05529 05549 05516 05468 05468
:BAT 12.2V
0000066700
244
SXXX32 EUMS 111522
32CC9580
OT12 ID:ID-ENGG-07 DT:2014 01 11 15 21
:PRS /1 01266 01291 01288 01276 01269 01259 01279 01252 01281 01290 01283 01283 01269 01268 01293 01290 01259 01255 01250 01304 01294 01247 01276 01270 01283 01286 01248 01284 01293 01232
:PR2 /1 04733 04750 04736 04743 04720 04719 04728 04735 04732 04727 04751 04743 04732 04725 04714 04720 04731 04715 04707 04736 04723 04713 04748 04747 04721 04712 04753 04728 04730 04698
:RAD /1 05589 05612 05607 05602 05601 05581 05600 05593 05604 05626 05608 05599 05599 05610 05600 05608 05586 05603 05584 05595 05601 05585 05596 05608 05597 05597 05599 05601 05594 05566
:BAT 12.3V
0000014300
245
SIVF21 ESWI 111500 RRA
BBXX
SBHI 11151 99584 10192 41/96 81808 10009 21014 40009 55002
71077 8/6// 22200 00069 2//// 80001=
0000138600
246
SICI25 BABJ 111500
AAXX 11151
50353 33/// 93408 11251 21332 40292 52001=
50557 33/// 93203 11269 21340 40334 52006=
50756 33/// 93203 11290 21347 40320 52013=
50949 42/// 90204 11188 21218 40318 52037=
50963 43/// 92905 11214 21277 40274 52014=
50978 33/// 93605 11165 21199 40243 52008=
51087 33/// 90000 11206 21236 40443 57015=
51156 33/// 93201 11137 21208 40411 57008=
51644 32/// 92901 11108 21145 40462 52001=
51656 31/41 91601 11079 21145 40447 57001 705//=
51886 33/// 93201 11129 21280 37160 52004=
52602 33/// 92701 11165 21333 37323 52008=
52713 42/34 93201 11157 21257 36954 52006=
52754 42/69 93602 11172 21224 36812 52007=
52818 31/57 92201 11087 21248 37297 52006 705//=
52836 32/80 91603 11155 21223 36941 52007=
52955 32/// 91101 11159 21223 37004 52010=
53068 42/72 92704 11167 21256 40431 52006=
53276 32/// 92504 11176 21260 40434 52010=
54135 32/// 92904 11120 21247 40337 52027=
54236 33/// 93405 11089 21230 40329 52038=
54539 31/01 92702 11035 21043 40309 52010 742//=
54662 32/// 92502 10006 21065 40292 57002=
54753 31/24 92001 10007 21057 40305 52002 705//=
54857 41/39 92503 10024 21029 40309 54000 705//=
57067 42/// 91401 11009 21055 40364 52019=
57178 33/// 92902 10048 21002 40328 52004=
57245 32/// 92201 10033 20013 40364 52012=
57297 31/34 92902 10044 21012 40327 52012 705//=
0000066100
247
UDAF01 FAPR 111519
AMDAR 1115
UNS AFZA42 0425S 01505E 111225 F095 PS103 053/029 TB0 S031 333 F/// VG015=
ASC AFZA42 0428S 01508E 111226 F111 PS070 058/025 TB0 S031 333 F/// VG011=
ASC AFZA42 0429S 01508E 111226 F114 PS065 057/021 TB0 S031 333 F/// VG019=
ASC AFZA42 0432S 01511E 111227 F135 PS023 055/015 TB0 S031 333 F/// VG010=
ASC AFZA42 0438S 01516E 111228 F156 MS015 039/008 TB0 S031 333 F/// VG010=
LVR AFZA42 0502S 01539E 111233 F246 MS176 088/015 TB0 S031 333 F/// VG009=
LVR AFZA42 0544S 01611E 111240 F344 MS430 099/024 TB0 S031 333 F/// VG009=
LVR AFZA42 0628S 01636E 111247 F370 MS497 091/034 TB0 S031 333 F/// VG010=
0000043000
248
UDAF01 FAPR 111524
AMDAR 1115
DES AFZA44 0713S 03858E 111513 F065 PS200 334/013 TB0 S031 333 F/// VG009=
DES AFZA44 0706S 03900E 111515 F048 PS214 213/011 TB0 S031 333 F/// VG011=
DES AFZA44 0658S 03904E 111518 F033 PS215 025/010 TB0 S031 333 F/// VG014=
DES AFZA44 0654S 03909E 111521 F018 PS230 043/015 TB1 S031 333 F/// VG021=
DES AFZA44 0650S 03912E 111524 F004 PS272 053/013 TB1 S031 333 F/// VG024=
0000066100
249
UDAF01 FAPR 111521
AMDAR 1115
LVR AFZA42 1313S 02000E 111349 F390 MS541 095/027 TB0 S031 333 F/// VG010=
LVR AFZA42 1359S 02021E 111357 F390 MS540 111/024 TB0 S031 333 F/// VG010=
LVR AFZA42 1444S 02045E 111404 F390 MS540 096/025 TB0 S031 333 F/// VG010=
LVR AFZA42 1529S 02109E 111411 F390 MS535 092/025 TB0 S031 333 F/// VG010=
LVR AFZA42 1615S 02134E 111418 F390 MS534 068/026 TB0 S031 333 F/// VG010=
LVR AFZA42 1701S 02159E 111425 F390 MS532 064/017 TB0 S031 333 F/// VG010=
LVR AFZA42 1748S 02224E 111432 F390 MS532 075/009 TB0 S031 333 F/// VG010=
LVR AFZA42 1833S 02252E 111439 F390 MS528 052/013 TB0 S031 333 F/// VG010=
0000066100
250
UDAF01 FAPR 111519
AMDAR 1115
ASC AFZA42 0416S 01512E 111222 F031 PS207 043/007 TB1 S031 333 F/// VG022=
ASC AFZA42 0417S 01511E 111223 F034 PS205 016/008 TB0 S031 333 F/// VG020=
ASC AFZA42 0417S 01510E 111223 F037 PS197 020/010 TB0 S031 333 F/// VG018=
ASC AFZA42 0418S 01510E 111223 F039 PS195 015/010 TB1 S031 333 F/// VG025=
ASC AFZA42 0418S 01509E 111223 F045 PS182 018/009 TB0 S031 333 F/// VG015=
ASC AFZA42 0420S 01507E 111224 F059 PS174 010/005 TB0 S031 333 F/// VG013=
UNS AFZA42 0422S 01505E 111224 F077 PS140 092/017 TB0 S031 333 F/// VG013=
UNS AFZA42 0424S 01505E 111225 F089 PS120 063/025 TB0 S031 333 F/// VG014=
0000066100
251
UDAF01 FAPR 111520
AMDAR 1115
ASC AFZA47 2605S 02817E 111517 F072 PS215 272/021 TB0 S031 333 F/// VG018=
ASC AFZA47 2606S 02819E 111518 F076 PS190 265/012 TB0 S031 333 F/// VG017=
ASC AFZA47 2606S 02820E 111518 F079 PS180 272/012 TB0 S031 333 F/// VG016=
ASC AFZA47 2606S 02821E 111518 F082 PS167 284/012 TB0 S031 333 F/// VG015=
UNS AFZA47 2606S 02823E 111518 F086 PS149 278/014 TB0 S031 333 F/// VG013=
UNS AFZA47 2608S 02824E 111519 F093 PS130 277/016 TB0 S031 333 F/// VG015=
UNS AFZA47 2608S 02824E 111519 F094 PS127 273/016 TB1 S031 333 F/// VG022=
ASC AFZA47 2613S 02823E 111520 F115 PS072 253/014 TB0 S031 333 F/// VG010=
0000066100
252
UDAF01 FAPR 111520
AMDAR 1115
LVR AFZA42 0714S 01659E 111253 F370 MS497 099/040 TB0 S031 333 F/// VG010=
LVR AFZA42 0759S 01721E 111301 F370 MS502 099/030 TB0 S031 333 F/// VG010=
LVR AFZA42 0845S 01744E 111308 F370 MS497 116/028 TB0 S031 333 F/// VG010=
LVR AFZA42 0930S 01806E 111315 F370 MS497 115/024 TB0 S031 333 F/// VG010=
LVR AFZA42 1015S 01829E 111322 F370 MS500 103/025 TB0 S031 333 F/// VG009=
LVR AFZA42 1101S 01852E 111329 F370 MS494 117/025 TB0 S031 333 F/// VG010=
LVR AFZA42 1147S 01913E 111336 F370 MS485 113/019 TB0 S031 333 F/// VG010=
LVR AFZA42 1226S 01944E 111343 F375 MS503 106/021 TB0 S031 333 F/// VG009=
0000056700
253
SIVZ11 SBBR 111500 RRF
BBXX
SHIP 11151 99/// 1//// 36/// /2500 10265 20204 30015 40139
  333 10272 20259 553// 01961 91104=
SHIP 11151 99/// 1//// 36/// /2000 10236 20188 30005 40148 52///
  333 10240 20215 553// 01351 91107=
SHIP 11151 99/// 1//// 36/// /2801 10300 20190 39561 49942 52///
  333 10307 20285 553// 03335 91104=
SHIP 11151 99/// 1//// 16/// /0603 10226 20212 30005 40151 6994/
  333 10226 20218 553// 00629 91104=
SHIP 11151 99/// 1//// 36/// /3305 10301 20222 30106 40106 57///
  333 10307 20293 553// 03548 91111=
0000033300
254
SINV20 NVVV 111500
AAXX 11153

91551 41498 81205 10270 20256 40049 57018 72522 8592/

  333 5639/ 85818 81925 88460=

91553 NIL=

91554 NIL=

91555 NIL=

91557 41598 19902 10215 20206 40073 57019 70122 81100

  333 569// 81825=

91565 41598 10000 10220 20205 40073 57023 70111 81100 

  333 569// 81825=

91568 NIL=


00000000