0000011000
575
UANT99 KDDL 111510
ARP BAW295 5941N02759W 1508 F360 MS62 218/69 KT
GVIIX QXT AOW 111510 F13A
0000011000
576
UANT99 KDDL 111510
ARP DLH402 5401N01601W 1510 F370 MS63 240/75 KT
DABVY QXT EUA 111511 F62A
0000011000
577
UANT99 KDDL 111511
ARP AAL37 5304N03017W 1511 F330 MS54 157/42 KT
N390AA DDL XXN 111511 F65A
0000011100
578
UANT01 CWAO 111511
ARP AAL211 5219N03738W 1511 F350 MS57 293/42 KT
N185AN DDL XXN 111511 F47A
0000009400
579
SNNO21 ENMI 111400 RRA
AAXX 11141
01300 46/// /1702 10021 21020 39908 40006=
0000056700
580
SIDN21 EKMI 111500
AAXX 11154
06030 21570 32610 10048 20026 30002 40018 55000 72511 81230
  333 69907 81826 =
06060 22570 72710 10049 20028 39976 40041 52007 81970
  333 6///7 81920 84360 87364 =
06070 25/76 /2707 10052 20030 30002 40032 52004
  333 69927 =
06120 27776 72713 10054 20052 30021 40047 52011 723//
  333 60017 81/50 85/57 87/59 =
06180 21357 82416 10058 20051 30014 40020 57024 76366 887//
  333 60027 82709 87711 =
06193 27240 82321 10054 20048 30024 40035 57023 75185
  333 55300 20014 69957 81/06 87/08 88/10 =
0000003800
581
SIVA10 EHDB 111500
NIL
0000009500
582
SAIN90 VOTV 111510
METAR VOTV 111510Z 00000KT 4000 HZ FEW015 27/23 Q1012 NOSIG=
0000104900
583
FTIN90 VOMM 111508
TAF VOMM 111500Z 1118/1224 05005KT 4000 HZ FEW020
       BECMG 1121/1122 VRB03KT 2000 BR
       TEMPO 1200/1203 1000 MIFG
       BECMG 1203/1204 05010KT 4000 HZ
       BECMG 1208/1209 6000
       BECMG 1217/1218 VRB03KT 4000 HZ
       BECMG 1221/1222 1500 BR=
  TAF VOTR 111500Z 1118/1224 05005KT 4000 HZ FEW018
       BECMG 1121/1122 VRB03KT 2500 HZ
       TEMPO 1200/1203 1500 BR
       BECMG 1203/1204 05010KT 4000 HZ
       BECMG 1206/1207 6000
       BECMG 1217/1218 VRB03KT 4000 HZ
       BECMG 1221/1222 2000 BR=
  TAF VOCB 111500Z 1118/1224 07005KT 4000 HZ FEW015
       BECMG 1121/1122 2500 HZ
       TEMPO 1200/1203 2000 BR
       BECMG 1205/1206 4000 HZ
       BECMG 1208/1209 6000
       BECMG 1217/1218 4000 HZ
       BECMG 1221/1222 2000 BR
  TAF VOMD 111500Z 1118/1224 05005KT 4000 HZ FEW020
       BECMG 1121/1122 2500 HZ
       BECMG 1203/1204 4000 HZ
       BECMG 1208/1209 6000
       BECMG 1217/1218 4000 HZ
       BECMG 1221/1222 2000 BR=

0000009200
584
SPIN90 VABB 111510
SPECI VABB 111510Z 01006KT 3000 FU NSC 21/05 Q1015 NOSIG=
0000050200
585
FCIN90 VOMM 111500
TAF VOMM 111500Z 1118/1203 05005KT 4000 HZ FEW020
       BECMG 1121/1122 VRB03KT 2000 BR
       TEMPO 1200/1203 1000 MIFG=
  TAF VOTR 111500Z 1118/1203 05005KT 4000 HZ FEW018
       BECMG 1121/1122 VRB03KT 2500 HZ
       TEMPO 1200/1203 1500 BR=
  TAF VOCB 111500Z 1118/1203 07005KT 4000 HZ FEW015
       BECMG 1121/1122 2500 HZ
       TEMPO 1200/1203 2000 BR=
  TAF VOMD 111500Z 1118/1203 05005KT 4000 HZ FEW020
       BECMG 1121/1122 2500 HZ=

0000035200
586
SIVD10 EHDB 111500
BBXX
PHEO 11154 99216 71588 41/98 71307 10230 20207 40090 56020 70322
87/// 22263 00260 20301 317// 40905 80215=
MGGF9 11153 99207 70848 41498 31414 10260 20234 40208 51004 70300
8/145 22233 20502 3//// 4//// 5//// 80242=
PHSG 11154 99077 71326 41/97 /0824 40100 51010 723// 8//// 22214
20203 323// 40306=
0000013900
587
SIVF10 EHDB 111500
BBXX
PHAM 11153 99521 70055 41/97 20000 10115 20063 40202 54000 70211
81042 22283 20000 80088 42912=
0000035800
588
SICR20 GCLP 111500
AAXX 11154
60020 22575 41402 10202 20134 30139 40183 57014 84500
  333 60007 92418=
60030 22875 11205 10202 20119 30125 40181 56013 81100
  333 60007 92417=
60040 22580 11405 10207 20117 30164 40189 56016 81500
  333 60007 92418=
60338 41358 80304 10156 20135 30119 40184 56004 71022 85777
 333 83707 92426=
0000267200
589
SSVX02 KARS 111508
ZZYY 55566 11014 1500/ 356769 168426 6113/
11119 49807
22219 00059
444 50101 80118 80009 9/015=
ZZYY 55596 11014 1500/ 357742 164429 6113/
11119 49751
22219 00050
444 50101 80120 80008 9/015=
ZZYY 55611 11014 1500/ 355662 162038 6113/
11119 49825
22219 00059
444 50101 80118 80010 9/015=
ZZYY 55591 11014 1500/ 356443 168223 6113/
11119 49812
22219 00056
444 50101 80118 80012 9/015=
ZZYY 33558 11014 1501/ 548249 049953 6113/
22219 00088
444 50101 80112 80031 9/015=
ZZYY 22647 11014 1501/ 107634 106022 6113/
22219 00245
444 50101 80116 80026 9/015=
ZZYY 23682 11014 1501/ 109823 080253 6113/
444 50101 80114 80035 9/015=
ZZYY 22652 11014 1501/ 109343 108380 6113/
22219 00249
444 50101 80116 80035 9/015=
ZZYY 22937 11014 1501/ 113788 109218 6113/
22219 00228
444 50101 80116 80023 9/015=
ZZYY 22902 11014 1502/ 116677 111617 6113/
22219 00241
444 50101 80114 80029 9/015=
ZZYY 23676 11014 1501/ 116269 114405 6113/
22219 00250
444 50101 80116 80035 9/015=
ZZYY 22935 11014 1505/ 121195 117461 6110/
22219 00232
444 20100 11014 1405/ 50101 80110 80019 9/015=
ZZYY 22934 11014 1501/ 102103 107609 6113/
22219 00272
444 50101 80114 80034 9/015=
ZZYY 22936 11014 1501/ 118188 114162 6113/
22219 00244
444 50101 80114 80024 9/015=
ZZYY 55567 11014 1500/ 358939 164688 6113/
11119 49707
22219 00047
444 50101 80118 80012 9/015=
ZZYY 23962 11014 1501/ 106041 073649 6113/
22219 00281
444 50101 80116 80023 9/015=
ZZYY 46613 11014 1500/ 142016 147996 6113/
11119 40167
22219 00066
444 50101 80112 80010 9/015=
ZZYY 23963 11014 1501/ 106518 074774 6113/
22219 00277
444 50101 80116 80026 9/015=
ZZYY 55593 11014 1500/ 358242 163533 6113/
11119 49725
22219 00045
444 50101 80116 80015 9/015=
ZZYY 55564 11014 1500/ 357851 167397 6113/
11119 49768
22219 00068
444 50101 80118 80015 9/015=
ZZYY 16513 11014 1500/ 343366 064866 6113/
11119 40170
22219 00114
444 50101 80118 80009 9/015=
ZZYY 22908 11014 1505/ 105326 106243 6110/
22219 00258
444 2020/ 105326 106243 50101 80112 80034 9/015=
ZZYY 22906 11014 1501/ 106908 103433 6113/
22219 00261
444 50101 80116 80034 9/015=
ZZYY 55595 11014 1500/ 357900 164035 6113/
11119 49742
22219 00043
444 50101 80118 80013 9/015=
ZZYY 46567 11014 1500/ 754342 176666 6113/
11119 49671
22219 00038
444 50101 80112 80012 9/015=
ZZYY 55570 11014 1500/ 357944 164381 6113/
11119 49738
22219 00051
444 50101 80118 80013 9/015=
ZZYY 22925 11014 1505/ 118023 112360 6113/
22219 00235
444 20130 11014 1302/ 50101 80112 80035 9/015=
0000009400
590
SNNO22 ENMI 111400 RRC
AAXX 11141
01400 46/// /2813 10061 20007 30020 40081=
0000003800
591
SIVC10 EHDB 111500
NIL
0000011000
592
UANT01 CWAO 111511
ARP AAL37 5306N03023W 1511 F330 MS55 167/47 KT
N390AA DDL XXN 111511 F66A
0000018200
593
UAUS31 KWBC 111512
ARP UAL1080 3201N 07815W 1506 F360 MS48 025/054KT TB LGT SK CLEAR=
ARP UAL380 3815N 08657W 1501 F330 MS47 221/130KT TB SMTH RM A320
    OV HNB=
0000011000
594
UANT01 CWAO 111512
ARP DLH402 5401N01614W 1511 F370 MS64 237/79 KT
DABVY QXT EUA 111512 F67A
00000000