0000011000
175
UANT99 KDDL 111521
ARP AFR344 5302N01600W 1521 F330 MS59 223/85 KT
FGLZU DDL BLY 111522 J49A
0000011100
176
UANT99 KDDL 111522
ARP UAL127 5307N02622W 1522 F350 MS58 176/58 KT
N17139 DDL IG1 111522 F67A
0000011100
177
UANT99 KDDL 111522
ARP SOO275 5829N04258W 1522 F290 MS56 242/29 KT
N775SA DDL XXW 111522 F35A
0000011000
178
UANT99 KDDL 111522
ARP ACA875 5401N01556W 1522 F360 MS64 235/87 KT
CGHKR DDL BLY 111522 J06A
0000042900
179
UDAS02 EGRR 111525
AMDAR 1114
LVR EU0453   5927N 04624E 111447 F357 MS647 189/051 TB/ S031=
LVR EU0453   5937N 04438E 111454 F360 MS620 169/033 TB/ S031=
LVR EU0453   5946N 04250E 111501 F360 MS597 188/021 TB/ S031=
LVR EU0453   5953N 04103E 111508 F360 MS587 206/008 TB/ S031=
LVR EU0453   5958N 03917E 111515 F360 MS572 262/006 TB/ S031=
LVR EU0453   6002N 03730E 111522 F360 MS572 317/018 TB/ S031=
0000011900
180
SIOM20 OOMS 111500 RRF
AAXX 11154
41241 26/// /3502 10179 20141 30174 40212
333 0E018 59010 70002 =
0000216800
181
SZNZ01 NZKL 111524
CREX++
T000103 A001 D01021 D06025++
-3683144 17478654 AUCT  2014 01 11 15 16 //// 11 07 00 01
05913 3181 05915 3180 05918 3180 05921 3179 05924 3179 05926 3178+
-4402404 -17636748 CHIT  2014 01 11 15 16 //// 11 07 00 01
05279 2145 05288 2157 05281 2153 05284 2159 05268 2146 05258 2139+
-4089929 17623168 CPIT  2014 01 11 15 16 //// 11 07 00 01
04390 2281 04385 2279 04382 2279 04387 2287 04379 2282 04378 2284+
-3618905 17548887 GBIT  2014 01 11 15 16 //// 11 07 00 01
06354 -0002 06360 0002 06359 0000 06358 -0003 06360 -0002 06365 0001+
-3867541 17802288 GIST  2014 01 11 15 16 //// 11 07 00 01
04522 2721 04531 2732 04519 2721 04521 2724 04517 2722 04526 2732+
-4241288 17370277 KAIT  2014 01 11 15 16 //// 11 07 00 01
03814 2252 03799 2241 03805 2251 03790 2240 03790 2244 03782 2240+
-3755040 17815904 LOTT  2014 01 11 15 16 //// 11 07 00 01
04009 0193 04003 0187 04021 0205 04027 0211 04013 0196 04014 0197+
-3704657 17451175 MNKT  2014 01 11 15 16 //// 11 07 00 01
02346 -0113 02366 -0100 02358 -0114 02388 -0091 02372 -0114 02395 -0098+
-3947566 17692007 NAPT  2014 01 11 15 16 //// 11 07 00 01
03511 1989 03516 1996 03498 1981 03515 2000 03485 1972 03489 1979+
-3441483 17304870 NCPT  2014 01 11 15 16 //// 11 07 00 01
-03706 -8509 -03666 -8473 -03765 -8576 -03719 -8533 -03770 -8588 -03645 -8466+
-4581435 17062939 OTAT  2014 01 11 15 16 //// 11 07 00 01
04775 3422 04770 3424 04767 3427 04763 3429 04758 3430 04752 3431+
-2928002 -17789440 RBCT  2014 01 11 15 16 //// 11 07 00 01
06302 1963 06294 1953 06298 1957 06312 1970 06305 1962 06301 1958+
-2925114 -17790384 RFRT  2014 01 11 15 16 //// 11 07 00 01
03265 0143 03271 0147 03272 0147 03265 0140 03275 0149 03275 0148+
-4357010 17277383 SUMT  2014 01 11 15 16 //// 11 07 00 01
02468 1814 02471 1822 02468 1824 02445 1807 02427 1794 02431 1804+
-3764109 17618118 TAUT  2014 01 11 15 16 //// 11 07 00 01
05569 3956 05567 3953 05574 3958 05571 3953 05574 3954 05574 3953+
-4128448 17477985 WLGT  2014 01 11 15 16 //// 11 07 00 01
03479 2015 03475 2014 03468 2011 03475 2021 03457 2006 03454 2007++
7777
0000010900
182
UDEU02 EGRR 111525
AMDAR 1115
LVR EU2863   3343N 00929W 111502 F350 MS572 313/061 TB/ S031=
0000031900
183
KSIH01 EUMS 111518
CREX++
T00020413// A000 P00106000 U00 S001 Y20140111 H1500 D301004 D301023 D302001 D302032 D302070 B013019 B013021 B013023 B014021++
63 981 P//////              0 0434 05540 10117 10145 0023 03 01000 2640 2299 081 01000 0100 346 0006 025 0015 236 190 0000 00000 00064 ///++
7777
0000024100
184
SOAT10 KWAL 111523
FA8005BC 011152337 OT12 ID:KN-BASS-01 DT:2014 01 11 15 21
:RD -3048 -3046 -3039 -3025 -3055 -3043 -3030 -3039 -3030 -3087
:PR 0554 0597 0667 0648 0627 0605 0647 0596 0628 0672
:B 13.7V
 46+1NN 219E
0000032300
185
KSIH01 EUMS 111521 RRA
CREX++
T00020413// A000 P00106000 U00 S001 Y20140111 H1500 D301004 D301023 D302001 D302032 D302070 B013019 B013021 B013023 B014021++
63 995 MET5                 0 0923 04612 10110 10125 0009 00 01000 2810 2411 079 01000 0100 /// //// /// //// /// /// 0000 00000 00000 ///++
7777
0000016900
186
UDAS02 BABJ 111515
AMDAR 1115
ASC CNFPTK 3109N 12147E 111513 F003 PS045 079/008 TB/ S//1=
ASC CNFPTK 3110N 12147E 111513 F008 PS033 092/012 TB/ S//1=
0000029300
187
UDAS02 BABJ 111512
AMDAR 1115
DES CNFOZM 1957N 11014E 111509 F038 PS138 078/016 TB/ S//1=
DES CNFOZM 1956N 11015E 111509 F035 PS144 085/016 TB/ S//1=
DES CNFOZM 1956N 11017E 111510 F026 PS146 088/018 TB/ S//1=
DES CNFOZM 1956N 11020E 111511 F018 PS155 090/017 TB/ S//1=
0000072700
188
UDAS02 BABJ 111514
AMDAR 1115
DES CNFLWT 2930N 10426E 111509 F179 MS130 250/034 TB/ S//1=
DES CNFLWT 2936N 10424E 111510 F165 MS110 245/045 TB/ S//1=
DES CNFLWT 2939N 10423E 111511 F157 MS103 240/056 TB/ S//1=
DES CNFLWT 2941N 10423E 111511 F153 MS095 237/057 TB/ S//1=
LVR CNFNXN 3624N 10928E 111503 F341 MS538 257/088 TB/ S//1=
LVR CNFNXN 3607N 10918E 111506 F341 MS538 257/086 TB/ S//1=
LVR CNFNXN 3549N 10908E 111509 F341 MS536 260/082 TB/ S//1=
LVR CNFNXN 3530N 10900E 111512 F341 MS530 257/080 TB/ S//1=
DES CNFLWR 3829N 11507E 111510 F165 MS270 277/048 TB/ S//1=
DES CNFLWR 3833N 11514E 111511 F148 MS273 279/036 TB/ S//1=
DES CNFLWR 3836N 11520E 111512 F138 MS249 281/034 TB/ S//1=
0000018700
189
WSMC31 GMMC 111523
GMMM SIGMET 09 VALID 111515/111900 GMMC-
GMMM CASABLANCA FIR EMBD TS  OBS E OF LINE N3546 W00403 - N3405 W004
12 - N3210 W00248 TOP FL390 MOV NE NC=
0000024900
190
SNHK22 VHHH 111515
AAXX 11151
45032 36/// /1502 10147 20129 30222 40239 54000=
45035 36/// /0802 10140 20122 30200 40242 57001=
45039 36/// /1401 10133 20121 30230 40245 57001=
45044 36/// /0605 10156 20125 30145 40240 54000=
0000132600
191
SICI24 BABJ 111500
AAXX 11151
56146 32/// 92705 10011 21104 36711 52019=
56444 33/// 90000 11013 21081 36820 52003=
56492 33/// 90000 10074 20050 40342 52022=
56571 33/// 93403 10073 21051 38430 52041=
57799 41/55 93401 10060 20054 40315 52016 710//=
57866 41/// 90403 10047 20044 40332 52018 721//=
57957 32/// 93603 10066 20032 40305 52019=
57993 32/60 93402 10082 20044 40293 52016=
58027 31/27 90000 10010 21027 40317 52011 705//=
58141 31/12 92201 10000 21013 40312 52002 710//=
58265 31/36 93201 10043 20022 40306 57006 710//=
58472 41/59 90704 10070 20050 40293 57008 710//=
58477 41/59 90201 10072 20058 40289 57007 710//=
58527 41/39 92901 10057 20051 40302 52006 710//=
58633 41/16 90000 10055 20051 40296 52004 710//=
58666 31/33 93610 10081 20078 40272 57004 710//=
58725 43/// 92901 10094 20068 40275 52009=
58921 31/58 92002 10120 20099 40257 52013 710//=
59082 33/58 93403 10111 20048 40269 52022=
59211 32/// 92702 10104 20090 40277 52022=
59265 32/// 93603 10138 20095 40254 52020=
59293 33/// 90401 10128 20109 40242 52016=
59501 33/59 90902 10150 20123 40246 52009=
59663 33/// 90202 10157 20149 40238 52014=
59838 32/60 91602 10211 20197 40211 52014=
59948 32/60 90412 10180 20162 40208 52004=
59981 32/63 90402 10232 20213 40191 52006=
0000013000
192
SIRA20 RUHB 111500 RRA
AAXX 11151
31168 41996 82304 11237 21270 30132 40143 51001 77173 8802/ 333 91111
91113=
0000010600
193
SIRA20 RUHB 111500 RRB
AAXX 11151
31538 42998 82302 11314 21343 39755 40248 58005 80001=
0000068900
194
UDEU02 EGRR 111525 RRA
AMDAR 1115
DES EU0130   5215N 00302W 111506 F167 MS225 290/043 TB/ S031=
DES EU0130   5206N 00300W 111508 F150 MS192 290/038 TB/ S031=
DES EU0130   5156N 00259W 111509 F133 MS162 269/034 TB/ S031=
DES EU0130   5148N 00257W 111511 F095 MS075 286/023 TB/ S031=
DES EU0130   5140N 00253W 111512 F081 MS037 303/021 TB/ S031=
DES EU0130   5133N 00247W 111514 F058 PS002 309/024 TB/ S031=
DES EU0130   5129N 00238W 111515 F044 MS007 332/011 TB/ S031=
DES EU0130   5127N 00229W 111517 F031 PS020 354/009 TB/ S031=
DES EU0130   5125N 00234W 111518 F023 PS020 047/002 TB/ S031=
DES EU0130   5124N 00239W 111520 F011 PS035 244/005 TB/ S031=
00000000