0000015700
395
SIVJ21 EGRR 111500
BBXX
AMOUK40 1115/ 99642 50650 46/// ///// 11006 21011 49947=
AMOUK01 1115/ 99604 50278 46/// ///// 11012 21018 49977=
0000158100
396
SIMG20 FMMD 111500
AAXX 11154
67009 21460 71404 10242 20233 39997 40115 53017 76066 879//
  333 60031 10312 85817 81917 86633 94979 95819=
67012 21570 72606 10238 20226 30103 40114 53021 79599 879//
  333 60262 10338 85820 82920 85640 94979 95879=
67019 NIL=
67025 NIL=
67027 31570 82810 10295 20251 30076 40097 53007 71522 81938
  333 10325 81820 81920 86273 94961 95811
  555 82360=
67045 NIL=
67072 NIL=
67073 31580 62202 10288 20260 30089 40115 53003 71522 82905
  333 10306 81823 81923 84273 94961 94962 95832
  555 82633=
67083 32580 71214 10240 20190 38755 48528 53017 84935
  333 82820 85273 82920 94969 95839
  555 10298=
67085 32580 710// 10238 20194 38708 48517 53008 85905
  333 10292 82920 82820 87275 94979 95819
  555 82633=
67095 31470 70810 10290 20255 30131 40137 53016 71522 84932
  333 10328 82817 81917 83633 85360 94966 94967 95836 95837=
67113 NIL=
67117 NIL=
67137 21360 80402 10224 20209 38906 48511 53006 71799 889//
  333 10274 69951 81710 81817 82917 87620 94999 95879=
67143 32582 20604 10285 20250 30123 40130 53010 82800
  333 10306 82820 92438
  555 81633=
67152 32580 52804 10285 20190 39217 48528 56004 82205
  333 10287 82820 84273=
67157 32580 5//// 10/// 20/// 30145 40152 53004 85800
  333 10/// 83820 84633=
67161 32582 22006 10/// 20/// 30118 40127 54000 82903
  333 10/// 81820 81920 94992 95812
  555 81640 81073=
67194 NIL=
67197 21465 70206 10246 20237 30137 40147 52009 72196 879//
  333 10300 60051 83816 82916 85633 94967 94968 95837 95838=
0000151800
397
SIKR21 DKPY 111500
AAXX 11151
47003 42980 30000 11119 21146 30225 40229 58013 83030=
47005 42970 72301 11143 21186 38600 53004 87002=
47008 42970 00000 11054 21100 30167 40223 58004=
47014 42950 00000 11175 21187 39837 40276 57002=
47016 42770 10000 11174 21215 39370 40285 54000 81030=
47020 42965 00000 11142 21162 39922 40330 52009=
47022 42475 13407 11119 21191 38834 54000 81500=
47025 42960 03601 11061 21135 30217 40248 57002=
47028 42962 01801 11082 21119 30190 40290 52010=
47031 42970 03203 11107 21170 38943 57005=
47035 41960 60000 11063 21109 30276 40285 52001 71000 86030=
47037 42970 00000 11094 21129 30172 40304 54000=
47039 41556 80502 11096 21126 30100 40303 54000 71022 85501=
47041 42970 02302 11002 21098 30220 40242 57005=
47046 42969 00000 11037 21153 30231 40255 54000=
47050 42965 60000 11072 21125 30238 40273 54000 80002=
47052 42565 60000 11060 21079 39937 40293 57004 86500=
47055 42970 12703 10008 21090 30217 40264 57005 80001=
47058 42560 71401 11025 21051 30238 40287 57006 87500=
47060 42760 62703 10001 21027 30226 40286 57003 86030=
47061 42980 02303 10012 21090 30218 40263 54000=
47065 42565 80901 11011 21043 30235 40302 53005 88532=
47067 42965 00000 11052 21105 30198 40325 57002=
47068 41560 80703 11025 21038 30257 40293 58006 77772 83502=
47069 41556 80000 11012 21045 30189 40292 57004 71022 885//=
47070 42970 00000 11043 21066 30204 40295 57014=
47075 42980 82304 11052 21077 39968 40420 57004 80003=
0000011100
398
SIVF21 ESWI 111500 RRB
BBXX
SMLQ 11151 99656 10222 46/// /0206 11168 40131 52005 22201 0////=
0000216700
399
SZNZ01 NZKL 111530
CREX++
T000103 A001 D01021 D06025++
-3683144 17478654 AUCT  2014 01 11 15 22 //// 11 07 00 01
05929 3177 05932 3177 05935 3177 05938 3178 05941 3178 05944 3178+
-4402404 -17636748 CHIT  2014 01 11 15 22 //// 11 07 00 01
05261 2145 05254 2141 05214 2105 05214 2108 05208 2105 05193 2093+
-4089929 17623168 CPIT  2014 01 11 15 22 //// 11 07 00 01
04377 2286 04372 2284 04369 2284 04356 2274 04361 2282 04362 2287+
-3618905 17548887 GBIT  2014 01 11 15 22 //// 11 07 00 01
06365 0000 06371 0005 06372 0005 06369 0000 06367 -0003 06363 -0009+
-3867541 17802288 GIST  2014 01 11 15 22 //// 11 07 00 01
04528 2736 04522 2731 04517 2728 04511 2724 04510 2724 04516 2732+
-4241288 17370277 KAIT  2014 01 11 15 22 //// 11 07 00 01
03774 2235 03772 2238 03755 2225 03759 2233 03748 2226 03741 2223+
-3755040 17815904 LOTT  2014 01 11 15 22 //// 11 07 00 01
04011 0194 04011 0194 04017 0200 04001 0183 04002 0184 04016 0198+
-3704657 17451175 MNKT  2014 01 11 15 22 //// 11 07 00 01
02386 -0114 02392 -0114 02403 -0111 02421 -0099 02431 -0096 02433 -0101+
-3947566 17692007 NAPT  2014 01 11 15 22 //// 11 07 00 01
03484 1976 03485 1980 03484 1981 03504 2005 03483 1986 03486 1992+
-3441483 17304870 NCPT  2014 01 11 15 22 //// 11 07 00 01
-03712 -8537 -03729 -8558 -03615 -8448 -03673 -8509 -03732 -8571 -03827 -8670+
-4581435 17062939 OTAT  2014 01 11 15 22 //// 11 07 00 01
04748 3433 04744 3435 04740 3437 04737 3440 04734 3443 04729 3445+
-2928002 -17789440 RBCT  2014 01 11 15 22 //// 11 07 00 01
06306 1961 06293 1948 06305 1959 06310 1963 06315 1968 06330 1982+
-2925114 -17790384 RFRT  2014 01 11 15 22 //// 11 07 00 01
03270 0142 03273 0144 03264 0135 03246 0116 03277 0146 03291 0160+
-4357010 17277383 SUMT  2014 01 11 15 22 //// 11 07 00 01
02426 1804 02410 1794 02394 1783 02400 1794 02366 1766 02358 1764+
-3764109 17618118 TAUT  2014 01 11 15 22 //// 11 07 00 01
05578 3955 05578 3953 05579 3954 05580 3953 05583 3954 05587 3957+
-4128448 17477985 WLGT  2014 01 11 15 22 //// 11 07 00 01
03444 2000 03449 2009 03440 2003 03434 2001 03426 1996 03426 2000++
7777
0000034100
400
SIJD20 OJAM 111500
AAXX 11154
40255 NIL=
40260 42560 11106 10124 21092 39426 40222 54001 81100 333 81835=
40270 41550 53010 10103 20057 39328 40238 52014 70522 85200 333
85825=
40272 NIL=
40310 42560 53105 10086 20055 39005 48554 54003 85200 333 85830=
40340 42560 63508 10180 20082 40235 52006 86100 333 86830=
0000013600
401
SIVD17 CWVR 111500
BBXX
46185 11151 99524 71298 46/// /2003 10054 49820 52010
22200 00074 1//// 70/// 333 91204 =

0000011000
402
UANT99 KDDL 111527
ARP ACA871 5205N02715W 1527 F330 MS53 165/65 KT
CFNNQ DDL XXN 111527 F15A
0000011000
403
UANT99 KDDL 111527
ARP AFR842 4731N02556W 1527 F320 MS47 200/66 KT
FGSQX QXT AOE 111527 F25A
0000010900
404
UANT99 KDDL 111527
ARP KLM17 5158N03050W 1527 F350 MS52 186/25 KT
PHAOC QXT AOE 111528 J33A
0000072700
405
UDAS02 BABJ 111520
AMDAR 1115
DES CNFLWT 3002N 10416E 111515 F120 MS123 048/007 TB/ S//1=
DES CNFLWT 3006N 10413E 111516 F115 MS138 035/011 TB/ S//1=
DES CNFLWT 3009N 10412E 111517 F108 MS129 030/013 TB/ S//1=
DES CNFLWT 3010N 10411E 111517 F103 MS125 025/015 TB/ S//1=
ASC CNFPTK 3123N 12143E 111516 F111 MS063 271/039 TB/ S//1=
ASC CNFPTK 3126N 12144E 111517 F128 MS088 258/052 TB/ S//1=
ASC CNFPTK 3128N 12144E 111518 F145 MS130 252/050 TB/ S//1=
ASC CNFPTK 3131N 12144E 111518 F163 MS123 256/038 TB/ S//1=
DES CNFLWR 3849N 11546E 111516 F138 MS253 284/040 TB/ S//1=
DES CNFLWR 3852N 11553E 111517 F138 MS255 282/039 TB/ S//1=
DES CNFLWR 3855N 11559E 111518 F138 MS255 276/036 TB/ S//1=
0000097500
406
UDAS02 BABJ 111517
AMDAR 1115
DES CNFLWT 2947N 10421E 111512 F141 MS133 236/033 TB/ S//1=
DES CNFLWT 2952N 10419E 111513 F129 MS125 250/016 TB/ S//1=
DES CNFLWT 2955N 10418E 111514 F128 MS125 263/008 TB/ S//1=
DES CNFLWT 2957N 10418E 111514 F128 MS125 252/010 TB/ S//1=
DES CNFLWR 3839N 11526E 111513 F138 MS248 286/037 TB/ S//1=
DES CNFLWR 3842N 11532E 111514 F138 MS250 284/038 TB/ S//1=
DES CNFLWR 3845N 11539E 111515 F138 MS253 284/039 TB/ S//1=
LVR CNFNZK 2734N 11930E 111506 F256 MS208 254/100 TB/ S//1=
LVR CNFNZK 2714N 11930E 111509 F256 MS205 254/099 TB/ S//1=
LVR CNFNZK 2654N 11930E 111512 F256 MS203 253/098 TB/ S//1=
LVR CNFNZK 2634N 11930E 111515 F256 MS200 251/095 TB/ S//1=
ASC CNFPTK 3113N 12146E 111514 F031 PS003 157/009 TB/ S//1=
ASC CNFPTK 3116N 12145E 111515 F050 MS013 227/021 TB/ S//1=
ASC CNFPTK 3118N 12144E 111515 F071 MS035 246/019 TB/ S//1=
ASC CNFPTK 3120N 12143E 111516 F090 MS038 246/028 TB/ S//1=
0000011100
407
UANT99 KDDL 111528
ARP AWE741 4854N02821W 1528 F380 MS47 206/44 KT
N289AY DDL XXN 111528 J36A
0000006100
408
AAUK99 EGRR 111530
Socket stay alive message.
0000014200
409
FTUK51 EGRR 111400 AAA
TAF AMD EGXW 111524Z 1115/1209 26006KT CAVOK PROB40 1117/1209 5000
    BR PROB30 1200/1208 3000 MIFG=
0000038300
410
SIVD15 KWNB 111500 RRN
BBXX
44064 11151 99370 70760 46/// /2008 10162 40105 91520 333 91211
555 11096 22104=
44062 11151 99386 70764 46/// /1707 10058 40089 91520 333 91208
555 11082 22089=
44063 11151 99390 70764 46/// /2006 10058 40065 91520 333 91207
555 11070 22077=
44042 11151 99380 70763 46/// /2004 10088 40086 91520 333 91205
555 11044 22048=
0000012800
411
SIVD20 KWNB 111500 RRO
BBXX
44058 11151 99376 70763 46/// /1807 10087 40099 91520 333 91207
555 11075 22082=
0000178600
412
SIUS20 KWBC 111500
AAXX 11154
72327 32966 42608 10117 20039 39829 40075 51024 91453 333 91016
555 91115=
72208 12166 82117 10206 20194 30129 40144 58005 69907 91456 333
91026 555 91115=
72259 32966 00403 10089 20017 39974 40181 53031 91453 555 91115=
72270 32966 01105 10022 21089 38865 40211 51019 91451 555 91115=
72201 32966 01614 10261 20217 30193 40199 51019 91453 555 91115=
72376 32966 01006 11044 21094 38353 40265 53012 91453 555 91115=
72344 32966 02607 10039 20011 39975 40143 53024 91453 555 91115=
72317 11124 81908 10106 20100 39763 40088 58024 60137 710// 91454
555 91115=
72312 11108 91607 10122 20117 39720 40056 58047 69937 741// 91453
555 91115=
0 17556 82013 10194 20178 30145 40149 56010 69907 710// 91451 555
91115=
72235 32966 00000 10161 20022 30028 40131 51037 91454 555 91115=
72206 32466 82012 10211 20211 30154 40164 53005 91456 555 91115=
74486 11000 /1812 10094 20089 30107 40116 56028 69987 751// 91451
333 96041 555 91115=
72240 32561 62906 10172 20161 30155 40166 51037 91453 555 91115=
72217 11466 82111 10189 20172 39978 40104 56009 69907 761// 91453
333 91017 555 91115=
72334 32966 22709 10094 20039 39998 40102 53025 91454 555 91115=
72226 11356 82605 10172 20161 30036 40112 53029 60157 763// 91453
333 96010 555 91115=
72202 32466 41412 10267 20222 30193 40203 53014 91453 333 91018
555 91115=
72308 15466 81913 10200 20178 30094 40110 58026 69957 91451 333
91020 555 91115=
72222 11320 82520 10194 20183 30093 40140 53029 60137 710// 91453
333 91034 96010 555 91115=
72253 32966 20000 10144 20044 39903 40180 53038 91451 555 91115=
72248 32966 03009 10100 20050 30066 40162 53039 91456 555 91115=
72211 32466 81810 10233 20211 30172 40187 51014 91453 555 91115=
0000031600
413
SIVD01 PANC 111500 RRD
BBXX
WJBJ 11153 99194 70686
41398 31020 10256 20224 40199 51013 70181 82284
22273 00267 20703 30709 40402 5//// 6//// 80233 ICE /////=
VRWJ7 11154 99123 51737
41599 73621 10270 20243 40050 56030 70122 86223
22254 00290 21203 33636 41203 51203 6//// 80250 ICE /////=
0000200600
414
SIUS21 KWBC 111500
AAXX 11154
72365 32966 21505 11017 21089 38429 40239 51017 91452 555 91115=
72506 11559 81617 10078 20067 30143 40162 58040 69907 761// 91453
333 96010 555 91115=
72518 11259 81713 10078 20067 39971 40079 57040 69957 751// 91451
333 91023 96010 555 91115=
72363 32966 02305 11017 21100 38938 40190 51019 91453 555 91115=
72513 15466 81813 10139 20111 39705 40047 56053 60037 91454 333
91031 555 91115=
72509 11356 81809 10089 20083 30124 40131 58043 69907 761// 91454
333 96010 555 91115=
72570 35966 00000 11083 21100 38134 40265 51011 91453 555 91115=
72314 11108 81608 10122 20122 39827 40087 56046 60197 710// 91452
555 91115=
72605 17112 80000 11011 21011 30002 40132 56046 60027 710// 91451
333 96010 555 91115=
72445 31359 82711 10017 20006 39754 40080 53028 710// 91454 555
91115=
72414 11262 81910 10117 20117 39654 40016 50005 60157 761// 91454
333 91020 555 91115=
72429 11156 82113 10100 20094 39626 49983 55004 60017 710// 91456
333 91019 555 91115=
72405 11104 80000 10044 20033 30063 40084 58036 60027 751// 91452
333 96041 555 91115=
72451 35966 43014 10022 21056 39238 40167 51021 91452 555 91115=
72565 32866 42715 10039 21056 38302 40118 50000 91453 555 91115=
72376 32966 01006 11044 21094 38353 40265 53012 91453 555 91115=
72425 11364 81908 10117 20111 39724 40024 55012 60097 761// 91451
555 91115=
72302 15466 82115 10228 20200 3//// 40137 58013 69937 91453 333
91021 555 91115=
72438 32362 82512 10028 20028 39715 40006 51019 91454 555 91115=
72503 11104 81714 10100 20094 30091 40106 58022 60017 751// 91451
333 96041 555 91115=
72410 12266 82105 10067 20067 39739 40089 58018 60067 91454 555
91115=
72446 32966 62307 10000 21022 39701 40084 51016 91453 555 91115=
72475 35966 01809 11033 21056 3//// 40234 56007 91452 555 91115=
72353 32966 22908 10050 21061 39698 40163 51024 91452 555 91115=
72423 12466 62414 10111 20083 39851 40023 53019 69907 91456 555
91115=
00000000