0000576900
275
SIXX40 ETGT 111500 RRA
AAXX 11151
40701 41902 00000 11160 21162 38609 40356 54000 74200 333 10080
555 11157 29098 66666 01060 11054 21042 31034 50012 90054=
40703 41525 30000 11090 21118 38953 40312 56003 71000 83600 333
11050 83725 555 11094 29080 66666 01030 11040 21036 31010 50032
90080=
40704 42970 03105 11052 21102 38602 40228 53010 333 11005 555
11064 29068 66666 01024 11026 21028 31018 50006 90068=
40706 41650 30000 11070 21118 38669 40302 53008 70510 81402 333
11024 81635 83068 555 11080 29068 66666 01032 11038 21032 31024
50006 90054=
40708 42965 51910 11016 21035 38646 40197 53007 81036 333 10006
81359 85267 555 11022 29087 66666 01022 11016 21020 31014 50008
90060=
40710 42665 20000 11136 21179 38318 40339 53003 81501 333 11062
82068 555 11141 29070 66666 01062 11060 21058 31046 51020 90060=
40712 41608 33302 11082 21088 38695 40296 53005 74411 82502 333
11036 82635 83067 555 11081 29095 66666 01026 11028 21026 31012
50008 90056=
40713 41913 40000 11064 21072 38679 40285 52005 71021 80001 333
11018 84071 555 11064 29094 66666 01010 11018 21006 31022 50030
90092=
40716 42960 70000 10000 21034 38919 40239 54000 80006 333 10018
87268 555 11012 29078 66666 01004 11002 20008 30014 50050 90096=
40718 42862 82702 10096 20075 30169 40140 55002 84077 333 10110
84458 88266 555 10086 29087 66666 00092 10092 20086 30090 50106
90130=
40719 41530 60000 10070 20056 30152 40141 53001 71022 81501 333
10120 81630 85066 555 10064 29091 66666 00070 10074 20076 30076
50098 90124=
40721 42960 51604 10086 21024 39614 40161 50001 82038 333 10148
82360 85270 555 10044 29046 66666 00084 10082 20074 30074 50085
90118=
40726 41630 40000 11042 21074 38665 40260 58001 70521 82520 333
10000 82635 83458 555 11050 29078 66666 01018 11020 21016 30000
50030 90080=
40729 42660 70000 11008 21043 38337 40244 53007 84470 333 10010
84640 87459 555 11020 29077 66666 01010 11014 21010 31020 50005
90048=
40731 41658 60000 11003 21040 38744 40236 55002 70522 83470 333
10016 83640 86359 555 11016 29076 66666 00000 11001 20013 30017
50038 90072=
40732 41956 80000 10086 20069 30158 40133 56004 71022 80007 333
10112 88267 555 10078 29089 66666 00084 10082 20080 30084 50096
90112=
40736 42560 70000 10094 20073 30164 40138 55006 82536 333 10118
82630 84360 86269 555 10084 29087 66666 00084 10086 20082 30090
50102 90126=
40737 42960 50000 10064 20055 30127 40145 58007 80006 333 10114
85270 555 10060 29094 66666 00068 10080 20078 30084 50106 90118=
40738 41556 60000 10082 20069 30160 40162 58006 71022 82570 333
      10122 82635 85360 555 10076 29092 66666 00084 10092 20082
      30084 50100 90126=
40739 42662 72403 10026 21071 38680 40218 56005 84570 333 10046
84635 86360 555 11008 29049 66666 00036 10036 20022 30020 50041
90082=
40740 42960 10902 10026 21107 38718 40209 53006 81030 333 10104
81360 555 11016 29037 66666 01005 11010 21007 30003 50025 90062=
40743 42665 13102 10041 21074 39073 40222 55000 81502 333 10109
81070 555 10002 29043 66666 00072 10066 20064 30074 50088 90124=
40745 42960 62102 10062 21134 39026 40203 57006 81046 333 10112
81359 86268 555 10005 29023 66666 00045 10050 20044 30038 50055
90095=
40747 41657 50000 11016 21038 38640 40244 53006 71021 81472 333
10017 81640 83358 555 11023 29085 66666 00012 10012 20022 30028
50046 90085=
40754 41518 83003 10014 21015 38840 40225 53005 71022 8352/ 333
10036 83630 88460 555 10003 29081=
40757 42660 63001 10034 21025 38910 40227 53001 83570 333 10066
83635 85360 555 10012 29065 66666 00032 10042 20042 30044 50056
90102=
40762 42965 71802 10008 21076 38559 40242 53001 84056 333 10075
84359 87269 555 11020 29053 66666 00034 10034 20026 30020 50038
90074=
40763 42665 51502 10048 21062 38932 40233 53010 82502 333 10102
82640 84070 555 10010 29045 66666 00070 10074 20062 30058 50072
90114=
40766 41657 70000 11001 21009 38697 40229 51002 71022 85370 333
10004 82935 83640 87358 555 11004 29094 66666 00008 10020 20032
30032 50064 90092=
40768 41520 80000 11052 21070 38260 40281 51005 71022 8532/ 333
11024 81930 85635 88459 555 11058 29086 66666 01002 11025 21016
31003 50014 90042=
40769 41520 70000 11050 21063 38294 40263 51005 71072 84770 333
11020 84720 87458 555 11052 29091 66666 00002 10002 20012 30018
50040 90084=
40782 41557 81102 10038 20033 38876 40208 52014 79596 8692/ 333
10048 81930 85635 88557 555 10036 29097 66666 00050 10054 20054
30056 50072 90108=
40783 41540 60000 11020 21023 37965 40202 51006 71087 86370 333
10016 82930 84635 86359 555 11020 29098 66666 00002 10004 20018
30018 50040 90080=
40785 41530 80000 10010 20000 39105 40264 55000 71022 8552/ 333
10032 85620 88457 555 10006 29093 66666 00034 10038 20036 30044
50072 90114=
40789 41660 82802 10046 20022 39219 40218 52007 70262 8352/ 333
      10072 83640 88460 555 10036 29084 66666 00056 10060 20066
      30068 50105 90145=
40798 41558 60000 11034 21044 37943 40264 53008 70172 85372 333
      11006 81925 84630 84358 555 11036 29093 66666 01004 10000
      20006 30016 50034 90064=
40800 41608 80000 10000 21005 38459 40243 53012 77172 8352/ 333
10028 83635 88559 555 11002 29096 66666 01004 11002 20018 30030
50066 90118=
40809 42660 60905 10023 21123 38511 40237 52010 82552 333 10076
82640 84360 555 11022 29033 66666 00040 10046 20044 30046 50072
90114=
40811 41210 82103 10116 20112 30148 40175 53009 76396 8572/ 333
10140 82705 83920 88557 555 10114 29098 66666 00122 10124 20126
30134 50150 90190=
40818 41550 83202 10016 20011 37955 40208 51009 78082 8532/ 333
10082 82930 83635 88458 555 10014 29097 66666 01002 11004 20000
30002 50030 90074=
0000340300
276
SIXX40 ETGT 111500 RRB
AAXX 11151
40821 41656 83105 10050 21019 38796 40223 51017 70521 8241/ 333
10098 82635 88460 555 10023 29061 66666 00066 10083 20068 30057
50080 90130=
40827 42662 80000 10021 21016 38846 40232 53005 82477 333 10056
      82635 84359 88268 555 10007 29076 66666 00038 10050 20056
      30066 50092 90146=
40831 42560 72803 10126 20086 30181 40189 52016 84370 333 10148
81930 83635 87360 555 10106 29076 66666 00146 10152 20144 30094
50160 90208=
40836 41502 80000 10000 21005 38186 40220 56003 77577 8132/ 333
10025 81930 84635 88558 555 11002 29096 66666 00000 10006 20014
30028 50036 90080=
40841 42660 70000 10030 21033 38251 40232 53004 84410 333 10076
84635 87460 555 10006 29063 66666 01006 10000 20016 30046 50088
90154=
40848 41520 81502 10034 20030 38524 40208 56005 71066 8432/ 333
10038 81930 83635 88458 555 10032 29097 66666 00046 10048 20052
30052 50070 90114=
40851 41660 61206 10056 20030 38272 40201 51002 70162 83470 333
10078 83640 86360 555 10044 29083 66666 00048 10052 20054 30054
50080 90146=
40853 41556 80000 10022 20003 37759 40220 53004 76276 8432/ 333
10054 81930 83635 88559 555 10014 29088 66666 00036 10040 20040
30046 50058 90120=
40854 42665 70000 10056 21015 38960 40195 53006 81406 333 10108
      81635 87270 555 10028 29060 66666 00080 10092 20102
      30102 50134 90182=
40856 42662 71206 10040 21060 38651 40237 51005 82570 333 10071
82635 86359 555 10005 29048 66666 00052 10058 20089 30065 50056
90133=
40857 41556 81104 10132 20121 30158 40168 50002 79596 8592/ 333
10162 82925 83635 88557 555 10126 29093 66666 00130 10136 20142
40858 41556 81205 10128 20117 30159 40170 55005 72196 8492/ 333
10158 81930 83635 88458 555 10122 29093 66666 00124 10140 20146
30144 50168 90192=
40859 41657 80000 10050 20027 38732 40193 53003 78022 8592/ 333
10084 82935 83640 88459 555 10040 29085 66666 00072 10080 20082
30088 50104 90141=
40872 41556 81208 10168 20152 30181 40186 50006 76162 8532/ 333
10196 82925 83630 88557 555 10159 29091 66666 00158 10164 20166
30172 50182 90194=
40875 41556 82703 10133 20110 30208 40220 52011 76162 8532/ 333
10160 82925 83630 88559 555 10121 29086 66666 00154 10160 20164
30176 50192 90230=
40877 42660 80000 10126 20027 39634 40191 52010 8442/ 333 10130
84645 88459 555 10082 29051 66666 00130 10130 20132 30140 50170
90208=
40878 42962 61203 10101 21082 38876 40257 53005 84078 333 10129
84360 85270 555 10036 29027 66666 00110 10112 20108 30108 50120
      90148=
40879 42560 83103 10138 21024 39530 40229 53025 8172/ 333 10158
81720 88459 555 10072 29033 66666 00158 10160 20162 30160 50170
      90218=
40883 41540 80302 10142 20131 30185 40208 53006 71022 8432/ 333
10172 81920 83625 88458 555 10136 29093 66666 00140 10146 20150
30178 50180 90222=
40890 41530 83003 10168 20144 30191 40199 53011 76066 8332/ 333
10212 82925 82630 88558 555 10154 29086 66666 00160 10174 20186
30196 50206 90234=
40893 41958 30000 10194 20061 30206 40212 51013 70522 83030 333
10202 83360 555 10128 29042 66666 00200 10208 20204 30204 50202
90206=
40897 45960 40000 10166 20033 10212 30200 40215 52016 80006 84067=
40898 42965 50000 10178 21058 30204 40214 53017 80008 222// 00226
      10501 333 10216 85269 555 10088 29020 66666 00168 10188
      20204 30206 50216 90250=
0000130800
277
SIXX40 ETGT 111500 RRA
AAXX 11154
40356 42560 63306 10070 20040 39234 48520 84520 333 58059 84630 86460
555 04410 50236=
40357 42560 73412 10088 20090 39575 40230 87600 333 58072 84720
83730=
40360 42960 02908 10116 21010 39627 40232 333 58046=
40361 42660 23610 10084 20010 39451 40242 82500 333 58073 82640=
40362 42660 73115 10091 20040 39682 40211 87470 333 58063 87640
85360=
40373 42960 02906 10110 20060 39774 40202 333 58033=
40375 42660 40106 10136 20020 39339 40232 84200 333 58054 84840=
40377 42660 43613 10120 20110 39718 40206 84500 333 58003 84640=
40394 42660 63216 10096 20020 39063 48526 86500 333 58052 86640 555
04410 50219=
40400 42960 03013 10212 20100 30178 40206 333 58038=
40401 42960 03310 10165 21010 39509 40223 333 58058=
40405 42960 03508 10150 20070 39446 40196 333 58058=
40416 42660 51710 10159 20140 30158 40178 82230 333 59012 82840
83358=
40417 41650 52807 10161 20110 30177 40192 70500 82530 333 59011 82640
83360=
40420 42660 72407 10165 20140 39983 40194 83510 333 59006 83635
85460=
40430 42960 01806 10190 21020 39468 40200 333 58050=
40435 42960 03005 10140 20020 39140 40167 333 58056=
40437 41957 03606 10137 20090 39492 40207 70500 333 58020=
40439 42960 02308 10232 20070 30167 40177 333 58037=
0000099000
278
SSVX08 KARS 111524
ZZYY 15002 10014 1200/ 700000 009870 6112/
33311 88872 20001 32733 20020 32727 43504 20040 32398 43592
20060 32021 20080 31765 20100 31648 20120 31578 43568 20140 31503
20180 31397 20300 31050 20500 30705
444 20120 10014 1325/ 521//=
ZZYY 15002 11014 15004 700002 009850 6111/
11119 01611 10265 29084
22219 00276
444 20110 11014 1458/ 521// 60001=
ZZYY 13002 10014 1200/ 720444 023132 6112/
33311 88872 20001 32153 43671 20020 32152 20040 32148 43670
20080 32043 20100 31854 20120 31779 20140 31775 20180 31731
20300 31467 20500 31069
444 20120 10014 1140/ 521//=
ZZYY 13002 11014 15004 720443 023148 6111/
11119 00607 10203 29078
22219 00218
444 20110 11014 1501/ 521// 60401=
ZZYY 13010 10014 1200/ 700000 000013 6112/
33311 88872 20001 32811 20020 32797 43447 20040 32284 43606
20060 31816 20080 31727 20100 31603 20120 31543 43564 20140 31505
20180 31441 20300 31039 20500 30713
444 20120 10014 1324/ 521//=
0000072400
279
SSVX07 KARS 111524
ZZYY 48508 11014 1520/ 772699 159203 6111/
11119 11212 40013
444 20110 11014 1424/ 504//=
ZZYY 48536 11014 1520/ 175240 148567 6111/
11119 11305
444 20110 11014 1428/ 504//=
ZZYY 48732 11014 1520/ 774447 130917 6113/
11119 11146 49806
444 20130 11014 1425/ 504//=
ZZYY 48507 11014 1520/ 773025 134908 6113/
11119 11243 49869
444 20130 11014 1422/ 504//=
ZZYY 25605 11014 1504/ 182524 136444 6113/
11119 49974 52001
22219 01212
444 20130 11014 1500/ 504// 80100 80000=
ZZYY 48731 11014 1520/ 774109 154943 6111/
11119 11186 49979
444 20110 11014 1424/ 504//=
ZZYY 48733 11014 1520/ 772957 152348 6112/
11119 11241 49984
444 20120 11014 1423/ 504//=
0000094000
280
SIRA21 RUHB 111500
AAXX 11151
30385 42999 23401 11385 21402 39812 40460 54000 80001=
30469 NIL=
30636 429// 80000 11305 21336 39755 40446 52003 80005=
30650 42984 80000 11350 21374 39188 40473 57001 80007=
30664 42999 00000 11418 21438 39336 40511 52001=
30777 42998 02203 11321 21350 39698 40443 52004=
30822 42998 71202 11132 21167 39754 40368 58003 80002=
30844 42999 00000 11296 21315 39358 40459 52003=
30925 429// 81802 11174 21224 39361 40403 58001 80005=
31371 42999 03403 11260 21344 30007 40299 52001=
31388 42984 00000 11413 21432 39967 40275 54000=
31478 41999 80602 11389 21412 39024 40276 53008 77172 8802/=
31532 42999 80000 11392 21418 39873 40271 58004 80001=
31594 41996 83602 11348 21371 30075 40273 57004 77171 80007=
31624 42999 52901 11278 21325 39943 40225 52/// 80001=
31655 42998 01803 11285 21324 30136 40189 57003=
31754 42999 00000 11332 21363 39664 40230 58009=
0000032300
281
SIER20 OMAA 111500
AAXX 11154
41200 41860 80206 10176 20151 30163 40216 76122 8807/ 333 58006
      84358 86460=
41202 NIL=
41203 NIL=
41206 NIL=
41207 NIL=
41208 NIL=
41209 NIL=
41210 NIL=
41211 NIL=
41216 41660 80605 10189 20160 30191 40195 76166 8251/ 333 58003
      82645 88460=
0000003900
282
SIER20 OMAA 111500
NIL=
0000013500
283
SIVD17 CWVR 111500
BBXX
46147 11151 99518 71312 46/// /1005 10065 49806 52007
22200 00074 10906 70032 333 91206=

0000075400
284
SIYE10 OYSC 111500
AAXX 11154
41372 NIL=
41390 NIL=
41391 NIL=
41396 NIL=
41398 NIL=
41399 NIL=
41404 42560 52710 10194 20029 37474 48542 85500 91515 333 58018
85630=
41407 42760 30610 10266 20068 38934 48504 81032 91552 333 58005
81356=
41431 46/// ///// 1//// 2//// 3//// 4//// 333 5////=
41434 NIL=
41437 42965 61313 10202 20068 38886 48524 80001 333 58003 86068=
41438 NIL=
41443 42570 20908 10246 20188 30145 40162 82800 333 59010 81825=
41450 NIL=
41452 42560 20304 10178 20133 38098 48506 82801 333 58004 82825=
41466 NIL=
41477 NIL=
41480 42560 21409 10257 20189 30147 40150 82501 333 59007 82620=
41481 NIL=
41482 NIL=
41494 42460 40915 10260 20195 40140 82501 333 59004 82618 83070=
0000020300
285
SOBR10 KWAL 111526
BAB00078 011152611 :BUB 2 #1       M   0.599   0.589   0.599 :RAD 1 #1   0.503   0.480   0.496   0.507 :PRS 1 #1  -0.789  -0.790  -0.786  -0.778 :BL 11.93  34+0NF 219E
0000258000
286
USEU26 EDZW 111200
TTAA 11111 11520
99981 05450 19001 00149 ///// ///// 92782 01844 24510
85464 00360 25007 70999 06921 27522 50554 23942 27028
40713 34934 26028 30907 51125 25030 25023 59749 25528
20164 55176 26522 15348 55378 28018 10605 57578 29516
88248 59950 25527
77999
31313 48008 81115=
TTAA 11121 12120 99008 05422 25008 00068 05033 23512
92699 00405 26015 85373 03906 27515 70892 09332 27518
50541 25184 28517 40699 36940 28524 30891 51336 27532
25008 58750 28539 20148 56173 29530 15332 54377 30526
10591 56977 31525 88245 59950 28539 77241 29039 40908
31313 48006 81120=
TTAA ///// 12330 NIL=
TTAA 11121 12374 99002 05041 25004 00115 04839 25005
92744 00907 26512 85414 05121 27512 70932 08172 29513
50546 24360 29521 40705 35533 29027 30898 50557 28535
25015 58756 29036 20153 62159 29533 15336 55382 30528
10592 56982 31529 88210 64357 29537 88130 58581 31025
77215 29537 40409 31313 48006 81115=
TTAA 11121 12425 99002 07456 23006 00135 07058 23506
92769 01646 26509 85444 03156 28011 70967 07762 28009
50551 23157 27026 40710 34730 27025 30905 50756 26027
25021 59958 25531 20161 57173 27521 15344 56182 28520
10601 57182 31021 88234 60959 26518 77250 25531 40514
31313 48008 81115=
TTAA  11121 12843
99004 06650 10001 00169 06450 11501 92803 02803 20004
85485 00230 30009 70021 06383 30518 50559 21559 28522
40719 33145 28524 30915 49539 26520 25031 59339 25522
20170 59357 27535 15351 55362 29520 10607 58367 29523
88237 61339 26527
77205 27036 41010
31313 41708 81124=
TTAA ///// 12982 NIL=
TTAA ///// 13130 NIL=
TTAA 11121 13275
99997 13662 21501 00176 ///// ///// 92825 07856 23506
85516 02650 28007 70056 08542 32013 50563 20175 31517
40725 32164 28522 30921 477// 29520 25039 561// 28532
20178 649// 28028 15356 587// 28528 10610 595// 29522
88207 647// 28031
77187 28034 40210
31313 48008 81102=
TTAA ///// 14420 NIL=
TTAA ///// 15120 NIL=
TTAA  11121 15420 99012 10464 21002 00197 08265 22003 92835
03866 28002 85515 01964 29003 70054 05590 27513 50563 19577
30516 40724 32967 29518 30920 48763 30521 25037 57561 29526
20175 65561 30031 15353 60776 29528 10605 60579 30526 88207
65358 30029 77999=
TTAA ///// 15480 NIL=
TTAA 11121 15614 99953 07456 00000 00189 ///// ///// 92834 05856
28002 85523 02032 29007 70067 05556 27515 50565 18578 29017 40727
30770 29523 30925 46156 29527 25043 55162 29529 20182 65557 29025
15359 62972 28527 10611 61577 30524 88199 65757 29025 77179 29534
40810 77142 28534 41212 31313 41408 81131=
0000136900
287
ASPS20 NFFN 111200
10001 33388 01112
99900 85221 73465 73465 10000 85224 63235 63235 10000 81204
63066 63066 10000 99955 55947 55535 62274 71511 55423 70950
71053 10000 55423 71054 71157 71162 10000 55423 71164 71374
10000 55523 71376 71479 61778 10000 55523 61877 62174 10000
55523 62273 62471 10000 55523 62570 62769 62867 10000 55283
70873 70978 10000 55283 70980 61077 61175 61372 62069 10000
66056 63065 63558 10000 99922 44000 62074 62172 62272 62373
62275 62175 62074 44004 61776 61873 62071 62270 62471 62473
62376 62078 61878 61776 44006 71075 71079 61177 61275 61572
61970 62169 62570 62572 62377 61980 71777 71675 71572 71471
71370 71172 71075 44006 62768 62865 63064 63066 62968 62869
62768 44008 71250 71353 71559 71665 71770 71974 72177 72480
62675 62970 63166 63263 63063 62565 62066 61165 60863 60660
60455 60350 60345 60533 60920 44010 71650 71855 71965 72070
72275 72579 62875 63071 63560 63459 62562 62061 61759 61455
61250 61237 61330 61620 44014 73250 72251 72355 72565 72671
72775 63078 63571 44018 73557 73255 73058 73067 73173 73580
44020 73559 73459 73360 73265 73268 73370 73570 44014 63551
63154 62855 62654 62351 62145 62040 61935 62030 62320 44018
63543 63346 63048 62848 62845 62540 62535 62630 62725 62920
44022 63531 63336 63240 63141 63040 62935 63031 63128 63325
63525 19191=
0000216700
288
SZNZ01 NZKL 111527
CREX++
T000103 A001 D01021 D06025++
-3683144 17478654 AUCT  2014 01 11 15 19 //// 11 07 00 01
05921 3179 05924 3179 05926 3178 05929 3177 05932 3177 05935 3177+
-4402404 -17636748 CHIT  2014 01 11 15 19 //// 11 07 00 01
05284 2159 05268 2146 05258 2139 05261 2145 05254 2141 05214 2105+
-4089929 17623168 CPIT  2014 01 11 15 19 //// 11 07 00 01
04387 2287 04379 2282 04378 2284 04377 2286 04372 2284 04369 2284+
-3618905 17548887 GBIT  2014 01 11 15 19 //// 11 07 00 01
06358 -0003 06360 -0002 06365 0001 06365 0000 06371 0005 06372 0005+
-3867541 17802288 GIST  2014 01 11 15 19 //// 11 07 00 01
04521 2724 04517 2722 04526 2732 04528 2736 04522 2731 04517 2728+
-4241288 17370277 KAIT  2014 01 11 15 19 //// 11 07 00 01
03790 2240 03790 2244 03782 2240 03774 2235 03772 2238 03755 2225+
-3755040 17815904 LOTT  2014 01 11 15 19 //// 11 07 00 01
04027 0211 04013 0196 04014 0197 04011 0194 04011 0194 04017 0200+
-3704657 17451175 MNKT  2014 01 11 15 19 //// 11 07 00 01
02388 -0091 02372 -0114 02395 -0098 02386 -0114 02392 -0114 02403 -0111+
-3947566 17692007 NAPT  2014 01 11 15 19 //// 11 07 00 01
03515 2000 03485 1972 03489 1979 03484 1976 03485 1980 03484 1981+
-3441483 17304870 NCPT  2014 01 11 15 19 //// 11 07 00 01
-03719 -8533 -03770 -8588 -03645 -8466 -03712 -8537 -03729 -8558 -03615 -8448+
-4581435 17062939 OTAT  2014 01 11 15 19 //// 11 07 00 01
04763 3429 04758 3430 04752 3431 04748 3433 04744 3435 04740 3437+
-2928002 -17789440 RBCT  2014 01 11 15 19 //// 11 07 00 01
06312 1970 06305 1962 06301 1958 06306 1961 06293 1948 06305 1959+
-2925114 -17790384 RFRT  2014 01 11 15 19 //// 11 07 00 01
03265 0140 03275 0149 03275 0148 03270 0142 03273 0144 03264 0135+
-4357010 17277383 SUMT  2014 01 11 15 19 //// 11 07 00 01
02445 1807 02427 1794 02431 1804 02426 1804 02410 1794 02394 1783+
-3764109 17618118 TAUT  2014 01 11 15 19 //// 11 07 00 01
05571 3953 05574 3954 05574 3953 05578 3955 05578 3953 05579 3954+
-4128448 17477985 WLGT  2014 01 11 15 19 //// 11 07 00 01
03475 2021 03457 2006 03454 2007 03444 2000 03449 2009 03440 2003++
7777
0000011000
289
UANT99 KDDL 111524
ARP FWI542 4726N01237W 1524 F340 MS59 250/65 KT
FORLY QXT AOE 111525 J95A
0000011000
290
UANT99 KDDL 111525
ARP DLH542 4901N01553W 1524 F360 MS64 225/92 KT
DAIHI QXT AOE 111525 J06A
0000013500
291
SIVD17 CWVR 111500
BBXX
46145 11151 99544 71324 46/// /3306 10029 49830 52029
22200 0//// 1//// 70/// 333 912//=

0000011100
292
UANT99 KDDL 111525
ARP BAW2153 4838N01253W 1525 F380 MS62 246/60 KT
GVIIW QXS ORK 111525 F05A
0000011000
293
UANT01 CWAO 111524
ARP AZA60U 4649N04328W 1524 F360 MS61 299/47 KT
EIISB QXT AOE 111524 F36A
0000011000
294
UANT01 CWAO 111524
ARP VIR75B 5012N04635W 1524 F380 MS59 292/58 KT
GVROS DDL XXH 111524 F95A
00000000