0000046000
975
SSVF50 LFPW 111410 RRA
ZZYY 62074 11014 1410/ 747285 003285 22219 00100 11103 20110
21015=
ZZYY 62079 11014 1410/ 743403 001674 22219 00126 11002 20100
21009=
ZZYY 61289 11014 1410/ 143208 005230 22219 00140 10401 20040
21004=
ZZYY 62069 11014 1410/ 748290 004968 22219 00109 11104 20110
21022=
ZZYY 61191 11014 1410/ 142917 003125 22219 00127 10401 20040
21004=
ZZYY 62059 11014 1410/ 749695 001620 22219 10502 20050 21008=
0000010800
976
SSVF50 LFPW 111435 RRA
ZZYY 61188 11014 1435/ 142490 003168 22219 00126 10401 20040
21003=
0000010800
977
SSVF50 LFPW 111505 RRA
ZZYY 61188 11014 1505/ 142490 003168 22219 00127 10401 20040
21003=
0000011100
978
UANT01 CWAO 111518
ARP AWE705 4808N04644W 1518 F360 MS61 295/61 KT
N270AY DDL XXN 111518 J20A
0000011000
979
UANT01 CWAO 111518
ARP AFR968 4703N01701W 1518 F340 MS59 213/83 KT
FGITF QXT AOW 111518 F96A
0000011000
980
UANT01 CWAO 111519
ARP VIR21G 5219N03743W 1518 F360 MS58 297/37 KT
GVGBR DDL XXH 111519 J78A
0000011100
981
UANT01 CWAO 111519
ARP UAL100 5123N03719W 1519 F350 MS58 300/53 KT
N14102 DDL H07 111519 F45A
0000011100
982
UANT01 CWAO 111519
ARP UAL975 5023N03706W 1519 F360 MS53 314/38 KT
N677UA DDL XXN 111519 F37A
0000013000
983
SIRO21 YRBK 111500 RRA
AAXX 11151
15108 21/91 92720 11071 21071 38052 48476 51001 74944 333 60007 91028
92723=
0000170400
984
SITA20 UTDD 111500
AAXX 11151
38598 329// 00909 10004 21007 40287 52013 333   10018=
38599 31995 00405 10000 21075 39743 40274 50005 71000 333   10037=
38705 329// 20901 11011 21050 39030 48500 58005 80001 333   10110=
38713 32984 20901 11035 21143 39041 48490 54000 80001 333   10055=
38715 329// 02310 11138 21232 47050 52005 333   11040=
38718 329// 00000 11080 21131 48580 53005 333   11025=
38719 329// 30000 11112 21254 47120 52002 80001 333   11084=
38725 329// 30000 11050 21238 48530 53008 80002 333   10018=
38734 329// 00904 11092 21181 47080 53008 333   11035=
38744 329// 20000 11170 21204 38090 48630 53007 80001 333   11092=
38836 329// 00000 11010 21049 39301 40271 53002 333   10102=
38838 429// 80000 10000 21006 39578 40260 53003 80002 333   10068=
38844 329// 30504 11084 21154 48530 53007 80002 333   11051=
38846 319// 30204 11056 21067 38539 48500 57006 71010 82030 333  
10002=
38847 NIL=
38851 329// 51208 11049 21132 48600 53002 80001 333   11022=
38856 329// 00000 11007 21088 48600 53005 333   10059=
38869 329// 00000 11182 21250 47160 52014 333   11105=
38875 329// 00000 11213 21225 47/// 5//// 333   11156=
38878 329// 00000 11175 21201 47140 53005 333   11095=
38932 329// 60501 11009 21044 40278 53002 80003 333   10089=
38933 329// 82301 10018 21019 39743 40272 53006 80007 333   10102=
38944 329// 20000 10014 21015 39641 40189 57002 80001 333   10049=
38947 325// 21201 10031 21014 40260 57004 82900 333   10069=
38951 329// 20903 11035 21185 48620 53005 80001 333   11005=
38954 329// 10000 11074 21177 38042 48650 57011 80001 333   11001=
38957 329// 00000 11097 21155 47900 53013 333   11044=
0000183700
985
SIDN40 EKMI 111500
AAXX 11154
06032 46/// /2811 10045 20015 39939 40009 52001 =
06041 25/74 02717 10048 20022 39989 49995 57005
  333 55301 20065 6///7 =
06049 47977 72711 10044 20029 39919 40027 52004 70080
  333 87/64 =
06052 47562 52923 10059 20031 30036 40041 52005 72284
  333 81/21 83/26 85/57 91135 =
06058 27675 53016 10061 20010 30049 40054 52008 70085
  333 55301 20108 69907 81/37 85/68 91127 =
06065 26/// /2708 10043 20028 39988 40030 52005
  333 55300 20068 69917 =
06072 26/// /2908 10047 20031 39956 40032 52004
  333 55302 20058 69967 =
06074 27973 82908 10052 20034 39967 40035 52007 70086
  333 69997 88/61 =
06082 NIL =
06102 26/// /2809 10053 20026 30013 40042 52009
  333 55300 20040 69937 91120 =
06104 21570 72707 10042 20023 39958 40055 52012 76162 87500
  333 6///7 83630 87650 =
06110 21575 73010 10052 20029 30001 40059 53016 72162 84570
  333 60027 81626 84637 85457 91122 =
06123 47/80 /3010 10055 20044 30050 40054 52010 72365
  333 55300 20029 91126 =
06126 26/// /2809 10048 20033 39984 40047 52006
  333 55300 20018 60037 91121 =
06136 26/// /3213 10054 20046
  333 55300 20018 60027 91124 =
06141 27/57 /2315 10054 20050 30028 40039 57020 75265
  333 55300 20014 60027 =
06147 27/40 /2416 10051 20044 30036 40042 57021 76165
  333 60037 =
06151 46/// /3016 10050 20039 30036 40039 57009 =
06154 27/57 /2415 10052 20050 39975 40032 57019 78186
  333 60027 =
06156 27478 82910 10050 20033 30013 40030 57005 76165
  333 55300 20029 60047 81/10 83/33 85/40 88/57 91127 =
06168 46/// /3218 10045 20036 39963 40016 57012
  333 91124 =
06170 263// 72516 10055 20045 39972 40024 57017
  333 60027 81/07 83/10 85/13 87/26 91027 91127 =
06197 26/// /2315 10050 20043 30014 40045 57024
  333 55300 20007 6///7 =
0000066100
986
UDAF01 FAPR 111519
AMDAR 1115
ASC AFZA42 0414S 01515E 111220 F011 PS275 218/002 TB1 S031 333 F/// VG043=
ASC AFZA42 0414S 01514E 111221 F010 PS273 182/000 TB1 S031 333 F/// VG027=
ASC AFZA42 0414S 01514E 111221 F012 PS258 111/003 TB1 S031 333 F/// VG031=
ASC AFZA42 0414S 01513E 111222 F015 PS250 115/004 TB1 S031 333 F/// VG031=
ASC AFZA42 0415S 01513E 111222 F018 PS243 082/005 TB1 S031 333 F/// VG031=
ASC AFZA42 0415S 01513E 111222 F021 PS234 064/003 TB1 S031 333 F/// VG031=
ASC AFZA42 0415S 01513E 111222 F024 PS221 081/004 TB1 S031 333 F/// VG031=
ASC AFZA42 0415S 01512E 111222 F027 PS212 101/007 TB1 S031 333 F/// VG021=
0000066100
987
UDAF01 FAPR 111515
AMDAR 1115
DES AFZA48 2555S 02855E 111502 F184 MS065 241/010 TB0 S031 333 F/// VG009=
DES AFZA48 2557S 02849E 111504 F162 MS026 192/008 TB0 S031 333 F/// VG008=
DES AFZA48 2559S 02841E 111505 F139 PS026 190/015 TB0 S031 333 F/// VG009=
DES AFZA48 2603S 02831E 111507 F121 PS050 241/018 TB0 S031 333 F/// VG010=
DES AFZA48 2605S 02828E 111508 F119 PS069 258/013 TB0 S031 333 F/// VG011=
DES AFZA48 2617S 02820E 111511 F099 PS125 246/011 TB0 S031 333 F/// VG012=
UNS AFZA48 2618S 02812E 111513 F082 PS174 263/006 TB0 S031 333 F/// VG014=
DES AFZA48 2612S 02813E 111515 F065 PS230 276/003 TB0 S031 333 F/// VG018=
0000066100
988
UDAF01 FAPR 111517
AMDAR 1115
DES AFZA48 2617S 02812E 111513 F079 PS187 234/010 TB0 S031 333 F/// VG018=
DES AFZA48 2616S 02812E 111514 F075 PS197 238/014 TB0 S031 333 F/// VG018=
DES AFZA48 2615S 02812E 111514 F071 PS211 236/011 TB0 S031 333 F/// VG018=
DES AFZA48 2613S 02813E 111515 F068 PS223 241/011 TB0 S031 333 F/// VG018=
DES AFZA48 2612S 02813E 111515 F065 PS230 276/003 TB0 S031 333 F/// VG018=
DES AFZA48 2611S 02814E 111515 F061 PS232 299/009 TB1 S031 333 F/// VG021=
DES AFZA48 2610S 02814E 111516 F058 PS241 292/007 TB1 S031 333 F/// VG021=
DES AFZA48 2609S 02814E 111516 F055 PS247 288/004 TB1 S031 333 F/// VG021=
0000012800
989
SIVD20 KWNB 111500 RRM
BBXX
44058 11151 99376 70763 46/// /1807 10088 40101 91510 333 91208
555 11080 22087=
0000178300
990
SIBW40 VGDC 111500
AAXX 11154
41858 31430 70000 10150 20130 30128 40175 71022 83520
333 56990 58009 79999 83614 86458=
41863 31950 62702 10145 20130 30130 40176 70522 86030
333 56090 58011 79990 86362=
41886 31440 80000 10181 20150 30146 40168 70522 8252/
333 56999 58007 70000 82618 88460=
41895 21450 83601 10166 20150 30150 40173 70562 8452/
333 56899 58014 6990/ 79999 84616 88458=
41909 31440 83301 10175 20140 30148 40160 70522 8352/
333 56999 58013 70000 83616 87458=
41915 NIL=
41926 31950 53402 10172 20120 30163 40177 70522 85030
333 56080 58015 70000 85362=
41929 32956 40000 10176 20160 30157 40166 84030 333
56090 58005 70000 84365=
41933 31930 00000 10175 20160 30154 40163 70500 333
58006 70000=
41939 31950 00000 10165 20150 40171 70500 333 58007
70000=
41941 31940 00000 10187 20170 30136 40142 70500 333
59013 70000=
41946 31950 00000 10190 20150 30161 40165 70500 333
58014 70000=
41947 31950 00000 10186 20150 30163 40165 70500 333
58001 70000=
41951 31935 00000 10155 20150 30152 40157 70500 333
58002 70000=
41953 31930 00000 10180 20150 30161 40166 70500 333
58005 70000=
41958 31940 00000 10182 20150 30157 40159 70500 333
58001 70000=
41960 31950 00000 10169 20160 30162 40164 70500 333
58001 70000=
41963 31920 00000 10163 20150 30152 40159 71011 333
58004 70000=
41964 31915 00000 10170 20160 30169 40172 71000 333
58012 70000=
41965 31950 00000 10145 20140 30152 40161 70500 333
58003 70000=
41966 31930 00901 10152 20130 30087 40170 70500 333
58009 70000=
41984 32940 00000 10170 20160 30148 40150 333 58006
70000=
41989 31920 00000 10180 20140 30147 40150 70500 333
59001 70000=
41998 32910 00000 10170 20160 30149 40155 70500 333
58012 70000=
0000117300
991
SICI01 KWBC 111500
AAXX 11151
50953 33/// 93604 11229 21303 40312 52029=
52533 32/// 92502 11122 21258 40451 57005=
52652 32/// 91402 11168 21277 40485 57005=
52866 31/59 90000 11136 21214 37788 52013 705//=
53463 42/// 93605 11103 21235 40423 52017=
53588 32/80 92708 11152 21242 37809 52011=
53772 32/// 90000 11032 21196 40358 52015=
53915 32/66 93201 11059 21202 40412 52009=
54218 32/80 93401 11124 21224 40372 52025=
54342 33/// 93605 11058 21210 40313 52033=
54823 33/// 91102 10036 21072 40308 52006=
56080 32/// 90202 11125 21190 37197 52011=
56096 32/// 90401 10028 21114 40363 52015=
56187 31/23 92701 10047 20030 40342 52020 710//=
56778 33/// 90000 10062 20013 38147 52013=
57461 33/22 93201 10032 20011 40339 52009=
57516 41511 92901 10075 20066 40334 52019 710//=
57687 41/// 92902 10047 20030 40336 52013 760//=
57816 41/41 90402 10013 20010 40328 52018 760//=
58150 31/14 90000 11007 21014 40312 57002 710//=
58362 41966 90701 10051 20028 40303 57013 721//=
58606 42/// 90401 10048 20033 40311 52011=
59431 41/26 93602 10112 20106 40261 52017 710//=
59644 32/// 93602 10159 20125 40238 52016=
0000054500
992
SNVE01 KWBC 111300 RRD
BBXX
VNAH 11134 99383 31416 46/// /2106 10164 20120 30201 40225 52004
 22200 04176 85138=
9vrj8 11133 99046 31462 41/97 83014 10270 20241 40091 51015 78065
 8//// 22233 00293 20402 301// 40602 80250=
C6FS9 11134 99239 31519 46/// /1220 10248 20198 30121 40157 52005
 22223 04269 85214=
2AGH7 11134 99262 31545 41598 61421 10245 20191 40139 57009 70322
 855// 22224 00260 2//// 3//// 4//// 5//// 80210=
VNSZ 11134 99395 31454 46/// /2916 10153 20118 30154 40180 52044
 22275 04164 85132=
0000013200
993
SNVJ01 KWBC 111300 RRB
BBXX
FHZI 11134 99654 31399 46/// /1615 11007 21009 39899 49910 52011
 22242 05009 86008=
0000009600
994
SNVB01 KWBC 111400 RRF
BBXX
MINFR09 1114/ 99350 11232 46/// ///// 40309 57007=
00000000