0000046700
315
SZPA01 AMMC 111527
CREX++
T000103 A001 D01021 D06025++
0136250 17293000 67590 2014 01 11 15 20 3015 11 07 00 01
02035 0080 02014 0061 02016 0065 02027 0077 02025 0076 02016 0069+
0710610 17137250 67680 2014 01 11 15 20 3013 11 07 00 01
01258 0028 01258 0030 01255 0029 01253 0029 01246 0023 01238 0017+
0698060 15820000 67950 2014 01 11 15 20 3022 11 07 00 01
00816 0134 00820 0139 00824 0143 00827 0146 00825 0145 00823 0143++
7777

0000179300
316
SZPS01 AMMC 111527
CREX++
T000103 A001 D01021 D06025++
-0204190 14737360 56130 2014 01 11 15 20 3025 11 07 00 01
00593 0138 00600 0143 00600 0141 00604 0143 00611 0149 00611 0147+
-0669280 15640860 56363 2014 01 11 15 20 //// 11 07 00 01
00694 -0038 00692 -0040 00686 -0046 00691 -0041 00696 -0036 00690 -0042+
-0942890 15995560 56670 2014 01 11 15 20 3038 11 07 00 01
00523 -0052 00524 -0051 00525 -0052 00529 -0049 00528 -0051 00532 -0048+
-1072080 16580190 57131 2014 01 11 15 20 //// 11 07 00 01
02788 1951 03167 2330 02493 1656 02929 2091 02787 1949 02762 1923+
-1551560 16718860 57210 2014 01 11 15 20 //// 11 07 00 01
01070 -0132 01071 -0132 01086 -0118 01077 -0128 01075 -0131 01073 -0133+
-1775690 16830030 57320 2014 01 11 15 20 3015 11 07 00 01
01043 -0042 01043 -0044 01044 -0045 01045 -0046 01049 -0043 01053 -0041+
-4397330 16861610 65180 2014 01 11 15 20 2885 11 07 00 01
01346 0443 01345 0439 01328 0420 01350 0438 01379 0464 01374 0455+
-2120470 -15978530 65980 2014 01 11 15 20 3008 11 07 00 01
00824 0044 00840 0059 00796 0015 00827 0046 00794 0012 00837 0055+
-2113810 -17518140 66600 2014 01 11 15 20 //// 11 07 00 01
01524 0094 01526 0096 01529 0098 01526 0094 01533 0100 01536 0103+
-1382670 -17176110 66840 2014 01 11 15 20 3010 11 07 00 01
01126 0060 01125 0059 01135 0070 01123 0059 01124 0061 01125 0063+
-1813250 17842750 67050 2014 01 11 15 20 3030 11 07 00 01
01626 0067 01627 0067 01623 0062 01630 0068 01627 0064 01633 0069+
-1760530 17743810 67070 2014 01 11 15 20 3030 11 07 00 01
01765 0021 01764 0019 01764 0018 01763 0016 01763 0015 ///// ////+
-0850250 17919500 67440 2014 01 11 15 20 3027 11 07 00 01
02391 -0023 02399 -0014 02385 -0027 02390 -0021 02382 -0028 02383 -0026++
7777

0000021000
317
SZSR01 WSSS 111528
CREX++
T000103 A001 D01021 D06025++
0126166 10385160 00044 2014 01 11 14 48 //// 11 07 00 06
02107 -0073 02095 -0075 02076 -0074 02057 -0083 02041 -0079 02023 -0077++
7777
0000013600
318
SIVD17 CWVR 111500
BBXX
46131 11151 99499 71250 46/// /2012 10081 49866 57003
22200 00079 10501 70006 333 91214 =

0000011000
319
UANT99 KDDL 111525
ARP VIR15N 5102N01922W 1525 F340 MS60 193/90 KT
GVGAL DDL XXF 111525 F98A
0000011100
320
UANT99 KDDL 111525
ARP DAH2700 4815N02146W 1525 F330 MS54 193/91 KT
7TVJZ QXT AOE 111525 J19A
0000011000
321
UANT99 KDDL 111526
ARP AZA604 5107N02249W 1526 F380 MS53 203/60 KT
EIEJP QXT AOE 111526 J97A
0000011000
322
UANT99 KDDL 111526
ARP XLF055 4619N01222W 1526 F390 MS63 245/44 KT
FGSEU DDL LCG 111526 J01A
0000011000
323
UANT99 KDDL 111526
ARP AFR650 4900N03008W 1526 F320 MS46 217/26 KT
FGZNG QXT AOE 111526 F28A
0000014100
324
UANT99 KDDL 111526
ARP SWR86 5403N01731W 1526 F370 5401N02000W 1538 5401N03000W MS61
 231/67 KT
HBJHE QXT AOE 111526 J52A
0000210000
325
SIRA25 RUHB 111500
AAXX 11151
21432 42998 22404 11307 21329 30271 40293 58002 82030=
21824 41997 82301 11340 21367 30310 40320 58009 77872 83036=
21921 42999 00000 11474 21489 30310 40363 57007=
21931 41997 80801 11242 21260 30276 40311 57007 77172 8802/=
21946 42499 80203 11271 21288 30243 40330 58003 885// 333 88617=
21978 42998 00000 11303 21327 30235 40243 54000 333 91108=
21982 42998 22101 11221 21254 30110 40139 57024 81031 333 91106=
25042 42998 02901 11313 21342 30226 40246 57007 333 91102=
25044 42999 00000 11352 21380 30251 40258 57005 333 91101=
25051 42998 03101 11343 21378 30242 40250 57010 333 91102=
25062 NIL=
25123 42996 01501 11403 21420 30237 40275 53002=
25129 42999 00000 11438 21461 30259 40272 58005 333 91100=
25138 41999 00000 11417 21443 30130 40273 53001 77670 333 91102=
25147 42999 00000 11392 21417 39868 40278 57004 333 91104=
25151 42998 00000 11380 21397 30243 40250 57012 333 91103=
25173 NIL=
25248 42998 00000 11460 21485 39779 40311 58012 333 91100=
25282 NIL=
25325 NIL=
25335 42998 01401 11438 21456 39855 40284 58003 333 91102=
25356 NIL=
25399 41484 60203 11218 21250 30082 40092 57017 70231 86500 333
91109=
25428 41956 00000 11440 21469 39885 40275 58001 71000 333 91100=
25469 42999 03503 11204 21261 30124 40149 57013 333 91107=
25551 42998 02702 11336 21372 30138 40173 57003 333 91103=
25563 42984 03604 11197 21246 30047 40130 57011 333 91109=
25594 NIL=
25677 NIL=
25767 NIL=
31087 41599 52912 11232 21264 30143 40150 52/// 73632 85500 333 91014
91114=
21535 42998 72704 11245 21270 30291 40312 52006 87010=
21608 42998 01405 11381 21397 30215 40235 57007=
21636 42998 80000 11281 21292 30290 40326 58004 8805/=
21711 41998 21610 11371 21407 30258 40280 58017 73630 80001 333 91014
91114=
21721 41997 21708 11358 21393 30285 40314 57003 73830 82030 333 91010
91111=
21813 42998 00000 11432 21461 30305 40346 57006=
21821 42998 62104 11324 21361 30302 40322 57005 80001=
21937 41598 80000 11348 21377 30198 40334 58005 70272 8552/ 333
85629=
0000140100
326
SICI27 BABJ 111500
AAXX 11151
50434 32/// 93202 11323 21359 40412 52005=
50527 32/// 92503 11344 21378 40444 52013=
50603 33/// 92903 11272 21360 40436 52012=
50632 32/// 92703 11298 21358 40373 52010=
50727 32/67 93401 11336 21366 40422 52015=
50915 42/65 93401 11236 21275 40428 52015=
51716 32/// 91601 11095 21136 40456 52006=
51765 32/// 92701 11122 21178 40468 57003=
51777 32/// 90000 11124 21196 40461 57003=
51811 32/// 90901 11078 21138 40446 52005=
51828 32/// 90401 11068 21123 40433 54000=
52267 42/// 92502 11100 21226 40441 57001=
52323 32/// 92506 11125 21232 38326 57005=
52495 42/// 90201 11143 21242 40462 52005=
53149 42/80 93203 11157 21254 40443 52008=
53192 32/67 93402 11205 21254 40440 52013=
53231 42/80 91604 11169 21253 38600 52006=
53336 32/// 93202 11130 21224 40439 52012=
53391 42/80 92903 11175 21250 40413 52009=
53529 42/71 93203 11111 21232 40430 52007=
53543 42/// 93402 11111 21220 40413 52010=
53723 42/64 92901 11106 21228 40430 52011=
54012 42/70 92702 11225 21275 40421 52021=
54026 32/71 92904 11157 21265 40353 52023=
54027 32/// 93402 11133 21227 40365 52023=
54208 42/// 92904 11155 21240 40385 52014=
54776 41/22 92703 10013 21056 40300 57004 705//=
56004 32/80 92704 11157 21221 35807 52010=
56033 33/// 90707 11162 21240 36002 52004=
56046 42/80 91602 11125 21160 36246 57001=
0000012600
327
SICY20 LCLK 111500 CCA
AAXX 11154
17609 42780 52305 10167 20081 30215 40219 58001 82502
  333 82650 85075=
0000029100
328
SXHW11 KWAL 111527
15DEF7B8 011152753"
1,140111,14:15:02,13.1,107,18.8,19.9,963.9,0.00,12.9,
1,140111,14:30:02,11.8,110,17.4,19.9,964.0,0.00,12.9,
1,140111,14:45:02,11.7,116,15.6,19.9,964.2,0.00,12.9,
1,140111,15:00:02,10.9,115,14.4,19.7,964.2,0.00,12.9, 42-0NN  30W
0000011100
329
UANT01 CWAO 111526
ARP RCH242 4643N04757W 1526 F290 MS52 297/55 KT
77180A DDL XXW 111526 F11A
0000013100
330
UACN10 CYWG 111526
WG
UA /OV CYWG /TM 1524 /FLDURD /TP CRJ9 /SK 011OVC023 /IC LGT RIME 011-024 /RM ON APCH RWY 36
0000108800
331
SIET20 HAAB 111500
AAXX 11151
63330 NIL=
63331 42580
3//// 10224 20052 38054 40233 81101 333 58004 81826 83070 555 10275=
63332 42580
53502 10236 20124 38219 40084 82201 333 59001 82825 83070 555 10255=
63333 42580
70806 10206 20116 38175 40162 86530 333 58007 86626 83358=
63334 41560 62403 10213 20025 37627 40069 70520 85801 333
58006 82827 84628 555 10245=
63340 42580
63602 10220 20134 37949 40172 83530 333 58000 83627 85358=
63402 42580
30000 10275 20136 38374 4//// 83200 333 58004 83830 555 10296=
63403 41560
70000 10212 20148 71722 86970 333 85623 81924 87357 555 10254=
63450 NIL=
63451 NIL=
63453 41560
10906 10296 20112 39053 70500 81100 333 58011 81825 555 10322=
63460 42580
43601 10280 20081 84200 333 84824 555 10302=
63471 42580
13304 10272 20112 38851 40092 81100 333 59015 81827=
63474 42580
41302 10194 20042 84100 333 84823 555 10235=
63478 42580
21302 10346 2//// 39769 40147 81101 333 59019 81828 555 10348=
63500 NIL=
63533 41875
30702 10279 20070 70500 81031 333 81358 82070 555 10307=
0000012000
332
SITS21 DTTA 111500 RRA
AAXX 11154
60780 32965 20000 10221 20033 39901 40199 56022 80002
  333 82070=
0000094200
333
FTXX31 AYPM 111520
TAF AYTK 111520Z 1120/1208 30015KT 9999 -SHRA SCT016 SCT030 BKN120
INTER 1120/1208 3000 +SHRA BKN008
Q 1006 1008 1007 1005=
TAF AYHK 111521Z 1120/1208 29015KT 9999 -SHRA SCT016 SCT040 BKN120
INTER 1120/1208 4000 +SHRA BKN008
Q 1006 1008 1007 1005=
TAF AYMO 111522Z 1120/1208 34010KT 9999 -RADZ SCT016 SCT050 BKN120
INTER 1120/1208 3000 +RADZ BKN008
Q 1006 1008 1007 1005=
TAF AYKV 111523Z 1120/1208 29015KT 9999 -SHRA SCT016 SCT030 BKN120
INTER 1120/1208 3000 +SHRA BKN008
Q 1006 1008 1007 1005=
TAF AYKY 111524Z 1120/1208 29015KT 9999 -SHRA SCT016 SCT030 BKN120
INTER 1120/1208 3000 +SHRA BKN008
Q 1006 1008 1007 1005=
TAF AYBK 111525Z 1120/1208 30015KT 9999 -SHRA SCT016 SCT030 BKN120
INTER 1120/1208 4000 +SHRA BKN008
Q 1006 1008 1007 1005=
TAF AYIQ 111525Z 1120/1208 30015KT 9999 -SHRA SCT016 SCT030 BKN120
INTER 1120/1208 4000 +SHRA BKN008
Q 1006 1008 1007 1005=
0000011000
334
UANT01 CWAO 111526
ARP KLM743 4645N03333W 1526 F320 MS50 319/37 KT
PHBQP QXT AOE 111526 F28A
00000000