0000034500
435
SNVD01 KWBC 111300 RRR
BBXX
42887 11131 99282 70885 46/// /2207 10225 20203 91320 22200 10402
 70010 555 11058 22063=
42392 11131 99272 70900 46/// ///// 1//// 91320 22200 10402 70009=
42375 11131 99285 70883 46/// /2011 1//// 91320 22200 10402 70011
 555 11089 22096=
42369 11131 99272 70903 46/// /2003 1//// 91320=
0000011900
436
SNVD01 KWBC 111400 RRP
BBXX
42022 11141 99275 70837 46/// /1207 10224 40179 91429 555 11076
 22082=
0000008900
437
SAIN90 VOBL 111530
METAR VOBL 111530Z 13006KT 8000 NSC 25/14 Q1019 NOSIG=
0000011900
438
FCIN90 VIDP 111500
TAF VIDP 111500Z 1118/1203 00000KT 0800 MIFG NSC
     BECMG 1200/1201 0300 FG =

0000008900
439
SAIN90 VOML 111530
METAR VOML 111530Z 34006KT 6000 NSC 25/21 Q1013 NOSIG=
0000009200
440
SAIN90 VOCI 111530
METAR VOCI 111530Z 00000KT 4000 HZ NSC 25/22 Q1013 NOSIG=
0000184700
441
SIIN50 VIDP 111500
AAXX 11154
00010 31995 00000 10104 20098 40210 71000
  333 58034=
42027 32596 30503 10008 21006 38493 48579 83500
  333 58051=
42044 NIL=
42045 NIL=
42056 22996 00501 10090 20060 39746
  333 58029=
42071 31995 00000 10126 20107 40213 71011
  333 58028=
42079 32996 00000 10086 20052 39210 48530
  333 58035=
42081 NIL=
42083 NIL=
42099 NIL=
42101 NIL=
42103 31995 00000 10124 20097 40207 70500
  333 58037=
42105 31996 00000 10110 20086 40208 70500
  333 58030=
42111 NIL=
42114 NIL=
42123 31995 10000 10108 20075 40224 71000 80001
  333 58036 81060=
42131 32996 00000 10104 20061 40212
  333 58034=
42147 NIL=
42148 NIL=
42165 31995 20000 10118 20032 40202 70501 80001
  333 58029 82070=
42170 32996 20000 10120 20029 40223 80001
  333 58043 82070=
42181 31994 00000 10118 20090 40214 71000
  333 58039=
42182 31994 00000 10118 20103 40206 71000
  333 58038=
42189 31994 00000 10136 20114 40197 71022
  333 58036=
42260 NIL=
42273 21595 70000 10138 20123 40193 70522 85530
  333 58038 6003/ 85620 87360=
42328 32996 30501 10114 20015 40123 83030
  333 58031 83360=
42339 31995 00501 10114 20015 40213 70500
  333 58045=
42343 32996 20501 10126 20001 40210 80001
  333 58051=
42348 31995 39902 10138 20019 40208 70417 82031
  333 58051 82360=
42369 31991 00503 10120 20116 40199 74242
  333 58044=
42372 NIL=
42377 21594 80000 10152 20145 40195 71022 8552/
  333 58032 6990/ 85625 88460=
42379 21994 00000 10154 20129 40182 71062
  333 58028 6004/=
42435 32996 33601 10134 20000 40226 80001
  333 58034 83070=
42452 32996 03602 10134 20073 40205
  333 58049=
42463 NIL=
42475 21494 80000 10158 20151 4//// 71022 8672/
  333 56290 58/// 6998/ 83710 85625 88458=
42479 NIL=
42542 NIL=
0000015000
442
SIVA30 KWBC 111500 RRB
BBXX
DBBH 11151 99173 30117 41998 11909 10188 20171 40125 57019 70200
 80008 22281 04175 20301 320// 41003=
0000016100
443
SNVF01 KWBC 111400 RRG
BBXX
MINFR00 1114/ 99387 70303 46/// ///// 10110 40120 52019=
MINUK03 1114/ 99525 10046 46/// ///// 10078 40148 52023=
0000102400
444
SIVB30 KWBC 111500 RRC
BBXX
SHIP 11154 99333 11361 41598 10314 10090 21001 40249 57032 70111
 81400 22214 00190 80050 NNNN=
SHIP 11154 99113 11422 41/97 60716 10266 20247 40112 53000 70311
 8//// 9//// 22221 06286 6//// 80252=
H9XE 11154 99365 11412 41797 60217 10030 21022 40278 52018 70222
 85625 22243 00120 20202 31008 40102 50202 80010=
SHIP 11154 99135 11500 41697 60209 10270 20243 40146 55010 70211
 86/// 22283 00310 20104 302// 40104 80250=
SHIP 11154 99173 11176 41/98 /0527 10245 20194 40166 50003 70100
 8//// 22253 00250 80210=
JGQH 11154 99300 11370 41/98 53117 10132 20038 40265 57011 70211
 85200 22242 00194 1//// 20301 399// 4//02=
JPBN 11154 99252 11289 41/97 40511 10182 20079 40255 58007 70122
 84200 22271 00236 10602 20302 399// 4//02 70012=
SHIP 11153 99203 11326 41297 70435 10260 20202 40220 54000 76066
 85/// 22204 00260 20007 304// 41406 5//// 6//// 80220 ICE /////=
BATFR10 11154 99251 11239 46/// /1622 10209 20117 40237 58006
 22213 04240=
0000336800
445
SIVD30 KWBC 111500 RRI
BBXX
46185 11151 99524 71298 46/// /2003 10054 49820 52010 22200 00074
 1//// 70/// 333 91204=
46204 11151 99514 71288 46/// /1408 10074 49814 57014 22200 0////
 11005 70023 333 91210=
46131 11151 99499 71250 46/// /2012 10081 49866 57003 22200 00079
 10501 70006 333 91214=
46145 11151 99544 71324 46/// /3306 10029 49830 52029 22200 0////
 1//// 70/// 333 912//=
46147 11151 99518 71312 46/// /1005 10065 49806 52007 22200 00074
 10906 70032 333 91206=
46215 11151 99352 71209 46/// ///// 1//// 91505 22200 00131 11404
 21002 327// 41404 70022=
46211 11151 99469 71242 46/// ///// 1//// 91513 22200 00085 11109
 21007 323// 41105 70044=
46219 11151 99332 71199 46/// ///// 1//// 91510 22200 00142 11505
 21003 330// 41504 70024=
44099 11151 99369 70757 46/// ///// 1//// 91518 22200 00068 10903
 20903 311// 41101 70016=
44096 11151 99370 70758 46/// ///// 1//// 91517 22200 00070 10803
 20602 313// 40802 70013=
41029 11151 99328 70796 46/// /2106 1//// 40157 91500 333 91208
 555 11063 22067=
51206 11151 99198 71550 46/// ///// 1//// 91503 22200 00248 10905
 20904 304// 41202 70025=
46114 11151 99367 71223 46/// ///// 1//// 91508 22200 00126 11507
 21003 331// 41506 70034=
WJBJ 11153 99194 70686 41398 31020 10256 20224 40199 51013 70181
 82284 22273 00267 20703 30709 40402 5//// 6//// 80233 ICE /////=
41113 11151 99284 70805 46/// ///// 1//// 91510 22200 00179 10802
 20802 70010=
44095 11151 99358 70753 46/// ///// 1//// 91517 22200 00122 10806
 20805 313// 41101 70028=
41115 11151 99184 70673 46/// ///// 1//// 91511 22200 10802 20802
 301// 41101 70011=
44100 11151 99363 70756 46/// ///// 1//// 91504 22200 00091 10804
 20804 311// 41101 70020=
46223 11151 99335 71178 46/// ///// 1//// 91448 22200 00156 11302
 20901 327// 41301 70008=
46216 11151 99343 71198 46/// ///// 1//// 91442 22200 00151 11302
 21002 327// 41302 70012=
46222 11151 99336 71183 46/// ///// 1//// 91433 22200 00156 11302
 20901 328// 41302 70011=
46225 11151 99329 71174 46/// ///// 1//// 91442 22200 00154 11302
 20801 328// 41302 70011=
46232 11151 99325 71174 46/// ///// 1//// 91503 22200 00161 11303
 20802 328// 41302 70014=
46217 11151 99342 71194 46/// ///// 1//// 91509 22200 00152 11202
 21001 327// 41201 70008=
46243 11151 99462 71241 46/// ///// 1//// 91516 22200 00088 11009
 21007 324// 41105 70043=
46251 11151 99338 71196 46/// ///// 1//// 91509 22200 00153 11403
 21002 327// 41402 70015=
44058 11151 99376 70763 46/// /1807 10088 40101 91510 333 91208
 555 11080 22087=
WBN3744 11154 99606 71475 41497 83215 11006 2//// 4//// 5////
 702// 8//// 222// 0//// 2//00 3//// 4//// 5//// 6//// 8//// ICE
 /////=
WCZ7337 11154 99603 71466 41497 80000 10011 2//// 49881 5////
 702// 8//// 222// 0//// 2//00 3//// 4//// 5//// 6//// 8//// ICE
 /////=
46126 11151 99540 71666 46/// /2405 10035 49802 50005 91500 22200
 00048 1//00 70002 333 91207 555 11055 22060=
44062 11151 99386 70764 46/// /1807 10057 40090 91510 333 91208
 555 11076 22083=
44064 11151 99370 70760 46/// /2009 10161 40107 91510 333 91211
 555 11105 22114=
44063 11151 99390 70764 46/// /2007 10062 40068 91510 333 91207
 555 11075 22082=
44042 11151 99380 70763 46/// /2104 10091 40086 91510 333 91204
 555 11044 22048=
0000009700
446
SAPK31 OPKC 111530 RRA
METAR OPKC 111525Z 03006KT 7000 FEW200 16/M04 Q1022 NOSIG=
0000011000
447
UANT99 KDDL 111528
ARP EIN137 5302N01601W 1528 F380 MS61 235/57 KT
EIDUO DDL BYT 111528 J11A
0000011000
448
UANT99 KDDL 111529
ARP DLH402 5400N01939W 1529 F370 MS63 218/80 KT
DABVY QXT EUA 111529 F69A
0000011000
449
UANT99 KDDL 111529
ARP AFR356 5402N01609W 1529 F350 MS63 228/81 KT
FGSPJ DDL BLY 111529 F10A
0000228300
450
SIZA01 FAPR 111500
AAXX 11154
68174 41665 30409 10244 20170 38796 48525 57020 70522 81581
      333 10244 20221 91011=
68183 42670 71603 10264 20201 39444 48551 57013 85570
      333 10269 20258 91004=
68191 46/// /1708 10276 20205 39648 40131 57005
      333 10294 20274 91014=
68242 42680 12412 10348 20038 38720 48512 57006 81100
      333 10367 20347 91020=
68263 42680 42510 10264 20086 38494 48519 57012 82202
      333 10286 20264 91018=
68267 41565 70914 10185 20106 38266 48536 5//// 71722 8697/
      333 1//// 2////=
68289 46/// ///// 10234 20177 39170 48548 57003
      333 10247 20231=
68345 46/// /2412 10320 20015 38660 48510 58010
      333 10331 20317 91018=
68350 46/// /2906 10339 2//// 38654 48512 57013
      333 10349 20315 91013=
68368 NIL=
68424 42782 12214 10348 20004 39184 48540 57013 81400
      333 10367 20339 91020=
68438 42882 12909 10328 20011 38799 48507 58010 81070
      333 10340 20319 91018=
68442 42780 22905 10324 21002 38643 48503 58007 82100
      333 10328 20302 91010=
68461 42680 42506 10285 20056 38317 48497 57011 84100
      333 10290 20263 91009=
68512 42982 02410 10289 20053 39022 48537 58002
      333 10302 20289 91018=
68538 41774 12811 10316 20012 38716 48510 58010 70500 81101
      333 10318 20294 91018=
68587 46/// /3002 10225 20202 30151 40163 58002
      333 10254 20220 91004=
68588 NIL=
68592 42370 71709 10237 20210 30040 40163 58003 875//
      333 10264 20237 91012=
68618 46/// /2412 10298 21012 39045 48533 58006
      333 10306 20294 91018=
68668 46/// /0912 10229 20156 39315 48550 57007
      333 10244 20228 91017=
68714 46/// /2219 10223 20112 30116 40152 57003
      333 10256 20223 91026=
68727 46/// /1303 10305 20080 39108 48519 58014
      333 10309 20272 91008=
68752 46/// /1112 10209 20116 39489 48552 57008
      333 10231 20209 91018=
68814 NIL=
68816 42980 01818 10215 20120 30112 40166 57008
      333 91024=
68828 42470 61306 10183 20133 39934 40166 57012 86500
      333 10196=
68842 NIL=
68858 NIL=
68916 46/// /0103 10198 20126 39909 40175 58003
      333 10210 20196 91008=
68920 NIL=
68928 46/// /1206 10210 20140 39999 40158 58008
      333 10219 20207 91010=
0000039800
451
SWIO40 RJTD 111530
:PRS 1 #1 1848 1840 1842 1836 1822 1838 1831 1830 1831 1824 1818 1815
1823 1813 1816 1817 1821 1815 1812 1795 1806 1799 1805 1802 1800 1795
1793 1801 1801 1792 :RAD 1 #3 6218 6210 6207 6200 6197 6192 6183 6181
6186 6187 :ENC 5 #5 5203 5195 5190 5179 5176 5179 5185 5189 5193 5176
5164 5161 :SW1 30 #60 53 :SW2 60 #60 53 :BAT 14 #15 12.7 :NAME 
0650018E=
0000016200
452
SIVE30 KWBC 111500 RRC
BBXX
SHIP 11154 99336 31139 41997 11318 10222 20195 40123 53010 70200
 81005 22253 00217 10707 20201 31416 40604 50303=
0000374500
453
SIVF30 KWBC 111500 RRC
BBXX
SBHI 11151 99584 10192 41/96 81808 10009 21014 40009 55002 71077
 8/6// 22200 00069 2//// 80001=
OXVE2 11154 99373 70094 41997 00105 10160 20124 40173 56010 70522
 80000 22283 00170 20401 80140=
62170 11154 99514 10020 46/98 /2716 10081 20035 40205 52019 22200
 00106 10501 70005=
62095 11154 99529 70156 46/// /1725 10098 20051 40077 57044 22200
 00100 10807 70037 333 90710 91133=
62050 11154 99500 70044 46/// /1308 10095 20036 40215 22200 10802
 70012=
62303 11154 99516 70051 46/// /0902 10083 20017 40211 22200 10703
 70015=
64046 11154 99605 70042 46/// /2927 10074 20009 40045 333 90710
 91139=
62304 11154 99512 10018 46/98 /2915 10084 20025 40207 51020 22200
 00102 10501 70004=
62103 11154 99499 70029 46/99 /0505 10091 20023 40225 53004 22200
 00112 11003 70014=
62081 11154 99521 70105 46/// /1415 20044 40169 57014 22200 10805
 70026 333 90710 91128=
62304 11154 99512 10018 46/98 /3015 10083 40209 51020 22200 10501
 70004=
AMOUK26 1115/ 99501 70012 46/// ///// 10102 20038 40218=
AMOUK09 1115/ 99517 10017 46/// ///// 10081 20067 40202=
62305 11154 99504 70000 46/// /3009 10084 20026 40219 53010 22200
 00111 10601 70005=
AMOUK33 1115/ 99555 10084 46/// ///// 10064 20024 40062=
AMOUK43 1115/ 99547 70052 46/// ///// 10050 20019 40188=
AMOUK34 1115/ 99519 10031 46/// ///// 10087 20034 40185=
AMOUK45 11154 99509 70014 46/// /3105 10087 21005 40208 22200
 402080106=
AMOUK31 1115/ 99558 70061 46/// ///// 10038 20015 40171=
AMOUK42 1115/ 99506 70025 46/// ///// 10106 20009 40220=
AMOUK04 1115/ 99535 70034 46/// ///// 10080 20029 40200=
AMOUK23 1115/ 99578 70027 46/// ///// 10052 20001 40120=
AMOUK36 1115/ 99581 70019 46/// ///// 10056 20008 40103=
AMOUK30 1115/ 99565 70059 46/// ///// 10070 20022 40157=
AMOUK02 1115/ 99535 70053 46/// ///// 10073 20012 40207=
AMOUK28 1115/ 99576 70068 46/// ///// 1//// 2//// 40131=
AMOUK03 1115/ 99537 70003 46/// ///// 10083 20008 40181=
AMOUK13 1115/ 99515 10017 46/// ///// 10083 20027 40199=
AMOUK24 1115/ 99571 70069 46/// ///// 10077 20021 40147=
AMOUK14 1115/ 99533 70062 46/// ///// 10086 21010 40199=
AMOUK44 1115/ 99541 70035 46/// ///// 1//// 2//// 40197=
AMOUK29 1115/ 99509 70077 46/// ///// 1//// 2//// 40196=
AMOUK32 1115/ 99559 70047 46/// ///// 10062 20026 40163=
AMOUK05 1115/ 99519 10041 46/// ///// 10078 20030 40180=
AMOUK06 1115/ 99508 10009 46/// ///// 10108 20038 40214=
AMOUK11 1115/ 99533 70051 46/// ///// 10075 20000=
62027 11154 99491 70022 46/// /0709 1//// 2//// 40213 57004 22200
 0//// 11403 326// 70014=
62119 11154 99570 10019 47397 /3024 10049 20006 40097 52017 700//
 22200 10606 70029=
62164 11154 99572 10008 47498 /2823 10062 20018 40095 52016 700//
 22200 10607 70033=
62133 11154 99571 10009 46/// /2926 40094 53016 22200 10606 70028=
62152 11154 99570 10018 47598 /2920 10052 20005 40099 52018 700//
 22200 10607 70033=
62146 11154 99572 10021 47498 /2709 10060 20009 40088 53013 700//
 22200 10607 70033=
62153 11154 99573 10020 47496 /3321 40081 52018 761// 22200 10606
 70032=
62122 11154 99573 10016 47598 /3128 10061 20014 40078 53009 700//
 22200 10606 70030=
62140 11154 99573 10013 46/// ///27 10061 20009 40083 52011 22200=
62104 11154 99574 10013 47497 /3226 10061 20005 40083 53016 700//
 22200=
62116 11154 99576 10011 47498 /3022 10050 20011 40080 53015 700//
 22200 10606 70032=
62118 11154 99577 10009 47998 /2923 10054 20010 40081 52018 700//
 22200 10606 70030=
62155 11154 99577 10007 47598 /2924 10057 20026 40090 52016 762//
 22200 10606 70031=
62117 11154 99579 10000 47597 /2829 10059 20011 40078 53022 700//
 22200 10606 70028=
0000374100
454
SIVF30 KWBC 111500 RRD
BBXX
62143 11154 99577 10018 47498 /3114 10050 20028 40090 53012 700//
 22200 10606 70032=
62154 11154 99564 10022 46/// /3024 10059 21001 40094 53015 22200=
62132 11154 99564 10020 46/// /3228 10061 21006 40119 52025 22200=
62120 11154 99564 10021 47598 /3028 10058 20000 40098 53018 700//
 22200=
62165 11154 99540 10011 47998 /2819 10064 20012 40173 53022 700//
 22200 10504 70018=
62123 11154 99563 10022 47598 /3028 10063 20003 40099 53017 700//
 22200 1//06 70029=
62145 11154 99531 10028 47498 /2821 10064 20019 40182 52025 700//
 22200 10504 70020=
62142 11154 99530 10021 47998 /2822 10066 20034 40174 53020 700//
 22200 10403 70016=
62144 11154 99534 10017 47998 /2720 10061 20019 40184 52021 700//
 22200 10503 70017=
62121 11154 99535 10027 46/// ///// 10065 20022 40163 52024 22200=
62150 11154 99536 10007 47999 /2720 10058 20014 40191 53023 700//
 22200 10503 70016=
62148 11154 99536 10015 46/// ///// 22200=
62131 11154 99539 10012 46/// /2915 10065 20013 40169 52022 22200=
62149 11154 99537 10011 47999 /2720 10072 20018 40177 53022 700//
 22200 10503 70016=
63114 11154 99613 10017 47497 /1408 10022 21011 49995 58003 762//
 22200=
62127 11154 99540 10007 47999 ///// 10066 20002 40171 53021 700//
 22200 10503 70017=
63117 11154 99613 10011 47498 /1410 49992 58008 771// 22200=
63104 11154 99612 10016 47497 /1409 10027 21010 49995 58004 751//
 22200 10806 70028=
63103 11154 99612 10011 46/// /2205 10044 20028 49981 58008 22200
 10706 70028=
63113 11154 99610 10017 46/// /1706 10042 20013 49996 58001 22200
 10705 70027=
63112 11154 99611 10010 47498 /3023 10053 20022 49986 58010 700//
 22200 10806 70028=
63107 11154 99611 10017 46/// /1708 10037 49996 58002 22200=
63101 11154 99612 10009 46/// /2718 10051 20029 49985 58012 22200
 10806 70032=
63055 11154 99606 10016 47598 /2821 10060 20027 40005 51007 762//
 22200 10705 70025=
63106 11154 99610 10017 46/// /1706 10042 58002 22200=
63108 11154 99608 10017 47/97 /2908 10043 20017 40000 51004 700//
 22200 10705 70026=
63105 11154 99610 10017 47598 /1608 10039 20003 49996 58002 700//
 22200=
PJAI 11154 99581 70014 47598 /2821 10064 20003 40094 52020 700//
 22200=
62112 11154 99584 70002 47598 /2814 10066 20024 40077 52019 700//
 22200=
62111 11154 99580 70003 46/// /2930 10060 20011 40106 52019 22200
 10606 70031=
63115 11154 99616 10013 47497 /1207 10028 21008 49994 57004 762//
 22200 10806 70028=
62134 11154 99580 10014 47596 /3025 10056 20014 40072 53017 700//
 22200 10707 70033=
62102 11154 99579 10018 46/// /3027 10060 20010 40064 53016 22200
 10707 70033=
62114 11154 99583 10000 46/// /2825 10057 20027 40071 52020 22200=
ZQSD5 11154 99583 10008 47498 ///// 10047 20015 40066 52021 700//
 22200 1//08 70038=
62113 11154 99584 10002 47998 /3023 10057 20005 40070 51013 700//
 22200=
62128 11154 99587 10014 47598 /2726 10055 20010 40052 52011 700//
 22200 10707 70036=
62129 11154 99584 10003 46/// /2916 10052 20006 40070 52018 22200=
MQSY9 11154 99593 10015 47598 /2928 10064 20003 52011 700// 22200=
63110 11154 99595 10015 47598 /2923 10062 20014 40032 52009 700//
 22200 10707 70033=
63057 11154 99592 10015 47598 /2925 10061 20002 40033 52012 700//
 22200 10707 70033=
63109 11154 99596 10015 46/// /3029 10060 20009 40019 52008 22200=
MWYG6 11154 99603 70040 47698 /2929 40053 52016 700// 22200=
63056 11154 99597 10016 47598 /2929 10060 20011 40019 52012 700//
 22200 10707 70033=
64041 11154 99607 70026 47797 /2834 40022 50007 700// 22200 11009
 70044=
62001 11154 99452 70050 46/// /1013 10119 20076 40199 57014 22200
 00128 10905 70023=
00000000