0000004500
255
UAIO01 FMMI 111500
AIREP NIL=
0000082500
256
SISG20 GOOY 111500
AAXX 11154
61600 42960 73610 10249 20181 30134 40139 80002
  333 58007 87073=
61612 42960 03602 10285 20086 30126 40134
  333 59001=
61627 42960 50804 10291 20106 3//// 4//// 80002
  333 85073=
61630 42960 33602 10337 20139 30114 40133 80002
  333 58015 83363=
61641 42960 20615 10200 20190 30110 40143 80002
        333 58014 82073=
61666 42962 00404 10298 20086 30120 40129
  333 58006=
61679 42962 03606 10320 20141 30115 40123
  333 58002=
61687 42960 00404 10335 20125 30054 40111
  333 58013=
61695 42962 00602 10292 20138 30106 40132
  333 58019=
61697 42960 03208 10280 20165 30101 40135
  333 58022=
61698 42960 50804 10327 20124 30101 40112 80002
  333 58006 85073=
61699 42960 50606 10340 20095 39938 40125 80002
  333 58028 85073=
0000012600
257
SITH43 VTBB 111500 RRE
AAXX 11154
48481 31958 21805 10252 20191 30115 40143 52012 71000 80001
  333 59006=
0000011100
258
UANT99 KDDL 111523
ARP UAL919 5258N03051W 1523 F360 MS55 179/40 KT
N778UA DDL XXN 111523 F33A
0000011100
259
UANT99 KDDL 111523
ARP AWE717 5201N03004W 1522 F370 MS50 193/38 KT
N274AY DDL XXN 111523 J90A
0000011000
260
UANT99 KDDL 111523
ARP DLH410 5101N02938W 1523 F370 MS49 200/38 KT
DAIKQ QXT EUA 111523 J57A
0000010900
261
UANT99 KDDL 111524
ARP OKKKF 5401N01609W 1524 F400 MS54 235/42 KT
OKKKF DDL BLY 111524 A06A
0000011000
262
UANT99 KDDL 111524
ARP FDX38 5504N03247W 1524 F350 MS58 187/48 KT
N887FD QXT AME 111524 F35A
0000018400
263
SINZ20 NZKL 111500 RRA
AAXX 11154
93800 46/// /0522 10126 20117 40050 57042=
93805 46/// /3441 10139 20130 49985 57018=
93947 46/// /2711 10067 20048 49897 57023=
0000137300
264
SITR20 UTAA 111500
AAXX 11151
38388 32998 00000 10026 21030 30118 40189 57004 333 10088=
38392 32996 20903 10001 21029 30107 40213 55000 82030 333 10081=
38507 32996 61205 10066 20011 30053 40156 57008 80001 333 1////=
38511 32998 20000 10017 21024 30026 40170 54000 80001 333 10115=
38545 32998 01101 10002 21061 30031 40210 57015 333 10085=
38647 32997 80706 10067 21023 30107 40151 57010 80007 333 10092=
38656 32998 70702 10063 21061 30076 40186 57007 85082 333 10116=
38687 32996 30000 10028 21017 39978 40219 54000 80001 333 10118=
38750 32597 82902 10083 20070 30174 40146 58020 885// 333 10101=
38763 32997 70000 10056 20010 30061 40167 57005 84031 333 10094=
38774 32895 60000 10068 21018 39987 40183 53009 86030 333 10130=
38799 32597 70000 10070 21036 39968 40201 57009 84533 333 10131=
38806 32697 61602 10074 21074 39959 40221 57002 86500 333 10122=
38880 32997 42901 10085 21067 39918 40173 57009 83031 333 10132=
38886 32997 20802 10070 21057 39949 40178 57007 82060 333 10167=
38895 32996 70903 10090 21041 39908 40197 57010 87070 333 10150=
38911 32997 71606 10062 21046 39924 40221 57007 85072 333 10132=
38915 32997 40907 10061 21064 39896 40223 58012 80001 333 10122=
38974 32998 32003 10110 21050 39836 40167 57034 80002 333 10153=
38987 32996 62401 10052 21034 39470 40220 57004 86070 333 10124=
0000016200
265
SIDL22 EDZW 111500 CCA
AAXX 11151
10505 21365 72708 10058 20044 39897 40181 53019 76162 872//
  333 55300 20078 30076 60017 87807 91114 91211=
0000011000
266
UANT01 CWAO 111524
ARP KLM765 4615N03621W 1523 F360 MS53 318/45 KT
PHAKA QXT AME 111524 J46A
0000011100
267
UANT01 CWAO 111524
ARP AWE717 5200N03017W 1523 F370 MS51 198/39 KT
N274AY DDL XXN 111524 J91A
0000011000
268
UANT01 CWAO 111524
ARP UAL16 5306N02621W 1523 F360 MS55 199/60 KT
N48127 DDL IG1 111524 F39A
0000011100
269
UANT01 CWAO 111524
ARP BER7444 4509N03924W 1524 F380 MS54 302/46 KT
DALPC QXT AOE 111524 J53A
0000039500
270
SAIN31 VABB 111510
METAR VAAH 111510Z 02003KT 3000 HZ NSC 16/09 Q1018 NOSIG=
METAR VANP 111510Z 03006KT 4000 HZ NSC 20/14 Q1016 NOSIG=
METAR VOHS 111510Z 11005KT 5000 HZ SCT020 21/14 Q1018 NOSIG=
METAR VOMM 111510Z 08006KT 6000 NSC 24/19 Q1015 NOSIG=
METAR VOTR 111510Z 09008KT 5000 HZ NSC 25/20 Q1014 NOSIG=
METAR VOTV 111510Z 00000KT 4000 HZ FEW015 27/23 Q1012 NOSIG=
0000010100
271
SPIN90 VILK 111511
SPECI VILK 111511Z 04003KT 0600 R27/1600 FG NSC 12/12 Q1019 NOSIG=
0000010100
272
SPIN90 VILK 111530
SPECI VILK 111530Z 05003KT 0800 R27/2000 FG NSC 12/12 Q1019 NOSIG=
0000014000
273
SIIN90 VEPT 111500
AAXX 11154
42701 21391 80503 10128 20106 39433 40186 79596 8492/
  333 58013 6006/ 84615 81930 88458=
0000011000
274
UANT01 CWAO 111524
ARP TSO999 6009N03934W 1524 F360 MS59 211/34 KT
EIXLM QXT AOW 111524 F07A
00000000