0000083600
315
SAGU31 MGGT 111500
METAR
METAR MGMM 111500Z 00000KT 9999 BKN016 21/20 Q1018 A3006 =
METAR MGHT 111500Z 00000KT CAVOK 12/08 QFE 818.7 =
METAR MGPB 111500Z 00000KT 9999 FEW018 25/22 Q1017 A3003 =
METAR MGGT 111500Z 00000KT CAVOK 18/12 Q1027 A3033  VOL. PACAYA CON
VA A 9000FT CON DIRECCION S-SSW A UNA DISTANCIA DE 6-10KM=
METAR MGSJ 111500Z 00000KT CAVOK 28/20 Q1016 A3000 =
METAR MGRT 111500Z 00000KT CAVOK 27/18 Q1017 A3003  VOL. ST A. MARIA
Y SANTIAGUITO EN ACTIVIDAD=
METAR MGQZ 111500Z 00000KT 0000 FG VV/// 06/06 QFE 769.2 APCH CLSD=
METAR MGCB 111500Z 18004KT CAVOK 18/14 QFE 872.7=
METAR MGZA 111500Z 00000KT CAVOK 25/18 QFE 992.3=
METAR MGES 111500Z 03004KT 9999 FEW016 21/16 QFE 913.1=
METAR MGMT 111500Z 00000KT CAVOK 29/22 QFE 1010.1=
METAR MGTU 111500Z 36006KT CAVOK 25/22 FEW080=
0000069600
316
SINL20 EHDB 111500
AAXX 11151
06206 46/// /2913 10072 20026 30088 40141 53023
333 91015 91116 91213=
06207 45572 52913 10072 20017 30082 40136 53029 8////
333 83/24 84/29 85/34 91016 91117 91214=
06239 47574 12814 10067 20026 30045 40107 53016 70185 8////
333 81/22 91016 91117 91214=
06252 46/// /2712 10071 20027 30116 40162 53023 222// 00096 10605
333 91015 91115 91212=
06260 47569 22904 10077 20030 30164 40166 51030 70385 8////
333 81/23 91008 91110 91205=
06270 47571 13007 10065 20026 30138 40138 53025 70180 8////
333 81/27 91010 91114 91208=
06290 47583 73004 10043 20028 30107 40148 53023 72386 8////
333 81/27 83/34 86/50 91006 91114 91209=
0000155400
317
SINL21 EHDB 111500
AAXX 11151
06201 45571 22911 10067 20013 30089 40142 53022 8////
333 81/24 91014 91115 91213=
06203 45979 0//11 10082 20011 30119 40170 52021
333 91014 91114 91211=
06204 45574 52911 10072 20020 30107 40158 53026 8////
333 83/20 84/24 85/72 91015 91116 91212=
06205 47572 43113 10066 20012 30042 40102 53013 70185 8////
333 82/23 84/26 91016 91116 91214=
06208 47570 22913 10073 20026 30072 40121 53021 70180 8////
333 82/22 91016 91116 91213=
06211 45581 32814 10068 20009 30094 40150 53024 8////
333 82/25 83/29 91016 91116 91214=
06212 45577 52912 10074 20024 3//// 4//// 5//// 8////
333 83/22 84/26 85/33 91014 91115 91213=
06235 45971 03007 10070 20020 30155 40155 51030
333 91011 91114 91209=
06240 45575 72907 10073 20028 30171 40166 51030 8////
333 82/30 85/34 87/81 91010 91113 91210=
06251 43/76 /2911 10066 20019 30139 40140 53029
333 91014 91115 91211=
06258 46/// /2910
333 91013 91116 91212=
06269 47573 62906 10071 20036 30162 40156 51033 70365 8////
333 86/27 86/32 91009 91116 91211=
06280 47565 32906 10067 20037 30127 40131 53019 72386 8////
333 83/22 83/27 91008 91111 91207=
06310 45975 32905 10079 20027 30181 40191 53027 8////
333 83/80 91008 91111 91207=
06344 45569 12906 10073 20027 30183 40176 53029 8////
333 81/28 91009 91114 91209=
06370 47575 12804 10072 20033 30152 40178 53025 70186 8////
333 81/25 91006 91111 91207=
06380 47465 82604 10067 20047 30045 40187 53022 72286 8////
333 81/13 84/17 85/19 91007 91110 91206=
0000011100
318
UANT01 CWAO 111508
ARP DAL467 6116N05416W 1507 F330 MS58 272/25 KT
N197DN QXT AOE 111508 F63A
0000011100
319
UANT01 CWAO 111508
ARP RCH242 4733N04521W 1507 F290 MS52 296/55 KT
77180A DDL XXW 111508 F02A
0000120200
320
SSVX08 KARS 111507
ZZYY 23017 10014 1200/ 304016 067235 6111/
33311 88872 20001 32812 20020 32802 20060 32499 43539 20080 32151
20100 31965 20120 31834 20140 31738 20180 31536 20300 31146
20500 30947
444 20110 10014 1148/ 521//=
ZZYY 14042 10014 1200/ 312115 054867 6112/
33311 88872 20001 32895 43493 20020 32890 43496 20040 32831 43501
20060 32667 43500 20080 32517 20100 32301 20120 32122 20140 31954
20180 31707 20500 30944
444 20120 10014 1144/ 521//=
ZZYY 14042 11014 14004 312117 054868 6111/
11119 00713 10290 29079 40103
22219 00290
444 20110 11014 1459/ 521// 60401=
ZZYY 23016 10014 1200/ 301618 066811 6112/
33311 88872 20001 32838 20020 32830 43526 20040 32793
20060 32580 43546 20080 32315 20100 32120 20120 31834 20140 31576
20180 31359 20300 31179 20500 30954
444 20120 10014 1148/ 521//=
ZZYY 14040 10014 1200/ 308084 066939 6112/
33311 88872 20001 32964 43475 20020 32889 43501 20040 32489 43508
20060 32002 43511 20080 31796 20100 31609 20120 31503 20140 31414
20180 31285 20300 31081 20500 30904
444 20120 10014 1146/ 521//=
ZZYY 14041 11014 1400/ 307895 055085 6112/
11119 10279 29079
444 20120 11014 1457/ 521//=
0000012700
321
SIAB30 ZATI 111500 RRA
AAXX 11154
13601 42670 70000 10144 20092 30105 40205 57007 84510 333 83640
     85460=
0000011400
322
SIIY21 LIIB 111500 RRA
AAXX 11154
16263 42780 62308 10096 20010 38956 48523 56004 84038 333 84356=
0000014400
323
SMMG20 FMMD 111200 RRA
AAXX 11124
67067 11575 63002 10276 20206 39258 48519 56017 60021 72162 86800
  333 04373 83823 84630=
0000084000
324
SINL50 EHDB 111500
AAXX 11151
06206 46/// /2913 10072 20026 30088 40141 53023
333 91015 91116 91213
555 51116 51213=
06207 45572 52913 10072 20017 30082 40136 53029 8////
333 83/24 84/29 85/34 91016 91117 91214
555 51117 51214=
06239 47574 12814 10067 20026 30045 40107 53016 70185 8////
333 81/22 91016 91117 91214
555 51117 51214=
06252 46/// /2712 10071 20027 30116 40162 53023 222// 00096 10605
333 91015 91115 91212
555 51115 51212=
06260 47569 22904 10077 20030 30164 40166 51030 70385 8////
333 81/23 91008 91110 91205
555 51108 51204 53031=
06270 47571 13007 10065 20026 30138 40138 53025 70180 8////
333 81/27 91010 91114 91208
555 51111 51207 53029=
06290 47583 73004 10043 20028 30107 40148 53023 72386 8////
333 81/27 83/34 86/50 91006 91114 91209
555 51114 51209 53012=
0000191400
325
SINL51 EHDB 111500
AAXX 11151
06201 45571 22911 10067 20013 30089 40142 53022 8////
333 81/24 91014 91115 91213
555 51115 51213=
06203 45979 0//11 10082 20011 30119 40170 52021
333 91014 91114 91211
555 51114 51211=
06204 45574 52911 10072 20020 30107 40158 53026 8////
333 83/20 84/24 85/72 91015 91116 91212
555 51116 51212=
06205 47572 43113 10066 20012 30042 40102 53013 70185 8////
333 82/23 84/26 91016 91116 91214
555 51116 51214=
06208 47570 22913 10073 20026 30072 40121 53021 70180 8////
333 82/22 91016 91116 91213
555 51116 51213=
06211 45581 32814 10068 20009 30094 40150 53024 8////
333 82/25 83/29 91016 91116 91214
555 51116 51214=
06212 45577 52912 10074 20024 3//// 4//// 5//// 8////
333 83/22 84/26 85/33 91014 91115 91213
555 51115 51212=
06235 45971 03007 10070 20020 30155 40155 51030
333 91011 91114 91209
555 51112 51208 53029=
06240 45575 72907 10073 20028 30171 40166 51030 8////
333 82/30 85/34 87/81 91010 91113 91210
555 51111 51208 53036=
06251 43/76 /2911 10066 20019 30139 40140 53029
333 91014 91115 91211
555 51115 51211 53028=
06258 46/// /2910
333 91013 91116 91212
555 51114 51211=
06269 47573 62906 10071 20036 30162 40156 51033 70365 8////
333 86/27 86/32 91009 91116 91211
555 51109 51206 53029=
06280 47565 32906 10067 20037 30127 40131 53019 72386 8////
333 83/22 83/27 91008 91111 91207
555 51110 51206 53018=
06310 45975 32905 10079 20027 30181 40191 53027 8////
333 83/80 91008 91111 91207
555 51109 51206 53046=
06344 45569 12906 10073 20027 30183 40176 53029 8////
333 81/28 91009 91114 91209
555 51112 51207 53031=
06370 47575 12804 10072 20033 30152 40178 53025 70186 8////
333 81/25 91006 91111 91207
555 51111 51207 53039=
06380 47465 82604 10067 20047 30045 40187 53022 72286 8////
333 81/13 84/17 85/19 91007 91110 91206
555 51109 51205 53017=
0000093600
326
SINL52 EHDB 111500
AAXX 11151
06210 45578 23007 10074 20026 30173 40173 52030 8////
333 82/28 91010 91113 91209
555 51111 51207 53035=
06225 46/// /2910
333 91013 91114 91212
555 51113 51211=
06242 45564 33013 10070 20021 30145 40147 53029 8////
333 82/26 83/30 91016 91116 91213
555 51116 51213=
06257 46/// ///// 10073 20026
555 53031=
06275 47581 22702 10053 20034 30105 40161 53025 72286 8////
333 81/25 91004 91113 91208
555 51106 51204 53034=
06330 46/// /2910 10076 20030 30165 40180 53028
333 91013 91113 91210
555 51113 51210 53040=
06340 47971 82804 10072 20038 30168 40187 51030 70380 8////
333 84/70 88/81 91006 91110 91207
555 51109 51205=
06350 47573 42807 10074 20037 30163 40178 53027 70386 8////
333 82/21 83/28 91010 91113 91208
555 51110 51207 53042=
06375 47976 02904 10067 20031 30146 40171 53023 70186
333 91006 91110 91206
555 51110 51206 53037=
0000130500
327
SINL53 EHDB 111500
AAXX 11151
06248 46/// /3005
333 91009 91117 91211
555 51111 51207=
06249 47/78 /3007 10066 20029 70080
333 91010 91118 91213
555 51112 51209 53033=
06267 47971 02909 10065 20028 70286
333 91012 91113 91210
555 51113 51210 53033=
06273 47/66 /2906 10068 20039 70060
333 91008 91116 91210
555 51109 51206 53030=
06277 46/// /3012 10071 20034
333 91015 91115 91213
555 51115 51213 53026=
06278 46/// /2503 10049 20036
333 91005 91111 91207
555 51105 51203 53018=
06279 47981 32705 10055 20041 30119 40139 53025 72365 8////
333 82/59 83/62 91007 91118 91212
555 51107 51205 53023=
06283 46/// /3104 10045 20032
333 91007 91113 91208
555 51113 51207 53013=
06286 46/// /2606 10061 20041
333 91008 91113 91210
555 51108 51206 53006=
06319 43/78 /3005 10078 20030 30191 40193 53027
333 91007 91111 91208
555 51110 51207 53044=
06348 45/79 /2906 10071 20031 30171 40170 52030
333 91008 91113 91209
555 51109 51206 53032=
06356 465// 22907 10068 20033 30170 40171 53030 8////
333 81/28 91009 91113 91208
555 51109 51207 53036=
06377 47467 22806 10068 20044 72286 8////
333 81/15 91008 91112 91207
555 51112 51207 53020=
06391 46/// /2905 10068 20039
333 91010 91110 91206
555 51110 51206 53021=
0000046000
328
SINL54 EHDB 111500
AAXX 11151
06209 NIL=
06285 NIL=
06308 NIL=
06311 NIL=
06312 NIL=
06313 NIL=
06315 NIL=
06316 NIL=
06320 46/79 /3010 10080 20032 30154 40181 53025 222// 00081 10503
333 91012 91114 91212
555 51112 51210=
06321 46/80 /3009 10083 20023 30162 40186 53025 222// 00086 10604
333 91011 91113 91211
555 51112 51210=
06324 NIL=
06331 NIL=
06343 46/// /3007
333 91010 91114 91210
555 51112 51209=
0000011100
329
UANT01 CWAO 111508
ARP GEC8221 5422N05730W 1508 F350 MS61 292/89 KT
DALCA QXS YHO 111508 F91A
0000011000
330
UANT01 CWAO 111508
ARP KLM743 4751N03028W 1508 F320 MS47 239/28 KT
PHBQP QXT AOE 111508 F26A
0000015700
331
SSVX13 LFPW 111400
ZZYY 25650 11014 1400/ 179530 133318 6113/ 11119 40259 57006 22219
 01153 444 20130 11014 1200/ 50101 80132 8//// 9/015=
0000014500
332
SSVX13 LFPW 111500
ZZYY 25622 11014 1500/ 186894 002273 6113/ 11119 49994 52010 444
 20130 11014 1500/ 50101 80130 80002 9/015=
0000015700
333
SSVX13 LFPW 111500
ZZYY 14527 11014 1500/ 325432 062932 6113/ 11119 40199 52013 22219
 00259 444 20130 11014 1500/ 50101 80148 80024 9/015=
0000015700
334
SSVX13 LFPW 111500
ZZYY 25650 11014 1500/ 179530 133357 6113/ 11119 40258 57005 22219
 01154 444 20130 11014 1500/ 50101 80132 8//// 9/015=
00000000