0000028200
015
SXHW11 KWAL 111520
B1404042 011152023"
1,140111,14:15:00,1.0,135,3.6,0.0,1013.1,3.00,11.7,
1,140111,14:30:00,0.2,35,1.0,0.0,1013.2,3.00,11.7,
1,140111,14:45:00,0.3,316,3.0,0.0,1013.1,3.00,11.7,
1,140111,15:00:00,0.3,128,1.0,0.0,1013.0,3.00,11.7, 44-0NN  30W
0000431400
016
SIRS22 RUMS 111500
AAXX 11151
22127 22998 20000 11285 21318 39956 40183 57004 82030 333 60002=
22324 21684 70306 11128 21184 30057 40109 56007 73632 87500 333 60002
91013 91115=
22525 21496 80706 11085 21102 39998 40011 54001 77173 8802/ 333 60032
91010 91113=
22621 21598 73501 11121 21148 39854 40000 51002 72622 86930 333 69962
84922=
22831 21996 80303 11143 21178 39887 49950 52017 77172 8802/ 333
60032=
22892 22597 83403 11055 21093 39983 49999 52007 885// 333 60002
88622=
22913 21996 83302 11106 21142 39942 49972 52017 77172 8802/ 333
69932=
22917 21484 83604 11063 21086 39964 49975 52021 70272 886// 333 60062
88712 91111 93709=
22925 21462 83503 11112 21140 39814 49958 52020 77172 887// 333 60022
86710=
26069 21499 83203 11058 21065 39883 49997 52013 70282 889// 333 69962
85914=
26072 21575 82902 11063 21079 39968 49988 51014 70272 885// 333 69992
88622 93703=
26078 22/// /3103 11056 21070 39939 49989 51018 333 60002=
26080 22484 83304 11046 21059 39941 49974 52017 886// 333 69962 88712
91111=
26099 22/// /0000 11094 21108 39727 49951 51028 333 60002=
26179 22397 83304 11041 21057 39959 49992 52020 886// 333 69922 88708
91110=
26268 NIL=
26275 22498 83203 11022 21044 39962 49993 52019 885// 333 69992 88613
91110=
26285 21398 83004 11042 21054 39901 49981 52026 70282 886// 333 60042
88709=
26291 21497 83104 11050 21063 39851 49963 52030 78583 883// 333 60052
86610 91111=
26378 22/// /2803 11007 21021 39912 40001 51023 333 60002=
26381 21496 83003 11032 21046 39912 49990 52026 78582 883// 333 60012
88913 91112=
26389 21496 83004 11034 21034 39713 49980 52027 71022 886// 333 69962
91011 91113=
26393 21596 72904 11036 21050 39741 49952 52029 78582 87900 333 60022
91112=
26477 21596 82704 10004 21004 39883 40011 52025 78582 889// 333 69912
91110=
26479 21456 83205 11008 21014 39769 40001 52026 77172 8872/ 333 60032
88711 91111=
26499 21897 82908 11027 21048 39725 49955 52031 77187 8802/ 333 60022
91012 91114=
26578 11458 82606 10010 21005 39815 40018 52025 78582 889// 333 69902
88916 91010 91113=
26585 22597 73104 11006 21013 39717 49991 51028 87500 333 60022
91114=
26695 21496 82806 10001 21010 39677 49980 52027 77172 8672/ 333 69962
86710 91010 91113=
26784 21598 82606 10010 21007 39779 40029 52029 70082 8595/ 333 60032
85920 91012 91114=
26795 12565 82603 10011 21008 39709 40000 52028 60032 885// 333 10014
88624 91112=
26882 22584 72808 10009 21008 39753 40029 52028 87800 333 60012 87625
91014 91115=
27108 22/// /3004 11057 21072 39750 49934 51037 333 60002 91111=
27164 11997 80000 10000 20000 39678 49862 54001 60052 70272 8802/ 333
10002=
27176 11496 81402 11010 21010 39685 49880 57006 60082 77172 885// 333
11002=
27215 21598 73107 11019 21037 39696 49902 52033 72682 87900 333 60022
91012 91112=
27223 11497 83102 10004 20000 39723 49867 52021 69972 77076 8802/ 333
10013 88513=
27316 21450 82903 11008 21008 39728 49898 52031 77176 8872/ 333
60032=
27321 11423 82903 10003 20000 39738 49888 53027 60020 77376 8872/ 333
10025=
27347 11356 82401 10010 20008 39719 49872 52008 60052 76162 8672/ 333
10019 86707=
27417 21496 82804 11022 21029 39725 49930 52033 77172 8872/ 333 60032
91111=
27507 21233 82804 11002 21020 39726 49964 52029 77373 8872/ 333 60022
88704 91013 91113 92983=
27511 21597 82905 11009 21029 39734 49929 52032 70282 885// 333 60022
91113=
27523 21597 82703 10009 21007 39739 49903 52025 70262 885// 333
60012=
27539 11497 82402 10012 20005 39723 49889 52008 60042 76062 8752/ 333
10024=
27606 212// 82805 10003 21014 39709 46650 52025 77172 8772/ 333 60022
87704 91010 91112=
27611 21597 72906 11004 21027 39706 49939 52029 78582 87900 333 60012
91010 91110=
27627 21496 72904 10001 21008 39661 49931 52026 78582 87900 333 69972
91111=
27703 21597 82705 10008 21015 39716 49959 52027 72276 885// 333 69972
86726 91012=
27745 113// 82002 10011 20011 39766 49906 52006 69982 76122 8802/ 333
10015 88508=
27821 21959 82703 10004 21004 39666 49946 52024 71072 8801/ 333 60022
91110=
27823 12499 82604 10005 21002 39686 49941 52022 69942 8272/ 333
10018=
27921 21997 72705 10013 21000 39707 49973 52024 70272 87070 333 69902
91113=
0000034900
017
SIVA20 LFPW 111500
BBXX
BATFR55 11154 99076 30411 46/// /0213 10275 20222 40113 55///
22262 04292=
BATFR08 11154 99424 30525 44191 82721 10154 20152 40016 56023 72122
8877/
22243 04157 20808 335// 40808 5////=
DGHB 11153 99134 10499 41298 70305 10248 20214 40160 53010 70351
83478
22224 20202 308// 40303 5//// 80224=
0000097700
018
USEU24 EDZW 111200
TTAA  61121 17030 99023 11659 08002 00192 09860 12002 92833
04257 29003 85516 00025 29013 70048 10104 29518 50560 21966
29540 40721 32968 29549 30917 48769 29558 25034 58761 29057
20172 65758 30055 15348 61176 30050 10599 61580 30545 88188
66958 30062 77177 31064 41719 31313 48008 81134=
TTAA ///// 17062 NIL=
TTAA  61121 17130 99920 00329 22003 00215 ///// ///// 92851
///// ///// 85524 00856 26003 70073 04558 29522 50564 21572
29036 40725 32572 30533 30922 48363 30038 25039 57157 30548
20178 63760 29556 15355 62978 30546 10603 63180 31048 88202
64359 29554 77118 31063 40815 31313 48008 81130=
TTAA  61121 17220 99019 15260 12505 00185 13859 14510 92837
09226 30503 85532 04010 25508 70102 00771 30520 50571 19560
30035 40733 30957 30537 30931 45166 31057 25050 54958 30571
20189 63158 29572 15366 63771 29061 10615 63976 31052 88204
63957 29569 77234 30573 41614 31313 48008 81139=
TTAA ///// 17280 NIL=
0000087100
019
SIGO20 FOOL 111500
AAXX 11154
64500 42460 82210 10290 20248 30081 40091 889//
333 58011 84610 81920 88650 94948 95838=
64501 42465 61808 10286 20244 30089 40099 84903
  333 58010 83811 81920 86073 94942 95832=
64507 41458 70705 10300 20254 3//// 40/// 71799 879//
  333 5//// 84611 81916 87626 94941 95831=
64510 42565 5//// 10300 20226 3//// 4//// 85200
  333 5//// 85823 94939 95839=
64550 42470 6//// 10326 20238 30/// 40/// 86800
  333 5//// 84815 86626 94939 95839=
64551 42470 71806 10300 20252 3//// 4//// 8393/
  333 5//// 83815 81923 87362 94944 95834=
64556 42460 5//// 10282 20238 3//// 40/// 85500
  333 5//// 85813 94939 95839=
64560 NIL=
64570 41157 70000 10221 20220 39595 40091 70196 8551/
    333 58019 83703 84613 87462=
64512 42470 5//// 10286 20210 3//// 4//// 85200
  333 5//// 85811 94929 95839=
0000011000
020
UANT99 KDDL 111518
ARP UAL51 5206N02300W 1518 F310 MS54 178/72 KT
N68061 DDL XXN 111519 F56A
0000010900
021
UANT99 KDDL 111519
ARP SWR86 5402N01610W 1519 F370 MS64 237/77 KT
HBJHE QXT AOE 111519 J46A
0000011000
022
UANT99 KDDL 111519
ARP AFR474 4902N01922W 1519 F320 MS54 200/88 KT
FGSPN QXT AOE 111519 F14A
0000073300
023
SIPK21 OPKC 111500
AAXX 11154
41515 22995 00508 10076 21196 48545 333
      58027 60007=
41560 22696 31803 11020 21083 38269 48506 82320 333
      58002 60007=
41571 NIL=
41594 319// 00000 10110 20043 39990 40215 70500 333
      58024= 
41685 32993 40000 10085 21123 38962 48533 84020 333
      56090 58027 84460=
41710 22697 81304 10095 21098 40201 84510 333
      56990 59029 60007 84640 84460=
41718 21995 20000 10120 20068 40207 70400 82030 333
      56090 58023 60007 82362=
41739 22996 20000 10120 21036 48532 82030 333
      56090 59009 60007 82360=
41744 22996 00000 10095 21021 48512 333
      58003 60007=
41749 21996 33603 10160 20057 40206 70400 80001 333
      56009 58022 60007 83070=
0000023500
024
SICI21 BABJ 111500 RRC
AAXX 11151
51076 32/// 90401 11155 21202 40418 57012=
52983 32/// 92502 11105 21217 38220 52006=
54471 42/62 93609 11031 21126 40310 52027=
54511 31955 93604 10015 21185 40321 52022 705//=
0000014500
025
SICI22 BABJ 111500 RRC
AAXX 11151
57494 31927 92701 10044 20029 40328 52015 710//=
59117 33/60 90000 10128 20103 40246 52016=
0000023500
026
SICI23 BABJ 111500 RRC
AAXX 11151
50745 33/// 93202 11254 21301 40346 52027=
50788 33/// 92904 11272 21333 40252 57007=
53614 32/61 91402 11053 21206 40413 52009=
54618 31/04 91601 11030 21044 40316 52013 746//=
0000064600
027
SIVF22 ENMI 111500
BBXX
3ERR2 11154 99653 10073 43/// /1025 11031 21076 40044 57001 22200
      10707 70033=
LF3F 11154 99643 10078 41597 70720 11038 21091 40027 52003 70322
      87/// 22200 04103 10604 70020=
LF3N 11154 99653 10073 41597 71022 11029 21072 40040 52001 70282
      879// 22200 00083 10707 70033=
LF4B 11154 99606 10037 47/98 /3403 10024 40016 52013 700// 22200
      00037 10705 70023=
LF4C 11154 99584 10019 41498 62927 10061 20025 40054 52014 71582
      84902 91511 22200 00052 10706 70028=
LF5T 11154 99660 10081 41697 71219 11034 21052 40070 52004 77172
      877// 22200 10605 70027=
0000216600
028
SZNZ01 NZKL 111521
CREX++
T000103 A001 D01021 D06025++
-3683144 17478654 AUCT  2014 01 11 15 13 //// 11 07 00 01
05905 3184 05907 3183 05910 3182 05913 3181 05915 3180 05918 3180+
-4402404 -17636748 CHIT  2014 01 11 15 13 //// 11 07 00 01
05291 2148 05288 2148 05272 2135 05279 2145 05288 2157 05281 2153+
-4089929 17623168 CPIT  2014 01 11 15 13 //// 11 07 00 01
04395 2277 04384 2269 04392 2280 04390 2281 04385 2279 04382 2279+
-3618905 17548887 GBIT  2014 01 11 15 13 //// 11 07 00 01
06351 0000 06354 0001 06357 0003 06354 -0002 06360 0002 06359 0000+
-3867541 17802288 GIST  2014 01 11 15 13 //// 11 07 00 01
04520 2715 04501 2697 04514 2711 04522 2721 04531 2732 04519 2721+
-4241288 17370277 KAIT  2014 01 11 15 13 //// 11 07 00 01
03842 2269 03837 2267 03828 2262 03814 2252 03799 2241 03805 2251+
-3755040 17815904 LOTT  2014 01 11 15 13 //// 11 07 00 01
04010 0196 04005 0190 04010 0194 04009 0193 04003 0187 04021 0205+
-3704657 17451175 MNKT  2014 01 11 15 13 //// 11 07 00 01
02336 -0102 02329 -0116 02349 -0103 02346 -0113 02366 -0100 02358 -0114+
-3947566 17692007 NAPT  2014 01 11 15 13 //// 11 07 00 01
03515 1985 03514 1987 03526 2001 03511 1989 03516 1996 03498 1981+
-3441483 17304870 NCPT  2014 01 11 15 13 //// 11 07 00 01
-03724 -8515 -03713 -8509 -03632 -8431 -03706 -8509 -03666 -8473 -03765 -8576+
-4581435 17062939 OTAT  2014 01 11 15 13 //// 11 07 00 01
04790 3419 04784 3420 04779 3420 04775 3422 04770 3424 04767 3427+
-2928002 -17789440 RBCT  2014 01 11 15 13 //// 11 07 00 01
06287 1950 06286 1948 06304 1965 06302 1963 06294 1953 06298 1957+
-2925114 -17790384 RFRT  2014 01 11 15 13 //// 11 07 00 01
03275 0156 03256 0135 03266 0144 03265 0143 03271 0147 03272 0147+
-4357010 17277383 SUMT  2014 01 11 15 13 //// 11 07 00 01
02482 1812 02494 1829 02497 1838 02468 1814 02471 1822 02468 1824+
-3764109 17618118 TAUT  2014 01 11 15 13 //// 11 07 00 01
05568 3960 05530 3920 05562 3951 05569 3956 05567 3953 05574 3958+
-4128448 17477985 WLGT  2014 01 11 15 13 //// 11 07 00 01
03502 2029 03496 2026 03495 2028 03479 2015 03475 2014 03468 2011++
7777
0000116100
029
UDAS02 BABJ 111511
AMDAR 1115
LVR CNFOZN 3042N 12228E 111459 F331 MS390 257/145 TB/ S//1=
LVR CNFOZN 3105N 12229E 111502 F331 MS395 258/150 TB/ S//1=
LVR CNFOZN 3126N 12226E 111505 F331 MS398 259/155 TB/ S//1=
LVR CNFOZN 3145N 12219E 111508 F331 MS400 259/160 TB/ S//1=
LVR CNFLWT 2914N 10431E 111506 F197 MS170 274/049 TB/ S//1=
LVR CNFLWT 2919N 10430E 111507 F197 MS175 270/042 TB/ S//1=
LVR CNFLWT 2923N 10429E 111508 F197 MS180 268/040 TB/ S//1=
DES CNFLWT 2925N 10428E 111508 F192 MS168 263/037 TB/ S//1=
LVR CNFNXQ 3809N 10742E 111500 F291 MS520 265/087 TB/ S//1=
LVR CNFNXQ 3806N 10814E 111503 F291 MS513 262/091 TB/ S//1=
ASC CNFNXQ 3803N 10847E 111506 F333 MS543 265/072 TB/ S//1=
LVR CNFNXQ 3801N 10919E 111509 F351 MS538 260/076 TB/ S//1=
DES CNFNXM 2517N 10305E 111507 F104 PS014 256/031 TB/ S//1=
DES CNFNXM 2515N 10303E 111508 F095 PS040 251/029 TB/ S//1=
DES CNFNXM 2513N 10301E 111509 F087 PS063 242/029 TB/ S//1=
DES CNFLWR 3819N 11447E 111507 F179 MS288 281/055 TB/ S//1=
DES CNFLWR 3823N 11453E 111508 F169 MS276 276/050 TB/ S//1=
LVR CNFLWR 3826N 11500E 111509 F167 MS265 276/048 TB/ S//1=
0000029300
030
UDAS02 BABJ 111509
AMDAR 1115
DES CNFOZM 2004N 11006E 111506 F070 PS053 341/005 TB/ S//1=
DES CNFOZM 2003N 11006E 111506 F067 PS060 003/007 TB/ S//1=
DES CNFOZM 2000N 11009E 111507 F061 PS075 022/007 TB/ S//1=
DES CNFOZM 1959N 11012E 111508 F050 PS104 049/008 TB/ S//1=
0000146000
031
SIRA20 RUHB 111500
AAXX 11151
30372 41993 00000 11440 21464 39470 40518 57005 74444=
30433 42699 80301 11246 21294 39766 40428 55000 83532=
30554 429// 20000 11394 21417 39218 40503 58004 80001=
30635 429// 61302 11237 21270 39784 40417 58002 80002=
30673 42999 03103 11326 21369 39546 40426 52006=
30692 42999 02904 11278 21333 39789 40343 52005=
30758 41967 00000 11324 21348 39528 40476 52001 70400=
30823 42999 82601 11220 21233 39718 40419 52004 80007=
30879 42999 00000 11325 21348 39562 40433 52010=
30935 42999 60000 11230 21243 39401 40433 52007 83041=
30949 42999 00000 11251 21269 39232 40446 52007=
30965 429// 02401 11348 21365 39515 40474 52006=
31168 NIL=
31285 41999 72301 11302 21332 30154 40243 58002 77172 80008=
31300 42984 80000 11247 21322 39953 40273 53002 80002=
31329 42999 00501 11392 21411 39509 40284 51001=
31369 41494 82708 11221 21247 30010 40101 58003 78683 8592/ 333 85918
91013 91113=
31416 41998 80000 11323 21357 30078 40183 54000 77172 85027=
31484 42/// /2702 11275 21343 39826 40198 52003=
31512 429// 02903 11252 21308 30102 40286 58002=
31538 NIL=
31561 42998 00000 11353 21389 30164 40193 54001=
31683 42999 00000 11315 21345 30081 40163 58004=
31707 42998 03201 11281 21319 30160 40265 52002=
31733 42999 01803 11286 21324 30114 40197 57007=
31735 42997 02406 11277 21336 30105 40204 57007=
31770 42982 62502 11230 21296 30120 40153 58004 80001=
0000623600
032
SSVX02 KARS 111516 RRA
ZZYY 41855 11014 1511/ 740037 061664 6113/
22219 00199
444 20130 11014 1445/ 50101 80102 80009 9/015=
ZZYY 13596 11014 1400/ 736042 013864 6113/
22219 00176
444 20130 11014 1325/ 50101 80120 80015 9/015=
ZZYY 41502 11014 1400/ 733849 032441 6113/
22219 00196
444 20130 11014 1255/ 50101 80118 80011 9/015=
ZZYY 41592 11014 1511/ 737234 047328 6112/
22219 00192
444 20120 11014 1507/ 50101 80100 80011 9/015=
ZZYY 41713 11014 1501/ 728523 038815 6113/
22219 00225
33311 88872 20000 32248 43715
444 50101 80006 80104 9/015=
ZZYY 41713 11014 1431/ 728527 038813 6113/
22219 00225
33311 88872 20000 32247 43715
444 50101 80005 80104 9/015=
ZZYY 41713 11014 1400/ 728531 038811 6113/
22219 00225
33311 88872 20000 32247 43714
444 50101 80005 80104 9/015=
ZZYY 41716 11014 1400/ 723329 047838 6113/
22219 00246
33311 88872 20000 32455 43752
444 50101 80007 80102 9/015=
ZZYY 41716 11014 1330/ 723329 047840 6113/
22219 00245
33311 88872 20000 32454 43752
444 50101 80007 80102 9/015=
ZZYY 15911 11014 1504/ 711251 040843 6112/
22219 00258
444 20120 11014 1310/ 50101 80102 80006 9/015=
ZZYY 41717 11014 1300/ 726991 044204 6113/
22219 00232
33311 88872 20000 32318 43733
444 50101 80020 80106 9/015=
ZZYY 41717 11014 1501/ 726989 044206 6113/
22219 00231
33311 88872 20000 32311 43731
444 50101 80016 80106 9/015=
ZZYY 41717 11014 1431/ 726989 044204 6113/
22219 00231
33311 88872 20000 32314 43732
444 50101 80015 80106 9/015=
ZZYY 41702 11014 1501/ 729469 053395 6113/
22219 00228
33311 88872 20000 32284 43688
444 50101 80003 80104 9/015=
ZZYY 41703 11014 1431/ 725067 041512 6113/
22219 00233
33311 88872 20000 32333 43739
444 50101 80009 80102 9/015=
ZZYY 41703 11014 1401/ 725066 041512 6113/
22219 00233
33311 88872 20000 32331 43739
444 50101 80009 80102 9/015=
ZZYY 41703 11014 1500/ 725067 041512 6113/
22219 00233
33311 88872 20000 32334 43739
444 50101 80010 80102 9/015=
ZZYY 41703 11014 1331/ 725066 041512 6113/
22219 00233
33311 88872 20000 32330 43739
444 50101 80010 80102 9/015=
ZZYY 41856 11014 1511/ 738815 049144 6112/
22219 00177
444 20120 11014 1506/ 50101 80100 80034 9/015=
ZZYY 41712 11014 1400/ 716922 045654 6113/
22219 00250
33311 88872 20000 32499 43711
444 50101 80008 80102 9/015=
ZZYY 41712 11014 1330/ 716924 045654 6113/
22219 00250
33311 88872 20000 32500 43711
444 50101 80009 80102 9/015=
ZZYY 41853 11014 1504/ 737803 038605 6112/
22219 00179
444 20120 11014 1124/ 50101 80102 80007 9/015=
ZZYY 31507 11014 1400/ 704006 019657 6112/
22219 00252
444 20120 11014 1132/ 50101 80121 80008 9/015=
ZZYY 31508 11014 1400/ 705196 026229 6112/
22219 00274
444 20120 11014 0723/ 50101 80121 80003 9/015=
ZZYY 62724 11014 1400/ 741193 012524 6111/
22219 00143
444 20110 11014 1325/ 50101 80115 80007 9/015=
ZZYY 31500 11014 1400/ 704010 028345 6111/
22219 00273
444 20110 11014 0722/ 50101 80120 80010 9/015=
ZZYY 13599 11014 1400/ 709097 024439 6111/
22219 00262
444 20110 11014 1115/ 50101 80120 80009 9/015=
ZZYY 62721 11014 1512/ 743380 014465 6111/
22219 00133
444 20110 11014 1505/ 50101 80116 80009 9/015=
ZZYY 62722 11014 1400/ 733589 016491 6112/
22219 00186
444 20120 11014 1323/ 50101 80117 80005 9/015=
ZZYY 31708 11014 1508/ 716807 032041 6113/
22219 00237
444 20130 11014 1503/ 50101 80106 80037 9/015=
ZZYY 13590 11014 1504/ 728102 017327 6113/
22219 00228
444 20130 11014 1502/ 50101 80102 80008 9/015=
ZZYY 41560 11014 1400/ 744224 024595 6111/
11119 40005
444 2011/ 11014 1324/ 50101 80100 80021 9/015=
ZZYY 41560 11014 1500/ 744214 024592 6112/
11119 40006
444 2012/ 11014 1506/ 50101 80100 80022 9/015=
ZZYY 41677 11014 1201/ 720811 049096 6113/
22219 00246
33311 88872 20000 32458 43745
444 50101 80013 80106 9/015=
ZZYY 41677 11014 1131/ 720810 049098 6113/
22219 00246
33311 88872 20000 32459 43745
444 50101 80014 80106 9/015=
ZZYY 13528 11014 1506/ 725005 054882 6111/
444 20110 11014 1448/ 50101 80100 80010 9/015=
ZZYY 41986 11014 1508/ 728106 050141 6111/
22219 00238
444 20110 11014 1505/ 50101 80094 80003 9/015=
ZZYY 31702 11014 1506/ 716217 043619 6111/
22219 00251
444 20110 11014 1502/ 50101 80106 80032 9/015=
ZZYY 62728 11014 1400/ 738794 020391 6111/
22219 00161
444 20110 11014 1325/ 50101 80117 80015 9/015=
ZZYY 31706 11014 1503/ 716057 037076 6112/
22219 00244
444 50101 80104 80000 9/015=
ZZYY 44506 11014 1450/ 744322 027908 6112/
22219 00135
444 20120 11014 1507/ 50101 9/050=
ZZYY 13531 11014 1510/ 726790 037447 6113/
22219 00231
444 20130 11014 1505/ 50101 80102 80031 9/015=
ZZYY 41942 11014 1507/ 723322 041423 6111/
22219 00244
444 20110 11014 1503/ 50101 80102 80035 9/015=
ZZYY 41926 11014 1500/ 728480 049320 6113/
22219 00232
444 2013/ 11014 1307/ 50101 80110 80022 9/015=
ZZYY 41934 11014 1508/ 722604 038176 6112/
22219 00238
444 20120 11014 1503/ 50101 80102 80041 9/015=
ZZYY 44832 11014 1511/ 732050 028249 6111/
22219 00198
444 20110 11014 1505/ 50101 80074 80010 9/015=
ZZYY 13527 11014 1510/ 726253 040898 6112/
22219 00230
444 20120 11014 1504/ 50101 80102 80036 9/015=
ZZYY 41927 11014 1400/ 728619 040388 6111/
22219 00225
444 2011/ 11014 1309/ 50101 80108 80024 9/015=
ZZYY 41927 11014 1500/ 728621 040397 6112/
22219 00225
444 2012/ 11014 1503/ 50101 80108 80022 9/015=
ZZYY 44508 11014 1510/ 757522 007699 6111/
22219 00058
444 50101 9/050=
ZZYY 41939 11014 1510/ 729756 044996 6112/
22219 00223
444 20120 11014 1505/ 50101 80102 80042 9/015=
ZZYY 44507 11014 1500/ 736827 036788 6112/
22219 00184
444 20120 11014 1506/ 50101 9/050=
ZZYY 41940 11014 1508/ 722923 038080 6111/
22219 00239
444 20110 11014 1503/ 50101 80102 80039 9/015=
ZZYY 13524 11014 1508/ 720961 032258 6112/
22219 00236
444 20120 11014 1503/ 50101 80072 80012 9/015=
ZZYY 41943 11014 1507/ 726044 041123 6111/
22219 00230
444 20110 11014 1504/ 50101 80102 80029 9/015=
ZZYY 41954 11014 1508/ 723683 045248 6111/
22219 00239
444 20110 11014 1504/ 50101 80102 80037 9/015=
0001489200
033
SSVX02 KARS 111516
ZZYY 14915 11014 1400/ 302224 062688 6113/
11119 40127 52025
22219 00288
444 2013/ 11014 1332/ 50101 80115 80013 9/015=
ZZYY 23678 11014 1400/ 310790 050824 6113/
11119 40098 52008
22219 00280
444 2013/ 11014 1332/ 50101 80114 80024 9/015=
ZZYY 14562 11014 1400/ 305952 055026 6112/
11119 40115 52013
22219 00284
444 2012/ 11014 1331/ 50101 80114 80001 9/015=
ZZYY 14565 11014 1400/ 307960 044140 6112/
11119 40113 52001
22219 00298
444 2012/ 11014 1331/ 50101 80113 80006 9/015=
ZZYY 14547 11014 1400/ 114379 059498 6112/
11119 40129 52016
22219 00254
444 2012/ 11014 1450/ 50101 80111 80023 9/015=
ZZYY 11902 11014 1400/ 113917 056158 6113/
11119 40152 52010
444 2013/ 11014 1336/ 50101 80115 80012 9/015=
ZZYY 11901 11014 1400/ 104713 055383 6113/
11119 40125 52013
22219 00271
444 2013/ 11014 1334/ 50101 80117 80021 9/015=
ZZYY 23688 11014 1400/ 118123 061804 6112/
11119 40172 52015
22219 00245
444 2012/ 11014 1337/ 50101 80119 80010 9/015=
ZZYY 46928 11014 1420/ 750021 165083 6111/
11119 39921 49921 52019
22219 00060
444 20110 11014 1355/ 50101 80100 80032 9/015=
ZZYY 46763 11014 1400/ 750712 174948 6113/
11119 39813 49813 52006
22219 00050
444 20130 11014 1344/ 50101 80138 80021 9/015=
ZZYY 23660 11014 1430/ 126255 056413 6113/
22219 00189=
ZZYY 23699 11014 1430/ 126047 055366 6113/
22219 00226=
ZZYY 23696 11014 1430/ 125766 056836 6113/
22219 00229=
ZZYY 48694 11014 1400/ 770918 172751 6113/
11119 40119 57025
444 2013/ 11014 1351/ 50101 80105 80001 9/015=
ZZYY 21571 11014 1410/ 152208 176586 6112/
11119 39781 49781 52012
22219 00041
444 20120 11014 1345/ 50101 80100 80040 9/015=
ZZYY 46916 11014 1400/ 753905 152279 6112/
11119 39913 49913 57046
22219 00055
444 20120 11014 1355/ 50101 80153 80021 9/015=
ZZYY 46910 11014 1400/ 754988 175944 6112/
11119 39693 49693 57014
22219 00036
444 20120 11014 1355/ 50101 80153 80013 9/015=
ZZYY 48689 11014 1400/ 770679 176263 6112/
11119 40147 57021
444 2012/ 11014 1351/ 50101 80104 80002 9/015=
ZZYY 41959 11014 1400/ 740302 030028 6113/
22219 00155
444 20130 11014 1252/ 50101 80117 80011 9/015=
ZZYY 13517 11014 1504/ 708905 038207 6111/
22219 00260
444 20110 11014 1313/ 50101 80128 80001 9/015=
ZZYY 41684 11014 1400/ 724165 040646 6113/
22219 00237
33311 88872 20000 32365 43746
444 50101 80004 80100 9/015=
ZZYY 41684 11014 1330/ 724170 040647 6113/
22219 00236
33311 88872 20000 32362 43746
444 50101 80005 80100 9/015=
ZZYY 41622 11014 1501/ 727452 028990 6113/
22219 00217
33311 88872 20000 32165 43726
444 50101 80011 80100 9/015=
ZZYY 41622 11014 1431/ 727453 028987 6113/
22219 00216
33311 88872 20000 32164 43726
444 50101 80007 80100 9/015=
ZZYY 41622 11014 1400/ 727455 028984 6113/
22219 00216
33311 88872 20000 32164 43726
444 50101 80017 80100 9/015=
ZZYY 41622 11014 1330/ 727457 028981 6113/
22219 00216
33311 88872 20000 32162 43726
444 50101 80016 80100 9/015=
ZZYY 41622 11014 1301/ 727458 028978 6113/
22219 00216
33311 88872 20000 32160 43726
444 50101 80016 80100 9/015=
ZZYY 41679 11014 1501/ 723856 041262 6113/
22219 00239
33311 88872 20000 32388 43745
444 50101 80007 80104 9/015=
ZZYY 41679 11014 1431/ 723856 041260 6113/
22219 00239
33311 88872 20000 32390 43745
444 50101 80007 80104 9/015=
ZZYY 15669 11014 1502/ 700691 028185 6112/
22219 00273
444 20120 11014 1259/ 50101 80086 80004 9/015=
ZZYY 44514 11014 1500/ 745080 040442 6113/
11119 30184 40184 57002
22219 00126
444 20130 11014 1507/ 50101 80138 80006 9/015=
ZZYY 44924 11014 1500/ 740892 030023 6113/
11119 30105 40105 52002
22219 00154
444 20130 11014 1249/ 50101 80130 80014 9/015=
ZZYY 44512 11014 1510/ 746074 041415 6112/
22219 00138
444 20120 11014 1508/ 50101 9/015=
ZZYY 13585 11014 1400/ 735389 020871 6111/
22219 00190
444 20110 11014 1505/ 50101 80117 80019 9/015=
ZZYY 41686 11014 1500/ 722436 042044 6113/
22219 00243
33311 88872 20000 32434 43726
444 50101 80003 80104 9/015=
ZZYY 41686 11014 1430/ 722436 042040 6113/
22219 00243
33311 88872 20000 32433 43735
444 50101 80003 80104 9/015=
ZZYY 41618 11014 1500/ 725410 037217 6113/
22219 00233
33311 88872 20000 32330 43750
444 50101 80014 80104 9/015=
ZZYY 41618 11014 1430/ 725411 037218 6113/
22219 00233
33311 88872 20000 32325 43749
444 50101 80012 80104 9/015=
ZZYY 41618 11014 1401/ 725413 037218 6113/
22219 00232
33311 88872 20000 32323 43749
444 50101 80013 80104 9/015=
ZZYY 41618 11014 1331/ 725415 037218 6113/
22219 00232
33311 88872 20000 32318 43750
444 50101 80014 80104 9/015=
ZZYY 41618 11014 1300/ 725417 037217 6113/
22219 00231
33311 88872 20000 32313 43749
444 50101 80016 80104 9/015=
ZZYY 41618 11014 1230/ 725419 037215 6113/
22219 00231
33311 88872 20000 32307 43749
444 50101 80013 80104 9/015=
ZZYY 62726 11014 1400/ 739574 016145 6112/
22219 00156
444 20120 11014 1504/ 50101 80118 80007 9/015=
ZZYY 41510 11014 1510/ 724320 040093 6113/
22219 00238
444 20130 11014 1354/ 50101 80104 80034 9/015=
ZZYY 41687 11014 1401/ 723262 040847 6113/
22219 00243
33311 88872 20000 32426 43743
444 50101 80002 80104 9/015=
ZZYY 41687 11014 1331/ 723261 040846 6113/
22219 00243
33311 88872 20000 32425 43743
444 50101 80002 80104 9/015=
ZZYY 41687 11014 1501/ 723262 040848 6113/
22219 00243
33311 88872 20000 32431 43743
444 50101 80002 80104 9/015=
ZZYY 41687 11014 1431/ 723262 040847 6113/
22219 00243
33311 88872 20000 32429 43743
444 50101 80002 80104 9/015=
ZZYY 41508 11014 1511/ 728328 035485 6111/
22219 00226
444 20110 11014 1504/ 50101 80104 80056 9/015=
ZZYY 41689 11014 1400/ 722483 041692 6113/
22219 00244
33311 88872 20000 32436 43742
444 50101 80017 80102 9/015=
ZZYY 13598 11014 1505/ 725874 034289 6111/
22219 00227
444 50101 80106 80026 9/015=
ZZYY 41571 11014 1101/ 723279 040417 6113/
22219 00238
33311 88872 20000 32380 43740
444 50101 80011 80104 9/015=
ZZYY 41571 11014 1031/ 723280 040414 6113/
22219 00238
33311 88872 20000 32380 43739
444 50101 80011 80104 9/015=
ZZYY 41571 11014 1401/ 723272 040421 6113/
22219 00239
33311 88872 20000 32386 43740
444 50101 80009 80104 9/015=
ZZYY 41571 11014 1331/ 723273 040423 6113/
22219 00239
33311 88872 20000 32385 43739
444 50101 80012 80104 9/015=
ZZYY 41690 11014 1400/ 724643 043532 6113/
22219 00236
33311 88872 20000 32359 43739
444 50101 80006 80104 9/015=
ZZYY 41690 11014 1501/ 724644 043535 6113/
22219 00236
33311 88872 20000 32358 43739
444 50101 80008 80104 9/015=
ZZYY 41690 11014 1431/ 724643 043534 6113/
22219 00236
33311 88872 20000 32358 43739
444 50101 80004 80104 9/015=
ZZYY 41615 11014 1330/ 724892 041536 6113/
22219 00235
33311 88872 20000 32346 43739
444 50101 80011 80104 9/015=
ZZYY 41615 11014 1401/ 724895 041538 6113/
22219 00235
33311 88872 20000 32348 43740
444 50101 80007 80104 9/015=
ZZYY 41605 11014 1401/ 724482 043708 6113/
22219 00239
33311 88872 20000 32388 43750
444 50101 80011 80102 9/015=
ZZYY 41605 11014 1331/ 724484 043707 6113/
22219 00239
33311 88872 20000 32387 43749
444 50101 80010 80102 9/015=
ZZYY 13618 11014 1510/ 726155 036198 6111/
22219 00231
444 20110 11014 1505/ 50101 80108 80016 9/015=
ZZYY 41691 11014 1500/ 724756 041650 6113/
22219 00235
33311 88872 20000 32348 43737
444 50101 80007 80106 9/015=
ZZYY 41691 11014 1430/ 724754 041650 6113/
22219 00235
33311 88872 20000 32348 43737
444 50101 80008 80106 9/015=
ZZYY 41671 11014 1231/ 725328 043599 6113/
22219 00235
33311 88872 20000 32350 43742
444 50101 80005 80104 9/015=
ZZYY 41671 11014 1201/ 725329 043596 6113/
22219 00235
33311 88872 20000 32349 43742
444 50101 80005 80104 9/015=
ZZYY 41671 11014 1300/ 725327 043601 6113/
22219 00235
33311 88872 20000 32349 43742
444 50101 80007 80104 9/015=
ZZYY 41671 11014 1030/ 725328 043587 6113/
22219 00235
33311 88872 20000 32346 43742
444 50101 80004 80104 9/015=
ZZYY 31982 11014 1400/ 705194 019348 6113/
22219 00278
444 20130 11014 1133/ 50101 80121 80006 9/015=
ZZYY 31511 11014 1400/ 703465 024066 6113/
22219 00274
444 20130 11014 1132/ 50101 80121 80008 9/015=
ZZYY 31512 11014 1400/ 703572 024112 6112/
22219 00275
444 20120 11014 1132/ 50101 80121 80006 9/015=
ZZYY 13573 11014 1400/ 735613 018518 6112/
22219 00182
444 20120 11014 1507/ 50101 80117 80006 9/015=
ZZYY 31983 11014 1400/ 705086 019796 6111/
22219 00278
444 20110 11014 1115/ 50101 80121 80006 9/015=
ZZYY 41982 11014 1510/ 738501 064982 6111/
22219 00163
444 20110 11014 1445/ 50101 80106 80041 9/015=
ZZYY 31902 11014 1400/ 704979 018699 6112/
22219 00279
444 20120 11014 0722/ 50101 80116 80007 9/015=
ZZYY 41991 11014 1512/ 740238 065611 6112/
22219 00147
444 20120 11014 1352/ 50101 80104 80027 9/015=
ZZYY 31509 11014 1400/ 703630 024312 6113/
22219 00274
444 20130 11014 1132/ 50101 80121 80007 9/015=
ZZYY 31510 11014 1400/ 703643 024337 6113/
22219 00274
444 20130 11014 1132/ 50101 80121 80008 9/015=
ZZYY 13601 11014 1509/ 726704 035661 6111/
22219 00226
444 20110 11014 1504/ 50101 80108 80017 9/015=
ZZYY 41558 11014 1510/ 725900 038737 6112/
22219 00230
444 20120 11014 1504/ 50101 80108 80026 9/015=
ZZYY 13617 11014 1510/ 725883 034786 6111/
22219 00231
444 20110 11014 1504/ 50101 80108 80028 9/015=
ZZYY 41559 11014 1505/ 723829 036925 6111/
22219 00236
444 50101 80108 80025 9/015=
ZZYY 41699 11014 1500/ 729115 040471 6113/
22219 00221
33311 88872 20000 32205 43702
444 50101 80013 80104 9/015=
ZZYY 41699 11014 1430/ 729114 040473 6113/
22219 00220
33311 88872 20000 32204 43703
444 50101 80021 80104 9/015=
ZZYY 41699 11014 1401/ 729113 040475 6113/
22219 00221
33311 88872 20000 32205 43702
444 50101 80022 80104 9/015=
ZZYY 13602 11014 1508/ 728554 034204 6112/
22219 00220
444 20120 11014 1505/ 50101 80102 80041 9/015=
ZZYY 41698 11014 1401/ 726876 051425 6113/
22219 00241
33311 88872 20000 32405 43706
444 50101 80002 80104 9/015=
ZZYY 41670 11014 1509/ 726833 042771 6112/
22219 00234
444 20120 11014 1504/ 50101 80102 80011 9/015=
ZZYY 13657 11014 1507/ 718240 020007 6111/
22219 00231
444 20110 11014 1503/ 50101 80068 80018 9/015=
ZZYY 41566 11014 1500/ 726696 049835 6113/
22219 00243
33311 88872 20000 32434 43747
444 50101 80012 80102 9/015=
ZZYY 41566 11014 1430/ 726696 049835 6113/
22219 00243
33311 88872 20000 32434 43746
444 50101 80009 80102 9/015=
ZZYY 41566 11014 1401/ 726697 049834 6113/
22219 00243
33311 88872 20000 32433 43746
444 50101 80013 80102 9/015=
ZZYY 41669 11014 1508/ 723286 040420 6111/
22219 00240
444 20110 11014 1354/ 50101 80102 80026 9/015=
ZZYY 41697 11014 1501/ 723426 036005 6113/
22219 00238
33311 88872 20000 32376 43637
444 50101 80001 80102 9/015=
ZZYY 41697 11014 1431/ 723427 036004 6113/
22219 00237
33311 88872 20000 32370 43640
444 50101 80001 80102 9/015=
ZZYY 41697 11014 1400/ 723428 036004 6113/
22219 00236
33311 88872 20000 32364 43637
444 50101 80001 80102 9/015=
ZZYY 41697 11014 1330/ 723430 036005 6113/
22219 00236
33311 88872 20000 32358 43636
444 50101 80001 80102 9/015=
ZZYY 13520 11014 1511/ 735491 029340 6111/
22219 00186
444 20110 11014 1505/ 50101 80100 80008 9/015=
ZZYY 13568 11014 1501/ 729673 017883 6113/
22219 00204
33311 88872 20000 32036 43692
444 50101 80018 80094 9/015=
ZZYY 13568 11014 1431/ 729674 017884 6113/
22219 00204
33311 88872 20000 32036 43692
444 50101 80018 80092 9/015=
ZZYY 13568 11014 1401/ 729674 017885 6113/
22219 00204
33311 88872 20000 32035 43692
444 50101 80019 80094 9/015=
ZZYY 13568 11014 1331/ 729675 017886 6113/
22219 00203
33311 88872 20000 32034 43692
444 50101 80019 80094 9/015=
ZZYY 41692 11014 1501/ 725438 035000 6113/
22219 00233
33311 88872 20000 32328 43748
444 50101 80005 80102 9/015=
ZZYY 41692 11014 1431/ 725441 034998 6113/
22219 00232
33311 88872 20000 32320 43748
444 50101 80005 80102 9/015=
ZZYY 41692 11014 1401/ 725444 034996 6113/
22219 00232
33311 88872 20000 32324 43748
444 50101 80004 80102 9/015=
ZZYY 41692 11014 1331/ 725447 034994 6113/
22219 00233
33311 88872 20000 32325 43748
444 50101 80004 80102 9/015=
ZZYY 41974 11014 1507/ 723385 042874 6112/
22219 00238
444 20120 11014 1503/ 50101 80102 80002 9/015=
ZZYY 13645 11014 1508/ 725036 035862 6113/
22219 00246
444 20130 11014 1504/ 50101 80100 80013 9/015=
ZZYY 41720 11014 1508/ 724556 044878 6111/
22219 00243
444 20110 11014 1503/ 50101 80070 80007 9/015=
ZZYY 15914 11014 1501/ 706270 035268 6112/
22219 00273
444 20120 11014 1313/ 50101 80100 80005 9/015=
ZZYY 41623 11014 1512/ 732237 034766 6112/
22219 00203
444 20120 11014 1505/ 50101 80102 80037 9/015=
ZZYY 13588 11014 1512/ 732625 038966 6112/
22219 00205
444 20120 11014 1505/ 50101 80102 80014 9/015=
ZZYY 41929 11014 1500/ 739930 042188 6111/
11119 40249 57004
22219 00164
444 2011/ 11014 1507/ 50101 80109 80026 9/015=
ZZYY 13655 11014 1508/ 719810 030432 6112/
22219 00245
444 20120 11014 1504/ 50101 80100 80011 9/015=
ZZYY 15618 11014 1503/ 704106 010278 6111/
22219 00287
444 20110 11014 1116/ 50101 80102 80003 9/015=
ZZYY 13656 11014 1504/ 719307 037433 6112/
22219 00251
444 20120 11014 1310/ 50101 80102 80014 9/015=
ZZYY 41997 11014 1500/ 743180 045535 6111/
22219 00165
444 2011/ 11014 1507/ 50101 80102 80040 9/015=
ZZYY 41997 11014 1515/ 743180 045535 6111/
22219 00165
444 2011/ 11014 1507/ 50101 80102 80040 9/015=
ZZYY 61652 11014 1506/ 139210 002488 6111/
22219 00149
444 20110 11014 1332/ 50101 80104 80017 9/015=
ZZYY 41700 11014 1500/ 729532 042826 6113/
22219 00226
33311 88872 20000 32258 43724
444 50101 80021 80104 9/015=
ZZYY 41700 11014 1430/ 729535 042827 6113/
22219 00226
33311 88872 20000 32258 43724
444 50101 80017 80104 9/015=
ZZYY 41700 11014 1400/ 729539 042827 6113/
22219 00226
33311 88872 20000 32258 43724
444 50101 80017 80104 9/015=
ZZYY 41700 11014 1330/ 729542 042827 6113/
22219 00226
33311 88872 20000 32258 43724
444 50101 80014 80104 9/015=
ZZYY 13654 11014 1506/ 715856 031675 6111/
22219 00249
444 20110 11014 1503/ 50101 80100 80011 9/015=
ZZYY 13518 11014 1508/ 723091 037828 6111/
22219 00236
444 20110 11014 1504/ 50101 80096 80055 9/015=
ZZYY 41624 11014 1508/ 724104 041413 6111/
22219 00240
444 20110 11014 1504/ 50101 80098 80057 9/015=
ZZYY 41912 11014 1511/ 735434 062186 6111/
22219 00208
444 20110 11014 1509/ 50101 80102 80024 9/015=
0000011000
034
UANT01 CWAO 111519
ARP BAW67V 5257N03112W 1519 F380 MS54 198/39 KT
GVIIG QXT AOE 111519 F21A
00000000