0000066100
395
UDAF01 FAPR 111506
AMDAR 1115
DES AFZA46 2616S 02812E 111502 F077 PS195 242/010 TB0 S031 333 F/// VG013=
DES AFZA46 2615S 02812E 111503 F075 PS202 209/004 TB0 S031 333 F/// VG013=
DES AFZA46 2614S 02812E 111503 F072 PS212 288/005 TB0 S031 333 F/// VG013=
DES AFZA46 2613S 02813E 111504 F068 PS223 261/004 TB0 S031 333 F/// VG013=
DES AFZA46 2612S 02813E 111504 F064 PS241 281/008 TB0 S031 333 F/// VG013=
DES AFZA46 2610S 02813E 111505 F061 PS242 304/008 TB1 S031 333 F/// VG024=
DES AFZA46 2609S 02814E 111505 F058 PS248 305/004 TB1 S031 333 F/// VG024=
DES AFZA46 2608S 02814E 111505 F055 PS257 295/003 TB1 S031 333 F/// VG024=
0000066100
396
UDAF01 FAPR 111506
AMDAR 1115
LVR AFZA61 2619S 01652W 111416 F380 MS523 230/020 TB0 S031 333 F/// VG000=
LVR AFZA61 2614S 01751W 111423 F400 MS565 242/024 TB0 S031 333 F/// VG000=
LVR AFZA61 2608S 01848W 111430 F400 MS570 248/023 TB0 S031 333 F/// VG000=
LVR AFZA61 2602S 01945W 111437 F400 MS572 231/022 TB0 S031 333 F/// VG000=
LVR AFZA61 2601S 02044W 111444 F400 MS579 219/022 TB0 S031 333 F/// VG000=
LVR AFZA61 2601S 02142W 111451 F400 MS580 217/018 TB0 S031 333 F/// VG000=
LVR AFZA61 2601S 02241W 111458 F400 MS582 225/019 TB0 S031 333 F/// VG000=
LVR AFZA61 2601S 02339W 111505 F400 MS580 219/019 TB0 S031 333 F/// VG000=
0000012600
397
SITH43 VTBB 111500 RRA
AAXX 11154
48419 31958 20609 10254 20202 30144 40152 52018 71000 80005
  333 58003=
0000009000
398
SIQT20 OTBD 111500
AAXX 11154
41164 46/// /2107 10152 20132 30183 40205=
0000015600
399
SAAE31 VTBB 111500 RRA
METAR VTCC 111500Z 00000KT CAVOK 21/16 Q1019 A3009 NOSIG=
METAR VLVT 111500Z 32002KT 3000 BR NSC 22/18 Q1017 NOSIG=
0000074000
400
SDTH20 VTBB 111500
FFBB 1115/ 48300 NIL=
FFBB 1115/ 48303 00000=
FFBB  1115/ 48327 00000=
FFBB  1115/ 48356 00000=
FFBB  1115/ 48378 00000=
FFBB 1115/ 48381 00000=
FFBB 1115/ 48407 00000=
FFBB 1115/ 48413 NIL=
FFBB 1115/ 48417 00000=
FFBB 1115/ 48432 0/0/0=
FFBB 1115/ 48456 NIL=
FFBB 1115/ 48475 00000=
FFBB 1115/ 48478 00000=
FFBB 1115/ 48517 645/5 655/3 745/3 755/3 765/3 61616 6412 742 7513
763=
FFBB  1115/ 48551 0/0/0/=
FFBB  1115/ 48565 165/3 /555/ 16161=
FFBB 1115/ 48567 NIL=
FFBB 1115/ 48568 234/3 335/3 445/5 457/5 545/3 674/3 724/3 734/3
745/3 755/5 765/3 775/3 845/3 855/3 865/3 61616 231 333 4512 541 674
724 733 74234 764 7734 8414 85125 8612=
FFBB 1115/ 48583 0/0/0=
0000235500
401
SIKO21 RKSL 111500
AAXX 11154
47090 32970 32714 10015 21113 30237 40260 57007 80001=
47095 32565 53601 11063 21122 30095 40295 58006 85500=
47097 329// /0502 11031 21099 30196 40297 57007=
47098 329// /3601 11045 21117 30150 40291 58007=
47099 329// /0000 11062 21117 30254 40293 58009=
47100 32965 22512 11062 21131 39322 40281 57009 80001=
47102 32964 02910 10014 21087 30106 40289 57006=
47104 32970 22908 10004 21148 30168 40268 57007 80001=
47106 329// /3404 10007 21137 30220 40271 57007=
47112 32970 02004 11008 21094 30204 40291 57008=
47114 32662 60001 11035 21097 30105 40296 57008 85500=
47119 32662 30001 11031 21104 30252 40296 57009 83500=
47121 329// /0000 11043 21127 39989 40298 57005=
47127 329// /0001 11016 21097 30151 40298 57008=
47129 31656 60000 11025 21036 30263 40300 57008 71022 85500=
47130 32962 42507 10008 21116 30206 40270 57009 80001=
47131 31659 61601 10002 21071 30224 40297 57010 70522 85500=
47135 329// /2904 11017 21078 39986 40296 58013=
47136 32661 43202 11025 21105 30112 40292 57009 81501=
47137 329// /2504 11008 21082 30171 40294 58010=
47140 31656 60704 11011 21031 30268 40298 57013 71022 86500=
47143 329// /2903 11001 21078 30217 40299 58010=
47145 32662 61802 11014 21077 30260 40287 57011 86500=
47146 31958 21601 11026 21071 30233 40302 57010 70500 80001=
47150 31650 60202 11013 21041 30276 40296 57010 71022 86500=
47152 31958 02702 11006 21076 30239 40283 58011 70500=
47154 329// /2702 11038 21074 30233 40296 57010=
47155 32960 00000 10001 21076 30240 40288 58009=
47156 32665 62501 11007 21051 30213 40306 58008 85500=
47157 31956 00001 11063 21098 30007 40299 58005 71000=
47162 32960 03603 11004 21046 30245 40287 58011=
47169 32662 22905 10035 21035 30204 40300 57011 82500=
47170 32970 22903 10003 21074 30255 40300 58011 80001=
47171 329// /1403 11018 21075 30245 40302 57012=
47172 329// /0901 11023 21052 30228 40298 57011=
47173 329// /0504 11040 21069 30133 40298 58009=
47174 32962 00000 11044 21070 30086 40299 58007=
47175 32965 03208 11021 21052 39707 40303 57010=
47185 32668 23610 10042 21033 30206 40299 57008 82500=
47188 32666 22904 10025 21024 30271 40294 57006 82500=
47189 32670 23603 10041 21008 30227 40288 58007 81500=
47192 31958 00000 11054 21081 30255 40294 58009 71000=
0000089100
402
SIBY20 UMMN 111500
AAXX 11151
26554 /1460 72703 10004 21019 39881 40046 51008 70282 879// 333
85916 91110 555 69938=
26666 /1560 72604 10008 21021 39824 40039 52022 70272 87500 333
87629 91113 555 69938=
26850 /1465 82802 10025 20001 39793 40077 52008 76176 885// 333 88716
555 69908=
26863 /2660 73011 10010 21016 39821 40058 52012 875// 333
87636 91013 91116 555 69908=
26941 /1560 72704 10043 20009 39866 40103 52006 70282 87500 333 87622
555 69908=
26951 /1570 72704 10034 20024 39895 40095 52008 72522 87900 333 87928
91111 555 69938=
33008 32560 72503 10049 20007 39958 40137 58001 87500=
33019 /2660 72803 10052 20008 39949 40123 52009 875// 333 87642 91110
555 60018=
33036 /1356 82604 10035 20022 39873 40104 52014 78082 889// 333
91110 555 60028=
33041 /2560 72904 10037 21016 39927 40083 52018 87500 333 87622
91110 555 69908=
0000121200
403
SIUR21 UKMS 111500
AAXX 11151
33088 42597 52704 10045 21003 39947 40139 52007 82570=
33177 42578 71602 10048 20007 39916 40154 58001 87500=
33261 42597 62703 10038 21005 39899 40082 52020 86900=
33275 42597 82807 10034 21003 39852 40076 52024 8535/=
33301 42597 72607 10038 21002 39871 40155 52004 85550 333
85631=
33325 42997 82803 10046 21010 39876 40142 52011 80005=
33377 42597 52905 10045 20015 39918 40112 52020 85300=
33415 42697 72805 10045 21038 39779 40180 53005 86530=
33429 42797 72607 10040 21021 39749 40178 52008 87500 333
87650=
33466 42989 22806 10048 21005 39950 40138 52016 81031=
33526 42760 32404 10047 21045 39848 40191 57003 82530=
33562 42597 72706 10042 21023 39803 40167 52010 85530 333
85626=
33614 41566 82907 10052 21001 30023 40127 52018 70262 885//
333 88626=
33761 42598 22903 10047 21034 39950 40175 52003 81531=
33902 42897 52602 10055 21030 30102 40169 53011 82051=
33983 42997 02506 10055 21016 30129 40190 52008=
34415 41597 62905 10039 20013 39998 40095 53023 72582 86400=
34523 41597 82305 10059 20011 30012 40088 52013 70382 885//
333 88631=
34712 42598 82607 10060 20006 30056 40142 52013 885// 333
88622=
0000046600
404
SIKY20 UAFF 111500
AAXX 11151
38353 329// 02201 11015 21116 39359 40288 52003 333 10038=
38613 329// 00101 11048 21101 40307 53010 333 10030=
38616 329// 01602 11051 21083 39244 40308 53012 333 10023=
38345 32998 00000 11054 21114 38823 48507 54000 333 10043=
36911 329// 00702 11066 21114 39290 40303 54000 333 10046=
36974 329// 00901 11193 21234 38030 48618 53009 333 11119=
36982 329// 02501 11215 21263 36539 47214 58004 333 11124=
0000025200
405
SIAY20 UGEE 111500
AAXX 11151
37682 32997 40000 11095 21102 38115 48524 57003 84040 555 11040=
37717 325// 62002 11068 21130 38054 48489 57005 83531 555 11015=
37788 12495 62402 11102 21121 39259 40333 52002 71072 866// 333 86713=
0000092800
406
SIPF20 NTAA 111500
AAXX 11154
91925 21582 30604 10247 20206 30047 40108 53014 70060 83800
  333 56200 60017 82823 90710 91109
  555 60005 10721 59005=
91929 24968 /1008 10262 20231 30100 40103 55000 700//
  333 4//// 69907 90710 91121
  555 60005=
91938 24986 /1102 10237 20198 30112 40114 53008 700//
  333 4//// 60007 90710 91107
  555 60005 10807 59007=
91943 46/// /0513 10264 20235 30108 40111 53008
  333 59004=
91944 24564 /0917 1//// 2//// 30133 4//// 53010 700//
  333 4//// 6///7 90710 91121
  555 6///5=
91948 22570 10906 10250 20198 30086 40188 53014 81101
  333 56209 60007 81821 90710 91115
  555 60005 11017 59002=
91954 26/// /0709 10251 20220 30148 40151 53005
  333 4//// 60007 90710 91116
  555 60005 10716 58001=
91958 22475 70911 10240 20224 30203 40205 53008 878//
  333 56299 60007 81810 86813 90710 91121
  555 60005 10721 58004=
91945 NIL=
0000054100
407
SIMJ20 MJSK 111500
AAXX 11151
13586 31502 80000 10013 20006 39957 40258 57007 74442 886//=
13493 42998 50000 10097 20025 39411 40220 80006=
13577 42598 43204 10060 21022 38704 48527 56006 81502=
13578 41/92 90000 10051 20040 37008 48527 54000 74544 333 90489=
13579 31111 80000 10038 20029 39409 40260 56001 71044 886//=
13583 41/92 90000 10030 20028 39539 40249 54000 74474=
13591 41494 82301 10031 20028 39843 40245 55007 71042 886// 333
90537=
13592 41494 80000 10037 20020 30093 40251 56008 71044 886//=
0000114600
408
SNCN19 CWAO 111418
OOXX
MYP42 11121 99045 11014 ///// 15551
     26/// /0101 10183 29080 38444 91217 333 60000=
MYP42 11121 99045 11014 ///// 15551
     26/// /0701 10180 29080 38440 91227 333 60000=
MYP42 11121 99045 11014 ///// 15551
     26/// /1401 10182 29081 38444 91237 333 60000=
MYP42 11121 99045 11014 ///// 15551
     26/// /0601 10178 29081 38442 91247 333 60000=
MYP42 11121 99045 11014 ///// 15551
     26/// /0701 10180 29081 38438 91257 333 60000=
MYP42 11131 99045 11014 ///// 15551
     26/// /1001 10180 29080 38434 91307 333 60000=
MYP42 11131 99045 11014 ///// 15551
     26/// /0801 10180 29081 38436 91317 333 60000=
MYP42 11131 99045 11014 ///// 15551
     26/// /0701 10180 29081 38447 91327 333 60000=
MYP42 11131 99045 11014 ///// 15551
     26/// /1501 10180 29080 38453 91337 333 60000=
MYP42 11131 99045 11014 ///// 15551
     26/// /1001 10180 29080 38449 91347 333 60000=
MYP42 11131 99045 11014 ///// 15551
     26/// /1801 10180 29080 38447 91357 333 60000=
MYP42 11141 99045 11014 ///// 15551
     26/// /0401 10180 29080 38455 91407 333 60000=

0000114600
409
SNCN19 CWAO 111427
OOXX
CAP16 11121 99624 71145 ///// 02061
     26/// /0401 11266 29067 39624 91220 333 60000=
CAP16 11121 99624 71145 ///// 02061
     26/// /0601 11266 29067 39623 91230 333 60000=
CAP16 11121 99624 71145 ///// 02061
     26/// /0801 11265 29067 39623 91240 333 60000=
CAP16 11121 99624 71145 ///// 02061
     26/// /0801 11264 29067 39623 91250 333 60000=
CAP16 11131 99624 71145 ///// 02061
     26/// /0801 11263 29067 39623 91300 333 60000=
CAP16 11131 99624 71145 ///// 02061
     26/// /0701 11263 29067 39621 91310 333 60000=
CAP16 11131 99624 71145 ///// 02061
     26/// /0101 11263 29067 39620 91320 333 60000=
CAP16 11131 99624 71145 ///// 02061
     26/// /0201 11263 29067 39619 91330 333 60000=
CAP16 11131 99624 71145 ///// 02061
     26/// /0301 11262 29067 39615 91340 333 60000=
CAP16 11131 99624 71145 ///// 02061
     26/// /0101 11262 29067 39614 91350 333 60000=
CAP16 11141 99624 71145 ///// 02061
     26/// /3601 11262 29067 39612 91400 333 60000=
CAP16 11141 99624 71145 ///// 02061
     26/// /3601 11262 29067 39611 91410 333 60000=

0000114600
410
SNCN19 CWAO 111401
OOXX
CAP14 11121 99487 71234 ///// 00431
     26/// /2403 10080 29083 39868 91200 333 69980=
CAP14 11121 99487 71234 ///// 00431
     26/// /2503 10078 29083 39866 91210 333 69960=
CAP14 11121 99487 71234 ///// 00431
     26/// /2404 10077 29081 39869 91220 333 69920=
CAP14 11121 99487 71234 ///// 00431
     26/// /2304 10075 29079 39869 91230 333 69940=
CAP14 11121 99487 71234 ///// 00431
     26/// /2305 10076 29078 39867 91240 333 60000=
CAP14 11121 99487 71234 ///// 00431
     26/// /2302 10073 29081 39866 91250 333 69920=
CAP14 11131 99487 71234 ///// 00431
     26/// /1902 10072 29081 39862 91300 333 60000=
CAP14 11131 99487 71234 ///// 00431
     26/// /2302 10075 29080 39860 91310 333 60000=
CAP14 11131 99487 71234 ///// 00431
     26/// /2404 10077 29079 39857 91320 333 60000=
CAP14 11131 99487 71234 ///// 00431
     26/// /2204 10079 29078 39860 91330 333 60000=
CAP14 11131 99487 71234 ///// 00431
     26/// /2304 10078 29080 39860 91340 333 69940=
CAP14 11131 99487 71234 ///// 00431
     26/// /2505 10077 29078 39861 91350 333 69940=

0000114600
411
SNCN19 CWAO 111404
OOXX
NOP49 11121 99782 10154 ///// 04691
     26/// /2310 11041 29094 39523 91210 333 6///0=
NOP49 11121 99782 10154 ///// 04691
     26/// /2309 11042 29095 39525 91220 333 6///0=
NOP49 11121 99782 10154 ///// 04691
     26/// /2309 11041 29094 39523 91230 333 6///0=
NOP49 11121 99782 10154 ///// 04691
     26/// /2310 11041 29093 39523 91240 333 6///0=
NOP49 11121 99782 10154 ///// 04691
     26/// /2310 11040 29090 39522 91250 333 6///0=
NOP49 11131 99782 10154 ///// 04691
     26/// /2309 11040 29089 39523 91300 333 6///0=
NOP49 11131 99782 10154 ///// 04691
     26/// /2309 11040 29089 39522 91310 333 6///0=
NOP49 11131 99782 10154 ///// 04691
     26/// /2309 11041 29093 39523 91320 333 6///0=
NOP49 11131 99782 10154 ///// 04691
     26/// /2308 11041 29093 39522 91330 333 6///0=
NOP49 11131 99782 10154 ///// 04691
     26/// /2308 11041 29093 39522 91340 333 6///0=
NOP49 11131 99782 10154 ///// 04691
     26/// /2308 11041 29094 39521 91350 333 6///0=
NOP49 11141 99782 10154 ///// 04691
     26/// /2309 11041 29095 39522 91400 333 6///0=

0000114600
412
SNCN19 CWAO 111417
OOXX
ARP01 11121 99345 50585 ///// 00311
     26/// /1605 10459 29/// 30155 91210 333 60000=
ARP01 11121 99345 50585 ///// 00311
     26/// /1605 10460 29/// 30154 91220 333 60000=
ARP01 11121 99345 50585 ///// 00311
     26/// /1605 10460 29/// 30154 91230 333 60000=
ARP01 11121 99345 50585 ///// 00311
     26/// /1605 10463 29/// 30155 91240 333 60000=
ARP01 11121 99345 50585 ///// 00311
     26/// /1606 10465 29/// 30156 91250 333 60000=
ARP01 11131 99345 50585 ///// 00311
     26/// /1405 10468 29/// 30156 91300 333 60000=
ARP01 11131 99345 50585 ///// 00311
     26/// /1604 10471 29/// 30156 91310 333 60000=
ARP01 11131 99345 50585 ///// 00311
     26/// /1604 10475 29/// 30156 91320 333 60000=
ARP01 11131 99345 50585 ///// 00311
     26/// /1606 10476 29/// 30158 91330 333 60000=
ARP01 11131 99345 50585 ///// 00311
     26/// /1606 10476 29/// 30160 91340 333 60000=
ARP01 11131 99345 50585 ///// 00311
     26/// /1605 10479 29/// 30161 91350 333 60000=
ARP01 11141 99345 50585 ///// 00311
     26/// /1604 10481 29/// 30162 91400 333 60000=

0000114600
413
SNCN19 CWAO 111459
OOXX
CMP13 11121 99038 10102 ///// 01281
     26/// /0000 10327 29053 39966 91250 333 60000=
CMP13 11131 99038 10102 ///// 01281
     26/// /0000 10325 29054 39963 91300 333 60000=
CMP13 11131 99038 10102 ///// 01281
     26/// /0000 10326 29053 39962 91310 333 60000=
CMP13 11131 99038 10102 ///// 01281
     26/// /0000 10326 29055 39961 91320 333 60000=
CMP13 11131 99038 10102 ///// 01281
     26/// /0000 10325 29054 39957 91330 333 60000=
CMP13 11131 99038 10102 ///// 01281
     26/// /0000 10322 29054 39956 91340 333 60000=
CMP13 11131 99038 10102 ///// 01281
     26/// /0000 10324 29054 39956 91350 333 60000=
CMP13 11141 99038 10102 ///// 01281
     26/// /0000 10327 29052 39955 91400 333 60000=
CMP13 11141 99038 10102 ///// 01281
     26/// /0000 10326 29054 39954 91410 333 60000=
CMP13 11141 99038 10102 ///// 01281
     26/// /0000 10333 29053 39952 91420 333 60000=
CMP13 11141 99038 10102 ///// 01281
     26/// /0000 10330 29051 39951 91430 333 60000=
CMP13 11141 99038 10102 ///// 01281
     26/// /0000 10327 29051 39952 91440 333 60000=

0000114600
414
SNCN19 CWAO 111403
OOXX
ISP34 11121 99641 70219 ///// 01301
     26/// /3302 11001 29071 39952 91210 333 6///0=
ISP34 11121 99641 70219 ///// 01301
     26/// /3302 11001 29071 39953 91220 333 6///0=
ISP34 11121 99641 70219 ///// 01301
     26/// /3301 10000 29071 39953 91230 333 6///0=
ISP34 11121 99641 70219 ///// 01301
     26/// /3101 10002 29070 39954 91240 333 6///0=
ISP34 11121 99641 70219 ///// 01301
     26/// /2901 10002 29071 39954 91250 333 6///0=
ISP34 11131 99641 70219 ///// 01301
     26/// /3102 10003 29071 39954 91300 333 6///0=
ISP34 11131 99641 70219 ///// 01301
     26/// /3102 10003 29070 39956 91310 333 6///0=
ISP34 11131 99641 70219 ///// 01301
     26/// /2902 10003 29071 39958 91320 333 6///0=
ISP34 11131 99641 70219 ///// 01301
     26/// /2502 10003 29071 39959 91330 333 6///0=
ISP34 11131 99641 70219 ///// 01301
     26/// /2202 10002 29072 39960 91340 333 6///0=
ISP34 11131 99641 70219 ///// 01301
     26/// /2702 11002 29072 39961 91350 333 6///0=
ISP34 11141 99641 70219 ///// 01301
     26/// /2302 11005 29072 39961 91400 333 6///0=

00000000