0000059300
355
SIVB21 RJTD 111500
BBXX
SHIP    11154 99173 11176
41/98 /0527 10245 20194 40166 50003 70100 8////
22253 00250 80210=
H9XE    11154 99365 11412
41797 60217 10030 21022 40278 52018 70222 85625
22243 00120 20202 31008 40102 50202 80010=
SHIP    11154 99113 11422
41/97 60716 10266 20247 40112 53000 70311 8//// 9////
22221 06286 6//// 80252=
SHIP    11154 99135 11500
41697 60209 10270 20243 40146 55010 70211 86///
22283 00310 20104 302// 40104 80250=
SHIP    11154 99333 11361
41598 10314 10090 21001 40249 57032 70111 81400
22214 00190 80050 NNNN=
0000068900
356
UDEU02 EGRR 111530 RRB
AMDAR 1115
UNS EU0164   5914N 01551E 111520 F250 MS430 256/064 TB/ S031=
DES EU0164   5915N 01559E 111521 F234 MS390 256/062 TB/ S031=
DES EU0164   5917N 01608E 111522 F219 MS350 258/057 TB/ S031=
DES EU0164   5919N 01617E 111522 F203 MS320 262/053 TB/ S031=
DES EU0164   5921N 01625E 111523 F188 MS290 264/048 TB/ S031=
DES EU0164   5923N 01633E 111524 F172 MS260 265/047 TB/ S031=
DES EU0164   5924N 01641E 111524 F160 MS240 267/046 TB/ S031=
DES EU0164   5926N 01648E 111525 F151 MS230 270/045 TB/ S031=
DES EU0164   5927N 01655E 111526 F139 MS220 270/040 TB/ S031=
DES EU0164   5928N 01702E 111526 F128 MS210 283/035 TB/ S031=
0000003900
357
SIVD21 RJTD 111500
NIL=
0000069700
358
UDEU02 EGRR 111530 RRC
AMDAR 1115
ASC EU0103   5217N 00445E 111523 F000 PS070 292/007 TB1 S031
333 F000 VG024=
ASC EU0103   5217N 00445E 111523 F002 PS062 305/015 TB1 S031
333 F002 VG024=
ASC EU0103   5217N 00444E 111523 F004 PS057 300/016 TB1 S031
333 F004 VG020=
ASC EU0103   5217N 00444E 111523 F007 PS049 299/020 TB0 S031
333 F007 VG017=
ASC EU0103   5217N 00444E 111523 F010 PS042 295/022 TB0 S031
333 F010 VG016=
ASC EU0103   5217N 00444E 111523 F013 PS033 301/025 TB0 S031
333 F013 VG016=
ASC EU0103   5216N 00443E 111523 F016 PS025 302/025 TB0 S031
333 F016 VG011=
ASC EU0103   5216N 00443E 111523 F018 PS020 303/025 TB0 S031
333 F018 VG005=
0000034300
359
SNVD15 KWNB 111300 RRX
BBXX
42369 11131 99272 70903 46/// /2003 1//// 91320=
42375 11131 99285 70883 46/// /2011 1//// 91320 22200 10402 70011
555 11089 22096=
42392 11131 99272 70900 46/// ///// 1//// 91320 22200 10402 70009=
42887 11131 99282 70885 46/// /2207 10225 20203 91320 22200 10402
70010 555 11058 22063=
0000068500
360
UDAF02 EGRR 111530
AMDAR 1115
ASC EU4607   2857N 01336W 111522 F000 PS173 188/003 TB/ S031=
ASC EU4607   2857N 01336W 111522 F000 PS171 174/003 TB/ S031=
ASC EU4607   2856N 01336W 111522 F002 PS165 173/003 TB/ S031=
ASC EU4607   2856N 01336W 111522 F005 PS158 135/001 TB/ S031=
ASC EU4607   2856N 01336W 111523 F008 PS153 131/002 TB/ S031=
ASC EU4607   2856N 01337W 111523 F010 PS148 094/003 TB/ S031=
ASC EU4607   2856N 01337W 111523 F012 PS148 081/005 TB/ S031=
ASC EU4607   2855N 01337W 111523 F013 PS146 067/005 TB/ S031=
ASC EU4607   2855N 01337W 111523 F014 PS145 051/005 TB/ S031=
ASC EU4607   2855N 01337W 111523 F015 PS143 037/006 TB/ S031=
0000003900
361
SIVE21 RJTD 111500
NIL=
0000013000
362
SIAL22 DAMM 111500 RRC
AAXX 11154
60457 41560 80000 10151 20105 40184 56011 76022 8357/ 333 83620 86460
95900=
0000011000
363
UANT01 CWAO 111527
ARP BAW43C 5118N03803W 1527 F370 MS55 290/43 KT
GVIIR QXT AOE 111527 F27A
0000011100
364
UANT01 CWAO 111527
ARP GEC8221 5517N05314W 1526 F350 MS60 292/85 KT
DALCA QXT IGW 111527 F95A
0000012400
365
SISV01 FDMS 111500
AAXX 11154
68298 46/// /0000 1//// 2//// 38918 4//// 52003
      333 1//// 2//// 555=
0000117600
366
SINR20 DRRN 111500
AAXX 11154
61017 42960 50000 10250 20036 39778 40196 80002
  333 58011 85080=
61024 41956 11022 10261 21001 39591 40160 70700 80002
  333 58002 81080=
61036 41958 71206 10310 20032 39886 40123 70522 80008
  333 58011 87280=
61043 41925 71214 10290 21018 39692 40133 70722 80008
  333 58010 87280=
61045 41928 70804 10265 21055 39644 40144 7062/ 80008
  333 58002 87280=
61049 42960 70804 10272 20002 39819 40140 80008
  333 58008 87280=
61052 41930 30808 10305 20038 39876 40130 70600 80002
  333 58013 83080=
61053 41925 70806 10296 21010 39/// 4//// 7062/ 80008
  333 5//// 87280=
61075 41956 71204 10298 20020 39826 40132 70622 80008
  333 58009 87280=
61080 41912 70404 10271 21039 39716 40138 70642 80008
  333 58010 87280=
61085 42965 50808 10276 20048 39797 40225 80002
  333 58000 85080=
61090 41940 70208 10266 21053 39625 40136 70622 80008
  333 59001 87280=
61091 41940 70806 10269 20029 39691 40149 7062/ 80008
  333 58000 87280=
61096 42960 70806 10276 21012 39759 40142 80008
  333 58000 87280=
61099 41958 70608 10325 20060 39875 40101 70622 80008
  333 58011 87280=
0000035800
367
SIIN20 DEMS 111500
AAXX 11154
42101 31994 03202 10106 20088 40212 71000
  333 58039=
42361 31994 00000 10110 20090 40204 71044
  333 58044=
42027 NIL=
42071 NIL=
42111 NIL=
42131 NIL=
42165 NIL=
42182 NIL=
42189 NIL=
42260 NIL=
42328 NIL=
42339 NIL=
42348 NIL=
42369 NIL=
42379 NIL=
42452 NIL=
42475 NIL=
0000010400
368
SIIN20 DEMS 111500
AAXX 11153
42071 31995 00000 10126 20107 40213 71011
  333 58028=
0000134100
369
SIIN21 DEMS 111500
AAXX 11154
42309 21495 60000 10164 20143 40167 70522 83530
  333 59001 6990/=
42314 21495 70000 10180 20130 40168 70596 83530
  333 58000 6990/ 83618 86360=
42410 21495 80000 10170 20160 40179 71062 8432/
  333 58007 6990/ 84618 81925 88458=
42415 21596 70000 10180 20134 40194 75022 84530
  333 58006 6990/ 84620 85360=
42492 21494 70904 10150 20143 40179 76062 83530
  333 58021 6004/ 83618 85360=
42587 21494 80000 10164 20161 40176 75052 84520
  333 58027 6007/ 84615 88458=
42591 21494 73602 10148 20145 40184 72996 85720
  333 58030 6013/ 81710 84618 86458=
42623 31496 41804 10138 20093 39282 40171 70520 82530
  333 58004 82618 83360=
42701 21391 80503 10128 20106 39433 40186 79596 8492/
  333 58013 6006/ 84615 81930 88458=
42724 31995 40000 10154 20136 40169 71022 84030
  333 58002 84360=
42798 31595 71404 10190 20114 40174 70522 84430
  333 58022 83620 83825 86360=
42809 31995 03404 10186 20141 40170 70500
  333 58008=
42886 31996 00901 10220 20164 40145 70540
  333 58002=
42895 31995 00902 10190 20163 40162 70500
  333 58004=
42971 31995 01104 10216 20181 40165 70500
  333 58003=
43333 21495 80708 10262 20239 40149 72162 86431
  333 56299 58009 6993/ 83616 84818 85358=
42398 NIL=
42706 NIL=
42977 NIL=
43368 NIL=
0000067900
370
SIIN22 DEMS 111500
AAXX 11154
42559 32996 23601 10126 20076 40196 80002
  333 58050 82075=
42667 31995 00206 10138 20117 39586 40194 71044
  333 58047=
42675 31494 60503 10146 20116 40193 71044 86600
  333 58053 86710=
42754 31992 00000 10134 20109 39532 40189 71051
  333 58043=
42779 21596 83606 10162 20152 39467 40179 70262 8552/
  333 58028 6003/ 85620 88458=
42867 31995 20506 10212 20151 40157 70511 80001
  333 58024 82075=
42874 32596 60000 10234 20180 40151 83530
  333 58016 83625 85360=
42933 32996 23203 10200 20122 40156 80001
  333 58034 82075=
43041 32996 00000 10210 20162 39538 40161
  333 58008=
42571 NIL=
0000011000
371
SIIN22 DEMS 111500
AAXX 11153
42571 31594 83201 10140 20122 40190 71042 8553/
  333 58045=
0000024700
372
SIIN23 DEMS 111500
AAXX 11154
43014 32996 03203 10184 20085 39481 40138
  333 58007=
42634 NIL=
42647 NIL=
42737 NIL=
42840 NIL=
42909 NIL=
42921 NIL=
43003 NIL=
43063 NIL=
43110 NIL=
43117 NIL=
43192 NIL=
0000035700
373
SIIN24 DEMS 111500
AAXX 11154
43086 NIL=
43128 NIL=
43150 NIL=
43185 NIL=
43189 NIL=
43198 NIL=
43201 NIL=
43213 NIL=
43226 NIL=
43233 NIL=
43237 NIL=
43245 NIL=
43279 NIL=
43284 NIL=
43295 NIL=
43311 NIL=
43314 NIL=
43321 NIL=
43329 NIL=
43344 NIL=
43346 NIL=
43353 NIL=
43369 NIL=
43371 NIL=
0000040900
374
SIIN44 DEMS 111500
AAXX 11154
43081 NIL=
43087 NIL=
43105 NIL=
43121 NIL=
43125 NIL=
43136 NIL=
43161 NIL=
43169 NIL=
43177 NIL=
43181 NIL=
43205 NIL=
43221 NIL=
43225 NIL=
43226 NIL=
43241 NIL=
43271 NIL=
43287 NIL=
43291 NIL=
43303 NIL=
43311 NIL=
43317 NIL=
43325 NIL=
43326 NIL=
43347 NIL=
43352 NIL=
43360 NIL=
43363 NIL=
43376 NIL=
00000000