0000010200
755
SIAA21 EDZW 111500
AAXX 11154
89002 42999 70908 10008 21020 39876 49929 52002 86031=
0000003900
756
SIVA21 ESWI 111500
NIL=
0000003900
757
SIVB21 ESWI 111500
NIL=
0000003900
758
SIVF21 ESWI 111500
NIL=
0000003900
759
SIVC21 ESWI 111500
NIL=
0000003900
760
SIVE21 ESWI 111500
NIL=
0000010900
761
UANT99 KDDL 111513
ARP FDX8 5709N03847W 1513 F330 MS57 229/31 KT
N880FD QXT AME 111513 F47A
0000011000
762
UANT99 KDDL 111514
ARP AFR378 5302N01601W 1514 F320 MS56 222/76 KT
FGLZJ DDL BYT 111514 J14A
0000011000
763
UANT99 KDDL 111514
ARP AAL47 5513N01600W 1513 F360 MS64 236/72 KT
N754AN DDL BLY 111514 F31A
0000018400
764
SIOM20 OOMS 111500 RRC
AAXX 11154
41280 26/// /0204 10196 20073 30079 40221
333 0E013 59015 70000 =
41315 36/// /1510 10154 20132 39185 42823
333 0E/// 59003  =
0000039800
765
SWIO40 RJTD 111515
:PRS 1 #1 1817 1821 1815 1812 1795 1806 1799 1805 1802 1800 1795 1793
1801 1801 1792 1810 1793 1795 1793 1799 1825 1790 1811 1803 1800 1807
1821 1796 1819 1820 :RAD 1 #3 6192 6183 6181 6186 6187 6185 6188 6187
6192 6197 :ENC 5 #5 5179 5176 5179 5185 5189 5193 5176 5164 5161 5152
5149 5157 :SW1 15 #60 53 :SW2 45 #60 53 :BAT 14 #15 12.7 :NAME 
0650018E=
0000177700
766
SIIR20 OIII 111500
AAXX 11151
40706 41650 30000 11070 21118 38669 40302 53008 70510 81402 333
11024 81635 83068 555 11080 29068 66666 01032 11038 21032 31024
50006 90054=
40718 42862 82702 10096 20075 30169 40140 55002 84077 333
10110 84458 88266 555 10086 29087 66666 00092 10092 20086
30090 50106 90130=
40732 41956 80000 10086 20069 30158 40133 56004 71022 80007 333
10112 88267 555 10078 29089 66666 00084 10082 20080 30084 50096
90112=
40745 42960 62102 10062 21134 39026 40203 57006 81046 333 10112
81359 86268 555 10005 29023 66666 00045 10050 20044 30038 50055
90095=
40754 41518 83003 10014 21015 38840 40225 53005 71022 8352/ 333
10036 83630 88460 555 10003 29081=
40766 41657 70000 11001 21009 38697 40229 51002 71022 85370 333
10004 82935 83640 87358 555 11004 29094 66666 00008 10020 20032
30032 50064 90092=
40800 41608 80000 10000 21005 38459 40243 53012 77172 8352/ 333
      10028 83635 88559 555 11002 29096 66666 01004 11002 20018
      30030 50066 90118=
40811 41210 82103 10116 20112 30148 40175 53009 76396 8572/ 333
10140 82705 83920 88557 555 10114 29098 66666 00122 10124 20126
30134 50150 90190=
40841 42660 70000 10030 21033 38251 40232 53004 84410 333 10076
84635 87460 555 10006 29063 66666 01006 10000 20016 30046 50088
90154=
40848 41520 81502 10034 20030 38524 40208 56005 71066 8432/ 333
10038 81930 83635 88458 555 10032 29097 66666 00046 10048 20052
30052 50070 90114=
40856 42662 71206 10040 21060 38651 40237 51005 82570 333 10071
82635 86359 555 10005 29048 66666 00052 10058 20089 30065 50056
      90133=
40875 41556 82703 10133 20110 30208 40220 52011 76162 8532/ 333
10160 82925 83630 88559 555 10121 29086 66666 00154 10160 20164
30176 50192 90230=
0000096200
767
SIIR24 OIII 111500
AAXX 11151
40716 42960 70000 10000 21034 38919 40239 54000 80006 333 10018
87268 555 11012 29078 66666 01004 11002 20008 30014 50050 90096=
40719 41530 60000 10070 20056 30152 40141 53001 71022 81501 333
10120 81630 85066 555 10064 29091 66666 00070 10074 20076 30076
50098 90124=
40721 42960 51604 10086 21024 39614 40161 50001 82038 333 10148
      82360 85270 555 10044 29046 66666 00084 10082 20074 30074
      50085 90118=
40858 NIL=
40872 41556 81208 10168 20152 30181 40186 50006 76162 8532/ 333
10196 82925 83630 88557 555 10159 29091 66666 00158 10164 20166
30172 50182 90194=
40877 42660 80000 10126 20027 39634 40191 52010 8442/ 333 10130
      84645 88459 555 10082 29051 66666 00130 10130 20132 30140
      50170 90208=
40898 42965 50000 10178 21058 30204 40214 53017 80008 222// 00226
      10501 333 10216 85269 555 10088 29020 66666 00168 10188
      20204 30206 50216 90250=
0000013200
768
SIUK42 EGRR 111500 CCA
AAXX 11154
03068 42584 12518 10038 21010 30113 40121 52015 81900
  333 81920 90710 91127=
0000008900
769
SAIN35 VIDP 111500
METAR VAUD 111500Z 03002KT 3000 HZ NSC 15/06 Q1020=

0000095600
770
SIIN90 VANP 111500
AAXX 11154
42867 31995 20506 10212 20151 40157 70511 80001
  333 58024 82075=
42933 32996 23203 10200 20122 40156 80001
  333 58034 82075=
42874 32596 60000 10234 20180 40151 83530
  333 58016 83625 85360=
43041 32996 00000 10210 20162 39538 40161
  333 58008=
42693 21595 73602 10178 20165 39475 40170 70264 85520
  333 58020 6002/ 85618 86458=
42779 21596 83606 10162 20152 39467 40179 70262 8552/
  333 58028 6003/ 85620 88458=
42754 31992 00000 10134 20109 39532 40189 71051
  333 58043=
42361 31994 00000 10110 20090 40204 71044
  333 58044=
42559 32996 23601 10126 20076 40196 80002
  333 58050 82075=
42675 31494 60503 10146 20116 40193 71044 86600
  333 58053 86710=
42571 31594 83201 10140 20122 40190 71042 8553/
  333 58045=
42671 31996 10000 10124 20109 39555 40197 70510 81030
  333 58049 81360=
42667 31995 00206 10138 20117 39586 40194 71044
  333 58047=
0000003800
771
UANT01 EGRR 111500
NIL
0000090600
772
SAAU31 AMMC 111500
METAR YBAS 111500Z AUTO 11010KT 9999 // NCD 32/08 Q1014=
METAR YBBN 111500Z 05004KT 9999 FEW030 22/18 Q1015
     NOSIG=
METAR YBCS 111500Z 26003KT 8000 RA FEW015 SCT040 BKN120 24/23 Q1009 RESHRA=
METAR YBTL 111500Z AUTO 13009KT 9999 // SCT055 27/21 Q1010=
METAR YMML NIL=
METAR YPAD 111500Z 18011KT 9999 FEW022 18/13 Q1019
     FM1500 MOD TURB BLW 3000FT=
METAR YPCC 111500Z AUTO 11009KT 9999 // OVC037 27/22 Q1012=
METAR YPDN 111500Z 15008KT 9999 -RA BKN071 25/23 Q1006=
METAR YPKU 111500Z AUTO 00000KT 9999 // NCD 26/22 Q1006=
METAR YPLM 111500Z AUTO 23007KT 9999 // NCD 27/21 Q1009=
METAR YPPH 111500Z 13005KT CAVOK 35/02 Q1009
     FM1500 MOD TURB BLW 3000FT=
METAR YPTN 111500Z AUTO 14006KT 9999 // NCD 24/22 Q1008=
METAR YPXM 111500Z AUTO 00000KT //// // ////// 23/22 Q1013=
METAR YSSY 111500Z 08005KT CAVOK 22/19 Q1015
     NOSIG=
0000083100
773
SICI21 BABJ 111500
AAXX 11151
50468 NIL=
50953 33/// 93604 11229 21303 40312 52029=
51076 NIL=
51243 NIL=
51288 NIL=
51463 NIL=
51573 NIL=
51709 NIL=
52533 32/// 92502 11122 21258 40451 57005=
52652 32/// 91402 11168 21277 40485 57005=
52866 31/59 90000 11136 21214 37788 52013 705//=
52983 NIL=
53463 42/// 93605 11103 21235 40423 52017=
53513 NIL=
53588 32/80 92708 11152 21242 37809 52011=
53772 32/// 90000 11032 21196 40358 52015=
53915 32/66 93201 11059 21202 40412 52009=
54218 32/80 93401 11124 21224 40372 52025=
54337 NIL=
54342 33/// 93605 11058 21210 40313 52033=
54401 NIL=
54471 NIL=
54497 NIL=
54511 NIL=
54823 33/// 91102 10036 21072 40308 52006=
56080 32/// 90202 11125 21190 37197 52011=
56096 32/// 90401 10028 21114 40363 52015=
57083 NIL=
0000077700
774
SICI22 BABJ 111500
AAXX 11151
56187 31/23 92701 10047 20030 40342 52020 710//=
56778 33/// 90000 10062 20013 38147 52013=
57265 NIL=
57461 33/22 93201 10032 20011 40339 52009=
57494 NIL=
57516 41511 92901 10075 20066 40334 52019 710//=
57687 41/// 92902 10047 20030 40336 52013 760//=
57816 41/41 90402 10013 20010 40328 52018 760//=
58040 NIL=
58102 NIL=
58150 31/14 90000 11007 21014 40312 57002 710//=
58221 NIL=
58238 NIL=
58251 NIL=
58362 41966 90701 10051 20028 40303 57013 721//=
58457 NIL=
58606 42/// 90401 10048 20033 40311 52011=
58752 NIL=
58847 NIL=
59117 NIL=
59134 NIL=
59287 NIL=
59316 NIL=
59431 41/26 93602 10112 20106 40261 52017 710//=
59644 32/// 93602 10159 20125 40238 52016=
59758 NIL=
00000000