0000011000
615
UANT99 KDDL 111511
ARP AFR438 5725N01351W 1511 F320 MS58 254/92 KT
FGITE DDL TRE 111511 F90A
0000011000
616
UANT99 KDDL 111511
ARP DLH418 5206N02710W 1511 F340 MS53 169/61 KT
DABYK QXT EUA 111512 F20A
0000011000
617
UANT99 KDDL 111512
ARP BAW60T 4902N01907W 1512 F360 MS63 198/85 KT
GVIIO QXT AOE 111512 F12A
0000011000
618
UANT99 KDDL 111512
ARP AFR968 4702N01554W 1512 F340 MS58 226/76 KT
FGITF QXT AOW 111512 F92A
0000010900
619
UANT99 KDDL 111512
ARP XLF64 4802N01233W 1512 F360 MS63 253/66 KT
CGGTS QXT AOE 111512 J35A
0000049700
620
UDEU02 EGRR 111515 RRA
AMDAR 1115
ASC EU5529   6023N 00611E 111507 F161 MS304 289/040 TB/ S031=
ASC EU5529   6023N 00618E 111508 F177 MS345 290/041 TB/ S031=
ASC EU5529   6023N 00626E 111508 F194 MS385 284/044 TB/ S031=
ASC EU5529   6023N 00634E 111509 F210 MS378 268/032 TB/ S031=
ASC EU5529   6023N 00642E 111509 F229 MS405 265/031 TB/ S031=
ASC EU5529   6023N 00650E 111510 F245 MS415 265/031 TB/ S031=
ASC EU5529   6023N 00651E 111510 F250 MS419 263/027 TB/ S031=
0000068900
621
UDAF02 EGRR 111515 RRA
AMDAR 1114
LVR EU1790   2957N 01400W 111408 F340 MS515 300/054 TB/ S031=
LVR EU1790   3043N 01327W 111415 F340 MS520 287/050 TB/ S031=
LVR EU1790   3130N 01258W 111422 F340 MS528 292/050 TB/ S031=
LVR EU1790   3217N 01228W 111429 F340 MS535 290/044 TB/ S031=
LVR EU1790   3303N 01159W 111436 F340 MS543 298/043 TB/ S031=
LVR EU1790   3349N 01129W 111443 F340 MS548 304/049 TB/ S031=
LVR EU1790   3433N 01059W 111450 F340 MS550 314/050 TB/ S031=
LVR EU1790   3517N 01030W 111457 F340 MS555 326/050 TB/ S031=
LVR EU1790   3600N 01002W 111504 F340 MS560 327/055 TB/ S031=
LVR EU1790   3647N 00953W 111511 F340 MS560 328/054 TB/ S031=
0000009200
622
SAFC21 OEJD 111500 RRA
METAR
OEPA 111500Z 29006KT CAVOK 11/06 Q1019 NOSIG=
0000009000
623
SASD20 OEJD 111500 RRA
METAR OEPA 111500Z 29006KT CAVOK 11/06 Q1019 NOSIG=
0000024300
624
SIOM20 OOMS 111500 RRB
AAXX 11154
41240 36/// /3608 10178 20125 30196 40211
333 0E/// 59010  =
41254 36/// /9902 10083 20021 38071 40264
333 0E002 58001  =
41268 36/// /0307 10195 20086 30200 48457
333 0E017 59004 =
0000012800
625
SIMS20 WMKK 111500 RRA
AAXX 11154
96481 41459 70507 10233 20221 30101 40120 76162 8487/ 333 82817 84625 86466=
0000081500
626
SIIN90 VECC 111500
AAXX 11154
42809 31995 03404 10186 20141 40170 70500
  333 58008=
42901 32996 01401 10184 20164 40167
  333 58011=
43333 21495 80708 10262 20239 40149 72162 86431
  333 56299 58009 6993/ 83616 84818 85358=
42503 31593 83201 10158 20137 40190 74244 8457/
  333 58020=
42492 21494 70904 10150 20143 40179 76062 83530
  333 58021 6004/ 83618 85360=
42591 21494 73602 10148 20145 40184 72996 85720
  333 58030 6013/ 81710 84618 86458=
42498 21494 70000 10154 20143 40185 70522 85530
  333 56690 58032 6004/ 85615 87358=
42798 31595 71404 10190 20114 40174 70522 84430
  333 58022 83620 83825 86360=
42587 21494 80000 10164 20161 40176 75052 84520
  333 58027 6007/ 84615 88458=
42724 31995 40000 10154 20136 40169 71022 84030
  333 58002 84360=
0000027500
627
SAIN31 VOMM 111510
METAR VOHS 111510Z 11005KT 5000 HZ SCT020 21/14 Q1018 NOSIG=
METAR VOMM 111510Z 08006KT 6000 NSC 24/19 Q1015 NOSIG=
METAR VOTR 111510Z 09008KT 5000 HZ NSC 25/20 Q1014 NOSIG=
METAR VOTV 111510Z 00000KT 4000 HZ FEW015 27/23 Q1012 NOSIG=
0000021000
628
SZSR01 WSSS 111514
CREX++
T000103 A001 D01021 D06025++
0126166 10385160 00044 2014 01 11 14 30 //// 11 07 00 06
02139 -0081 02126 -0084 02115 -0085 02107 -0073 02095 -0075 02076 -0074++
7777
0000010100
629
SAUK39 EGRR 111450 CCA
METAR COR EGQS 111450Z 25018KT 9999 FEW020CB 04/M01 Q1012 BLU=
0000174100
630
SASA85 EGRR 111500 RRD
METAR SACO 111500Z 14007KT CAVOK 25/10 Q1022=
METAR SADF 111500Z 16012G22KT CAVOK 24/03 Q1018=
METAR SAME 111500Z 09007KT CAVOK 28/06 Q1020=
METAR SARP 111500Z 18005KT 5000 FEW009 SCT015 OVC040 20/18 Q1016 RETS=
METAR SBEG 111500Z 01003KT 9999 FEW010 SCT020 BKN070 25/22 Q1015=
METAR SBLO 111500Z 04007KT 9999 FEW040 31/21 Q1017=
METAR SBNT 111500Z 10015KT 9999 SCT030 30/20 Q1013=
METAR SBPK 111500Z 26005KT CAVOK 25/21 Q1012=
METAR SBRP 111500Z 36005KT 9999 BKN040 32/20 Q1016=
METAR SBSN 111500Z 03002KT 9999 SCT017 BKN100 30/20 Q1014=
METAR SBTF 111500Z 08005KT 9999 BKN015 SCT100 29/24 Q1014=
METAR SBUG 111500Z 17006KT 9999 FEW010 BKN015 OVC100 22/20 Q1014=
METAR SCAR 111500Z 22009KT CAVOK 25/16 Q1011=
METAR SCBA 111500Z 32012KT 290V360 CAVOK 16/05 Q1019=
METAR SCCI 111500Z 26030KT 9999 FEW030BKN150 14/07 Q1004 NOSIG=
METAR SCDA 111500Z 20013KT CAVOK 25/16 Q1012=
METAR SCEL 111500Z VRB03KT CAVOK 28/06 Q1012 NOSIG=
METAR SCFA 111500Z 20010KT 9999 FEW027 23/15 Q1013 NOSIG=
METAR SCIE 111500Z 24009KT CAVOK 22/10 Q1012=
METAR SCSE 111500Z 29010KT 9999 FEW013 BKN015 19/13 Q1014=
METAR SCTE 111500Z 14011KT 9999 FEW025 17/10 Q1020 NOSIG=
METAR SUAA 111500Z 19015G25KT 9999 BKN025 21/14 Q1017=
METAR SUCA 111500Z XXXXXKT 9999 FEW030 22/08 Q1016=
METAR SULS 111500Z 16015KT 9999 SCT026 BKN200 21/12 Q1017=
METAR SUSO 111500Z 16015KT 9999 BKN017 OVC060 24/20 Q1014=
METAR SVBC 111500Z 00000KT 9999 FEW010 30/23 Q1015=
METAR SVJC 111500Z 08010KT 9999 SCT013 28/22 Q1016=
METAR SVMC 111500Z /////KT 9999 FEW016 30/24 Q1016=
METAR SVSA 111500Z /////KT 9999 FEW017 27/14 Q1018=
METAR SYCJ 111500Z 01012KT 9999 BKN019 BKN300 29/20 Q1015 NOSIG=
0000176600
631
SASA85 EGRR 111500 RRE
METAR SASA 111500Z 18010KT 9999 SCT020TCU FEW040CB 27/18 Q1018=
METAR SAVC 111500Z 09008KT 050V120 CAVOK 19/07 Q1018=
METAR SAWE 111500Z 32017KT 9999 FEW015 SCT050 10/08 Q1004=
METAR SELT 111500Z 14007KT 9999 SCT030 16/12 Q1030=
METAR SKCG 111500Z 00000KT CAVOK 30/22 A2990=
METAR SKPE 111500Z VRB02KT 9999 SCT017 SCT070 24/17 A3016=
METAR SKSP 111500Z 08017KT 9999 FEW018 28/23 A2996 REDZ=
METAR SLAS 111500Z 36010KT 9999 BKN017 29/24 Q1014=
METAR SLCA 111500Z 00000KT 9999 SCT033 31/20 Q1014=
METAR SLCO 111500Z 33007KT 9999 BKN015 FEW020CB BKN080 29/25 Q1013=
METAR SLCP 111500Z 35010KT 9999 BKN015 BKN070 26/23 Q1017=
METAR SLET 111500Z 31015KT 9999 SCT010 BKN015 29/23 Q1012=
METAR SLJE 111500Z 33005KT 9999 SCT015 32/23 Q1016=
METAR SLJO 111500Z 36006KT 9999 BKN015 FEW020CB 28/25 Q1013=
METAR SLMG 111500Z 03008KT 9999 FEW017 BKN080 28/24 Q1014=
METAR SLOR 111500Z 21005KT 9999 FEW015 16/05 Q1036=
METAR SLPO 111500Z 05005KT 9999 NSC 14/02 Q1040=
METAR SLPS 111500Z 06005KT 9999 SCT020 32/24 Q1012=
METAR SLRB 111500Z 33006KT 9999 FEW020 30/25 Q1015=
METAR SLRI 111500Z 36008KT 9999 BKN017 BKN080 29/24 Q1013=
METAR SLRQ 111500Z 12004KT 9999 FEW010 SCT015 BKN200 26/25 Q1012=
METAR SLSA 111500Z 34008KT 8000 VCSH BKN017 BKN080 29/25 Q1013=
METAR SLSI 111500Z 36006KT 9999 BKN017 28/23 Q1014=
METAR SLSU 111500Z 08004KT 9999 SCT020 20/11 Q1030=
METAR SLTJ 111500Z 09006KT 9999 FEW030 FEW033CB 27/17 Q1019=
METAR SLTR 111500Z 36008KT 9999 FEW017 BKN080 29/24 Q1013=
METAR SLVM 111500Z 36006KT 9999 NSC 34/24 Q1009=
METAR SLYA 111500Z 36004KT 9999 FEW023 32/23 Q1011=
METAR SVCB 111500Z 07010KT 9999 SCT013 28/// Q1015=
METAR SVST 111500Z 00000KT CAVOK ///// Q1018=
0000166700
632
SASA85 EGRR 111500 RRF
METAR SAAR 111500Z 14009KT CAVOK 25/07 Q1018=
METAR SAOC 111500Z 09010KT CAVOK 22/11 Q1021=
METAR SARC 111500Z 09009KT 6000 -TSRA FEW008 OVC040 FEW045CB 20/19
      Q1015=
METAR SARE 111500Z 11005KT 5000 TSRA SCT030 OVC040 FEW056CB 20/20 Q1015=
METAR SARF 111500Z 16016KT 1000 +RA BKN007 OVC040 22/20 Q1015=
METAR SARL 111500Z 20010KT 9000 -RA SCT008 OVC040 23/21 Q1014=
METAR SASJ 111500Z 11010KT 9999 SCT040TCU SCT100 30/20 Q1014=
METAR SAZM 111500Z 18010KT 9999 SCT025 19/07 Q1020=
METAR SAZN 111500Z 09003KT CAVOK 24/04 Q1019=
METAR SBBH 111500Z 08007KT 9999 SCT035 28/17 Q1020=
METAR SBIL 111500Z 17008KT 9999 SCT030 FEW035TCU 27/22 Q1016=
METAR SBJR 111500Z 19003KT 9999 FEW020 36/25 Q1013=
METAR SBKG 111500Z 12012KT 9999 BKN030 29/18 Q1015=
METAR SBMS 111500Z 13006KT 9999 SCT030 35/19 Q1011=
METAR SBMT 111500Z 33003KT 9999 BKN040 31/17 Q1017=
METAR SBST 111500Z 22008KT 9999 SCT018 SCT050 31/25 Q1013=
METAR SBTC 111500Z 15002KT 9999 SCT015 BKN060 31/24 Q1016=
METAR SBVH 111500Z 01007KT 9999 SCT020 27/20 Q1017=
METAR SKBG 111500Z 13003KT 9999 FEW015 25/16 A3004=
METAR SKBO 111500Z 34005KT 9999 FEW020 17/08 A3036=
METAR SKBO 111500Z 34005KT 9999 FEW020 17/08 A3036=
METAR SKBQ 111500Z 05009KT CAVOK 29/22 A2992=
METAR SKCL 111500Z 00000KT 5000 BR BKN008 BKN090 23/21 A3005 RMK AD
      OPER IMC=
METAR SKLT 111500Z 00000KT 9999 BKN006 BKN080 25/24 A2996 RERA RMK
      AD OPR IMC=
METAR SKMD 111500Z 00000KT 8000 FEW025 SCT080 22/16 A3013 RMK HZ=
METAR SKRG 111500Z 14005KT 9999 SCT015 SCT080 17/13 A3032=
METAR SKSM 111500Z 22004KT 9999 FEW020 28/23 A2989=
0000012400
633
SIHK20 VHHH 111500
AAXX  11151
45007 42959 11106 10173 20111 30229 40239 50010 80001
 333  59001 81080 =
0000024100
634
SOAT10 KWAL 111513
FA8005BC 011151337 OT12 ID:KN-BASS-01 DT:2014 01 11 15 11
:RD -3045 -3039 -3011 -3034 -3044 -3037 -3021 -3069 -3081 -3063
:PR 0611 0613 0641 0613 0626 0577 0634 0705 0625 0657
:B 13.7V
 46+1NN 219E
00000000