0000019800
066
WSAG31 SACO 111745
SACF SIGMET 7 VALID 111800/112100 SACO-
SACF CORDOBA FIR EMBD TS OBS AT 1745Z WI S2500 W6600-S2300 W6500-
S2600 W6300-S2500 W6600- TOP FL400 MOV E 10KT INTESF=
0000010600
067
SMVJ11 LFPW 111800
BBXX
BATEU00 11184 99694 30275 46/// /1107 11008 21016 49924
22241=
0000011800
068
SMVJ11 LFPW 111800
BBXX
OSCFR05 11184 99611 50549 46/// /2911 10002 21046 49999 56006
22200 04005=
0000013000
069
SMCG01 FCBB 111800
AAXX 11184
64450 31958 50000 10284 20224 39745 40096 70522 80002
    333 10302 59005 85080=
0000014800
070
SMRE15 FMEE 111800
AAXX 11184
61998 16/// /1904 10053 20030 30040 40077 50000 60002
  333 10093 58044 90710 91108
  555 60005=
0000013800
071
SMJM01 MKJS 111800
AAXX 11184
78388 11576 10713 10287 20243 30148 40157 60001 70500 81800
333 10310 20240 58000 81824=
0000027400
072
SXHW11 KWAL 111802
15D142A4 011180202":PRS 1 #1 1309 1304 1314 1315 1307 1320 1317 1309 1324 1319 :RAD 1 #1 6896 6899 6902 6901 6899 6904 6903 6902 6907 6906 :ENC 2 #5 4801 4809 4819 4825 :SW1 2 #60 0 :SW2 32 #60 0 :BAT 4 #5 12.8 :NAME 15D142A4  34+0NN 216W
0000053100
073
SMRH75 LDZM 111800
AAXX 1118/
14241 11662 80000 10071 20065 30061 40192 56004 60002 71122 8157/
333 10089=
14284 12960 31504 10062 20045 30089 40199 56002 60002 83030 333
10140=
14307 31440 70000 10094 20085 30144 40221 52001 71022 85500 333 10129
     =
14317 NIL=
14431 11558 61002 10097 20096 30130 40224 50000 60002 71022 86600
333 10132 82626 85540=
14444 33770 63302 10109 20090 30201 40230 52001 83830 333 10144 =
14474 12775 20802 10104 20087 30041 40232 55000 60002 82500
333 10157=
0000010400
074
SAGD31 TGPY 111800
METAR TGPY 111800Z 08017KT 9999 FEW019TCU 28/22 Q1014 NOSIG TCU-SW,W=
0000015700
075
SSVX13 LFPW 111800
ZZYY 64667 11014 1800/ 763111 029158 6113/ 11119 40022 52012 22219
 00063 444 20130 11014 1800/ 50101 80154 80000 9/015=
0000015700
076
SSVX13 LFPW 111800
ZZYY 14920 11014 1800/ 328505 067385 6113/ 11119 40237 52003 22219
 00226 444 20130 11014 1759/ 50101 80122 80016 9/015=
0000056600
077
SMHU01 HABP 111800
AAXX 11181
12772 31965 81402 10032 20003 39991 40194 56004 70311 80007
  333 10076 4/000=
12822 36/// /2402 10057 20045 30045 40190 54000 333 10104=
12843 31463 82202 10060 20045 30022 40194 55000 70322 886//
  333 10077 4/000 88710=
12882 36/// /0801 10024 20015 30061 40196 57011 333 10057=
12925 36/// /0000 10044 20037 30015 40189 55005 333 10068=
12942 31975 52203 10085 20063 39951 40197 56003 70311 85032
  333 10115 4/000=
12982 31940 41402 10046 20042 30094 40197 57003 72841 82049
  333 10096 4/000=
0000173200
078
SSVX02 KARS 111758
ZZYY 17908 11014 1710/ 357655 157604 6113/
11119 39742 49742 57010
22219 00022
444 20130 11014 1749/ 50101 80110 80041 9/015=
ZZYY 56607 11014 1744/ 311255 125592 6111/
22219 00305
444 20110 11014 1724/ 50101 80104 80038 9/015=
ZZYY 56608 11014 1746/ 311965 131580 6111/
22219 00312
444 20110 11014 1725/ 50101 80104 80039 9/015=
ZZYY 55947 11014 1744/ 312035 132260 6111/
22219 00313
444 20110 11014 1741/ 50101 80104 80012 9/015=
ZZYY 56606 11014 1743/ 313915 126689 6112/
22219 00308
444 20120 11014 1726/ 50101 80104 80005 9/015=
ZZYY 51667 11014 1745/ 312931 127094 6112/
22219 00304
444 20120 11014 1742/ 50101 80104 80007 9/015=
ZZYY 32628 11014 1741/ 312474 174119 6111/
22219 00302
444 20110 11014 1719/ 50101 80058 80008 9/015=
ZZYY 55945 11014 1746/ 311442 139491 6111/
22219 00304
444 20110 11014 1727/ 50101 80104 80021 9/015=
ZZYY 71673 11014 1750/ 351192 177989 6112/
11119 39979 49979 54000
22219 00104
444 20120 11014 1714/ 50101 80080 80000 9/015=
ZZYY 55908 11014 1750/ 334407 165749 6113/
22219 00201
444 20130 11014 1744/ 50101 80098 80009 9/015=
ZZYY 71667 11014 1750/ 340906 115456 6112/
11119 30161 40161
444 50101 80070 80046 9/015=
ZZYY 71675 11014 1730/ 347656 161604 6112/
11119 39970 49970
22219 00114
444 20120 11014 1748/ 50101 80060 80092 9/015=
ZZYY 56561 11014 1740/ 354230 174496 6112/
22219 00078
444 20120 11014 1750/ 50101 8//// 80013 9/015=
ZZYY 55930 11014 1748/ 331764 162806 6111/
22219 00216
444 20110 11014 1037/ 50101 80102 80028 9/015=
ZZYY 71664 11014 1730/ 344824 156463 6112/
11119 30022 40022
22219 00136
444 20120 11014 1749/ 50101 80090 80092 9/015=
0000010500
079
SMAA01 ENMI 111800
AAXX 11181
89504 43/// /2302 11043 21107 38469 49936 52003 333 11016=
0000015700
080
SSVX13 LFPW 111800
ZZYY 44612 11014 1800/ 745750 045233 6113/ 11119 40207 57008 22219
 00042 444 20130 11014 1800/ 50101 80154 80000 9/015=
0000014400
081
SMGD01 TGPY 111800
AAXX 11184
78958 11473 30817 10281 20224 30135 40145 69911 72581 83800 333 10289
20218 58013 82819 90926=
0000068500
082
UDEU02 EGRR 111804
AMDAR 1116
LVR EU3815   4620N 03023E 111651 F329 MS572 293/068 TB0 S031=
LVR EU3815   4557N 03146E 111658 F329 MS567 291/067 TB0 S031=
LVR EU3815   4532N 03308E 111705 F329 MS570 301/071 TB0 S031=
LVR EU3815   4505N 03429E 111712 F329 MS572 305/075 TB0 S031=
LVR EU3815   4437N 03550E 111719 F329 MS572 306/086 TB0 S031=
LVR EU3815   4407N 03709E 111726 F329 MS575 314/087 TB0 S031=
LVR EU3815   4336N 03826E 111733 F329 MS577 314/085 TB0 S031=
LVR EU3815   4305N 03943E 111740 F329 MS582 318/087 TB0 S031=
LVR EU3815   4235N 04059E 111747 F349 MS620 313/077 TB0 S031=
LVR EU3815   4206N 04213E 111754 F349 MS615 296/045 TB0 S031=
0000011400
083
SMMZ01 FQMA 111800
AAXX 11184
67283 32580 51106 10281 20253 40138 83102 333 10334 58030
94313=
0000068900
084
UDEU02 EGRR 111804 RRA
AMDAR 1117
LVR EU4426   4351N 01104E 111728 F350 MS597 251/038 TB0 S031=
LVR EU4426   4315N 01156E 111735 F350 MS602 249/054 TB0 S031=
LVR EU4426   4240N 01246E 111742 F350 MS600 244/051 TB0 S031=
LVR EU4426   4204N 01335E 111749 F328 MS547 252/043 TB0 S031=
DES EU4426   4138N 01408E 111753 F182 MS185 251/018 TB/ S031=
DES EU4426   4133N 01414E 111754 F159 MS142 248/015 TB/ S031=
DES EU4426   4129N 01419E 111755 F137 MS082 240/015 TB/ S031=
DES EU4426   4128N 01419E 111756 F136 MS080 246/016 TB/ S031=
DES EU4426   4125N 01424E 111756 F117 MS042 238/014 TB/ S031=
DES EU4426   4120N 01429E 111757 F098 MS015 265/012 TB/ S031=
0000017700
085
UDEU02 EGRR 111804 RRB
AMDAR 1117
LVR EU6264   6205N 01051E 111752 F380 MS468 299/032 TB/ S031=
DES EU6264   6113N 01050E 111759 F290 MS468 278/031 TB/ S031=
00000000