0000192400
492
SZAU01 AMMC 111745
CREX++
T000103 A001 D01021 D06025++
-1927750 14705860 59260 2014 01 11 17 38 3022 11 07 00 01
01511 0158 01522 0159 01532 0160 01538 0156 01555 0163 01563 0161+
-2316110 15079000 59670 2014 01 11 17 38 2998 11 07 00 01
02537 0132 02553 0136 02570 0141 02582 0139 02598 0142 02612 0144+
-3447330 15091170 60420 2014 01 11 17 38 2945 11 07 00 01
01298 -0034 01296 -0039 01306 -0033 01303 -0039 01305 -0040 01306 -0042+
-4105000 14591500 60910 2014 01 11 17 38 2888 11 07 00 01
01257 -0082 01266 -0080 01273 -0082 01279 -0083 01285 -0085 01288 -0091+
-4254640 14793080 61170 2014 01 11 17 38 2903 11 07 00 01
01527 0066 01528 0066 01524 0060 01520 0055 01521 0054 01529 0061+
-3834390 14161360 61410 2014 01 11 17 38 2908 11 07 00 01
00704 0028 00718 0043 00669 -0005 00680 0006 00658 -0015 00651 -0021+
-3214890 13364170 62000 2014 01 11 17 38 2955 11 07 00 01
01199 0040 01194 0039 01189 0040 01186 0042 01180 0041 01175 0041+
-3387080 12189720 62080 2014 01 11 17 38 2948 11 07 00 01
00692 -0007 00693 -0005 00702 0006 00704 0010 00698 0006 00694 0004+
-3182560 11573860 62237 2014 01 11 17 38 2972 11 07 00 01
00599 0089 00602 0093 00604 0096 00605 0098 00600 0094 00595 0090+
-2422000 11339750 62385 2014 01 11 17 38 //// 11 07 00 01
00658 -0112 00662 -0108 00712 -0058 00691 -0078 00764 -0004 00693 -0075+
-2181670 11419110 62430 2014 01 11 17 38 //// 11 07 00 01
01211 -0106 01220 -0095 01211 -0104 01214 -0099 01204 -0109 01223 -0089+
-1800080 12221830 62650 2014 01 11 17 38 3043 11 07 00 01
04347 0179 04343 0176 04340 0174 04336 0172 04333 0169 04330 0168+
-1247190 13084580 63230 2014 01 11 17 38 3048 11 07 00 01
05113 -0059 05113 -0054 05111 -0055 05110 -0052 05108 -0051 05107 -0049+
-1386000 13641580 63511 2014 01 11 17 38 3042 11 07 00 01
01534 0100 01532 0100 01533 0103 01528 0101 01527 0102 01525 0102++
7777

0000034500
493
SZIO01 AMMC 111745
CREX++
T000103 A001 D01021 D06025++
-1211670 09689190 46280 2014 01 11 17 38 3018 11 07 00 01
00745 -0004 00745 -0005 00752 0001 00751 -0001 00755 0002 00756 0002+
-1042940 10566940 46290 2014 01 11 17 38 //// 11 07 00 01
00652 0011 00654 0012 00681 0039 00635 -0008 00679 0035 00651 0006++
7777

0000011800
494
SAYE20 OYAA 111800
METAR OYAA 111800Z 13007KT 9999 SCT020 25/19 Q1017 NOSIG=
METAR OYSQ 111800Z NIL=
0000039700
495
SWIO40 RJTD 111745
:PRS 1 #1 1922 1916 1927 1918 1908 1943 1908 1946 1927 1916 1951 1913
1937 1916 1932 1945 1921 1938 1934 1932 1922 1945 1932 1903 1941 1902
1924 1933 1913 1905 :RAD 1 #3 6301 6306 6310 6310 6309 6310 6311 6308
6301 6296 :ENC 5 #5 5303 5303 5309 5303 5296 5287 5289 5298 5300 5297
5290 5273 :SW1 45 #60 17 :SW2 15 #60 3 :BAT 14 #15 12.7 :NAME 
0650018E=
0000019600
496
FTIQ01 ORBI 111730
TAF ORNI 111700Z 1118/1218 34010KT 4000 BR BECMG 1123/1201 33004KT
2000 TEMPO 1201/1207 1000 PROB40 0300 FG VV003 BECMG 1208/1210
32012KT 4000 SCT030 SCT080=
0000009200
497
SAIN90 VOCI 111730
METAR VOCI 111730Z 00000KT 4000 HZ SKC 24/21 Q1014 NOSIG=
0000014000
498
WAAB31 LATI 111735
LAAA AIRMET 1 VALID 111735/112135 LATI-
LAAA TIRANA SFC VIS 1000/5000M BR OBS AND FCST AT LATI AREA NC=
0000010700
499
SAUZ31 UTTW 111730 RRA
METAR UTSS 111730Z VRB01MPS 9999 NSC M03/M09 Q1020 R88/CLRD70 NOSIG=
0000011400
500
SPBY31 UMMN 111730
SPECI UMMS 111739Z 25002MPS 9000 -SHRA OVC015CB 03/02 Q1006
R31/290060 NOSIG=
0000072800
501
SAUZ31 UTTW 111730
METAR UTFN 111730Z 00000MPS M0050 R28/M0050N FZFG VV001 M09/M10 Q1026
R28/CLRD70 NOSIG RMK QBB030=
METAR UTNN 111730Z 10003MPS CAVOK M02/M04 Q1020 R15/CLRD60 NOSIG=
METAR UTNU 111730Z VRB01MPS 7000 BR FEW200 M02/M05 Q1019 R31/CLRD60
NOSIG=
METAR UTSA 111730Z 09004MPS 5000 BR NSC M02/M06 Q1021 R07/CLRD70
NOSIG=
METAR UTSB 111730Z 09003MPS 6000 NSC 00/M05 Q1020 R01/CLRD70 NOSIG=
METAR UTSK 111730Z NIL=
METAR UTSS 111730Z NIL=
METAR UTST 111730Z 04003MPS 6000 NSC M01/M06 Q1021 R88/CLRD70 NOSIG=
METAR UTFA 111730Z 00000MPS 0050 R04/0250N FZFG VV60 M07/M08 Q1027
R88/09//70=
METAR UTFF 111730Z NIL=
METAR UTTT 111730Z 06004MPS CAVOK 01/M10 Q1022 R08R/CLRD70 NOSIG=
0000011100
502
UANT01 CWAO 111744
ARP UAL111 5302N01606W 1744 F350 MS64 214/82 KT
N33103 DDL BLY 111744 F28A
0000042600
503
SSVX08 KARS 111744
ZZYY 56055 10014 1200/ 324741 099973 6111/
11119 10225 29079
22219 00233
33311 88872 20000 32330 20001 32315 43521 20020 32309 43531
20040 32301 43533 20060 32197 43556 20080 32090 20120 31951
20140 31909 20180 31811 20300 31469 20500 31030
444 20110 10014 1208/ 521//=
ZZYY 56055 11014 1700/ 324731 099979 6111/
11119 10227 29083
22219 00235
444 20110 11014 1734/ 521//=
0000011100
504
UANT01 CWAO 111744
ARP XLF1670 4745N02357W 1744 F380 MS48 204/51 KT
FGRSQ DDL XXN 111744 J67A
0000456800
505
SSVX11 LFVW 111744
ZZYY 52080 11014 1300/ 102039 138172 6112/
33311 88872 20002 32972 43410 20025 33043 43463 20050 32890 43470
20075 32799 43502 20100 32564 43465 20125 32548 43519
20150 32379 43518 20200 31779 43493 20250 31095 43449
20300 30996 43472 20500 30860 43461 20750 30627 43453
444 20120 11014 1306/ 522//=
ZZYY 52080 11014 0700/ 102042 138169 6113/
22219 00297
33311 88872 20000 32968 20002 32968 43405 20025 32992 43421
20050 32883 43477 20075 32786 43506 20100 32562 43484
20125 32499 43517 20150 32296 43513 20200 31701 43485
20250 31154 43452 20300 30995 43471 20500 30857 43461
20750 30613 43453
444 20130 11014 0652/ 522//=
ZZYY 52080 11014 0900/ 102042 138171 6113/
22219 00297
33311 88872 20000 32968 20002 32968 43406 20025 33053 43472
20050 32825 43470 20075 32769 43509 20100 32586 43500
20125 32476 43514 20150 32203 43503 20200 31637 43475
20250 31061 43452 20300 30996 43472 20500 30847 43460
20750 30615 43454
444 20130 11014 0833/ 522//=
ZZYY 52080 11014 1400/ 102036 138174 6112/
22219 00298
33311 88872 20000 32975 20002 32975 43411 20025 33049 43469
20050 32891 43468 20075 32802 43495 20100 32587 43473
20125 32550 43519 20150 32391 43520 20200 31746 43496
20250 31119 43450 20300 30995 43471 20500 30851 43461
20750 30640 43452
444 20120 11014 1354/ 522//=
ZZYY 52080 11014 1600/ 102043 138169 6113/
22219 00298
33311 88872 20000 32976 20002 32976 43414 20025 33051 43471
20050 32890 43467 20075 32792 43499 20100 32572 43470
20300 31010 43469 20750 30638 43453
444 20130 11014 1540/ 522//=
ZZYY 52079 11014 1600/ 100055 147019 6113/
33311 88872 20002 32979 43385 20025 32980 43394 20050 32978 43412
20075 32950 20100 32770 43549 20125 32469 43519 20150 32270 43543
20200 31920 43540 20250 31481 43511 20300 31144 43482
20500 30828 43460 20750 30616 43452
444 20130 11014 1544/ 522//=
ZZYY 52079 11014 14004 100057 147023 6111/
11119 03308 10280 40082
22219 00298
33311 88872 20000 32979 20002 32979 43383 20025 32979 43396
20050 32976 43415 20075 32953 20100 32713 43544 20300 31136 43480
20750 30618 43451
444 20110 11014 1306/ 522// 60381=
ZZYY 52087 11014 1200/ 107654 136688 6111/
22219 00291
33311 88872 20000 32914 20002 32914 43381 20025 32916 43379
20050 32927 43411 20075 32819 43466 20100 32482 43505
20125 32035 43488 20150 31648 43470 20200 31146 43452
20250 30980 43447 20300 30884 43450 20500 30762 43450
20750 30626 43451
444 20110 11014 1218/ 522//=
ZZYY 52087 11014 1000/ 107655 136695 6113/
22219 00291
33311 88872 20000 32912 20002 32912 43375 20025 32915 43375
20050 32906 43443 20075 32741 43476 20100 32420 43507
20125 32042 43488 20150 31666 43471 20200 31222 43453
20250 31032 43450 20300 30893 43450 20500 30754 43448
20750 30596 43451
444 20130 11014 0945/ 522//=
ZZYY 52087 11014 0800/ 107654 136696 6113/
22219 00291
33311 88872 20000 32912 20002 32912 43378 20025 32915 43376
20050 32891 43452 20075 32714 43470 20100 32371 43505
20125 32019 43488 20150 31616 43470 20200 31193 43453
20250 30969 43448 20300 30889 43449 20500 30752 43449
20750 30589 43451
444 20130 11014 0805/ 522//=
ZZYY 52073 11014 11004 104947 137308 6112/
11119 01012 10290 29084 40084
22219 00296
33311 88872 20000 32959 20002 32959 43399 20025 32949
20050 32828 43430 20075 32724 43450 20100 32594 43491
20125 32377 43478 20150 32161 43491 20200 31432 43454 20250 31062
20300 30953 43456 20500 30778 43456 20750 30643 43452
444 20120 11014 1050/ 522// 60381=
ZZYY 52073 11014 07004 104947 137304 6113/
11119 01013 10291 29081 40060
22219 00296
33311 88872 20000 32960 20002 32960 43388 20025 32956
20050 32818 43432 20075 32723 43447 20100 32567 43486
20125 32427 43483 20150 32308 43492 20200 31575 43461 20250 31160
20300 30972 43454 20500 30777 43456 20750 30619 43451
444 20130 11014 0651/ 522// 60381=
ZZYY 52073 11014 09004 104949 137305 6113/
11119 01012 10289 29083 40069
22219 00296
33311 88872 20000 32959 20002 32959 43397 20025 32957
20050 32849 43426 20075 32766 43440 20100 32622 43475
20125 32408 43472 20150 32289 43494 20200 31511 43459 20250 31090
20300 30948 43457 20500 30781 43455 20750 30644 43452
444 20130 11014 0832/ 522// 60381=
ZZYY 52077 11014 0600/ 102080 146982 6113/
33311 88872 20025 32999 20050 32993 20075 32919 43525
20100 32718 43516 20125 32631 43522 20150 32481 43522 20200 31675
20250 31131 20300 31018 43471 20500 30805 43459 20750 30608 43453
444 20130 11014 0626/ 522//=
0000011000
506
UANT01 CWAO 111745
ARP UAL44 5511N03830W 1744 F370 MS56 265/29 KT
N19141 DDL IG1 111745 F89A
0000011000
507
UANT01 CWAO 111745
ARP KLM641 4927N04843W 1745 F340 MS60 308/73 KT
PHBVB QXT AME 111745 F32A
0000011100
508
UANT01 CWAO 111745
ARP AAL105 5254N03132W 1745 F380 MS54 212/23 KT
N761AJ DDL XXN 111745 F48A
0000011100
509
UANT99 KDDL 111743
ARP UAL111 5302N01557W 1743 F350 MS64 216/83 KT
N33103 DDL BLY 111743 F23A
0000011100
510
UANT99 KDDL 111744
ARP AAL105 5255N03119W 1744 F380 MS54 211/27 KT
N761AJ DDL XXN 111744 F47A
0000011100
511
UANT99 KDDL 111744
ARP UAE205 5001N01914W 1744 F340 MS58 201/113 KT
A6ENL DDL XXF 111744 F16A
00000000