0000015100
166
SNAA01 KARS 111600 RRC
AAXX 1116/
89869 46/// ///// 11060 39905 4//// 5//// 91640=
89314 46/// ///// 11151 38269 4//// 5//// 91640=
0000028600
167
SMST01 EGRR 111800
AAXX 11184
61901 169// /1311 10187 20179 39667 40172 53002 60002 333 10231
 8//99 555 7/090=
61902 32484 11314 10263 20196 40125 81800 333 10287 58006 81818=
88889 12484 72008 10095 20000 30019 40104 53003 60001 85531
 333 81714 85640 87075=
0000169700
168
SMVD15 KWNB 111800 RRC
BBXX
42003 11181 99260 70856 46/// /2107 10258 40162 58011 91750 22200
00253 10602 20502 312// 40601 70010 333 91208 555 11070 22076
31724 42109 61749 208065 208069 206074 205073 206069 207073 82008
91721=
41047 11181 99275 70715 46/// /1408 10243 20233 40214 58035 91750
22200 00256 10904 20803 312// 40903 70022 333 91210 555 11088
22093 31721 41410 61749 144084 138087 139083 134076 139078 139083
81409 91653=
42057 11181 99170 70815 46/// /0809 10274 20223 40156 58016 91750
22200 00275 10704 20704 70021 333 91210 555 11095 22101 31653
40812 61749 078089 081088 080094 081090 078099 079099 80811 91750=
42055 11181 99222 70940 46/// /3302 10232 40179 50006 91750 22200
00234 10702 20301 307// 40702 70009 333 91203 555 11024 22025
31650 43303 61749 331023 325021 331015 329014 332013 339021 83303
91750=
44066 11181 99396 70726 46/// /1909 10139 20139 40075 58062 91750
22200 00111 10604 20604 316// 40901 70021 333 91213 555 11097
22108 61749 187090 183097 181101 181108 181097 174097=
41048 11181 99320 70695 46/// /1511 10211 20175 40229 58037 91750
22200 00213 10604 20604 313// 40902 70022 333 91213 555 11115
22122 31737 41514 61749 150106 148109 149101 145108 148108 146106
81512 91738=
42039 11181 99288 70860 46/// /2212 10212 20204 40127 58027 91750
22200 00212 10402 20402 70012 333 91215 555 11132 22141 31729
42218 61749 216122 221139 218115 216070 214069 211076 82216 91730=
41040 11181 99145 70530 46/// /0509 10254 20203 40153 56023 91750
22200 00262 10906 20804 307// 40904 70028 333 91211 555 11100
22106 31717 40611 61749 055094 056091 059095 057095 061087 057088
80610 91719=
0000326000
169
SMUK01 EGRR 111800
AAXX 11184
03005 11470 22927 10054 21028 39949 40049 52015 60042 70181 82800
  333 10058 55300 20000 82818 90710 91140 91037=
03017 17482 /2822 10033 20017 30078 40110 53023 60032 741//
  333 10045 55300 20000 81/18 90710 91132 91032=
03023 NIL=
03026 17983 /2509 10026 21009 30122 40141 51016 69982 723//
  333 10050 55300 20000 8//99=
03063 17981 /2104 10003 21014 39874 40159 50014 69902 721//
  333 10035 55300 20000 8//99=
03066 15984 /2312 10028 21001 30142 40148 51020 69902
  333 10046 55300 20000 8//99=
03075 17979 /2613 10013 21002 30075 40120 51021 60012 723//
  333 10049 8//99=
03091 15981 /2909 10032 21017 30065 40146 52022 60002
  333 10056 55300 20000 8//99=
03100 15672 /2607 10036 20009 30158 40175 53018 69922
  333 10074 55300 20000 81/37=
03111 16972 /2615 10051 20025 30173 40186 52016 60022
  333 10058 8//99=
03134 15984 /2305 10030 20013 30104 40178 52015 60022
  333 10062 55300 20000 8//99=
03136 15680 /2610 10055 20023 30150 40184 53013 60022
  333 10063 55300 20000 83/41 85/73=
03162 NIL=
03166 15981 /2409 10030 20008 30103 40174 52017 60002
  333 10052 55300 20000 8//99=
03171 12984 11802 10015 21016 30154 40167 51023 60002 80001
  333 10053 55300 20000 81075=
03204 12582 23102 10042 20023 30184 40204 51013 60012 81101
  333 10071 55300 20000 81820=
03240 15984 /2808 10033 21003 30150 40179 53018 60002
  333 10061 55300 20000 8//99=
03257 NIL=
03292 169// /3202 10016 21005 30180 40199 52026 60002
  333 10069 81/75=
03302 NIL=
03354 15975 /2506 10041 20012 30073 40220 51018 60002
  333 10058 55300 20000 82/71=
03377 12980 52606 10039 20004 30131 40218 52022 60002 80001
  333 10059 55300 20000 85071=
03414 NIL=
03462 15978 /2708 10021 20005 30131 40223 53019 60002
  333 10069 55300 20000 83/74=
03482 NIL=
03502 NIL=
03535 15971 /1902 10018 20000 30103 40225 51016 69922
  333 10069 553// 20000 8//99=
03590 NIL=
03649 12980 22703 10027 20002 30129 40233 53017 60002 80001
  333 10079 55300 2//// 82075=
03680 16/// ///// 10027 20004 30071 40232 53021 60002
  333 10071 553// 20000=
03716 15973 /0703 10021 20005 30165 40227 51015 69922
  333 10076 55300 20000 8//99=
03740 169// /2404 10038 20011 30054 40236 53017 69922
  333 10068 55300 2//// 8//99=
03746 NIL=
03772 15979 /3103 10052 20012 30198 40229 53019 69902
  333 10092 55300 20000 8//99=
03796 46/// /2905 10035 20003 30080 40226 51021
  333 10092=
03803 15581 /1418 10089 20054 30170 40208 55001 60002
  333 10104 82/21=
03808 12575 41606 10060 20027 30109 40217 51007 60002 81501
  333 10100 55300 20000 81620 84070=
03809 12675 21310 10048 20027 30124 40218 51009 60002 81502
  333 10105 81630=
03827 15979 /1104 10048 20023 30164 40227 51011 60002
  333 10104 8//99=
03840 15980 /1903 10008 21008 39920 40237 51015 69922
  333 10079 8//99=
03853 NIL=
03874 46/// /3505 10046 20003 30222 40233 53019
  333 10105=
03882 15981 /3401 10037 20007 30164 40229 51019 69962
  333 10090 55300 20000 8//99=
03894 32583 10905 10054 20035 40234 52010 69902 81501
  333 10090 81620=
03917 15962 /1103 10010 20003 30119 40198 51005 69922
  333 10037 55300 20000 87/65=
0000015100
170
SSVX13 LFPW 111803
ZZYY 13661 11014 1803/ 722741 037843 6113/ 11119 57255 22219 00242
 444 20130 11014 1800/ 50101 80050 80000 9/015=
0000011800
171
SMVB11 LFPW 111800
BBXX
BATFR10 11184 99256 11246 46/// /1818 10207 20132 40228 58009
22213 04240=
0000226700
172
SMSQ01 LZIB 111800
AAXX 11181
11812 36/// /1903 10026 20026 39483 42786 57003
  333 10062=
11813 16/// /0000 10045 20020 39833 40186 57001 60002
  333 10072=
11816 11365 70000 10039 20027 30021 40187 57004 60002 70262 85671
  333 10074 85709 87458=
11819 16/// /0000 10028 20021 39970 40190 57005 69912
  333 10052=
11826 12765 71501 10027 20006 39988 40192 55004 60002 8557/
  333 10065 85656 87358=
11841 12965 70000 10027 21006 39801 40184 57007 60002 8707/
  333 10069 87360=
11855 11658 80000 10037 20022 30020 40189 55003 69902 76022 84548
  333 10077 81643 87270=
11856 36/// /1403 10042 21002 39867 40190 57007
  333 10079=
11858 12675 82702 10054 20032 30039 40192 53001 60002 885//
  333 10104 88646=
11867 12960 73401 10018 20002 39867 40190 55003 60002 87070
  333 10075 87359=
11880 12765 80000 10024 20011 30017 40192 55003 60002 875//
  333 10093 87650=
11900 16/// /0601 10022 21009 39853 40195 57004 60002
  333 10061=
11903 12670 60000 10009 21008 39807 40197 55003 60002 85572
  333 10066 81634 85357=
11916 12689 62912 11056 21063 37942 48446 53002 60002 85072
  333 11056 44037 85440 91018 91121 93537 9514/
  444 16180=
11918 12982 72704 10009 21025 39341 42772 55009 60002 85058
  333 10038 85360=
11927 12960 63301 10022 21012 39927 40195 55001 60002 82072
  333 10070 82360 84073=
11930 12589 52912 11059 21146 37307 47979 51002 60002 81041
  333 11054 44060 81330 84060 91021 91124
  444 27101=
11933 12982 72603 11023 21063 38632 48448 57008 60002 82042
  333 11001 42009 82360 87070 91009=
11934 12986 69901 11004 21045 39344 42777 57008 60002 82058
  333 10043 82363 86270=
11938 12680 42204 11014 21031 39106 42780 55003 60002 81572
  333 10026 41998 81636 83360=
11952 16/// /1502 11011 21043 39332 42774 57010 60002
  333 10041=
11958 36/// /2010 11036 21037 3//// 4////
  333 10015=
11968 12365 22001 11002 21002 39907 40196 57009 60002 81601
  333 10052 81709=
11976 11225 81702 10005 21006 39923 40194 57013 60002 71022 886//
  333 10017 88706=
11978 11457 80000 10004 21002 30062 40196 57014 60002 71022 886//
  333 10010 88710=
11993 12962 70000 11004 21014 39974 40198 57011 60002 80001
  333 10045 87070=
0000015700
173
SSVX13 LFPW 111800
ZZYY 44747 11014 1800/ 758631 045412 6113/ 11119 49930 54000 22219
 00046 444 20130 11014 1800/ 50101 80154 80000 9/015=
0000015700
174
SSVX13 LFPW 111800
ZZYY 61688 11014 1800/ 144058 029450 6113/ 11119 40225 52005 22219
 00087 444 20131 11014 1757/ 50101 80090 80003 9/015=
0000015700
175
SSVX13 LFPW 111800
ZZYY 44624 11014 1800/ 746733 019974 6113/ 11119 49973 52018 22219
 00128 444 20130 11014 1757/ 50101 80098 80016 9/015=
0000015700
176
SSVX13 LFPW 111800
ZZYY 61687 11014 1800/ 144736 029832 6113/ 11119 40219 52002 22219
 00076 444 20131 11014 1757/ 50101 80090 80003 9/015=
0000038500
177
SSVX13 LFPW 111800
ZZYY 61690 11014 1800/ 142776 029405 6113/ 11119 40233 52007 22219
 00093 33300 88870 20000 30930 20011 30936 20013 30928 20016 30924
 20021 30930 20026 30940 20031 30934 20036 30936 20041 30940 20046
 30924 20052 30844 20057 30792 20062 30784 20067 30784 20072 30792
 20077 30800 20082 30814 444 20131 11014 1757/ 50101 80102 80010
 9/015=
0000011100
178
UANT01 CWAO 111802
ARP UAL111 5302N01930W 1802 F350 MS62 199/87 KT
N33103 DDL IG1 111802 F31A
0000011100
179
UANT01 CWAO 111802
ARP XLF1670 4724N02712W 1802 F380 MS45 220/52 KT
FGRSQ DDL XXN 111802 J70A
0000010100
180
UAUS31 KWBC 111803
ARP UAL648 3915N 10013W 1729 F370 327/083KT TB NEG RM A319 OV HLC=
0000008500
181
UAPA01 KWBC 111803
ARP DAL1197 3106N 13208W 1752 F340 MS47 274/050KT=
0000011000
182
UANT01 CWAO 111803
ARP UAL44 5539N03427W 1803 F370 MS57 205/28 KT
N19141 DDL IG1 111803 F92A
0000089200
183
SMFI01 EFKL 111800
AAXX 11181
02741 NIL=
02754 17465 80603 11062 21081 39899 40007 52004 60012 77174 88///
91739 
333 11047 21062=
02755 NIL=
02769 NIL=
02773 17282 80301 11029 21036 39983 49994 54000 60022 78587 88///
91739 
333 11019 21029=
02789 NIL=
02801 NIL=
02805 NIL=
02814 NIL=
02835 NIL=
02836 NIL=
02844 NIL=
02845 47999 00205 11171 21192 39881 40150 52003 70087 91739 
333 11163 21194=
02849 47999 33303 11219 21243 39858 40160 54002 78587 83/// 91739
333 11206 21246=
02851 NIL=
02852 NIL=
02866 NIL=
02880 NIL=
02883 NIL=
02889 NIL=
02915 NIL=
02924 47439 70503 11113 21138 39832 40039 52005 771// 87/// 91739
333 11083 21115=
02926 NIL=
02935 NIL=
02939 NIL=
02955 37545 70303 11122 21153 39925 40040 54002 77172 87/// 91739
333 11093 21128=
02957 NIL=
02964 NIL=
02978 NIL=
02981 NIL=
0000014500
184
SMFI01 EFKL 111800 RRA
AAXX 11181
02981 17599 73506 11008 21050 39982 49992 57004 69942 700// 82///
91800 
333 10003 21009=
0000013100
185
SMFI01 EFKL 111800 RRB
AAXX 11181
02741 365// 80102 11026 21061 39987 40003 57003 88/// 91800 
333 11015 21030=
00000000