0000012600
126
SMRM11 LUKK 111800
AAXX 11181
33815 32997 30000 10043 21039 39982 40192 52001 80001 333   10096 555   80014=
0000009500
127
SAIQ01 ORBI 111800
METAR ORBI 111800Z 31007KT 3100 BR FEW008 11/10 Q1020 NOSIG=
0000024100
128
SOAT10 KWAL 111803
FA8005BC 011180337 OT12 ID:KN-BASS-01 DT:2014 01 11 18 01
:RD -3112 -3092 -3083 -3094 -3110 -3104 -3115 -3170 -3080 -3105
:PR 0582 0567 0582 0643 0562 0491 0605 0496 0511 0513
:B 13.7V
 47+1NN 219E
0000007900
129
UXIN90 VOPB 111800
PPAA 6118/ 43333 NO ASCENT DUE TO LOW CLOUD=
0000014400
130
SMIN90 VOPB 111800
AAXX 11184 
43333 21495 80704 10266 20234 40144 70562 86431 333  56199  58002 6993/
83616 84818 85358=

0000009400
131
UGIN90 VIGR 111800
PPBB 61171 42361 90012 00000 30506 33014 90350 34510 00509=
0000016000
132
SMRE15 FMEE 111800
AAXX 11184
61996 06/// /2507 10142 20092 30198 40233 53005 69942
  333 10204 20134 4//// 60007 90710 91117
  555 60005=
0000027300
133
SMCE01 FEFF 111800
AAXX 11184
64600 NIL=
64601 NIL=
64605 NIL=
64610 NIL=
64650 31920 30000 10257 20191 39696 70411 80002
    333 10322 55067 58021 83080=
64654 NIL=
64655 NIL=
64656 NIL=
64659 NIL=
64660 NIL=
64662 NIL=
64665 NIL=
0000015000
134
SMGO01 FOOL 111800
AAXX 11184
64500 32460 82210 10280 20246 30088 40101 84902
333 10295 58007 84610 81920 84640 87073 94947 85837=
0000013800
135
SMFJ01 NFFN 111200 CCB
AAXX 11124
91659 11599 71609 10263 2023/ 40055 53013 60001 70301 8687/
  333 56399 83826 83645=
0000064200
136
SAIR31 OIII 111800
METAR OIAW 111800Z 24008KT 5000 BR FEW005 SCT020CB SCT040 11/09
Q1018=
METAR OIFM 111800Z 00000KT 0500 FG SCT035 OVC100 M01/M01 Q1018
A3007=
METAR OIII 111800Z 28006KT 2000 BR SCT035 OVC100 01/M01 Q1019
 A3010=
METAR OIKB 111800Z 32004KT 6000 FEW025CB SCT030 BKN100 14/11 Q1021
A3018=
METAR OIKK 111800Z NIL=
METAR OIMM 111800Z 16004KT 8000 FEW040 BKN180 04/M07 Q1017 A3003=
METAR OISS 111800Z 10006KT 3000 BR FEW020 FEW030CB OVC080 04/04
Q1019 A3009 RERA=
METAR OITT 111800Z 00000KT 3500 BR FEW035 SCT090 M09/M12 Q1021
A3016=
METAR OIZH 111800Z 12008KT CAVOK 03/M06 Q1020 A3012=
0000527700
137
SMFR01 LFPW 111800
AAXX 11184
07005 04/70 /2902 10049 20017 30142 40234 51020 69922 700//
  333 10096 20043 4//// 60007 90710 91104
  555 60005=
07015 02982 02403 10034 20018 30173 40232 51027 69902
  333 10091 20033 60007 90710 91104 93100
  555 60005=
07020 02967 21304 10046 20016 30216 40244 53013 69902 80004
  333 10100 20044 60007 82066
  555 60005=
07027 04986 /1002 10047 20032 30150 40234 51008 69922 700//
  333 10096 20035 4/000 60007 90710 91103
  555 60005=
07037 04967 /0103 10051 20021 30048 40236 51015 60002 700//
  333 10092 20048 4//// 60007 90710 91104
  555 60005=
07072 04458 /2803 10040 20034 30116 40235 52023 69942 700//
  333 10109 20031 4/000 60007 90710 91104
  555 60005=
07110 02665 71306 10088 20042 30098 40214 50007 69922 875//
  333 10117 20061 60007 87634 90710 91109 93100
  555 60005=
07117 02675 21008 10072 20048 30150 40222 50008 69922 8213/
  333 10104 20072 60007 90710 91111 92428
  555 60005=
07130 04456 81103 10079 20070 30179 40232 53014 69902 700//
  333 10099 20057 4/000 60007 90710 91108
  555 60005=
07139 04901 /0201 10039 20036 30058 40237 53013 69902 744//
  333 10083 20036 4/000 60007 90710 91104
  555 60005=
07149 01968 02802 10038 20028 30124 40237 51014 60002 71111
  333 10101 20036 60007 90710 91105 93100
  555 60005=
07168 04456 73104 10062 20055 30095 40241 53025 69982 700//
  333 10101 20028 4/000 60007 90710 91113
  555 60005=
07181 04358 62106 10047 20043 39818 40238 53025 60012 700//
  333 10070 20023 4//// 69907 90710 91109
  555 60005=
07190 04518 72304 10032 20025 30040 40228 53019 60012 710//
  333 10063 20010 4//// 69907 90710 91107
  555 69905=
07207 06/// /0711 10076 20072 30168 40221 53007 60002
  333 10087 20042 4//// 60007 90710 91116
  555 60005=
07222 02465 30508 10079 20064 30193 40225 53014 60002 81501
  333 10116 20074 60007 81615 83075 90710 91113
  555 60005=
07240 02258 70506 10076 20064 30095 40233 51016 69902 876//
  333 10105 20055 69907 87706 90710 91109 93100
  555 69905=
07255 04358 80102 10087 20068 30030 40233 53010 69922 700//
  333 10097 20058 4//// 60007 90710 91104
  555 60005=
07280 04550 80101 10081 20062 39955 40231 53010 60002 700//
  333 10086 20033 4/000 60007 90710 91104
  555 60005=
07299 01559 71503 10072 20050 39895 40227 51010 69902 70262 875//
  333 10093 20033 69907 81626 87631 90710 91106 93100
  555 69905=
07314 02468 70805 10101 20085 30186 40214 53003 60002 876//
  333 10108 20092 60007 87716 90710 91108
  555 60005=
07335 04231 80503 10088 20080 30076 40223 53007 69902 710//
  333 10098 20062 4/000 69907 90710 91105
  555 60005=
07434 04560 81504 10077 20060 39733 40218 52004 60002 700//
  333 10090 20075 4/000 60007 90710 91106
  555 60005=
07460 02660 63202 10092 20052 39829 40221 53008 60002 82532
  333 10133 20063 60007 82640 83360 86073 90710 91105 93100
  555 60005=
07471 04566 82403 10048 20030 39246 48829 53009 60002 700//
  333 10102 20025 4//// 60007 90710 91105
  555 60005=
07481 02565 71502 10089 20062 39935 40226 51005 60002 8357/
  333 10118 20089 60007 81627 83632 87361 90710 91103 93100
  555 60005=
07510 014// 71003 10106 20090 30149 40207 53001 60002 703// 875//
  333 10132 20091 60007 87619 90710 91104 93100
  555 60005=
07535 04556 /1202 10076 20065 39904 40221 53003 69902 700//
  333 10094 20060 4//// 69907 90710 91104
  555 60005=
07558 04/70 /1404 10075 20068 39376 40215 53007 69902 700//
  333 10085 20064 4//// 60007 90710 91106
  555 60005=
07577 04/20 /0000 10094 20083 30133 40224 53003 69902 710//
  333 10108 20089 4/000 60007 90710 91102
  555 60005=
07591 04/// /0000 10048 20020 39202 4//// 53009 60002 700//
  333 10085 20016 4//// 60007 90710 91108
  555 60005=
07607 04568 81104 10108 20087 30137 40209 51002 60002 700//
  333 10140 20089 4//// 60007 90710 91105
  555 60005=
07621 04563 80302 10095 20069 39774 40210 51003 69902 700//
  333 10113 20071 4//// 60007 90710 91104
  555 60005=
07627 04569 81601 10091 20062 39720 40216 51006 60002 700//
  333 10120 20047 4//// 60007 90710 91102
  555 60005=
07630 02559 80302 10109 20076 30034 40216 53007 69902 885//
  333 10121 20082 60007 84624 88630 90710 91104 93100
  555 60005=
07643 02562 80105 10115 20091 30211 40221 53008 60002 885//
  333 10125 20103 60007 82621 88650 90710 91109 93100
  555 60005=
07650 02665 71802 10108 20082 30176 40215 53006 60002 878//
  333 10143 20107 60007 81833 87646 90710 91103 93100
  555 60005=
07661 02675 60606 10117 20089 30053 40215 53005 60002 86500
  333 10136 20108 60007 86633 90710 91108 92428
  555 60005=
07690 02570 80708 10142 20100 30185 40216 53010 60002 875//
  333 10165 20095 60007 84620 85636 90710 91112 93100
  555 60005=
07747 02465 80603 10118 20107 30164 40217 53012 60002 878//
  333 10146 20083 60007 84611 87633 90710 91108
  555 60005=
07761 02475 70604 10114 20090 30200 40211 53006 60002 81638
  333 10163 20051 60007 81716 84466 87276 90710 91105 93100
  555 60005=
07790 02582 62204 10109 20090 30199 40214 53005 60002 8253/
  333 10159 20087 60007 82621 85365 90710 91105 93100
  555 60005=
0000013300
138
SMBJ20 DBBB 111800
AAXX 11184
65338 31950 52204 10325 20207 39908 40093 70522 80002
  333 10355 58017 85076=
/=
0000012800
139
SMBJ20 DBBB 111800
AAXX 11184
65338 31950 52204 10325 20207 39908 40093 70522 80002
  333 10355 58017 85076=
0000049000
140
SMSQ10 LZIB 111800
AAXX 11181
11816 11365 70000 10039 20027 30021 40187 57004 60002 70262 85671
  333 10074 85709 87458=
11826 12765 71501 10027 20006 39988 40192 55004 60002 8557/
  333 10065 85656 87358=
11903 12670 60000 10009 21008 39807 40197 55003 60002 85572
  333 10066 81634 85357=
11934 12986 69901 11004 21045 39344 42777 57008 60002 82058
  333 10043 82363 86270=
11968 12365 22001 11002 21002 39907 40196 57009 60002 81601
  333 10052 81709=
0000063100
141
SMSQ40 LZIB 111800
AAXX 11181
11841 12965 70000 10027 21006 39801 40184 57007 60002 8707/
  333 10069 87360=
11858 12675 82702 10054 20032 30039 40192 53001 60002 885//
  333 10104 88646=
11916 12689 62912 11056 21063 37942 48446 53002 60002 85072
  333 11056 44037 85440 91018 91121 93537 9514/
  444 16180=
11927 12960 63301 10022 21012 39927 40195 55001 60002 82072
  333 10070 82360 84073=
11930 12589 52912 11059 21146 37307 47979 51002 60002 81041
  333 11054 44060 81330 84060 91021 91124
  444 27101=
11993 12962 70000 11004 21014 39974 40198 57011 60002 80001
  333 10045 87070=
0000076300
142
SMSQ50 LZIB 111800
AAXX 11181
11855 11658 80000 10037 20022 30020 40189 55003 69902 76022 84548
  333 10077 81643 87270=
11867 12960 73401 10018 20002 39867 40190 55003 60002 87070
  333 10075 87359=
11880 12765 80000 10024 20011 30017 40192 55003 60002 875//
  333 10093 87650=
11918 12982 72704 10009 21025 39341 42772 55009 60002 85058
  333 10038 85360=
11933 12982 72603 11023 21063 38632 48448 57008 60002 82042
  333 11001 42009 82360 87070 91009=
11938 12680 42204 11014 21031 39106 42780 55003 60002 81572
  333 10026 41998 81636 83360=
11976 11225 81702 10005 21006 39923 40194 57013 60002 71022 886//
  333 10017 88706=
11978 11457 80000 10004 21002 30062 40196 57014 60002 71022 886//
  333 10010 88710=
0000226700
143
SMSQ51 LZIB 111800
AAXX 11181
11812 36/// /1903 10026 20026 39483 42786 57003
  333 10062=
11813 16/// /0000 10045 20020 39833 40186 57001 60002
  333 10072=
11816 11365 70000 10039 20027 30021 40187 57004 60002 70262 85671
  333 10074 85709 87458=
11819 16/// /0000 10028 20021 39970 40190 57005 69912
  333 10052=
11826 12765 71501 10027 20006 39988 40192 55004 60002 8557/
  333 10065 85656 87358=
11841 12965 70000 10027 21006 39801 40184 57007 60002 8707/
  333 10069 87360=
11855 11658 80000 10037 20022 30020 40189 55003 69902 76022 84548
  333 10077 81643 87270=
11856 36/// /1403 10042 21002 39867 40190 57007
  333 10079=
11858 12675 82702 10054 20032 30039 40192 53001 60002 885//
  333 10104 88646=
11867 12960 73401 10018 20002 39867 40190 55003 60002 87070
  333 10075 87359=
11880 12765 80000 10024 20011 30017 40192 55003 60002 875//
  333 10093 87650=
11900 16/// /0601 10022 21009 39853 40195 57004 60002
  333 10061=
11903 12670 60000 10009 21008 39807 40197 55003 60002 85572
  333 10066 81634 85357=
11916 12689 62912 11056 21063 37942 48446 53002 60002 85072
  333 11056 44037 85440 91018 91121 93537 9514/
  444 16180=
11918 12982 72704 10009 21025 39341 42772 55009 60002 85058
  333 10038 85360=
11927 12960 63301 10022 21012 39927 40195 55001 60002 82072
  333 10070 82360 84073=
11930 12589 52912 11059 21146 37307 47979 51002 60002 81041
  333 11054 44060 81330 84060 91021 91124
  444 27101=
11933 12982 72603 11023 21063 38632 48448 57008 60002 82042
  333 11001 42009 82360 87070 91009=
11934 12986 69901 11004 21045 39344 42777 57008 60002 82058
  333 10043 82363 86270=
11938 12680 42204 11014 21031 39106 42780 55003 60002 81572
  333 10026 41998 81636 83360=
11952 16/// /1502 11011 21043 39332 42774 57010 60002
  333 10041=
11958 36/// /2010 11036 21037 3//// 4////
  333 10015=
11968 12365 22001 11002 21002 39907 40196 57009 60002 81601
  333 10052 81709=
11976 11225 81702 10005 21006 39923 40194 57013 60002 71022 886//
  333 10017 88706=
11978 11457 80000 10004 21002 30062 40196 57014 60002 71022 886//
  333 10010 88710=
11993 12962 70000 11004 21014 39974 40198 57011 60002 80001
  333 10045 87070=
0000011000
144
UANT99 KDDL 111803
ARP UAE205 5005N02244W 1803 F340 MS49 195/67 KT
A6ENL DDL XXF 111803 F19A
0000009200
145
SAFJ31 NFNA 111800
METAR NFNA 111800Z 00000KT 9999 SCT020 BKN300 25/24 Q1005
00000000