0000667900
226
SMMX01 MXBA 111800
AAXX 11181
76040 32960 00902 10162 20059 30208 40222 52011 91747 333   
10248 20050 30/// 58016 98660=
76061 32981 02702 10174 20019 30154 40229 52013 91740 333   
10178 20090 30/// 58013=
76122 32970 01601 10146 20059 38546 40209 57002 91745 333   
10148 21020 30/// 58043=
76220 32956 00000 10074 2//// 38207 40333 50010 91745 333   
10074 21074 30/// 58059=
76225 32960 00901 10169 20009 38671 40211 50003 91745 333   
10169 20034 30/// 58060=
76243 32974 03401 10199 20061 39933 40232 42015 91740 333   
10210 20070 30/// 58082=
76256 32980 02903 10219 20048 30174 40188 52004 91745 333   
10230 20097 30/// 58006=
76258 32975 03605 10225 20040 3//// 4//// 5//// 91750 333   
10226 20090 30/// 56000 58///=
76305 32970 03404 10240 21029 30179 40187 52008 91740 333   
10243 20130 30/// 58015=
76323 32970 00000 10162 21010 38359 40349 52006 91735 333   
10164 21005 30/// 58044=
76342 32962 00602 10230 20049 39517 40228 52009 91750 333   
10234 20105 30/// 58075=
76382 32980 03401 10188 20103 38952 40236 57001 91750 333   
10200 20081 30/// 58047=
76390 32970 41605 10174 21012 38279 40236 52011 80001 91748 
333   10184 20040 30/// 56008 58056=
76402 31958 02401 10238 20098 30129 40187 52006 70544 91740 
333   10240 20088 30/// 58017=
76405 32980 00502 10242 20133 30167 40189 52009 91750 333   
10244 20160 30/// 58016=
76458 32870 11402 10248 20145 30161 40166 57008 81030 91740 
333   10258 20142 30/// 56/4/ 58014 81356=
76471 32780 60000 10136 20016 37727 40208 52011 86050 91750 
333   10138 20042 30/// 56/1/ 58032 86357=
76491 32660 53202 10230 20139 39819 40211 52005 85500 91750 
333   10240 20122 30/// 56400 58066 85640=
76499 31860 30000 10238 20191 30160 40182 52004 70344 83070 
91747 333   10239 20146 30/// 56090 58066 83357=
76519 32560 80000 10125 20041 38408 40275 52020 882// 91753 
333   10128 20025 30/// 565// 58036 88820=
SMMX01 MXBA 111800 
AAXX 11181
76539 31565 63602 10150 20083 38194 40238 42009 70544 86400 
91750 333   10233 20063 30/// 56800 59032 86624=
76543 31670 53604 10256 20208 30166 40199 50005 70544 81550 
91745 333   10258 20168 31/// 56770 58039 81650 94358=
76548 31868 53202 10242 20198 30183 40193 50009 70544 85030 
91740 333   10246 20176 30/// 56050 58033 85358=
76556 01970 71303 10210 20135 39139 40146 50003 69961 70162 
87030 91745 333   10214 20115 31/// 56050 58022 69937 87360 
=
76577 32570 80502 10198 20145 38068 40182 50000 83530 91750 
333   10202 20107 30/// 56150 58022 83626 85360=
76581 32970 62802 10222 20173 39103 40227 52010 88020 91750 
333   10230 20085 30/// 56020 58043=
76593 32470 33203 10288 20236 30164 40166 58001 8227/ 91750 
333   10305 20202 30/// 5677/ 58002 82820 81330 91005 91532 
=
76612 01562 70000 10135 20111 38513 40219 52002 69901 75022 
82230 91745 333   10136 20095 31/// 56110 58034 69907 82630 
85358=
76625 32475 20906 10206 20066 38163 40161 57005 82200 91740 
333   10206 20108 30/// 56600 58026 82825=
76634 31570 63402 10178 20048 37882 40206 57002 70500 86200 
91745 333   10192 20080 30/// 563// 58034 86827=
76644 32460 21402 10302 20231 30146 40159 57011 82100 91750 
333   30/// 563// 58000 82820=
76658 31558 42702 10281 20140 39656 40163 57011 70540 81252 
91750 333   10284 20180 31/// 56111 58004 81822 82356 81070 
94022 98904=
76662 32670 30102 10226 20101 38482 40172 57009 83200 91740 
333   10240 20102 30/// 56/00 58014 83833=
76675 31570 30702 10173 20028 37396 40219 56006 70544 83200 
91747 333   10177 21008 30/// 565// 58018 83826 98470=
76680 31558 63602 10182 20070 37780 40130 55010 70400 83810 
91755 333   10190 20080 30/// 56770 58030 83826 83458=
76681 31760 63604 10196 20066 37806 40203 58007 70542 86200 
91745 333   10196 20045 30/// 56000 58029 86897=
76683 32670 30601 10205 20088 37847 40195 56013 83200 91745 
333   10207 20058 30/// 56400 58014 83834=
76685 32570 22701 10220 20058 37880 40165 82100 91750 333   
10222 20060 30/// 56900 58010 82827=
76687 31570 10701 10236 20124 38698 40187 58004 70300 81100 
91745 333   10242 20102 30/// 563// 58016 81826=
76692 31556 10403 10255 20198 30153 40172 50005 70544 81100 
91745 333   10259 20186 30/// 564// 58002 81820=
SMMX01 MXBA 111800 
AAXX 11181
76695 32356 21204 10298 20277 30150 40156 57010 82700 91750 
333   10311 20185 30/// 58006 82707=
76737 31480 11602 10246 20146 38790 40175 50000 70300 81100 
91745 333   10251 20118 30/// 56900 58014 81810 91106 91516 
=
76750 32560 11004 10296 20237 30151 40161 57014 81100 91750 
333   10300 20168 30/// 56300 58001 81820=
76762 32904 03303 10270 20184 38773 40156 57012 91750 333   
10271 20124 30/// 54305 58013=
76773 31566 20601 10254 20122 38432 40160 57012 70544 82100 
91748 333   10260 20080 30/// 56900 59002 82820=
76775 31570 11301 10267 20110 38533 40173 57015 70300 81200 
91745 333   10270 20112 30/// 56800 58001 81824=
76805 32070 02102 10323 20216 30130 40134 57018 91750 333   
10351 20212 30/// 59001=
76840 32550 10000 10330 20226 30075 40131 57019 81200 91745 
333   10344 20155 30/// 569// 59009 81828=
76845 32560 43601 10198 20132 37961 40198 56015 84100 91745 
333   10222 20075 30/// 56200 58013 84828=
76848 32670 20000 10247 20130 38393 40111 56008 82200 91750 
333   10252 20110 30/// 56100 58010 82848 98908=
76855 32980 02505 10310 20193 30082 40133 57006 91745 333   
10330 20218 30/// 58014 92000=
76903 31981 03102 10322 20218 39999 40138 58020 70400 91740 
333   10328 20223 30/// 58007=
76160 32962 00401 10182 20011 39946 40198 52008 91731 333   
10182 20085 30/// 58018=
76253 32982 03602 10224 20069 30112 40202 53008 91750 333   
10230 20090 30/// 58014 92001=
76412 31966 01801 10246 20106 30138 40182 52006 70544 91740 
333   10262 20100 30/// 58007=
76525 32780 80502 10086 21036 37506 40206 52006 88/2/ 91745 
333   10088 20062 30/// 56/1/ 58043 88458=
76632 31658 30402 10170 20090 37725 40191 52006 70311 83500 
91745 333   10175 20068 30/// 56100 58005 83642=
76640 31458 62201 10226 20198 30182 40194 52006 70222 8315/ 
91740 333   10240 20172 30/// 5677/ 58026 83812 83340=
76647 32570 41704 10306 20235 30141 40172 57016 83230 91750 
333   10308 20214 30/// 563/0 58002 83829=
76698 32560 31003 10300 20227 30157 40169 57008 83200 91750 
333   10314 20208 30/// 56200 58005 83820=
76833 32970 00000 10310 2//// 30130 40132 57014 91740 333   
10321 10218 30/// 58007 92000=
76843 32565 12301 10292 20213 39493 40134 57024 81200 91740 
333   10310 20175 30/// 569// 58003 81826=
0000019900
227
SMCD01 FTTJ 111800
AAXX 11184
64700 32960 30206 10240 20008 39799 40137 80002
  333 10297 58007 83075=
64750 32960 70000 10270 20080 39709 40123 80002
  333 10355 58017 87075=
0000067200
228
SXXX32 EUMS 111755 RRX
366C76AC
OT12 ID:IR-CHAB-07 DT:2014 01 11 17 54
:RAD /1 ///// ///// ///// ///// WM/.(6P ///)/PH/ ///P////D////P//P//X/P///HHHXX///H/P/P//////////////////X/////H/H/O///H/////////P///O/X/////H///O//////X////W//H////H//XO/H//X/X//P//////////OG////OG//GL/OFO////NGCG//OEG//OGIC/O/F//F/O/MG//G/A////O/////////OOF//N/G/C/H//NE///O/E//////F//O/KGN//F/OO//OOGE//O/G///F/G/O//GGE//NNG///////O/F/D///F/GOO//L/G//GNGG///D/B//EDGF/O/OO/////LFO//OO//N//GFGE/OO//F//OEG/C//O//A/GDOM///M//G//////O/NGD/O/F/F///EOOEO/DOE//OFF/////CCF/OG////GGFG/OGOG/CO//C//OOFF/G//O//E/O/CL//O/C/H//G////GOF///O/BFG/OGB/L//OFLE//GG/O/O//NE//N/F/////?S/G//E// 8/
0000039700
229
SXXX32 EUMS 111757 RRX
16590056
:PRS 1 /1 2672 2665 2656 2652 2651 2645 2646 2646 2652 2654 2659 2655 :RAD 1 /1 6917 6908 6901 6895 6894 6890 6889 6892 6895 6898 6904 6899 6903 6908 6902 6897 6900 6897 :ENC 6 /6 5110 5117 5110 5092 5091 5097 5061 5031 5049 5056 :ENB 6 /6 5109 5116 5109 5091 5089 5094 5058 5030 5048 5055 :SW1 57 /60 0 :SW2 24 /60 0 :BAT 5 /6 12.4 :NAME 16590056
0000037000
230
SXXX32 EUMS 111757 RRX
22E595B6
:PRS 1 /1 M 2881 2899 2885 2922 2929 2908 2922 2888 2898 2949 2919 2951 2917 2899 2916 2894 2907 2906 2898 2937 2933 2895 2952 2896 2913 2916 2855 2889 2884 :RAD 1 /3 6086 6094 6096 6098 6084 6087 6086 6075 6058 6053 :ENC 2 /5 4206 4214 4209 4212 4210 4170 :SW1 57 /60 60 :SW2 27 /60 60 :BAT 14 /15 12.5 :NAME 22E595B6 /
0000065100
231
SXXX32 EUMS 111757 RRX
16AF741C
OT12 ID:SA-MAIS-07 DT:2014 01 11 17 47
:RAD /1 08844 08834 08872 08773 88812 08861 08811 08103 08889 08810 08819 08830 08831 08820 08893 08858 08870 08796 08887 08836 08875 08931 08799 08761 08810 08785 08799 08809 08800 08810 08773 08822 08020 08829 08867 08759 08792 08840 08786 08835 08818 08744 08727 08695 08769(08843 08895 08842 08819 08744 08834 08802 08772 08886 08845 08790 08832 08747 08733 08757 08784 08696 08745 08782 08736 08778 08798 08782 08765 08817 08815 08741 08804 08739 08716 08706 08819 08790 08749 08739 08761 08734 08824 08760 88747 08753 08745 08755 08752 /////
:BAT 14.4V
0000045200
232
SXXX32 EUMS 111758 RRX
32BD7124
:PRS 1 /1 1846 1843 1843 1839 1834 1830 1825 1823 1822 1820 1818 1815 1814 1814 1817 1822 1823 1826 1829 1832 1835 1838 1842 1845 1848 1850 1849 1848 1047 1846 :RAD 3 /3 7623 7614 7608 7601 7602 7611 7619 7630 7632 7631 7633 7633 7639 7638 7638 7636 7632 7629 7629 7630 :ENC 3 /5 4617 4604 4597 4209 4626 4627 4628 4635 4636 4630 4626 4625 :SW1 59 /60 0 :SW2 29 /60 60 :BAT 14 /15 12.4 :NAME 32BD71/4 /
0000067100
233
SXXX32 EUMS 111758 RRX
16F152DA
OT12 ID:IR-JASK-09 DT:2014 01 11 17 48
:RAD /1 03636 03631 03629 03636 03636 03643 03642 03656 03656 03654 03653 03652 03649 03634 03633 03622 03614 03618 03622 03622 03623 03635 03641 03623 03630 03622 03615 03609 03595 03594
:PR1 /1 00895 00889 00884 00884 00892 00893 00903 00907 00913 00913 00904 00910 00900 00890 00885 00879 00876 00869 00874 00873 00887 00890 00890 00889 00881 00875 00868 00858 00849 00845
:PR2 /1 02495 02492 02480 02484 02479 02492 02496 02514 02514 02513 02514 02501 02494 02491 02487 02472 02470 02475 02472 02484 02480 02498 02500 02498 02497 02485 02464 02469 02452 02455
:BAT 13.5V
0000070200
234
SXXX32 EUMS 111758 RRX
223412A2
OT12 ID:IND-SADENG DT:2014 01 11 17 57
:PRS /1 01131 01129 01129 01149 01095 01153 01068 01117 01139 01110 01132 01139 01190 01048 01178 01051 01064 01092 01176 01173 01117 01040 01056 01114 01115 01130 01205 01083 01113 01111
:ENC /1 -13556 -13563 -13559 -13563 -13609 -13569 -13589 -13596 -13566 -13573 -13566 -13546 -13539 -13629 -13553 -13656 -13633 -13583 -13513 -13519 -13576 -13636 -13626 -13583 -13576 -13559 -13473 -13589 -13589 -13596
:RAD /1 10876 10890 10889 10872 10829 10898 10870 10856 10884 10866 10840 10924 10894 10878 10856 10883 10902 10878 10961 10919 10879 10836 10758 10851 10843 10872 10921 10833 10915 10802
:BAT 11.7V/
0000037500
235
SXXX32 EUMS 111800
12FD90D0
:PRS 1 /1 1418 1417 1408 1397 1386 1382 1374 1379 1375 1378 1388 1389 :RAD 1 /3 5957 5945 5946 5951 5949 5940 5926 5909 5890 5868 :ENC 3 /6 5681 568/ 528/ 5662 5616 557/ 5222 /=/5 5145 5536 :RA/ 3 /6 4838 4842 4846 4819 4774 4738 4766 4734 4705 4695 :WW1 60 /60 60 :WW2 30 /60 60 :BAT 5 /6 12.5 :WTP 5 /6 28.4 28.4 :NAME 12/D90D0
0000041200
236
SXXX32 EUMS 111800 RRA
262D700E
:PRS 1 /1 3263 3298 3297 3285 3265 3319 3318 3320 3311 3309 3330 3283 3306 3341 3354 3285 3349 3332 3337 3358 3326 3351 3336 3336 3305 3332 3363 3358 3381 3347 :RAD 1 /3 5747 5763 5771 5775 5783 5790 5790 5795 5803 5801 5805 5825 5839 5832 5834 :ENC 5 /5 5871 5879 5899 5899 5914 5907 5935 5952 5948 5949 5981 5962 :SW1 60 /60 0 :BAT 14 /15 13.1 :NAME 262D700E /
0000045100
237
SXXX32 EUMS 111800 RRB
16289262
:PRS 1 /1 2665 2653 2663 2663 2672 2653 2664 2668 2654 2656 2659 2661 2671 2670 2650 2655 2665 2664 2655 2669 2663 2649 2660 2657 2662 2645 2661 2663 2655 2662 :RAD 1 /3 8119 8118 8118 8120 8116 8117 8119 8115 8115 8116 8113 8106 8099 8099 8099 8101 8102 8100 8091 8084 :ENC 5 /5 5488 5485 5488 5488 5489 5490 5481 5481 5469 5476 5462 5461 :SW1 60 /60 0 :SW2 30 /60 0 :BAT 14 /15 12.7 :NAME 16289262 /
0000010400
238
SMIN90 VAAU 111800
AAXX 11184
43014 32996 00000 10162 20092 39498 40160
  333 58021=
0000008300
239
SAIN90 VAAU 111800
METAR VAAU 111800Z 00000KT 6000 NSC 16/09 Q1017=
0000008700
240
UPIN90 VAAU 111800
PPAA 61171 43014
55392 34009 35511 31026 77999=

0000008100
241
UGIN90 VAAU 111800
PPBB 61171 43014
90037 36004 34510 32014=

0000009700
242
SPIN90 VOVZ 111800
SPECI VOVZ 111800Z VRB01KT 2000 BR NSC 21/20 Q1016 NOSIG = 

0000047200
243
SMIN90 VEGT 111800
AAXX 11184
42410 21495 80000 10170 20154 40178 71062 8432/
  333 58000 6990/ 84618 81925 88458=
42314 21495 70504 10166 20126 40185 70596 84330
  333 57970 58011 6990/ 81710 84618 81925 87360=
42415 21596 60000 10162 20130 40190 70152 83530
  333 59005 6990/ 83620 85360=
42623 31496 40000 10128 20098 39286 40180 70500 82530
  333 58001 82618 83360=
42309 21494 70000 10144 20137 40171 70562 84730
  333 59002 6996/=
0000036800
244
WVID20 WIII 111806
WIIF SIGMET 09 VALID 111745/112345 WIII-
WIIF JAKARTA FIR VA ERUPTION MT SINABUNG PSN N0310 E09823
VA CLD OBS AT 111745Z
SFC/FL170 N0350 E09830 - N0320 E09800 - N0245 E09830 -
N0320 E09855 - N0350 E09830 MOV NE 15KT
FCST VA CLD 112345Z
SFC/FL170 N0350 E09830 - N0320 E09800 - N0245 E09830 -
N0320 E09855 - N0350 E09830=
0000045700
245
SXXX32 EUMS 111800 RRC
324DF524
:PRS 1 /1 4437 4433 4429 4425 4420 4416 4412 4407 4403 4397 4392 4387 4382 4376 4371 4365 4359 4353 4346 4340 4333 4327 4320 4314 4307 4301 4294 4287 4280 4272 :RAD 1 /3 4483 4469 4453 4435 4417 4399 4379 4359 4338 4315 4292 4267 4242 4217 4191 4164 4135 4106 4082 4054 :ENC 5 /5 3393 3368 3339 3308 3275 3239 3200 3160 3118 3073 3028 2981 :SW1 60 /60 0 0 :SW2 30 /60 60 60 :BAT 14 /15 12.1 :NAME 324DF524 /
00000000