0000011100
206
UANT01 CWAO 111804
ARP DAL107 5011N04311W 1804 F350 MS60 284/54 KT
N195DN QXT AOW 111804 F39A
0000011000
207
UANT01 CWAO 111804
ARP DLH464 4542N04612W 1803 F360 MS58 310/61 KT
DABVM QXT AME 111804 F12A
0000015700
208
SSVX13 LFPW 111800
ZZYY 62687 11014 1800/ 166157 001331 6113/ 11119 40076 52011 22219
 00075 444 20130 11014 1757/ 50101 80098 80000 9/015=
0000015700
209
SSVX13 LFPW 111800
ZZYY 62714 11014 1800/ 734359 021703 6113/ 11119 40144 52020 22219
 00192 444 20130 11014 1757/ 50101 80100 80000 9/015=
0000015700
210
SSVX13 LFPW 111800
ZZYY 44610 11014 1800/ 750161 040667 6113/ 11119 40050 57017 22219
 00098 444 20130 11014 1658/ 50101 80150 80002 9/015=
0000015700
211
SSVX13 LFPW 111800
ZZYY 62713 11014 1800/ 733728 019409 6113/ 11119 40159 52008 22219
 00182 444 20130 11014 1757/ 50101 80098 80002 9/015=
0000368400
212
SMMX01 KWBC 111800
AAXX 11181
76220 32956 00000 10074 2//// 38207 40333 50010 91745 333 10074
21074 30/// 58059=
76243 32974 03401 10199 20061 39933 40232 42015 91740 333 10210
20070 30/// 58082=
76323 32970 00000 10162 21010 38359 40349 52006 91735 333 10164
21005 30/// 58044=
76342 32962 00602 10230 20049 39517 40228 52009 91750 333 10234
20105 30/// 58075=
76412 31966 01801 10246 20106 30138 40182 52006 70544 91740 333
10262 20100 30/// 58007=
76471 32780 60000 10136 20016 37727 40208 52011 86050 91750 333
10138 20042 30/// 56/1/ 58032 86357=
76539 31565 63602 10150 20083 38194 40238 42009 70544 86400 91750
333 10233 20063 30/// 56800 59032 86624=
76548 31868 53202 10242 20198 30183 40193 50009 70544 85030 91740
333 10246 20176 30/// 56050 58033 85358=
76556 01970 71303 10210 20135 39139 40146 50003 69961 70162=
76593 32470 33203 10288 20236 30164 40166 58001 8227/ 91750 333
10305 20202 30/// 5677/ 58002 82820 81330 91005 91532=
76640 31458 62201 10226 20198 30182 40194 52006 70222 8315/ 91740
333 10240 20172 30/// 5677/ 58026 83812 83340=
76644 32460 21402 10302 20231 30146 40159 57011 82100 91750 333
30/// 563// 58000 82820=
76737 31480 11602 10246 20146 38790 40175 50000 70300 81100 91745
333 10251 20118 30/// 56900 58014 81810 91106 91516=
76805 32070 02102 10323 20216 30130 40134 57018 91750 333 10351
20212 30/// 59001=
76040 32960 00902 10162 20059 30208 40222 52011 91747 333 10248
20050 30/// 58016 98660=
76061 32981 02702 10174 20019 30154 40229 52013 91740 333 10178
20090 30/// 58013=
76122 32970 01601 10146 20059 38546 40209 57002 91745 333 10148
21020 30/// 58043=
76160 32962 00401 10182 20011 39946 40198 52008 91731 333 10182
20085 30/// 58018=
76225 32960 00901 10169 20009 38671 40211 50003 91745 333 10169
30034 30/// 58060=
76253 32982 03602 10224 20069 30112 40202 53008 91750 333 10230
20090 30/// 58014 92001=
76256 32980 02903 10219 20048 30174 40188 52004 91745 333 10230
20097 30/// 58006=
76258 32975 03605 10225 20040 3//// 4//// 5//// 91750 333 10226
20090 30/// 56000 58///=
76305 32970 03404 10240 21029 30179 40187 52008 91740 333 10243
20130 30/// 58015=
76382 32980 03401 10188 20103 38952 40236 57001 91750 333 10200
20081 30/// 58047=
76390 32970 41605 10174 21012 38279 40236 52011 80001 91748 333
10184 20040 30/// 56008 58056=
76458 32870 11402 10248 20145 30161 40166 57008 81030 91740 333
10258 20142 30/// 56/4/ 58014 81356=
76491 32660 53202 10230 20139 39819 40211 52005 85500 91750 333
10240 20122 30/// 56400 58066 85640=
76499 31860 30000 10238 20191 30160 40182 52004 70344 83070 91747
333 10239 20146 30/// 56090 58066 83357=
76525 32780 80502 10086 21036 37506 40206 52006 88/2/ 91745 333
10088 20062 30/// 56/1/ 58043 88458=
76577 32570 80502 10198 20145 38068 40182 50000 83530 91750 333
10202 20107 30/// 56150 58022 83626 85360=
76581 32970 62802 10222 20173 39103 40227 52010 88020 91750 333
10230 20085 30/// 56020 58043=
76612 01562 70000 10135 20111 38513 40219 52002 69901 75022=
76634 31570 63402 10178 20048 37882 40206 57002 70500 86200 91745
333 10192 20080 30/// 563// 58034 86827=
76658 31558 42702 10281 20140 39656 40163 57011 70540 81252 91750
333 10284 20180 31/// 56111 58004 81822 82356 81070 94022 98904=
76680 31558 63602 10182 20070 37780 40130 55010 70400 83810 91755
333 10190 20080 30/// 56770 58030 83826 83458=
76681 31760 63604 10196 20066 37806 40203 58007 70542 86200 91745
333 10196 20045 30/// 56000 58029 86897=
76683 32670 30601 10205 20088 37847 40195 56013 83200 91745 333
10207 20058 30/// 56400 58014 83834=
0000028200
213
SMCU01 KWBC 111800
AAXX 11181
78229 12559 21904 10291 20179 30112 40188 57020 60004 82202 333
82830=
78255 12559 31104 10283 20150 30035 40184 57030 60001 83201 333
10289 20175 83820=
78264 31560 21307 10294 20196 30097 40172 57030 70200 82200 333
82820=
0000107500
214
SMMX01 KWBC 111800 RRA
AAXX 11181
76685 32570 22701 10220 20058 37880 40165 82100 91750 333 10222
20060 30/// 56900 58010 82827=
76687 31570 10701 10236 20124 38698 40187 58004 70300 81100 91745
333 10242 20102 30/// 563// 58016 81826=
76692 31556 10403 10255 20198 30153 40172 50005 70544 81100 91745
333 10259 20186 30/// 564// 58002 81820=
76762 32904 03303 10270 20184 38773 40156 57012 91750 333 10271
20124 30/// 54305 58013=
76840 32550 10000 10330 20226 30075 40131 57019 81200 91745 333
10344 20155 30/// 569// 59009 81828=
76843 32565 12301 10292 20213 39493 40134 57024 81200 91740 333
10310 20175 30/// 569// 58003 81826=
76845 32560 43601 10198 20132 37961 40198 56015 84100 91745 333
10222 20075 30/// 56200 58013 84828=
76848 32670 20000 10247 20130 38393 40111 56008 82200 91750 333
10252 20110 30/// 56100 58010 82848 98908=
76855 32980 02505 10310 20193 30082 40133 57006 91745 333 10330
20218 30/// 58014 92000=
76903 31981 03102 10322 20218 39999 40138 58020 70400 91740 333
10328 20223 30/// 58007=
0000008900
215
SAIQ01 ORBI 111800
METAR ORBM 111800Z 00000KT 7000 SKC 06/04 Q1020 NOSIG=
0000021800
216
SAJD20 OJAI 111800
METAR OJAI 111800Z 00000KT 6000 HZ SCT030 07/06 Q1026 NOSIG=
METAR OJAM 111800Z 28006KT 5000 HZ SCT025 08/05 Q1025 NOSIG=
METAR OJAQ 111800Z 35004KT 9999 BKN030 16/09 Q1024 NOSIG=
0000011000
217
SMIN90 VANP 111800
AAXX 11184
42671 31995 00000 10106 20095 39558 40205 71000
  333 58045=
0000011000
218
SAER41 OMAM 111757 RRF
METAR OMAM 111800Z 02006KT 9999NDV -RA SCT045 OVC090 18/15 Q1020 A3013=
0000010300
219
SAER41 OMAM 111800 RRF
METAR OMAM 111800Z 02006KT 9999 SCT045 OVC090 18/15 Q1016 A3000=
0000021800
220
SAJD20 OJAM 111800
METAR OJAI 111800Z 00000KT 6000 HZ SCT030 07/06 Q1026 NOSIG=
METAR OJAM 111800Z 28006KT 5000 HZ SCT025 08/05 Q1025 NOSIG=
METAR OJAQ 111800Z 35004KT 9999 BKN030 16/09 Q1024 NOSIG=
0000024400
221
SMVD17 KWNB 111800 RRD
BBXX
51101 11181 99243 71621 46/// /0512 10229 20196 40136 54000 91750
22200 00236 11007 20705 305// 41006 70036 333 91215 555 11126
22134 31749 40615 61749 054117 058113 057116 058114 056102 063106=
0000024400
222
SMVD15 KWNB 111800 RRD
BBXX
41009 11181 99285 70802 46/// /1910 10241 20210 40162 58029 91750
22200 00241 10803 20703 308// 40802 70016 333 91211 555 11102
22108 31749 41811 61749 188093 190086 193088 194090 195090 197089=
0000069400
223
SMVD19 KWNB 111800 RRA
BBXX
46126 11181 99540 71666 46/// /2207 10044 49801 91736 22200 00048
10301 70004 333 91210 555 11079 22086=
46126 11181 99540 71666 46/// /2207 10044 49801 91740 22200 00048
10301 70004 333 91210 555 11079 22086=
46126 11181 99540 71666 46/// /2205 10044 49801 91742 22200 00048
10301 70004 333 91208 555 11049 22053=
46126 11181 99540 71666 46/// /2205 10036 49798 91745 22200 00049
10301 70004 333 91208 555 11049 22053=
46078 11181 99560 71526 46/// /1310 10021 20021 49840 58045 91750
22200 00044 11104 20703 321// 41103 70021 333 91212 555 11103
22108 31707 41312 61749 129097 129099 129096 129094 132091 139088
81310 91745=
0000003800
224
UKIL01 BIRK 111800
NIL
0000014000
225
SMMF01 TFFR 111800
AAXX 11184
78897 12565 30813 10280 20198 40165 56026 69901 83200
  333 10285 20206 58009 70006 83826=
00000000