0000014500
915
SMVB01 KWBC 111200 RRK
BBXX
MEPP3 11123 99125 11012 41298 11202 10260 20246 40152 52002 70200
 811// 22200 00/// 20000 80250=
0000019700
916
SNVF01 KWBC 111400 RRI
BBXX
DBFC 11141 99544 10136 46/// /2207 10055 20043 40065 57027 22270
 00054=
DBFX 11141 99539 10087 46/// /3208 10059 20059 40074 57013 22220
 00069=
0000014400
917
SNVB01 KWBC 111700 RRE
BBXX
DMMC 11174 99094 11072 41497 60727 10253 20206 40137 57003 7//22
 8454/ 22213 00261 20506 80220=
0000129800
918
SNVD01 KWBC 111700 RRM
BBXX
46214 11171 99379 71235 46/// ///// 1//// 91726 22200 00113 11206
 21003 331// 41205 70028=
46216 11171 99343 71198 46/// ///// 1//// 91712 22200 00151 11202
 21002 326// 41202 70012=
46222 11171 99336 71183 46/// ///// 1//// 91703 22200 00155 11302
 21001 328// 41301 70010=
46225 11171 99329 71174 46/// ///// 1//// 91712 22200 00154 11402
 20701 328// 41402 70011=
46223 11171 99335 71178 46/// ///// 1//// 91718 22200 00156 11402
 20901 328// 41401 70008=
51205 11171 99210 71564 46/// ///// 1//// 91721 22200 00248 11205
 21004 335// 41203 70027=
KIRH 11174 99283 70779 412// 51924 10256 20224 40172 7//00 8313/
 22235 00211 20403 310// 40502 5//// 6//// 80233 ICE /////=
46126 11171 99540 71666 46/// /2308 10041 49798 91700 22200 00048
 10301 70004 333 91213 555 11089 22097=
46126 11171 99540 71666 46/// /2206 10043 49794 91724 22200 00048
 10301 70004 333 91211 555 11067 22073=
46126 11171 99540 71666 46/// /2207 10044 49801 91730 22200 00048
 10301 70004 333 91210 555 11074 22080=
46126 11171 99540 71666 46/// /2407 10043 49794 91718 22200 00048
 1//00 70002 333 91215 555 11079 22086=
46126 11171 99540 71666 46/// /2407 10043 49794 91720 22200 00048
 1//00 70002 333 91215 555 11079 22086=
0000017500
919
SMVE01 KWBC 111800
BBXX
C6SE7 11184 99318 31541 41797 20514 10220 2//// 40150 54/// 70200
 82489 22214 04240 20102 310// 41106 50102 6//// 8//// ICE /////=
0000081300
920
SNVF01 KWBC 111700 RRG
BBXX
DBJM 11171 99542 10079 46/// /2911 10070 21157 40110 52030 22210
 00075=
DBKV 11171 99543 10102 46/// /2805 10048 20029 40083 52023 22220
 00063=
DBBT 11171 99440 10308 46/// /2005 10101 20065 40219 57001 22271
 00092=
DBEB 11171 99538 10082 41/// /2815 10061 20029 40109 52029 22231
 00063=
DBFR 11171 99533 10047 46/// /2916 10071 20022 40163 52016 22213
 00080=
DBFH 11171 99539 10087 46/// /2905 10063 20033 40111 52032 22210
 00056=
DBEA 11171 99540 10082 46/// /2913 10068 20029 40106 52029 22250
 00067=
DBBI 11171 99535 10099 46/// /2703 10051 20034 40091 52016 22200
 00049=
DBBC 11171 99536 10086 46/// /2807 10056 20033 40116 52034 22200
 00063=
DBBA 11171 99541 10121 46/// ///// 10049 20036 40061 57009 22220
 00066=
0000017400
921
SMVA01 KWBC 111800
BBXX
ONGA 11184 99297 30406 41797 81409 10270 2021/ 40180 54/// 70222
 8826/ 22222 00250 20406 3//// 4//// 5//// 6//// 80230 ICE /////=
0000014700
922
SMVD11 KWBC 111800
BBXX
A8RV6 11184 99117 70965 41998 00811 10257 20250 40137 58003 70100
 80000 22263 00270 20502 30000 80252=
0000035700
923
SMVB01 KWBC 111800
BBXX
46070 11181 99551 11753 46/// ///// 10018 20000 49802 51008 91750
 22200 00038 11008 70041=
52211 11181 99153 11457 46/// ///// 1//// 91748 22200 00281 10906
 20906 335// 41102 70032=
LAHR7 11184 99262 11721 41199 63113 10210 20195 40180 54000 70222
 8662/ 22233 00200 2//// 309// 41002 5//// 6//// 80200=
0000022600
924
SMVF01 KWBC 111800
BBXX
DK7210 11181 99540 10066 46/// /2818 30116=
WDC6923 11184 99378 70244 41598 73029 10145 2010/ 40113 53032
 75065 863// 22253 0//// 20805 33327 41106 51405 6//// 80120 ICE
 /////=
0000299700
925
SMVD01 KWBC 111800
BBXX
9VVD 11184 99422 71546 41598 62504 10125 20074 40200 52010 7//11
 84478 22224 04150 20506 80100=
DQVH 11183 99238 71131 41598 23310 10210 20180 40185 54000 70200
 82145 22273 00239 20702 334// 40702 5//// 80190=
VRIB3 11184 99543 71638 41398 82225 10045 20010 49814 54010 75157
 88/// 22275 0//// 2//// 3//// 4//// 80035=
46114 11181 99367 71223 46/// ///// 1//// 91738 22200 00126 11507
 21003 331// 41506 70036=
44096 11181 99370 70758 46/// ///// 1//// 91747 22200 00075 10803
 20602 313// 40802 70016=
44099 11181 99369 70757 46/// ///// 1//// 91748 22200 00072 10903
 20903 311// 41101 70017=
46084 11181 99566 71361 46/// /3111 10029 20007 49881 53015 91750
 22200 00072 11104 20803 300// 41102 70021 333 91214 555 11118
 22124 31655 42915 61749 309110 287094 292093 296102 293104 289117
 82913 91653=
46014 11181 99394 71240 46/// /1808 10107 40219 53012 91750 22200
 00112 11406 20602 3//// 41406 70031 333 91210 555 11087 22093
 31713 41612 61749 172082 167082 163089 164090 163093 161090=
46011 11181 99350 71210 46/// /3208 10137 40237 53016 91750 22200
 00141 11306 20602 333// 41306 70031 333 91210 555 11086 22092
 31749 43210 61749 318080 320075 316067 316066 318069 317065=
41002 11181 99319 70748 46/// ///// 10236 40169 58036 91750 22200
 00237 10905 70025=
41113 11181 99284 70805 46/// ///// 1//// 91740 22200 00184 10902
 20902 70010=
41115 11181 99184 70673 46/// ///// 1//// 91741 22200 10802 20802
 301// 41101 70011=
44100 11181 99363 70756 46/// ///// 1//// 91734 22200 00091 10804
 20804 312// 41101 70019=
46215 11181 99352 71209 46/// ///// 1//// 91735 22200 00149 11305
 20902 326// 41304 70023=
46219 11181 99332 71199 46/// ///// 1//// 91740 22200 00142 11305
 21003 330// 41304 70023=
46232 11181 99325 71174 46/// ///// 1//// 91733 22200 00161 11303
 21002 328// 41302 70014=
46251 11181 99338 71196 46/// ///// 1//// 91739 22200 00153 11303
 20902 328// 41302 70014=
46217 11181 99342 71194 46/// ///// 1//// 91739 22200 00153 11102
 21002 327// 41102 70011=
46243 11181 99462 71241 46/// ///// 1//// 91746 22200 00088 11010
 21008 323// 41105 70048=
51206 11181 99198 71550 46/// ///// 1//// 91733 22200 00246 11005
 21004 311// 41102 70023=
C6JT8 11184 99233 70875 41598 11609 10260 20229 40166 70200 811//
 22233 201// 30000 80239=
44058 11181 99376 70763 46/// /1706 10088 40055 91740 333 91207
 555 11065 22070=
44059 11181 99368 70763 46/// /2206 10205 40058 91740 333 91210
 555 11072 22078=
44041 11181 99372 70768 46/// /2207 10176 91740 333 91210 555
 11084 22092=
44062 11181 99386 70764 46/// /1708 10060 40031 91740 333 91209
 555 11097 22105=
44063 11181 99390 70764 46/// /1905 10066 40012 91740 333 91207
 555 11062 22068=
44042 11181 99380 70763 46/// /1605 10085 40039 91740 333 91206
 555 11059 22064=
44064 11181 99370 70760 46/// /2007 1//// 40065 91740 333 91209
 555 11081 22088=
0000013400
926
UAPF01 NTAA 111800
AIREP
THT77   0516S 15524W 1739 F390 MS55 206/014=
THT77   0650S 15434W 1753 F390 MS55 225/016=
0000009900
927
SAQT31 OTBD 111800
METAR OTBD 111800Z VRB01KT 9999 FEW020 BKN120 17/13 Q1021 NOSIG=
0000031500
928
SABN31 OBBI 111800
METAR OBBI 111800Z 26007KT CAVOK 17/13 Q1021 NOSIG=
METAR OEDF 111800Z 29007KT CAVOK 14/09 Q1021 NOSIG=
METAR OEDR 111800Z 29008KT CAVOK 14/10 Q1019 NOSIG=
METAR OTBD 111800Z VRB01KT 9999 FEW020 BKN120 17/13 Q1021 NOSIG=
METAR OKBK 111800Z 30008KT CAVOK 12/08 Q1021 NOSIG=
0000506500
929
SMMX01 MXBA 111800
AAXX 11181
76040 32960 00902 10162 20059 30208 40222 52011 91747 333   
10248 20050 30/// 58016 98660=
76061 32981 02702 10174 20019 30154 40229 52013 91740 333   
10178 20090 30/// 58013=
76122 32970 01601 10146 20059 38546 40209 57002 91745 333   
10148 21020 30/// 58043=
76220 32956 00000 10074 2//// 38207 40333 50010 91745 333   
10074 21074 30/// 58059=
76225 32960 00901 10169 20009 38671 40211 50003 91745 333   
10169 30034 30/// 58060=
76243 32974 03401 10199 20061 39933 40232 42015 91740 333   
10210 20070 30/// 58082=
76256 32980 02903 10219 20048 30174 40188 52004 91745 333   
10230 20097 30/// 58006=
76258 32975 03605 10225 20040 3//// 4//// 5//// 91750 333   
10226 20090 30/// 56000 58///=
76305 32970 03404 10240 21029 30179 40187 52008 91740 333   
10243 20130 30/// 58015=
76323 32970 00000 10162 21010 38359 40349 52006 91735 333   
10164 21005 30/// 58044=
76342 32962 00602 10230 20049 39517 40228 52009 91750 333   
10234 20105 30/// 58075=
76382 32980 03401 10188 20103 38952 40236 57001 91750 333   
10200 20081 30/// 58047=
76390 32970 41605 10174 21012 38279 40236 52011 80001 91748 
333   10184 20040 30/// 56008 58056=
76458 32870 11402 10248 20145 30161 40166 57008 81030 91740 
333   10258 20142 30/// 56/4/ 58014 81356=
76471 32780 60000 10136 20016 37727 40208 52011 86050 91750 
333   10138 20042 30/// 56/1/ 58032 86357=
76491 32660 53202 10230 20139 39819 40211 52005 85500 91750 
333   10240 20122 30/// 56400 58066 85640=
76499 31860 30000 10238 20191 30160 40182 52004 70344 83070 
91747 333   10239 20146 30/// 56090 58066 83357=
76539 31565 63602 10150 20083 38194 40238 42009 70544 86400 
91750 333   10233 20063 30/// 56800 59032 86624=
76548 31868 53202 10242 20198 30183 40193 50009 70544 85030 
91740 333   10246 20176 30/// 56050 58033 85358=
76556 01970 71303 10210 20135 39139 40146 50003 69961 70162 
87030 91745 333   10214 20115 31/// 56050 58022 69937 87360 
=
SMMX01 MXBA 111800 
AAXX 11181
76577 32570 80502 10198 20145 38068 40182 50000 83530 91750 
333   10202 20107 30/// 56150 58022 83626 85360=
76581 32970 62802 10222 20173 39103 40227 52010 88020 91750 
333   10230 20085 30/// 56020 58043=
76593 32470 33203 10288 20236 30164 40166 58001 8227/ 91750 
333   10305 20202 30/// 5677/ 58002 82820 81330 91005 91532 
=
76612 01562 70000 10135 20111 38513 40219 52002 69901 75022 
82230 91745 333   10136 20095 31/// 56110 58034 69907 82630 
85358=
76634 31570 63402 10178 20048 37882 40206 57002 70500 86200 
91745 333   10192 20080 30/// 563// 58034 86827=
76644 32460 21402 10302 20231 30146 40159 57011 82100 91750 
333   30/// 563// 58000 82820=
76658 31558 42702 10281 20140 39656 40163 57011 70540 81252 
91750 333   10284 20180 31/// 56111 58004 81822 82356 81070 
94022 98904=
76680 31558 63602 10182 20070 37780 40130 55010 70400 83810 
91755 333   10190 20080 30/// 56770 58030 83826 83458=
76681 31760 63604 10196 20066 37806 40203 58007 70542 86200 
91745 333   10196 20045 30/// 56000 58029 86897=
76683 32670 30601 10205 20088 37847 40195 56013 83200 91745 
333   10207 20058 30/// 56400 58014 83834=
76685 32570 22701 10220 20058 37880 40165 82100 91750 333   
10222 20060 30/// 56900 58010 82827=
76687 31570 10701 10236 20124 38698 40187 58004 70300 81100 
91745 333   10242 20102 30/// 563// 58016 81826=
76692 31556 10403 10255 20198 30153 40172 50005 70544 81100 
91745 333   10259 20186 30/// 564// 58002 81820=
76737 31480 11602 10246 20146 38790 40175 50000 70300 81100 
91745 333   10251 20118 30/// 56900 58014 81810 91106 91516 
=
76762 32904 03303 10270 20184 38773 40156 57012 91750 333   
10271 20124 30/// 54305 58013=
76805 32070 02102 10323 20216 30130 40134 57018 91750 333   
10351 20212 30/// 59001=
76840 32550 10000 10330 20226 30075 40131 57019 81200 91745 
333   10344 20155 30/// 569// 59009 81828=
76845 32560 43601 10198 20132 37961 40198 56015 84100 91745 
333   10222 20075 30/// 56200 58013 84828=
76848 32670 20000 10247 20130 38393 40111 56008 82200 91750 
333   10252 20110 30/// 56100 58010 82848 98908=
76855 32980 02505 10310 20193 30082 40133 57006 91745 333   
10330 20218 30/// 58014 92000=
SMMX01 MXBA 111800 
AAXX 11181
76903 31981 03102 10322 20218 39999 40138 58020 70400 91740 
333   10328 20223 30/// 58007=
76160 32962 00401 10182 20011 39946 40198 52008 91731 333   
10182 20085 30/// 58018=
76253 32982 03602 10224 20069 30112 40202 53008 91750 333   
10230 20090 30/// 58014 92001=
76412 31966 01801 10246 20106 30138 40182 52006 70544 91740 
333   10262 20100 30/// 58007=
76525 32780 80502 10086 21036 37506 40206 52006 88/2/ 91745 
333   10088 20062 30/// 56/1/ 58043 88458=
76640 31458 62201 10226 20198 30182 40194 52006 70222 8315/ 
91740 333   10240 20172 30/// 5677/ 58026 83812 83340=
76843 32565 12301 10292 20213 39493 40134 57024 81200 91740 
333   10310 20175 30/// 569// 58003 81826=
0000011000
930
UANT01 CWAO 111757
ARP AFR378 4944N04802W 1757 F350 MS60 304/70 KT
FGLZJ QXT AOW 111757 J69A
0000015300
931
UACN10 CYKA 111757
VR
UA /OV CYVR 000000 /TM 1756 /FLDURC /TP UNKN /RM SEVERAL AIRCRAFT DEPARTING NE BOUND REPORTED MDT RIME IC 080-170
0000010900
932
UANT01 CWAO 111758
ARP VIR1Q 5402N01732W 1758 F360 MS65 211/95 KT
GVFAB DDL XXN 111758 F05A
0000011000
933
UANT01 CWAO 111758
ARP AAL47 6040N05417W 1758 F360 MS57 279/38 KT
N754AN DDL XXN 111758 F58A
0000151500
934
SMHO01 MHTG 111800
AAXX 11184
78700 32565 10403 10338 20199 30145 40150 56004 81100
333 10338 20270 30/// 56100 58010 81830=
78703 31570 30907 10285 20227 30155 40157 57012 70544 82241
333 10290 20211 30/// 56000 59001 82820=
78704 31570 33002 10273 20218 30144 40149 55002 70544 82130
333 10282 20206 30/// 56700 59021 82828=
78705 31570 33204 10276 20229 30138 40154 58014 70544 83130
333 10282 20182 30/// 56300 58002 83824=
78706 31570 33606 10282 20230 30145 40150 55005 70544 83200
333 10291 20190 30/// 56200 58005 83826=
78707 31560 52706 10240 20188 39409 40166 70544 85200
333 10240 20160 30/// 56200 59001 85823=
78708 31560 50000 10298 20225 30123 40153 58019 70544 81130
333 10298 20204 30/// 56000 58002 81826 84358=
78711 31570 31007 10299 20227 30135 40150 58014 70544 83200
333 10299 20230 30/// 56200 58005 83828=
78714 11570 71002 10253 20210 39710 4//// 58014 60031 72052 84220
333 10270 20191 31/// 56110 58002 60035 84825 87458=
78717 31560 30606 10234 20142 38969 40148 57011 70544 83100
333 10238 20160 30/// 56100 58007 83825=
78718 31660 10000 10288 20155 39258 40122 58016 70544 81100
333 10288 20150 30/// 56000 58010 81840=
78719 32570 10504 10214 20116 38370 40146 58007 81100
333 10214 20056 30/// 56200 58008 81824=
78720 31560 70808 10228 20146 39054 40140 56012 71544 87800
333 10244 20139 30/// 56100 59009 85826=
78724 32578 30404 10334 20198 30060 40117 58016 83100
333 10334 20232 30/// 56100 58009 83832=
00000000