0000071800
272
FCUR30 UKMS 111600
TAF UKHH 111640Z 1118/1203 28006MPS 9999 BKN011
         BKN013CB TEMPO  1118/1120 24008G17MPS 2100
         -SHSNRA BKN007 BKN013CB TEMPO 1120/1203
         24008G13MPS 2100 -SHSN BKN005 BKN013CB TX04/1118Z
         TN00/1203Z=
TAF UKDE 111632Z 1118/1203 27006G11MPS 9999 BKN010
         SCT020CB  TX04/1118Z TN00/1203Z=
TAF UKKK 111636Z 1118/1203 25007G12MPS 9999 SCT010
         BKN030  TEMPO 1118/1203 27009G14MPS 1000
         SHRASN BR BKN003 BKN015CB  TX03/1118Z
         TN00/1203Z=
TAF UKLR NIL=
TAF UKCW 111642Z 1118/1203 26009G15MPS 3100 BR BKN011
         BKN020CB TEMPO  1118/1203 1200 -SHRA BR
         BKN003 BKN015CB TX04/1118Z TN02/1203Z=
0000077300
273
FTUR30 UKMS 111600
TAF UKBB 111632Z 1118/1218 25005G10MPS 9999 BKN010
         TEMPO 1118/1122 3000 -SNRA BR OVC005  TEMPO
         1122/1207 2000 -SN BR OVC003  BECMG
         1207/1208 22006G11MPS  TEMPO 1208/1218
         27008G13MPS 2000 SN OVC005  TX00/1211Z TNM04/1205Z=
TAF UKCC 111640Z 1118/1218 26008G13MPS 9999 BKN010
         SCT015CB TEMPO 1118/1206 2100 -SHRASN BR
         BKN003 BKN015CB BECMG 1206/1208 22008G15MPS
         TX05/1212Z TN00/1202Z=
TAF UKDD 111639Z 1118/1218 28007G12MPS 9999 BKN011
         BKN020CB TEMPO  1118/1124 29009G14MPS 3100
         -SHRA BR BKN006 BKN015CB TEMPO 1200/1206
         2100 -SHRA BR BKN005 BKN015CB BECMG 1204/1206
         21006G11MPS TX04/1212Z  TN01/1200Z=
TAF UKKM NIL=
0000008600
274
SAYE20 OYRN 111700
METAR OYRN 111700Z 03006KT 9999 FEW030 24/19 Q1017=
0000008000
275
SAYE20 OYHD 111700
METAR OYHD 111700Z 21004KT CAVOK 28/22 Q1014=
0000008600
276
SAYE20 OYSN 111700
METAR OYSN 111700Z 26007KT 9999 SCT030 17/06 Q1027=
0000014500
277
SAME31 OLBA 111600 RRB
METAR OSDI 111600Z 17002KT CAVOK 09/01 Q1023=
METAR OSLK 111600Z 12002KT 9999 FEW030 SCT100 14/09 Q1023=
0000009100
278
SAPK31 OPPS 111655
METAR OPPS 111700Z SW-04KT 4000 HZ SCT200 09/02 Q1023.0=
0000060600
279
FCUR31 UKMS 111600
TAF UKLI 111632Z 1117/1203 24005G10MPS 9999 BKN020
         TEMPO 1117/1203  29006MPS 2100 -SHRA BR
         BKN010CB TX03/1117Z TN00/1203Z=
TAF UKON 111633Z 1118/1203 27006G11MPS 9999 SCT020
         TX05/1118Z  TNM01/1203Z=
TAF UKCM 111640Z 1118/1203 27006G12MPS 3100 BR SCT010
         BKN020CB  TX05/1118Z TN02/1203Z=
TAF UKLU 111640Z 1118/1203 VRB02MPS 3200 BR OVC007
         TEMPO 1118/1124  0500 -DZ FG OVC002
         TX01/1118Z TNM01/1203Z=
TAF UKLN 111633Z 1118/1203 26005MPS 3000 BR BKN030
         TX05/1118Z TN02/1203Z=
TAF UKKE NIL=
0000003800
280
SAER50 OMAE 111650
NIL
0000009700
281
SAPK31 OPST 111655
METAR OPST 111700Z 36004KT 4000 FU NSC 11/05 Q1022 NOSIG RH69=
0000077500
282
SAYE20 OYSC 111700
METAR OYAA 111700Z 14007KT 9999 FEW020 25/18 Q1017 NOSIG=
METAR OYAM 111700Z NIL=
METAR OYAR 111700Z NIL=
METAR OYAS 111700Z NIL=
METAR OYAT 111700Z NIL=
METAR OYDM 111700Z 08003KT CAVOK 13/08 Q////=
METAR OYGD 111700Z NIL=
METAR OYHD 111700Z 21004KT CAVOK 28/22 Q1014=
METAR OYHJ 111700Z NIL=
METAR OYIB 111700Z NIL=
METAR OYKD 111700Z NIL=
METAR OYMB 111700Z NIL=
METAR OYMK 111700Z NIL=
METAR OYMT 111700Z NIL=
METAR OYRN 111700Z 03006KT 9999 FEW030 24/19 Q1017=
METAR OYSD 111700Z NIL=
METAR OYSH 111700Z NIL=
METAR OYSN 111700Z 26007KT 9999 SCT030 17/06 Q1027=
METAR OYSQ 111700Z 09015KT 9999 FEW018 25/18 Q1015=
METAR OYSY 111700Z NIL=
METAR OYTZ 111700Z 26005KT 8000 FEW025 SCT080 19/14 Q1022=
0000034900
283
SAPK31 OPKC 111700
METAR OPGD 111700Z NIL=
METAR OPKC 111655Z 06004KT 7000 NSC 15/M03 Q1022 NOSIG=
METAR OPLA 111700Z NIL=
METAR OPNH 111700Z 36004KTS 4000M FU NSC 14/07 Q.1021=
METAR OPPS 111700Z SW-04KT 4000 HZ SCT200 09/02 Q1023.0=
METAR OPRN 111700Z 00000KT 4000 HZ FEW100 08/02 Q1022.9/30.20=
METAR OPSK 111700Z NIL=
0000074600
284
FTSD31 OEJD 111700
TAF OEDF 111530Z 1118/1224 30012KT 6000 SKC BECMG 1205/1207 32016KT=
TAF OEDR 111530Z 1118/1224 30012KT 6000 SKC BECMG 1205/1207 32016KT=
TAF OEJN 111630Z 1118/1224 36010KT 8000 SKC BECMG 1200/1202
04006G16KT TEMPO 1200/1212 4000 DU/BLDU=
TAF OEMA 111630Z 1118/1224 36008KT 8000 NSC BECMG 1200/1202
07006G16KT TEMPO 1200/1212 4000 DU/BLDU=
TAF OERK 111630Z 1118/1224 34013KT 8000 NSC TEMPO 1118/1206 4000 HZ=
TAF OYAA 111500Z 1118/1224 13012KT 8000 SCT020 TEMPO 1200/1206
                    BKN018=
TAF OYSN 111600Z 1118/1224 VRB03KT 8000 SCT030 SCT060 BECMG 1206/1208
                 04012KT TEMPO 1210/1218 22008G18KT 5000 BLDU
                 FEW025CB BKN030 BECMG 1220/1222 VRB03KT=
0000014000
285
FTSD32 OEJD 111700
TAF OETF 111630Z 1118/1212 32010KT 8000 FEW030 BECMG 1200/1202
09006G16KT TEMPO 1200/1212 4000 DU/BLDU=
0000042000
286
SASD31 OEJD 111700
METAR OEDF 111700Z 30008KT 7000 NSC 15/09 Q1020 NOSIG=
METAR OEDR 111700Z 29008KT CAVOK 15/11 Q1019 NOSIG=
METAR OEJN 111700Z 32011KT CAVOK 22/05 Q1018 NOSIG=
METAR OEMA 111700Z 33004KT CAVOK 18/M01 Q1023 NOSIG=
METAR OERK 111700Z 34007KT CAVOK 12/07 Q1022 NOSIG=
METAR OYAA 111700Z 14007KT 9999 FEW020 25/18 Q1017 NOSIG=
METAR OYSN 111700Z 26007KT 9999 SCT030 17/06 Q1027=
0000053500
287
SAER32 OMAE 111700
METAR OMAA 111700Z 01005KT 9000 -RA NSC 18/16 Q1021 A3015 NOSIG=
METAR OMAD 111700Z 01005KT 9999 -RA FEW045 18/16 Q1021 A3015 NOSIG=
METAR OMAL 111700Z 35008KT CAVOK 19/11 Q1021 A3016 NOSIG=
METAR OMDB 111700Z 01005KT 340V080 8000 -RA NSC 18/14 Q1021 NOSIG=
METAR OMDW 111700Z 05005KT 9999 FEW040 17/15 Q1022 NOSIG=
METAR OMFJ 111700Z 25001KT 9999 BKN020 19/13 Q1021 A3014 RERA=
METAR OMRK 111700Z 30005KT 8000 -RA SCT040 17/16 Q1021 A3016=
METAR OMSJ 111700Z 33004KT CAVOK 17/16 Q1021=
0000010300
288
SAYE20 OYSY 111700 RRA
METAR OYSY 111700Z AUTO 14005KT 100V180 //// ////// 25/12 Q1017=
0000009900
289
SAQT31 OTBD 111700
METAR OTBD 111700Z VRB01KT 9999 FEW018 BKN120 17/12 Q1021 NOSIG=
0000010300
290
SAPK31 OPKC 111700 RRA
METAR OPLA 111655Z 25003KT 4000 FU NSC 11/05 Q1022/A30.18 NOSIG=
0000010300
291
SAPK31 OPKC 111700 RRB
METAR OPSK 111700Z 00000KTS 4000 HZ NSC 10/04 QNH 1022 RH.68 PC=
00000000