0000046700
955
SZPA01 AMMC 111800
CREX++
T000103 A001 D01021 D06025++
0136250 17293000 67590 2014 01 11 17 53 3015 11 07 00 01
01537 0032 01542 0040 01549 0050 01540 0044 01534 0042 01528 0039+
0710610 17137250 67680 2014 01 11 17 53 3013 11 07 00 01
00891 0050 00895 0056 00895 0059 00887 0054 00884 0054 00889 0061+
0698060 15820000 67950 2014 01 11 17 53 3020 11 07 00 01
00676 0082 00675 0082 00673 0080 00671 0079 00670 0078 00670 0079++
7777

0000034200
956
SZIO01 AMMC 111800
CREX++
T000103 A001 D01021 D06025++
-1211670 09689190 46280 2014 01 11 17 53 3020 11 07 00 01
00775 0011 00770 0005 00771 0005 00775 0008 00771 0003 00775 0006+
-1042940 10566940 46290 2014 01 11 17 53 //// 11 07 00 01
00667 0014 00659 0005 00661 0006 00665 0009 00646 -0011 ///// ////++
7777

0000013600
957
SMFG01 SOCA 111800
AAXX 11184
81405 04586 70305 10271 20214 30113 40122 60031 700//
  333 69907 58020
  555 60005=
0000014400
958
SNVF51 EGRR 111700
BBXX
62095 11174 99529 70156 46/// /1726 10102 20062 40045 57048 22200
00100 10809 70043 333 90710 91137=
0000014400
959
SMVF51 EGRR 111800
BBXX
62105 11184 99550 70132 46/// /1624 10090 20036 40113 56020 22200
00108 10807 70035 333 90710 91134=
0000012800
960
SMVF51 EGRR 111800
BBXX
62301 11184 99524 70047 46/// /1408 10072 20020 40215 50003 22200
00096 10602 70012=
0000012800
961
SMVF51 EGRR 111800
BBXX
62163 11184 99475 70084 46/// /1618 10113 20083 40179 53002 22200
00121 10906 70029=
0000012800
962
SMVF51 EGRR 111800
BBXX
62001 11184 99452 70050 46/// /1214 10119 20078 40193 58005 22200
00128 10906 70029=
0000006100
963
AAUK99 EGRR 111800
Socket stay alive message.
0000075700
964
FXXT03 EGRR 111800

 MET OFFICE TROPICAL CYCLONE GUIDANCE FOR NORTH-WEST PACIFIC

             GLOBAL MODEL DATA TIME 12UTC 11.01.2014

   TROPICAL DEPRESSION TD         ANALYSED POSITION :  5.5N 126.9E

  VERIFYING TIME     POSITION     STRENGTH        TENDENCY
  --------------     --------     --------        --------
 12UTC 11.01.2014   5.5N 126.9E     WEAK
 00UTC 12.01.2014   5.7N 127.0E     WEAK        LITTLE CHANGE
 12UTC 12.01.2014        BELOW TROPICAL STORM STRENGTH


 THIS INFORMATION IS PROVIDED AS GUIDANCE FOR TROPICAL CYCLONE
 RSMCS. IT REQUIRES INTERPRETATION BY TROPICAL CYCLONE SPECIALISTS
 AND SHOULD NOT BE CONSIDERED AS A FINAL PRODUCT


 MET OFFICE, EXETER, UK

 TOO 111625
0000263000
965
FXXT01 EGRR 111800

 MET OFFICE TROPICAL CYCLONE GUIDANCE FOR SOUTH PACIFIC AND

 SOUTH-EAST INDIAN OCEANS

             GLOBAL MODEL DATA TIME 12UTC 11.01.2014

      TROPICAL CYCLONE IAN        ANALYSED POSITION : 21.4S 173.5W

  VERIFYING TIME     POSITION     STRENGTH        TENDENCY
  --------------     --------     --------        --------
 12UTC 11.01.2014  21.4S 173.5W   INTENSE
 00UTC 12.01.2014  23.3S 173.1W    STRONG       LITTLE CHANGE
 12UTC 12.01.2014  24.9S 172.4W    STRONG       LITTLE CHANGE
 00UTC 13.01.2014  26.5S 171.8W    STRONG    WEAKENING SLIGHTLY
 12UTC 13.01.2014  27.8S 171.8W   MODERATE    WEAKENING RAPIDLY
 00UTC 14.01.2014  29.4S 172.0W     WEAK     WEAKENING SLIGHTLY
 12UTC 14.01.2014  31.1S 171.1W     WEAK     WEAKENING SLIGHTLY
 00UTC 15.01.2014  33.6S 167.7W     WEAK        LITTLE CHANGE
 12UTC 15.01.2014  36.8S 156.6W   MODERATE  INTENSIFYING RAPIDLY
 00UTC 16.01.2014        BELOW TROPICAL STORM STRENGTH

             NEW TROPICAL STORM FORECAST TO DEVELOP AFTER  54 HOURS
                   FORECAST POSITION AT T+ 54 : 11.3S 131.8E

  VERIFYING TIME     POSITION     STRENGTH        TENDENCY
  --------------     --------     --------        --------
 00UTC 14.01.2014  11.9S 131.2E     WEAK     WEAKENING SLIGHTLY
 12UTC 14.01.2014  12.9S 129.9E     WEAK        LITTLE CHANGE
 00UTC 15.01.2014  14.1S 128.4E    STRONG   INTENSIFYING RAPIDLY
 12UTC 15.01.2014  15.6S 127.1E   MODERATE   WEAKENING SLIGHTLY
 00UTC 16.01.2014  17.4S 126.0E   MODERATE      LITTLE CHANGE
 12UTC 16.01.2014  18.5S 125.0E     WEAK     WEAKENING SLIGHTLY
 00UTC 17.01.2014  19.6S 123.6E     WEAK        LITTLE CHANGE
 12UTC 17.01.2014  20.1S 121.5E   MODERATE  INTENSIFYING SLIGHTLY


             NEW TROPICAL STORM FORECAST TO DEVELOP AFTER  90 HOURS
                   FORECAST POSITION AT T+ 90 : 10.3S 157.5E

  VERIFYING TIME     POSITION     STRENGTH        TENDENCY
  --------------     --------     --------        --------
 12UTC 15.01.2014  12.1S 157.5E     WEAK     WEAKENING SLIGHTLY
 00UTC 16.01.2014  14.1S 157.5E     WEAK        LITTLE CHANGE
 12UTC 16.01.2014  16.7S 157.3E   MODERATE  INTENSIFYING RAPIDLY
 00UTC 17.01.2014  18.3S 157.3E    STRONG   INTENSIFYING SLIGHTLY
 12UTC 17.01.2014  20.2S 157.0E   INTENSE   INTENSIFYING SLIGHTLY


 THIS INFORMATION IS PROVIDED AS GUIDANCE FOR TROPICAL CYCLONE
 RSMCS. IT REQUIRES INTERPRETATION BY TROPICAL CYCLONE SPECIALISTS
 AND SHOULD NOT BE CONSIDERED AS A FINAL PRODUCT


 MET OFFICE, EXETER, UK

 TOO 111629
0000049600
966
FXIO40 EGRR 111800

 MET OFFICE TROPICAL CYCLONE GUIDANCE FOR NORTH INDIAN OCEAN

             GLOBAL MODEL DATA TIME 12UTC 11.01.2014


 NO TROPICAL CYCLONES ANALYSED OR FORECAST TO DEVELOP
 IN THIS AREA IN THE NEXT 144 HOURS


 THIS INFORMATION IS PROVIDED AS GUIDANCE FOR TROPICAL CYCLONE
 RSMCS. IT REQUIRES INTERPRETATION BY TROPICAL CYCLONE SPECIALISTS
 AND SHOULD NOT BE CONSIDERED AS A FINAL PRODUCT


 MET OFFICE, EXETER, UK

 TOO 111626
0000057800
967
SAUK63 EGRR 111750
METAR EGQL 111750Z 18002KT CAVOK 02/M02 Q1016 NOSIG=
METAR EGQM 111750Z AUTO 28008KT 9999 NCD 03/M00 Q1017=
METAR EGQS 111750Z 25016KT 9999 FEW020CB 02/M00 Q1014=
METAR EGVN 111750Z 27003KT CAVOK 03/00 Q1022 NOSIG=
METAR EGVO 111750Z 25003KT CAVOK 03/01 Q1022=
METAR EGWU 111750Z 26001KT CAVOK 03/00 Q1022 NOSIG=
METAR EGXC 111750Z 27006KT CAVOK 04/M00 Q1021=
METAR EGXT 111750Z AUTO 27008KT 9999 SCT240/// 02/01 Q1021=
METAR EGXV 111750Z AUTO 25007KT 9999 NCD 04/01 Q1020=
METAR EGXW 111750Z 26006KT CAVOK 04/00 Q1021 NOSIG=
0000023800
968
SWVF12 LFPW 111800
MMXX 61002 11014 1800/ 14207 00442 00011 12300 20081 30046
11130 0005/ 1024/ 30/// 14054 11174
22225 36116 10100 30000 50000 70101 90821 12244 37968
56600 75972 97548 14029 33740 54145 72622 92309=
0000039700
969
SWIO40 RJTD 111800
:PRS 1 #1 1949 1930 1953 1952 1932 1931 1935 1930 1933 1927 1919 1930
1923 1921 1915 1922 1916 1927 1918 1908 1943 1908 1946 1927 1916 1951
1913 1937 1916 1932 :RAD 1 #3 6315 6310 6306 6301 6298 6301 6306 6310
6310 6309 :ENC 5 #5 5308 5294 5295 5303 5303 5309 5303 5296 5287 5289
5298 5300 :SW1 60 #60 17 :SW2 30 #60 3 :BAT 14 #15 12.7 :NAME 
0650018E=
0000025800
970
SMPM01 MPTO 111758
AAXX  11184
78793 32470 52008 10312 20236 30069 40100 57017 84201
  333 10318 20218 30/// 564// 58008 84815=
78795 32470 33606 10314 20230 30013 40113 57009 83100
  333 10326 20222 30/// 560// 58007 83820=



0000024800
971
SMPM01 MPTO 111758
AAXX  11184
78793 32470 52008 10312 20236 30069 40100 57017 84201
  333 10318 20218 30/// 564// 58008 84815=
78795 32470 33606 10314 20230 30013 40113 57009 83100
  333 10326 20222 30/// 560// 58007 83820=
0000015100
972
SMZS01 NSTU 111800
SSMPPG
AAXX 11184
91765 11469 53307 10281 20239 30061 40064 51024 69901 70282 83172
333 56799 70086 555 91118=
0000328300
973
SMDL01 EDZW 111800
AAXX 11181
10004 NIL=
10015 01580 22912 10068 20026 30104 40114 51023 60052 72586 82200
  222// 06071
  333 10074 20056 31005 55300 20000 30000 69907 82825 91119 91213
      96465=
10020 07488 72911 10052 20015 30056 40089 53020 60072 72376
  333 10072 20043 3/001 55300 20000 30000 69977 81/14 86/50 87/60
      91119 91213=
10035 01565 42807 10043 20015 30033 40092 51030 60062 78061 84800
  333 10063 20039 32002 55300 20000 30000 41001 69927 82820 83640
      91115=
10055 01782 72811 10055 20038 30064 40074 53028 60022 72162 8753/
  333 10059 20048 31004 55300 20000 30000 69957 85650 87361 91121
      91216=
10147 01475 32604 10044 20029 30093 40112 51037 60022 70186 83800
  333 10057 20043 32003 55300 20000 30000 41029 69917 81819 91114=
10162 07582 72907 10043 20026 30013 40086 53020 60012 72365
  333 10059 20043 3/003 55300 20000 30000 69987 82/20 87/57 87/61
      91118=
10184 01458 82405 10051 20042 30038 40046 57019 60022 76162 877//
  333 10061 20044 31004 55300 20000 30000 60027 87712=
10200 NIL=
10224 01481 52707 10050 20035 30132 40138 51037 60012 72565 85200
  333 10056 20044 31003 55300 20000 30000 69957 85818 91114=
10270 06460 82505 10059 20033 30034 40089 55012 69952
  222// 06043
  333 10075 20037 3/002 55300 69957 87/19 88/25 91114=
10338 01465 82808 10043 20025 30073 40147 53036 60032 76062 885//
  333 10072 20035 32001 55300 20000 30000 60037 83713 88656 91117
      91212=
10361 01468 82706 10058 20042 30017 40121 53009 69942 76161 8582/
  333 10080 20025 31102 55300 20000 30000 69947 83817 84623 88556=
10393 01675 82307 10056 20024 39970 40097 56016 69902 76111 875//
  333 10073 20031 31002 55300 20000 30000 69907 87634=
10400 11570 22503 10040 20021 30157 40208 51040 69972 70161 82500
  333 10085 20019 31101 55300 20000 30000 82630=
10469 01584 72408 10066 20026 39960 40125 56005 69902 76011 875//
  333 10067 20011 31100 55300 69907 83628 87656=
10488 12983 72407 10063 20014 39846 40128 56011 60002 8703/
  333 10072 20022 31101 55300 20000 30000 41013 87359=
10506 01381 12803 10028 20015 39622 40216 51038 69942 70161 81100
  333 10074 20027 31001 55300 20000 30000 69947 81808 91114=
10548 01558 82304 10030 20021 39626 40176 53011 69952 76111 885//
  333 10030 21001 31000 55300 20000 30000 69957 88626=
10637 01558 81702 10047 20038 30066 40206 53028 60012 72162 875//
  333 10049 20001 31000 55300 69927 81623 83628 87637=
10685 01762 62407 10017 20004 39478 40163 53004 69902 76061 86500
  333 10038 21007 31103 55300 20000 30000 69907 86656 91113=
10738 11465 72402 10062 20055 39737 40211 53015 60032 70262 878//
  333 10062 21013 31102 55300 81818 87626 96460=
10763 01458 82302 10051 20042 39802 40189 53008 69942 70262 875//
  333 10051 21027 31104 55300 20000 30000 69907 84612 87630=
10788 07210 81601 10023 20023 39762 40204 52008 60032 75765
  333 10026 21026 3/105 55300 20000 30000 69977 85/05 86/18 88/22=
10852 07560 72405 10064 20054 39628 40200 52008 69962 70065
  333 10066 21020 3/104 55300 20000 30000 69917 83/25 85/56 87/67=
10946 07556 82404 10064 20045 39384 40218 52016 69922 76165
  333 10080 20016 3/000 55300 20000 30000 69927 81/31 87/50 88/57=
0000044700
974
SXXX32 EUMS 111754
224AD678
:PRS 2 /1 1807 1806 1809 1808 1812 1817 1820 1822 1822 1822 1822 1823 1826 1826 1830 1833 1837 1839 1838 1840 1839 1843 1845 1849 1852 1851 1853 1855 1856 1859 :RAD 4 /3 4637 4642 4647 4649 4655 4659 4662 4667 4673 4680 4682 4689 4698 4705 4712 4716 4717 4725 4736 4742 :ENC 4 /5 8161 8170 8175 8188 8192 8203 8213 8218 8231 8242 8247 8263 :SW1 54 /60 60 :SW2 24 /60 60 :BAT 14 /15 12.3 :NAME 224AD678
00000000