0000009200
112
SAIN90 VAAH 111740
METAR VAAH 111740Z 05007KT 3000 FU NSC 16/07 Q1019 NOSIG=
0000009500
113
SAIN90 VOHS 111740
METAR VOHS 111740Z 13004KT 5000 HZ SCT020 19/14 Q1018 NOSIG=
0000019900
114
SAIN34 VOMM 111730
METAR VOBL 111730Z 09004KT 6000 NSC 22/17 Q1019 NOSIG=
METAR VOCB 111730Z 09004KT 4000 HZ NSC 23/14 Q1017 NOSIG=
METAR VOMD 111730Z 09002KT 4000 HZ 25/19 Q1016=
0000009200
115
SAIN90 VOMM 111740
METAR VOMM 111740Z 07003KT 6000 FEW020 23/19 Q1015 NOSIG=
0000010300
116
SAIN90 VOTV 111740
METAR VOTV 111740Z 00000KT 4000 HZ FEW015 26/23 Q1013 TEMPO 3000 HZ=
0000017600
117
SAIN32 VIDP 111730
METAR VIDP 111730Z 24004KT 0800 R28/P2000 R29/P2000 MIFG NSC 11/09
      Q1021 NOSIG=
METAR VIAR 111730Z 00000KT 2000 BR NSC 08/08 Q1022=
0000016100
118
SNVJ01 KWBC 111700 RRA
BBXX
AMOUK40 1117/ 99643 50654 46/// ///// 11005 21008 49927=
AMOUK01 1117/ 99604 50284 46/// ///// 11013 21011 49959=
0000011000
119
UANT99 KDDL 111738
ARP VIR11B 5406N02657W 1738 F380 MS57 176/52 KT
GVKSS DDL XXF 111738 J26A
0000011300
120
UAUS31 KWBC 111739
ARP UAL648 3915N 10013W 1729 F370 MS64 330/085KT TB SMTH RM A319
    OV HLC=
0000013300
121
UAPA01 KWBC 111739
ARP UAL1231 2221N 15153W 1731 F350 MS49 226/067KT=
ARP ACA026 51N 160W 1732 F330 MS55 254/121KT=
0000011000
122
UANT01 CWAO 111739
ARP AFR054 5029N04208W 1739 F390 MS58 290/55 KT
FHPJF QXT AOE 111739 J42A
0000014800
123
UACN10 CYKA 111739
VR
UA /OV CYKA /TM 1739 /FLDURD /TP DH8D /TB MDT 040-SFC /RM
ON APCH RWY 26, STRONG CROSSWIND W 20-30KT GUSTS
0000011000
124
UANT01 CWAO 111739
ARP DHK984 5238N03455W 1739 F340 MS54 287/30 KT
GDHLE DDL XXN 111739 F47A
0000011000
125
UANT01 CWAO 111739
ARP DLH542 4433N03850W 1739 F360 MS60 309/48 KT
DAIHI QXT AOW 111739 J41A
0000011000
126
UANT01 CWAO 111739
ARP MSR985 4431N04832W 1739 F330 MS60 321/64 KT
SUGDL QXT AOW 111739 F51A
0000194000
127
SSVX08 KARS 111738
ZZYY 23017 10014 1200/ 304016 067235 6111/
33311 88872 20001 32812 20020 32802 20060 32499 43539 20080 32151
20100 31965 20120 31834 20140 31738 20180 31536 20300 31146
20500 30947
444 20110 10014 1148/ 521//=
ZZYY 23017 11014 17004 304017 067242 6111/
11119 02713 10273 29082
22219 00282
444 20110 11014 1713/ 521// 60401=
ZZYY 14043 10014 1200/ 312203 067249 6111/
33311 88872 20001 32970 43504 20020 32969 20040 32922
20060 32551 43509 20080 32180 20100 31962 20120 31813 20140 31695
20180 31483 20300 31140 20500 30881
444 20110 10014 1144/ 521//=
ZZYY 14043 11014 17004 312198 067252 6111/
11119 01211 10292 29074 40129
22219 00297
444 20110 11014 1712/ 521// 60401=
ZZYY 14042 10014 1200/ 312115 054867 6112/
33311 88872 20001 32895 43493 20020 32890 43496 20040 32831 43501
20060 32667 43500 20080 32517 20100 32301 20120 32122 20140 31954
20180 31707 20500 30944
444 20120 10014 1144/ 521//=
ZZYY 14042 11014 17004 312117 054864 6111/
11119 00513 10287 29081 40124
22219 00290
444 20110 11014 1713/ 521// 60401=
ZZYY 23016 10014 1200/ 301618 066811 6112/
33311 88872 20001 32838 20020 32830 43526 20040 32793
20060 32580 43546 20080 32315 20100 32120 20120 31834 20140 31576
20180 31359 20300 31179 20500 30954
444 20120 10014 1148/ 521//=
ZZYY 23016 11014 17004 301620 066816 6111/
11119 02507 10275 29076
22219 00290
444 20110 11014 1714/ 521// 60401=
ZZYY 14040 10014 1200/ 308084 066939 6112/
33311 88872 20001 32964 43475 20020 32889 43501 20040 32489 43508
20060 32002 43511 20080 31796 20100 31609 20120 31503 20140 31414
20180 31285 20300 31081 20500 30904
444 20120 10014 1146/ 521//=
ZZYY 14040 11014 17004 308081 066944 6111/
11119 02708 10283 29077 40131
22219 00296
444 20110 11014 1712/ 521// 60401=
ZZYY 14041 11014 1700/ 307900 055085 6112/
11119 10280 29080
444 20120 11014 1713/ 521//=
0000011000
128
UANT01 CWAO 111739
ARP AFR378 5040N04502W 1739 F340 MS60 295/55 KT
FGLZJ QXT AOW 111739 J58A
0000104300
129
FVAU01 ADRM 111741
VA ADVISORY
DTG:  20140111/1740Z
VAAC:  Darwin 

VOLCANO:  Sinabung  261080
PSN:  N0310 E09823
AREA:  Indonesia
SUMMIT ELEV:  2460M

ADVISORY NR:  2014/47
INFO SOURCE:  WEBCAM, MTSAT-2, WIII
AVIATION COLOUR CODE:  RED
ERUPTION DETAILS:  VA LAST OBS TO FL170 AT 11/0430Z TO THE NE.

OBS VA DTG:  11/1745Z
OBS VA CLD:  
SFC/FL170 N0350 E09830 - N0320 E09800 - N0245 E09830 -
N0320 E09855 - N0350 E09830 MOV NE 15KT

FCST VA CLD +6HR:  11/2345Z
SFC/FL170 N0350 E09830 - N0320 E09800 - N0245 E09830 -
N0320 E09855 - N0350 E09830 
FCST VA CLD +12HR:  12/0545Z
SFC/FL170 N0340 E09830 - N0320 E09800 - N0245 E09830 -
N0315 E09905 - N0340 E09830 
FCST VA CLD +18HR:  12/1145Z
SFC/FL170 N0340 E09830 - N0320 E09800 - N0245 E09830 -
N0315 E09905 - N0340 E09830 

RMK:  CONTINUED ERUPTIONS TO FL170 ARE EXPECTED. VA VISIBLE
ON WEBCAM AT TIMES DURING THE DAY. HEIGHT DERIVED FROM MTSAT-2
VIS OBSERVED ASH MOVEMENT AND MEDAN 11/0000Z SOUNDING.  
NXT ADVISORY:  NO LATER THAN 20140111/2345Z
0000062200
130
UKUK80 EGRR 111800
TTBB 61178 03882
00016 05250 11015 06450 22013 07056 33008 07258 44983
05457 55951 02841 66936 01642 77930 01457 88913 02068
99900 02279 11876 00877 22852 00880 33834 00576 44827
00579 55815 00292 66803 00897 77769 01994 88740 03385
99680 09379 11650 10383 22614 14371 33609 14166
21212 00016 00000 11002 30506 22979 31007 33952 31005
44928 33010 55916 34513 66886 33516 77862 32022 88838
32023 99816 30531 11803 30029 22786 30028 33771 32028
44758 32031 55754 32032 66744 31034 77702 30030
31313 48108 81715
41414 /////
51515 11899 34016 22800 30028 33600 30040=
0000013600
131
SNVD17 CWHX 111700
BBXX
44137 11171 99423 70620 46/// /1708 10092 40243 57045
22200 00077 10502 70009 333 91209 =

00000000