0000018800
002
SNVE20 NZKL 111800
BBXX
ZMENA  11174 99436 31727 46/// ///06 10169 20096 40032 57026 22200=
ZMFR   11174 99434 51771 43/// /2809 10146 20100 40134 52003 22263 
00153=
0000083100
003
WWCN03 CYTR 111731
WEATHER BULLETIN FOR CFB BAGOTVILLE PREPARED BY THE JOINT
METEOROLOGICAL CENTRE AT 12:31 PM EST SATURDAY 11 JANUARY 2014.
LOCATION: CFB BAGOTVILLE (CYBG)
TYPE: FREEZING PRECIPITATION WARNING IN EFFECT
DESCRIPTION: FREEZING RAIN
VALID: UNTIL 11/2100Z (UNTIL 11/1600 EST)
COMMENTS: A WARM FRONT MOVING OVER SOUTHERN QUEBEC TODAY IS GIVING
AN EXTENDED PERIOD OF FREEZING RAIN OVER BAGOTVILLE. WE EXPECT THIS
FREEZING RAIN TO CHANGE OVER TO RAIN WITH THE PASSAGE OF THE WARM
FRONT THIS AFTERNOON. WHILE THERE IS A SLIGHT CHANCE OF THE COLD AIR
GETTING TRAPPED IN THE VALLEY AND THE FREEZING RAIN PERSISTING UNTIL
EARLY THIS EVENING WE DON'T EXPECT THAT TO BE A SIGNIFICANT CONCERN
AT THIS POINT.
NEXT UPDATE: THIS BULLETIN WILL BE UPDATED BY 11/2100Z (11/1600 EST)
END/JMC
0000013600
004
SNVD17 CWVR 111700
BBXX
46183 11171 99536 71311 46/// /3209 10039 49850 52043
22200 00073 11004 70019 333 91211 =

0000010000
005
UACN10 CYQB 111733
UL
UA /OV CYVO 240060 /TM 1732 /FLDURD /TP DH8A /TB MDT 160-200
0000011100
006
UANT01 CWAO 111733
ARP UAL971 6245N03621W 1733 F310 MS60 198/42 KT
N643UA DDL KUS 111733 F95A
0000011100
007
UANT01 CWAO 111734
ARP UAL122 5213N04922W 1734 F370 MS60 297/76 KT
N18112 DDL YAY 111734 F46A
0000011000
008
UANT01 CWAO 111734
ARP PIA711 5334N03530W 1734 F350 MS53 273/28 KT
APBGZ QXT AOE 111734 F52A
0000011000
009
UANT01 CWAO 111734
ARP BAW178 5314N04427W 1734 F390 MS57 288/44 KT
GBYGB QXT AOW 111734 F91A
0000011000
010
UANT01 CWAO 111734
ARP BAW273 6156N03923W 1734 F340 MS58 193/28 KT
GYMMC QXT AOE 111734 F26A
0000011000
011
UANT01 CWAO 111734
ARP BAW7TG 5007N02313W 1734 F370 MS50 191/65 KT
GYMMO QXT AOE 111734 F13A
0000011100
012
UANT01 CWAO 111734
ARP BER7450 5215N03828W 1734 F390 MS55 280/43 KT
DALPE QXT AOE 111734 J97A
0000010800
013
UANT01 CWAO 111734
ARP THY7 5305N02308W 1734 F380 MS57 192/56 KT
TCJNK QXT AOE 111734 J23A
0000058400
014
SAAE31 VTBB 111730
METAR VTBS 111730Z 01006KT 330V060 CAVOK 25/16 Q1015 NOSIG=
METAR VTBD 111730Z 00000KT CAVOK 25/19 Q1015 NOSIG=
METAR VTCC 111730Z 00000KT CAVOK 19/16 Q1019 A3010 NOSIG=
METAR VTBU 111730Z 03003KT 2000 BR NSC 23/20 Q1014 A2996=
METAR VTSS 111730Z NIL=
METAR VTSP 111730Z 05003KT 8000 FEW020 SCT120 BKN300 27/22 Q1014
A2995 NOSIG=
METAR VLVT 111730Z NIL=
METAR VYMD 111730Z NIL=
METAR VYYY 111730Z 33002KT 6000 N S C 23/21 Q1016 =
METAR VDPP 111730Z 01004KT 9000 NSC 26/19 Q1013=
METAR VDSR 111730Z VRB02KT 9000 NSC 24/18 Q1013=
0000032800
015
SNVD22 KWNB 111700 RRQ
BBXX
46244 11171 99409 71244 46/// ///// 1//// 91721 22200 00108 11406
21004 330// 41405 70031=
46240 11171 99366 71219 46/// ///// 1//// 91721 22200 00126 11403
20901 300// 41403 70016=
46236 11171 99368 71219 46/// ///// 1//// 91722 22200 00124 11304
21002 329// 41303 70019=
0000216700
016
SZNZ01 NZKL 111736
CREX++
T000103 A001 D01021 D06025++
-3683144 17478654 AUCT  2014 01 11 17 28 //// 11 07 00 01
05777 3151 05773 3152 05771 3154 05768 3157 05761 3155 05754 3152+
-4402404 -17636748 CHIT  2014 01 11 17 28 //// 11 07 00 01
04645 1996 04615 1969 04642 2000 04650 2011 04646 2011 04644 2012+
-4089929 17623168 CPIT  2014 01 11 17 28 //// 11 07 00 01
03803 2286 03800 2288 03801 2294 03789 2288 03784 2288 03783 2291+
-3618905 17548887 GBIT  2014 01 11 17 28 //// 11 07 00 01
06210 0017 06199 0010 06182 -0004 06181 -0001 06190 0012 06197 0022+
-3867541 17802288 GIST  2014 01 11 17 28 //// 11 07 00 01
04072 2726 04077 2737 04054 2718 04059 2728 04034 2708 04042 2721+
-4241288 17370277 KAIT  2014 01 11 17 28 //// 11 07 00 01
03158 2251 03166 2264 03162 2265 03167 2275 03161 2274 03155 2273+
-3755040 17815904 LOTT  2014 01 11 17 28 //// 11 07 00 01
03740 0200 03744 0208 03740 0208 03728 0201 03725 0202 03723 0204+
-3704657 17451175 MNKT  2014 01 11 17 28 //// 11 07 00 01
03236 -0115 03265 -0091 03251 -0111 03268 -0099 03273 -0099 03282 -0096+
-3947566 17692007 NAPT  2014 01 11 17 28 //// 11 07 00 01
03024 2063 03013 2058 03028 2078 03019 2075 03029 2090 03022 2088+
-3441483 17304870 NCPT  2014 01 11 17 28 //// 11 07 00 01
-04511 -9458 -04511 -9456 -04496 -9439 -04487 -9429 -04466 -9406 -04423 -9361+
-4581435 17062939 OTAT  2014 01 11 17 28 //// 11 07 00 01
04091 3507 04088 3508 04084 3508 04079 3507 04074 3506 04069 3505+
-2928002 -17789440 RBCT  2014 01 11 17 28 //// 11 07 00 01
06214 2003 06225 2016 06239 2032 06233 2030 06210 2009 06196 1998+
-2925114 -17790384 RFRT  2014 01 11 17 28 //// 11 07 00 01
03146 0143 03137 0137 03157 0160 03175 0181 03164 0172 03138 0149+
-4357010 17277383 SUMT  2014 01 11 17 28 //// 11 07 00 01
01618 1805 01617 1811 01630 1829 01617 1822 01613 1825 01626 1843+
-3764109 17618118 TAUT  2014 01 11 17 28 //// 11 07 00 01
05471 3992 05465 3990 05463 3992 05458 3990 05453 3989 05450 3990+
-4128448 17477985 WLGT  2014 01 11 17 28 //// 11 07 00 01
02939 2016 02939 2019 02944 2029 02952 2040 02946 2038 02939 2035++
7777
0000011000
017
UANT99 KDDL 111734
ARP UAL44 5447N04051W 1734 F370 MS56 274/35 KT
N19141 DDL IG1 111734 F85A
0000011100
018
SNVF21 ESWI 111700 RRA
BBXX
SDIA 11171 99656 10222 46/// /0206 11165 40134 52003 22201 00010=
0000011000
019
UANT99 KDDL 111734
ARP DLH412 5101N01556W 1734 F380 MS61 221/78 KT
DAIHN QXT EUA 111734 J05A
0000011000
020
UANT99 KDDL 111734
ARP BAW205 5007N02633W 1734 F380 MS47 209/50 KT
GRAES QXT AOE 111734 F18A
0000011100
021
UANT99 KDDL 111734
ARP XLF1670 4754N02210W 1734 F380 MS50 207/58 KT
FGRSQ DDL XXN 111734 J66A
00000000