0000013100
452
SAAJ31 UBBB 111630
METAR UBBN 111630Z 31004KT 3800 -SN OVC012 M09/M11 Q1024
R14R/CLRD60 NOSIG RMK MT OBSC QFE692=
0000056400
453
SAIR31 OIII 111630
METAR OIAW 111630Z NIL=
METAR OIFM 111630Z 32004KT 0250 FG SCT035 BKN100 M01/M01 Q1018
A3008=
METAR OIII 111630Z 28004KT 2000 BR SCT035 OVC100 01/M01 Q1019
 A3011 TEMPO 2000 BR=
METAR OIKB 111630Z 30006KT 6000 -RA FEW025CB SCT030 OVC090 13/10
Q1022 A3018=
METAR OIKK 111630Z NIL=
METAR OIMM 111630Z 00000KT 8000 NSC 04/M08 Q1017 A3004=
METAR OISS 111630Z 00000KT 3500-RA BR FEW020 FEW030CB OVC070 04/03
Q1018 A3009=
METAR OITT 111630Z NIL=
METAR OIZH 111630Z 11012KT 9999 FEW035 BKN090 04/M06 Q1019 A3011=
0000038800
454
SAIR32 OIII 111630
METAR OIAA 111630Z NIL=
METAR OIBK 111630Z NIL=
METAR OICC 111630Z NIL=
METAR OIGG 111630Z 00000KT 2500 BR FEW025 SCT160 07/07
Q1013=
METAR OIIE 111630Z NIL=
METAR OITR 111630Z 26004KT 0800 R21/P2000 FZFG FEW035 M10/M11
Q1020=
METAR OIYY 111630Z 30008KT 6000 FEW035 OVC090 03/01 Q1020=
METAR OAKN 111630Z NIL=
METAR OAKB 111630Z NIL=
0000030400
455
SAIR33 OIII 111630
METAR OIBB 111630Z NIL=
METAR OIBP 111630Z NIL=
METAR OICK 111630Z NIL=
METAR OICS 111630Z NIL=
METAR OIHH 111630Z NIL=
METAR OINZ 111630Z 18004KT 3000 BR FEW090 SCT200 05/04 Q1014=
METAR OISR 111630Z NIL=
METAR OITL 111630Z NIL=
METAR OIZC 111630Z NIL=
0000039500
456
SABY31 UMMN 111630
METAR UMBB 111630Z NIL=
METAR UMGG 111630Z 29005G08MPS 9999 BKN029 03/M01 Q1008 R28/290050
NOSIG=
METAR UMII 111630Z NIL=
METAR UMMG 111630Z NIL=
METAR UMMM 111630Z 25005G08MPS 9999 OVC015 03/01 Q1006
R30/190060 NOSIG RMK QFE735=
METAR UMMS 111630Z 26002G05MPS 180V330 9999 -SHRA BKN012CB
02/01 Q1006 R31/290060 NOSIG=
METAR UMOO 111630Z NIL=
0000009900
457
SAQT31 OTBD 111630
METAR OTBD 111630Z VRB02KT 9999 FEW018 BKN120 17/13 Q1021 NOSIG=
0000083700
458
SAUR30 UKMS 111630
METAR UKBB 111630Z 27004MPS 9999 SCT026 04/00 Q1012
         88290060 NOSIG=
METAR UKHH 111630Z 29006MPS 9999 -SHRA SCT016CB
         BKN026 04/00  Q1008 250///65 TEMPO 24008G17MPS
         2100 BKN007=
METAR UKOO 111630Z VRB02MPS CAVOK 03/M02 Q1020
         34190058 NOSIG=
METAR UKDE 111630Z 26006MPS 230V290 9999 SCT033
         05/M00  Q1014 02290565 NOSIG=
METAR UKDD 111630Z 29009MPS 260V320 9999 SCT026CB
         BKN100 05/01 Q1013 26190060 TEMPO 29013G18MPS=
METAR UKFF 111630Z 21004MPS CAVOK 02/01 Q1020
         19010070 NOSIG=
METAR UKLL 111630Z 23005MPS CAVOK 04/M03 Q1016
         31CLRD80  NOSIG=
METAR UKCC 111630Z 26008MPS CAVOK 03/01 Q1011
         26190055 TEMPO 28012G17MPS=
METAR UKDR 111630Z 25005MPS CAVOK 06/M01 Q1015
         1809//65 NOSIG=
0000014100
459
FCBY31 UMMM 111700
TAF UMMM 111630Z 1118/1124 24006G11MPS 5000 -SHRA BR OVC007
BKN015CB TEMPO 1118/1124 1500 SHSNRA BKN005=
0000010300
460
SAAJ31 UBBB 111630
METAR UBBB 111630Z 30012KT 9999 BKN025 07/04 Q1016 88CLRD70
NOSIG=
0000010700
461
SAAJ31 UBBB 111630
METAR UBBG 111630Z 31016KT 9999 SCT100 09/M07 Q1013
R30/CLRD70 NOSIG =
0000027800
462
SAGG31 UGTB 111630
METAR UGKO 111630Z 26006KT 9999 SCT022CB OVC049 08/06 Q1021
 R25/29//50 NOSIG=
METAR UGTB 111630Z 30026G36KT 9999 FEW040 07/01 Q1018 R31L/CLRD80
NOSIG=
METAR UGSB 111630Z 23015KT 9999 SCT016 BKN023CB 11/08 Q1025
    R13/CLRD70 NOSIG=
0000011000
463
SAER41 OMAM 111627 RRF
METAR OMAM 111630Z 03005KT 9999NDV -RA SCT045 OVC090 18/15 Q1019 A3011=
0000069400
464
SAUR31 UKMS 111630
METAR UKLR NIL=
METAR UKLI 111630Z 25003MPS CAVOK 03/M04 Q1017
         28090070 NOSIG=
METAR UKON 111630Z 27005MPS 240V300 CAVOK 05/M04
         Q1018 NOSIG=
METAR UKCM 111630Z 25007MPS CAVOK 06/00 Q1014
         19190062 NOSIG=
METAR UKCW 111630Z 25008MPS 9999 SCT024CB BKN040
         05/01  Q1009 2719//65 BECMG 26009G15MPS 3100
         -SHRA BKN011 BKN020CB=
METAR UKLU 111630Z 00000MPS 9999 OVC030 02/01 Q1019
         10090070 NOSIG=
METAR UKKK 111630Z 27008MPS CAVOK 04/01 Q1012
         26290250  NOSIG=
METAR UKKM NIL=
METAR UKKE NIL=
METAR UKLN 111630Z 26003MPS 230V290 CAVOK 05/M05
         Q1018 3309//70 NOSIG=
0000012900
465
SASY31 OSDI 111600
OSDI 111600Z 17002KT CAVOK 09/01 Q1023=
OSLK 111600Z 12002KT 9999 FEW030 SCT100 14/09 Q1023=
0000077300
466
SAUZ31 UTTW 111630
METAR UTFN 111630Z 12001MPS 0300 R28/0800N FZFG SCT003 M07/M08 Q1026
R28/CLRD70 NOSIG RMK QBB100=
METAR UTNN 111630Z 09001MPS CAVOK M03/M04 Q1020 R33/CLRD60 NOSIG=
METAR UTNU 111630Z 07003MPS 3100 BR FEW200 M01/M04 Q1019 R31/CLRD60
NOSIG=
METAR UTSA 111630Z 11004MPS 5000 FU NSC M00/M06 Q1021 R07/CLRD70
NOSIG=
METAR UTSB 111630Z 09003MPS 6000 NSC 01/M05 Q1020 R01/CLRD70 NOSIG=
METAR UTSK 111630Z NIL=
METAR UTSS 111630Z VRB01MPS 9999 NSC M01/M08 Q1021 R88/CLRD70 NOSIG=
METAR UTST 111630Z 11001MPS 6000 NSC 01/M05 Q1022 R88/CLRD70 NOSIG=
METAR UTFA 111630Z 00000MPS 0150 R04/0300 FZFG OVC004 M07/M08 Q1027
R88/09//70=
METAR UTFF 111630Z NIL=
METAR UTTT 111630Z 06004MPS CAVOK M00/M07 Q1022 R08R/CLRD70 NOSIG=
0000015500
467
SPUR31 UKMS 111640
SPECI UKCW 111640Z 25008G14MPS 9999 SCT024CB BKN040
05/01 Q1009 2719//65 BECMG 26009G15MPS 3100 -SHRA BKN011 BKN020CB=
0000009900
468
SAME31 OLBA 111600 RRA
METAR OJAI 111600Z 28005KT 6000 HZ SCT030 09/06 Q1025 NOSIG=
0000009900
469
SAJD20 OJAI 111600 RRA
METAR OJAI 111600Z 28005KT 6000 HZ SCT030 09/06 Q1025 NOSIG=
0000009900
470
SAJD20 OJAM 111600 RRA
METAR OJAI 111600Z 28005KT 6000 HZ SCT030 09/06 Q1025 NOSIG=
0000011800
471
SAYE20 OYAA 111700
METAR OYAA 111700Z 14007KT 9999 FEW020 25/18 Q1017 NOSIG=
METAR OYSQ 111700Z NIL=
00000000