0000009500
312
SAIQ01 ORBI 111700
METAR ORNI 111700Z 32007KT 5000 BR BKN030 10/10 Q1020 NOSIG=
0000310700
313
SAWD01 OEJD 111700
METAR DAAG 111700Z 00000KT 8000 FEW026 BKN086 16/13 Q1020=
METAR DTTA 111700Z 00000KT 9999 FEW023 SCT100 13/08 Q1019 NOSIG=
METAR EBBR 111650Z 27006KT CAVOK 05/02 Q1021 NOSIG=
METAR EDDH 111650Z 28008KT 9999 FEW015 BKN026 05/03 Q1010 TEMPO
29015G30KT=
METAR EFHK 111650Z 06006KT 7000 -SN FEW008 SCT025 OVC065 M05/M06
Q0999 TEMPO 8000=
METAR EGLL 111650Z 31003KT CAVOK 07/01 Q1022 NOSIG=
METAR EHAM 111655Z 30011KT 9999 FEW025 06/03 Q1018 NOSIG=
METAR EIDW 111700Z 19003KT CAVOK 01/M01 Q1020 NOSIG=
METAR EKCH 111650Z 29011KT 9999 SCT011 BKN050 05/04 Q1002 NOSIG=
METAR ELLX 111650Z 27008KT 240V300 9999 BKN008 06/05 Q1019 NOSIG=
METAR ENFB 111650Z AUTO 29027KT 9999NDV -RA BKN014/// 04/02 Q0998
           W///S5=
METAR EPWA 111700Z 21010KT CAVOK 04/01 Q1011 NOSIG=
METAR ESSA 111650Z 02010KT 9999 BKN049 M04/M05 Q1001 R01L/610267
R08/610262 R01R/////// NOSIG=
METAR ETBS 111700Z NIL=
METAR GMME 111700Z 33002KT 8000 SCT020 SCT100 17/13 Q1018 NOSIG=
METAR GQNN 111700Z 31009KT 290V350 8000 NSC 23/13 Q1013 NOSIG=
METAR HAAS 111700Z NIL=
METAR HCMM 111700Z NIL=
METAR HECA 111700Z 35004KT 9999 SCT025 16/07 Q1026 NOSIG=
METAR HLLT 111650Z
00000KT CAVOK 19/06 Q1021=
METAR HSSS 111700Z 35011KT CAVOK 22/M04 Q1018NOSIG=
METAR KBOS 111654Z 20014KT 9SM OVC017 13/11 A2979=
METAR KIAD 111652Z 21007KT 1/4SM R01R/2600V3000FT FG VV002 06/05
     A2964=
METAR KJFH 111700Z NIL=
METAR KWBS 111700Z NIL=
METAR LEMD 111700Z VRB02KT CAVOK 13/05 Q1018 NOSIG=
METAR LFPO 111700Z 28002KT CAVOK 05/03 Q1022 NOSIG=
METAR LGAV 111650Z 00000KT 9999 FEW020 SCT180 11/08 Q1023 NOSIG=
METAR LIRF 111650Z 00000KT CAVOK 11/09 Q1022 NOSIG=
METAR LOWW 111650Z 18006KT 8000 FEW100 BKN220 04/03 Q1017 NOSIG=
METAR LSGG 111650Z 00000KT 9999 FEW045 08/06 Q1022 NOSIG=
METAR LTAC 111650Z 08004KT 4300 BR BKN009 M01/M02 Q1024 NOSIG=
METAR OAKB 111650Z 33004KT 300V050 4000 HZ NSC M02/M11 Q1026 NOSIG RMK GRN GRN=
METAR OBBI 111700Z 23005KT CAVOK 16/13 Q1020 NOSIG=
METAR OJAM 111700Z 27010KT 5000 HZ SCT025 08/06 Q1024 NOSIG=
METAR OKBK 111700Z 31013KT 9999 FEW040 BKN080 13/08 Q1020 NOSIG=
METAR OLBA 111700Z 12004KT 8000 // FEW080 14/03 Q1025 NOSIG=
METAR OMAA 111700Z 01005KT 9000 -RA NSC 18/16 Q1021 A3015 NOSIG=
METAR OOMS 111650Z VRB02KT 9999 FEW030 SCT100 BKN200 19/09 Q1022
NOSIG=
METAR OPKC 111655Z 06004KT 7000 NSC 15/M03 Q1022 NOSIG=
METAR OPRN 111700Z 00000KT 4000 HZ FEW100 08/02 Q1022.9/30.20=
METAR ORBB 111700Z NIL=
METAR OSDI 111700Z 26006KT CAVOK 08/01 Q1023=
METAR OTBD 111700Z VRB01KT 9999 FEW018 BKN120 17/12 Q1021 NOSIG=
METAR OYAA 111700Z 14007KT 9999 FEW020 25/18 Q1017 NOSIG=
METAR OYSN 111700Z 26007KT 9999 SCT030 17/06 Q1027=
METAR RKSS 111700Z 15004KT 9999 SCT040 M04/M13 Q1028 NOSIG=
METAR UUEE 111700Z NIL=
METAR VCBI 111700Z NIL=
METAR VGZR 111700Z NIL=
METAR VHHH 111700Z 11011KT CAVOK 18/11 Q1023 NOSIG=
METAR VIDP 111700Z NIL=
METAR WIIH 111700Z NIL=
METAR WMKK 111700Z NIL=
METAR WSSS 111700Z 02005KT 310V060 9999 FEW016 SCT300 25/23 Q1012
NOSIG=
0000009600
314
SAYE20 OYSY 111700 CCA
METAR COR OYSY 111700Z 14005KT 100V180 CAVOK 25/12 Q1017=
0000012200
315
SASY31 OSDI 111700
OSDI 111700Z 26006KT CAVOK 08/01 Q1023=
OSLK 111700Z 12002KT 9999 SCT030 12/08 Q1023=
0000009900
316
SAPK31 OPSK 111653
METAR OPSK 111700Z 00000KTS 4000 HZ NSC 10/04 QNH 1022 RH.68 PC=
0000158300
317
SAFC21 OEJD 111700
METAR
OEAB 111700Z 19005KT 9999 FEW010 12/12 Q1026 NOSIG=
OEAH 111700Z 32010KT 9999 SCT035 BKN100 15/11 Q1021 NOSIG=
OEAO 111700Z 33008KT CAVOK 15/00 Q1024=
OEBA 111700Z 04004KT CAVOK 14/13 Q1023 NOSIG=
OEBH 111700Z 30010KT 9999 FEW030 17/08 Q1021 NOSIG=
OEDF 111700Z 30008KT 7000 NSC 15/09 Q1020 NOSIG=
OEDM 111700Z 03006KT CAVOK 11/02 Q1021=
OEDR 111700Z 29008KT CAVOK 15/11 Q1019 NOSIG=
OEGN 111700Z 32004KT 9999 FEW030 SCT100 27/20 Q1017 NOSIG=
OEGS 111700Z 35014KT CAVOK 12/07 Q1021=
OEGT 111700Z 16006KT CAVOK 10/00 Q1023 NOSIG=
OEHL 111700Z 33018KT 9999 SCT040 08/02 Q1023 NOSIG=
OEJN 111700Z 32011KT CAVOK 22/05 Q1018 NOSIG=
OEKJ NIL=
OEKK 111700Z 35011KT 9999 FEW040 10/10 Q1022 NOSIG=
OEKM 111700Z 21005KT 9999 SCT025 13/10 Q1026 NOSIG=
OEMA 111700Z 33004KT CAVOK 18/M01 Q1023 NOSIG=
OEMK 111700Z 03002KT CAVOK 22/08 Q1017=
OENG 111700Z 21002KT 9999 SCT030 BKN090 17/11 Q1021 NOSIG=
OEPA 111700Z 27006KT CAVOK 09/04 Q1021 NOSIG=
OERF 111700Z 20014KT 9999 BKN040 BKN100 08/04 Q1018=
OERK 111700Z 34007KT CAVOK 12/07 Q1022 NOSIG=
OERR 111700Z 30009KT CAVOK 07/07 Q1023 NOSIG=
OERY NIL=
OESH 111700Z 01008KT 9999 SCT040 SCT090 25/07 Q1017 NOSIG=
OESK 111700Z 32004KT 9999 FEW040 07/01 Q1024=
OETB 111700Z 36007KT 9999 SCT040 13/01 Q1024 NOSIG=
OETF 111700Z 04007KT CAVOK 13/02 Q1023 NOSIG=
OETR 111700Z 32006KT 9999 SCT030  05/04 Q1023=
OEWD 111700Z 15008KT CAVOK 18/12 Q1018 NOSIG=
OEWJ 111700Z 34008KT CAVOK 20/11 Q1021 NOSIG=
OEYN 111700Z 28008KT 8000 SKC 21/07 Q1018 NOSIG=
0000178300
318
SASD20 OEJD 111700
METAR OEAB 111700Z 19005KT 9999 FEW010 12/12 Q1026 NOSIG=
METAR OEAH 111700Z 32010KT 9999 SCT035 BKN100 15/11 Q1021 NOSIG=
METAR OEAO 111700Z 33008KT CAVOK 15/00 Q1024=
METAR OEBA 111700Z 04004KT CAVOK 14/13 Q1023 NOSIG=
METAR OEBH 111700Z 30010KT 9999 FEW030 17/08 Q1021 NOSIG=
METAR OEDF 111700Z 30008KT 7000 NSC 15/09 Q1020 NOSIG=
METAR OEDM 111700Z 03006KT CAVOK 11/02 Q1021=
METAR OEDR 111700Z 29008KT CAVOK 15/11 Q1019 NOSIG=
METAR OEGN 111700Z 32004KT 9999 FEW030 SCT100 27/20 Q1017 NOSIG=
METAR OEGS 111700Z 35014KT CAVOK 12/07 Q1021=
METAR OEGT 111700Z 16006KT CAVOK 10/00 Q1023 NOSIG=
METAR OEHL 111700Z 33018KT 9999 SCT040 08/02 Q1023 NOSIG=
METAR OEJN 111700Z 32011KT CAVOK 22/05 Q1018 NOSIG=
METAR OEKJ 111700Z NIL=
METAR OEKK 111700Z 35011KT 9999 FEW040 10/10 Q1022 NOSIG=
METAR OEKM 111700Z 21005KT 9999 SCT025 13/10 Q1026 NOSIG=
METAR OEMA 111700Z 33004KT CAVOK 18/M01 Q1023 NOSIG=
METAR OEMK 111700Z 03002KT CAVOK 22/08 Q1017=
METAR OENG 111700Z 21002KT 9999 SCT030 BKN090 17/11 Q1021 NOSIG=
METAR OEPA 111700Z 27006KT CAVOK 09/04 Q1021 NOSIG=
METAR OERF 111700Z 20014KT 9999 BKN040 BKN100 08/04 Q1018=
METAR OERK 111700Z 34007KT CAVOK 12/07 Q1022 NOSIG=
METAR OERR 111700Z 30009KT CAVOK 07/07 Q1023 NOSIG=
METAR OERY 111700Z NIL=
METAR OESH 111700Z 01008KT 9999 SCT040 SCT090 25/07 Q1017 NOSIG=
METAR OESK 111700Z 32004KT 9999 FEW040 07/01 Q1024=
METAR OETB 111700Z 36007KT 9999 SCT040 13/01 Q1024 NOSIG=
METAR OETF 111700Z 04007KT CAVOK 13/02 Q1023 NOSIG=
METAR OETR 111700Z 32006KT 9999 SCT030  05/04 Q1023=
METAR OEWD 111700Z 15008KT CAVOK 18/12 Q1018 NOSIG=
METAR OEWJ 111700Z 34008KT CAVOK 20/11 Q1021 NOSIG=
METAR OEYN 111700Z 28008KT 8000 SKC 21/07 Q1018 NOSIG=
0000008600
319
SASD32 OEJD 111700
METAR OETF 111700Z 04007KT CAVOK 13/02 Q1023 NOSIG=
0000026800
320
SAGG31 UGTB 111700
METAR UGTB 111700Z 30025KT 9999 FEW045 07/01 Q1017 R31L/CLRD80 NOSIG=
METAR UGKO 111700Z 30003KT 9999 SCT023CB OVC046 07/06 Q1022
R25/29//50 NOSIG=
METAR UGSB 111700Z 22014KT 9999 FEW016CB BKN026 10/06 Q1026
R13/CLRD70 NOSIG=
0000018400
321
FTGG31 UGTB 111700
TAF UGTB 111700Z 1118/1218 31023KT 9999 BKN040 TX09/1212Z TNM01/1203Z
 TEMPO 1118/1122 31033KT BECMG 1200/1202 32015KT  BECMG 1208/1210
 VRB03KT=
0000016300
322
FTUZ31 UTTW 111100 RRC
TAF UTFN 111700Z 1118/1218 VRB02MPS 0100 FZFG VV002 TEMPO 1120/1201
33004MPS 0800 FZFG SCT008 TEMPO 1203/1209 1300 BR NSC=
0000021400
323
FTAJ31 UBBB 111700
TAF UBBB 111701Z 1118/1218 33020G30KT 9999 SCT012 BKN030 530003
TX06/1210Z TN02/1203Z TEMPO 1118/1206 34026G36KT BKN008 BKN020
BECMG 1208/1210 35010KT TEMPO 1210/1218 03006KT=
0000010700
324
SAUZ31 UTTW 111600 CCA
METAR UTST 111700Z 06003MPS 7000 NSC M00/M06 Q1022 R88/CLRD70 NOSIG=
0000011300
325
SATR31 UTAA 111700
METAR UTAA 111700Z 32002MPS 290V360 9999 FEW100 03/M07 Q1015
12CLRD70 NOSIG=
0000011600
326
SAAJ31 UBBB 111700
METAR UBBY 111700Z 32005KT 9999 BKN100 07/M05 Q1016
R33/CLRD70 NOSIG RMK MT OP=
0000011400
327
SAAH10 OAKB 111650
METAR OAKB 111650Z 33004KT 300V050 4000 HZ NSC M02/M11 Q1026 NOSIG RMK GRN GRN=
0000081900
328
SAUR30 UKMS 111700
METAR UKBB 111700Z 26004MPS 9999 FEW036 04/00 Q1012
         88290060 NOSIG=
METAR UKHH 111700Z 29005MPS 9999 SCT016CB BKN026
         04/M00  Q1008 250///65 TEMPO 24008G17MPS 2100
         -SHSNRA BKN007=
METAR UKOO 111700Z VRB02MPS CAVOK 03/M02 Q1020
         34190058 NOSIG=
METAR UKDE 111700Z 25005MPS 9999 SCT033 04/M02 Q1014
         02290565 NOSIG=
METAR UKDD 111700Z 29009MPS 9999 SCT033CB BKN050
         05/01  Q1013 26190060 NOSIG=
METAR UKFF 111700Z 20004MPS CAVOK 03/01 Q1021
         19010070 NOSIG=
METAR UKLL 111700Z 22005MPS CAVOK 03/M03 Q1015
         31CLRD80  NOSIG=
METAR UKCC 111700Z 26008MPS 9999 BKN040 03/01 Q1011
         26190055  TEMPO 28012G17MPS=
METAR UKDR 111700Z 26005MPS CAVOK 05/M01 Q1015
         1809//65 NOSIG=
0000010700
329
SAAJ31 UBBB 111700
METAR UBBG 111700Z 30019KT 9999 SCT100 10/M07 Q1013
R30/CLRD70 NOSIG =
0000012900
330
SAUR30 UKMS 111700 CCA
METAR UKCC 111700Z 26008MPS 9999 BKN040 03/01 Q1011
         26190055 TEMPO 28012G17MPS=
0000010300
331
SAAJ31 UBBB 111700
METAR UBBB 111700Z 30016KT 9999 BKN024 07/03 Q1015 88CLRD70
NOSIG=
00000000