0000033100
292
SAIQ01 ORBI 111700
METAR ORBI 111700Z 02005KT 4000 BR FEW009 BKN045 12/10 Q1020 NOSIG=
METAR ORMM 111700Z 28006KT CAVOK 10/09 Q1020 NOSIG=
METAR ORBM 111700Z 08002KT 7000 SKC 07/05 Q1020 NOSIG=
METAR ORNI 111700Z 32007KT 5000 BR BKN 030 10/10 Q1020 NOSIG=
METAR ORER 111700Z VRB02KT CAVOK 06/04 Q1018 NOSIG=
0000013100
293
SAAJ31 UBBB 111700
METAR UBBN 111700Z 27006KT 3600 -SN OVC012 M09/M11 Q1024
R14R/CLRD60 NOSIG RMK MT OBSC QFE692=
0000063900
294
SAIR31 OIII 111700
METAR OIAW 111700Z 24004KT 1200 RA FEW005 SCT020CB OVC070 11/11
Q1018=
METAR OIFM 111700Z 00000KT 0400 FG SCT035 BKN100 M01/M01 Q1018
A3008=
METAR OIII 111700Z 24006KT 2000 BR SCT035 OVC100 01/M01 Q1019
 A3009 NOSIG=
METAR OIKB 111700Z 33006KT 6000 FEW025CB SCT030 BKN100 13/10 Q1021
A3017=
METAR OIKK 111700Z NIL=
METAR OIMM 111700Z 00000KT 7000 NSC 04/M08 Q1017 A3004=
METAR OISS 111700Z 12006KT 3500 BR FEW020 FEW030CB OVC070 04/03
Q1018 A3009 RERA=
METAR OITT 111700Z 05004KT 4000 HZ SKC M10/M13 Q1021 A3015=
METAR OIZH 111700Z 11006KT 9999 FEW035 BKN090 03/M06 Q1019 A3011=
0000059200
295
SAIR32 OIII 111700
METAR OIAA 111700Z 27006KT 9999 SCT040 BKN100 11/08 Q1019=
METAR OIBK 111700Z 08008KT 8000 -DZ SCT015 FEW025CB SCT030 OVC080
16/15 Q1020=
METAR OICC 111700Z 10004KT 7000 FEW035CB SCT040 BKN080
M00/M01 Q1019 A3010=
METAR OIGG 111700Z 00000KT 2500 BR FEW025 SCT160 06/05
Q1014=
METAR OIIE 111700Z 24005KT 8000 FEW040 SCT180 00/M02
Q1020 A3012 NOSIG=
METAR OITR 111700Z 25004KT 1000 R21/P2000 BR FEW035 M11/M12 Q1020
REFZFG=
METAR OIYY 111700Z 30012KT 5000 BR FEW035 OVC090 02/01 Q1021=
METAR OAKN 111700Z NIL=
METAR OAKB 111700Z NIL=
0000035600
296
SAIR33 OIII 111700
METAR OIBB 111700Z 00000KT 7000 FEW030CB SCT035 OVC080 14/12 Q1017
A3004=
METAR OIBP 111700Z NIL=
METAR OICK 111700Z NIL=
METAR OICS 111700Z NIL=
METAR OIHH 111700Z NIL=
METAR OINZ 111700Z 17004KT 3000 BR FEW090 SCT200 06/04 Q1014=
METAR OISR 111700Z NIL=
METAR OITL 111700Z NIL=
METAR OIZC 111700Z NIL=
0000063200
297
SAIR34 OIII 111700
METAR OIAG 111700Z 19006KT 9999 FEW035CB BKN040 12/11 Q1018=
METAR OIAM 111700Z 25010KT 2000 BR BKN005 SCT040 12/12 Q1018=
METAR OICI 111700Z  11004KT 9999 FEW030CB SCT040 SCT090 03/02 Q1018
 A3006=
METAR OIKQ 111700Z  00000KT 7000 FEW025CB SCT030 OVC090 13/08
 Q1021=
METAR OINN 111700Z VRB02KT CAVOK 06/05 Q1014=
METAR OINR 111700Z 00000KT 6000 NSC 08/06 Q1013=
METAR OISL 111700Z  00000KT 9999 FEW025 FEW030CB OVC080 08/06
 Q1021=
METAR OISY 111700Z  00000KT 0800 -SN FEW030CB SCT035 OVC070 00/00
 Q1019 RESN=
METAR OITZ 111700Z 14006KT 9999 FEW035 SCT080 M02/M04 Q1016=
0000033600
298
SAIR35 OIII 111700
METAR OIAD 111700Z NIL=
METAR OIBJ 111700Z NIL=
METAR OIBS 111700Z NIL=
METAR OIHR 111700Z NIL=
METAR OIKM 111700Z NIL=
METAR OIKR 111700Z NIL=
METAR OING 111700Z 10006KT 7000 NSC 06/05 Q1015=
METAR OIZB 111700Z 33004KT CAVOK 05/01 Q1022=
METAR OIZI 111700Z 00000KT CAVOK 11/M00 Q1022=
0000045000
299
SAIR36 OIII 111700
METAR OIBA 111700Z NIL=
METAR OIBV 111700Z NIL=
METAR OIFS 111700Z 00000KT 6000 FEW025CB SCT030 M04/M05 Q1018=
METAR OIIP 111700Z 00000KT 6000 SCT035 BKN080 M01/M03 Q1018=
METAR OIMB 111700Z 08010KT 9999 FEW040 SCT100 00/M09 Q1019=
METAR OIMN 111700Z 00000KT 9999 FEW040 02/M05 Q1017 A3003=
METAR OIMS 111700Z NIL=
METAR OIMT 111700Z NIL=
METAR OIZJ 111700Z 00000KT 8000 FEW025CB BKN190 20/06 Q1021=
0000050100
300
SAIR37 OIII 111700
METAR OIBL 111700Z  03006KT 4000 BR FEW020CB FEW025 OVC080 15/13
 Q1021=
METAR OIBQ 111700Z NIL=
METAR OIIK 111700Z 00000KT 8000 SCT040 BKN090 M01/M04 Q1019=
METAR OIMC 111700Z 18012KT CAVOK 09/M07 Q1016=
METAR OIMD 111700Z 00000KT 9999 FEW035 BKN100 04/M04 Q1016=
METAR OIMQ 111700Z 12008KT 9999 FEW040 BKN190 04/M07 Q1020=
METAR OINE 111700Z 00000KT CAVOK 05/03 Q1014=
METAR OITK 111700Z NIL=
METAR OITM 111700Z 00000KT 1200 BR NSC M10/M10 Q1020=
0000010200
301
SAIQ01 ORBI 111700
METAR ORBI 111700Z 02005KT 4000 BR FEW009 BKN045 12/10 Q1020 NOSIG=
0000021800
302
SAJD20 OJAI 111700
METAR OJAI 111700Z 31004KT 6000 HZ SCT030 08/07 Q1025 NOSIG=
METAR OJAM 111700Z 27010KT 5000 HZ SCT025 08/06 Q1024 NOSIG=
METAR OJAQ 111700Z 36006KT 9999 BKN030 16/10 Q1024 NOSIG=
0000021800
303
SAJD20 OJAM 111700
METAR OJAI 111700Z 31004KT 6000 HZ SCT030 08/07 Q1025 NOSIG=
METAR OJAM 111700Z 27010KT 5000 HZ SCT025 08/06 Q1024 NOSIG=
METAR OJAQ 111700Z 36006KT 9999 BKN030 16/10 Q1024 NOSIG=
0000038300
304
SABY31 UMMN 111700
METAR UMBB 111700Z NIL=
METAR UMGG 111700Z 28006MPS 9999 BKN028 02/M01 Q1008 R28/290050
NOSIG=
METAR UMII 111700Z NIL=
METAR UMMG 111700Z NIL=
METAR UMMM 111700Z 27005G08MPS 9999 OVC017 04/02 Q1006 R30/190060
NOSIG RMK QFE735=
METAR UMMS 111700Z 25003MPS 170V330 9999 BKN012CB 03/02 Q1006
R31/290060 NOSIG=
METAR UMOO 111700Z NIL=
0000008600
305
SAIQ01 ORBI 111700
METAR ORMM 111700Z 28006KT CAVOK 10/09 Q1020 NOSIG=
0000010700
306
SAER41 OMAM 111654 RRF
METAR OMAM 111700Z 02006KT 9999 -RA SCT045 OVC090 18/15 Q1020 A3012=
0000364700
307
SAIR31 OIII 111700
METAR OIAA 111700Z 27006KT 9999 SCT040 BKN100 11/08 Q1019=
METAR OIAG 111700Z 19006KT 9999 FEW035CB BKN040 12/11 Q1018=
 METAR OIAH 111700Z 13006KT 4000 RA FEW035CB FEW040 OVC090 07/07
 Q1017=
 METAR OIAI 111700Z 33002KT 5000 -RA SCT030CB SCT035 OVC070 10/09
 Q1016=
METAR OIAM 111700Z 25010KT 2000 BR BKN005 SCT040 12/12 Q1018=
 METAR OIAW 111700Z 24004KT 1200 RA FEW005 SCT020CB OVC070 11/11
 Q1018=
METAR OIBA NIL=
 METAR OIBB 111700Z 00000KT 7000 FEW030CB SCT035 OVC080 14/12 Q1017
 A3004=
 METAR OIBK 111700Z 08008KT 8000 -DZ SCT015 FEW025CB SCT030 OVC080
 16/15 Q1020=
 METAR OIBL 111700Z 03006KT 4000 BR FEW020CB FEW025 OVC080 15/13
 Q1021=
METAR OIBS NIL=
 METAR OICC 111700Z 10004KT 7000 FEW035CB SCT040 BKN080 M00/M01
 Q1019 A3010=
 METAR OICI 111700Z 11004KT 9999 FEW030CB SCT040 SCT090 03/02 Q1018
 A3006=
 METAR OICJ 111650Z 00000KT 1000 SN FEW025CB SCT030 OVC070 00/M00
 Q1018=
 METAR OICK 111650Z 12004KT 8000 -RA FW030CB SCT035 OVC080 03/02
 Q1018=
METAR OICS 111700Z 00000KT 7000 FEW040 BKN080 M03/M04 Q1019=
METAR OIFK 111700Z 00000KT 4000 BR BKN020 OVC070 01/M00 Q1022=
 METAR OIFM 111700Z 00000KT 0400 FG SCT035 BKN100 M01/M01 Q1018
 A3008=
METAR OIFS 111700Z 00000KT 6000 FEW025CB SCT030 M04/M05 Q1018=
METAR OIGG 111700Z 00000KT 2500 BR FEW025 SCT160 06/05
Q1014=
METAR OIGK 111650Z 00000KT 9999 BKN025 OVC070 M03/M06 Q1017=
 METAR OIHH 111700Z 00000KT 3000 BR FEW035CB SCT040 OVC090 M05/M07
 Q1019=
 METAR OIHM 111700Z 00000KT 3000 -SHSN FEW030CB SCT035 OVC080
 M04/M05 Q1018=
 METAR OIIE 111700Z 24005KT 8000 FEW040 SCT180 00/M02 Q1020 A3012
 NOSIG=
 METAR OIII 111700Z 24006KT 2000 BR SCT035 OVC100 01/M01 Q1019
 A3009 NOSIG NOSIG=
METAR OIIK 111700Z 00000KT 8000 SCT040 BKN090 M01/M04 Q1019=
METAR OIIP 111700Z 00000KT 6000 SCT035 BKN080 M01/M03 Q1018=
METAR OIIS 111700Z 00000KT 9999 SCT035 BKN100 03/M00 Q1019=
 METAR OIKB 111700Z 33006KT 6000 FEW025CB SCT030 BKN100 13/10 Q1021
 A3017=
METAR OIKK 111650Z 15006KT 9999 SCT035 BKN100 01/M03 Q1020 A3013=
METAR OIKO NIL=
 METAR OIKQ 111700Z 00000KT 7000 FEW025CB SCT030 OVC090 13/08
 Q1021=
METAR OIMB 111700Z 08010KT 9999 FEW040 SCT100 00/M09 Q1019=
METAR OIMC 111700Z 18012KT CAVOK 09/M07 Q1016=
METAR OIMD 111700Z 00000KT 9999 FEW035 BKN100 04/M04 Q1016=
METAR OIMM 111700Z 00000KT 7000 NSC 04/M08 Q1017 A3004=
METAR OINB 111700Z 00000KT CAVOK 08/07 Q1013=
METAR OING 111700Z 10006KT 7000 NSC 06/05 Q1015=
METAR OINK NIL=
METAR OINN 111700Z VRB02KT CAVOK 06/05 Q1014=
METAR OINR 111700Z 00000KT 6000 NSC 08/06 Q1013=
 METAR OISA 111650Z 00000KT 5000 -SN FEW030CB SCT035 OVC080 00/M00
 Q1018=
 METAR OISF 111650Z 00000KT 7000 FEW035CB SCT040 OVC100 05/03 Q1019
 RESH=
 METAR OISL 111700Z 00000KT 9999 FEW025 FEW030CB OVC080 08/06
 Q1021=
 METAR OISS 111700Z 12006KT 3500 BR FEW020 FEW030CB OVC070 04/03
 Q1018 A3009 RERA=
 METAR OISY 111700Z 00000KT 0800 -SN FEW030CB SCT035 OVC070 00/00
 Q1019 RESN=
METAR OITL 111650Z 25012KT CAVOK M04/M07 Q1016=
 METAR OITR 111700Z 25004KT 1000 R21/P2000 BR FEW035 M11/M12 Q1020
 REFZFG=
METAR OITT 111700Z 05004KT 4000 HZ SKC M10/M13 Q1021 A3015=
METAR OITU 111650Z 00000KT 0100 FG VV005 M16/M17 Q1020=
METAR OIYY 111700Z 30012KT 5000 BR FEW035 OVC090 02/01 Q1021=
METAR OIZB 111700Z 33004KT CAVOK 05/01 Q1022=
METAR OIZC 111700Z 29004KT CAVOK 15/04
Q1022 A3018=
METAR OIZH 111700Z 11006KT 9999 FEW035 BKN090 03/M06 Q1019 A3011=
METAR OIZI 111700Z 00000KT CAVOK 11/M00 Q1022=
METAR OIZJ 111700Z 00000KT 8000 FEW025CB BKN190 20/06 Q1021=
0000387600
308
SAIR77 OIII 111700
METAR AZUH 111700Z 00000KT 2500 BR SCT025 M12/M13 Q1022=
METAR KHME 111650Z 00000KT 9999 SCT035 SCT100 05/M07 Q1018=
METAR OIAA 111700Z 27006KT 9999 SCT040 BKN100 11/08 Q1019=
METAR OIAG 111700Z 19006KT 9999 FEW035CB BKN040 12/11 Q1018=
 METAR OIAH 111700Z 13006KT 4000 RA FEW035CB FEW040 OVC090 07/07
 Q1017=
 METAR OIAI 111700Z 33002KT 5000 -RA SCT030CB SCT035 OVC070 10/09
 Q1016=
METAR OIAM 111700Z 25010KT 2000 BR BKN005 SCT040 12/12 Q1018=
 METAR OIAW 111700Z 24004KT 1200 RA FEW005 SCT020CB OVC070 11/11
 Q1018=
METAR OIBA NIL=
 METAR OIBB 111700Z 00000KT 7000 FEW030CB SCT035 OVC080 14/12 Q1017
 A3004=
 METAR OIBK 111700Z 08008KT 8000 -DZ SCT015 FEW025CB SCT030 OVC080
 16/15 Q1020=
 METAR OIBL 111700Z 03006KT 4000 BR FEW020CB FEW025 OVC080 15/13
 Q1021=
METAR OIBS NIL=
 METAR OICC 111700Z 10004KT 7000 FEW035CB SCT040 BKN080 M00/M01
 Q1019 A3010=
 METAR OICI 111700Z 11004KT 9999 FEW030CB SCT040 SCT090 03/02 Q1018
 A3006=
 METAR OICJ 111650Z 00000KT 1000 SN FEW025CB SCT030 OVC070 00/M00
 Q1018=
 METAR OICK 111650Z 12004KT 8000 -RA FW030CB SCT035 OVC080 03/02
 Q1018=
METAR OICS 111700Z 00000KT 7000 FEW040 BKN080 M03/M04 Q1019=
METAR OIFK 111700Z 00000KT 4000 BR BKN020 OVC070 01/M00 Q1022=
 METAR OIFM 111700Z 00000KT 0400 FG SCT035 BKN100 M01/M01 Q1018
 A3008=
METAR OIFS 111700Z 00000KT 6000 FEW025CB SCT030 M04/M05 Q1018=
METAR OIGG 111700Z 00000KT 2500 BR FEW025 SCT160 06/05
Q1014=
METAR OIGK 111650Z 00000KT 9999 BKN025 OVC070 M03/M06 Q1017=
 METAR OIHM 111700Z 00000KT 3000 -SHSN FEW030CB SCT035 OVC080
 M04/M05 Q1018=
 METAR OIIE 111700Z 24005KT 8000 FEW040 SCT180 00/M02 Q1020 A3012
 NOSIG=
 METAR OIII 111700Z 24006KT 2000 BR SCT035 OVC100 01/M01 Q1019
 A3009 NOSIG NOSIG=
METAR OIIK 111700Z 00000KT 8000 SCT040 BKN090 M01/M04 Q1019=
METAR OIIP 111700Z 00000KT 6000 SCT035 BKN080 M01/M03 Q1018=
METAR OIIS 111700Z 00000KT 9999 SCT035 BKN100 03/M00 Q1019=
 METAR OIKB 111700Z 33006KT 6000 FEW025CB SCT030 BKN100 13/10 Q1021
 A3017=
METAR OIKK 111650Z 15006KT 9999 SCT035 BKN100 01/M03 Q1020 A3013=
METAR OIKO NIL=
 METAR OIKQ 111700Z 00000KT 7000 FEW025CB SCT030 OVC090 13/08
 Q1021=
METAR OIMB 111700Z 08010KT 9999 FEW040 SCT100 00/M09 Q1019=
METAR OIMC 111700Z 18012KT CAVOK 09/M07 Q1016=
METAR OIMD 111700Z 00000KT 9999 FEW035 BKN100 04/M04 Q1016=
METAR OIMM 111700Z 00000KT 7000 NSC 04/M08 Q1017 A3004=
METAR OIMN 111700Z 00000KT 9999 FEW040 02/M05 Q1017 A3003=
METAR OINB 111700Z 00000KT CAVOK 08/07 Q1013=
METAR OING 111700Z 10006KT 7000 NSC 06/05 Q1015=
METAR OINK NIL=
METAR OINN 111700Z VRB02KT CAVOK 06/05 Q1014=
METAR OINR 111700Z 00000KT 6000 NSC 08/06 Q1013=
 METAR OISA 111650Z 00000KT 5000 -SN FEW030CB SCT035 OVC080 00/M00
 Q1018=
 METAR OISF 111650Z 00000KT 7000 FEW035CB SCT040 OVC100 05/03 Q1019
 RESH=
 METAR OISL 111700Z 00000KT 9999 FEW025 FEW030CB OVC080 08/06
 Q1021=
 METAR OISS 111700Z 12006KT 3500 BR FEW020 FEW030CB OVC070 04/03
 Q1018 A3009 RERA=
 METAR OISY 111700Z 00000KT 0800 -SN FEW030CB SCT035 OVC070 00/00
 Q1019 RESN=
METAR OITL 111650Z 25012KT CAVOK M04/M07 Q1016=
 METAR OITR 111700Z 25004KT 1000 R21/P2000 BR FEW035 M11/M12 Q1020
 REFZFG=
METAR OITT 111700Z 05004KT 4000 HZ SKC M10/M13 Q1021 A3015=
METAR OITU 111650Z 00000KT 0100 FG VV005 M16/M17 Q1020=
METAR OIYY 111700Z 30012KT 5000 BR FEW035 OVC090 02/01 Q1021=
METAR OIZB 111700Z 33004KT CAVOK 05/01 Q1022=
METAR OIZC 111700Z 29004KT CAVOK 15/04
Q1022 A3018=
METAR OIZH 111700Z 11006KT 9999 FEW035 BKN090 03/M06 Q1019 A3011=
METAR OIZI 111700Z 00000KT CAVOK 11/M00 Q1022=
METAR OIZJ 111700Z 00000KT 8000 FEW025CB BKN190 20/06 Q1021=
METAR SESG 111700Z 22002KT 3000 BR SCT035 BKN090 02/01 Q1021=
METAR YAYT 111650Z 00000KT 9999 SCT035 BKN100 08/M03 Q1019=
0000376000
309
SAIR78 OIII 111700
METAR AZUH 111700Z 00000KT 2500 BR SCT025 M12/M13 Q1022=
METAR KHME 111650Z 00000KT 9999 SCT035 SCT100 05/M07 Q1018=
METAR OIAA 111700Z 27006KT 9999 SCT040 BKN100 11/08 Q1019=
METAR OIAG 111700Z 19006KT 9999 FEW035CB BKN040 12/11 Q1018=
 METAR OIAH 111700Z 13006KT 4000 RA FEW035CB FEW040 OVC090 07/07
 Q1017=
 METAR OIAI 111700Z 33002KT 5000 -RA SCT030CB SCT035 OVC070 10/09
 Q1016=
METAR OIAM 111700Z 25010KT 2000 BR BKN005 SCT040 12/12 Q1018=
 METAR OIAW 111700Z 24004KT 1200 RA FEW005 SCT020CB OVC070 11/11
 Q1018=
METAR OIBA NIL=
 METAR OIBB 111700Z 00000KT 7000 FEW030CB SCT035 OVC080 14/12 Q1017
 A3004=
 METAR OIBK 111700Z 08008KT 8000 -DZ SCT015 FEW025CB SCT030 OVC080
 16/15 Q1020=
 METAR OIBL 111700Z 03006KT 4000 BR FEW020CB FEW025 OVC080 15/13
 Q1021=
METAR OIBS NIL=
 METAR OICC 111700Z 10004KT 7000 FEW035CB SCT040 BKN080 M00/M01
 Q1019 A3010=
 METAR OICI 111700Z 11004KT 9999 FEW030CB SCT040 SCT090 03/02 Q1018
 A3006=
 METAR OICJ 111650Z 00000KT 1000 SN FEW025CB SCT030 OVC070 00/M00
 Q1018=
 METAR OICK 111650Z 12004KT 8000 -RA FW030CB SCT035 OVC080 03/02
 Q1018=
METAR OICS 111700Z 00000KT 7000 FEW040 BKN080 M03/M04 Q1019=
METAR OIFK 111700Z 00000KT 4000 BR BKN020 OVC070 01/M00 Q1022=
 METAR OIFM 111700Z 00000KT 0400 FG SCT035 BKN100 M01/M01 Q1018
 A3008=
METAR OIFS 111700Z 00000KT 6000 FEW025CB SCT030 M04/M05 Q1018=
METAR OIGG 111700Z 00000KT 2500 BR FEW025 SCT160 06/05
Q1014=
METAR OIGK 111650Z 00000KT 9999 BKN025 OVC070 M03/M06 Q1017=
 METAR OIHH 111700Z 00000KT 3000 BR FEW035CB SCT040 OVC090 M05/M07
 Q1019=
 METAR OIHM 111700Z 00000KT 3000 -SHSN FEW030CB SCT035 OVC080
 M04/M05 Q1018=
 METAR OIIE 111700Z 24005KT 8000 FEW040 SCT180 00/M02 Q1020 A3012
 NOSIG=
 METAR OIII 111700Z 24006KT 2000 BR SCT035 OVC100 01/M01 Q1019
 A3009 NOSIG NOSIG=
METAR OIIK 111700Z 00000KT 8000 SCT040 BKN090 M01/M04 Q1019=
METAR OIIS 111700Z 00000KT 9999 SCT035 BKN100 03/M00 Q1019=
 METAR OIKB 111700Z 33006KT 6000 FEW025CB SCT030 BKN100 13/10 Q1021
 A3017=
METAR OIKK 111650Z 15006KT 9999 SCT035 BKN100 01/M03 Q1020 A3013=
METAR OIKO NIL=
 METAR OIKQ 111700Z 00000KT 7000 FEW025CB SCT030 OVC090 13/08
 Q1021=
METAR OIMB 111700Z 08010KT 9999 FEW040 SCT100 00/M09 Q1019=
METAR OIMC 111700Z 18012KT CAVOK 09/M07 Q1016=
METAR OIMD 111700Z 00000KT 9999 FEW035 BKN100 04/M04 Q1016=
METAR OIMM 111700Z 00000KT 7000 NSC 04/M08 Q1017 A3004=
METAR OIMN 111700Z 00000KT 9999 FEW040 02/M05 Q1017 A3003=
METAR OINB 111700Z 00000KT CAVOK 08/07 Q1013=
METAR OING 111700Z 10006KT 7000 NSC 06/05 Q1015=
METAR OINN 111700Z VRB02KT CAVOK 06/05 Q1014=
METAR OINR 111700Z 00000KT 6000 NSC 08/06 Q1013=
 METAR OISA 111650Z 00000KT 5000 -SN FEW030CB SCT035 OVC080 00/M00
 Q1018=
 METAR OISF 111650Z 00000KT 7000 FEW035CB SCT040 OVC100 05/03 Q1019
 RESH=
 METAR OISL 111700Z 00000KT 9999 FEW025 FEW030CB OVC080 08/06
 Q1021=
 METAR OISS 111700Z 12006KT 3500 BR FEW020 FEW030CB OVC070 04/03
 Q1018 A3009 RERA=
 METAR OISY 111700Z 00000KT 0800 -SN FEW030CB SCT035 OVC070 00/00
 Q1019 RESN=
 METAR OITR 111700Z 25004KT 1000 R21/P2000 BR FEW035 M11/M12 Q1020
 REFZFG=
METAR OITT 111700Z 05004KT 4000 HZ SKC M10/M13 Q1021 A3015=
METAR OITU 111650Z 00000KT 0100 FG VV005 M16/M17 Q1020=
METAR OIYY 111700Z 30012KT 5000 BR FEW035 OVC090 02/01 Q1021=
METAR OIZB 111700Z 33004KT CAVOK 05/01 Q1022=
METAR OIZC 111700Z 29004KT CAVOK 15/04
Q1022 A3018=
METAR OIZH 111700Z 11006KT 9999 FEW035 BKN090 03/M06 Q1019 A3011=
METAR OIZI 111700Z 00000KT CAVOK 11/M00 Q1022=
METAR OIZJ 111700Z 00000KT 8000 FEW025CB BKN190 20/06 Q1021=
METAR YAYT 111650Z 00000KT 9999 SCT035 BKN100 08/M03 Q1019=
0000008900
310
SAIQ01 ORBI 111700
METAR ORBM 111700Z 08002KT 7000 SKC 07/05 Q1020 NOSIG=
0000040100
311
SAME31 OLBA 111700
METAR OLBA 111700Z 12004KT 8000 // FEW080 14/03 Q1025 NOSIG=
METAR OSDI 111700Z 26006KT CAVOK 08/01 Q1023=
METAR OSAP NIL=
METAR OSLK 111700Z 12002KT 9999 SCT030 12/08 Q1023=
METAR OJAI 111700Z 31004KT 6000 HZ SCT030 08/07 Q1025 NOSIG=
METAR OJAM 111700Z 27010KT 5000 HZ SCT025 08/06 Q1024 NOSIG=
METAR OJAQ 111700Z 36006KT 9999 BKN030 16/10 Q1024 NOSIG=
00000000