0000060200
346
SSVX02 KARS 111802
ZZYY 71604 11014 1700/ 568042 021889 6113/
11119 40002 52003
444 20130 11014 1650/ 50101 80108 80035 9/015=
ZZYY 71566 11014 1700/ 564834 025931 6113/
11119 40026 57009
444 20130 11014 1650/ 50101 80107 80003 9/015=
ZZYY 71567 11014 1700/ 564118 022561 6113/
11119 40034 57008
444 20130 11014 1650/ 50101 80110 80006 9/015=
ZZYY 71628 11014 1700/ 568330 023950 6113/
11119 40004 52001
444 20130 11014 1655/ 50101 80110 80005 9/015=
ZZYY 71633 11014 1700/ 568159 025900 6113/
11119 40006 52001
444 20130 11014 1655/ 50101 80102 80063 9/015=
0000011100
347
UANT01 CWAO 111805
ARP RCH269 5026N03641W 1805 F340 MS58 311/53 KT
33125A DDL XXW 111805 F63A
0000013300
348
UANT01 CWAO 111805
ARP AAL79 6303N05136W 1805 F370 6300N06000W 1835 IKMAN MS58 231/20 KT
N775AN DDL XXN 111805 F58A
0000261000
349
SMFI40 EFKL 111800
AAXX 11181
02720 47/99 /2502 11230 21255 39925 40194 700// 91800 
333 11194 21277 555 780// 0/202=
02721 47478 70611 11113 21130 30063 40072 52009 70072 86/// 91739
333 11085 21114 555 788// 0/612=
02737 46/// /0503 11159 21184 39957 40069 51004 91800 
333 11121 21159 555 61160 781// 0/605=
02748 47580 70202 11126 21155 39918 40032 700// 87/// 91800 
333 11078 21126 555 779// 80640 0/504=
02751 47538 70604 11060 21065 30001 40007 52003 77170 87/// 91739
333 11040 21060 555 796// 0/604=
02757 47256 70203 11017 21021 39959 49987 54001 77787 87/// 91739
333 11005 21022 555 797// 0/004=
02759 17346 80503 11051 21063 39973 40003 54001 69972 77187 88///
91800 
333 11038 21051 555 61053 791/7 0/203=
02777 17271 80702 11046 21054 39844 49996 54001 60022 70087 88///
91800 
333 11039 21047 555 795/1 80120 0/103=
02795 47369 80505 11022 21024 39984 49992 57002 77187 88/// 91739
333 11022 21035 222// 00027 555 799// 0/005=
02816 37999 03401 11338 21373 39857 40213 54002 70000 91800 
333 11269 21339 555 770// 0/001=
02824 369// 03504 11192 21211 39731 40200 54002 91800 
333 11191 21227 555 785// 0/004=
02834 37383 50405 11169 21188 39795 40070 52002 724// 83/// 91800
333 11135 21170 555 785// 80240 0/506=
02864 47/99 /0205 11154 21185 30099 40124 700// 91800 
333 11153 21164 555 777// 0/306=
02869 47799 80204 11141 21176 39769 40115 700// 88/// 91800 
333 11140 21169 555 775// 81615 0/004=
02872 47/99 /0606 11150 21188 30085 40088 52002 70087 91739 
333 11132 21150 555 773// 0/609=
02874 36/// /0404 11146 21188 91800 
333 11133 21146 555 771// 0/606=
02881 37999 00205 11167 21191 39910 40127 52002 700// 91800 
333 11164 21186 555 61168 782// 0/205=
02903 47799 80604 11142 21167 30036 40070 700// 83/// 91800 
333 11108 21142 555 781// 81829 0/205=
02929 47460 73604 11112 21132 39867 40024 771// 87/// 91800 
333 11083 21116 555 785// 80518 0/206=
02942 11519 80503 11081 21095 39859 40014 52003 60032 77377 8802/
333 11058 21081 555 61082 790/2=
02945 47465 80503 11098 21114 39836 40023 771// 88/// 
333 11071 21099 555 788// 80579 0/104=
02948 47560 83403 11118 21135 39899 40023 771// 88/// 91800 
333 11072 21121 555 787// 80792 0/604=
02966 47480 80303 11073 21087 39881 40007 700// 88/// 91800 
333 11063 21073 555 61075 790// 0/403=
02970 47599 83403 11024 21059 39996 40002 700// 88/// 91800 
333 11013 21027 555 777// 0/204=
02998 17482 80304 11043 21055 39966 49998 54001 60012 74174 88///
91800 
333 11029 21044 555 791/3 0/004=
89014 NIL=
0000015700
350
SSVX13 LFPW 111800
ZZYY 64620 11014 1800/ 757020 031297 6113/ 11119 49933 57038 22219
 00076 444 20130 11014 1800/ 50101 80100 80003 9/015=
0000015100
351
SSVX13 LFPW 111800
ZZYY 54936 11014 1800/ 534753 171075 6113/ 11119 54000 22219 00231
 444 20130 11014 1800/ 50101 80132 80003 9/015=
0000015700
352
SSVX13 LFPW 111800
ZZYY 44775 11014 1800/ 752953 012121 6113/ 11119 40114 57028 22219
 00108 444 20130 11014 1800/ 50101 80106 80005 9/015=
0000015700
353
SSVX13 LFPW 111800
ZZYY 44778 11014 1800/ 739883 009750 6113/ 11119 40175 52009 22219
 00154 444 20130 11014 1800/ 50101 80082 80002 9/015=
0000015700
354
SSVX13 LFPW 111800
ZZYY 44868 11014 1800/ 734721 040028 6113/ 11119 40257 52001 22219
 00186 444 20130 11014 1800/ 50101 80142 80019 9/015=
0000015700
355
SSVX13 LFPW 111800
ZZYY 62520 11014 1800/ 719730 065832 6113/ 11119 40190 57025 22219
 00268 444 20130 11014 1800/ 50101 80104 80002 9/015=
0000015700
356
SSVX13 LFPW 111800
ZZYY 64614 11014 1800/ 762005 018085 6113/ 11119 40068 52010 22219
 00087 444 20130 11014 1800/ 50101 80142 80008 9/015=
0000015700
357
SSVX13 LFPW 111800
ZZYY 16643 11014 1800/ 341830 061594 6113/ 11119 40098 57042 22219
 00150 444 20130 11014 1800/ 50101 80152 80019 9/015=
0000015700
358
SSVX13 LFPW 111800
ZZYY 16550 11014 1800/ 343510 087661 6113/ 11119 40054 52004 22219
 00101 444 20130 11014 1800/ 50101 80148 80031 9/015=
0000015700
359
SSVX13 LFPW 111800
ZZYY 44724 11014 1800/ 756253 021709 6113/ 11119 49948 57052 22219
 00103 444 20130 11014 1800/ 50101 80130 80026 9/015=
0000015700
360
SSVX13 LFPW 111800
ZZYY 16548 11014 1800/ 346228 059403 6113/ 11119 49972 57063 22219
 00086 444 20130 11014 1800/ 50101 80146 80000 9/015=
0000015700
361
SSVX13 LFPW 111800
ZZYY 44770 11014 1800/ 749355 017931 6113/ 11119 49966 52004 22219
 00118 444 20130 11014 1800/ 50101 80138 80006 9/015=
0000014500
362
SSVX13 LFPW 111800
ZZYY 41739 11014 1800/ 724264 072498 6113/ 11119 40199 57031 444
 20130 11014 1800/ 50101 80142 80002 9/015=
0000015700
363
SSVX13 LFPW 111800
ZZYY 64516 11014 1800/ 172827 012776 6113/ 11119 40166 54000 22219
 00063 444 20130 11014 1800/ 50101 80130 80013 9/015=
0000015700
364
SSVX13 LFPW 111800
ZZYY 16532 11014 1800/ 329262 106378 6113/ 11119 40168 57014 22219
 00219 444 20130 11014 1800/ 50101 80108 80002 9/015=
0000015700
365
SSVX13 LFPW 111800
ZZYY 15548 11014 1800/ 522345 011337 6113/ 11119 40200 57003 22219
 00238 444 20130 11014 1800/ 50101 80144 80013 9/015=
00000000