0000028700
266
SXHW11 KWAL 111805
B150314C 011180523"
1,140111,17:00:00,2.7,212,4.5,20.4,1013.5,0.09,13.7,
1,140111,17:15:00,2.9,205,5.1,20.0,1013.5,0.09,13.7,
1,140111,17:30:00,3.3,205,4.5,19.8,1013.5,0.09,13.7,
1,140111,17:45:00,3.1,183,8.2,20.2,1013.5,0.09,13.7, 47+0NN 210W
0000303300
267
SAIR31 OIII 111800
METAR OIAA 111800Z 28004KT 9999 FEW040 10/07 Q1020=
METAR OIAG NIL=
 METAR OIAH 111800Z 14008KT 4000 RA FEW035CB FEW040 OVC090 07/07
 Q1017=
METAR OIAI NIL=
METAR OIAM 111800Z 27012KT 2000 BR FEW030CB BKN040 12/11 Q1018=
 METAR OIAW 111800Z 24008KT 5000 BR FEW005 SCT020CB SCT040 11/09
 Q1018=
METAR OIBA NIL=
 METAR OIBB 111800Z 31010KT 5000 BR FEW030CB SCT035 OVC080 16/14
 Q1018 A3006=
 METAR OIBK 111800Z 07012KT 8000 -RA SCT015 FEW025CB SCT030 OVC080
 16/16 Q1020=
 METAR OIBL 111800Z 02006KT 4000 BR FEW020CB FEW025 OVC080 14/13
 Q1021=
METAR OIBS NIL=
 METAR OICC 111800Z 18004KT 8000 FEW035CB SCT040 BKN080 M01/M02
 Q1019 A3011=
 METAR OICI 111800Z 10004KT 9999 FEW030CB SCT040 BKN090 02/02 Q1018
 A3007=
METAR OICJ NIL=
 METAR OICK 111750Z 00000KT 8000 -RA FW030CB SCT035 OVC080 03/02
 Q1019=
METAR OICS 111800Z 01004KT 7000 FEW040 SCT080 M04/M05 Q1020=
METAR OIFK NIL=
 METAR OIFM 111800Z 00000KT 0500 FG SCT035 OVC100 M01/M01 Q1018
 A3007=
 METAR OIFS 111800Z 00000KT 2000 BR FEW025CB SCT030 OVC080 M03/M04
 Q1018=
METAR OIGG 111800Z 00000KT 2500 BR FEW030 05/05 Q1014=
METAR OIGK NIL=
METAR OIHH 111800Z 00000KT 3000 BR SCT035 OVC090 M05/M06 Q1020=
METAR OIHM NIL=
 METAR OIIE 111800Z 24005KT 8000 FEW040 SCT180 00/M02 Q1019 A3012
 NOSIG=
 METAR OIII 111800Z 28006KT 2000 BR SCT035 OVC100 01/M01 Q1019
 A3010=
METAR OIIK 111800Z 00000KT 8000 FEW040 BKN090 M01/M03 Q1019=
METAR OIIP 111800Z 00000KT 6000 FEW035 BKN080 M02/M03 Q1018=
METAR OIIS NIL=
 METAR OIKB 111750Z 32004KT 6000 FEW025CB SCT030 BKN100 14/11 Q1021
 A3018=
METAR OIKK 111750Z 15008KT 9999 SCT035 BKN100 00/M03 Q1020 A3012=
METAR OIKO NIL=
METAR OIKQ 111750Z 00000KT 7000 FEW025CB SCT030 BKN090 14/10 Q1021=
METAR OIMB 111800Z 06010KT 9999 FEW040 M01/M09 Q1019=
METAR OIMC NIL=
METAR OIMD NIL=
METAR OIMM 111800Z 16004KT 8000 FEW040 BKN180 04/M07 Q1017 A3003=
METAR OINB NIL=
METAR OING 111800Z 24004KT 7000 NSC 05/04 Q1015=
METAR OINK NIL=
METAR OINN 111800Z VRB02KT CAVOK 06/05 Q1014=
METAR OINR 111800Z 21004KT 8000 NSC 07/05 Q1013=
METAR OISA NIL=
 METAR OISF 111750Z 00000KT 6000 FEW035CB SCT040 OVC100 05/04
 Q1019=
 METAR OISL 111800Z 00000KT 9999 FEW025 FEW030CB OVC080 08/06
 Q1021=
 METAR OISS 111800Z 10006KT 3000 BR FEW020 FEW030CB OVC080 04/04
 Q1019 A3009 RERA=
 METAR OISY 111800Z 00000KT 1000 -SN FEW030CB SCT035 OVC070 00/00
 Q1019=
METAR OITL 111750Z 23016KT 9999 BKN090 BKN190 M02/M04 Q1016=
METAR OITR 111800Z 26004KT 1400 R21/P2000 BR FEW035 M11/M13 Q1020=
 METAR OITT 111800Z 00000KT 3500 BR FEW035 SCT090 M09/M12 Q1021
 A3016=
METAR OITU NIL=
 METAR OIYY 111800Z 30008KT 3000 -RA FEW030CB SCT035 OVC090 02/01
 Q1022=
METAR OIZB 111800Z VRB02KT CAVOK 05/00 Q1022=
METAR OIZC NIL=
METAR OIZH 111800Z 12008KT CAVOK 03/M06 Q1020 A3012=
METAR OIZI 111800Z 00000KT CAVOK 11/00 Q1023=
 METAR OIZJ 111800Z 00000KT 8000 FEW025CB SCT030 BKN190 19/07
 Q1021=
0000315200
268
SAIR77 OIII 111800
METAR AZUH NIL=
METAR KHME 111750Z AUTO 35004KT //// // ////// 04/M08 Q0997=
METAR OIAA 111800Z 28004KT 9999 FEW040 10/07 Q1020=
METAR OIAG NIL=
 METAR OIAH 111800Z 14008KT 4000 RA FEW035CB FEW040 OVC090 07/07
 Q1017=
METAR OIAI NIL=
METAR OIAM 111800Z 27012KT 2000 BR FEW030CB BKN040 12/11 Q1018=
 METAR OIAW 111800Z 24008KT 5000 BR FEW005 SCT020CB SCT040 11/09
 Q1018=
METAR OIBA NIL=
 METAR OIBB 111800Z 31010KT 5000 BR FEW030CB SCT035 OVC080 16/14
 Q1018 A3006=
 METAR OIBK 111800Z 07012KT 8000 -RA SCT015 FEW025CB SCT030 OVC080
 16/16 Q1020=
 METAR OIBL 111800Z 02006KT 4000 BR FEW020CB FEW025 OVC080 14/13
 Q1021=
METAR OIBS NIL=
 METAR OICC 111800Z 18004KT 8000 FEW035CB SCT040 BKN080 M01/M02
 Q1019 A3011=
 METAR OICI 111800Z 10004KT 9999 FEW030CB SCT040 BKN090 02/02 Q1018
 A3007=
METAR OICJ NIL=
 METAR OICK 111750Z 00000KT 8000 -RA FW030CB SCT035 OVC080 03/02
 Q1019=
METAR OICS 111800Z 01004KT 7000 FEW040 SCT080 M04/M05 Q1020=
METAR OIFK NIL=
 METAR OIFM 111800Z 00000KT 0500 FG SCT035 OVC100 M01/M01 Q1018
 A3007=
 METAR OIFS 111800Z 00000KT 2000 BR FEW025CB SCT030 OVC080 M03/M04
 Q1018=
METAR OIGG 111800Z 00000KT 2500 BR FEW030 05/05 Q1014=
METAR OIGK NIL=
METAR OIHM NIL=
 METAR OIIE 111800Z 24005KT 8000 FEW040 SCT180 00/M02 Q1019 A3012
 NOSIG=
 METAR OIII 111800Z 28006KT 2000 BR SCT035 OVC100 01/M01 Q1019
 A3010=
METAR OIIK 111800Z 00000KT 8000 FEW040 BKN090 M01/M03 Q1019=
METAR OIIP 111800Z 00000KT 6000 FEW035 BKN080 M02/M03 Q1018=
METAR OIIS NIL=
 METAR OIKB 111750Z 32004KT 6000 FEW025CB SCT030 BKN100 14/11 Q1021
 A3018=
METAR OIKK 111750Z 15008KT 9999 SCT035 BKN100 00/M03 Q1020 A3012=
METAR OIKO NIL=
METAR OIKQ 111750Z 00000KT 7000 FEW025CB SCT030 BKN090 14/10 Q1021=
METAR OIMB 111800Z 06010KT 9999 FEW040 M01/M09 Q1019=
METAR OIMC NIL=
METAR OIMD NIL=
METAR OIMM 111800Z 16004KT 8000 FEW040 BKN180 04/M07 Q1017 A3003=
METAR OIMN 111800Z 29006KT 9999 FEW040 BKN160 02/M09 Q1016 A3003=
METAR OINB NIL=
METAR OING 111800Z 24004KT 7000 NSC 05/04 Q1015=
METAR OINK NIL=
METAR OINN 111800Z VRB02KT CAVOK 06/05 Q1014=
METAR OINR 111800Z 21004KT 8000 NSC 07/05 Q1013=
METAR OISA NIL=
 METAR OISF 111750Z 00000KT 6000 FEW035CB SCT040 OVC100 05/04
 Q1019=
 METAR OISL 111800Z 00000KT 9999 FEW025 FEW030CB OVC080 08/06
 Q1021=
 METAR OISS 111800Z 10006KT 3000 BR FEW020 FEW030CB OVC080 04/04
 Q1019 A3009 RERA=
 METAR OISY 111800Z 00000KT 1000 -SN FEW030CB SCT035 OVC070 00/00
 Q1019=
METAR OITL 111750Z 23016KT 9999 BKN090 BKN190 M02/M04 Q1016=
METAR OITR 111800Z 26004KT 1400 R21/P2000 BR FEW035 M11/M13 Q1020=
 METAR OITT 111800Z 00000KT 3500 BR FEW035 SCT090 M09/M12 Q1021
 A3016=
METAR OITU NIL=
 METAR OIYY 111800Z 30008KT 3000 -RA FEW030CB SCT035 OVC090 02/01
 Q1022=
METAR OIZB 111800Z VRB02KT CAVOK 05/00 Q1022=
METAR OIZC NIL=
METAR OIZH 111800Z 12008KT CAVOK 03/M06 Q1020 A3012=
METAR OIZI 111800Z 00000KT CAVOK 11/00 Q1023=
 METAR OIZJ 111800Z 00000KT 8000 FEW025CB SCT030 BKN190 19/07
 Q1021=
METAR SESG NIL=
METAR YAYT NIL=
0000028300
269
SXHW11 KWAL 111805
B15047DC 011180533"
1,140111,17:00:00,1.0,2,1.0,14.6,1018.9,45.88,12.9,
1,140111,17:15:00,1.0,2,1.0,14.5,1018.9,45.88,12.9,
1,140111,17:30:00,1.0,2,1.0,15.7,1019.0,45.88,13.2,
1,140111,17:45:00,1.0,2,1.0,16.7,1019.1,45.88,13.7, 43+0NN 210W
0000305600
270
SAIR78 OIII 111800
METAR AZUH NIL=
METAR KHME 111750Z AUTO 35004KT //// // ////// 04/M08 Q0997=
METAR OIAA 111800Z 28004KT 9999 FEW040 10/07 Q1020=
METAR OIAG NIL=
 METAR OIAH 111800Z 14008KT 4000 RA FEW035CB FEW040 OVC090 07/07
 Q1017=
METAR OIAI NIL=
METAR OIAM 111800Z 27012KT 2000 BR FEW030CB BKN040 12/11 Q1018=
 METAR OIAW 111800Z 24008KT 5000 BR FEW005 SCT020CB SCT040 11/09
 Q1018=
METAR OIBA NIL=
 METAR OIBB 111800Z 31010KT 5000 BR FEW030CB SCT035 OVC080 16/14
 Q1018 A3006=
 METAR OIBK 111800Z 07012KT 8000 -RA SCT015 FEW025CB SCT030 OVC080
 16/16 Q1020=
 METAR OIBL 111800Z 02006KT 4000 BR FEW020CB FEW025 OVC080 14/13
 Q1021=
METAR OIBS NIL=
 METAR OICC 111800Z 18004KT 8000 FEW035CB SCT040 BKN080 M01/M02
 Q1019 A3011=
 METAR OICI 111800Z 10004KT 9999 FEW030CB SCT040 BKN090 02/02 Q1018
 A3007=
METAR OICJ NIL=
 METAR OICK 111750Z 00000KT 8000 -RA FW030CB SCT035 OVC080 03/02
 Q1019=
METAR OICS 111800Z 01004KT 7000 FEW040 SCT080 M04/M05 Q1020=
METAR OIFK NIL=
 METAR OIFM 111800Z 00000KT 0500 FG SCT035 OVC100 M01/M01 Q1018
 A3007=
 METAR OIFS 111800Z 00000KT 2000 BR FEW025CB SCT030 OVC080 M03/M04
 Q1018=
METAR OIGG 111800Z 00000KT 2500 BR FEW030 05/05 Q1014=
METAR OIGK NIL=
METAR OIHH 111800Z 00000KT 3000 BR SCT035 OVC090 M05/M06 Q1020=
METAR OIHM NIL=
 METAR OIIE 111800Z 24005KT 8000 FEW040 SCT180 00/M02 Q1019 A3012
 NOSIG=
 METAR OIII 111800Z 28006KT 2000 BR SCT035 OVC100 01/M01 Q1019
 A3010=
METAR OIIK 111800Z 00000KT 8000 FEW040 BKN090 M01/M03 Q1019=
METAR OIIS NIL=
 METAR OIKB 111750Z 32004KT 6000 FEW025CB SCT030 BKN100 14/11 Q1021
 A3018=
METAR OIKK 111750Z 15008KT 9999 SCT035 BKN100 00/M03 Q1020 A3012=
METAR OIKO NIL=
METAR OIKQ 111750Z 00000KT 7000 FEW025CB SCT030 BKN090 14/10 Q1021=
METAR OIMB 111800Z 06010KT 9999 FEW040 M01/M09 Q1019=
METAR OIMC NIL=
METAR OIMD NIL=
METAR OIMM 111800Z 16004KT 8000 FEW040 BKN180 04/M07 Q1017 A3003=
METAR OIMN 111800Z 29006KT 9999 FEW040 BKN160 02/M09 Q1016 A3003=
METAR OINB NIL=
METAR OING 111800Z 24004KT 7000 NSC 05/04 Q1015=
METAR OINN 111800Z VRB02KT CAVOK 06/05 Q1014=
METAR OINR 111800Z 21004KT 8000 NSC 07/05 Q1013=
METAR OISA NIL=
 METAR OISF 111750Z 00000KT 6000 FEW035CB SCT040 OVC100 05/04
 Q1019=
 METAR OISL 111800Z 00000KT 9999 FEW025 FEW030CB OVC080 08/06
 Q1021=
 METAR OISS 111800Z 10006KT 3000 BR FEW020 FEW030CB OVC080 04/04
 Q1019 A3009 RERA=
 METAR OISY 111800Z 00000KT 1000 -SN FEW030CB SCT035 OVC070 00/00
 Q1019=
METAR OITR 111800Z 26004KT 1400 R21/P2000 BR FEW035 M11/M13 Q1020=
 METAR OITT 111800Z 00000KT 3500 BR FEW035 SCT090 M09/M12 Q1021
 A3016=
METAR OITU NIL=
 METAR OIYY 111800Z 30008KT 3000 -RA FEW030CB SCT035 OVC090 02/01
 Q1022=
METAR OIZB 111800Z VRB02KT CAVOK 05/00 Q1022=
METAR OIZC NIL=
METAR OIZH 111800Z 12008KT CAVOK 03/M06 Q1020 A3012=
METAR OIZI 111800Z 00000KT CAVOK 11/00 Q1023=
 METAR OIZJ 111800Z 00000KT 8000 FEW025CB SCT030 BKN190 19/07
 Q1021=
METAR YAYT NIL=
0000011900
271
SAIR32 OIII 111800 RRA
METAR OICC 111750Z 18004KT 8000 BR FEW035CB SCT040 BKN080
M01/M02 Q1019 A3011=
0000014700
272
SMNC02 NWBB 111800
AAXX 11184
91570 46/// /0914 10262 20205 30073 40078 53003=
91574 46/// /1213 10254 20202 30089 40094 55004=
0000015700
273
SSVX13 LFPW 111800
ZZYY 44745 11014 1800/ 745733 050353 6113/ 11119 40236 57012 22219
 00016 444 20130 11014 1659/ 50101 80150 80000 9/015=
0000049500
274
SMVF11 BIRK 111800
BBXX
TFBKF 11184 99635 70202 46/// ///// 22200 10803 70015=
TFGRS 11184 99663 70182 46/// ///// 22200 10805 70024=
TFGRV 11184 99638 70225 46/// ///// 22200 10904 70021=
TFGSK 11184 99641 70229 46/// ///// 22200 10905 70027=
TFHFN 11184 99642 70152 46/// ///// 22200 10705 70026=
TFKGR 11184 99657 70136 46/// ///// 22200 10707 70036=
TFSRT 11184 99633 70203 46/// ///// 22200 11006 70029=
TFSTD 11184 99664 70234 46/// ///// 22200 10805 70027=
0000013100
275
SMFI01 EFKL 111800 RRT
AAXX 11181
02836 37970 03202 11278 21305 39938 40189 52003 78587 91800 
333 11258 21295=
0000013100
276
SMFI01 EFKL 111800 RRU
AAXX 11181
02814 37999 00303 11170 21192 39875 40154 54002 70000 91800 
333 11170 21191=
0000013100
277
SMFI01 EFKL 111800 RRV
AAXX 11181
02801 32580 40000 11196 21218 39583 40226 52002 70311 84440 
333 11183 21270=
0000013600
278
SMFI01 EFKL 111800 RRW
AAXX 11181
02805 37782 73301 11232 21254 30053 40200 54000 77872 87/// 91800
333 11229 21288=
0000013100
279
SMFI01 EFKL 111800 RRX
AAXX 11181
02835 37980 00901 11290 21323 30028 40204 57003 700// 91800 
333 11244 21290=
0000013800
280
SMSQ01 LZIB 111800 CCA
AAXX 11181
11968 12365 52001 11002 21002 39907 40196 57009 60002 81601
  333 10052 81709 85070=
0000013800
281
SMSQ10 LZIB 111800 CCA
AAXX 11181
11968 12365 52001 11002 21002 39907 40196 57009 60002 81601
  333 10052 81709 85070=
0000052800
282
SSVX08 KARS 111804
ZZYY 32319 10014 1200/ 507990 110070 6113/
33311 88870 20020 32450 20080 32383 20100 32026 20120 31803
20180 31291 20300 31109 20500 30831
444 20130 10014 1310/ 521//=
ZZYY 32323 11014 16004 700184 110083 6112/
11119 01514 10232 29090 40124
444 20120 11014 1628/ 521// 60401=
ZZYY 43001 10014 1200/ 708036 110173 6112/
33311 88872 20001 32703 43345 20040 32525 20060 31562 20080 31344
20100 31278 20120 31229 20140 31181 20300 31016 20500 30776
444 20120 10014 1054/ 521//=
0000011000
283
UANT01 CWAO 111804
ARP AFR688 4605N04948W 1804 F350 MS60 320/86 KT
FGSPT DDL YYT 111804 F26A
0000011000
284
UANT01 CWAO 111804
ARP UAE205 5006N02305W 1804 F340 MS49 195/67 KT
A6ENL DDL XXF 111804 F20A
0000010900
285
UANT01 CWAO 111804
ARP SWR86 5033N04829W 1804 F370 MS59 305/85 KT
HBJHE QXT AOW 111804 J79A
00000000