0000076800
412
SAUR30 UKMS 111600
METAR UKBB 111600Z 27005MPS 9999 BKN024 04/00 Q1012
         88290060 NOSIG=
METAR UKHH 111600Z 28006MPS 9999 BKN018 04/00 Q1008
         250///65  TEMPO 24008G17MPS=
METAR UKOO 111600Z 24002MPS CAVOK 03/M03 Q1019
         34190058 NOSIG=
METAR UKDE 111600Z 28006MPS 9999 SCT033 05/M00 Q1014
         02290565 NOSIG=
METAR UKDD 111600Z 29010MPS CAVOK 05/01 Q1012
         26210370  TEMPO 29013G18MPS=
METAR UKFF 111600Z 22004MPS CAVOK 03/01 Q1020
         19010070 NOSIG=
METAR UKLL 111600Z 22004MPS CAVOK 04/M03 Q1016
         31CLRD80  NOSIG=
METAR UKCC 111600Z 25008MPS CAVOK 04/02 Q1011
         26190055 TEMPO 28012G17MPS=
METAR UKDR 111600Z 25005MPS CAVOK 06/M01 Q1014
         1809//65 NOSIG=
0000028400
413
SAGG31 UGTB 111600
METAR UGTB 111600Z 30027G38KT 9999 FEW060 08/00 Q1017 R31L/CLRD80
NOSIG=
METAR UGSB 111600Z 24014KT 9999 SCT016 BKN020CB 11/08 Q1025
    R13/CLRD70 NOSIG=
METAR UGKO 111600Z 24009KT 9999 -SHRA SCT025CB OVC049 08/06 Q1022
 R25/29//50 NOSIG=
0000012100
414
SAAJ31 UBBB 111600
METAR UBBQ 111600Z 08003KT 320V130 7000 NSC 02/M04 Q1011
R16/CLRD70 NOSIG RMK MT OP=
0000010300
415
SAAJ31 UBBB 111600
METAR UBBB 111600Z 27005KT 9999 BKN022 06/04 Q1015 88CLRD70
NOSIG=
0000010400
416
SAQT31 OTBD 111600
METAR OTBD 111600Z VRB02KT 9999 FEW018 BKN120 17/12 Q1021 RERA NOSIG=
0000014000
417
FTSD40 OEJD 111700
TAF OETF 111630Z 1118/1212 32010KT 8000 FEW030 BECMG 1200/1202
09006G16KT TEMPO 1200/1212 4000 DU/BLDU=
0000008400
418
SAIR31 OIII 111600 RRA
METAR OIZB 111600Z VRB02KT CAVOK 05/00 Q1022=
0000008400
419
SAIR77 OIII 111600 RRA
METAR OIZB 111600Z VRB02KT CAVOK 05/00 Q1022=
0000008400
420
SAIR78 OIII 111600 RRA
METAR OIZB 111600Z VRB02KT CAVOK 05/00 Q1022=
0000008400
421
SAIR35 OIII 111600 RRA
METAR OIZB 111600Z VRB02KT CAVOK 05/00 Q1022=
0000010200
422
SAER32 OMAE 111600 RRA
METAR OMSJ 111600Z 09003KT 030V120 9999 -RA SCT030 17/16 Q1021=
0000034300
423
USSD70 OETB 111221
TTAA 61121 40375
99933 15263 34023 00175 ///// ///// 92836 13261 34515
85538 06056 35013 70103 01074 36019 50571 17987 32018
40733 31969 32032 30930 46773 32036 25049 52377 31556
20192 56974 30555 15374 56779 29074 10627 65974 29069
88209 57373 31559
77161 29582 42216
31313 48008 81221=
ZCZC
0000015200
424
SAFC21 OEJD 111600 RRA
METAR
OEHL 111600Z 32018KT 9999 SCT040 09/02 Q1022 NOSIG=
OEPA 111600Z 27002KT 9999 FEW035 09/04 Q1020 NOSIG=
0000015600
425
SASD20 OEJD 111600 RRA
METAR OEHL 111600Z 32018KT 9999 SCT040 09/02 Q1022 NOSIG=
METAR OEPA 111600Z 27002KT 9999 FEW035 09/04 Q1020 NOSIG=
0000045500
426
FTSD22 OEJD 111700
TAF OEJN 111630Z 1118/1224 36010KT 8000 SKC BECMG 1200/1202
04006G16KT TEMPO 1200/1212 4000 DU/BLDU=
TAF OEMA 111630Z 1118/1224 36008KT 8000 NSC BECMG 1200/1202
07006G16KT TEMPO 1200/1212 4000 DU/BLDU=
TAF OERK 111630Z 1118/1224 34013KT 8000 NSC TEMPO 1118/1206 4000 HZ=
TAF OEDF 111530Z 1118/1224 30012KT 6000 SKC BECMG 1205/1207 32016KT=
TAF OEDR 111530Z 1118/1224 30012KT 6000 SKC BECMG 1205/1207 32016KT=
0000109900
427
SAAR20 OEJD 111600
METAR OBBI 111600Z 18005KT CAVOK 17/13 Q1020 NOSIG=
METAR OKBK 111600Z 28003KT CAVOK 12/09 Q1019 NOSIG=
METAR OMAA 111600Z 05004KT 9000 -RA NSC 18/16 Q1020 A3013 NOSIG=
METAR OMAD 111600Z 04003KT 360V090 9999 -RA FEW045 19/16 Q1020 A3014
                    NOSIG=
METAR OMAL 111600Z 02005KT CAVOK 20/09 Q1021 A3015 NOSIG=
METAR OMDB 111600Z 05003KT 020V100 8000 -RA NSC 18/14 Q1021 NOSIG=
METAR OMFJ 111600Z 23001KT 9999 SCT020 BKN100 20/12 Q1021 A3015=
METAR OMRK 111600Z 13002KT 9999 RA SCT040 18/16 Q1021 A3016=
METAR OMSJ 111600Z 09003KT 030V120 9999 -RA SCT030 17/16 Q1021=
METAR OOBR 111600Z NIL=
METAR OOKB 111600Z NIL=
METAR OOMS 111550Z 09004KT 9999 FEW030 SCT100 BKN200 19/09 Q1021
NOSIG=
METAR OOSA 111550Z 11009KT 070V150 9999 BKN025 23/14
Q1018 NOSIG=
METAR OOSH 111600Z NIL=
METAR OOSQ 111600Z NIL=
METAR OOSR 111600Z NIL=
METAR OOTH 111600Z NIL=
METAR OOYB 111600Z NIL=
METAR OTBD 111600Z VRB02KT 9999 FEW018 BKN120 9999 17/12 Q1021 RERA
NOSIG=
METAR OYAA 111600Z 14008KT 9999 FEW020 26/19 Q1016 NOSIG=
0000009800
428
SAAR20 OEJD 111600 RRA
METAR OYSN 111600Z 26008KT 220V310 9999 SCT030 18/06 Q1027=
0000032200
429
SAME31 OEJD 111600
METAR OJAI 111600Z NIL=
METAR OJAM 111600Z 27008KT 5000 HZ FEW030 09/06 Q1024 NOSIG=
METAR OJAQ 111600Z 34008KT 9999 BKN030 17/09 Q1024 NOSIG=
METAR OLBA 111600Z 11004KT 8000 // FEW080 14/05 Q1025 NOSIG=
METAR OSAP 111600Z NIL=
METAR OSDI 111600Z NIL=
METAR OSLK 111600Z NIL=
0000068200
430
UKSD10 OEJD 111200 RRC
TTBB 61128 40375
00933 15263 11932 13863 22766 01713 33761 02060 44757
02462 55731 00461 66722 01669 77704 01475 88622 06769
99583 08789 11391 33368 22287 49172 33260 52772 44209
57373 55179 55778 66135 57179 77100 65974
21212 00933 34023 11911 00510 22901 01511 33854 35013
44804 34012 55766 01516 66739 35518 77708 00519 88623
00520 99573 32524 11537 33525 22523 32023 33513 33518
44505 31517 55473 33021 66455 31525 77435 33028 88384
31033 99318 32537 11288 31035 22275 29542 33250 31556
44229 31551 55208 31558 66181 30062 77176 28569 88161
29582 99117 29063 11107 28069 22100 29069
31313 48008 81221
41414 00900=
0000034000
431
USSD10 OEJD 111200 RRC
TTAA 61121 40375
99933 15263 34023 00175 ///// ///// 92836 13261 34515
85538 06056 35013 70103 01074 36019 50571 17987 32018
40733 31969 32032 30930 46773 32036 25049 52377 31556
20192 56974 30555 15374 56779 29074 10627 65974 29069
88209 57373 31559
77161 29582 42216
31313 48008 81221=
00000000