0000031600
392
SAWD01 OEJD 111600 RRA
METAR LEMD 111600Z 23003KT CAVOK 13/06 Q1018 NOSIG=
METAR OAKB 111550Z 35005KT 310V060 4000 HZ NSC M01/M11 Q1026 NOSIG RMK GRN GRN=
METAR UUEE 111600Z 28009G14MPS 8000 -SN OVC016 M02/M04 Q0992 75720145
25720145 NOSIG=
METAR VHHH 111600Z 11012KT CAVOK 18/11 Q1023 NOSIG=
0000008400
393
SAWD01 OEJD 111600 RRB
METAR OSDI 111600Z 17002KT CAVOK 09/01 Q1023=
0000364400
394
SAIR31 OIII 111600
METAR OIAA 111600Z 28006KT 9999 FEW040 12/08 Q1019=
 METAR OIAG 111600Z 17004KT 9999 -SHRA SCT030CB BKN035 12/11 Q1018
 RETS=
 METAR OIAH 111600Z 11002KT 4000 RA FEW035CB FEW040 OVC100 08/08
 Q1016=
 METAR OIAI 111600Z 21004KT 9999 SCT030CB SCT035 OVC070 10/09
 Q1016=
METAR OIAM 111600Z 15004KT 2000 DZ SCT010 OVC090 12/11 Q1018=
 METAR OIAW 111600Z 23004KT 1000 RA FEW005 SCT020CB OVC070 11/11
 Q1017=
METAR OIBA NIL=
 METAR OIBB 111600Z 12010KT 6000 FEW030CB SCT035 OVC080 13/12 Q1017
 A3004 RERA=
 METAR OIBK 111600Z 09014KT 8000 -RA SCT020 FEW025CB SCT030 OVC080
 16/15 Q1020=
 METAR OIBL 111600Z 36004KT 4000 BR FEW020CB SCT025 OVC080 14/13
 Q1021=
METAR OIBS NIL=
 METAR OICC 111600Z 00000KT 7000 FEW035CB SCT040 BKN080 M00/M01
 Q1019 A3009=
 METAR OICI 111600Z 00000KT 9999 FEW025 FEW030CB SCT040 BKN090
 03/02 Q1016 A3003=
 METAR OICJ 111550Z 30004KT 2000 -SN FEW030CB SCT035 OVC070 M00/M01
 Q1018=
 METAR OICK 111550Z 09004KT 8000 -RA FEW030CB SCT035 OVC070 03/02
 Q1018=
METAR OICS 111600Z 11002KT 7000 FEW040 SCT080 M02/M04 Q1019=
METAR OIFK 111600Z 00000KT 4000 BR BKN020 OVC070 01/M00 Q1022=
METAR OIFM 111600Z 00000KT 0250 -SN FG VV013 M00/M00 Q1018 A3008=
 METAR OIFS 111600Z 00000KT 3000 BR FEW025 SCT030 SCT080 M05/M06
 Q1018=
METAR OIGG 111600Z VRB02KT 3000 BR FEW025 SCT160 07/07
Q1013=
METAR OIGK 111550Z 00000KT 9999 BKN020 OVC070 M02/M06 Q1016=
 METAR OIHH 111600Z 15004KT 3000 BR FEW035CB SCT040 OVC090 M05/M07
 Q1019=
METAR OIHM 111600Z 00000KT 1000 BR SCT035 OVC090 M03/M04 Q1018=
 METAR OIIE 111600Z 32003KT 6000 FEW025 SCT100 01/M02 Q1019 A3012
 NOSIG=
 METAR OIII 111600Z 30004KT 2000 BR SCT035 OVC100 01/M01 Q1019
 A3011 TEMPO 1000 BR FEW035CB SCT030 BKN100 TEMPO 2000 BR=
METAR OIIK 111600Z 00000KT 8000 SCT040 BKN090 M01/M03 Q1019=
 METAR OIIP 111600Z 00000KT 4000 BR FEW020 SCT035 BKN080 M01/M02
 Q1019=
METAR OIIS 111600Z 00000KT 9999 SCT035 BKN100 03/M02 Q1019=
 METAR OIKB 111600Z 29006KT 6000 -RA FEW025CB SCT030 OVC090 13/10
 Q1022 A3018=
METAR OIKK 111550Z 00000KT 9999 SCT035 BKN100 02/M03 Q1020 A3012=
METAR OIKO NIL=
 METAR OIKQ 111600Z 10008KT 7000 FEW025CB SCT030 OVC090 13/08
 Q1021=
METAR OIMB 111600Z 09010KT 9999 FEW040 SCT100 01/M09 Q1019=
METAR OIMC 111600Z 17014KT 9999 FEW040 09/M07 Q1016=
METAR OIMD 111600Z 00000KT 9999 SCT035 BKN100 05/M05 Q1016=
METAR OIMM 111600Z 07004KT CAVOK 04/M09 Q1017 A3004=
METAR OINB 111600Z 00000KT CAVOK 09/07 Q1013=
METAR OING 111600Z 11006KT 9999 FEW030 BKN090 05/05 Q1015=
METAR OINK NIL=
METAR OINN 111600Z 18004KT CAVOK 07/05 Q1014=
METAR OINR 111600Z 23004KT 6000 NSC 08/06 Q1013=
 METAR OISA 111550Z 31004KT 5000 -SN FEW030CB SCT035 OVC080 00/M00
 Q1018=
 METAR OISF 111550Z 00000KT 7000 FEW035CB SCT040 OVC100 05/04 Q1019
 RESH=
 METAR OISL 111600Z 08004KT 9999 FEW020 FEW030CB OVC080 07/06
 Q1020=
 METAR OISS 111600Z 12004KT 2000-RA BR FEW030CB SCT035 OVC070 04/03
 Q1018 A3009=
 METAR OISY 111600Z 12004KT 0200 SN FEW030CB SCT035 OVC070 00/M00
 Q1019=
METAR OITL 111550Z 25010KT CAVOK M04/M07 Q1016=
METAR OITR 111600Z 28004KT 0700 R21/2000D FG FEW035 M09/M10 Q1020=
METAR OITT 111600Z VRB02KT 6000 NSC M08/M12 Q1020 A3015=
METAR OITU 111550Z 00000KT 0100 FG VV005 M15/M15 Q1020=
METAR OIYY 111600Z 31008KT 6000 FEW035 OVC100 03/M01 Q1020=
METAR OIZB NIL=
METAR OIZC NIL=
 METAR OIZH 111600Z 11010KT 9999 FEW035 BKN090 04/M06 Q1019 A3011
 NOSIG=
METAR OIZI 111600Z 22004KT 9999 FEW020 BKN100 12/M00 Q1022=
METAR OIZJ 111600Z 00000KT 8000 NSC 20/06 Q1021=
0000385400
395
SAIR77 OIII 111600
METAR AZUH 111600Z 00000KT 2500 BR SCT025 M12/M13 Q1022=
METAR KHME 111550Z 01004KT CAVOK 04/M08 Q1018=
METAR OIAA 111600Z 28006KT 9999 FEW040 12/08 Q1019=
 METAR OIAG 111600Z 17004KT 9999 -SHRA SCT030CB BKN035 12/11 Q1018
 RETS=
 METAR OIAH 111600Z 11002KT 4000 RA FEW035CB FEW040 OVC100 08/08
 Q1016=
 METAR OIAI 111600Z 21004KT 9999 SCT030CB SCT035 OVC070 10/09
 Q1016=
METAR OIAM 111600Z 15004KT 2000 DZ SCT010 OVC090 12/11 Q1018=
 METAR OIAW 111600Z 23004KT 1000 RA FEW005 SCT020CB OVC070 11/11
 Q1017=
METAR OIBA NIL=
 METAR OIBB 111600Z 12010KT 6000 FEW030CB SCT035 OVC080 13/12 Q1017
 A3004 RERA=
 METAR OIBK 111600Z 09014KT 8000 -RA SCT020 FEW025CB SCT030 OVC080
 16/15 Q1020=
 METAR OIBL 111600Z 36004KT 4000 BR FEW020CB SCT025 OVC080 14/13
 Q1021=
METAR OIBS NIL=
 METAR OICC 111600Z 00000KT 7000 FEW035CB SCT040 BKN080 M00/M01
 Q1019 A3009=
 METAR OICI 111600Z 00000KT 9999 FEW025 FEW030CB SCT040 BKN090
 03/02 Q1016 A3003=
 METAR OICJ 111550Z 30004KT 2000 -SN FEW030CB SCT035 OVC070 M00/M01
 Q1018=
 METAR OICK 111550Z 09004KT 8000 -RA FEW030CB SCT035 OVC070 03/02
 Q1018=
METAR OICS 111600Z 11002KT 7000 FEW040 SCT080 M02/M04 Q1019=
METAR OIFK 111600Z 00000KT 4000 BR BKN020 OVC070 01/M00 Q1022=
METAR OIFM 111600Z 00000KT 0250 -SN FG VV013 M00/M00 Q1018 A3008=
 METAR OIFS 111600Z 00000KT 3000 BR FEW025 SCT030 SCT080 M05/M06
 Q1018=
METAR OIGG 111600Z VRB02KT 3000 BR FEW025 SCT160 07/07
Q1013=
METAR OIGK 111550Z 00000KT 9999 BKN020 OVC070 M02/M06 Q1016=
METAR OIHM 111600Z 00000KT 1000 BR SCT035 OVC090 M03/M04 Q1018=
 METAR OIIE 111600Z 32003KT 6000 FEW025 SCT100 01/M02 Q1019 A3012
 NOSIG=
 METAR OIII 111600Z 30004KT 2000 BR SCT035 OVC100 01/M01 Q1019
 A3011 TEMPO 1000 BR FEW035CB SCT030 BKN100 TEMPO 2000 BR=
METAR OIIK 111600Z 00000KT 8000 SCT040 BKN090 M01/M03 Q1019=
 METAR OIIP 111600Z 00000KT 4000 BR FEW020 SCT035 BKN080 M01/M02
 Q1019=
METAR OIIS 111600Z 00000KT 9999 SCT035 BKN100 03/M02 Q1019=
 METAR OIKB 111600Z 29006KT 6000 -RA FEW025CB SCT030 OVC090 13/10
 Q1022 A3018=
METAR OIKK 111550Z 00000KT 9999 SCT035 BKN100 02/M03 Q1020 A3012=
METAR OIKO NIL=
 METAR OIKQ 111600Z 10008KT 7000 FEW025CB SCT030 OVC090 13/08
 Q1021=
METAR OIMB 111600Z 09010KT 9999 FEW040 SCT100 01/M09 Q1019=
METAR OIMC 111600Z 17014KT 9999 FEW040 09/M07 Q1016=
METAR OIMD 111600Z 00000KT 9999 SCT035 BKN100 05/M05 Q1016=
METAR OIMM 111600Z 07004KT CAVOK 04/M09 Q1017 A3004=
METAR OIMN 111600Z 00000KT CAVOK 04/M06 Q1017 A3003=
METAR OINB 111600Z 00000KT CAVOK 09/07 Q1013=
METAR OING 111600Z 11006KT 9999 FEW030 BKN090 05/05 Q1015=
METAR OINK NIL=
METAR OINN 111600Z 18004KT CAVOK 07/05 Q1014=
METAR OINR 111600Z 23004KT 6000 NSC 08/06 Q1013=
 METAR OISA 111550Z 31004KT 5000 -SN FEW030CB SCT035 OVC080 00/M00
 Q1018=
 METAR OISF 111550Z 00000KT 7000 FEW035CB SCT040 OVC100 05/04 Q1019
 RESH=
 METAR OISL 111600Z 08004KT 9999 FEW020 FEW030CB OVC080 07/06
 Q1020=
 METAR OISS 111600Z 12004KT 2000-RA BR FEW030CB SCT035 OVC070 04/03
 Q1018 A3009=
 METAR OISY 111600Z 12004KT 0200 SN FEW030CB SCT035 OVC070 00/M00
 Q1019=
METAR OITL 111550Z 25010KT CAVOK M04/M07 Q1016=
METAR OITR 111600Z 28004KT 0700 R21/2000D FG FEW035 M09/M10 Q1020=
METAR OITT 111600Z VRB02KT 6000 NSC M08/M12 Q1020 A3015=
METAR OITU 111550Z 00000KT 0100 FG VV005 M15/M15 Q1020=
METAR OIYY 111600Z 31008KT 6000 FEW035 OVC100 03/M01 Q1020=
METAR OIZB NIL=
METAR OIZC NIL=
 METAR OIZH 111600Z 11010KT 9999 FEW035 BKN090 04/M06 Q1019 A3011
 NOSIG=
METAR OIZI 111600Z 22004KT 9999 FEW020 BKN100 12/M00 Q1022=
METAR OIZJ 111600Z 00000KT 8000 NSC 20/06 Q1021=
METAR SESG 111600Z 25004KT 3000 BR SCT035 BKN090 03/01 Q1021=
METAR YAYT 111550Z 00000KT 9999 SCT035 BKN100 08/M03 Q1019=
0000372400
396
SAIR78 OIII 111600
METAR AZUH 111600Z 00000KT 2500 BR SCT025 M12/M13 Q1022=
METAR KHME 111550Z 01004KT CAVOK 04/M08 Q1018=
METAR OIAA 111600Z 28006KT 9999 FEW040 12/08 Q1019=
 METAR OIAG 111600Z 17004KT 9999 -SHRA SCT030CB BKN035 12/11 Q1018
 RETS=
 METAR OIAH 111600Z 11002KT 4000 RA FEW035CB FEW040 OVC100 08/08
 Q1016=
 METAR OIAI 111600Z 21004KT 9999 SCT030CB SCT035 OVC070 10/09
 Q1016=
METAR OIAM 111600Z 15004KT 2000 DZ SCT010 OVC090 12/11 Q1018=
 METAR OIAW 111600Z 23004KT 1000 RA FEW005 SCT020CB OVC070 11/11
 Q1017=
METAR OIBA NIL=
 METAR OIBB 111600Z 12010KT 6000 FEW030CB SCT035 OVC080 13/12 Q1017
 A3004 RERA=
 METAR OIBK 111600Z 09014KT 8000 -RA SCT020 FEW025CB SCT030 OVC080
 16/15 Q1020=
 METAR OIBL 111600Z 36004KT 4000 BR FEW020CB SCT025 OVC080 14/13
 Q1021=
METAR OIBS NIL=
 METAR OICC 111600Z 00000KT 7000 FEW035CB SCT040 BKN080 M00/M01
 Q1019 A3009=
 METAR OICI 111600Z 00000KT 9999 FEW025 FEW030CB SCT040 BKN090
 03/02 Q1016 A3003=
 METAR OICJ 111550Z 30004KT 2000 -SN FEW030CB SCT035 OVC070 M00/M01
 Q1018=
 METAR OICK 111550Z 09004KT 8000 -RA FEW030CB SCT035 OVC070 03/02
 Q1018=
METAR OICS 111600Z 11002KT 7000 FEW040 SCT080 M02/M04 Q1019=
METAR OIFK 111600Z 00000KT 4000 BR BKN020 OVC070 01/M00 Q1022=
METAR OIFM 111600Z 00000KT 0250 -SN FG VV013 M00/M00 Q1018 A3008=
 METAR OIFS 111600Z 00000KT 3000 BR FEW025 SCT030 SCT080 M05/M06
 Q1018=
METAR OIGG 111600Z VRB02KT 3000 BR FEW025 SCT160 07/07
Q1013=
METAR OIGK 111550Z 00000KT 9999 BKN020 OVC070 M02/M06 Q1016=
 METAR OIHH 111600Z 15004KT 3000 BR FEW035CB SCT040 OVC090 M05/M07
 Q1019=
METAR OIHM 111600Z 00000KT 1000 BR SCT035 OVC090 M03/M04 Q1018=
 METAR OIIE 111600Z 32003KT 6000 FEW025 SCT100 01/M02 Q1019 A3012
 NOSIG=
 METAR OIII 111600Z 30004KT 2000 BR SCT035 OVC100 01/M01 Q1019
 A3011 TEMPO 1000 BR FEW035CB SCT030 BKN100 TEMPO 2000 BR=
METAR OIIK 111600Z 00000KT 8000 SCT040 BKN090 M01/M03 Q1019=
METAR OIIS 111600Z 00000KT 9999 SCT035 BKN100 03/M02 Q1019=
 METAR OIKB 111600Z 29006KT 6000 -RA FEW025CB SCT030 OVC090 13/10
 Q1022 A3018=
METAR OIKK 111550Z 00000KT 9999 SCT035 BKN100 02/M03 Q1020 A3012=
METAR OIKO NIL=
 METAR OIKQ 111600Z 10008KT 7000 FEW025CB SCT030 OVC090 13/08
 Q1021=
METAR OIMB 111600Z 09010KT 9999 FEW040 SCT100 01/M09 Q1019=
METAR OIMC 111600Z 17014KT 9999 FEW040 09/M07 Q1016=
METAR OIMD 111600Z 00000KT 9999 SCT035 BKN100 05/M05 Q1016=
METAR OIMM 111600Z 07004KT CAVOK 04/M09 Q1017 A3004=
METAR OIMN 111600Z 00000KT CAVOK 04/M06 Q1017 A3003=
METAR OINB 111600Z 00000KT CAVOK 09/07 Q1013=
METAR OING 111600Z 11006KT 9999 FEW030 BKN090 05/05 Q1015=
METAR OINN 111600Z 18004KT CAVOK 07/05 Q1014=
METAR OINR 111600Z 23004KT 6000 NSC 08/06 Q1013=
 METAR OISA 111550Z 31004KT 5000 -SN FEW030CB SCT035 OVC080 00/M00
 Q1018=
 METAR OISF 111550Z 00000KT 7000 FEW035CB SCT040 OVC100 05/04 Q1019
 RESH=
 METAR OISL 111600Z 08004KT 9999 FEW020 FEW030CB OVC080 07/06
 Q1020=
 METAR OISS 111600Z 12004KT 2000-RA BR FEW030CB SCT035 OVC070 04/03
 Q1018 A3009=
 METAR OISY 111600Z 12004KT 0200 SN FEW030CB SCT035 OVC070 00/M00
 Q1019=
METAR OITR 111600Z 28004KT 0700 R21/2000D FG FEW035 M09/M10 Q1020=
METAR OITT 111600Z VRB02KT 6000 NSC M08/M12 Q1020 A3015=
METAR OITU 111550Z 00000KT 0100 FG VV005 M15/M15 Q1020=
METAR OIYY 111600Z 31008KT 6000 FEW035 OVC100 03/M01 Q1020=
METAR OIZB NIL=
METAR OIZC NIL=
 METAR OIZH 111600Z 11010KT 9999 FEW035 BKN090 04/M06 Q1019 A3011
 NOSIG=
METAR OIZI 111600Z 22004KT 9999 FEW020 BKN100 12/M00 Q1022=
METAR OIZJ 111600Z 00000KT 8000 NSC 20/06 Q1021=
METAR YAYT 111550Z 00000KT 9999 SCT035 BKN100 08/M03 Q1019=
0000037800
397
SABY31 UMMN 111600
METAR UMBB 111600Z NIL=
METAR UMGG 111600Z 29005G08MPS 9999 BKN029 03/M01 Q1008 R28/290050
NOSIG=
METAR UMII 111600Z NIL=
METAR UMMG 111600Z NIL=
METAR UMMM 111600Z 24005G08MPS 9999 OVC014 03/01 Q1006 R30/190060
NOSIG RMK QFE735=
METAR UMMS 111600Z 24002MPS 9999 BKN013CB 02/01 Q1006 R31/290060
NOSIG=
METAR UMOO 111600Z NIL=
0000009100
398
SAPK31 OPPS 111555
METAR OPPS 111600Z 00000KT 4000 HZ SCT200 10/03 Q1022.5=
0000009500
399
SAPK31 OPKC 111600 RRB
METAR OPPS 111600Z 00000KT 4000 HZ SCT200 10/03 Q1022.5=
0000008600
400
SAIQ01 ORBI 111600
METAR ORMM 111600Z 28008KT CAVOK 10/09 Q1019 NOSIG=
0000008900
401
SAIQ01 ORBI 111600
METAR ORBM 111600Z 00000KT 7000 SKC 09/05 Q1019 NOSIG=
0000029000
402
SAME31 OLBA 111600
METAR OLBA 111600Z 11004KT 8000 // FEW080 14/05 Q1025 NOSIG=
METAR OSDI NIL=
METAR OSAP NIL=
METAR OSLK NIL=
METAR OJAI NIL=
METAR OJAM 111600Z 27008KT 5000 HZ FEW030 09/06 Q1024 NOSIG=
METAR OJAQ 111600Z 34008KT 9999 BKN030 17/09 Q1024 NOSIG=
0000009500
403
SAIQ01 ORBI 111600
METAR ORNI 111600Z 34011KT 3000 BR OVC030 10/10 Q1019 NOSIG=
0000153700
404
SAFC21 OEJD 111600
METAR
OEAB 111600Z 21010KT 9999 FEW012 SCT020 13/12 Q1026 NOSIG=
OEAH 111600Z 32011KT 9999 SCT035 BKN100 16/13 Q1020 NOSIG=
OEAO 111600Z 36012KT CAVOK 16/00 Q1023=
OEBA 111600Z 06004KT 9999 SCT030 15/13 Q1022 NOSIG=
OEBH 111600Z 29011KT 9999 FEW030 17/09 Q1020 NOSIG=
OEDF 111600Z 28006KT 7000 SKC 15/10 Q1020 NOSIG=
OEDM 111600Z 02006KT CAVOK 13/01 Q1021=
OEDR 111600Z 29009KT 9999 FEW040 SCT080 16/12 Q1018 NOSIG=
OEGN 111600Z 28005KT 9999 FEW030 27/20 Q1017 NOSIG=
OEGS 111600Z 34012KT CAVOK 14/07 Q1021=
OEGT 111600Z 30006KT CAVOK 11/00 Q1022 NOSIG=
OEHL NIL=
OEJN 111600Z 32012KT CAVOK 23/05 Q1017 NOSIG=
OEKJ NIL=
OEKK 111600Z 01011KT 9999 SCT040 12/11 Q1021 NOSIG=
OEKM 111600Z 21007KT 9999 FEW022 13/11 Q1025 NOSIG=
OEMA 111600Z 27004KT CAVOK 19/M01 Q1023 NOSIG=
OEMK 111600Z 06002KT CAVOK 23/09 Q1016=
OENG 111600Z 24004KT 9999 SCT030 BKN090 17/12 Q1020 NOSIG=
OEPA NIL=
OERF 111600Z 20014KT 9999 BKN040 BKN100 08/04 Q1018=
OERK 111600Z 34005KT CAVOK 13/08 Q1022 NOSIG=
OERR 111600Z 36013KT 9999 SCT020 SCT030 08/08 Q1023 NOSIG=
OERY NIL=
OESH 111600Z 03007KT 9999 SCT040 SCT090 26/08 Q1016 NOSIG=
OESK 111600Z 36011KT 9999 FEW040 08/01 Q1024=
OETB 111600Z 02009KT 9999 SCT040 13/02 Q1024 NOSIG=
OETF 111600Z 09007KT CAVOK 15/03 Q1022 NOSIG=
OETR 111600Z 33006KT 9999 SCT030  05/04 Q1023=
OEWD 111600Z 15008KT CAVOK 20/12 Q1017 NOSIG=
OEWJ 111600Z 30014KT CAVOK 21/11 Q1021 NOSIG=
OEYN 111600Z 27008KT 8000 SKC 22/06 Q1018 NOSIG=
0000175300
405
SASD20 OEJD 111600
METAR OEAB 111600Z 21010KT 9999 FEW012 SCT020 13/12 Q1026 NOSIG=
METAR OEAH 111600Z 32011KT 9999 SCT035 BKN100 16/13 Q1020 NOSIG=
METAR OEAO 111600Z 36012KT CAVOK 16/00 Q1023=
METAR OEBA 111600Z 06004KT 9999 SCT030 15/13 Q1022 NOSIG=
METAR OEBH 111600Z 29011KT 9999 FEW030 17/09 Q1020 NOSIG=
METAR OEDF 111600Z 28006KT 7000 SKC 15/10 Q1020 NOSIG=
METAR OEDM 111600Z 02006KT CAVOK 13/01 Q1021=
METAR OEDR 111600Z 29009KT 9999 FEW040 SCT080 16/12 Q1018 NOSIG=
METAR OEGN 111600Z 28005KT 9999 FEW030 27/20 Q1017 NOSIG=
METAR OEGS 111600Z 34012KT CAVOK 14/07 Q1021=
METAR OEGT 111600Z 30006KT CAVOK 11/00 Q1022 NOSIG=
METAR OEHL 111600Z NIL=
METAR OEJN 111600Z 32012KT CAVOK 23/05 Q1017 NOSIG=
METAR OEKJ 111600Z NIL=
METAR OEKK 111600Z 01011KT 9999 SCT040 12/11 Q1021 NOSIG=
METAR OEKM 111600Z 21007KT 9999 FEW022 13/11 Q1025 NOSIG=
METAR OEMA 111600Z 27004KT CAVOK 19/M01 Q1023 NOSIG=
METAR OEMK 111600Z 06002KT CAVOK 23/09 Q1016=
METAR OENG 111600Z 24004KT 9999 SCT030 BKN090 17/12 Q1020 NOSIG=
METAR OEPA 111600Z NIL=
METAR OERF 111600Z 20014KT 9999 BKN040 BKN100 08/04 Q1018=
METAR OERK 111600Z 34005KT CAVOK 13/08 Q1022 NOSIG=
METAR OERR 111600Z 36013KT 9999 SCT020 SCT030 08/08 Q1023 NOSIG=
METAR OERY 111600Z NIL=
METAR OESH 111600Z 03007KT 9999 SCT040 SCT090 26/08 Q1016 NOSIG=
METAR OESK 111600Z 36011KT 9999 FEW040 08/01 Q1024=
METAR OETB 111600Z 02009KT 9999 SCT040 13/02 Q1024 NOSIG=
METAR OETF 111600Z 09007KT CAVOK 15/03 Q1022 NOSIG=
METAR OETR 111600Z 33006KT 9999 SCT030  05/04 Q1023=
METAR OEWD 111600Z 15008KT CAVOK 20/12 Q1017 NOSIG=
METAR OEWJ 111600Z 30014KT CAVOK 21/11 Q1021 NOSIG=
METAR OEYN 111600Z 27008KT 8000 SKC 22/06 Q1018 NOSIG=
0000008600
406
SASD32 OEJD 111600
METAR OETF 111600Z 09007KT CAVOK 15/03 Q1022 NOSIG=
0000008600
407
SAIQ01 ORBI 111600
METAR ORER 111600Z VRB02KT CAVOK 07/05 Q1017 NOSIG=
0000011600
408
SAAJ31 UBBB 111600
METAR UBBY 111600Z VRB02KT 9999 BKN100 07/M05 Q1016
R33/CLRD70 NOSIG RMK MT OP=
0000012100
409
SAAJ31 UBBB 111600
METAR UBBL 111600Z 00000KT 1400 BR SCT100 02/01 Q1014
R33/CLRD70 NOSIG RMK MT OBSC =
0000010500
410
SATR31 UTAA 111600
METAR UTAA 111600Z 05001MPS 9999 FEW100 04/M07 Q1015
12CLRD70 NOSIG=
0000010700
411
SAAJ31 UBBB 111600
METAR UBBG 111600Z 32017KT 9999 SCT100 10/M08 Q1013
R30/CLRD70 NOSIG =
00000000