0000012100
332
SAAJ31 UBBB 111700
METAR UBBQ 111700Z 14004KT 100V210 9000 NSC 03/M06 Q1011
R16/CLRD70 NOSIG RMK MT OP=
0000011500
333
FCAJ31 UBBB 111600
TAF UBBY 111655Z 1118/1203 VRB04KT 9999 FEW040 SCT080
TEMPO 1118/1124 30008KT=
0000071000
334
FCTR31 UTAA 111700
TAF UTAA 111630Z 1118/1206 34007MPS 5000 BKN030 530003 BECMG
1123/1201 BKN020 SCT030CB TEMPO 1201/1206 3000 -RA BKN009=
TAF UTAK 111630Z 1118/1206 23009G14MPS 6000 BKN016 530002 TEMPO
1118/1120 16006G11MPS TEMPO 1120/1123 33008G13MPS 3000 BR -RA
BKN007=
TAF UTAV 111630Z 1118/1206 06008MPS 5000 SCT030 BKN100 530003
TEMPO 1118/1124 15008MPS 2000 BR BKN010=
TAF UTAM 111630Z 1118/1206 13008MPS 6000 SCT030 BKN100 530003
TEMPO 1118/1124 17007MPS BECMG 1200/1203 23006G11MPS 3000
DRDU BKN020=
TAF UTAT 111630Z 1118/1206 07005MPS 2000 BR  BKN005 OVC010  530002
                   TEMPO 1118/1120  VRB02MPS 1000 BR OVC003 TEMPO
 1120/1122 0900  FZFG VV002=
0000012600
335
FCAJ31 UBBB 111700
TAF UBBN 111700Z 1118/1203 28008KT 3500 BR OVC012
620120 TEMPO 1118/1124 2500 -SN OVC006=
0000023800
336
FCGG31 UGTB 111700
TAF UGKO 111700Z 1118/1203 25008KT 9999 -RA SCT020CB OVC066 TEMPO
 1118/1122 3000 SHRA BKN010CB=
TAF UGSB 111700Z 1118/1203 23016KT 9999 -SHRA SCT015 BKN025CB PROB40
 TEMPO 1121/1203 TSRA BKN012CB=
0000177100
337
SAIR31 OIII 111700
METAR OIAA 111700Z 27006KT 9999 SCT040 BKN100 11/08 Q1019=
METAR OIAG 111700Z 19006KT 9999 FEW035CB BKN040 12/11 Q1018=
 METAR OIAH 111700Z 13006KT 4000 RA FEW035CB FEW040 OVC090 07/07
 Q1017=
 METAR OIAI 111700Z 33002KT 5000 -RA SCT030CB SCT035 OVC070 10/09
 Q1016=
METAR OIAM 111700Z 25010KT 2000 BR BKN005 SCT040 12/12 Q1018=
 METAR OIAW 111700Z 24004KT 1200 RA FEW005 SCT020CB OVC070 11/11
 Q1018=
METAR OIBA NIL=
 METAR OIBB 111700Z 00000KT 7000 FEW030CB SCT035 OVC080 14/12 Q1017
 A3004=
 METAR OIBK 111700Z 08008KT 8000 -DZ SCT015 FEW025CB SCT030 OVC080
 16/15 Q1020=
 METAR OIBL 111700Z 03006KT 4000 BR FEW020CB FEW025 OVC080 15/13
 Q1021=
METAR OIBS NIL=
 METAR OICC 111700Z 10004KT 7000 FEW035CB SCT040 BKN080 M00/M01
 Q1019 A3010=
 METAR OICI 111700Z 11004KT 9999 FEW030CB SCT040 SCT090 03/02 Q1018
 A3006=
 METAR OICJ 111650Z 00000KT 1000 SN FEW025CB SCT030 OVC070 00/M00
 Q1018=
 METAR OICK 111650Z 12004KT 8000 -RA FW030CB SCT035 OVC080 03/02
 Q1018=
METAR OICS 111700Z 00000KT 7000 FEW040 BKN080 M03/M04 Q1019=
METAR OIFK 111700Z 00000KT 4000 BR BKN020 OVC070 01/M00 Q1022=
 METAR OIFM 111700Z 00000KT 0400 FG SCT035 BKN100 M01/M01 Q1018
 A3008=
METAR OIFS 111700Z 00000KT 6000 FEW025CB SCT030 M04/M05 Q1018=
METAR OIGG 111700Z 00000KT 2500 BR FEW025 SCT160 06/05
Q1014=
METAR OIGK 111650Z 00000KT 9999 BKN025 OVC070 M03/M06 Q1017=
 METAR OIHH 111700Z 00000KT 3000 BR FEW035CB SCT040 OVC090 M05/M07
 Q1019=
 METAR OIHM 111700Z 00000KT 3000 -SHSN FEW030CB SCT035 OVC080
 M04/M05 Q1018=
 METAR OIIE 111700Z 24005KT 8000 FEW040 SCT180 00/M02 Q1020 A3012
 NOSIG=
 METAR OIII 111700Z 24006KT 2000 BR SCT035 OVC100 01/M01 Q1019
 A3009 NOSIG NOSIG=
0000089500
338
FTUZ31 UTTW 111700
TAF UTFN 111700Z 1118/1218 VRB02MPS 0100 FZFG VV002 TEMPO 1120/1201
33004MPS 0800 FZFG SCT008 TEMPO 1203/1209 1300 BR NSC=
TAF UTNN 111650Z 1118/1218 VRB02MPS 9999 SCT040 SCT100 TEMPO
1120/1124 BKN020 BKN100 TEMPO 1200/1205 1100 BR BKN004 OVC100=
TAF UTNU 111700Z 1118/1218 09004G09MPS 6000 SCT030 SCT100 TEMPO
1118/1124 VRB02MPS 2000 BR BKN020 BKN100=
TAF UTSA 111701Z 1118/1218 VRB02MPS 6000 NSC TEMPO 1118/1206 11006MPS
3000 BR SCT020 BKN100=
TAF UTSB 111700Z 1118/1218 VRB02MPS 6000 NSC TEMPO 1118/1206 10005MPS
3000 BR SCT020 BKN100=
TAF UTSS 111655Z 1118/1218 13005G10MPS 9999 NSC TEMPO 1118/1203 3000
BR BKN004=
TAF UTST 111700Z 1118/1218 05003G08MPS 6000 SCT050CB SCT100 TEMPO
1118/1205 0200 FZFG VV001 TEMPO 1205/1215 10005G10MPS BKN050CB
BKN100=
TAF UTTT 111700Z 1118/1218 VRB03MPS 7000 NSC TEMPO 1118/1203 2000 BR
FU=
0000180000
339
SAIR31 OIII 111700 RRA
METAR OIIK 111700Z 00000KT 8000 SCT040 BKN090 M01/M04 Q1019=
METAR OIIP 111700Z 00000KT 6000 SCT035 BKN080 M01/M03 Q1018=
METAR OIIS 111700Z 00000KT 9999 SCT035 BKN100 03/M00 Q1019=
 METAR OIKB 111700Z 33006KT 6000 FEW025CB SCT030 BKN100 13/10 Q1021
 A3017=
METAR OIKK 111650Z 15006KT 9999 SCT035 BKN100 01/M03 Q1020 A3013=
METAR OIKO NIL=
 METAR OIKQ 111700Z 00000KT 7000 FEW025CB SCT030 OVC090 13/08
 Q1021=
METAR OIMB 111700Z 08010KT 9999 FEW040 SCT100 00/M09 Q1019=
METAR OIMC 111700Z 18012KT CAVOK 09/M07 Q1016=
METAR OIMD 111700Z 00000KT 9999 FEW035 BKN100 04/M04 Q1016=
METAR OIMM 111700Z 00000KT 7000 NSC 04/M08 Q1017 A3004=
METAR OINB 111700Z 00000KT CAVOK 08/07 Q1013=
METAR OING 111700Z 10006KT 7000 NSC 06/05 Q1015=
METAR OINK NIL=
METAR OINN 111700Z VRB02KT CAVOK 06/05 Q1014=
METAR OINR 111700Z 00000KT 6000 NSC 08/06 Q1013=
 METAR OISA 111650Z 00000KT 5000 -SN FEW030CB SCT035 OVC080 00/M00
 Q1018=
 METAR OISF 111650Z 00000KT 7000 FEW035CB SCT040 OVC100 05/03 Q1019
 RESH=
 METAR OISL 111700Z 00000KT 9999 FEW025 FEW030CB OVC080 08/06
 Q1021=
 METAR OISS 111700Z 12006KT 3500 BR FEW020 FEW030CB OVC070 04/03
 Q1018 A3009 RERA=
 METAR OISY 111700Z 00000KT 0800 -SN FEW030CB SCT035 OVC070 00/00
 Q1019 RESN=
METAR OITL 111650Z 25012KT CAVOK M04/M07 Q1016=
 METAR OITR 111700Z 25004KT 1000 R21/P2000 BR FEW035 M11/M12 Q1020
 REFZFG=
METAR OITT 111700Z 05004KT 4000 HZ SKC M10/M13 Q1021 A3015=
METAR OITU 111650Z 00000KT 0100 FG VV005 M16/M17 Q1020=
METAR OIYY 111700Z 30012KT 5000 BR FEW035 OVC090 02/01 Q1021=
METAR OIZB 111700Z 33004KT CAVOK 05/01 Q1022=
METAR OIZC 111700Z 29004KT CAVOK 15/04
Q1022 A3018=
METAR OIZH 111700Z 11006KT 9999 FEW035 BKN090 03/M06 Q1019 A3011=
0000014800
340
SAIR31 OIII 111700 RRB
METAR OIZI 111700Z 00000KT CAVOK 11/M00 Q1022=
METAR OIZJ 111700Z 00000KT 8000 FEW025CB BKN190 20/06 Q1021=
0000021800
341
SAJD31 OJAI 111700
METAR OJAI 111700Z 31004KT 6000 HZ SCT030 08/07 Q1025 NOSIG=
METAR OJAM 111700Z 27010KT 5000 HZ SCT025 08/06 Q1024 NOSIG=
METAR OJAQ 111700Z 36006KT 9999 BKN030 16/10 Q1024 NOSIG=
0000012200
342
FCAJ31 UBBB 111700
TAF UBBQ 111703Z 1118/1203 15006KT 8000 SCT020 BKN080 TEMPO
1118/1124 3000 BR BKN010=
0000072600
343
SAUR31 UKMS 111700
METAR UKLR NIL=
METAR UKLI 111700Z 27003MPS CAVOK 02/M04 Q1017
         28090070 NOSIG=
METAR UKON 111700Z 26006MPS 230V300 CAVOK 04/M03
         Q1018 NOSIG=
METAR UKCM 111700Z 24006MPS CAVOK 06/01 Q1015
         19190062 NOSIG=
METAR UKCW 111700Z 26009MPS 9999 SCT024CB BKN040
         04/01  Q1009 2719//65 BECMG 26009G15MPS 3100
         -SHRA BKN011 BKN020CB=
METAR UKLU 111700Z 12001MPS 9999 OVC020 03/01 Q1019
         10090070 NOSIG=
METAR UKKK 111700Z 27008MPS CAVOK 04/01 Q1012
         26290250  NOSIG=
METAR UKKM 111700Z 26006MPS CAVOK 04/M00 Q1012=
METAR UKKE NIL=
METAR UKLN 111700Z 24002MPS 200V280 CAVOK 04/M04
         Q1018 3309//70 NOSIG=
0000034000
344
SATR31 UTAA 111700
METAR UTAA 111700Z 32002MPS 290V360 9999 FEW100 03/M07 Q1015
12CLRD70 NOSIG=
METAR UTAK 111700Z 10003MPS 070V140 CAVOK  07/02 Q1015 NOSIG=
METAR UTAV 111700Z 12002MPS 7000 BKN200 03/03 Q1021 NOSIG=
METAR UTAM 111700Z 12004MPS 6000 SCT066 SCT100 BKN230 07/M04 Q1018
 NOSIG  RMK  SC07=
UTAT NIL=
0000018700
345
FTAJ31 UBBB 111700
TAF UBBL 111703Z 1118/1218 12006KT 3000 BR SCT020 SCT100
TX08/1210Z TNM03/1203Z TEMPO 1118/1204 1000 BKN003 BECMG
1204/1206 04006KT 9999 NSW BKN017=
0000106300
346
SAAR20 OEJD 111700
METAR OBBI 111700Z 23005KT CAVOK 16/13 Q1020 NOSIG=
METAR OKBK 111700Z 31013KT 9999 FEW040 BKN080 13/08 Q1020 NOSIG=
METAR OMAA 111700Z 01005KT 9000 -RA NSC 18/16 Q1021 A3015 NOSIG=
METAR OMAD 111700Z 01005KT 9999 -RA FEW045 18/16 Q1021 A3015 NOSIG=
METAR OMAL 111700Z 35008KT CAVOK 19/11 Q1021 A3016 NOSIG=
METAR OMDB 111700Z 01005KT 340V080 8000 -RA NSC 18/14 Q1021 NOSIG=
METAR OMFJ 111700Z 25001KT 9999 BKN020 19/13 Q1021 A3014 RERA=
METAR OMRK 111700Z 30005KT 8000 -RA SCT040 17/16 Q1021 A3016=
METAR OMSJ 111700Z 33004KT CAVOK 17/16 Q1021=
METAR OOBR 111700Z NIL=
METAR OOKB 111700Z NIL=
METAR OOMS 111650Z VRB02KT 9999 FEW030 SCT100 BKN200 19/09 Q1022
NOSIG=
METAR OOSA 111650Z 11009KT 080V140 9999 BKN025 23/15
Q1019 NOSIG  RMK00 RH60=
METAR OOSH 111700Z NIL=
METAR OOSQ 111700Z NIL=
METAR OOSR 111700Z NIL=
METAR OOTH 111700Z NIL=
METAR OOYB 111700Z NIL=
METAR OTBD 111700Z VRB01KT 9999 FEW018 BKN120 17/12 Q1021 NOSIG=
METAR OYAA 111700Z 14007KT 9999 FEW020 25/18 Q1017 NOSIG=
0000009000
347
SAAR20 OEJD 111700 RRA
METAR OYSN 111700Z 26007KT 9999 SCT030 17/06 Q1027=
0000040900
348
SAME31 OEJD 111700
METAR OJAI 111700Z 31004KT 6000 HZ SCT030 08/07 Q1025 NOSIG=
METAR OJAM 111700Z 27010KT 5000 HZ SCT025 08/06 Q1024 NOSIG=
METAR OJAQ 111700Z 36006KT 9999 BKN030 16/10 Q1024 NOSIG=
METAR OLBA 111700Z 12004KT 8000 // FEW080 14/03 Q1025 NOSIG=
METAR OSAP 111700Z NIL=
METAR OSDI 111700Z 26006KT CAVOK 08/01 Q1023=
METAR OSLK 111700Z 12002KT 9999 SCT030 12/08 Q1023=
0000036000
349
SAWD01 OEJD 111700 RRA
METAR UUEE 111700Z 28009MPS 3000 -SN BKN010 OVC100 M02/M03 Q0993
25720145 75720145 NOSIG=
METAR VCBI 111710Z 04011KT CAVOK 26/21 Q1013 NOSIG=
METAR VIDP 111700Z 22004KT 0800 R28/P2000 R29/P2000 MIFG NSC 11/09
      Q1021 NOSIG=
METAR WMKK 111700Z 03006KT 350V070 9999 FEW017CB SCT140 BKN280 26/22
Q1011 NOSIG=
0000011200
350
SATR31 UTAA 111700 RRA
METAR UTAT 111700Z 09004MPS 4000 FEW100 M02/M04  Q1021 99CLRD70
 NOSIG=
0000008600
351
SAIQ01 ORBI 111700
METAR ORER 111700Z VRB02KT CAVOK 06/04 Q1018 NOSIG=
00000000