0000014100
995
SMVB11 LFPW 111800
BBXX
CQIV 11184 99242 11184 415// 60318 10160 20078 40250 54000 70211
86/1/
22200 04140 20503 80115=
0000015700
996
SSVX13 LFPW 111800
ZZYY 44874 11014 1800/ 745792 020721 6113/ 11119 49989 52021 22219
 00132 444 20130 11014 1800/ 50101 80118 80006 9/015=
0000016300
997
SSVX13 LFPW 111800
ZZYY 13595 11014 1800/ 730274 019480 6113/ 22219 00199 33300 88872
 20000 43682 444 20130 11014 1800/ 50101 80108 80029 9/015=
0000014400
998
SNDL48 EDZW 111600 CCA
AAXX 11161
10747 47249 82602 10042 20038 39603 40195 53011 76265
  333 55300 20003 30003 85/05 88/13=
0000013800
999
SNDL48 EDZW 111700 CCA
AAXX 11171
10747 47250 82402 10047 20042 39604 40195 51009 72365
  333 55300 20000 30000 88/05=
0000016300
000
SSVX13 LFPW 111800
ZZYY 13591 11014 1800/ 722971 066422 6113/ 22219 00262 33300 88872
 20000 43607 444 20130 11014 1800/ 50101 80106 80010 9/015=
0000015700
001
SSVX13 LFPW 111800
ZZYY 44773 11014 1800/ 742076 028830 6113/ 11119 40079 52024 22219
 00144 444 20130 11014 1800/ 50101 80118 80006 9/015=
0000008900
002
SAIN90 VOBL 111800
METAR VOBL 111800Z 11004KT 6000 NSC 22/17 Q1019 NOSIG=
0000042500
003
FCIN90 VOTV 111800
TAF VOTV 111800Z 1121/1206 00000KT 4000 HZ FEW015 SCT100 TEMPO
1200/1203 2000 BR/HZ FEW025CB BECMG 1204/1205 14005KT 5000 HZ=
TAF VOCI 111800Z 1121/1206 00000KT 4000 HZ FEW015 SCT100 TEMPO
1200/1203 2000 BR/HZ FEW025CB BECMG 1204/1205 05005KT 5000 HZ=
TAF VOCL 111800Z 1121/1206 00000KT 4000 HZ FEW015 SCT100 TEMPO
1200/1203 2000 BR/HZ FEW025CB BECMG 1204/1205 22005KT 5000 HZ=

0000007500
004
UPIN90 VEAT 111800
PPAA 61171 42724
55292 32004 24502=

0000010500
005
UGIN90 VEAT 111800
PPBB 61171 42724
90012 00000 33504 32003 90378 30503 19002 16002=

0000015700
006
SSVX13 LFPW 111800
ZZYY 44740 11014 1800/ 730625 030629 6113/ 11119 40191 52013 22219
 00203 444 20130 11014 1800/ 50101 80118 80024 9/015=
0000015700
007
SSVX13 LFPW 111800
ZZYY 41969 11014 1800/ 741146 042423 6113/ 11119 40233 52001 22219
 00163 444 20130 11014 1800/ 50101 80118 80008 9/015=
0000010900
008
UANT01 CWAO 111800
ARP DAL9 5138N04133W 1800 F330 MS59 283/69 KT
N174DN QXT AOW 111800 F34A
0000012800
009
SMID54 WAAA 111800
AAXX 11184
97180 32458 50000 10258 20227 30081 40100 56019 81232
  333 56000 81819 83360=
0000011100
010
UANT01 CWAO 111800
ARP NAX7031 6057N03409W 1800 F340 MS60 330/50 KT
EILNA QXT AOE 111800 L25A
0000011000
011
UANT01 CWAO 111800
ARP BAW297 5516N01614W 1800 F360 MS65 226/91 KT
GCIVY QXT AOE 111800 F02A
0000011000
012
UANT99 KDDL 111759
ARP BAW297 5513N01601W 1759 F360 MS65 226/90 KT
GCIVY QXT AOE 111759 F96A
0000011100
013
UANT99 KDDL 111800
ARP GEC8221 5733N01430W 1759 F350 MS64 245/79 KT
DALCA QXT IGW 111800 F24A
0000023100
014
SNVD20 KWNB 111700 RRU
BBXX
44039 11171 99411 70727 46/// /1910 10103 20101 91730 333 91212
555 11118 22139=
44060 11171 99413 70721 46/// /1809 10093 20090 40080 91730 22200
00044 333 91212 555 11108 22124=
00000000