0000070500
855
SXXX32 EUMS 111751 RRX
26F364EA

ST STHELENA
DT 11/01/14 11/01/14
TM 17:45:00 17:30:00
RD 10000 10000 10000 10000 10000 10000 10000 10000 10000 10000 10000 10000 10000 10000 10000 10000 10000 10000 10000 10000 10000 10000 10000 10000 10000 10000 10000 10000 10000 10000
P1 00909 00709 00437 00388 00509 00035 00560 00591 00817 00835 00533 00487 00438 00951 00122 00657 00461 00034 00714 00279 00226 00824 00787 00369 00532 00781 00908 00336 01114 00298
P2 00020 00019 00020 00018 00021 00020 00017 00018 00017 00020 00019 00017 00017 00018 00015 00018 00018 00018 00018 00019 00018 00018 00017 00019 00017 00018 00018 00017 00019 00021
T1 00.0 00.0
T2 22.6 22.6
VB 13.1
0000009200
856
SAGI32 EGRR 111750
METAR LXGB 111750Z 11002KT 9999 FEW025 16/13 Q1020 NOSIG=
0000060600
857
SAUK39 EGRR 111750
METAR EGQL 111750Z 18002KT CAVOK 02/M02 Q1016 BLU NOSIG=
METAR EGQM 111750Z AUTO 28008KT 9999 NCD 03/M00 Q1017=
METAR EGQS 111750Z 25016KT 9999 FEW020CB 02/M00 Q1014 BLU=
METAR EGVN 111750Z 27003KT CAVOK 03/00 Q1022 BLU NOSIG=
METAR EGVO 111750Z 25003KT CAVOK 03/01 Q1022 BLU=
METAR EGWU 111750Z 26001KT CAVOK 03/00 Q1022 BLU NOSIG=
METAR EGXC 111750Z 27006KT CAVOK 04/M00 Q1021 BLU=
METAR EGXT 111750Z AUTO 27008KT 9999 SCT240/// 02/01 Q1021=
METAR EGXV 111750Z AUTO 25007KT 9999 NCD 04/01 Q1020=
METAR EGXW 111750Z 26006KT CAVOK 04/00 Q1021 BLU NOSIG=
0000069800
858
SXXX32 EUMS 111751 RRX
3601E29A
OT12 ID:DJ-BOUT-08 DT:2014 01 11 17 41
:RAD /1 02304 02297 02297 02288 02282 02280 02279 02280 02289 02280 02270 02279 02268 02267 02267 02267 02263 02266 02264 02268 02268 02263 02269 02266 02265 02261 02267 02265 02254 02259
:PR1 /1 02615 02609 02605 02603 02597 02603 02593 02595 02597 02595 02585 02596 02585 02587 02590 02587 02586 02579 02579 02589 02579 02572 02585 02573 02573 02577 02577 02567 02572 02563
:PR2 /1 00845 00840 00838 00837 00841 00838 00836 00834 00838 00829 00823 00826 00815 00823 00828 00817 00831 00816 00807 00814 00808 00819 00824 00811 00820 00821 00811 00808 00813 00805
:TM1 /15 259 259 259 259
:BAT 13.5V
0000126200
859
FTIN90 VAAH 111800
TAF VAAH 111800Z 1121/1206 02005KT 3000 FU/HZ  BECMG 1201/1203 34003KT 1500 HZ/BR FEW025 SCT080 BECMG 1204/1206 04008KT 4000 FU/HZ=

TAF VABO 111800Z 1121/1206 02005KT 3000 FU/HZ  BECMG 1201/1203 34003KT 1500 HZ/BR FEW025 SCT080 BECMG 1204/1206 04008KT 4000 FU/HZ=

TAF VASU 111800Z 1121/1206 02005KT 3000 FU/HZ  BECMG 1201/1203 34003KT 1500 HZ/BR FEW025 SCT080 BECMG 1204/1206 04008KT 4000 FU/HZ=

TAF VARK 111800Z 1121/1206 02005KT 3000 FU/HZ  BECMG 1201/1203 34003KT 1500 HZ/BR FEW025 SCT080 BECMG 1204/1206 04008KT 4000 FU/HZ=

TAF VAJM 111800Z 1121/1206 02005KT 3000 FU/HZ  BECMG 1201/1203 34003KT 1500 HZ/BR FEW025 SCT080 BECMG 1204/1206 04008KT 4000 FU/HZ=

TAF VABV 111800Z 1121/1206 02005KT 3000 FU/HZ  BECMG 1201/1203 34003KT 1500 HZ/BR FEW025 SCT080 BECMG 1204/1206 04008KT 4000 FU/HZ=

TAF VABJ 111800Z 1121/1206 02005KT 3000 FU/HZ  BECMG 1201/1203 34003KT 1500 HZ/BR FEW025 SCT080 BECMG 1204/1206 04008KT 4000 FU/HZ=

TAF VADU 111800Z 1121/1206 02005KT 3000 FU/HZ  BECMG 1201/1203 34003KT 1500 HZ/BR FEW025 SCT080 BECMG 1204/1206 04008KT 4000 FU/HZ=

TAF VAPR 111800Z 1121/1206 02005KT 3000 FU/HZ  BECMG 1201/1203 34003KT 1500 HZ/BR FEW025 SCT080 BECMG 1204/1206 04008KT 4000 FU/HZ=
0000067200
860
SXXX32 EUMS 111752 RRX
32CC9580
OT12 ID:ID-ENGG-07 DT:2014 01 11 17 51
:PRS /1 01271 01284 01307 01292 01284 01288 01289 01322 01303 01274 01244 01313 01298 01289 01296 01312 01307 01330 01315 01281 01306 01332 01323 01304 01312 01300 01303 01297 01304 01343
:PR2 /1 04724 04746 04771 04750 04744 04750 04744 04772 04751 04757 04724 04753 04741 04778 04736 04765 04766 04763 04733 04766 04775 04787 04769 04761 04769 04772 04797 04775 04787 04778
:RAD /1 05593 05602 05636 05623 05606 05610 05621 05640 05615 05605 05602 05617 05629 05627 05626 05629 05636 05637 05619 05617 05634 05626 05647 05635 05639 05637 05641 05628 05620 05661
:BAT 12.3V/
0000070400
861
SXXX32 EUMS 111752 RRX
26BED7DE

ST TRISTAN
DT 11/01/14 11/01/14
TM 17:45:00 17:15:00
RD 00000 00000 00000 00000 00000 00000 00000 00000 00000 00000 00000 00000 00000 00000 00000 00000 00000 00000 00000 00000 00000 00000 00000 00000 00000 00000 00000 00000 00000 00000
P1 00000 00000 00000 00000 00000 00000 00000 00000 00000 00000 00000 00000 00000 00000 00000 00000 00000 00000 00000 00000 00000 00000 00000 00000 00000 00000 00000 00000 00000 00000
P2 00000 00000 00000 00000 00000 00000 00000 00000 00000 00000 00000 00000 00000 00000 00000 00000 00000 00000 00000 00000 00000 00000 00000 00000 00000 00000 00000 00000 00000 00000
T1 00.0 00.0
T2 00.0 00.0
VB 14.2
0000029100
862
SXXX32 EUMS 111754 RRX
166AC436
OT12 ID:IC-COMI-10 DT:2014 01 11 17 53
:RAD /1 05296 05262 05296 05282 05264 05306 05300 05312 05309 05318 05312 05302 05320 05313 05341 05331 05346 05331 05333 05348 05322 05316 05305 05341 05338 05346 05351 05332 05353 05340
:BAT 13.1V
0000037900
863
SXXX32 EUMS 111754 RRX
12FD90D0
:PRS 1 /1 1374 1379 1375 1378 1788 13//11392 1401 1396 1799 1401 1394 :RAD 1 /3 5946 5951 5949 5940 5926 5909 5890 587/ 705/ 5853 :ENC 3 /6 5682 5687 5662 5616 5578 5602 5575 5545 5536 5499 :RA2 3 /6 4842 48460/:19 4774 4738 4766 4734 4705 4695 4658 :SW1 54 /60 60 :SW2 24 /60 60 :BAT 5 /6 12.5 :WT/-0 /6 28.4 28.4 :NAME 12FD90D0
0000045300
864
SXXX32 EUMS 111754 RRX
224AD678
:PRS 2 /1 1807 1806 1809 1808 1812 1817 1820 1822 1822 1822 1822 1823 1826 1826 1830 1833 1837 1839 1838 1840 1839 1843 1845 1849 1852 1851 1853 1855 1856 1859 :RAD 4 /3 4637 4642 4647 4649 4655 4659 4662 4667 4673 4680 4682 4689 4698 4705 4712 4716 4717 4725 4736 4742 :ENC 4 /5 8161 8170 8175 8188 8192 8203 8213 8218 8231 8242 8247 8263 :SW1 54 /60 60 :SW2 24 /60 60 :BAT 14 /15 12.3 :NAME 224AD678 /
0000069800
865
SXXX32 EUMS 111754 RRX
229C0324
OT92 ID:MZ-NIH2-09 DT:2014 01 11 17 44
:RAD /1 05862 05855 05854 0=846 05852 05845 05841 05836 05832 05836 05828 05832 05032 05823 05819 05814 05810 05807 05807 05803 05795 05790 05793 05788 85790 05788 05783 05780 05769 05777
:PR1 /1 ///// ///// ///// ///// ///// /////(///// ///// ///// ///// ///// ///// ///// ///// ///// ///// ///// ///// ///// ///// ///// ///// ///// ///// ///// ///// ///// ///'/ ///// /////
:PR2(/1 ///// /////(///// ///// ///// ///// /////(////' ///// ///// /'/// ///// ///// ///// ///// ///// '//// ///// ///'/ //'// ///// ///// ///// ///// //'// ///// ///// ////' ///// /////
:TM1 /15 /// /// /// ///
:BAT 13.8/
0000261800
866
UDFR01 LFPW 111758
AMDAR 1117
ASC EU0104 5022N 03058E 111724 F008 PS030 /// 261/019 TB2 S031
333 F008 VG072=
ASC EU0104 5023N 03058E 111725 F016 PS017 /// 272/026 TB1 S031
333 F016 VG034=
ASC EU0104 5024N 03058E 111725 F024 PS000 /// 288/029 TB0 S031
333 F024 VG007=
UNS EU0104 5025N 03058E 111725 F030 MS010 /// 296/034 TB0 S031
333 F030 VG007=
UNS EU0104 5025N 03056E 111726 F036 MS027 /// 301/030 TB0 S031
333 F036 VG001=
ASC EU0104 5025N 03055E 111726 F041 MS035 /// 311/031 TB0 S031
333 F041 VG000=
ASC EU0104 5025N 03053E 111726 F048 MS045 /// 313/030 TB1 S031
333 F048 VG012=
ASC EU0104 5025N 03050E 111727 F060 MS065 /// 315/029 TB1 S031
333 F060 VG015=
ASC EU0104 5025N 03049E 111727 F071 MS095 /// 325/029 TB0 S031
333 F071 VG007=
ASC EU0104 5025N 03046E 111727 F082 MS097 /// 307/027 TB1 S031
333 F082 VG025=
ASC EU0104 5025N 03044E 111728 F095 MS107 /// 314/030 TB1 S031
333 F095 VG029=
ASC EU0104 5025N 03042E 111728 F104 MS132 /// 325/030 TB1 S031
333 F104 VG024=
ASC EU0104 5025N 03040E 111728 F109 MS142 /// 325/034 TB0 S031
333 F109 VG002=
ASC EU0104 5025N 03037E 111729 F112 MS147 /// 328/039 TB1 S031
333 F112 VG010=
ASC EU0104 5025N 03034E 111729 F114 MS152 /// 328/040 TB1 S031
333 F114 VG018=
ASC EU0104 5024N 03031E 111729 F119 MS155 /// 318/042 TB2 S031
333 F119 VG025=
ASC EU0104 5024N 03028E 111730 F130 MS175 /// 322/041 TB1 S031
333 F130 VG019=
ASC EU0104 5024N 03024E 111730 F139 MS202 /// 321/044 TB1 S031
333 F139 VG007=
ASC EU0104 5024N 03021E 111730 F148 MS195 /// 318/047 TB1 S031
333 F148 VG022=
ASC EU0104 5024N 03018E 111731 F156 MS202 /// 317/047 TB1 S031
333 F156 VG007=
ASC EU0104 5023N 03014E 111731 F162 MS215 /// 321/048 TB0 S031
333 F162 VG004=
ASC EU0104 5023N 03011E 111731 F169 MS230 /// 324/048 TB1 S031
333 F169 VG012=
ASC EU0104 5023N 03008E 111732 F175 MS242 /// 321/049 TB1 S031
333 F175 VG008=
ASC EU0104 5023N 03005E 111732 F182 MS257 /// 322/047 TB1 S031
333 F182 VG007=
ASC EU0104 5023N 03001E 111732 F188 MS270 /// 321/047 TB0 S031
333 F188 VG004=
ASC EU0104 5023N 02958E 111733 F196 MS285 /// 316/049 TB0 S031
333 F196 VG003=
ASC EU0104 5023N 02954E 111733 F204 MS302 /// 309/053 TB0 S031
333 F204 VG001=
ASC EU0104 5022N 02951E 111733 F211 MS325 /// 308/054 TB0 S031
333 F211 VG001=
ASC EU0104 5022N 02947E 111734 F217 MS337 /// 306/053 TB0 S031
333 F217 VG002=
ASC EU0104 5022N 02944E 111734 F222 MS342 /// 304/059 TB0 S031
333 F222 VG005=
ASC EU0104 5022N 02940E 111734 F229 MS352 /// 305/000 TB0 S031
333 F229 VG///=
0000011100
867
UANT99 KDDL 111756
ARP UAL925 5402N01602W 1756 F370 MS63 226/80 KT
N228UA DDL BLY 111756 F17A
0000011000
868
UANT99 KDDL 111756
ARP VIR11B 5358N03047W 1756 F380 MS56 201/31 KT
GVKSS DDL XXF 111757 J32A
0000011000
869
UANT99 KDDL 111756
ARP VIR23J 5836N02142W 1756 F320 MS60 218/87 KT
GVFIZ DDL XXN 111757 J24A
0000012600
870
SMJD50 OJAM 111800
AAXX 11184
40272 31556 30000 10070 20059 39415 40268 52010 70500 83100 333 10136
83830=
0000039600
871
SMTO01 NFTF 111800
AAXX 11184
91772 31498 32705 10254 20240 40065 60001 70200 81101 333 5669/ 81818 83080=
91776 31498 60000 10268 20250 40072 60001 70222 831// 333 5699/ 83818 87640=
91779 31398 73213 10263 20244 40038 53021 60001 70222 84771 333 56599 83708
84816 87077=
91784 NIL=
91792 11398 72313 10267 20249 40003 53020 60071 84732 333 56599 82708 84816
87078=
0000019300
872
UAPA01 KWBC 111757
ARP ASA861 46N 130W 1744 F340 MS46 287/061KT=
ARP UAL1176 3304N 12431W 1749 F320 MS46 251/045KT TB SMTH=
ARP ASA881 3111N 14117W 1749 F360 MS51 251/063KT=
0000010800
873
UANT01 CWAO 111757
ARP ANZ1 5601N01957W 1757 F330 MS60 204/74 KT
ZKOKQ QXT EUA 111757 F21A
0000011000
874
UANT01 CWAO 111757
ARP AFR054 4935N04518W 1757 F390 MS60 302/66 KT
FHPJF QXT AOE 111757 J44A
00000000