0000011000
875
UANT01 CWAO 111757
ARP DHK984 5215N03820W 1757 F340 MS59 291/46 KT
GDHLE DDL XXN 111757 F48A
0000011100
876
UANT01 CWAO 111757
ARP UAL925 5402N01613W 1757 F370 MS63 224/79 KT
N228UA DDL BLY 111757 F18A
0000039800
877
SAPK31 OPKC 111800
METAR OPGD 111800Z NIL=
METAR OPKC 111755Z 35003KT 7000 NSC 12/M03 Q1022 NOSIG=
METAR OPLA 111755Z 00000KT 4000 FU NSC 10/04 Q1022/A30.18 NOSIG=
METAR OPNH 111800Z 36003KTS 4000M FU NSC 13/07 Q.1022=
METAR OPPS 111800Z NIL=
METAR OPRN 111800Z 00000KT 4000 HZ FEW100 07/02 Q1023.2/30.21=
METAR OPSK 111800Z 00000KTS 4000 HZ NSC 09/05 QNH 1022 RH.74 PC=
0000014100
878
SMCS01 MROC 111757 RRB
AAXX 11184
78774 32970 00714 10324 20153 30021 40120 57021 
333 10331 20181 30/// 58012=



0000013000
879
SMCS01 MROC 111757 RRB
AAXX 11184
78774 32970 00714 10324 20153 30021 40120 57021
333 10331 20181 30/// 58012=
0000018000
880
WAEG31 HECA 111400
HECC AIRMET 4 VALID 111500/111900 HECA-
HECC CAIRO FIR MOD TURB FCST  N25 AND N32 W OF E31 45 TOP ABV
           FL100 MOV SE 25KMH NC
ERR=
0000024100
881
SOAT10 KWAL 111758
FA8005BC 011175837 OT12 ID:KN-BASS-01 DT:2014 01 11 17 56
:RD -3082 -3131 -3155 -3119 -3123 -3112 -3092 -3083 -3094 -3110
:PR 0525 0563 0539 0516 0570 0582 0567 0582 0643 0562
:B 13.7V
 46+1NN 219E
0000015100
882
SNAA01 KARS 111700 RRC
AAXX 1117/
89869 46/// ///// 11066 39903 4//// 5//// 91740=
89866 46/// ///// 11013 39859 4//// 5//// 91740=
0000013500
883
SNAA01 KARS 111800
AAXX 1118/
89828 46/// ///// 11350 36537 4//// 5////=
89879 46/// ///// 10018 39885 4//// 5////=
0000027000
884
SMCV01 GVAC 111800
AAXX 11184
08594 32481 70707 10222 20132 40154 858// 333 10253 58011 85813
87615=
08589 32480 30511 10226 20140 4//// 82504 333 10246 5//// 82517
83070=
08583 32570 70613 10247 20151 40158 84201 333 10263 58011 84823
86070=
0000013900
885
SMCD01 FTTJ 111800
AAXX 11184
64700 32960 30206 10240 20008 39799 40137 80002
  333 10297 58007 83075=
64750
  333=
0000010000
886
SMVC11 LFPW 111800
BBXX
BAREU08 11184 99329 50716 46/// ///// 40138 52003
22241=
0000011000
887
SMMH02 PKMR 111800
AAXX 11184
91367 32474 30415 10278 20248 83100 333 561// 83815 555 91118=
0000010700
888
UANT99 KDDL 111757
ARP THY1 5156N03119W 1757 F320 MS51 224/6 KT
TCJJN QXT AOE 111757 F33A
0000020000
889
SPSA85 EGRR 111751 RRE
SPECI SASA 111745Z 18008KT 6000-RA SCT015 FEW030CB OVC035 19/15 Q1023=
SPECI SGES 111740Z 27008G18KT 240V330 9999 VC TSSH BKN027 FEW040TCU
      28/24 Q1011=
0000055500
890
SASA85 EGRR 111800
METAR SBAR 111800Z 17011KT 9999 SCT016 28/20 Q1013=
METAR SBCY 111800Z 34001KT 9000 -RA SCT020 FEW025TCU 24/20 Q1013=
METAR SBEG 111800Z 01006KT 9999 BKN020 FEW025TCU BKN100 28/23 Q1012=
METAR SBPV 111800Z 30003KT 9999 BKN020 FEW023TCU BKN100 27/22 Q1011=
METAR SBRF 111800Z 10012KT 4000 -RA BR SCT008 BKN015 24/24 Q1012=
METAR SBSV 111800Z 16009KT 9999 SCT017 BKN080 30/23 Q1013=
METAR SUMU 111800Z 16015G25KT 9999 FEW033 BKN070 21/07 Q1019 NOSIG=
METAR SVMG 111800Z /////KT 9999 FEW010 30/21 Q1014 NOSIG=
0000013800
891
SMAT01 TAPA 111757
AAXX 11184
78862 11478 50513 10271 20217 30152 40175 60001 70511 85830
333 10277 20232 58011 84817=
0000041700
892
SASD31 OEJD 111800
METAR OEDF 111800Z 29007KT CAVOK 14/09 Q1021 NOSIG=
METAR OEDR 111800Z 29008KT CAVOK 14/10 Q1019 NOSIG=
METAR OEJN 111800Z 33010KT CAVOK 21/06 Q1018 NOSIG=
METAR OEMA 111800Z 33004KT CAVOK 17/M02 Q1024 NOSIG=
METAR OERK 111800Z 00000KT CAVOK 11/06 Q1023 NOSIG=
METAR OYAA 111800Z 13007KT 9999 SCT020 25/19 Q1017 NOSIG=
METAR OYSN 111800Z 28003KT 9999 SCT030 16/05 Q1028=
0000017400
893
SAOM32 OOMS 111800
METAR OOMS 111750Z VRB02KT 9999 FEW030 SCT100 BKN200 19/09 Q1021
NOSIG=
METAR OOSA 111750Z 10009KT 9999 BKN025 23/15 Q1019
NOSIG  03=
0000009000
894
UAAU01 AMMC 111800
AIREP
QFA7628 3951S 16300E 1726 F380 MS55 210/041=

00000000