0000179300
326
SZPS01 AMMC 111806
CREX++
T000103 A001 D01021 D06025++
-0204190 14737360 56130 2014 01 11 17 59 3023 11 07 00 01
00851 0115 00852 0115 00855 0116 00857 0117 00856 0115 00858 0115+
-0669280 15640860 56363 2014 01 11 17 59 //// 11 07 00 01
00596 -0049 00595 -0050 00594 -0050 00595 -0048 00592 -0051 00590 -0052+
-0942890 15995560 56670 2014 01 11 17 59 3037 11 07 00 01
00717 -0044 00717 -0045 00720 -0044 00719 -0046 00721 -0045 00719 -0048+
-1072080 16580190 57131 2014 01 11 17 59 //// 11 07 00 01
02992 2304 03070 2384 02931 2247 02356 1673 02734 2053 02811 2132+
-1551560 16718860 57210 2014 01 11 17 59 //// 11 07 00 01
00920 -0136 00922 -0133 00906 -0147 00904 -0146 00911 -0137 00908 -0138+
-1775690 16830030 57320 2014 01 11 17 59 3015 11 07 00 01
01100 -0023 01096 -0026 01090 -0030 01086 -0033 01080 -0038 01076 -0041+
-4397330 16861610 65180 2014 01 11 17 59 2880 11 07 00 01
02108 0424 02403 0714 02217 0522 02104 0404 02089 0383 02521 0811+
-2120470 -15978530 65980 2014 01 11 17 59 3008 11 07 00 01
00689 0002 00675 -0011 00674 -0011 00697 0013 00703 0020 00683 0002+
-2113810 -17518140 66600 2014 01 11 17 59 //// 11 07 00 01
01281 0094 01276 0093 01275 0095 01271 0094 01265 0092 01270 0100+
-1382670 -17176110 66840 2014 01 11 17 59 3010 11 07 00 01
00805 0072 00796 0066 00804 0077 00796 0071 00803 0082 00791 0072+
-1813250 17842750 67050 2014 01 11 17 59 3030 11 07 00 01
01415 0089 01414 0092 01405 0086 01400 0085 01396 0085 01396 0088+
-1760530 17743810 67070 2014 01 11 17 59 3028 11 07 00 01
01484 0015 01479 0013 01474 0013 01471 0013 01467 0014 ///// ////+
-0850250 17919500 67440 2014 01 11 17 59 3027 11 07 00 01
01957 0000 01946 -0007 01946 -0003 01942 -0004 01935 -0007 01938 0000++
7777

0000011000
327
UANT99 KDDL 111804
ARP BAW178 5422N03716W 1804 F390 MS57 257/33 KT
GBYGB QXT AOW 111804 F95A
0000010900
328
UANT99 KDDL 111804
ARP VIR26 5501N01543W 1804 F390 MS61 232/53 KT
GVRED DDL BLY 111804 J56A
0000012200
329
SASY31 OSDI 111800
OSDI 111800Z 24008KT CAVOK 07/02 Q1023=
OSLK 111800Z 12002KT 9999 SCT030 11/07 Q1023=
0000011300
330
SAAJ31 UBBB 111800
METAR UBBQ 111800Z 24009KT 9999 NSC 04/M06 Q1013
R16/CLRD70 NOSIG RMK MT OP=
0000010600
331
SAAH10 OAKB 111750
METAR OAKB 111750Z 35002KT 3000 HZ NSC M02/M10 Q1027 NOSIG RMK YLO YLO=
0000013000
332
SAAJ31 UBBB 111800
METAR UBBN 111800Z 25004KT 3700 BR OVC012 M09/M11 Q1024
R14R/CLRD60 NOSIG RMK MT OBSC QFE693=
0000080300
333
SAUR30 UKMS 111800
METAR UKBB 111800Z 26004MPS CAVOK 04/M00 Q1012
         88290060 NOSIG=
METAR UKHH 111800Z 28004MPS 9999 SCT020CB BKN033
         03/01 Q1009  25290050 TEMPO 24008G17MPS 2100
         -SHSNRA BKN007=
METAR UKOO 111800Z 00000MPS CAVOK 02/M02 Q1020
         34190058 NOSIG=
METAR UKDE 111800Z 27007MPS 250V310 9999 BKN040
         05/M01  Q1014 20290565 NOSIG=
METAR UKDD 111800Z 29007MPS 9999 SCT033CB BKN050
         05/01  Q1013 26090070 NOSIG=
METAR UKFF 111800Z 19004MPS CAVOK 02/00 Q1021
         19010070 NOSIG=
METAR UKLL 111800Z 20003MPS CAVOK 01/M03 Q1015
         31CLRD80  NOSIG=
METAR UKCC 111800Z 26007MPS CAVOK 02/01 Q1012
         26190055 NOSIG=
METAR UKDR 111800Z 24004MPS CAVOK 03/M01 Q1015
         1809//65 NOSIG=
0000010700
334
SAAJ31 UBBB 111800
METAR UBBG 111800Z 30023KT 9999 SCT100 10/M05 Q1014
R30/CLRD70 NOSIG =
0000010600
335
SAAJ31 UBBB 111800
METAR UBBB 111800Z 33025G35KT 9999 BKN042 08/04 Q1015
88CLRD70 NOSIG=
0000010500
336
SATR31 UTAA 111800
METAR UTAA 111800Z 33001MPS 9999 SCT230 02/M06 Q1015
12CLRD70 NOSIG=
0000011600
337
SAAJ31 UBBB 111800
METAR UBBY 111800Z 30004KT 9999 BKN100 08/M06 Q1017
R33/CLRD70 NOSIG RMK MT OP=
0000026900
338
SAGG31 UGTB 111800
METAR UGTB 111800Z 30024G36KT 9999 FEW039 07/M00 Q1018 R31L/CLRD80
NOSIG=
METAR UGKO 111800Z 24017KT 9999 SCT024CB OVC049 09/07 Q1021
      R25/29//50 NOSIG=
METAR UGSB 111800Z 22011KT 9999 BKN026 11/06 Q1026 R13/CLRD70 NOSIG=
0000015200
339
SMDL01 EDZW 111800 RRA
AAXX 11181
10004 46/60 /2816 10070 20021 30129 40129 51025
222// 00080
  333 10081 20050 55300 91124 91218=
0000011100
340
UANT01 CWAO 111805
ARP UAE232 5318N05633W 1805 F310 MS55 292/127 KT
A6ECE DDL YAY 111805 F02A
0000016900
341
SSVX13 LFPW 111800
ZZYY 41737 11014 1800/ 725758 037039 6113/ 11119 40182 57008 33300
 88872 20000 43753 444 20130 11014 1800/ 50101 80148 80063 9/015=
0000018400
342
SSVX13 LFPW 111800
ZZYY 62503 11014 1800/ 745949 002495 6113/ 11119 40206 52003 22219
 00134 33300 88872 20000 43543 444 20130 11014 1800/ 50101 80100
 80000 9/015=
0000018400
343
SSVX13 LFPW 111800
ZZYY 62504 11014 1800/ 756163 018740 6110/ 11119 40022 57040 22219
 00102 33300 88872 20000 43535 444 20100 11014 1800/ 50101 80134
 80000 9/015=
0000018400
344
SSVX13 LFPW 111800
ZZYY 41800 11014 1800/ 725889 035816 6110/ 11119 40181 57006 22219
 00231 33300 88872 20000 43743 444 20100 11014 1800/ 50101 80148
 80066 9/015=
0000017100
345
SMGO01 FOOG 111800
AAXX 11184
64501 32360 61806 10275 20247 30100 40110 82502
  333 10290 58004 82608 86073=
CHECK
TEXT
NEW ENDING ADDED DRRRYFYX
00000000