0000076800
352
SAUZ31 UTTW 111700
METAR UTFN 111700Z 00000MPS M0050 R28/M0050N FZFG VV001 M09/M10 Q1026
R28/CLRD70 NOSIG RMK QBB040=
METAR UTNN 111700Z 10003MPS CAVOK M03/M04 Q1020 R15/CLRD60 NOSIG=
METAR UTNU 111700Z 07002MPS 6000 FEW200 M01/M05 Q1019 R31/CLRD60
NOSIG=
METAR UTSA 111700Z 11004MPS 6000 NSC M00/M06 Q1021 R07/CLRD70 NOSIG=
METAR UTSB 111700Z 10002MPS 6000 NSC 00/M05 Q1020 R01/CLRD70 NOSIG=
METAR UTSK 111700Z 08004MPS 7000 NSC 01/M02 Q1020 R16/CLRD70=
METAR UTSS 111700Z 14002MPS 110V180 9999 NSC M02/M09 Q1021 R88/CLRD70
NOSIG=
METAR UTST 111700Z NIL=
METAR UTFA 111700Z NIL=
METAR UTFF 111700Z 00000MPS 0750 R18/0800N FZFG NSC M05/M05 Q1025
R18/CLRD70=
METAR UTTT 111700Z 07004MPS CAVOK M00/M09 Q1022 R08R/CLRD70 NOSIG=
0000009000
353
SAIR33 OIII 111700 RRA
METAR OIZC 111700Z 29004KT CAVOK 15/04 Q1022 A3018=
0000069200
354
SAER10 OMAM 111700
METAR OMAD 111700Z 01005KT 9999 -RA FEW045 18/16 Q1021 A3015 NOSIG=
METAR OMAH 111700Z AUTO 04007KT /////NDV //// ///// 16/13 Q1021 A3017=
METAR OMAM 111700Z 02006KT 9999 -RA SCT045 OVC090 18/15 Q1020 A3012=
METAR OMDL 111700Z AUTO 05003KT /////NDV //// ///// 18/14 Q1020 A3012=
METAR OMDM 111700Z AUTO VRB02KT /////NDV //// ///// 17/15 Q1021=
METAR OMLW 111700Z 02004KT 9999NDV -RA BKN100 17/15 Q1020=
METAR OMMZ 111700Z AUTO 06005KT /////NDV //// ///// 20/11 Q1020 A3014=
METAR OMSN 111700Z AUTO 06002KT /////NDV //// ///// 17/13 Q1020 A3014=
METAR OMSW 111700Z NIL=
METAR OMTH 111700Z AUTO 10005KT /////NDV //// ///// 18/12 Q1021 A3016=
0000050900
355
FTBY31 UMMN 111700
TAF UMMS 111645Z 1118/1218 24005G10MPS 5000 -SNRA BR OVC006
      TX01/1118Z TNM02/1215Z
      TEMPO 1118/1124 1200 SNRA SCT003
      TEMPO 1200/1218 0600 +SHSNRA OVC003 BKN015CB=
TAF UMGG 111645Z 1118/1218 26006G11MPS 6000 BKN010 SCT015CB
           TEMPO 1118/1205 1300 -SHRASN BR OVC004
           TEMPO 1205/1214 23008G13MPS 1000 SHSNRA BKN004 BKN015CB
           TEMPO 1214/1218 29010G15MPS 1000 SHSNRA BKN004 BKN015CB
           TX03/1210Z TNM00/1218Z=
0000035300
356
FCBY31 UMMN 111700
TAF UMBB 111650Z 1118/1203 25005G10MPS 4000 BR BKN010 BKN020CB
TX03/1118Z TNM01/1203Z
TEMPO 1121/1203 28007G12MPS 2000 SHRASN BKN005=
TAF UMII 111700Z NIL=
TAF UMMG 111700Z NIL=
TAF UMMM 111630Z 1118/1124 24006G11MPS 5000 -SHRA BR OVC007
BKN015CB TEMPO 1118/1124 1500 SHSNRA BKN005=
TAF UMOO 111700Z NIL=
0000014300
357
SPUR30 UKMS 111721
SPECI UKHH 111721Z 30007MPS 2400 -SHRA BKN015CB BKN026 03/01
Q1009 25290050 TEMPO 24008G17MPS 2100 BKN007=
0000028100
358
SAPK31 OPKC 111730
METAR OPGD 111730Z NIL=
METAR OPKC 111725Z 04006KT 7000 NSC 13/M03 Q1022 NOSIG=
METAR OPLA 111725Z 00000KT 4000 FU NSC 11/05 Q1022/A30.18=
METAR OPNH 111730Z NIL=
METAR OPPS 111730Z NIL=
METAR OPRN 111730Z NIL=
METAR OPSK 111730Z NIL=
0000009900
359
SAQT31 OTBD 111730
METAR OTBD 111730Z VRB02KT 9999 FEW018 BKN120 17/13 Q1021 NOSIG=
0000010700
360
SAER41 OMAM 111720 RRF
METAR OMAM 111730Z 04007KT 9999 -RA SCT045 OVC090 18/15 Q1019 A3009=
0000013000
361
SAAJ31 UBBB 111730
METAR UBBN 111730Z 25004KT 3700 BR OVC012 M09/M11 Q1024
R14R/CLRD60 NOSIG RMK MT OBSC QFE692=
0000047500
362
SAIR31 OIII 111730
METAR OIAW 111730Z NIL=
METAR OIFM 111730Z 30004KT 0400 FG SCT035 BKN100 M01/M01 Q1018
A3007=
METAR OIII 111730Z 27006KT 2000 BR SCT035 OVC100 01/M01 Q1019
 A3009 NOSIG=
METAR OIKB 111730Z 34006KT 6000 FEW025CB SCT030 BKN100 14/11 Q1022
A3018=
METAR OIKK 111730Z NIL=
METAR OIMM 111730Z NIL=
METAR OISS 111730Z 10006KT 3500-RA FEW020 FEW030CB OVC080 04/04
Q1018 A3009=
METAR OITT 111730Z NIL=
METAR OIZH 111730Z NIL=
0000035900
363
SAIR32 OIII 111730
METAR OIAA 111730Z NIL=
METAR OIBK 111730Z NIL=
METAR OICC 111730Z NIL=
METAR OIGG 111730Z NIL=
METAR OIIE 111730Z NIL=
METAR OITR 111730Z 26004KT 1200 R21/P2000 BR FEW035 M11/M13 Q1020=
METAR OIYY 111730Z 30012KT 5000 -RA FEW030CB FEW035 OVC090 02/02
Q1021=
METAR OAKN 111730Z NIL=
METAR OAKB 111730Z NIL=
0000066100
364
UDAF01 FAPR 111743
AMDAR 1117
ASC AFZA49 2603S 02815E 111740 F076 PS170 318/001 TB0 S031 333 F/// VG020=
ASC AFZA49 2602S 02815E 111741 F079 PS175 224/005 TB0 S031 333 F/// VG019=
ASC AFZA49 2601S 02816E 111741 F083 PS170 222/007 TB0 S031 333 F/// VG018=
UNS AFZA49 2600S 02816E 111742 F086 PS162 177/013 TB0 S031 333 F/// VG016=
UNS AFZA49 2600S 02817E 111742 F088 PS156 189/017 TB0 S031 333 F/// VG018=
UNS AFZA49 2600S 02820E 111743 F095 PS127 220/013 TB0 S031 333 F/// VG013=
ASC AFZA49 2601S 02822E 111743 F104 PS108 210/018 TB0 S031 333 F/// VG011=
ASC AFZA49 2604S 02824E 111744 F114 PS078 219/023 TB0 S031 333 F/// VG011=
0000066100
365
UDAF01 FAPR 111741
AMDAR 1117
LVR AFZA05 3155S 11158E 111649 F320 MS382 227/014 TB0 S031 333 F/// VG000=
LVR AFZA05 3153S 11052E 111657 F320 MS376 241/012 TB0 S031 333 F/// VG000=
LVR AFZA05 3150S 10947E 111704 F320 MS385 278/018 TB0 S031 333 F/// VG000=
LVR AFZA05 3146S 10843E 111711 F320 MS392 305/021 TB0 S031 333 F/// VG000=
LVR AFZA05 3143S 10740E 111718 F320 MS391 299/037 TB0 S031 333 F/// VG000=
LVR AFZA05 3138S 10639E 111725 F320 MS400 304/043 TB0 S031 333 F/// VG000=
LVR AFZA05 3134S 10538E 111732 F320 MS402 296/054 TB0 S031 333 F/// VG000=
LVR AFZA05 3129S 10439E 111739 F320 MS402 299/061 TB0 S031 333 F/// VG000=
0000066100
366
UDAF01 FAPR 111741
AMDAR 1117
ASC AFZA49 2606S 02814E 111739 F052 PS210 017/010 TB1 S031 333 F/// VG023=
ASC AFZA49 2606S 02814E 111740 F055 PS205 007/015 TB1 S031 333 F/// VG029=
ASC AFZA49 2606S 02814E 111740 F056 PS203 007/016 TB1 S031 333 F/// VG028=
ASC AFZA49 2606S 02814E 111740 F057 PS200 002/016 TB1 S031 333 F/// VG035=
ASC AFZA49 2605S 02814E 111740 F060 PS191 001/015 TB1 S031 333 F/// VG035=
ASC AFZA49 2605S 02814E 111740 F063 PS185 360/012 TB1 S031 333 F/// VG028=
ASC AFZA49 2605S 02815E 111740 F068 PS180 344/009 TB1 S031 333 F/// VG028=
ASC AFZA49 2604S 02815E 111741 F072 PS176 339/005 TB1 S031 333 F/// VG021=
0000039500
367
SNVD15 KWNB 111700 RRQ
BBXX
42360 11171 99267 70905 46/// /2308 10225 40172 50012 91700 22200
00225 10302 70008 333 91210 555 11082 22089=
41051 11171 99183 70650 46/// /1008 10264 91730 333 91211 555
11093 22101=
41051 11171 99183 70650 46/// /1008 10264 91720 333 91210 555
11094 22102=
41051 11171 99183 70650 46/// /1009 10264 91710 333 91210 555
11097 22106=
0000014600
368
SNVD20 KWNB 111700 RRS
BBXX
44040 11171 99410 70736 46/// /1711 10124 20124 91649 22200 10301
70007 333 91215 555 11129 22149=
0000012000
369
SMJD50 OJAM 111800
AAXX 11184
40310 32560 53403 10078 20063 39005 48541 54002 85200 333 10095
85830=
0000033200
370
SABY31 UMMN 111730
METAR UMBB 111730Z NIL=
METAR UMGG 111730Z NIL=
METAR UMII 111730Z NIL=
METAR UMMG 111730Z NIL=
METAR UMMM 111730Z 27005G08MPS 9999 OVC017 04/02 Q1006
R30/190060 NOSIG RMK QFE735=
METAR UMMS 111730Z 25002MPS 160V320 9999 OVC014 03/02 Q1006
R31/290060 NOSIG=
METAR UMOO 111730Z NIL=
0000010300
371
SAAJ31 UBBB 111730
METAR UBBB 111730Z 32017KT 9999 BKN040 07/03 Q1015 88CLRD70
NOSIG=
00000000