0000012200
286
SAIN90 VIDP 111800
METAR VIDP 111800Z 23006KT 0800 R28/P2000 R29/P2000 MIFG NSC 10/09
      Q1021 NOSIG=
0000012200
287
SMIN90 VOBL 111800
AAXX 11184
43293 32/96 01104 10221 20168 39166 48539
  333 58005 8/0// 8/0// 8/1//=
0000042200
288
FCIN90 VOTV 111800
TAF VOTV 111800Z 1121/1206 00000KT 4000 HZ FEW015 SCT100
TEMPO 1200/1203 2000 BR/HZ FEW025CB BECMG 1204/1205 14005KT 5000 HZ=


TAF VOCI 111800Z 1121/1206 00000KT 4000 HZ FEW015 SCT100
TEMPO 1200/1203 2000 BR/HZ FEW025CB1204/1205 05005KT 5000 HZ= 

TAF VOCL 111800Z 1121/1206 00000KT 4000 HZ FEW015 SCT100
TEMPO 1200/1203 2000 BR/HZ FEW025CB1204/1205 22005KT 5000 HZ= 

0000011000
289
SMIN90 VIJP 111800
AAXX 11184
42328 32996 30501 10090 21006 40222 83030
  333 58028 83360=
0000010400
290
SMIN90 VIGR 111800
AAXX 11184
42361 31994 00000 10096 20084 40211 71044
  333 58045=
0000223000
291
SMFI02 EFKL 111800
AAXX 11181
02790 47599 83505 11017 21057 39966 49994 57004 70087 88/// 91739
333 11009 21018=
02807 47899 12302 11317 21351 39998 40208 700// 81/// 91800 
333 11273 21317=
02823 37961 03302 11336 21366 39882 40223 52002 724// 
333 11320 21344=
02862 47960 00408 11152 21193 30115 40119 52003 70010 91739 
333 11152 21159=
02863 46/// /0613 11115 21174 30084 40107 54001 91739 
333 11111 21133=
02873 47982 00508 11141 21182 30093 40102 52004 70000 91800 
333 11132 21144=
02897 47/99 /0303 11160 21184 39882 40077 700// 91800 
333 11139 21160=
02907 46/// /0812 11106 21122 30078 40084 52006 91800 
333 11089 21113=
02910 NIL=
02913 47560 80405 11120 21140 39993 40048 771// 88/// 
333 11087 21120=
02917 47556 80404 11122 21142 39914 40043 771// 88/// 91800 
333 11097 21132=
02920 46/// /0608 11126 21152 30041 40066 52007 91739 
333 11091 21129=
02944 47457 80503 11070 21078 39861 40013 771// 88/// 91800 
333 11049 21070=
02947 47450 80502 11106 21125 40026
52007 77177 88/// 91751
333 11069 21106=
02958 47457 80203 11083 21107 39875 40011 771// 88/// 91800 
333 11060 21083=
02963 17381 80604 11050 21059 39866 49998 54002 60022 78587 88///
333 11041 21050=
02965 47422 50201 11066 21074 39907 40007 52003 77171 85/// 91739
333 11050 21066=
02967 47459 80403 11045 21062 39992 49999 54000 77174 88/// 91739
333 11039 21047=
02974 11399 80504 11047 21058 39933 40001 54000 69982 77172 8752/
333 11037 21047=
02976 46/// /0403 11046 21056 39987 40004 54001 91739 
333 11040 21050=
02979 46/// /3408 11015 21064 39980 49999 57005 91739 
333 10004 21015=
02980 47599 73507 11019 21051 39990 40003 57005 70000 86/// 91739
333 11004 21021=
02982 46/// /3504 11006 21013 39979 49987 54000 91739 
333 10000 21016=
02984 47262 70505 11018 21023 39974 49989 57003 78587 87/// 91739
333 11012 21024=
02987 46/// /0806 11019 21084 39964 49993 57002 91739 
333 11018 21034=
02991 46/// /0404 11043 21043 39963 49997 57002 91739 
333 11035 21044=
02992 46/// /0605 11039 21050 39998 40002 57002 91800 
333 11030 21046=
02993 46/// /3510 11019 21062 39986 40005 57005 91739 
333 11007 21023=
0000022400
292
SMAY01 UGEE 111800
AAXX 11181
37682 32997 73401 11072 21097 38114 48515 57001 87040 333 11040 555
11018=
37717 NIL=
37788 11494 60000 11105 21118 39262 40338 52003 69930 71072 866// 333
11080 86711=
0000015700
293
SSVX13 LFPW 111800
ZZYY 44762 11014 1800/ 751187 006156 6113/ 11119 40212 52001 22219
 00105 444 20130 11014 1757/ 50101 80096 80000 9/015=
0000003800
294
USIL01 BIRK 111800
NIL
0000015700
295
SSVX13 LFPW 111800
ZZYY 62508 11014 1800/ 745935 006065 6113/ 11119 40196 57005 22219
 00130 444 20130 11014 1756/ 50101 80104 80031 9/015=
0000015700
296
SSVX13 LFPW 111800
ZZYY 62507 11014 1800/ 747420 011719 6113/ 11119 40117 57010 22219
 00119 444 20130 11014 1755/ 50101 80104 80031 9/015=
0000012900
297
SMMC23 GMMC 111800
AAXX 11184
60285 32960 33615 10161 20117 40192 53010 80002
  333 10199 83070=
60340 NIL=
0000035600
298
SATH40 VTBB 111800
METAR VTCH 111800Z NIL=
METAR VTCP 111800Z NIL=
METAR VTPH 111800Z NIL=
METAR VTPN 111800Z NIL=
METAR VTPP 111800Z NIL=
METAR VTSF 111800Z NIL=
METAR VTSM 111800Z NIL=
METAR VTUK 111800Z 07005KT CAVOK 21/17 Q1017 A3004=
METAR VTUL 111800Z NIL=
METAR VTBS 111800Z 03007KT 350V080 CAVOK 27/14 Q1015 NOSIG=
0000015100
299
SNST41 EGRR 111700 RRA
AAXX 11174
88900 45/// /0910 10042 20033 39887 49890 58012=
88903 42/// /0103 10054 20035 39901 49901 58005=
0000009000
300
SAUK63 EGRR 111750 RRA
METAR EGDR 111750Z 13010KT 9999 FEW030 05/03 Q1021=
0000216700
301
SZNZ01 NZKL 111806
CREX++
T000103 A001 D01021 D06025++
-3683144 17478654 AUCT  2014 01 11 17 58 //// 11 07 00 01
05625 3166 05618 3165 05611 3164 05605 3165 05597 3163 05588 3161+
-4402404 -17636748 CHIT  2014 01 11 17 58 //// 11 07 00 01
04521 1974 04527 1983 04509 1969 04534 1996 04524 1990 04553 2022+
-4089929 17623168 CPIT  2014 01 11 17 58 //// 11 07 00 01
03668 2301 03659 2298 03653 2297 03646 2294 03654 2306 03671 2328+
-3618905 17548887 GBIT  2014 01 11 17 58 //// 11 07 00 01
06074 0006 06060 -0003 06052 -0007 06069 0015 06078 0029 06072 0026+
-3867541 17802288 GIST  2014 01 11 17 58 //// 11 07 00 01
03901 2701 03922 2727 03905 2715 03910 2725 03900 2719 03909 2733+
-4241288 17370277 KAIT  2014 01 11 17 58 //// 11 07 00 01
03030 2267 03016 2258 03009 2255 03012 2262 03006 2261 03002 2261+
-3755040 17815904 LOTT  2014 01 11 17 58 //// 11 07 00 01
03604 0196 03604 0200 03599 0199 03591 0196 03587 0196 03577 0191+
-3704657 17451175 MNKT  2014 01 11 17 58 //// 11 07 00 01
03399 -0096 03411 -0087 03422 -0080 03426 -0080 03409 -0102 03435 -0079+
-3947566 17692007 NAPT  2014 01 11 17 58 //// 11 07 00 01
02887 2083 02880 2081 02875 2081 02872 2084 02864 2081 02863 2085+
-3441483 17304870 NCPT  2014 01 11 17 58 //// 11 07 00 01
-04436 -9311 -04402 -9274 -04446 -9314 -04430 -9296 -04476 -9339 -04459 -9318+
-4581435 17062939 OTAT  2014 01 11 17 58 //// 11 07 00 01
03999 3522 03994 3521 03991 3520 03988 3521 03986 3521 03983 3521+
-2928002 -17789440 RBCT  2014 01 11 17 58 //// 11 07 00 01
06164 2036 06157 2033 06151 2030 06155 2037 06148 2032 06131 2019+
-2925114 -17790384 RFRT  2014 01 11 17 58 //// 11 07 00 01
03071 0153 03076 0162 03083 0172 03074 0165 03044 0138 03071 0168+
-4357010 17277383 SUMT  2014 01 11 17 58 //// 11 07 00 01
01438 1796 01429 1792 01424 1792 01438 1811 01418 1796 01423 1807+
-3764109 17618118 TAUT  2014 01 11 17 58 //// 11 07 00 01
05340 3980 05333 3977 05327 3975 05330 3982 05315 3972 05312 3974+
-4128448 17477985 WLGT  2014 01 11 17 58 //// 11 07 00 01
02835 2026 02842 2036 02844 2041 02845 2046 02831 2035 02826 2034++
7777
0000008600
302
SAIQ01 ORBI 111800
METAR ORER 111800Z VRB02KT CAVOK 05/04 Q1018 NOSIG=
0000013300
303
SMHK01 VHHH 111800
AAXX  11181
45007 12962 10703 10168 20114 30227 40236 55002 60001
81030  333  59002 81368 =

0000028700
304
SXHW11 KWAL 111805
B15054AA 011180543"
1,140111,17:00:00,1.8,118,3.3,19.8,1013.1,0.00,12.9,
1,140111,17:15:00,1.7,131,4.0,20.0,1013.2,0.00,12.8,
1,140111,17:30:00,2.1,149,5.7,19.9,1013.3,0.00,12.9,
1,140111,17:45:00,4.2,126,7.0,21.3,1013.2,0.00,13.0, 43-0NN 210W
0000175600
305
SMNO01 ENMI 111800
AAXX 11181
01001 11561 70903 10002 21009 30143 40155 51007 69972 70282 878//
      333 10007 91109=
01008 11485 72806 11006 21050 30073 40107 52008 69922 70276 875//
      333 10000 91113=
01010 11989 01305 11062 21120 30161 40178 52004 60002 70200 333
      11052 91108=
01026 11589 12801 11120 21132 30043 40194 52002 69912 70200 81100
      333 11104 43/// 91102=
01055 46/// /2405 11010 21078 30161 40179 52004 333 11010 91108=
01062 11470 82105 11019 21036 30105 40118 52004 60002 70222 885//
      333 11011 91107=
01098 11375 32802 11059 21071 30159 40178 52010 69982 70310 82520
      333 11018 91107=
01115 11989 01110 11050 21156 30091 40113 52008 60002 70100 333
      11039=
01152 11989 01109 11081 21187 30127 40143 53007 60002 70222 333
      11065 91113=
01205 46/// /2604 11001 21054 39964 40010 52008 333 10002 91106=
01212 16/// /0103 11022 21066 39990 40008 52011 69942 333 11019
      91107=
01271 17480 80704 11089 21142 30028 40050 53009 69902 778// 333
      11089 91108=
01288 11545 81203 11153 21180 39271 40065 52006 60012 77072 887//
      333 11153 91108=
01300 NIL=
01317 11682 71402 10010 21031 30002 40017 50008 60012 70320 87500
      333 10051 91108=
01367 11565 80901 11080 21105 39571 40028 53016 69982 70272 8272/
      333 11043 91105=
01384 11250 80204 11070 21075 53014 69992 72672 886//=
01403 11575 63109 10037 20019 39964 40033 51025 6//// 70282 86900
      333 10062 91123=
01415 17/50 63604 10035 20019 30029 40040 53027 6//// 782// 333
      10064 91117=
01482 46/// /0209 10003 21005 39984 49994 52013 333 10057 91110=
01492 41380 80205 11051 21066 39892 40013 53015 70222 886// 333
      11007 91108=
00000000