0000079100
372
SAUR30 UKMS 111730
METAR UKBB 111730Z 26004MPS CAVOK 04/00 Q1012
         88290060 NOSIG=
METAR UKHH 111730Z 30005MPS 7000 -SHRA BKN015CB
         BKN026 03/01  Q1009 25290050 TEMPO 24008G17MPS
         2100 BKN007=
METAR UKOO 111730Z 27001MPS CAVOK 03/M02 Q1020
         34190058 NOSIG=
METAR UKDE 111730Z 24004MPS 9999 SCT033 04/M02 Q1015
         02290565 NOSIG=
METAR UKDD 111730Z 29009MPS 9999 FEW033CB BKN050
         05/01  Q1013 26190060 NOSIG=
METAR UKFF 111730Z 20004MPS CAVOK 03/01 Q1021
         19010070 NOSIG=
METAR UKLL 111730Z 21004MPS CAVOK 02/M03 Q1015
         31CLRD80  NOSIG=
METAR UKCC 111730Z 26008MPS CAVOK 02/01 Q1011
         26190055 NOSIG=
METAR UKDR 111730Z 25005MPS CAVOK 05/M01 Q1015
         1809//65 NOSIG=
0000010700
373
SAAJ31 UBBB 111730
METAR UBBG 111730Z 29018KT 9999 SCT100 09/M06 Q1014
R30/CLRD70 NOSIG =
0000009400
374
SAIR31 OIII 111730 RRA
METAR OIMM 111730Z 00000KT 8000 NSC 04/M07 Q1017 A3003=
0000016200
375
FTIQ01 ORBI 111730
TAF ORBI 111700Z 1118/1218 01005KT 3000 BR NSC TEMPO 1200/1207 1200
PROB40 0500 FG VV003 BECMG 1208/1210 33010KT 5000 SCT030=
0000009200
376
SAIN33 VOMM 111740
METAR VOMM 111740Z 07003KT 6000 FEW020 23/19 Q1015 NOSIG=
0000010700
377
SAIN90 VIBN 111730
METAR VIBN 111730Z 00000KT 1000 BR SCT020 FEW030CB BKN100 16/16
Q1019=
0000236500
378
KSAB32 KWBC 111744 RRA
CREX++
T000119 A001 D01021 D06021++
3271419 -11717358 SDBC1 2014 01 11 17 00 00 07 /// 10217 /// ////+
3271394 -11717533 IIWC1 2014 01 11 17 00 00 07 170 ///// 338 0019+
3286670 -11725800 LJAC1 2014 01 11 17 00 00 07 201 10213 107 0000+
3372000 -11827200 OHBC1 2014 01 11 17 00 00 07 /// 10211 /// ////+
3400830 -11850000 ICAC1 2014 01 11 17 00 00 07 132 10223 237 0018+
3440830 -11968500 NTBC1 2014 01 11 17 00 00 07 166 10218 154 0005+
3517670 -12076000 PSLC1 2014 01 11 17 00 00 07 /// 10230 /// ////+
3660500 -12188800 MTYC1 2014 01 11 17 00 00 07 103 10252 068 0005+
3780669 -12246500 FTPC1 2014 01 11 17 00 00 07 101 10240 169 0010+
3750670 -12221000 RTYC1 2014 01 11 17 00 00 07 091 10238 158 0009+
3777167 -12229833 AAMC1 2014 01 11 17 00 00 07 101 10237 120 0025+
3792830 -12240000 RCMC1 2014 01 11 17 00 00 07 103 10237 168 0032+
3799610 -12297670 PRYC1 2014 01 11 17 00 00 07 130 10223 134 0031+
3803464 -12212519 MZXC1 2014 01 11 17 00 00 07 095 10234 029 0000+
3805600 -12203950 PCOC1 2014 01 11 17 00 00 07 088 10235 224 0019+
3891330 -12370800 ANVC1 2014 01 11 17 00 00 07 107 10226 101 0032+
4076670 -12421700 HBYC1 2014 01 11 17 00 00 07 110 10207 198 0082+
4174500 -12418300 CECC1 2014 01 11 17 00 00 07 104 10193 163 0051+
4273897 -12449828 PORO3 2014 01 11 17 00 00 07 105 10158 173 0103+
4334500 -12432200 CHAO3 2014 01 11 17 00 00 07 /// 10135 196 0025+
4462500 -12404300 SBEO3 2014 01 11 17 00 00 07 101 10084 192 0094+
4555453 -12391894 TLBO3 2014 01 11 17 00 00 07 102 10052 185 0162+
4620731 -12376831 ASTO3 2014 01 11 17 00 00 07 101 10008 202 0104+
4610611 -12295417 LOPW1 2014 01 11 17 00 00 07 080 10037 125 0047+
4670747 -12396692 TOKW1 2014 01 11 17 00 00 07 096 09985 177 0144+
4690431 -12410508 WPTW1 2014 01 11 17 00 00 07 097 09967 /// ////+
4791330 -12463700 LAPW1 2014 01 11 17 00 00 07 076 09926 221 0102+
4812500 -12344000 PTAW1 2014 01 11 17 00 00 07 074 09936 218 0016+
4811170 -12275800 PTWW1 2014 01 11 17 00 00 07 079 09964 132 0084+
4726667 -12241333 TCNW1 2014 01 11 17 00 00 07 082 10005 /// ////+
4760264 -12233931 EBSW1 2014 01 11 17 00 00 07 079 09994 156 0038+
4886330 -12275800 CHYW1 2014 01 11 17 00 00 07 075 09939 150 0072+
4854667 -12301000 FRDW1 2014 01 11 17 00 00 07 075 09945 131 0035++
7777

0000021400
379
KSAJ30 KWBC 111744
CREX++
T000119 A001 D01021 D06025++
-1428000 -17069000 NSTP6 2014 01 11 16 54 3019 00 07 00 06
00716 0152 00709 0158 00722 0185 00685 0162 00673 0165 00671 0178++
7777

0000457900
380
KSAB31 KWBC 111744
CREX++
T000119 A001 D01021 D06025++
3002717 -09011342 NWCL1 2014 01 11 16 54 2843 00 07 00 06
00165 0269 00159 0264 00149 0255 00142 0249 00147 0255 00154 0263+
2911425 -09019925 PTFL1 2014 01 11 16 54 //// 00 07 00 06
///// //// 00204 0111 00204 0107 00220 0119 00220 0115 00229 0120+
2978856 -09042019 BYGL1 2014 01 11 16 54 2843 00 07 00 06
-90318 //// -90312 //// -90311 //// -90314 //// -90318 //// -90320 ////+
2966750 -09123761 TESL1 2014 01 11 16 54 2789 00 07 00 06
00180 0156 00181 0155 00180 0153 00173 0144 00180 0149 00179 0146+
2944958 -09133811 AMRL1 2014 01 11 16 54 2808 00 07 00 06
00292 0095 00310 0102 00320 0100 00334 0103 00345 0102 00357 0103+
2955500 -09230500 FRWL1 2014 01 11 16 54 2828 05 07 00 06
00569 0063 00597 0083 00624 0101 00569 0038 00553 0014 00565 0018+
3022364 -09322167 LCLL1 2014 01 11 16 54 2843 00 07 00 06
00085 0060 00085 0059 00082 0055 00077 0049 00073 0043 00068 0036+
3019031 -09330069 BKTL1 2014 01 11 16 54 2858 00 07 00 06
00071 0104 00069 0102 00071 0103 00068 0099 00074 0104 00057 0084+
2976817 -09334289 CAPL1 2014 01 11 16 54 2834 00 07 00 06
00397 -0026 00398 -0032 00405 -0032 00410 -0033 00419 -0031 00435 -0021+
2986670 -09393000 PORT2 2014 01 11 16 54 2835 00 07 00 06
00057 0165 00056 0159 00065 0162 00061 0152 00058 0143 00067 0146+
2998000 -09388170 RBBT2 2014 01 11 16 54 //// 00 07 00 06
00010 0181 00009 0179 00009 0177 00009 0175 00005 0169 00001 0162+
2972840 -09387010 SBPT2 2014 01 11 16 54 2835 00 07 00 06
00285 0131 00299 0135 00303 0130 00310 0128 00314 0123 00312 0112+
2968170 -09498500 MGPT2 2014 01 11 16 54 2829 00 07 00 06
-00044 0203 -00048 0200 -00058 0190 -00044 0204 -00029 0219 -00048 0199+
2972628 -09526581 NCHT2 2014 01 11 16 54 2879 00 07 00 06
-00094 //// -00099 //// -00104 //// -00112 //// -00116 //// -00111 ////+
2968928 -09384181 TXPT2 2014 01 11 16 54 2834 00 07 00 06
00398 0160 00410 0163 00415 0159 00416 0151 00416 0142 00431 0149+
2951500 -09451330 RLOT2 2014 01 11 16 54 2864 00 07 00 06
00016 0176 00021 0179 00011 0165 00017 0168 00011 0158 -00056 0087+
2948000 -09491830 EPTT2 2014 01 11 16 54 //// 05 07 00 06
00068 0272 00079 0281 00029 0229 00055 0253 00060 0255 00029 0221+
2935733 -09472483 GNJT2 2014 01 11 16 54 2840 00 07 00 06
00229 0082 00233 0076 00234 0067 00252 0075 00256 0069 00252 0055+
2931000 -09479330 GTOT2 2014 01 11 16 54 2851 00 07 00 06
00137 0097 00132 0083 00149 0090 00147 0079 00149 0071 00176 0089+
2894331 -09530250 FCGT2 2014 01 11 16 54 2853 00 07 00 06
00209 -0022 00232 -0010 00237 -0015 00261 -0001 00245 -0027 00268 -0014+
2840830 -09671170 SDRT2 2014 01 11 16 54 2868 00 07 00 06
-00061 0046 -00061 0046 -00069 0038 -00069 0039 -00073 0035 -00076 0032+
2864000 -09659500 VCAT2 2014 01 11 16 54 2848 00 07 00 06
-00096 0100 -00099 0097 -00098 0098 -00101 0094 -00102 0093 -00103 0091+
2845170 -09638830 PCNT2 2014 01 11 16 54 //// 00 07 00 06
-00066 //// -00067 //// -00065 //// -00063 //// -00061 //// -00058 ////+
2811830 -09702170 CPNT2 2014 01 11 16 54 2846 00 07 00 06
-00064 0086 -00068 0081 -00067 0082 -00064 0084 -00069 0079 -00070 0077+
2802170 -09704670 RCPT2 2014 01 11 16 54 2848 00 07 00 06
-00048 0058 -00035 0070 -00040 0065 -00043 0061 -00042 0062 -00046 0057+
2783830 -09707330 RTAT2 2014 01 11 16 54 2851 00 07 00 06
00034 //// 00057 //// 00065 //// 00064 //// 00081 //// 00103 ////+
2782170 -09720330 NGLT2 2014 01 11 16 54 2845 00 07 00 06
-00158 -0035 -00144 -0023 -00146 -0026 -00134 -0016 -00191 -0075 -00129 -0015+
2763330 -09723670 PACT2 2014 01 11 16 54 2875 00 07 00 06
-00046 0065 -00048 0064 -00049 0063 -00050 0062 -00053 0060 -00054 0059+
2758000 -09721670 MQTT2 2014 01 11 16 54 2864 00 07 00 06
00205 -0022 00217 -0018 00230 -0013 00231 -0019 00238 -0020 00236 -0029+
2748000 -09732170 IRDT2 2014 01 11 16 54 2868 00 07 00 06
-99395 //// -99397 //// -99397 //// -99398 //// -99397 //// -99395 ////+
2729500 -09740500 BABT2 2014 01 11 16 54 2868 00 07 00 06
-95847 //// -95847 //// -95847 //// -95846 //// -95848 //// -95848 ////+
2682500 -09749170 RSJT2 2014 01 11 16 54 //// 00 07 00 06
-98939 //// -98938 //// -98937 //// -98936 //// -98937 //// -98939 ////+
2607670 -09717670 PCGT2 2014 01 11 16 54 2904 00 07 00 06
00216 -0004 00215 -0013 00228 -0007 00227 -0015 00224 -0024 00236 -0019+
2606000 -09721500 PTIT2 2014 01 11 16 54 2878 00 07 00 06
00176 0032 00187 0036 00205 0047 00218 0053 00227 0055 00231 0052++
7777

0000519000
381
KSAB32 KWBC 111744
CREX++
T000119 A001 D01021 D06025++
2821170 -17736000 SNDP5 2014 01 11 16 54 2934 00 07 00 06
00347 0102 00358 0116 00335 0096 00359 0122 00333 0099 00349 0117+
3271419 -11717358 SDBC1 2014 01 11 16 54 2886 00 07 00 06
01107 0033 01076 0041 01031 0035 00993 0036 00955 0038 00917 0040+
3286670 -11725800 LJAC1 2014 01 11 16 54 2882 00 07 00 06
00975 -0009 00948 0001 00915 0005 00885 0012 00855 0019 00826 0027+
3372000 -11827200 OHBC1 2014 01 11 16 54 2890 00 07 00 06
01046 0014 01016 0020 00974 0015 00934 0012 00906 0021 00892 0045+
3400830 -11850000 ICAC1 2014 01 11 16 54 2881 00 07 00 06
01079 0034 01060 0051 01022 0050 00984 0047 00937 0037 00893 0029+
3440830 -11968500 NTBC1 2014 01 11 16 54 //// 00 07 00 06
01140 0027 01104 0025 01093 0049 01040 0032 00985 0013 00972 0036+
3446830 -12067300 HRVC1 2014 01 11 16 54 //// 00 07 00 06
01169 -0034 01134 -0035 01096 -0038 01062 -0037 01043 -0020 00996 -0031+
3517670 -12076000 PSLC1 2014 01 11 16 54 2868 00 07 00 06
01234 -0028 01201 -0028 01178 -0017 01133 -0027 01076 -0049 01030 -0059+
3660500 -12188800 MTYC1 2014 01 11 16 54 2860 00 07 00 06
01306 -0063 01260 -0079 01258 -0050 01201 -0075 01182 -0062 01117 -0092+
3780669 -12246500 FTPC1 2014 01 11 16 54 2842 00 07 00 06
01648 -0097 01616 -0107 01612 -0087 01603 -0071 01554 -0094 01530 -0089+
3750670 -12221000 RTYC1 2014 01 11 16 54 2839 05 07 00 06
02426 -0160 02416 -0160 02403 -0161 02383 -0166 02366 -0166 02348 -0165+
3777167 -12229833 AAMC1 2014 01 11 16 54 2840 05 07 00 06
01923 -0108 01914 -0100 01881 -0113 01839 -0133 01814 -0136 01783 -0141+
3792830 -12240000 RCMC1 2014 01 11 16 54 2838 05 07 00 06
01777 -0129 01768 -0124 01733 -0143 01710 -0148 01708 -0131 01701 -0116+
3799610 -12297670 PRYC1 2014 01 11 16 54 2845 00 07 00 06
01530 -0043 01490 -0054 01434 -0079 01429 -0053 01388 -0061 01389 -0027+
3803464 -12212519 MZXC1 2014 01 11 16 54 2832 00 07 00 06
01547 -0099 01558 -0096 01568 -0093 01580 -0087 01581 -0090 01587 -0087+
3805600 -12203950 PCOC1 2014 01 11 16 54 2829 00 07 00 06
01355 -0077 01367 -0081 01376 -0087 01383 -0093 01390 -0099 01399 -0101+
3891330 -12370800 ANVC1 2014 01 11 16 54 2840 05 07 00 06
01559 -0132 01556 -0107 01520 -0114 01521 -0083 01494 -0079 01439 -0102+
4076670 -12421700 HBYC1 2014 01 11 16 54 2832 00 07 00 06
02141 0021 02119 0019 02096 0018 02075 0021 02070 0041 02023 0021+
4174500 -12418300 CECC1 2014 01 11 16 54 2829 00 07 00 06
01914 -0161 01947 -0105 01984 -0042 01901 -0100 01876 -0097 01833 -0111+
4273897 -12449828 PORO3 2014 01 11 16 54 2824 00 07 00 06
02227 -0014 02281 0061 02223 0026 02190 0018 02118 -0027 02124 0007+
4334500 -12432200 CHAO3 2014 01 11 16 54 2825 00 07 00 06
02429 0040 02400 0026 02376 0020 02363 0027 02341 0026 02317 0026+
4462500 -12404300 SBEO3 2014 01 11 16 54 2821 00 07 00 06
02721 0054 02743 0089 02703 0066 02690 0069 02668 0066 02657 0077+
4555453 -12391894 TLBO3 2014 01 11 16 54 2823 05 07 00 06
02863 0363 02860 0364 02859 0369 02836 0355 02835 0364 02824 0366+
4620170 -12394500 HMDO3 2014 01 11 16 54 2804 00 07 00 06
02847 0145 02850 0144 02838 0131 02844 0139 02840 0138 02828 0132+
4620731 -12376831 ASTO3 2014 01 11 16 54 2798 00 07 00 06
02929 0205 02945 0210 02944 0197 02945 0191 02942 0182 02951 0188+
4616000 -12340500 WAUO3 2014 01 11 16 54 //// 05 07 00 06
02604 0993 02628 0986 02653 0982 02674 0976 02695 0970 02719 0970+
4586500 -12279700 SHNO3 2014 01 11 16 54 //// 00 07 00 06
01425 0695 01442 0697 01461 0699 01480 0701 01500 0703 01522 0706+
4563170 -12269700 VAPW1 2014 01 11 16 54 //// 00 07 00 06
01237 0557 01234 0554 01233 0551 01230 0545 01229 0541 01229 0537+
4610611 -12295417 LOPW1 2014 01 11 16 54 2795 00 07 00 06
02099 0946 02134 0951 02167 0954 02200 0958 02235 0964 02275 0974+
4626670 -12345200 SKAW1 2014 01 11 16 54 //// 05 07 00 06
02646 0772 02669 0767 02695 0767 02723 0769 02749 0772 02768 0770+
4670747 -12396692 TOKW1 2014 01 11 16 54 2810 05 07 00 06
03254 0372 03274 0387 03263 0375 03263 0376 03256 0372 03269 0390+
4690431 -12410508 WPTW1 2014 01 11 16 54 2812 05 07 00 06
03216 0433 03205 0427 03207 0436 03182 0421 03183 0435 03166 0434+
4791330 -12463700 LAPW1 2014 01 11 16 54 2801 00 07 00 06
03251 0753 03251 0762 03247 0770 03265 0801 03268 0820 03260 0830+
4812500 -12344000 PTAW1 2014 01 11 16 54 2806 05 07 00 06
02554 0330 02586 0350 02582 0333 02562 0302 02621 0350 02608 0327+
4811170 -12275800 PTWW1 2014 01 11 16 54 2810 05 07 00 06
02649 0405 02672 0412 02671 0394 02667 0372 02692 0380 02692 0363+
4726667 -12241333 TCNW1 2014 01 11 16 54 2813 05 07 00 06
02887 0510 02904 0502 02915 0487 02917 0460 02930 0444 02945 0428+
4760264 -12233931 EBSW1 2014 01 11 16 54 2818 05 07 00 06
02875 0500 02881 0483 02885 0462 02904 0455 02933 0456 02947 0441+
4886330 -12275800 CHYW1 2014 01 11 16 54 2816 05 07 00 06
02562 0392 02580 0396 02582 0385 02596 0386 02612 0387 02622 0383+
4854667 -12301000 FRDW1 2014 01 11 16 54 2808 05 07 00 06
02484 0321 02485 0312 02480 0296 02466 0270 02484 0277 02485 0267++
7777

0000343800
382
KSAA31 KWBC 111744
CREX++
T000119 A001 D01021 D06025++
2664770 -08187120 FMRF1 2014 01 11 16 54 2909 00 07 00 06
00294 0204 00298 0204 00305 0206 00309 0206 00312 0205 00319 0208+
2763870 -08256210 PMAF1 2014 01 11 16 54 2894 00 07 00 06
00539 0275 00544 0279 00548 0281 00554 0286 00559 0291 00563 0294+
2776060 -08262690 SAPF1 2014 01 11 16 54 2914 05 07 00 06
00562 0256 00566 0257 00568 0257 00572 0259 00577 0263 00581 0266+
2785778 -08255269 OPTF1 2014 01 11 16 54 2895 05 07 00 06
00600 0327 00606 0330 00613 0333 00619 0336 00622 0336 00627 0339+
2797830 -08283170 CWBF1 2014 01 11 16 54 2881 05 07 00 06
00665 0285 00657 0280 ///// //// 00648 0277 00647 0280 00648 0284+
2913500 -08303170 CKYF1 2014 01 11 16 54 2852 05 07 00 06
01083 0369 01091 0380 01092 0385 01095 0392 01080 0381 01061 0367+
2972670 -08498170 APCF1 2014 01 11 16 54 2838 05 07 00 06
00478 0305 00511 0331 00533 0347 00508 0316 00483 0285 00487 0284+
3015228 -08566694 PACF1 2014 01 11 16 54 2855 05 07 00 06
00392 0347 00400 0350 00404 0350 00449 0390 00445 0381 00440 0371+
3021330 -08587830 PCBF1 2014 01 11 16 54 2862 05 07 00 06
00430 0360 00382 0308 00304 0226 00329 0246 00374 0287 00393 0301+
3040440 -08721120 PCLF1 2014 01 11 16 54 2838 05 07 00 06
00237 0261 00238 0258 00239 0254 00255 0266 00278 0284 00284 0286+
3041670 -08782500 WBYA1 2014 01 11 16 54 2838 05 07 00 06
00359 0335 00357 0329 00358 0326 00355 0319 00349 0310 00342 0299+
3025000 -08807500 DILA1 2014 01 11 16 54 2826 00 07 00 06
00156 0195 00175 0210 00202 0233 00208 0235 00140 0162 00211 0229+
3056517 -08808800 BYSA1 2014 01 11 16 54 //// 05 07 00 06
00311 0339 00314 0338 00317 0337 00319 0334 00315 0326 00322 0329+
3044369 -08811392 EFRA1 2014 01 11 16 54 //// 05 07 00 06
00300 0338 00302 0336 00305 0335 00295 0322 00284 0307 00277 0296+
3064830 -08805830 MCGA1 2014 01 11 16 54 2832 00 07 00 06
00376 0268 00393 0280 00403 0285 00402 0280 00396 0269 00387 0255+
3070830 -08804330 OBLA1 2014 01 11 16 54 2818 05 07 00 06
00325 0359 00336 0365 00347 0371 00357 0376 00366 0379 00374 0382+
3078189 -08807361 CIKA1 2014 01 11 16 54 //// 05 07 00 06
00314 0256 00329 0266 00351 0284 00367 0295 00380 0303 00397 0316+
3037664 -08815856 WFRA1 2014 01 11 16 54 //// 00 07 00 06
00351 0285 00344 0274 00342 0268 00334 0255 00344 0261 00357 0270+
3040567 -08824769 BLBA1 2014 01 11 16 54 //// 00 07 00 06
00338 0260 00329 0248 00308 0223 00281 0192 00250 0157 00240 0143+
3034770 -08850540 ULAM6 2014 01 11 16 54 2828 00 07 00 06
00247 0210 00229 0187 00223 0176 00211 0160 00213 0157 00213 0153+
3036790 -08856300 PNLM6 2014 01 11 16 54 2851 00 07 00 06
00245 0073 00248 0071 00248 0065 00244 0056 00223 0031 00221 0024+
3032639 -08932578 WYCM6 2014 01 11 16 54 2834 00 07 00 06
00128 0117 00137 0119 00142 0116 00150 0117 00153 0113 00160 0113+
2917830 -08925830 PILL1 2014 01 11 16 54 2793 00 07 00 06
00340 0288 00333 0277 00335 0275 00333 0269 00338 0270 00342 0270+
2893220 -08940750 PSTL1 2014 01 11 16 54 2801 05 07 00 06
00431 0350 00427 0342 00436 0347 00415 0321 00426 0328 00424 0321+
2986811 -08967325 SHBL1 2014 01 11 16 54 2814 00 07 00 06
00040 0035 00037 0030 00043 0034 00042 0031 00036 0022 00038 0021+
2926333 -08995667 GISL1 2014 01 11 16 54 2879 00 07 00 06
00135 0138 00160 0159 00153 0148 00164 0155 00157 0144 00160 0143++
7777

0000029200
383
KSAG30 KWBC 111744 RRA
CREX++
T000119 A001 D01021 D06021++
1342830 14479700 PGBP7 2014 01 11 17 00 00 07 /// 10117 037 0015+
0873161 16773622 KWJP8 2014 01 11 17 00 00 07 273 10072 084 0055+
1929000 16661800 WAKP8 2014 01 11 17 00 00 07 248 10129 043 0047++
7777

0000010300
384
SNAU04 AMMC 111700 RRA
AAXX 11174
94290 46/// /1319 10274 30073 40082 56017 91724=

0000107800
385
SNAU47 AMMC 111700 RRA
AAXX 11174
94127 17/// /1606 10258 20244 30042 40044 56022 60093 7//44 91730=
94128 17/// /0903 10247 20235 39999 40048 57030 60233 7//44 91730=
94129 17/// /1408 10268 20250 30025 40047 56022 60363 7//44 91730=
94130 15/// /0201 10267 20210 39971 40056 56037 60003 91730=
94135 17/// /1415 10261 20261 30032 40035 56022 60083 7//44 91730=
94137 15/// /1204 10262 20223 30011 40043 57026 69923 91730=
94140 17/// /1806 10247 20237 30024 40043 56017 60083 7//44 91730=
94141 15/// /1108 10235 20192 39580 40033 58026 60003 91730=
94143 17/// /1603 39927 40043 56030 60053 7//44 91730=
94152 15/// /0000 10241 20229 30024 40043 58037 60253 91730=
94153 15/// /0000 10249 30022 40038 56030 60233 91730=
94225 17/// /1005 10241 20214 39797 40042 56035 60033 7//44 91730=
94231 15/// /0111 10282 20194 39704 40051 56002 60003 91730=
94232 15/// ///// 10257 20198 39960 40061 56021 69923 91730=
94239 15/// /0000 10246 2//// 39998 40044 58037 60113 91730=
94321 35/// /1316 10323 21007 39571 40070 57012 91730=

0000026900
386
SNVX22 EGRR 111700 RRA
BBXX
ZCEF3 11174 99262 70747 41598 21535 10259 20191 40189 58040 70100
82200 22265 00270 20204 305// 40504=
MFLM9 11173 99034 11413 41497 50309 10290 20248 40061 58011 70100
85160 22283 00293 20000 327// 40404 5//// 80260=
0000019000
387
SNAU48 AMMC 111700 RRA
AAXX 11174
95142 176// 81707 10241 20241 30008 40041 56014 60233 7//44 91730=
95146 17/// /1504 10258 20258 30026 40036 56017 60233 7//44 91730=

0000010300
388
SNAU49 AMMC 111700 RRA
AAXX 11174
94371 46/// /1219 10262 30095 40102 56011 91720=

0000010900
389
SNAU51 AMMC 111700 RRA
AAXX 11174
95370 15/// /1904 10211 20211 30091 40123 56012 60003=

0000216500
390
SZNZ01 NZKL 111745
CREX++
T000103 A001 D01021 D06025++
-3683144 17478654 AUCT  2014 01 11 17 37 //// 11 07 00 01
05734 3153 05731 3156 05726 3157 05721 3156 05716 3157 05712 3159+
-4402404 -17636748 CHIT  2014 01 11 17 37 //// 11 07 00 01
04609 1992 04617 2004 04600 1990 04583 1977 04596 1993 04585 1986+
-4089929 17623168 CPIT  2014 01 11 17 37 //// 11 07 00 01
03734 2263 03756 2290 03753 2292 03758 2302 03730 2279 03729 2284+
-3618905 17548887 GBIT  2014 01 11 17 37 //// 11 07 00 01
06174 0016 06172 0018 06165 0015 06149 0003 06144 0002 06153 0015+
-3867541 17802288 GIST  2014 01 11 17 37 //// 11 07 00 01
04032 2730 04001 2704 04003 2710 03985 2698 03974 2691 03971 2693+
-4241288 17370277 KAIT  2014 01 11 17 37 //// 11 07 00 01
03127 2265 03104 2247 03101 2249 03103 2256 03110 2268 03109 2272+
-3755040 17815904 LOTT  2014 01 11 17 37 //// 11 07 00 01
03703 0201 03703 0205 03706 0212 03704 0215 03695 0210 03680 0199+
-3704657 17451175 MNKT  2014 01 11 17 37 //// 11 07 00 01
03286 -0112 03300 -0103 03308 -0101 03316 -0097 03322 -0096 03336 -0087+
-3947566 17692007 NAPT  2014 01 11 17 37 //// 11 07 00 01
02947 2034 02960 2052 02955 2053 02964 2067 02959 2067 02960 2074+
-3441483 17304870 NCPT  2014 01 11 17 37 //// 11 07 00 01
-04420 -9350 -04425 -9352 -04446 -9370 -04450 -9372 -04418 -9338 -04410 -9328+
-4581435 17062939 OTAT  2014 01 11 17 37 //// 11 07 00 01
04055 3507 04052 3508 04049 3509 04047 3510 04044 3512 04042 3513+
-2928002 -17789440 RBCT  2014 01 11 17 37 //// 11 07 00 01
06203 2015 06199 2014 06213 2031 06202 2022 06200 2024 06201 2027+
-2925114 -17790384 RFRT  2014 01 11 17 37 //// 11 07 00 01
03145 0167 03144 0168 03107 0134 03116 0145 03115 0148 03121 0156+
-4357010 17277383 SUMT  2014 01 11 17 37 //// 11 07 00 01
01612 1853 01600 1847 01581 1834 01587 1846 01571 1835 01572 1842+
-3764109 17618118 TAUT  2014 01 11 17 37 //// 11 07 00 01
05434 3988 05431 3989 05427 3989 05424 3989 05418 3988 05415 3989+
-4128448 17477985 WLGT  2014 01 11 17 37 //// 11 07 00 01
02918 2030 02906 2022 02901 2020 02883 2007 02884 2012 02877 2009++
7777
0000330200
391
SAWD01 OEJD 111600
METAR DAAG 111600Z 05001KT 9999 FEW030 BKN086 17/13 Q1019=
METAR DTTA 111600Z 00000KT 9999 FEW023 SCT100 17/09 Q1018 NOSIG=
METAR EBBR 111550Z 29006KT 9999 FEW028 06/02 Q1020 NOSIG=
METAR EDDH 111550Z 31013KT 9999 -RA FEW011 BKN014 BKN060 05/03 Q1008
TEMPO 31015G30KT=
METAR EFHK 111550Z 06006KT 010V080 9999 -SN FEW007 SCT040 OVC060
M04/M05 Q0999 TEMPO 4000 BKN014=
METAR EGLL 111550Z 28006KT 9999 FEW030 07/02 Q1021 NOSIG=
METAR EHAM 111555Z 29013KT 260V320 9999 FEW025 07/03 Q1017 NOSIG=
METAR EIDW 111600Z 23005KT 190V270 CAVOK 05/00 Q1020 NOSIG=
METAR EKCH 111550Z 30015G27KT 270V330 9999 -RA BKN011 BKN030
06/04 Q1002 RERA BECMG BKN020=
METAR ELLX 111550Z 25009KT 9999 FEW009 BKN038 06/05 Q1018 NOSIG=
METAR ENFB 111550Z AUTO 15013KT 9999NDV -SHRA OVC012/// 04/02 Q0999
           W///S5=
METAR EPWA 111600Z 21007KT 9999 FEW043 05/02 Q1012 NOSIG=
METAR ESSA 111550Z 01010KT 9999 FEW010 BKN053 M04/M05 Q1001
R01L/610267 R08/610262 R01R/////// NOSIG=
METAR ETBS 111600Z NIL=
METAR GMME 111600Z 30005KT 270V330 8000 SCT020 SCT100 18/13 Q1018
NOSIG=
METAR GQNN 111600Z 32009KT 290V350 8000 NSC 24/13 Q1013 NOSIG=
METAR HAAS 111600Z NIL=
METAR HCMM 111600Z NIL=
METAR HECA 111600Z 33003KT 9999 SCT025 17/07 Q1025 NOSIG=
METAR HLLT 111550Z
20003KT CAVOK 21/07 Q1021=
METAR HSSS 111600Z 35012KT CAVOK 23/M06 Q1017NOSIG=
METAR KBOS 111554Z 19015KT 7SM -RA OVC011 12/11 A2986=
METAR KIAD 111552Z 17008KT 1 1/2SM RA BR BKN003 BKN011 OVC035 05/04
     A2970=
METAR KJFH 111600Z NIL=
METAR KWBS 111600Z NIL=
METAR LEMD 111600Z NIL=
METAR LFPO 111600Z 28004KT 260V320 9999 SCT013 BKN019 08/06 Q1022
BECMG SCT015=
METAR LGAV 111550Z 05003KT 9999 FEW020 BKN180 12/08 Q1022 NOSIG=
METAR LIRF 111550Z 36003KT 9999 FEW030 12/09 Q1022 NOSIG=
METAR LOWW 111550Z 15003KT 9999 FEW060 SCT080 BKN220 05/04 Q1017
NOSIG=
METAR LSGG 111550Z VRB02KT 9999 SCT043 BKN120 10/06 Q1022 NOSIG=
METAR LTAC 111550Z 06005KT 6000 SCT012 M02/M02 Q1023 NOSIG=
METAR OAKB 111600Z NIL=
METAR OBBI 111600Z 18005KT CAVOK 17/13 Q1020 NOSIG=
METAR OJAM 111600Z 27008KT 5000 HZ FEW030 09/06 Q1024 NOSIG=
METAR OKBK 111600Z 28003KT CAVOK 12/09 Q1019 NOSIG=
METAR OLBA 111600Z 11004KT 8000 // FEW080 14/05 Q1025 NOSIG=
METAR OMAA 111600Z 05004KT 9000 -RA NSC 18/16 Q1020 A3013 NOSIG=
METAR OOMS 111550Z 09004KT 9999 FEW030 SCT100 BKN200 19/09 Q1021
NOSIG=
METAR OPKC 111555Z OPKC MTR 02008KT 70000 FEW200 15/M04 Q1022 NOSIG=
METAR OPRN 111600Z 00000KT 4000 HZ FEW100 09/02 Q1022.5/30.19=
METAR ORBB 111600Z NIL=
METAR OSDI 111600Z NIL=
METAR OTBD 111600Z VRB02KT 9999 FEW018 BKN120 9999 17/12 Q1021 RERA
NOSIG=
METAR OYAA 111600Z 14008KT 9999 FEW020 26/19 Q1016 NOSIG=
METAR OYSN 111600Z 26008KT 220V310 9999 SCT030 18/06 Q1027=
METAR RKSS 111600Z 17003KT 9999 FEW040 M05/M14 Q1029 NOSIG=
METAR UUEE 111600Z NIL=
METAR VCBI 111610Z 03008KT CAVOK 26/21  Q1013 NOSIG=
METAR VGZR 111600Z NIL=
METAR VHHH 111600Z NIL=
METAR VIDP 111600Z 00000KT 1000 R28/P2000 R29/P2000 BR NSC 11/09
      Q1020 BECMG 0800=
METAR WIIH 111600Z NIL=
METAR WMKK 111600Z 03008KT 010V080 9999 FEW030 BKN280 26/22 Q1012
NOSIG=
METAR WSSS 111600Z 01005KT 320V060 9999 FEW015 BKN300 26/23 Q1012
NOSIG=
00000000