0000028600
630
SAIN34 VOMM 111740
METAR VOHS 111740Z 13004KT 5000 HZ SCT020 19/14 Q1018 NOSIG=
METAR VOMM 111740Z 07003KT 6000 FEW020 23/19 Q1015 NOSIG=
METAR VOTR 111740Z 09005KT 4000 HZ NSC 23/20 Q1015 NOSIG=
METAR VOTV 111740Z 00000KT 4000 HZ FEW015 26/23 Q1013 TEMPO 3000 HZ=
0000010700
631
SMPS02 NZKL 111200 RRA
AAXX 11124
91723 NIL=
91964 36/// /1010 10228 20218 40191 57016=
0000011400
632
SMMZ01 FQMA 111800
AAXX 11184
67323 32580 41606 10272 20228 40159 52018 82130 333 10312
94310=
0000216600
633
SZNZ01 NZKL 111751
CREX++
T000103 A001 D01021 D06025++
-3683144 17478654 AUCT  2014 01 11 17 43 //// 11 07 00 01
05708 3161 05700 3158 05698 3162 05696 3165 05691 3166 05684 3165+
-4402404 -17636748 CHIT  2014 01 11 17 43 //// 11 07 00 01
04610 2013 04600 2007 04595 2005 04588 2001 04589 2006 04567 1987+
-4089929 17623168 CPIT  2014 01 11 17 43 //// 11 07 00 01
03712 2271 03715 2280 03719 2289 03708 2282 03706 2286 03699 2284+
-3618905 17548887 GBIT  2014 01 11 17 43 //// 11 07 00 01
06157 0024 06153 0024 06134 0009 06120 -0001 06126 0010 06128 0016+
-3867541 17802288 GIST  2014 01 11 17 43 //// 11 07 00 01
03949 2676 03971 2703 03945 2681 03967 2708 03931 2678 03949 2700+
-4241288 17370277 KAIT  2014 01 11 17 43 //// 11 07 00 01
03117 2284 03105 2277 03097 2274 03080 2261 03074 2261 03055 2246+
-3755040 17815904 LOTT  2014 01 11 17 43 //// 11 07 00 01
03685 0209 03670 0198 03674 0206 03651 0188 03664 0205 03651 0197+
-3704657 17451175 MNKT  2014 01 11 17 43 //// 11 07 00 01
03327 -0101 03328 -0104 03349 -0089 03356 -0086 03354 -0092 03353 -0098+
-3947566 17692007 NAPT  2014 01 11 17 43 //// 11 07 00 01
02942 2061 02937 2061 02928 2057 02931 2066 02918 2058 02938 2083+
-3441483 17304870 NCPT  2014 01 11 17 43 //// 11 07 00 01
-04426 -9341 -04397 -9310 -04498 -9409 -04506 -9414 -04467 -9373 -04470 -9373+
-4581435 17062939 OTAT  2014 01 11 17 43 //// 11 07 00 01
04040 3515 04038 3516 04036 3517 04033 3518 04031 3519 04029 3521+
-2928002 -17789440 RBCT  2014 01 11 17 43 //// 11 07 00 01
06201 2030 06194 2026 06187 2021 06202 2040 06190 2031 06179 2022+
-2925114 -17790384 RFRT  2014 01 11 17 43 //// 11 07 00 01
03140 0178 03120 0161 03107 0151 03111 0157 03099 0149 03102 0154+
-4357010 17277383 SUMT  2014 01 11 17 43 //// 11 07 00 01
01579 1855 01560 1842 01534 1821 01532 1825 01517 1816 01496 1800+
-3764109 17618118 TAUT  2014 01 11 17 43 //// 11 07 00 01
05409 3987 05406 3988 05402 3988 05402 3991 05398 3992 05393 3991+
-4128448 17477985 WLGT  2014 01 11 17 43 //// 11 07 00 01
02878 2014 02877 2016 02878 2021 02887 2033 02888 2038 02879 2033++
7777
0000022800
634
FOUK70 EGRR 111800
  FOQNH

  01920 01006 02010 03006 04012 05011

  07016 08017 09015 10013 11018 12019

  13019 14015 15020 16998 17005 18994

  19002 20010 21995 22998 23011 24015

  25013=
0000003900
635
SMVB16 RJTD 111200
NIL=
0000014200
636
SMVX01 WSSS 111200 RRA
BBXX
MEPP3 11123 99125 11012 41298 11202 10260 20246 40152 52002
70200 811// 22200 00/// 20000 80250=
0000003900
637
SMVD16 RJTD 111200
NIL=
0000011000
638
UANT99 KDDL 111748
ARP ACA849 5302N01558W 1749 F360 MS65 217/89 KT
CGHLM DDL BLY 111749 J11A
0000011000
639
UANT99 KDDL 111749
ARP CRL938 4628N03125W 1749 F380 MS48 264/40 KT
FHBIL QXT AOE 111749 J35A
0000011000
640
UANT99 KDDL 111749
ARP AZA650 4808N01526W 1748 F380 MS67 221/72 KT
EIEJG QXT AOE 111749 J99A
0000011000
641
UANT99 KDDL 111749
ARP BAW189 5307N02342W 1749 F390 MS52 328/56 KT
GZBJC QXT AOE 111750 L37A
0000009600
642
SMAA19 LFVW 111800
AAXX 11184
89646 46/// /1209 11192 29080 37658 4//// 5////=
0000015400
643
SSVX02 LFVW 111749
ZZYY 23598 11014 1351/ 114618 083024 6112/
11119 40161 52016
22219 00264
444 20120 11014 1315/ 503// 80108 80011=
0000003900
644
SMVE16 RJTD 111200
NIL=
0000011100
645
UANT01 CWAO 111749
ARP UAL959 5600N01954W 1749 F320 MS58 207/70 KT
N651UA DDL XXN 111749 F81A
0000011000
646
UANT01 CWAO 111749
ARP DLH424 5202N01619W 1749 F350 MS62 211/89 KT
DAIGU QXT AOE 111749 J12A
0000011000
647
UANT01 CWAO 111749
ARP UAL85 5305N03929W 1749 F360 MS59 276/38 KT
N57016 DDL XXN 111749 F96A
0000011000
648
UANT01 CWAO 111750
ARP ACA849 5302N01608W 1749 F360 MS65 216/88 KT
CGHLM DDL BLY 111750 J16A
0000021500
649
UPNR01 DRRN 111800
PPAA 61171 61017 NIL=
PPAA 61171 61024 55285 12024 10012 77999=
PPAA 61171 61052 55185 06009 77999=
PPAA 61171 61075 NIL=
PPAA 61171 61080 NIL=
PPAA 61171 61090 NIL=
/=
00000000