0000010300
472
SAER41 OMAM 111636 RRF
METAR OMAM 111630Z 03005KT 9999 SCT045 OVC090 18/15 Q1020 A3012=
0000065900
473
SAER10 OMAM 111630
METAR OMAD 111630Z NIL=
METAR OMAH 111630Z AUTO 03006KT /////NDV //// ///// 17/12 Q1021 A3016=
METAR OMAM 111630Z 03005KT 9999NDV -RA SCT045 OVC090 18/15 Q1019 A3011=
METAR OMDL 111630Z AUTO 09003KT /////NDV //// ///// 18/13 Q1019 A3011=
METAR OMDM 111630Z AUTO 04003KT 330V110 /////NDV //// ///// 17/15 Q1021=
METAR OMLW 111630Z 02005KT 9999NDV -RA BKN100 17/15 Q1019=
METAR OMMZ 111630Z AUTO 06002KT /////NDV //// ///// 20/11 Q1020 A3012=
METAR OMSN 111630Z AUTO 34003KT /////NDV //// ///// 17/12 Q1021 A3015=
METAR OMSW 111630Z NIL=
METAR OMTH 111630Z AUTO 00000KT /////NDV //// ///// 17/15 Q1021 A3016=
0000020800
474
SAME31 OEJD 111600 RRA
METAR OJAI 111600Z 28005KT 6000 HZ SCT030 09/06 Q1025 NOSIG=
METAR OSDI 111600Z 17002KT CAVOK 09/01 Q1023=
METAR OSLK 111600Z 12002KT 9999 FEW030 SCT100 14/09 Q1023=
0000017000
475
FTAJ31 UBBB 111600
TAF UBBG 111640Z 1118/1218 30014KT 9999 FEW040 SCT080
530003 TX13/1212Z TN04/1203Z TEMPO 1120/1204 26008KT
BECMG 1207/1209 VRB04KT=
0000078600
476
FTUR31 UKMS 111600
TAF UKDR 111640Z 1118/1218 23005MPS 9999 SCT020CB
         TEMPO 1118/1208  3100 BR BKN010 BECMG
         1208/1210 23008G13MPS 3100 -SHRA BR BKN010
         BKN015CB TX05/1212Z TN00/1203Z=
TAF UKFF 111640Z 1118/1218 22005G10MPS 3400 BR SCT003
         BKN011  SCT020CB BECMG 1206/1208
         25010G15MPS TX09/1210Z TN00/1203Z=
TAF UKLL 111635Z 1118/1218 22005MPS 2100 BR BKN007
         TEMPO 1123/1207  1400 SHRASN BKN003 BKN020CB
         TEMPO 1207/1218 27010G15MPS 1100 SHSN
         BKN003 BKN025CB TX00/1119Z TNM02/1218Z=
TAF UKOO 111643Z 1118/1218 26003MPS 2100 BR SCT003
         BKN007 SCT020CB  PROB40 TEMPO 1118/1207 0300
         FG VV002 BECMG 1207/1209 26007G14MPS  6000
         NSW TX09/1212Z TN00/1202Z=
0000009900
477
SAJD31 OJAI 111600 RRA
METAR OJAI 111600Z 28005KT 6000 HZ SCT030 09/06 Q1025 NOSIG=
0000025700
478
SAGG31 UGTB 111730
METAR UGTB 111730Z 30024KT CAVOK 07/00 Q1017 R31L/CLRD80 NOSIG=
METAR UGKO 111730Z 25007KT 9999 SCT024CB OVC048 08/07 Q1021
      R25/29//50 NOSIG=
METAR UGSB 111730Z 22012KT 9999 BKN026 11/06 Q1026 R13/CLRD70 NOSIG=
0000068600
479
SAUR31 UKMS 111730
METAR UKLR NIL=
METAR UKLI 111730Z 24003MPS CAVOK 02/M04 Q1017
         28090070 NOSIG=
METAR UKON 111730Z 26005MPS 220V290 CAVOK 04/M03
         Q1018 NOSIG=
METAR UKCM 111730Z 23006MPS CAVOK 06/01 Q1015
         19190062 NOSIG=
METAR UKCW 111730Z 26009MPS 9999 SCT024CB BKN040
         04/01  Q1009 2709//70 BECMG 26009G15MPS 3100
         -SHRA BKN011 BKN020CB=
METAR UKLU 111730Z 12001MPS 9999 OVC020 03/01 Q1019
         10090070 NOSIG=
METAR UKKK 111730Z 27007MPS CAVOK 04/01 Q1012
         26290250  NOSIG=
METAR UKKM NIL=
METAR UKKE NIL=
METAR UKLN 111730Z 26002MPS CAVOK 04/M04 Q1017
         3309//70 NOSIG=
0000011200
480
SMJD50 OJAM 111800
AAXX 11184
40340 32560 53504 10164 20090 40243 52007 85100 333 10192 85830=
0000012000
481
SMJD50 OJAM 111800
AAXX 11184
40270 31550 42806 10082 20054 39338 40252 52010 84400 333 10129
84630=
0000011100
482
SMSD70 OETB 111800
40375 42660 40106 10110 20020 39349 40250 84200 333 10152 58039 55060 84840=
0000016600
483
SSVX13 LFVW 111743
ZZYY 55583 11014 1600/ 344522 175160 6112/
11119 30045 40045 57025
22219 00136
444 20120 11014 1618/ 50101 80110 80054 9/015=
0000011000
484
UANT01 CWAO 111743
ARP ACA865 5134N04522W 1743 F380 MS57 295/55 KT
CGFAH DDL XXW 111743 J99A
0000011000
485
UANT01 CWAO 111743
ARP AEA051 4548N03251W 1743 F360 MS50 297/39 KT
ECJQG QXT AOE 111743 J78A
0000291000
486
SSVX08 KARS 111743
ZZYY 15006 10014 1200/ 506029 009995 6111/
33311 88872 20001 32576 20040 32525 43611 20060 32303 20080 32018
20100 31635 20120 31471 43551 20140 31354 20180 31179 20300 30988
20500 30742
444 20110 10014 1323/ 521//=
ZZYY 15006 11014 16004 506021 010096 6111/
11119 01514 10253 29076
22219 00259
444 20110 11014 1642/ 521// 60401=
ZZYY 13002 10014 1200/ 720444 023132 6112/
33311 88872 20001 32153 43671 20020 32152 20040 32148 43670
20080 32043 20100 31854 20120 31779 20140 31775 20180 31731
20300 31467 20500 31069
444 20120 10014 1140/ 521//=
ZZYY 13002 11014 16004 720441 023148 6111/
11119 00609 10201 29078
22219 00219
444 20110 11014 1642/ 521// 60401=
ZZYY 52004 11014 0000/ 305005 165175 6112/
33311 88870 20001 33078 20025 33004 20075 33032 20100 32922
20150 32665 20200 32017 20250 31310 20300 31003 20500 30826
444 20120 10014 2247/ 521//=
ZZYY 15001 10014 1200/ 509907 009976 6111/
33311 88872 20001 32493 43630 20020 32481 43642 20060 32196 43629
20080 31996 20100 31736 20120 31443 20140 31315 20300 30993
20500 30771
444 20110 10014 1322/ 521//=
ZZYY 15001 11014 1600/ 509910 009980 6111/
11119 10246 29079 40127
22219 00253
444 20110 11014 1653/ 521//=
ZZYY 52007 10014 1200/ 308031 164802 6112/
33311 88872 20001 33060 43420 20025 32988 43453 20050 32895 43493
20075 32764 20100 32729 20125 32589 20150 32479 20200 32075
20250 31633 20300 31285 20500 30764
444 20120 10014 1053/ 521//=
ZZYY 31006 10014 1200/ 704046 022978 6112/
33311 88872 20020 32744 43552 20040 32744 43571 20060 32327 43631
20080 31725 20100 31599 20120 31538 20140 31497 20180 31438
20300 31160 20500 30741
444 20120 10014 1148/ 521//=
ZZYY 31006 11014 16004 704036 022970 6111/
11119 01010 10246 29100
444 20110 11014 1636/ 521// 60401=
ZZYY 31007 10014 1200/ 500004 022987 6111/
33311 88872 20001 32681 43566 20040 32615 43616 20060 32473
20080 32012 20100 31564 20120 31452 20140 31402 20180 31319
20300 31036 20500 30727
444 20110 10014 1152/ 521//=
ZZYY 31007 11014 16004 500009 022989 6111/
11119 01513 10263 29079 40107
22219 00270
444 20110 11014 1635/ 521// 60401=
ZZYY 15002 10014 1200/ 700000 009870 6112/
33311 88872 20001 32733 20020 32727 43504 20040 32398 43592
20060 32021 20080 31765 20100 31648 20120 31578 43568 20140 31503
20180 31397 20300 31050 20500 30705
444 20120 10014 1325/ 521//=
ZZYY 15002 11014 16004 700003 009871 6112/
11119 01511 10265 29084
22219 00276
444 20120 11014 1654/ 521// 60001=
ZZYY 13001 10014 1200/ 711462 022996 6112/
33311 88872 20001 32484 43550 20020 32484 43550 20040 32396 43558
20060 31761 43573 20080 31533 20100 31428 20120 31372 20140 31336
20180 31261 20300 31119 20500 30953
444 20120 10014 1146/ 521//=
ZZYY 13001 11014 17004 711471 022995 6111/
11119 00314 10235 29074 40130
22219 00248=
0000011000
487
UANT01 CWAO 111744
ARP AFR006 5032N04155W 1743 F380 MS56 290/55 KT
FHPJA QXT AOW 111744 J23A
0000011100
488
UANT01 CWAO 111744
ARP AWE701 4902N04704W 1743 F380 MS60 304/62 KT
N276AY DDL XXN 111744 J48A
0000303300
489
UDFR01 LFPW 111744
AMDAR 1117
DES EU4656 4834N 00340E 111728 F118 MS100 /// 313/013 TB1 S031
333 F118 VG010=
DES EU4656 4835N 00337E 111728 F115 MS092 /// 309/012 TB0 S031
333 F115 VG001=
DES EU4656 4835N 00335E 111728 F113 MS087 /// 306/012 TB0 S031
333 F113 VG003=
UNS EU4656 4837N 00333E 111729 F110 MS082 /// 338/015 TB0 S031
333 F110 VG001=
DES EU4656 4838N 00332E 111729 F108 MS082 /// 315/016 TB1 S031
333 F108 VG026=
DES EU4656 4839N 00331E 111729 F104 MS075 /// 323/017 TB0 S031
333 F104 VG005=
DES EU4656 4841N 00329E 111730 F099 MS065 /// 323/016 TB0 S031
333 F099 VG002=
DES EU4656 4841N 00329E 111730 F095 MS055 /// 317/015 TB0 S031
333 F095 VG004=
DES EU4656 4843N 00328E 111730 F091 MS042 /// 315/017 TB0 S031
333 F091 VG002=
DES EU4656 4844N 00326E 111731 F086 MS030 /// 315/017 TB0 S031
333 F086 VG000=
DES EU4656 4846N 00325E 111731 F082 MS017 /// 318/018 TB0 S031
333 F082 VG002=
DES EU4656 4847N 00324E 111731 F078 MS007 /// 313/021 TB0 S031
333 F078 VG002=
DES EU4656 4848N 00323E 111732 F074 PS000 /// 312/022 TB0 S031
333 F074 VG001=
DES EU4656 4849N 00322E 111732 F069 PS007 /// 306/021 TB0 S031
333 F069 VG002=
DES EU4656 4850N 00321E 111732 F065 PS012 /// 314/021 TB0 S031
333 F065 VG002=
UNS EU4656 4852N 00320E 111733 F060 PS015 /// 302/019 TB0 S031
333 F060 VG004=
DES EU4656 4852N 00318E 111733 F056 PS022 /// 299/019 TB0 S031
333 F056 VG004=
DES EU4656 4853N 00316E 111733 F052 PS012 /// 279/022 TB0 S031
333 F052 VG005=
DES EU4656 4855N 00315E 111734 F049 PS020 /// 279/021 TB0 S031
333 F049 VG001=
DES EU4656 4855N 00313E 111734 F045 PS022 /// 285/019 TB0 S031
333 F045 VG000=
DES EU4656 4856N 00312E 111734 F042 PS020 /// 297/014 TB0 S031
333 F042 VG000=
DES EU4656 4857N 00310E 111735 F039 PS022 /// 302/012 TB1 S031
333 F039 VG023=
DES EU4656 4858N 00309E 111735 F037 PS025 /// 307/013 TB0 S031
333 F037 VG002=
DES EU4656 4859N 00307E 111735 F037 PS025 /// 314/013 TB0 S031
333 F037 VG000=
DES EU4656 4859N 00305E 111736 F037 PS025 /// 316/013 TB0 S031
333 F037 VG001=
UNS EU4656 4901N 00304E 111736 F037 PS025 /// 300/011 TB0 S031
333 F037 VG001=
DES EU4656 4901N 00258E 111737 F037 PS027 /// 315/015 TB1 S031
333 F037 VG010=
DES EU4656 4901N 00255E 111737 F037 PS032 /// 322/013 TB0 S031
333 F037 VG005=
DES EU4656 4901N 00253E 111738 F037 PS032 /// 324/013 TB1 S031
333 F037 VG027=
DES EU4656 4900N 00252E 111738 F037 PS030 /// 331/015 TB1 S031
333 F037 VG024=
DES EU4656 4900N 00250E 111738 F033 PS025 /// 344/018 TB0 S031
333 F033 VG003=
DES EU4656 4900N 00249E 111739 F029 PS032 /// 348/016 TB0 S031
333 F029 VG000=
DES EU4656 4900N 00247E 111739 F025 PS032 /// 357/014 TB0 S031
333 F025 VG007=
DES EU4656 4859N 00244E 111740 F018 PS032 /// 347/010 TB0 S031
333 F018 VG011=
DES EU4656 4859N 00242E 111740 F015 PS042 /// 340/008 TB0 S031
333 F015 VG002=
DES EU4656 4859N 00240E 111741 F009 PS055 /// 318/007 TB0 S031
333 F009 VG002=
0000046700
490
SZPA01 AMMC 111745
CREX++
T000103 A001 D01021 D06025++
0136250 17293000 67590 2014 01 11 17 38 3015 11 07 00 01
01576 0019 01582 0029 01561 0011 01575 0029 01568 0025 01572 0032+
0710610 17137250 67680 2014 01 11 17 38 3013 11 07 00 01
00920 0040 00928 0050 00921 0046 00918 0046 00912 0042 00912 0045+
0698060 15820000 67950 2014 01 11 17 38 3022 11 07 00 01
00689 0085 00688 0084 00686 0083 00687 0085 00683 0081 00683 0082++
7777

0000179300
491
SZPS01 AMMC 111745
CREX++
T000103 A001 D01021 D06025++
-0204190 14737360 56130 2014 01 11 17 38 3023 11 07 00 01
00799 0096 00803 0098 00807 0101 00809 0101 00810 0100 00817 0106+
-0669280 15640860 56363 2014 01 11 17 38 //// 11 07 00 01
00606 -0056 00607 -0054 00607 -0053 00607 -0052 00605 -0053 00603 -0054+
-0942890 15995560 56670 2014 01 11 17 38 3037 11 07 00 01
00681 -0055 00681 -0056 00685 -0053 00686 -0053 00691 -0050 00691 -0051+
-1072080 16580190 57131 2014 01 11 17 38 //// 11 07 00 01
02536 1811 02940 2217 02669 1948 03311 2591 02595 1877 03322 2606+
-1551560 16718860 57210 2014 01 11 17 38 //// 11 07 00 01
00963 -0138 00966 -0133 00956 -0140 00958 -0137 00966 -0127 00953 -0137+
-1775690 16830030 57320 2014 01 11 17 38 3015 11 07 00 01
01115 -0031 01114 -0031 01113 -0031 01109 -0035 01109 -0033 01108 -0033+
-4397330 16861610 65180 2014 01 11 17 38 2880 11 07 00 01
01971 0402 01992 0416 01980 0399 02022 0436 02288 0696 02258 0661+
-2120470 -15978530 65980 2014 01 11 17 38 3008 11 07 00 01
00752 0039 00697 -0014 00706 -0004 00708 -0001 00756 0048 00718 0011+
-2113810 -17518140 66600 2014 01 11 17 38 //// 11 07 00 01
01342 0088 01346 0095 01335 0086 01340 0095 01335 0093 01337 0098+
-1382670 -17176110 66840 2014 01 11 17 38 3010 11 07 00 01
00867 0075 00869 0080 00863 0077 00845 0062 00854 0074 00853 0075+
-1813250 17842750 67050 2014 01 11 17 38 3030 11 07 00 01
01477 0084 01464 0074 01463 0076 01464 0080 01461 0080 01456 0078+
-1760530 17743810 67070 2014 01 11 17 38 3028 11 07 00 01
01569 0020 01565 0021 01560 0019 01557 0020 01554 0020 ///// ////+
-0850250 17919500 67440 2014 01 11 17 38 3027 11 07 00 01
02042 0005 02042 0009 02026 -0004 02031 0006 02020 -0002 02017 -0001++
7777

00000000