0000034900
086
SNAA01 KARS 111700 RRD
AAXX 1117/
89828 46/// ///// 11341 36536 4//// 5//// 91740=
89108 46/// ///// 11189 37011 4//// 5//// 91740=
89879 46/// ///// 10016 39884 4//// 5//// 91740=
89329 46/// ///// 11083 38791 4//// 5//// 91740=
89799 46/// ///// 11200 4//// 5//// 91740=
89314 46/// ///// 11136 38268 4//// 5//// 91740=
0000009400
087
SNAA01 KARS 111800 RRA
AAXX 1118/
89108 46/// ///// 11196 37011 4//// 5////=
0000032000
088
SAIQ01 ORBI 111800
METAR ORBI 111800Z 31007KT 3100 BR FEW008 11/10 Q1020 NOSIG=
METAR ORMM 111800Z 27004KT CAVOK 09/08 Q1020 NOSIG=
METAR ORBM 111800Z 00000KT 7000 SKC 06/04 Q1020 NOSIG=
METAR ORNI 111800Z 30008KT 6000 BKN030 10/10 Q1021 NOSIG=
METAR ORER 111800Z VRB02KT CAVOK 05/04 Q1018 NOSIG=
0000042900
089
UDAS02 EGRR 111804
AMDAR 1117
LVR EU0110   6452N 04533E 111726 F330 MS642 208/044 TB/ S031=
LVR EU0110   6506N 04741E 111733 F350 MS675 213/051 TB/ S031=
LVR EU0110   6517N 04953E 111740 F350 MS685 228/059 TB/ S031=
LVR EU0110   6527N 05210E 111747 F350 MS690 240/066 TB/ S031=
LVR EU0110   6534N 05432E 111754 F350 MS690 250/072 TB/ S031=
LVR EU0110   6540N 05655E 111801 F350 MS682 257/073 TB/ S031=
0000024100
090
UDEU02 EGRR 111804 RRC
AMDAR 1117
ASC EU0201   3449N 03333E 111756 F023 PS095 232/003 TB/ S031=
ASC EU0201   3449N 03332E 111756 F032 PS072 246/010 TB/ S031=
ASC EU0201   3447N 03330E 111757 F047 PS045 189/008 TB/ S031=
0000043300
091
UDEU02 EGRR 111804 RRD
AMDAR 1117
LVR EU0030   3851N 00839W 111727 F330 MS542 332/040 TB/ S031=
LVR EU0030   3800N 00904W 111734 F330 MS542 327/042 TB/ S031=
LVR EU0030   3709N 00929W 111741 F330 MS535 326/046 TB/ S031=
LVR EU0030   3618N 00952W 111748 F330 MS530 319/037 TB/ S031=
LVR EU0030   3536N 01029W 111755 F330 MS525 305/036 TB/ S031=
LVR EU0030   3455N 01105W 111802 F330 MS527 291/037 TB/ S031=
0000014400
092
SMDO01 TDPD 111800
AAXX 11184
78905 12476 61008 10280 20214 30150 40173 60001 86200
  333 10280 20218 58012 86817=



0000013600
093
SMBE01 TXKF 111801
AAXX 11184 78016 32564 41211 10196 20122 30278 40282 58035 
83101 333 10203 20164 70000 =



0000013400
094
SMDO01 TDPD 111800
AAXX 11184
78905 12476 61008 10280 20214 30150 40173 60001 86200
  333 10280 20218 58012 86817=
0000012500
095
SMBE01 TXKF 111801
AAXX 11184 78016 32564 41211 10196 20122 30278 40282 58035
83101 333 10203 20164 70000 =
0000216700
096
SZNZ01 NZKL 111803
CREX++
T000103 A001 D01021 D06025++
-3683144 17478654 AUCT  2014 01 11 17 55 //// 11 07 00 01
05644 3166 05636 3165 05630 3164 05625 3166 05618 3165 05611 3164+
-4402404 -17636748 CHIT  2014 01 11 17 55 //// 11 07 00 01
04535 1978 04507 1954 04507 1957 04521 1974 04527 1983 04509 1969+
-4089929 17623168 CPIT  2014 01 11 17 55 //// 11 07 00 01
03691 2310 03674 2298 03697 2325 03668 2301 03659 2298 03653 2297+
-3618905 17548887 GBIT  2014 01 11 17 55 //// 11 07 00 01
06089 0007 06101 0023 06092 0020 06074 0006 06060 -0003 06052 -0007+
-3867541 17802288 GIST  2014 01 11 17 55 //// 11 07 00 01
03933 2719 03901 2692 03925 2720 03901 2701 03922 2727 03905 2715+
-4241288 17370277 KAIT  2014 01 11 17 55 //// 11 07 00 01
03028 2252 03036 2264 03031 2264 03030 2267 03016 2258 03009 2255+
-3755040 17815904 LOTT  2014 01 11 17 55 //// 11 07 00 01
03618 0196 03612 0194 03631 0218 03604 0196 03604 0200 03599 0199+
-3704657 17451175 MNKT  2014 01 11 17 55 //// 11 07 00 01
03383 -0099 03388 -0099 03405 -0085 03399 -0096 03411 -0087 03422 -0080+
-3947566 17692007 NAPT  2014 01 11 17 55 //// 11 07 00 01
02916 2097 02900 2086 02892 2083 02887 2083 02880 2081 02875 2081+
-3441483 17304870 NCPT  2014 01 11 17 55 //// 11 07 00 01
-04460 -9344 -04379 -9260 -04392 -9270 -04436 -9311 -04402 -9274 -04446 -9314+
-4581435 17062939 OTAT  2014 01 11 17 55 //// 11 07 00 01
04009 3524 04005 3522 04002 3522 03999 3522 03994 3521 03991 3520+
-2928002 -17789440 RBCT  2014 01 11 17 55 //// 11 07 00 01
06163 2027 06154 2020 06161 2031 06164 2036 06157 2033 06151 2030+
-2925114 -17790384 RFRT  2014 01 11 17 55 //// 11 07 00 01
03078 0151 03085 0161 03096 0175 03071 0153 03076 0162 03083 0172+
-4357010 17277383 SUMT  2014 01 11 17 55 //// 11 07 00 01
01473 1815 01455 1802 01454 1806 01438 1796 01429 1792 01424 1792+
-3764109 17618118 TAUT  2014 01 11 17 55 //// 11 07 00 01
05355 3982 05352 3983 05346 3982 05340 3980 05333 3977 05327 3975+
-4128448 17477985 WLGT  2014 01 11 17 55 //// 11 07 00 01
02822 2002 02831 2014 02834 2021 02835 2026 02842 2036 02844 2041++
7777
0000043300
097
UDEU02 EGRR 111804 RRE
AMDAR 1117
LVR EU1987   5137N 00439E 111724 F370 MS535 278/063 TB/ S031=
LVR EU1987   5219N 00542E 111731 F370 MS502 275/062 TB/ S031=
LVR EU1987   5300N 00645E 111738 F350 MS465 281/067 TB/ S031=
LVR EU1987   5339N 00749E 111745 F350 MS475 294/058 TB/ S031=
LVR EU1987   5417N 00853E 111752 F350 MS465 272/035 TB/ S031=
LVR EU1987   5450N 01006E 111759 F294 MS462 261/045 TB/ S031=
0000081700
098
UDEU02 EGRR 111804 RRF
AMDAR 1117
ASC EU0427   3919N 01531E 111741 F221 MS267 256/020 TB/ S031=
ASC EU0427   3921N 01527E 111741 F234 MS295 262/020 TB/ S031=
ASC EU0427   3924N 01523E 111741 F250 MS335 271/027 TB/ S031=
ASC EU0427   3927N 01519E 111742 F260 MS365 266/028 TB/ S031=
ASC EU0427   3930N 01514E 111742 F271 MS392 263/028 TB/ S031=
ASC EU0427   3933N 01510E 111742 F280 MS417 252/028 TB/ S031=
ASC EU0427   3937N 01506E 111743 F288 MS435 243/027 TB/ S031=
ASC EU0427   3940N 01502E 111743 F298 MS457 245/030 TB/ S031=
ASC EU0427   3943N 01457E 111743 F307 MS482 250/030 TB/ S031=
ASC EU0427   3946N 01453E 111744 F316 MS507 253/028 TB/ S031=
ASC EU0427   3950N 01448E 111744 F326 MS535 253/029 TB/ S031=
ASC EU0427   3953N 01443E 111744 F336 MS560 247/034 TB/ S031=
0000028500
099
SXHW11 KWAL 111802
B15997E8 011180233"
1,140111,17:00:02,2.4,86,6.6,21.6,1012.8,0.05,13.0,
1,140111,17:15:02,1.3,71,3.8,21.7,1013.0,0.05,13.0,
1,140111,17:30:02,3.1,334,4.7,21.2,1013.2,0.05,13.0,
1,140111,17:45:03,2.9,331,4.3,21.0,1013.3,0.05,13.1, 45+0NN  30W
0000028300
100
SXHW11 KWAL 111802
B159A272 011180243"
1,140111,16:59:52,5.0,39,6.5,19.8,1013.9,0.09,13.2,
1,140111,17:14:52,4.4,41,6.2,20.0,1014.0,0.09,13.2,
1,140111,17:29:52,4.8,37,6.3,20.1,1014.2,0.09,13.2,
1,140111,17:44:52,5.1,39,6.5,20.4,1014.4,0.09,13.2, 45+0NN  30W
0000010000
101
SMAA19 LFVW 111800 RRB
AAXX 1118/
89661 46/// ///// 11042 29070 39335 4//// 5////=
0000012000
102
SMAA19 LFVW 111800 RRC
AAXX 11184
89614 46/// /0922 11027 29001 39035 4//// 5////
  333 90700 91129=
0000013500
103
SMAA17 LFVW 111800
AAXX 11184
89578 46/// /1003 11309 36970 4//// 5////=
89577 46/// /2004 11327 35904 4//// 5////=
0000013400
104
SMMF01 TFFR 111800
AAXX 11184
78897 14686 /0813 10280 20198 40165 56026 69901 700//
  333 10285 20206 58009 70006=
0000011100
105
UANT99 KDDL 111801
ARP UAL111 5302N01920W 1801 F350 MS62 199/87 KT
N33103 DDL IG1 111802 F30A
00000000