0000014500
186
SMFI01 EFKL 111800 RRC
AAXX 11181
02978 17368 70503 11039 21047 39992 49996 54001 60022 72487 87///
91800 
333 11027 21039=
0000014500
187
SMFI01 EFKL 111800 RRD
AAXX 11181
02964 17399 70504 11020 21040 39991 49996 54001 60022 78587 87///
91800 
333 11014 21023=
0000014500
188
SMFI01 EFKL 111800 RRE
AAXX 11181
02926 17560 80602 11058 21067 39995 40008 52004 60042 771// 85///
91800 
333 11035 21058=
0000014500
189
SMFI01 EFKL 111800 RRF
AAXX 11181
02769 17543 70503 11107 21126 39910 40032 52009 60022 77170 87///
91800 
333 11071 21107=
0000013600
190
SMFI01 EFKL 111800 RRG
AAXX 11181
02935 37450 80304 11123 21154 39857 40040 52007 77170 88/// 91800
333 11088 21123=
0000014500
191
SMFI01 EFKL 111800 RRH
AAXX 11181
02957 17632 80505 11119 21132 30036 40048 52006 60042 771// 84///
91800 
333 11084 21119=
0000013600
192
SMFI01 EFKL 111800 RRI
AAXX 11181
02915 37961 60401 11136 21160 39880 40052 52002 77770 80/// 91800
333 11101 21138=
0000013600
193
SMFI01 EFKL 111800 RRJ
AAXX 11181
02789 37556 80203 11136 21162 39832 40048 52003 77187 88/// 91800
333 11119 21143=
0000013600
194
SMFI01 EFKL 111800 RRK
AAXX 11181
02939 37550 83403 11119 21139 39812 40015 52007 77170 88/// 91800
333 11086 21120=
0000014500
195
SMFI01 EFKL 111800 RRL
AAXX 11181
02852 17899 80404 11142 21167 30063 40074 52008 69912 700// 88///
91800 
333 11107 21142=
0000013100
196
SMFI01 EFKL 111800 RRM
AAXX 11181
02755 37999 00503 11164 21188 39976 40078 52004 70000 91800 
333 11126 21165=
0000013100
197
SMFI01 EFKL 111800 RRN
AAXX 11181
02883 37999 00602 11159 21186 39859 40071 54001 700// 91800 
333 11140 21163=
0000013100
198
SMFI01 EFKL 111800 RRO
AAXX 11181
02851 37999 00303 11155 21190 30082 40099 52002 700// 91800 
333 11142 21156=
0000013100
199
SMFI01 EFKL 111800 RRP
AAXX 11181
02866 37999 00405 11149 21191 39942 40101 57003 70000 91800 
333 11147 21172=
0000013100
200
SMFI01 EFKL 111800 RRQ
AAXX 11181
02889 37983 00504 11160 21175 39786 40084 57003 78587 91800 
333 11156 21172=
0000013100
201
SMFI01 EFKL 111800 RRR
AAXX 11181
02880 37999 00403 11154 21181 30118 40130 52007 700// 91800 
333 11153 21171=
0000013100
202
SMFI01 EFKL 111800 RRS
AAXX 11181
02844 37999 03204 11217 21238 30052 40170 52005 70000 91800 
333 11207 21233=
0000011400
203
UACN10 CYEG 111803
EG
UA /OV CYBW /TM 1800 /FLDURC /TP NMRS /TB MDT /RM LLWS WIND 200 AGL 270015
0000011100
204
UANT01 CWAO 111803
ARP AAL105 5235N03520W 1803 F380 MS56 272/30 KT
N761AJ DDL XXN 111803 F50A
0000011000
205
UANT01 CWAO 111803
ARP AAL79 6302N05055W 1803 F370 MS58 218/18 KT
N775AN DDL XXN 111803 F57A
00000000