0000050700
246
SXXX32 EUMS 111800 RRD
22BF90A6
:PRS 1//1 1232 1223 1236 1229 1230 1227 1239 1221 1234 1628 1221 1212 1234 1229 1215 :RA/ 1 /3 4416 4414 4410 4406 4400 4392 439/ 4392 4786 4381 :SW1 60 /60/60 :SW2 30 /60 60 :WT/ 11 /15/29.4 :BAT 13 /15 12.8 :WAV/10 //0 6./ 5.2 4.4 :DAR /0 /1/ 101/115 108 :WMX/10 /10 8.7 6.9 5/4 /TPA 15 /15 27.6 /TMN 360 /720 26.9/:TMX 360 /720 28.2 /H/M 15 /15 82.1 :PRE 15 /1/ 101/.7 :RAC 59 /60 0.4 /RDU 59 /6/ 0/:RIN 59 /60/0.0 :DAC 1079 /1440 0.4 :DDR 1079 /1440 330
0000042000
247
SXXX32 EUMS 111801 RRE
26CB10AC
:PRS 1 /1 -1340 -1340 -1340 -1340 -1340 -1340 -1340 -1340 -1340 -1340 -1340 -1340 -1340 -1341 -1340 -1340 -1340 -1340 -1340 -1340 -1340 -1340 -1340 -1340 -1340 -1340 -1340 -1340 -1341 -1340 :RAD 3 /3 6382 6383 6380 6383 6383 6382 6382 6382 6380 6379 :RA2 3 /3 6363 6371 6360 6363 6368 6370 6368 6369 6368 6362 :SW1 2 /60 0 :SW2 32 /60 0 :BAT 14 /15 12.3 :NAME 26CB10AC /
0000045100
248
SXXX32 EUMS 111801 RRF
1227146C
:PRS 1 /1 2843 2848 2851 2856 2856 2862 2866 2871 2876 2880 2882 2886 2889 2892 2893 2896 2900 2902 2905 2907 2908 2910 2916 2920 2926 2929 2933 2936 2941 2944 :RAD 3 /3 2837 2846 2867 2869 2879 2890 2898 2903 2920 2931 2940 2948 2966 2968 2980 2995 3009 3023 3039 3046 :ENC 1 /5 3598 3619 3636 3649 3665 3685 3703 3720 3738 3758 3783 3804 :SW1 2 /60 0 :SW2 32 /60 60 :BAT 14 /15 12.1 :NAME 1227146C /
0000053300
249
SXXX32 EUMS 111801 RRG
3246B586
:PRS 1 /1 13249 13714 13714 13264 13714 13714 13714 13714 13714 13714 13714 13714 13695 13283 13714 :RAD 3 /3 7312 7303 7297 7292 7285 7285 7285 7284 7279 7272 :ENC 10 /15 5280 5280 :SW1 2 /60 0 :SW2 32 /60 0 :WTP 1 /15 -4./ :BAT 13 /15 12.9 :WAV 1 /10 7.2 7.3 6.1 :DAV 1 /10 46 41 52 :WMX 1 /10 11.6 50.8 9.1 :TPA 1 /15 28.4 :TMN 361 /720 25.8 :TMX 361 /720 29.2 :HUM 1 /15 75.9 :PRA 1 /15 1012.8 :RAC 1 /60 0.0 :RDU 1 /60 0 :RIN 1 /60 0.0 :DAC 1081 /1440 10.9 :DDR 1081 /1440 16460
0000029100
250
SXXX32 EUMS 111803 RRH
269375AE
OT12 ID:FI-STAN-07 DT:2014 01 11 17 53
:RAD /1 07425 07432 07434 07434 07435 07440 07441 07436 07437 07438 07445 07447 07454 07461 07464 07465 07468 07476 07473 07479 07477 07472 07472 07468 87472 07471 07463 07465 07470 07469
:BAT 13.3V
0000054200
251
SMBU01 LZSO 111800
AAXX 11181
15502 12970 10000 10034 20008 30175 40215 54000 60002 80005 333 10155
20010 555 583//=
15552 12970 63403 10052 21007 30171 40221 52003 60002 86030 222//
00/// 2//00 333 10135 20048 555 566// 92015 92418=
15614 12660 40000 10038 20026 39517 40234 57001 60002 84100 333 10100
21008 555 592//=
15615 11/01 93210 11072 21081 37130 47068 53002 60002 74940 333 11036
21076 555 593// 92711=
15730 11660 80000 10102 20005 39825 40221 53006 60002 70411 86577 333
10124 20011 555 551//=
0000074800
252
SMCZ10 OKPR 111800
AAXX 11181
11423 01/01 92706 10009 20009 39283 42776 51003 69902 745//
  333 10025 69905 89/01 91112=
11487 01575 82704 10045 20017 39543 40170 55003 69902 72162
      885//
  333 10048 69905 86627 88640 91112=
11518 01881 72305 10043 20013 39710 40153 57012 69902 70262
      8707/
  333 10062 60005 87357=
11603 01470 81302 10036 20006 39656 40143 56014 60002 702//
      8257/
  333 10044 60005 81619 87357=
11659 01562 81702 10034 20003 39516 40162 58006 69912 761//
      887//
  333 10055 69915 88725=
11723 02665 81701 10035 20011 39871 40174 57011 60002 885//
  333 10063 6///5 88648=
11782 02980 82404 10042 21006 39857 40166 58006 60002 8803/
  333 10068 60005 88360=
0000036600
253
SMGO01 FOOL 111800
AAXX 11184
64550 11356 8//// 10258 20233 30/// 40/// 60104 79596 889//
  333 10326 5//// 84606 81913 88623 94944 95834=
64551 11460 70000 10270 20242 3//// 4//// 60232 70261 8293/
  333 10305 5//// 82813 81920 87360 94943 95833=
64570 11120 51202 10221 20220 39605 40101 6///2 71096 84630
  333 10266 58016 84704 85363=
0000028400
254
SMMC01 GMMC 111800
AAXX 11184
60150 32560 10000 10136 20055 39544 40197 53013 81200
  333 10165 81820=
60230 32558 22203 10182 20064 40181 51014 82200
  333 10199 86823=
60096 NIL=
60101 NIL=
60115 NIL=
60135 NIL=
60155 NIL=
60156 NIL=
60252 NIL=
0000099500
255
SMMC02 GMMC 111800
AAXX 11184
60060 32460 30404 10164 20133 40194 53007 81502
  333 10182 81616 95300=
60105 11450 32803 10150 20126 40199 57011 69912 70262 83800
  333 10178 82816=
60107 32560 60200 10157 20115 40218 53018 84830
  333 10183 82820 83626 95310=
60127 12565 30000 10125 20094 39610 40207 53017 69902 83500
  333 10164 83630=
60141 32560 61202 10130 20093 39532 40214 52016 85230
  333 10174 86830=
60185 32970 03003 10164 20145 40200 53009
  333 10198=
60190 32562 12602 10160 20083 40187 53009 81230
  333 10187 81826=
60191 32565 10402 10154 20077 40196 51019 81200
  333 10192 81826=
60195 12560 62612 10071 20029 38517 48532 52015 69982 85230
  333 10084 85830 83360 95560=
60210 32565 30408 10136 20028 39003 48517 53015 83200
  333 10152 83826=
60220 32558 20402 10189 20147 40194 53016 82500
  333 10200 82626=
60265 32570 10901 10144 20025 38889 48518 53011 81200
  333 10156 81830=
60106 NIL=
60318 NIL=
0000030000
256
SMFG01 SOCA 111800
AAXX 11184
81401 06/// /3103 10293 20228 30113 40119 60021
  333 60027 58017
  555 60005=
81408 06/// /0303 10246 20237 30111 40119 60051
  333 60057 58022
  555 60055=
81415 06/// ///// 10309 20230 39994 40112 60001
  333 60007 58022
  555 60005=
0000013000
257
SMBE01 TXKF 111801
AAXX 11184 78016 32564 41211 10196 20122 30278 40282 58035
83101 333 10203 20164 70000 =
/=
0000013900
258
SMDO01 TDPD 111800
AAXX 11184
78905 12476 61008 10280 20214 30150 40173 60001 86200
  333 10280 20218 58012 86817=
/=
0000028700
259
SXHW11 KWAL 111805
B15017A0 011180503"
1,140111,17:00:00,5.5,159,8.0,11.6,1013.9,6.03,12.7,
1,140111,17:15:00,3.3,164,5.6,11.6,1014.1,6.03,12.7,
1,140111,17:30:00,4.4,155,6.6,11.6,1014.3,6.03,12.7,
1,140111,17:45:00,6.6,136,7.9,11.6,1014.4,6.03,12.8, 42+0NN 210W
0000009200
260
SAIQ01 ORBI 111800
METAR ORNI 111800Z 30008KT 6000 BKN030 10/10 Q1021 NOSIG=
0000032700
261
SABY31 UMMN 111800
METAR UMBB 111800Z NIL=
METAR UMGG 111800Z 26004MPS 9999 BKN021 02/M01 Q1009 R28/290050
NOSIG=
METAR UMII 111800Z NIL=
METAR UMMG 111800Z NIL=
METAR UMMM 111800Z NIL=
METAR UMMS 111800Z 24002MPS 180V320 9999 -SHRA OVC016CB 03/02 Q1006
R31/290060 NOSIG=
METAR UMOO 111800Z NIL=
0000021700
262
SMKB01 NGTT 111800
AAXX 11184
91487 NIL=
91533 NIL=
91601 NIL=
91610 11498 70407 10267 20246 40047 53008 60021 71582 82368 333 56199
82916 82360 86280 =
91612 NIL=
91629 NIL=
91701 NIL=
0000013300
263
SMBD01 WBSB 111800
AAXX 11184
96315 11260 71703 10240 20236 40115 60423 71096 82848
333 81704 85364=
96323 NIL=
0000007900
264
UXIN90 VABP 111800
PPAA 61180 42675 
NO ASCENT DUE TO NO GAS=
0000011000
265
SMIN90 VABP 111800
AAXX 11184
42675 31495 50000 10132 20117 40197 71044
  333 58055 85710=
00000000