0000011000
713
UANT99 KDDL 110638
ARP AZA611 4705N03933W 0638 F390 MS52 282/46 KT
EIEJJ QXT AOW 110638 J41A
0000042300
714
SMVD17 KWNB 110600 RRI
BBXX
52211 11061 99153 11457 46/// ///// 1//// 90618 22200 00281 10704
20704 304// 41101 70022=
52202 11061 99137 11448 46/// ///// 1//// 90630 22200 00283 10704
20704 305// 41101 70021=
51205 11061 99210 71564 46/// ///// 1//// 90621 22200 00249 11304
21003 332// 41303 70021=
46239 11061 99363 71221 46/// ///// 1//// 90629 22200 00132 11306
20903 330// 41305 70028=
0000077700
715
SMVD15 KWNB 110600 RRN
BBXX
41036 11061 99342 70769 46/// /1912 10221 20198 40187 90620 22200
00209 333 91216 555 11130 22140 30618 41916 60619 188119 187113
183112 180114 181118 176111=
42361 11061 99276 70925 46/// /1811 10217 20217 40129 56010 90630
555 11091 22097=
42390 11061 99261 70949 46/// ///// 10233 20222 40132 56007 90630=
42364 11061 99291 70881 46/// /1711 10211 20206 40149 56007 90630=
41108 11061 99337 70780 46/// ///// 1//// 90629 22200 00120 10704
20704 70018=
42099 11061 99273 70843 46/// ///// 1//// 90622 22200 00221 10801
20801 70006=
41114 11061 99276 70802 46/// ///// 1//// 90625 22200 00229 10803
20803 306// 41101 70015=
41112 11061 99307 70813 46/// ///// 1//// 90622 22200 00118 10803
20803 70014=
0000090500
716
SMCA02 KWBC 110600 RRA
AAXX 11064
78318 12556 11601 10203 20193 30171 40175 58001 60001 81100 333
10283 20203 32/// 56900 59011 81820=
78325 11930 00000 10230 20219 30119 40176 57005 60001 70400 333
10303 20218 30/// 56000 59014=
78333 12910 00103 10214 20209 30169 40176 58003 60001 333 10290
20191 30/// 59012=
78348 11456 41601 10225 20210 30129 40181 50000 60001 70500 84800
333 10280 20211 30/// 56300 59010 83819 555 11202=
78349 12450 20000 10219 20200 30079 40188 58003 60001 82500 333
10311 20190 30/// 56900 59012 81819=
78353 02550 20904 10255 20218 30165 40187 58001 60011 82800 333
10300 20240 30/// 56900 58000 60017 70010 81820=
78360 12/60 11107 10267 20206 30157 40168 56006 60001 81800 333
10300 20199 30/// 56900 59009 818// 92034=
78369 12464 30709 10263 20212 30165 40174 58003 60001 83200 333
10294 20258 30/// 56900 57860 59009 83818=
0000025500
717
SMPA01 KWBC 110600 RRB
AAXX 11064
91425 11474 60401 10300 20283 30074 40075 5//// 60071 70282 86200
333 561// 70066 86817 555 91106=
91434 11474 83603 10294 20249 30055 40056 5//// 60031 70282 882//
333 56899 70091 88817 555 91106=
0000203000
718
SMCU01 KWBC 110600
AAXX 11061
78324 12900 01401 10242 20219 30155 40166 58010 60001 333 10290
20228 30/// 59020=
78325 11930 00000 10230 20219 30119 40176 57005 60001 70400 333
10303 20218 30/// 56000 59014=
78353 02550 20904 10255 20218 30165 40187 58001 60011 82800 333
10300 20240 30/// 56900 58000 60017 70010 81820=
78363 12956 01201 10187 20167 30046 40160 58004 60001 70200 333
10321 20171 30/// 59009=
78310 12502 30501 10229 20227 30164 40174 58002 60001 83200 333
10287 20214 30/// 56900 59011 83820 92012=
78315 12564 10000 10209 20204 30106 40171 58001 60001 81100 333
10289 20205 30/// 56900 59013 81820=
78318 12556 11601 10203 20193 30171 40175 58001 60001 81100 333
10283 20203 32/// 56900 59011 81820=
78328 11/60 21305 10242 20234 30175 40/// 58005 60001 71000 82200
333 10275 20235 30/// 56900 59015 828//=
78333 12910 00103 10214 20209 30169 40176 58003 60001 333 10290
20191 30/// 59012=
78344 12950 00603 10221 20204 30125 40173 58003 60001 333 10309
20207 30/// 56000 59011=
78345 12565 10000 10207 20195 30177 40180 58003 60001 81500 333
10328 20184 30/// 56900 59010 81623=
78348 11456 41601 10225 20210 30129 40181 50000 60001 70500 84800
333 10280 20211 30/// 56300 59010 83819 555 11202=
78349 12450 20000 10219 20200 30079 40188 58003 60001 82500 333
10311 20190 30/// 56900 59012 81819=
78351 12550 10000 10204 20194 30168 40170 58002 60001 81500 333
10320 20196 30/// 56900 59008 81626=
78355 12560 10703 10210 20193 30045 40185 58003 60001 81200 333
10308 20207 30/// 56900 59008 81820=
78358 12930 01104 10241 20209 30160 40175 58004 60001 333 10297
20236 30/// 59011=
78360 12/60 11107 10267 20206 30157 40168 56006 60001 81800 333
10300 20199 30/// 56900 59009 818// 92034=
78365 12550 40909 10260 20230 30174 40178 58005 60001 84200 333
10278 20250 30/// 56200 57864 59003 84820 92045 555 10903=
78369 12464 30709 10263 20212 30165 40174 58003 60001 83200 333
10294 20258 30/// 56900 57860 59009 83818=
0000180700
719
SMCN04 KWBC 110600
AAXX 11064
71067 15/// ///// 11108 21121 60001 333 11011 21153 70000=
71221 15/// /0302 11176 21190 60001 333 11053 21205 70000=
71226 15/// /1908 11078 21111 60001 333 11002 21121 70000=
71229 15/// /3503 11211 21231 60001 333 11116 21222 70000=
71283 15/// /3602 11157 21173 60001 333 11048 21182 70006=
71359 15/// /2603 11090 21098 60001 333 11048 21146 70000=
71383 15/// /2406 11077 21092 39536 40157 58007 60001 333 11077
21179 70000=
71400 15/// /2506 11051 21091 30033 40166 55002 60001 333 11049
21154 70000 555 31825 4019/=
71405 15/// ///// 11097 21117 60001 333 11011 21125 70000=
71445 17/// /3206 11091 21107 39704 49986 50009 69941 7//4/ 333
11075 21115 70029=
71461 15/// /1804 11110 21139 60001 333 11027 21187 70000=
71483 15/// /2103 11103 21112 60001 333 10003 21111 70000 555
32723 40211=
71500 15/// /2104 11053 21113 60001 333 11003 21070 7////=
71504 15/// ///// 11073 21122 60001 333 10003 21121 7////=
71520 45/// /1710 11093 21096 39449 40133 58008 6///1 333 11093
21192 7////=
71521 15/// ///// 11092 21105 60001 333 11092 21205 70002=
71523 45/// ///// 11055 21069 39770 40151 58018 6///1 333 11050
21136 7////=
71541 15/// /2006 11114 21138 60001 333 11061 21178 70004=
71546 15/// /2008 11079 21111 60001 333 11036 21155 70000=
71547 15/// /2506 11050 21102 60001 333 11033 21133 70000 555
32621 40010=
71549 15/// ///// 11095 21107 60001 333 11031 21111 70000=
71690 15/// ///// 11106 21126 60001 333 11043 21137 70000=
71788 15/// /1607 11072 21089 60001 333 10050 21086 70000 555
32525 40071=
71792 15/// ///// 11107 21114 60001 333 11029 21122 70005=
71888 15/// ///// 11100 21121 60001 333 11024 21139 70000=
71895 15/// ///// 11118 21126 60001 333 10007 21143 7////=
0000096100
720
KUKI03 SBBR 110000 RRA
CREX++
T000113 A002 D09052++
 83 566 ///////// 080 // /// 07 18 2014 01 11 00 00 00 -1985000 -04395000 07861 00015 ////// // // // //// // // // // ///// 0012 ///// 000002 10000 00108 /////// //////// //// //// /// //// ///// 000002 09250 00798 /////// //////// //// //// /// //// ///// 000001 09220 ///// /////// //////// 2380 1780 090 0041 ///// 000002 08500 01535 /////// //////// 1960 1510 065 0072 ///// 000002 07000 03177 /////// //////// 0940 0040 065 0062 ///// 000002 05000 05890 /////// //////// -0690 -1990 055 0093 ///// 000002 04000 07590 /////// //////// -2010 -3810 040 0134 ///// 000002 03000 09650 /////// //////// -3630 -4630 060 0072 ///// 000002 02500 10890 /////// //////// -4530 -5730 065 0041 ///// 000002 02000 12340 /////// //////// -5470 -7070 130 0087 ///// 000002 01500 14150 /////// //////// -6310 -8210 075 0087 ///// 000002 01000 16570 /////// //////// -7410 -9110 080 0051 0000++
7777
0000029200
721
USBZ03 SBBR 110000 RRA
TTAA 61001 83566 99922 23856 09008 00108 ///// ///// 92798
///// ///// 85535 19645 06514 70177 09459 06512 50589 06963
05518 40759 20168 04026 30965 36360 06014 25089 45362 06508
20234 54766 13017 15415 63169 07517 10657 74167 08010 88999
77999=
0000014600
722
SMPA20 KWBC 110600 RRA
AAXX 11064
91353 32474 80507 10300 20255 30074 40081 5//// 85208 333 561/9
70000 85818 86280 555 91106=
0000058400
723
UDAF01 FAPR 110636
AMDAR 1106
UNS AFZA64 5118N 00007E 110620 F090 MS096 246/034 TB0 S031 333 F/// VG000=
DES AFZA64 5119N 00006W 110623 F081 MS085 254/037 TB0 S031 333 F/// VG000=
UNS AFZA64 5121N 00014W 110626 F064 MS047 259/037 TB0 S031 333 F/// VG000=
DES AFZA64 5127N 00001W 110630 F048 MS012 266/027 TB0 S031 333 F/// VG000=
DES AFZA64 5128N 00010W 110632 F032 PS004 286/025 TB0 S031 333 F/// VG000=
DES AFZA64 5128N 00017W 110634 F018 PS035 299/023 TB0 S031 333 F/// VG000=
DES AFZA64 5128N 00024W 110636 F004 PS067 285/012 TB0 S031 333 F/// VG000=
0000066100
724
UDAF01 FAPR 110635
AMDAR 1106
DES AFZA25 2215N 11346E 110632 F017 PS145 143/001 TB1 S031 333 F/// VG020=
DES AFZA25 2215N 11347E 110633 F015 PS147 162/003 TB1 S031 333 F/// VG023=
DES AFZA25 2216N 11348E 110633 F012 PS154 188/005 TB1 S031 333 F/// VG023=
DES AFZA25 2216N 11349E 110634 F009 PS162 210/005 TB1 S031 333 F/// VG023=
DES AFZA25 2216N 11350E 110634 F006 PS160 240/007 TB1 S031 333 F/// VG023=
DES AFZA25 2216N 11351E 110634 F004 PS167 251/010 TB1 S031 333 F/// VG023=
DES AFZA25 2217N 11352E 110635 F001 PS170 267/013 TB1 S031 333 F/// VG028=
DES AFZA25 2217N 11352E 110635 F-01 PS182 273/017 TB1 S031 333 F/// VG028=
0000066100
725
UDAF01 FAPR 110636
AMDAR 1106
DES AFZA64 5128N 00015W 110633 F021 PS027 300/023 TB0 S031 333 F/// VG000=
DES AFZA64 5128N 00017W 110634 F018 PS035 299/023 TB0 S031 333 F/// VG000=
DES AFZA64 5128N 00018W 110634 F015 PS042 300/023 TB0 S031 333 F/// VG000=
DES AFZA64 5128N 00020W 110634 F012 PS050 301/022 TB0 S031 333 F/// VG000=
DES AFZA64 5128N 00021W 110635 F009 PS055 299/019 TB0 S031 333 F/// VG000=
DES AFZA64 5128N 00022W 110635 F006 PS060 288/016 TB0 S031 333 F/// VG000=
DES AFZA64 5128N 00024W 110636 F004 PS067 285/012 TB0 S031 333 F/// VG000=
DES AFZA64 5128N 00025W 110636 F001 PS072 274/004 TB0 S031 333 F/// VG000=
0000035300
726
UDAF01 FAPR 110635
AMDAR 1106
DES AFZA25 2206N 11343E 110628 F032 PS158 305/006 TB0 S031 333 F/// VG015=
UNS AFZA25 2212N 11342E 110631 F018 PS149 124/009 TB0 S031 333 F/// VG018=
DES AFZA25 2215N 11346E 110633 F017 PS145 143/001 TB1 S031 333 F/// VG020=
DES AFZA25 2216N 11351E 110634 F004 PS167 251/010 TB1 S031 333 F/// VG023=
0000021700
727
SAIN34 VOMM 110630
METAR VOBL 110630Z 16006KT 070V240 8000 NSC 28/16 Q1019 NOSIG=
METAR VOCI 110630Z 30003KT 5000 HZ NSC 31/19 Q1012 NOSIG=
METAR VOML 110630Z 30005KT 8000 FEW020 30/20 Q1013 NOSIG=
0000008500
728
SASB31 VCBI 110640
METAR VCBI 29006KT 9999 SCT016 31/21 Q1011 NOSIG=

0000066100
729
UDAF01 FAPR 110639
AMDAR 1106
ASC AFZA44 2607S 02815E 110637 F052 PS199 345/012 TB1 S031 333 F/// VG021=
ASC AFZA44 2607S 02815E 110638 F052 PS195 342/010 TB1 S031 333 F/// VG029=
ASC AFZA44 2606S 02815E 110638 F055 PS188 338/004 TB1 S031 333 F/// VG035=
ASC AFZA44 2606S 02815E 110638 F057 PS182 231/005 TB1 S031 333 F/// VG027=
ASC AFZA44 2606S 02815E 110638 F061 PS170 341/006 TB1 S031 333 F/// VG026=
ASC AFZA44 2605S 02815E 110639 F064 PS157 343/013 TB1 S031 333 F/// VG026=
ASC AFZA44 2605S 02816E 110639 F067 PS157 334/009 TB1 S031 333 F/// VG026=
ASC AFZA44 2604S 02816E 110639 F072 PS162 352/005 TB0 S031 333 F/// VG017=
0000373900
730
SMCI01 KWBC 110600
AAXX 11061
51334 11923 72501 11188 21227 40468 57016 69901 70570 87/// 333
05151 21255=
51730 31957 02001 11036 21156 39193 40471 57005 70500 333 00501
21183=
51818 32965 02001 11020 21132 38773 40431 57002 333 00500 21135=
52112 32961 42902 11087 21211 40447 57020 84/// 333 00401 21186=
52787 32980 73608 11126 21251 37045 57010 87/// 333 00655 21196=
53352 42964 62707 11080 21246 40376 57005 86/// 333 21164=
53593 32959 00902 11009 21223 39190 40323 57030 333 21171=
53705 32976 33404 11002 21205 38954 40392 57017 83/// 333 00651
21113=
53975 31934 01402 10040 21097 40300 57038 70500 333 21041=
54273 32962 02507 11054 21174 39924 40275 57025 333 21250=
54324 32970 71803 10001 21197 40273 57031 87/// 333 21169=
54405 32972 02907 10011 21220 39580 40298 57034 333 21114=
54436 32965 72504 10025 21208 39951 40279 57033 87/// 333 21151=
54808 31942 02004 10072 21042 40292 57038 70500 333 21041=
54826 32963 02205 11046 21150 38503 57023 333 21083=
54863 31941 72203 10042 21045 40309 57024 70500 87/// 333 21038=
56018 33/// 92202 11043 21214 36151 57022 333 00353 21114=
56065 32975 72702 11068 21211 36612 57020 87/// 333 00654 21191=
57290 31955 63602 10072 21031 40310 57027 70500 86/// 333 20011=
50564 32965 00000 11239 21306 40272 57003 333 21359=
52378 32980 92909 11061 21217 40427 57013 333 00602 21136=
53487 32976 22906 11008 21222 40330 57029 82/// 333 21202=
53502 32963 02906 11019 21225 40401 57018 333 00403 21160=
53923 32980 73203 11003 21211 40346 57023 87/// 333 21069=
54049 32970 02906 11066 21202 40259 57015 333 21171=
54115 32980 93206 11061 21249 40304 57007 333 21203=
54157 32958 02005 11045 21148 30043 40262 57025 333 21184=
54186 32970 72903 11075 21191 40268 57018 87/// 333 21205=
54311 32969 92906 11030 21217 40299 57024 333 21199=
54346 32969 02703 11003 21194 30039 40282 57029 333 21165=
54377 32970 01101 11052 21158 30004 40302 57032 333 21200=
54386 32970 01105 11069 21236 39290 40289 57030 333 21255=
54493 32972 02504 11024 21172 40298 57025 333 21187=
54715 31962 82004 10058 21033 40294 57034 70040 88/// 333 21076=
54929 31931 21801 10061 21058 30154 40310 57031 70500 82/// 333
21037=
54945 31957 01402 10052 21026 40312 57027 70500 333 21016=
57193 32960 21102 10091 21063 40306 57031 82/// 333 20003=
50658 33/// 93604 11206 21315 40281 57005 333 21342=
50888 11965 60000 11174 21197 40246 52005 69901 77070 86/// 333
21271=
50983 32970 72503 11142 21195 30105 40248 52001 87/// 333 21268=
51053 32980 00905 11122 21194 40435 57015 333 05203 21184=
51542 32980 00901 11320 21358 37643 57011 333 00152 21397=
52436 32979 02703 11039 21215 38593 40429 57020 333 00601 21131=
52908 32680 72004 11117 21274 35731 57013 87/// 333 00200 21223=
52996 32980 73608 11096 21228 37609 57013 87/// 333 00654 21147=
53787 32966 02001 10035 21215 40309 57028 333 21112=
54096 32570 72906 11133 21211 40258 52004 87/// 333 21229=
54226 32672 63204 11014 21227 39762 40281 57018 86/// 333 21203=
54259 32980 02704 11038 21192 39985 40283 57031 333 21218=
54534 31913 02503 10029 21084 30256 40288 57029 70540 333 21128=
53083 32968 03405 11120 21226 40369 57002 333 00201 21227=
53764 32970 03403 10009 21214 39183 40349 57028 333 21110=
54527 31930 01802 10023 21058 30285 40291 57037 70500 333 21081=
56144 32780 51101 10057 21175 36828 57033 85/// 333 00251 21070=
56152 32680 62705 11003 21158 36276 57022 86/// 333 00353 21164=
56167 32780 32701 10080 21171 37041 57047 83/// 333 00251 21108=
56182 11771 71101 10002 21087 37153 57031 69901 72270 87/// 333
00551 21077=
56357 32980 02704 10046 21244 36429 57025 333 00200 21129=
0000103100
731
SMVA01 KWBC 110600 RRC
BBXX
WZZF 11063 99159 70179 41999 00124 10200 20135 40132 56002 70200
 80000 22284 00240 20105 3//// 4//// 5//// 6//// 80160 ICE /////=
UCJP 11061 99002 70200 41/98 91713 10230 40113 54000 70022=
OVSB2 11060 99184 70177 41498 20106 10182 20147 40154 57005 70200
 821// 22244 04198 20102 336// 41303 5//// 80160=
OZCZ2 11064 99253 10550 41297 71415 10200 20109 40210 7//// 877//
 22200 00200 2//// 80150=
9V2004 11064 99006 30586 41698 60212 10310 20242 40127 50003 70300
 84442 22244 04270 20302 30403 40802 50802 80260=
VRED4 11064 99341 30073 416// 82013 10170 2008/ 40230 54000 7//22
 885// 22223 0//// 2//// 3//// 4//// 5//// 6//// 80120 ICE /////=
WTEC 11064 99319 50249 41497 20304 10234 20226 40240 52006 70200
 82230 22241 02236 20000 323// 41204 5//// 6//// 80228 ICE /////=
AMOUK01 1106/ 99600 50244 46/// ///// 11020 21049 40068=
ZDLS1 11063 99600 50244 41599 71106 11012 21020 40082 54000 70222
 874// 22263 04016 20300 318// 40601 82014 ICE 0/150=
0000088000
732
SMVB01 KWBC 110600 RRD
BBXX
OVYQ2 11063 99508 11583 41393 80313 11020 2//// 49960 52020 7//77
 889// 22253 04040 2//01 320// 4//02 5//// 6//// 8//// ICE /////=
AMOHK01 1106/ 99225 11139 46/// ///// 10194 20112 40218=
MCCN6 11064 99124 11011 41598 60905 10281 20208 40140 58019 70511
 81106 22200 00295 20100 311// 40703 80232=
DCPY2 11063 99303 11245 41298 83306 10131 20093 40290 54000 70322
 8/700 22263 00160 20502 334// 40803 80110=
S6TV 11061 99063 10781 41197 32213 10250 20250 40114 51/// 75055
 82222 2229/ 04290 20604 3//// 4//// 5//// 80250=
UGSN 11061 99435 11355 42498 42609 11060 40226 57028 83110 22212
 00041 20402=
UIFY 11061 99514 11409 42498 33012 11194 21251 40121 57012 82402
 22200 01007 2//// ICE 41092=
AUYK 11064 99060 10799 41697 60105 10250 20240 40161 54000 70211
 84567 22273 00220 29904 3//// 4//// 5////=
00000000