0000243100
733
SNDL22 EDZW 110100
AAXX 11011
10007 NIL=
10044 46/// /2411 10061 20043 30072 40104 50002
222// 00057
  333 55300 91116 91212=
10046 45475 72305 10058 20046 30076 40110 58001
  333 55300 86/11 87/18=
10091 45681 72611 10052 20041 30050 40101 53006
  333 55300 20000 30000 87/44 91114 91212=
10113 47329 72208 10065 20056 30099 40118 58006 75165
  333 55300 20000 30000 83/08 84/13 87/50 91113=
10124 46/// ///// 10065 20065 30071 40109 58005
222// 0////
  333 553//=
10131 47457 82305 10064 20049 30105 40120 58003 71000
  333 55300 20000 30000 87/10 87/16 88/39=
10170 41480 62305 10057 20033 30100 40116 50002 72122 86800
  333 55300 20000 30000 82814 86645=
10264 45458 62304 10039 20027 30025 40133 50001
  333 55300 20000 30000 85/19 86/77=
10291 42468 22506 10045 20023 30070 40139 52002 82100
  333 55300 20000 30000 82816=
10315 42359 72204 10050 20032 30095 40160 58004 876//
  333 55300 20000 30000 87709=
10379 42681 72405 10044 20015 30031 40154 55000 875//
  333 55300 20000 30000 41054 87647=
10381 42680 32604 10047 20008 30053 40152 51001 83500
  333 55300 81640 83650=
10382 42581 42504 10035 20013 30106 40152 51001 82531
  333 55300 20000 30000 82625=
10384 46/// /2403 10050 20015 30088 40149 50000
  333 55300 20000 30000=
10427 41/06 72406 11007 21008 39151 48444 58006 74144 876//
  333 55300 20000 30000 877//=
10430 45568 72002 10036 20015 39973 40169 55002
  333 55300 20000 30000 82/21 87/63 87/70=
10439 NIL=
10453 41/90 92518 11020 21020 38797 48425 58010 74944
  333 55300 91121 91218 96036=
10496 45682 82304 10037 20011 30079 40165 55001
  333 55300 20000 30000 81/45 87/80 88/80=
10499 42783 72404 10043 20006 39881 40175 57001 875//
  333 55300 20000 30000 87650=
10505 42982 12005 10032 20002 39885 40172 57008 81031
  333 55300 20000 30000 81365=
10513 42981 21102 10023 20011 30051 40175 58005 80008
  333 55300 20000 30000 81070=
10532 45963 80000 10006 20001 39934 40190 58004
  333 55300 20000 30000 88/80 88/81=
10544 42268 72206 11008 21008 39087 48456 56005 81508
  333 55300 81606 87270=
10554 42784 62305 10024 20005 39785 40181 57007 81536
  333 55300 20000 30000 81656 86280=
10567 45969 72005 10015 21000 39802 40187 58003
  333 55300 20000 30000 86/67 87/70 87/73=
10578 41/01 92611 11029 21029 38762 48455 58003 74944
  333 55300 20000 30000 91116 91212=
0000003800
734
UPZA02 FAPR 110000
NIL
0000008600
735
UPID01 WIIX 110000 RRA
PPAA 61001 97260 55285 35005 35008 34006 77999=
0000021000
736
UGID20 WIIX 110000 RRA
PPBB 61001 97260 90/12 00000 27504 30503 90346 33503 00506 00506
90789 36007 35508 36007 91123 35509 32508 33009 91456 34001 01003
31003 9178/ 28002 34004 920// 06505=
0000010700
737
SACN47 CWAO 110100
METAR CYWA 110100Z AUTO 13005KT 5/8SM OVC001 M04/M04 A3009 RMK
SLP200=
0000008700
738
SACN51 CWAO 110100
METAR CWVH 110100Z AUTO ///// M27/ A2958 RMK SLP058=
0000010300
739
SACN31 CWAO 110100
METAR CYQG 110100Z 15010KT 4SM BR OVC004 03/03 A2988 RMK SF8 SLP124=
0000010300
740
SACN46 CWAO 110100
METAR CYYU 110100Z 16010KT 15SM OVC012 M02/M04 A2977 RMK SC8 SLP096=
0000011500
741
SACN44 CWAO 110100
METAR CYZU 110100Z 23002KT 15SM FEW050 SCT250 M04/M08 A2956 RMK
SC2CI0 SLP054=
0000008400
742
SAMC32 GMMC 110000 RRB
METAR GMFM 110000Z 24004KT CAVOK 11/04 Q1015=
0000010800
743
SMAF95 HECA 110000 RRU
AAXX 11004
43245 32996 00000 10222 20203 30114 40141
  333 58014=
0000014800
744
SMRA15 RUHB 110000 CCA
AAXX 11001
21711 11998 21607 11379 21409 30289 40311 51001 60002 73631 80001 333
21381 48011 91010 91112=
0000043300
745
UDEU02 EGRR 110642 RRA
AMDAR 1106
LVR EU6113   6136N 00432E 110604 F390 MS490 287/018 TB/ S031=
LVR EU6113   6122N 00630E 110611 F390 MS492 283/022 TB/ S031=
LVR EU6113   6109N 00829E 110618 F390 MS487 294/019 TB/ S031=
LVR EU6113   6054N 01025E 110625 F390 MS502 287/024 TB/ S031=
LVR EU6113   6038N 01220E 110632 F389 MS507 340/023 TB/ S031=
LVR EU6113   6017N 01411E 110639 F286 MS485 290/069 TB/ S031=
0000010700
746
UANT99 KDDL 110639
ARP UAL990 57N020W 0639 F350 MS58 233/64 KT
N675UA DDL XXW 110639 F25A
0000068900
747
UDEU02 EGRR 110642 RRB
AMDAR 1106
ASC EU1790   6328N 01056E 110638 F003 MS123 266/002 TB/ S031=
ASC EU1790   6328N 01056E 110638 F005 MS120 274/003 TB/ S031=
ASC EU1790   6328N 01057E 110638 F008 MS116 084/002 TB/ S031=
ASC EU1790   6328N 01058E 110638 F012 MS121 092/007 TB/ S031=
ASC EU1790   6328N 01058E 110638 F016 MS115 061/001 TB/ S031=
ASC EU1790   6328N 01059E 110638 F018 MS120 185/003 TB/ S031=
ASC EU1790   6328N 01100E 110638 F019 MS124 122/002 TB/ S031=
ASC EU1790   6328N 01100E 110638 F020 MS125 133/005 TB/ S031=
ASC EU1790   6328N 01101E 110638 F022 MS128 135/005 TB/ S031=
ASC EU1790   6328N 01102E 110639 F023 MS129 172/005 TB/ S031=
0000011100
748
UANT99 KDDL 110639
ARP UAL987 5500N01625W 0639 F330 MS62 278/74 KT
N646UA DDL XXN 110639 F78A
0000190500
749
UDEU02 EGRR 110642 RRC
AMDAR 1106
ASC EU0461   5153N 00013E 110620 F013 PS047 293/027 TB/ S031=
ASC EU0461   5153N 00011E 110620 F021 PS025 287/030 TB/ S031=
ASC EU0461   5153N 00010E 110620 F027 PS012 284/035 TB/ S031=
ASC EU0461   5153N 00008E 110620 F032 PS005 274/039 TB/ S031=
ASC EU0461   5153N 00007E 110620 F039 MS002 276/030 TB/ S031=
ASC EU0461   5153N 00005E 110620 F042 MS007 273/027 TB/ S031=
ASC EU0461   5153N 00004E 110620 F053 MS025 265/030 TB/ S031=
ASC EU0461   5153N 00002E 110620 F064 MS050 255/034 TB/ S031=
ASC EU0461   5153N 00001E 110620 F070 MS060 249/036 TB/ S031=
ASC EU0461   5153N 00002W 110620 F091 MS100 250/037 TB/ S031=
ASC EU0461   5152N 00006W 110621 F108 MS110 268/042 TB/ S031=
ASC EU0461   5150N 00010W 110621 F119 MS112 281/053 TB/ S031=
ASC EU0461   5148N 00015W 110621 F142 MS160 270/056 TB/ S031=
ASC EU0461   5146N 00019W 110622 F161 MS212 270/060 TB/ S031=
ASC EU0461   5144N 00023W 110622 F179 MS260 273/065 TB/ S031=
ASC EU0461   5141N 00028W 110622 F195 MS300 271/065 TB/ S031=
ASC EU0461   5139N 00032W 110623 F207 MS340 269/056 TB/ S031=
ASC EU0461   5135N 00033W 110623 F217 MS362 264/054 TB/ S031=
ASC EU0461   5130N 00032W 110623 F234 MS400 254/062 TB/ S031=
ASC EU0461   5126N 00032W 110624 F247 MS415 245/057 TB/ S031=
ASC EU0461   5122N 00031W 110624 F259 MS442 249/063 TB/ S031=
ASC EU0461   5117N 00029W 110624 F275 MS475 243/061 TB/ S031=
ASC EU0461   5113N 00026W 110625 F290 MS497 239/064 TB/ S031=
ASC EU0461   5109N 00023W 110625 F303 MS520 239/069 TB/ S031=
ASC EU0461   5105N 00020W 110625 F310 MS535 239/067 TB/ S031=
ASC EU0461   5101N 00017W 110626 F310 MS532 239/068 TB/ S031=
ASC EU0461   5057N 00014W 110626 F310 MS530 240/068 TB/ S031=
ASC EU0461   5053N 00011W 110626 F310 MS530 238/065 TB/ S031=
ASC EU0461   5049N 00008W 110627 F310 MS532 237/064 TB/ S031=
0000035100
750
UGPK20 OPKC 110600
PPBB 61061 41529 90/12 00000 29003 28503 907// 31004 912// 31008 915// 32512 920// 35014= 
PPBB 6105/ 41594 NIL=
PPBB 6105/ 41661 NIL=
PPBB 61051 41675 90/12 00000 04004 02005 9037/ 02010 04518 9125/ 36021 36022=
PPBB 6105/ 41756 NIL=
PPBB 61051 41780 90/12 05004 05509 06018 9037/ 07022 01015 9125/31012 29515=
0000037300
751
SMRA40 RUHB 110600
AAXX 11061
31152 41997 83401 11337 21380 39871 40329 54000 77172 8802/=
31163 NIL=
31285 42999 22002 11273 21320 30136 40222 54000 80005=
31561 42999 81303 11279 21331 30158 40186 55003 80005=
31683 42999 02703 11188 21278 30068 40147 54000=
32010 41395 72812 11185 21197 39988 40040 54000 78583 87900 333 87709
91017 91119=
0000017000
752
SOVI10 KWAL 110641
B110070A 011064101"P9751095 B\P~W@@d0ekF1@oT???CmCn>@oY3@ID@@U4Cv5C~6bE9JR<BH2?????@"??? iTFfL@V@Y@Z@]@\@Z:AMPTEMP 26.57C  45-0NN 219E
00000000