0000010000
693
SNVF25 LFPW 110100
BBXX
BAREU65 11014 99332 70140 46/// ///// 40158 52008
22243=
0000015700
694
SSVX13 LFPW 110100
ZZYY 44863 11014 0100/ 739045 038246 6113/ 11119 40153 52016 22219
 00161 444 20130 11014 0100/ 50101 80118 80100 9/015=
0000011500
695
UACN10 CYWG 110022
WG
UA /OV CYWG /TM 0011 /FLDURD /TP J328 /IC TR MXD BLO 035 /RM ON APCH RWY 18
0000255800
696
UEIY01 LIIB 110000
TTDD 6023/ 16044
11859 61580 22834 57982 33680 56382 44591 59381 55513
53383 66421 56782 77388 52983 88366 54583 99261 51983
11193 55782 22126 51983 33103 54583
21212 11892 29536 22829 31041 33646 31038 44537 33545
55512 32539 66493 31042 77448 32553 88428 33549 99369
33040 11321 33552 22251 32545 33103 34082
31313 48006 82300=
TTDD 6023/ 16080
11801 56580 22681 59578 33621 53982 44543 57780 55506
53582 66405 56381 77283 50583 88143 55981 99102 50583
11081 53782 22073 49784
21212 11933 30028 22901 29518 33877 28022 44838 28036
55829 29037 66782 31029 77713 30031 88680 32028 99649
31535 11618 30027 22584 31520 33532 32533 44517 32521
55513 32019 66504 30021 77436 32532 88428 33028 99413
32521 11406 31520 22400 30523 33379 33032 44356 31030
55333 32048 66306 34038 77263 34034 88236 32539 99199
32545 11182 34048 22140 32564 33111 34579 44107 35077
55098 34574 66083 34594 77079 34579 88073 34591
31313 48008 82242=
16113 NIL=
TTDD 6100/ 16144
11908 60777 22561 55181 33443 57779 44336 52982 55239
54980
21212 11891 30527 22860 29030 33821 29041 44690 33032
55678 32027 66633 30538 77571 34022 88557 31526 99536
32535 11492 32518 22474 31528 33417 33539 44395 33046
55378 34040 66344 30536 77323 33545 88296 34532 99281
35041 11239 33035
31313 48108 82300=
16245 NIL=
TTDD 6023/ 16320
11809 617// 22701 579// 33575 615// 44534 567// 55475
583// 66410 551// 77275 581// 88183 555// 99154 533//
11127 463// 22102 517// 33098 515//
21212 11938 29555 22871 31547 33830 30548 44771 32046
55708 31541 66653 32020 77644 32519 88617 35020 99582
31529 11545 32537 22519 35036 33492 34544 44454 32531
55424 34043 66412 34534 77376 33047 88354 34037 99328
32531 11317 31533 22248 35054 33233 34545 44158 35561
55143 34067 66127 34553 77098 36068
31313 48008 82254=
16429 NIL=
TTDD 6023/ 16546
11952 61980 22919 62179 33764 58381 44608 60581 55454
54383 66365 57582 77206 50984 88176 52183 99142 49184
11115 50384 22104 45985 33082 46585
21212 11940 24528 22891 27020 33828 25521 44792 28019
55728 26020 66705 28023 77682 30017 88648 29010 99617
32010 11593 28013 22574 31511 33545 30012 44524 34017
55509 32511 66483 01520 77473 03012 88470 02510 99464
34506 11453 28510 22441 31011 33427 00517 44421 01020
55393 04015 66381 00508 77374 34512 88364 33017 99350
01520 11337 35522 22308 35527 33294 00538 44282 01036
55238 36026 66206 00531 77196 02038 88184 01040 99164
02037 11138 00542 22116 02066 33093 01040 44086 01053
55082 00545
31313 48008 82300=
0000081900
697
ULIY01 LIIB 110000
TTCC 60232 16044
70834 57782 31040 50047 53583 31541 30375 54383 33548
20636 55182 33054 10081 /////
88999
66103 34082 415//
31313 48006 82300=
TTCC 60231 16080
70840 58579 31031 50054 53982 30022 30382 51783 34035
20644 51783 32545 10090 50783 34574
88999
77083 34594 418//
31313 48008 82242=
16113 NIL=
TTCC 61003 16144
70839 58578 32535 50053 56780 32521 30379 53381 34535
20638 /////
88999
77999
31313 48108 82300=
16245 NIL=
TTCC 60231 16320
70840 579// 31539 50051 575// 34541 30375 561// 32539
20632 551// 34551 10083 513// 36064
88999
77999
31313 48008 82254=
16429 NIL=
TTCC 60231 16546
70847 58981 28522 50059 56782 33511 30384 53983 36035
20646 51383 01533 10098 46785 02049
88952 61980 24524
77116 02066 42417
31313 48008 82300=
0000050600
698
UEDL02 EDZW 110000 RRA
TTDD 1023/ 10393
11893 55582 22710 61578 33612 56782 44543 54982 55472
59181 66383 55582 77300 60580 88231 57382 99220 54383
11157 57382 22137 62579 33135 62579 44126 58181 55117
57782 66104 61380 77076 51583 88050 60180 99048 60180
21212 11923 31020 22728 31525 33696 32535 44597 33029
55527 32028 66514 31528 77468 32533 88336 31038 99221
32549 11206 32548 22175 32060 33149 33057 44097 33082
55082 33077 66048 33097 77048 33097
31313 48008 82249=
0000124500
699
SMUZ10 UTTW 110000
AAXX 11001
38141 42598 82003 10002 21054 30047 40209 57001 885// 555 14101=
38149 42598 80000 11006 21054 30132 40210 57001 885// 555 14102=
38178 429// 01604 11058 21119 39933 40232 57011 555 1/106=
38262 426// 80000 11038 21083 30152 40237 57006 885// 555 14107=
38264 41696 60000 11047 21060 30114 40210 57004 71011 86500 333 0/105
555 1/106=
38396 42996 32002 11032 21056 30090 40220 57005 83030 333 04105 555
14106=
38403 429// 00000 11008 21087 30093 40217 57005 555 14107=
38413 429// 01903 10019 21031 39958 40255 53002 555 11102=
38457 42997 30902 11023 21092 39668 40278 57018 80001 555 1/110=
38462 429// 00000 11078 21257 38811 48531 57018 555 1/114=
38565 329// 00000 11051 21068 39659 40271 57012 555 14109=
38579 NIL=
38583 31995 00501 11043 21052 39942 40280 57014 71000 333 04106 555
14104=
38611 41/93 90000 11076 21085 39738 40347 57015 74544 333 10007=
38618 429// 00000 11080 21086 39591 40324 57017 333 0/109 555 1/108=
38683 41996 41404 11031 21055 39971 40260 57010 71000 80001 333 00106
555 10106=
38696 NIL=
38812 41996 00801 11033 21050 39788 40262 57012 71000 555 14106=
38927 31924 00302 11037 21045 39909 40305 57011 71040 555 14104 =
0000003800
700
UKTR10 UTAA 110000
NIL
0000003800
701
USTR10 UTAA 110000
NIL
0000012800
702
SMUZ10 UTTW 110000 RRA
AAXX 11001
38579 329// 31501 11021 21084 39825 40259 58016 80001 333 04103 555
14103=
0000062600
703
USAA01 NZCM 110000
TTAA 61001 89664
99997 00056 18501 00512 ///// ///// 92601 07158 18518
85255 11341 17017 70716 21114 15006 50514 33959 24513
40666 44759 24520 30855 51765 24023 25975 45585 24514
20124 43786 24513 15318 43586 26009 10592 41586 23504
88320 52361 23026
77999
31313 48008 82219=

0000069700
87361=
0000011200
87368
0000009600
87371
0000035800
87378
0000037300
87381
0000039400
87385=
0000043700
87428
0000047800
87442=
0000052100
87533
0000058300
87555
0000060400
87612=
0000058500
88071
0000056500
88360
0000066800
88611=
0000060600
704
USAA01 NZCM 110000
TTAA 61001 89664
99997 00056 18501 00512 ///// ///// 92601 07158 18518
85255 11341 17017 70716 21114 15006 50514 33959 24513
40666 44759 24520 30855 51765 24023 25975 45585 24514
20124 43786 24513 15318 43586 26009 10592 41586 23504
88320 52361 23026
77999
31313 48008 82219=

0000069700
87361=
0000011200
87368=
0000015000
87382=
0000030600
87414
0000014800
87423=
0000050000
87499
0000062400
87518
0000056300
87544=
0000054300
87877=
0000058600
88901
0000062700
89320
0000060700
89878
0000062800
90795
0000009600
705
SAIN90 VEGT 110630
METAR VEGT 110630Z 04004 KT 2000 HZ SCT100 22/14 Q1017 NOSIG=
0000010200
706
SPIN90 VOHS 110639
SPECI VOHS 110639Z 14007KT 5000 HZ FEW020 SCT200 28/14 Q1017 NOSIG=
0000046700
707
SZPA01 AMMC 110639
CREX++
T000103 A001 D01021 D06025++
0136250 17293000 67590 2014 01 11 06 32 3017 11 07 00 01
01504 0060 01497 0056 01498 0061 01481 0047 01496 0065 01488 0060+
0710610 17137250 67680 2014 01 11 06 32 3013 11 07 00 01
00950 0126 00945 0123 00942 0122 00936 0118 00936 0120 00934 0120+
0698060 15820000 67950 2014 01 11 06 32 3023 11 07 00 01
00723 0017 00716 0012 00712 0010 00715 0015 00715 0017 00710 0014++
7777

0000028300
708
SXHW11 KWAL 110639
15D13434 011063913"
1,140111,05:30:00,5.5,76,12.8,0.0,1014.3,0.00,13.0,
1,140111,05:45:00,7.5,84,13.9,0.0,1014.3,0.00,13.0,
1,140111,06:00:00,7.7,88,13.1,0.0,1014.6,0.00,13.0,
1,140111,06:15:00,6.6,85,11.2,0.0,1014.8,0.00,13.0, 49-0NN  30W
0000285300
709
SMRA13 RUNW 110600
AAXX 11061
20046 11498 72404 11099 21107 30083 40113 57003 69900 70232 8653/ 333
21159=
20069 41865 81902 11215 21234 30153 40173 58008 77172 8802/=
20087 41996 81501 11247 21270 30189 40200 57005 77172 8802/ 333
93535=
20292 42998 01001 11289 21307 30196 40217 57006=
20353 46/// /1405 11230 21509 30175 40180 52006=
20471 42998 50302 11332 21369 30153 40172 58007 82031 333 93583=
20476 42998 61302 11358 21393 30152 40168 57002 80001=
20667 31998 03504 11287 21314 30151 40159 52011 70230 333 21270=
20674 41997 80901 11274 21302 30070 40135 52005 77173 8807/=
20744 42998 20000 11264 21328 30194 40214 52003 80001=
20871 41998 21304 11313 21336 30121 40129 53018 70231 82030 333
91111=
20891 42998 21402 11304 21321 30119 40166 53004 82040=
20946 42998 03303 11271 21298 30189 40204 52007=
20967 41998 53405 11301 21329 30089 40114 52021 70273 82031 333 21301
80014=
20978 41896 61506 11326 21355 30084 40126 52011 73673 84041 333 91011
91111 96110=
23022 42997 22702 11300 21328 30132 40202 52008 80001 333 21300=
23032 41596 32905 11247 21271 30125 40160 52015 73683 83500 333 91110
96110=
23058 41997 32807 11293 21321 30079 40084 52020 73631 83030 333 21293
91110=
23174 41897 81806 11322 21352 77173 8807/=
23179 41998 22103 11304 21334 30063 40196 5//// 70271 80001=
23242 41996 32707 11290 21307 30129 40146 52017 73631 83030 333 21292
91112 91110=
23256 41996 32309 11328 21364 30111 40151 52014 73873 80001 333 91012
91113=
23330 42997 21401 11395 21422 30173 40197 52016 80001 333 21400=
23345 42997 02707 11334 21362 30179 40189 52020=
23376 NIL=
23445 42997 22002 11375 21418 30181 40211 52017 82030 333 21376=
23463 42998 0//// 11368 21404 30164 40223 5////=
23527 41997 83202 11273 21298 30148 40189 53007 77172 8802/=
23552 41996 62201 11374 21401 30184 40224 52010 70411 80001 333
21380=
23631 42999 60702 11283 21313 30137 40183 57003 86030=
23662 42998 00000 11361 21390 30182 40233 52008 80001 333 21386=
23724 42999 80101 11213 21231 30086 40156 53003 8805/=
23734 41996 80901 11206 21231 30069 40167 57003 77172 8807/=
23774 NIL=
23776 41899 81401 11135 21162 30156 40223 52007 70272 8801/=
23849 41650 80702 11200 21225 30111 40192 57005 77172 8352/ 333
83641=
23867 41997 80000 11131 21144 30139 40214 52011 77172 8807/ 333
21165=
23933 41996 80301 11191 21219 30102 40162 57004 77172 8807/=
28064 41496 81502 11045 21058 30033 40122 52004 77372 8802/=
28275 41598 81604 11058 21076 30102 40163 53009 73683 889// 333
21058=
28493 42498 81903 11054 21079 30125 40219 52005 885// 333 88612=
28698 41566 81803 11080 21107 30081 40241 53003 70272 8355/ 333
21080=
29059 41897 80000 11085 21104 30103 40237 52003 77172 8807/=
29558 42599 82602 11054 21123 39901 40311 51008 83981=
0000234500
710
SMRA14 RUNW 110600
AAXX 11061
23339 42999 21401 11352 21380 30149 40201 52016 82072=
23358 41997 32505 11375 21405 30111 40202 51010 70400 80001 333
21389=
23426 42989 20000 11400 21427 30165 40193 52009 81031=
23431 42999 00902 11395 21429 30173 40198 52011=
23443 41997 22303 11371 21401 30130 40206 52015 70270 82030 333
21381=
23453 42998 02002 11380 21415 30168 40204 52009=
23465 42998 01803 11351 21380 30178 40214 52007=
23471 41956 80603 11133 21153 30123 40196 57006 77172 8802/=
23625 41996 82901 11264 21295 30133 40170 57001 77171 8802/=
23635 42997 71102 11315 21338 30090 40213 53002 84031=
23656 42998 80000 11339 21375 30141 40238 52011 84013 333 21371=
23657 42998 50901 11270 21298 30044 40229 52003 85030=
23741 42998 80802 11244 21276 30088 40207 53001 8801/=
23748 42998 80502 11260 21284 30117 40211 52002 83031=
23758 42997 80402 11284 21308 30127 40224 52006 86031=
23823 41997 80601 11190 21216 30012 40163 57002 77072 8802/=
23847 41997 80402 11207 21236 30140 40186 53001 77172 8807/=
23862 41997 30000 11212 21230 30110 40207 52014 70271 80008 333
21176=
23929 41576 80902 11104 21117 30055 40125 57005 70282 84931 333
21104=
23939 41596 80702 11090 21101 30104 40146 58006 78582 883//=
23946 41597 80502 11089 21109 30117 40182 57005 78588 889//=
23947 41995 81002 11064 21072 30087 40156 57006 77372 8802/=
28076 41496 80000 11039 21044 30077 40150 52003 77172 8872/=
28097 41996 81701 11040 21052 30097 40176 57002 77172 8807/=
28165 41497 81702 11044 21050 30027 40131 52002 77172 8872/=
28366 41996 81903 11065 21093 30093 40161 52011 77872 8802/ 333
21066=
28367 41996 81603 11069 21089 30021 40152 52009 70282 8802/ 333
21071=
28382 41458 81603 11057 21087 30112 40184 52002 71022 886// 333
21058=
28481 41996 81903 11061 21088 30090 40191 58005 77172 8802/=
28491 42970 81903 11055 21077 30093 40206 52007 8802/=
28465 41999 81806 11072 21085 30084 40163 52004 70271 8802/=
28573 41996 82205 11063 21086 30086 40193 53002 77173 8801/=
28593 41997 81804 11065 21085 30132 40233 52003 77172 8802/ 333
21073=
28786 41996 81804 11076 21094 30070 40233 57004 77172 8802/=
28797 42997 81905 11103 21123 30081 40246 53001 86051 333 21105=
28799 41998 71804 11095 21121 30120 40271 52001 70232 87070 333
21097=
0000011000
711
UANT99 KDDL 110638
ARP KAC118 5341N02414W 0638 F330 MS60 225/90 KT
9KAOA QXT AOE 110638 F21A
0000011000
712
UANT99 KDDL 110638
ARP AZA605 4959N01643W 0638 F390 MS55 250/51 KT
EIEJP QXT AOE 110638 J64A
00000000