0000016300
653
SMVA10 EHDB 110600 RRD
BBXX
9V2004 11064 99006 30586 41698 60212 10310 20242 40127 50003 70300
84442 22244 04270 20302 30403 40802 50802 80260=
0000014200
654
SMRS10 RUMS 110600 CCA
AAXX 11061
26898 11458 82604 10020 20015 39678 49941 53017 60012 78082 8695/ 333
20014 86918 91110=
0000007300
655
UHNF01 AMMC 110600
PPCC 61053 94996 44170 30004 77999=

0000013800
656
SNVD22 KWNB 110700 RRA
BBXX
46237 11071 99378 71226 46/// ///// 1//// 90631 22200 00109 11304
21002 328// 41304 70021=
0000023900
657
SMMG01 FMMI 110000 RRB
AAXX 11004
67072 33980 50000 10263 20247 30119 40122 56017 80006
  333 0//00 85075 92418=
67113 31460 7//// 10270 20256 30/// 40/// 5//// 715// 879//
  333 0//00 84817 81917 87633 94995 95835=
0000013800
658
SMMC02 GMMC 110600 CCA
AAXX 11064
60210 12565 60213 10090 20047 38985 48492 58010 60054 83270
  333 20083 83826 85458=
0000071700
659
SMIN90 VECC 110600 RRA
AAXX 11064
42807 31996 03201 10250 20134 40167 70500
  333 59001=
42708 31996 00203 10234 20154 40175 70500
  333 59001=
42706 31995 00702 10228 20123 40166 70500
  333 59001=
42403 31995 62904 10180 20118 40191 70511 86050
  333 58017=
43333 31495 70706 10292 20234 40134 70521 86401
  333 56109 58009 83616 84818 86070=
42503 31593 83203 10176 20130 40195 74454 8552/
  333 58013=
42399 21395 80000 10160 20124 40194 76160 8672/
  333 58024 6992/=
42811 32696 23401 10240 20138 40172 81430
  333 59003=
42901 32996 01102 10254 20159 40165
  333 58002=
42299 21395 80000 10076 20034 38227 48539 72022 8763/
  333 58014 6990/ 81709 86617=
0000009200
660
SAIN90 VIGG 110630
METAR VIGG 110630Z 21004KT 5000 HZ FEW035 16/03 Q1020=

0000110800
661
SMIN90 VANP 110600 RRA
AAXX 11064
42874 31996 12703 10248 20160 40153 70500 80001
  333 58002 81075=
43041 31996 02703 10268 20154 39538 40148 70500
  333 59002=
42693 31595 61802 10218 20157 39467 40151 70532 83530
  333 59008 83620 85360=
42779 31596 42306 10226 20159 39446 40141 70522 82502
  333 59007 82620 83075=
42571 31594 83202 10156 20146 40169 71044 8653/
  333 58005=
42763 21595 70000 10154 20140 39829 40183 70522 83530
  333 58028=
42671 31995 00502 10180 20125 39538 40168 70542
  333 58014=
42559 32596 63601 10132 20125 40185 83530
  333 58023 83620 86360=
42567 31/92 92905 10158 20151 40176 74544 89///
  333 58006=
42754 31495 40708 10162 20113 39523 40172 70542 83530
  333 58026 83615=
42667 31995 00208 10156 20113 39576 40180 71044
  333 58023=
42361 31994 03203 10158 20083 40193 71044
  333 58015=
42675 31493 83603 10160 20146 40171 74644 886//
  333 58012 88710=
42867 31595 72305 10246 20165 40151 70544 82577
  333 58007 82625 84360 86270=
42933 32997 32902 10236 20066 40159 80001
  333 58018 83075=
0000052300
662
SAMS31 WMKK 110630
METAR WBGG 110630Z 35010KT 320V040 9999 FEW015CB SCT020 BKN150 28/23
Q1010 NOSIG=
METAR WBKK 110630Z 12003KT 9999 -RA FEW013 FEW017CB SCT035 OVC260 
27/24 Q1009 NOSIG=
METAR WBSB 110630Z 31007KT 9999 FEW016 FEW017CB BKN280 30/25 Q1010
NOSIG=
METAR WMKK 110630Z 30003KT 9999 SCT018 BKN280 31/24 Q1009 NOSIG=
METAR WMKP 110630Z 02009KT 330V100 9000 FEW020 BKN140 BKN270 28/23 
Q1010 NOSIG=
METAR WSSL 110630Z NIL=
METAR WSSS 110630Z VRB05KT 9999 FEW020TCU SCT024 BKN300 31/24 Q1009 
NOSIG=

0000263500
663
SMIN50 VIDP 110600
AAXX 11064
00010 31995 22904 10167 20086 40198 70540 82031
  333 58017=
42027 31595 83201 10016 21017 38494 48579 70522 8452/
  333 58016=
42044 32595 80000 10024 21023 38352 48595 8352/
  333 58064=
42045 32696 13603 10046 21069 38426 48558 81100
  333 58046=
42056 32996 01401 10160 20028 39750
  333 58018=
42071 31995 02905 10128 20093 40210 71000
  333 58015=
42079 32996 00000 10127 20051 39203 48533
  333 58015=
42081 32496 31802 10094 20028 38964 48535 83700
  333 56400 58002 83715=
42083 32697 30000 10050 20014 4//// 83500
  333 58010 83640=
42099 31994 03402 10148 20051 40202 70540
  333 58014=
42101 31995 00000 10140 20071 40200 70500
  333 58013=
42103 31995 30000 10150 20068 40200 70511 83030
  333 58014 83360=
42111 31596 32702 10134 20078 39393 40178 70162 81130
  333 58007 81830 83360=
42114 31195 51401 10064 20026 38119 70542 83730
  333 58001 81701 83605 85346=
42123 31995 00000 10160 20062 40215 70500
  333 58018=
42131 32996 02702 10154 20064 40208
  333 58025=
42147 21092 80503 11004 21004 37763 77297 887//
  333 59008 6003/ 88700=
42148 21596 60902 10160 20108 39913 70552 83420
  333 58007 6990/ 82620 86459=
42165 31995 00000 10152 20028 40213 70500
  333 58039=
42170 32996 20502 10162 20048 40209 80001
  333 58030 84070=
42181 31994 02906 10128 20075 40199 70500
  333 58012=
42182 31993 02908 10138 20099 40198 71144
  333 58018=
42189 31695 70503 10152 20123 40189 71022 85520
  333 58006 85625 87460=
42260 32995 03205 10156 20118 40195 71040
  333 58015=
42273 21595 80000 10154 20136 40181 70562 8652/
  333 58003 6990/ 86620 88459=
42328 32996 30503 10150 20019 40221 83030
  333 58036 83360=
42339 31995 60503 10156 20034 40212 70500 82031
  333 58043 82358 85070=
42343 31995 10204 10150 20006 40191 70500 80001
  333 58017=
42348 31996 33605 10170 20012 40193 70500 80001
  333 58029 83070=
42369 31/93 93603 10146 20128 40186 74544 89///
  333 59001=
42377 21594 80902 10158 20155 40180 71062 8452/
  333 59005 6990/ 84625 88460=
42379 21595 82702 10172 20117 40186 72996 8692/
  333 5669/ 58009 6993/ 86620 81925 88458=
42435 32996 40501 10152 20040 40236 80001
  333 58039 84070=
42452 31994 00502 10150 20083 40202 70544
  333 58028=
42463 31995 03202 10148 20102 40195 70540
  333 58017=
42475 31/93 90904 10174 20167 4//// 74344 89///
  333 58///=
42479 21594 51405 10178 20168 40173 71092 83330
  333 59003 6008/ 83620 81930 84360=
42542 31995 00506 10150 20059 39600 40196 70500
  333 58024=
0000098200
664
SMIN44 DEMS 110600
AAXX 11064
42314 31996 33605 10224 20109 40173 70500 82031
  333 58005 82360=
42404 31496 70000 10168 20132 40176 70521 83430
  333 59001 83618 86360=
42500 21595 80000 10144 20140 40204 76162 8452/
  333 58022 6002/ 84620 88458=
42503 31593 83203 10176 20130 40195 74454 8552/
  333 58013=
42515 32596 40000 10192 20035 38732 48544 81530
  333 58017=
42516 32396 53203 10144 20038 38432 48528 83430
  333 58008=
42619 31996 00502 10200 20160 40157 70500
  333 59001=
42883 32996 02702 10268 20172 40145
  333 59002=
42973 31995 00000 10268 20157 40173 70500
  333 59003=
43053 32996 00503 10264 20186 40167
222// 20701
  333 58002=
42295 NIL=
42316 NIL=
42383 NIL=
42407 NIL=
42420 NIL=
42511 NIL=
42523 NIL=
42527 NIL=
42588 NIL=
42599 NIL=
42603 NIL=
42727 NIL=
42795 NIL=
42803 NIL=
42903 NIL=
42961 NIL=
42969 NIL=
43097 NIL=
43309 NIL=
43382 NIL=
43385 NIL=
0000011000
665
UANT99 KDDL 110635
ARP QTR708 5453N04145W 0635 F290 MS55 302/48 KT
A7BAN QXT AOW 110635 F18A
0000011000
666
UANT99 KDDL 110636
ARP DLH465 4632N03237W 0636 F370 MS47 210/35 KT
DABVY QXT AME 110636 F03A
0000011100
667
UANT99 KDDL 110636
ARP UAL972 5600N01913W 0636 F370 MS57 244/70 KT
N777UA DDL XXW 110636 F37A
0000011000
668
UANT99 KDDL 110636
ARP QTR714 5804N04234W 0636 F330 MS59 252/30 KT
A7BBF QXS UAK 110636 F49A
0000011000
669
UANT99 KDDL 110636
ARP BAW214 5139N02442W 0636 F330 MS62 209/78 KT
GCIVN QXT AOE 110636 F23A
0000010000
670
SMAA01 KARS 110600 RRB
AAXX 1106/
89108 46/// ///// 11199 37007 4//// 5//// 90610=
0000132500
671
SMCD01 FTTJ 110600
AAXX 11064
64701 33960 00410 10141 20030 3//// 4////
  333 0//00 2//// 51754 55/// 5////=
64702 33960 31814 10224 20071 3//// 4//// 80002
  333 0//00 2//// 5//// 55/// 5//// 83075=
64705 31958 70000 10125 20024 3//// 4//// 705// 80002
  333 0//00 2//// 50624 55/// ///// 5//// 87075=
64706 33960 53608 10181 21010 39671 40047 82032
  333 01500 20160 51244 55100 58010 82365 84075=
64708 NIL=
64709 NIL=
64710 33960 50000 10130 20022 3//// 4//// 80002
  333 0//00 20120 50954 55/// 5//// 85075=
64713 33960 70000 10150 20046 3//// 4//// 80002
  333 0//00 20144 50604 55/// 5//// 87075=
64722 33960 40000 10170 20074 3//// 4//// 80002
  333 0//00 20145 50604 5//// 55/// ///// 84075=
64751 33960 40404 10130 21014 3//// 4//// 80002
  333 0//00 20104 51654 55/// 5//// 84075=
64753 33960 00408 10140 20000 3//// 4////
  333 0//00 29125 50884 55/// 5////=
64754 33960 50404 10172 20021 3//// 4//// 80002
  333 0//00 20125 50634 55/// 5//// 85075=
64756 33960 51015 10153 20043 39541 4//// 80002
  333 0//00 20145 5//// 55098 58017 85075=
64757 31958 10408 10138 20046 3//// 4//// 705// 80001
  333 0//00 20112 51564 55095 5//// 81075=
64758 33960 30000 10150 20045 3//// 4//// 80002
  333 0//00 20135 51554 55/// 5//// 83075=
64761 NIL=
0000016000
672
SSVX12 KARS 110635
ZZYY 72808 11014 0600/ 565327 172309 6113/
11119 10013 49966 57009
22219 00009
444 20130 11014 0607/ 501// 80140 80000=
00000000