0000056300
473
UQIN40 DEMS 110600
PPDD 6106/ 42103 NIL=
PPDD 6106/ 42111 NIL=
PPDD 6106/ 42165 NIL=
PPDD 6106/ 42189 NIL=
PPDD 6106/ 42273 NIL=
PPDD 6106/ 42348 NIL=
PPDD 6106/ 42382 NIL=
PPDD 6106/ 42475 NIL=
PPDD 6106/ 42498 NIL=
PPDD 6106/ 42542 NIL=
PPDD 6106/ 42634 NIL=
PPDD 6106/ 42675 NIL=
PPDD 6106/ 42704 NIL=
PPDD 6106/ 42798 NIL=
PPDD 6106/ 42874 NIL=
PPDD 6106/ 42886 NIL=
PPDD 6106/ 42909 NIL=
PPDD 6106/ 43049 NIL=
PPDD 6106/ 43063 NIL=
PPDD 6106/ 43201 NIL=
PPDD 6106/ 43237 NIL=
PPDD 6106/ 43344 NIL=

0000014400
474
SMVA01 DEMS 110600
BBXX
A8HS3 11063 99139 10517 41797 60917 10265 20223 40190 53005 70222
 83562 22224 04253 20605 80235=

0000011000
475
UANT01 CWAO 110624
ARP UAE216 5900N05540W 0623 F350 MS55 276/49 KT
A6EEP DDL XXH 110624 J86A
0000011000
476
UANT01 CWAO 110624
ARP AFR011 4645N03644W 0624 F390 MS50 262/46 KT
FGZCM QXT AOW 110624 J72A
0000010900
477
UANT01 CWAO 110624
ARP EDW5L 4812N03433W 0624 F380 MS50 228/34 KT
HBJHQ QXT AOW 110624 J66A
0000011000
478
UANT01 CWAO 110624
ARP BAW23T 5245N05108W 0624 F370 MS67 289/73 KT
GVIIF QXS YAY 110624 F05A
0000011000
479
UANT01 CWAO 110624
ARP ETD100 5014N04416W 0624 F330 MS61 323/81 KT
A6ETL QXT AOW 110624 F14A
0000012300
480
SMSW23 LSSW 110600 RRA
AAXX 11064
06782 43/// ///// 1//// 2//// 3//// 5////
  333 4/015 90768 93100=

0000036000
481
SMSW23 LSSW 110600 CCA
AAXX 11064
06794 02969 80503 10008 21017 38967 48507 57005 60002 8802/
  333 20007 3/101 43010 55002 55300 20000 60005 70000 88461 90768
      93100 91105 91204=
06792 02670 81902 11074 21085 38292 48516 55001 60002
  333 21079 3/110 47068 55000 55300 20000 60005 70000 88736 90768
      93100 91108 91204=

0000011100
482
UANT01 CWAO 110624
ARP AWE704 4815N03418W 0624 F360 MS50 223/32 KT
N276AY DDL XXN 110624 J70A
0000011000
483
UANT01 CWAO 110624
ARP BAW186 4818N04356W 0624 F410 MS57 308/53 KT
GZBJD QXT AOW 110624 L30A
0000011000
484
UANT01 CWAO 110624
ARP AAL50 5140N03712W 0624 F340 MS55 238/20 KT
N726AN DDL XXW 110624 F49A
0000011100
485
UANT01 CWAO 110625
ARP DAL615 5801N03940W 0624 F360 MS58 257/28 KT
N185DN QXT AOW 110625 F10A
0000011100
486
UANT01 CWAO 110625
ARP GTI609 5053N04031W 0625 F370 MS55 303/33 KT
N851GT DDL XXH 110625 F35A
0000034300
487
SNVD15 KWNB 110400 RRX
BBXX
42369 11041 99272 70903 46/// /1506 1//// 90420=
42375 11041 99285 70883 46/// /1410 1//// 90420 22200 10401 70007
555 11084 22091=
42392 11041 99272 70900 46/// ///// 1//// 90420 22200 10402 70008=
42887 11041 99282 70885 46/// /1707 10223 20208 90420 22200 10602
70009 555 11061 22066=
0000013600
488
SMRS11 RUMS 110600 RRC
AAXX 11061
22481 41596 80805 11213 21237 30052 40104 54001 78583 889// 333 88920
91010 91111=
0000026400
489
SMKZ01 UAAA 110600 RRA
AAXX 11061
35925 11596 82502 10007 21001 40197 53010 69900 71022 886// 333  
20002=
38001 32997 80502 10032 20003 30184 40154 57006 8807/ 333   20018=
38232 31/92 91603 11016 21017 30103 40204 53001 74540 333   21012=
0000044800
490
SMVE01 AMMC 110600 RRA
BBXX
JPAT 11064 99320 31149 41798 11717 10242 20189 40119 57013 70200
81045 22263 00226 10708 20401 320// 40704=
VROC 11063 99245 31543 41298 41012 10230 20216 40151 55/// 70311
83144 22200 20201 309// 40303 80220=
ZM2619 11063 99440 51790 41/98 22219 10145 20117 40129 54000 70211
22222 29901 322// 40805 80120=
VNAH 11064 99383 31416 46/// /1910 10178 20107 30190 40214 57003
22200 85137=

0000080200
491
SMFJ01 NFFN 110600
AAXX 11064
91650 NIL=
91652 14/// /3303 10266 20238 39978 40051 50008 60021=
91656 NIL=
91659 11599 31314 10282 2022/ 40048 53004 60001 70310 81870
  333 5639/ 81826=
91660 NIL=
91669 14/// /1603 10288 20212 30035 40048 50008 60001=
91670 14/// /1809 10295 20244 30039 40045 50001 60001=
91676 14/// /2206 10272 20236 39973 40033 50011 60001=
91680 11699 11609 10284 20216 40049 53007 60001 70200 81800
  333 569// 81830=
91682 14/// /1703 10279 20216 30052 40063 50003 60001=
91683 11599 51908 10277 20226 40055 53006 60001 70222 85800
  333 564// 85822=
91691 14/// /1804 10283 20257 30037 40040 50010 60001=
91693 NIL=
91697 14/// /1804 10250 20225 30047 40052 50006 60011=
91699 14/// /1708 10264 20238 30010 40042 50010 60001=
0000012000
492
SMTH43 VTBB 110600 RRD
AAXX 11064
48350 32663 21403 10283 20170 39854 40151 57036 82100
  333 59002=
00000000