0000008700
673
UAJP71 RJFF 110633
PIREP
KRE F320 SMTH 264/150KT MS38 AT 0633 BY B735
0000011000
674
UANT01 CWAO 110636
ARP UAE212 5925N03632W 0636 F330 MS61 223/32 KT
A6ECV DDL XXW 110636 F35A
0000011000
675
UANT01 CWAO 110636
ARP UAL49 6211N05523W 0635 F360 MS56 256/21 KT
N77019 DDL XXN 110636 F58A
0000011000
676
UANT01 CWAO 110636
ARP DLH415 4912N04435W 0636 F390 MS58 300/58 KT
DAIKE QXT AME 110636 J83A
0000015600
677
SMMG20 FMMI 110600 RRA
AAXX 11064
67037 32582 6//// 10/// 20/// 30088 40129 5/010 84202
  333 0//00 10/// 20/// 50//4 55/// 84820 83073=
0000009400
678
UAJP71 RJFK 110634
PIREP
JJP353 20NM N OF ALC AT 0634 F240 SMTH COND BY A320
0000010100
679
UAJP71 RJFF 110636
PIREP
40NM E OF HGE F200 LGTP TURB 270/60KT MS24 AT 0636 BY A320
0000015400
680
SSVX02 LFVW 110637
ZZYY 23598 11014 0450/ 114626 083097 6111/
11119 40183 52014
22219 00263
444 20110 11014 0439/ 503// 80108 80010=
0000013100
681
SMTU11 LTAA 110600 CCA
AAXX 11064
17210 12970 00000 10023 21008 39173 40231 52015 60002
 333 21010 31106 55014=
0000200100
682
SMCI36 BABJ 110600
AAXX 11061
56144 32780 51101 10057 21175 36828 57033 85/// 333 00251
21070=
56152 32680 62705 11003 21158 36276 57022 86/// 333 00353
21164=
56167 32780 32701 10080 21171 37041 57047 83/// 333 00251
21108=
56182 11771 71101 10002 21087 37153 57031 69901 72270 87///
333 00551 21077=
56357 32980 02704 10046 21244 36429 57025 333 00200 21129=
56586 11462 80202 10000 21035 38078 57027 69901 70070 88///
333 00756 21024=
56748 32973 02504 10179 21009 38372 57029 333 00100 20026=
56763 32980 02501 10243 21001 40106 57041 333 00251 20078=
56768 32680 02507 10172 21041 38187 57028 333 00200 20035=
56838 31670 01802 10170 20104 40198 57031 70040 333 00100
20074=
56886 32678 02207 10187 20025 38304 57034 333 00201 20041=
56946 32680 03601 10208 20071 40181 57036 333 00151 20045=
56959 32765 10701 10236 20140 40163 57040 81/// 333 00151
20116=
56969 31580 22001 10250 20156 40163 57038 70040 82/// 333
00101 20134=
57731 32670 83201 10065 20020 40292 57030 88/// 333 20037=
57766 11458 80402 10042 20035 40297 57026 69971 76060 88///
333 20038=
57845 11758 80401 10043 20028 40289 57030 69921 76066 88///
333 20036=
57853 11440 80401 10047 20038 40296 57029 69941 76066 88///
333 20040=
57916 32563 81101 10099 20045 40259 57036 88/// 333 20073=
57922 32568 83603 10037 20013 39075 40279 57029 88/// 333
20011=
57932 11358 80000 10066 20044 39931 40285 57033 69911 76060
88/// 333 20052=
58338 11450 80201 10047 20040 40288 57024 60021 76066 88///
333 20041=
59007 32667 80202 10112 20086 38793 40214 57032 88/// 333
20060=
59046 11431 83403 10081 20067 30134 40255 57025 60011 76066
88/// 333 20080=
59058 11823 83404 10091 20071 30024 40248 57025 69901 71060
88/// 333 20091=
59072 31758 80205 10128 20066 30086 40247 57028 70500 88///
333 20095=
59087 32962 03402 10210 20086 40221 57040 333 20078=
59209 11467 83602 10131 20108 40215 57029 69921 76066 88///
333 20095=
0000011600
683
SZOC45 AMMC 110638
DART 55042P 011063859

D$0 01/10/2014 13:05:36 4450.2837 S 16144.3174 E 037* 5C
0000008600
684
SAIN90 VECC 110600
METAR VEJS 110600Z 05004KT 1500 FU NSC 23/13 Q1016=
0000003900
685
SMKP01 VDPP 110600
NIL=
0000049800
686
SZOC41 AMMC 110639
DART 55015P 011063903


D$1I 01/11/2014 00:15:00 1364142 5019558 5019508 5019467 5019430  2* 38
D$1I 01/11/2014 01:15:00 1364142 5019399 5019373 5019352 5019337  1* 3A
D$1I 01/11/2014 02:15:00 1364142 5019328 5019328 5019333 5019347  1* 3D
D$1I 01/11/2014 03:15:00 1364142 5019366 5019392 5019422 5019456  2* 34
D$1I 01/11/2014 04:15:00 1364142 5019496 5019539 5019583 5019632  2* 36
D$1I 01/11/2014 05:15:00 1364142 5019684 5019737 5019785 5019834  1* 35
0000216600
687
SZNZ01 NZKL 110639
CREX++
T000103 A001 D01021 D06025++
-3683144 17478654 AUCT  2014 01 11 06 31 //// 11 07 00 01
05050 3129 05045 3132 05038 3134 05031 3136 05023 3137 05017 3140+
-4402404 -17636748 CHIT  2014 01 11 06 31 //// 11 07 00 01
04401 2003 04390 1994 04352 1958 04362 1970 04373 1982 04370 1980+
-4089929 17623168 CPIT  2014 01 11 06 31 //// 11 07 00 01
03337 2270 03332 2268 03328 2267 03338 2280 03335 2281 03330 2280+
-3618905 17548887 GBIT  2014 01 11 06 31 //// 11 07 00 01
05651 -0006 05645 -0007 05656 0010 05660 0020 05662 0027 05649 0020+
-3867541 17802288 GIST  2014 01 11 06 31 //// 11 07 00 01
03584 2727 03572 2720 03577 2730 03569 2726 03583 2744 03568 2733+
-4241288 17370277 KAIT  2014 01 11 06 31 //// 11 07 00 01
02695 2206 02701 2214 02695 2211 02705 2222 02680 2200 02674 2197+
-3755040 17815904 LOTT  2014 01 11 06 31 //// 11 07 00 01
03232 0216 03212 0202 03207 0201 03208 0208 03187 0192 03214 0225+
-3704657 17451175 MNKT  2014 01 11 06 31 //// 11 07 00 01
03462 -0140 03459 -0143 03465 -0137 03446 -0156 03454 -0148 03440 -0162+
-3947566 17692007 NAPT  2014 01 11 06 31 //// 11 07 00 01
02538 2063 02523 2052 02532 2064 02510 2046 02518 2059 02525 2070+
-3441483 17304870 NCPT  2014 01 11 06 31 //// 11 07 00 01
00168 -4366 -00246 -4774 -00360 -4883 -00378 -4895 -00299 -4810 -00391 -4897+
-4581435 17062939 OTAT  2014 01 11 06 31 //// 11 07 00 01
03783 3444 03783 3443 03782 3442 03780 3440 03780 3439 03780 3438+
-2928002 -17789440 RBCT  2014 01 11 06 31 //// 11 07 00 01
05952 2042 05938 2032 05942 2040 05945 2048 05940 2047 05932 2042+
-2925114 -17790384 RFRT  2014 01 11 06 31 //// 11 07 00 01
02864 0224 02857 0221 02844 0212 02853 0225 02871 0248 02849 0229+
-4357010 17277383 SUMT  2014 01 11 06 31 //// 11 07 00 01
01131 1821 01138 1830 01132 1827 01134 1831 01142 1842 01133 1835+
-3764109 17618118 TAUT  2014 01 11 06 31 //// 11 07 00 01
05000 4001 04995 4001 04988 4000 04984 4001 04975 3998 04966 3996+
-4128448 17477985 WLGT  2014 01 11 06 31 //// 11 07 00 01
02706 2100 02705 2102 02690 2088 02690 2091 02681 2083 02687 2091++
7777
0000037900
688
SXXX32 EUMS 110630 RRX
12FD90D0
:PRS 1 /1 1239 1243 1235 1233 1225 1231 1227 1234 1235 1245 1244 1265 :RAD 1 /3 5785 5789 5800 5807 5810 5802 5791 5782 5789 5803 :ENC 3 /6 5525 5549 5553 5519 5530 5542 5543 5543 5517 5509 :RA2 3 /6 4640 4674 4688 4670 4687 4697 4699 4695 4670 4666 :SW1 30 /60 60 :SW2 60 /60 60 :BAT 5 /6 13.4 :WTP 5 /6 28.3 28.3 :NAME 12FD90D0
0000045100
689
SXXX32 EUMS 110630 RRX
16289262
:PRS 1 /1 2372 2394 2378 2386 2377 2393 2393 2380 2398 2392 2385 2407 2402 2397 2395 2395 2398 2408 2405 2395 2408 2407 2405 2407 2415 2400 2407 2402 2397 2410 :RAD 1 /3 7840 7841 7850 7852 7855 7860 7864 7868 7871 7875 7878 7882 7885 7889 7890 7889 7889 7893 7896 7901 :ENC 5 /5 5216 5228 5232 5235 5240 5243 5249 5262 5259 5265 5270 5272 :SW1 30 /60 0 :SW2 60 /60 0 :BAT 14 /15 13.5 :NAME 16289262 /
0000041300
690
SXXX32 EUMS 110630 RRX
262D700E
:PRS 1 /1 2199 2252 2248 2263 2258 2256 2236 2255 2236 2256 2294 2271 2289 2280 2329 2317 2300 2269 2268 2280 2305 2369 2336 2366 2318 2337 2271 2286 2344 2308 :RAD 1 /3 4705 4713 4728 4751 4763 4771 4789 4799 4808 4834 4857 4868 4880 4895 4905 :ENC 5 /5 4797 4834 4851 4886 4884 4936 4954 4983 4994 5035 5049 5092 :SW1 30 /60 60 :BAT 14 /15 14.0 :NAME 262D700E /
0000045700
691
SXXX32 EUMS 110630 RRX
324DF524
:PRS 1 /1 3989 3992 3995 3998 4001 4003 4006 4008 4009 4011 4013 4014 4015 4016 4017 4018 4018 4019 4018 4019 4019 4019 4018 4018 4018 4018 4017 4016 4015 4014 :RAD 1 /3 4046 4052 4060 4062 4064 4063 4061 4057 4055 4054 4049 4043 4038 4028 4017 4002 3988 3974 3959 3942 :ENC 5 /5 2976 2985 2990 2991 2988 2983 2975 2964 2949 2929 2906 2881 :SW1 30 /60 0 0 :SW2 60 /60 60 60 :BAT 14 /15 13.2 :NAME 324DF524 /
0000050500
692
SXXX32 EUMS 110630 RRX
22BF90A6
:PRS 1 /1 122/ 1237 123/ 123/ 1227 123/ 123/ 1635 1232 1639 1243 1236 1238 1243 124/ :RA/ 1 /3 4419 4419 4423 4424 4424 4425 4425 4425 442/ 4426 :SW1 30 /60 60 :SW2 60 /60 60 :WT/ 15 /15 28.8 :BAT/13 /15 13.4/:WAV 10//10 6.3 6.4 6.6 :DAV 10 /10 144 107 106 :WMX 10 /10 7.6 7.9 8.0 :TPA 15 /15 27.8 :TMN 390 /720 27.1 :TMX 390 /720 28.1 :HUM 15 /15 75.7 :PRA 15 /15 1015.6 :RAC 29 /60 0.0 :RDU 29 /60 0 :RIN 29 /60 0.0 :DAC 389 /1440 0.4 :DDR 389 /1440 330
00000000