0000011000
573
UANT01 CWAO 110634
ARP VIR10K 4924N04816W 0634 F390 MS64 307/62 KT
GVKSS DDL YQX 110634 J92A
0000023400
574
SMRA21 RUHB 110600
AAXX 11061
30822 42599 71001 11079 21130 39757 40357 58002 84902=
31913 83/// /3201 11121 21208 30120 40244 53003=
32128 41598 72706 11112 21196 30066 40120 55000 73683 86301 333 91012
91110=
0000012600
575
SIAA19 LFVW 101500 RRE
AAXX 10154
89811 46/// /0929 11074 29093 38247 4//// 5//// 91530
  333 90700 91136=
0000010000
576
SMAA19 LFVW 110600 RRB
AAXX 11064
89807 46/// /0000 10016 29033 39753 4//// 5////=
0000009600
577
UAJP71 RJFF 110633
PIREP
25NM E OF TFE F230 SMTH 260/65KT MS28 AT 0632 BY A320
0000011000
578
UANT99 KDDL 110633
ARP VIR76X 5259N01527W 0633 F370 MS58 263/75 KT
GVROS DDL BYT 110634 F43A
0000069700
579
UDEU02 EGRR 110637 RRA
AMDAR 1106
ASC EU0093   5216N 00447E 110632 F019 PS040 256/029 TB0 S031
333 F019 VG018=
ASC EU0093   5215N 00447E 110632 F021 PS037 252/029 TB0 S031
333 F021 VG017=
ASC EU0093   5215N 00447E 110632 F024 PS030 247/029 TB0 S031
333 F024 VG012=
ASC EU0093   5215N 00447E 110632 F025 PS027 247/028 TB0 S031
333 F025 VG011=
ASC EU0093   5215N 00447E 110632 F027 PS024 246/028 TB0 S031
333 F027 VG006=
ASC EU0093   5214N 00447E 110633 F030 PS017 241/028 TB0 S031
333 F030 VG011=
UNS EU0093   5212N 00447E 110633 F045 MS015 255/034 TB0 S031
333 F045 VG004=
UNS EU0093   5212N 00442E 110634 F061 MS040 264/030 TB0 S031
333 F061 VG002=
0000011000
580
UANT99 KDDL 110633
ARP QTR722 5552N04159W 0633 F290 MS55 286/25 KT
A7BAB QXT AOW 110634 F16A
0000069700
581
UDEU02 EGRR 110637 RRB
AMDAR 1106
ASC EU0093   5218N 00446E 110631 F000 PS040 193/008 TB1 S031
333 F000 VG025=
ASC EU0093   5218N 00446E 110631 F001 PS040 195/008 TB1 S031
333 F001 VG036=
ASC EU0093   5218N 00446E 110631 F001 PS040 194/009 TB1 S031
333 F001 VG033=
ASC EU0093   5217N 00446E 110632 F004 PS032 210/012 TB0 S031
333 F004 VG018=
ASC EU0093   5217N 00446E 110632 F007 PS027 214/017 TB1 S031
333 F007 VG021=
UNS EU0093   5217N 00446E 110632 F010 PS030 222/019 TB1 S031
333 F010 VG024=
ASC EU0093   5217N 00446E 110632 F012 PS034 238/023 TB1 S031
333 F012 VG028=
ASC EU0093   5216N 00446E 110632 F016 PS045 257/029 TB1 S031
333 F016 VG029=
0000036900
582
UDEU02 EGRR 110637 RRC
AMDAR 1106
ASC EU0164   5941N 01744E 110629 F148 MS220 288/056 TB/ S031=
ASC EU0164   5940N 01742E 110629 F159 MS250 288/056 TB/ S031=
ASC EU0164   5938N 01740E 110629 F170 MS270 288/056 TB/ S031=
ASC EU0164   5937N 01738E 110630 F180 MS300 288/055 TB/ S031=
ASC EU0164   5935N 01736E 110630 F188 MS300 292/056 TB/ S031=
0000017700
583
UDEU02 EGRR 110637 RRD
AMDAR 1106
ASC EU0164   5934N 01733E 110630 F197 MS300 291/062 TB/ S031=
ASC EU0164   5933N 01732E 110631 F200 MS300 291/064 TB/ S031=
0000011000
584
UANT99 KDDL 110634
ARP DLH457 5604N03308W 0634 F330 MS60 223/52 KT
DABYA QXT AME 110634 F66A
0000011100
585
UANT99 KDDL 110634
ARP DAL403 4838N03218W 0634 F350 MS47 201/42 KT
N840MH QXT AOW 110634 F40A
0000011100
586
UANT99 KDDL 110634
ARP UAL909 5554N02843W 0634 F350 MS61 221/71 KT
N652UA DDL XXW 110634 F87A
0000011000
587
UANT99 KDDL 110634
ARP ACA888 5150N03614W 0634 F360 MS55 220/25 KT
CGLCA DDL IG1 110634 F42A
0000029300
588
UDAS02 BABJ 110627
AMDAR 1106
DES CNFPQK 3103N 12120E 110622 F014 PS008 089/009 TB/ S//1=
DES CNFPQK 3105N 12120E 110623 F014 PS008 086/013 TB/ S//1=
DES CNFPQK 3107N 12120E 110624 F010 PS018 089/013 TB/ S//1=
DES CNFPQK 3108N 12120E 110624 F007 PS025 076/011 TB/ S//1=
0000078900
589
UDAS02 BABJ 110626
AMDAR 1106
DES CNFPQL 3134N 10619E 110612 F319 MS456 256/088 TB/ S//1=
LVR CNFPQL 3152N 10641E 110615 F311 MS445 251/081 TB/ S//1=
LVR CNFPQL 3210N 10704E 110618 F311 MS448 250/083 TB/ S//1=
LVR CNFPQL 3228N 10727E 110621 F311 MS455 250/082 TB/ S//1=
ASC CNFPTK 3853N 11835E 110622 F182 MS290 278/045 TB/ S//1=
ASC CNFPTK 3853N 11840E 110623 F199 MS321 277/049 TB/ S//1=
ASC CNFPTK 3852N 11845E 110624 F217 MS368 272/051 TB/ S//1=
ASC CNFPTK 3851N 11850E 110624 F226 MS373 268/060 TB/ S//1=
ASC CNFOZM 1823N 10934E 110623 F077 PS059 327/010 TB/ S//1=
ASC CNFOZM 1824N 10935E 110623 F084 PS039 332/009 TB/ S//1=
ASC CNFOZM 1827N 10936E 110624 F097 PS108 253/014 TB/ S//1=
ASC CNFOZM 1829N 10938E 110624 F107 PS083 242/012 TB/ S//1=
0000024100
590
SMCD01 FTTJ 110600
AAXX 11064
64700 31930 50208 10145 20008 39814 40152 70622 80002
  333 01400 20145 51211 55105 58007 85075=
64750 32960 70000 10174 20058 39711 40123 80002
  333 01200 20168 51121 55088 58018 87075=
0000013400
591
SMIN90 VILK 110600
AAXX 11064
42479 21594 51405 10178 20168 40173 71092 83330
  333 59003 6005/ 83620 81930 84360=
0000063900
592
SMIN40 DEMS 110600
AAXX 11064
42111 31596 32702 10134 20078 39393 40178 70162 81130
  333 58007 81830 83360=
42123 31995 00000 10160 20062 40215 70500
  333 58018=
42435 32996 40501 10152 20040 40236 80001
  333 58039 84070=
42479 21594 51405 10178 20168 40173 71092 83330
  333 59003 6008/ 83620 81930 84360=
42498 21494 80000 10152 20145 40195 76166 8552/
  333 58035 6001/ 85615 88458=
42542 31595 00506 10150 20059 39600 40196 70500
  333 58024=
43063 31996 00000 10234 20093 39521 40145 70500
  333 58009=
43157 32997 00501 10250 20101 39510 40142
  333 58004=
42367 NIL=
42747 NIL=
00000000